sequenceNumber,corporateNumber,process,correct,updateDate,changeDate,name,nameImageId,kind,prefectureName,cityName,streetNumber,addressImageId,prefectureCode,cityCode,postCode,addressOutside,addressOutsideImageId,closeDate,closeCause,successorCorporateNumber,changeCause,assignmentDate,latest,enName,enPrefectureName,enCityName,enAddressOutside,furigana,hihyoji
9,1010001255137,新規,0,2025-05-26,2025-05-26,株式会社支援堂,,株式会社,東京都,中央区,日本橋室町１丁目１１番１２号日本橋水野ビル７階,,13,102,1030022,,,,,,,2025-05-26,1,,,,,シエンドウ,0
10,1010001255302,新規,0,2025-05-26,2025-05-26,株式会社ＴＨＥ・ＴＯＲＣＨ,,株式会社,東京都,千代田区,平河町２丁目５番３号,,13,101,1020093,,,,,,,2025-05-26,1,,,,,ザトーチ,0
11,1010001255319,新規,0,2025-05-26,2025-05-26,ＮｅｘａＨｅａｌｔｈ　Ｓｏｌｕｔｉｏｎｓ株式会社,,株式会社,東京都,中央区,新川１丁目２４番１２号ＳＨビル１階,,13,102,1040033,,,,,,,2025-05-26,1,,,,,ネクサヘルスソリューションズ,0
12,1010001255343,新規,0,2025-05-26,2025-05-26,株式会社Ａｕｆｅｎｓｅ　Ｔｅｃｈｎｏｌｏｇｉｅｓ,,株式会社,東京都,文京区,白山１丁目１番１－１１０１号,,13,105,1130001,,,,,,,2025-05-26,1,,,,,オーフェンステクノロジーズ,0
14,1010003047441,新規,0,2025-05-26,2025-05-26,八戸ＡＨ合同会社,,合同会社,東京都,千代田区,大手町１丁目５番１号,,13,101,1000004,,,,,,,2025-05-26,1,,,,,ハチノヘエーエイチ,0
15,1010003047458,新規,0,2025-05-26,2025-05-26,ＫＨＣ　Ｈｏｔｅｌ　Ｉｎｖｅｓｔｍｅｎｔｓ合同会社,,合同会社,東京都,千代田区,丸の内１丁目４番１号東京共同会計事務所内,,13,101,1000005,,,,,,,2025-05-26,1,,,,,ケーエッチシーホテルインベストメンツ,0
20,1010101016694,新規,0,2025-05-26,2025-05-26,株式会社華昇,,株式会社,東京都,八王子市,旭町６－１０第５１東京ビル３Ｆ,,13,201,1920083,,,,,,,2025-05-26,1,,,,,カショウ,0
25,1010401190396,新規,0,2025-05-26,2025-05-26,株式会社グレース,,株式会社,東京都,港区,愛宕１丁目１番１号,,13,103,1050002,,,,,,,2025-05-26,1,,,,,グレース,0
26,1010401190479,新規,0,2025-05-26,2025-05-26,ネイチャーサプライ株式会社,,株式会社,東京都,港区,南麻布４丁目１２番２５号南麻布セントレ２Ｆ,,13,103,1060047,,,,,,,2025-05-26,1,,,,,ネイチャーサプライ,0
41,1010901057384,新規,0,2025-05-26,2025-05-26,株式会社ＧｒｏｗｔｈＦｏｒ,,株式会社,東京都,世田谷区,北沢１丁目２４－１５－１,,13,112,1550031,,,,,,,2025-05-26,1,,,,,グロウスフォー,0
50,1011101111741,新規,0,2025-05-26,2025-05-26,株式会社ＴＲＩＰＬＥ,,株式会社,東京都,新宿区,西新宿７丁目７－３０－１１０８,,13,104,1600023,,,,,,,2025-05-26,1,,,,,トリプル,0
52,1011103015882,新規,0,2025-05-26,2025-05-26,合同会社ＥＫライフ,,合同会社,東京都,新宿区,西新宿３丁目３－１３西新宿水間ビル２Ｆ,,13,104,1600023,,,,,,,2025-05-26,1,,,,,イーケーライフ,0
54,1011301030584,新規,0,2025-05-26,2025-05-26,サイバーステップノヴァ株式会社,,株式会社,東京都,杉並区,和泉１丁目２２番１９号,,13,115,1680063,,,,,,,2025-05-26,1,,,,,サイバーステップノヴァ,0
57,1011303005568,新規,0,2025-05-26,2025-05-26,合同会社ＵｔｈＣａｔａｌｙｓｔ　Ｄｉｒｅｃｔｉｏｎ,,合同会社,東京都,杉並区,上井草３丁目３２－８－５０３,,13,115,1670023,,,,,,,2025-05-26,1,,,,,ユースカタリストディレクション,0
58,1011401027118,新規,0,2025-05-26,2025-05-26,ＧＰＭＳ株式会社,,株式会社,東京都,板橋区,板橋２丁目６４番１２－１００４号,,13,119,1730004,,,,,,,2025-05-26,1,,,,,ジーピーエムエス,0
68,1011801046188,新規,0,2025-05-26,2025-05-26,Ｈ＆Ｔ株式会社,,株式会社,東京都,葛飾区,立石５丁目４番１７号和光マンション１０４号,,13,122,1240012,,,,,,,2025-05-26,1,,,,,エイチアンドティ,0
70,1012403007149,新規,0,2025-05-26,2025-05-26,合同会社ＨＯＴ,,合同会社,東京都,三鷹市,下連雀２丁目５－１６,,13,204,1810013,,,,,,,2025-05-26,1,,,,,,0
71,1012703003277,新規,0,2025-05-26,2025-05-26,合同会社アールカンパニー,,合同会社,東京都,西東京市,西原町４丁目５番９７号,,13,229,1880004,,,,,,,2025-05-26,1,,,,,アールカンパニー,0
73,1013303007684,新規,0,2025-05-26,2025-05-26,合同会社ＲＥＳウェブ企画,,合同会社,東京都,豊島区,東池袋２丁目６２番８号ＢＩＧオフィスプラザ池袋１２０６,,13,116,1700013,,,,,,,2025-05-26,1,,,,,アールイーエスウェブキカク,0
77,1020001163017,新規,0,2025-05-26,2025-05-26,株式会社ｅｎ‐ｚｉｎｅ,,株式会社,神奈川県,横浜市南区,中里４丁目１０番３号,,14,105,2320063,,,,,,,2025-05-26,1,,,,,エンジン,0
78,1020001163025,新規,0,2025-05-26,2025-05-26,Ｊｕｐｉｔｅｒ株式会社,,株式会社,神奈川県,川崎市川崎区,砂子１丁目８番４号,,14,131,2100006,,,,,,,2025-05-26,1,,,,,,0
79,1020001163033,新規,0,2025-05-26,2025-05-26,ボーダ株式会社,,株式会社,神奈川県,川崎市中原区,上小田中６丁目４７番１５号アルデール中原２０３,,14,133,2110053,,,,,,,2025-05-26,1,,,,,ボーダ,0
85,1020005016864,新規,0,2025-05-26,2025-05-26,一般社団法人いきいきライフ協会横浜青葉,,その他の設立登記法人,神奈川県,横浜市青葉区,奈良５丁目２１番地３６,,14,117,2270038,,,,,,,2025-05-26,1,,,,,イキイキライフキョウカイヨコハマアオバ,0
88,1021001085317,新規,0,2025-05-26,2025-05-26,株式会社和建設,,株式会社,神奈川県,厚木市,林２丁目１３番３６号,,14,212,2430816,,,,,,,2025-05-26,1,,,,,ノドカンセツ,0
99,1040001138909,新規,0,2025-05-26,2025-05-26,株式会社そば処よし田,,株式会社,千葉県,松戸市,小金上総町１９－３,,12,207,2700015,,,,,,,2025-05-26,1,,,,,ソバドコロヨシダ,0
108,1080401027922,新規,0,2025-05-26,2025-05-26,株式会社わんぱんまん,,株式会社,静岡県,浜松市中央区,野口町５０９番地の１,,22,138,4300919,,,,,,,2025-05-26,1,,,,,ワンパンマン,0
109,1080401027930,新規,0,2025-05-26,2025-05-26,株式会社Ｗｏｏｄ　Ｍａｃ,,株式会社,静岡県,浜松市中央区,大平台２丁目４番１４号,,22,138,4328068,,,,,,,2025-05-26,1,,,,,ウッドマック,0
111,1080403005265,新規,0,2025-05-26,2025-05-26,合同会社Ｓ＆Ｓ,,合同会社,静岡県,浜松市中央区,萩丘２丁目２１番１５号,,22,138,4338121,,,,,,,2025-05-26,1,,,,,エスアンドエス,0
127,1120001276007,新規,0,2025-05-26,2025-05-26,株式会社ダマドリーム,,株式会社,大阪府,大阪市北区,天神橋１丁目１９番１５号ヴィラナリー天神橋６０１号室,,27,127,5300041,,,,,,,2025-05-26,1,,,,,ダマドリーム,0
128,1120001276072,新規,0,2025-05-26,2025-05-26,旭天株式会社,,株式会社,大阪府,大阪市生野区,巽西３丁目１３番１０－３０３号,00139288,27,116,5440012,,,,,,,2025-05-26,1,,,,,キョクテン,0
129,1120001276130,新規,0,2025-05-26,2025-05-26,株式会社アーキテクトプラス,,株式会社,大阪府,枚方市,走谷１丁目２３－１８,,27,210,5730063,,,,,,,2025-05-26,1,,,,,アーキテクトプラス,0
130,1120001276147,新規,0,2025-05-26,2025-05-26,昭俊株式会社,,株式会社,大阪府,大阪市浪速区,木津川２丁目４番５２号,,27,111,5560027,,,,,,,2025-05-26,1,,,,,ショウシュン,0
135,1120003029552,新規,0,2025-05-26,2025-05-26,合同会社トラストリンク,,合同会社,大阪府,大阪市西区,土佐堀３丁目３番２‐４０３号室,,27,106,5500001,,,,,,,2025-05-26,1,,,,,トラストリンク,0
136,1120101071712,新規,0,2025-05-26,2025-05-26,禾睦ＰＥＡＣＥ株式会社,,株式会社,大阪府,堺市堺区,中瓦町１丁２－９－５０４,,27,141,5900077,,,,,,,2025-05-26,1,,,,,カボクピース,0
137,1120101071745,新規,0,2025-05-26,2025-05-26,株式会社三創,,株式会社,大阪府,堺市堺区,柏木町１丁１番１１号シャトー富士１Ｆ,,27,141,5900837,,,,,,,2025-05-26,1,,,,,サンソウ,0
141,1120901050915,新規,0,2025-05-26,2025-05-26,ＷＲ不動産株式会社,,株式会社,大阪府,吹田市,広芝町８番１２－４１１号,,27,205,5640052,,,,,,,2025-05-26,1,,,,,ダブルアールフドウサン,0
142,1120901050923,新規,0,2025-05-26,2025-05-26,株式会社クラッドネッツ,,株式会社,大阪府,豊中市,桜の町６丁目１番６号エスペランサ桜の町２号室,,27,203,5600054,,,,,,,2025-05-26,1,,,,,クラッドネッツ,0
143,1120903005685,新規,0,2025-05-26,2025-05-26,合同会社ＳＩＺＵＫＯ,,合同会社,大阪府,高槻市,南庄所町２番１８号,,27,207,5690063,,,,,,,2025-05-26,1,,,,,シズコ,0
148,1130001079747,新規,0,2025-05-26,2025-05-26,Ａｉｄｅａｍｕｓｅ株式会社,,株式会社,京都府,京都市下京区,小稲荷町８５－２Ｇｒａｎｄ－Ｋ京都駅前ビル２０１,,26,106,6008208,,,,,,,2025-05-26,1,,,,,アイデアミューズ,0
153,1140001138650,新規,0,2025-05-26,2025-05-26,ＡＶＯＬ　Ｊａｐａｎ株式会社,,株式会社,兵庫県,尼崎市,塚口町１丁目２２番地の９,,28,202,6610002,,,,,,,2025-05-26,1,,,,,アボルジャパン,0
154,1140003022092,新規,0,2025-05-26,2025-05-26,合同会社Ｄｙｔｅｃｈ,,合同会社,兵庫県,神戸市北区,藤原台南町４丁目１番７－２０３号,,28,109,6511303,,,,,,,2025-05-26,1,,,,,ダイテック,0
157,1150001028157,新規,0,2025-05-26,2025-05-26,株式会社Ｆａｃｔｉｏ,,株式会社,奈良県,奈良市,二名３丁目９４９－３,,29,201,6310072,,,,,,,2025-05-26,1,,,,,ファクティオ,0
158,1160001026779,新規,0,2025-05-26,2025-05-26,株式会社光和設備,,株式会社,滋賀県,東近江市,平松町５４７番地１,,25,213,5270134,,,,,,,2025-05-26,1,,,,,コウワセツビ,0
159,1170001018635,新規,0,2025-05-26,2025-05-26,株式会社松山工業,,株式会社,和歌山県,和歌山市,六十谷４４番地７,,30,201,6408482,,,,,,,2025-05-26,1,,,,,マツヤマコウギョウ,0
176,1180001166920,新規,0,2025-05-26,2025-05-26,株式会社名古屋東海ファミリー探偵社,,株式会社,愛知県,名古屋市中区,栄１丁目２２番７号,,23,106,4600008,,,,,,,2025-05-26,1,,,,,ナゴヤトウカイファミリータンテイシャ,0
177,1180001166929,新規,0,2025-05-26,2025-05-26,株式会社Ｌｕｉｚ,,株式会社,愛知県,名古屋市中川区,八熊２丁目６番１６号藤和シ　ティホームズ八熊通７０２,,23,110,4540013,,,,,,,2025-05-26,1,,,,,ルイズ,0
178,1180001166945,新規,0,2025-05-26,2025-05-26,株式会社ケイシ,,株式会社,愛知県,名古屋市西区,砂原町１０７番地,,23,104,4520811,,,,,,,2025-05-26,1,,,,,ケイシ,0
188,1210001020173,新規,0,2025-05-26,2025-05-26,株式会社ｅｎｉｃｏ,,株式会社,福井県,福井市,木田町２４０４番地１,,18,201,9188106,,,,,,,2025-05-26,1,,,,,エニコ,0
193,1240001064960,新規,0,2025-05-26,2025-05-26,株式会社ウィルネスト,,株式会社,広島県,広島市南区,翠５丁目１５番２－３０３号,,34,103,7340005,,,,,,,2025-05-26,1,,,,,ウィルネスト,0
194,1240001064969,新規,0,2025-05-26,2025-05-26,株式会社ＮＡＯ,,株式会社,広島県,庄原市,口和町大月２０５番地,,34,210,7280503,,,,,,,2025-05-26,1,,,,,ナオ,0
195,1240001064977,新規,0,2025-05-26,2025-05-26,松電工株式会社,,株式会社,広島県,広島市西区,井口５丁目１番１４号,,34,104,7330842,,,,,,,2025-05-26,1,,,,,マツデンコウ,0
212,1290801031560,新規,0,2025-05-26,2025-05-26,Ｍｉｎｄ　＆　Ｇｒｏｗｔｈ株式会社,,株式会社,福岡県,北九州市若松区,畑谷町８番１８号,,40,103,8080055,,,,,,,2025-05-26,1,,,,,マインドアンドグロース,0
213,1320001021111,新規,0,2025-05-26,2025-05-26,明大ホールディングス株式会社,,株式会社,大分県,別府市,船小路町３番４３号,,44,202,8740922,,,,,,,2025-05-26,1,,,,,メイダイホールディングス,0
216,1340001027362,新規,0,2025-05-26,2025-05-26,株式会社チェンジワークス,,株式会社,鹿児島県,鹿児島市,西陵４丁目５１番１号,,46,201,8900032,,,,,,,2025-05-26,1,,,,,チェンジワークス,0
219,1350001019540,新規,0,2025-05-26,2025-05-26,株式会社ニュートン,,株式会社,宮崎県,宮崎市,末広２丁目１番６号,,45,201,8800012,,,,,,,2025-05-26,1,,,,,ニュートン,0
224,1360001035223,新規,0,2025-05-26,2025-05-26,株式会社Ａｃｑｒｅｓｔａ,,株式会社,沖縄県,那覇市,久茂地１丁目１－１９Ｆ,,47,201,9000015,,,,,,,2025-05-26,1,,,,,アクレスタ,0
227,1360003014951,新規,0,2025-05-26,2025-05-26,合同会社ＭＹ,,合同会社,沖縄県,那覇市,繁多川１丁目５番３９号ヒルズイン繁多川２０７,,47,201,9020071,,,,,,,2025-05-26,1,,,,,エムワイ,0
233,1380003006055,新規,0,2025-05-26,2025-05-26,ＢＬＡＮＣＯ合同会社,,合同会社,福島県,二本松市,根崎２丁目４７番地,,07,210,9640903,,,,,,,2025-05-26,1,,,,,ブランコ,0
237,1420001019153,新規,0,2025-05-26,2025-05-26,株式会社Ｍ’ｓ　Ａｒｔ,,株式会社,青森県,青森市,青葉２丁目４番地１,,02,201,0300846,,,,,,,2025-05-26,1,,,,,エムズアート,0
243,1490001011054,新規,0,2025-05-26,2025-05-26,岡林メンテナンス株式会社,,株式会社,高知県,高知市,朝倉甲１００番地３２,,39,201,7808061,,,,,,,2025-05-26,1,,,,,オカバヤシメンテナンス,0
246,1700150130698,新規,0,2025-05-26,2025-05-26,ｓｈｅｎｚｈｅｎｓｈｉｊｕｎｃｈｅｎｄｉａｎｚｉｓｈａｎｇｗｕｙｏｕｘｉａｎｚｅｒｅｎｇｏｎｇｓｉ,,外国会社等,,,,,,,,Ｎｏ．１１　Ｚｈｅｎｇｆｅｎｇ　Ｎａｎ　Ｒｏａｄ，Ｈｕａｉｄｅ　Ｃｏｍｍｕｎｉｔｙ，Ｆｕｙｏｎｇ　Ｓｔｒｅｅｔ，Ｂａｏａｎ　Ｄｉｓｔｒｉｃｔ　Ａ３０１　Ａｎｄｅ　Ｂｕｉｌｄｉｎｇ　Ｓｈｅｎｚｈｅｎ　Ｇｕａｎｇｄｏｎｇ　５１８０００　ＣＮ,,,,,,2025-05-26,1,,,,,シェンジェンシージンチェンディエンズーシャンウーヨウシエンゾーレンゴンスー,0
247,1700150130715,新規,0,2025-05-26,2025-05-26,ＣＥＹＬＯＮ　ＡＵＴＯ　ＭＯＴＯＲＳ,,外国会社等,千葉県,山武市,日向台１番地１０Ｄ,,12,237,2891206,スリランカ民主社会主義共和国、コロンボ、ウェッラムピティヤ、ブランディヤワッタ、Ｎｏ．１９／２,,,,,,2025-05-26,1,,,,,セイロンオートモータース,0
257,2010003047382,新規,0,2025-05-26,2025-05-26,合同会社ＮＫＯ,,合同会社,東京都,中央区,銀座１丁目２２番１１号銀座大竹ビジデンス２Ｆ,,13,102,1040061,,,,,,,2025-05-26,1,,,,,エヌケーオー,0
258,2010003047440,新規,0,2025-05-26,2025-05-26,ＭＳ三日町合同会社,,合同会社,東京都,千代田区,大手町１丁目５番１号,,13,101,1000004,,,,,,,2025-05-26,1,,,,,エムエスミッカマチ,0
261,2010401190131,新規,0,2025-05-26,2025-05-26,株式会社メロディアス,,株式会社,東京都,港区,六本木５丁目１６番５－２０３号,,13,103,1060032,,,,,,,2025-05-26,1,,,,,メロディアス,0
262,2010401190239,新規,0,2025-05-26,2025-05-26,株式会社ＣａｒｅｅｒＣｈａｉｎ,,株式会社,東京都,港区,北青山１丁目３番１号アールキューブ青山３階,,13,103,1070061,,,,,,,2025-05-26,1,,,,,キャリアチェーン,0
263,2010401190354,新規,0,2025-05-26,2025-05-26,株式会社Ｍｏｌａｍｏｌａ,,株式会社,東京都,港区,新橋４丁目１４番１新橋ＡＵＮＢＬＤＧ４階,,13,103,1050004,,,,,,,2025-05-26,1,,,,,モーラモーラ,0
264,2010401190461,新規,0,2025-05-26,2025-05-26,株式会社Ｍｅｎｔａｌｌｙ　Ｃａｒｅｅｒ,,株式会社,東京都,港区,芝浦３丁目１７番１１－８０１号,,13,103,1080023,,,,,,,2025-05-26,1,,,,,メンタリーキャリア,0
273,2010403035094,新規,0,2025-05-26,2025-05-26,合同会社雨後晴,,合同会社,東京都,港区,高輪１丁目２３－２３－３４０２,,13,103,1080074,,,,,,,2025-05-26,1,,,,,アメノチハレ,0
289,2010801036181,新規,0,2025-05-26,2025-05-26,ＲＯＯＯＴＳ株式会社,,株式会社,東京都,大田区,田園調布南３０番１０号,,13,111,1450076,,,,,,,2025-05-26,1,,,,,,0
292,2010901057417,新規,0,2025-05-26,2025-05-26,株式会社ワンフェニックス,,株式会社,東京都,世田谷区,三軒茶屋２丁目１６－５古本ビル４階,,13,112,1540024,,,,,,,2025-05-26,1,,,,,ワンフェニックス,0
300,2011001169111,新規,0,2025-05-26,2025-05-26,株式会社ｆｌｅｕｒｇｒａｎｃｅ,,株式会社,東京都,渋谷区,道玄坂１丁目１６－６二葉ビル８ｂ,,13,113,1500043,,,,,,,2025-05-26,1,,,,,フルーグランス,0
301,2011003021617,新規,0,2025-05-26,2025-05-26,ＩＥＡコンサルティング合同会社,,合同会社,東京都,渋谷区,千駄ヶ谷３丁目１３番９号北参道パークビル,,13,113,1510051,,,,,,,2025-05-26,1,,,,,アイイーエーコンサルティング,0
307,2011101111897,新規,0,2025-05-26,2025-05-26,株式会社Ｌｏｃｉ　ＡＩ,,株式会社,東京都,新宿区,西新宿３丁目３番１３号西新宿水間ビル２Ｆ,,13,104,1600023,,,,,,,2025-05-26,1,,,,,ロキエーアイ,0
314,2011401027117,新規,0,2025-05-26,2025-05-26,周栄建設株式会社,,株式会社,東京都,板橋区,常盤台４丁目２３番４号,,13,119,1740071,,,,,,,2025-05-26,1,,,,,シュウエイケンセツ,0
319,2011803006874,新規,0,2025-05-26,2025-05-26,合同会社ＣａｎＢｅｅ,,合同会社,東京都,葛飾区,白鳥３丁目１９番７号,,13,122,1250063,,,,,,,2025-05-26,1,,,,,キャンビィ,0
320,2012401043153,新規,0,2025-05-26,2025-05-26,株式会社稲妻,,株式会社,東京都,三鷹市,大沢６丁目３番５０号－１,,13,204,1810015,,,,,,,2025-05-26,1,,,,,イナヅマ,0
323,2012701018887,新規,0,2025-05-26,2025-05-26,株式会社ＴＯＭＡＩ,,株式会社,東京都,小平市,鈴木町２丁目２２８番地の２３,,13,211,1870011,,,,,,,2025-05-26,1,,,,,トマイ,0
324,2012801023977,新規,0,2025-05-26,2025-05-26,株式会社ＭＡＪＩ,,株式会社,東京都,国分寺市,南町３丁目２６番３３号２Ｆ,,13,214,1850021,,,,,,,2025-05-26,1,,,,,マジ,0
326,2012803003746,新規,0,2025-05-26,2025-05-26,合同会社青鉄,,合同会社,東京都,立川市,幸町２丁目５５番１４,,13,202,1900002,,,,,,,2025-05-26,1,,,,,アオテツ,0
335,2020001163008,新規,0,2025-05-26,2025-05-26,株式会社ＳＡＳＡ‐ＤＥＮ,,株式会社,神奈川県,横浜市泉区,ゆめが丘１番地４,,14,116,2450019,,,,,,,2025-05-26,1,,,,,ササデン,0
339,2020003028547,新規,0,2025-05-26,2025-05-26,エー・ジーサービス合同会社,,合同会社,神奈川県,横浜市南区,別所中里台１８番６号,,14,105,2320065,,,,,,,2025-05-26,1,,,,,エージーサービス,0
352,2040001138908,新規,0,2025-05-26,2025-05-26,株式会社ＨｉｔｏＭｉｒａｉｚ,,株式会社,千葉県,印西市,牧の原６丁目６－１７４,,12,231,2701331,,,,,,,2025-05-26,1,,,,,ヒトミライズ,0
361,2080003003461,新規,0,2025-05-26,2025-05-26,合同会社池川,,合同会社,静岡県,静岡市葵区,横内町６７番地,,22,101,4200832,,,,,,,2025-05-26,1,,,,,イケガワ,0
368,2090001019285,新規,0,2025-05-26,2025-05-26,株式会社江崎新太郎,00139292,株式会社,山梨県,北杜市,大泉町谷戸５７７１番地２１０,,19,209,4091502,,,,,,,2025-05-26,1,,,,,エサキシンタロウ,0
372,2100003008185,新規,0,2025-05-26,2025-05-26,合同会社善樹,,合同会社,長野県,北佐久郡軽井沢町,大字長倉５１７１番地１,,20,321,3890111,,,,,,,2025-05-26,1,,,,,ゼンジュ,0
377,2110001039289,新規,0,2025-05-26,2025-05-26,株式会社Ｎｅｖｅｒ,,株式会社,新潟県,新潟市中央区,東堀通４番町４５１番地,,15,103,9518065,,,,,,,2025-05-26,1,,,,,ネバー,0
397,2120001276071,新規,0,2025-05-26,2025-05-26,恩来株式会社,,株式会社,大阪府,大阪市此花区,伝法６丁目１番５３号,,27,104,5540002,,,,,,,2025-05-26,1,,,,,オンライ,0
398,2120001276121,新規,0,2025-05-26,2025-05-26,株式会社マメ,,株式会社,大阪府,大阪市北区,梅田１丁目１１番４号９階９２３‐１７２７号,,27,127,5300001,,,,,,,2025-05-26,1,,,,,マメ,0
399,2120001276146,新規,0,2025-05-26,2025-05-26,蓮凱株式会社,,株式会社,大阪府,大阪市西成区,北津守４丁目４番７５－６２号,,27,122,5570061,,,,,,,2025-05-26,1,,,,,レンカイ,0
408,2120901050922,新規,0,2025-05-26,2025-05-26,株式会社ＩＭＡＫＯＮＯ,,株式会社,大阪府,茨木市,庄２丁目１－３,,27,211,5670806,,,,,,,2025-05-26,1,,,,,イマコノ,0
412,2122001039268,新規,0,2025-05-26,2025-05-26,株式会社イーグル,,株式会社,大阪府,東大阪市,吉原１丁目７番９号,,27,227,5780904,,,,,,,2025-05-26,1,,,,,イーグル,0
416,2130003010485,新規,0,2025-05-26,2025-05-26,合同会社アドバンス,,合同会社,京都府,京都市上京区,妙蓮寺前町３５８,,26,102,6028418,,,,,,,2025-05-26,1,,,,,アドバンス,0
425,2150001028156,新規,0,2025-05-26,2025-05-26,株式会社Ａｒｒａｎｇｅ,,株式会社,奈良県,奈良市,南京終町７０３番地１,,29,201,6308141,,,,,,,2025-05-26,1,,,,,アレンジ,0
434,2180001166928,新規,0,2025-05-26,2025-05-26,株式会社かけはし,,株式会社,愛知県,海部郡蟹江町,大字蟹江新町字上之割７７番地８,,23,425,4970035,,,,,,,2025-05-26,1,,,,,カケハシ,0
443,2180303006583,新規,0,2025-05-26,2025-05-26,合同会社Ｔａｇａｔａｍｅ,,合同会社,愛知県,豊川市,八幡町上宿８４―１セリオ上宿Ｃ―３,,23,207,4420857,,,,,,,2025-05-26,1,,,,,タガタメ,0
446,2190001032229,新規,0,2025-05-26,2025-05-26,株式会社モリテック,,株式会社,三重県,志摩市,阿児町鵜方２００９番地１,,24,215,5170501,,,,,,,2025-05-26,1,,,,,モリテック,0
448,2210001020172,新規,0,2025-05-26,2025-05-26,株式会社幸房,,株式会社,福井県,坂井市,丸岡町羽崎第１２号１１番地１１,,18,210,9100367,,,,,,,2025-05-26,1,,,,,コウボウ,0
455,2230001020922,新規,0,2025-05-26,2025-05-26,株式会社宮下瓦,,株式会社,富山県,氷見市,中村２０番地,,16,205,9350252,,,,,,,2025-05-26,1,,,,,ミヤシタカワラ,0
456,2250001021159,新規,0,2025-05-26,2025-05-26,株式会社想実,,株式会社,山口県,宇部市,野原１丁目１５番２４－１号,,35,202,7550024,,,,,,,2025-05-26,1,,,,,ソウミ,0
473,2290001110131,新規,0,2025-05-26,2025-05-26,株式会社ジェミニ,,株式会社,福岡県,福岡市中央区,薬院３丁目１６番２６号西鉄薬院ビル５階,,40,133,8100022,,,,,,,2025-05-26,1,,,,,ジェミニ,0
475,2290003016896,新規,0,2025-05-26,2025-05-26,合同会社ＴＣＣ,,合同会社,福岡県,福岡市西区,今宿東１丁目１２番４号,,40,135,8190161,,,,,,,2025-05-26,1,,,,,,0
477,2290805009833,新規,0,2025-05-26,2025-05-26,一般社団法人北九州マンション管理組合連合会,,その他の設立登記法人,福岡県,北九州市小倉北区,愛宕１丁目３番３号５－Ｃ,,40,106,8030828,,,,,,,2025-05-26,1,,,,,キタキュウシュウマンションカンリクミアイレンゴウカイ,0
478,2300001014198,新規,0,2025-05-26,2025-05-26,久光ファーマ株式会社,,株式会社,佐賀県,鳥栖市,田代大官町４０８番地,,41,203,8410017,,,,,,,2025-05-26,1,,,,,ヒサミツファーマ,0
479,2310001019618,新規,0,2025-05-26,2025-05-26,碩文株式会社,,株式会社,長崎県,長崎市,出島町１２番１号,,42,201,8500862,,,,,,,2025-05-26,1,,,,,セキブン,0
480,2320001021110,新規,0,2025-05-26,2025-05-26,株式会社電幸舎,,株式会社,大分県,大分市,上田町２丁目１番３８号グリーンコートＢ１０２,,44,201,8700886,,,,,,,2025-05-26,1,,,,,デンコウシャ,0
481,2320003004674,新規,0,2025-05-26,2025-05-26,合同会社Ｉ・ＳＵＮＳＵＮ,,合同会社,大分県,豊後高田市,新町２８２８番地,,44,209,8790628,,,,,,,2025-05-26,1,,,,,アイサンサン,0
486,2340001027353,新規,0,2025-05-26,2025-05-26,株式会社ＢＩＧ,,株式会社,鹿児島県,鹿児島市,桜ヶ丘３丁目１５番地３６,,46,201,8910175,,,,,,,2025-05-26,1,,,,,ビッグ,0
487,2350001019548,新規,0,2025-05-26,2025-05-26,株式会社カンシャ,,株式会社,宮崎県,宮崎市,神宮東２丁目８番地３０ノッティングヒルズ２０３号,,45,201,8800056,,,,,,,2025-05-26,1,,,,,カンシャ,0
497,2360003014942,新規,0,2025-05-26,2025-05-26,合同会社こどもの森,,合同会社,沖縄県,糸満市,西崎町３丁目３５６番地,,47,210,9010306,,,,,,,2025-05-26,1,,,,,コドモノモリ,0
500,2380005012975,新規,0,2025-05-26,2025-05-26,一般社団法人針生山荘,,その他の設立登記法人,福島県,南会津郡南会津町,針生字昼滝山８５７番地１３５,,07,368,9670026,,,,,,,2025-05-26,1,,,,,ハリュウサンソウ,0
502,2420001019152,新規,0,2025-05-26,2025-05-26,株式会社ｃｌｏｗｎ,,株式会社,青森県,青森市,大字浜田字豊田１１１番地１メゾンレディジェントＩＩ１０１号室,00139289,02,201,0300843,,,,,,,2025-05-26,1,,,,,クラウン,0
503,2420003003121,新規,0,2025-05-26,2025-05-26,合同会社イプシロン,,合同会社,青森県,青森市,矢作１丁目１７番２号,,02,201,0300917,,,,,,,2025-05-26,1,,,,,,0
505,2430001094475,新規,0,2025-05-26,2025-05-26,ＶＯＲＴＥＭ株式会社,,株式会社,北海道,札幌市中央区,南九条西６丁目１番１２－６０２号,,01,101,0640809,,,,,,,2025-05-26,1,,,,,ヴォルテム,0
506,2430001094483,新規,0,2025-05-26,2025-05-26,株式会社ｏｒｅｎ,,株式会社,北海道,札幌市豊平区,中の島一条４丁目４番７－３号,,01,105,0620921,,,,,,,2025-05-26,1,,,,,オレン,0
507,2430001094491,新規,0,2025-05-26,2025-05-26,株式会社オフィスワイズ,,株式会社,北海道,札幌市中央区,大通西５丁目８番地,,01,101,0600042,,,,,,,2025-05-26,1,,,,,オフィスワイズ,0
510,2490001011053,新規,0,2025-05-26,2025-05-26,株式会社Ｏｒｉｇｉｎ,,株式会社,高知県,高知市,朝倉甲１７番地２,,39,201,7808061,,,,,,,2025-05-26,1,,,,,オリジン,0
512,2700150130623,新規,0,2025-05-26,2025-05-26,Ｃｏｍｆｙ　Ｈｅａｌｔｈ　Ｇｒｏｕｐ　Ｃｏ．，Ｌｔｄ．,,外国会社等,,,,,,,,Ｎｏ．２６，Ａｌｙ．９，Ｌｎ．１８１，Ｊｉａｘｉｎｇ　Ｓｔ．，Ｘｉｎｙｉ　Ｄｉｓｔ．，Ｔａｉｐｅｉ　Ｃｉｔｙ　１１０００６，Ｔａｉｗａｎ（Ｒ．Ｏ．Ｃ．）,,,,,,2025-05-26,1,,,,,コンフィヘルスグループカンパニーリミテッド,0
513,2700150130697,新規,0,2025-05-26,2025-05-26,Ｚｈｅｊｉａｎｇ　Ｘｉｎｇｙａｎｇ　Ｆｕｒｎｉｔｕｒｅ　Ｃｏ．，Ｌｔｄ．,,外国会社等,,,,,,,,ｆｌｏｏｒ　２，Ｂｕｉｌｄｉｎｇ　２，Ｎｏ．２２，Ｃｈｕｎｃｈａｏ　Ｒｏａｄ，Ｎｏｎｇｆａ　Ｄｉｓｔｒｉｃｔ，Ｃｈａｎｇａｎ　Ｔｏｗｎ，Ｈａｉｎｉｎｇ　Ｃｉｔｙ，Ｚｈｅｊｉａｎｇ，Ｃｈｉｎａ,,,,,,2025-05-26,1,,,,,ジョージャンシンヤンジャージーヨウシエンゴンスー,0
514,2700150130722,新規,0,2025-05-26,2025-05-26,ＷＥＬＩＭＡＤＡ　ＭＯＴＯＲＳ,,外国会社等,千葉県,山武郡九十九里町,宿２１３３番地Ｄ,,12,403,2830106,スリランカ民主社会主義共和国、ウェリマダ、ヌワラエリヤロード、１１８／Ａ,,,,,,2025-05-26,1,,,,,ウエリマダモータース,0
529,3010001255250,新規,0,2025-05-26,2025-05-26,株式会社Ｏｐｔｐａｓｓ,,株式会社,東京都,中央区,銀座１丁目１２－４Ｎ＆ＥＢＬＤ．７階,,13,102,1040061,,,,,,,2025-05-26,1,,,,,オプティパス,0
530,3010001255259,新規,0,2025-05-26,2025-05-26,ＮＳ３株式会社,,株式会社,東京都,千代田区,神田和泉町１番地６－１６ヤマトビル４０５,,13,101,1010024,,,,,,,2025-05-26,1,,,,,エヌエススリー,0
531,3010001255325,新規,0,2025-05-26,2025-05-26,株式会社ＡＩＣ,,株式会社,東京都,中央区,晴海５丁目５－２－７２２,,13,102,1040053,,,,,,,2025-05-26,1,,,,,エーアイシー,0
543,3010401190320,新規,0,2025-05-26,2025-05-26,ＵＣＭＥ株式会社,,株式会社,東京都,港区,芝２丁目２８番１１－３０４号,,13,103,1050014,,,,,,,2025-05-26,1,,,,,ユーシーミー,0
544,3010401190452,新規,0,2025-05-26,2025-05-26,株式会社Ｒｅｓｏｒｔ＆Ｎｅｘｔ,,株式会社,東京都,港区,赤坂２丁目１４番１２号赤坂第一井上ビル５３２号室,,13,103,1070052,,,,,,,2025-05-26,1,,,,,リゾートアンドネクスト,0
545,3010401190477,新規,0,2025-05-26,2025-05-26,株式会社ＮＹＡＳホールディングス,,株式会社,東京都,港区,赤坂４丁目７番６号赤坂ビジネスコート,,13,103,1070052,,,,,,,2025-05-26,1,,,,,ニャスホールディングス,0
546,3010401190485,新規,0,2025-05-26,2025-05-26,株式会社Ｃｙｂｅｒ　Ｄｅｓｉｇｎ,,株式会社,東京都,港区,六本木６丁目１０番１号六本木ヒルズ森タワー３９階,,13,103,1060032,,,,,,,2025-05-26,1,,,,,サイバーデザイン,0
552,3010403035168,新規,0,2025-05-26,2025-05-26,Ｕｈｎｉｃｅ　Ｊａｐａｎ合同会社,,合同会社,東京都,港区,赤坂２丁目２１番４号天翔赤坂ＡＮＮＥＸビル４１０号室,,13,103,1070052,,,,,,,2025-05-26,1,,,,,ユニスジャパン,0
559,3010601067343,新規,0,2025-05-26,2025-05-26,株式会社ピュアウォークアカデミー,,株式会社,東京都,江東区,東砂１丁目６番７号山本ビル１Ｆ,,13,108,1360074,,,,,,,2025-05-26,1,,,,,ピュアウォークアカデミー,0
566,3010803005407,新規,0,2025-05-26,2025-05-26,合同会社Ｒｏｓｅ　Ｇｒａｃｅ,,合同会社,東京都,大田区,田園調布２丁目４９番３－３０１号,,13,111,1450071,,,,,,,2025-05-26,1,,,,,ローズグレイス,0
572,3011003021681,新規,0,2025-05-26,2025-05-26,Ｌｉｂｅｃｃｏ合同会社,,合同会社,東京都,渋谷区,道玄坂１丁目１０番８号渋谷道玄坂東急ビル２Ｆ‐Ｃ,,13,113,1500043,,,,,,,2025-05-26,1,,,,,リベコ,0
576,3011101111839,新規,0,2025-05-26,2025-05-26,エンリアルティ株式会社,,株式会社,東京都,新宿区,高田馬場２丁目１８番１１号稲門ビル１階,,13,104,1690075,,,,,,,2025-05-26,1,,,,,エンリアルティ,0
580,3011105011440,新規,0,2025-05-26,2025-05-26,一般社団法人はたらく女性の全国センター,,その他の設立登記法人,東京都,新宿区,北新宿２丁目１１－１６千葉グリーンハウス２０１号,,13,104,1690074,,,,,,,2025-05-26,1,,,,,ハタラクジョセイノゼンコクセンター,0
587,3011601028681,新規,0,2025-05-26,2025-05-26,ＢＯＩＳ　Ｄ’ＯＲ株式会社,,株式会社,東京都,練馬区,春日町６丁目１６番１１号２８７号室,,13,120,1790074,,,,,,,2025-05-26,1,,,,,ボイスドオ,0
592,3011701028350,新規,0,2025-05-26,2025-05-26,秋田株式会社,,株式会社,東京都,江戸川区,西小岩５丁目１３番１３小出マンション１６３号,,13,123,1330057,,,,,,,2025-05-26,1,,,,,アキタ,0
594,3011803006873,新規,0,2025-05-26,2025-05-26,Ｓ・Ｕｎｉｔ　Ｐｒｏｄｕｃｔｉｏｎ合同会社,,合同会社,東京都,葛飾区,堀切７丁目５番４－２０２号,,13,122,1240006,,,,,,,2025-05-26,1,,,,,エスユニットプロダクション,0
595,3012303002165,新規,0,2025-05-26,2025-05-26,合同会社ワットアイウェア,,合同会社,東京都,町田市,中町１丁目１５－９ＡＵビル１０４号室,,13,209,1940021,,,,,,,2025-05-26,1,,,,,ワットアイウェア,0
599,3013101009699,新規,0,2025-05-26,2025-05-26,株式会社Ｈｉｇｈ　Ｐｓｙ,,株式会社,東京都,あきる野市,草花８４２番地２,,13,228,1970802,,,,,,,2025-05-26,1,,,,,ハイサイ,0
601,3013301054256,新規,0,2025-05-26,2025-05-26,株式会社ＢａｒＩＯｕＳｔｏｋｙｏ,,株式会社,東京都,豊島区,巣鴨４丁目２３－８奥山ビル５０１,,13,116,1700002,,,,,,,2025-05-26,1,,,,,バリアストウキョウ,0
608,3020001162990,新規,0,2025-05-26,2025-05-26,株式会社サクラ企画,,株式会社,神奈川県,横浜市青葉区,新石川４丁目２０番地５第二内匠マンション５０２号,,14,117,2250003,,,,,,,2025-05-26,1,,,,,サクラキカク,0
609,3020001163015,新規,0,2025-05-26,2025-05-26,日研トレーディング株式会社,,株式会社,神奈川県,横浜市中区,不老町１丁目２番地１,,14,104,2310032,,,,,,,2025-05-26,1,,,,,ニッケントレーニング,0
610,3020001163031,新規,0,2025-05-26,2025-05-26,株式会社よつば不動産,,株式会社,神奈川県,横浜市保土ケ谷区,仏向町１４１６－１０,,14,106,2400044,,,,,,,2025-05-26,1,,,,,ヨツバフドウサン,0
612,3020003028546,新規,0,2025-05-26,2025-05-26,ＥＫＩＢＩＤＥ合同会社,,合同会社,神奈川県,川崎市高津区,溝口３丁目１２番７－３０６号メゾン・ド・ボヌール,,14,134,2130001,,,,,,,2025-05-26,1,,,,,エキビデ,0
613,3020005016870,新規,0,2025-05-26,2025-05-26,特定非営利活動法人ファンタジーキッズ,,その他の設立登記法人,神奈川県,横浜市緑区,鴨居３丁目４０番１２号日当荘２０１号室,,14,113,2260003,,,,,,,2025-05-26,1,,,,,ファンタジーキッズ,0
623,3030003026838,新規,0,2025-05-26,2025-05-26,合同会社楓の木,,合同会社,埼玉県,所沢市,東所沢和田１丁目２２番地の７メゾンフォレスト１０１,,11,208,3590023,,,,,,,2025-05-26,1,,,,,カエデノキ,0
632,3040001138898,新規,0,2025-05-26,2025-05-26,Ｔｒｕｅ　Ｔｏｏｌｓ株式会社,,株式会社,千葉県,市川市,富浜３丁目１４番１１－３０５号（クレセントゴールド）,,12,203,2720115,,,,,,,2025-05-26,1,,,,,トゥルーツール,0
637,3040002105435,新規,0,2025-05-26,2025-05-26,佐藤産業有限会社,,有限会社,千葉県,勝浦市,貝掛３７７番地,,12,218,2995272,,,,,,,2025-05-26,1,,,,,サトウサンギョウ,0
640,3040005022784,新規,0,2025-05-26,2025-05-26,医療法人社団人にやさしく,,その他の設立登記法人,千葉県,千葉市美浜区,磯辺５丁目１４番３号２階２０３号室,,12,106,2610012,,,,,,,2025-05-26,1,,,,,ヒトニヤサシク,0
641,3050003009295,新規,0,2025-05-26,2025-05-26,悦陽国際合同会社,,合同会社,茨城県,結城郡八千代町,大字芦ケ谷８２６番地,,08,521,3003555,,,,,,,2025-05-26,1,,,,,エツヨウコクサイ,0
647,3070001042932,新規,0,2025-05-26,2025-05-26,株式会社Ｎｅｏ　ｐｈｙｓｉｏ,,株式会社,群馬県,前橋市,二之宮町１３３３－１２,,10,201,3792117,,,,,,,2025-05-26,1,,,,,,0
649,3080001026950,新規,0,2025-05-26,2025-05-26,Ｓ＆Ｒ株式会社,,株式会社,静岡県,静岡市駿河区,中田本町２５番１２号,,22,102,4228043,,,,,,,2025-05-26,1,,,,,エスアンドアール,0
682,3120001275700,新規,0,2025-05-26,2025-05-26,株式会社スターシー,,株式会社,大阪府,大阪市西成区,松２丁目５番２０号,,27,122,5570034,,,,,,,2025-05-26,1,,,,,スターシー,0
683,3120001276070,新規,0,2025-05-26,2025-05-26,模改株式会社,,株式会社,大阪府,大阪市西成区,萩之茶屋２丁目８番３号ハイツニューコンパ７０３号室,,27,122,5570004,,,,,,,2025-05-26,1,,,,,ボカイ,0
684,3120001276095,新規,0,2025-05-26,2025-05-26,世紀網絡科技株式会社,,株式会社,大阪府,大阪市城東区,野江３丁目２７番８号野江ＩＩ番館４１０号室,00139300,27,118,5360006,,,,,,,2025-05-26,1,,,,,グロネットテック,0
685,3120001276145,新規,0,2025-05-26,2025-05-26,日匡株式会社,,株式会社,大阪府,大阪市北区,梅田１丁目３番１号大阪駅前第一ビル５階ＲＯＹＡＬＯＦＦＩＣＥ内,,27,127,5300001,,,,,,,2025-05-26,1,,,,,ニッコウ,0
689,3120003029526,新規,0,2025-05-26,2025-05-26,アオハル合同会社,,合同会社,大阪府,大阪市西区,本田３丁目１番７号,,27,106,5500022,,,,,,,2025-05-26,1,,,,,アオハル,0
690,3120003029550,新規,0,2025-05-26,2025-05-26,ライハジャパン合同会社,,合同会社,大阪府,大阪市西淀川区,中島１丁目２番１２号アサノハイツ１０１号室,,27,113,5550041,,,,,,,2025-05-26,1,,,,,ライハジャパン,0
691,3120005024954,新規,0,2025-05-26,2025-05-26,一般社団法人Ａｔｈｌｅｔｅ‐Ｂｒｉｄｇｅ,,その他の設立登記法人,大阪府,大阪市北区,梅田１丁目２番２号大阪駅前第２ビル１２－１２,,27,127,5300001,,,,,,,2025-05-26,1,,,,,アスリートブリッジ,0
692,3120101071685,新規,0,2025-05-26,2025-05-26,Ｃｏｒｅ．Ｊａｐａｎ株式会社,,株式会社,大阪府,堺市北区,東浅香山町３丁１４５番地１,,27,146,5918008,,,,,,,2025-05-26,1,,,,,コアジャパン,0
693,3120101071719,新規,0,2025-05-26,2025-05-26,智徳株式会社,,株式会社,大阪府,泉佐野市,下瓦屋３丁目１５番５５－１０２号,,27,213,5980062,,,,,,,2025-05-26,1,,,,,チトク,0
694,3120101071735,新規,0,2025-05-26,2025-05-26,株式会社Ｙ．ｓ,,株式会社,大阪府,松原市,東新町５丁目１４番１１号,,27,217,5800024,,,,,,,2025-05-26,1,,,,,ワイズ,0
699,3120103006474,新規,0,2025-05-26,2025-05-26,合同会社ＨＯＭＥＹ,,合同会社,大阪府,松原市,南新町３丁目１番７号,,27,217,5800023,,,,,,,2025-05-26,1,,,,,ホーミー,0
700,3120103006482,新規,0,2025-05-26,2025-05-26,合同会社叶心,,合同会社,大阪府,高石市,高師浜２丁目１番６号,,27,225,5920004,,,,,,,2025-05-26,1,,,,,カナミ,0
710,3130001079745,新規,0,2025-05-26,2025-05-26,株式会社斜会,,株式会社,京都府,京都市下京区,小稲荷町８５－２Ｇｒａｎｄ－Ｋ京都駅前ビル２０１,,26,106,6008208,,,,,,,2025-05-26,1,,,,,ハスカイ,0
721,3140001138632,新規,0,2025-05-26,2025-05-26,株式会社Ｇｏｏｄ　Ｒｏｕｔｅ,,株式会社,兵庫県,神戸市西区,北別府２丁目２番地の６,,28,111,6512117,,,,,,,2025-05-26,1,,,,,グッドルート,0
722,3140001138649,新規,0,2025-05-26,2025-05-26,株式会社ｔａｋｅｉｔ,,株式会社,兵庫県,多可郡多可町,中区鍛冶屋４２３番地６,,28,365,6791111,,,,,,,2025-05-26,1,,,,,テイクイット,0
723,3140001138657,新規,0,2025-05-26,2025-05-26,株式会社ＰＦＵ,,株式会社,兵庫県,尼崎市,杭瀬本町２丁目１０番５号,,28,202,6600814,,,,,,,2025-05-26,1,,,,,ピーエフユー,0
724,3140003022074,新規,0,2025-05-26,2025-05-26,まっちゃ合同会社,,合同会社,兵庫県,神戸市中央区,磯辺通１丁目１番１８号カサベラ国際プラザビル７０７号室,,28,110,6510084,,,,,,,2025-05-26,1,,,,,マッチャ,0
725,3150001028155,新規,0,2025-05-26,2025-05-26,Ｈｉｇｈｅｓｔ株式会社,,株式会社,奈良県,奈良市,学園朝日町７番８－３号,,29,201,6310016,,,,,,,2025-05-26,1,,,,,ハイエスト,0
727,3170001018633,新規,0,2025-05-26,2025-05-26,株式会社レイ・ミロク,,株式会社,和歌山県,橋本市,さつき台２丁目３番地の８,,30,203,6480075,,,,,,,2025-05-26,1,,,,,レイミロク,0
739,3180001166919,新規,0,2025-05-26,2025-05-26,株式会社ＦＯＶＡホールディングス,,株式会社,愛知県,名古屋市中区,大井町４番１９号,,23,106,4600015,,,,,,,2025-05-26,1,,,,,フォーバホールディングス,0
744,3180303006582,新規,0,2025-05-26,2025-05-26,合同会社ＹＡＤＯＳＨＩＢＩ,,合同会社,愛知県,西尾市,吉良町吉田石池４６番地メゾン・ド・エスポワール１０１号室,,23,213,4440516,,,,,,,2025-05-26,1,,,,,ヤドシビ,0
747,3190001032236,新規,0,2025-05-26,2025-05-26,創和ホールディングス株式会社,,株式会社,三重県,伊賀市,安場１１番地,,24,216,5181145,,,,,,,2025-05-26,1,,,,,ソウワホールディングス,0
752,3210001020171,新規,0,2025-05-26,2025-05-26,株式会社ＯＺＡＷＡ,,株式会社,福井県,鯖江市,石田上町第７号７番地１,,18,207,9160083,,,,,,,2025-05-26,1,,,,,オザワ,0
756,3240001064975,新規,0,2025-05-26,2025-05-26,株式会社Ｐａｗｃａｌ　ｗｏｒｋｓ,,株式会社,広島県,広島市中区,大手町１丁目１－２０相生橋ビル７階Ａ号室,,34,101,7300051,,,,,,,2025-05-26,1,,,,,ポーカルワーク,0
757,3240001064991,新規,0,2025-05-26,2025-05-26,株式会社肉乃永井,,株式会社,広島県,広島市東区,二葉の里１丁目１番７２－７０１号,,34,102,7320057,,,,,,,2025-05-26,1,,,,,ニクノナガイ,0
781,3290801031567,新規,0,2025-05-26,2025-05-26,株式会社龍背,,株式会社,福岡県,北九州市小倉北区,馬借３丁目６番３３－３０３号,,40,106,8020077,,,,,,,2025-05-26,1,,,,,リュウセ,0
783,3300001014197,新規,0,2025-05-26,2025-05-26,レジィ株式会社,,株式会社,佐賀県,鳥栖市,蔵上３丁目２８１－２,,41,203,8410056,,,,,,,2025-05-26,1,,,,,レジィ,0
793,3340001027344,新規,0,2025-05-26,2025-05-26,株式会社鸞花,,株式会社,鹿児島県,曽於市,大隅町中之内７３４０番地,,46,217,8998103,,,,,,,2025-05-26,1,,,,,ランカ,0
797,3350001019547,新規,0,2025-05-26,2025-05-26,株式会社ＩＲＯ,,株式会社,宮崎県,宮崎市,大橋２丁目５５番地１アートビル５５１－３０６号,,45,201,8800022,,,,,,,2025-05-26,1,,,,,イロ,0
800,3360003014941,新規,0,2025-05-26,2025-05-26,合同会社ＩＳＡ,,合同会社,沖縄県,那覇市,鏡原町１番２０号ＬＡＶＥＲＤＥ・Ｋ４０２,,47,201,9010151,,,,,,,2025-05-26,1,,,,,アイエスエ,0
802,3370003007102,新規,0,2025-05-26,2025-05-26,合同会社ＭＳアドバイザリー,,合同会社,宮城県,仙台市若林区,荒井南２８番地の１１,,04,103,9840039,,,,,,,2025-05-26,1,,,,,エムエスアドバイザリー,0
805,3390001017992,新規,0,2025-05-26,2025-05-26,株式会社ヤマゴ,,株式会社,山形県,村山市,楯岡十日町６番６号,,06,208,9950017,,,,,,,2025-05-26,1,,,,,,0
806,3410001014161,新規,0,2025-05-26,2025-05-26,株式会社雲雀農園,,株式会社,秋田県,仙北市,角館町薗田別当村４７番地,,05,215,0140303,,,,,,,2025-05-26,1,,,,,ヒバリノウエン,0
807,3420001019151,新規,0,2025-05-26,2025-05-26,株式会社ＢＥＮ,,株式会社,青森県,青森市,はまなす１丁目１５番１号,,02,201,0300919,,,,,,,2025-05-26,1,,,,,ベン,0
811,3430001094474,新規,0,2025-05-26,2025-05-26,株式会社太設,,株式会社,北海道,千歳市,住吉４丁目３番２０号,,01,224,0660026,,,,,,,2025-05-26,1,,,,,タイセツ,0
814,3430003017697,新規,0,2025-05-26,2025-05-26,合同会社ＣｒａｆｔｅＬ,,合同会社,北海道,札幌市豊平区,平岸三条１３丁目４番２８号,,01,105,0620933,,,,,,,2025-05-26,1,,,,,クラフテル,0
817,3480001012844,新規,0,2025-05-26,2025-05-26,株式会社ＵＭｉ,,株式会社,徳島県,板野郡板野町,大寺字泉口３９番地１,,36,404,7790105,,,,,,,2025-05-26,1,,,,,ウミ,0
823,3700150130696,新規,0,2025-05-26,2025-05-26,Ｎｉｎｇｂｏ　Ｚｈｕｔｅ　Ｎｅｔｗｏｒｋ　Ｔｅｃｈｎｏｌｏｇｙ　Ｃｏ．，Ｌｔｄ．,,外国会社等,,,,,,,,Ｎｉｎｇｈａｉｘｉａｎｙｕｅｌｏｎｇｊｉｅｄａｏｓｈａｎｇｂａｉｑｉａｏｃｕｎ２３５ｈａｏ,,,,,,2025-05-26,1,,,,,ニンボージューターワンルオコージーヨウシエンゴンスー,0
824,3700150130721,新規,0,2025-05-26,2025-05-26,ＴＥＳＬＡ　ＨＯＬＤＩＮＧＳ　ＰＶＴ　ＬＴＤ,,外国会社等,千葉県,山武郡横芝光町,木戸６８３６番地２－４,,12,410,2891726,スリランカ民主社会主義共和国、バトゥゴダ、カサワッタ、Ｎｏ．４６４／１Ｆ,,,,,,2025-05-26,1,,,,,テスラホールデイングスプライベートリミテツド,0
841,4010001255308,新規,0,2025-05-26,2025-05-26,株式会社ゆめプランニング,,株式会社,東京都,千代田区,神田多町２丁目１－２３神田東山ビル７Ｆ,,13,101,1010046,,,,,,,2025-05-26,1,,,,,ユメプランニング,0
847,4010003047406,新規,0,2025-05-26,2025-05-26,ＤＩＧＩＲＥ合同会社,,合同会社,東京都,文京区,小石川１丁目１７番１号,,13,105,1120002,,,,,,,2025-05-26,1,,,,,デジレ,0
851,4010103002582,新規,0,2025-05-26,2025-05-26,合同会社ＡＨＡ　ＴＯＫＹＯ,,合同会社,東京都,八王子市,小門町１１８番地２３,,13,201,1920054,,,,,,,2025-05-26,1,,,,,アハトウキョウ,0
869,4010401190336,新規,0,2025-05-26,2025-05-26,株式会社ＩＮＦＩＮＩＴＹ　ＭＯＭＥＮＴ,,株式会社,東京都,港区,新橋４丁目１４番１新橋ＡＵＮＢＬＤＧ４階,,13,103,1050004,,,,,,,2025-05-26,1,,,,,インフィニティモーメント,0
870,4010401190435,新規,0,2025-05-26,2025-05-26,株式会社ＫＦＨ,,株式会社,東京都,港区,元麻布２丁目４番７号,,13,103,1060046,,,,,,,2025-05-26,1,,,,,ケーエフエイチ,0
871,4010401190476,新規,0,2025-05-26,2025-05-26,株式会社ＢＬａｂｏ,,株式会社,東京都,港区,赤坂４丁目７番６号赤坂ビジネスコート,,13,103,1070052,,,,,,,2025-05-26,1,,,,,ビーラボ,0
872,4010401190484,新規,0,2025-05-26,2025-05-26,株式会社ＲＨＹＭＥＳ,,株式会社,東京都,港区,北青山１丁目３番１号アールキューブ青山３階,,13,103,1070061,,,,,,,2025-05-26,1,,,,,ライムズ,0
873,4010401190492,新規,0,2025-05-26,2025-05-26,ＨＵＮＴ株式会社,,株式会社,東京都,港区,北青山１丁目３－３三橋ビル３階,,13,103,1070061,,,,,,,2025-05-26,1,,,,,ハント,0
874,4010401190526,新規,0,2025-05-26,2025-05-26,株式会社ｆｕｎｏｖ,,株式会社,東京都,港区,白金６丁目１０番１６号トリビュート白金３０１,,13,103,1080072,,,,,,,2025-05-26,1,,,,,ファノベ,0
878,4010403035217,新規,0,2025-05-26,2025-05-26,ｉＪＡＰＡＮ合同会社,,合同会社,東京都,港区,浜松町２丁目２番１５号浜松町ダイヤビル２Ｆ,,13,103,1050013,,,,,,,2025-05-26,1,,,,,アイジャパン,0
885,4010601067342,新規,0,2025-05-26,2025-05-26,株式会社イーカイガイ東京,,株式会社,東京都,墨田区,両国１丁目１２番１２号塚田ビル３階,,13,107,1300026,,,,,,,2025-05-26,1,,,,,イーカイガイトウキョウ,0
889,4010903009942,新規,0,2025-05-26,2025-05-26,メディポート合同会社,,合同会社,東京都,世田谷区,東玉川１丁目１６番１０号,,13,112,1580084,,,,,,,2025-05-26,1,,,,,メディポート,0
894,4011001169365,新規,0,2025-05-26,2025-05-26,株式会社ＭＰＩ,,株式会社,東京都,渋谷区,渋谷２丁目２４番１２号,,13,113,1500002,,,,,,,2025-05-26,1,,,,,エムピーアイ,0
895,4011001170075,新規,0,2025-05-26,2025-05-26,株式会社インサイト,,株式会社,東京都,渋谷区,円山町５番５号Ｎａｖｉ渋谷Ｖ３階,,13,113,1500044,,,,,,,2025-05-26,1,,,,,インサイト,0
896,4011003021714,新規,0,2025-05-26,2025-05-26,合同会社Ｄａｍｅｎ‐ｉｎｃ,,合同会社,東京都,目黒区,青葉台１丁目１０番１１－２２７号,,13,110,1530042,,,,,,,2025-05-26,1,,,,,ダメンインク,0
900,4011101111763,新規,0,2025-05-26,2025-05-26,株式会社Ａｌｍａｔｅｃｈ,,株式会社,東京都,新宿区,西新宿３丁目３番１３号西新宿水間ビル２Ｆ,,13,104,1600023,,,,,,,2025-05-26,1,,,,,アルマテック,0
901,4011101111887,新規,0,2025-05-26,2025-05-26,サンケンプラス株式会社,,株式会社,東京都,新宿区,築地町８番地７,,13,104,1620818,,,,,,,2025-05-26,1,,,,,サンケンプラス,0
905,4011201026374,新規,0,2025-05-26,2025-05-26,株式会社ＭＵＬ,,株式会社,東京都,中野区,南台１丁目１１番４号,,13,114,1640014,,,,,,,2025-05-26,1,,,,,ムル,0
906,4011205002693,新規,0,2025-05-26,2025-05-26,一般社団法人東京中野文化産業共創プラットフォーム,,その他の設立登記法人,東京都,中野区,中野５丁目６８番８号,,13,114,1640001,,,,,,,2025-05-26,1,,,,,トウキョウナカノブンカサンギョウキョウソウプラットフォーム,0
909,4011303005540,新規,0,2025-05-26,2025-05-26,合同会社ＴＳＳコンサルティング,,合同会社,東京都,杉並区,荻窪３丁目４０番４号,,13,115,1670051,,,,,,,2025-05-26,1,,,,,ティーエスエスコンサルティング,0
928,4020001162998,新規,0,2025-05-26,2025-05-26,株式会社Ｈｏｍｅ桜,,株式会社,神奈川県,横浜市南区,中村町４丁目２７０番地１８,,14,105,2320033,,,,,,,2025-05-26,1,,,,,ホームサクラ,0
929,4020001163006,新規,0,2025-05-26,2025-05-26,株式会社ＡＲＣＴＯＮＥ　ＡＳＴ,,株式会社,神奈川県,横浜市中区,桜木町１丁目１０１番地１クロスゲート７階,,14,104,2310062,,,,,,,2025-05-26,1,,,,,アークトーンアスト,0
934,4021003016044,新規,0,2025-05-26,2025-05-26,合同会社海神,,合同会社,神奈川県,秦野市,横野７０７番地の６,,14,211,2591307,,,,,,,2025-05-26,1,,,,,ワダツミ,0
936,4030001166420,新規,0,2025-05-26,2025-05-26,小也商事株式会社,,株式会社,埼玉県,朝霞市,三原１丁目７－１０・スカイピア朝霞台１０３,,11,227,3510025,,,,,,,2025-05-26,1,,,,,サヤショウジ,0
937,4030001166619,新規,0,2025-05-26,2025-05-26,株式会社３ＦＯＲＣＥ,,株式会社,埼玉県,さいたま市大宮区,桜木町１丁目１９５番地１,,11,103,3300854,,,,,,,2025-05-26,1,,,,,スリーフォース,0
951,4040001138906,新規,0,2025-05-26,2025-05-26,Ｒ．Ａ．Ｊａｐａｎ株式会社,,株式会社,千葉県,市原市,立野３５７番地３,,12,219,2990121,,,,,,,2025-05-26,1,,,,,アールエージャパン,0
956,4040003027669,新規,0,2025-05-26,2025-05-26,Ｆｏｒｔｕｎｅ　Ｆｉｅｌｄ合同会社,,合同会社,千葉県,市川市,大野町３丁目１７５４番地９,,12,203,2720805,,,,,,,2025-05-26,1,,,,,フォーチュンフィールド,0
957,4040005022750,新規,0,2025-05-26,2025-05-26,特定非営利活動法人ＴｏＢｉＲａ,,その他の設立登記法人,千葉県,千葉市中央区,花輪町４６番地２１４,,12,101,2600803,,,,,,,2025-05-26,1,,,,,トビラ,0
963,4080101025513,新規,0,2025-05-26,2025-05-26,明洞株式会社,,株式会社,静岡県,沼津市,米山町４番３－１０５号エンブルクレア米山町,,22,203,4100046,,,,,,,2025-05-26,1,,,,,ミョンドン,0
969,4100003008175,新規,0,2025-05-26,2025-05-26,合同会社ソレイユ,,合同会社,長野県,北佐久郡軽井沢町,大字発地１２２６番地１９,,20,321,3890113,,,,,,,2025-05-26,1,,,,,ソレイユ,0
998,4120001276012,新規,0,2025-05-26,2025-05-26,ａｎｄｅｖｅｒｙｄａｙ株式会社,,株式会社,大阪府,大阪市北区,梅田１丁目２番２号大阪駅前第２ビル１２－１２,,27,127,5300001,,,,,,,2025-05-26,1,,,,,アンドエブリデイ,0
999,4120001276094,新規,0,2025-05-26,2025-05-26,のんびり屋株式会社,,株式会社,大阪府,大阪市中央区,高津３丁目９番５号第２高津グローリーハイツ５００１号室,,27,128,5420072,,,,,,,2025-05-26,1,,,,,ノンビリヤ,0
1000,4120001276103,新規,0,2025-05-26,2025-05-26,株式会社ＴＫＧ　ＣＲＥＡＴＥ,,株式会社,大阪府,大阪市浪速区,湊町２丁目２番５－１８０４号,,27,111,5560017,,,,,,,2025-05-26,1,,,,,ティーケージークリエイト,0
1001,4120001276144,新規,0,2025-05-26,2025-05-26,株式会社鶴林工業,,株式会社,大阪府,大阪市城東区,新喜多２丁目６番９号,,27,118,5360015,,,,,,,2025-05-26,1,,,,,ツルバヤシコウギョウ,0
1005,4120003029541,新規,0,2025-05-26,2025-05-26,合同会社ファーストライフ,,合同会社,大阪府,門真市,三ツ島５丁目９番７号,,27,223,5710015,,,,,,,2025-05-26,1,,,,,ファーストライフ,0
1006,4120003029558,新規,0,2025-05-26,2025-05-26,Ｄｒａｇｏｎ合同会社,,合同会社,大阪府,大阪市西成区,松１丁目１０－２９－２０７号,,27,122,5570034,,,,,,,2025-05-26,1,,,,,ドラゴン,0
1009,4120101071750,新規,0,2025-05-26,2025-05-26,株式会社山久,,株式会社,大阪府,羽曳野市,向野１丁目４番７－１０３号,,27,222,5830883,,,,,,,2025-05-26,1,,,,,サンキュウ,0
1010,4120103006481,新規,0,2025-05-26,2025-05-26,合同会社ラ・ローズ・ブルー,,合同会社,大阪府,堺市東区,引野町３丁１６２番地２,,27,143,5998104,,,,,,,2025-05-26,1,,,,,ラローズブルー,0
1018,4150001028146,新規,0,2025-05-26,2025-05-26,株式会社進建築工房,,株式会社,奈良県,奈良市,中山町１３１９番地の１８,,29,201,6310012,,,,,,,2025-05-26,1,,,,,シンケンチクコウボウ,0
1019,4160003003484,新規,0,2025-05-26,2025-05-26,合同会社康幸,,合同会社,滋賀県,草津市,大路１丁目９－１クロスアベニュー草津２Ｆ,,25,206,5250032,,,,,,,2025-05-26,1,,,,,コウコウ,0
1024,4180001166926,新規,0,2025-05-26,2025-05-26,株式会社お力添え,,株式会社,愛知県,名古屋市港区,小碓１丁目３９２番地の２,,23,111,4550801,,,,,,,2025-05-26,1,,,,,オチカラゾエ,0
1025,4180001166934,新規,0,2025-05-26,2025-05-26,株式会社虹心,,株式会社,愛知県,江南市,河野町河野３３番地１,,23,217,4838369,,,,,,,2025-05-26,1,,,,,ニジ,0
1030,4180003028513,新規,0,2025-05-26,2025-05-26,合同会社フォーディービジョン,,合同会社,愛知県,名古屋市中区,丸の内３丁目１７番６号,,23,106,4600002,,,,,,,2025-05-26,1,,,,,フォーディービジョン,0
1031,4180003028521,新規,0,2025-05-26,2025-05-26,合同会社ハッピースタート,,合同会社,愛知県,名古屋市千種区,春岡１丁目３０番１５号,,23,101,4640848,,,,,,,2025-05-26,1,,,,,ハッピースタート,0
1037,4180301039831,新規,0,2025-05-26,2025-05-26,株式会社饗庭,,株式会社,愛知県,西尾市,吉良町饗庭須畑前３番地,,23,213,4440523,,,,,,,2025-05-26,1,,,,,アイバ,0
1041,4220003004039,新規,0,2025-05-26,2025-05-26,合同会社富樫林業,,合同会社,石川県,金沢市,窪５丁目６８２番地,,17,201,9218151,,,,,,,2025-05-26,1,,,,,トガシリンギョウ,0
1046,4240003007221,新規,0,2025-05-26,2025-05-26,合同会社望コーポレーション,,合同会社,広島県,広島市中区,吉島西３丁目１３番９号,,34,101,7300823,,,,,,,2025-05-26,1,,,,,ノゾミコーポレーション,0
1056,4290001110105,新規,0,2025-05-26,2025-05-26,株式会社Ａ＆Ｓ　ｃｏｍｐａｎｙ,,株式会社,福岡県,福岡市中央区,天神４丁目６－２８天神ファーストビル７階,,40,133,8100001,,,,,,,2025-05-26,1,,,,,エイアンドエスカンパニー,0
1063,4300001014196,新規,0,2025-05-26,2025-05-26,株式会社Ａｕｒｏｒａ,,株式会社,佐賀県,佐賀市,八幡小路４番３０号,,41,201,8400834,,,,,,,2025-05-26,1,,,,,アウロラ,0
1066,4320001021109,新規,0,2025-05-26,2025-05-26,株式会社大輝,,株式会社,大分県,大分市,坂ノ市中央３丁目１６番２８号カーサ・パトリアＡ－２,,44,201,8700307,,,,,,,2025-05-26,1,,,,,ダイキ,0
1069,4320003004672,新規,0,2025-05-26,2025-05-26,合同会社ブルーモルフォ,,合同会社,大分県,別府市,大字鶴見字竹ノ内２１３１番１,,44,202,8740840,,,,,,,2025-05-26,1,,,,,ブルーモルフォ,0
1073,4350001019546,新規,0,2025-05-26,2025-05-26,株式会社紘,,株式会社,宮崎県,宮崎市,祇園４丁目１４番地１イーストコスモビル３０５号,,45,201,8800024,,,,,,,2025-05-26,1,,,,,ヒロ,0
1082,4360003014940,新規,0,2025-05-26,2025-05-26,合同会社ｐｅａｃｈ,,合同会社,沖縄県,豊見城市,字真玉橋１２９番地２,,47,212,9010201,,,,,,,2025-05-26,1,,,,,ピーチ,0
1091,4410003004110,新規,0,2025-05-26,2025-05-26,合同会社Ｎｏｒｄｉｃａ　Ｅｓｔａｔｅ,,合同会社,秋田県,由利本荘市,川口字家ノ後３５２番地,,05,210,0150051,,,,,,,2025-05-26,1,,,,,ノーディカエステート,0
1093,4420001019159,新規,0,2025-05-26,2025-05-26,ＭＡＲＲＯＷ株式会社,,株式会社,青森県,八戸市,南白山台２丁目１５番３号,,02,203,0391112,,,,,,,2025-05-26,1,,,,,マロウ,0
1098,4430003017696,新規,0,2025-05-26,2025-05-26,合同会社ＡＸＩＡ,,合同会社,北海道,札幌市東区,北十七条東１丁目２番１４－６０６号,,01,103,0650017,,,,,,,2025-05-26,1,,,,,アクシア,0
1101,4460103001713,新規,0,2025-05-26,2025-05-26,合同会社ＯＡＳＩＳ,,合同会社,北海道,帯広市,西十八条南５丁目４３番地９,,01,207,0800028,,,,,,,2025-05-26,1,,,,,,0
1103,4480001012843,新規,0,2025-05-26,2025-05-26,株式会社Ｏａｋ　Ｔｒｅｅ,,株式会社,徳島県,徳島市,北矢三町３丁目５番３８－１号,,36,201,7700006,,,,,,,2025-05-26,1,,,,,オークツリー,0
1104,4490001011051,新規,0,2025-05-26,2025-05-26,株式会社ＡＷＡ‐ＳＨＵ,,株式会社,高知県,高知市,北本町２丁目２番８－１３０４号,,39,201,7800056,,,,,,,2025-05-26,1,,,,,アワース,0
1110,4700150130695,新規,0,2025-05-26,2025-05-26,ｌｉｓｈｕｉｙｉｎｓｈａｎｗａｎｇｌｕｏｋｅｊｉｙｏｕｘｉａｎｇｏｎｇｓｉ,,外国会社等,,,,,,,,ｚｈｅｊｉａｎｇｓｈｅｎｇｌｉｓｈｕｉｓｈｉｌｉａｎｄｕｑｕｗｅｉｌａｎｓｈｕｉａｎ７ｄｏｎｇ５０２ｓｈｉ,,,,,,2025-05-26,1,,,,,リーシュイインシャンワンルオコージーヨウシエンゴンスー,0
1111,4700150130704,新規,0,2025-05-26,2025-05-26,オウ・ハンサルド・リミテッド,,外国会社等,,,,,,,,フィンランド共和国、ブレバルディ２１、００１８０ヘルシンキ,,,,,,2025-05-26,1,,,,,オウハンサルドリミテツド,0
1112,4700150130720,新規,0,2025-05-26,2025-05-26,ＤＡＲＭＡＳＥＮＡ　ＥＮＴＥＲＰＲＩＳＥＳ,,外国会社等,神奈川県,綾瀬市,吉岡１７２３－１,,14,218,2521124,スリランカ民主社会主義共和国、Ｎｏ．１８６、ソイザロード、モラトモッラ、モラトワ、コロンボ,,,,,,2025-05-26,1,,,,,ダルマセーナエンタープライセス,0
1119,5010001255307,新規,0,2025-05-26,2025-05-26,株式会社ＷＯＲＴＨ,,株式会社,東京都,中央区,銀座１丁目２２番１１号銀座大竹ビジデンス２Ｆ,,13,102,1040061,,,,,,,2025-05-26,1,,,,,ワース,0
1120,5010001255364,新規,0,2025-05-26,2025-05-26,株式会社ＷＡＫＵＭＡＸ,,株式会社,東京都,中央区,佃１丁目３番地４号,,13,102,1040051,,,,,,,2025-05-26,1,,,,,ワクマックス,0
1122,5010003047438,新規,0,2025-05-26,2025-05-26,ＩＫ　Ｌｉｖｉｎｇ合同会社,,合同会社,東京都,千代田区,三番町５番地１１－１４０２号,,13,101,1020075,,,,,,,2025-05-26,1,,,,,アイケーリビング,0
1135,5010401190426,新規,0,2025-05-26,2025-05-26,株式会社ＥＪ,,株式会社,東京都,港区,芝浦２丁目１７番１０号新大友ビル４Ｆ,,13,103,1080023,,,,,,,2025-05-26,1,,,,,イージェイ,0
1136,5010401190459,新規,0,2025-05-26,2025-05-26,Ｂｏｓｐｏｌｄｅｒ１株式会社,,株式会社,東京都,港区,麻布台１丁目３番１号麻布台ヒルズ森ＪＰタワー１７階,,13,103,1060041,,,,,,,2025-05-26,1,,,,,ボスポルダーワン,0
1137,5010401190491,新規,0,2025-05-26,2025-05-26,株式会社ａｂｅｔｏｉｅｂａ．Ｋ,,株式会社,東京都,港区,西麻布４丁目１４番１２－４０２号,,13,103,1060031,,,,,,,2025-05-26,1,,,,,アベトイエバドットケー,0
1138,5010403035018,新規,0,2025-05-26,2025-05-26,ｍｉｎｉ合同会社,,合同会社,東京都,港区,麻布十番３丁目８番６－９０４号,,13,103,1060045,,,,,,,2025-05-26,1,,,,,ミニ,0
1139,5010403035174,新規,0,2025-05-26,2025-05-26,ＣＨＩＡＮＧ投資合同会社,,合同会社,東京都,港区,新橋６丁目２０番２号,,13,103,1050004,,,,,,,2025-05-26,1,,,,,チャントウシ,0
1145,5010603011586,新規,0,2025-05-26,2025-05-26,合同会社ここらいと,,合同会社,東京都,江東区,大島１丁目１－３５－３１７,,13,108,1360072,,,,,,,2025-05-26,1,,,,,ココライト,0
1148,5010701047763,新規,0,2025-05-26,2025-05-26,株式会社Ｋｏｋｏｌｕａ,,株式会社,東京都,品川区,中延３丁目６番１５号,,13,109,1420053,,,,,,,2025-05-26,1,,,,,ココルア,0
1153,5010803005396,新規,0,2025-05-26,2025-05-26,ＺＩＹＡ・ＴＯＫＹＯ・ＣＯＭＰＡＮＹ合同会社,,合同会社,東京都,大田区,仲六郷２丁目３９番３号パステルハイツ３０１,,13,111,1440055,,,,,,,2025-05-26,1,,,,,ジーヤトウキョーカンパニー,0
1162,5011001169447,新規,0,2025-05-26,2025-05-26,株式会社クリアズ,,株式会社,東京都,渋谷区,道玄坂１丁目１０番８号渋谷道玄坂東急ビル２Ｆ－Ｃ,,13,113,1500043,,,,,,,2025-05-26,1,,,,,クリアズ,0
1164,5011003021647,新規,0,2025-05-26,2025-05-26,Ｂｉｓｔｅｅｐ　Ｌａｂ合同会社,,合同会社,東京都,渋谷区,神南１丁目１１番４号ＦＰＧリンクス神南５階,,13,113,1500041,,,,,,,2025-05-26,1,,,,,ビスティープラボ,0
1165,5011003021688,新規,0,2025-05-26,2025-05-26,合同会社ナスサロ,,合同会社,東京都,渋谷区,恵比寿西２丁目８番４号ＥＸ恵比寿西ビル５階,,13,113,1500021,,,,,,,2025-05-26,1,,,,,ナスサロ,0
1171,5011101111705,新規,0,2025-05-26,2025-05-26,トライフロンティアレコーズ株式会社,,株式会社,東京都,新宿区,四谷三栄町４番１４号ラシクラス四谷２０１,,13,104,1600008,,,,,,,2025-05-26,1,,,,,トライフロンティアレコーズ,0
1184,5011703004257,新規,0,2025-05-26,2025-05-26,合同会社ＢＥＴＢＯＹ,,合同会社,東京都,江戸川区,中葛西３丁目３６番８－３０１号,,13,123,1340083,,,,,,,2025-05-26,1,,,,,ベットボーイ,0
1186,5012301014400,新規,0,2025-05-26,2025-05-26,株式会社プラスホーム住販,,株式会社,東京都,町田市,森野２丁目３１番１７号２－Ｉ,,13,209,1940022,,,,,,,2025-05-26,1,,,,,プラスホームジュウハン,0
1193,5020001162972,新規,0,2025-05-26,2025-05-26,栄光株式会社,,株式会社,神奈川県,横浜市鶴見区,矢向５丁目４番３０－５号,,14,101,2300001,,,,,,,2025-05-26,1,,,,,エイコウ,0
1194,5020001163021,新規,0,2025-05-26,2025-05-26,株式会社しのぶフラワー,,株式会社,神奈川県,横浜市港南区,芹が谷１丁目２０番１１号,,14,111,2330006,,,,,,,2025-05-26,1,,,,,シノブフラワー,0
1202,5021001085313,新規,0,2025-05-26,2025-05-26,株式会社ウェルネスパートナーズ,,株式会社,神奈川県,相模原市南区,古淵２丁目１８―３,,14,153,2520344,,,,,,,2025-05-26,1,,,,,ウェルネスパートナーズ,0
1206,5030001166733,新規,0,2025-05-26,2025-05-26,カデア株式会社,,株式会社,埼玉県,川口市,西川口１丁目３０番２０－５Ａ室,,11,203,3320021,,,,,,,2025-05-26,1,,,,,カデア,0
1212,5040003027676,新規,0,2025-05-26,2025-05-26,合同会社白幡メンテナンス,,合同会社,千葉県,成田市,堀籠７１３番地２,,12,211,2870202,,,,,,,2025-05-26,1,,,,,シラハタメンテナンス,0
1223,5080001026949,新規,0,2025-05-26,2025-05-26,ケンセイ工業株式会社,,株式会社,静岡県,静岡市清水区,西久保１丁目５番１７号,,22,103,4240038,,,,,,,2025-05-26,1,,,,,ケンセイコウギョウ,0
1226,5080401027927,新規,0,2025-05-26,2025-05-26,株式会社井上塗装,,株式会社,静岡県,浜松市中央区,鴨江２丁目９番１１号,,22,138,4328023,,,,,,,2025-05-26,1,,,,,イノウエトソウ,0
1227,5090005007713,新規,0,2025-05-26,2025-05-26,特定非営利活動法人ジムニーエイド,,その他の設立登記法人,山梨県,南アルプス市,西野１７５８,,19,208,4000213,,,,,,,2025-05-26,1,,,,,ジムニーエイド,0
1244,5120001275723,新規,0,2025-05-26,2025-05-26,禾帆株式会社,,株式会社,大阪府,大阪市東住吉区,照ケ丘矢田１丁目４番１７ＦＵＧＡ矢田マンション４０２号室,,27,121,5460021,,,,,,,2025-05-26,1,,,,,カハン,0
1245,5120001276011,新規,0,2025-05-26,2025-05-26,株式会社Ｂ‐Ｔｒｕｅ　Ｃｏｒｐｏｒａｔｉｏｎ,,株式会社,大阪府,大阪市中央区,心斎橋筋１丁目２番７号鰻谷ビル３Ｆ,,27,128,5420085,,,,,,,2025-05-26,1,,,,,ビートゥルーコーポレーション,0
1246,5120001276135,新規,0,2025-05-26,2025-05-26,大雅斎株式会社,,株式会社,大阪府,大阪市港区,三先１丁目１２番９－２０５号,,27,107,5520016,,,,,,,2025-05-26,1,,,,,タイガサイ,0
1247,5120001276184,新規,0,2025-05-26,2025-05-26,ＤＥＬＩＧＨＴ　ＥＮＥＲＧＹ株式会社,,株式会社,大阪府,大阪市北区,茶屋町１番３２号,,27,127,5300013,,,,,,,2025-05-26,1,,,,,ディライトエナジー,0
1251,5120003029482,新規,0,2025-05-26,2025-05-26,ＧＦ共鳴会合同会社,,合同会社,大阪府,大阪市中央区,難波４丁目１番１５号近鉄難波ビル一階,,27,128,5420076,,,,,,,2025-05-26,1,,,,,ジーエフキョウメイカイ,0
1252,5120003029540,新規,0,2025-05-26,2025-05-26,Ｚ＆Ｔ合同会社,,合同会社,大阪府,大阪市生野区,中川６丁目６番２号,,27,116,5440005,,,,,,,2025-05-26,1,,,,,ゼットアンドティ,0
1253,5120003029549,新規,0,2025-05-26,2025-05-26,合同会社ひなたスペース,,合同会社,大阪府,寝屋川市,成田東町２１番３２号,,27,215,5720001,,,,,,,2025-05-26,1,,,,,ヒナタスペース,0
1256,5120101071675,新規,0,2025-05-26,2025-05-26,株式会社国億旅行,,株式会社,大阪府,堺市堺区,神石市之町３０－２１－２０２,,27,141,5900813,,,,,,,2025-05-26,1,,,,,コクオクリョコウ,0
1257,5120103006464,新規,0,2025-05-26,2025-05-26,合同会社ビリーフ,,合同会社,大阪府,堺市中区,八田北町３６７番地２,,27,142,5998262,,,,,,,2025-05-26,1,,,,,ビリーフ,0
1258,5120103006472,新規,0,2025-05-26,2025-05-26,合同会社オオシマ,,合同会社,大阪府,富田林市,大字嬉２８３番地１７,,27,214,5840056,,,,,,,2025-05-26,1,,,,,オオシマ,0
1259,5120103006480,新規,0,2025-05-26,2025-05-26,合同会社八十九,,合同会社,大阪府,岸和田市,藤井町２丁目１番２－５０５号,,27,202,5960046,,,,,,,2025-05-26,1,,,,,ハチジュウキュウ,0
1264,5122001039273,新規,0,2025-05-26,2025-05-26,Ｓｅｎｉｘ　Ｏｎｅ株式会社,,株式会社,大阪府,東大阪市,新池島町２丁目２番１４号,,27,227,5798065,,,,,,,2025-05-26,1,,,,,セニックスワン,0
1271,5130003010490,新規,0,2025-05-26,2025-05-26,合同会社ＲＡ,,合同会社,京都府,京都市下京区,麩屋町通四条下る八文字町３３４－２－４０３,,26,106,6008041,,,,,,,2025-05-26,1,,,,,アールエー,0
1278,5140001138671,新規,0,2025-05-26,2025-05-26,株式会社ライズ・リバー,,株式会社,兵庫県,神戸市中央区,磯辺通１丁目１番１８号カサベラ国際プラザビル７０７号室,,28,110,6510084,,,,,,,2025-05-26,1,,,,,ライズリバー,0
1279,5140001138713,新規,0,2025-05-26,2025-05-26,株式会社ウイン,,株式会社,兵庫県,神戸市灘区,備後町５丁目３番１－１００１号,,28,102,6570037,,,,,,,2025-05-26,1,,,,,ウイン,0
1282,5160003003483,新規,0,2025-05-26,2025-05-26,合同会社Ｍ＆Ｎ’ｓ,,合同会社,滋賀県,栗東市,林１３２番地１０,,25,208,5203043,,,,,,,2025-05-26,1,,,,,エムアンドエヌズ,0
1288,5180001166891,新規,0,2025-05-26,2025-05-26,株式会社冨田商店,,株式会社,愛知県,名古屋市守山区,竜泉寺１丁目８３４番地,,23,113,4630801,,,,,,,2025-05-26,1,,,,,トミタショウテン,0
1303,5220003004038,新規,0,2025-05-26,2025-05-26,リバーサイドクリエイティブ合同会社,,合同会社,石川県,小松市,木場町癸５－２１,,17,203,9230311,,,,,,,2025-05-26,1,,,,,リバーサイドクリエイティブ,0
1308,5240001064981,新規,0,2025-05-26,2025-05-26,株式会社フォルトシュリット,,株式会社,広島県,広島市南区,松原町５番２－２６０４号,,34,103,7320822,,,,,,,2025-05-26,1,,,,,フォルトシュリット,0
1315,5290001110112,新規,0,2025-05-26,2025-05-26,株式会社ベストハウス博多,,株式会社,福岡県,福岡市博多区,博多駅南１丁目７番１４－５０１号,,40,132,8120016,,,,,,,2025-05-26,1,,,,,ベストハウスハカタ,0
1316,5290001110120,新規,0,2025-05-26,2025-05-26,株式会社長利,,株式会社,福岡県,福岡市中央区,天神４丁目６番地２８いちご天神ノースビル７階,,40,133,8100001,,,,,,,2025-05-26,1,,,,,ナガトシ,0
1323,5290801031565,新規,0,2025-05-26,2025-05-26,株式会社ＬＩＮＣＡＲ,,株式会社,福岡県,北九州市戸畑区,沖台１丁目７番２２号,,40,105,8040064,,,,,,,2025-05-26,1,,,,,リンカー,0
1325,5320003004671,新規,0,2025-05-26,2025-05-26,合同会社Ｆｏｒｅｓｔｃｉｔｙ,,合同会社,大分県,日田市,大字東有田１１７８番地１０ＣＲＥＡＴＩＶＥ・ＢＡＳＥ・ＦＡＢ１０１区画,,44,204,8770000,,,,,,,2025-05-26,1,,,,,フォレストシティ,0
1326,5330001033218,新規,0,2025-05-26,2025-05-26,株式会社ＱＦＬＡ　ＨＤ,,株式会社,熊本県,熊本市中央区,国府３丁目２７番２０号,,43,101,8620949,,,,,,,2025-05-26,1,,,,,キュウフラホールディングス,0
1328,5340001027350,新規,0,2025-05-26,2025-05-26,株式会社ナナテク,,株式会社,鹿児島県,出水市,緑町３５番２４号,,46,208,8990201,,,,,,,2025-05-26,1,,,,,ナナテク,0
1336,5360001035244,新規,0,2025-05-26,2025-05-26,株式会社ＹＵＲＩ電気,,株式会社,沖縄県,糸満市,字北波平１８３－１,,47,210,9010312,,,,,,,2025-05-26,1,,,,,,0
1340,5360003014948,新規,0,2025-05-26,2025-05-26,合同会社ゴヤスポーツ,,合同会社,沖縄県,那覇市,牧志２丁目１７－２７－４０１,,47,201,9000013,,,,,,,2025-05-26,1,,,,,ゴヤスポーツ,0
1342,5370003007109,新規,0,2025-05-26,2025-05-26,合同会社つむぎ,,合同会社,宮城県,柴田郡大河原町,大谷字盛１番地,,04,321,9891201,,,,,,,2025-05-26,1,,,,,ツムギ,0
1347,5420001019158,新規,0,2025-05-26,2025-05-26,新教育センター株式会社,,株式会社,青森県,八戸市,大字寺横町１３番地,,02,203,0310035,,,,,,,2025-05-26,1,,,,,シンキョウイクセンター,0
1349,5430001094480,新規,0,2025-05-26,2025-05-26,ＲＩＶＥＲ　ＦＩＥＬＤ株式会社,,株式会社,北海道,苫小牧市,美園町２丁目１７番２号,,01,213,0530041,,,,,,,2025-05-26,1,,,,,リバーフィールド,0
1351,5430003017695,新規,0,2025-05-26,2025-05-26,合同会社プラミングサポート,,合同会社,北海道,札幌市北区,拓北二条４丁目６番６号,,01,102,0028062,,,,,,,2025-05-26,1,,,,,プラミングサポート,0
1355,5460303000869,新規,0,2025-05-26,2025-05-26,合同会社ＢＤＭ‐Ｂｌｕｅ　Ｄａｉｓｙ　Ｍａｒｒｉａｇｅ,,合同会社,北海道,北見市,本町４丁目１０番２０号,,01,208,0900818,,,,,,,2025-05-26,1,,,,,ビーディーエムブルーデイジーマリッジ,0
1357,5470001020722,新規,0,2025-05-26,2025-05-26,株式会社ＮＯＢＯＲＩＯ,,株式会社,香川県,高松市,木太町１４８４番地１４,,37,201,7600080,,,,,,,2025-05-26,1,,,,,ノボリオ,0
1360,5500001026303,新規,0,2025-05-26,2025-05-26,株式会社ミスターブルースカイ,,株式会社,愛媛県,松山市,久谷町１４５番地３,,38,201,7911132,,,,,,,2025-05-26,1,,,,,ミスターブルースカイ,0
1363,5700150130694,新規,0,2025-05-26,2025-05-26,ｈａｎｇｚｈｏｕｍｅｎｇｚａｉｄｉａｎｚｉｓｈａｎｇｗｕｙｏｕｘｉａｎｇｏｎｇｓｉ,,外国会社等,,,,,,,,ｚｈｅｊｉａｎｇｓｈｅｎｇｈａｎｇｚｈｏｕｓｈｉｌｉｎａｎｑｕｊｉｎｎａｎｊｉｅｄａｏｌａｎｊｉｎｓｈｅｑｕｌｉｎｌｉｚｈｏｎｇｘｉｎｌａｎｊｉｎｌｕ３３３ｈａｏ－３０ｈａｏｇｏｎｇｗｅｉ,,,,,,2025-05-26,1,,,,,ハンジョウモンズーディエンズーシャンウーヨウシエンゴンスー,0
1364,5700150130703,新規,0,2025-05-26,2025-05-26,ＳＡＵＬＯＲ　ＰＴＥ．ＬＴＤ．,,外国会社等,,,,,,,,１２　ＷＯＯＤＬＡＮＤＳ　ＳＱＵＡＲＥ　０６－７９　ＷＯＯＤＳ　ＳＱＵＡＲＥ　ＳＩＮＧＡＰＯＲＥ（７３７７１５）,,,,,,2025-05-26,1,,,,,サウロアペットリミテッド,0
1381,6010001255306,新規,0,2025-05-26,2025-05-26,株式会社長渕,,株式会社,東京都,文京区,大塚１丁目４番１５－１４０６号,,13,105,1120012,,,,,,,2025-05-26,1,,,,,ナガフチ,0
1382,6010003047437,新規,0,2025-05-26,2025-05-26,ＴＦＭエナジーストレージ合同会社,,合同会社,東京都,中央区,京橋２丁目１２番６号ＡＯＪ税理士法人内,,13,102,1040031,,,,,,,2025-05-26,1,,,,,ティーエフエムエナジーストレージ,0
1383,6010005040076,新規,0,2025-05-26,2025-05-26,一般社団法人つばさ,,その他の設立登記法人,東京都,千代田区,神田駿河台１丁目５番６－１１０号,,13,101,1010062,,,,,,,2025-05-26,1,,,,,ツバサ,0
1386,6010103002580,新規,0,2025-05-26,2025-05-26,合同会社創夢パートナーズ,,合同会社,東京都,八王子市,上恩方町１０８２番地１,,13,201,1920156,,,,,,,2025-05-26,1,,,,,ソウムパートナーズ,0
1394,6010401190318,新規,0,2025-05-26,2025-05-26,ＤＣ．Ｉｎｎｏｖａｔｉｏｎｓ株式会社,,株式会社,東京都,港区,南青山１丁目２６－１６乃木坂リリエンハイム６０９,,13,103,1070062,,,,,,,2025-05-26,1,,,,,ディーシーイノベーションズ,0
1395,6010401190482,新規,0,2025-05-26,2025-05-26,株式会社ＫＡＴＨＡＲＳＩＳ,,株式会社,東京都,港区,虎ノ門４丁目１番３４－３４０４号,,13,103,1050001,,,,,,,2025-05-26,1,,,,,カターシス,0
1396,6010403035215,新規,0,2025-05-26,2025-05-26,合同会社Ｃｒａｆｔ　ＬｉｎＸ,,合同会社,東京都,港区,三田１丁目２－２０ＢＩＲＴＨＩＮＲＥＳＩＤＥＮＣＥ４０３,,13,103,1080073,,,,,,,2025-05-26,1,,,,,クラフトリンクス,0
1402,6010803005395,新規,0,2025-05-26,2025-05-26,富アセット合同会社,,合同会社,東京都,大田区,南蒲田３丁目１２－８　イルマーレグランデ１０１,,13,111,1440035,,,,,,,2025-05-26,1,,,,,トミアセット,0
1405,6010901057405,新規,0,2025-05-26,2025-05-26,株式会社Ｇｅｎｕｉｎｇ,,株式会社,東京都,世田谷区,太子堂１丁目１２―２５ＳＵＮ―Ｔビル７０１号室,,13,112,1540004,,,,,,,2025-05-26,1,,,,,ジェニュイング,0
1411,6011001169561,新規,0,2025-05-26,2025-05-26,株式会社ＳＯＲＡ,,株式会社,東京都,渋谷区,神南１丁目１１番４号ＦＰＧリンクス神南５階,,13,113,1500041,,,,,,,2025-05-26,1,,,,,ソラ,0
1412,6011001169883,新規,0,2025-05-26,2025-05-26,株式会社ａｉｇａｔｅ,,株式会社,東京都,渋谷区,神宮前６丁目２３－４－２Ｆ,,13,113,1500001,,,,,,,2025-05-26,1,,,,,アイガテ,0
1416,6011101111910,新規,0,2025-05-26,2025-05-26,株式会社ＨＯＰＥＥ　Ｓｏｌｕｔｉｏｎｓ,,株式会社,東京都,新宿区,西新宿３丁目３番１３号西新宿水間ビル２Ｆ,,13,104,1600023,,,,,,,2025-05-26,1,,,,,ホピーソリューションズ,0
1417,6011103015952,新規,0,2025-05-26,2025-05-26,合同会社Ｓｔａｄｉｏｎ　Ｐａｒｔｎｅｒｓ,,合同会社,東京都,新宿区,西新宿６丁目１０番地１号日土地西新宿ビル８階,,13,104,1600023,,,,,,,2025-05-26,1,,,,,スタディオンパートナーズ,0
1424,6011601028679,新規,0,2025-05-26,2025-05-26,ＫＥＮＺＯ・Ｅｘｔｅｒｉｏｒ株式会社,,株式会社,東京都,練馬区,関町北１丁目３番２号,,13,120,1770051,,,,,,,2025-05-26,1,,,,,ケンゾーエクステリア,0
1427,6011701028356,新規,0,2025-05-26,2025-05-26,株式会社Ｐｌｕｓ１,,株式会社,東京都,江戸川区,松島３丁目２５番８号,,13,123,1320031,,,,,,,2025-05-26,1,,,,,プラスワン,0
1434,6012703003280,新規,0,2025-05-26,2025-05-26,合同会社サイアム・ジー・プロパティ・ジャパン,,合同会社,東京都,小平市,学園西町３丁目１０番９号,,13,211,1870045,,,,,,,2025-05-26,1,,,,,サイアムジープロパティジャパン,0
1440,6013301054286,新規,0,2025-05-26,2025-05-26,耀盈株式会社,,株式会社,東京都,豊島区,西巣鴨１丁目２番２２号ＷＡＮＤＡビル２階,,13,116,1700001,,,,,,,2025-05-26,1,,,,,ヨウエイ,0
1448,6020001163029,新規,0,2025-05-26,2025-05-26,株式会社Ｂａｌｌｅｎ,,株式会社,神奈川県,川崎市中原区,木月１丁目４番１５号,,14,133,2110025,,,,,,,2025-05-26,1,,,,,バレン,0
1452,6020003028551,新規,0,2025-05-26,2025-05-26,合同会社ＭＴＺ,,合同会社,神奈川県,横浜市神奈川区,栄町１６番地５プレミスト横浜ポートサイド１４０７号,,14,102,2210052,,,,,,,2025-05-26,1,,,,,エムティーゼット,0
1462,6030001166690,新規,0,2025-05-26,2025-05-26,株式会社ラフ,,株式会社,埼玉県,朝霞市,北原２丁目５番２８号,,11,227,3510036,,,,,,,2025-05-26,1,,,,,ラフ,0
1468,6040001138912,新規,0,2025-05-26,2025-05-26,株式会社コネクト,,株式会社,千葉県,茂原市,東郷１２７５番地４,,12,210,2970017,,,,,,,2025-05-26,1,,,,,コネクト,0
1469,6040001138920,新規,0,2025-05-26,2025-05-26,株式会社Ｓｅｉｚｅ,,株式会社,千葉県,千葉市中央区,大森町２６０－６７,,12,101,2600811,,,,,,,2025-05-26,1,,,,,シーズ,0
1475,6040003027642,新規,0,2025-05-26,2025-05-26,合同会社ＫＯ,,合同会社,千葉県,柏市,五條谷２８８番地９,,12,217,2770913,,,,,,,2025-05-26,1,,,,,ケーオー,0
1476,6040003027675,新規,0,2025-05-26,2025-05-26,ＨＩＲＯＭＩＷＡ合同会社,,合同会社,千葉県,千葉市若葉区,金親町９７４番地６５－２,,12,104,2640001,,,,,,,2025-05-26,1,,,,,ヒロミワ,0
1479,6050001056725,新規,0,2025-05-26,2025-05-26,株式会社ＫＪ‐ＮＥＴＷＯＲＫ,,株式会社,茨城県,東茨城郡大洗町,磯浜町７８１,,08,309,3111301,,,,,,,2025-05-26,1,,,,,ケージェーネットワーク,0
1484,6060001038227,新規,0,2025-05-26,2025-05-26,Ｒｅｌｉｆｅ株式会社,,株式会社,栃木県,佐野市,飛駒町２１５２番地,,09,204,3270231,,,,,,,2025-05-26,1,,,,,リライフ,0
1491,6080001026948,新規,0,2025-05-26,2025-05-26,ＲＵＩＬＥＤ　ＶＩＳＩＯＮ　ＪＡＰＡＮ株式会社,,株式会社,静岡県,島田市,中河町２８５番地の５ＺＥＲＯビル,,22,209,4270041,,,,,,,2025-05-26,1,,,,,ルイエルイーディービジョンジャパン,0
1495,6080401027926,新規,0,2025-05-26,2025-05-26,株式会社ライフベア,,株式会社,静岡県,浜松市中央区,市野町５１番地の１,,22,138,4350051,,,,,,,2025-05-26,1,,,,,,0
1496,6080405007742,新規,0,2025-05-26,2025-05-26,トータル開発測量土地家屋調査士法人,,その他の設立登記法人,静岡県,磐田市,中泉２８６番地５,,22,211,4380078,,,,,,,2025-05-26,1,,,,,トータルカイハツソクリョウ,0
1500,6100003008173,新規,0,2025-05-26,2025-05-26,合同会社エーワンアンドサンズ,,合同会社,長野県,上水内郡信濃町,大字古間４３８番地２,,20,583,3891313,,,,,,,2025-05-26,1,,,,,エーワンアンドサンズ,0
1539,6120001276092,新規,0,2025-05-26,2025-05-26,株式会社ＲＹＯ和,,株式会社,大阪府,大阪市住之江区,安立２丁目２番１８号,,27,125,5590003,,,,,,,2025-05-26,1,,,,,リョウワ,0
1540,6120001276126,新規,0,2025-05-26,2025-05-26,株式会社Ｙ．Ｏ．Ｕ,,株式会社,大阪府,大阪市中央区,南船場２丁目１１番２２－２０１号,,27,128,5420081,,,,,,,2025-05-26,1,,,,,ユー,0
1541,6120003029548,新規,0,2025-05-26,2025-05-26,ＭＩＹＵＫＩ合同会社,,合同会社,大阪府,大阪市西成区,天下茶屋２丁目６番６－６０２号,,27,122,5570014,,,,,,,2025-05-26,1,,,,,ミユキ,0
1542,6120005024951,新規,0,2025-05-26,2025-05-26,一般社団法人全日本外国人経営管理支援会,,その他の設立登記法人,大阪府,大阪市北区,天神橋７丁目１２－１４グレーシィ天神橋３０１Ａ,,27,127,5310041,,,,,,,2025-05-26,1,,,,,ゼンニホンガイコクジンケイエイカンリシエンカイ,0
1545,6120101071674,新規,0,2025-05-26,2025-05-26,株式会社ＪＭＮ,,株式会社,大阪府,堺市堺区,神石市之町３０－２１－２０４,,27,141,5900813,,,,,,,2025-05-26,1,,,,,ジェイエムエヌ,0
1546,6120101071716,新規,0,2025-05-26,2025-05-26,和興株式会社,,株式会社,大阪府,高石市,高師浜２丁目１１番２４号,,27,225,5920004,,,,,,,2025-05-26,1,,,,,ワコウ,0
1547,6120101071757,新規,0,2025-05-26,2025-05-26,株式会社Ｍｙｕ’ｚ,,株式会社,大阪府,堺市堺区,緑ヶ丘北町３丁２番２号,,27,141,5900806,,,,,,,2025-05-26,1,,,,,ミューズ,0
1550,6120901050976,新規,0,2025-05-26,2025-05-26,株式会社Ｗｅ‐ａｃｃｏｍｐａｎｙ,,株式会社,大阪府,豊中市,野田町３４番４,,27,203,5610855,,,,,,,2025-05-26,1,,,,,ウィアカンパニー,0
1551,6120903005680,新規,0,2025-05-26,2025-05-26,ヴィレッジ合同会社,,合同会社,大阪府,箕面市,彩都粟生南４丁目１番４－５０２号,,27,220,5620028,,,,,,,2025-05-26,1,,,,,ヴィレッジ,0
1560,6140001138646,新規,0,2025-05-26,2025-05-26,株式会社ＭＦＣ,,株式会社,兵庫県,神戸市北区,有野中町３丁目２７番１－３０１号,,28,109,6511313,,,,,,,2025-05-26,1,,,,,エムエフシー,0
1561,6140001138670,新規,0,2025-05-26,2025-05-26,株式会社緩来,,株式会社,兵庫県,川辺郡猪名川町,若葉２丁目９番地１３,,28,301,6660251,,,,,,,2025-05-26,1,,,,,ユルク,0
1563,6140003022096,新規,0,2025-05-26,2025-05-26,合同会社ミカタニエン,,合同会社,兵庫県,尼崎市,大庄西町４丁目４番２０－１０５号,,28,202,6600077,,,,,,,2025-05-26,1,,,,,,0
1565,6150005009702,新規,0,2025-05-26,2025-05-26,一般社団法人西大寺八幡神社左座,,その他の設立登記法人,奈良県,奈良市,西大寺芝町２丁目１０左座座小屋,,29,201,6310825,,,,,,,2025-05-26,1,,,,,サイダイジハチマンジンジャヒダリザ,0
1566,6160001026774,新規,0,2025-05-26,2025-05-26,株式会社Ｗｅｓｔ‐ｓｔｙｌｅ,,株式会社,滋賀県,近江八幡市,野村町１４４３,,25,204,5230075,,,,,,,2025-05-26,1,,,,,ウェストスタイル,0
1570,6180001166932,新規,0,2025-05-26,2025-05-26,株式会社鳥居建築設計,,株式会社,愛知県,日進市,五色園１丁目１０１８番地,,23,230,4700105,,,,,,,2025-05-26,1,,,,,トリイケンチクセッケイ,0
1576,6180301039771,新規,0,2025-05-26,2025-05-26,輪株式会社,,株式会社,愛知県,岡崎市,美合町字生田２２５番地パラシオ美合４０５,,23,202,4440804,,,,,,,2025-05-26,1,,,,,ワ,0
1581,6200003006844,新規,0,2025-05-26,2025-05-26,ＤＡＩ合同会社,,合同会社,岐阜県,大垣市,中川町３丁目２４番地１,,21,202,5030017,,,,,,,2025-05-26,1,,,,,ダイ,0
1588,6240003007228,新規,0,2025-05-26,2025-05-26,ＴＫサポート合同会社,,合同会社,広島県,福山市,本町１０番５号,,34,207,7200056,,,,,,,2025-05-26,1,,,,,ティーケーサポート,0
1599,6290001110111,新規,0,2025-05-26,2025-05-26,株式会社アールプラス,,株式会社,福岡県,太宰府市,御笠２丁目５番３号,,40,221,8180110,,,,,,,2025-05-26,1,,,,,アールプラス,0
1602,6290003016892,新規,0,2025-05-26,2025-05-26,ＫＬＩ新エネルギー合同会社,,合同会社,福岡県,福岡市博多区,博多駅前３丁目４番８号,,40,132,8120011,,,,,,,2025-05-26,1,,,,,ケイエルアイシンエネルギー,0
1606,6290801031572,新規,0,2025-05-26,2025-05-26,株式会社いぶき,,株式会社,福岡県,田川市,大字伊加利１１３５番地１,,40,206,8250001,,,,,,,2025-05-26,1,,,,,イブキ,0
1608,6320001021115,新規,0,2025-05-26,2025-05-26,株式会社ＳＰＡＲＫＹ,,株式会社,大分県,由布市,湯布院町川上６１６番地１，サンリットみなみＡ２０２,,44,213,8795102,,,,,,,2025-05-26,1,,,,,スパーキー,0
1616,6330003011022,新規,0,2025-05-26,2025-05-26,合同会社阿蘇ゴルフレンジ,,合同会社,熊本県,阿蘇市,黒川１５０番地,,43,214,8692225,,,,,,,2025-05-26,1,,,,,アソゴルフレンジ,0
1623,6360003014939,新規,0,2025-05-26,2025-05-26,ラストマイル合同会社,,合同会社,沖縄県,石垣市,字石垣１４５番地４西棟,,47,207,9070023,,,,,,,2025-05-26,1,,,,,ラストマイル,0
1624,6360003014947,新規,0,2025-05-26,2025-05-26,ＧＲＯＵＰ合同会社,,合同会社,沖縄県,豊見城市,字豊崎１番地１０７７－２Ｆ,,47,212,9010225,,,,,,,2025-05-26,1,,,,,グループ,0
1628,6370001052626,新規,0,2025-05-26,2025-05-26,株式会社ＢＥＬＬＥ‐ＷＥＬＬ,,株式会社,宮城県,仙台市青葉区,一番町３丁目３－１,,04,101,9800811,,,,,,,2025-05-26,1,,,,,ベルウェル,0
1632,6370003007108,新規,0,2025-05-26,2025-05-26,合同会社健康ライフ東日本,,合同会社,宮城県,仙台市青葉区,荒巻中央１２番１５号テラス２１－１０２,,04,101,9810964,,,,,,,2025-05-26,1,,,,,ケンコウライフヒガシニホン,0
1634,6420001019157,新規,0,2025-05-26,2025-05-26,株式会社Ｓｕｓｈｉｆｙ,,株式会社,青森県,弘前市,大字蒔苗字油伝１４番地１,,02,202,0368371,,,,,,,2025-05-26,1,,,,,スシファイ,0
1637,6430001094463,新規,0,2025-05-26,2025-05-26,株式会社ＨＫ　Ｃａｐｉｔａｌ,,株式会社,北海道,札幌市中央区,北五条西１１丁目１５番４号,,01,101,0600005,,,,,,,2025-05-26,1,,,,,エイチケーキャピタル,0
1638,6430003017694,新規,0,2025-05-26,2025-05-26,合同会社ファルコン,,合同会社,北海道,恵庭市,恵み野北３丁目１‐２,,01,231,0611374,,,,,,,2025-05-26,1,,,,,ファルコン,0
1648,6700150130693,新規,0,2025-05-26,2025-05-26,Ｂｅｉｊｉｎｇ　Ｄａｚｈｉｒｕｏｙｕ　Ｇｕａｎｌｉｚｉｘｕｎｙｏｕｘｉａｎｇｏｎｇｓｉ,,外国会社等,,,,,,,,Ｃｈａｏｙａｎｇ　Ｄｉｓｔｒｃｔ　Ｊｉａｎｇｔａｉｘｉａｎｇ　ｔｕｏｆａｎｇｙｉｎｇｌｕ８ｈａｏＸｉｎｈｕａｋｅｊｉｄａｓｈａ２２ｃｅｎｇ　２２２０ｓｈｉＢｅｉｊｉｎｇ,,,,,,2025-05-26,1,,,,,ベイジンダージールオイーグワンリーズーシンヨウシエンゴンスー,0
1649,6700150130702,新規,0,2025-05-26,2025-05-26,駐日本国大韓民国大使館,,外国会社等,東京都,港区,南麻布１丁目２－５,,13,103,1060047,６０，Ｓａｊｉｋ－ｒｏ　８　ｇｉｌ，Ｊｏｎｇｎｏ－ｇｕ，Ｓｅｏｕｌ，Ｒｅｐｕｂｌｉｃ　ｏｆ　Ｋｏｒｅａ,,,,,,2025-05-26,1,,,,,チユウニホンコクダイカンミンコクタイシカン,0
1650,6700150130719,新規,0,2025-05-26,2025-05-26,ＩＫＩＧＡＩ　ＥＮＴＥＲＰＲＩＳＥＳ,,外国会社等,千葉県,山武市,埴谷１６４７番地９－Ｂ,,12,237,2891223,スリランカ民主社会主義共和国、７ｔｈマイルポスト、アクラナ、マタレロード、Ｎｏ．２４２／３,,,,,,2025-05-26,1,,,,,イキガイエンタープライズ,0
1657,7010001255197,新規,0,2025-05-26,2025-05-26,ＡＩＯＮ　Ｌａｂ株式会社,,株式会社,東京都,中央区,勝どき６丁目３番１－４８２４号,,13,102,1040054,,,,,,,2025-05-26,1,,,,,アイオンラボ,0
1658,7010001255305,新規,0,2025-05-26,2025-05-26,株式会社ＰＩＧＭＹ,,株式会社,東京都,中央区,勝どき４丁目６番２－１７２３号,,13,102,1040054,,,,,,,2025-05-26,1,,,,,ピグミー,0
1659,7010001255313,新規,0,2025-05-26,2025-05-26,株式会社エイスフィール,,株式会社,東京都,文京区,本郷１丁目１０番１４号加奈利屋館５階,,13,105,1130033,,,,,,,2025-05-26,1,,,,,エイスフィール,0
1660,7010005040034,新規,0,2025-05-26,2025-05-26,一般社団法人Ｇｌｏｂａｌ　Ｂｕｓｉｎｅｓｓ　Ｌｅａｄｅｒｓ　Ａｌｌｉａｎｃｅ協会,,その他の設立登記法人,東京都,千代田区,九段南１丁目５－６りそな九段ビル５Ｆ,,13,101,1020074,,,,,,,2025-05-26,1,,,,,グローバルビジネスリーダーズアライアンスキョウカイ,0
1671,7010401190507,新規,0,2025-05-26,2025-05-26,株式会社トーチリレーヘルスケア,,株式会社,東京都,港区,南青山２丁目２番１５号ウィン青山１２１４号,,13,103,1070062,,,,,,,2025-05-26,1,,,,,トーチリレーヘルスケア,0
1676,7010403035180,新規,0,2025-05-26,2025-05-26,Ｅｒａｙａ　Ｊｅｗｅｌｓ合同会社,,合同会社,東京都,港区,東麻布３丁目７－３－３Ｆ,,13,103,1060044,,,,,,,2025-05-26,1,,,,,エラヤジュエルス,0
1681,7010601067348,新規,0,2025-05-26,2025-05-26,株式会社Ｂｉｔｔｅｒ,,株式会社,東京都,墨田区,千歳１丁目２－４プラウドフラット両国サウス２１４,,13,107,1300025,,,,,,,2025-05-26,1,,,,,ビター,0
1682,7010603011576,新規,0,2025-05-26,2025-05-26,Ｓ＆Ｓ合同会社,,合同会社,東京都,江東区,東砂１丁目３番２４－４０１号,,13,108,1360074,,,,,,,2025-05-26,1,,,,,エスアンドエス,0
1686,7010803005394,新規,0,2025-05-26,2025-05-26,合同会社千琳会,,合同会社,東京都,大田区,西蒲田５丁目１５－６,,13,111,1440051,,,,,,,2025-05-26,1,,,,,センリンカイ,0
1691,7010901057412,新規,0,2025-05-26,2025-05-26,ｍａｎａｖｏ株式会社,,株式会社,東京都,世田谷区,玉川３丁目１番１８－１２０７号,,13,112,1580094,,,,,,,2025-05-26,1,,,,,マナヴォ,0
1702,7011001169511,新規,0,2025-05-26,2025-05-26,株式会社Ｋ‐ｆａｒｍ,,株式会社,東京都,渋谷区,神南１丁目１１番４号ＦＰＧリンクス神南５階,,13,113,1500041,,,,,,,2025-05-26,1,,,,,ケーファーム,0
1703,7011003021760,新規,0,2025-05-26,2025-05-26,合同会社ｏ・ｇ・ｏ,,合同会社,東京都,渋谷区,東２丁目２７番２号,,13,113,1500011,,,,,,,2025-05-26,1,,,,,オージーオー,0
1704,7011005011000,新規,0,2025-05-26,2025-05-26,一般社団法人ＡＬＰＳメディカルラボ,,その他の設立登記法人,東京都,渋谷区,広尾５丁目１９番１１号,,13,113,1500012,,,,,,,2025-05-26,1,,,,,アルプスメディカルラボ,0
1708,7011101111793,新規,0,2025-05-26,2025-05-26,エイトレーディング株式会社,,株式会社,東京都,新宿区,西新宿７丁目５番５号Ｐｌａｚａ西新宿ＵＣＦ４０６,,13,104,1600023,,,,,,,2025-05-26,1,,,,,エイトレーディング,0
1711,7011401027120,新規,0,2025-05-26,2025-05-26,株式会社ＤＯＳＵＫＯＩ　Ｐｌｕｓ,,株式会社,東京都,板橋区,南常盤台２丁目１番６号Ｂ１,,13,119,1740072,,,,,,,2025-05-26,1,,,,,ドスコイプラス,0
1714,7011503006550,新規,0,2025-05-26,2025-05-26,マンチャン合同会社,,合同会社,東京都,北区,滝野川３丁目１５番８号ライムコーポ３０１号,,13,117,1140023,,,,,,,2025-05-26,1,,,,,マンチャン,0
1716,7011601028678,新規,0,2025-05-26,2025-05-26,ナラティブ株式会社,,株式会社,東京都,練馬区,土支田３丁目１８－５,,13,120,1790076,,,,,,,2025-05-26,1,,,,,ナラティブ,0
1722,7012401043140,新規,0,2025-05-26,2025-05-26,株式会社Ｍｕｓｉｃ　Ａｄａｐｔｅｒ,,株式会社,東京都,武蔵野市,西久保１丁目４７番２号,,13,203,1800013,,,,,,,2025-05-26,1,,,,,ミュージックアダプター,0
1734,7020005016867,新規,0,2025-05-26,2025-05-26,一般社団法人Ｂｅｓｈａ横浜ＴＳ,,その他の設立登記法人,神奈川県,横浜市港南区,港南台９丁目１９番１－８１４号,,14,111,2340054,,,,,,,2025-05-26,1,,,,,ビーシャヨコハマティーエス,0
1753,7040001138894,新規,0,2025-05-26,2025-05-26,バスリエプラス株式会社,,株式会社,千葉県,我孫子市,柴崎台１丁目７番２０号,,12,222,2701176,,,,,,,2025-05-26,1,,,,,バスリエプラス,0
1754,7040001138911,新規,0,2025-05-26,2025-05-26,株式会社スリーフィールド,,株式会社,千葉県,千葉市美浜区,幸町１丁目１番１－１１１号,,12,106,2610001,,,,,,,2025-05-26,1,,,,,スリーフィールド,0
1758,7040003027625,新規,0,2025-05-26,2025-05-26,合同会社キクカク,,合同会社,千葉県,習志野市,鷺沼台４丁目３番１９号,,12,216,2750015,,,,,,,2025-05-26,1,,,,,キクカク,0
1764,7060001038234,新規,0,2025-05-26,2025-05-26,株式会社田中電気商会,,株式会社,栃木県,芳賀郡茂木町,大字茂木１７３７番地,,09,343,3213531,,,,,,,2025-05-26,1,,,,,タナカデンキショウカイ,0
1772,7090003002821,新規,0,2025-05-26,2025-05-26,合同会社ＰＲＡＮＩＤＨＩ　ＥＮＴＥＲＰＲＩＳＥＳ,,合同会社,山梨県,山梨市,正徳寺５６８番地５,,19,205,4050032,,,,,,,2025-05-26,1,,,,,プラニディエンタープライズ,0
1775,7100001038626,新規,0,2025-05-26,2025-05-26,株式会社グリーンハート,,株式会社,長野県,上田市,小島２１３番地１,,20,203,3861322,,,,,,,2025-05-26,1,,,,,グリーンハート,0
1790,7120001276158,新規,0,2025-05-26,2025-05-26,株式会社ＬＰ,,株式会社,大阪府,大阪市東淀川区,瑞光３丁目３－２６－５０１,,27,114,5330005,,,,,,,2025-05-26,1,,,,,エルピー,0
1791,7120001276232,新規,0,2025-05-26,2025-05-26,株式会社未来予想図,,株式会社,大阪府,交野市,星田３丁目１番７号,,27,230,5760016,,,,,,,2025-05-26,1,,,,,ミライヨソウズ,0
1795,7120003029539,新規,0,2025-05-26,2025-05-26,合同会社Ａ＆Ｋ,,合同会社,大阪府,大阪市住吉区,上住吉２丁目１５番１８号レオパレス住吉東２－１０２号室,,27,120,5580046,,,,,,,2025-05-26,1,,,,,エーアンドケー,0
1799,7120103006479,新規,0,2025-05-26,2025-05-26,合同会社ｙｏｎｅｌｅａ,,合同会社,大阪府,堺市東区,草尾７５９番地１１,,27,143,5998127,,,,,,,2025-05-26,1,,,,,ヨネリー,0
1800,7120105010009,新規,0,2025-05-26,2025-05-26,一般社団法人リーガルウエスト,,その他の設立登記法人,大阪府,堺市堺区,新町２番２号,,27,141,5900079,,,,,,,2025-05-26,1,,,,,リーガルウエスト,0
1805,7120901050918,新規,0,2025-05-26,2025-05-26,株式会社ユニトラベル,,株式会社,大阪府,吹田市,内本町１丁目７番１７号,,27,205,5640032,,,,,,,2025-05-26,1,,,,,ユニトラベル,0
1808,7122001039263,新規,0,2025-05-26,2025-05-26,株式会社ＦＡＭ,,株式会社,大阪府,東大阪市,衣摺３丁目７番８号,,27,227,5770827,,,,,,,2025-05-26,1,,,,,エフエーエム,0
1813,7130003010480,新規,0,2025-05-26,2025-05-26,合同会社京都夜市プロジェクト,,合同会社,京都府,京都市東山区,清閑寺山ノ内町４６番地５,,26,105,6050922,,,,,,,2025-05-26,1,,,,,キョウトヨイチプロジェクト,0
1814,7130003010489,新規,0,2025-05-26,2025-05-26,合同会社孔雀堂,,合同会社,京都府,京都市左京区,吉田泉殿町４－１３,,26,103,6068301,,,,,,,2025-05-26,1,,,,,クジャクドウ,0
1816,7140001138595,新規,0,2025-05-26,2025-05-26,ワールドドリームパートナーズ株式会社,,株式会社,兵庫県,神戸市西区,学園東町１丁目１番地１０１－５０３号,,28,111,6512102,,,,,,,2025-05-26,1,,,,,ワールドドリームパートナーズ,0
1817,7140001138637,新規,0,2025-05-26,2025-05-26,株式会社ＬＩＮＫ,,株式会社,兵庫県,姫路市,田寺８丁目１３番３０－４０２号,,28,201,6700086,,,,,,,2025-05-26,1,,,,,リンク,0
1818,7140001138645,新規,0,2025-05-26,2025-05-26,株式会社Ｒ’ｓ,,株式会社,兵庫県,加古川市,加古川町稲屋９８４番地の４０,,28,210,6750034,,,,,,,2025-05-26,1,,,,,アールズ,0
1819,7140001138661,新規,0,2025-05-26,2025-05-26,株式会社クリピカ,,株式会社,兵庫県,神戸市兵庫区,矢部町２０番３号,,28,105,6520005,,,,,,,2025-05-26,1,,,,,クリピカ,0
1820,7140003022095,新規,0,2025-05-26,2025-05-26,ミッドナイト合同会社,,合同会社,兵庫県,神戸市中央区,北長狭通１丁目２１－１５ニューアンカービル５Ｆ,,28,110,6500012,,,,,,,2025-05-26,1,,,,,ミッドナイト,0
1823,7150003003615,新規,0,2025-05-26,2025-05-26,合同会社忠原建築工房,,合同会社,奈良県,生駒郡平群町,大字椿井１２１４,,29,342,6360911,,,,,,,2025-05-26,1,,,,,タダハラケンチクコウボウ,0
1833,7180001166915,新規,0,2025-05-26,2025-05-26,株式会社福家良,,株式会社,愛知県,名古屋市昭和区,御器所２丁目３番２０号コーポ河合１０１号,,23,107,4660051,,,,,,,2025-05-26,1,,,,,フクカミ,0
1834,7180001166923,新規,0,2025-05-26,2025-05-26,株式会社Ｙｏｏｚ,,株式会社,愛知県,名古屋市東区,泉１丁目３番３０号プレサンス泉シティアーク６０８号,,23,102,4610001,,,,,,,2025-05-26,1,,,,,ユーズ,0
1844,7210001020176,新規,0,2025-05-26,2025-05-26,株式会社ＩＮＢ,,株式会社,福井県,敦賀市,新松島町１－２９－１,,18,202,9140803,,,,,,,2025-05-26,1,,,,,アイエヌビー,0
1845,7240001064988,新規,0,2025-05-26,2025-05-26,株式会社うさぎ,,株式会社,広島県,廿日市市,前空２丁目１番７－５０５号,,34,213,7390424,,,,,,,2025-05-26,1,,,,,ウサギ,0
1847,7240003007227,新規,0,2025-05-26,2025-05-26,合同会社なしわふぁーむ,,合同会社,広島県,三原市,本郷町上北方３０３５番地,,34,204,7290415,,,,,,,2025-05-26,1,,,,,ナシワファーム,0
1853,7260001040211,新規,0,2025-05-26,2025-05-26,株式会社Ｓａｎａ,,株式会社,岡山県,岡山市南区,芳泉４丁目２０番２７－３号,,33,104,7028027,,,,,,,2025-05-26,1,,,,,サナ,0
1868,7290003016875,新規,0,2025-05-26,2025-05-26,合同会社ＡＳＨＡ,,合同会社,福岡県,福岡市東区,香椎駅前１丁目１２番５号ＴＹビル２階Ｄ,,40,131,8130013,,,,,,,2025-05-26,1,,,,,アシャ,0
1869,7290003016900,新規,0,2025-05-26,2025-05-26,めるせです合同会社,,合同会社,福岡県,柳川市,上宮永町９７番地２３,,40,207,8320058,,,,,,,2025-05-26,1,,,,,メルセデス,0
1871,7290801031571,新規,0,2025-05-26,2025-05-26,株式会社コドモノプロジェクト,,株式会社,福岡県,直方市,古町６番８号,,40,204,8220027,,,,,,,2025-05-26,1,,,,,コドモノプロジェクト,0
1873,7290803005061,新規,0,2025-05-26,2025-05-26,合同会社ブライズ,,合同会社,福岡県,北九州市八幡西区,熊手３丁目１番５号吉田ビル２Ｆ,,40,109,8060028,,,,,,,2025-05-26,1,,,,,ブライズ,0
1876,7310001019613,新規,0,2025-05-26,2025-05-26,ＭＯＥプロジェクト株式会社,,株式会社,長崎県,長崎市,五島町５番３４－５０８号,,42,201,8500036,,,,,,,2025-05-26,1,,,,,エムオーイープロジェクト,0
1877,7320001021114,新規,0,2025-05-26,2025-05-26,株式会社新生クリエイト,,株式会社,大分県,大分市,久原南１丁目４番１０号,,44,201,8700326,,,,,,,2025-05-26,1,,,,,シンセイクリエイト,0
1881,7330001033224,新規,0,2025-05-26,2025-05-26,肥後コンサルタント株式会社,,株式会社,熊本県,合志市,幾久富１９０９番地１４９２,,43,216,8611112,,,,,,,2025-05-26,1,,,,,ヒゴコンサルタント,0
1887,7350001019543,新規,0,2025-05-26,2025-05-26,株式会社つねきち本店,,株式会社,宮崎県,宮崎市,高千穂通２丁目６番２３号サーパス宮崎駅前６０４,,45,201,8800812,,,,,,,2025-05-26,1,,,,,ツネキチホンテン,0
1890,7360001035242,新規,0,2025-05-26,2025-05-26,沖縄農業振興機構株式会社,,株式会社,沖縄県,那覇市,壺屋２丁目７－１７,,47,201,9020065,,,,,,,2025-05-26,1,,,,,オキナワノウギョウシンコウキコウ,0
1892,7360003014938,新規,0,2025-05-26,2025-05-26,合同会社ＴＳＵＪＩ　ＩＮＦＯＲＭＡＴＩＯＮ,,合同会社,沖縄県,那覇市,辻２丁目９番２３号グランピア波之上３－Ｄ,00139290,47,201,9000037,,,,,,,2025-05-26,1,,,,,ツジインホメイショーン,0
1893,7360003014946,新規,0,2025-05-26,2025-05-26,合同会社ＣｏｄｅＮｏｖａ,,合同会社,沖縄県,那覇市,識名３丁目１０－１日天アパートＡ－６,,47,201,9020078,,,,,,,2025-05-26,1,,,,,コードノヴァ,0
1894,7360003014954,新規,0,2025-05-26,2025-05-26,合同会社ＮＹ商事,,合同会社,沖縄県,宮古島市,伊良部字池間添１７２７番地５,,47,214,9060502,,,,,,,2025-05-26,1,,,,,エヌワイショウジ,0
1896,7360005007238,新規,0,2025-05-26,2025-05-26,浦添未来開発協同組合,,その他の設立登記法人,沖縄県,浦添市,安波茶１丁目６番１号２階,,47,208,9012114,,,,,,,2025-05-26,1,,,,,ウラソエミライカイハツ,0
1906,7420001019156,新規,0,2025-05-26,2025-05-26,Ｒｅ‐Ｎｅｘｔ株式会社,,株式会社,青森県,上北郡六戸町,小松ケ丘１丁目７７番地２９,,02,405,0330074,,,,,,,2025-05-26,1,,,,,リーネクスト,0
1912,7430001094479,新規,0,2025-05-26,2025-05-26,株式会社サブシステム,,株式会社,北海道,札幌市東区,東苗穂八条３丁目１４番１２号,,01,103,0070808,,,,,,,2025-05-26,1,,,,,サブシステム,0
1916,7470001020729,新規,0,2025-05-26,2025-05-26,香川水道修理店株式会社,,株式会社,香川県,高松市,番町５丁目６番３０号,,37,201,7600017,,,,,,,2025-05-26,1,,,,,カガワスイドウシュウリテン,0
1917,7490001011057,新規,0,2025-05-26,2025-05-26,株式会社幸丸水産,,株式会社,高知県,須崎市,浦ノ内塩間西ノ内１１１番地３,,39,206,7850166,,,,,,,2025-05-26,1,,,,,サチマルスイサン,0
1921,7500001026301,新規,0,2025-05-26,2025-05-26,株式会社信誠貿易,,株式会社,愛媛県,南宇和郡愛南町,中川４００番１,,38,506,7984404,,,,,,,2025-05-26,1,,,,,シンセイボウエキ,0
1923,7700150130692,新規,0,2025-05-26,2025-05-26,ＶＡＮＴＩＶＥ　ＵＳ　ＨＥＡＬＴＨＣＡＲＥ　ＬＬＣ,,外国会社等,,,,,,,,Ｏｎｅ　Ｂａｘｔｅｒ　Ｐａｒｋｗａｙ，Ｄｅｅｒｆｉｅｌｄ，Ｉｌｌｉｎｏｉｓ，６００１５，ＵＳＡ,,,,,,2025-05-26,1,,,,,ヴァンティブユーエスヘルスケアエルエルシー,0
1924,7700150130718,新規,0,2025-05-26,2025-05-26,ＬＡＮＫＡ　ＮＩＰＰＯＮ　ＡＵＴＯ　ＭＯＴＯＲＳ,,外国会社等,千葉県,山武市,日向台１番地１０－Ｂ,,12,237,2891206,スリランカ民主社会主義共和国、キタラワ、ナランガラ、エムピーエスハードウェア、Ｎｏ．１７,,,,,,2025-05-26,1,,,,,ランカニツポンオートモータース,0
1929,8010001255279,新規,0,2025-05-26,2025-05-26,株式会社Ａ‐Ｄｏｃ,,株式会社,東京都,千代田区,神田須田町２丁目２３番１天翔秋葉原万世橋ビル４０７,,13,101,1010041,,,,,,,2025-05-26,1,,,,,エードック,0
1930,8010001255304,新規,0,2025-05-26,2025-05-26,株式会社ＹＯＵＲ　ＲＩＧＨＴＳ,,株式会社,東京都,中央区,銀座１丁目１２番４号Ｎ＆ＥＢＬＤ．６Ｆ,,13,102,1040061,,,,,,,2025-05-26,1,,,,,ユアライツ,0
1933,8010003047328,新規,0,2025-05-26,2025-05-26,合同会社Ｔａｎｏｃｙ,,合同会社,東京都,中央区,銀座１丁目１２－４Ｎ＆ＥＢＬＤ．７階,,13,102,1040061,,,,,,,2025-05-26,1,,,,,,0
1934,8010003047443,新規,0,2025-05-26,2025-05-26,合同会社ＡＢ,,合同会社,東京都,文京区,本郷１丁目２５番２４－３０３号,,13,105,1130033,,,,,,,2025-05-26,1,,,,,エービー,0
1946,8010401190241,新規,0,2025-05-26,2025-05-26,Ｋａｆｕｕ株式会社,,株式会社,東京都,港区,三田２丁目１４番－７号ローレル三田１００１,,13,103,1080073,,,,,,,2025-05-26,1,,,,,カフー,0
1953,8010403035080,新規,0,2025-05-26,2025-05-26,合同会社キートス,,合同会社,東京都,港区,浜松町２丁目２番１５号浜松町ダイヤビル２Ｆ,,13,103,1050013,,,,,,,2025-05-26,1,,,,,キートス,0
1954,8010403035122,新規,0,2025-05-26,2025-05-26,合同会社壱国城,,合同会社,東京都,港区,南青山７丁目８番１５号ＵＳｈａｒｅＭｉｎａｍｉＡｏｙａｍａ１階１０３号室,,13,103,1070062,,,,,,,2025-05-26,1,,,,,イッコクジョウ,0
1955,8010403035188,新規,0,2025-05-26,2025-05-26,合同会社ｍｏａ,,合同会社,東京都,港区,浜松町２丁目２番１５号浜松町ダイヤビル２Ｆ,,13,103,1050013,,,,,,,2025-05-26,1,,,,,モア,0
1965,8010901057428,新規,0,2025-05-26,2025-05-26,株式会社イールドハウス,,株式会社,東京都,世田谷区,三宿１丁目２４番８号,,13,112,1540005,,,,,,,2025-05-26,1,,,,,イールドハウス,0
1972,8011001169683,新規,0,2025-05-26,2025-05-26,株式会社Ｂ　ＬＹＮＣ,,株式会社,東京都,渋谷区,神南１丁目１１番４号,,13,113,1500041,,,,,,,2025-05-26,1,,,,,ビーリンク,0
1978,8011101111792,新規,0,2025-05-26,2025-05-26,ｓｏｄａ‐ｘｘ株式会社,,株式会社,東京都,新宿区,新宿６丁目２６番４号リベルタ東新宿１０３号室,,13,104,1600022,,,,,,,2025-05-26,1,,,,,ソーダクロス,0
1979,8011101111900,新規,0,2025-05-26,2025-05-26,株式会社Ｌｕｎｉｔ　Ｊａｐａｎ,,株式会社,東京都,新宿区,新宿７丁目２６番３７－７０１号,,13,104,1600022,,,,,,,2025-05-26,1,,,,,ルニットジャパン,0
1982,8011103015918,新規,0,2025-05-26,2025-05-26,Ｓａｌｅｓ　Ｓｗｉｔｃｈ合同会社,,合同会社,東京都,新宿区,南元町１４－２プレミアスイート外苑の杜３０９,,13,104,1600012,,,,,,,2025-05-26,1,,,,,セールススウィッチ,0
1994,8011703004254,新規,0,2025-05-26,2025-05-26,つばめベンチャーズ合同会社,,合同会社,東京都,江戸川区,東葛西９丁目３－１４－１３３２,,13,123,1340084,,,,,,,2025-05-26,1,,,,,ツバメベンチャーズ,0
1999,8011801046181,新規,0,2025-05-26,2025-05-26,株式会社ＭｉＫＡＺＵＫｉ,,株式会社,東京都,足立区,東和３丁目１番８号,,13,121,1200003,,,,,,,2025-05-26,1,,,,,ミカヅキ,0
2003,8012703003279,新規,0,2025-05-26,2025-05-26,合同会社ａｎｄＴ,,合同会社,東京都,東久留米市,幸町３丁目１０－２６,,13,222,2030052,,,,,,,2025-05-26,1,,,,,アンドティー,0
2004,8013101009703,新規,0,2025-05-26,2025-05-26,株式会社世沼組,00139291,株式会社,東京都,あきる野市,五日市１０６９番地４,,13,228,1900164,,,,,,,2025-05-26,1,,,,,セヌマグミ,0
2011,8020005016874,新規,0,2025-05-26,2025-05-26,一般社団法人桃太郎,,その他の設立登記法人,神奈川県,横浜市青葉区,桂台２丁目３７番地６２,,14,117,2270034,,,,,,,2025-05-26,1,,,,,モモタロウ,0
2019,8030001166706,新規,0,2025-05-26,2025-05-26,株式会社ツキビト,,株式会社,埼玉県,川口市,東川口２丁目１６－２１デュオヒルズ東川口テラス４０４,,11,203,3330801,,,,,,,2025-05-26,1,,,,,ツキビト,0
2020,8030001166714,新規,0,2025-05-26,2025-05-26,株式会社ＳＵＧＡＲ　ＣＵＢＩＱＵＥ,,株式会社,埼玉県,所沢市,上新井５丁目１５番地の２,,11,208,3591142,,,,,,,2025-05-26,1,,,,,シュガーキュビック,0
2027,8040001138910,新規,0,2025-05-26,2025-05-26,ＦＡＲＳＩ株式会社,,株式会社,千葉県,佐倉市,岩富１６４８番地Ａ号室,,12,212,2850071,,,,,,,2025-05-26,1,,,,,ファルシ,0
2028,8040001138927,新規,0,2025-05-26,2025-05-26,株式会社東雲建設,,株式会社,千葉県,木更津市,桜町２丁目９番９号,,12,206,2920821,,,,,,,2025-05-26,1,,,,,トウウンケンセツ,0
2031,8040003027665,新規,0,2025-05-26,2025-05-26,合同会社ビション・エンターテイメント,,合同会社,千葉県,市川市,曽谷５丁目２９番６号,,12,203,2720832,,,,,,,2025-05-26,1,,,,,ビションエンターテイメント,0
2032,8040003027673,新規,0,2025-05-26,2025-05-26,日本設備合同会社,,合同会社,千葉県,千葉市美浜区,中瀬１丁目６番地ＢＡＹＰＯＩＮＴ幕張ローライズビル２階,,12,106,2610023,,,,,,,2025-05-26,1,,,,,ニホンセツビ,0
2036,8050005013638,新規,0,2025-05-26,2025-05-26,一般社団法人ＲｏｏｔＬｏｏｐ,,その他の設立登記法人,茨城県,日立市,大久保町２丁目２番８号,,08,202,3160012,,,,,,,2025-05-26,1,,,,,ルートループ,0
2042,8080401027924,新規,0,2025-05-26,2025-05-26,株式会社ｇｒａｓｐ,,株式会社,静岡県,浜松市中央区,高丘北１丁目１番８９号,,22,138,4338119,,,,,,,2025-05-26,1,,,,,グラスプ,0
2064,8120001275935,新規,0,2025-05-26,2025-05-26,星漢株式会社,,株式会社,大阪府,大阪市大正区,小林東３丁目１番１５号,,27,108,5510011,,,,,,,2025-05-26,1,,,,,セイカン,0
2065,8120001275976,新規,0,2025-05-26,2025-05-26,株式会社エターナルホスピタリティジャパン,,株式会社,大阪府,大阪市中央区,淡路町４丁目２番１３号,,27,128,5410047,,,,,,,2025-05-26,1,,,,,エターナルホスピタリティジャパン,0
2066,8120001276099,新規,0,2025-05-26,2025-05-26,永盛株式会社,,株式会社,大阪府,大阪市中央区,島之内２丁目４番２２号,,27,128,5420082,,,,,,,2025-05-26,1,,,,,ナガモリ,0
2067,8120001276140,新規,0,2025-05-26,2025-05-26,株式会社ＡＬＬＵＰ,,株式会社,大阪府,大阪市北区,梅田１丁目２番２号大阪駅前第２ビル１２－１２,,27,127,5300001,,,,,,,2025-05-26,1,,,,,オールアップ,0
2072,8120003029546,新規,0,2025-05-26,2025-05-26,嘉運合同会社,,合同会社,大阪府,大阪市城東区,鴫野西１丁目１０番７号,,27,118,5360014,,,,,,,2025-05-26,1,,,,,カウン,0
2074,8120101071730,新規,0,2025-05-26,2025-05-26,株式会社近畿総合設備,,株式会社,大阪府,堺市西区,鳳南町５丁６０２番地ヴィラージュ長承寺４０１号,,27,144,5938325,,,,,,,2025-05-26,1,,,,,キンキソウゴウセツビ,0
2075,8120101071755,新規,0,2025-05-26,2025-05-26,ＦＪ株式会社,,株式会社,大阪府,堺市北区,奥本町１丁３７番地１－６０１号,,27,146,5918007,,,,,,,2025-05-26,1,,,,,エフジェー,0
2076,8120103006478,新規,0,2025-05-26,2025-05-26,合同会社ＲｅＢａｓｅ,,合同会社,大阪府,堺市西区,神野町２丁５番４０号,,27,144,5938308,,,,,,,2025-05-26,1,,,,,リベース,0
2081,8120903005679,新規,0,2025-05-26,2025-05-26,Ｍａｙパートナーズ合同会社,,合同会社,大阪府,吹田市,豊津町２番１号,,27,205,5640051,,,,,,,2025-05-26,1,,,,,メイパートナーズ,0
2093,8140001138693,新規,0,2025-05-26,2025-05-26,株式会社ＬｉｆｅＨｏｍｅたつの訪問看護ステーション繋ぐ,,株式会社,兵庫県,たつの市,龍野町富永１９１番地６,,28,229,6794167,,,,,,,2025-05-26,1,,,,,ライフホームタツノホウモンカンゴステーションツナグ,0
2098,8150003003614,新規,0,2025-05-26,2025-05-26,合同会社イヤサカコンサルティングＮＡＲＡ,,合同会社,奈良県,橿原市,膳夫町６５５－２,,29,205,6340012,,,,,,,2025-05-26,1,,,,,イヤサカコンサルティングナラ,0
2113,8180001166914,新規,0,2025-05-26,2025-05-26,株式会社サウンドリンク,,株式会社,愛知県,名古屋市熱田区,池内町３番２１号,,23,109,4560005,,,,,,,2025-05-26,1,,,,,サウンドリンク,0
2114,8180001166922,新規,0,2025-05-26,2025-05-26,株式会社ＬＡ・ＰＩＴＡホールディングス,,株式会社,愛知県,名古屋市中村区,名駅１丁目１番１号ＪＰタワー名古屋,,23,105,4500002,,,,,,,2025-05-26,1,,,,,ラピタホールディングス,0
2115,8180001166971,新規,0,2025-05-26,2025-05-26,株式会社ＴＩＳ,,株式会社,愛知県,名古屋市昭和区,川名本町１丁目３６番地,,23,107,4660855,,,,,,,2025-05-26,1,,,,,ティーアイエス,0
2118,8180003028518,新規,0,2025-05-26,2025-05-26,合同会社ＤＵＥ,,合同会社,愛知県,名古屋市千種区,内山３丁目１番１６号第一水谷ビル１Ｆ,,23,101,4640075,,,,,,,2025-05-26,1,,,,,ドゥエ,0
2126,8210001020175,新規,0,2025-05-26,2025-05-26,株式会社藤松,,株式会社,福井県,福井市,和田東２丁目１５１１－４,,18,201,9188237,,,,,,,2025-05-26,1,,,,,,0
2131,8240001064970,新規,0,2025-05-26,2025-05-26,ＭＹＫＥＹ’Ｓ株式会社,,株式会社,広島県,広島市西区,己斐上４丁目８番１－２０５号,,34,104,7330815,,,,,,,2025-05-26,1,,,,,マイキーズ,0
2132,8240001064987,新規,0,2025-05-26,2025-05-26,株式会社Ｃｈａｒｍ’ｓ,,株式会社,広島県,広島市東区,二葉の里３丁目５－７　ＧＲＡＮＯＤＥ広島３Ｆ,,34,102,7320057,,,,,,,2025-05-26,1,,,,,チャームズ,0
2137,8280001009427,新規,0,2025-05-26,2025-05-26,株式会社青木商事,,株式会社,島根県,松江市,春日町６２３‐１‐８０１,,32,201,6900877,,,,,,,2025-05-26,1,,,,,アオキショウジ,0
2147,8290801031562,新規,0,2025-05-26,2025-05-26,株式会社まつもとぐみ,,株式会社,福岡県,北九州市八幡西区,折尾４丁目１３番２号,,40,109,8070825,,,,,,,2025-05-26,1,,,,,マツモトグミ,0
2153,8330003011020,新規,0,2025-05-26,2025-05-26,合同会社シロツメ舎,,合同会社,熊本県,熊本市中央区,国府２丁目５番４号１０７号,,43,101,8620949,,,,,,,2025-05-26,1,,,,,シロツメシャ,0
2157,8360001035134,新規,0,2025-05-26,2025-05-26,株式会社Ｗｏｒｘｍｅｎｔ,,株式会社,沖縄県,宜野湾市,伊佐２丁目２番１６号宮城慧店舗１Ｆ,,47,205,9012221,,,,,,,2025-05-26,1,,,,,ワーキメント,0
2158,8360001035241,新規,0,2025-05-26,2025-05-26,株式会社琉球新舎,,株式会社,沖縄県,南城市,玉城字喜良原５４６番地１,,47,215,9010607,,,,,,,2025-05-26,1,,,,,リュウキュウシンシャ,0
2159,8360003014945,新規,0,2025-05-26,2025-05-26,合同会社いし,,合同会社,沖縄県,那覇市,字識名１１７４－１リーガル１０４,,47,201,9020078,,,,,,,2025-05-26,1,,,,,イシ,0
2160,8360005007237,新規,0,2025-05-26,2025-05-26,一般社団法人国際交流協会,,その他の設立登記法人,沖縄県,中頭郡読谷村,字波平１７０２番地１サンフルール３００１,,47,324,9040322,,,,,,,2025-05-26,1,,,,,コクサイコウリュウキョウカイ,0
2162,8370005010966,新規,0,2025-05-26,2025-05-26,一般社団法人Ｌｉｎｋ　Ｗｏｒｋｅｒｓ,,その他の設立登記法人,宮城県,仙台市太白区,鹿野２丁目６番１７－２号,,04,104,9820023,,,,,,,2025-05-26,1,,,,,リンクワーカーズ,0
2164,8400001017045,新規,0,2025-05-26,2025-05-26,株式会社ＳｙｎＰｒｏ,,株式会社,岩手県,花巻市,東和町土沢６区１２８番地,,03,205,0280114,,,,,,,2025-05-26,1,,,,,シンプロ,0
2165,8420001019155,新規,0,2025-05-26,2025-05-26,株式会社Ｔｈｅ　Ｎｅｗ　Ｄｏｏｒ,,株式会社,青森県,青森市,大字三内字稲元２０番３号,,02,201,0380031,,,,,,,2025-05-26,1,,,,,,0
2172,8430001094478,新規,0,2025-05-26,2025-05-26,株式会社ＴＩＧ,,株式会社,北海道,苫小牧市,ウトナイ南８丁目３番３号,,01,213,0591307,,,,,,,2025-05-26,1,,,,,ティアイジー,0
2176,8470003002889,新規,0,2025-05-26,2025-05-26,合同会社ＳＨＥＤ,,合同会社,香川県,高松市,春日町１５９５番地,,37,201,7610101,,,,,,,2025-05-26,1,,,,,シェッド,0
2178,8490001011056,新規,0,2025-05-26,2025-05-26,株式会社ジュウニ,,株式会社,高知県,香美市,土佐山田町２４３１番地３０,,39,212,7820047,,,,,,,2025-05-26,1,,,,,ジュウニ,0
2180,8500001026309,新規,0,2025-05-26,2025-05-26,株式会社セーフティプラス,,株式会社,愛媛県,松山市,三番町４丁目１２番地６,,38,201,7900003,,,,,,,2025-05-26,1,,,,,セーフティプラス,0
2182,8700150130691,新規,0,2025-05-26,2025-05-26,泉佐野市日根野土地改良区,,その他,大阪府,泉佐野市,日根野６７３番地の２,,27,213,5980021,,,,,,,2025-05-26,1,,,,,イズミサノシヒネノトチカイリヨウク,0
2183,8700150130700,新規,0,2025-05-26,2025-05-26,ｇｕａｎｇｚｈｏｕｃｈａｎｇｌｉａｎｍａｏｙｉｙｏｕｘｉａｎｇｏｎｇｓｉ,,外国会社等,,,,,,,,ｐａｎｙｕｑｕｄｏｎｇｈｕａｎｊｉｅｗａｎｇｂｏｓａｎｊｉｅｎａｎ３ｈａｏ３ｄｏｎｇ５２２ｆａｎｇｚｈｉｙｉ,,,,,,2025-05-26,1,,,,,グワンジョウチャンリエンマオイーヨウシエンゴンスー,0
2184,8700150130717,新規,0,2025-05-26,2025-05-26,ＺＡＨＲＡ　ＬＡＮＫＡ　ＴＲＡＤＩＮＧ,,外国会社等,千葉県,山武市,日向台１番地１０－Ｃ,,12,237,2891206,スリランカ民主社会主義共和国、バブニヤ、アヌラダプラロード、Ｎｏ．１９７／５,,,,,,2025-05-26,1,,,,,ザハラランカトレーデイング,0
2193,9010001255303,新規,0,2025-05-26,2025-05-26,株式会社破竹,,株式会社,東京都,文京区,湯島３丁目４７番１０号桃林堂ビル１Ｆ,,13,105,1130034,,,,,,,2025-05-26,1,,,,,ハチク,0
2194,9010001255344,新規,0,2025-05-26,2025-05-26,株式会社Ｌａｇｒａｎｇｅ,,株式会社,東京都,文京区,白山１丁目１番１－１１０１号,,13,105,1130001,,,,,,,2025-05-26,1,,,,,ラグランジュ,0
2199,9010401190579,新規,0,2025-05-26,2025-05-26,株式会社ＮｏＢｏｒｄｅｒ,,株式会社,東京都,港区,芝２丁目２番１２号５階,,13,103,1050014,,,,,,,2025-05-26,1,,,,,ノーボーダー,0
2205,9010403035154,新規,0,2025-05-26,2025-05-26,ＶＩＲＹＡ　ＪＵＰＩＴＥＲ合同会社,,合同会社,東京都,港区,赤坂１丁目１１番４４号赤坂インターシティ５階Ｆｏｒｖｉｓ・Ｍａｚａｒｓ・Ｊａｐａｎ株式会社内,,13,103,1070052,,,,,,,2025-05-26,1,,,,,ヴィリアジュピター,0
2206,9010403035229,新規,0,2025-05-26,2025-05-26,合同会社コラージュ,,合同会社,東京都,港区,南麻布５丁目１５番２５号,,13,103,1060047,,,,,,,2025-05-26,1,,,,,コラージュ,0
2219,9010803005384,新規,0,2025-05-26,2025-05-26,合同会社ａｌｔｒｕｉｓｔｅ,,合同会社,東京都,大田区,大森西４丁目１５－８　リージェントハウス大森西２２０,,13,111,1430015,,,,,,,2025-05-26,1,,,,,アルチュイスト,0
2220,9010803005401,新規,0,2025-05-26,2025-05-26,合同会社アイリスハートケア,,合同会社,東京都,大田区,南六郷３丁目１４番１１号,,13,111,1440045,,,,,,,2025-05-26,1,,,,,アイリスハートケア,0
2226,9011001169831,新規,0,2025-05-26,2025-05-26,株式会社Ｔｏｋｙｏ　Ｚ,,株式会社,東京都,渋谷区,桜丘町２７－１,,13,113,1500031,,,,,,,2025-05-26,1,,,,,トウキョウゼット,0
2227,9011005010999,新規,0,2025-05-26,2025-05-26,一般社団法人日本診療補助協会,,その他の設立登記法人,東京都,渋谷区,神宮前３丁目５番２号,,13,113,1500001,,,,,,,2025-05-26,1,,,,,ニホンシンリョウホジョキョウカイ,0
2228,9011101111800,新規,0,2025-05-26,2025-05-26,株式会社ＧＥＮＥＲＡＴＥＣＨ,,株式会社,東京都,新宿区,富久町３６番１７号カサデアール３０１,,13,104,1620067,,,,,,,2025-05-26,1,,,,,ジェネレイテック,0
2233,9011203004704,新規,0,2025-05-26,2025-05-26,合同会社Ａｍｅｒｉｃａｎ　Ｓｏｃｋｓ　Ｊａｐａｎ,,合同会社,東京都,中野区,大和町４丁目１５番９号,,13,114,1650034,,,,,,,2025-05-26,1,,,,,アメリカンソックスジャパン,0
2235,9011401027119,新規,0,2025-05-26,2025-05-26,気楽株式会社,,株式会社,東京都,板橋区,東坂下１丁目１４番１８－７０２号,,13,119,1740042,,,,,,,2025-05-26,1,,,,,キラク,0
2248,9011801046180,新規,0,2025-05-26,2025-05-26,株式会社Ｏ‐Ｔｅｃ,,株式会社,東京都,足立区,西伊興３丁目１２－８,,13,121,1210824,,,,,,,2025-05-26,1,,,,,オーテック,0
2253,9012403007141,新規,0,2025-05-26,2025-05-26,合同会社Ｓａｓａｋｉ　Ｉｎｖｅｓｔｍｅｎｔ,,合同会社,東京都,多摩市,中沢２丁目２４番地８ストーク・ド・サンヒル２１０,,13,224,2060036,,,,,,,2025-05-26,1,,,,,ササキインベストメント,0
2254,9013101009702,新規,0,2025-05-26,2025-05-26,株式会社アーバーランドスケープ,,株式会社,東京都,青梅市,成木１丁目６７３番地の１,,13,205,1980001,,,,,,,2025-05-26,1,,,,,アーバーランドスケープ,0
2255,9013103001450,新規,0,2025-05-26,2025-05-26,フィングル合同会社,,合同会社,東京都,青梅市,千ヶ瀬町１丁目１番地の１,,13,205,1980043,,,,,,,2025-05-26,1,,,,,フィングル,0
2262,9020005016873,新規,0,2025-05-26,2025-05-26,ＮＰＯ法人のがわドリームプロジェクト,,その他の設立登記法人,神奈川県,川崎市宮前区,野川本町１丁目１番２１号,,14,136,2160041,,,,,,,2025-05-26,1,,,,,ノガワドリームプロジェクト,0
2279,9040003027664,新規,0,2025-05-26,2025-05-26,Ｉｓｈｉｄａ＆Ｐａｒｔｎｅｒｓ合同会社,,合同会社,千葉県,柏市,篠籠田１３９９番地７７,,12,217,2770862,,,,,,,2025-05-26,1,,,,,イシダアンドパートナーズ,0
2280,9040003027680,新規,0,2025-05-26,2025-05-26,合同会社Ｂａｓｅ,,合同会社,千葉県,鎌ケ谷市,中沢１１５３番地,,12,224,2730118,,,,,,,2025-05-26,1,,,,,ベース,0
2286,9060003005569,新規,0,2025-05-26,2025-05-26,Ｇｒｅｅｎｒａｎｄ合同会社,,合同会社,栃木県,那須郡那須町,大字高久乙３３７４－６４９,,09,407,3250303,,,,,,,2025-05-26,1,,,,,グリーンランド,0
2289,9080001026953,新規,0,2025-05-26,2025-05-26,株式会社えびすみらいず,,株式会社,静岡県,静岡市駿河区,曲金２丁目８番５号,,22,102,4228006,,,,,,,2025-05-26,1,,,,,エビスミライズ,0
2294,9080103003330,新規,0,2025-05-26,2025-05-26,合同会社駿河リキャピタル,,合同会社,静岡県,沼津市,松長７８０番地の２ストークハイツ志茂１０３,,22,203,4100874,,,,,,,2025-05-26,1,,,,,スルガリキャピタル,0
2295,9080401027931,新規,0,2025-05-26,2025-05-26,丸松ホールディングス株式会社,,株式会社,静岡県,浜松市中央区,市野町９３３番地の１,,22,138,4350051,,,,,,,2025-05-26,1,,,,,マルマツホールディングス,0
2299,9110001039290,新規,0,2025-05-26,2025-05-26,株式会社レイアサービス,,株式会社,新潟県,新潟市西区,小針５丁目１０番８号,,15,107,9502022,,,,,,,2025-05-26,1,,,,,レイアサービス,0
2314,9120001275967,新規,0,2025-05-26,2025-05-26,株式会社Ｋ．Ｋ,,株式会社,大阪府,大阪市旭区,森小路２丁目７番８号,,27,117,5350013,,,,,,,2025-05-26,1,,,,,ケーケー,0
2315,9120001276032,新規,0,2025-05-26,2025-05-26,順昌６８株式会社,,株式会社,大阪府,大阪市天王寺区,勝山４丁目６番１０－１０４号,,27,109,5430043,,,,,,,2025-05-26,1,,,,,ジュンショウロクハチ,0
2316,9120001276107,新規,0,2025-05-26,2025-05-26,百川株式会社,,株式会社,大阪府,大阪市生野区,新今里５丁目１５－１７－３Ｄ号室,,27,116,5440001,,,,,,,2025-05-26,1,,,,,モモカワ,0
2317,9120001276148,新規,0,2025-05-26,2025-05-26,ＧＭＦ　Ｊａｐａｎ株式会社,,株式会社,大阪府,大阪市城東区,東中浜３丁目２番２３－３０３号,,27,118,5360023,,,,,,,2025-05-26,1,,,,,ジーエムエフジャパン,0
2324,9120003029545,新規,0,2025-05-26,2025-05-26,合同会社ＢｒｉＮｅｓｔ,,合同会社,大阪府,大阪市西成区,長橋１丁目１０番１９号,,27,122,5570025,,,,,,,2025-05-26,1,,,,,ブライネスト,0
2325,9120003029553,新規,0,2025-05-26,2025-05-26,合同会社プラスアルファ,,合同会社,大阪府,大阪市阿倍野区,王子町１丁目４‐１５ロイヤルハイツ安倍野２０３,,27,119,5450023,,,,,,,2025-05-26,1,,,,,プラスアルファ,0
2330,9120901050924,新規,0,2025-05-26,2025-05-26,株式会社ｉｉＴＥＣ,,株式会社,大阪府,茨木市,天王１丁目５番３９－６０２号,,27,211,5670876,,,,,,,2025-05-26,1,,,,,アイアイテック,0
2331,9122001039261,新規,0,2025-05-26,2025-05-26,株式会社和建設,,株式会社,大阪府,大東市,野崎３丁目１０番１８号,,27,218,5740015,,,,,,,2025-05-26,1,,,,,ナゴミケンセツ,0
2341,9140001138651,新規,0,2025-05-26,2025-05-26,株式会社ＮＴ２,,株式会社,兵庫県,西宮市,鷲林寺南町１０番８号,,28,204,6620002,,,,,,,2025-05-26,1,,,,,エヌティーツー,0
2346,9150003003613,新規,0,2025-05-26,2025-05-26,合同会社プラスわんベース,,合同会社,奈良県,橿原市,内膳町５丁目６－７サンリブ２号館Ａ,,29,205,6340804,,,,,,,2025-05-26,1,,,,,プラスワンベース,0
2354,9180001166954,新規,0,2025-05-26,2025-05-26,株式会社クルーク,,株式会社,愛知県,名古屋市南区,呼続２丁目２０番３号,,23,112,4570014,,,,,,,2025-05-26,1,,,,,クルーク,0
2361,9180003028525,新規,0,2025-05-26,2025-05-26,ゆらり合同会社,,合同会社,愛知県,愛知郡東郷町,白鳥３丁目９番地２３,,23,302,4700155,,,,,,,2025-05-26,1,,,,,ユラリ,0
2376,9230001020916,新規,0,2025-05-26,2025-05-26,株式会社至誠院,,株式会社,富山県,射水市,戸破４０７１番地,,16,211,9390351,,,,,,,2025-05-26,1,,,,,シセイイン,0
2385,9290001110059,新規,0,2025-05-26,2025-05-26,株式会社Ｈｏｂｉｉｉ,,株式会社,福岡県,福岡市中央区,天神２丁目２－１２Ｔ＆Ｊビルディング７Ｆ,,40,133,8100001,,,,,,,2025-05-26,1,,,,,ホビー,0
2386,9290001110109,新規,0,2025-05-26,2025-05-26,株式会社ＯＴＯＥ,,株式会社,福岡県,福岡市中央区,警固２丁目１９番９号２Ｆ,,40,133,8100023,,,,,,,2025-05-26,1,,,,,オトエ,0
2387,9290001110125,新規,0,2025-05-26,2025-05-26,株式会社ハチクマ,,株式会社,福岡県,福岡市西区,野方４丁目８－１７,,40,135,8190043,,,,,,,2025-05-26,1,,,,,ハチクマ,0
2395,9300003002285,新規,0,2025-05-26,2025-05-26,合同会社ＭＭコーポレーション,,合同会社,佐賀県,佐賀市,大和町大字尼寺２５３３番地１,,41,201,8400201,,,,,,,2025-05-26,1,,,,,,0
2399,9350001019541,新規,0,2025-05-26,2025-05-26,Ｂａｎｄａ株式会社,,株式会社,宮崎県,宮崎市,月見ケ丘７丁目１２番７号,,45,201,8800926,,,,,,,2025-05-26,1,,,,,バンダ,0
2400,9350003004938,新規,0,2025-05-26,2025-05-26,ＮＳＪＫ合同会社,,合同会社,宮崎県,宮崎市,下原町３１５番地１５第８三重野ビル２０５号,,45,201,8800843,,,,,,,2025-05-26,1,,,,,エヌエスジェイケイ,0
2402,9360001035232,新規,0,2025-05-26,2025-05-26,株式会社ＣＯＤＥＶＩＳＩＯＮ,,株式会社,沖縄県,名護市,字許田６０６,,47,209,9050024,,,,,,,2025-05-26,1,,,,,コードヴィジョン,0
2418,9430003017691,新規,0,2025-05-26,2025-05-26,ＲＩＣＯグループ合同会社,,合同会社,北海道,札幌市豊平区,月寒東一条７丁目１番３０－２０２号,,01,105,0620051,,,,,,,2025-05-26,1,,,,,リコグループ,0
2426,9490001011055,新規,0,2025-05-26,2025-05-26,株式会社高知鋳型製作所,,株式会社,高知県,高知市,池２２２１番地１,,39,201,7810111,,,,,,,2025-05-26,1,,,,,コウチイガタセイサクジョ,0
2431,9700150130699,新規,0,2025-05-26,2025-05-26,ｓｈｅｎｚｈｅｎｓｈｉｂｏｈｏｕｗｅｎｈｕａｋｅｊｉｙｏｕｘｉａｎｇｏｎｇｓｉ,,外国会社等,,,,,,,,ｇｕａｎｇｄｏｎｇｓｈｅｎｇｓｈｅｎｚｈｅｎｓｈｉｌｏｎｇｈｕａｑｕｍｉｎｚｈｉｊｉｅｄａｏｈｏｎｇｓｈａｎｓｈｅｑｕｌｏｎｇｇｕａｎｇｊｉｕｚｕａｎｓｈａｎｇｗｕｚｈｏｎｇｘｉｎｎａｎｑｉＤｚｕｏ２１１６,,,,,,2025-05-26,1,,,,,シェンジェンシーボーホウウェンフワーコージーヨウシエンゴンスー,0
2432,9700150130716,新規,0,2025-05-26,2025-05-26,Ｎｅｗ　Ｈａｎｔｈａｎａ　Ａｕｔｏ,,外国会社等,千葉県,大網白里市,上谷新田４１８番地６オフィスＥ,,12,239,2993268,スリランカ民主社会主義共和国、ハンタナ、タポダラママワタ、パラダイスプレイス、Ｎｏ．２１,,,,,,2025-05-26,1,,,,,ニユーハンタナオート,0
