sequenceNumber,corporateNumber,process,correct,updateDate,changeDate,name,nameImageId,kind,prefectureName,cityName,streetNumber,addressImageId,prefectureCode,cityCode,postCode,addressOutside,addressOutsideImageId,closeDate,closeCause,successorCorporateNumber,changeCause,assignmentDate,latest,enName,enPrefectureName,enCityName,enAddressOutside,furigana,hihyoji
6,1010001234041,新規,0,2023-04-07,2023-04-07,株式会社ゴールド,,株式会社,東京都,中央区,銀座８丁目７番５号,,13,102,1040061,,,,,,,2023-04-07,1,,,,,ゴールド,0
7,1010001234090,新規,0,2023-04-07,2023-04-07,株式会社ラ・シーマＪＡＰＡＮ,,株式会社,東京都,中央区,日本橋人形町２丁目２３番地７,,13,102,1030013,,,,,,,2023-04-07,1,,,,,ラシーマジャパン,0
8,1010001234149,新規,0,2023-04-07,2023-04-07,美容生活株式会社,,株式会社,東京都,中央区,銀座７丁目１３番２０号銀座ＴＨビル９階,,13,102,1040061,,,,,,,2023-04-07,1,,,,,ビヨウセイカツ,0
9,1010001234181,新規,0,2023-04-07,2023-04-07,ノーチラス・キャピタル株式会社,,株式会社,東京都,千代田区,神田和泉町１番地６－１６ヤマトビル４０５,,13,101,1010024,,,,,,,2023-04-07,1,,,,,ノーチラスキャピタル,0
10,1010001234198,新規,0,2023-04-07,2023-04-07,株式会社ＴＷ,,株式会社,東京都,千代田区,平河町２丁目１０番４号赤坂見附ｔｅｒｒａｃｅ３０６,,13,101,1020093,,,,,,,2023-04-07,1,,,,,ティダブル,0
11,1010001234207,新規,0,2023-04-07,2023-04-07,株式会社ヒラソル,,株式会社,東京都,中央区,勝どき５丁目３番１－４３１５号,,13,102,1040054,,,,,,,2023-04-07,1,,,,,ヒラソル,0
12,1010001234272,新規,0,2023-04-07,2023-04-07,株式会社ＦＪリアルティ,,株式会社,東京都,中央区,銀座６丁目１４番８号,,13,102,1040061,,,,,,,2023-04-07,1,,,,,エフジェイリアルティ,0
13,1010003040181,新規,0,2023-04-07,2023-04-07,３ｄａｙｓ合同会社,,合同会社,東京都,中央区,東日本橋２丁目２８番４号日本橋ＣＥＴビル２階,,13,102,1030004,,,,,,,2023-04-07,1,,,,,スリーデイズ,0
14,1010003040215,新規,0,2023-04-07,2023-04-07,コモン・エリア合同会社,,合同会社,東京都,中央区,日本橋３丁目９番１号日本橋三丁目スクエア１１階,,13,102,1030027,,,,,,,2023-04-07,1,,,,,コモンエリア,0
15,1010003040306,新規,0,2023-04-07,2023-04-07,晴空合同会社,,合同会社,東京都,千代田区,飯田橋２丁目１３－９不二ビル４０１,,13,101,1020072,,,,,,,2023-04-07,1,,,,,ハレゾラ,0
16,1010005036450,新規,0,2023-04-07,2023-04-07,経友会社会保険労務士法人,,その他の設立登記法人,東京都,千代田区,有楽町１丁目２番２号,,13,101,1000006,,,,,,,2023-04-07,1,,,,,ケイユウカイ,0
17,1010005036459,新規,0,2023-04-07,2023-04-07,ＮＴＳ一般財団法人,,その他の設立登記法人,東京都,千代田区,永田町２丁目１２番４号リオ・パートナーズ総合事務所内,,13,101,1000014,,,,,,,2023-04-07,1,,,,,エヌティーエス,0
18,1010005036467,新規,0,2023-04-07,2023-04-07,一般社団法人オペラ・ディ・東京,,その他の設立登記法人,東京都,千代田区,麹町２丁目１４番地麹町パレス５０３号,,13,101,1020083,,,,,,,2023-04-07,1,,,,,オペラディトウキョウ,0
22,1010401173590,新規,0,2023-04-07,2023-04-07,ＪＨＳ　Ｊａｐａｎ株式会社,,株式会社,東京都,港区,赤坂２丁目８番１４－５０４号,,13,103,1070052,,,,,,,2023-04-07,1,,,,,ジェイエイチエスジャパン,0
26,1010503006938,新規,0,2023-04-07,2023-04-07,合同会社モビリティファンド３号,,合同会社,東京都,台東区,柳橋１丁目２３番３号ＶＯＲＴ浅草橋駅前８階,,13,106,1110052,,,,,,,2023-04-07,1,,,,,モビリティファンドサンゴウ,0
32,1010701044087,新規,0,2023-04-07,2023-04-07,スキマスキーマ株式会社,,株式会社,東京都,品川区,南品川５丁目１１番４６－３１５号,,13,109,1400004,,,,,,,2023-04-07,1,,,,,スキマスキーマ,0
35,1010901052823,新規,0,2023-04-07,2023-04-07,ＡＧＡＰＥ株式会社,,株式会社,東京都,世田谷区,駒沢１丁目８番４号,,13,112,1540012,,,,,,,2023-04-07,1,,,,,アガペ,0
36,1010903008071,新規,0,2023-04-07,2023-04-07,ＲｅＥｐｏｃｈ合同会社,,合同会社,東京都,世田谷区,経堂４丁目１０－１９経堂レジデンス１１０,,13,112,1560052,,,,,,,2023-04-07,1,,,,,,0
39,1011001153553,新規,0,2023-04-07,2023-04-07,株式会社ＭＡＸ,,株式会社,東京都,渋谷区,道玄坂１丁目１２番１号渋谷マークシティ２２Ｆ,,13,113,1500043,,,,,,,2023-04-07,1,,,,,マックス,0
40,1011001153561,新規,0,2023-04-07,2023-04-07,株式会社ｍｕｓｅ,,株式会社,東京都,渋谷区,道玄坂２丁目１９番１１号ファブリック渋谷３階,,13,113,1500043,,,,,,,2023-04-07,1,,,,,ミューズ,0
41,1011001153594,新規,0,2023-04-07,2023-04-07,株式会社ＳＱＵＡＤ．Ｕ,,株式会社,東京都,渋谷区,神宮前６丁目２３番４号桑野ビル２階,,13,113,1500001,,,,,,,2023-04-07,1,,,,,スクワッドユー,0
42,1011003016568,新規,0,2023-04-07,2023-04-07,合同会社スケールデザイン,,合同会社,東京都,渋谷区,神泉町１０番１５号,,13,113,1500045,,,,,,,2023-04-07,1,,,,,スケールデザイン,0
59,1011201024562,新規,0,2023-04-07,2023-04-07,株式会社澤渝,,株式会社,東京都,中野区,本町４丁目４４番１３号,,13,114,1640012,,,,,,,2023-04-07,1,,,,,サワユ,0
60,1011301028604,新規,0,2023-04-07,2023-04-07,株式会社ＫＩＮＦＯＬＫ．Ｊ,,株式会社,東京都,杉並区,和泉４丁目９番１号,,13,115,1680063,,,,,,,2023-04-07,1,,,,,キンフォークジェイ,0
66,1011701026125,新規,0,2023-04-07,2023-04-07,株式会社Ｔｏｍｏ,,株式会社,東京都,江戸川区,春江町５丁目３１番地６サクラコーポＥ２０１,,13,123,1340003,,,,,,,2023-04-07,1,,,,,トモ,0
67,1011701026133,新規,0,2023-04-07,2023-04-07,ｈｏｏｋ　ｕｐ株式会社,,株式会社,東京都,江戸川区,瑞江２丁目５番３号,,13,123,1320011,,,,,,,2023-04-07,1,,,,,フックアップ,0
71,1011703003436,新規,0,2023-04-07,2023-04-07,Ｐ＆Ａサービス合同会社,,合同会社,東京都,江戸川区,東葛西９丁目１７番４号,,13,123,1340084,,,,,,,2023-04-07,1,,,,,ピーアンドエーサービス,0
74,1011801042187,新規,0,2023-04-07,2023-04-07,株式会社ＹＲＤ,,株式会社,東京都,足立区,本木２丁目７番２７号－１０１,,13,121,1230853,,,,,,,2023-04-07,1,,,,,ワイアールディー,0
75,1011801042195,新規,0,2023-04-07,2023-04-07,株式会社メディアフォース,,株式会社,東京都,足立区,梅田５丁目２８番１２号,,13,121,1230851,,,,,,,2023-04-07,1,,,,,メディアフォース,0
76,1012301013380,新規,0,2023-04-07,2023-04-07,ＭＡＲＫシャトー株式会社,,株式会社,東京都,町田市,金井ヶ丘４丁目４０番１６号,,13,209,1950076,,,,,,,2023-04-07,1,,,,,マークシャトー,0
77,1012303001805,新規,0,2023-04-07,2023-04-07,合同会社ＨＭＬ,,合同会社,東京都,町田市,金井１丁目１５番５号,,13,209,1950072,,,,,,,2023-04-07,1,,,,,エイチエムエル,0
79,1012803003053,新規,0,2023-04-07,2023-04-07,合同会社ＨＯＮＪＯインベストメント,,合同会社,東京都,東大和市,立野２丁目２番地の１６,,13,220,2070021,,,,,,,2023-04-07,1,,,,,ホンジョウインベストメント,0
80,1013103001219,新規,0,2023-04-07,2023-04-07,ＢＬＵＥ・ＳＴＡＲ合同会社,,合同会社,東京都,青梅市,新町５丁目２９番地１６－２０３,,13,205,1980024,,,,,,,2023-04-07,1,,,,,ブルースター,0
83,1013301050562,新規,0,2023-04-07,2023-04-07,株式会社上り坂,,株式会社,東京都,豊島区,池袋本町１丁目８番１７号,,13,116,1700011,,,,,,,2023-04-07,1,,,,,ノボリザカ,0
84,1013303006579,新規,0,2023-04-07,2023-04-07,ファストライン合同会社,,合同会社,東京都,豊島区,池袋２丁目１７－８,,13,116,1710014,,,,,,,2023-04-07,1,,,,,ファストライン,0
93,1020001150923,新規,0,2023-04-07,2023-04-07,ＮＮＩテクノロジーズ株式会社,,株式会社,神奈川県,横浜市神奈川区,松見町４丁目１１０１番地７－８０４,,14,102,2210005,,,,,,,2023-04-07,1,,,,,エヌエヌアイテクノロジーズ,0
94,1020001150997,新規,0,2023-04-07,2023-04-07,コムファクトリー株式会社,,株式会社,神奈川県,川崎市宮前区,鷺沼４丁目１３番地２たまプラーザ東パーク・ホームズ６０１,,14,136,2160004,,,,,,,2023-04-07,1,,,,,コムファクトリー,0
95,1020001151021,新規,0,2023-04-07,2023-04-07,株式会社Ｙ’ｓ　ＦＬＯＯＲ,,株式会社,神奈川県,川崎市宮前区,神木本町３丁目３番３１号,,14,136,2160031,,,,,,,2023-04-07,1,,,,,ワイズフロア,0
97,1020003023672,新規,0,2023-04-07,2023-04-07,Ｌａｎｋａ合同会社,,合同会社,神奈川県,横浜市都筑区,すみれが丘２１番地２,,14,118,2240013,,,,,,,2023-04-07,1,,,,,ランカ,0
98,1020003023680,新規,0,2023-04-07,2023-04-07,合同会社メリット,,合同会社,神奈川県,横浜市鶴見区,駒岡１丁目１１－１２アドバンス三ッ池公園２０８,,14,101,2300071,,,,,,,2023-04-07,1,,,,,メリット,0
101,1021001078626,新規,0,2023-04-07,2023-04-07,トラスト・エンバイロメント株式会社,,株式会社,神奈川県,平塚市,御殿１丁目１４番６号,,14,203,2540061,,,,,,,2023-04-07,1,,,,,トラストエンバイロメント,0
102,1021001078634,新規,0,2023-04-07,2023-04-07,株式会社ＢｒｏＳ．,,株式会社,神奈川県,茅ヶ崎市,浜竹４丁目９－２２シーサイドガーデンＡ棟１０１,,14,207,2530021,,,,,,,2023-04-07,1,,,,,ブロス,0
107,1030001153149,新規,0,2023-04-07,2023-04-07,株式会社ジリッツ,,株式会社,埼玉県,さいたま市北区,大成町４丁目４７番地７,,11,102,3310815,,,,,,,2023-04-07,1,,,,,ジリッツ,0
108,1030001153215,新規,0,2023-04-07,2023-04-07,Ｖｉｒｔｕａｌ　Ｃａｔ株式会社,,株式会社,埼玉県,戸田市,下前２丁目１１番６－４０７号,,11,224,3350016,,,,,,,2023-04-07,1,,,,,バーチャルキャット,0
109,1030001153223,新規,0,2023-04-07,2023-04-07,株式会社ガーデン・エヌ,,株式会社,埼玉県,川越市,大字寺尾９３７番地１０,,11,201,3501141,,,,,,,2023-04-07,1,,,,,ガーデンエヌ,0
110,1030001153231,新規,0,2023-04-07,2023-04-07,株式会社恵翔,,株式会社,埼玉県,上尾市,泉台１丁目１８番地３メゾン葦辺１０２,,11,219,3620062,,,,,,,2023-04-07,1,,,,,ケイショウ,0
113,1030003021510,新規,0,2023-04-07,2023-04-07,合同会社吉冨カンパニー,,合同会社,埼玉県,川口市,大字峯１４０７番地の７,,11,203,3340056,,,,,,,2023-04-07,1,,,,,ヨシトミカンパニー,0
119,1040001127820,新規,0,2023-04-07,2023-04-07,株式会社ｓｗａｌｌｏｗ　ｔａｉｌ　ｖｉｎｔａｇｅ,,株式会社,千葉県,千葉市中央区,今井町１４９１番地１今井町五光ビル１階,,12,101,2600815,,,,,,,2023-04-07,1,,,,,スワロテイルビンテージ,0
120,1040001127837,新規,0,2023-04-07,2023-04-07,株式会社都市鉱山開発機構,,株式会社,千葉県,木更津市,潮浜１丁目１７番地１０５,,12,206,2920838,,,,,,,2023-04-07,1,,,,,トシコウザンカイハツキコウ,0
121,1040001127861,新規,0,2023-04-07,2023-04-07,株式会社ハヤシ林業,,株式会社,千葉県,勝浦市,新官１４４１－３２,,12,218,2995224,,,,,,,2023-04-07,1,,,,,ハヤシリンギョウ,0
125,1040003022342,新規,0,2023-04-07,2023-04-07,林商事合同会社,,合同会社,千葉県,市川市,大和田４丁目７番１６号,,12,203,2720025,,,,,,,2023-04-07,1,,,,,ハヤシショウジ,0
130,1050001052621,新規,0,2023-04-07,2023-04-07,株式会社浅野エクステリア,,株式会社,茨城県,土浦市,木田余東台３丁目９番２１号,,08,203,3000027,,,,,,,2023-04-07,1,,,,,アサノエクステリア,0
131,1060001035856,新規,0,2023-04-07,2023-04-07,株式会社栃日ホールディングス,,株式会社,栃木県,宇都宮市,不動前５丁目１番２９号,,09,201,3200833,,,,,,,2023-04-07,1,,,,,トチニチホールディングス,0
132,1060005010070,新規,0,2023-04-07,2023-04-07,医療法人淑良会,,その他の設立登記法人,栃木県,宇都宮市,西原町５６０番地１,,09,201,3200826,,,,,,,2023-04-07,1,,,,,シュクリョウカイ,0
138,1080005007528,新規,0,2023-04-07,2023-04-07,プライムケア協同組合,,その他の設立登記法人,静岡県,静岡市葵区,西草深町２２番１２号,,22,101,4200866,,,,,,,2023-04-07,1,,,,,プライムケア,0
139,1080105006322,新規,0,2023-04-07,2023-04-07,一般社団法人みらい漁業会,,その他の設立登記法人,静岡県,伊東市,宇佐美４９番地の３,,22,208,4140001,,,,,,,2023-04-07,1,,,,,ミライギョギョウカイ,0
140,1080401026412,新規,0,2023-04-07,2023-04-07,川口物流株式会社,,株式会社,静岡県,御前崎市,白羽３９７３番地,,22,223,4371622,,,,,,,2023-04-07,1,,,,,カワグチブツリュウ,0
144,1100005012987,新規,0,2023-04-07,2023-04-07,税理士法人ＭＡＣＣ,,その他の設立登記法人,長野県,長野市,大字鶴賀２１４１番地３,,20,201,3800907,,,,,,,2023-04-07,1,,,,,エムエイシーシー,0
147,1110003005018,新規,0,2023-04-07,2023-04-07,合同会社ハイビレッジ,,合同会社,新潟県,長岡市,東坂之上町１丁目１１フェニックス大手セントラルレジデンス１０１,,15,202,9400066,,,,,,,2023-04-07,1,,,,,ハイビレッジ,0
166,1120001253666,新規,0,2023-04-07,2023-04-07,株式会社Ｐｉｎｎａｃｌｅ,,株式会社,大阪府,大阪市北区,梅田１丁目２番２号大阪駅前第２ビル１２－１２,,27,127,5300001,,,,,,,2023-04-07,1,,,,,ピナクル,0
167,1120001253724,新規,0,2023-04-07,2023-04-07,株式会社サンデンキエンジニアリング,,株式会社,大阪府,大阪市東淀川区,井高野２丁目１－５３,,27,114,5330001,,,,,,,2023-04-07,1,,,,,サンデンキエンジニアリング,0
168,1120001253740,新規,0,2023-04-07,2023-04-07,０５５６ｓｔｙｌｅ株式会社,,株式会社,大阪府,大阪市港区,八幡屋２丁目４番４号０５５６ビル,,27,107,5520014,,,,,,,2023-04-07,1,,,,,ゼロゴーゴーロクスタイル,0
169,1120001253757,新規,0,2023-04-07,2023-04-07,株式会社増田商会,,株式会社,大阪府,大阪市西淀川区,姫島２丁目１０番３号,,27,113,5550033,,,,,,,2023-04-07,1,,,,,マスダショウカイ,0
170,1120001253773,新規,0,2023-04-07,2023-04-07,株式会社ナカダン,,株式会社,大阪府,大阪市西成区,天神ノ森１丁目１５番１７号,,27,122,5570013,,,,,,,2023-04-07,1,,,,,ナカダン,0
173,1120003023778,新規,0,2023-04-07,2023-04-07,合同会社ｔａｇ,,合同会社,大阪府,大阪市城東区,古市３丁目１１番２－３０１号,,27,118,5360001,,,,,,,2023-04-07,1,,,,,ティーエージー,0
178,1120101067272,新規,0,2023-04-07,2023-04-07,常磐トレーディング株式会社,,株式会社,大阪府,堺市北区,野遠町３９４番地５,,27,146,5918013,,,,,,,2023-04-07,1,,,,,トキワトレーディング,0
180,1120901047366,新規,0,2023-04-07,2023-04-07,ＳＴＲＥＴＣＨＬＡＢ　ＪＡＰＡＮ株式会社,,株式会社,大阪府,吹田市,岸部北５丁目１１番１号,,27,205,5640001,,,,,,,2023-04-07,1,,,,,ストレッチラボジャパン,0
182,1122003002555,新規,0,2023-04-07,2023-04-07,合同会社おねっと,,合同会社,大阪府,柏原市,古町１丁目８番３号,,27,221,5820008,,,,,,,2023-04-07,1,,,,,オネット,0
185,1130001073980,新規,0,2023-04-07,2023-04-07,株式会社アートプラット,,株式会社,京都府,京都市山科区,西野山欠ノ上町１７番地２２,,26,110,6078302,,,,,,,2023-04-07,1,,,,,アートプラット,0
186,1130001073997,新規,0,2023-04-07,2023-04-07,株式会社福知,,株式会社,京都府,亀岡市,曽我部町犬飼坊ケ辻２５番地,00129999,26,206,6210027,,,,,,,2023-04-07,1,,,,,フクチ,0
187,1130001074005,新規,0,2023-04-07,2023-04-07,株式会社富志工業,,株式会社,京都府,舞鶴市,字天台１０番地７０,,26,202,6240903,,,,,,,2023-04-07,1,,,,,フジコウギョウ,0
189,1130003008646,新規,0,2023-04-07,2023-04-07,合同会社シックス,,合同会社,京都府,京都市山科区,大塚元屋敷町２０番地９,00129993,26,110,6078126,,,,,,,2023-04-07,1,,,,,シックス,0
195,1140001129658,新規,0,2023-04-07,2023-04-07,株式会社Ｉ　ＦＩＥＬＤ石上農園,,株式会社,兵庫県,淡路市,久留麻１７０番地５,,28,226,6562311,,,,,,,2023-04-07,1,,,,,アイフィールドイシガミノウエン,0
196,1140001129682,新規,0,2023-04-07,2023-04-07,株式会社ＧＬＯＲＩＡ,,株式会社,兵庫県,尼崎市,西立花町２丁目１２番１６－２０１号,,28,202,6600054,,,,,,,2023-04-07,1,,,,,グローリア,0
197,1140001129690,新規,0,2023-04-07,2023-04-07,株式会社喜もの,,株式会社,兵庫県,芦屋市,親王塚町１２番１７号,,28,206,6590016,,,,,,,2023-04-07,1,,,,,キモノ,0
199,1140003018917,新規,0,2023-04-07,2023-04-07,Ｇｏｏｄ合同会社,,合同会社,兵庫県,豊岡市,小島１２２０番地レイセニット城崎Ａ３１０,,28,209,6696123,,,,,,,2023-04-07,1,,,,,グッド,0
200,1140003018925,新規,0,2023-04-07,2023-04-07,合同会社アンズ訪問看護,,合同会社,兵庫県,神戸市西区,押部谷町福住４５４番地の１－２０３号,,28,111,6512213,,,,,,,2023-04-07,1,,,,,アンズホウモンカンゴ,0
205,1170001017538,新規,0,2023-04-07,2023-04-07,株式会社岩本板金,,株式会社,和歌山県,田辺市,新庄町４３４番地の２,,30,206,6460011,,,,,,,2023-04-07,1,,,,,イワモトバンキン,0
207,1180001155642,新規,0,2023-04-07,2023-04-07,はやし電機株式会社,,株式会社,愛知県,瀬戸市,萩山台２丁目６６番地,,23,204,4890886,,,,,,,2023-04-07,1,,,,,ハヤシデンキ,0
208,1180001155667,新規,0,2023-04-07,2023-04-07,株式会社ＫＤＫソリューション,,株式会社,愛知県,長久手市,坊の後８２４番地,,23,238,4801168,,,,,,,2023-04-07,1,,,,,ケーディーケーソリューション,0
209,1180001155691,新規,0,2023-04-07,2023-04-07,Ｅｔｅｌｅ株式会社,,株式会社,愛知県,名古屋市中村区,名駅南３丁目３番２１号ＢＩＡＮＣＡＳＡ水主町６０３号,,23,105,4500003,,,,,,,2023-04-07,1,,,,,エーテル,0
210,1180001155725,新規,0,2023-04-07,2023-04-07,株式会社ＬＩＳＣＯ,,株式会社,愛知県,名古屋市中村区,則武２丁目２６番１５号マンション則武３０８号,,23,105,4530014,,,,,,,2023-04-07,1,,,,,リスコ,0
211,1180001155733,新規,0,2023-04-07,2023-04-07,株式会社エールブルー,,株式会社,愛知県,丹羽郡扶桑町,大字高雄字定松３５－１,,23,362,4800102,,,,,,,2023-04-07,1,,,,,エールブルー,0
212,1180003025067,新規,0,2023-04-07,2023-04-07,合同会社Ｔｅａｍエル,,合同会社,愛知県,尾張旭市,北山町北山２５４番地１５エスポアール・ドエルＩＩ１０１号,00129994,23,226,4880056,,,,,,,2023-04-07,1,,,,,チームエル,0
213,1180003025075,新規,0,2023-04-07,2023-04-07,ＮＢＥＣ合同会社,,合同会社,愛知県,名古屋市中区,新栄３丁目１４番２３号,,23,106,4600007,,,,,,,2023-04-07,1,,,,,エヌビーイーシー,0
215,1180301037251,新規,0,2023-04-07,2023-04-07,株式会社藤岡サービス,,株式会社,愛知県,豊田市,石飛町板倉１０番地,,23,211,4700463,,,,,,,2023-04-07,1,,,,,フジオカサービス,0
216,1180301037268,新規,0,2023-04-07,2023-04-07,株式会社愛知ｍｅｉｊｉ,,株式会社,愛知県,豊橋市,下地町５丁目８番地,,23,201,4400085,,,,,,,2023-04-07,1,,,,,アイチメイジ,0
217,1180301037276,新規,0,2023-04-07,2023-04-07,株式会社右左美総業,,株式会社,愛知県,西尾市,米津町白沢５６番地４,,23,213,4450802,,,,,,,2023-04-07,1,,,,,ウサミソウギョウ,0
220,1190001030308,新規,0,2023-04-07,2023-04-07,株式会社渡建,,株式会社,三重県,いなべ市,大安町片樋１４９９番地２,,24,214,5110271,,,,,,,2023-04-07,1,,,,,ワタケン,0
222,1200001041162,新規,0,2023-04-07,2023-04-07,株式会社Ｓｔｅａｄｙ,,株式会社,岐阜県,中津川市,中津川２５４７番地の４５９,,21,206,5080001,,,,,,,2023-04-07,1,,,,,ステディ,0
227,1220005008742,新規,0,2023-04-07,2023-04-07,一般社団法人ＨＡ‐ＫＵ,,その他の設立登記法人,石川県,白山市,相木町２０９番地１,,17,210,9240022,,,,,,,2023-04-07,1,,,,,,0
232,1240001061297,新規,0,2023-04-07,2023-04-07,株式会社榮輝工業,,株式会社,広島県,尾道市,美ノ郷町三成２１４番地６,,34,205,7220215,,,,,,,2023-04-07,1,,,,,エイキコウギョウ,0
233,1240001061314,新規,0,2023-04-07,2023-04-07,株式会社つくる,,株式会社,広島県,広島市南区,宇品神田５丁目９番１１号,,34,103,7340004,,,,,,,2023-04-07,1,,,,,ツクル,0
234,1240001061322,新規,0,2023-04-07,2023-04-07,サンエイ不動産株式会社,,株式会社,広島県,広島市中区,光南１丁目１２番３号,,34,101,7300825,,,,,,,2023-04-07,1,,,,,サンエイフドウサン,0
239,1250001020038,新規,0,2023-04-07,2023-04-07,株式会社ｗｉｔｈ　ＰＬＵＳ,,株式会社,山口県,玖珂郡和木町,和木１丁目４番３６号,,35,321,7400061,,,,,,,2023-04-07,1,,,,,ウィズプラス,0
240,1250003003247,新規,0,2023-04-07,2023-04-07,合同会社内山板金,,合同会社,山口県,宇部市,昭和町４丁目１１番４５－７０４号,,35,202,7550011,,,,,,,2023-04-07,1,,,,,ウチヤマバンキン,0
242,1260003004260,新規,0,2023-04-07,2023-04-07,合同会社アキンド,,合同会社,岡山県,苫田郡鏡野町,沖１７７番地７,,33,606,7080322,,,,,,,2023-04-07,1,,,,,アキンド,0
252,1290001101107,新規,0,2023-04-07,2023-04-07,株式会社ＮＢ,,株式会社,福岡県,糸島市,篠原西１丁目１５番２６号,,40,230,8191129,,,,,,,2023-04-07,1,,,,,エヌビー,0
253,1290001101115,新規,0,2023-04-07,2023-04-07,株式会社ｓｔｕｄｉｏ　ａｍｅ,,株式会社,福岡県,福岡市博多区,比恵町１番３０号,,40,132,8120014,,,,,,,2023-04-07,1,,,,,スタジオアメ,0
255,1290003013754,新規,0,2023-04-07,2023-04-07,合同会社Ｎｏ．１６８,,合同会社,福岡県,福津市,津屋崎８丁目１７番５号,,40,224,8113304,,,,,,,2023-04-07,1,,,,,,0
272,1360001031767,新規,0,2023-04-07,2023-04-07,Ｉ‐Ｒｉｓｉｎｇ株式会社,,株式会社,沖縄県,那覇市,泉崎１丁目８番８号泉崎マンション３０２号,,47,201,9000021,,,,,,,2023-04-07,1,,,,,アイライジング,0
273,1360001031800,新規,0,2023-04-07,2023-04-07,株式会社イナミ,,株式会社,沖縄県,うるま市,石川３３１９番地２２・１Ｆ,,47,213,9041106,,,,,,,2023-04-07,1,,,,,イナミ,0
278,1360003012864,新規,0,2023-04-07,2023-04-07,合同会社景光家,,合同会社,沖縄県,国頭郡宜野座村,字漢那２２８６番地１,,47,313,9041304,,,,,,,2023-04-07,1,,,,,カゲミツケ,0
283,1370001049791,新規,0,2023-04-07,2023-04-07,株式会社ダブルエッグ,,株式会社,宮城県,仙台市青葉区,中山５丁目１９番５号,,04,101,9810952,,,,,,,2023-04-07,1,,,,,ダブルエッグ,0
284,1370001049800,新規,0,2023-04-07,2023-04-07,株式会社仙北技研,,株式会社,宮城県,加美郡加美町,字町裏３０６番地２,,04,445,9814261,,,,,,,2023-04-07,1,,,,,センポクギケン,0
287,1370003006064,新規,0,2023-04-07,2023-04-07,合同会社ＢｅｓｔＥａｒｔｈ,,合同会社,宮城県,仙台市青葉区,川内三十人町５番地の１２８,,04,101,9800866,,,,,,,2023-04-07,1,,,,,ベストアース,0
292,1380001033596,新規,0,2023-04-07,2023-04-07,株式会社大久保研磨工業,,株式会社,福島県,須賀川市,江持字荒屋敷５７番地,,07,207,9620801,,,,,,,2023-04-07,1,,,,,オオクボケンマコウギョウ,0
299,1420001018205,新規,0,2023-04-07,2023-04-07,ＲＡＩ　ＢＩＬＡＬ　ＴＲＡＤＩＮＧ株式会社,,株式会社,青森県,十和田市,大字三本木字北平１１０番地５Ｅ－１号,,02,206,0340001,,,,,,,2023-04-07,1,,,,,ライビラルトレーディング,0
306,1430001088775,新規,0,2023-04-07,2023-04-07,株式会社樹鈴,,株式会社,北海道,北広島市,大曲緑ヶ丘４丁目３－６,,01,234,0611276,,,,,,,2023-04-07,1,,,,,キレイ,0
307,1430001088791,新規,0,2023-04-07,2023-04-07,株式会社ファーム服部,,株式会社,北海道,夕張郡長沼町,西８線南２番地,,01,428,0691478,,,,,,,2023-04-07,1,,,,,ファームハットリ,0
308,1430005014686,新規,0,2023-04-07,2023-04-07,一般社団法人サステナビリティ・コーディネーター協会,,その他の設立登記法人,北海道,虻田郡ニセコ町,字有島３番地５２コーポ有島Ａ棟１０３号室,,01,395,0481531,,,,,,,2023-04-07,1,,,,,サステナビリティコーディネーターキョウカイ,0
311,1460001005785,新規,0,2023-04-07,2023-04-07,株式会社洸永卸,,株式会社,北海道,釧路市,美原２丁目３７番１３号,,01,206,0850065,,,,,,,2023-04-07,1,,,,,コウエイシャ,0
313,1480003001962,新規,0,2023-04-07,2023-04-07,合同会社谷光工業,,合同会社,徳島県,阿南市,富岡町寿通９６番地１,,36,204,7740030,,,,,,,2023-04-07,1,,,,,タニミツコウギョウ,0
318,1490005006892,新規,0,2023-04-07,2023-04-07,一般社団法人高知県馬主協会,,その他の設立登記法人,高知県,高知市,長浜宮田２０００番地,,39,201,7810271,,,,,,,2023-04-07,1,,,,,コウチケンウマヌシキョウカイ,0
320,1500001024863,新規,0,2023-04-07,2023-04-07,株式会社山口ディーゼル,,株式会社,愛媛県,宇和島市,津島町北灘乙３２４番地,,38,203,7983362,,,,,,,2023-04-07,1,,,,,ヤマグチディーゼル,0
322,1700150115204,新規,0,2023-04-07,2023-04-07,ＳｅｎｔｒｙＭａｒＫ，Ｉｎｃ．,,外国会社等,東京都,中央区,八重洲１丁目８番１７号新槇町ビル６Ｆ,,13,102,1030028,アメリカ合衆国カリフォルニア州９５１２８サンノゼ、プラザウェスト１１０ティッシュウェイ３０３１,,,,,,2023-04-07,1,,,,,セントラリマークインク,0
323,1700150115212,新規,0,2023-04-07,2023-04-07,ｂａｏｓｈａｎｊｉｎｃｈｕａｎｇｓｈａｎｇｍａｏｙｏｕｘｉａｎｇｏｎｇｓｉ,,外国会社等,,,,,,,,ｌｏｎｇｙａｎｇｑｕ　ｂａｎｑｉａｏｚｈｅｎｂａｎｑｉａｏｊｉｅｍｅｉｈｕａｄａｄａｏ　ｂａｏｓｈａｎｓｈｉ　ｙｕｎｎａｎｓｈｅｎｇ　６７８００４　ＣＮ,,,,,,2023-04-07,1,,,,,バオシャンジンチュワンシャンマオヨウシエンゴンスー,0
324,1700150115220,新規,0,2023-04-07,2023-04-07,Ｚｈａｏｑｉｎｇｓｈｉ　Ｄａｑｉｎｇｔｉａｎ　Ｄｉａｎｚｉｓｈａｎｇｗｕ　Ｙｏｕｘｉａｎｇｏｎｇｓｉ,,外国会社等,,,,,,,,Ｒｏｏｍ　１７０１－２，Ｃｕｌｔｕｒａｌ　ａｎｄ　Ｃｒｅａｔｉｖｅ　Ｂｕｉｌｄｉｎｇ，Ｎｏ．４８，Ｄｕａｎｚｈｏｕ　３ｒｄ　Ｒｏａｄ，Ｄｕａｎｚｈｏｕ　Ｄｉｓｔｒｉｃｔ，Ｚｈａｏｑｉｎｇ　Ｃｉｔｙ,,,,,,2023-04-07,1,,,,,ジャオチンシーダーチンティエンディエンズーシャンウーヨウシエンゴンスー,0
330,2010001234180,新規,0,2023-04-07,2023-04-07,ＡｆｔｅｒＡＩ株式会社,,株式会社,東京都,中央区,銀座１丁目１２－４Ｎ＆ＥＢＬＤ．７階,,13,102,1040061,,,,,,,2023-04-07,1,,,,,アフターエーアイ,0
331,2010001234189,新規,0,2023-04-07,2023-04-07,ＮＩＣパートナーズ株式会社,,株式会社,東京都,千代田区,神田駿河台４丁目３番地,,13,101,1010062,,,,,,,2023-04-07,1,,,,,エヌアイシーパートナーズ,0
332,2010001234197,新規,0,2023-04-07,2023-04-07,ＲＫファーマコンサルティング株式会社,,株式会社,東京都,中央区,日本橋小舟町８番地１３天翔オフィス日本橋,,13,102,1030024,,,,,,,2023-04-07,1,,,,,アールケーファーマコンサルティング,0
333,2010001234214,新規,0,2023-04-07,2023-04-07,デルリン・ジャパン株式会社,,株式会社,東京都,千代田区,永田町２丁目１１番１号,,13,101,1000014,,,,,,,2023-04-07,1,,,,,デルリンジャパン,0
334,2010001234271,新規,0,2023-04-07,2023-04-07,日本レジャーホテルサービス株式会社,,株式会社,東京都,千代田区,四番町１１番地３,,13,101,1020081,,,,,,,2023-04-07,1,,,,,ニホンレジャーホテルサービス,0
337,2010003040214,新規,0,2023-04-07,2023-04-07,ＹＳＧ　ＨＯＬＤＩＮＧＳ合同会社,,合同会社,東京都,中央区,銀座７丁目５番４号,,13,102,1040061,,,,,,,2023-04-07,1,,,,,ワイエスジーホールディングス,0
338,2010003040239,新規,0,2023-04-07,2023-04-07,合同会社ＫＡＩＬＡ,,合同会社,東京都,中央区,日本橋室町１丁目１１番１２号日本橋水野ビル７階,,13,102,1030022,,,,,,,2023-04-07,1,,,,,カイラ,0
339,2010003040255,新規,0,2023-04-07,2023-04-07,サステナブルローンファンド１４号合同会社,,合同会社,東京都,中央区,八丁堀４丁目２番１０号ＡＯＪ税理士法人内,,13,102,1040032,,,,,,,2023-04-07,1,,,,,サステナブルローンファンドジュウヨンゴウ,0
340,2010005036474,新規,0,2023-04-07,2023-04-07,一般社団法人ミツバチプロジェクト・ジャパン,,その他の設立登記法人,東京都,中央区,銀座３丁目９番１１号,,13,102,1040061,,,,,,,2023-04-07,1,,,,,ミツバチプロジェクトジャパン,0
353,2010401173466,新規,0,2023-04-07,2023-04-07,アイランドホールディングス株式会社,,株式会社,東京都,港区,南青山５丁目１２番２４－３０５号,,13,103,1070062,,,,,,,2023-04-07,1,,,,,アイランドホールディングス,0
354,2010401173508,新規,0,2023-04-07,2023-04-07,株式会社フォーワンエステート,,株式会社,東京都,港区,北青山１丁目４番３号,,13,103,1070061,,,,,,,2023-04-07,1,,,,,フォーワンエステート,0
355,2010403029807,新規,0,2023-04-07,2023-04-07,合同会社Ａｂｙ,,合同会社,東京都,港区,海岸３丁目３番１２－２０８号,,13,103,1080022,,,,,,,2023-04-07,1,,,,,アビィ,0
356,2010403029848,新規,0,2023-04-07,2023-04-07,ＨＥＡＲＴ　ＪＡＰＡＮ合同会社,,合同会社,東京都,港区,浜松町２丁目２番１５号浜松町ダイヤビル２Ｆ,,13,103,1050013,,,,,,,2023-04-07,1,,,,,ハートジャパン,0
357,2010501050251,新規,0,2023-04-07,2023-04-07,株式会社ＴＡＩＲＡ,,株式会社,東京都,台東区,台東１丁目１９番８号１階,,13,106,1100016,,,,,,,2023-04-07,1,,,,,タイラ,0
364,2010901052839,新規,0,2023-04-07,2023-04-07,トランジスターズ株式会社,,株式会社,東京都,世田谷区,東玉川１丁目２２番１０号,,13,112,1580084,,,,,,,2023-04-07,1,,,,,トランジスターズ,0
365,2010901052847,新規,0,2023-04-07,2023-04-07,株式会社ＪＩＲＯ,,株式会社,東京都,世田谷区,桜１丁目５番１８号,,13,112,1560053,,,,,,,2023-04-07,1,,,,,ジロー,0
367,2011001153544,新規,0,2023-04-07,2023-04-07,株式会社ＲＡＣＥＥＤＡ,,株式会社,東京都,渋谷区,神泉町１０番１５号,,13,113,1500045,,,,,,,2023-04-07,1,,,,,ラシーダ,0
368,2011001153552,新規,0,2023-04-07,2023-04-07,株式会社ＥＭＡ,,株式会社,東京都,渋谷区,恵比寿１丁目１５番９号日宝恵比寿ビル４０３,,13,113,1500013,,,,,,,2023-04-07,1,,,,,エマ,0
369,2011001153585,新規,0,2023-04-07,2023-04-07,株式会社ＫＲグループ,,株式会社,東京都,渋谷区,富ヶ谷１丁目３２番２５号３０６,,13,113,1510063,,,,,,,2023-04-07,1,,,,,ケーアールグループ,0
370,2011001153593,新規,0,2023-04-07,2023-04-07,株式会社ＳＴＩＬＬＳ,,株式会社,東京都,目黒区,東山３丁目１２番３号,,13,110,1530043,,,,,,,2023-04-07,1,,,,,スティルズ,0
371,2011001153602,新規,0,2023-04-07,2023-04-07,株式会社Ｔｓｕｍｕｇｕ,,株式会社,東京都,渋谷区,神宮前３丁目７番４号パークプレース神宮前３階,,13,113,1500001,,,,,,,2023-04-07,1,,,,,ツムグ,0
372,2011003016542,新規,0,2023-04-07,2023-04-07,合同会社Ｂｌｕｅ　Ｉｍｐａｃｔｓ＆Ｃｏ．,,合同会社,東京都,渋谷区,渋谷２丁目１９－１５宮益坂ビルディング６０９,,13,113,1500002,,,,,,,2023-04-07,1,,,,,ブルーインパクトアンドカンパニー,0
373,2011003016583,新規,0,2023-04-07,2023-04-07,合同会社ＺＥＫＥ,,合同会社,東京都,渋谷区,恵比寿３丁目３６番１２号５Ｆ,,13,113,1500013,,,,,,,2023-04-07,1,,,,,ジーク,0
384,2011101102426,新規,0,2023-04-07,2023-04-07,株式会社アイナチュール,,株式会社,東京都,新宿区,西新宿７丁目１６番１３号末廣ビル２０２号室,,13,104,1600023,,,,,,,2023-04-07,1,,,,,アイナチュール,0
385,2011103012904,新規,0,2023-04-07,2023-04-07,合同会社ユピエス,,合同会社,東京都,新宿区,歌舞伎町１丁目１０番１２号,,13,104,1600021,,,,,,,2023-04-07,1,,,,,ユピエス,0
388,2011301028586,新規,0,2023-04-07,2023-04-07,ｃｏｔｏｂａｓｏｂｉ株式会社,,株式会社,東京都,杉並区,和泉３丁目２６番７号,,13,115,1680063,,,,,,,2023-04-07,1,,,,,コトバソビ,0
389,2011301028603,新規,0,2023-04-07,2023-04-07,ＳＵ商店株式会社,,株式会社,東京都,杉並区,宮前３丁目２７番１０号,,13,115,1680081,,,,,,,2023-04-07,1,,,,,エスユーショウテン,0
392,2011501029129,新規,0,2023-04-07,2023-04-07,株式会社元気堂,,株式会社,東京都,北区,西ケ原１丁目４２番３号,,13,117,1140024,,,,,,,2023-04-07,1,,,,,ゲンキドウ,0
395,2011801042186,新規,0,2023-04-07,2023-04-07,株式会社日達エクスプレス,,株式会社,東京都,足立区,千住龍田町１０番２号メゾンソルト１階,,13,121,1200042,,,,,,,2023-04-07,1,,,,,ニチタツエクスプレス,0
396,2011801042194,新規,0,2023-04-07,2023-04-07,株式会社ネクストビュー,,株式会社,東京都,足立区,東保木間１丁目２０番７号ラパス２０２,,13,121,1210063,,,,,,,2023-04-07,1,,,,,ネクストビュー,0
400,2012401040365,新規,0,2023-04-07,2023-04-07,株式会社Ｕｐｓｔａｒｔ,,株式会社,東京都,稲城市,矢野口２０７１番地の１,,13,225,2060812,,,,,,,2023-04-07,1,,,,,アップスタート,0
402,2012801022252,新規,0,2023-04-07,2023-04-07,株式会社スカイライティング,,株式会社,東京都,国分寺市,高木町２丁目１２番地２１,,13,214,1850036,,,,,,,2023-04-07,1,,,,,スカイライティング,0
408,2013303006578,新規,0,2023-04-07,2023-04-07,Ｈａｓｓｙ　Ｇｌｏｂａｌ合同会社,,合同会社,東京都,豊島区,高田３丁目１６番１号,,13,116,1710033,,,,,,,2023-04-07,1,,,,,ハッシーグローバル,0
409,2013305003458,新規,0,2023-04-07,2023-04-07,一般社団法人日本国際看護学会,,その他の設立登記法人,東京都,豊島区,東池袋１丁目１７番１１号パークハイツ池袋１１０５号,,13,116,1700013,,,,,,,2023-04-07,1,,,,,ニホンコクサイカンゴガッカイ,0
417,2020001150939,新規,0,2023-04-07,2023-04-07,株式会社ｓｔｕｄｉｏおてんし,,株式会社,神奈川県,川崎市多摩区,西生田４丁目１３番４号ランド・ヒロ２０８,,14,135,2140037,,,,,,,2023-04-07,1,,,,,スタジオオテンシ,0
418,2020001150963,新規,0,2023-04-07,2023-04-07,株式会社クールテック,,株式会社,神奈川県,横浜市青葉区,藤が丘１丁目５２番地の３６,,14,117,2270043,,,,,,,2023-04-07,1,,,,,クールテック,0
419,2020001151012,新規,0,2023-04-07,2023-04-07,株式会社武正,,株式会社,神奈川県,横浜市都筑区,茅ケ崎東２丁目１８番４号,,14,118,2240033,,,,,,,2023-04-07,1,,,,,タケショウ,0
420,2020001151037,新規,0,2023-04-07,2023-04-07,株式会社ｓｍａｌｌ　ｆｉｅｌｄ,,株式会社,神奈川県,横浜市中区,本牧元町１０番２９号,,14,104,2310822,,,,,,,2023-04-07,1,,,,,スモールフィールド,0
421,2020001151053,新規,0,2023-04-07,2023-04-07,株式会社キッズスクエア,,株式会社,神奈川県,川崎市中原区,上小田中７丁目６番１７号,,14,133,2110053,,,,,,,2023-04-07,1,,,,,キッズスクエア,0
426,2021001078542,新規,0,2023-04-07,2023-04-07,株式会社ＵＷ,,株式会社,神奈川県,藤沢市,用田１１３８番地１０,,14,205,2520821,,,,,,,2023-04-07,1,,,,,ユーダブリュー,0
427,2021001078633,新規,0,2023-04-07,2023-04-07,株式会社ＬＯＲＥ,,株式会社,神奈川県,茅ヶ崎市,赤羽根１９番地１５,,14,207,2530001,,,,,,,2023-04-07,1,,,,,ロア,0
428,2021001078658,新規,0,2023-04-07,2023-04-07,株式会社カミツレ,,株式会社,神奈川県,綾瀬市,寺尾台２丁目３１番１９号,,14,218,2521137,,,,,,,2023-04-07,1,,,,,カミツレ,0
429,2021001078682,新規,0,2023-04-07,2023-04-07,株式会社メイズ,,株式会社,神奈川県,厚木市,戸田２３０７－１エトワールＫ２０１,,14,212,2430023,,,,,,,2023-04-07,1,,,,,メイズ,0
434,2030001153239,新規,0,2023-04-07,2023-04-07,株式会社コネクト,,株式会社,埼玉県,坂戸市,大字紺屋８５４番地１,,11,239,3500204,,,,,,,2023-04-07,1,,,,,コネクト,0
440,2040001127737,新規,0,2023-04-07,2023-04-07,株式会社サンライズ,,株式会社,千葉県,千葉市若葉区,若松町４１４番地１０スカイハイツ２０２,,12,104,2640021,,,,,,,2023-04-07,1,,,,,サンライズ,0
441,2040001127753,新規,0,2023-04-07,2023-04-07,ＴＩＭ株式会社,,株式会社,千葉県,船橋市,市場４丁目７番２号,,12,204,2730001,,,,,,,2023-04-07,1,,,,,ティーアイエム,0
442,2040001127811,新規,0,2023-04-07,2023-04-07,広栄ホールディングス株式会社,,株式会社,千葉県,習志野市,東習志野６丁目１６番１１号,,12,216,2750001,,,,,,,2023-04-07,1,,,,,コウエイホールディングス,0
443,2040001127844,新規,0,2023-04-07,2023-04-07,株式会社ｔｅａ,,株式会社,千葉県,市川市,南行徳１丁目１８番３号稲毛マンション２０４,,12,203,2720138,,,,,,,2023-04-07,1,,,,,ティーイーエー,0
444,2040001127852,新規,0,2023-04-07,2023-04-07,株式会社テックフェロー,,株式会社,千葉県,船橋市,本中山３丁目２３番７－５１０号,,12,204,2730035,,,,,,,2023-04-07,1,,,,,テックフェロー,0
445,2040001127860,新規,0,2023-04-07,2023-04-07,株式会社Ｂ＆Ｓ,,株式会社,千葉県,浦安市,美浜１丁目６番８１２号,,12,227,2790011,,,,,,,2023-04-07,1,,,,,ビーアンドエス,0
446,2040001127869,新規,0,2023-04-07,2023-04-07,株式会社メンサポ,,株式会社,千葉県,千葉市中央区,中央２丁目５－１千葉中央ツインビル２号館７階,,12,101,2600013,,,,,,,2023-04-07,1,,,,,メンサポ,0
447,2040001127902,新規,0,2023-04-07,2023-04-07,株式会社グローイングモア,,株式会社,千葉県,流山市,加６丁目１３１４－３７,,12,220,2700176,,,,,,,2023-04-07,1,,,,,グローイングモア,0
448,2040001127910,新規,0,2023-04-07,2023-04-07,慶安株式会社,,株式会社,千葉県,鎌ケ谷市,丸山３丁目９番３号,,12,224,2730103,,,,,,,2023-04-07,1,,,,,ケイアン,0
450,2040003022325,新規,0,2023-04-07,2023-04-07,合同会社小板橋電網考研,,合同会社,千葉県,八千代市,大和田２２１－６７,,12,221,2760045,,,,,,,2023-04-07,1,,,,,コイタバシデンモウコウケン,0
451,2040003022333,新規,0,2023-04-07,2023-04-07,合同会社Ｔｏｋｙｏｕｒｌｕｘｕｒｙ,,合同会社,千葉県,市川市,平田３丁目３番１２号,,12,203,2720031,,,,,,,2023-04-07,1,,,,,トウキョウラグジュアリー,0
452,2040003022341,新規,0,2023-04-07,2023-04-07,合同会社ストライダー,,合同会社,千葉県,君津市,陽光台３丁目５番２７号長牛方,,12,225,2991166,,,,,,,2023-04-07,1,,,,,ストライダー,0
459,2060001035855,新規,0,2023-04-07,2023-04-07,株式会社栄賢,,株式会社,栃木県,宇都宮市,氷室町１６２７番地５４,,09,201,3213232,,,,,,,2023-04-07,1,,,,,エイケン,0
468,2100001036279,新規,0,2023-04-07,2023-04-07,軽井沢工房株式会社,,株式会社,長野県,北佐久郡軽井沢町,軽井沢東２５３番地,,20,321,3890104,,,,,,,2023-04-07,1,,,,,カルイザワコウボウ,0
469,2100001036287,新規,0,2023-04-07,2023-04-07,イノベイトサポート株式会社,,株式会社,長野県,諏訪市,大字湖南６５８番地１４,,20,206,3920131,,,,,,,2023-04-07,1,,,,,イノベイトサポート,0
478,2110003005017,新規,0,2023-04-07,2023-04-07,合同会社シュウト,,合同会社,新潟県,新潟市南区,大通黄金５丁目１６番地１５,,15,106,9501203,,,,,,,2023-04-07,1,,,,,シュウト,0
487,2120001253624,新規,0,2023-04-07,2023-04-07,株式会社山田塗装,,株式会社,大阪府,大阪市西淀川区,出来島２丁目９番６号,,27,113,5550031,,,,,,,2023-04-07,1,,,,,ヤマダトソウ,0
488,2120001253707,新規,0,2023-04-07,2023-04-07,＿力産業株式会社,00129980,株式会社,大阪府,大阪市此花区,酉島５丁目６番２４号,,27,104,5540051,,,,,,,2023-04-07,1,,,,,シンリサンギョウ,0
489,2120001253715,新規,0,2023-04-07,2023-04-07,株式会社サードプレイス,,株式会社,大阪府,大阪市中央区,備後町２丁目５番８号綿業会館本館,,27,128,5410051,,,,,,,2023-04-07,1,,,,,サードプレイス,0
490,2120001253764,新規,0,2023-04-07,2023-04-07,株式会社ｇｒａｎｔ,,株式会社,大阪府,大阪市東淀川区,小松１丁目１０－２２エクセレント上新１０、１０２号,,27,114,5330004,,,,,,,2023-04-07,1,,,,,グラント,0
491,2120001253789,新規,0,2023-04-07,2023-04-07,株式会社ホサナ,,株式会社,大阪府,大阪市中央区,高津１丁目１０番１６号,,27,128,5420072,,,,,,,2023-04-07,1,,,,,ホサナ,0
492,2120001253797,新規,0,2023-04-07,2023-04-07,株式会社ネットワークスコンサルタント,,株式会社,大阪府,大阪市住之江区,西住之江１丁目５番１５号,,27,125,5590005,,,,,,,2023-04-07,1,,,,,ネットワークスコンサルタント,0
497,2120003023769,新規,0,2023-04-07,2023-04-07,合同会社ＣＺＲ,,合同会社,大阪府,大阪市中央区,南本町４丁目５番７号５階ＷＯＲＫＪＡＭ本町,,27,128,5410054,,,,,,,2023-04-07,1,,,,,シーゼットアール,0
501,2120101067263,新規,0,2023-04-07,2023-04-07,株式会社ユカイ,,株式会社,大阪府,泉佐野市,鶴原１５９２番地,,27,213,5980071,,,,,,,2023-04-07,1,,,,,ユカイ,0
502,2120101067288,新規,0,2023-04-07,2023-04-07,株式会社ウエストデザイン,,株式会社,大阪府,大阪狭山市,東池尻３丁目９９４番地の２,,27,231,5890004,,,,,,,2023-04-07,1,,,,,ウエストデザイン,0
503,2120101067296,新規,0,2023-04-07,2023-04-07,株式会社Ｒｅａｄ　ｅｉｇｈｔ,,株式会社,大阪府,堺市中区,深井中町１００７番地１２,,27,142,5998272,,,,,,,2023-04-07,1,,,,,リードエイト,0
507,2130001073988,新規,0,2023-04-07,2023-04-07,株式会社コダマガーデン,,株式会社,京都府,長岡京市,奥海印寺太鼓山４６番地２５,,26,209,6170853,,,,,,,2023-04-07,1,,,,,コダマガーデン,0
510,2140001129616,新規,0,2023-04-07,2023-04-07,株式会社シセイ,,株式会社,兵庫県,尼崎市,崇徳院２丁目８５番地２,,28,202,6600071,,,,,,,2023-04-07,1,,,,,シセイ,0
511,2140001129649,新規,0,2023-04-07,2023-04-07,株式会社ハート,,株式会社,兵庫県,尼崎市,下坂部２丁目１６番６号,,28,202,6610975,,,,,,,2023-04-07,1,,,,,ハート,0
516,2140003018932,新規,0,2023-04-07,2023-04-07,合同会社農福あわじ,,合同会社,兵庫県,洲本市,物部５３３番地１０,,28,205,6560051,,,,,,,2023-04-07,1,,,,,ノウフクアワジ,0
518,2140005026553,新規,0,2023-04-07,2023-04-07,フェリア社会保険労務士法人,,その他の設立登記法人,兵庫県,姫路市,久保町３８番地,,28,201,6700916,,,,,,,2023-04-07,1,,,,,フェリア,0
519,2170001017537,新規,0,2023-04-07,2023-04-07,株式会社ＴＥＲＡＤＡ,,株式会社,和歌山県,御坊市,湯川町財部８８９番地,,30,205,6440011,,,,,,,2023-04-07,1,,,,,テラダ,0
521,2180001155609,新規,0,2023-04-07,2023-04-07,株式会社しーＳｍｉｌｅ,,株式会社,愛知県,名古屋市守山区,瀬古東１丁目５１８番地,,23,113,4630090,,,,,,,2023-04-07,1,,,,,シースマイル,0
522,2180001155699,新規,0,2023-04-07,2023-04-07,株式会社鉄将,,株式会社,愛知県,小牧市,大字入鹿出新田５３７番地１,,23,219,4850084,,,,,,,2023-04-07,1,,,,,テッショウ,0
523,2180001155716,新規,0,2023-04-07,2023-04-07,ＲＢＭ株式会社,,株式会社,愛知県,名古屋市中村区,日ノ宮町２丁目２０番地の２,,23,105,4530823,,,,,,,2023-04-07,1,,,,,アールビーエム,0
524,2180001155732,新規,0,2023-04-07,2023-04-07,ケイエーシステムズ株式会社,,株式会社,愛知県,名古屋市中村区,名駅４丁目２４番５号第２森ビル４０１,,23,105,4500002,,,,,,,2023-04-07,1,,,,,ケイエーシステムズ,0
525,2180001155740,新規,0,2023-04-07,2023-04-07,株式会社ａ’ｍｙ,,株式会社,愛知県,名古屋市西区,上名古屋２丁目９番９号,,23,104,4510025,,,,,,,2023-04-07,1,,,,,アミー,0
527,2180003025058,新規,0,2023-04-07,2023-04-07,クラシタイヤー合同会社,,合同会社,愛知県,名古屋市東区,代官町３５番２６号,,23,102,4610002,,,,,,,2023-04-07,1,,,,,クラシタイヤー,0
528,2180003025074,新規,0,2023-04-07,2023-04-07,ハレコレ合同会社,,合同会社,愛知県,名古屋市港区,十一屋２丁目２８４番地の１（サニープレイス十一屋Ｄ棟２０５号）,,23,111,4550831,,,,,,,2023-04-07,1,,,,,ハレコレ,0
530,2180301037267,新規,0,2023-04-07,2023-04-07,ＳＵＮＧＡ株式会社,,株式会社,愛知県,蒲郡市,府相町１丁目８９番地竹島ハイツ１Ｆ西側,,23,214,4430054,,,,,,,2023-04-07,1,,,,,スンガ,0
539,2200001041161,新規,0,2023-04-07,2023-04-07,株式会社ぐっぴいＫｍＣ,,株式会社,岐阜県,岐阜市,羽根町２０番地ハロービル１階,,21,201,5008834,,,,,,,2023-04-07,1,,,,,グッピイケーエムシー,0
542,2210001019272,新規,0,2023-04-07,2023-04-07,株式会社スノーピークサーキュレーションコア,,株式会社,福井県,福井市,中央１丁目１４番９号,,18,201,9100006,,,,,,,2023-04-07,1,,,,,スノーピークサーキュレーションコア,0
547,2230001019766,新規,0,2023-04-07,2023-04-07,株式会社川原設備,,株式会社,富山県,射水市,戸破１２２４番地４,,16,211,9390351,,,,,,,2023-04-07,1,,,,,カワハラセツビ,0
552,2240005015554,新規,0,2023-04-07,2023-04-07,医療法人三浜会,,その他の設立登記法人,広島県,呉市,焼山本庄４丁目８番１６号,,34,202,7370912,,,,,,,2023-04-07,1,,,,,ミハマカイ,0
554,2250003003246,新規,0,2023-04-07,2023-04-07,合同会社スカラベファーム,,合同会社,山口県,防府市,大字佐野７０３番地,,35,206,7470067,,,,,,,2023-04-07,1,,,,,スカラベファーム,0
559,2270001008749,新規,0,2023-04-07,2023-04-07,株式会社ＨＡＫＵＴＯ,,株式会社,鳥取県,鳥取市,美萩野４丁目４６３番地２６,,31,201,6890202,,,,,,,2023-04-07,1,,,,,ハクト,0
560,2280003001718,新規,0,2023-04-07,2023-04-07,合同会社コミュニティポスト,,合同会社,島根県,出雲市,斐川町荘原１１０番地,,32,203,6990502,,,,,,,2023-04-07,1,,,,,,0
567,2290001101031,新規,0,2023-04-07,2023-04-07,株式会社Ｙ’ｓグループ,,株式会社,福岡県,糸島市,高田１丁目１４番１４号,,40,230,8191102,,,,,,,2023-04-07,1,,,,,ワイズグループ,0
568,2290001101080,新規,0,2023-04-07,2023-04-07,株式会社ＳＫ,,株式会社,福岡県,福岡市博多区,博多駅南３丁目１９番２０－５０３号,,40,132,8120016,,,,,,,2023-04-07,1,,,,,エスケイ,0
569,2290001101106,新規,0,2023-04-07,2023-04-07,株式会社ＹＤＳ,,株式会社,福岡県,福岡市博多区,千代１丁目２４番５号,,40,132,8120044,,,,,,,2023-04-07,1,,,,,ワイディーエス,0
572,2290003013737,新規,0,2023-04-07,2023-04-07,合同会社ＡＵＳ,,合同会社,福岡県,大野城市,川久保２丁目１６－１７－Ａ１０２,,40,219,8160905,,,,,,,2023-04-07,1,,,,,アース,0
576,2290801029447,新規,0,2023-04-07,2023-04-07,野村建設工業株式会社,,株式会社,福岡県,中間市,東中間１丁目７番１３号,,40,215,8090019,,,,,,,2023-04-07,1,,,,,,0
581,2300005007132,新規,0,2023-04-07,2023-04-07,一般社団法人ソラトチ,,その他の設立登記法人,佐賀県,多久市,東多久町大字別府２３３５番地３,,41,204,8460012,,,,,,,2023-04-07,1,,,,,ソラトチ,0
586,2330001030746,新規,0,2023-04-07,2023-04-07,株式会社ｏｍｅｎ,,株式会社,熊本県,阿蘇郡西原村,大字小森５８０－１,,43,432,8612402,,,,,,,2023-04-07,1,,,,,オーメン,0
588,2330003009788,新規,0,2023-04-07,2023-04-07,合同会社Ｒｉｉ７,,合同会社,熊本県,熊本市東区,花立２丁目１５番２２－１０１号,,43,102,8612118,,,,,,,2023-04-07,1,,,,,リイセッテ,0
589,2340001025480,新規,0,2023-04-07,2023-04-07,Ｒ＆Ｍコーポレーション株式会社,,株式会社,鹿児島県,鹿児島市,下荒田１丁目１番１０号ＺＥＮＢＬ武之橋５０３号,,46,201,8900056,,,,,,,2023-04-07,1,,,,,アールアンドエムコーポレーション,0
591,2350001018277,新規,0,2023-04-07,2023-04-07,株式会社Ｒｅｍｅｄｉｕｍ,,株式会社,宮崎県,延岡市,伊達町１丁目１３番地,,45,203,8820874,,,,,,,2023-04-07,1,,,,,レメディウム,0
592,2350005006146,新規,0,2023-04-07,2023-04-07,土地家屋調査士法人ジオフロンティア,,その他の設立登記法人,宮崎県,宮崎市,大淀１丁目３番１７号３階,,45,201,8800902,,,,,,,2023-04-07,1,,,,,ジオフロンティア,0
595,2360001031782,新規,0,2023-04-07,2023-04-07,株式会社Ｇｒｅｅｎ　Ｆｌａｓｈ,,株式会社,沖縄県,石垣市,字大浜２１９番地１,,47,207,9070001,,,,,,,2023-04-07,1,,,,,グリーンフラッシュ,0
596,2360001031816,新規,0,2023-04-07,2023-04-07,株式会社リハグリット,,株式会社,沖縄県,宜野湾市,大山７丁目７番２０－４０３号,,47,205,9012223,,,,,,,2023-04-07,1,,,,,リハグリット,0
598,2370001049782,新規,0,2023-04-07,2023-04-07,株式会社吟のいろは,,株式会社,宮城県,岩沼市,字梶橋１４４番地,,04,211,9892472,,,,,,,2023-04-07,1,,,,,ギンノイロハ,0
599,2370001049799,新規,0,2023-04-07,2023-04-07,エンカウント株式会社,,株式会社,宮城県,仙台市太白区,富田字南ノ西２８番地の２１,,04,104,9820033,,,,,,,2023-04-07,1,,,,,エンカウント,0
600,2370001049816,新規,0,2023-04-07,2023-04-07,株式会社Ａｙａｆｕｌｌ,,株式会社,宮城県,仙台市若林区,五橋３丁目１番３－５１５号,,04,103,9840022,,,,,,,2023-04-07,1,,,,,アヤフル,0
603,2370003006063,新規,0,2023-04-07,2023-04-07,合同会社ブル,,合同会社,宮城県,仙台市青葉区,南吉成５丁目１３番地の１１,,04,101,9893204,,,,,,,2023-04-07,1,,,,,ブル,0
605,2370005010617,新規,0,2023-04-07,2023-04-07,一般社団法人大島未来開発,,その他の設立登記法人,宮城県,気仙沼市,田尻４５番地１,,04,205,9880611,,,,,,,2023-04-07,1,,,,,オオシマミライカイハツ,0
606,2380001033595,新規,0,2023-04-07,2023-04-07,株式会社ビトアスホールディングス,,株式会社,福島県,会津若松市,大町２丁目１４番２３号,,07,202,9650042,,,,,,,2023-04-07,1,,,,,ビトアスホールディングス,0
610,2400003003057,新規,0,2023-04-07,2023-04-07,合同会社ラスター,,合同会社,岩手県,奥州市,水沢字笹森谷地５１番地９,,03,215,0230873,,,,,,,2023-04-07,1,,,,,,0
612,2410001013437,新規,0,2023-04-07,2023-04-07,株式会社ＡＴＳ,,株式会社,秋田県,横手市,平鹿町浅舞字福田２１２番地１,,05,203,0130105,,,,,,,2023-04-07,1,,,,,エーティーエス,0
615,2420001018204,新規,0,2023-04-07,2023-04-07,ＲＡＩ　ＡＹＡＮ　ＴＲＡＤＩＮＧ株式会社,,株式会社,青森県,十和田市,大字三本木字北平１１０番地５Ｆ号,,02,206,0340001,,,,,,,2023-04-07,1,,,,,ライアヤントレーディング,0
622,2430001088774,新規,0,2023-04-07,2023-04-07,そらのいろ株式会社,,株式会社,北海道,札幌市東区,北十二条東５丁目１番６号,,01,103,0650012,,,,,,,2023-04-07,1,,,,,ソラノイロ,0
623,2430001088782,新規,0,2023-04-07,2023-04-07,株式会社ＴＫ住総,,株式会社,北海道,札幌市北区,篠路二条４丁目２番１５号,,01,102,0028022,,,,,,,2023-04-07,1,,,,,ティーケイジュウソウ,0
630,2460103001525,新規,0,2023-04-07,2023-04-07,合同会社ＨｏｍｅＲｏｏｔ,,合同会社,北海道,帯広市,東一条南５丁目２０番地５,,01,207,0800801,,,,,,,2023-04-07,1,,,,,ホームルート,0
631,2470001019544,新規,0,2023-04-07,2023-04-07,八千代電気水道株式会社,,株式会社,香川県,高松市,三谷町２２５６番地８,,37,201,7610450,,,,,,,2023-04-07,1,,,,,ヤチヨデンキスイドウ,0
633,2480001012060,新規,0,2023-04-07,2023-04-07,株式会社農水企画,,株式会社,徳島県,鳴門市,撫養町黒崎字松島６番地９,,36,202,7720001,,,,,,,2023-04-07,1,,,,,ノウスイキカク,0
635,2490005006891,新規,0,2023-04-07,2023-04-07,一般社団法人うみのこえ,,その他の設立登記法人,高知県,安芸郡東洋町,大字生見５７５番地１０,,39,301,7817414,,,,,,,2023-04-07,1,,,,,ウミノコエ,0
636,2500001024862,新規,0,2023-04-07,2023-04-07,ミルクホーム株式会社,,株式会社,愛媛県,松山市,船ケ谷町３１番地１,,38,201,7918073,,,,,,,2023-04-07,1,,,,,ミルクホーム,0
640,2700150114618,新規,0,2023-04-07,2023-04-07,深セン愛来科技有限公司,,外国会社等,,,,,,,,中国深セン市龍華区福城街道大水坑社区金富苑２号５２３,,,,,,2023-04-07,1,,,,,シンセンアイライカギユウゲンコウシ,0
641,2700150115211,新規,0,2023-04-07,2023-04-07,ｓｈｅｎｚｈｅｎｓｈｉｗｅｉｋａｎｋｅｊｉｙｏｕｘｉａｎｇｏｎｇｓｉ,,外国会社等,,,,,,,,Ｄｏｎｇｈｕａｎ　１ｓｔ　Ｒｏａｄ，Ｓｏｎｇｈｅ　Ｃｏｍｍｕｎｉｔｙ，Ｌｏｎｇｈｕａ　Ｓｔｒｅｅｔ　Ｕｎｉｏｎ　Ｂｕｉｌｄｉｎｇ　５０１，Ｎｏ．１１０　Ｓｈｅｎｚｈｅｎ　Ｌｏｎｇｈｕａ　Ｄｉｓｔｒｉｃｔ　Ｇｕａｎｇｄｏｎｇ　Ｐｒｏｖｉｎｃｅ,,,,,,2023-04-07,1,,,,,シェンジェンシーウェイカンコージーヨウシエンゴンスー,0
646,3010001234155,新規,0,2023-04-07,2023-04-07,株式会社ｓｔａｒｉｎ,,株式会社,東京都,中央区,銀座１丁目２２番１１号銀座大竹ビジデンス２Ｆ,,13,102,1040061,,,,,,,2023-04-07,1,,,,,スターリン,0
647,3010001234163,新規,0,2023-04-07,2023-04-07,株式会社想,,株式会社,東京都,中央区,佃１丁目１１番９号シティフロントタワー９０４,,13,102,1040051,,,,,,,2023-04-07,1,,,,,オモイ,0
648,3010001234205,新規,0,2023-04-07,2023-04-07,デロイトトーマツＧＴＢ株式会社,,株式会社,東京都,千代田区,有楽町１丁目７番１号有楽町電気ビルヂング,,13,101,1000006,,,,,,,2023-04-07,1,,,,,デロイトトーマツジーティービー,0
649,3010001234221,新規,0,2023-04-07,2023-04-07,株式会社Ｋａｎｅｓａｋａ　Ｉｎｔｅｒｎａｔｉｏｎａｌ,,株式会社,東京都,中央区,銀座３丁目１４番２号第一はなぶさビル３階,,13,102,1040061,,,,,,,2023-04-07,1,,,,,カネサカインターナショナル,0
650,3010001234238,新規,0,2023-04-07,2023-04-07,ＱＡＭＬ株式会社,,株式会社,東京都,千代田区,九段南１丁目５－６りそな九段ビル５Ｆ,,13,101,1020074,,,,,,,2023-04-07,1,,,,,キャメル,0
651,3010001234246,新規,0,2023-04-07,2023-04-07,株式会社サンソウクラフト,,株式会社,東京都,文京区,大塚３丁目５番１０号,00129985,13,105,1120012,,,,,,,2023-04-07,1,,,,,サンソウクラフト,0
652,3010001234254,新規,0,2023-04-07,2023-04-07,株式会社ＣＯＤＥ　Ａｓｓｉｓｔ　Ｐｒｏｊｅｃｔ,,株式会社,東京都,千代田区,飯田橋１丁目９－７－１０階,,13,101,1020072,,,,,,,2023-04-07,1,,,,,コードアシストプロジェクト,0
653,3010003040246,新規,0,2023-04-07,2023-04-07,ＷＴＫ合同会社,,合同会社,東京都,中央区,東日本橋２丁目１４－１１ウィルローズ日本橋４０１,,13,102,1030004,,,,,,,2023-04-07,1,,,,,ダブリューティーケー,0
654,3010003040254,新規,0,2023-04-07,2023-04-07,サステナブルローンファンド１５号合同会社,,合同会社,東京都,中央区,八丁堀４丁目２番１０号ＡＯＪ税理士法人内,,13,102,1040032,,,,,,,2023-04-07,1,,,,,サステナブルローンファンドジュウゴゴウ,0
658,3010005036465,新規,0,2023-04-07,2023-04-07,名古屋ロジスティクス特定目的会社,,その他の設立登記法人,東京都,中央区,日本橋１丁目４番１号日本橋一丁目ビルディング,,13,102,1030027,,,,,,,2023-04-07,1,,,,,ナゴヤロジスティクス,0
659,3010005036473,新規,0,2023-04-07,2023-04-07,一般社団法人人と動物の共生を目指す生育者協会,,その他の設立登記法人,東京都,千代田区,神田須田町２丁目２３番１号天翔秋葉原万世橋ビル２０７,,13,101,1010041,,,,,,,2023-04-07,1,,,,,ヒトトドウブツノキョウイセイヲメザスセイイクシャキョウカイ,0
660,3010101015587,新規,0,2023-04-07,2023-04-07,株式会社燦燦,,株式会社,東京都,八王子市,片倉町２５０４番地１サンハイム２０１号,,13,201,1920914,,,,,,,2023-04-07,1,,,,,サンサン,0
664,3010401173507,新規,0,2023-04-07,2023-04-07,株式会社ｅｉｉｃｏｎ,,株式会社,東京都,港区,南青山１丁目１５番５号,,13,103,1070062,,,,,,,2023-04-07,1,,,,,エイコン,0
665,3010403029789,新規,0,2023-04-07,2023-04-07,合同会社ＭＴＣソリューションズ,,合同会社,東京都,港区,南青山３丁目１８番２０号ワークス南青山５階,,13,103,1070062,,,,,,,2023-04-07,1,,,,,エムティーシーソリューションズ,0
666,3010403029863,新規,0,2023-04-07,2023-04-07,ＲＢソーラーセージ合同会社,,合同会社,東京都,港区,虎ノ門３丁目２２番１０－２０１号,,13,103,1050001,,,,,,,2023-04-07,1,,,,,アールビーソーラーセージ,0
667,3010505003394,新規,0,2023-04-07,2023-04-07,一般財団法人ノーツすこやかこども財団,,その他の設立登記法人,東京都,台東区,浅草橋４丁目２番２号,,13,106,1110053,,,,,,,2023-04-07,1,,,,,ノーツスコヤカコドモザイダン,0
669,3010701044085,新規,0,2023-04-07,2023-04-07,株式会社Ｔ’ｓ　Ｈｏｌｄｉｎｇｓ,,株式会社,東京都,品川区,西五反田２丁目１８番３号グレイス五反田９０１号室,,13,109,1410031,,,,,,,2023-04-07,1,,,,,ティーズホールディングス,0
671,3010703006653,新規,0,2023-04-07,2023-04-07,ＡＫＩ資産運営合同会社,,合同会社,東京都,品川区,大井１丁目３１－１シティタワー大井町２７０１,,13,109,1400014,,,,,,,2023-04-07,1,,,,,アキシサンウンエイ,0
672,3010801033830,新規,0,2023-04-07,2023-04-07,ＲＮスマートパッケージング株式会社,,株式会社,東京都,大田区,中馬込１丁目３番６号,,13,111,1430027,,,,,,,2023-04-07,1,,,,,アールエヌスマートパッケージング,0
673,3010801033839,新規,0,2023-04-07,2023-04-07,株式会社ＡＳＡＣ,,株式会社,東京都,大田区,西蒲田６丁目２６番３号,,13,111,1440051,,,,,,,2023-04-07,1,,,,,アサック,0
674,3010803004490,新規,0,2023-04-07,2023-04-07,晏泰合同会社,,合同会社,東京都,大田区,矢口１丁目１６－１９コスモビルＩＩ３０８,00129995,13,111,1460093,,,,,,,2023-04-07,1,,,,,アンタイ,0
678,3010901052838,新規,0,2023-04-07,2023-04-07,株式会社ＲＡＫＲＡＩ,,株式会社,東京都,世田谷区,代田５丁目１３番８号代田フラット１０１,,13,112,1550033,,,,,,,2023-04-07,1,,,,,,0
680,3010905004463,新規,0,2023-04-07,2023-04-07,ＮＰＯ法人音楽の未来を探るスミレ協会,,その他の設立登記法人,東京都,世田谷区,桜２丁目２１番２３－１０３号,,13,112,1560053,,,,,,,2023-04-07,1,,,,,オンガクノミライヲサグルスミレキョウカイ,0
686,3011001153527,新規,0,2023-04-07,2023-04-07,株式会社ＲＥＡＣＨ,,株式会社,東京都,目黒区,中目黒４丁目５番７－１０３号,,13,110,1530061,,,,,,,2023-04-07,1,,,,,リーチ,0
687,3011001153601,新規,0,2023-04-07,2023-04-07,株式会社Ｓｌｕｎｋｅｒ,,株式会社,東京都,渋谷区,渋谷２丁目１９－１５宮益坂ビルディング６０９,,13,113,1500002,,,,,,,2023-04-07,1,,,,,スランカー,0
690,3011003016590,新規,0,2023-04-07,2023-04-07,合同会社真,,合同会社,東京都,渋谷区,道玄坂２丁目２８番２号ＭＭビル２階,,13,113,1500043,,,,,,,2023-04-07,1,,,,,マコト,0
691,3011005010014,新規,0,2023-04-07,2023-04-07,ＧＪＤＣＶ１特定目的会社,,その他の設立登記法人,東京都,渋谷区,広尾１丁目１１番２号嶋本公認会計士事務所気付,,13,113,1500012,,,,,,,2023-04-07,1,,,,,ジージェイディーシーブイワン,0
693,3011101102359,新規,0,2023-04-07,2023-04-07,重光株式会社,,株式会社,東京都,新宿区,歌舞伎町２丁目２－２１ライオンズマンション歌舞伎町８０４号室,,13,104,1600021,,,,,,,2023-04-07,1,,,,,シゲミツ,0
695,3011301028585,新規,0,2023-04-07,2023-04-07,株式会社ＡＫＡＳＥ　ＨＯＬＤＩＮＧＳ,,株式会社,東京都,杉並区,上荻４丁目１７番１９号,,13,115,1670043,,,,,,,2023-04-07,1,,,,,アカセホールディングス,0
696,3011303004717,新規,0,2023-04-07,2023-04-07,ＴｈｒｅｅＡｐｅｓＪａｐａｎ合同会社,,合同会社,東京都,杉並区,和泉１丁目１－１２,,13,115,1680063,,,,,,,2023-04-07,1,,,,,スリーエイプスジャパン,0
698,3011503005548,新規,0,2023-04-07,2023-04-07,水道プランニング合同会社,,合同会社,東京都,北区,豊島８丁目８番１６－５０３号,,13,117,1140003,,,,,,,2023-04-07,1,,,,,スイドウプランニング,0
700,3011701026131,新規,0,2023-04-07,2023-04-07,株式会社Ｙ＆Ｋスティール,,株式会社,東京都,江戸川区,南篠崎町４丁目１番２－３０６号,,13,123,1330065,,,,,,,2023-04-07,1,,,,,ワイアンドケイスティール,0
702,3011703003434,新規,0,2023-04-07,2023-04-07,新栄立合同会社,,合同会社,東京都,江戸川区,中葛西３丁目６－１３－２０３Ａ渡辺ハウス,,13,123,1340083,,,,,,,2023-04-07,1,,,,,シンエイリツ,0
705,3011803005578,新規,0,2023-04-07,2023-04-07,合同会社高井,,合同会社,東京都,足立区,千住大川町１５―１０,,13,121,1200031,,,,,,,2023-04-07,1,,,,,タカイ,0
706,3011803005586,新規,0,2023-04-07,2023-04-07,エッセンシャルマネジメントワーク合同会社,,合同会社,東京都,足立区,東綾瀬２丁目３番３－５０１号,,13,121,1200004,,,,,,,2023-04-07,1,,,,,エッセンシャルマネジメントワーク,0
707,3012301013379,新規,0,2023-04-07,2023-04-07,株式会社ＢＲＯＯＫＳ　ＳＴＵＤＩＯ,,株式会社,東京都,町田市,玉川学園３丁目５番１６号,,13,209,1940041,,,,,,,2023-04-07,1,,,,,ブルックススタジオ,0
710,3012303001803,新規,0,2023-04-07,2023-04-07,合同会社吉川屋,00129982,合同会社,東京都,町田市,相原町２１２２番地ロ号,,13,209,1940211,,,,,,,2023-04-07,1,,,,,ヨシカワヤ,0
712,3012401040364,新規,0,2023-04-07,2023-04-07,みずき造園株式会社,,株式会社,東京都,稲城市,東長沼７９３番地の７,,13,225,2060802,,,,,,,2023-04-07,1,,,,,ミズキゾウエン,0
717,3013301050577,新規,0,2023-04-07,2023-04-07,株式会社ナプテック,,株式会社,東京都,豊島区,西池袋５丁目８番９号,,13,116,1710021,,,,,,,2023-04-07,1,,,,,ナプテック,0
722,3020001150962,新規,0,2023-04-07,2023-04-07,株式会社日常,,株式会社,神奈川県,川崎市麻生区,片平２丁目１９番３号,,14,137,2150023,,,,,,,2023-04-07,1,,,,,ニチジョウ,0
723,3020001151003,新規,0,2023-04-07,2023-04-07,Ｂａｎｋｅｒｓ’Ｍｉｓｓｉｏｎ株式会社,,株式会社,神奈川県,横浜市青葉区,青葉台１丁目１３番１号青葉台郵便局２階,,14,117,2270062,,,,,,,2023-04-07,1,,,,,バンカーズミッション,0
724,3020001151011,新規,0,2023-04-07,2023-04-07,株式会社Ｌｕｍｉｘ,,株式会社,神奈川県,川崎市多摩区,登戸２５４０－１－３０１,,14,135,2140014,,,,,,,2023-04-07,1,,,,,ルミックス,0
725,3020003023654,新規,0,2023-04-07,2023-04-07,鈴木猫事オモロー合同会社,,合同会社,神奈川県,川崎市高津区,久本２丁目１１番１号パレステージ７１０号室,,14,134,2130011,,,,,,,2023-04-07,1,,,,,スズキビョウジオモロー,0
726,3020003023662,新規,0,2023-04-07,2023-04-07,ＨＡＮＤＳＯＭＥ合同会社,,合同会社,神奈川県,横浜市南区,高根町４丁目２８番７号,,14,105,2320022,,,,,,,2023-04-07,1,,,,,ハンサム,0
727,3020003023679,新規,0,2023-04-07,2023-04-07,合同会社Ｍａｚｅ　Ｓｔｙｌｅ,,合同会社,神奈川県,横浜市西区,浅間町１丁目４番地３ウィザードビル４０２号,,14,103,2200072,,,,,,,2023-04-07,1,,,,,メイズスタイル,0
735,3021001078649,新規,0,2023-04-07,2023-04-07,株式会社ロール,,株式会社,神奈川県,藤沢市,辻堂元町６丁目２５番２６号,,14,205,2510043,,,,,,,2023-04-07,1,,,,,ロール,0
745,3030001153171,新規,0,2023-04-07,2023-04-07,株式会社ＴＫＧ,,株式会社,埼玉県,春日部市,粕壁東２丁目２番２１－５０１号プレイズ春日部,,11,214,3440062,,,,,,,2023-04-07,1,,,,,ティーケージー,0
746,3030001153188,新規,0,2023-04-07,2023-04-07,株式会社三喜,,株式会社,埼玉県,久喜市,中妻１６４７番地５２,,11,232,3400213,,,,,,,2023-04-07,1,,,,,ミキ,0
747,3030001153246,新規,0,2023-04-07,2023-04-07,株式会社糸井工業,,株式会社,埼玉県,川口市,大字安行吉岡１４０９番地の４４,,11,203,3340072,,,,,,,2023-04-07,1,,,,,イトイコウギョウ,0
748,3030001153254,新規,0,2023-04-07,2023-04-07,株式会社Ｒｅｌｅｇａｒｅ,,株式会社,埼玉県,川越市,新宿町１丁目８－２メルベーユ川越１Ｆ,,11,201,3501124,,,,,,,2023-04-07,1,,,,,リレガーレ,0
749,3030001153262,新規,0,2023-04-07,2023-04-07,株式会社おけがわ販売,,株式会社,埼玉県,桶川市,北１丁目１４番１０号,,11,231,3630011,,,,,,,2023-04-07,1,,,,,オケガワハンバイ,0
752,3030005021201,新規,0,2023-04-07,2023-04-07,一般社団法人学童クラブプリズムの会,,その他の設立登記法人,埼玉県,深谷市,上柴町西５丁目３番地６,,11,218,3660052,,,,,,,2023-04-07,1,,,,,ガクドウクラブプリズムノカイ,0
755,3040001127819,新規,0,2023-04-07,2023-04-07,株式会社よせのわ,,株式会社,千葉県,千葉市美浜区,中瀬１丁目３番地,,12,106,2610023,,,,,,,2023-04-07,1,,,,,ヨセノワ,0
756,3040001127827,新規,0,2023-04-07,2023-04-07,株式会社ヤナモト,,株式会社,千葉県,松戸市,日暮７丁目４１１番地,,12,207,2702253,,,,,,,2023-04-07,1,,,,,ヤナモト,0
757,3040001127868,新規,0,2023-04-07,2023-04-07,株式会社ＯＮＥＨＯＲＳＥ,,株式会社,千葉県,成田市,不動ケ岡１１１９番地１,,12,211,2860044,,,,,,,2023-04-07,1,,,,,ワンホース,0
759,3040003022225,新規,0,2023-04-07,2023-04-07,合同会社ＷＨ．ＬＩＦＥＰＬＵＳ,,合同会社,千葉県,四街道市,鹿渡８６５－３１,,12,228,2840003,,,,,,,2023-04-07,1,,,,,ダブリューエイチライフプラス,0
760,3040003022340,新規,0,2023-04-07,2023-04-07,Ｓｍｉｌｅ　Ｈｏｐｅ　Ｎｅｗ　Ｌｉｆｅ合同会社,,合同会社,千葉県,船橋市,海神２丁目２２番１－１２０２号,,12,204,2730021,,,,,,,2023-04-07,1,,,,,スマイルホープニューライフ,0
761,3040003022357,新規,0,2023-04-07,2023-04-07,合同会社コネクトハーツ,,合同会社,千葉県,佐倉市,中志津７丁目２番１１号,,12,212,2850843,,,,,,,2023-04-07,1,,,,,コネクトハーツ,0
762,3040003022365,新規,0,2023-04-07,2023-04-07,合同会社アンドフィット,,合同会社,千葉県,市川市,国分２丁目８番９号,,12,203,2720834,,,,,,,2023-04-07,1,,,,,アンドフィット,0
764,3050001052603,新規,0,2023-04-07,2023-04-07,株式会社安藤工業,,株式会社,茨城県,神栖市,木崎２４０６番地１５８Ｎ００８号,,08,232,3140127,,,,,,,2023-04-07,1,,,,,アンドウコウギョウ,0
765,3050001052628,新規,0,2023-04-07,2023-04-07,株式会社渡沼地質,,株式会社,茨城県,猿島郡五霞町,大字元栗橋７２番地,,08,542,3060313,,,,,,,2023-04-07,1,,,,,ワタヌマチシツ,0
770,3060001035846,新規,0,2023-04-07,2023-04-07,株式会社Ｋ．ＳＥＡＬＳ,,株式会社,栃木県,小山市,大字塚崎１５０６番地１,,09,208,3230818,,,,,,,2023-04-07,1,,,,,ケーシールズ,0
774,3070003004897,新規,0,2023-04-07,2023-04-07,合同会社Ｄａｙ’ｓ　ｅｙｅ,,合同会社,群馬県,太田市,山之神町３０９番地９エクセロンＩＩ－Ｂ－２０５号,00129987,10,205,3792302,,,,,,,2023-04-07,1,,,,,デイズアイ,0
776,3080001025556,新規,0,2023-04-07,2023-04-07,株式会社アドバンスシギハラ,,株式会社,静岡県,藤枝市,南新屋２６１番地の２１,,22,214,4260072,,,,,,,2023-04-07,1,,,,,アドバンスシギハラ,0
779,3080101023889,新規,0,2023-04-07,2023-04-07,富士モータースポーツフォレスト株式会社,,株式会社,静岡県,駿東郡小山町,大御神字中島６２７番地,,22,344,4101308,,,,,,,2023-04-07,1,,,,,フジモータースポーツフォレスト,0
784,3080405007539,新規,0,2023-04-07,2023-04-07,一般社団法人大きな木ふくろい,,その他の設立登記法人,静岡県,袋井市,川井５０４番地の１１,,22,216,4370064,,,,,,,2023-04-07,1,,,,,オオキナキフクロイ,0
785,3100003006956,新規,0,2023-04-07,2023-04-07,佐久ゆうき合同会社,,合同会社,長野県,佐久市,長土呂９３番地８,,20,217,3850021,,,,,,,2023-04-07,1,,,,,サクユウキ,0
790,3110001037424,新規,0,2023-04-07,2023-04-07,アスタリスク株式会社,,株式会社,新潟県,新潟市中央区,万代５丁目７番２号,,15,103,9500088,,,,,,,2023-04-07,1,,,,,アスタリスク,0
805,3120001253706,新規,0,2023-04-07,2023-04-07,株式会社エイチ・ツー・オーＫＵカーボンニュートラルデザイン,,株式会社,大阪府,大阪市北区,角田町８番７号,,27,127,5300017,,,,,,,2023-04-07,1,,,,,エイチツーオーケーユーカーボンニュートラルデザイン,0
806,3120001253771,新規,0,2023-04-07,2023-04-07,東昇株式会社,,株式会社,大阪府,大阪市西成区,千本北１丁目１０番２４号エリートパレス天下茶屋Ｉ３Ｆ,00129981,27,122,5570053,,,,,,,2023-04-07,1,,,,,トウショウ,0
807,3120001253813,新規,0,2023-04-07,2023-04-07,株式会社ＭＯＥＩＧＨＴ,,株式会社,大阪府,大阪市天王寺区,堂ケ芝２丁目９番１８－６０２号,,27,109,5430033,,,,,,,2023-04-07,1,,,,,モエイト,0
811,3120003023768,新規,0,2023-04-07,2023-04-07,合同会社ＮＵＡＭ,,合同会社,大阪府,守口市,平代町９番１５号オマージュＡ９０１,,27,209,5700078,,,,,,,2023-04-07,1,,,,,エヌユーエーエム,0
812,3120003023776,新規,0,2023-04-07,2023-04-07,合同会社オフィスＴＡＫＡＭＡ,,合同会社,大阪府,大阪市平野区,瓜破２丁目７番３２号,,27,126,5470024,,,,,,,2023-04-07,1,,,,,オフィスタカマ,0
813,3120003023784,新規,0,2023-04-07,2023-04-07,合同会社ワンステップ,,合同会社,大阪府,大阪市西成区,萩之茶屋３丁目４番２４号ＯＳＡＫＡハウスＩＩ１号室,00129979,27,122,5570004,,,,,,,2023-04-07,1,,,,,ワンステップ,0
817,3120101067262,新規,0,2023-04-07,2023-04-07,株式会社日装テント,,株式会社,大阪府,堺市南区,土佐屋台１５１９番地１,,27,145,5900104,,,,,,,2023-04-07,1,,,,,ニッソウテント,0
818,3120101067287,新規,0,2023-04-07,2023-04-07,株式会社ｙｕｍｅ　ｃｏ．,,株式会社,大阪府,大阪狭山市,東池尻２丁目１１２２番地の１１,,27,231,5890004,,,,,,,2023-04-07,1,,,,,ユメカンパニー,0
820,3120103005154,新規,0,2023-04-07,2023-04-07,ＧＡＲＡＧＥ　ＪＡＣＫ合同会社,,合同会社,大阪府,岸和田市,土生町６丁目４番１２号ライゼホビー８号室,,27,202,5960825,,,,,,,2023-04-07,1,,,,,ガレージジャック,0
833,3130001074060,新規,0,2023-04-07,2023-04-07,エアビーン株式会社,,株式会社,京都府,京都市下京区,西新屋敷下之町１２番地１－２０２,,26,106,6000000,,,,,,,2023-04-07,1,,,,,エアビーン,0
840,3140001129623,新規,0,2023-04-07,2023-04-07,神戸Ｓ＆Ｍ株式会社,,株式会社,兵庫県,神戸市兵庫区,羽坂通２丁目１番２５号,,28,105,6520805,,,,,,,2023-04-07,1,,,,,コウベエスアンドエム,0
841,3140001129730,新規,0,2023-04-07,2023-04-07,株式会社円将組,,株式会社,兵庫県,神戸市長田区,鶯町１丁目６番１３号,,28,106,6530871,,,,,,,2023-04-07,1,,,,,マルショウグミ,0
843,3140003018931,新規,0,2023-04-07,2023-04-07,合同会社ＫＯＢＥ　ＥＸＰＯＲＴ　ＰＡＲＴＮＥＲＳ,,合同会社,兵庫県,神戸市東灘区,向洋町中１丁目４番地１３１号棟１０１号室,,28,101,6580032,,,,,,,2023-04-07,1,,,,,コウベエクスポートパートナーズ,0
848,3160005011180,新規,0,2023-04-07,2023-04-07,協同組合ＳＴＡＲＴＨ,,その他の設立登記法人,滋賀県,東近江市,沖野３丁目２８８番地２,,25,213,5270034,,,,,,,2023-04-07,1,,,,,スタース,0
856,3180001155608,新規,0,2023-04-07,2023-04-07,中川国際株式会社,,株式会社,愛知県,名古屋市西区,樋の口町１－１５，ホーワビルＳＨＩＲＯＬＡＢＯ，３階１１号,,23,104,4510034,,,,,,,2023-04-07,1,,,,,ナカガワコクサイ,0
857,3180001155649,新規,0,2023-04-07,2023-04-07,ＳＭＲＩ株式会社,,株式会社,愛知県,名古屋市中村区,名駅南１丁目１６番２５号,,23,105,4500003,,,,,,,2023-04-07,1,,,,,エスエムアールアイ,0
858,3180001155657,新規,0,2023-04-07,2023-04-07,株式会社ＬＡＮＤＳＣＡＰＥ,,株式会社,愛知県,名古屋市中村区,平池町４丁目６０番地の５ロイヤルパークスＥＲささしま０４０４号室,,23,105,4530872,,,,,,,2023-04-07,1,,,,,ランドスケープ,0
859,3180001155665,新規,0,2023-04-07,2023-04-07,株式会社ＣＰＩ,,株式会社,愛知県,名古屋市中村区,名駅４丁目２４番５号第２森ビル４０１,,23,105,4500002,,,,,,,2023-04-07,1,,,,,シーピーアイ,0
860,3180001155681,新規,0,2023-04-07,2023-04-07,家辞書株式会社,,株式会社,愛知県,春日井市,高山町４丁目１５番地２３,,23,206,4860912,,,,,,,2023-04-07,1,,,,,イエジショ,0
861,3180001155723,新規,0,2023-04-07,2023-04-07,株式会社ｍａｋｏｔｏｂａ,,株式会社,愛知県,名古屋市中村区,名駅４丁目２４番５号第２森ビル４０１,,23,105,4500002,,,,,,,2023-04-07,1,,,,,マコトバ,0
862,3180001155731,新規,0,2023-04-07,2023-04-07,株式会社グローバルハンド,,株式会社,愛知県,常滑市,井戸田町２丁目２７番地,,23,216,4790812,,,,,,,2023-04-07,1,,,,,グローバルハンド,0
863,3180001155748,新規,0,2023-04-07,2023-04-07,株式会社染川組,,株式会社,愛知県,名古屋市守山区,下志段味３丁目１０１７番地,,23,113,4630003,,,,,,,2023-04-07,1,,,,,ソメカワグミ,0
866,3180003025065,新規,0,2023-04-07,2023-04-07,合同会社Ｄｗｅｉｌｄ,,合同会社,愛知県,名古屋市熱田区,明野町４番１号,,23,109,4560071,,,,,,,2023-04-07,1,,,,,ディーウィールド,0
867,3180003025073,新規,0,2023-04-07,2023-04-07,合同会社ｆｏｒｅｓｔ,,合同会社,愛知県,小牧市,常普請１丁目１９３番地１,,23,219,4850044,,,,,,,2023-04-07,1,,,,,フォレスト,0
868,3180005020163,新規,0,2023-04-07,2023-04-07,一般社団法人長久手緑化事業協力会,,その他の設立登記法人,愛知県,長久手市,香桶５１５番地,,23,238,4801176,,,,,,,2023-04-07,1,,,,,ナガクテリョッカジギョウキョウリョクカイ,0
871,3180301037258,新規,0,2023-04-07,2023-04-07,三栄トラスト株式会社,,株式会社,愛知県,安城市,高棚町新池３９番地,,23,212,4460053,,,,,,,2023-04-07,1,,,,,サンエイトラスト,0
872,3180303005675,新規,0,2023-04-07,2023-04-07,ＤＯＲＭ合同会社,,合同会社,愛知県,豊田市,梅坪町３丁目１２番地１２,,23,211,4710064,,,,,,,2023-04-07,1,,,,,ドーム,0
876,3200001041136,新規,0,2023-04-07,2023-04-07,Ｓｍａｌｌ葬祭株式会社,,株式会社,岐阜県,美濃加茂市,前平町２丁目９０番地１,,21,211,5050037,,,,,,,2023-04-07,1,,,,,スモールソウサイ,0
877,3200001041152,新規,0,2023-04-07,2023-04-07,株式会社コネクト,,株式会社,岐阜県,多治見市,大沢町１丁目１１番地の１１,,21,204,5070075,,,,,,,2023-04-07,1,,,,,コネクト,0
878,3200001041160,新規,0,2023-04-07,2023-04-07,株式会社大平板金,,株式会社,岐阜県,関市,倉知３６２番地２,,21,205,5013936,,,,,,,2023-04-07,1,,,,,オオヒラバンキン,0
880,3200003005915,新規,0,2023-04-07,2023-04-07,合同会社山加工業,,合同会社,岐阜県,関市,小瀬南１丁目５番３号,,21,205,5013266,,,,,,,2023-04-07,1,,,,,ヤマカコウギョウ,0
883,3240001061320,新規,0,2023-04-07,2023-04-07,株式会社川西組,,株式会社,広島県,竹原市,東野町１０２３番地５,,34,203,7250004,,,,,,,2023-04-07,1,,,,,カワニシグミ,0
888,3270003001511,新規,0,2023-04-07,2023-04-07,合同会社はさま屋,,合同会社,鳥取県,鳥取市,三津２９番地,,31,201,6890203,,,,,,,2023-04-07,1,,,,,ハサマヤ,0
892,3280003001717,新規,0,2023-04-07,2023-04-07,合同会社孫,,合同会社,島根県,出雲市,塩冶有原町１丁目５６番地１,,32,203,6930023,,,,,,,2023-04-07,1,,,,,ソン,0
897,3290001101030,新規,0,2023-04-07,2023-04-07,株式会社ｏｚ‐ｏｎｅ,,株式会社,福岡県,福岡市中央区,清川２丁目３番２５号,,40,133,8100005,,,,,,,2023-04-07,1,,,,,オズワン,0
898,3290001101121,新規,0,2023-04-07,2023-04-07,ＹＡＨＭＡＮ株式会社,,株式会社,福岡県,福岡市博多区,神屋町１０番１６－１００２号,,40,132,8120022,,,,,,,2023-04-07,1,,,,,ヤーマン,0
901,3290005019005,新規,0,2023-04-07,2023-04-07,社会福祉法人嘉永会,,その他の設立登記法人,福岡県,福岡市西区,大字飯盛字上ノ河原２３番１,,40,135,8190037,,,,,,,2023-04-07,1,,,,,,0
904,3290801029438,新規,0,2023-04-07,2023-04-07,株式会社ＡｃｔｉｖｅＩＴ,,株式会社,福岡県,北九州市戸畑区,一枝２丁目２番１－１１０号,,40,105,8040021,,,,,,,2023-04-07,1,,,,,アクティベイト,0
905,3290801029446,新規,0,2023-04-07,2023-04-07,株式会社ＮＥＸＴ,,株式会社,福岡県,遠賀郡水巻町,二東１丁目６番１５号Ｃ‐１０１号,,40,382,8070054,,,,,,,2023-04-07,1,,,,,ネクスト,0
909,3330003009795,新規,0,2023-04-07,2023-04-07,合同会社水道町２番７,,合同会社,熊本県,熊本市中央区,水道町２番７－３０１号,,43,101,8600844,,,,,,,2023-04-07,1,,,,,スイドウチョウニバンナナ,0
910,3330005010644,新規,0,2023-04-07,2023-04-07,一般社団法人熊本地域大学ネットワーク機構,,その他の設立登記法人,熊本県,熊本市中央区,黒髪２丁目３９番１号,,43,101,8600862,,,,,,,2023-04-07,1,,,,,クマモトチイキダイガクネットワークキコウ,0
914,3340001025463,新規,0,2023-04-07,2023-04-07,株式会社アトレイアー企画,,株式会社,鹿児島県,薩摩川内市,水引町３４３１番地,,46,215,8991921,,,,,,,2023-04-07,1,,,,,アトレイアーキカク,0
918,3350001018268,新規,0,2023-04-07,2023-04-07,株式会社長野林業,,株式会社,宮崎県,日南市,吾田東４丁目７番２３－１号,,45,204,8870041,,,,,,,2023-04-07,1,,,,,ナガノリンギョウ,0
919,3350001018276,新規,0,2023-04-07,2023-04-07,株式会社リーア,,株式会社,宮崎県,宮崎市,大字郡司分甲２４５番地１,,45,201,8800924,,,,,,,2023-04-07,1,,,,,リーア,0
922,3360003012862,新規,0,2023-04-07,2023-04-07,合同会社秀設備,,合同会社,沖縄県,宮古島市,伊良部字前里添７２０番地１１,,47,214,9060501,,,,,,,2023-04-07,1,,,,,,0
923,3360003012870,新規,0,2023-04-07,2023-04-07,合同会社ネクリア,,合同会社,沖縄県,八重山郡竹富町,字上原５７１番地の１,,47,381,9071541,,,,,,,2023-04-07,1,,,,,ネクリア,0
924,3360005006821,新規,0,2023-04-07,2023-04-07,一般社団法人竹富町観光協会,,その他の設立登記法人,沖縄県,石垣市,美崎町１１番地１,,47,207,9070012,,,,,,,2023-04-07,1,,,,,タケトミチョウカンコウキョウカイ,0
926,3370001049798,新規,0,2023-04-07,2023-04-07,株式会社ＢＡＮＤＥ・ＳＴＲＨＭ,,株式会社,宮城県,仙台市宮城野区,福田町南２丁目４番３０号,,04,102,9830025,,,,,,,2023-04-07,1,,,,,バンデストラム,0
929,3370003006062,新規,0,2023-04-07,2023-04-07,合同会社ｓｋａｔ,,合同会社,宮城県,仙台市若林区,南材木町８,,04,103,9840805,,,,,,,2023-04-07,1,,,,,スカット,0
930,3370003006070,新規,0,2023-04-07,2023-04-07,合同会社Ｓｕｒｖｉｖｅ,,合同会社,宮城県,柴田郡川崎町,支倉台１丁目１４番８,,04,324,9891506,,,,,,,2023-04-07,1,,,,,サヴァイブ,0
932,3380001033594,新規,0,2023-04-07,2023-04-07,株式会社ＷＡＫＯＨ,,株式会社,福島県,郡山市,安積荒井１丁目３０番地ワールドビル２０１号,,07,203,9630117,,,,,,,2023-04-07,1,,,,,ワコウ,0
938,3400001016191,新規,0,2023-04-07,2023-04-07,畑山農産株式会社,,株式会社,岩手県,二戸市,浄法寺町上谷地４１番地,,03,213,0286816,,,,,,,2023-04-07,1,,,,,ハタヤマノウサン,0
946,3430001088781,新規,0,2023-04-07,2023-04-07,株式会社リバティ,,株式会社,北海道,札幌市東区,伏古八条２丁目６番２２号,,01,103,0070868,,,,,,,2023-04-07,1,,,,,リバティ,0
947,3430001088807,新規,0,2023-04-07,2023-04-07,ＨＭＹケア株式会社,,株式会社,北海道,札幌市南区,川沿五条４丁目１番３５号,,01,106,0050805,,,,,,,2023-04-07,1,,,,,エイチエムワイケア,0
951,3430003014892,新規,0,2023-04-07,2023-04-07,Ｃｒａｌｉｆｔ合同会社,,合同会社,北海道,札幌市中央区,南二条西１０丁目１０００－２４ＴＡＫＥＴＯビル,,01,101,0600062,,,,,,,2023-04-07,1,,,,,クラリフト,0
952,3430005014684,新規,0,2023-04-07,2023-04-07,一般社団法人北海道ソフトボール協会,,その他の設立登記法人,北海道,札幌市豊平区,豊平五条１１丁目１番１号北海道立総合体育センター内,,01,105,0620905,,,,,,,2023-04-07,1,,,,,ホッカイドウソフトボールキョウカイ,0
953,3440003001519,新規,0,2023-04-07,2023-04-07,合同会社Ｋ‐ＪＩＮ,,合同会社,北海道,奥尻郡奥尻町,字青苗４１８番地１,,01,367,0431521,,,,,,,2023-04-07,1,,,,,ケージン,0
958,3470001019543,新規,0,2023-04-07,2023-04-07,株式会社木村ホールディングス,,株式会社,香川県,さぬき市,津田町鶴羽１５１１番地５,,37,206,7692402,,,,,,,2023-04-07,1,,,,,キムラホールディングス,0
960,3490001010434,新規,0,2023-04-07,2023-04-07,株式会社Ｏｊｉｍａ　ｐｒｏｄｕｃｔｉｏｎ,,株式会社,高知県,安芸市,下山５５５－１８,,39,203,7840046,,,,,,,2023-04-07,1,,,,,オジマプロダクション,0
963,3500001024861,新規,0,2023-04-07,2023-04-07,株式会社ＮＥＸＴ　ＳＴＡＧＥ,,株式会社,愛媛県,松山市,古川南３丁目１５番２８－３号,,38,201,7900943,,,,,,,2023-04-07,1,,,,,ネクストステージ,0
967,3700150115210,新規,0,2023-04-07,2023-04-07,Ｓｈｅｎｚｈｅｎｓｈｉｆｅｉｃａｏｋｅｊｉｙｏｕｘｉａｎｇｏｎｇｓｉ,,外国会社等,,,,,,,,Ｈｕａｑｉａｎｇ　Ｎｏｒｔｈ　Ｅｌｅｃｔｒｏｎｉｃ　Ｔｅｃｈｎｏｌｏｇｙ　Ｂｕｉｌｄｉｎｇ　Ｂｌｏｃｋ　Ｃ　１０２０　Ｓｈｅｎｚｈｅｎ　Ｆｕｔｉａｎ　ｄｉｓｔｒｉｃｔ　Ｇｕａｎｇｄｏｎｇ　Ｐｒｏｖｉｎｃｅ　５１８０００　ＣＮ,,,,,,2023-04-07,1,,,,,シェンジェンシーフェイツァオコージーヨウシエンゴンスー,0
968,3700150115219,新規,0,2023-04-07,2023-04-07,Ｘｉａｎｇｘｉ　Ｍ＆Ｔ　Ｔｅｃｈｎｏｌｏｇｙ　Ｃｏ．，Ｌｉｍｉｔｅｄ,,外国会社等,,,,,,,,Ｂｕｉｌｄｉｎｇ　６ｔｈ，Ｉｎｄｕｓｔｒｉａｌ　Ｐａｒｋ，Ｗｕｘｉ　Ｔｏｗｎ，Ｌｕｘｉ　Ｃｏｕｎｔｙ，Ｈｕｎａｎ　Ｐｒｏｖｉｎｃｅ，Ｃｈｉｎａ,,,,,,2023-04-07,1,,,,,シャンシーメイアーターズードンフワーコージーヨウシエンゴンスー,0
974,4010001234146,新規,0,2023-04-07,2023-04-07,株式会社ＴＮブレインズ,,株式会社,東京都,中央区,築地４丁目３番８号,,13,102,1040045,,,,,,,2023-04-07,1,,,,,ティーエヌブレインズ,0
975,4010001234187,新規,0,2023-04-07,2023-04-07,メディアプレイ株式会社,,株式会社,東京都,千代田区,神田佐久間町３丁目２１番５号ヒガシカンダビル３０７号,,13,101,1010025,,,,,,,2023-04-07,1,,,,,メディアプレイ,0
976,4010001234195,新規,0,2023-04-07,2023-04-07,クリサム株式会社,,株式会社,東京都,文京区,大塚６丁目２２番２号,,13,105,1120012,,,,,,,2023-04-07,1,,,,,クリサム,0
977,4010001234237,新規,0,2023-04-07,2023-04-07,株式会社ＮＯＷＨＥＲＥ,,株式会社,東京都,中央区,日本橋１丁目１３－１日鉄日本橋ビル３階ＷＡＷ日本橋,,13,102,1030027,,,,,,,2023-04-07,1,,,,,ノーウェア,0
978,4010001234245,新規,0,2023-04-07,2023-04-07,株式会社ＴｅｃｈＡｒｔｉｓｔ,,株式会社,東京都,中央区,銀座１丁目１２－４Ｎ＆ＥＢＬＤ．７階,,13,102,1040061,,,,,,,2023-04-07,1,,,,,テックアルティスト,0
979,4010001234253,新規,0,2023-04-07,2023-04-07,株式会社マグマ,,株式会社,東京都,文京区,千石４丁目２－１６レジディア文京千石３０２号,,13,105,1120011,,,,,,,2023-04-07,1,,,,,,0
980,4010001234328,新規,0,2023-04-07,2023-04-07,株式会社ｏｔｏｎｏｈａ,,株式会社,東京都,千代田区,丸の内２丁目５番１号,,13,101,1000005,,,,,,,2023-04-07,1,,,,,オトノハ,0
984,4010003040229,新規,0,2023-04-07,2023-04-07,合同会社ＳＰ,,合同会社,東京都,中央区,勝どき１丁目１３番６－４３０２号,,13,102,1040054,,,,,,,2023-04-07,1,,,,,エスピー,0
985,4010003040237,新規,0,2023-04-07,2023-04-07,Ｇｅａｒ　Ｉｎｃ　Ｊａｐａｎ合同会社,,合同会社,東京都,中央区,日本橋２丁目２番３号ＲＩＳＨＥビルＵＣＦ４階,,13,102,1030027,,,,,,,2023-04-07,1,,,,,ギアインクジャパン,0
986,4010003040253,新規,0,2023-04-07,2023-04-07,合同会社ＷａｋｅＵｐ,,合同会社,東京都,文京区,水道１丁目４－２ルミード飯田橋３０１,,13,105,1120005,,,,,,,2023-04-07,1,,,,,ウェイクアップ,0
988,4010005036464,新規,0,2023-04-07,2023-04-07,社会保険労務士法人創経,,その他の設立登記法人,東京都,文京区,本郷２丁目１０番９号,,13,105,1130033,,,,,,,2023-04-07,1,,,,,ソウケイ,0
998,4010401173472,新規,0,2023-04-07,2023-04-07,パワーズ株式会社,,株式会社,東京都,港区,西麻布３丁目７番３号,,13,103,1060031,,,,,,,2023-04-07,1,,,,,パワーズ,0
999,4010401173506,新規,0,2023-04-07,2023-04-07,株式会社カジコム,,株式会社,東京都,港区,東麻布２丁目２２番１１号,,13,103,1060044,,,,,,,2023-04-07,1,,,,,カジコム,0
1000,4010401173563,新規,0,2023-04-07,2023-04-07,Ｇｒｅｅｎ　Ｇｉｒａｆｆｅ　Ｊａｐａｎ株式会社,,株式会社,東京都,港区,元麻布３丁目１番６号,,13,103,1060046,,,,,,,2023-04-07,1,,,,,グリーンジラフジャパン,0
1003,4010403029862,新規,0,2023-04-07,2023-04-07,ＲＢソーラーミント合同会社,,合同会社,東京都,港区,虎ノ門３丁目２２番１０－２０１号,,13,103,1050001,,,,,,,2023-04-07,1,,,,,アールビーソーラーミント,0
1005,4010405022015,新規,0,2023-04-07,2023-04-07,ＲＢソーラーセージホールディングス一般社団法人,,その他の設立登記法人,東京都,港区,虎ノ門３丁目２２番１０－２０１号,,13,103,1050001,,,,,,,2023-04-07,1,,,,,アールビーソーラーセージホールディングス,0
1007,4010503006943,新規,0,2023-04-07,2023-04-07,合同会社天ぷら福たろう,,合同会社,東京都,台東区,谷中１丁目２番１７号,,13,106,1100001,,,,,,,2023-04-07,1,,,,,テンプラフクタロウ,0
1012,4010701044092,新規,0,2023-04-07,2023-04-07,株式会社しなまる,,株式会社,東京都,品川区,大井３丁目１３番１３号,,13,109,1400014,,,,,,,2023-04-07,1,,,,,シナマル,0
1016,4010901052812,新規,0,2023-04-07,2023-04-07,株式会社シール,,株式会社,東京都,世田谷区,中町３丁目３番７－２１６号,,13,112,1580091,,,,,,,2023-04-07,1,,,,,シール,0
1017,4010901052829,新規,0,2023-04-07,2023-04-07,株式会社渋電,,株式会社,東京都,世田谷区,桜丘４丁目１８番２７－１０１号,,13,112,1560054,,,,,,,2023-04-07,1,,,,,シブデン,0
1018,4010901052837,新規,0,2023-04-07,2023-04-07,株式会社品質経営技術研究所,,株式会社,東京都,世田谷区,上祖師谷１丁目２８番５号,,13,112,1570065,,,,,,,2023-04-07,1,,,,,ヒンシツケイエイギジュツケンキュウジョ,0
1023,4011001153542,新規,0,2023-04-07,2023-04-07,ＡＬＫＵ株式会社,,株式会社,東京都,渋谷区,宇田川町１番１２－３８０１号,,13,113,1500042,,,,,,,2023-04-07,1,,,,,アルク,0
1024,4011001153550,新規,0,2023-04-07,2023-04-07,株式会社ＲＯＧＥＲ,,株式会社,東京都,渋谷区,神宮前６丁目２３番４号桑野ビル２階,,13,113,1500001,,,,,,,2023-04-07,1,,,,,ロジャー,0
1025,4011001153567,新規,0,2023-04-07,2023-04-07,アスコット・キャピタル株式会社,,株式会社,東京都,渋谷区,神宮前３丁目１番３０号,,13,113,1500001,,,,,,,2023-04-07,1,,,,,アスコットキャピタル,0
1026,4011001153575,新規,0,2023-04-07,2023-04-07,株式会社ｂｌａｎｃａｒｃ,,株式会社,東京都,目黒区,中目黒５丁目２７番１８－６０８号,,13,110,1530061,,,,,,,2023-04-07,1,,,,,ブランカーク,0
1027,4011001153600,新規,0,2023-04-07,2023-04-07,株式会社Ａｂｙｓｓ　Ｂｒａｖｅ　Ｃｏｍｐａｎｙ,,株式会社,東京都,渋谷区,渋谷２丁目１９－１５宮益坂ビルディング６０９,,13,113,1500002,,,,,,,2023-04-07,1,,,,,アビスブレイブカンパニー,0
1028,4011001153617,新規,0,2023-04-07,2023-04-07,株式会社ＤＹＮＡＭＩＳＥＲ,,株式会社,東京都,渋谷区,神宮前６丁目２３番４号桑野ビル２階,,13,113,1500001,,,,,,,2023-04-07,1,,,,,ディナミゼ,0
1029,4011001153641,新規,0,2023-04-07,2023-04-07,株式会社Ｉ’ｍｐｏｒｔ,,株式会社,東京都,渋谷区,恵比寿西２丁目３－１１メゾンドエビス１００８,,13,113,1500021,,,,,,,2023-04-07,1,,,,,アイムポート,0
1043,4011101102424,新規,0,2023-04-07,2023-04-07,Ｏａｓｙｓ　Ｗａｌｌｅｔ株式会社,,株式会社,東京都,新宿区,西新宿４丁目３４番７号,,13,104,1600023,,,,,,,2023-04-07,1,,,,,オアシスウォレット,0
1050,4011503005547,新規,0,2023-04-07,2023-04-07,合同会社サンリソース,,合同会社,東京都,荒川区,南千住７丁目１０番３号,,13,118,1160003,,,,,,,2023-04-07,1,,,,,サンリソース,0
1052,4011701026106,新規,0,2023-04-07,2023-04-07,ＧＳＶ株式会社,,株式会社,東京都,江戸川区,北葛西２丁目９番１３号,,13,123,1340081,,,,,,,2023-04-07,1,,,,,ジイエスブイ,0
1053,4011701026122,新規,0,2023-04-07,2023-04-07,尊藍山株式会社,,株式会社,東京都,江戸川区,西瑞江３丁目１６番地７６,,13,123,1320015,,,,,,,2023-04-07,1,,,,,ソンランザン,0
1054,4011701026130,新規,0,2023-04-07,2023-04-07,キヨミズ不動産管理株式会社,,株式会社,東京都,江戸川区,東葛西１丁目１９番１８号,,13,123,1340084,,,,,,,2023-04-07,1,,,,,キヨミズフドウサンカンリ,0
1057,4011801042184,新規,0,2023-04-07,2023-04-07,株式会社ＳＫＴパートナーズ,,株式会社,東京都,葛飾区,奥戸５丁目１９番１３号,,13,122,1240022,,,,,,,2023-04-07,1,,,,,エスケーティーパートナーズ,0
1058,4011801042192,新規,0,2023-04-07,2023-04-07,明玉株式会社,,株式会社,東京都,葛飾区,東水元５丁目３０番８号,,13,122,1250033,,,,,,,2023-04-07,1,,,,,メイギョク,0
1059,4012301013386,新規,0,2023-04-07,2023-04-07,株式会社レガリス,,株式会社,東京都,町田市,忠生３丁目２３番地５８,,13,209,1940035,,,,,,,2023-04-07,1,,,,,レガリス,0
1061,4012401040355,新規,0,2023-04-07,2023-04-07,株式会社ＭＡＩＳＦＯＲＴ,,株式会社,東京都,武蔵野市,吉祥寺本町１丁目２０番１号吉祥寺永谷シティプラザ１００２,,13,203,1800004,,,,,,,2023-04-07,1,,,,,メイスフォート,0
1066,4012803003050,新規,0,2023-04-07,2023-04-07,ＭＡＸ　ＴＯＹ　ＪＡＰＡＮ合同会社,,合同会社,東京都,国立市,富士見台１丁目２番地の１レクセルプラッツァ国立１１３,,13,215,1860003,,,,,,,2023-04-07,1,,,,,マックストイジャパン,0
1069,4013305003456,新規,0,2023-04-07,2023-04-07,一般財団法人スプリックス教育財団,,その他の設立登記法人,東京都,豊島区,西池袋３丁目１７番１６号,,13,116,1710021,,,,,,,2023-04-07,1,,,,,スプリックスキョウイクザイダン,0
1070,4020001150994,新規,0,2023-04-07,2023-04-07,株式会社ネクシア,,株式会社,神奈川県,横浜市栄区,小菅ケ谷４丁目２９番地,,14,115,2470007,,,,,,,2023-04-07,1,,,,,ネクシア,0
1071,4020001151002,新規,0,2023-04-07,2023-04-07,株式会社Ｒｕｃｋ,,株式会社,神奈川県,横浜市都筑区,中川中央１丁目６番１２号ウイングコート４０３号,,14,118,2240003,,,,,,,2023-04-07,1,,,,,ルーク,0
1072,4020001151051,新規,0,2023-04-07,2023-04-07,関東アーク株式会社,,株式会社,神奈川県,横浜市瀬谷区,阿久和東３丁目２０番地１５,,14,114,2460023,,,,,,,2023-04-07,1,,,,,カントウアーク,0
1078,4020003023694,新規,0,2023-04-07,2023-04-07,合同会社Ｏ‐ｃｏｕｌｅｕｒ,,合同会社,神奈川県,横浜市泉区,中田北２丁目１４番９号ファミールＢ２０１号,,14,116,2450012,,,,,,,2023-04-07,1,,,,,オークルール,0
1088,4030001153187,新規,0,2023-04-07,2023-04-07,株式会社奥田設備,,株式会社,埼玉県,蓮田市,末広１丁目７番５号フィール末広１０１号,,11,238,3490124,,,,,,,2023-04-07,1,,,,,オクダセツビ,0
1089,4030001153204,新規,0,2023-04-07,2023-04-07,株式会社ヒロ・エンジニアリング,,株式会社,埼玉県,川口市,西川口５丁目７番６号,,11,203,3320021,,,,,,,2023-04-07,1,,,,,ヒロエンジニアリング,0
1090,4030001153220,新規,0,2023-04-07,2023-04-07,ダイキ株式会社,,株式会社,埼玉県,春日部市,緑町１丁目５番１１－３号,,11,214,3440063,,,,,,,2023-04-07,1,,,,,ダイキ,0
1091,4030001153253,新規,0,2023-04-07,2023-04-07,株式会社柚木電気,,株式会社,埼玉県,越谷市,大字野島１２番地２,,11,222,3430801,,,,,,,2023-04-07,1,,,,,ユキデンキ,0
1093,4030003021516,新規,0,2023-04-07,2023-04-07,合同会社ＫＡＺＩ　ＲＯＢＩＮ,,合同会社,埼玉県,幸手市,緑台１丁目５７番６号１階Ｂ号室,,11,240,3400151,,,,,,,2023-04-07,1,,,,,カジロビン,0
1099,4040001127735,新規,0,2023-04-07,2023-04-07,株式会社天田,,株式会社,千葉県,船橋市,夏見台１丁目１５番２２号,,12,204,2730866,,,,,,,2023-04-07,1,,,,,アマタ,0
1100,4040001127768,新規,0,2023-04-07,2023-04-07,株式会社Ｊｓｔａｒ,,株式会社,千葉県,我孫子市,緑１丁目４番８号,,12,222,2701153,,,,,,,2023-04-07,1,,,,,ジェイスター,0
1101,4040001127818,新規,0,2023-04-07,2023-04-07,株式会社ＳＯＥＬ,,株式会社,千葉県,柏市,若柴１７８番地４柏の葉キャンパス１４８街区２,,12,217,2770871,,,,,,,2023-04-07,1,,,,,ソエル,0
1102,4040001127834,新規,0,2023-04-07,2023-04-07,ＷＪ株式会社,,株式会社,千葉県,千葉市中央区,新宿２丁目１４番１６－５０２号,,12,101,2600021,,,,,,,2023-04-07,1,,,,,ダブルジェ,0
1103,4040001127909,新規,0,2023-04-07,2023-04-07,株式会社匠ほけん事務所,,株式会社,千葉県,柏市,南柏１丁目２番６号南柏ビル６０６,,12,217,2770855,,,,,,,2023-04-07,1,,,,,タクミホケンジムショ,0
1105,4040003022323,新規,0,2023-04-07,2023-04-07,ベストライフ合同会社,,合同会社,千葉県,佐倉市,上志津原字幸野９３番地３,,12,212,2850844,,,,,,,2023-04-07,1,,,,,ベストライフ,0
1106,4050001052619,新規,0,2023-04-07,2023-04-07,株式会社中山設備,,株式会社,茨城県,取手市,稲６０２番地１,,08,217,3020026,,,,,,,2023-04-07,1,,,,,ナカヤマセツビ,0
1107,4050001052627,新規,0,2023-04-07,2023-04-07,株式会社アイエス,,株式会社,茨城県,水戸市,内原１丁目２７番地メゾングランシャリオ１０３号,,08,201,3190317,,,,,,,2023-04-07,1,,,,,アイエス,0
1108,4050001052635,新規,0,2023-04-07,2023-04-07,株式会社日照産業,,株式会社,茨城県,潮来市,潮来６３２４番地２,,08,223,3112424,,,,,,,2023-04-07,1,,,,,ニッショウサンギョウ,0
1110,4050003007389,新規,0,2023-04-07,2023-04-07,合同会社カスカーダ,,合同会社,茨城県,牛久市,上柏田３丁目５２番地１２,,08,219,3001232,,,,,,,2023-04-07,1,,,,,カスカーダ,0
1111,4060001035853,新規,0,2023-04-07,2023-04-07,イノベーションマネージメント株式会社,,株式会社,栃木県,宇都宮市,雀の宮７丁目２７番３号,,09,201,3210132,,,,,,,2023-04-07,1,,,,,イノベーションマネージメント,0
1112,4060005010076,新規,0,2023-04-07,2023-04-07,一般社団法人ここりっち,,その他の設立登記法人,栃木県,大田原市,中田原６３３番地６,,09,210,3240062,,,,,,,2023-04-07,1,,,,,ココリッチ,0
1115,4080001025555,新規,0,2023-04-07,2023-04-07,株式会社なごみ,,株式会社,静岡県,藤枝市,音羽町１丁目１５番２４－１号,,22,214,4260087,,,,,,,2023-04-07,1,,,,,ナゴミ,0
1117,4090001018054,新規,0,2023-04-07,2023-04-07,株式会社エコノミックフリーダム,,株式会社,山梨県,韮崎市,若宮２丁目９番４１号,,19,207,4070015,,,,,,,2023-04-07,1,,,,,エコノミックフリーダム,0
1119,4100001036285,新規,0,2023-04-07,2023-04-07,株式会社山創,,株式会社,長野県,松本市,大字島立８２９番地１,,20,202,3900852,,,,,,,2023-04-07,1,,,,,ヤマソウ,0
1124,4110001037415,新規,0,2023-04-07,2023-04-07,株式会社エスネット,,株式会社,新潟県,新潟市南区,下塩俵７８８番地６,,15,106,9501241,,,,,,,2023-04-07,1,,,,,エスネット,0
1125,4110001037423,新規,0,2023-04-07,2023-04-07,株式会社Ｒ．Ｐ．Ｓ,,株式会社,新潟県,新潟市西区,内野戸中才１５１０－２４,,15,107,9502142,,,,,,,2023-04-07,1,,,,,アールピーエス,0
1136,4120001253770,新規,0,2023-04-07,2023-04-07,株式会社ｐｈｏｎｏ,,株式会社,大阪府,大阪市北区,梅田１丁目２番２号大阪駅前第２ビル１２－１２,,27,127,5300001,,,,,,,2023-04-07,1,,,,,フォノ,0
1137,4120001253787,新規,0,2023-04-07,2023-04-07,株式会社アドバンスＳＣ,,株式会社,大阪府,大阪市中央区,谷町１丁目３番地２７号,,27,128,5400012,,,,,,,2023-04-07,1,,,,,アドバンスエスシィー,0
1138,4120001253795,新規,0,2023-04-07,2023-04-07,株式会社ムーム,,株式会社,大阪府,大阪市生野区,新今里７丁目７番２号３０６室,,27,116,5440001,,,,,,,2023-04-07,1,,,,,ムーム,0
1139,4120001253812,新規,0,2023-04-07,2023-04-07,株式会社ＩＤＥＡＬ,,株式会社,大阪府,大阪市都島区,高倉町１丁目１１番１９号樋口ハイツ３０１号,,27,102,5340011,,,,,,,2023-04-07,1,,,,,アイデアル,0
1141,4120003023775,新規,0,2023-04-07,2023-04-07,合同会社萬野建装,,合同会社,大阪府,寝屋川市,池田新町１２番１号（３０５号）,,27,215,5720038,,,,,,,2023-04-07,1,,,,,マンノケンソウ,0
1142,4120003023783,新規,0,2023-04-07,2023-04-07,合同会社松尾建装,,合同会社,大阪府,門真市,桑才町２０番４０号,,27,223,5710035,,,,,,,2023-04-07,1,,,,,マツオケンソウ,0
1146,4120101067245,新規,0,2023-04-07,2023-04-07,株式会社松田商店,,株式会社,大阪府,堺市堺区,三条通６番１６号,,27,141,5900046,,,,,,,2023-04-07,1,,,,,マツダショウテン,0
1147,4120101067253,新規,0,2023-04-07,2023-04-07,トラベルリテール関西株式会社,,株式会社,大阪府,泉佐野市,りんくう往来南３番地７,,27,213,5980047,,,,,,,2023-04-07,1,,,,,トラベルリテールカンサイ,0
1148,4120101067261,新規,0,2023-04-07,2023-04-07,株式会社Ｋ‐ＰＬＡＮＮＩＮＧ,,株式会社,大阪府,高石市,取石３丁目５－４,,27,225,5920013,,,,,,,2023-04-07,1,,,,,ケイプランニング,0
1149,4120101067286,新規,0,2023-04-07,2023-04-07,ＳＡＩＫＯ株式会社,,株式会社,大阪府,泉南市,幡代１丁目３２番１２号,,27,228,5900524,,,,,,,2023-04-07,1,,,,,サイコウ,0
1157,4130003008643,新規,0,2023-04-07,2023-04-07,Ｍｅｔａｂｒｉｃ合同会社,,合同会社,京都府,京都市下京区,七条通油小路東入大黒町２２７番地第２キョートビル４０２,,26,106,6008223,,,,,,,2023-04-07,1,,,,,メタブリック,0
1163,4140001129688,新規,0,2023-04-07,2023-04-07,株式会社愛商事,,株式会社,兵庫県,姫路市,青山３丁目７番２２号,,28,201,6712222,,,,,,,2023-04-07,1,,,,,アイショウジ,0
1164,4140001129705,新規,0,2023-04-07,2023-04-07,株式会社錦陽産業,,株式会社,兵庫県,三田市,香下６７８番地,,28,219,6691507,,,,,,,2023-04-07,1,,,,,キンヨウサンギョウ,0
1171,4170001017535,新規,0,2023-04-07,2023-04-07,三共リース株式会社,,株式会社,和歌山県,和歌山市,吹屋町２丁目２０番地４,,30,201,6408324,,,,,,,2023-04-07,1,,,,,サンキョウリース,0
1176,4180001155656,新規,0,2023-04-07,2023-04-07,株式会社メイショウ,,株式会社,愛知県,名古屋市緑区,桃山１丁目６６番地,,23,114,4580002,,,,,,,2023-04-07,1,,,,,メイショウ,0
1177,4180001155664,新規,0,2023-04-07,2023-04-07,株式会社ａｗｅｘ,,株式会社,愛知県,日進市,赤池南１丁目４０８番地アミティエＡ棟１０２,,23,230,4700127,,,,,,,2023-04-07,1,,,,,オークス,0
1178,4180001155739,新規,0,2023-04-07,2023-04-07,株式会社ＬＥＯ,,株式会社,愛知県,日進市,赤池町北山８６番地２３,,23,230,4700126,,,,,,,2023-04-07,1,,,,,レオ,0
1182,4180003025056,新規,0,2023-04-07,2023-04-07,合同会社すずき保険事務所,,合同会社,愛知県,名古屋市中村区,烏森町６丁目２２７番地の４,,23,105,4530855,,,,,,,2023-04-07,1,,,,,スズキホケンジムショ,0
1183,4180003025072,新規,0,2023-04-07,2023-04-07,アイエム設備合同会社,,合同会社,愛知県,一宮市,南小渕字中崩４４番地２,,23,203,4910014,,,,,,,2023-04-07,1,,,,,アイエムセツビ,0
1184,4180303005674,新規,0,2023-04-07,2023-04-07,合同会社２３時クリエイト,,合同会社,愛知県,蒲郡市,府相町２丁目１８０番地,,23,214,4430054,,,,,,,2023-04-07,1,,,,,ニジュウサンジクリエイト,0
1193,4200001041143,新規,0,2023-04-07,2023-04-07,株式会社ＰＥＡ,,株式会社,岐阜県,海津市,海津町稲山９５４番地,,21,221,5030631,,,,,,,2023-04-07,1,,,,,ペア,0
1197,4220001025342,新規,0,2023-04-07,2023-04-07,株式会社豊楽商会,,株式会社,石川県,金沢市,泉が丘２丁目５番１３号グランドサンピア１１７,,17,201,9218035,,,,,,,2023-04-07,1,,,,,ホウラクショウカイ,0
1200,4230001019772,新規,0,2023-04-07,2023-04-07,いろはカンパニー株式会社,,株式会社,富山県,高岡市,中曽根２３７３番地,,16,202,9340092,,,,,,,2023-04-07,1,,,,,イロハカンパニー,0
1202,4240001061303,新規,0,2023-04-07,2023-04-07,株式会社ヒューマンモデル,,株式会社,広島県,東広島市,鏡山２丁目３１３,,34,212,7390046,,,,,,,2023-04-07,1,,,,,ヒューマンモデル,0
1203,4240001061311,新規,0,2023-04-07,2023-04-07,株式会社エトワール,,株式会社,広島県,東広島市,八本松南４丁目１番２８号,,34,212,7390144,,,,,,,2023-04-07,1,,,,,エトワール,0
1205,4250003003244,新規,0,2023-04-07,2023-04-07,合同会社花ドット,,合同会社,山口県,山陽小野田市,大字厚狭１４番地８,,35,216,7570001,,,,,,,2023-04-07,1,,,,,ハナドット,0
1208,4260003004266,新規,0,2023-04-07,2023-04-07,山陽あさひ合同会社,,合同会社,岡山県,備前市,西片上５１番地２５,,33,211,7050021,,,,,,,2023-04-07,1,,,,,サンヨウアサヒ,0
1210,4280003001716,新規,0,2023-04-07,2023-04-07,加納山佐屋合同会社,,合同会社,島根県,安来市,広瀬町布部３１９番地,,32,206,6920623,,,,,,,2023-04-07,1,,,,,カノウヤマサヤ,0
1214,4290001019156,新規,0,2023-04-07,2023-04-07,株式会社コープファイナンス福岡,,株式会社,福岡県,福岡市中央区,天神４丁目１０番１２号,,40,133,8100001,,,,,,,2023-04-07,1,,,,,コープファイナンスフクオカ,0
1217,4290001101095,新規,0,2023-04-07,2023-04-07,株式会社アラタガーデン,,株式会社,福岡県,糟屋郡志免町,石橋台２５番１０号,,40,343,8112203,,,,,,,2023-04-07,1,,,,,アラタガーデン,0
1228,4330001030744,新規,0,2023-04-07,2023-04-07,シズキエンジニアリング株式会社,,株式会社,熊本県,菊池郡菊陽町,大字津久礼１７４番地１４,,43,404,8691101,,,,,,,2023-04-07,1,,,,,シズキエンジニアリング,0
1229,4330003009786,新規,0,2023-04-07,2023-04-07,イシグロ合同会社,,合同会社,熊本県,熊本市南区,護藤町１３８２－２,,43,104,8614117,,,,,,,2023-04-07,1,,,,,イシグロ,0
1234,4350001018275,新規,0,2023-04-07,2023-04-07,株式会社ナカジョー,,株式会社,宮崎県,宮崎市,大字芳士８２７,,45,201,8800123,,,,,,,2023-04-07,1,,,,,ナカジョー,0
1235,4360001031797,新規,0,2023-04-07,2023-04-07,株式会社ＳＴＲＲ　ｃｏｄｅ,,株式会社,沖縄県,宮古島市,下地字洲鎌２９６番地１２ミントブルー２０６号,,47,214,9060303,,,,,,,2023-04-07,1,,,,,ステラコード,0
1236,4360001031806,新規,0,2023-04-07,2023-04-07,株式会社パパイヤファーム,,株式会社,沖縄県,那覇市,宇栄原３丁目１９番２８号長嶺アパート１０２号,,47,201,9010153,,,,,,,2023-04-07,1,,,,,パパイヤファーム,0
1239,4360003012861,新規,0,2023-04-07,2023-04-07,合同会社大興電子設備,,合同会社,沖縄県,宜野湾市,野嵩１丁目９番１０号,,47,205,9012203,,,,,,,2023-04-07,1,,,,,タイコウデンシセツビ,0
1241,4360005006820,新規,0,2023-04-07,2023-04-07,一般社団法人北中城村シルバー人材センター,,その他の設立登記法人,沖縄県,中頭郡北中城村,字仲順４３２番地,,47,327,9012303,,,,,,,2023-04-07,1,,,,,キタナカグスクソンシルバージンザイセンター,0
1246,4380001033585,新規,0,2023-04-07,2023-04-07,和田建設株式会社,,株式会社,福島県,会津若松市,南花畑２番８３－５３号,,07,202,9650874,,,,,,,2023-04-07,1,,,,,ワダケンセツ,0
1247,4380001033593,新規,0,2023-04-07,2023-04-07,Ｇｒｅｅｎｅｒ　Ｐａｓｔｕｒｅ株式会社,,株式会社,福島県,耶麻郡磐梯町,大字磐梯字七ツ森７０００番地４３,,07,407,9693301,,,,,,,2023-04-07,1,,,,,グリーナーパスチャー,0
1250,4390001017208,新規,0,2023-04-07,2023-04-07,株式会社シブエ,,株式会社,山形県,山形市,吉原３丁目２番１５号,,06,201,9902451,,,,,,,2023-04-07,1,,,,,シブエ,0
1257,4430001088780,新規,0,2023-04-07,2023-04-07,株式会社ヒロタニ空設,,株式会社,北海道,札幌市西区,西野七条１０丁目１５番７号,,01,107,0630037,,,,,,,2023-04-07,1,,,,,ヒロタニクウセツ,0
1258,4430001088839,新規,0,2023-04-07,2023-04-07,株式会社奈良巧建,,株式会社,北海道,小樽市,入船５丁目２４番３号,,01,203,0470021,,,,,,,2023-04-07,1,,,,,ナラコウケン,0
1261,4430005014683,新規,0,2023-04-07,2023-04-07,一般社団法人道南読売会,,その他の設立登記法人,北海道,苫小牧市,光洋町２丁目３番６号,,01,213,0530811,,,,,,,2023-04-07,1,,,,,ドウナンヨミウリカイ,0
1262,4430005014691,新規,0,2023-04-07,2023-04-07,一般社団法人にむの森,,その他の設立登記法人,北海道,札幌市中央区,宮の森一条１３丁目４番２７号,,01,101,0640951,,,,,,,2023-04-07,1,,,,,ニムノモリ,0
1264,4450005004369,新規,0,2023-04-07,2023-04-07,ＮＰＯ法人ＭＵＳＵＢＩ,,その他の設立登記法人,北海道,士別市,西二条７丁目７０９番地１号,,01,220,0950022,,,,,,,2023-04-07,1,,,,,ムスビ,0
1265,4462501000949,新規,0,2023-04-07,2023-04-07,株式会社道東エンブリオサービス,,株式会社,北海道,標津郡中標津町,南町１０番地３２,,01,692,0861146,,,,,,,2023-04-07,1,,,,,ドウトウエンブリオサービス,0
1269,4490003001760,新規,0,2023-04-07,2023-04-07,合同会社クリエイト,,合同会社,高知県,南国市,前浜６９６番地１,,39,204,7830094,,,,,,,2023-04-07,1,,,,,クリエイト,0
1272,4500001024860,新規,0,2023-04-07,2023-04-07,株式会社シュウコウ,,株式会社,愛媛県,新居浜市,宇高町５丁目１３番５０号,,38,205,7920866,,,,,,,2023-04-07,1,,,,,シュウコウ,0
1276,4700150114260,新規,0,2023-04-07,2023-02-09,池田農友会,,その他,静岡県,磐田市,池田４０７－１,,22,211,4380805,,,,,,,2023-02-09,1,,,,,イケダノウユウカイ,0
1277,4700150115218,新規,0,2023-04-07,2023-04-07,ｓｈｅｎｚｈｅｎｓｈｉ　ｘｉｔｏｎｇ　ｋｅｊｉ　ｙｏｕｘｉａｎｇｏｎｇｓｉ,,外国会社等,,,,,,,,ｓｈｅｎｚｈｅｎｓｈｉ　ｂａｏａｎｑｕ　ｓｈａｊｉｎｊｉｅｄａｏ　ｈｏｕｔｉｎｇｓｈｅｑｕ　ｄｉｅｒｇｏｎｇｙｅｑｕ　５６ｈａｏ　ｃｈａｎｇａｎｄａｓｈａ　１１０２,,,,,,2023-04-07,1,,,,,シェンジェンシーシートンコージーヨウシエンゴンスー,0
1284,5010001234186,新規,0,2023-04-07,2023-04-07,株式会社シアターＨ,,株式会社,東京都,中央区,銀座３丁目１５番８号銀座プラザビル,,13,102,1040061,,,,,,,2023-04-07,1,,,,,シアターエイチ,0
1285,5010001234194,新規,0,2023-04-07,2023-04-07,ＳＡＷＡホールディングス株式会社,,株式会社,東京都,千代田区,有楽町２丁目１０番１号,,13,101,1000006,,,,,,,2023-04-07,1,,,,,サワホールディングス,0
1286,5010001234203,新規,0,2023-04-07,2023-04-07,株式会社セオリス,,株式会社,東京都,中央区,日本橋小網町８－２－５１２,,13,102,1030016,,,,,,,2023-04-07,1,,,,,セオリス,0
1287,5010001234252,新規,0,2023-04-07,2023-04-07,株式会社ＭＥＤ．Ｃ‐ＢＬＯＯＭ,,株式会社,東京都,中央区,勝どき５丁目３番１‐６１５号,,13,102,1040054,,,,,,,2023-04-07,1,,,,,メッドシーブルーム,0
1288,5010003040252,新規,0,2023-04-07,2023-04-07,妙高高原合同会社,,合同会社,東京都,中央区,銀座１丁目６番１１号土志田ビルディング３Ｆ,,13,102,1040061,,,,,,,2023-04-07,1,,,,,ミョウココウゲン,0
1289,5010005036463,新規,0,2023-04-07,2023-04-07,一般社団法人不動産建設データ活用推進協会,,その他の設立登記法人,東京都,中央区,日本橋兜町８番１号２階,,13,102,1030026,,,,,,,2023-04-07,1,,,,,フドウサンケンセツデータカツヨウスイシンキョウカイ,0
1293,5010403029853,新規,0,2023-04-07,2023-04-07,合同会社ＨｉＪｏＪｏ　Ｆｕｎｄ３５,,合同会社,東京都,港区,西新橋１丁目７番２号,,13,103,1050003,,,,,,,2023-04-07,1,,,,,ヒジョージョーファンドサンジュウゴ,0
1294,5010403029861,新規,0,2023-04-07,2023-04-07,ＲＢソーラーパセリ合同会社,,合同会社,東京都,港区,虎ノ門３丁目２２番１０－２０１号,,13,103,1050001,,,,,,,2023-04-07,1,,,,,アールビーソーラーパセリ,0
1296,5010405022014,新規,0,2023-04-07,2023-04-07,ＲＢソーラーミントホールディングス一般社団法人,,その他の設立登記法人,東京都,港区,虎ノ門３丁目２２番１０－２０１号,,13,103,1050001,,,,,,,2023-04-07,1,,,,,アールビーソーラーミントホールディングス,0
1297,5010405022030,新規,0,2023-04-07,2023-04-07,一般社団法人東アジアＷＥＢ３．０実行推進委員会,,その他の設立登記法人,東京都,港区,愛宕１丁目１番１号,,13,103,1050002,,,,,,,2023-04-07,1,,,,,ヒガシアジアウェブスリージッコウスイシンイインカイ,0
1300,5010601062854,新規,0,2023-04-07,2023-04-07,株式会社ＪｏＫｕｎ,,株式会社,東京都,江東区,東陽４丁目６－１４トーカンマンション東陽町６０５,,13,108,1350016,,,,,,,2023-04-07,1,,,,,ジョウクン,0
1301,5010703006651,新規,0,2023-04-07,2023-04-07,合同会社ＨＳＦ,,合同会社,東京都,品川区,西品川１丁目２番１－１５１２号,,13,109,1410033,,,,,,,2023-04-07,1,,,,,エイチエスエフ,0
1305,5010903008076,新規,0,2023-04-07,2023-04-07,合同会社ＳＰＣＳ,,合同会社,東京都,世田谷区,代沢５丁目１９番４号浜口ハイツ１０２号,,13,112,1550032,,,,,,,2023-04-07,1,,,,,エスピーシーエス,0
1310,5011001153582,新規,0,2023-04-07,2023-04-07,コルテックエムズ株式会社,,株式会社,東京都,目黒区,碑文谷５丁目２６番１９号,,13,110,1520003,,,,,,,2023-04-07,1,,,,,コルテックエムズ,0
1311,5011001153599,新規,0,2023-04-07,2023-04-07,株式会社ｖａｌｌｅｙ　ｉｎｎｏｖａｔｉｏｎ,,株式会社,東京都,渋谷区,初台２丁目２０番１０号ルプルミエフォール２０２,,13,113,1510061,,,,,,,2023-04-07,1,,,,,ヴァレイイノベーション,0
1312,5011001153616,新規,0,2023-04-07,2023-04-07,株式会社ローズメディカル,,株式会社,東京都,渋谷区,渋谷２丁目１９－１５宮益坂ビルディング６０９,,13,113,1500002,,,,,,,2023-04-07,1,,,,,ローズメディカル,0
1317,5011101102423,新規,0,2023-04-07,2023-04-07,株式会社Ｂｌｏｏｍ,,株式会社,東京都,新宿区,新宿５丁目８番１０号新宿５アドレス７０３,,13,104,1600022,,,,,,,2023-04-07,1,,,,,ブルーム,0
1321,5011303004715,新規,0,2023-04-07,2023-04-07,合同会社Ｓｕｎ＆Ｓｏｎ’ｓ,,合同会社,東京都,杉並区,今川２丁目２４番１号カリフール今川３号棟２０３号,,13,115,1670035,,,,,,,2023-04-07,1,,,,,サンアンドサンズ,0
1326,5011501029134,新規,0,2023-04-07,2023-04-07,ＦＭ株式会社,,株式会社,東京都,荒川区,東日暮里４丁目２６－５大島ビル１階,,13,118,1160014,,,,,,,2023-04-07,1,,,,,エフエム,0
1329,5011701026121,新規,0,2023-04-07,2023-04-07,株式会社ＭＭＹＹＥＢ,,株式会社,東京都,江戸川区,北小岩６丁目７番５号,,13,123,1330051,,,,,,,2023-04-07,1,,,,,マイイービー,0
1331,5011801042191,新規,0,2023-04-07,2023-04-07,株式会社宮浩電気,,株式会社,東京都,足立区,佐野２丁目３２番２０号,,13,121,1210053,,,,,,,2023-04-07,1,,,,,ミヤヒロデンキ,0
1335,5013301050567,新規,0,2023-04-07,2023-04-07,ＷＬＴ株式会社,,株式会社,東京都,豊島区,池袋４丁目２５番５号アルスビル２０１号室,,13,116,1710014,,,,,,,2023-04-07,1,,,,,ダブリューエルティー,0
1339,5020001150960,新規,0,2023-04-07,2023-04-07,株式会社ＭｆＯ,,株式会社,神奈川県,横浜市中区,若葉町３丁目４５番地１サンクレイドル横濱伊勢佐木５０４号室,,14,104,2310056,,,,,,,2023-04-07,1,,,,,エムエフオー,0
1340,5020001150977,新規,0,2023-04-07,2023-04-07,株式会社ＴＫコンサルティング,,株式会社,神奈川県,横浜市西区,老松町５６番地１３,,14,103,2200032,,,,,,,2023-04-07,1,,,,,ティーケーコンサルティング,0
1341,5020001151001,新規,0,2023-04-07,2023-04-07,株式会社ＣＨＡＮＴＥＬ,,株式会社,神奈川県,川崎市川崎区,小田１丁目６番１１－１号,,14,131,2100846,,,,,,,2023-04-07,1,,,,,シャンテル,0
1342,5020001151018,新規,0,2023-04-07,2023-04-07,株式会社美波興業,,株式会社,神奈川県,横浜市泉区,和泉町７５５４番地,,14,116,2450016,,,,,,,2023-04-07,1,,,,,ミナミコウギョウ,0
1343,5020001151026,新規,0,2023-04-07,2023-04-07,ＳｈｉｎｙＳｔｏｎｅ　Ｔｅｃｈｎｏｌｏｇｙ株式会社,,株式会社,神奈川県,横浜市中区,桜木町１丁目１０１番地１クロスゲート７階,,14,104,2310062,,,,,,,2023-04-07,1,,,,,シャイニーストーンテクノロジー,0
1346,5020005015937,新規,0,2023-04-07,2023-04-07,医療法人社団暖笑会,,その他の設立登記法人,神奈川県,横浜市南区,井土ケ谷上町２５番２４号ゆう井土ヶ谷１０１,,14,105,2320051,,,,,,,2023-04-07,1,,,,,ダンショウカイ,0
1356,5030001153186,新規,0,2023-04-07,2023-04-07,大野硝子工業株式会社,,株式会社,埼玉県,三郷市,戸ケ崎１丁目１６２番地１,,11,237,3410044,,,,,,,2023-04-07,1,,,,,オオノガラスコウギョウ,0
1357,5030001153194,新規,0,2023-04-07,2023-04-07,株式会社橋本工業,,株式会社,埼玉県,川口市,大字木曽呂２９３番地の２,,11,203,3330831,,,,,,,2023-04-07,1,,,,,ハシモトコウギョウ,0
1358,5030001153203,新規,0,2023-04-07,2023-04-07,株式会社美修ＨＯＭＥ,,株式会社,埼玉県,北足立郡伊奈町,大字小針新宿５６９番地１２,,11,301,3620808,,,,,,,2023-04-07,1,,,,,ビシュウホーム,0
1359,5030001153244,新規,0,2023-04-07,2023-04-07,株式会社ＭＳＴＫＫ,,株式会社,埼玉県,桶川市,大字上日出谷１０３３番地の２７,,11,231,3630026,,,,,,,2023-04-07,1,,,,,エムエスティーケーケー,0
1365,5040001127775,新規,0,2023-04-07,2023-04-07,株式会社ヴィジョンエステート,,株式会社,千葉県,千葉市中央区,椿森１丁目１２番１号,,12,101,2600042,,,,,,,2023-04-07,1,,,,,ヴィジョンエステート,0
1366,5040001127783,新規,0,2023-04-07,2023-04-07,株式会社シバシン,,株式会社,千葉県,船橋市,浜町１丁目８番１３号,,12,204,2730012,,,,,,,2023-04-07,1,,,,,シバシン,0
1367,5040001127800,新規,0,2023-04-07,2023-04-07,株式会社秀和工業,,株式会社,千葉県,木更津市,日の出町１００番地９１,,12,206,2920037,,,,,,,2023-04-07,1,,,,,シュウワコウギョウ,0
1368,5040001127809,新規,0,2023-04-07,2023-04-07,株式会社松瀬,,株式会社,千葉県,千葉市花見川区,朝日ケ丘４丁目３９番９号,,12,102,2620019,,,,,,,2023-04-07,1,,,,,マツセ,0
1369,5040001127825,新規,0,2023-04-07,2023-04-07,株式会社タマコーポレーション,,株式会社,千葉県,佐倉市,宮ノ台３丁目７番１１号,,12,212,2850857,,,,,,,2023-04-07,1,,,,,タマコーポレーション,0
1370,5040001127833,新規,0,2023-04-07,2023-04-07,株式会社祐創管工,,株式会社,千葉県,市原市,能満１５３２番地２４８,,12,219,2900011,,,,,,,2023-04-07,1,,,,,ユウソウカンコウ,0
1371,5040003022355,新規,0,2023-04-07,2023-04-07,合同会社ＹＡＭＡＮＡＫＡ,,合同会社,千葉県,木更津市,ほたる野２丁目１９番２号,,12,206,2920038,,,,,,,2023-04-07,1,,,,,ヤマナカ,0
1374,5050001052618,新規,0,2023-04-07,2023-04-07,株式会社Ｎｅｘｔ　Ｌｅａｆ,,株式会社,茨城県,稲敷郡阿見町,中央１丁目１１番３７号,,08,443,3000332,,,,,,,2023-04-07,1,,,,,ネクストリーフ,0
1375,5050001052634,新規,0,2023-04-07,2023-04-07,サープラスワン株式会社,,株式会社,茨城県,牛久市,田宮町８３６番地２３,,08,219,3001236,,,,,,,2023-04-07,1,,,,,サープラスワン,0
1378,5050003007388,新規,0,2023-04-07,2023-04-07,合同会社ＷｏｒｋＳｈｏｐ,,合同会社,茨城県,水戸市,本町３丁目６番１号,,08,201,3100815,,,,,,,2023-04-07,1,,,,,ワークショップ,0
1379,5060001035860,新規,0,2023-04-07,2023-04-07,株式会社ＹＴエステート,,株式会社,栃木県,小山市,犬塚５丁目１３番地９,,09,208,3230811,,,,,,,2023-04-07,1,,,,,ワイティーエステート,0
1382,5070003004895,新規,0,2023-04-07,2023-04-07,合同会社ＮＡＢＥ,,合同会社,群馬県,前橋市,総社町４丁目９番地５エトワール２０２号,,10,201,3710853,,,,,,,2023-04-07,1,,,,,ナベ,0
1384,5080001025546,新規,0,2023-04-07,2023-04-07,株式会社サードリム・テクノロジーズ,,株式会社,静岡県,島田市,横井２丁目２２番３５号,,22,209,4270024,,,,,,,2023-04-07,1,,,,,サードリムテクノロジーズ,0
1386,5080103002773,新規,0,2023-04-07,2023-04-07,合同会社Ｌａｙａ,,合同会社,静岡県,伊豆市,柏久保６０３‐６,,22,222,4102407,,,,,,,2023-04-07,1,,,,,ラヤ,0
1388,5080403004767,新規,0,2023-04-07,2023-04-07,コンフォ合同会社,,合同会社,静岡県,浜松市中区,海老塚２丁目１８－１５,,22,131,4328033,,,,,,,2023-04-07,1,,,,,コンフォ,0
1392,5090001018053,新規,0,2023-04-07,2023-04-07,紳英興産株式会社,,株式会社,山梨県,中巨摩郡昭和町,西条４６１番地２,,19,384,4093866,,,,,,,2023-04-07,1,,,,,シンエイコウサン,0
1394,5100001036284,新規,0,2023-04-07,2023-04-07,株式会社ミヤコーＣＯＭ,,株式会社,長野県,飯田市,松尾明７７７０番地１,,20,205,3950823,,,,,,,2023-04-07,1,,,,,ミヤコーコム,0
1417,5120001253712,新規,0,2023-04-07,2023-04-07,株式会社丸山電気,,株式会社,大阪府,大阪市住之江区,北加賀屋５丁目５番４１号,,27,125,5590011,,,,,,,2023-04-07,1,,,,,マルヤマデンキ,0
1418,5120001253720,新規,0,2023-04-07,2023-04-07,株式会社Ｏｓａｋａ　Ｌｏｖｅｒ,,株式会社,大阪府,大阪市北区,西天満３丁目１３番１８号西天満クリスタルビル４Ｆ,,27,127,5300047,,,,,,,2023-04-07,1,,,,,オーサカラバー,0
1419,5120001253753,新規,0,2023-04-07,2023-04-07,株式会社Ｙ・Ｏ・Ｋ,,株式会社,大阪府,枚方市,中宮山戸町５番２７号,,27,210,5730011,,,,,,,2023-04-07,1,,,,,ワイオーケー,0
1420,5120001253778,新規,0,2023-04-07,2023-04-07,株式会社あすなろ,,株式会社,大阪府,大阪市中央区,釣鐘町１丁目６番２号橋本ビル４０６,,27,128,5400035,,,,,,,2023-04-07,1,,,,,アスナロ,0
1421,5120001253828,新規,0,2023-04-07,2023-04-07,株式会社三友通商,,株式会社,大阪府,大阪市浪速区,下寺３丁目１－１４エクレール夕陽ケ丘５号２１０号室,,27,111,5560001,,,,,,,2023-04-07,1,,,,,サンユウツウショウ,0
1423,5120003023782,新規,0,2023-04-07,2023-04-07,シマシマノミ合同会社,,合同会社,大阪府,大阪市北区,梅田１丁目２番２号大阪駅前第２ビル１２－１２,,27,127,5300001,,,,,,,2023-04-07,1,,,,,シマシマノミ,0
1429,5120101067244,新規,0,2023-04-07,2023-04-07,アールホールディングス株式会社,,株式会社,大阪府,大阪狭山市,西山台３丁目９番１４号,,27,231,5890022,,,,,,,2023-04-07,1,,,,,アールホールディングス,0
1430,5120101067252,新規,0,2023-04-07,2023-04-07,三共リース株式会社,,株式会社,大阪府,堺市堺区,大仙西町６丁１６９番地１,,27,141,5900821,,,,,,,2023-04-07,1,,,,,サンキョウリース,0
1442,5130001073969,新規,0,2023-04-07,2023-04-07,株式会社京都アペリオ,,株式会社,京都府,京都市左京区,浄土寺真如町１５０番地２,,26,103,6068414,,,,,,,2023-04-07,1,,,,,キョウトアペリオ,0
1443,5130001074001,新規,0,2023-04-07,2023-04-07,株式会社Ｃ‐Ｍ,,株式会社,京都府,京都市中京区,西ノ京島ノ内町２４番地藤和三条山ノ内ホームズ１０７,,26,104,6048443,,,,,,,2023-04-07,1,,,,,シーエム,0
1445,5130003008634,新規,0,2023-04-07,2023-04-07,グラビス合同会社,,合同会社,京都府,京都市北区,新御霊口町２８５－１２３,,26,101,6038146,,,,,,,2023-04-07,1,,,,,グラビス,0
1446,5130005016742,新規,0,2023-04-07,2023-04-07,一般社団法人きざはしコミュナス,,その他の設立登記法人,京都府,京都市下京区,仏光寺通高倉西入ル西前町３６１番地,,26,106,6000000,,,,,,,2023-04-07,1,,,,,キザハシコミュナス,0
1449,5140001129662,新規,0,2023-04-07,2023-04-07,株式会社ＫＩＮＤ,,株式会社,兵庫県,高砂市,阿弥陀町阿弥陀２０９２番地の１,,28,216,6760827,,,,,,,2023-04-07,1,,,,,カインド,0
1450,5140005026550,新規,0,2023-04-07,2023-04-07,特定非営利活動法人タッチングアロマ笑香,,その他の設立登記法人,兵庫県,丹波篠山市,下板井４１６番地３,,28,221,6692733,,,,,,,2023-04-07,1,,,,,タッチングアロマエミカ,0
1451,5150001026289,新規,0,2023-04-07,2023-04-07,株式会社Ｇｉｖｅ　ｂａｃｋ,,株式会社,奈良県,北葛城郡河合町,星和台２丁目１－１,,29,427,6360081,,,,,,,2023-04-07,1,,,,,,0
1460,5170001017534,新規,0,2023-04-07,2023-04-07,中村技建工業株式会社,,株式会社,和歌山県,和歌山市,新生町１１番３１号,,30,201,6408325,,,,,,,2023-04-07,1,,,,,ナカムラギケンコウギョウ,0
1468,5180001155606,新規,0,2023-04-07,2023-04-07,株式会社ｖｅｒｔｅｘ,,株式会社,愛知県,名古屋市中区,丸の内２丁目１５番２９号プレサンス丸の内レジデンスＩＩ４０２号,00129983,23,106,4600002,,,,,,,2023-04-07,1,,,,,バーテックス,0
1469,5180001155639,新規,0,2023-04-07,2023-04-07,相星商事株式会社,,株式会社,愛知県,名古屋市千種区,楠元町１丁目４３番地１号,,23,101,4640037,,,,,,,2023-04-07,1,,,,,アイボシショウジ,0
1470,5180001155647,新規,0,2023-04-07,2023-04-07,株式会社三協機電,,株式会社,愛知県,名古屋市中区,丸の内１丁目６番３６号ローレルコート丸の内７０２号,,23,106,4600002,,,,,,,2023-04-07,1,,,,,サンキョウキデン,0
1471,5180001155655,新規,0,2023-04-07,2023-04-07,株式会社歩荷,,株式会社,愛知県,稲沢市,祖父江町山崎上屋敷３７５番地３,,23,220,4950002,,,,,,,2023-04-07,1,,,,,ボッカ,0
1472,5180001155671,新規,0,2023-04-07,2023-04-07,株式会社ライドウェイブ,,株式会社,愛知県,大府市,北崎町井田２７番地１,,23,223,4740001,,,,,,,2023-04-07,1,,,,,ライドウェイブ,0
1473,5180001155688,新規,0,2023-04-07,2023-04-07,株式会社ＮＥＷ　ＤＥＳＩＧＮ,,株式会社,愛知県,名古屋市昭和区,松風町１丁目２２番地の５,,23,107,4660035,,,,,,,2023-04-07,1,,,,,ニューデザイン,0
1474,5180001155705,新規,0,2023-04-07,2023-04-07,株式会社シャカリキ,,株式会社,愛知県,名古屋市緑区,諸の木２丁目１３０８番地,,23,114,4580817,,,,,,,2023-04-07,1,,,,,シャカリキ,0
1475,5180001155738,新規,0,2023-04-07,2023-04-07,アスクミー株式会社,,株式会社,愛知県,名古屋市名東区,貴船２丁目３０１番地の１,,23,115,4650058,,,,,,,2023-04-07,1,,,,,アスクミー,0
1477,5180003025063,新規,0,2023-04-07,2023-04-07,合同会社Ｔ・Ｔ　Ａｄｖｉｓｅｒ,,合同会社,愛知県,名古屋市西区,那古野２丁目１４番１号なごのキャンパス,,23,104,4510042,,,,,,,2023-04-07,1,,,,,ティーティーアドバイザー,0
1478,5180003025071,新規,0,2023-04-07,2023-04-07,ミラカン合同会社,,合同会社,愛知県,名古屋市中区,大須２丁目４番８号,,23,106,4600011,,,,,,,2023-04-07,1,,,,,ミラカン,0
1480,5180301037264,新規,0,2023-04-07,2023-04-07,Ｍ．Ｋサービス株式会社,,株式会社,愛知県,豊川市,蔵子６丁目８番地１７,,23,207,4420842,,,,,,,2023-04-07,1,,,,,エムケーサービス,0
1481,5180301037280,新規,0,2023-04-07,2023-04-07,創政株式会社,,株式会社,愛知県,岡崎市,丸山町字仲畑４番地９,,23,202,4440006,,,,,,,2023-04-07,1,,,,,ソウセイ,0
1487,5200003005921,新規,0,2023-04-07,2023-04-07,合同会社ｉｐｐｏ,,合同会社,岐阜県,瑞浪市,松ヶ瀬町４丁目４番地スターブル松ヶ瀬Ｂ２０１,,21,208,5096134,,,,,,,2023-04-07,1,,,,,イッポ,0
1492,5240001061319,新規,0,2023-04-07,2023-04-07,株式会社Ｔｏｃｈｉ９９,,株式会社,広島県,呉市,焼山中央２丁目６番３３号,,34,202,7370935,,,,,,,2023-04-07,1,,,,,トチキュウキュウ,0
1493,5240001061327,新規,0,2023-04-07,2023-04-07,ＤＣ株式会社,,株式会社,広島県,広島市中区,本通７番２９号アイビービル７階,,34,101,7300035,,,,,,,2023-04-07,1,,,,,ディーシー,0
1496,5250001020042,新規,0,2023-04-07,2023-04-07,１６Ｓｗｅｅｔｓ株式会社,,株式会社,山口県,山口市,阿知須４２４３番地１２,,35,203,7541277,,,,,,,2023-04-07,1,,,,,ジュウロクスウィーツ,0
1504,5290001101037,新規,0,2023-04-07,2023-04-07,株式会社燻商,,株式会社,福岡県,糸島市,志摩稲留５番地,,40,230,8191313,,,,,,,2023-04-07,1,,,,,クンショウ,0
1507,5290003013750,新規,0,2023-04-07,2023-04-07,ＬｅｇｉＴ．合同会社,,合同会社,福岡県,筑紫野市,紫３丁目７番１号メゾン壱番館２０１号,,40,217,8180061,,,,,,,2023-04-07,1,,,,,レジット,0
1509,5300001013255,新規,0,2023-04-07,2023-04-07,ＮＤＨｅａｌｔｈ株式会社,,株式会社,佐賀県,佐賀市,鍋島１丁目１４番４号,,41,201,8490937,,,,,,,2023-04-07,1,,,,,エヌディーヘルス,0
1512,5310001018344,新規,0,2023-04-07,2023-04-07,株式会社石本工業,,株式会社,長崎県,松浦市,志佐町白浜免１７６４番地,,42,208,8594506,,,,,,,2023-04-07,1,,,,,イシモトコウギョウ,0
1516,5330005010642,新規,0,2023-04-07,2023-04-07,一般社団法人熊本県病院薬剤師会,,その他の設立登記法人,熊本県,熊本市中央区,本荘１丁目１番１号,,43,101,8600811,,,,,,,2023-04-07,1,,,,,クマモトケンビョウインヤクザイシカイ,0
1517,5340001025486,新規,0,2023-04-07,2023-04-07,株式会社郡山経営研究所,,株式会社,鹿児島県,鹿児島市,吉野町８９３０番地３,,46,201,8920871,,,,,,,2023-04-07,1,,,,,コオリヤマケイエイケンキュウジョ,0
1519,5340003004091,新規,0,2023-04-07,2023-04-07,合同会社エイト,,合同会社,鹿児島県,霧島市,国分姫城南１０番４０号,,46,218,8994356,,,,,,,2023-04-07,1,,,,,エイト,0
1520,5350001018274,新規,0,2023-04-07,2023-04-07,株式会社ＳＩＳＵ,,株式会社,宮崎県,宮崎市,老松１丁目６－１０,,45,201,8800801,,,,,,,2023-04-07,1,,,,,シス,0
1522,5360001031813,新規,0,2023-04-07,2023-04-07,株式会社千種,,株式会社,沖縄県,浦添市,宮城４丁目１－３サワーコート宮城２０２号,,47,208,9012126,,,,,,,2023-04-07,1,,,,,チグサ,0
1526,5370001049796,新規,0,2023-04-07,2023-04-07,宮三石材店株式会社,,株式会社,宮城県,石巻市,井内字井内５１番地１,,04,202,9860003,,,,,,,2023-04-07,1,,,,,ミヤサンセキザイテン,0
1527,5370001049805,新規,0,2023-04-07,2023-04-07,株式会社ＲＹ　ｍｏｏｎ,,株式会社,宮城県,仙台市宮城野区,榴岡２丁目５番５－５Ｆ,,04,102,9830852,,,,,,,2023-04-07,1,,,,,アールワイムーン,0
1530,5380001033592,新規,0,2023-04-07,2023-04-07,株式会社アークス,,株式会社,福島県,いわき市,四倉町下仁井田字上古川１６番地,,07,204,9790203,,,,,,,2023-04-07,1,,,,,アークス,0
1531,5380001033601,新規,0,2023-04-07,2023-04-07,株式会社ＦＡＫＥＡＧＥＮＣＹ,,株式会社,福島県,田村市,船引町北鹿又字前田４７番地１,,07,211,9634433,,,,,,,2023-04-07,1,,,,,フェイクエージェンシー,0
1535,5380003005433,新規,0,2023-04-07,2023-04-07,合同会社中島テクノサービス,,合同会社,福島県,西白河郡中島村,大字滑津字二ツ山４４番地１８,,07,465,9610102,,,,,,,2023-04-07,1,,,,,ナカジマテクノサービス,0
1538,5390001017207,新規,0,2023-04-07,2023-04-07,株式会社ＡＲＫ,,株式会社,山形県,長井市,成田１５９９番地１５,,06,209,9930075,,,,,,,2023-04-07,1,,,,,アーク,0
1539,5400003003054,新規,0,2023-04-07,2023-04-07,合同会社ＧＮ興業,,合同会社,岩手県,盛岡市,向中野２丁目５３－１５,,03,201,0200851,,,,,,,2023-04-07,1,,,,,ジーエヌコウギョウ,0
1541,5420003002698,新規,0,2023-04-07,2023-04-07,アンベアリー合同会社,,合同会社,青森県,青森市,桂木３丁目５番地５ルグラン桂木ＩＩＣ－１０５,00129998,02,201,0300844,,,,,,,2023-04-07,1,,,,,アンベアリー,0
1544,5430001088747,新規,0,2023-04-07,2023-04-07,株式会社ＳＬＧ　ＲＥＳＩＤＥＮＣＥ,,株式会社,北海道,札幌市手稲区,富丘五条７丁目３番６号富丘ベース１階,,01,109,0060015,,,,,,,2023-04-07,1,,,,,エスエルジーレジデンス,0
1545,5430001088771,新規,0,2023-04-07,2023-04-07,株式会社ニセコ雪森考舎,,株式会社,北海道,虻田郡ニセコ町,字近藤５３番３５号,,01,395,0481542,,,,,,,2023-04-07,1,,,,,ニセコユキモリコウシャ,0
1546,5430001088838,新規,0,2023-04-07,2023-04-07,株式会社Ｓ＆Ｃ,,株式会社,北海道,札幌市中央区,北三条西７丁目１番１－８０１号,,01,101,0600003,,,,,,,2023-04-07,1,,,,,エスアンドシー,0
1547,5430003014908,新規,0,2023-04-07,2023-04-07,ノーム合同会社,,合同会社,北海道,札幌市西区,山の手五条１０丁目４番５号,,01,107,0630005,,,,,,,2023-04-07,1,,,,,ノーム,0
1548,5440005002752,新規,0,2023-04-07,2023-04-07,一般社団法人サポートセンターＪｏｈａｎ,,その他の設立登記法人,北海道,函館市,柏木町１５番２０－３０４号,,01,202,0420942,,,,,,,2023-04-07,1,,,,,サポートセンタージョアン,0
1552,5470001019541,新規,0,2023-04-07,2023-04-07,株式会社ＫＡＷＡＺＯＥ‐ＡＲＣＨＩＴＥＣＴＳ,,株式会社,香川県,さぬき市,長尾東９７３番地１,,37,206,7692301,,,,,,,2023-04-07,1,,,,,カワゾエアーキテクツ,0
1554,5480003001967,新規,0,2023-04-07,2023-04-07,合同会社手心,,合同会社,徳島県,阿波市,土成町高尾字林６９番地１,,36,206,7711509,,,,,,,2023-04-07,1,,,,,テコロ,0
1559,5500003003011,新規,0,2023-04-07,2023-04-07,フアレス合同会社,,合同会社,愛媛県,新居浜市,松神子１丁目４番５号,,38,205,7920881,,,,,,,2023-04-07,1,,,,,フアレス,0
1562,5700150115183,新規,0,2023-04-07,2023-04-07,山梨県教職員組合南都留支部,,その他,山梨県,富士吉田市,新町４丁目１２－３０,,19,202,4030019,,,,,,,2023-04-07,1,,,,,ヤマナシケンキョウショクインクミアイミナミツルシブ,0
1563,5700150115191,新規,0,2023-04-07,2023-04-07,ニラ・インターナショナル・トレディング・プライベート・リミテド,,外国会社等,東京都,八王子市,子安町２丁目１３－６藤井ハイツ１４,,13,201,1920904,ネパール連邦民主共和国チャンドラギリ市第１４区ナイカプ、カトマンズ,,,,,,2023-04-07,1,,,,,ニラインターナシヨナルトレデイングプライベートリミテド,0
1564,5700150115209,新規,0,2023-04-07,2023-04-07,Ｇｕａｎｇｚｈｏｕｙｉｊｉｎｄｉａｎｚｉｓｈａｎｇｗｕｙｏｕｘｉａｎｇｏｎｇｓｉ,,外国会社等,,,,,,,,ＨＵＡＮＧＢＩＡＮＢＥＩＬＵ６３ＨＡＯ５２０５　ＢＡＩＹＵＮＱＵＨＥＬＯＮＧＪＩＥ　ＧＵＡＮＧＺＨＯＵ　ＧＵＡＮＧＤＯＮＧ,,,,,,2023-04-07,1,,,,,グワンジョウイージンディエンズーシャンウーヨウシエンゴンスー,0
1565,5700150115217,新規,0,2023-04-07,2023-04-07,ＲＥＩＴＨ　ＴＥＣＨＮＯＬＯＧＹ　ＨＯＬＤＩＮＧＳ　ＬＩＭＩＴＥＤ,,外国会社等,,,,,,,,６１０　Ｎａｔｈａｎ　Ｒｏａｄ　Ｈｏｌｌｙｗｏｏｄ　Ｃｏｍｍｅｒｃｉａｌ　Ｃｅｎｔｅｒ　Ｒｏｏｍ　１３１８－１９　Ｍｏｎｇｋｏｋ　Ｋｏｗｌｏｏｎ　９９９０７７　ＨＫ,,,,,,2023-04-07,1,,,,,シャンガンフイフーチーイエグーウェンヨウシエンゴンスー,0
1569,6010001234177,新規,0,2023-04-07,2023-04-07,株式会社フィクション,,株式会社,東京都,中央区,銀座１丁目１２番４号Ｎ＆Ｅ、ＢＬＤ．７階,,13,102,1040061,,,,,,,2023-04-07,1,,,,,フィクション,0
1570,6010001234185,新規,0,2023-04-07,2023-04-07,株式会社あおぞら,,株式会社,東京都,中央区,晴海５丁目８番,,13,102,1040053,,,,,,,2023-04-07,1,,,,,アオゾラ,0
1571,6010001234202,新規,0,2023-04-07,2023-04-07,株式会社ＣＲＡＦＴ　ＣＲＯＷＮ,,株式会社,東京都,千代田区,神田佐久間町３丁目５番地第二櫻井ビル２階２２号室,,13,101,1010025,,,,,,,2023-04-07,1,,,,,クラフトクラウン,0
1572,6010001234210,新規,0,2023-04-07,2023-04-07,株式会社Ｆａｓｏｎ,,株式会社,東京都,中央区,銀座１丁目２２－１１銀座大竹ビジデンス２Ｆ,,13,102,1040061,,,,,,,2023-04-07,1,,,,,ファソン,0
1573,6010001234219,新規,0,2023-04-07,2023-04-07,株式会社ＭＵＴＥ,,株式会社,東京都,中央区,銀座６丁目１３番１６号銀座ＷａｌｌビルＵＣＦ５階,,13,102,1040061,,,,,,,2023-04-07,1,,,,,ミュート,0
1574,6010001234301,新規,0,2023-04-07,2023-04-07,Ａｎｙｌｏｍ株式会社,,株式会社,東京都,中央区,銀座７丁目１３番２０号銀座ＴＨビル９階,,13,102,1040061,,,,,,,2023-04-07,1,,,,,エニロム,0
1577,6010003040235,新規,0,2023-04-07,2023-04-07,オフィスＫＩＴＯ合同会社,,合同会社,東京都,文京区,白山１丁目３３番１９号,,13,105,1130001,,,,,,,2023-04-07,1,,,,,オフィスキト,0
1578,6010003040251,新規,0,2023-04-07,2023-04-07,ＮＳファンディング合同会社,,合同会社,東京都,中央区,日本橋蛎殻町１丁目３８番１１号,,13,102,1030014,,,,,,,2023-04-07,1,,,,,エヌエスファンディング,0
1579,6010003040268,新規,0,2023-04-07,2023-04-07,合同会社精博舎,,合同会社,東京都,中央区,銀座１丁目１２番４号Ｎ＆ＥＢＬＤ．７階,,13,102,1040061,,,,,,,2023-04-07,1,,,,,セイハクシャ,0
1580,6010005036462,新規,0,2023-04-07,2023-04-07,一般社団法人人材交流友好協会,,その他の設立登記法人,東京都,千代田区,神田佐久間町１丁目９番地第７東ビル,,13,101,1010025,,,,,,,2023-04-07,1,,,,,ジンザイコウリュウユウコウキョウカイ,0
1582,6010401173495,新規,0,2023-04-07,2023-04-07,株式会社ｙｕｋａｙａ,,株式会社,東京都,港区,六本木４丁目３番１１ユニハウス１階,,13,103,1060032,,,,,,,2023-04-07,1,,,,,ユカヤ,0
1583,6010403029852,新規,0,2023-04-07,2023-04-07,合同会社ＨｉＪｏＪｏ　Ｆｕｎｄ３４,,合同会社,東京都,港区,西新橋１丁目７番２号,,13,103,1050003,,,,,,,2023-04-07,1,,,,,ヒジョージョーファンドサンジュウヨン,0
1585,6010405022013,新規,0,2023-04-07,2023-04-07,ＲＢソーラーパセリホールディングス一般社団法人,,その他の設立登記法人,東京都,港区,虎ノ門３丁目２２番１０－２０１号,,13,103,1050001,,,,,,,2023-04-07,1,,,,,アールビーソーラーパセリホールディングス,0
1589,6010503006933,新規,0,2023-04-07,2023-04-07,チルクリブ合同会社,,合同会社,東京都,台東区,蔵前３丁目１７番３号ＳＩビル１階,,13,106,1110051,,,,,,,2023-04-07,1,,,,,チルクリブ,0
1590,6010503006941,新規,0,2023-04-07,2023-04-07,合同会社台東電気,,合同会社,東京都,台東区,東上野３丁目３１番６号伊井ビル２０２,,13,106,1100015,,,,,,,2023-04-07,1,,,,,タイトウデンキ,0
1592,6010601062894,新規,0,2023-04-07,2023-04-07,株式会社ａｄｅｌｉｅ,,株式会社,東京都,江東区,有明１丁目４番２０－２８０９号,,13,108,1350063,,,,,,,2023-04-07,1,,,,,アデリー,0
1595,6010801033828,新規,0,2023-04-07,2023-04-07,Ａｕｒｏｒａ株式会社,,株式会社,東京都,大田区,大森本町２丁目４番９号ビバハイムＢ００２号室,,13,111,1430011,,,,,,,2023-04-07,1,,,,,オーロラ,0
1596,6010801033836,新規,0,2023-04-07,2023-04-07,株式会社ＴＯＭＯ,,株式会社,東京都,大田区,蒲田４丁目２４番１－２０４号,,13,111,1440052,,,,,,,2023-04-07,1,,,,,トモ,0
1606,6011001153458,新規,0,2023-04-07,2023-04-07,株式会社Ｓ．Ｌｉｎｅ,,株式会社,東京都,渋谷区,松濤１丁目４番９号松濤サンエルサビル３１２,,13,113,1500046,,,,,,,2023-04-07,1,,,,,エスライン,0
1607,6011001153549,新規,0,2023-04-07,2023-04-07,株式会社ビポップ,,株式会社,東京都,渋谷区,代々木１丁目１７番１１号,,13,113,1510053,,,,,,,2023-04-07,1,,,,,ビポップ,0
1608,6011001153557,新規,0,2023-04-07,2023-04-07,株式会社ＳＴＯＫ,,株式会社,東京都,渋谷区,渋谷１丁目１番１１号,,13,113,1500002,,,,,,,2023-04-07,1,,,,,ストック,0
1609,6011001153598,新規,0,2023-04-07,2023-04-07,株式会社メタバースクリエイターズ,,株式会社,東京都,渋谷区,円山町２８番１号渋谷道玄坂スカイビル１１Ｆ,,13,113,1500044,,,,,,,2023-04-07,1,,,,,メタバースクリエイターズ,0
1610,6011001153615,新規,0,2023-04-07,2023-04-07,株式会社スタジオベタ,,株式会社,東京都,渋谷区,代々木１丁目５５番１４号,,13,113,1510053,,,,,,,2023-04-07,1,,,,,スタジオベタ,0
1611,6011003016588,新規,0,2023-04-07,2023-04-07,合同会社Ｈｕｍａｎ　Ｂｅａｎ,,合同会社,東京都,渋谷区,西原３丁目２１番７号メトロステージ代々木上原２０２号室,,13,113,1510066,,,,,,,2023-04-07,1,,,,,ヒューマンビーン,0
1614,6011101102117,新規,0,2023-04-07,2023-04-07,当幸貿易株式会社,,株式会社,東京都,新宿区,北新宿３丁目１－２０,,13,104,1690074,,,,,,,2023-04-07,1,,,,,トウコウ,0
1615,6011101102422,新規,0,2023-04-07,2023-04-07,シャドーコンサルティング株式会社,,株式会社,東京都,新宿区,西新宿３丁目３番１３号西新宿水間ビル２Ｆ,,13,104,1600023,,,,,,,2023-04-07,1,,,,,シャドーコンサルティング,0
1616,6011201024541,新規,0,2023-04-07,2023-04-07,株式会社ＬＤＣ,,株式会社,東京都,中野区,中央５丁目２番１号第三ナカノビル２階,,13,114,1640011,,,,,,,2023-04-07,1,,,,,エルディーシー,0
1622,6011301028599,新規,0,2023-04-07,2023-04-07,株式会社ＯＭＯＲＯＩ,,株式会社,東京都,杉並区,松ノ木３丁目３１番２３号,,13,115,1660014,,,,,,,2023-04-07,1,,,,,オモロイ,0
1625,6011303004714,新規,0,2023-04-07,2023-04-07,合同会社Ａ　ＮＥＷ　ＣＲＥＡＴＩＶＥ　ＣＯＲＰＯＲＡＴＩＯＮ,,合同会社,東京都,杉並区,上荻２丁目２９番１２－２０５号,,13,115,1670043,,,,,,,2023-04-07,1,,,,,エーニュークリエイティブコーポレーション,0
1626,6011305002897,新規,0,2023-04-07,2023-04-07,一般社団法人マイドキュメンタリーＪＡＰＡＮ,,その他の設立登記法人,東京都,杉並区,井草３丁目３０番３号,,13,115,1670021,,,,,,,2023-04-07,1,,,,,マイドキュメンタリージャパン,0
1633,6011801042182,新規,0,2023-04-07,2023-04-07,株式会社Ｂｕｄｄｙ,,株式会社,東京都,足立区,青井２丁目３１番１０－４０１号,,13,121,1200012,,,,,,,2023-04-07,1,,,,,バディ,0
1634,6012301013384,新規,0,2023-04-07,2023-04-07,株式会社Ｂｅｌａｎｇｅ,,株式会社,東京都,町田市,鶴間３丁目４番地１グランベリーパーク３ＦセントラルコートＬ３０２,,13,209,1940004,,,,,,,2023-04-07,1,,,,,ベルアンジュ,0
1635,6012401040361,新規,0,2023-04-07,2023-04-07,株式会社ブイネット・エデュケーション,,株式会社,東京都,武蔵野市,御殿山１丁目５番５号,,13,203,1800005,,,,,,,2023-04-07,1,,,,,ブイネットエデュケーション,0
1641,6012803003049,新規,0,2023-04-07,2023-04-07,合同会社建築川本,,合同会社,東京都,武蔵村山市,三ツ藤１丁目６３番地１４,,13,223,2080021,,,,,,,2023-04-07,1,,,,,ケンチクカワモト,0
1644,6013303006525,新規,0,2023-04-07,2023-04-07,Ｏｎ　ｔｈｅ　ｒｏｏｍ合同会社,,合同会社,東京都,豊島区,西池袋２丁目３１番１２－３０１号,,13,116,1710021,,,,,,,2023-04-07,1,,,,,オンザルーム,0
1653,6020001150935,新規,0,2023-04-07,2023-04-07,株式会社Ｄｉｓｆｒｕｔａ,,株式会社,神奈川県,横浜市中区,本牧大里町１１番１８－２０１号,,14,104,2310823,,,,,,,2023-04-07,1,,,,,ディスフルータ,0
1654,6020001151000,新規,0,2023-04-07,2023-04-07,株式会社Ｗａｔｅｒ　Ｃｌｅａｎ　ＩＳＨＩＺＡＫＩ,,株式会社,神奈川県,横浜市磯子区,田中１丁目２番５号ジュネパレス横浜第１１－２０３号室,,14,107,2350035,,,,,,,2023-04-07,1,,,,,ウォータークリーンイシザキ,0
1655,6020001151017,新規,0,2023-04-07,2023-04-07,株式会社ＤＩＶＡＩＶＹ,,株式会社,神奈川県,川崎市多摩区,登戸２１２１番地１ｇ・ｂｒｉｇｈｔ５１０,,14,135,2140014,,,,,,,2023-04-07,1,,,,,ディーバイビー,0
1656,6020001151025,新規,0,2023-04-07,2023-04-07,株式会社ラクシス,,株式会社,神奈川県,横浜市西区,みなとみらい４丁目４番２号横浜ブルーアベニュー１２階,,14,103,2200012,,,,,,,2023-04-07,1,,,,,ラクシス,0
1657,6020001151033,新規,0,2023-04-07,2023-04-07,株式会社オンザデッキ,,株式会社,神奈川県,川崎市宮前区,平６丁目１０番２５号,,14,136,2160022,,,,,,,2023-04-07,1,,,,,オンザデッキ,0
1662,6021001078646,新規,0,2023-04-07,2023-04-07,Ｎ＆Ｍエステート株式会社,,株式会社,神奈川県,足柄下郡箱根町,仙石原２２０番地,,14,382,2500631,,,,,,,2023-04-07,1,,,,,エヌアンドエムエステート,0
1663,6021001078662,新規,0,2023-04-07,2023-04-07,株式会社エル,,株式会社,神奈川県,小田原市,酒匂４丁目５番３９号,,14,206,2560816,,,,,,,2023-04-07,1,,,,,エル,0
1668,6030001153193,新規,0,2023-04-07,2023-04-07,株式会社東進産業,,株式会社,埼玉県,蕨市,北町１丁目２６番４号ルネ蕨ガーデンシティ８０９号,,11,223,3350001,,,,,,,2023-04-07,1,,,,,トウシンサンギョウ,0
1669,6030001153202,新規,0,2023-04-07,2023-04-07,株式会社ライトピース,,株式会社,埼玉県,志木市,本町１丁目１番１０号星野ビル２階２－Ａ,,11,228,3530004,,,,,,,2023-04-07,1,,,,,ライトピース,0
1670,6030001153227,新規,0,2023-04-07,2023-04-07,株式会社ＳＣＬ,,株式会社,埼玉県,三郷市,彦成１丁目２６７－１,,11,237,3410003,,,,,,,2023-04-07,1,,,,,エスシーエル,0
1680,6040001127790,新規,0,2023-04-07,2023-04-07,株式会社ＧＦＣ,,株式会社,千葉県,鎌ケ谷市,東道野辺５丁目１２番４３－２号,,12,224,2730115,,,,,,,2023-04-07,1,,,,,ジーエフシー,0
1681,6040001127824,新規,0,2023-04-07,2023-04-07,株式会社デザインテック,,株式会社,千葉県,八千代市,緑が丘西２丁目１２－１－２０１,,12,221,2760040,,,,,,,2023-04-07,1,,,,,デザインテック,0
1682,6040001127840,新規,0,2023-04-07,2023-04-07,ブランソリューションズ株式会社,,株式会社,千葉県,千葉市稲毛区,園生町２６０番地５ビラ柏台２－２１２号,,12,103,2630051,,,,,,,2023-04-07,1,,,,,ブランソリューションズ,0
1683,6040001127857,新規,0,2023-04-07,2023-04-07,株式会社ヒロリアルエステート,,株式会社,千葉県,八千代市,大和田１６７番地７,,12,221,2760045,,,,,,,2023-04-07,1,,,,,ヒロリアルエステート,0
1684,6040001127873,新規,0,2023-04-07,2023-04-07,株式会社Ｂｉｇ　Ｍａｃ,,株式会社,千葉県,市川市,須和田１丁目２２－１ウェルストンコーポＩＩ１０２号室,00129996,12,203,2720825,,,,,,,2023-04-07,1,,,,,ビッグマック,0
1689,6040003022305,新規,0,2023-04-07,2023-04-07,合同会社ＴＡＮＡＫＡ,,合同会社,千葉県,千葉市美浜区,磯辺６丁目８番１－３１６号,,12,106,2610012,,,,,,,2023-04-07,1,,,,,タナカ,0
1690,6040003022321,新規,0,2023-04-07,2023-04-07,４ｈａｐｐｉｎｅｓｓ合同会社,,合同会社,千葉県,茂原市,町保１８－８,,12,210,2970022,,,,,,,2023-04-07,1,,,,,フォーハピネス,0
1691,6040003022362,新規,0,2023-04-07,2023-04-07,大京電設合同会社,,合同会社,千葉県,習志野市,津田沼６丁目１３番２６号,,12,216,2750016,,,,,,,2023-04-07,1,,,,,ダイキョウデンセツ,0
1693,6050001052617,新規,0,2023-04-07,2023-04-07,株式会社ＹＬＳ,,株式会社,茨城県,古河市,東４丁目６番３２号,,08,204,3060011,,,,,,,2023-04-07,1,,,,,ワイエルエス,0
1700,6070003004894,新規,0,2023-04-07,2023-04-07,合同会社Ｓｏｎａクリーン,,合同会社,群馬県,前橋市,荒牧町１４５７番地２,,10,201,3710044,,,,,,,2023-04-07,1,,,,,ソナクリーン,0
1703,6080103002772,新規,0,2023-04-07,2023-04-07,合同会社三枡屋,,合同会社,静岡県,富士宮市,元城町８番２５号,,22,207,4180064,,,,,,,2023-04-07,1,,,,,ミマスヤ,0
1705,6090001018052,新規,0,2023-04-07,2023-04-07,株式会社黒富士ＡＷアシスト,,株式会社,山梨県,甲斐市,上芦沢１３１６番地,,19,210,4001121,,,,,,,2023-04-07,1,,,,,クロフジエーダブルアシスト,0
1706,6090001018060,新規,0,2023-04-07,2023-04-07,株式会社シバテリオ,,株式会社,山梨県,北杜市,白州町下教来石７３４番地,,19,209,4080317,,,,,,,2023-04-07,1,,,,,シバテリオ,0
1709,6100001036291,新規,0,2023-04-07,2023-04-07,Ｍ２ｐｒｏｍｏｔｉｏｎ株式会社,,株式会社,長野県,中野市,中央２丁目２番３号,,20,211,3830022,,,,,,,2023-04-07,1,,,,,エムツープロモーション,0
1710,6100003006945,新規,0,2023-04-07,2023-04-07,合同会社ＵＳＲ,,合同会社,長野県,長野市,大字三輪１３４３番地ハイツタマチ１階,,20,201,3800803,,,,,,,2023-04-07,1,,,,,ユーエスアール,0
1712,6110001037413,新規,0,2023-04-07,2023-04-07,株式会社雪原学舎,,株式会社,新潟県,十日町市,稲葉４５６番地１,,15,210,9480101,,,,,,,2023-04-07,1,,,,,セツゲンガクシャ,0
1732,6120001253703,新規,0,2023-04-07,2023-04-07,株式会社リベルテ,,株式会社,大阪府,大阪市北区,曾根崎２丁目１５番３１－４００６号,,27,127,5300057,,,,,,,2023-04-07,1,,,,,リベルテ,0
1733,6120001253736,新規,0,2023-04-07,2023-04-07,株式会社山下鉄工所,,株式会社,大阪府,大阪市港区,市岡元町３丁目４番２１号,,27,107,5520002,,,,,,,2023-04-07,1,,,,,ヤマシタテッコウショ,0
1734,6120003023765,新規,0,2023-04-07,2023-04-07,ＢＴＪグローバルビジネスソリューションズ合同会社,,合同会社,大阪府,大阪市北区,堂島２丁目２番２号近鉄堂島ビル堂島パートナーズ内,,27,127,5300003,,,,,,,2023-04-07,1,,,,,ビーティージェイグローバルビジネスソリューションズ,0
1737,6120005023549,新規,0,2023-04-07,2023-04-07,一般社団法人大阪臨床外科研究振興会,,その他の設立登記法人,大阪府,大阪市阿倍野区,旭町１丁目４－３大阪公立大学大学院医学研究科心臓血管外科学内,,27,119,5450051,,,,,,,2023-04-07,1,,,,,オオサカリンショウゲカケンキュウシンコウカイ,0
1747,6122003002559,新規,0,2023-04-07,2023-04-07,合同会社一路,,合同会社,大阪府,八尾市,南太子堂６丁目２番２８号,,27,212,5810056,,,,,,,2023-04-07,1,,,,,イチロ,0
1749,6130001074017,新規,0,2023-04-07,2023-04-07,トラスト株式会社,,株式会社,京都府,京都市右京区,鳴滝川西町３１番地１０,,26,108,6168246,,,,,,,2023-04-07,1,,,,,トラスト,0
1753,6140001129604,新規,0,2023-04-07,2023-04-07,株式会社トライサード,,株式会社,兵庫県,姫路市,手柄３９９番地,,28,201,6700972,,,,,,,2023-04-07,1,,,,,トライサード,0
1754,6140001129661,新規,0,2023-04-07,2023-04-07,株式会社うめ鉄工業,,株式会社,兵庫県,姫路市,飾磨区阿成植木９４０,,28,201,6728030,,,,,,,2023-04-07,1,,,,,ウメテツコウギョウ,0
1758,6140003018904,新規,0,2023-04-07,2023-04-07,合同会社宮本工業,,合同会社,兵庫県,赤穂市,御崎１４０８番地２,,28,212,6780215,,,,,,,2023-04-07,1,,,,,ミヤモトコウギョウ,0
1759,6140003018920,新規,0,2023-04-07,2023-04-07,合同会社リ・イメージング・メモリーズ,,合同会社,兵庫県,豊岡市,日高町栗栖野９５６番地の１,,28,209,6695372,,,,,,,2023-04-07,1,,,,,リイメージングメモリーズ,0
1760,6140003018929,新規,0,2023-04-07,2023-04-07,ニューゲート合同会社,,合同会社,兵庫県,三田市,すずかけ台１丁目２４番地７,,28,219,6691322,,,,,,,2023-04-07,1,,,,,ニューゲート,0
1761,6140003018937,新規,0,2023-04-07,2023-04-07,合同会社バルミーライフ,,合同会社,兵庫県,姫路市,幸町１１４番地５,,28,201,6700835,,,,,,,2023-04-07,1,,,,,バルミーライフ,0
1768,6180001155670,新規,0,2023-04-07,2023-04-07,株式会社マグネア,,株式会社,愛知県,名古屋市守山区,脇田町１７０３番地,,23,113,4630024,,,,,,,2023-04-07,1,,,,,マグネア,0
1769,6180001155687,新規,0,2023-04-07,2023-04-07,株式会社ＳＨＩＯＴＡ,,株式会社,愛知県,名古屋市港区,木場町６番地の１５,,23,111,4550021,,,,,,,2023-04-07,1,,,,,シオタ,0
1770,6180001155695,新規,0,2023-04-07,2023-04-07,株式会社ブエナビスタ,,株式会社,愛知県,名古屋市港区,小碓２丁目２６３番地第２アークヒルズ港１‐Ａ,,23,111,4550801,,,,,,,2023-04-07,1,,,,,ブエナビスタ,0
1771,6180001155729,新規,0,2023-04-07,2023-04-07,フラクタルエナジー株式会社,,株式会社,愛知県,名古屋市西区,栄生１丁目１８番２０号,,23,104,4510052,,,,,,,2023-04-07,1,,,,,フラクタルエナジー,0
1772,6180001155737,新規,0,2023-04-07,2023-04-07,株式会社ＴＨＥ‐Ａ,,株式会社,愛知県,名古屋市西区,菊井２丁目２１番３号プラセシオン名古屋駅パークフロント３０２号,,23,104,4510044,,,,,,,2023-04-07,1,,,,,ジーエー,0
1775,6180003025062,新規,0,2023-04-07,2023-04-07,合同会社ＹＦＥ,,合同会社,愛知県,名古屋市北区,楠味鋺３丁目１６０９番地,,23,103,4620014,,,,,,,2023-04-07,1,,,,,ワイエフイー,0
1776,6180003025079,新規,0,2023-04-07,2023-04-07,アウロラ合同会社,,合同会社,愛知県,名古屋市北区,八龍町１丁目１９番地,,23,103,4620805,,,,,,,2023-04-07,1,,,,,アウロラ,0
1777,6180005020160,新規,0,2023-04-07,2023-04-07,学校法人ＳＯＬＡＮ学園,,その他の設立登記法人,愛知県,瀬戸市,道泉町７６番地１,,23,204,4890054,,,,,,,2023-04-07,1,,,,,ソランガクエン,0
1785,6190003004288,新規,0,2023-04-07,2023-04-07,合同会社Ｈｅｐｂｕｒｎ,,合同会社,三重県,四日市市,諏訪栄町４番１０号アピカビル３Ｆ,,24,202,5100086,,,,,,,2023-04-07,1,,,,,ヘプバーン,0
1789,6200001041158,新規,0,2023-04-07,2023-04-07,株式会社エストアリンク,,株式会社,岐阜県,土岐市,泉大坪町１丁目５番地,,21,212,5095151,,,,,,,2023-04-07,1,,,,,エストアリンク,0
1790,6200001041166,新規,0,2023-04-07,2023-04-07,株式会社小出組,,株式会社,岐阜県,多治見市,東山３丁目１１番地の１,,21,204,5070019,,,,,,,2023-04-07,1,,,,,コイデグミ,0
1792,6210001019277,新規,0,2023-04-07,2023-04-07,株式会社ＩＣ,,株式会社,福井県,坂井市,春江町中庄第４０号５番地１,,18,210,9190482,,,,,,,2023-04-07,1,,,,,アイシー,0
1796,6230001019779,新規,0,2023-04-07,2023-04-07,株式会社ユーネクト,,株式会社,富山県,南砺市,高宮５０４６,,16,210,9391741,,,,,,,2023-04-07,1,,,,,ユーネクト,0
1802,6240003006089,新規,0,2023-04-07,2023-04-07,合同会社きらぼしＳｔｕｄｙＯｎｌｉｎｅ,,合同会社,広島県,広島市安佐北区,可部東３丁目２８番１４号,,34,106,7310222,,,,,,,2023-04-07,1,,,,,キラボシスタディオンライン,0
1805,6260001037828,新規,0,2023-04-07,2023-04-07,株式会社ＴＵＲＮＳＴＩＬＥ,,株式会社,岡山県,岡山市北区,津島本町１番８－３号グラン津島１０１,,33,101,7000089,,,,,,,2023-04-07,1,,,,,ターンスタイル,0
1812,6290001101044,新規,0,2023-04-07,2023-04-07,喜多村ホールディングス株式会社,,株式会社,福岡県,久留米市,中央町１２番地の９,,40,203,8300023,,,,,,,2023-04-07,1,,,,,キタムラホールディングス,0
1813,6290001101110,新規,0,2023-04-07,2023-04-07,ＴＯＫＹＯ　ＥＮＥＲＧＹ株式会社,,株式会社,福岡県,飯塚市,筑穂元吉９３７－１９,,40,205,8200705,,,,,,,2023-04-07,1,,,,,トウキョウエネルギー,0
1823,6310005008670,新規,0,2023-04-07,2023-04-07,弁護士法人宮本篤法律事務所,,その他の設立登記法人,長崎県,長崎市,金屋町６番１０－１０１号,,42,201,8500037,,,,,,,2023-04-07,1,,,,,ミヤモトアツシホウリツジムショ,0
1830,6340005009575,新規,0,2023-04-07,2023-04-07,一般社団法人シマスキ,,その他の設立登記法人,鹿児島県,大島郡知名町,大字瀬利覚１３０１番地,,46,534,8919213,,,,,,,2023-04-07,1,,,,,シマスキ,0
1831,6350001018273,新規,0,2023-04-07,2023-04-07,ＴＫ警備株式会社,,株式会社,宮崎県,東諸県郡綾町,大字南俣１００８番地８,,45,383,8801303,,,,,,,2023-04-07,1,,,,,ティーケイケイビ,0
1832,6360001031812,新規,0,2023-04-07,2023-04-07,ＫＲＵＨＤ株式会社,,株式会社,沖縄県,浦添市,牧港４丁目１１番３号おきでん牧港ビル３Ｆ,,47,208,9012131,,,,,,,2023-04-07,1,,,,,ケイアールユーエイチディ,0
1833,6360001031820,新規,0,2023-04-07,2023-04-07,ＯＮＥスタイルレンタカー株式会社,,株式会社,沖縄県,中頭郡北谷町,北前１丁目１３－１、１階,,47,326,9040117,,,,,,,2023-04-07,1,,,,,ワンスタイルレンタカー,0
1834,6360005006819,新規,0,2023-04-07,2023-04-07,医療法人ユニバーサル矯正歯科クリニック,,その他の設立登記法人,沖縄県,中頭郡北谷町,美浜２丁目３番１号,,47,326,9040115,,,,,,,2023-04-07,1,,,,,ユニバーサルキョウセイシカクリニック,0
1842,6370003006068,新規,0,2023-04-07,2023-04-07,合同会社アドバンスエイト,,合同会社,宮城県,仙台市宮城野区,鶴巻１丁目２２番５０－６０１号,,04,102,9830024,,,,,,,2023-04-07,1,,,,,アドバンスエイト,0
1846,6380001033583,新規,0,2023-04-07,2023-04-07,株式会社プラテック相馬,,株式会社,福島県,相馬市,光陽２丁目２番地の４,,07,209,9760005,,,,,,,2023-04-07,1,,,,,プラテックソウマ,0
1847,6380001033600,新規,0,2023-04-07,2023-04-07,株式会社平成レンタリース新福島,,株式会社,福島県,いわき市,好間町中好間字八反田１３番地の３,,07,204,9701152,,,,,,,2023-04-07,1,,,,,ヘイセイレンタリースシンフクシマ,0
1849,6390001017206,新規,0,2023-04-07,2023-04-07,株式会社ＲＥＸ,,株式会社,山形県,長井市,歌丸１１４８番地１,,06,209,9930034,,,,,,,2023-04-07,1,,,,,レックス,0
1850,6390005009001,新規,0,2023-04-07,2023-04-07,一般社団法人サンロク,,その他の設立登記法人,山形県,酒田市,布目字後田１３番地の１,,06,204,9998158,,,,,,,2023-04-07,1,,,,,サンロク,0
1851,6400001016197,新規,0,2023-04-07,2023-04-07,株式会社ｆｌａｔ,,株式会社,岩手県,大船渡市,大船渡町字新田５０番地９,,03,203,0220002,,,,,,,2023-04-07,1,,,,,フラット,0
1854,6430001088754,新規,0,2023-04-07,2023-04-07,株式会社ヴァン・メティス,,株式会社,北海道,夕張郡栗山町,字継立９番地７,,01,429,0680353,,,,,,,2023-04-07,1,,,,,ヴァンメティス,0
1859,6430003014931,新規,0,2023-04-07,2023-04-07,ＭＲＳＣ合同会社,,合同会社,北海道,札幌市西区,宮の沢二条２丁目１０番２５－１０５号,,01,107,0630052,,,,,,,2023-04-07,1,,,,,エムアールエスシー,0
1860,6430005014681,新規,0,2023-04-07,2023-04-07,医療法人社団ふたば会,,その他の設立登記法人,北海道,千歳市,春日町３丁目３番１４号,,01,224,0660065,,,,,,,2023-04-07,1,,,,,フタバカイ,0
1861,6490003001759,新規,0,2023-04-07,2023-04-07,合同会社オネスト,,合同会社,高知県,南国市,下末松２９６番地５メゾンラポール３０５号室,,39,204,7830025,,,,,,,2023-04-07,1,,,,,オネスト,0
1862,6500001024867,新規,0,2023-04-07,2023-04-07,株式会社徳山工業,00129997,株式会社,愛媛県,松山市,土居田町６４１番地７,,38,201,7900056,,,,,,,2023-04-07,1,,,,,トクヤマコウギョウ,0
1869,6700150115216,新規,0,2023-04-07,2023-04-07,ｓｈｅｎｚｈｅｎｓｈｉｙｏｎｇｘｕａｎｄｉａｎｚｉｋｅｊｉｙｏｕｘｉａｎｇｏｎｇｓｉ,,外国会社等,,,,,,,,Ｌｏｎｇｇａｎｇ　Ｄｉｓｔｒｉｃｔ，Ｐｉｎｇｈｕ　Ｓｔｒｅｅｔ，Ｈｅｙｕａｎ　Ｃｏｍｍｕｎｉｔｙ，Ｎｏ．１６３　ｏｆ　Ｐｉｎｇｘｉｎｂｅｉ　Ｒｏａｄ，Ｇｕａｎｇｈｏｎｇｍｅｉｊｖ，Ｂｕｉｌｄｉｎｇ　Ｂ，１０１０ｒｏｏｍ　Ｓｈｅｎｚｈｅｎ　Ｇｕａｎｇｄｏｎｇ　５１８１１１　ＣＮ,,,,,,2023-04-07,1,,,,,シェンジェンシーヨンシュエンディエンズーコージーヨウシエンゴンスー,0
1870,6700150115224,新規,0,2023-04-07,2023-04-07,Ｄａｒａｎ　Ｎｅｗ　Ｅｎｅｒｇｙ　Ｔｅｃｈｎｏｌｏｇｙ　Ｈｏｎｇ　Ｋｏｎｇ　Ｃｏ．，Ｌｉｍｉｔｅｄ,,外国会社等,,,,,,,,Ｏｆｆｉｃｅ　Ｔｏｗｅｒ　２，Ｇｒａｎｄ　Ｐｌａｚａ，６２５　Ｎａｔｈａｎ　Ｒｏａｄ　Ｒｏｏｍ　１５０８，１５／Ｆ．，Ｋｏｗｌｏｏｎ　Ｈｏｎｇｋｏｎｇ　Ｃｈｉｎａ　９９９０７７,,,,,,2023-04-07,1,,,,,ダーランシンノンユエンジーシューシャンガンヨウシエンゴンスー,0
1874,7010001234135,新規,0,2023-04-07,2023-04-07,Ｂｅｎｓａｌｅｍ　Ｊａｐａｎ株式会社,,株式会社,東京都,千代田区,神田猿楽町２丁目８番１１号,,13,101,1010064,,,,,,,2023-04-07,1,,,,,ベンサレムジャパン,0
1875,7010001234176,新規,0,2023-04-07,2023-04-07,Ｇｌｏｃａｌ　Ｃｏｎｓｕｌｔｉｎｇ株式会社,,株式会社,東京都,中央区,銀座１丁目１２番４号Ｎ＆ＥＢＬＤ．６Ｆ,,13,102,1040061,,,,,,,2023-04-07,1,,,,,グローカルコンサルティング,0
1876,7010001234192,新規,0,2023-04-07,2023-04-07,東京海上ＨＣ事業設立準備株式会社,,株式会社,東京都,千代田区,大手町２丁目６番４号,,13,101,1000004,,,,,,,2023-04-07,1,,,,,トウキョウカイジョウエイチシージギョウセツリツジュンビ,0
1877,7010001234201,新規,0,2023-04-07,2023-04-07,コニカミノルタプリンティングシステム株式会社,,株式会社,東京都,千代田区,丸の内２丁目７番２号,,13,101,1000005,,,,,,,2023-04-07,1,,,,,コニカミノルタプリンティングシステム,0
1878,7010001234218,新規,0,2023-04-07,2023-04-07,株式会社ＢｉＴ＆Ｃｏｍｐａｎｙ,,株式会社,東京都,千代田区,神田錦町２丁目２番地１,,13,101,1010054,,,,,,,2023-04-07,1,,,,,ビットアンドカンパニー,0
1879,7010001234226,新規,0,2023-04-07,2023-04-07,コミュニティカード株式会社,,株式会社,東京都,中央区,日本橋室町１丁目１１番１２号日本橋水野ビル７階,,13,102,1030022,,,,,,,2023-04-07,1,,,,,コミュニティカード,0
1880,7010001234234,新規,0,2023-04-07,2023-04-07,株式会社ＦＯＲ,,株式会社,東京都,千代田区,九段南１丁目５番６号りそな九段ビル５ＦＫＳフロア,,13,101,1020074,,,,,,,2023-04-07,1,,,,,エフオーアール,0
1881,7010001234250,新規,0,2023-04-07,2023-04-07,株式会社ＳａＩＥ,,株式会社,東京都,中央区,銀座１丁目１２番４号Ｎ＆Ｅ・ＢＬＤ・６Ｆ,,13,102,1040061,,,,,,,2023-04-07,1,,,,,ザイエ,0
1882,7010001234259,新規,0,2023-04-07,2023-04-07,株式会社ａｎｔｅｎｎａ　ｋｉｔｃｈｅｎ,,株式会社,東京都,文京区,目白台２丁目９番１５号,,13,105,1120015,,,,,,,2023-04-07,1,,,,,アンテナキッチン,0
1884,7010003040226,新規,0,2023-04-07,2023-04-07,合同会社プライムソリューション,,合同会社,東京都,中央区,築地１丁目５－８－４０５,,13,102,1040045,,,,,,,2023-04-07,1,,,,,プライムソリューション,0
1885,7010003040242,新規,0,2023-04-07,2023-04-07,合同会社ねりもの,,合同会社,東京都,中央区,銀座１丁目２２番１１号銀座大竹ビジデンス２Ｆ,,13,102,1040061,,,,,,,2023-04-07,1,,,,,ネリモノ,0
1886,7010003040250,新規,0,2023-04-07,2023-04-07,合同会社ＨＩ,,合同会社,東京都,千代田区,内神田３丁目１９－７神田北口駅前ビル４階,,13,101,1010047,,,,,,,2023-04-07,1,,,,,エイチアイ,0
1887,7010005036461,新規,0,2023-04-07,2023-04-07,一般社団法人日本神経科学学会,,その他の設立登記法人,東京都,文京区,本郷７丁目２番２号,,13,105,1130033,,,,,,,2023-04-07,1,,,,,ニホンシンケイカガクガッカイ,0
1889,7010101015583,新規,0,2023-04-07,2023-04-07,株式会社エム・エイチ・エム,,株式会社,東京都,八王子市,弐分方町５２２番地,,13,201,1930822,,,,,,,2023-04-07,1,,,,,エムエイチエム,0
1896,7010401173511,新規,0,2023-04-07,2023-04-07,株式会社Ｃａｌｌｅｒｙｃｏｃｏ．,,株式会社,東京都,港区,赤坂９丁目１番７－７５２号,,13,103,1070052,,,,,,,2023-04-07,1,,,,,キャレリーココ,0
1897,7010401173536,新規,0,2023-04-07,2023-04-07,Ｗ＆Ｃ株式会社,,株式会社,東京都,港区,麻布台２丁目４番５号メソニック３９ＭＴビル,,13,103,1060041,,,,,,,2023-04-07,1,,,,,ウォールアンドケース,0
1898,7010401173544,新規,0,2023-04-07,2023-04-07,株式会社おてんとさん,,株式会社,東京都,港区,新橋１丁目１８番１３号,,13,103,1050004,,,,,,,2023-04-07,1,,,,,オテントサン,0
1899,7010401173585,新規,0,2023-04-07,2023-04-07,株式会社ポルトボヌール,,株式会社,東京都,港区,浜松町２丁目２番１５号浜松町ダイヤビル２Ｆ,,13,103,1050013,,,,,,,2023-04-07,1,,,,,ポルトボヌール,0
1902,7010403029851,新規,0,2023-04-07,2023-04-07,合同会社ＨｉＪｏＪｏ　Ｆｕｎｄ３３,,合同会社,東京都,港区,西新橋１丁目７番２号,,13,103,1050003,,,,,,,2023-04-07,1,,,,,ヒジョージョーファンドサンジュウサン,0
1903,7010403029868,新規,0,2023-04-07,2023-04-07,表参道合同会社,,合同会社,東京都,港区,新橋５丁目５番１号,,13,103,1050004,,,,,,,2023-04-07,1,,,,,オモテサンドウ,0
1904,7010403029884,新規,0,2023-04-07,2023-04-07,ＵＮＩＣＥ合同会社,,合同会社,東京都,港区,南青山３丁目１番３６号青山丸竹ビル６Ｆ,,13,103,1070062,,,,,,,2023-04-07,1,,,,,ユーナイス,0
1905,7010501050222,新規,0,2023-04-07,2023-04-07,Ｓｈｏｋｚ　Ｊａｐａｎ株式会社,,株式会社,東京都,台東区,上野３丁目１４－２－３０１室,,13,106,1100005,,,,,,,2023-04-07,1,,,,,ショックスジャパン,0
1908,7010803004495,新規,0,2023-04-07,2023-04-07,合同会社Ｒｅｓｔａｒｔ,,合同会社,東京都,大田区,西六郷２丁目３７番７号,,13,111,1440056,,,,,,,2023-04-07,1,,,,,リスタート,0
1911,7010901052842,新規,0,2023-04-07,2023-04-07,株式会社ユーグリーン・ジャパン,,株式会社,東京都,世田谷区,成城１丁目２６番９－２０５号,,13,112,1570066,,,,,,,2023-04-07,1,,,,,ユーグリーンジャパン,0
1912,7010903008074,新規,0,2023-04-07,2023-04-07,合同会社ミキ,,合同会社,東京都,世田谷区,梅丘１丁目１５番１１号＿：ベース２０６,00129984,13,112,1540022,,,,,,,2023-04-07,1,,,,,,0
1914,7011001153580,新規,0,2023-04-07,2023-04-07,株式会社ＡＭ　Ｃａｐｉｔａｌ,,株式会社,東京都,渋谷区,代官山町２０番９号,,13,113,1500034,,,,,,,2023-04-07,1,,,,,エーエムキャピタル,0
1915,7011001153589,新規,0,2023-04-07,2023-04-07,株式会社アンドレーベル,,株式会社,東京都,渋谷区,恵比寿４丁目６番１０号恵比寿ホークビル４階,,13,113,1500013,,,,,,,2023-04-07,1,,,,,アンドレーベル,0
1916,7011001153597,新規,0,2023-04-07,2023-04-07,株式会社マーシャルワーク,,株式会社,東京都,渋谷区,神宮前６丁目２３番４号桑野ビル２階,,13,113,1500001,,,,,,,2023-04-07,1,,,,,マーシャルワーク,0
1918,7011003016579,新規,0,2023-04-07,2023-04-07,合同会社ＧＯＡＴ　ＭＵＳＩＣ　ＰＲＯＤＵＣＴＩＯＮ,,合同会社,東京都,渋谷区,道玄坂１丁目１０番８号渋谷道玄坂東急ビル２Ｆ－Ｃ,,13,113,1500043,,,,,,,2023-04-07,1,,,,,ゴートミュージックプロダクション,0
1919,7011003016587,新規,0,2023-04-07,2023-04-07,スマートビット合同会社,,合同会社,東京都,渋谷区,本町５丁目２１番３号,,13,113,1510071,,,,,,,2023-04-07,1,,,,,スマートビット,0
1933,7011303004713,新規,0,2023-04-07,2023-04-07,合同会社Ａ　ｔｈｅ　ｍｅ．,,合同会社,東京都,杉並区,高円寺南３丁目７０番２号,,13,115,1660003,,,,,,,2023-04-07,1,,,,,,0
1937,7011503005552,新規,0,2023-04-07,2023-04-07,合同会社びすろん,,合同会社,東京都,北区,田端新町１丁目２４番６－８０３号,,13,117,1140012,,,,,,,2023-04-07,1,,,,,ビスロン,0
1939,7011601026707,新規,0,2023-04-07,2023-04-07,株式会社ｅＳｔｒｕｃｔｕｒｅ,,株式会社,東京都,練馬区,中村２丁目１６番３号,,13,120,1760024,,,,,,,2023-04-07,1,,,,,イーストラクチャー,0
1940,7011601026715,新規,0,2023-04-07,2023-04-07,株式会社ＴＡＭＡＫＡＮ,,株式会社,東京都,練馬区,豊玉中１丁目１６番６号シュガーハイム１Ｆ,,13,120,1760013,,,,,,,2023-04-07,1,,,,,タマカン,0
1941,7011603003877,新規,0,2023-04-07,2023-04-07,ノアコンサルティング合同会社,,合同会社,東京都,練馬区,谷原４丁目２０番１９号,,13,120,1770032,,,,,,,2023-04-07,1,,,,,ノアコンサルティング,0
1945,7011701026128,新規,0,2023-04-07,2023-04-07,株式会社掌,,株式会社,東京都,江戸川区,船堀３丁目９番１５号,,13,123,1340091,,,,,,,2023-04-07,1,,,,,ショウ,0
1947,7011801042181,新規,0,2023-04-07,2023-04-07,株式会社カミノト,,株式会社,東京都,葛飾区,立石２丁目２８番５－９０４号レックス立石レジデンス,,13,122,1240012,,,,,,,2023-04-07,1,,,,,カミノト,0
1948,7011803005590,新規,0,2023-04-07,2023-04-07,ＹＡＫＵＭＩ合同会社,,合同会社,東京都,足立区,小台２丁目２４―８,,13,121,1200046,,,,,,,2023-04-07,1,,,,,ヤクミ,0
1953,7012401040352,新規,0,2023-04-07,2023-04-07,ＫＷＣＬ株式会社,,株式会社,東京都,多摩市,落合１丁目４６‐１ココリア多摩センター７階,,13,224,2060033,,,,,,,2023-04-07,1,,,,,ケーダブルシーエル,0
1954,7012401040369,新規,0,2023-04-07,2023-04-07,株式会社Ｃｏｒｓｉｃａ,,株式会社,東京都,狛江市,中和泉３丁目３６番３－１０２号,,13,219,2010012,,,,,,,2023-04-07,1,,,,,コルシカ,0
1958,7012801022248,新規,0,2023-04-07,2023-04-07,株式会社バーチャルランド,,株式会社,東京都,立川市,錦町１丁目４番４号サニービル２階Ｃｓ－１６７,,13,202,1900022,,,,,,,2023-04-07,1,,,,,バーチャルランド,0
1961,7013301050565,新規,0,2023-04-07,2023-04-07,株式会社クリア,,株式会社,東京都,豊島区,南長崎４丁目２番１号角花３０１号,,13,116,1710052,,,,,,,2023-04-07,1,,,,,クリア,0
1962,7013303006565,新規,0,2023-04-07,2023-04-07,合同会社ろけファン,,合同会社,東京都,豊島区,南池袋２丁目４７番４号エミナス池袋８階,,13,116,1710022,,,,,,,2023-04-07,1,,,,,ロケファン,0
1963,7013305003461,新規,0,2023-04-07,2023-04-07,一般社団法人Ｃｌｅａｎｕｐ＆Ｃｏｆｆｅｅ　Ｃｌｕｂ,,その他の設立登記法人,東京都,豊島区,巣鴨３丁目２０番６－６０３号,,13,116,1700002,,,,,,,2023-04-07,1,,,,,クリーンナップコーヒクラブ,0
1968,7020001151016,新規,0,2023-04-07,2023-04-07,株式会社コスメブランシェ,,株式会社,神奈川県,川崎市幸区,新小倉２番７－１３３６号,,14,132,2120031,,,,,,,2023-04-07,1,,,,,コスメブランシェ,0
1971,7020003023659,新規,0,2023-04-07,2023-04-07,合同会社Ｔ．Ｍ建築,,合同会社,神奈川県,横浜市青葉区,市ケ尾町１０７５番地１５,,14,117,2250024,,,,,,,2023-04-07,1,,,,,ティエムケンチク,0
1972,7020003023667,新規,0,2023-04-07,2023-04-07,合同会社豊後,,合同会社,神奈川県,横浜市港北区,箕輪町２丁目１７番５号,,14,109,2230051,,,,,,,2023-04-07,1,,,,,ブンゴ,0
1973,7020003023700,新規,0,2023-04-07,2023-04-07,合同会社ＹＴＧＩ,,合同会社,神奈川県,横浜市西区,浅間町１丁目４番３号ウィザードビル４０２,,14,103,2200072,,,,,,,2023-04-07,1,,,,,ワイティージーアイ,0
1981,7030001153201,新規,0,2023-04-07,2023-04-07,株式会社トラスト,,株式会社,埼玉県,日高市,大字鹿山５２３番地２,,11,242,3501231,,,,,,,2023-04-07,1,,,,,トラスト,0
1986,7040001127823,新規,0,2023-04-07,2023-04-07,株式会社田口塾,,株式会社,千葉県,千葉市中央区,春日２丁目２５番地１号竹久ビル４階,,12,101,2600033,,,,,,,2023-04-07,1,,,,,タグチジュク,0
1987,7040001127856,新規,0,2023-04-07,2023-04-07,株式会社ＢＲＡＶＥ,,株式会社,千葉県,松戸市,栄町８丁目６５８番地の７,,12,207,2710062,,,,,,,2023-04-07,1,,,,,ブレイブ,0
1988,7040003022337,新規,0,2023-04-07,2023-04-07,合同会社マイケル,,合同会社,千葉県,成田市,西三里塚２５８番地２,,12,211,2860115,,,,,,,2023-04-07,1,,,,,マイケル,0
1989,7040003022353,新規,0,2023-04-07,2023-04-07,合同会社しげる薬局,,合同会社,千葉県,夷隅郡御宿町,浜１６９９番地２,,12,443,2995107,,,,,,,2023-04-07,1,,,,,シゲルヤッキョク,0
1990,7040003022361,新規,0,2023-04-07,2023-04-07,合同会社ケーアイ,,合同会社,千葉県,いすみ市,大原台４１９－７,,12,238,2980014,,,,,,,2023-04-07,1,,,,,ケーアイ,0
1993,7050001052616,新規,0,2023-04-07,2023-04-07,株式会社越田水産,,株式会社,茨城県,神栖市,波崎８２３３番地９,,08,232,3140408,,,,,,,2023-04-07,1,,,,,コシダスイサン,0
1994,7050001052632,新規,0,2023-04-07,2023-04-07,株式会社輝心,,株式会社,茨城県,笠間市,下郷４１３６番地１４,,08,216,3190202,,,,,,,2023-04-07,1,,,,,キシン,0
1996,7050003007386,新規,0,2023-04-07,2023-04-07,ＴＥＮ合同会社,,合同会社,茨城県,水戸市,米沢町３５－５,,08,201,3100847,,,,,,,2023-04-07,1,,,,,テン,0
1998,7060001035850,新規,0,2023-04-07,2023-04-07,株式会社ＥＡＳＴ　ＧＡＴＥ,,株式会社,栃木県,佐野市,若宮下町１０番地１８,,09,204,3270834,,,,,,,2023-04-07,1,,,,,イーストゲート,0
1999,7060001035859,新規,0,2023-04-07,2023-04-07,株式会社ファンロジック,,株式会社,栃木県,宇都宮市,宝木本町１１４６番地９５,,09,201,3200075,,,,,,,2023-04-07,1,,,,,ファンロジック,0
2002,7060005010073,新規,0,2023-04-07,2023-04-07,医療法人美秀会,,その他の設立登記法人,栃木県,足利市,江川町２丁目１２番地８,,09,202,3260067,,,,,,,2023-04-07,1,,,,,ビシュウカイ,0
2004,7070003004885,新規,0,2023-04-07,2023-04-07,ＲＰＪ‐Ｍ２Ｃ合同会社,,合同会社,群馬県,高崎市,日高町５２０番地１１号,,10,202,3700002,,,,,,,2023-04-07,1,,,,,アールピージェイエムツーシー,0
2006,7080001025544,新規,0,2023-04-07,2023-04-07,西東ホールディングス株式会社,,株式会社,静岡県,島田市,金谷東１丁目１２３５番地の１,,22,209,4280013,,,,,,,2023-04-07,1,,,,,サイトウホールディングス,0
2008,7080101023893,新規,0,2023-04-07,2023-04-07,ＫＯプランニング株式会社,,株式会社,静岡県,富士宮市,上井出２５２７番地の１,,22,207,4180103,,,,,,,2023-04-07,1,,,,,ケーオープランニング,0
2011,7080401026423,新規,0,2023-04-07,2023-04-07,株式会社わくわくｂｉｚ,,株式会社,静岡県,浜松市南区,卸本町１９番地,,22,134,4328055,,,,,,,2023-04-07,1,,,,,ワクワクビズ,0
2015,7100001036299,新規,0,2023-04-07,2023-04-07,株式会社ｕｎｆｌｕｋｅ,,株式会社,長野県,諏訪郡下諏訪町,６１８２番地４,,20,361,3930000,,,,,,,2023-04-07,1,,,,,アンフルーク,0
2019,7100003006952,新規,0,2023-04-07,2023-04-07,合同会社オリーヴ,,合同会社,長野県,飯田市,毛賀１６２７番地,,20,205,3950813,,,,,,,2023-04-07,1,,,,,オリーヴ,0
2029,7110003005020,新規,0,2023-04-07,2023-04-07,妙高高原ホスピタリティ合同会社,,合同会社,新潟県,妙高市,大字杉野沢字高野２９１番地１妙高杉ノ原スキー場内,,15,217,9492113,,,,,,,2023-04-07,1,,,,,ミョウコウコウゲンホスピタリティ,0
2030,7110005016916,新規,0,2023-04-07,2023-04-07,特定非営利活動法人新潟県ＩＴコーディネータ協会,,その他の設立登記法人,新潟県,新潟市西区,寺尾東２丁目１１番２０号,,15,107,9502054,,,,,,,2023-04-07,1,,,,,ニイガタケンアイティーコーディネータキョウカイ,0
2037,7120001253727,新規,0,2023-04-07,2023-04-07,株式会社ＫＩＺＵＮＡ　ｆｏｏｄｓ,,株式会社,大阪府,大阪市中央区,久太郎町２丁目５番２８号,,27,128,5410056,,,,,,,2023-04-07,1,,,,,キズナフーズ,0
2038,7120003023772,新規,0,2023-04-07,2023-04-07,Ｋｏｈ＆Ａｓｓｏｃｉａｔｅｓ合同会社,,合同会社,大阪府,大阪市北区,豊崎３丁目１６番１６－１１０１号,,27,127,5310072,,,,,,,2023-04-07,1,,,,,コーアンドアソシエイツ,0
2043,7120101067291,新規,0,2023-04-07,2023-04-07,株式会社ＫＩＥＩ,,株式会社,大阪府,南河内郡太子町,大字太子１０３１番地の７,,27,381,5830995,,,,,,,2023-04-07,1,,,,,キエイ,0
2044,7120103005150,新規,0,2023-04-07,2023-04-07,合同会社Ａｃｔｉｏｎ,,合同会社,大阪府,泉佐野市,日根野１４７３番地の６,,27,213,5980021,,,,,,,2023-04-07,1,,,,,アクション,0
2046,7120901047360,新規,0,2023-04-07,2023-04-07,株式会社キムラ設備,,株式会社,大阪府,池田市,荘園１丁目９番２２－１０号,,27,204,5630038,,,,,,,2023-04-07,1,,,,,キムラセツビ,0
2049,7120903004574,新規,0,2023-04-07,2023-04-07,合同会社ＫＲＳ,,合同会社,大阪府,吹田市,吹東町１番２５－３号,,27,205,5640014,,,,,,,2023-04-07,1,,,,,ケイアールエス,0
2052,7122003002558,新規,0,2023-04-07,2023-04-07,合同会社Ｃｕｒａｒ‐Ｃ．Ｏ．Ｄ．Ａ,,合同会社,大阪府,八尾市,恩智中町１丁目５３番地,,27,212,5810883,,,,,,,2023-04-07,1,,,,,クラルコーダ,0
2057,7130001074057,新規,0,2023-04-07,2023-04-07,中央生コン販売株式会社,,株式会社,京都府,京都市下京区,材木町４９９－２第一キョートビル８０２号室,,26,106,6008146,,,,,,,2023-04-07,1,,,,,チュウオウナマコンハンバイ,0
2061,7130003008632,新規,0,2023-04-07,2023-04-07,合同会社ノース,,合同会社,京都府,宇治市,大久保町山ノ内４８番地,,26,204,6110033,,,,,,,2023-04-07,1,,,,,ノース,0
2071,7140001129644,新規,0,2023-04-07,2023-04-07,株式会社Ｙ‐ＦＬＯＷ，Ｓ,,株式会社,兵庫県,尼崎市,元浜町４丁目２３番地の２ＵＳＭＯＲＥ元浜３号,,28,202,6600085,,,,,,,2023-04-07,1,,,,,ワイフローズ,0
2072,7140003018928,新規,0,2023-04-07,2023-04-07,合同会社フラモンローズ,,合同会社,兵庫県,洲本市,五色町広石下４８番地３,,28,205,6561335,,,,,,,2023-04-07,1,,,,,フラモンローズ,0
2073,7140003018936,新規,0,2023-04-07,2023-04-07,合同会社Ｒｅｎ,,合同会社,兵庫県,西宮市,浜町２番３５クレアフォート西宮・酒蔵通り８１１号,,28,204,6620942,,,,,,,2023-04-07,1,,,,,レン,0
2074,7140005026557,新規,0,2023-04-07,2023-04-07,税理士法人笹倉会計事務所,,その他の設立登記法人,兵庫県,神戸市中央区,磯上通８丁目１番１号テツケンビル６Ｆ,,28,110,6510086,,,,,,,2023-04-07,1,,,,,ササクラカイケイジムショ,0
2076,7160001024942,新規,0,2023-04-07,2023-04-07,アイコール株式会社,,株式会社,滋賀県,東近江市,上羽田町１５３６番地,,25,213,5270082,,,,,,,2023-04-07,1,,,,,アイコール,0
2077,7160003002839,新規,0,2023-04-07,2023-04-07,合同会社Ａｒｃｏｂａｌｅｎｏ,,合同会社,滋賀県,大津市,茶が崎６番１－９１５号,,25,201,5200023,,,,,,,2023-04-07,1,,,,,アルコバレーノ,0
2082,7180001155678,新規,0,2023-04-07,2023-04-07,Ｏｆｆｉｃｅ　Ｉ’ｓ株式会社,,株式会社,愛知県,名古屋市中区,新栄２丁目１番２５号ＮＲ新栄８０２号,,23,106,4600007,,,,,,,2023-04-07,1,,,,,オフィスアイズ,0
2083,7180001155686,新規,0,2023-04-07,2023-04-07,株式会社総和塗建,,株式会社,愛知県,名古屋市南区,白雲町５６番地ダイアパレス笠寺公園３０１号,,23,112,4570025,,,,,,,2023-04-07,1,,,,,ソウワトケン,0
2084,7180001155711,新規,0,2023-04-07,2023-04-07,株式会社サンゲール,,株式会社,愛知県,名古屋市中区,錦２丁目７番７号,,23,106,4600003,,,,,,,2023-04-07,1,,,,,サンゲール,0
2085,7180001155728,新規,0,2023-04-07,2023-04-07,株式会社エムアール,,株式会社,愛知県,あま市,篠田森後９７番地,,23,237,4901211,,,,,,,2023-04-07,1,,,,,エムアール,0
2086,7180001155736,新規,0,2023-04-07,2023-04-07,株式会社ＡＲＡＳＡ,,株式会社,愛知県,知多郡南知多町,大字豊浜字月之浦１番地の２,,23,445,4703412,,,,,,,2023-04-07,1,,,,,アラサ,0
2087,7180001155744,新規,0,2023-04-07,2023-04-07,株式会社ＶＥＲＤＡＤ,,株式会社,愛知県,名古屋市西区,則武新町３丁目６－１２エステムコート名古屋ルノン１４０２号,,23,104,4510051,,,,,,,2023-04-07,1,,,,,ヴェルダッド,0
2088,7180003025061,新規,0,2023-04-07,2023-04-07,合同会社ＣＨ‐Ｒ,,合同会社,愛知県,北名古屋市,西之保南出４４番地Ｌ西春アーティスフォート９０３号室,,23,234,4810033,,,,,,,2023-04-07,1,,,,,シーエイチアール,0
2090,7180005020168,新規,0,2023-04-07,2023-04-07,一般社団法人日本水中技術振興会,,その他の設立登記法人,愛知県,名古屋市港区,入船２丁目２番７号,,23,111,4550032,,,,,,,2023-04-07,1,,,,,ニホンスイチュウギジュツシンコウカイ,0
2091,7180301037246,新規,0,2023-04-07,2023-04-07,株式会社ＡＬＴＲＵＩＳＭ,,株式会社,愛知県,高浜市,碧海町３丁目３番地６,,23,227,4441324,,,,,,,2023-04-07,1,,,,,アルトリズム,0
2095,7200001041149,新規,0,2023-04-07,2023-04-07,万由電設株式会社,,株式会社,岐阜県,多治見市,滝呂町１２丁目１４８番地の１２８７,,21,204,5070813,,,,,,,2023-04-07,1,,,,,バンユウデンセツ,0
2102,7220003003491,新規,0,2023-04-07,2023-04-07,合同会社一二三,,合同会社,石川県,金沢市,片町１丁目３番１０号（ファーストレーベン竪町・５０１号）,,17,201,9200981,,,,,,,2023-04-07,1,,,,,,0
2106,7230001019778,新規,0,2023-04-07,2023-04-07,株式会社ＺＥＲＯ‐ＯＮＥ,,株式会社,富山県,高岡市,赤祖父７６０番地グランデュール山田Ａ,,16,202,9330806,,,,,,,2023-04-07,1,,,,,ゼロワン,0
2107,7240001061291,新規,0,2023-04-07,2023-04-07,広島冷凍輸送株式会社,,株式会社,広島県,廿日市市,原１２６７番地５８,,34,213,7380031,,,,,,,2023-04-07,1,,,,,ヒロシマレイトウユソウ,0
2112,7250001020049,新規,0,2023-04-07,2023-04-07,株式会社藤沢塗装,,株式会社,山口県,宇部市,則貞５丁目１２番５３号,,35,202,7550003,,,,,,,2023-04-07,1,,,,,フジサワトソウ,0
2122,7270001008752,新規,0,2023-04-07,2023-04-07,株式会社芋代官,,株式会社,鳥取県,米子市,錦町３丁目６８番地６,,31,202,6830811,,,,,,,2023-04-07,1,,,,,イモダイカン,0
2123,7280001008909,新規,0,2023-04-07,2023-04-07,株式会社トラスト不動産,,株式会社,島根県,出雲市,斐川町黒目１２１３番地,,32,203,6990553,,,,,,,2023-04-07,1,,,,,トラストフドウサン,0
2130,7290001101126,新規,0,2023-04-07,2023-04-07,志強産業株式会社,,株式会社,福岡県,福岡市西区,小戸３丁目５０番１－２０３号ホワイトパレス姪浜,,40,135,8190001,,,,,,,2023-04-07,1,,,,,シキョウサンギョウ,0
2136,7290005019001,新規,0,2023-04-07,2023-04-07,一般社団法人ナチュラルキャピタルクレジットコンソーシアム,,その他の設立登記法人,福岡県,福岡市西区,大字元岡７４４九州大学都市研究センター（工学研究院内）,,40,135,8190385,,,,,,,2023-04-07,1,,,,,ナチュラルキャピタルクレジットコンソーシアム,0
2143,7330005010640,新規,0,2023-04-07,2023-04-07,一般社団法人ヒルトップインターナショナルスクール,,その他の設立登記法人,熊本県,熊本市北区,龍田陳内２丁目３１番１８号,,43,105,8618005,,,,,,,2023-04-07,1,,,,,ヒルトップインターナショナルスクール,0
2146,7360003012867,新規,0,2023-04-07,2023-04-07,ＬＵＸＥ　ＰＲＯＰＥＲＴＩＥＳ合同会社,,合同会社,沖縄県,中頭郡北中城村,字島袋２４０番地５,,47,327,9012301,,,,,,,2023-04-07,1,,,,,ラクスプロパティーズ,0
2150,7370001049778,新規,0,2023-04-07,2023-04-07,株式会社東北マシニングサポート,,株式会社,宮城県,名取市,名取が丘１丁目１４番１１号,,04,207,9811235,,,,,,,2023-04-07,1,,,,,トウホクマシニングサポート,0
2153,7370003006059,新規,0,2023-04-07,2023-04-07,彩心合同会社,,合同会社,宮城県,仙台市青葉区,昭和町５番２３号,,04,101,9810913,,,,,,,2023-04-07,1,,,,,イロハ,0
2154,7370003006067,新規,0,2023-04-07,2023-04-07,Ｅ・Ｓ・Ｔｒｙ合同会社,,合同会社,宮城県,仙台市泉区,南光台３丁目２８番９号,,04,105,9818003,,,,,,,2023-04-07,1,,,,,イーエストライ,0
2155,7370005010612,新規,0,2023-04-07,2023-04-07,特定非営利活動法人リフ超学校,,その他の設立登記法人,宮城県,宮城郡利府町,中央１丁目２番地６ソレイユ利府中央１０１,,04,406,9810104,,,,,,,2023-04-07,1,,,,,リフチョウガッコウ,0
2159,7380005012698,新規,0,2023-04-07,2023-04-07,医療法人倖和会,,その他の設立登記法人,福島県,郡山市,安積町荒井字北大部１番地の１２,,07,203,9630111,,,,,,,2023-04-07,1,,,,,コウワカイ,0
2160,7390001017205,新規,0,2023-04-07,2023-04-07,株式会社ＳＡＮＳＥＩ,,株式会社,山形県,鶴岡市,羽黒町手向字百々目木７３番１１６,,06,203,9970211,,,,,,,2023-04-07,1,,,,,サンセイ,0
2161,7400001016196,新規,0,2023-04-07,2023-04-07,岩渕建設工業株式会社,,株式会社,岩手県,陸前高田市,小友町字松山前４９番地,,03,210,0292207,,,,,,,2023-04-07,1,,,,,イワブチケンセツコウギョウ,0
2162,7400003003060,新規,0,2023-04-07,2023-04-07,ウォームハート合同会社,,合同会社,岩手県,滝沢市,砂込８７９番地４,,03,216,0200605,,,,,,,2023-04-07,1,,,,,ウォームハート,0
2164,7420003002696,新規,0,2023-04-07,2023-04-07,合同会社オフィスセンカワ,,合同会社,青森県,青森市,新町２丁目２－１１東奥日報新町ビル２Ｆ　ｓｅｖｅｎＣ’ｓ,,02,201,0300801,,,,,,,2023-04-07,1,,,,,,0
2167,7430001088778,新規,0,2023-04-07,2023-04-07,株式会社スペリオル,,株式会社,北海道,札幌市北区,新川西三条６丁目９番４号,,01,102,0010933,,,,,,,2023-04-07,1,,,,,スペリオル,0
2169,7430005014689,新規,0,2023-04-07,2023-04-07,弁護士法人ＡＮＳＷＥＲＺ,,その他の設立登記法人,北海道,札幌市中央区,北二条西１０丁目２番地７Ｗａｌｌ４０２,,01,101,0600002,,,,,,,2023-04-07,1,,,,,アンサーズ,0
2170,7440001009238,新規,0,2023-04-07,2023-04-07,株式会社ワイケー,,株式会社,北海道,亀田郡七飯町,字中島１５２番地５,,01,337,0411133,,,,,,,2023-04-07,1,,,,,ワイケー,0
2172,7460305001995,新規,0,2023-04-07,2023-04-07,非営利型一般社団法人アニウェル北海道,,その他の設立登記法人,北海道,北見市,北進町４丁目４番６号,,01,208,0900052,,,,,,,2023-04-07,1,,,,,ヒエイリガタアニウェルホッカイドウ,0
2173,7460405000542,新規,0,2023-04-07,2023-04-07,弁護士法人根室法律事務所,,その他の設立登記法人,北海道,根室市,本町４丁目６４番地神戸屋ビル３階,,01,223,0870053,,,,,,,2023-04-07,1,,,,,ネムロホウリツジムショ,0
2175,7470003002386,新規,0,2023-04-07,2023-04-07,合同会社松家溶接工業,,合同会社,香川県,さぬき市,小田１０８６番地２,,37,206,7692103,,,,,,,2023-04-07,1,,,,,マツカヨウセツコウギョウ,0
2178,7480003001965,新規,0,2023-04-07,2023-04-07,パンシオン合同会社,,合同会社,徳島県,徳島市,中常三島町３丁目１１番地の１,,36,201,7700813,,,,,,,2023-04-07,1,,,,,パンシオン,0
2181,7500001024858,新規,0,2023-04-07,2023-04-07,株式会社ＬＵＭＩＮＯＵＳ　ＯＮＥ,,株式会社,愛媛県,松山市,鷹子町９７１－２,,38,201,7900925,,,,,,,2023-04-07,1,,,,,ルミナスワン,0
2182,7500001024866,新規,0,2023-04-07,2023-04-07,株式会社柑高地,,株式会社,愛媛県,八幡浜市,大平１番耕地３０２番地１,,38,204,7960003,,,,,,,2023-04-07,1,,,,,カンコウチ,0
2186,7700150115215,新規,0,2023-04-07,2023-04-07,Ｓｈｅｎｚｈｅｎ　Ｆｅｉｂｏ　Ｔｅｃｈｎｏｌｏｇｙ　Ｃｏ．，Ｌｔｄ．,,外国会社等,,,,,,,,４０５，Ｄｏｎｇｘｕ　Ｂｕｉｌｄｉｎｇ，Ｎｏ．４，Ｍｉｎｈｕａｎ　Ｒｏａｄ，Ｆｕｋａｎｇ　Ｃｏｍｍｕｎｉｔｙ，Ｌｏｎｇｈｕａ　Ｓｔｒｅｅｔ，Ｌｏｎｇｈｕａ　Ｄｉｓｔｒｉｃｔ，Ｓｈｅｎｚｈｅｎ,,,,,,2023-04-07,1,,,,,シェンジェンシーフェイボーコージーヨウシエンゴンスー,0
2187,7700150115223,新規,0,2023-04-07,2023-04-07,Ｑｕａｎｚｈｏｕ　Ｇｕｉｘｉａｎｇ　Ａｄｖｅｒｔｉｓｉｎｇ　Ｃｏ．，Ｌｔｄ．,,外国会社等,,,,,,,,Ｃ＃－２０２　Ｒｏｏｍ　Ｍｏｓｑｕｉｔｏ　Ｉｎｃｅｎｓｅ　Ｆａｃｔｏｒｙ　Ｄｏｒｍｉｔｏｒｙ　Ｆｏｏｄ　ｓｔｒｅｅｔ，Ｌｉｃｈｅｎｇ　Ｄｉｓｔｒｉｃｔ　Ｑｕａｎｚｈｏｕ，Ｆｕｊｉａｎ　Ｐｒｏｖｉｎｃｅ，Ｃｈｉｎａ,,,,,,2023-04-07,1,,,,,チュエンジョウグイシャングワンガオヨウシエンゴンスー,0
2191,8010001234126,新規,0,2023-04-07,2023-04-07,株式会社ＱＦＳｊａｐａｎ,,株式会社,東京都,千代田区,麹町４丁目５番２０号ＫＳビル８階,,13,101,1020083,,,,,,,2023-04-07,1,,,,,キューエフエスジャパン,0
2192,8010001234134,新規,0,2023-04-07,2023-04-07,株式会社Ｌｉｎｏ　Ｏｒｃａ,,株式会社,東京都,中央区,銀座１丁目２２番１１号銀座大竹ビジデンス２Ｆ,,13,102,1040061,,,,,,,2023-04-07,1,,,,,リノオルカ,0
2193,8010001234142,新規,0,2023-04-07,2023-04-07,株式会社ＯＭＣＳ,,株式会社,東京都,中央区,銀座７丁目１５番８号タウンハイツ銀座４０６,,13,102,1040061,,,,,,,2023-04-07,1,,,,,オーエムシーエス,0
2194,8010001234183,新規,0,2023-04-07,2023-04-07,株式会社ＯＳナノテクノロジー,,株式会社,東京都,千代田区,丸の内１丁目８番３号,,13,101,1000005,,,,,,,2023-04-07,1,,,,,オーエスナノテクノロジー,0
2195,8010001234191,新規,0,2023-04-07,2023-04-07,株式会社大和研究所,,株式会社,東京都,千代田区,大手町１丁目７番２号東京サンケイビル２７階,,13,101,1000004,,,,,,,2023-04-07,1,,,,,ヤマトケンキュウジョ,0
2196,8010001234209,新規,0,2023-04-07,2023-04-07,ＨＪプラチナメタルズ株式会社,,株式会社,東京都,中央区,築地１丁目１３番１号,,13,102,1040045,,,,,,,2023-04-07,1,,,,,エイチジェイプラチナメタルズ,0
2197,8010001234233,新規,0,2023-04-07,2023-04-07,株式会社Ａｒｃｈｉｎｅｓ,,株式会社,東京都,中央区,銀座１丁目２２番１１号銀座大竹ビジデンス２Ｆ,,13,102,1040061,,,,,,,2023-04-07,1,,,,,アルキネス,0
2198,8010001234241,新規,0,2023-04-07,2023-04-07,株式会社リソースフルデザイン,,株式会社,東京都,千代田区,神田錦町３丁目２１番ちよだプラットフォームスクウェア１０９５号,,13,101,1010054,,,,,,,2023-04-07,1,,,,,リソースフルデザイン,0
2199,8010001234258,新規,0,2023-04-07,2023-04-07,株式会社Ａｓｐｉｒａｔｉｏｎ,,株式会社,東京都,中央区,銀座１丁目１２番４号Ｎ＆ＥＢＬＤ．７階,,13,102,1040061,,,,,,,2023-04-07,1,,,,,アスピレーション,0
2202,8010003040241,新規,0,2023-04-07,2023-04-07,リクルート・ブラザーズ合同会社,,合同会社,東京都,中央区,新川２丁目１０番１－１４０９号,,13,102,1040033,,,,,,,2023-04-07,1,,,,,リクルートブラザーズ,0
2204,8010005036452,新規,0,2023-04-07,2023-04-07,税理士法人いぶき,,その他の設立登記法人,東京都,千代田区,神田神保町１丁目７番地１０ベルグランツ神田神保町ビル８階,,13,101,1010051,,,,,,,2023-04-07,1,,,,,イブキ,0
2205,8010005036460,新規,0,2023-04-07,2023-04-07,一般社団法人資源循環プロバイダ,,その他の設立登記法人,東京都,文京区,千駄木３丁目３１番９号ヴェルデ千駄木２１０,,13,105,1130022,,,,,,,2023-04-07,1,,,,,シゲンジュンカンプロバイダ,0
2206,8010005036469,新規,0,2023-04-07,2023-04-07,一般社団法人ＤＣ推進機構,,その他の設立登記法人,東京都,中央区,日本橋本町３丁目９番４号,,13,102,1030023,,,,,,,2023-04-07,1,,,,,ディシースイシンキコウ,0
2217,8010401173452,新規,0,2023-04-07,2023-04-07,瑞鼎株式会社,,株式会社,東京都,港区,新橋４丁目３１番３号第３名和ビル４０６号室,,13,103,1050004,,,,,,,2023-04-07,1,,,,,ズイテイ,0
2218,8010401173469,新規,0,2023-04-07,2023-04-07,Ａｉｎｎｏｃａｒｅ株式会社,,株式会社,東京都,港区,六本木７丁目１２番２号Ｒ７ビルディング,,13,103,1060032,,,,,,,2023-04-07,1,,,,,アイノケア,0
2219,8010401173493,新規,0,2023-04-07,2023-04-07,オープンラボ株式会社,,株式会社,東京都,港区,浜松町２丁目２番１５号浜松町ダイヤビル２Ｆ,,13,103,1050013,,,,,,,2023-04-07,1,,,,,オープンラボ,0
2220,8010401173519,新規,0,2023-04-07,2023-04-07,Ｔｅｒｒａ　Ｃｏｎｓｔｒｕｃｔｉｏｎ株式会社,,株式会社,東京都,港区,新橋２丁目１６番１号,,13,103,1050004,,,,,,,2023-04-07,1,,,,,テラコンストラクション,0
2221,8010401173543,新規,0,2023-04-07,2023-04-07,Ｏｌｌｙ株式会社,,株式会社,東京都,港区,南麻布１丁目５番１－６０３号,,13,103,1060047,,,,,,,2023-04-07,1,,,,,オリー,0
2227,8010403029867,新規,0,2023-04-07,2023-04-07,合同会社川奈ホールディング,,合同会社,東京都,港区,新橋５丁目５番１号,,13,103,1050004,,,,,,,2023-04-07,1,,,,,カワナホールディング,0
2230,8010501050238,新規,0,2023-04-07,2023-04-07,イー株式会社,,株式会社,東京都,台東区,日本堤１丁目１８番４号,,13,106,1110021,,,,,,,2023-04-07,1,,,,,イー,0
2232,8010701044072,新規,0,2023-04-07,2023-04-07,株式会社Ｆｌｉｓｔ　Ｔｅｃｈｎｏｌｏｇｙ,,株式会社,東京都,品川区,西五反田１丁目２６番２号五反田サンハイツ９１１,,13,109,1410031,,,,,,,2023-04-07,1,,,,,フリストテクノロジー,0
2233,8010705003495,新規,0,2023-04-07,2023-04-07,一般社団法人サイバーセキュリティ連盟,,その他の設立登記法人,東京都,品川区,上大崎３丁目１番１号,,13,109,1410021,,,,,,,2023-04-07,1,,,,,サイバーセキュリティレンメイ,0
2235,8010801033826,新規,0,2023-04-07,2023-04-07,アーバンフレッシュ株式会社,,株式会社,東京都,大田区,京浜島１丁目４番３号ＭＫＢ京浜島物流センター２階,,13,111,1430003,,,,,,,2023-04-07,1,,,,,アーバンフレッシュ,0
2236,8010803004503,新規,0,2023-04-07,2023-04-07,合同会社グビー,,合同会社,東京都,大田区,蒲田３丁目１３番１４号,,13,111,1440052,,,,,,,2023-04-07,1,,,,,グビー,0
2238,8010901052825,新規,0,2023-04-07,2023-04-07,ＤＯＧ　ＯＵＴＦＩＴＴＥＲＳ株式会社,,株式会社,東京都,世田谷区,深沢４丁目３１番２２号,,13,112,1580081,,,,,,,2023-04-07,1,,,,,,0
2239,8010901052833,新規,0,2023-04-07,2023-04-07,株式会社千雲,,株式会社,東京都,世田谷区,代沢３丁目１６番１５号,,13,112,1550032,,,,,,,2023-04-07,1,,,,,チクモ,0
2244,8011001153596,新規,0,2023-04-07,2023-04-07,ｍｕｓｉｃ＆ｅｄｉｔ株式会社,,株式会社,東京都,渋谷区,神宮前６丁目２３番４号桑野ビル２階,,13,113,1500001,,,,,,,2023-04-07,1,,,,,ミュージックアンドエディット,0
2245,8011001153605,新規,0,2023-04-07,2023-04-07,株式会社チブレイ,,株式会社,東京都,渋谷区,道玄坂１丁目１０番８号渋谷道玄坂東急ビル２Ｆ－Ｃ,,13,113,1500043,,,,,,,2023-04-07,1,,,,,チブレイ,0
2249,8011003016578,新規,0,2023-04-07,2023-04-07,Ｍ＆Ｎ合同会社,,合同会社,東京都,渋谷区,千駄ヶ谷４丁目１２番２号,,13,113,1510051,,,,,,,2023-04-07,1,,,,,エムアンドエヌ,0
2251,8011005010018,新規,0,2023-04-07,2023-04-07,一般社団法人ストリートライフ・メイカーズ,,その他の設立登記法人,東京都,渋谷区,代々木２丁目２３番１号３０７号室,,13,113,1510053,,,,,,,2023-04-07,1,,,,,ストリートライフメイカーズ,0
2254,8011101102395,新規,0,2023-04-07,2023-04-07,ポートエンジニアリング株式会社,,株式会社,東京都,新宿区,北新宿２丁目２１番１号新宿フロントタワー５階,,13,104,1690074,,,,,,,2023-04-07,1,,,,,ポートエンジニアリング,0
2255,8011101102412,新規,0,2023-04-07,2023-04-07,株式会社アガリスクエンターテイメント,,株式会社,東京都,新宿区,西新宿３丁目３番１３号西新宿水間ビル６階,,13,104,1600023,,,,,,,2023-04-07,1,,,,,アガリスクエンターテイメント,0
2260,8011301028589,新規,0,2023-04-07,2023-04-07,株式会社ハナビラタケジャパン,,株式会社,東京都,杉並区,成田西２丁目１１番７号,,13,115,1660016,,,,,,,2023-04-07,1,,,,,ハナビラタケジャパン,0
2261,8011303004712,新規,0,2023-04-07,2023-04-07,ぺんたぐらんま合同会社,,合同会社,東京都,杉並区,高円寺北１丁目２０番７号高北ハイツ４０１,,13,115,1660002,,,,,,,2023-04-07,1,,,,,ペンタグランマ,0
2262,8011303004720,新規,0,2023-04-07,2023-04-07,Ａｎａｌｏｇｉｃｏ　ｅ　ｄｉｇｉｔａｌｅ合同会社,,合同会社,東京都,杉並区,桃井３丁目７番３－８０８号プロムナード荻窪,,13,115,1670034,,,,,,,2023-04-07,1,,,,,アナロジコイデジターレ,0
2265,8011503005551,新規,0,2023-04-07,2023-04-07,合同会社建輝匠工,,合同会社,東京都,荒川区,荒川３丁目６５－１１木村ビル３階,,13,118,1160002,,,,,,,2023-04-07,1,,,,,ケンキショウコウ,0
2266,8011603003884,新規,0,2023-04-07,2023-04-07,Ｙ・Ｌ・Ｊ合同会社,,合同会社,東京都,練馬区,桜台１丁目７番７－４０５号,,13,120,1760002,,,,,,,2023-04-07,1,,,,,ワイエルジェイ,0
2268,8011801042180,新規,0,2023-04-07,2023-04-07,株式会社ヒューマンサポート・クオーレ,,株式会社,東京都,足立区,西新井３丁目３番２１号石渡ビル１階,,13,121,1230841,,,,,,,2023-04-07,1,,,,,ヒューマンサポートクオーレ,0
2269,8012301013382,新規,0,2023-04-07,2023-04-07,ドリームオン株式会社,,株式会社,東京都,町田市,図師町２３０番地９,,13,209,1940203,,,,,,,2023-04-07,1,,,,,ドリームオン,0
2270,8012303001807,新規,0,2023-04-07,2023-04-07,ＹＧＹ合同会社,,合同会社,東京都,町田市,広袴町５４５,,13,209,1950052,,,,,,,2023-04-07,1,,,,,ワイジイワイ,0
2271,8012401040368,新規,0,2023-04-07,2023-04-07,株式会社エムアンドイー,,株式会社,東京都,多摩市,貝取１丁目６２番地の３９,,13,224,2060012,,,,,,,2023-04-07,1,,,,,エムアンドイー,0
2272,8012403005914,新規,0,2023-04-07,2023-04-07,ＫＥＭＴＨ合同会社,,合同会社,東京都,稲城市,平尾２丁目１３番地の４イニシア新百合ヶ丘１０８号,,13,225,2060823,,,,,,,2023-04-07,1,,,,,ケームス,0
2277,8013301050564,新規,0,2023-04-07,2023-04-07,株式会社Ｍｉｒａｒｅ,,株式会社,東京都,豊島区,西池袋３丁目２３番８号ＭＡＲＵビル７Ｆ,,13,116,1710021,,,,,,,2023-04-07,1,,,,,ミラーレ,0
2285,8020001150966,新規,0,2023-04-07,2023-04-07,株式会社ナオイ,,株式会社,神奈川県,川崎市宮前区,菅生４丁目７番３０号,,14,136,2160015,,,,,,,2023-04-07,1,,,,,ナオイ,0
2286,8020001150982,新規,0,2023-04-07,2023-04-07,株式会社Ｍ＆Ｂサポート,,株式会社,神奈川県,川崎市川崎区,砂子２丁目１０番７号,,14,131,2100006,,,,,,,2023-04-07,1,,,,,エムアンドビーサポート,0
2287,8020001150990,新規,0,2023-04-07,2023-04-07,株式会社ジェイ・エフ・アイ,,株式会社,神奈川県,横浜市神奈川区,栄町１０番地３５ザ・ヨコハマタワーズＥ２２０２号,,14,102,2210052,,,,,,,2023-04-07,1,,,,,ジェイエフアイ,0
2288,8020001151015,新規,0,2023-04-07,2023-04-07,株式会社Ｆｉｅｌｄ,,株式会社,神奈川県,横浜市中区,本牧大里町２３番９号,,14,104,2310823,,,,,,,2023-04-07,1,,,,,フィールド,0
2289,8020001151023,新規,0,2023-04-07,2023-04-07,株式会社シュウメイ,,株式会社,神奈川県,横浜市青葉区,柿の木台３０番地４５,,14,117,2270048,,,,,,,2023-04-07,1,,,,,シュウメイ,0
2290,8020001151031,新規,0,2023-04-07,2023-04-07,株式会社ＳＨＯＫＥＩ,,株式会社,神奈川県,川崎市高津区,下作延４丁目１２番１号プレステージ飛翔１０６,,14,134,2130033,,,,,,,2023-04-07,1,,,,,ショウケイ,0
2291,8020001151064,新規,0,2023-04-07,2023-04-07,株式会社ＡＷ,,株式会社,神奈川県,川崎市宮前区,馬絹６丁目１２－１２－５０３,,14,136,2160035,,,,,,,2023-04-07,1,,,,,アウ,0
2293,8020003023674,新規,0,2023-04-07,2023-04-07,不動産メディア合同会社,,合同会社,神奈川県,横浜市西区,北幸２丁目１０番地２８むつみビル３Ｆ,,14,103,2200004,,,,,,,2023-04-07,1,,,,,フドウサンメディア,0
2295,8021001078644,新規,0,2023-04-07,2023-04-07,株式会社マーク・レボ,,株式会社,神奈川県,厚木市,温水西１丁目１８番２８号,,14,212,2430039,,,,,,,2023-04-07,1,,,,,マークレボ,0
2297,8030001153217,新規,0,2023-04-07,2023-04-07,株式会社Ｔｉｍｂｅｒ,,株式会社,埼玉県,草加市,稲荷３丁目１３番１６号カーヘルハイツ３０７,,11,221,3400003,,,,,,,2023-04-07,1,,,,,ティンバー,0
2298,8030001153225,新規,0,2023-04-07,2023-04-07,株式会社浜田,,株式会社,埼玉県,熊谷市,肥塚１２１０番地２,,11,202,3600015,,,,,,,2023-04-07,1,,,,,ハマダ,0
2304,8040001127797,新規,0,2023-04-07,2023-04-07,株式会社ランドトラストプロパティーズ,,株式会社,千葉県,千葉市花見川区,幕張本郷１丁目３番３号相葉ビル３階,,12,102,2620033,,,,,,,2023-04-07,1,,,,,ランドトラストプロパティーズ,0
2305,8040001127822,新規,0,2023-04-07,2023-04-07,株式会社ＳｅｌｅｃＴ　ＦｏｏＤ,,株式会社,千葉県,柏市,柏３丁目４番５号ＩＤＡ．ＪＡＰＡＮビル４Ｆ,,12,217,2770005,,,,,,,2023-04-07,1,,,,,セレクトフード,0
2306,8040001127830,新規,0,2023-04-07,2023-04-07,株式会社Ｗｉｌｌ　Ａｃｅ,,株式会社,千葉県,千葉市若葉区,加曽利町１７７２番地１,,12,104,2640017,,,,,,,2023-04-07,1,,,,,ウィルエース,0
2307,8040001127855,新規,0,2023-04-07,2023-04-07,株式会社ＡｃａｐｐｅｌＬａｂｏ,,株式会社,千葉県,流山市,松ケ丘４丁目５１４番地の２１３,,12,220,2700141,,,,,,,2023-04-07,1,,,,,アカペラボ,0
2308,8040001127863,新規,0,2023-04-07,2023-04-07,共創産業株式会社,,株式会社,千葉県,市原市,ちはら台東１丁目２３番地５７,,12,219,2900141,,,,,,,2023-04-07,1,,,,,キョウソウサンギョウ,0
2309,8040003022336,新規,0,2023-04-07,2023-04-07,合同会社いちかわ建物,,合同会社,千葉県,市川市,平田１丁目１４番６号１階,,12,203,2720031,,,,,,,2023-04-07,1,,,,,イチカワタテモノ,0
2310,8040003022352,新規,0,2023-04-07,2023-04-07,合同会社絆,,合同会社,千葉県,大網白里市,ながた野１丁目１２番地３クレストながた野１０２号室,,12,239,2993232,,,,,,,2023-04-07,1,,,,,キズナ,0
2312,8050001052615,新規,0,2023-04-07,2023-04-07,株式会社ＯＲＥＺ,,株式会社,茨城県,小美玉市,小岩戸７４２番地１５,,08,236,3190107,,,,,,,2023-04-07,1,,,,,オレズ,0
2313,8050001052623,新規,0,2023-04-07,2023-04-07,株式会社トーキョーサンダルフォン,,株式会社,茨城県,土浦市,永国８５２番地７フレックス２Ａ－１０２,,08,203,3000817,,,,,,,2023-04-07,1,,,,,トーキョーサンダルフォン,0
2314,8050001052631,新規,0,2023-04-07,2023-04-07,株式会社ベジクラブ和,,株式会社,茨城県,下妻市,原１６９１番地５,,08,210,3040816,,,,,,,2023-04-07,1,,,,,ベジクラブカズ,0
2315,8050001052648,新規,0,2023-04-07,2023-04-07,株式会社ｌｉｌｉｎｏｅ,,株式会社,茨城県,つくば市,山中４８０番地１１０,,08,220,3050836,,,,,,,2023-04-07,1,,,,,リリノエ,0
2318,8050003007385,新規,0,2023-04-07,2023-04-07,合同会社ソルティネーゼ,,合同会社,茨城県,鹿嶋市,大字宮中１９７２番地２,,08,222,3140031,,,,,,,2023-04-07,1,,,,,ソルティネーゼ,0
2320,8060001035858,新規,0,2023-04-07,2023-04-07,株式会社Ａ＆Ｂホールディングス,,株式会社,栃木県,栃木市,大平町下皆川４３１番地,,09,203,3294406,,,,,,,2023-04-07,1,,,,,エーアンドビーホールディングス,0
2321,8060005010072,新規,0,2023-04-07,2023-04-07,一般社団法人空き家・生前対策支援協会,,その他の設立登記法人,栃木県,栃木市,仲方町１４１番地１５,,09,203,3280132,,,,,,,2023-04-07,1,,,,,アキヤセイゼンタイサクシエンキョウカイ,0
2330,8090001018050,新規,0,2023-04-07,2023-04-07,オーアンドアイ株式会社,,株式会社,山梨県,南アルプス市,東南湖１０３５番地,,19,208,4000412,,,,,,,2023-04-07,1,,,,,オーアンドアイ,0
2332,8090003002291,新規,0,2023-04-07,2023-04-07,合同会社ｑｕｉ,,合同会社,山梨県,北杜市,大泉町西井出８２４０番地８３９１,,19,209,4091501,,,,,,,2023-04-07,1,,,,,クイ,0
2333,8100001036281,新規,0,2023-04-07,2023-04-07,株式会社浅間化学,,株式会社,長野県,南佐久郡佐久穂町,大字畑６９番地３,,20,309,3840701,,,,,,,2023-04-07,1,,,,,アサマカガク,0
2334,8100003006951,新規,0,2023-04-07,2023-04-07,アシスト合同会社,,合同会社,長野県,上田市,下之条１８３４番地２,,20,203,3861101,,,,,,,2023-04-07,1,,,,,アシスト,0
2340,8110005016923,新規,0,2023-04-07,2023-04-07,一般社団法人コンプリメンタリービジネスデザイン機構,,その他の設立登記法人,新潟県,長岡市,福住１丁目６番９号ルナパレス１０２,,15,202,9400034,,,,,,,2023-04-07,1,,,,,コンプリメンタリービジネスデザインキコウ,0
2348,8120001253718,新規,0,2023-04-07,2023-04-07,株式会社ＬＡＦＵＬＬ,,株式会社,大阪府,大阪市中央区,日本橋１丁目１７番１７－６０４号,,27,128,5420073,,,,,,,2023-04-07,1,,,,,ラフル,0
2349,8120001253791,新規,0,2023-04-07,2023-04-07,株式会社Ｒａｓｉｃ,,株式会社,大阪府,大阪市中央区,南船場２丁目１１番２０号ＧＡＴＯ三休橋ビル６階,,27,128,5420081,,,,,,,2023-04-07,1,,,,,ラジック,0
2350,8120001253809,新規,0,2023-04-07,2023-04-07,株式会社Ｓ．Ｄ．Ｓ,,株式会社,大阪府,守口市,藤田町２丁目２番３号,,27,209,5700014,,,,,,,2023-04-07,1,,,,,エスディーエス,0
2368,8130001074007,新規,0,2023-04-07,2023-04-07,株式会社Ｒｉ　ＭＡＫＥ,,株式会社,京都府,京都市伏見区,向島二ノ丸町１５１番地、１－４棟７０４号,,26,109,6128141,,,,,,,2023-04-07,1,,,,,リーメイク,0
2370,8140001129643,新規,0,2023-04-07,2023-04-07,株式会社ＮＡＫＡＺＡＫＩ　ＣＯＦＦＥＥ　ＲＯＡＳＴＥＲ,,株式会社,兵庫県,姫路市,野里東同心町５番１０号,,28,201,6700863,,,,,,,2023-04-07,1,,,,,ナカザキコーヒーロースター,0
2371,8140001129651,新規,0,2023-04-07,2023-04-07,株式会社こはる,,株式会社,兵庫県,赤穂郡上郡町,高田台４丁目２番７,,28,481,6781226,,,,,,,2023-04-07,1,,,,,コハル,0
2372,8140001129701,新規,0,2023-04-07,2023-04-07,福本工業株式会社,,株式会社,兵庫県,明石市,大久保町大窪１８０９番地の３,,28,203,6740051,,,,,,,2023-04-07,1,,,,,フクモトコウギョウ,0
2381,8180001155693,新規,0,2023-04-07,2023-04-07,株式会社イノプロ,,株式会社,愛知県,名古屋市昭和区,山里町７４番地八事パークマンション６１１号,,23,107,4660824,,,,,,,2023-04-07,1,,,,,イノプロ,0
2382,8180001155710,新規,0,2023-04-07,2023-04-07,株式会社Ｃｈｅｅｒｆｕｌ,,株式会社,愛知県,尾張旭市,印場元町５丁目２番地３５,,23,226,4880840,,,,,,,2023-04-07,1,,,,,チアフル,0
2383,8180001155743,新規,0,2023-04-07,2023-04-07,株式会社大貝,,株式会社,愛知県,名古屋市中川区,十番町３丁目１０番地の１,,23,110,4540055,,,,,,,2023-04-07,1,,,,,オオガイ,0
2387,8180003025052,新規,0,2023-04-07,2023-04-07,Ｇ‐ＳＥＶＥＮ合同会社,,合同会社,愛知県,稲沢市,千代６丁目２４,,23,220,4928403,,,,,,,2023-04-07,1,,,,,ジーセブン,0
2388,8180003025060,新規,0,2023-04-07,2023-04-07,合同会社オフィス清水,,合同会社,愛知県,半田市,栄町２丁目６１番地,,23,205,4750846,,,,,,,2023-04-07,1,,,,,オフィスシミズ,0
2389,8180003025069,新規,0,2023-04-07,2023-04-07,合同会社ＰＡＪ,,合同会社,愛知県,北名古屋市,沖村岡２８５番地２,,23,234,4810043,,,,,,,2023-04-07,1,,,,,ピーエージェー,0
2390,8180005020159,新規,0,2023-04-07,2023-04-07,一般社団法人フィンガーズクロス協会,,その他の設立登記法人,愛知県,名古屋市千種区,内山３丁目２８番６号マンション森３－Ｄ号室,,23,101,4640075,,,,,,,2023-04-07,1,,,,,フィンガーズクロスキョウカイ,0
2393,8180301037245,新規,0,2023-04-07,2023-04-07,株式会社りた,,株式会社,愛知県,高浜市,碧海町３丁目３番地６,,23,227,4441324,,,,,,,2023-04-07,1,,,,,リタ,0
2397,8200001041148,新規,0,2023-04-07,2023-04-07,株式会社Ｍｉｓａｋｉ　ｗｏｒｋｓ,,株式会社,岐阜県,高山市,三福寺町２５６番地８,,21,203,5060807,,,,,,,2023-04-07,1,,,,,ミサキワークス,0
2398,8200003005919,新規,0,2023-04-07,2023-04-07,グランドリーエクステリア合同会社,,合同会社,岐阜県,美濃市,大矢田７４７－１,,21,207,5013771,,,,,,,2023-04-07,1,,,,,グランドリーエクステリア,0
2400,8220001025339,新規,0,2023-04-07,2023-04-07,株式会社ＫＡＮＡＭＩ,,株式会社,石川県,小松市,下牧町乙１１６番地４ベラッジオ小松１０３,,17,203,9230026,,,,,,,2023-04-07,1,,,,,カナミ,0
2404,8230001019777,新規,0,2023-04-07,2023-04-07,株式会社シースタイル,,株式会社,富山県,富山市,宮尾３１２２番地１,,16,201,9302211,,,,,,,2023-04-07,1,,,,,シースタイル,0
2413,8260001037801,新規,0,2023-04-07,2023-04-07,株式会社板匠,,株式会社,岡山県,赤磐市,桜が丘東１丁目１番地１０６９,,33,213,7090721,,,,,,,2023-04-07,1,,,,,バンショウ,0
2414,8260001037826,新規,0,2023-04-07,2023-04-07,株式会社頼経工業,,株式会社,岡山県,苫田郡鏡野町,小座１６９４番地１,,33,606,7080363,,,,,,,2023-04-07,1,,,,,ヨリツネコウギョウ,0
2425,8290001101083,新規,0,2023-04-07,2023-04-07,マリー・アントワネットこどもの家株式会社,,株式会社,福岡県,福岡市早良区,祖原５番１０－７０５号ストリームライン祖原,,40,137,8140005,,,,,,,2023-04-07,1,,,,,マリーアントワネットコドモノイエ,0
2436,8290005018992,新規,0,2023-04-07,2023-04-07,一般社団法人古賀市観光協会,,その他の設立登記法人,福岡県,古賀市,鹿部４６８番地１,,40,223,8113105,,,,,,,2023-04-07,1,,,,,コガシカンコウキョウカイ,0
2438,8310001018341,新規,0,2023-04-07,2023-04-07,株式会社ノヴァエラ,,株式会社,長崎県,佐世保市,浦川内町６８７番地６,,42,202,8593225,,,,,,,2023-04-07,1,,,,,ノヴァエラ,0
2442,8330003009799,新規,0,2023-04-07,2023-04-07,ｃｏｎｎｅｃｔ合同会社,,合同会社,熊本県,上益城郡甲佐町,大字田口４５９２番地９,,43,444,8614616,,,,,,,2023-04-07,1,,,,,コネクト,0
2449,8360001031810,新規,0,2023-04-07,2023-04-07,株式会社ＳＳ,,株式会社,沖縄県,中頭郡中城村,字奥間２７番地２,,47,328,9012412,,,,,,,2023-04-07,1,,,,,エスエス,0
2450,8360003012858,新規,0,2023-04-07,2023-04-07,合同会社幸新サービス,,合同会社,沖縄県,石垣市,浜崎町２丁目１番地４,,47,207,9070013,,,,,,,2023-04-07,1,,,,,コウシンサービス,0
2454,8370001049802,新規,0,2023-04-07,2023-04-07,株式会社スズマサ総建工業,,株式会社,宮城県,仙台市若林区,沖野３丁目５番３２－３,,04,103,9840831,,,,,,,2023-04-07,1,,,,,スズマサソウケンコウギョウ,0
2455,8370001049810,新規,0,2023-04-07,2023-04-07,株式会社ＷＯＲＬＤ,,株式会社,宮城県,大崎市,古川鶴ケ埣字新江北１９１－８,,04,215,9896111,,,,,,,2023-04-07,1,,,,,ワールド,0
2461,8380005012697,新規,0,2023-04-07,2023-04-07,税理士法人くちき会計,,その他の設立登記法人,福島県,いわき市,小島町２丁目９番地の１５,,07,204,9738411,,,,,,,2023-04-07,1,,,,,クチキカイケイ,0
2466,8400001016195,新規,0,2023-04-07,2023-04-07,株式会社Ｅｎｌｉｇｈｔ,,株式会社,岩手県,盛岡市,愛宕町１１番１０－３０３号,,03,201,0200013,,,,,,,2023-04-07,1,,,,,エンライト,0
2470,8430005014688,新規,0,2023-04-07,2023-04-07,一般社団法人後見終活サポート六華,,その他の設立登記法人,北海道,札幌市中央区,南十条西１０丁目１番２０号,,01,101,0640810,,,,,,,2023-04-07,1,,,,,コウケンシュウカツサポートリッカ,0
2472,8440001009237,新規,0,2023-04-07,2023-04-07,株式会社かいもり,,株式会社,北海道,函館市,本町３１番３－１０２号,,01,202,0400011,,,,,,,2023-04-07,1,,,,,カイモリ,0
2474,8460303000791,新規,0,2023-04-07,2023-04-07,わたゆき合同会社,,合同会社,北海道,紋別郡湧別町,登栄床１４５番地,,01,559,0996412,,,,,,,2023-04-07,1,,,,,ワタユキ,0
2475,8460305001994,新規,0,2023-04-07,2023-04-07,一般社団法人道東読売会,,その他の設立登記法人,北海道,斜里郡斜里町,文光町６０番地８,,01,545,0994116,,,,,,,2023-04-07,1,,,,,ドウトウヨミウリカイ,0
2476,8470001019547,新規,0,2023-04-07,2023-04-07,株式会社Ｌｏｄｉｃｃ,,株式会社,香川県,高松市,サンポート２－１高松シンボルタワータワー棟４・５階情報通信交流館内,,37,201,7600019,,,,,,,2023-04-07,1,,,,,ロディック,0
2477,8490001010438,新規,0,2023-04-07,2023-04-07,株式会社ＳＳＧ,,株式会社,高知県,吾川郡仁淀川町,田村８８番地,,39,387,7811522,,,,,,,2023-04-07,1,,,,,エスエスジー,0
2478,8490003001757,新規,0,2023-04-07,2023-04-07,合同会社タックスキーパー,,合同会社,高知県,高知市,南久万１１７番地２７,,39,201,7800985,,,,,,,2023-04-07,1,,,,,タックスキーパー,0
2482,8500005008600,新規,0,2023-04-07,2023-04-07,一般社団法人コーチング科学推進機構,,その他の設立登記法人,愛媛県,今治市,伯方町有津甲３２番地２,,38,202,7942301,,,,,,,2023-04-07,1,,,,,コーチングカガクスイシンキコウ,0
2484,8700150114612,新規,0,2023-04-07,2023-04-07,山西藍索邁科技有限公司,,外国会社等,,,,,,,,中国山西省太原市万栢林区万科藍山二期６号楼１単元２５０４室,,,,,,2023-04-07,1,,,,,サンセイランサクマイカギユウゲンコウシ,0
2485,8700150115214,新規,0,2023-04-07,2023-04-07,ｓｈｅｎｚｈｅｎｓｈｉｓｈａｎｇｔｉａｎｄｉａｎｚｉｓｈａｎｇｗｕｙｏｕｘｉａｎｇｏｎｇｓｉ,,外国会社等,,,,,,,,１１１６，Ｄｏｎｇｍｉｎｇ　Ｂｕｉｌｄｉｎｇ，Ｍｉｎｋａｎｇ　Ｒｏａｄ，Ｚｈａｎｇｋｅｎｇ　Ｃｏｍｍｕｎｉｔｙ，Ｍｉｎｚｈｉ　Ｓｔｒｅｅｔ，Ｌｏｎｇｈｕａ　Ｄｉｓｔｒｉｃｔ，Ｓｈｅｎｚｈｅｎ,,,,,,2023-04-07,1,,,,,シェンジェンシーシャンティエンディエンズーシャンウーヨウシエンゴンスー,0
2486,8700150115222,新規,0,2023-04-07,2023-04-07,Ｇｕａｎｇｄｏｎｇ　Ｓｈｉｔｅｎｇ　Ｅｌｅｃｔｒｏｎｉｃｓ　Ｔｅｃｈ　Ｃｏ．，Ｌｔｄ,,外国会社等,,,,,,,,Ｘｉｎｓｈａ　Ｉｎｄｕｓｔｒｉａｌ，Ｚｈａｎｇｐｅｎｇ，Ｍａｃｈｏｎｇ　Ｔｏｗｎ，Ｄｏｎｇｇｕａｎ,,,,,,2023-04-07,1,,,,,グワンドンシートンディエンズーコージーヨウシエンゴンスー,0
2494,9010001234141,新規,0,2023-04-07,2023-04-07,エースセーフティ株式会社,,株式会社,東京都,千代田区,外神田６丁目１３番１３号,,13,101,1010021,,,,,,,2023-04-07,1,,,,,エースセーフティ,0
2495,9010001234166,新規,0,2023-04-07,2023-04-07,株式会社ベストリクルート,,株式会社,東京都,千代田区,丸の内２丁目７番２号ＪＰタワー２２階,,13,101,1000005,,,,,,,2023-04-07,1,,,,,ベストリクルート,0
2496,9010001234182,新規,0,2023-04-07,2023-04-07,セーフグラフィ株式会社,,株式会社,東京都,千代田区,九段南１丁目５番６号５Ｆ,,13,101,1020074,,,,,,,2023-04-07,1,,,,,セーフグラフィ,0
2497,9010001234208,新規,0,2023-04-07,2023-04-07,株式会社Ｈａｋｏｂｕｎｅ,,株式会社,東京都,千代田区,神田錦町２丁目４番地ダヴィンチ小川町,,13,101,1010054,,,,,,,2023-04-07,1,,,,,ハコブネ,0
2498,9010001234216,新規,0,2023-04-07,2023-04-07,ＭＧ‐ＣＡＰ株式会社,,株式会社,東京都,中央区,八重洲２丁目１１番３号,,13,102,1040028,,,,,,,2023-04-07,1,,,,,エムジーキャップ,0
2499,9010001234232,新規,0,2023-04-07,2023-04-07,株式会社Ｏｎｌｙｅｓｔ,,株式会社,東京都,中央区,日本橋兜町９－５兜町平和ダイヤビル３１０,,13,102,1030026,,,,,,,2023-04-07,1,,,,,オンリエスト,0
2500,9010001234240,新規,0,2023-04-07,2023-04-07,Ａｈｅａｄ　Ｓｙｓｔｅｍｓ株式会社,,株式会社,東京都,中央区,日本橋本町１丁目１０番２号近甚ビル６階,,13,102,1030023,,,,,,,2023-04-07,1,,,,,アヘッドシステムズ,0
2501,9010001234249,新規,0,2023-04-07,2023-04-07,コアクシア株式会社,,株式会社,東京都,千代田区,麹町３丁目５番２号ＢＵＲＥＸ麹町,,13,101,1020083,,,,,,,2023-04-07,1,,,,,コアクシア,0
2511,9010401173492,新規,0,2023-04-07,2023-04-07,株式会社ＢＬＡＣＫ　ＫＮＩＧＨＴ,,株式会社,東京都,港区,赤坂２丁目５番８号,,13,103,1070052,,,,,,,2023-04-07,1,,,,,ブラックナイト,0
2512,9010405022010,新規,0,2023-04-07,2023-04-07,一般社団法人スポーツマネジメント通訳協会,,その他の設立登記法人,東京都,港区,芝１丁目５番９号住友不動産芝ビル２号館４階,,13,103,1050014,,,,,,,2023-04-07,1,,,,,スポーツマネジメントツウヤクキョウカイ,0
2514,9010501050237,新規,0,2023-04-07,2023-04-07,株式会社ＣＡＮ,,株式会社,東京都,台東区,日本堤２丁目３８番１０号,,13,106,1110021,,,,,,,2023-04-07,1,,,,,シーエーエヌ,0
2515,9010501050261,新規,0,2023-04-07,2023-04-07,株式会社ＫＴＴＣ,,株式会社,東京都,台東区,元浅草１丁目２０番３－５０１号,,13,106,1110041,,,,,,,2023-04-07,1,,,,,ケイティーティーシー,0
2517,9010603010089,新規,0,2023-04-07,2023-04-07,合同会社Ｊ＆Ｔ,,合同会社,東京都,墨田区,東向島３丁目３２番４－２０１号,,13,107,1310032,,,,,,,2023-04-07,1,,,,,ジェイアンドティー,0
2518,9010701044071,新規,0,2023-04-07,2023-04-07,株式会社ワークポートホールディングス,,株式会社,東京都,品川区,大崎１丁目２番２号,,13,109,1410032,,,,,,,2023-04-07,1,,,,,ワークポートホールディングス,0
2519,9010701044096,新規,0,2023-04-07,2023-04-07,ＭＡＥＳＴＲＯ株式会社,,株式会社,東京都,品川区,南品川６丁目１５番２号シェスタ南品川２０５,,13,109,1400004,,,,,,,2023-04-07,1,,,,,マエストロ,0
2521,9010801033825,新規,0,2023-04-07,2023-04-07,株式会社ＴＳワークス,,株式会社,東京都,大田区,中央３丁目１０－１２,,13,111,1430024,,,,,,,2023-04-07,1,,,,,ティーエスワークス,0
2523,9010901052824,新規,0,2023-04-07,2023-04-07,株式会社Ｂｌｕｅ　Ｒｏｓｅ,,株式会社,東京都,世田谷区,南烏山１丁目２９番１号５０２,,13,112,1570062,,,,,,,2023-04-07,1,,,,,ブルーローズ,0
2524,9010903008064,新規,0,2023-04-07,2023-04-07,合同会社ＣＩＰ,,合同会社,東京都,世田谷区,桜上水４丁目１番Ｆ－１２０１号,,13,112,1560045,,,,,,,2023-04-07,1,,,,,シーアイピー,0
2525,9010905004466,新規,0,2023-04-07,2023-04-07,学校法人世田谷聖母学園,,その他の設立登記法人,東京都,世田谷区,深沢８丁目１３番１６号,,13,112,1580081,,,,,,,2023-04-07,1,,,,,セタガヤセイボガクエン,0
2529,9011001153554,新規,0,2023-04-07,2023-04-07,株式会社マルカケ,,株式会社,東京都,目黒区,目黒１丁目２４番１２号,,13,110,1530063,,,,,,,2023-04-07,1,,,,,マルカケ,0
2530,9011001153570,新規,0,2023-04-07,2023-04-07,株式会社ジャパンメタルテクノロジーズ,,株式会社,東京都,渋谷区,猿楽町９番５－８０５号,,13,113,1500033,,,,,,,2023-04-07,1,,,,,ジャパンメタルテクノロジーズ,0
2531,9011001153579,新規,0,2023-04-07,2023-04-07,株式会社ロング・ライフ・プラニング,,株式会社,東京都,渋谷区,渋谷２丁目１９番１５宮益坂ビルディング６０９号,,13,113,1500002,,,,,,,2023-04-07,1,,,,,ロングライフプラニング,0
2532,9011001153595,新規,0,2023-04-07,2023-04-07,株式会社ＬＩＶＥＲＴＹ,,株式会社,東京都,目黒区,目黒３丁目９番９号,,13,110,1530063,,,,,,,2023-04-07,1,,,,,リバティ,0
2534,9011003016577,新規,0,2023-04-07,2023-04-07,合同会社Ｋ‐ｉｎｖｅｓｔｍｅｎｔ,,合同会社,東京都,渋谷区,道玄坂１丁目１０番８号２Ｆ－Ｃ,,13,113,1500043,,,,,,,2023-04-07,1,,,,,ケーインベストメント,0
2539,9011101102403,新規,0,2023-04-07,2023-04-07,株式会社Ｌａ‐ｓｃａｌ,,株式会社,東京都,新宿区,西新宿３丁目３番１３号西新宿水間ビル６階,,13,104,1600023,,,,,,,2023-04-07,1,,,,,ラスカル,0
2545,9011501029130,新規,0,2023-04-07,2023-04-07,株式会社Ｒｅｍｙ　Ｋｉｔｃｈｅｎ,,株式会社,東京都,荒川区,東日暮里６丁目６０番１０号日暮里駅前中央ビル３Ｆ,,13,118,1160014,,,,,,,2023-04-07,1,,,,,レミーキッチン,0
2546,9011503005550,新規,0,2023-04-07,2023-04-07,羅多情報コンサルティング合同会社,,合同会社,東京都,北区,浮間３丁目６－１３クレストガーデンレジデンス４１１室,,13,117,1150051,,,,,,,2023-04-07,1,,,,,ラタジョウホウコンサルティング,0
2551,9011801042188,新規,0,2023-04-07,2023-04-07,株式会社瑞海,,株式会社,東京都,足立区,西新井２丁目３０番１０号１階,,13,121,1230841,,,,,,,2023-04-07,1,,,,,ズイカイ,0
2555,9012303001806,新規,0,2023-04-07,2023-04-07,合同会社ＴＥＳＯＲＯ,,合同会社,東京都,町田市,原町田５丁目２番１０号グランフィル５０６,,13,209,1940013,,,,,,,2023-04-07,1,,,,,テソロ,0
2558,9012401040350,新規,0,2023-04-07,2023-04-07,株式会社エムユーティ,,株式会社,東京都,小金井市,本町５丁目１０番１５号,,13,210,1840004,,,,,,,2023-04-07,1,,,,,エムユーティ,0
2559,9012401040359,新規,0,2023-04-07,2023-04-07,株式会社アイムパートナーズ,,株式会社,東京都,小金井市,緑町４丁目１１番１５号,,13,210,1840003,,,,,,,2023-04-07,1,,,,,アイムパートナーズ,0
2560,9012401040375,新規,0,2023-04-07,2023-04-07,株式会社ピロラン,,株式会社,東京都,狛江市,中和泉１丁目２４番２－１号,,13,219,2010012,,,,,,,2023-04-07,1,,,,,ピロラン,0
2569,9020001150957,新規,0,2023-04-07,2023-04-07,株式会社浅葉ビル管理,,株式会社,神奈川県,横浜市鶴見区,豊岡町１１番１－２１５号,,14,101,2300062,,,,,,,2023-04-07,1,,,,,アサバビルカンリ,0
2570,9020001151014,新規,0,2023-04-07,2023-04-07,株式会社Ａｚ,,株式会社,神奈川県,川崎市宮前区,南野川３丁目３３番３８－３０３号ハイツ兼信,,14,136,2160042,,,,,,,2023-04-07,1,,,,,アーズ,0
2571,9020001151030,新規,0,2023-04-07,2023-04-07,株式会社つかはら,,株式会社,神奈川県,横浜市鶴見区,北寺尾６丁目２６番１５号,,14,101,2300074,,,,,,,2023-04-07,1,,,,,ツカハラ,0
2575,9020003023624,新規,0,2023-04-07,2023-04-07,ＭＯＶＥ・ＴＥＣＨ合同会社,,合同会社,神奈川県,横浜市鶴見区,栄町通３丁目２８番地２７,,14,101,2300038,,,,,,,2023-04-07,1,,,,,ムーブテック,0
2576,9020003023665,新規,0,2023-04-07,2023-04-07,合同会社古市場アスリートクラブ,,合同会社,神奈川県,川崎市幸区,古市場２丁目１２５番地,,14,132,2120052,,,,,,,2023-04-07,1,,,,,フルイチバアスリートクラブ,0
2577,9020003023673,新規,0,2023-04-07,2023-04-07,イーエムアイ合同会社,,合同会社,神奈川県,横浜市中区,野毛町１丁目４５番港興産ビル３号館２階１号室,,14,104,2310064,,,,,,,2023-04-07,1,,,,,イーエムアイ,0
2578,9020003023681,新規,0,2023-04-07,2023-04-07,Ｙナース＆トラベル合同会社,,合同会社,神奈川県,横浜市神奈川区,斎藤分町２２番９号,,14,102,2210811,,,,,,,2023-04-07,1,,,,,ワイナースアンドトラベル,0
2579,9021001078627,新規,0,2023-04-07,2023-04-07,株式会社ＭＥＲＡＫ,,株式会社,神奈川県,横須賀市,安浦町３丁目４２番地,,14,201,2380012,,,,,,,2023-04-07,1,,,,,メラック,0
2588,9030001153182,新規,0,2023-04-07,2023-04-07,ＫＡＮＡＩ株式会社,,株式会社,埼玉県,朝霞市,溝沼７丁目６番５０号,,11,227,3510023,,,,,,,2023-04-07,1,,,,,カナイ,0
2589,9030001153190,新規,0,2023-04-07,2023-04-07,株式会社オズトラスト工業,,株式会社,埼玉県,蕨市,錦町３丁目６番２０号,,11,223,3350005,,,,,,,2023-04-07,1,,,,,オズトラストコウギョウ,0
2590,9030001153216,新規,0,2023-04-07,2023-04-07,株式会社ｅａｔａｂｌｅ,,株式会社,埼玉県,狭山市,大字水野２９５番地の１８,,11,215,3501317,,,,,,,2023-04-07,1,,,,,イータブル,0
2591,9030003021494,新規,0,2023-04-07,2023-04-07,オフィスアンダンテ合同会社,,合同会社,埼玉県,さいたま市大宮区,桜木町２丁目３番地大宮マルイ７階,,11,103,3300854,,,,,,,2023-04-07,1,,,,,オフィスアンダンテ,0
2595,9040001127796,新規,0,2023-04-07,2023-04-07,業建設株式会社,,株式会社,千葉県,千葉市緑区,高田町４１６番地３８４,,12,105,2660003,,,,,,,2023-04-07,1,,,,,ナリケンセツ,0
2596,9040001127805,新規,0,2023-04-07,2023-04-07,ＫＥＴＳＵＩ株式会社,,株式会社,千葉県,山武市,松尾町高富２１８番地６,,12,237,2891522,,,,,,,2023-04-07,1,,,,,ケツイ,0
2597,9040001127862,新規,0,2023-04-07,2023-04-07,株式会社えびすビルメン,,株式会社,千葉県,船橋市,海神６丁目１７番１８号,,12,204,2730021,,,,,,,2023-04-07,1,,,,,エビスビルメン,0
2601,9040003022335,新規,0,2023-04-07,2023-04-07,合同会社トリロジー,,合同会社,千葉県,流山市,南流山１丁目２番地の１０ジェイハウス南流山１０１,,12,220,2700163,,,,,,,2023-04-07,1,,,,,トリロジー,0
2602,9050001052647,新規,0,2023-04-07,2023-04-07,株式会社ｐｉｇｎａ,,株式会社,茨城県,結城市,大字結城１２０５５番地２５,,08,207,3070001,,,,,,,2023-04-07,1,,,,,フィーニア,0
2603,9060001035857,新規,0,2023-04-07,2023-04-07,三共リース株式会社,,株式会社,栃木県,宇都宮市,下栗町７６４番地１,,09,201,3210923,,,,,,,2023-04-07,1,,,,,サンキョウリース,0
2606,9060005010071,新規,0,2023-04-07,2023-04-07,一般社団法人東昭自治会,,その他の設立登記法人,栃木県,那須塩原市,西岩崎２３２番地４３８,,09,213,3250101,,,,,,,2023-04-07,1,,,,,トウショウジチカイ,0
2610,9070005010104,新規,0,2023-04-07,2023-04-07,一般社団法人群馬県溶接協会,,その他の設立登記法人,群馬県,前橋市,日吉町１丁目８番地１,,10,201,3710017,,,,,,,2023-04-07,1,,,,,グンマケンヨウセツキョウカイ,0
2611,9080001025559,新規,0,2023-04-07,2023-04-07,株式会社ｄａｉｎａ,,株式会社,静岡県,静岡市駿河区,小鹿３丁目７番２４号,,22,102,4228021,,,,,,,2023-04-07,1,,,,,ダイナ,0
2622,9110001037410,新規,0,2023-04-07,2023-04-07,株式会社エアリペア,,株式会社,新潟県,上越市,頸城区北福崎３９８番地１５,,15,222,9420132,,,,,,,2023-04-07,1,,,,,エアリペア,0
2631,9120001253741,新規,0,2023-04-07,2023-04-07,華夏株式会社,,株式会社,大阪府,大阪市浪速区,日本橋５丁目１２番３号ＯｓａｋａＭｅｔｒｏ恵比須町ビル７Ｆ－１１号室,,27,111,5560005,,,,,,,2023-04-07,1,,,,,カナツ,0
2632,9120001253790,新規,0,2023-04-07,2023-04-07,ＹＡＭＳ株式会社,,株式会社,大阪府,大阪市中央区,島之内１丁目２番１８－５０１号,,27,128,5420082,,,,,,,2023-04-07,1,,,,,ヤームズ,0
2633,9120005023546,新規,0,2023-04-07,2023-04-07,一般社団法人サクラコクホー,,その他の設立登記法人,大阪府,大阪市中央区,谷町２丁目３番４号－５０１,,27,128,5400012,,,,,,,2023-04-07,1,,,,,サクラコクホー,0
2638,9120101067249,新規,0,2023-04-07,2023-04-07,株式会社小笠原電機,,株式会社,大阪府,堺市北区,長曽根町１５８５番地１アソルティ２０６号,,27,146,5918025,,,,,,,2023-04-07,1,,,,,オガサワラデンキ,0
2640,9120103005149,新規,0,2023-04-07,2023-04-07,まちにデザイン合同会社,,合同会社,大阪府,和泉市,鶴山台１丁目１２番４９号,,27,219,5940013,,,,,,,2023-04-07,1,,,,,マチニデザイン,0
2646,9122003002556,新規,0,2023-04-07,2023-04-07,合同会社ＳｔｏｒｙＤｅｓｉｇｎ,,合同会社,大阪府,八尾市,宮町４丁目４－２２－７０５,,27,212,5810815,,,,,,,2023-04-07,1,,,,,ストーリーデザイン,0
2648,9130001074022,新規,0,2023-04-07,2023-04-07,Ｅ・Ｗ・Ｓ株式会社,,株式会社,京都府,京丹後市,峰山町新町１１４番地の１,,26,212,6270005,,,,,,,2023-04-07,1,,,,,イーダブリューエス,0
2650,9130003008630,新規,0,2023-04-07,2023-04-07,合同会社新工芸舎,,合同会社,京都府,京都市中京区,壬生松原町４３番地１８,,26,104,6048823,,,,,,,2023-04-07,1,,,,,シンコウゲイシャ,0
2656,9140001129700,新規,0,2023-04-07,2023-04-07,ＫＥＮＳビジネス株式会社,,株式会社,兵庫県,伊丹市,伊丹１丁目１３番５２－１００３号,,28,207,6640846,,,,,,,2023-04-07,1,,,,,ケンズビジネス,0
2665,9180001155577,新規,0,2023-04-07,2023-04-07,株式会社春風,,株式会社,愛知県,名古屋市中区,千代田３丁目７番１０号浅井ビル１階,,23,106,4600012,,,,,,,2023-04-07,1,,,,,ハルカゼ,0
2666,9180001155651,新規,0,2023-04-07,2023-04-07,ｓｔｅｐ株式会社,,株式会社,愛知県,一宮市,千秋町浅野羽根字笹井１０番地１,,23,203,4910816,,,,,,,2023-04-07,1,,,,,ステップ,0
2667,9180001155676,新規,0,2023-04-07,2023-04-07,株式会社グリーンルーム,,株式会社,愛知県,名古屋市名東区,八前２丁目１７０２番地,,23,115,4650018,,,,,,,2023-04-07,1,,,,,グリーンルーム,0
2668,9180001155718,新規,0,2023-04-07,2023-04-07,株式会社教育デザインラボ,,株式会社,愛知県,大府市,共西町７丁目４番地アピエス共和西２０３号,,23,223,4740062,,,,,,,2023-04-07,1,,,,,キョウイクデザインラボ,0
2669,9180001155726,新規,0,2023-04-07,2023-04-07,株式会社龍吉,,株式会社,愛知県,名古屋市西区,那古野１丁目１５番１８号,,23,104,4510042,,,,,,,2023-04-07,1,,,,,タツヨシ,0
2670,9180001155742,新規,0,2023-04-07,2023-04-07,株式会社艸,,株式会社,愛知県,名古屋市中区,丸の内３丁目１７番６号ナカトウ丸の内ビル４Ｆ,,23,106,4600002,,,,,,,2023-04-07,1,,,,,ソウ,0
2673,9180003025068,新規,0,2023-04-07,2023-04-07,合同会社真行,,合同会社,愛知県,名古屋市北区,下飯田町３丁目５８番地１Ｆ,,23,103,4620865,,,,,,,2023-04-07,1,,,,,シンコウ,0
2676,9180005020166,新規,0,2023-04-07,2023-04-07,一般財団法人愛知体操協会,,その他の設立登記法人,愛知県,名古屋市北区,清水５丁目１０番５号チケンサンプラザ２０１,,23,103,4620844,,,,,,,2023-04-07,1,,,,,アイチタイソウキョウカイ,0
2677,9180005020174,新規,0,2023-04-07,2023-04-07,一般社団法人国際儀礼伝統文化伝承機構,,その他の設立登記法人,愛知県,名古屋市中区,錦２丁目１７番３０号河越ビル９０１号,,23,106,4600003,,,,,,,2023-04-07,1,,,,,コクサイギレイデントウブンカデンショウキコウ,0
2679,9180301037252,新規,0,2023-04-07,2023-04-07,株式会社Ｅ．Ａ．Ｔ．,,株式会社,愛知県,豊田市,御立町４丁目７０,,23,211,4710811,,,,,,,2023-04-07,1,,,,,イート,0
2686,9200001041139,新規,0,2023-04-07,2023-04-07,株式会社大樹,,株式会社,岐阜県,飛騨市,古川町上町５８１番地１,,21,217,5094254,,,,,,,2023-04-07,1,,,,,ダイジュ,0
2687,9200001041147,新規,0,2023-04-07,2023-04-07,株式会社藤蝶,,株式会社,岐阜県,高山市,新宮町４２４９番地２９,,21,203,5060035,,,,,,,2023-04-07,1,,,,,フジチョウ,0
2688,9200001041155,新規,0,2023-04-07,2023-04-07,株式会社ＳＡＮ　ＷＯＲＫＳ,,株式会社,岐阜県,中津川市,駒場３０９番地の１,,21,206,5080011,,,,,,,2023-04-07,1,,,,,サンワークス,0
2689,9200003005918,新規,0,2023-04-07,2023-04-07,合同会社オフィスナカムラ,,合同会社,岐阜県,郡上市,八幡町島谷１５２４番地２１,,21,219,5014222,,,,,,,2023-04-07,1,,,,,オフィスナカムラ,0
2699,9240001061273,新規,0,2023-04-07,2023-04-07,株式会社ＧＲＥＡＴ,,株式会社,広島県,福山市,曙町２丁目２０番１８号,,34,207,7210952,,,,,,,2023-04-07,1,,,,,グレート,0
2711,9260001037783,新規,0,2023-04-07,2023-04-07,株式会社ケイダイニング,,株式会社,岡山県,岡山市北区,尾上１７６４番地８,,33,101,7011212,,,,,,,2023-04-07,1,,,,,ケイダイニング,0
2712,9260001037800,新規,0,2023-04-07,2023-04-07,株式会社リアンス,,株式会社,岡山県,倉敷市,西中新田２番地１３,,33,202,7100833,,,,,,,2023-04-07,1,,,,,リアンス,0
2723,9290001101132,新規,0,2023-04-07,2023-04-07,株式会社カミカケ,,株式会社,福岡県,八女市,本町１０４番地１,,40,210,8340031,,,,,,,2023-04-07,1,,,,,カミカケ,0
2727,9290003013747,新規,0,2023-04-07,2023-04-07,合同会社Ｌａ　Ｓａｎａ,,合同会社,福岡県,福岡市中央区,渡辺通１丁目１番１号サンセルコビル１１２－Ｄ,,40,133,8100004,,,,,,,2023-04-07,1,,,,,ラサーナ,0
2728,9290003013755,新規,0,2023-04-07,2023-04-07,合同会社Ａｃｔｌｅｖｅｒ,,合同会社,福岡県,福岡市博多区,博多駅前１丁目２３番１号ＰａｒｋＦｒｏｎｔ博多駅前１丁目５Ｆ－Ｂ,,40,132,8120011,,,,,,,2023-04-07,1,,,,,アクトルヴェ,0
2729,9290801029432,新規,0,2023-04-07,2023-04-07,株式会社ヘルドックスフィットネスジム,,株式会社,福岡県,京都郡苅田町,新浜町１番地３４,,40,621,8000321,,,,,,,2023-04-07,1,,,,,ヘルドックスフィットネスジム,0
2730,9290801029440,新規,0,2023-04-07,2023-04-07,株式会社ＦＲＥＥＳＴＹＬＥ,,株式会社,福岡県,北九州市八幡東区,宮の町１丁目４番１０号,,40,108,8050023,,,,,,,2023-04-07,1,,,,,フリースタイル,0
2733,9330001030723,新規,0,2023-04-07,2023-04-07,株式会社九州みらいＣｒｅａｔｉｏｎ,,株式会社,熊本県,熊本市西区,春日１丁目１２番３号,,43,103,8600047,,,,,,,2023-04-07,1,,,,,キュウシュウミライクリエイション,0
2738,9340003004096,新規,0,2023-04-07,2023-04-07,合同会社天才睡眠研究所,,合同会社,鹿児島県,いちき串木野市,春日町２７３番地１,,46,219,8960002,,,,,,,2023-04-07,1,,,,,テンサイスイミンケンキュウジョ,0
2740,9350003004335,新規,0,2023-04-07,2023-04-07,合同会社祥,,合同会社,宮崎県,都城市,妻ケ丘町４４街区１３号,,45,202,8850033,,,,,,,2023-04-07,1,,,,,ショウ,0
2741,9350005006148,新規,0,2023-04-07,2023-04-07,一般社団法人都城国際交流協会,,その他の設立登記法人,宮崎県,都城市,姫城町４街区１号,,45,202,8850073,,,,,,,2023-04-07,1,,,,,ミヤコノジョウコクサイコウリュウキョウカイ,0
2743,9360001031784,新規,0,2023-04-07,2023-04-07,株式会社ＺＥＮＯＮ,,株式会社,沖縄県,うるま市,石川東山２丁目２８－３,,47,213,9041102,,,,,,,2023-04-07,1,,,,,ゼノン,0
2744,9360003012857,新規,0,2023-04-07,2023-04-07,合同会社Ａｒｕｎ　Ｃｏ．,,合同会社,沖縄県,石垣市,新栄町８番地２７,,47,207,9070014,,,,,,,2023-04-07,1,,,,,アルンシーオー,0
2745,9360005006824,新規,0,2023-04-07,2023-04-07,一般社団法人沖縄こども先進医療協議会,,その他の設立登記法人,沖縄県,中頭郡西原町,字上原２０７番地,,47,329,9030125,,,,,,,2023-04-07,1,,,,,オキナワコドモセンシンイリョウキョウギカイ,0
2748,9370001049792,新規,0,2023-04-07,2023-04-07,株式会社ＢＬＵＥ　ＷＯＲＫ,,株式会社,宮城県,仙台市青葉区,本町１丁目５番２８号カーニープレイス仙台駅前通６０３号室,,04,101,9800014,,,,,,,2023-04-07,1,,,,,ブルーワーク,0
2749,9370001049801,新規,0,2023-04-07,2023-04-07,あるひ株式会社,,株式会社,宮城県,仙台市泉区,南光台２丁目９番６９号１Ｆ,,04,105,9818003,,,,,,,2023-04-07,1,,,,,アルヒ,0
2753,9380001033589,新規,0,2023-04-07,2023-04-07,株式会社ａｎｄ　Ｄｒｏｐ　Ｄｅｓｉｇｎ,,株式会社,福島県,田村郡三春町,大字斎藤字仁井道３４８番４,,07,521,9637723,,,,,,,2023-04-07,1,,,,,アンドドロップデザイン,0
2759,9400005008320,新規,0,2023-04-07,2023-04-07,医療法人桜月,,その他の設立登記法人,岩手県,盛岡市,向中野５丁目２１番１５号,,03,201,0200851,,,,,,,2023-04-07,1,,,,,オウゲツ,0
2761,9410001013447,新規,0,2023-04-07,2023-04-07,あかり建設株式会社,,株式会社,秋田県,大館市,二井田字上前田３１０番地４,,05,204,0185751,,,,,,,2023-04-07,1,,,,,アカリケンセツ,0
2762,9420001018206,新規,0,2023-04-07,2023-04-07,ＩＦＴＩＫＨＡＲ　ＴＲＡＤＥＲＳ株式会社,,株式会社,青森県,十和田市,大字三本木字北平１１０番地５Ｄ－２号,,02,206,0340001,,,,,,,2023-04-07,1,,,,,イフティハールトレーダーズ,0
2769,9430001088776,新規,0,2023-04-07,2023-04-07,大束電気株式会社,,株式会社,北海道,札幌市北区,北三十六条西９丁目２番２５－１０６号,,01,102,0010036,,,,,,,2023-04-07,1,,,,,オオツカデンキ,0
2770,9430001088784,新規,0,2023-04-07,2023-04-07,株式会社なじみ屋,,株式会社,北海道,札幌市東区,北二十条東６丁目１番２１号,,01,103,0650020,,,,,,,2023-04-07,1,,,,,ナジミヤ,0
2773,9430003014920,新規,0,2023-04-07,2023-04-07,Ｎｏｗｇｕｙｓ合同会社,,合同会社,北海道,札幌市中央区,南二十四条西１４丁目１－４１,,01,101,0640924,,,,,,,2023-04-07,1,,,,,ナウガイズ,0
2774,9430003014937,新規,0,2023-04-07,2023-04-07,ｍｉｃｗａｍ合同会社,,合同会社,北海道,札幌市東区,北十二条東２丁目１－３３－２０１,,01,103,0650012,,,,,,,2023-04-07,1,,,,,ミックワム,0
2775,9430005014687,新規,0,2023-04-07,2023-04-07,一般社団法人愛海詩,,その他の設立登記法人,北海道,札幌市中央区,北一条西２８丁目２番１７号,,01,101,0640821,,,,,,,2023-04-07,1,,,,,エミシ,0
2777,9470001019554,新規,0,2023-04-07,2023-04-07,輝住建株式会社,,株式会社,香川県,木田郡三木町,大字氷上２１４７番地５,,37,341,7610612,,,,,,,2023-04-07,1,,,,,カガヤキジュウケン,0
2778,9480001012062,新規,0,2023-04-07,2023-04-07,株式会社祐来,,株式会社,徳島県,名西郡石井町,石井字石井３８８番地１３,,36,341,7793233,,,,,,,2023-04-07,1,,,,,ユウキ,0
2786,9500005008599,新規,0,2023-04-07,2023-04-07,愛媛弁護士協同組合,,その他の設立登記法人,愛媛県,松山市,三番町４丁目８番地８,,38,201,7900003,,,,,,,2023-04-07,1,,,,,エヒメベンゴシ,0
2787,9700150114578,新規,0,2023-04-07,2023-04-07,深セン市傑富安電子商務有限公司,,外国会社等,,,,,,,,中国深セン市福田区沙頭街道翠湾社区福強路４００１号沙尾工業区１７棟Ａ座、Ｂ座Ａ座３１９,,,,,,2023-04-07,1,,,,,シンセンシケツフアンデンシショウムユウゲンコウシ,0
2788,9700150115188,新規,0,2023-04-07,2023-04-07,株式会社コネクトウェイブ,,外国会社等,東京都,千代田区,外神田４丁目１４番２号東京タイムズタワー３３０５号,,13,101,1010021,韓国ソウル市ヤンチョン区モク洞ドン路２３３－１（モク洞、ヒョンデドリームタワー）,,,,,,2023-04-07,1,,,,,カブシキガイシヤコネクトウエイブ,0
2789,9700150115213,新規,0,2023-04-07,2023-04-07,ｇｕａｎｇｚｈｏｕｋｕｒｕｉｔｅｄｉａｎｚｉｙｏｕｘｉａｎｇｏｎｇｓｉ,,外国会社等,,,,,,,,Ａ９６５，Ｆｌｏｏｒ　３，Ｎｏ．２２，７ｔｈ　Ｌａｎｅ，Ｙｏｎｇｔａｉ　Ｚｈｉｈｅ　Ｓｔｒｅｅｔ，Ｙｏｎｇｐｉｎｇ　Ｓｔｒｅｅｔ，Ｂａｉｙｕｎ　Ｄｉｓｔｒｉｃｔ，Ｇｕａｎｇｚｈｏｕ,,,,,,2023-04-07,1,,,,,グワンジョウクールイターディエンズーヨウシエンゴンスー,0
2790,9700150115221,新規,0,2023-04-07,2023-04-07,ＺｈａｏｑｉｎｇｓｈｉＱｉｎｇｆｅｎｇｘｉｙｕＤｉａｎｚｉｓｈａｎｇｗｕＹｏｕｘｉａｎｇｏｎｇｓｉ,,外国会社等,,,,,,,,Ｒｏｏｍ　１７０５－１，Ｃｕｌｔｕｒａｌ　ａｎｄ　Ｃｒｅａｔｉｖｅ　Ｂｕｉｌｄｉｎｇ，Ｎｏ．４８，Ｄｕａｎｚｈｏｕ　３ｒｄ　Ｒｏａｄ，Ｄｕａｎｚｈｏｕ　Ｄｉｓｔｒｉｃｔ，Ｚｈａｏｑｉｎｇ　Ｃｉｔｙ,,,,,,2023-04-07,1,,,,,ジャオチンシーチンフォンシーイーディエンズーシャンウーヨウシエンゴンスー,0
