sequenceNumber,corporateNumber,process,correct,updateDate,changeDate,name,nameImageId,kind,prefectureName,cityName,streetNumber,addressImageId,prefectureCode,cityCode,postCode,addressOutside,addressOutsideImageId,closeDate,closeCause,successorCorporateNumber,changeCause,assignmentDate,latest,enName,enPrefectureName,enCityName,enAddressOutside,furigana,hihyoji
15,1010401130237,登記記録の閉鎖等,0,2022-12-12,2022-12-01,株式会社興信,,株式会社,東京都,港区,赤坂２丁目１７番５５号,,13,103,1070052,,,2022-12-01,合併による解散等,3010401097937,令和４年１２月１日東京都港区赤坂二丁目１７番５５号株式会社開盛（3010401097937）に合併し解散,2017-03-14,1,,,,,コウシン,0
22,1010405015095,登記記録の閉鎖等,0,2022-12-12,2022-12-07,一般社団法人ＣＡ　ＪＡＰＯＮ,,その他の設立登記法人,埼玉県,久喜市,吉羽１丁目３９番地１,,11,232,3460014,,,2022-12-07,清算の結了等,,,2016-09-08,1,,,,,シーエージャポン,0
30,1010802007934,登記記録の閉鎖等,0,2022-12-12,2022-12-05,有限会社誠伸工業,,有限会社,東京都,大田区,池上２丁目１８番９号,,13,111,1460082,,,2022-12-05,清算の結了等,,,2015-10-05,1,,,,,セイシンコウギョウ,0
46,1011401004595,登記記録の閉鎖等,0,2022-12-12,2022-12-09,東洋総鉄株式会社,,株式会社,東京都,板橋区,前野町２丁目３１番１３号,,13,119,1740063,,,2022-12-09,清算の結了等,,,2015-10-05,1,,,,,トウヨウソウテツ,0
48,1011501022902,登記記録の閉鎖等,0,2022-12-12,2022-12-06,株式会社ＳＴＡ,,株式会社,東京都,北区,赤羽３丁目７番５号ウイング赤羽２０１号室,,13,117,1150045,,,2022-12-06,清算の結了等,,,2017-08-03,1,,,,,,0
64,1012801010175,登記記録の閉鎖等,0,2022-12-12,2022-12-01,株式会社ＴＭＵ,,株式会社,東京都,東大和市,向原６丁目１２０１番地の１２２,,13,220,2070013,,,2022-12-01,清算の結了等,,,2015-10-05,1,,,,,ティーエムユー,0
106,1040001079401,登記記録の閉鎖等,0,2022-12-12,2022-12-05,株式会社ＨＳ　Ｌｉｇｈｔ,,株式会社,千葉県,東金市,松之郷２５番地３,,12,213,2830805,,,2022-12-05,清算の結了等,,,2015-10-05,1,,,,,エイチエスライト,0
111,1040002085712,登記記録の閉鎖等,0,2022-12-12,2022-12-05,有限会社タカ・シーフードサービス,,有限会社,千葉県,銚子市,明神町１丁目１７３番地３,,12,202,2880002,,,2022-12-05,清算の結了等,,,2015-10-05,1,,,,,タカシーフードサービス,0
122,1060001007260,登記記録の閉鎖等,0,2022-12-12,2022-12-05,株式会社未来経営,,株式会社,栃木県,宇都宮市,若草４丁目２１番２７号,,09,201,3200072,,,2022-12-05,清算の結了等,,,2015-10-05,1,,,,,ミライケイエイ,0
129,1080001009008,登記記録の閉鎖等,0,2022-12-12,2022-12-07,株式会社富士建設,,株式会社,静岡県,静岡市清水区,辻１丁目４番４１号,00067289,22,103,4240806,,,2022-12-07,清算の結了等,,,2015-10-05,1,,,,,フジケンセツ,0
130,1080005006422,登記記録の閉鎖等,0,2022-12-12,2022-12-09,特定非営利活動法人だいち,,その他の設立登記法人,静岡県,焼津市,宗高１５１９番地の５,,22,212,4210205,,,2022-12-09,清算の結了等,,,2015-10-05,1,,,,,ダイチ,0
132,1100002014268,登記記録の閉鎖等,0,2022-12-12,2022-12-07,正恵薬品有限会社,,有限会社,長野県,上田市,上田原６８７番地の１０,,20,203,3861102,,,2022-12-07,清算の結了等,,,2015-10-05,1,,,,,セイケイヤクヒン,0
164,1120901032995,登記記録の閉鎖等,0,2022-12-12,2022-12-02,キャリアアイデンティティ株式会社,,株式会社,大阪府,高槻市,藤の里町５番８号,,27,207,5690025,,,2022-12-02,清算の結了等,,,2015-10-05,1,,,,,,0
166,1122001015121,登記記録の閉鎖等,0,2022-12-12,2022-12-12,株式会社をかもと,,株式会社,大阪府,箕面市,粟生間谷東６丁目８番１３号,,27,220,5620022,,,2022-12-12,清算の結了等,,,2015-10-05,1,,,,,オカモト,0
167,1122005002594,登記記録の閉鎖等,0,2022-12-12,2022-12-07,特定非営利活動法人グラウンドワーク八尾,,その他の設立登記法人,大阪府,八尾市,本町５丁目１番３号グランフェル八尾３０１,,27,212,5810003,,,2022-12-07,清算の結了等,,,2015-10-05,1,,,,,グラウンドワークヤオ,0
174,1140001060607,登記記録の閉鎖等,0,2022-12-12,2022-12-06,株式会社ニューヒメジ,,株式会社,兵庫県,姫路市,網干区高田３６１番地１,,28,201,6711226,,,2022-12-06,清算の結了等,,,2015-10-05,1,,,,,ニューヒメジ,0
182,1160001013050,登記記録の閉鎖等,0,2022-12-12,2022-12-07,株式会社人間開発センター,,株式会社,滋賀県,草津市,草津１丁目８－１７プレアール草津１０３,,25,206,5250034,,,2022-12-07,清算の結了等,,,2015-10-05,1,,,,,ニンゲンカイハツセンター,0
207,1180301029934,登記記録の閉鎖等,0,2022-12-12,2022-12-06,株式会社きよみず,,株式会社,愛知県,豊川市,篠束町東宮１０３番地１,,23,207,4410102,,,2022-12-06,清算の結了等,,,2017-01-16,1,,,,,キヨミズ,0
243,1370002008821,登記記録の閉鎖等,0,2022-12-12,2022-12-08,有限会社村上自動車,,有限会社,宮城県,仙台市若林区,卸町東３丁目３番３号,,04,103,9840002,,,2022-12-08,清算の結了等,,,2015-10-05,1,,,,,ムラカミジドウシャ,0
263,1420002016265,登記記録の閉鎖等,0,2022-12-12,2022-11-30,有限会社北ウイング,,有限会社,青森県,弘前市,大字鷹匠町２６番地,,02,202,0368271,,,2022-11-30,合併による解散等,2420001008849,令和４年１１月３０日青森県弘前市大字早稲田二丁目２番地５株式会社あさひほうむ（2420001008849）に合併し解散,2015-10-05,1,,,,,キタウイング,0
291,2010401064153,登記記録の閉鎖等,0,2022-12-12,2022-12-02,株式会社ＪＴＯＰ,,株式会社,東京都,港区,虎ノ門２丁目２番５号共同通信会館,,13,103,1050001,,,2022-12-02,清算の結了等,,,2015-10-05,1,,,,,ジェイトップ,0
302,2011001129222,登記記録の閉鎖等,0,2022-12-12,2022-12-08,株式会社ソリティア,,株式会社,東京都,渋谷区,幡ヶ谷３丁目３９番１２号渋谷ウェストビル１階,,13,113,1510072,,,2022-12-08,清算の結了等,,,2019-07-26,1,,,,,ソリティア,0
314,2011303001608,登記記録の閉鎖等,0,2022-12-12,2022-12-07,そらときみ合同会社,,合同会社,東京都,新宿区,新宿２丁目１２－１３,,13,104,1600022,,,2022-12-07,清算の結了等,,,2015-10-05,1,,,,,ソラトキミ,0
316,2011401006946,登記記録の閉鎖等,0,2022-12-12,2022-12-07,株式会社東京グレージング,,株式会社,東京都,板橋区,栄町９番１０号,,13,119,1730015,,,2022-12-07,清算の結了等,,,2015-10-05,1,,,,,トウキョウグレージング,0
317,2011402017281,登記記録の閉鎖等,0,2022-12-12,2022-12-08,有限会社誠徳建装,,有限会社,東京都,板橋区,小豆沢４丁目２４番１８号－５０７,,13,119,1740051,,,2022-12-08,清算の結了等,,,2015-10-05,1,,,,,セイトクケンソウ,0
320,2011502007158,登記記録の閉鎖等,0,2022-12-12,2022-12-06,有限会社岩本,,有限会社,東京都,荒川区,西日暮里５丁目２５番２号,,13,118,1160013,,,2022-12-06,清算の結了等,,,2015-10-05,1,,,,,イワモト,0
324,2011701018880,登記記録の閉鎖等,0,2022-12-12,2022-12-08,マクロ通販株式会社,,株式会社,東京都,江戸川区,平井２丁目１１番１号アムールＭ３０１号室,,13,123,1320035,,,2022-12-08,清算の結了等,,,2015-10-05,1,,,,,マクロツウハン,0
340,2020003011255,登記記録の閉鎖等,0,2022-12-12,2022-12-06,合同会社めん処しかた,,合同会社,神奈川県,横浜市青葉区,榎が丘５番地５モンターナ青葉台１Ｆ,,14,117,2270063,,,2022-12-06,清算の結了等,,,2016-04-28,1,,,,,メンドコロシカタ,0
341,2020003011643,登記記録の閉鎖等,0,2022-12-12,2022-12-05,合同会社トリプルアクセル,,合同会社,神奈川県,横浜市金沢区,六浦３丁目４－６,,14,108,2360031,,,2022-12-05,清算の結了等,,,2016-08-04,1,,,,,トリプルアクセル,0
379,2050002007053,登記記録の閉鎖等,0,2022-12-12,2022-12-08,有限会社遠藤電気商会,,有限会社,茨城県,那珂郡東海村,舟石川駅西３丁目３番２８号,,08,341,3191116,,,2022-12-08,清算の結了等,,,2015-10-05,1,,,,,エンドウデンキショウカイ,0
381,2060002029393,登記記録の閉鎖等,0,2022-12-12,2022-12-05,有限会社ミスターハイコック,,有限会社,栃木県,小山市,城山町２丁目６番１１号,,09,208,3230025,,,2022-12-05,清算の結了等,,,2015-10-05,1,,,,,ミスターハイコック,0
382,2060002034410,登記記録の閉鎖等,0,2022-12-12,2022-12-05,有限会社谷村玩具研究所,,有限会社,栃木県,下都賀郡壬生町,おもちゃのまち１丁目５番２３号,,09,361,3210202,,,2022-12-05,清算の結了等,,,2015-10-05,1,,,,,タニムラガングケンキュウジョ,0
384,2070001039244,登記記録の閉鎖等,0,2022-12-12,2022-12-06,株式会社ブルケン前橋銘木,,株式会社,群馬県,前橋市,堀越町２５１番地の２１,,10,201,3710231,,,2022-12-06,合併による解散等,4012401008641,令和４年１２月１日東京都調布市飛田給一丁目８番地４９株式会社ブルケン・マルタマ（4012401008641）に合併し解散,2022-05-18,1,,,,,ブルケンマエバシメイボク,0
387,2080105005447,登記記録の閉鎖等,0,2022-12-12,2022-12-05,特定非営利活動法人富士宮市身体障害者ネットワーク,,その他の設立登記法人,静岡県,富士宮市,若の宮町８２６番地,,22,207,4180063,,,2022-12-05,清算の結了等,,,2015-10-05,1,,,,,フジノミヤシシンタイショウガイシャネットワーク,0
395,2120001046020,登記記録の閉鎖等,0,2022-12-12,2022-12-09,中元鋼業株式会社,,株式会社,大阪府,大阪市西区,九条南３丁目２８番１９号,,27,106,5500025,,,2022-12-09,清算の結了等,,,2015-10-05,1,,,,,,0
415,2130001045178,登記記録の閉鎖等,0,2022-12-12,2022-12-01,株式会社彩旬館,,株式会社,京都府,乙訓郡大山崎町,字大山崎小字鏡田３番地の１００,,26,303,6180071,,,2022-12-01,合併による解散等,6130001045190,令和４年１２月１日京都府乙訓郡大山崎町字大山崎小字鏡田３番地の１００株式会社ピックルスコーポレーション関西（6130001045190）に合併し解散,2015-10-05,1,,,,,サイシュンカン,0
420,2140001053642,登記記録の閉鎖等,0,2022-12-12,2022-12-08,株式会社梵,,株式会社,兵庫県,尼崎市,武庫之荘３丁目８番１３号,,28,202,6610035,,,2022-12-08,清算の結了等,,,2015-10-05,1,,,,,ソヨギ,0
430,2180001013584,登記記録の閉鎖等,0,2022-12-12,2022-12-07,三ツ輪タクシー株式会社,,株式会社,愛知県,名古屋市北区,清水３丁目１６番２８号,,23,103,4620844,,,2022-12-07,合併による解散等,7180301019590,令和４年１２月１日愛知県みよし市莇生町川岸当９番地の３愛知つばめ交通株式会社（7180301019590）に合併し解散,2015-10-05,1,,,,,ミツワタクシー,0
431,2180001045537,登記記録の閉鎖等,0,2022-12-12,2022-12-07,マルコ株式会社,,株式会社,愛知県,清須市,中河原１６７番地,,23,233,4520915,,,2022-12-07,清算の結了等,,,2015-10-05,1,,,,,マルコ,0
444,2200001000209,登記記録の閉鎖等,0,2022-12-12,2022-12-09,安藤木材株式会社,,株式会社,岐阜県,岐阜市,加納大黒町４丁目２４番地,,21,201,5008456,,,2022-12-09,清算の結了等,,,2015-10-05,1,,,,,アンドウモクザイ,0
449,2230001006343,登記記録の閉鎖等,0,2022-12-12,2022-12-08,サン保険企画株式会社,,株式会社,富山県,富山市,上本町６番５号,,16,201,9300057,,,2022-12-08,清算の結了等,,,2015-10-05,1,,,,,サンホケンキカク,0
466,2290801025883,登記記録の閉鎖等,0,2022-12-12,2022-12-07,ＭＳユナイテッド株式会社,,株式会社,福岡県,北九州市小倉北区,中島１丁目１番１－３０２号,,40,106,8020076,,,2022-12-07,清算の結了等,,,2019-09-20,1,,,,,エムエスユナイテッド,0
482,2370802000464,登記記録の閉鎖等,0,2022-12-12,2022-12-07,東北ジョイント工業有限会社,,有限会社,宮城県,名取市,下余田字中荷２８０番地,,04,207,9811223,,,2022-12-07,清算の結了等,,,2015-10-05,1,,,,,トウホクジョイントコウギョウ,0
487,2390002002945,登記記録の閉鎖等,0,2022-12-12,2022-12-07,有限会社ヤママル阿部工務店,,有限会社,山形県,山形市,西原１丁目３番地の５,,06,201,9900859,,,2022-12-07,清算の結了等,,,2015-10-05,1,,,,,ヤママルアベコウムテン,0
491,2420002009128,登記記録の閉鎖等,0,2022-12-12,2022-12-07,有限会社矢倉鉄工所,,有限会社,青森県,八戸市,大字長苗代字元木１番地の３,,02,203,0391103,,,2022-12-07,清算の結了等,,,2015-10-05,1,,,,,ヤクラテッコウショ,0
492,2430001050239,登記記録の閉鎖等,0,2022-12-12,2022-12-05,株式会社どんど,,株式会社,北海道,小樽市,稲穂２丁目２０番１号,,01,203,0470032,,,2022-12-05,清算の結了等,,,2015-10-05,1,,,,,ドンド,0
523,3010601049531,登記記録の閉鎖等,0,2022-12-12,2022-12-05,株式会社ＣＨ,,株式会社,東京都,豊島区,池袋２丁目５３番３号,,13,116,1710014,,,2022-12-05,清算の結了等,,,2016-04-14,1,,,,,シーエイチ,0
551,3012402020489,登記記録の閉鎖等,0,2022-12-12,2022-12-01,株式会社みうら,,株式会社,東京都,渋谷区,代々木１丁目３０番７号,,13,113,1510053,,,2022-12-01,合併による解散等,4011001030931,令和４年１０月２日東京都渋谷区代々木一丁目３０番７号株式会社ヤマノホールディングス（4011001030931）に合併し解散,2015-10-05,1,,,,,ミウラ,0
568,3020002002790,登記記録の閉鎖等,0,2022-12-12,2022-12-06,有限会社斉藤工業,,有限会社,神奈川県,横浜市泉区,上飯田町２８０８番地の５,,14,116,2450018,,,2022-12-06,清算の結了等,,,2015-10-05,1,,,,,サイトウコウギョウ,0
569,3020002059690,登記記録の閉鎖等,0,2022-12-12,2022-12-07,有限会社アプローチ,,有限会社,神奈川県,横浜市金沢区,富岡西７丁目４１番１－４０６号,,14,108,2360052,,,2022-12-07,清算の結了等,,,2015-10-05,1,,,,,アプローチ,0
570,3020002082949,登記記録の閉鎖等,0,2022-12-12,2022-12-07,有限会社石井板金,,有限会社,神奈川県,川崎市中原区,上新城２丁目４番２号,,14,133,2110045,,,2022-12-07,清算の結了等,,,2015-10-05,1,,,,,イシイバンキン,0
574,3020003010280,登記記録の閉鎖等,0,2022-12-12,2022-12-05,合同会社おひさまＦ＆Ｂ,,合同会社,神奈川県,横浜市金沢区,六浦３丁目４－６,,14,108,2360031,,,2022-12-05,清算の結了等,,,2015-10-05,1,,,,,オシサマエフアンドビー,0
579,3021001010462,登記記録の閉鎖等,0,2022-12-12,2022-12-06,株式会社鎌倉技研,,株式会社,神奈川県,鎌倉市,台５丁目１番１６号,,14,204,2470061,,,2022-12-06,清算の結了等,,,2015-10-05,1,,,,,カマクラギケン,0
611,3040002019965,登記記録の閉鎖等,0,2022-12-12,2022-12-02,株式会社ファッショナブルフーズ・インターナショナル,,株式会社,東京都,港区,麻布十番２丁目５番１号,,13,103,1060045,,,2022-12-02,合併による解散等,8011001114994,令和４年１２月１日東京都港区赤坂八丁目５番３０号株式会社ルック（8011001114994）に合併し解散,2015-10-05,1,,,,,ファッショナブルフーズインターナショナル,0
612,3040002023604,登記記録の閉鎖等,0,2022-12-12,2022-12-02,有限会社田中経営研究所,,有限会社,千葉県,船橋市,丸山４丁目６番３号,,12,204,2730048,,,2022-12-02,清算の結了等,,,2015-10-05,1,,,,,タナカケイエイケンキュウショ,0
616,3050002024873,登記記録の閉鎖等,0,2022-12-12,2022-12-06,有限会社ヤナノ左官工業,,有限会社,茨城県,古河市,葛生１３３８番地３,,08,204,3060211,,,2022-12-06,清算の結了等,,,2015-10-05,1,,,,,ヤナノサカンコウギョウ,0
618,3060001014833,登記記録の閉鎖等,0,2022-12-12,2022-12-05,株式会社柳美工,,株式会社,栃木県,小山市,大字羽川９２５番地２９,,09,208,3230012,,,2022-12-05,清算の結了等,,,2015-10-05,1,,,,,ヤナギビコウ,0
622,3100001008450,登記記録の閉鎖等,0,2022-12-12,2022-12-07,竹内木材株式会社,,株式会社,長野県,小諸市,大手１丁目６番８号,,20,208,3840031,,,2022-12-07,清算の結了等,,,2015-10-05,1,,,,,タケウチモクザイ,0
625,3100003005669,登記記録の閉鎖等,0,2022-12-12,2022-12-08,ＪＡＮＦＩＬ　ＮＡＧＡＮＯ　ＩＢＳ　Ａｒｔｓ合同会社,,合同会社,長野県,長野市,上松１丁目５－１２サーパス上松６０４,,20,201,3800802,,,2022-12-08,清算の結了等,,,2020-04-27,1,,,,,ジャンフィルナガノアイビーエスアーツ,0
641,3120002018298,登記記録の閉鎖等,0,2022-12-12,2022-12-09,有限会社レインボー,,有限会社,大阪府,大阪市住吉区,万代東２丁目３番３９号,,27,120,5580056,,,2022-12-09,清算の結了等,,,2015-10-05,1,,,,,レインボー,0
648,3120101035178,登記記録の閉鎖等,0,2022-12-12,2022-12-09,株式会社エコ・イノクチ,,株式会社,大阪府,富田林市,梅の里２丁目１０番１０号,,27,214,5840001,,,2022-12-09,清算の結了等,,,2015-10-05,1,,,,,エコイノクチ,0
664,3180001030595,登記記録の閉鎖等,0,2022-12-12,2022-12-06,株式会社かとう検診器具製造所,,株式会社,愛知県,名古屋市中村区,豊国通４丁目２６番地ＳＫビル,,23,105,4530834,,,2022-12-06,合併による解散等,7120001184162,令和４年１２月１日大阪市北区豊崎六丁目８番１号大成メディカル株式会社（7120001184162）に合併し解散,2015-10-05,1,,,,,カトウケンシンキグセイゾウショ,0
671,3180001100778,登記記録の閉鎖等,0,2022-12-12,2022-12-06,株式会社アバンテクス,,株式会社,愛知県,日進市,五色園４丁目２９２１番地,,23,230,4700105,,,2022-12-06,清算の結了等,,,2015-10-05,1,,,,,アバンテクス,0
684,3180303001393,登記記録の閉鎖等,0,2022-12-12,2022-12-06,合名会社角十中神呉服店,,合名会社,愛知県,豊橋市,新本町７２番地,,23,201,4400892,,,2022-12-06,清算の結了等,,,2015-10-05,1,,,,,カクジュウナカガミゴフクテン,0
687,3200001017318,登記記録の閉鎖等,0,2022-12-12,2022-12-09,八尋産業株式会社,,株式会社,岐阜県,美濃加茂市,森山町１丁目８番１１号,,21,211,5050021,,,2022-12-09,清算の結了等,,,2015-10-05,1,,,,,,0
688,3200001018910,登記記録の閉鎖等,0,2022-12-12,2022-12-06,朝日利器株式会社,,株式会社,岐阜県,関市,宮地町７番９号,,21,205,5013827,,,2022-12-06,清算の結了等,,,2015-10-05,1,,,,,アサヒリキ,0
692,3200002013729,登記記録の閉鎖等,0,2022-12-12,2022-12-08,有限会社スエナガ,,有限会社,岐阜県,不破郡垂井町,宮代２１９６番地の３,,21,361,5032124,,,2022-12-08,清算の結了等,,,2015-10-05,1,,,,,スエナガ,0
705,3260001021132,登記記録の閉鎖等,0,2022-12-12,2022-12-06,株式会社つちや,,株式会社,岡山県,津山市,福力２９４番地１,,33,203,7080857,,,2022-12-06,清算の結了等,,,2015-10-05,1,,,,,ツチヤ,0
706,3260002025405,登記記録の閉鎖等,0,2022-12-12,2022-12-07,有限会社マリンショップ上山,,有限会社,岡山県,笠岡市,笠岡２４１８番地,,33,205,7140081,,,2022-12-07,清算の結了等,,,2015-10-05,1,,,,,マリンショップカミヤマ,0
713,3300002006821,登記記録の閉鎖等,0,2022-12-12,2022-12-07,富永鉄工有限会社,,有限会社,佐賀県,鹿島市,大字常広５１３番地,,41,207,8491301,,,2022-12-07,清算の結了等,,,2015-10-05,1,,,,,トミナガテッコウ,0
742,3430001043695,登記記録の閉鎖等,0,2022-12-12,2022-12-05,株式会社設備設計アルファ,,株式会社,北海道,千歳市,本町２丁目６番地２,,01,224,0660047,,,2022-12-05,清算の結了等,,,2015-10-05,1,,,,,セツビセッケイアルファ,0
803,4011601000276,登記記録の閉鎖等,0,2022-12-12,2022-12-06,赤松電設株式会社,,株式会社,東京都,練馬区,旭町２丁目１６番１１号,,13,120,1790071,,,2022-12-06,清算の結了等,,,2015-10-05,1,,,,,アカマツデンセツ,0
825,4020002076264,登記記録の閉鎖等,0,2022-12-12,2022-12-06,有限会社エストン,,有限会社,神奈川県,海老名市,柏ケ谷６００番地の５（１－５０５）,,14,215,2430402,,,2022-12-06,清算の結了等,,,2015-10-05,1,,,,,エストン,0
827,4021001075050,登記記録の閉鎖等,0,2022-12-12,2022-12-06,富士ダイヤモンド株式会社,,株式会社,神奈川県,藤沢市,片瀬１丁目２番３６,,14,205,2510032,,,2022-12-06,清算の結了等,,,2022-01-26,1,,,,,フジダイヤモンド,0
835,4030001090422,登記記録の閉鎖等,0,2022-12-12,2022-12-06,株式会社アイ・エス・キャド,,株式会社,埼玉県,飯能市,大字岩沢２５６番地,,11,209,3570023,,,2022-12-06,清算の結了等,,,2015-10-05,1,,,,,アイエスキャド,0
845,4040001058096,登記記録の閉鎖等,0,2022-12-12,2022-12-07,株式会社エイ・エム・アイ,,株式会社,千葉県,山武市,松尾町猿尾２１１番地３,,12,237,2891513,,,2022-12-07,合併による解散等,3180301006221,令和４年１２月１日愛知県豊橋市白河町１００番地株式会社アスコ（3180301006221）に合併し解散,2015-10-05,1,,,,,エイエムアイ,0
850,4040002022885,登記記録の閉鎖等,0,2022-12-12,2022-12-05,有限会社写楽,,有限会社,千葉県,船橋市,飯山満町３丁目１１２番地８２,,12,204,2740822,,,2022-12-05,清算の結了等,,,2015-10-05,1,,,,,シャラク,0
851,4040002054904,登記記録の閉鎖等,0,2022-12-12,2022-12-02,有限会社大宮組,,有限会社,千葉県,成田市,赤荻１６３８番地,,12,211,2860832,,,2022-12-02,清算の結了等,,,2015-10-05,1,,,,,オオミヤグミ,0
853,4040003017802,登記記録の閉鎖等,0,2022-12-12,2022-12-05,クロスピラーズ合同会社,,合同会社,千葉県,木更津市,江川７７７,,12,206,2920063,,,2022-12-05,清算の結了等,,,2021-05-20,1,,,,,クロスピラーズ,0
855,4050001018537,登記記録の閉鎖等,0,2022-12-12,2022-12-07,株式会社丸通ハイヤー,,株式会社,茨城県,古河市,茶屋新田２７０番地２２,,08,204,3060051,,,2022-12-07,清算の結了等,,,2015-10-05,1,,,,,マルツウハイヤー,0
862,4070001026629,登記記録の閉鎖等,0,2022-12-12,2022-12-07,株式会社エム・アンド・エム企画,,株式会社,群馬県,吾妻郡草津町,大字草津２６０番地１,,10,426,3771711,,,2022-12-07,合併による解散等,1013303003072,令和４年１１月３０日東京都中野区東中野三丁目８番２号４階株式会社ガナビー（1013303003072）に合併し解散,2015-10-05,1,,,,,,0
874,4120001029592,登記記録の閉鎖等,0,2022-12-12,2022-12-08,根川石材株式会社,,株式会社,大阪府,大阪市港区,磯路３丁目２４番２３号,,27,107,5520003,,,2022-12-08,清算の結了等,,,2015-10-05,1,,,,,ネガワセキザイ,0
875,4120001130144,登記記録の閉鎖等,0,2022-12-12,2022-12-08,株式会社ナカヤ,,株式会社,大阪府,大阪市浪速区,幸町２丁目２番２０号清光ビル,,27,111,5560021,,,2022-12-08,清算の結了等,,,2015-10-05,1,,,,,ナカヤ,0
883,4120002013224,登記記録の閉鎖等,0,2022-12-12,2022-12-07,有限会社ライフデザイン,,有限会社,大阪府,大阪市天王寺区,下味原町１番２０号,,27,109,5430025,,,2022-12-07,清算の結了等,,,2015-10-05,1,,,,,ライフデザイン,0
884,4120003008017,登記記録の閉鎖等,0,2022-12-12,2022-12-08,合同会社平成基盤整備,,合同会社,静岡県,沼津市,岡一色４９５番９号,,22,203,4100012,,,2022-12-08,清算の結了等,,,2015-10-05,1,,,,,ヘイセイキバンセイビ,0
888,4120101035177,登記記録の閉鎖等,0,2022-12-12,2022-12-09,ティー・アイ・グリーンライン株式会社,,株式会社,大阪府,富田林市,梅の里２丁目１０番１０号,,27,214,5840001,,,2022-12-09,清算の結了等,,,2015-10-05,1,,,,,ティーアイグリーンライン,0
893,4130001005519,登記記録の閉鎖等,0,2022-12-12,2022-12-06,株式会社みぞかわハウジング,,株式会社,京都府,京都市北区,上賀茂蝉ケ垣内町４７番地,00047111,26,101,6038085,,,2022-12-06,清算の結了等,,,2015-10-05,1,,,,,ミゾカワハウジング,0
903,4140002033278,登記記録の閉鎖等,0,2022-12-12,2022-12-08,有限会社フクイ建設,,有限会社,兵庫県,揖保郡太子町,鵤２６９番地の７,,28,464,6711561,,,2022-12-08,清算の結了等,,,2015-10-05,1,,,,,フクイケンセツ,0
908,4180001010308,登記記録の閉鎖等,0,2022-12-12,2022-12-07,新栄自動車株式会社,,株式会社,愛知県,名古屋市瑞穂区,彌富通２丁目８番地,,23,108,4670064,,,2022-12-07,合併による解散等,7180301019590,令和４年１２月１日愛知県みよし市莇生町川岸当９番地の３愛知つばめ交通株式会社（7180301019590）に合併し解散,2015-10-05,1,,,,,シンエイジドウシャ,0
919,4180303004180,登記記録の閉鎖等,0,2022-12-12,2022-12-06,合同会社リューレント,,合同会社,愛知県,豊田市,小坂本町１丁目５番地５ＹＡＭＡＴＯＢＬＤＧ２階,,23,211,4710034,,,2022-12-06,清算の結了等,,,2018-10-17,1,,,,,リューレント,0
925,4200002023454,登記記録の閉鎖等,0,2022-12-12,2022-12-06,有限会社ナカタ製作所,,有限会社,岐阜県,中津川市,茄子川１３９２番地の１,,21,206,5099132,,,2022-12-06,清算の結了等,,,2015-10-05,1,,,,,,0
927,4220002007703,登記記録の閉鎖等,0,2022-12-12,2022-12-07,有限会社モリタ,,有限会社,石川県,金沢市,長町３丁目１２番２２号,,17,201,9200865,,,2022-12-07,清算の結了等,,,2015-10-05,1,,,,,モリタ,0
936,4270002001957,登記記録の閉鎖等,0,2022-12-12,2022-12-06,有限会社山本機械,,有限会社,鳥取県,鳥取市,数津１００番地５,,31,201,6800875,,,2022-12-06,清算の結了等,,,2015-10-05,1,,,,,ヤマモトキカイ,0
965,4370001046373,登記記録の閉鎖等,0,2022-12-12,2022-12-06,株式会社ルセット,,株式会社,宮城県,仙台市青葉区,北根３丁目２６番７号,,04,101,9810902,,,2022-12-06,清算の結了等,,,2020-11-17,1,,,,,ルセット,0
975,4400602001120,登記記録の閉鎖等,0,2022-12-12,2022-12-07,有限会社カイデンタルラボ,,有限会社,岩手県,胆沢郡金ケ崎町,西根諏訪小路３３番地１,,03,381,0294503,,,2022-12-07,清算の結了等,,,2015-10-05,1,,,,,カイデンタルラボ,0
977,4420001012865,登記記録の閉鎖等,0,2022-12-12,2022-12-05,株式会社ＳＲＣむつ,,株式会社,青森県,むつ市,大曲３丁目１２番１５号,,02,208,0350042,,,2022-12-05,清算の結了等,,,2015-10-05,1,,,,,エスアールシームツ,0
984,4460102000617,登記記録の閉鎖等,0,2022-12-12,2022-12-08,有限会社帯広タイル商会,,有限会社,北海道,帯広市,大通南２７丁目１６番地１,,01,207,0800010,,,2022-12-08,清算の結了等,,,2015-10-05,1,,,,,オビヒロタイルショウカイ,0
1007,5010401149959,登記記録の閉鎖等,0,2022-12-12,2022-12-02,株式会社ダブルエージェンシー,,株式会社,東京都,港区,赤坂９丁目４番１号パークコート赤坂檜町ザタワー１８０６号室,,13,103,1070052,,,2022-12-02,清算の結了等,,,2019-12-23,1,,,,,ダブルエージェンシー,0
1031,5011101021656,登記記録の閉鎖等,0,2022-12-12,2022-12-07,株式会社有通,,株式会社,東京都,新宿区,新宿４丁目１番１４号,,13,104,1600022,,,2022-12-07,清算の結了等,,,2015-10-05,1,,,,,ユウツウ,0
1042,5011502012790,登記記録の閉鎖等,0,2022-12-12,2022-12-06,有限会社加藤正明商店,,有限会社,東京都,北区,堀船３丁目２７番１０号,,13,117,1140004,,,2022-12-06,清算の結了等,,,2015-10-05,1,,,,,カトウマサアキショウテン,0
1051,5013202014308,登記記録の閉鎖等,0,2022-12-12,2022-12-06,有限会社三眞商事,,有限会社,神奈川県,横浜市神奈川区,沢渡２番４号ＹＳビル３階,,14,102,2210844,,,2022-12-06,清算の結了等,,,2015-10-05,1,,,,,サンシンショウジ,0
1052,5020001009777,登記記録の閉鎖等,0,2022-12-12,2022-12-07,株式会社川島総合設計,,株式会社,神奈川県,横浜市保土ケ谷区,西久保町１５２番地の２,,14,106,2400022,,,2022-12-07,清算の結了等,,,2015-10-05,1,,,,,カワシマソウゴウセッケイ,0
1061,5020002032349,登記記録の閉鎖等,0,2022-12-12,2022-12-05,有限会社アズマ精研,,有限会社,神奈川県,横浜市鶴見区,駒岡２丁目８番１４号,,14,101,2300071,,,2022-12-05,清算の結了等,,,2015-10-05,1,,,,,アズマセイケン,0
1077,5030001051209,登記記録の閉鎖等,0,2022-12-12,2022-12-06,ダンパ工業株式会社,,株式会社,埼玉県,越谷市,大字平方５５５番地,,11,222,3430002,,,2022-12-06,清算の結了等,,,2015-10-05,1,,,,,ダンパコウギョウ,0
1085,5030002020542,登記記録の閉鎖等,0,2022-12-12,2022-12-07,有限会社アンドウ紙器,,有限会社,埼玉県,さいたま市岩槻区,大字笹久保新田４８４番地,,11,110,3390035,,,2022-12-07,清算の結了等,,,2015-10-05,1,,,,,,0
1086,5030002091617,登記記録の閉鎖等,0,2022-12-12,2022-12-06,有限会社ナカバヤシ,,有限会社,埼玉県,越谷市,大字大杉５４４番地２８,,11,222,3430005,,,2022-12-06,清算の結了等,,,2015-10-05,1,,,,,ナカバヤシ,0
1105,5050001030573,登記記録の閉鎖等,0,2022-12-12,2022-12-07,株式会社おおもり,,株式会社,茨城県,守谷市,本町４１８６番地１０,,08,224,3020109,,,2022-12-07,清算の結了等,,,2015-10-05,1,,,,,オオモリ,0
1112,5060002038854,登記記録の閉鎖等,0,2022-12-12,2022-12-05,カネワ建設有限会社,,有限会社,栃木県,佐野市,赤見町４３５０番地,,09,204,3270104,,,2022-12-05,清算の結了等,,,2015-10-05,1,,,,,カネワケンセツ,0
1114,5070001011704,登記記録の閉鎖等,0,2022-12-12,2022-12-07,株式会社エス・ディー・プロジェクト,,株式会社,群馬県,甘楽郡甘楽町,大字福島１０５５番地１,,10,384,3702212,,,2022-12-07,清算の結了等,,,2015-10-05,1,,,,,エスディープロジェクト,0
1116,5070002027229,登記記録の閉鎖等,0,2022-12-12,2022-12-07,金谷重機有限会社,,有限会社,群馬県,北群馬郡吉岡町,大字大久保１５６０番地１,,10,345,3703602,,,2022-12-07,清算の結了等,,,2015-10-05,1,,,,,カナヤジュウキ,0
1123,5090002000472,登記記録の閉鎖等,0,2022-12-12,2022-12-06,エム・エス・ユー有限会社,,有限会社,山梨県,中央市,極楽寺９８２番地,,19,214,4093811,,,2022-12-06,清算の結了等,,,2015-10-05,1,,,,,エムエスユー,0
1170,5140001077052,登記記録の閉鎖等,0,2022-12-12,2022-12-05,株式会社ジャイロ,,株式会社,兵庫県,加東市,山国２０１３番地１０９,,28,228,6731421,,,2022-12-05,清算の結了等,,,2015-10-05,1,,,,,ジャイロ,0
1181,5150002005044,登記記録の閉鎖等,0,2022-12-12,2022-12-01,有限会社杉町企画,,有限会社,奈良県,大和郡山市,杉町２０６番地の１,,29,203,6391121,,,2022-12-01,合併による解散等,9150001005702,令和４年１２月１日奈良県大和郡山市杉町２０６番地の１株式会社光洋自動車（9150001005702）に合併し解散,2015-10-05,1,,,,,,0
1182,5160001009326,登記記録の閉鎖等,0,2022-12-12,2022-12-06,三和株式会社,,株式会社,滋賀県,彦根市,岡町１１８番地,,25,202,5220037,,,2022-12-06,清算の結了等,,,2015-10-05,1,,,,,サンワ,0
1183,5180001021907,登記記録の閉鎖等,0,2022-12-12,2022-12-07,株式会社笹屋,,株式会社,愛知県,名古屋市熱田区,沢上１丁目５番２２号,,23,109,4560012,,,2022-12-07,清算の結了等,,,2015-10-05,1,,,,,ササヤ,0
1192,5180002037274,登記記録の閉鎖等,0,2022-12-12,2022-12-06,株式会社シンセイ工業,,株式会社,愛知県,日進市,三本木町廻間１１１番地４７,,23,230,4700101,,,2022-12-06,清算の結了等,,,2015-10-05,1,,,,,シンセイコウギョウ,0
1200,5180301032430,登記記録の閉鎖等,0,2022-12-12,2022-12-06,株式会社ＲＯＢＯＷＡＶＥ,,株式会社,愛知県,知立市,八橋町池下１３番地２デュオプリメーロＢ棟２０２号,,23,225,4720001,,,2022-12-06,清算の結了等,,,2019-04-04,1,,,,,ロボウェイブ,0
1201,5190001007500,登記記録の閉鎖等,0,2022-12-12,2022-12-08,株式会社高瀬エンジニアリング,,株式会社,三重県,伊勢市,黒瀬町９１０番地２１,,24,203,5160018,,,2022-12-08,清算の結了等,,,2015-10-05,1,,,,,タカセエンジニアリング,0
1207,5200003004799,登記記録の閉鎖等,0,2022-12-12,2022-12-08,合同会社ＧＯＺＯＮ,,合同会社,岐阜県,高山市,上切町５９８番地,,21,203,5060044,,,2022-12-08,清算の結了等,,,2020-05-15,1,,,,,ゴゾン,0
1212,5230002000524,登記記録の閉鎖等,0,2022-12-12,2022-12-08,有限会社エヌケイ・マシンテクノ,,有限会社,富山県,富山市,婦中町蔵島３１６番地４,,16,201,9392726,,,2022-12-08,清算の結了等,,,2015-10-05,1,,,,,エヌケイマシンテクノ,0
1218,5260001008648,登記記録の閉鎖等,0,2022-12-12,2022-12-09,株式会社建誠,,株式会社,岡山県,岡山市南区,藤田３３１番地３,,33,104,7010221,,,2022-12-09,清算の結了等,,,2015-10-05,1,,,,,ケンセイ,0
1231,5290003008503,登記記録の閉鎖等,0,2022-12-12,2022-12-07,合同会社ＳＸＦ国際コンサルタント,,合同会社,福岡県,飯塚市,本町１１番８号,,40,205,8200042,,,2022-12-07,清算の結了等,,,2018-11-06,1,,,,,エスエックスエフコクサイコンサルタント,0
1242,5350002012532,登記記録の閉鎖等,0,2022-12-12,2022-12-07,有限会社久松製麺所,,有限会社,宮崎県,延岡市,中島町３丁目３５１番地,,45,203,8820846,,,2022-12-07,清算の結了等,,,2015-10-05,1,,,,,ヒサマツセイメンショ,0
1248,5420001015776,登記記録の閉鎖等,0,2022-12-12,2022-12-08,株式会社瀬津重機,,株式会社,青森県,八戸市,大字新井田字外久保４番地２０,,02,203,0310813,,,2022-12-08,清算の結了等,,,2017-06-15,1,,,,,,0
1253,5430002037257,登記記録の閉鎖等,0,2022-12-12,2022-12-06,有限会社コバヤシ軽金,,有限会社,北海道,札幌市東区,北十二条東９丁目３番１８－５０３号,,01,103,0650012,,,2022-12-06,清算の結了等,,,2015-10-05,1,,,,,コバヤシケイキン,0
1257,5460101000055,登記記録の閉鎖等,0,2022-12-12,2022-12-08,株式会社アトリエナカハラ,,株式会社,北海道,中川郡幕別町,札内西町３０番地の１５,,01,643,0890536,,,2022-12-08,清算の結了等,,,2015-10-05,1,,,,,アトリエナカハラ,0
1264,6010001088581,登記記録の閉鎖等,0,2022-12-12,2022-12-05,株式会社ＷＩＤセンター,,株式会社,東京都,港区,赤坂３丁目２番８号,,13,103,1070052,,,2022-12-05,清算の結了等,,,2015-10-05,1,,,,,ウィドセンター,0
1277,6010103001599,登記記録の閉鎖等,0,2022-12-12,2022-12-01,合同会社人間学,,合同会社,東京都,八王子市,横山町１０番１４号網代園南ビル２Ｆ,,13,201,1920081,,,2022-12-01,清算の結了等,,,2020-10-12,1,,,,,ニンゲンガク,0
1282,6010501045842,登記記録の閉鎖等,0,2022-12-12,2022-12-07,紙鏈株式会社,,株式会社,東京都,台東区,上野３丁目１１番５号,,13,106,1100005,,,2022-12-07,清算の結了等,,,2020-06-09,1,,,,,シレン,0
1299,6011101094899,登記記録の閉鎖等,0,2022-12-12,2022-12-07,株式会社Ｋ　ＰＬＵＳ,,株式会社,東京都,新宿区,西新宿６丁目２０番７号コンシェリア西新宿タワーズウエスト３９０９,,13,104,1600023,,,2022-12-07,清算の結了等,,,2021-04-26,1,,,,,ケイプラス,0
1308,6011401003056,登記記録の閉鎖等,0,2022-12-12,2022-12-02,志村貨物運送株式会社,,株式会社,東京都,板橋区,徳丸６丁目５０番９号,,13,119,1750083,,,2022-12-02,清算の結了等,,,2015-10-05,1,,,,,,0
1316,6012401010323,登記記録の閉鎖等,0,2022-12-12,2022-12-01,サントリービバレッジサービス株式会社,,株式会社,東京都,港区,芝浦３丁目１番１号,,13,103,1080023,,,2022-12-01,合併による解散等,8010401080079,令和４年１２月１日東京都港区芝浦三丁目１番１号サントリー食品インターナショナル株式会社（8010401080079）に合併し解散,2015-10-05,1,,,,,サントリービバレッジサービス,0
1318,6012702013017,登記記録の閉鎖等,0,2022-12-12,2022-12-07,有限会社ＫＳファーマシーグループ,,有限会社,神奈川県,川崎市幸区,堀川町５８０番地,,14,132,2120013,,,2022-12-07,合併による解散等,8010001191524,令和４年１２月１日東京都中央区八重洲二丁目５番１２号株式会社フィールドファーマシー（8010001191524）に合併し解散,2015-10-05,1,,,,,ケーエスファーマシーグループ,0
1321,6013202005867,登記記録の閉鎖等,0,2022-12-12,2022-12-02,有限会社ポリグロット,,有限会社,東京都,目黒区,中町２丁目５０番６号,,13,110,1530065,,,2022-12-02,清算の結了等,,,2015-10-05,1,,,,,,0
1331,6021002050752,登記記録の閉鎖等,0,2022-12-12,2022-12-07,有限会社福よし,,有限会社,神奈川県,足柄下郡箱根町,強羅１３００番地,,14,382,2500408,,,2022-12-07,清算の結了等,,,2015-10-05,1,,,,,フクヨシ,0
1334,6030001045531,登記記録の閉鎖等,0,2022-12-12,2022-12-08,株式会社ロジック,,株式会社,埼玉県,志木市,下宗岡２丁目１２番２１号,,11,228,3530003,,,2022-12-08,合併による解散等,7011601004316,令和４年１２月１日東京都練馬区豊玉北五丁目３２番４号株式会社堤美装（7011601004316）に合併し解散,2015-10-05,1,,,,,ロジック,0
1354,6040001109137,登記記録の閉鎖等,0,2022-12-12,2022-12-06,株式会社スカイテックサービス,,株式会社,千葉県,船橋市,宮本１丁目２０番８－６０３号,,12,204,2730003,,,2022-12-06,清算の結了等,,,2019-05-14,1,,,,,スカイテックサービス,0
1373,6050002012636,登記記録の閉鎖等,0,2022-12-12,2022-12-07,有限会社共栄通信,,有限会社,茨城県,稲敷郡阿見町,大字阿見２６６６番地１,,08,443,3000331,,,2022-12-07,清算の結了等,,,2015-10-05,1,,,,,キョウエイツウシン,0
1385,6080102006725,登記記録の閉鎖等,0,2022-12-12,2022-12-08,有限会社扇屋クリニング店,,有限会社,静岡県,駿東郡小山町,生土６番地の４,,22,344,4101303,,,2022-12-08,清算の結了等,,,2015-10-05,1,,,,,オウギヤクリーニングテン,0
1388,6100002016350,登記記録の閉鎖等,0,2022-12-12,2022-12-07,有限会社橋詰スチール,,有限会社,長野県,上田市,武石下本入５４０番地の４,,20,203,3860506,,,2022-12-07,清算の結了等,,,2015-10-05,1,,,,,ハシヅメスチール,0
1394,6110002017570,登記記録の閉鎖等,0,2022-12-12,2022-12-07,有限会社フクシマ,,有限会社,新潟県,三条市,林町２丁目２番３６号,,15,204,9550061,,,2022-12-07,清算の結了等,,,2015-10-05,1,,,,,フクシマ,0
1421,6130001022784,登記記録の閉鎖等,0,2022-12-12,2022-12-01,都興産株式会社,,株式会社,京都府,京都市中京区,壬生賀陽御所町３番地の２０賀陽ビル８階８１１号,,26,104,6048811,,,2022-12-01,合併による解散等,2130001022788,令和４年１２月１日京都市中京区東洞院錦小路下坂東屋町６５８番地都商事株式会社（2130001022788）に合併し解散,2015-10-05,1,,,,,ミヤココウサン,0
1425,6140001003429,登記記録の閉鎖等,0,2022-12-12,2022-11-24,サンパル土地住宅株式会社,,株式会社,兵庫県,神戸市灘区,八幡町１丁目５番８号,,28,102,6570051,,,2022-11-24,清算の結了等,,,2015-10-05,1,,,,,サンパルトチジュウタク,0
1426,6140001040546,登記記録の閉鎖等,0,2022-12-12,2022-12-07,株式会社シンエイテック,,株式会社,兵庫県,たつの市,御津町朝臣１２０３番地,,28,229,6711342,,,2022-12-07,清算の結了等,,,2015-10-05,1,,,,,シンエイテック,0
1434,6160005010361,登記記録の閉鎖等,0,2022-12-12,2022-12-07,特定非営利活動法人道,,その他の設立登記法人,滋賀県,彦根市,高宮町９０７番地１,,25,202,5220201,,,2022-12-07,清算の結了等,,,2017-01-31,1,,,,,ミチ,0
1439,6180001075464,登記記録の閉鎖等,0,2022-12-12,2022-12-02,株式会社葵園芸,,株式会社,愛知県,小牧市,大字三ツ渕６７４番地の１,,23,219,4850075,,,2022-12-02,清算の結了等,,,2015-10-05,1,,,,,アオイエンゲイ,0
1444,6180001134831,登記記録の閉鎖等,0,2022-12-12,2022-12-07,ラグアヴェール株式会社,,株式会社,愛知県,名古屋市中村区,名駅３丁目２８番１２号,,23,105,4500002,,,2022-12-07,清算の結了等,,,2018-12-18,1,,,,,ラグアヴェール,0
1452,6180002000826,登記記録の閉鎖等,0,2022-12-12,2022-12-08,有限会社スズキ電機,,有限会社,愛知県,名古屋市守山区,大牧町３番３７号,,23,113,4630085,,,2022-12-08,清算の結了等,,,2015-10-05,1,,,,,スズキデンキ,0
1454,6180002053824,登記記録の閉鎖等,0,2022-12-12,2022-12-06,有限会社三愛,,有限会社,愛知県,名古屋市港区,十一屋３丁目１３２番地,,23,111,4550831,,,2022-12-06,清算の結了等,,,2015-10-05,1,,,,,サンアイ,0
1467,6240003001239,登記記録の閉鎖等,0,2022-12-12,2022-12-07,ウェル・テック合同会社,,合同会社,広島県,広島市西区,天満町１４番８号,,34,104,7330022,,,2022-12-07,清算の結了等,,,2015-10-05,1,,,,,ウェルテック,0
1468,6250001015850,登記記録の閉鎖等,0,2022-12-12,2022-12-06,山陽小野田バイオマス発電株式会社,,株式会社,山口県,宇部市,中央町２丁目５番地１７新光産業株式会社中央町ビル３階,,35,202,7550045,,,2022-12-06,合併による解散等,5021001053947,令和４年１１月３０日東京都千代田区丸の内一丁目８番３号丸の内トラストタワー本館２０階株式会社ＳＨＩＣＨＩＪＯ（5021001053947）に合併し解散,2016-03-24,1,,,,,サンヨウオノダバイオマスハツデン,0
1472,6260002000132,登記記録の閉鎖等,0,2022-12-12,2022-12-12,有限会社アイ・ティー・エム,,有限会社,岡山県,岡山市南区,西市６９９番地の７,,33,104,7000953,,,2022-12-12,清算の結了等,,,2015-10-05,1,,,,,アイティーエム,0
1473,6260002007771,登記記録の閉鎖等,0,2022-12-12,2022-12-09,有限会社萩興業,,有限会社,岡山県,岡山市南区,中畦９９２番地の２,,33,104,7010213,,,2022-12-09,清算の結了等,,,2015-10-05,1,,,,,,0
1474,6260002012929,登記記録の閉鎖等,0,2022-12-12,2022-12-08,有限会社サンワサービス,,有限会社,岡山県,岡山市南区,福富中２丁目１５番３３号,,33,104,7028032,,,2022-12-08,清算の結了等,,,2015-10-05,1,,,,,サンワサービス,0
1484,6290005017690,登記記録の閉鎖等,0,2022-12-12,2022-12-09,特定非営利活動法人日中ペット産業振興協力研究会,,その他の設立登記法人,福岡県,古賀市,薬王寺１８５２番地１５,,40,223,8113124,,,2022-12-09,清算の結了等,,,2020-03-12,1,,,,,ニッチュウペットサンギョウシンコウキョウリョクケンキュウカイ,0
1485,6290801000692,登記記録の閉鎖等,0,2022-12-12,2022-12-07,株式会社北九州フカガワ,,株式会社,福岡県,北九州市小倉南区,曽根新田北７丁目５番１号,,40,107,8000219,,,2022-12-07,合併による解散等,8030001076970,令和４年１２月１日埼玉県川口市西青木二丁目９番５号株式会社フカガワ（8030001076970）に合併し解散,2015-10-05,1,,,,,キタキュウシュウフカガワ,0
1487,6290805000144,登記記録の閉鎖等,0,2022-12-12,2022-12-09,道祖神社,,その他の設立登記法人,福岡県,北九州市小倉北区,大字新魚町６番地,,40,106,8020000,,,2022-12-09,清算の結了等,,,2015-10-05,1,,,,,ドウソジンシャ,0
1488,6300002010408,登記記録の閉鎖等,0,2022-12-12,2022-12-07,有限会社篠崎紙文具店,,有限会社,佐賀県,唐津市,呉服町１８１２番地,,41,202,8470052,,,2022-12-07,清算の結了等,,,2015-10-05,1,,,,,シノザキカミブングテン,0
1501,6370001005765,登記記録の閉鎖等,0,2022-12-12,2022-12-08,株式会社西村塗装店,,株式会社,宮城県,仙台市宮城野区,宮千代１丁目３３番４,,04,102,9830044,,,2022-12-08,清算の結了等,,,2015-10-05,1,,,,,ニシムラトソウテン,0
1502,6370002002092,登記記録の閉鎖等,0,2022-12-12,2022-12-08,有限会社仙台グルメフーズ,,有限会社,宮城県,仙台市青葉区,北根３丁目１３番５号,,04,101,9810902,,,2022-12-08,清算の結了等,,,2015-10-05,1,,,,,センダイグルメフーズ,0
1509,6390002008253,登記記録の閉鎖等,0,2022-12-12,2022-12-05,有限会社北西電設,,有限会社,山形県,飽海郡遊佐町,吉出字金俣１４５番地の１,,06,461,9998302,,,2022-12-05,清算の結了等,,,2015-10-05,1,,,,,ホクセイデンセツ,0
1517,6460001004808,登記記録の閉鎖等,0,2022-12-12,2022-12-07,タカオ商事株式会社,,株式会社,北海道,釧路市,星が浦大通４丁目３番５号,,01,206,0840912,,,2022-12-07,清算の結了等,,,2015-10-05,1,,,,,タカオショウジ,0
1518,6470001003957,登記記録の閉鎖等,0,2022-12-12,2022-12-08,株式会社美濃ビル,,株式会社,香川県,高松市,林町１５５７番地１,,37,201,7610301,,,2022-12-08,清算の結了等,,,2015-10-05,1,,,,,ミノビル,0
1524,7010001024825,登記記録の閉鎖等,0,2022-12-12,2022-12-05,株式会社トレックス,,株式会社,東京都,千代田区,外神田５丁目５番１５号横山ビル３階,,13,101,1010021,,,2022-12-05,清算の結了等,,,2015-10-05,1,,,,,トレックス,0
1535,7010005005862,登記記録の閉鎖等,0,2022-12-12,2022-12-08,医療法人社団鴎盟会,00050056,その他の設立登記法人,東京都,中央区,日本橋小網町３番１２号１階、２階,,13,102,1030016,,,2022-12-08,清算の結了等,,,2015-10-05,1,,,,,オウメイカイ,0
1548,7010602028233,登記記録の閉鎖等,0,2022-12-12,2022-12-05,有限会社木下事務機サービス,,有限会社,東京都,江東区,越中島１丁目３番１号,,13,108,1350044,,,2022-12-05,清算の結了等,,,2015-10-05,1,,,,,キノシタジムキサービス,0
1564,7011003004344,登記記録の閉鎖等,0,2022-12-12,2022-12-07,ｃａｐｉｔａｌ合同会社,,合同会社,東京都,渋谷区,神宮前３丁目７番１号マリオンビル５階,,13,113,1500001,,,2022-12-07,清算の結了等,,,2015-10-05,1,,,,,キャピタル,0
1566,7011101053482,登記記録の閉鎖等,0,2022-12-12,2022-12-06,株式会社ノンデュート,,株式会社,静岡県,熱海市,海光町５－１サンライト海光２階,,22,205,4130003,,,2022-12-06,清算の結了等,,,2015-10-05,1,,,,,ノンデュート,0
1571,7011103001927,登記記録の閉鎖等,0,2022-12-12,2022-12-07,合資会社パシフィコリサーチ,,合資会社,東京都,新宿区,高田馬場３丁目２番１４号,,13,104,1690075,,,2022-12-07,清算の結了等,,,2015-10-05,1,,,,,パシフィコリサーチ,0
1582,7011601016939,登記記録の閉鎖等,0,2022-12-12,2022-12-07,株式会社ホスネット,,株式会社,東京都,練馬区,錦２丁目５番２－２０３号,,13,120,1790082,,,2022-12-07,清算の結了等,,,2015-10-05,1,,,,,ホスネット,0
1590,7012801007629,登記記録の閉鎖等,0,2022-12-12,2022-12-02,株式会社Ｎａｔｕｒａｌ,,株式会社,東京都,立川市,錦町１丁目３番３号,,13,202,1900022,,,2022-12-02,清算の結了等,,,2015-10-05,1,,,,,,0
1592,7013301043065,登記記録の閉鎖等,0,2022-12-12,2022-12-09,株式会社ドンファン,,株式会社,東京都,板橋区,熊野町５番７－７０１号,,13,119,1730025,,,2022-12-09,清算の結了等,,,2018-11-08,1,,,,,ドンファン,0
1597,7020001067377,登記記録の閉鎖等,0,2022-12-12,2022-12-06,株式会社アイプレック,,株式会社,神奈川県,川崎市宮前区,有馬２丁目９番１８号,,14,136,2160003,,,2022-12-06,合併による解散等,1180001045546,令和４年１２月１日愛知県清須市西須ケ口９３番地株式会社宮崎（1180001045546）に合併し解散,2015-10-05,1,,,,,アイプレック,0
1602,7020001137130,登記記録の閉鎖等,0,2022-12-12,2022-12-07,株式会社福清商事,,株式会社,神奈川県,横浜市中区,伊勢佐木町５丁目１２７番地１４,,14,104,2310045,,,2022-12-07,清算の結了等,,,2020-08-06,1,,,,,フクチンショウジ,0
1607,7020002022752,登記記録の閉鎖等,0,2022-12-12,2022-12-07,有限会社ユービル,,有限会社,神奈川県,横浜市旭区,二俣川２丁目６２番地,,14,112,2410821,,,2022-12-07,清算の結了等,,,2015-10-05,1,,,,,ユービル,0
1608,7020002022942,登記記録の閉鎖等,0,2022-12-12,2022-12-06,有限会社アイダ保険サービス,,有限会社,神奈川県,横浜市保土ケ谷区,帷子町２丁目９９番地２号,,14,106,2400013,,,2022-12-06,清算の結了等,,,2015-10-05,1,,,,,アイダホケンサービス,0
1621,7030001051438,登記記録の閉鎖等,0,2022-12-12,2022-12-06,ベアロン工業株式会社,,株式会社,埼玉県,春日部市,南２丁目２番２４号,,11,214,3440064,,,2022-12-06,清算の結了等,,,2015-10-05,1,,,,,ベアロンコウギョウ,0
1645,7070001032335,登記記録の閉鎖等,0,2022-12-12,2022-12-07,株式会社Ｌｉｌｉｅ,,株式会社,群馬県,前橋市,五代町９１７番地９,,10,201,3710132,,,2022-12-07,清算の結了等,,,2016-06-27,1,,,,,リーリエ,0
1650,7080102021673,登記記録の閉鎖等,0,2022-12-12,2022-12-07,有限会社永楽堂,,有限会社,静岡県,賀茂郡松崎町,宮内３００番地の２,,22,305,4103612,,,2022-12-07,清算の結了等,,,2015-10-05,1,,,,,エイラクドウ,0
1682,7122001020108,登記記録の閉鎖等,0,2022-12-12,2022-12-09,株式会社マルミ,,株式会社,大阪府,八尾市,萱振町１丁目７６番地の２,,27,212,5810834,,,2022-12-09,清算の結了等,,,2015-10-05,1,,,,,マルミ,0
1686,7130001063712,登記記録の閉鎖等,0,2022-12-12,2022-12-05,株式会社Ｇ．Ｈ．Ｎｅｅｄｓ,,株式会社,京都府,京都市西京区,桂南巽町２３番地,00115516,26,111,6158074,,,2022-12-05,清算の結了等,,,2019-01-18,1,,,,,ジーエイチニーズ,0
1690,7140001022808,登記記録の閉鎖等,0,2022-12-12,2022-12-07,株式会社ワールド・アリーバ,,株式会社,兵庫県,神戸市東灘区,本山南町６丁目５番１９号,,28,101,6580015,,,2022-12-07,清算の結了等,,,2015-10-05,1,,,,,ワールドアリーバ,0
1705,7180001146660,登記記録の閉鎖等,0,2022-12-12,2022-12-08,株式会社訶梨,,株式会社,愛知県,名古屋市中村区,二ツ橋町３丁目５番,,23,105,4530813,,,2022-12-08,清算の結了等,,,2021-06-18,1,,,,,カリ,0
1707,7180002066478,登記記録の閉鎖等,0,2022-12-12,2022-12-06,有限会社ダイシン,,有限会社,愛知県,春日井市,杁ケ島町６番地の７,,23,206,4860921,,,2022-12-06,清算の結了等,,,2015-10-05,1,,,,,ダイシン,0
1709,7180002082979,登記記録の閉鎖等,0,2022-12-12,2022-12-02,有限会社友千商会,,有限会社,愛知県,一宮市,大和町宮地花池字出町裏４５番地１,,23,203,4910847,,,2022-12-02,清算の結了等,,,2015-10-05,1,,,,,ユウセンショウカイ,0
1717,7200002000896,登記記録の閉鎖等,0,2022-12-12,2022-12-07,有限会社オフィスツースリー,,有限会社,愛知県,稲沢市,長野３丁目２番４２号,,23,220,4928142,,,2022-12-07,清算の結了等,,,2015-10-05,1,,,,,オフィスツースリー,0
1752,7330002014644,登記記録の閉鎖等,0,2022-12-12,2022-12-08,有限会社ライフ・ソフト,,有限会社,熊本県,熊本市中央区,帯山５丁目４０番５０号,,43,101,8620924,,,2022-12-08,清算の結了等,,,2015-10-05,1,,,,,ライフソフト,0
1760,7370001015202,登記記録の閉鎖等,0,2022-12-12,2022-12-08,Ｈｉ高野株式会社,00081483,株式会社,宮城県,仙台市青葉区,小田原６丁目５番１９号,,04,101,9800003,,,2022-12-08,清算の結了等,,,2015-10-05,1,,,,,ハイタカノ,0
1761,7380001019045,登記記録の閉鎖等,0,2022-12-12,2022-12-06,株式会社会津嶺の里,,株式会社,福島県,耶麻郡磐梯町,大字磐梯字十王堂３８番地,,07,407,9693301,,,2022-12-06,清算の結了等,,,2015-10-05,1,,,,,アイヅネノサト,0
1762,7380002004566,登記記録の閉鎖等,0,2022-12-12,2022-12-06,有限会社アーベック・コーポレーション,,有限会社,福島県,伊達郡国見町,大字藤田字日向１番地の２２,,07,303,9691761,,,2022-12-06,清算の結了等,,,2015-10-05,1,,,,,アーベックコーポレーション,0
1801,8010401091613,登記記録の閉鎖等,0,2022-12-12,2022-12-07,サンタイネスコーポレーション株式会社,,株式会社,長野県,北佐久郡軽井沢町,大字発地１３９８番地４６８,,20,321,3890113,,,2022-12-07,清算の結了等,,,2015-10-05,1,,,,,サンタイネスコーポレーション,0
1819,8010802019907,登記記録の閉鎖等,0,2022-12-12,2022-12-05,有限会社ベイシス,,有限会社,東京都,大田区,大森本町１丁目７番１号－３０３,,13,111,1430011,,,2022-12-05,清算の結了等,,,2015-10-05,1,,,,,,0
1848,8011103011826,登記記録の閉鎖等,0,2022-12-12,2022-12-01,合同会社ＹＧＤ‐Ｓ２,,合同会社,東京都,新宿区,百人町１丁目３－１４ＮＡＶＩ新宿７０５,,13,104,1690073,,,2022-12-01,清算の結了等,,,2022-06-09,1,,,,,ワイジーディーエスツー,0
1852,8011301001620,登記記録の閉鎖等,0,2022-12-12,2022-12-08,株式会社関東広告,,株式会社,東京都,杉並区,上井草１丁目１７番４号,,13,115,1670023,,,2022-12-08,合併による解散等,3013301008096,令和４年１２月１日東京都豊島区南池袋二丁目８番１８号株式会社東京鉄道広告社（3013301008096）に合併し解散,2015-10-05,1,,,,,カントウコウコク,0
1870,8020001135991,登記記録の閉鎖等,0,2022-12-12,2022-12-06,アシスト株式会社,,株式会社,神奈川県,横浜市港北区,篠原町１１０３番地１４金港ビル１Ｆ,,14,109,2220026,,,2022-12-06,清算の結了等,,,2020-05-01,1,,,,,アシスト,0
1873,8020002063374,登記記録の閉鎖等,0,2022-12-12,2022-12-06,有限会社港南マリン,,有限会社,神奈川県,横浜市保土ケ谷区,釜台町５番３－１０２号,,14,106,2400066,,,2022-12-06,清算の結了等,,,2015-10-05,1,,,,,コウナンマリン,0
1897,8040001087364,登記記録の閉鎖等,0,2022-12-12,2022-12-05,株式会社Ｓｙｎｅｒｇｙ,,株式会社,千葉県,千葉市中央区,富士見２丁目２１番１０号,,12,101,2600015,,,2022-12-05,清算の結了等,,,2015-10-05,1,,,,,シナジー,0
1901,8040002099466,登記記録の閉鎖等,0,2022-12-12,2022-12-02,有限会社鈴木電工,,有限会社,千葉県,館山市,稲４３０番地,,12,205,2940012,,,2022-12-02,清算の結了等,,,2015-10-05,1,,,,,スズキデンコウ,0
1910,8060001028770,登記記録の閉鎖等,0,2022-12-12,2022-12-05,株式会社エムアンドエイチ,,株式会社,栃木県,小山市,若木町１丁目１２番１５号,,09,208,3230028,,,2022-12-05,清算の結了等,,,2016-11-01,1,,,,,エムアンドエイチ,0
1940,8120001143398,登記記録の閉鎖等,0,2022-12-12,2022-12-07,ＭＣ株式会社,,株式会社,東京都,三鷹市,下連雀２丁目１３番３５号,,13,204,1810013,,,2022-12-07,合併による解散等,7010001055770,令和４年１２月１日東京都中央区日本橋二丁目１番１０号株式会社双葉ホールディングス（7010001055770）に合併し解散,2015-10-05,1,,,,,エムシー,0
1955,8120901019821,登記記録の閉鎖等,0,2022-12-12,2022-12-01,豊洲商事株式会社,,株式会社,大阪府,池田市,井口堂１丁目９番２３号,,27,204,5630023,,,2022-12-01,合併による解散等,4120901022969,令和４年１２月１日大阪府豊中市南桜塚二丁目１５番８号株式会社えいろく（4120901022969）に合併し解散,2015-10-05,1,,,,,トヨスショウジ,0
1957,8120902018789,登記記録の閉鎖等,0,2022-12-12,2022-12-08,有限会社セイヤ・エンジニアリング,,有限会社,大阪府,豊中市,永楽荘１丁目６番１号,,27,203,5600051,,,2022-12-08,清算の結了等,,,2015-10-05,1,,,,,セイヤエンジニアリング,0
1965,8130001034737,登記記録の閉鎖等,0,2022-12-12,2022-12-08,ケイケイワールド株式会社,,株式会社,京都府,宇治市,小倉町西浦３９番地の２３,,26,204,6110042,,,2022-12-08,清算の結了等,,,2015-10-05,1,,,,,ケイケイワールド,0
1971,8140001063561,登記記録の閉鎖等,0,2022-12-12,2022-12-07,株式会社ハニオカ家具,,株式会社,兵庫県,神崎郡福崎町,西田原１３０３番地の１,,28,443,6792204,,,2022-12-07,清算の結了等,,,2015-10-05,1,,,,,ハニオカカグ,0
1990,8180002005063,登記記録の閉鎖等,0,2022-12-12,2022-12-05,有限会社ヒロ,,有限会社,愛知県,名古屋市千種区,松軒１丁目４番１８号,,23,101,4640084,,,2022-12-05,清算の結了等,,,2015-10-05,1,,,,,ヒロ,0
1997,8190002017768,登記記録の閉鎖等,0,2022-12-12,2022-12-08,有限会社東員石油,,有限会社,三重県,員弁郡東員町,大字鳥取１６６番地,,24,324,5110241,,,2022-12-08,清算の結了等,,,2015-10-05,1,,,,,トウインセキユ,0
2001,8200005013317,登記記録の閉鎖等,0,2022-12-12,2022-12-12,農事組合法人夢有珠ファーム,,その他の設立登記法人,岐阜県,大垣市,津村町３丁目５４５番地,,21,202,5030003,,,2022-12-12,清算の結了等,,,2022-03-24,1,,,,,ムウスファーム,0
2012,8260001010824,登記記録の閉鎖等,0,2022-12-12,2022-12-09,株式会社ビームス,,株式会社,岡山県,岡山市北区,花尻１２９番地４,,33,101,7010134,,,2022-12-09,清算の結了等,,,2015-10-05,1,,,,,ビームス,0
2026,8290801016992,登記記録の閉鎖等,0,2022-12-12,2022-12-08,株式会社筑豊振興,,株式会社,福岡県,田川市,大字弓削田５７８番地の１,,40,206,8260041,,,2022-12-08,清算の結了等,,,2015-10-05,1,,,,,チクホウシンコウ,0
2059,8430001049705,登記記録の閉鎖等,0,2022-12-12,2022-12-06,株式会社オーガスタコーポレーション,,株式会社,北海道,札幌市中央区,北四条西２７丁目１番１０号,,01,101,0640824,,,2022-12-06,清算の結了等,,,2015-10-05,1,,,,,オーガスタコーポレーション,0
2063,8430003010400,登記記録の閉鎖等,0,2022-12-12,2022-12-09,ストロベリー本舗合同会社,,合同会社,北海道,札幌市北区,北七条西５丁目６番地１ストークマンション札幌７０８号,,01,102,0600807,,,2022-12-09,清算の結了等,,,2019-04-26,1,,,,,ストロベリーホンポ,0
2077,9010001161518,登記記録の閉鎖等,0,2022-12-12,2022-12-06,株式会社Ｇ１,,株式会社,東京都,中央区,銀座１丁目２７番８号セントラルビル７０３号,,13,102,1040061,,,2022-12-06,清算の結了等,,,2015-10-05,1,,,,,ジーワン,0
2082,9010002001466,登記記録の閉鎖等,0,2022-12-12,2022-12-07,有限会社駕篭町不動産,,有限会社,東京都,文京区,千石４丁目４６番１０号,,13,105,1120011,,,2022-12-07,清算の結了等,,,2015-10-05,1,,,,,カゴマチフドウサン,0
2083,9010003037278,登記記録の閉鎖等,0,2022-12-12,2022-12-07,合同会社心のつばさ,,合同会社,東京都,中央区,銀座１丁目１２－４Ｎ＆Ｅ・ＢＬＤ．７階,,13,102,1040061,,,2022-12-07,清算の結了等,,,2022-03-18,1,,,,,ココロノツバサ,0
2095,9010401148874,登記記録の閉鎖等,0,2022-12-12,2022-12-06,Ｓｉｌｉｃｏｎ　Ｍｏｂｉｌｉｔｙ　Ｊａｐａｎ株式会社,,株式会社,東京都,港区,港南２丁目１５－１品川インターシティＡ棟２８階,,13,103,1080075,,,2022-12-06,清算の結了等,,,2019-10-29,1,,,,,シリコンモビリティジャパン,0
2131,9011101079716,登記記録の閉鎖等,0,2022-12-12,2022-12-08,株式会社アローズ,,株式会社,東京都,新宿区,歌舞伎町２丁目１０番２号,,13,104,1600021,,,2022-12-08,清算の結了等,,,2017-02-27,1,,,,,アローズ,0
2135,9011201010638,登記記録の閉鎖等,0,2022-12-12,2022-12-08,株式会社クリエイティブキメラ,,株式会社,東京都,中野区,中央４丁目４番５号,,13,114,1640011,,,2022-12-08,清算の結了等,,,2015-10-05,1,,,,,クリエイティブキメラ,0
2145,9012801002058,登記記録の閉鎖等,0,2022-12-12,2022-12-01,株式会社ケネック,,株式会社,東京都,昭島市,武蔵野２丁目８番１号,,13,207,1960021,,,2022-12-01,合併による解散等,4012801002054,令和４年１２月１日東京都昭島市武蔵野二丁目８番１号株式会社ケネック（4012801002054）に合併し解散,2015-10-05,1,,,,,ケネック,0
2155,9020001080584,登記記録の閉鎖等,0,2022-12-12,2022-12-06,ＫＴＳプランニング株式会社,,株式会社,神奈川県,川崎市高津区,千年５０７番地１,,14,134,2130022,,,2022-12-06,清算の結了等,,,2015-10-05,1,,,,,ケイティーエスプランニング,0
2159,9020002033211,登記記録の閉鎖等,0,2022-12-12,2022-12-06,有限会社共栄温調工業所,00010717,有限会社,神奈川県,横浜市港北区,新吉田東１丁目５０番１２号,,14,109,2230058,,,2022-12-06,清算の結了等,,,2015-10-05,1,,,,,キョウエイオンチョウコウギョウショ,0
2162,9020005011040,登記記録の閉鎖等,0,2022-12-12,2022-12-07,医療法人社団宏志会,,その他の設立登記法人,神奈川県,川崎市多摩区,西生田３丁目９番２７号リュミエール２Ｆ,,14,135,2140037,,,2022-12-07,清算の結了等,,,2015-10-05,1,,,,,コウシカイ,0
2178,9030002053191,登記記録の閉鎖等,0,2022-12-12,2022-12-05,有限会社岩瀬建材,,有限会社,埼玉県,上尾市,大字原市４２６５番地の３,,11,219,3620021,,,2022-12-05,清算の結了等,,,2015-10-05,1,,,,,イワセケンザイ,0
2184,9040001024614,登記記録の閉鎖等,0,2022-12-12,2022-12-06,株式会社プラスワン,,株式会社,東京都,中央区,勝どき２丁目１３番５－９０６号,,13,102,1040054,,,2022-12-06,清算の結了等,,,2015-10-05,1,,,,,プラスワン,0
2200,9070001013589,登記記録の閉鎖等,0,2022-12-12,2022-12-07,東洋食品株式会社,,株式会社,群馬県,伊勢崎市,長沼町２１５２番地１,,10,204,3720855,,,2022-12-07,合併による解散等,2140001108421,令和４年１２月１日兵庫県姫路市御国野町深志野４３１番地の１株式会社手柄食品（2140001108421）に合併し解散,2015-10-05,1,,,,,トウヨウショクヒン,0
2233,9120901027286,登記記録の閉鎖等,0,2022-12-12,2022-12-08,株式会社データム,,株式会社,大阪府,豊中市,北桜塚３丁目８番４号,,27,203,5600022,,,2022-12-08,清算の結了等,,,2015-10-05,1,,,,,データム,0
2258,9180002005839,登記記録の閉鎖等,0,2022-12-12,2022-12-07,有限会社エポック．デンタル．ギャラリー,,有限会社,愛知県,名古屋市港区,福田２丁目２２０番地,,23,111,4550887,,,2022-12-07,清算の結了等,,,2015-10-05,1,,,,,エポックデンタルギャラリー,0
2282,9290002049073,登記記録の閉鎖等,0,2022-12-12,2022-12-07,有限会社山水荘,,有限会社,福岡県,久留米市,野中町１３１６番地,,40,203,8390862,,,2022-12-07,清算の結了等,,,2015-10-05,1,,,,,サンスイソウ,0
2299,9380005011260,登記記録の閉鎖等,0,2022-12-12,2022-12-06,特定非営利活動法人キューピットふくしま,,その他の設立登記法人,福島県,郡山市,富田町字下亀田１番地の２,,07,203,9638041,,,2022-12-06,清算の結了等,,,2015-10-05,1,,,,,キューピットフクシマ,0
2300,9390001010554,登記記録の閉鎖等,0,2022-12-12,2022-12-05,石一菊地石材株式会社,,株式会社,山形県,南陽市,池黒９００番地の３,,06,213,9920473,,,2022-12-05,清算の結了等,,,2015-10-05,1,,,,,イシイチキクチセキザイ,0
