sequenceNumber,corporateNumber,process,correct,updateDate,changeDate,name,nameImageId,kind,prefectureName,cityName,streetNumber,addressImageId,prefectureCode,cityCode,postCode,addressOutside,addressOutsideImageId,closeDate,closeCause,successorCorporateNumber,changeCause,assignmentDate,latest,enName,enPrefectureName,enCityName,enAddressOutside,furigana,hihyoji
8,1010001232573,新規,0,2023-01-30,2023-01-30,タカラ・ＫＳＫＫ株式会社,,株式会社,東京都,中央区,月島１丁目２２番１－２６１６号,,13,102,1040052,,,,,,,2023-01-30,1,,,,,タカラケーエスケーケー,0
9,1010001232598,新規,0,2023-01-30,2023-01-30,株式会社弘毅,,株式会社,東京都,千代田区,神田三崎町２丁目１０番１１号,,13,101,1010061,,,,,,,2023-01-30,1,,,,,コウキ,0
18,1010401172139,新規,0,2023-01-30,2023-01-30,Ｄｉｒｅａｖａ株式会社,,株式会社,東京都,港区,南麻布３丁目１１番７号ロイヤルシーズン南麻布ヒルサイド２０２,,13,103,1060047,,,,,,,2023-01-30,1,,,,,ディリーバ,0
30,1010501049930,新規,0,2023-01-30,2023-01-30,株式会社ｕｎｄｏｉｎｇ,,株式会社,東京都,台東区,千束３丁目４番１１号,,13,106,1110031,,,,,,,2023-01-30,1,,,,,アンドゥーイング,0
33,1010701043782,新規,0,2023-01-30,2023-01-30,株式会社レコナ,,株式会社,東京都,品川区,西中延２丁目１２番６号,,13,109,1420054,,,,,,,2023-01-30,1,,,,,レコナ,0
48,1011003016188,新規,0,2023-01-30,2023-01-30,合同会社ＪＷ　ｃｏｎｎｅｃｔ,,合同会社,東京都,目黒区,目黒１丁目３番１６－１２０３号プレジデント目黒ハイツ,,13,110,1530063,,,,,,,2023-01-30,1,,,,,ジェイダブリューコネクト,0
54,1011105010535,新規,0,2023-01-30,2023-01-30,一般社団法人福祉．ｔｖ,,その他の設立登記法人,東京都,新宿区,西新宿３丁目３番－１３号西新宿水間ビル６階,,13,104,1600023,,,,,,,2023-01-30,1,,,,,フクシティービー,0
56,1011401024866,新規,0,2023-01-30,2023-01-30,株式会社ルキア,,株式会社,東京都,板橋区,高島平３丁目１０番２３－１０６号,,13,119,1750082,,,,,,,2023-01-30,1,,,,,ルキア,0
58,1011701025977,新規,0,2023-01-30,2023-01-30,株式会社サンモルンズ,,株式会社,東京都,江戸川区,東葛西４丁目３５番１２号フォルティシモスガ３０２,,13,123,1340084,,,,,,,2023-01-30,1,,,,,サンモルンズ,0
65,1012701017452,新規,0,2023-01-30,2023-01-30,株式会社ｆｕｎ　ｌａｂｏ,,株式会社,東京都,東久留米市,東本町２番１号ウインベルコーラス東久留米４０５,,13,222,2030014,,,,,,,2023-01-30,1,,,,,ファンラボ,0
78,1020001149874,新規,0,2023-01-30,2023-01-30,株式会社Ｔ’ｓ　Ｃｌｅａｎ,,株式会社,神奈川県,横浜市西区,楠町一丁目３番ＢＬＡ横浜西口ビル４階,,14,103,2200003,,,,,,,2023-01-30,1,,,,,タスクリーン,0
79,1020001150023,新規,0,2023-01-30,2023-01-30,アンドリーム株式会社,,株式会社,神奈川県,横浜市金沢区,能見台２丁目１１番地９,,14,108,2360057,,,,,,,2023-01-30,1,,,,,アンドリーム,0
82,1020003023185,新規,0,2023-01-30,2023-01-30,合同会社バンブスアセット,,合同会社,神奈川県,横浜市金沢区,能見台５丁目２１番地１０,,14,108,2360057,,,,,,,2023-01-30,1,,,,,バンブスアセット,0
83,1020003023210,新規,0,2023-01-30,2023-01-30,合同会社ＥｘｐｅｒｔＤｅｌｉＭａｋｅ,,合同会社,神奈川県,川崎市川崎区,川中島１丁目２０番１－１０５号ヴェルコート川崎,,14,131,2100803,,,,,,,2023-01-30,1,,,,,エキスパートデリメイク,0
96,1021001078048,新規,0,2023-01-30,2023-01-30,株式会社ＳＩＳＵエンジニアリング,,株式会社,神奈川県,相模原市南区,当麻８３９番地８,,14,153,2520336,,,,,,,2023-01-30,1,,,,,シスエンジニアリング,0
123,1030001152134,新規,0,2023-01-30,2023-01-30,株式会社テラ・クオン,,株式会社,埼玉県,さいたま市中央区,鈴谷２丁目７９４番地,,11,105,3380013,,,,,,,2023-01-30,1,,,,,テラクオン,0
124,1030001152142,新規,0,2023-01-30,2023-01-30,ＺＥＲＯ　ＢＡＳＥ株式会社,,株式会社,埼玉県,坂戸市,大字森戸５２５番地２,,11,239,3500244,,,,,,,2023-01-30,1,,,,,ゼロベース,0
125,1030001152167,新規,0,2023-01-30,2023-01-30,中通ジャパン株式会社,,株式会社,埼玉県,蕨市,南町２丁目１６番２号ｓｅｎｄｏビル３Ｆ,,11,223,3350003,,,,,,,2023-01-30,1,,,,,チュウツウジャパン,0
127,1030003021048,新規,0,2023-01-30,2023-01-30,合同会社エーオーケー,,合同会社,埼玉県,北足立郡伊奈町,中央２丁目２３６番地,,11,301,3620809,,,,,,,2023-01-30,1,,,,,エーオーケー,0
128,1030003021064,新規,0,2023-01-30,2023-01-30,合同会社矢野カオリ総合オフィス,,合同会社,埼玉県,熊谷市,銀座３丁目１４番地１,,11,202,3600032,,,,,,,2023-01-30,1,,,,,ヤノカオリソウゴウオフィス,0
131,1040001126830,新規,0,2023-01-30,2023-01-30,株式会社滝電設,,株式会社,千葉県,富里市,日吉倉５１４番地４,,12,233,2860202,,,,,,,2023-01-30,1,,,,,タキデンセツ,0
136,1060001035641,新規,0,2023-01-30,2023-01-30,株式会社いぬねこ不動産,,株式会社,栃木県,佐野市,田沼町１３５０－５,,09,204,3270317,,,,,,,2023-01-30,1,,,,,イヌネコフドウサン,0
137,1080101023767,新規,0,2023-01-30,2023-01-30,さわらトランスポート株式会社,,株式会社,静岡県,駿東郡長泉町,上長窪２１４番地の２０ＨＡＰＰＹＤＲＥＡＭ長泉Ｂ２０１号,,22,342,4110935,,,,,,,2023-01-30,1,,,,,サワラトランスポート,0
141,1090001017950,新規,0,2023-01-30,2023-01-30,株式会社今村工務所,,株式会社,山梨県,甲斐市,天狗沢６２８番地,,19,210,4000127,,,,,,,2023-01-30,1,,,,,イマムラコウムショ,0
146,1110001037260,新規,0,2023-01-30,2023-01-30,株式会社黒沢池ヒュッテ,,株式会社,新潟県,妙高市,大字関山６１１３番地丙第１,,15,217,9492235,,,,,,,2023-01-30,1,,,,,クロサワイケヒュッテ,0
158,1120001251950,新規,0,2023-01-30,2023-01-30,研学読株式会社,,株式会社,大阪府,大阪市東成区,神路１丁目７－５、３０２号室,,27,115,5370003,,,,,,,2023-01-30,1,,,,,ケンガクトク,0
159,1120001252065,新規,0,2023-01-30,2023-01-30,株式会社天橋立,,株式会社,大阪府,大阪市中央区,東高麗橋５番１２号,,27,128,5400039,,,,,,,2023-01-30,1,,,,,アマノハシダテ,0
166,1120103005049,新規,0,2023-01-30,2023-01-30,合同会社かがやき,,合同会社,大阪府,貝塚市,森９５８番地４,,27,208,5970044,,,,,,,2023-01-30,1,,,,,カガヤキ,0
167,1120103005057,新規,0,2023-01-30,2023-01-30,合同会社勇進,,合同会社,大阪府,堺市西区,浜寺船尾町西４丁４２８番地,,27,144,5928342,,,,,,,2023-01-30,1,,,,,ユウシン,0
170,1120901047052,新規,0,2023-01-30,2023-01-30,Ｄａｉｚベース株式会社,,株式会社,大阪府,摂津市,一津屋２丁目１４番７号,,27,224,5660043,,,,,,,2023-01-30,1,,,,,ダイズベース,0
197,1180001154719,新規,0,2023-01-30,2023-01-30,ＯＧＹ株式会社,,株式会社,愛知県,名古屋市中区,大須４丁目１４－４８ツバサビル１階,,23,106,4600011,,,,,,,2023-01-30,1,,,,,オージーワイ,0
199,1180003024787,新規,0,2023-01-30,2023-01-30,合同会社ＢＥＡＵＴＹ　ＳＥＬＦ,,合同会社,愛知県,名古屋市中区,正木４丁目８番８号,,23,106,4600024,,,,,,,2023-01-30,1,,,,,ビューティーセルフ,0
203,1200001040899,新規,0,2023-01-30,2023-01-30,株式会社ＩＭＡ,,株式会社,岐阜県,各務原市,蘇原古市場町４丁目９７番地１,,21,213,5040852,,,,,,,2023-01-30,1,,,,,イマ,0
204,1200003005818,新規,0,2023-01-30,2023-01-30,合同会社ｈｏｐｅ‐２ＭＣ,,合同会社,岐阜県,岐阜市,柳津町宮東３丁目１９番地,,21,201,5016111,,,,,,,2023-01-30,1,,,,,ホープツーエムシー,0
211,1230001019692,新規,0,2023-01-30,2023-01-30,株式会社名免良,,株式会社,富山県,射水市,広上７９３番地１４,,16,211,9390256,,,,,,,2023-01-30,1,,,,,ナメラ,0
213,1240001061009,新規,0,2023-01-30,2023-01-30,Ｓ３Ｒ株式会社,,株式会社,広島県,東広島市,志和町七条椛坂字尾歳１０番地,,34,212,7390264,,,,,,,2023-01-30,1,,,,,エススリーアール,0
214,1240001061017,新規,0,2023-01-30,2023-01-30,株式会社細羽企画,,株式会社,広島県,福山市,松浜町１丁目１番３４号,,34,207,7200802,,,,,,,2023-01-30,1,,,,,ホソバキカク,0
221,1250003003214,新規,0,2023-01-30,2023-01-30,合同会社ＫＳＲ,,合同会社,山口県,山口市,楠木町８番１８－１０５号,,35,203,7530065,,,,,,,2023-01-30,1,,,,,ケイエスアール,0
225,1290001100372,新規,0,2023-01-30,2023-01-30,株式会社ラポール,,株式会社,福岡県,飯塚市,立岩９６４番地３５セントロイヤル新飯塚駅１０２号室,,40,205,8200003,,,,,,,2023-01-30,1,,,,,ラポール,0
226,1290001100380,新規,0,2023-01-30,2023-01-30,株式会社ばでぃふる,,株式会社,福岡県,三潴郡大木町,大字絵下古賀１６３番地４,,40,522,8300415,,,,,,,2023-01-30,1,,,,,バディフル,0
229,1310001018240,新規,0,2023-01-30,2023-01-30,株式会社ちわたや,,株式会社,長崎県,東彼杵郡東彼杵町,瀬戸郷１２２１番地,,42,321,8593923,,,,,,,2023-01-30,1,,,,,チワタヤ,0
234,1340001025325,新規,0,2023-01-30,2023-01-30,株式会社星設備,,株式会社,鹿児島県,鹿屋市,川西町３９６０番地１,,46,203,8930032,,,,,,,2023-01-30,1,,,,,ホシセツビ,0
236,1350001018154,新規,0,2023-01-30,2023-01-30,株式会社Ｃａｔｓ　ｈａｎｄ,,株式会社,宮崎県,日向市,大字富高７１４６番地１６,,45,206,8830034,,,,,,,2023-01-30,1,,,,,キャッツハンド,0
238,1350003004268,新規,0,2023-01-30,2023-01-30,合同会社ｅｑｕａｌ,,合同会社,宮崎県,都城市,上長飯町３３号２番地９,,45,202,8850042,,,,,,,2023-01-30,1,,,,,イコール,0
249,1380003005370,新規,0,2023-01-30,2023-01-30,合同会社はな企画,,合同会社,福島県,福島市,南矢野目字阿弥陀前１２番１０,,07,201,9600112,,,,,,,2023-01-30,1,,,,,ハナキカク,0
251,1400001016144,新規,0,2023-01-30,2023-01-30,株式会社ＡｒＫ,,株式会社,岩手県,盛岡市,大通２丁目５番１号中田ビル３階,,03,201,0200022,,,,,,,2023-01-30,1,,,,,エーアールケー,0
253,1420001018139,新規,0,2023-01-30,2023-01-30,株式会社クローバー総研,,株式会社,青森県,青森市,大字大矢沢字野田１３８番地６,,02,201,0300123,,,,,,,2023-01-30,1,,,,,クローバーソウケン,0
266,1700150113983,新規,0,2023-01-30,2023-01-30,ｗｕ　ｈａｎ　ｍｉａｎ　ｙｕ　ｋｅ　ｊｉ　ｙｏｕ　ｘｉａｎ　ｇｏｎｇ　ｓｉ,,外国会社等,,,,,,,,ｇｏｎｇ　ｎｏｎｇ　ｂｉｎｇ　ｌｕ　１５１　ｈａｏ，ｘｉｎ　ｄａ　ｄｉ　ｈｕａ　ｙｕａｎ，ｗｕ　ｈａｎ　ｓｈｉ，ｊｉａｎｇ　ａｎ　ｑｕ　ｈｕ　ｂｅｉ　ｓｈｅｎｇ　Ｃｈｉｎａ,,,,,,2023-01-30,1,,,,,ウハンミアンユケジユウゲンコウシ,0
267,1700150113991,新規,0,2023-01-30,2023-01-30,Ｗｉｎｎｉｐｅｇ　Ｔｒａｄｉｎｇ　ａｎｄ　Ｓｅｒｖｉｃｅｓ　Ｌｉｍｉｔｅｄ,,外国会社等,北海道,虻田郡倶知安町,字樺山３８番２４－６１０,,01,400,0440078,Ｕｎｉｔ２２０１２２／ＦＣｈｕｎｇＫｉｕＣｏｍｍ，Ｂｌｄｇ，４７－５１ＳｈａｎＴｕｎｇＳｔｒｅｅｔＭｏｎｇＫｏｋＨｏｎｇＫｏｎｇ,,,,,,2023-01-30,1,,,,,ウイニペグトレーデイングアンドサービセスリミテツド,0
276,2010001231995,新規,0,2023-01-30,2023-01-30,株式会社ｃｔｂ　ｈｏｌｄｉｎｇｓ,,株式会社,東京都,中央区,東日本橋２丁目２０番１０号七條ビル７階,,13,102,1030004,,,,,,,2023-01-30,1,,,,,シーティービーホールディングス,0
277,2010001232498,新規,0,2023-01-30,2023-01-30,株式会社Ｌａ　Ｃｒｅａｚｉｏｎｅ,,株式会社,東京都,中央区,日本橋人形町２丁目３３－４ＢＰＲレジデンス人形町１階,,13,102,1030013,,,,,,,2023-01-30,1,,,,,ラクレアツィオーネ,0
278,2010001232589,新規,0,2023-01-30,2023-01-30,株式会社ＲＥＤ,,株式会社,東京都,中央区,銀座１丁目１２番４号Ｎ＆ＥＢＬＤ．７階,,13,102,1040061,,,,,,,2023-01-30,1,,,,,レッド,0
282,2010003039710,新規,0,2023-01-30,2023-01-30,合同会社エクース,,合同会社,東京都,千代田区,丸の内３丁目１番１号東京共同会計事務所内,,13,101,1000005,,,,,,,2023-01-30,1,,,,,エクース,0
283,2010003039727,新規,0,2023-01-30,2023-01-30,ｍｅｇｕｒｕ合同会社,,合同会社,東京都,中央区,銀座１丁目２２番１１号銀座大竹ビジデンス２Ｆ,,13,102,1040061,,,,,,,2023-01-30,1,,,,,メグル,0
284,2010005036177,新規,0,2023-01-30,2023-01-30,一般社団法人マルティウス,,その他の設立登記法人,東京都,千代田区,丸の内３丁目１番１号東京共同会計事務所内,,13,101,1000005,,,,,,,2023-01-30,1,,,,,マルティウス,0
290,2010403029385,新規,0,2023-01-30,2023-01-30,ＩＮＳＯＭＮＩＡ合同会社,,合同会社,東京都,港区,西麻布４丁目１５－２レジディア西麻布３０４号室,,13,103,1060031,,,,,,,2023-01-30,1,,,,,インソムニア,0
292,2010503006862,新規,0,2023-01-30,2023-01-30,Ｃａｒｐｅ　Ｄｉｅｍ合同会社,,合同会社,東京都,台東区,下谷３丁目１番２４号,,13,106,1100004,,,,,,,2023-01-30,1,,,,,カルペディエム,0
301,2010801033641,新規,0,2023-01-30,2023-01-30,平和工業株式会社,,株式会社,東京都,大田区,上池台４丁目７番１号,,13,111,1450064,,,,,,,2023-01-30,1,,,,,ヘイワコウギョウ,0
302,2010803004434,新規,0,2023-01-30,2023-01-30,江澤設備合同会社,,合同会社,東京都,大田区,南六郷２丁目８番２５号,,13,111,1440045,,,,,,,2023-01-30,1,,,,,エザワセツビ,0
322,2011001151952,新規,0,2023-01-30,2023-01-30,株式会社ＰＧコンサルティング,,株式会社,東京都,渋谷区,富ヶ谷１丁目１４番１４号４階,,13,113,1510063,,,,,,,2023-01-30,1,,,,,ピージーコンサルティング,0
323,2011001152224,新規,0,2023-01-30,2023-01-30,Ｍｅｄｉａ　Ｇｅｅｋ株式会社,,株式会社,東京都,渋谷区,元代々木町２７番１４号,,13,113,1510062,,,,,,,2023-01-30,1,,,,,メディアギーク,0
327,2011003016179,新規,0,2023-01-30,2023-01-30,合同会社ＳｏｆｔＷｏｒｄ,,合同会社,東京都,渋谷区,渋谷２丁目１９－１５宮益坂ビルディング６０９,,13,113,1500002,,,,,,,2023-01-30,1,,,,,ソフトワード,0
331,2011101101667,新規,0,2023-01-30,2023-01-30,株式会社Ｒ‐ＳＴＹＬＥ,,株式会社,東京都,新宿区,新宿２丁目１８番５号第２成光ビル４０３,,13,104,1600022,,,,,,,2023-01-30,1,,,,,アールスタイル,0
332,2011101101691,新規,0,2023-01-30,2023-01-30,株式会社Ｕｎｉｔｅ　ＨＯＵＳＥ,,株式会社,東京都,新宿区,西新宿４丁目１９番１３号ツノハズソウ１０２,,13,104,1600023,,,,,,,2023-01-30,1,,,,,ユナイトハウス,0
334,2011105010534,新規,0,2023-01-30,2023-01-30,一般社団法人大正ロマンプロジェクト,,その他の設立登記法人,東京都,新宿区,神楽坂６丁目８番地文悠ビルＢ１,,13,104,1620825,,,,,,,2023-01-30,1,,,,,タイショウロマンプロジェクト,0
339,2011401024865,新規,0,2023-01-30,2023-01-30,株式会社きち,,株式会社,東京都,板橋区,相生町３番５号ファミリーケア志村さくら物語,,13,119,1740044,,,,,,,2023-01-30,1,,,,,キチ,0
341,2011601026521,新規,0,2023-01-30,2023-01-30,株式会社青遇商貿,,株式会社,東京都,練馬区,桜台１丁目７－７－４Ｆ－９号室,,13,120,1760002,,,,,,,2023-01-30,1,,,,,セイグショウボウ,0
346,2012701017451,新規,0,2023-01-30,2023-01-30,株式会社ヒトノワ,,株式会社,東京都,西東京市,中町３丁目１番３－５号,,13,229,2020013,,,,,,,2023-01-30,1,,,,,ヒトノワ,0
358,2020001149989,新規,0,2023-01-30,2023-01-30,株式会社クリアカット・あぴ,,株式会社,神奈川県,横浜市港南区,日野８丁目３１番１１号,,14,111,2340051,,,,,,,2023-01-30,1,,,,,クリアカットアピ,0
359,2020001150014,新規,0,2023-01-30,2023-01-30,株式会社テレマインド,,株式会社,神奈川県,横浜市緑区,鴨居４丁目３９番６号,,14,113,2260003,,,,,,,2023-01-30,1,,,,,テレマインド,0
363,2020003023201,新規,0,2023-01-30,2023-01-30,ＮＥＳＴ合同会社,,合同会社,神奈川県,横浜市戸塚区,上倉田町１０９番地３,,14,110,2440816,,,,,,,2023-01-30,1,,,,,ネスト,0
386,2021001078063,新規,0,2023-01-30,2023-01-30,株式会社Ｆ‐ＳＴＹＬＥ,,株式会社,神奈川県,逗子市,桜山５丁目１８番２号イトーピアハイツＣ－１,,14,208,2490005,,,,,,,2023-01-30,1,,,,,エフスタイル,0
413,2030001152091,新規,0,2023-01-30,2023-01-30,株式会社ピーイーテック,,株式会社,埼玉県,吉川市,きよみ野３丁目２０番地１９,,11,243,3420058,,,,,,,2023-01-30,1,,,,,ピーイーテック,0
414,2030001152141,新規,0,2023-01-30,2023-01-30,株式会社エーエムティ,,株式会社,埼玉県,本庄市,柏１丁目８番２１号,,11,211,3670045,,,,,,,2023-01-30,1,,,,,エーエムティ,0
415,2030001152158,新規,0,2023-01-30,2023-01-30,株式会社ＳＨ　Ｉｎｔｅｒｎａｔｉｏｎａｌ,,株式会社,埼玉県,熊谷市,銀座４丁目２番４－３号,,11,202,3600032,,,,,,,2023-01-30,1,,,,,エスエイチインターナショナル,0
416,2030001152166,新規,0,2023-01-30,2023-01-30,株式会社笠原工業,,株式会社,埼玉県,桶川市,大字川田谷６７０６番地－３３,,11,231,3630027,,,,,,,2023-01-30,1,,,,,カサハラコウギョウ,0
424,2040001126813,新規,0,2023-01-30,2023-01-30,株式会社ネクストバディ,,株式会社,千葉県,千葉市美浜区,中瀬１丁目３番地,,12,106,2610023,,,,,,,2023-01-30,1,,,,,ネクストバディ,0
425,2040001126821,新規,0,2023-01-30,2023-01-30,株式会社メテオラ,,株式会社,千葉県,市川市,曽谷４丁目７番１号,,12,203,2720832,,,,,,,2023-01-30,1,,,,,メテオラ,0
426,2040001126862,新規,0,2023-01-30,2023-01-30,プランテッド株式会社,,株式会社,千葉県,千葉市緑区,土気町１４５３－２,,12,105,2670061,,,,,,,2023-01-30,1,,,,,プランテッド,0
430,2050001052307,新規,0,2023-01-30,2023-01-30,株式会社ＯＰＳ,,株式会社,茨城県,守谷市,百合ケ丘１丁目２３５４番地の１４４,,08,224,3020110,,,,,,,2023-01-30,1,,,,,オプス,0
434,2070003004808,新規,0,2023-01-30,2023-01-30,合同会社おり,,合同会社,群馬県,邑楽郡大泉町,大字寄木戸９５８番地の１,,10,524,3700535,,,,,,,2023-01-30,1,,,,,オリ,0
437,2080101023766,新規,0,2023-01-30,2023-01-30,株式会社ＯＲＴＯｅＭＡＲＥｄｉＡｐｐｉａ,,株式会社,静岡県,伊東市,富戸１３１７番地の５１８６,,22,208,4130231,,,,,,,2023-01-30,1,,,,,オルトエマーレディアッピア,0
453,2120001251982,新規,0,2023-01-30,2023-01-30,用和大千株式会社,,株式会社,大阪府,大阪市西成区,太子２丁目２－２０－２０３,,27,122,5570002,,,,,,,2023-01-30,1,,,,,ヨウワダイセン,0
460,2120901047051,新規,0,2023-01-30,2023-01-30,株式会社花工務店,,株式会社,大阪府,高槻市,緑が丘３丁目９番５号,,27,207,5691026,,,,,,,2023-01-30,1,,,,,ハナコウムテン,0
462,2122003002505,新規,0,2023-01-30,2023-01-30,ＭＰ‐Ｓｔｒａｔｅｇｙ合同会社,,合同会社,大阪府,東大阪市,花園東町２丁目１６－４,,27,227,5780931,,,,,,,2023-01-30,1,,,,,エムピーストラテジー,0
472,2140001128931,新規,0,2023-01-30,2023-01-30,日本ボディコート株式会社,,株式会社,兵庫県,尼崎市,西長洲町２丁目５番３号,,28,202,6600805,,,,,,,2023-01-30,1,,,,,ニホンボディコート,0
478,2140005026470,新規,0,2023-01-30,2023-01-30,一般社団法人Ｂ＆Ｍ,,その他の設立登記法人,兵庫県,神戸市中央区,布引町３丁目１番７号神戸クリニックビル７階,,28,110,6510097,,,,,,,2023-01-30,1,,,,,ビーアンドエム,0
481,2160003002785,新規,0,2023-01-30,2023-01-30,合同会社Ｃｅｒｔｏ　ＮＴ,,合同会社,滋賀県,草津市,野村５丁目９番３４－８０９号シャルマンコーポ草津野村,,25,206,5250027,,,,,,,2023-01-30,1,,,,,チェルトエヌティー,0
483,2170001017454,新規,0,2023-01-30,2023-01-30,株式会社サンライズ,,株式会社,和歌山県,日高郡みなべ町,堺３５３番地３,,30,391,6450003,,,,,,,2023-01-30,1,,,,,サンライズ,0
488,2180001154734,新規,0,2023-01-30,2023-01-30,バイオ今株式会社,,株式会社,愛知県,名古屋市西区,花の木３丁目１１－１７ウエスト花の木４Ｃ号室,,23,104,4510062,,,,,,,2023-01-30,1,,,,,バイオイマ,0
489,2180001154767,新規,0,2023-01-30,2023-01-30,中京彫刻株式会社,,株式会社,愛知県,名古屋市天白区,道明町２２番地アリカンテ八事２０１号,,23,116,4680064,,,,,,,2023-01-30,1,,,,,チュウキョウチョウコク,0
492,2180003024786,新規,0,2023-01-30,2023-01-30,合同会社もみの木,,合同会社,愛知県,一宮市,木曽川町門間字北出６番地,,23,203,4930002,,,,,,,2023-01-30,1,,,,,モミノキ,0
495,2180301037044,新規,0,2023-01-30,2023-01-30,ＫＯＢＡサービス株式会社,,株式会社,愛知県,岡崎市,坂左右町字堤下１６番地,,23,202,4440213,,,,,,,2023-01-30,1,,,,,コバサービス,0
497,2190001030125,新規,0,2023-01-30,2023-01-30,株式会社絆工務店,,株式会社,三重県,南牟婁郡紀宝町,大里９９４番地,,24,562,5195835,,,,,,,2023-01-30,1,,,,,キズナコウムテン,0
502,2200001040898,新規,0,2023-01-30,2023-01-30,株式会社マルイチガーデン,,株式会社,岐阜県,多治見市,旭ケ丘７丁目９番地の１２ノアＢ－１０３,,21,204,5070071,,,,,,,2023-01-30,1,,,,,マルイチガーデン,0
503,2200001040907,新規,0,2023-01-30,2023-01-30,株式会社Ｋ‐ａｓｓｉｓｔ,,株式会社,岐阜県,加茂郡坂祝町,大針６３５番地１７,,21,501,5050072,,,,,,,2023-01-30,1,,,,,ケーアシスト,0
514,2240001061016,新規,0,2023-01-30,2023-01-30,株式会社昌栄地所,,株式会社,広島県,広島市東区,矢賀新町５丁目２番５号,,34,102,7320044,,,,,,,2023-01-30,1,,,,,ショウエイチショ,0
515,2240001061024,新規,0,2023-01-30,2023-01-30,Ｓｅｒｅｎａ　Ｊａｐａｎ　Ｇｏｌｄ　Ｃｏｌｌｅｃｔｉｏｎｚ２１株式会社,,株式会社,広島県,広島市西区,観音町１６番２－１００１号,,34,104,7330031,,,,,,,2023-01-30,1,,,,,セレナジャパンゴールドコレクションズトゥエンティワン,0
516,2260001037609,新規,0,2023-01-30,2023-01-30,株式会社明福,,株式会社,岡山県,倉敷市,鶴形１丁目５番２２‐１３０１号,,33,202,7100056,,,,,,,2023-01-30,1,,,,,ミョンプク,0
530,2290001100396,新規,0,2023-01-30,2023-01-30,株式会社訪問介護事業所かずみ,,株式会社,福岡県,糟屋郡篠栗町,大字津波黒６６７－１サンパラッツォ西ノ前３０２号室,,40,342,8112415,,,,,,,2023-01-30,1,,,,,ホウモンカイゴジギョウショカズミ,0
533,2290803004316,新規,0,2023-01-30,2023-01-30,収入倍増計画合同会社,,合同会社,福岡県,京都郡みやこ町,豊津４１番地２,,40,625,8240121,,,,,,,2023-01-30,1,,,,,シュウニュウバイゾウケイカク,0
534,2290803004324,新規,0,2023-01-30,2023-01-30,合同会社ワンフォーオール,,合同会社,福岡県,行橋市,大字高瀬４４６番地１３,,40,213,8240027,,,,,,,2023-01-30,1,,,,,ワンフォーオール,0
535,2320001019542,新規,0,2023-01-30,2023-01-30,株式会社地域産業支援機構,,株式会社,大分県,大分市,府内町２丁目６番１７号,,44,201,8700021,,,,,,,2023-01-30,1,,,,,チイキサンギョウシエンキコウ,0
540,2360003012673,新規,0,2023-01-30,2023-01-30,合同会社ＴＭ,,合同会社,沖縄県,那覇市,松山１丁目１３－５、５階,,47,201,9000032,,,,,,,2023-01-30,1,,,,,ティーエム,0
550,2470003002341,新規,0,2023-01-30,2023-01-30,Ａ．Ｇ．ＣＯＲＰＯＲＡＴＩＯＮ合同会社,,合同会社,香川県,東かがわ市,三本松１７８４番地７,,37,207,7692601,,,,,,,2023-01-30,1,,,,,エージーコーポレーション,0
556,2700150113685,新規,0,2023-01-30,2023-01-13,Ｃｏｎ　ａｎｉｍａ　ＣＨＩＢＡ,,その他,千葉県,船橋市,西習志野３丁目１２－９,,12,204,2740815,,,,,,,2023-01-13,1,,,,,コンアニマチバ,0
557,2700150113982,新規,0,2023-01-30,2023-01-30,ｓｈｅｎｚｈｅｎｓｈｉ　ｊｕｎｆａｎｇ　ｄｉａｎｚｉｓｈａｎｇｗｕ　ｙｏｕｘｉａｎｇｏｎｇｓｉ,,外国会社等,,,,,,,,ｌｏｎｇｇａｎｇｑｕ，ｌｏｎｇｇａｎｇｊｉｅｄａｏ，ｌｏｎｇｘｉｓｈｅｑｕ，ｂａｏｙｉｎｇｇｏｎｇｙｅｑｕ，ｓｈａｎｂｉａｎ１ｄｏｎｇ，ｘｉｃｅｃｈａｎｇｆａｎｇ３０１、３０２ｆａｎｇ，ｓｈｅｎ　ｚｈｅｎ　ｓｈｉ，ｇｕａｎｇ　ｄｏｎｇ　ｓｈｅｎｇ，,,,,,,2023-01-30,1,,,,,シンセンシジュンファンデンシショウムユウゲンコウシ,0
558,2700150113990,新規,0,2023-01-30,2023-01-30,Ｓｈｅｎｚｈｅｎ　Ｙｉｍｅｉｄａ　Ｃｒｏｓｓ　Ｂｏｒｄｅｒ　Ｌｏｇｉｓｔｉｃｓ　Ｃｏ．，Ｌｔｄ,,外国会社等,,,,,,,,Ｆｌｏｏｒ　２ｔｈ，Ｂｌｄｇ．５，Ｓｈｅｎａｏ　Ｉｎｄｕｓｔｒｉａｌ　Ｇａｒｄｅｎ，Ｄａｆａｐｕ　Ｃｏｍｍ．，　Ｂａｎｔｉａｎ　Ｓｔ．，　Ｌｏｎｇｇａｎｇ　Ｄｉｓｔ．，　Ｓｈｅｎｚｈｅｎ，Ｃｈｉｎａ,,,,,,2023-01-30,1,,,,,シエンチエンイメイダクロスボーダーロジステイクスカンパニーリミテツド,0
565,3010001232472,新規,0,2023-01-30,2023-01-30,株式会社マモエル,,株式会社,東京都,千代田区,神田小川町３丁目２番１０号,,13,101,1010052,,,,,,,2023-01-30,1,,,,,マモエル,0
566,3010001232555,新規,0,2023-01-30,2023-01-30,ＫＯＭＡＴＳＵ　ＨＥＡＬＴＨＣＡＲＥ株式会社,,株式会社,東京都,中央区,銀座６丁目１３番９号,,13,102,1040061,,,,,,,2023-01-30,1,,,,,コマツヘルスケア,0
567,3010001232588,新規,0,2023-01-30,2023-01-30,東立商事株式会社,,株式会社,東京都,中央区,入船３丁目１番４号,,13,102,1040042,,,,,,,2023-01-30,1,,,,,トウリツショウジ,0
570,3010005036176,新規,0,2023-01-30,2023-01-30,一般社団法人ハシエンダ,,その他の設立登記法人,東京都,千代田区,丸の内３丁目１番１号東京共同会計事務所内,,13,101,1000005,,,,,,,2023-01-30,1,,,,,ハシエンダ,0
579,3010405021769,新規,0,2023-01-30,2023-01-30,一般社団法人ＦＡＶ　ＰＲＦ１号,,その他の設立登記法人,東京都,港区,元赤坂１丁目１番７号,,13,103,1070051,,,,,,,2023-01-30,1,,,,,ファブプレリートファンドイチゴウ,0
581,3010501049929,新規,0,2023-01-30,2023-01-30,株式会社Ｕｎｄｅｒｐａｓｓ　Ｓｔｏｒｙ,,株式会社,東京都,台東区,上野５丁目１０番１１号,,13,106,1100005,,,,,,,2023-01-30,1,,,,,アンダーパスストーリー,0
606,3011003016186,新規,0,2023-01-30,2023-01-30,ワイワイキャピタル合同会社,,合同会社,東京都,目黒区,上目黒５丁目２３番１１号ヒーローズ上目黒２０１号,,13,110,1530051,,,,,,,2023-01-30,1,,,,,ワイワイキャピタル,0
616,3011101101674,新規,0,2023-01-30,2023-01-30,株式会社ＫＯＢＢＥＯＮ,,株式会社,東京都,新宿区,大久保１丁目１６番１５号豊生堂マンション９０３号室,,13,104,1690072,,,,,,,2023-01-30,1,,,,,コビオン,0
618,3011103012597,新規,0,2023-01-30,2023-01-30,合同会社ヴァルハラ,,合同会社,東京都,新宿区,大久保２丁目３２番２０号新宿ＶＩＬＬＡ１０２,,13,104,1690072,,,,,,,2023-01-30,1,,,,,ヴァルハラ,0
619,3011105010533,新規,0,2023-01-30,2023-01-30,一般財団法人ケーオーデンタル・小坪清彦育英財団,,その他の設立登記法人,東京都,新宿区,西新宿１丁目２６番２号,,13,104,1600023,,,,,,,2023-01-30,1,,,,,ケーオーデンタルコツボキヨヒコイクエイザイダン,0
623,3011703003376,新規,0,2023-01-30,2023-01-30,合同会社桃李,,合同会社,東京都,江戸川区,西小岩３丁目２３番１３号ＢＮマンション２０２,,13,123,1330057,,,,,,,2023-01-30,1,,,,,トウリ,0
625,3011803005487,新規,0,2023-01-30,2023-01-30,合同会社しもくり,,合同会社,東京都,足立区,花畑３丁目４２番１３号－１Ｆ,,13,121,1210061,,,,,,,2023-01-30,1,,,,,,0
637,3020001150038,新規,0,2023-01-30,2023-01-30,株式会社Ａｍｅｌｉｅ,,株式会社,神奈川県,川崎市川崎区,砂子２丁目１０番地２カワサキ・ミッドマークタワー１１０５,,14,131,2100006,,,,,,,2023-01-30,1,,,,,アメリ,0
639,3020003023191,新規,0,2023-01-30,2023-01-30,合同会社Ｉｎｄｕｓｔｒｉａｌ　Ｈｅａｌｔｈ　Ｓｕｐｐｏｒｔ　Ｓｅｒｖｉｃｅ,,合同会社,神奈川県,横浜市中区,真砂町３丁目３１番地アクティオーレ関内７階ＢｉｚＣｏｍｆｏｒｔ関内駅前,,14,104,2310016,,,,,,,2023-01-30,1,,,,,インダストリアルヘルスサポートサービス,0
640,3020003023209,新規,0,2023-01-30,2023-01-30,合同会社ケイプラス,,合同会社,神奈川県,川崎市宮前区,宮崎５丁目１２番地２９,,14,136,2160033,,,,,,,2023-01-30,1,,,,,ケイプラス,0
670,3021003012639,新規,0,2023-01-30,2023-01-30,ＫＨＭ合同会社,,合同会社,神奈川県,伊勢原市,高森７丁目６－４ベルビュー参番館４０６,,14,214,2591114,,,,,,,2023-01-30,1,,,,,ケーエイチエム,0
671,3021003012663,新規,0,2023-01-30,2023-01-30,合同会社ちぱゴルフ,,合同会社,神奈川県,茅ヶ崎市,萩園１５０５番地２,,14,207,2530071,,,,,,,2023-01-30,1,,,,,チパゴルフ,0
675,3030001152124,新規,0,2023-01-30,2023-01-30,株式会社睿成,,株式会社,埼玉県,戸田市,美女木北３丁目２番地の１－３０７号,,11,224,3350038,,,,,,,2023-01-30,1,,,,,エイセイ,0
676,3030001152140,新規,0,2023-01-30,2023-01-30,株式会社ラピットジャパン,,株式会社,埼玉県,草加市,瀬崎５丁目５２番２－６号,,11,221,3400022,,,,,,,2023-01-30,1,,,,,ラピットジャパン,0
677,3030001152165,新規,0,2023-01-30,2023-01-30,コンプリート株式会社,,株式会社,埼玉県,桶川市,大字川田谷１０６３番地,,11,231,3630027,,,,,,,2023-01-30,1,,,,,コンプリート,0
681,3030003021054,新規,0,2023-01-30,2023-01-30,六企画合同会社,,合同会社,埼玉県,さいたま市岩槻区,宮町２丁目１３番２８－１号,,11,110,3390065,,,,,,,2023-01-30,1,,,,,ロクキカク,0
683,3040001126787,新規,0,2023-01-30,2023-01-30,株式会社ＫＨＵＯＮＧ　ＣＨＵＮＧ,,株式会社,千葉県,八千代市,八千代台西２丁目４番１号,,12,221,2760034,,,,,,,2023-01-30,1,,,,,クォンチュン,0
684,3040001126829,新規,0,2023-01-30,2023-01-30,株式会社ヴィンテミ,,株式会社,千葉県,船橋市,上山町３丁目６４８番地８,,12,204,2730046,,,,,,,2023-01-30,1,,,,,ヴィンテミ,0
685,3040001126861,新規,0,2023-01-30,2023-01-30,株式会社千,,株式会社,千葉県,浦安市,東野１丁目２７番１－１４０１号パークホームズ新浦安カーサ・セントリア,,12,227,2790042,,,,,,,2023-01-30,1,,,,,セン,0
687,3040003021796,新規,0,2023-01-30,2023-01-30,坂井合同会社,,合同会社,千葉県,千葉市稲毛区,宮野木町２１０１番地１９,,12,103,2630054,,,,,,,2023-01-30,1,,,,,サカイ,0
688,3050001052272,新規,0,2023-01-30,2023-01-30,ＫＩＮＧＲＯＡＤ株式会社,,株式会社,茨城県,牛久市,小坂町１９５９番地の５２,,08,219,3001286,,,,,,,2023-01-30,1,,,,,キングロード,0
689,3050001052306,新規,0,2023-01-30,2023-01-30,株式会社ＲＡＩ　ＴＲＡＤＩＮＧ,,株式会社,茨城県,坂東市,長須１４００－１ヤマザキコーポＡ室,,08,228,3060645,,,,,,,2023-01-30,1,,,,,ライトレーディング,0
691,3050003007183,新規,0,2023-01-30,2023-01-30,ＲＡＤＩＮＴＨＩ　ＥＮＴＥＲＰＲＩＳＥＳ合同会社,,合同会社,茨城県,つくばみらい市,城中８０９番地４,,08,235,3002314,,,,,,,2023-01-30,1,,,,,ラディンティエンタープライゼズ,0
692,3070001040077,新規,0,2023-01-30,2023-01-30,Ｈｉ‐Ｚａｉ株式会社,,株式会社,群馬県,高崎市,東町４６番地２ヴィラーヌ高崎ステーシア９０３号,,10,202,3700045,,,,,,,2023-01-30,1,,,,,ハイザイ,0
693,3070003004798,新規,0,2023-01-30,2023-01-30,ボディセラピー然合同会社,,合同会社,群馬県,富岡市,妙義町上高田３７－１,,10,210,3702411,,,,,,,2023-01-30,1,,,,,ボディセラピーゼン,0
694,3070003004807,新規,0,2023-01-30,2023-01-30,ＡＬＬ　ＤＥＳＩＧＮ合同会社,,合同会社,群馬県,前橋市,下長磯町６４‐１,,10,201,3792151,,,,,,,2023-01-30,1,,,,,オールデザイン,0
701,3080403004711,新規,0,2023-01-30,2023-01-30,合同会社木蓮,,合同会社,静岡県,浜松市西区,舘山寺町２５７３番地の３,,22,133,4311209,,,,,,,2023-01-30,1,,,,,モクレン,0
703,3100001036088,新規,0,2023-01-30,2023-01-30,株式会社平八,,株式会社,長野県,松本市,平田東３丁目７番１号,,20,202,3990014,,,,,,,2023-01-30,1,,,,,ヘイハチ,0
704,3100001036096,新規,0,2023-01-30,2023-01-30,株式会社Ｆｏｒｙｏｕ,,株式会社,長野県,茅野市,泉野６０５０番地１,,20,214,3910214,,,,,,,2023-01-30,1,,,,,フォーユー,0
706,3100003006865,新規,0,2023-01-30,2023-01-30,合同会社田中式,,合同会社,長野県,東御市,常田２２１番地４,,20,219,3890515,,,,,,,2023-01-30,1,,,,,タナカシキ,0
707,3110001037267,新規,0,2023-01-30,2023-01-30,株式会社ＫＳＴ,,株式会社,新潟県,新潟市東区,寺山３丁目１１番８号,,15,102,9500892,,,,,,,2023-01-30,1,,,,,ケーエスティー,0
717,3120001251949,新規,0,2023-01-30,2023-01-30,島之舒株式会社,,株式会社,大阪府,大阪市東成区,神路１丁目７－５、３０５号室,,27,115,5370003,,,,,,,2023-01-30,1,,,,,シマノジョ,0
718,3120001252006,新規,0,2023-01-30,2023-01-30,株式会社Ｋ’ｓ技建工業,,株式会社,大阪府,大阪市平野区,瓜破南２丁目４番１０５号,,27,126,5470023,,,,,,,2023-01-30,1,,,,,ケーズギケンコウギョウ,0
719,3120001252047,新規,0,2023-01-30,2023-01-30,株式会社ＰＨＬ,,株式会社,大阪府,大阪市平野区,平野本町１丁目１番８号ツインコート平野２番館Ｂ４０６,,27,126,5470044,,,,,,,2023-01-30,1,,,,,ピーエイチエル,0
720,3120001252071,新規,0,2023-01-30,2023-01-30,株式会社スポーツキャリアサポート,,株式会社,大阪府,大阪市天王寺区,上本町５丁目３番６号,,27,109,5430001,,,,,,,2023-01-30,1,,,,,スポーツキャリアサポート,0
721,3120001252105,新規,0,2023-01-30,2023-01-30,株式会社ＲＥＮ,,株式会社,大阪府,大阪市中央区,島之内１丁目２番５号,,27,128,5420082,,,,,,,2023-01-30,1,,,,,レン,0
724,3120003023339,新規,0,2023-01-30,2023-01-30,合同会社ＯＮＥ’ｓ　ＵＮＩＱＵＥ,,合同会社,大阪府,大阪市天王寺区,上本町５丁目７－２,,27,109,5430001,,,,,,,2023-01-30,1,,,,,ワンズユニーク,0
726,3120005023436,新規,0,2023-01-30,2023-01-30,一般社団法人美再鍼協会,,その他の設立登記法人,大阪府,大阪市北区,豊崎３丁目１８番３－３３０７号,,27,127,5310072,,,,,,,2023-01-30,1,,,,,ビサイシンキョウカイ,0
729,3120105009681,新規,0,2023-01-30,2023-01-30,医療法人みさこ耳鼻咽喉科クリニック,,その他の設立登記法人,大阪府,大阪狭山市,茱萸木４丁目３７２番地１０メディカルスクエアくみの木３階,,27,231,5890013,,,,,,,2023-01-30,1,,,,,ミサコジビインコウカクリニック,0
733,3122003002504,新規,0,2023-01-30,2023-01-30,Ｇｉａ　Ｔｈｅ合同会社,,合同会社,大阪府,大東市,赤井３丁目１６番４８号,,27,218,5740046,,,,,,,2023-01-30,1,,,,,ジャテー,0
736,3130001073574,新規,0,2023-01-30,2023-01-30,いづくらアセットマネジメント株式会社,,株式会社,京都府,京都市上京区,上立売通室町西入上る裏風呂町３６３番地,,26,102,6020025,,,,,,,2023-01-30,1,,,,,イヅクラアセットマネジメント,0
737,3130003008487,新規,0,2023-01-30,2023-01-30,合同会社ＭＯＮＡＭＩ,,合同会社,京都府,京都市中京区,烏丸通三条上る場之町５９２番地メディナ烏丸御池,,26,104,6048172,,,,,,,2023-01-30,1,,,,,モナミ,0
739,3140001128906,新規,0,2023-01-30,2023-01-30,株式会社ＳＯＵ,,株式会社,兵庫県,神戸市中央区,中山手通３丁目１２番５－２０１号,,28,110,6500004,,,,,,,2023-01-30,1,,,,,ソウ,0
740,3140001128922,新規,0,2023-01-30,2023-01-30,株式会社ＦＵＮ　Ｆａｍｉｌｙ,,株式会社,兵庫県,豊岡市,中央町１１番１４号,,28,209,6680033,,,,,,,2023-01-30,1,,,,,ファンファミリー,0
742,3140003018650,新規,0,2023-01-30,2023-01-30,合同会社ｓｕｎｆｌｏｗｅｒ,,合同会社,兵庫県,川西市,霞ケ丘２丁目４番９号,,28,217,6660031,,,,,,,2023-01-30,1,,,,,サンフラワー,0
743,3140003018659,新規,0,2023-01-30,2023-01-30,合同会社Ｄｏｐｅ,,合同会社,兵庫県,尼崎市,南七松町１丁目８番２９号,,28,202,6600053,,,,,,,2023-01-30,1,,,,,ドープ,0
746,3170001017453,新規,0,2023-01-30,2023-01-30,株式会社ブリリアント・リンク,,株式会社,和歌山県,和歌山市,津秦１５５番地２６,,30,201,6408315,,,,,,,2023-01-30,1,,,,,ブリリアントリンク,0
751,3180001154725,新規,0,2023-01-30,2023-01-30,株式会社ポッチョ,,株式会社,愛知県,瀬戸市,ひまわり台１丁目２９番地の１,,23,204,4890981,,,,,,,2023-01-30,1,,,,,ポッチョ,0
752,3180001154741,新規,0,2023-01-30,2023-01-30,株式会社スクナビ,,株式会社,愛知県,名古屋市中区,大須１丁目７番１４号パークＩＭビル２Ｆ,,23,106,4600011,,,,,,,2023-01-30,1,,,,,スクナビ,0
758,3230003001960,新規,0,2023-01-30,2023-01-30,合同会社ｉｒｏｄｏｒｉ応援隊,,合同会社,富山県,富山市,東石金町１１－１７ナチ富山ドミトリー３７２号室,,16,201,9300964,,,,,,,2023-01-30,1,,,,,イロドリオウエンタイ,0
762,3240001061007,新規,0,2023-01-30,2023-01-30,株式会社白川商会,,株式会社,広島県,広島市安佐北区,安佐町大字宮野３０番地１,,34,106,7313353,,,,,,,2023-01-30,1,,,,,シラカワショウカイ,0
763,3240001061015,新規,0,2023-01-30,2023-01-30,株式会社シャイニング・カーメイク・ディオス,,株式会社,広島県,広島市安佐北区,小河原町１３３５番地２,,34,106,7391754,,,,,,,2023-01-30,1,,,,,シャイニングカーメイクディオス,0
764,3240001061023,新規,0,2023-01-30,2023-01-30,スクエアサポート株式会社,,株式会社,広島県,広島市中区,榎町６番９－２０１号,,34,101,7300851,,,,,,,2023-01-30,1,,,,,スクエアサポート,0
766,3240003005977,新規,0,2023-01-30,2023-01-30,ウベゴネックス合同会社,,合同会社,広島県,呉市,本通４丁目３－１２瀬野ビル２Ｆ,,34,202,7370045,,,,,,,2023-01-30,1,,,,,ウベゴネックス,0
767,3250001019945,新規,0,2023-01-30,2023-01-30,Ｍ．Ｍ　ＣＯＭＰＡＮＹ株式会社,,株式会社,山口県,宇部市,開１丁目５番１２号ＹＫビル２０３号,,35,202,7550096,,,,,,,2023-01-30,1,,,,,エムエムカンパニー,0
770,3250003003212,新規,0,2023-01-30,2023-01-30,愛合同会社,,合同会社,山口県,美祢市,秋芳町秋吉２０５７番地１,,35,213,7540511,,,,,,,2023-01-30,1,,,,,アイ,0
772,3260003004176,新規,0,2023-01-30,2023-01-30,合同会社イデアフリー,,合同会社,岡山県,津山市,上河原２０５番地８源津山ビル２階,,33,203,7080002,,,,,,,2023-01-30,1,,,,,イデアフリー,0
773,3260003004184,新規,0,2023-01-30,2023-01-30,ＨＴ合同会社,,合同会社,岡山県,岡山市中区,浜１丁目１６番３号プレール浜２０３,,33,102,7038256,,,,,,,2023-01-30,1,,,,,エイチティー,0
778,3290001100379,新規,0,2023-01-30,2023-01-30,株式会社ＫＯＮＯＭＩハウジング,,株式会社,福岡県,久留米市,大橋町蜷川３４５番地２,,40,203,8390831,,,,,,,2023-01-30,1,,,,,コノミハウジング,0
780,3290003013471,新規,0,2023-01-30,2023-01-30,友陽合同会社,,合同会社,福岡県,福岡市城南区,梅林２丁目１０－２６－３０２,,40,136,8140144,,,,,,,2023-01-30,1,,,,,ユウヒ,0
782,3310001018239,新規,0,2023-01-30,2023-01-30,あかねマリン株式会社,,株式会社,長崎県,平戸市,山中町６２９番地,,42,207,8595141,,,,,,,2023-01-30,1,,,,,アカネマリン,0
786,3320001019541,新規,0,2023-01-30,2023-01-30,株式会社ＹＵＩ訪問看護ステーション結,,株式会社,大分県,別府市,大字鶴見３０４５番地の１,,44,202,8740840,,,,,,,2023-01-30,1,,,,,ユイホウモンカンゴステーションユイ,0
787,3330001030539,新規,0,2023-01-30,2023-01-30,株式会社Ｍコーポレーション,,株式会社,熊本県,熊本市中央区,迎町２丁目７番３８号,,43,101,8600817,,,,,,,2023-01-30,1,,,,,エムコーポレーション,0
794,3360003012664,新規,0,2023-01-30,2023-01-30,合同会社ＣＬＵＴＣＨ沖縄,,合同会社,沖縄県,中頭郡北中城村,字和仁屋２１７番地,,47,327,9012312,,,,,,,2023-01-30,1,,,,,クラッチオキナワ,0
795,3360003012672,新規,0,2023-01-30,2023-01-30,合同会社ＭＴ,,合同会社,沖縄県,那覇市,松山１丁目４－８フラワードリームビル１Ｆ,,47,201,9000032,,,,,,,2023-01-30,1,,,,,エムティー,0
800,3370001049534,新規,0,2023-01-30,2023-01-30,株式会社ＵＮＩＴＥＤ　ＣＲＥＷ,,株式会社,宮城県,仙台市青葉区,国分町２丁目１０番１９号邦栄ビル４階,,04,101,9800803,,,,,,,2023-01-30,1,,,,,ユナイテッドクルー,0
802,3380005012669,新規,0,2023-01-30,2023-01-30,一般社団法人ＳＯＭＡ,,その他の設立登記法人,福島県,双葉郡浪江町,大字樋渡字江添２４番地７オレンジガーデンハイム２０１号,00129245,07,547,9791532,,,,,,,2023-01-30,1,,,,,ソウマ,0
803,3390003002043,新規,0,2023-01-30,2023-01-30,合同会社ＷＡＤＡＩ,,合同会社,山形県,酒田市,みずほ１丁目１９番１号,,06,204,9980853,,,,,,,2023-01-30,1,,,,,ワダイ,0
805,3420001018137,新規,0,2023-01-30,2023-01-30,株式会社プラスライフ,,株式会社,青森県,青森市,大字駒込字月見野２９１番地,,02,201,0300954,,,,,,,2023-01-30,1,,,,,プラスライフ,0
808,3430001088311,新規,0,2023-01-30,2023-01-30,株式会社Ｍａｓｔｒｉｓｅ,,株式会社,北海道,札幌市東区,東苗穂十二条４丁目１５番１２号,,01,103,0070812,,,,,,,2023-01-30,1,,,,,マストライズ,0
819,3500003002964,新規,0,2023-01-30,2023-01-30,合同会社デジアナ,,合同会社,愛媛県,松山市,衣山５丁目１５９２番地１４,,38,201,7918025,,,,,,,2023-01-30,1,,,,,デジアナ,0
831,4010001232546,新規,0,2023-01-30,2023-01-30,ＵＮＩＷＯＲＫ株式会社,,株式会社,東京都,中央区,日本橋人形町３丁目４番８号,,13,102,1030013,,,,,,,2023-01-30,1,,,,,ユニワーク,0
841,4010401172144,新規,0,2023-01-30,2023-01-30,株式会社ＯＮＥ　ＴＡＫＥ,,株式会社,東京都,港区,麻布十番１丁目２番７号ラフィネ麻布十番７０１号室,,13,103,1060045,,,,,,,2023-01-30,1,,,,,ワンテイク,0
844,4010403029391,新規,0,2023-01-30,2023-01-30,合同会社カミノオクルト,,合同会社,東京都,港区,南青山２丁目２番１５号,,13,103,1070062,,,,,,,2023-01-30,1,,,,,カミノオクルト,0
845,4010403029400,新規,0,2023-01-30,2023-01-30,合同会社ｒａｃｃｏｕｒｃｉ,,合同会社,東京都,港区,南青山６丁目７番５－４１２号,,13,103,1070062,,,,,,,2023-01-30,1,,,,,ラクルーシー,0
848,4010501049936,新規,0,2023-01-30,2023-01-30,Ｃｅｌｅｂａｌ　Ｔｅｃｈｎｏｌｏｇｉｅｓ株式会社,,株式会社,東京都,台東区,台東２丁目２０番１０号あすなろビル３０１,,13,106,1100016,,,,,,,2023-01-30,1,,,,,セレバルテクノロジー,0
852,4010701043788,新規,0,2023-01-30,2023-01-30,株式会社ｂｅ　ｗｉｔｈ,,株式会社,東京都,品川区,大崎５丁目９番３号ラフィネ大崎８０５,,13,109,1410032,,,,,,,2023-01-30,1,,,,,ビーウィズ,0
871,4011001152197,新規,0,2023-01-30,2023-01-30,株式会社Ｔｈｅａｃｅ,,株式会社,東京都,渋谷区,神南１丁目２０－８パークウェイテラスＢ１Ｆ,,13,113,1500041,,,,,,,2023-01-30,1,,,,,テーゼ,0
874,4011003016177,新規,0,2023-01-30,2023-01-30,合同会社アデリテ,,合同会社,東京都,渋谷区,道玄坂１丁目１０番８号渋谷道玄坂東急ビル２Ｆ－Ｃ,,13,113,1500043,,,,,,,2023-01-30,1,,,,,アデリテ,0
875,4011003016185,新規,0,2023-01-30,2023-01-30,合同会社らんたん屋ファクトリー,,合同会社,東京都,渋谷区,神宮前６丁目２３－４－２Ｆ,,13,113,1500001,,,,,,,2023-01-30,1,,,,,ランタンヤファクトリー,0
876,4011003016202,新規,0,2023-01-30,2023-01-30,合同会社ＡＦＲＡ　Ｊａｐａｎ　ＭＣ　ＪＰＹ,,合同会社,東京都,目黒区,大橋２丁目２２番７号,,13,110,1530044,,,,,,,2023-01-30,1,,,,,エーエフアールエージャパンエムシージェーピーワイ,0
878,4011101101657,新規,0,2023-01-30,2023-01-30,株式会社グリーン森,,株式会社,東京都,新宿区,市谷薬王寺町６９番地１－９０３,,13,104,1620063,,,,,,,2023-01-30,1,,,,,グリーンモリ,0
881,4011103012646,新規,0,2023-01-30,2023-01-30,合同会社アルヒ,,合同会社,東京都,新宿区,西新宿３丁目３番１３号西新宿水間ビル６階,,13,104,1600023,,,,,,,2023-01-30,1,,,,,アルヒ,0
885,4011401024863,新規,0,2023-01-30,2023-01-30,ＲＥＮ株式会社,,株式会社,東京都,板橋区,前野町３丁目７番６号２０１室,,13,119,1740063,,,,,,,2023-01-30,1,,,,,レン,0
888,4011501028822,新規,0,2023-01-30,2023-01-30,ＡＵＳＱＩ株式会社,,株式会社,東京都,荒川区,西日暮里１丁目６１－７東栄コーポ１０２号室,,13,118,1160013,,,,,,,2023-01-30,1,,,,,オースキュー,0
889,4011501028913,新規,0,2023-01-30,2023-01-30,株式会社＿源鼎盛,00129246,株式会社,東京都,荒川区,荒川５丁目１８番２号,,13,118,1160002,,,,,,,2023-01-30,1,,,,,シンゲンテイセイ,0
896,4011803005486,新規,0,2023-01-30,2023-01-30,銀河星途合同会社,,合同会社,東京都,葛飾区,東新小岩７丁目３０番１３号山内ビル３０２,,13,122,1240023,,,,,,,2023-01-30,1,,,,,ギンガセイト,0
898,4012703002615,新規,0,2023-01-30,2023-01-30,合同会社Ｌｉｎｏ　Ｐｌｕｓ,,合同会社,東京都,西東京市,北町２丁目９番１５号,,13,229,2020003,,,,,,,2023-01-30,1,,,,,リノプラス,0
910,4020001150012,新規,0,2023-01-30,2023-01-30,株式会社中島商事,,株式会社,神奈川県,横浜市都筑区,勝田町１０４８,,14,118,2240034,,,,,,,2023-01-30,1,,,,,ナカジマショウジ,0
912,4020003023216,新規,0,2023-01-30,2023-01-30,合同会社ＳＵ．,,合同会社,神奈川県,川崎市宮前区,平１丁目８番１３号ヒルサイドテラス２０２,,14,136,2160022,,,,,,,2023-01-30,1,,,,,スウ,0
954,4030001152156,新規,0,2023-01-30,2023-01-30,株式会社ジャーディンハウス,,株式会社,埼玉県,川越市,新宿町６丁目４番地４,,11,201,3501124,,,,,,,2023-01-30,1,,,,,ジャーディンハウス,0
955,4030001152164,新規,0,2023-01-30,2023-01-30,京博日本株式会社,,株式会社,埼玉県,川口市,芝新町１０－１５－２０２号室,,11,203,3330851,,,,,,,2023-01-30,1,,,,,ケイバジャパン,0
960,4030003021053,新規,0,2023-01-30,2023-01-30,グローバルマインドイノベーション合同会社,,合同会社,埼玉県,三郷市,早稲田６丁目６番地３号棟４０７号,,11,237,3410018,,,,,,,2023-01-30,1,,,,,グローバルマインドイノベーション,0
961,4030005021126,新規,0,2023-01-30,2023-01-30,特定非営利活動法人オペラ未来クリエイト,,その他の設立登記法人,埼玉県,上尾市,本町３丁目７番２４号,,11,219,3620014,,,,,,,2023-01-30,1,,,,,オペラミライクリエイト,0
970,4040001126695,新規,0,2023-01-30,2023-01-30,ＴＲＥＫＴＲＥＫ株式会社,,株式会社,千葉県,船橋市,印内２丁目３番１５号ＴＯＰ西船橋第－２０１,,12,204,2730039,,,,,,,2023-01-30,1,,,,,トリークトリーク,0
971,4040001126828,新規,0,2023-01-30,2023-01-30,株式会社櫛引工業,,株式会社,千葉県,木更津市,高柳２丁目５番３７号,,12,206,2920014,,,,,,,2023-01-30,1,,,,,クシビキコウギョウ,0
974,4040003021787,新規,0,2023-01-30,2023-01-30,合同会社ＮＩコーポレーション,,合同会社,千葉県,柏市,逆井５３９番地１,,12,217,2770042,,,,,,,2023-01-30,1,,,,,エヌアイコーポレーション,0
978,4050003007182,新規,0,2023-01-30,2023-01-30,ＳＥＮＯＲＡ　ＩＮＴＥＲＮＡＴＩＯＮＡＬ合同会社,,合同会社,茨城県,稲敷市,江戸崎字石橋甲７１８番３６,,08,229,3000500,,,,,,,2023-01-30,1,,,,,セノーラインターナショナル,0
980,4070001040076,新規,0,2023-01-30,2023-01-30,株式会社山翠ファーム,,株式会社,群馬県,高崎市,北双葉町７番２０号,,10,202,3700842,,,,,,,2023-01-30,1,,,,,サンスイファーム,0
982,4080101023764,新規,0,2023-01-30,2023-01-30,株式会社大梅,,株式会社,静岡県,富士宮市,三園平１６７９番地,,22,207,4180004,,,,,,,2023-01-30,1,,,,,ダイウメ,0
985,4100003006864,新規,0,2023-01-30,2023-01-30,合同会社よろず商会,,合同会社,長野県,飯田市,上殿岡６８０番地１,,20,205,3950153,,,,,,,2023-01-30,1,,,,,ヨロズショウカイ,0
991,4120001251980,新規,0,2023-01-30,2023-01-30,三銀田株式会社,,株式会社,大阪府,大阪市淀川区,西宮原２丁目６－１６－３２４号,,27,123,5320004,,,,,,,2023-01-30,1,,,,,サンギンタ,0
992,4120001252095,新規,0,2023-01-30,2023-01-30,株式会社ｆｅｌｉｃｉｔｅ,,株式会社,大阪府,大阪市阿倍野区,阪南町７丁目９番８号,,27,119,5450021,,,,,,,2023-01-30,1,,,,,フェリシテ,0
994,4120003023338,新規,0,2023-01-30,2023-01-30,ＡｎｇｌｅＭａｘ合同会社,,合同会社,大阪府,大阪市住吉区,長居西３丁目７番８号メゾン・ド・トレイュ２０８号室,,27,120,5580002,,,,,,,2023-01-30,1,,,,,アングルマックス,0
995,4120003023346,新規,0,2023-01-30,2023-01-30,アトミックス合同会社,,合同会社,大阪府,大阪市西区,新町３丁目７番２－２０３号,,27,106,5500013,,,,,,,2023-01-30,1,,,,,アトミックス,0
996,4120005023435,新規,0,2023-01-30,2023-01-30,医療法人あんどう整形外科,,その他の設立登記法人,大阪府,大阪市住之江区,西住之江１丁目１番４１号,,27,125,5590005,,,,,,,2023-01-30,1,,,,,アンドウセイケイゲカ,0
998,4120101066899,新規,0,2023-01-30,2023-01-30,株式会社Ｇ‐ＡＸＩＳ,,株式会社,大阪府,南河内郡河南町,大字中１１８４番地の１,,27,382,5850031,,,,,,,2023-01-30,1,,,,,ジーアクシス,0
999,4120105009680,新規,0,2023-01-30,2023-01-30,医療法人森山クリニック,,その他の設立登記法人,大阪府,泉佐野市,笠松１丁目１番３号,,27,213,5980044,,,,,,,2023-01-30,1,,,,,モリヤマクリニック,0
1001,4120903004478,新規,0,2023-01-30,2023-01-30,合同会社Ｌｉｂｅｒａｈｅａｒｔｓ,,合同会社,大阪府,豊中市,寺内１丁目２番２０号第２グリーンロードハウス５０１号室,,27,203,5610872,,,,,,,2023-01-30,1,,,,,リベラハーツ,0
1003,4122001036643,新規,0,2023-01-30,2023-01-30,株式会社万代メディカル,,株式会社,大阪府,東大阪市,渋川町３丁目９番２５号,,27,227,5770836,,,,,,,2023-01-30,1,,,,,マンダイメディカル,0
1004,4122003002503,新規,0,2023-01-30,2023-01-30,ＥＶＥＲ　ＹＯＵＲＳ合同会社,,合同会社,大阪府,四條畷市,清滝中町１８－５,,27,229,5750061,,,,,,,2023-01-30,1,,,,,エバーユアーズ,0
1012,4130001073581,新規,0,2023-01-30,2023-01-30,株式会社Ｋ＆Ｓマネジメント,,株式会社,京都府,京都市伏見区,深草佐野屋敷町２１番地１,,26,109,6120089,,,,,,,2023-01-30,1,,,,,ケイアンドエスマネジメント,0
1014,4130005016685,新規,0,2023-01-30,2023-01-30,一般財団法人国際ユース交流財団,,その他の設立登記法人,京都府,京都市北区,北野西白梅町２９－１０－２,,26,101,6038327,,,,,,,2023-01-30,1,,,,,コクサイユースコウリュウザイダン,0
1018,4140001128905,新規,0,2023-01-30,2023-01-30,ヤマモト電機株式会社,,株式会社,兵庫県,神戸市東灘区,本山中町２丁目６番２７－３０４号,,28,101,6580016,,,,,,,2023-01-30,1,,,,,ヤマモトデンキ,0
1019,4140001128913,新規,0,2023-01-30,2023-01-30,株式会社シンセイハイテック,,株式会社,兵庫県,姫路市,西庄甲３２８番地３，らくらくビル３階南,,28,201,6700981,,,,,,,2023-01-30,1,,,,,シンセイハイテック,0
1020,4140001128921,新規,0,2023-01-30,2023-01-30,サンクコウベ株式会社,,株式会社,兵庫県,三木市,緑が丘町西３丁目４番地の１０,,28,215,6730531,,,,,,,2023-01-30,1,,,,,サンクコウベ,0
1026,4180001154724,新規,0,2023-01-30,2023-01-30,株式会社ＴＷＥＬ,,株式会社,愛知県,名古屋市東区,筒井３丁目１０番１３号,,23,102,4610003,,,,,,,2023-01-30,1,,,,,トゥウェル,0
1032,4190003004208,新規,0,2023-01-30,2023-01-30,フクワライ合同会社,,合同会社,三重県,四日市市,新町７－６フクワライビル２Ｆ,,24,202,5100092,,,,,,,2023-01-30,1,,,,,フクワライ,0
1039,4240001061022,新規,0,2023-01-30,2023-01-30,株式会社あいうえおらんど,,株式会社,広島県,広島市南区,西霞町１２番５号,,34,103,7340044,,,,,,,2023-01-30,1,,,,,アイウエオランド,0
1043,4250001019944,新規,0,2023-01-30,2023-01-30,株式会社Ａｃｒｅａｔｅ,,株式会社,山口県,防府市,勝間２丁目４番３７号,,35,206,7470822,,,,,,,2023-01-30,1,,,,,エイクリエイト,0
1044,4260001037607,新規,0,2023-01-30,2023-01-30,源宇株式会社,,株式会社,岡山県,岡山市南区,妹尾２３３７番地９,,33,104,7010205,,,,,,,2023-01-30,1,,,,,ゲンウ,0
1045,4270003001477,新規,0,2023-01-30,2023-01-30,リメイクハウス鳥取合同会社,,合同会社,鳥取県,鳥取市,吉成南町１丁目２番７号,,31,201,6800871,,,,,,,2023-01-30,1,,,,,リメイクハウストットリ,0
1054,4290001100353,新規,0,2023-01-30,2023-01-30,株式会社幸設,,株式会社,福岡県,福岡市博多区,東月隈３丁目９番７号,,40,132,8120854,,,,,,,2023-01-30,1,,,,,コウセツ,0
1055,4290001100378,新規,0,2023-01-30,2023-01-30,株式会社大成機工,,株式会社,福岡県,福岡市博多区,麦野４丁目１６－５－１０２,,40,132,8120882,,,,,,,2023-01-30,1,,,,,タイセイキコウ,0
1059,4320001019540,新規,0,2023-01-30,2023-01-30,株式会社スティード,,株式会社,大分県,別府市,松原町７番１７号,,44,202,8740946,,,,,,,2023-01-30,1,,,,,スティード,0
1060,4330001030538,新規,0,2023-01-30,2023-01-30,株式会社山英,,株式会社,熊本県,葦北郡津奈木町,大字岩城２３２０番地,,43,484,8695603,,,,,,,2023-01-30,1,,,,,ヤマヒデ,0
1061,4330003009695,新規,0,2023-01-30,2023-01-30,合同会社ウエスデン,,合同会社,熊本県,八代市,豊原下町３４５８番地３,,43,202,8660065,,,,,,,2023-01-30,1,,,,,ウエスデン,0
1064,4350001018151,新規,0,2023-01-30,2023-01-30,株式会社イージスプラス,,株式会社,宮崎県,宮崎市,高岡町小山田１２３番地５,,45,201,8802214,,,,,,,2023-01-30,1,,,,,イージスプラス,0
1065,4350005006136,新規,0,2023-01-30,2023-01-30,一般社団法人みやざき子供未来機構,,その他の設立登記法人,宮崎県,宮崎市,丸島町４番１７号２０１号,,45,201,8800813,,,,,,,2023-01-30,1,,,,,ミヤザキコドモミライキコウ,0
1068,4360003012671,新規,0,2023-01-30,2023-01-30,合同会社ｓｔｅｐ　ｕｐ,,合同会社,沖縄県,那覇市,松山２丁目９－１７カーニバルビル４階,,47,201,9000032,,,,,,,2023-01-30,1,,,,,ステップアップ,0
1069,4360005006779,新規,0,2023-01-30,2023-01-30,一般社団法人Ｋ’Ｓサポート,,その他の設立登記法人,沖縄県,那覇市,字国場３３７番地５,,47,201,9020075,,,,,,,2023-01-30,1,,,,,ケイズサポート,0
1071,4370001049541,新規,0,2023-01-30,2023-01-30,株式会社佐々木,,株式会社,宮城県,気仙沼市,東八幡前２８７番地６,,04,205,9880811,,,,,,,2023-01-30,1,,,,,ササキ,0
1078,4370003005971,新規,0,2023-01-30,2023-01-30,合同会社ＳＢ,,合同会社,宮城県,柴田郡村田町,大字村田字針生前６－１,,04,322,9891305,,,,,,,2023-01-30,1,,,,,エスビー,0
1094,4430001088319,新規,0,2023-01-30,2023-01-30,株式会社ウェルカノン,,株式会社,北海道,札幌市中央区,南十六条西１０丁目３番１７－５号,,01,101,0640916,,,,,,,2023-01-30,1,,,,,ウェルカノン,0
1097,4450001013893,新規,0,2023-01-30,2023-01-30,株式会社ＰＧ‐Ｋ,,株式会社,北海道,旭川市,大町二条４丁目２１番地３３,,01,204,0700842,,,,,,,2023-01-30,1,,,,,ピージーケー,0
1098,4470005006487,新規,0,2023-01-30,2023-01-30,一般社団法人健倖応援デザイン,,その他の設立登記法人,香川県,坂出市,西庄町１８６番地１,,37,203,7620021,,,,,,,2023-01-30,1,,,,,ケンコウオウエンデザイン,0
1099,4500003002963,新規,0,2023-01-30,2023-01-30,今治金属合同会社,,合同会社,愛媛県,今治市,朝倉上乙１１００番地１,,38,202,7991607,,,,,,,2023-01-30,1,,,,,イマバリキンゾク,0
1102,4700150113989,新規,0,2023-01-30,2023-01-30,ＷｏｏＣｏｍｍｅｒｃｅ　Ｉｒｅｌａｎｄ　Ｌｉｍｉｔｅｄ,,外国会社等,,,,,,,,ＮＯＯＮＥ　ＣＡＳＥＹ　ＡＣＣＯＵＮＴＡＮＴＳ，２５　ＨＥＲＢＥＲＴ　ＰＬＡＣＥ，ＤＵＢＬＩＮ，ＩＲＥＬＡＮＤ，ＤＯ２　ＡＹ８６,,,,,,2023-01-30,1,,,,,ウーコマースアイルランドリミテツド,0
1112,5010001232215,新規,0,2023-01-30,2023-01-30,株式会社ＬＴＫＳ,,株式会社,東京都,千代田区,神田神保町２丁目２０番地１２,,13,101,1010051,,,,,,,2023-01-30,1,,,,,エルティーケーエス,0
1113,5010001232512,新規,0,2023-01-30,2023-01-30,株式会社ＴＯＫＹＯ　ＦＡＮＴＡＳＩＡ,,株式会社,東京都,中央区,晴海３丁目１３番１－２２１０号,,13,102,1040053,,,,,,,2023-01-30,1,,,,,トウキョウファンタジア,0
1114,5010001232520,新規,0,2023-01-30,2023-01-30,株式会社ビヨンドミュージックマネジメントジャパン,,株式会社,東京都,千代田区,神田鍛冶町３丁目４番地ｏａｋ神田鍛冶町７階,,13,101,1010045,,,,,,,2023-01-30,1,,,,,ビヨンドミュージックマネジメントジャパン,0
1121,5010405021742,新規,0,2023-01-30,2023-01-30,一般社団法人日本デリバリー協会,,その他の設立登記法人,東京都,港区,赤坂２丁目１４番１１号天翔オフィス赤坂７０１,,13,103,1070052,,,,,,,2023-01-30,1,,,,,ニホンデリバリーキョウカイ,0
1127,5010701043770,新規,0,2023-01-30,2023-01-30,株式会社健一,,株式会社,東京都,品川区,東大井５丁目１９－６鈴の家ビル７０２,,13,109,1400011,,,,,,,2023-01-30,1,,,,,ケンイチ,0
1128,5010801033639,新規,0,2023-01-30,2023-01-30,株式会社ＡＲＡＴＡＭＡ　Ｆａｃｔｏｒｙ,,株式会社,東京都,大田区,石川町１丁目１５－２０,,13,111,1450061,,,,,,,2023-01-30,1,,,,,アラタマファクトリー,0
1132,5010901052308,新規,0,2023-01-30,2023-01-30,株式会社ＦＯＯＤ　ＭＯＲＥ,,株式会社,東京都,世田谷区,瀬田３丁目１番８－６０５号,,13,112,1580095,,,,,,,2023-01-30,1,,,,,フードモア,0
1144,5011003016176,新規,0,2023-01-30,2023-01-30,かちいろ合同会社,,合同会社,東京都,渋谷区,神泉町１０番１５号,,13,113,1500045,,,,,,,2023-01-30,1,,,,,カチイロ,0
1148,5011101101664,新規,0,2023-01-30,2023-01-30,ＴＯＰ　ＭＥＤＩＣＡＬ株式会社,,株式会社,東京都,新宿区,大久保３丁目７番３３－１２０４号,,13,104,1690072,,,,,,,2023-01-30,1,,,,,トップメディカル,0
1151,5011401024788,新規,0,2023-01-30,2023-01-30,株式会社壽,,株式会社,東京都,板橋区,中丸町２４－９メイスンビル４Ｆ,,13,119,1730026,,,,,,,2023-01-30,1,,,,,コトブキ,0
1153,5011403003889,新規,0,2023-01-30,2023-01-30,合同会社セブンフューチャー,,合同会社,東京都,板橋区,舟渡２丁目２３－１２,,13,119,1740041,,,,,,,2023-01-30,1,,,,,セブンフューチャー,0
1155,5011505002525,新規,0,2023-01-30,2023-01-30,特定非営利活動法人ＭＡＲＶＥＬＯＵＳ　ＢＲＯＴＨＥＲＳ,,その他の設立登記法人,東京都,荒川区,南千住６丁目６７番１－１０１号サクセス内,,13,118,1160003,,,,,,,2023-01-30,1,,,,,マーベラスブラザーズ,0
1160,5011703003374,新規,0,2023-01-30,2023-01-30,ＦＧ合同会社,,合同会社,東京都,江戸川区,南小岩７丁目１３番１１号,,13,123,1330056,,,,,,,2023-01-30,1,,,,,エフジー,0
1210,5030001152130,新規,0,2023-01-30,2023-01-30,株式会社ハヤフネエステート,,株式会社,埼玉県,川口市,大字西立野９０１番地,,11,203,3330813,,,,,,,2023-01-30,1,,,,,ハヤフネエステート,0
1211,5030001152139,新規,0,2023-01-30,2023-01-30,株式会社ネクサスハウス,,株式会社,埼玉県,さいたま市西区,大字土屋５１５番地８,,11,101,3310062,,,,,,,2023-01-30,1,,,,,ネクサスハウス,0
1212,5030001152155,新規,0,2023-01-30,2023-01-30,株式会社美善,,株式会社,埼玉県,北葛飾郡杉戸町,大字堤根１０６５番地１,,11,464,3450024,,,,,,,2023-01-30,1,,,,,ビゼン,0
1213,5030001152163,新規,0,2023-01-30,2023-01-30,株式会社プラスアルファグローバル,,株式会社,埼玉県,蕨市,中央７丁目５４－１０－１Ｆ,,11,223,3350004,,,,,,,2023-01-30,1,,,,,プラスアルファグローバル,0
1217,5030003021028,新規,0,2023-01-30,2023-01-30,ＵＮＩＶＥＲＳＡＬ　ＳＥＲＶＩＣＥＳ合同会社,,合同会社,埼玉県,春日部市,大枝６５５－１プルミエール２０２号室,,11,214,3440023,,,,,,,2023-01-30,1,,,,,ユニバーサルサービス,0
1218,5030003021052,新規,0,2023-01-30,2023-01-30,合同会社チームメイト,,合同会社,埼玉県,さいたま市浦和区,領家３丁目１２番１０号,,11,107,3300072,,,,,,,2023-01-30,1,,,,,チームメイト,0
1219,5030003021069,新規,0,2023-01-30,2023-01-30,ブルーム合同会社,,合同会社,埼玉県,越谷市,越ヶ谷１丁目１０番６号チュリス越谷７０７号,,11,222,3430813,,,,,,,2023-01-30,1,,,,,ブルーム,0
1234,5040003021794,新規,0,2023-01-30,2023-01-30,合同会社ハットトリック,,合同会社,千葉県,浦安市,明海６丁目１番１２号,,12,227,2790014,,,,,,,2023-01-30,1,,,,,ハットトリック,0
1238,5070001040067,新規,0,2023-01-30,2023-01-30,群馬福祉医療株式会社,,株式会社,群馬県,前橋市,文京町３丁目９番１１号,,10,201,3710801,,,,,,,2023-01-30,1,,,,,グンマフクシイリョウ,0
1239,5070001040075,新規,0,2023-01-30,2023-01-30,しののめキャピタル株式会社,,株式会社,群馬県,高崎市,江木町１４２１番地４,,10,202,3700046,,,,,,,2023-01-30,1,,,,,シノノメキャピタル,0
1241,5080001025430,新規,0,2023-01-30,2023-01-30,株式会社ヒロセ,,株式会社,静岡県,焼津市,小浜２０８番地５４,,22,212,4250011,,,,,,,2023-01-30,1,,,,,ヒロセ,0
1242,5080005007508,新規,0,2023-01-30,2023-01-30,一般社団法人静岡工学研究所,,その他の設立登記法人,静岡県,静岡市葵区,御幸町２番１２号ペガサート６階,,22,101,4200857,,,,,,,2023-01-30,1,,,,,シズオカコウガクケンキュウジョ,0
1244,5080103002732,新規,0,2023-01-30,2023-01-30,合同会社オール,,合同会社,静岡県,伊東市,岡１３８５番地１９,,22,208,4140055,,,,,,,2023-01-30,1,,,,,オール,0
1246,5090001017947,新規,0,2023-01-30,2023-01-30,株式会社Ｓ．Ｋ．Ｍ．Ｃ．,,株式会社,山梨県,甲府市,緑が丘２丁目７番２４号,,19,201,4000008,,,,,,,2023-01-30,1,,,,,エスケーエムシー,0
1250,5100003006863,新規,0,2023-01-30,2023-01-30,合同会社ヤマンザイマウンテンガイド＆ワークス,,合同会社,長野県,北安曇郡池田町,大字会染４３３,,20,481,3998602,,,,,,,2023-01-30,1,,,,,ヤマンザイマウンテンガイドアンドワークス,0
1251,5100005012967,新規,0,2023-01-30,2023-01-30,一般社団法人野沢温泉マウンテンリゾート観光局,,その他の設立登記法人,長野県,下高井郡野沢温泉村,大字豊郷９７８０番地４,,20,563,3892502,,,,,,,2023-01-30,1,,,,,ノザワオンセンマウンテンリゾートカンコウキョク,0
1253,5110001037265,新規,0,2023-01-30,2023-01-30,２ｎｄｓｔａｇｅ株式会社,,株式会社,新潟県,上越市,本町３丁目１番７号,,15,222,9430832,,,,,,,2023-01-30,1,,,,,セカンドステージ,0
1263,5120001252086,新規,0,2023-01-30,2023-01-30,株式会社ＯＮＬＹ　ＦＯＲＷＡＲＤ,,株式会社,大阪府,大阪市北区,大淀中２丁目１１番８号,,27,127,5310076,,,,,,,2023-01-30,1,,,,,オンリーフォワード,0
1264,5120001252111,新規,0,2023-01-30,2023-01-30,株式会社Ｇａｒ,,株式会社,大阪府,大阪市北区,曾根崎１丁目６番１３号,,27,127,5300057,,,,,,,2023-01-30,1,,,,,ガー,0
1271,5120003023329,新規,0,2023-01-30,2023-01-30,合同会社ｏｏｎＧｉｍ,,合同会社,大阪府,大阪市北区,黒崎町１３番１５号,,27,127,5300023,,,,,,,2023-01-30,1,,,,,ウンギム,0
1272,5120005023434,新規,0,2023-01-30,2023-01-30,医療法人かいとクリニック,,その他の設立登記法人,大阪府,枚方市,津田西町３丁目１７番３号,,27,210,5730126,,,,,,,2023-01-30,1,,,,,カイトクリニック,0
1276,5120101066898,新規,0,2023-01-30,2023-01-30,株式会社ＫＭＲコーポレーション,,株式会社,大阪府,堺市堺区,北瓦町１丁４番５１号テイサンビル北館,,27,141,5900076,,,,,,,2023-01-30,1,,,,,ケイエムアールコーポレーション,0
1277,5120103005053,新規,0,2023-01-30,2023-01-30,合同会社米太郎,,合同会社,大阪府,松原市,新堂２丁目３１６番地,,27,217,5800015,,,,,,,2023-01-30,1,,,,,ヨネタロウ,0
1279,5120901047057,新規,0,2023-01-30,2023-01-30,ハーバルストアー株式会社,,株式会社,大阪府,豊中市,服部豊町１丁目９番１４号,,27,203,5610859,,,,,,,2023-01-30,1,,,,,ハーバルストアー,0
1289,5140001128904,新規,0,2023-01-30,2023-01-30,株式会社エム,,株式会社,兵庫県,明石市,朝霧南町３丁目１６番５８号,,28,203,6730870,,,,,,,2023-01-30,1,,,,,エム,0
1290,5140001128920,新規,0,2023-01-30,2023-01-30,株式会社衣川企画,,株式会社,兵庫県,伊丹市,南本町２丁目２番１０号,,28,207,6640852,,,,,,,2023-01-30,1,,,,,キヌガワキカク,0
1291,5140003018657,新規,0,2023-01-30,2023-01-30,合同会社ＡＫ,,合同会社,兵庫県,明石市,大久保町駅前１丁目１６番地の１０グランシャリオＳＡＴＯＨ２０５,,28,203,6740058,,,,,,,2023-01-30,1,,,,,エーケー,0
1294,5170001017451,新規,0,2023-01-30,2023-01-30,株式会社新和不動産,,株式会社,和歌山県,田辺市,目良１１番１３号,,30,206,6460058,,,,,,,2023-01-30,1,,,,,シンワフドウサン,0
1302,5180001154657,新規,0,2023-01-30,2023-01-30,株式会社匠屋,,株式会社,愛知県,丹羽郡扶桑町,大字斎藤字緑７１番地,,23,362,4800104,,,,,,,2023-01-30,1,,,,,タクミヤ,0
1303,5180001154723,新規,0,2023-01-30,2023-01-30,ほぐし門株式会社,,株式会社,愛知県,名古屋市中区,大須１丁目８番３号エスリード大須デュオ１２０６号,,23,106,4600011,,,,,,,2023-01-30,1,,,,,ホグシモン,0
1304,5180001154731,新規,0,2023-01-30,2023-01-30,株式会社すみれ建設,,株式会社,愛知県,名古屋市名東区,高針４丁目９１６番地,,23,115,4650061,,,,,,,2023-01-30,1,,,,,スミレケンセツ,0
1307,5180003024750,新規,0,2023-01-30,2023-01-30,合同会社Ｃｏｃｏ・Ｄｅｆｉ,,合同会社,愛知県,春日井市,白山町８丁目９番地１４,,23,206,4870034,,,,,,,2023-01-30,1,,,,,ココデフィ,0
1308,5180003024759,新規,0,2023-01-30,2023-01-30,Ｐｒｏｆｉｔ合同会社,,合同会社,愛知県,名古屋市中村区,名駅４丁目２４番５号,,23,105,4500002,,,,,,,2023-01-30,1,,,,,プロフィット,0
1311,5190001030130,新規,0,2023-01-30,2023-01-30,株式会社こうへい,,株式会社,三重県,度会郡玉城町,日向１２５番地１,,24,461,5190405,,,,,,,2023-01-30,1,,,,,コウヘイ,0
1312,5200001040904,新規,0,2023-01-30,2023-01-30,株式会社ナガエテクノ,,株式会社,岐阜県,多治見市,笠原町３９００番地の５,,21,204,5070901,,,,,,,2023-01-30,1,,,,,ナガエテクノ,0
1315,5240001061013,新規,0,2023-01-30,2023-01-30,株式会社アイテック,,株式会社,広島県,広島市中区,広瀬北町３番２２号,,34,101,7300803,,,,,,,2023-01-30,1,,,,,アイテック,0
1316,5240001061021,新規,0,2023-01-30,2023-01-30,リプラス株式会社,,株式会社,広島県,東広島市,西条中央４丁目４番２号エクセレントハイツ１号室,,34,212,7390025,,,,,,,2023-01-30,1,,,,,リプラス,0
1328,5290001100352,新規,0,2023-01-30,2023-01-30,株式会社ビーエム,,株式会社,福岡県,福岡市早良区,飯倉２丁目２２番４７号,,40,137,8140161,,,,,,,2023-01-30,1,,,,,ビーエム,0
1329,5290001100360,新規,0,2023-01-30,2023-01-30,株式会社Ｎｅｘｕｓ,,株式会社,福岡県,糟屋郡久山町,大字久原２５０２番地１,,40,348,8112501,,,,,,,2023-01-30,1,,,,,ネクサス,0
1330,5290001100369,新規,0,2023-01-30,2023-01-30,株式会社ＣＬＣ,,株式会社,福岡県,福岡市博多区,千代１丁目２１番７―１２１６号,,40,132,8120044,,,,,,,2023-01-30,1,,,,,シーエルシー,0
1331,5290001100377,新規,0,2023-01-30,2023-01-30,諏訪野株式会社,,株式会社,福岡県,久留米市,諏訪野町１８１４番地２３アルフィーネ久留米諏訪野町９０３号,,40,203,8300037,,,,,,,2023-01-30,1,,,,,スワノ,0
1332,5290001100385,新規,0,2023-01-30,2023-01-30,株式会社ＡＴＲＹＳ,,株式会社,福岡県,福岡市中央区,港１丁目３番１７号１１０６号室,,40,133,8100075,,,,,,,2023-01-30,1,,,,,アトライズ,0
1340,5300001013206,新規,0,2023-01-30,2023-01-30,良和建設株式会社,,株式会社,佐賀県,佐賀市,嘉瀬町大字十五１３１７番地１,,41,201,8400863,,,,,,,2023-01-30,1,,,,,リョウワケンセツ,0
1341,5310001018237,新規,0,2023-01-30,2023-01-30,イコールボート株式会社,,株式会社,長崎県,東彼杵郡東彼杵町,瀬戸郷１２０５－２,,42,321,8593923,,,,,,,2023-01-30,1,,,,,イコールボート,0
1347,5320003004003,新規,0,2023-01-30,2023-01-30,合同会社Ｒｅｖｏ,,合同会社,大分県,由布市,挾間町古野１５８番地６,,44,213,8795511,,,,,,,2023-01-30,1,,,,,レボ,0
1349,5330003009694,新規,0,2023-01-30,2023-01-30,合同会社スエヒロガリ,,合同会社,熊本県,熊本市東区,沼山津４丁目２番１７号,,43,102,8612102,,,,,,,2023-01-30,1,,,,,スエヒロガリ,0
1354,5350001018150,新規,0,2023-01-30,2023-01-30,株式会社スマイルクリーンテック,,株式会社,宮崎県,宮崎市,大字本郷南方２７２９番地１,,45,201,8800921,,,,,,,2023-01-30,1,,,,,スマイルクリーンテック,0
1356,5360001031490,新規,0,2023-01-30,2023-01-30,株式会社琉光,,株式会社,沖縄県,那覇市,久米１丁目１番７号サマリア久米３０１号,,47,201,9000033,,,,,,,2023-01-30,1,,,,,リュウコウ,0
1360,5380003005375,新規,0,2023-01-30,2023-01-30,合同会社ラルム,,合同会社,福島県,郡山市,田村町徳定字下河原１９７－４プリンスオーロラ１－１１９,,07,203,9631165,,,,,,,2023-01-30,1,,,,,ラルム,0
1367,5430001088292,新規,0,2023-01-30,2023-01-30,丸忠鈴木株式会社,,株式会社,北海道,札幌市北区,麻生町３丁目９番８号,,01,102,0010045,,,,,,,2023-01-30,1,,,,,マルタダスズキ,0
1368,5430001088318,新規,0,2023-01-30,2023-01-30,株式会社ＪＵＮＹＡ,,株式会社,北海道,札幌市南区,澄川二条２丁目６番２－３０５号,,01,106,0050002,,,,,,,2023-01-30,1,,,,,ジュンヤ,0
1372,5430003014692,新規,0,2023-01-30,2023-01-30,合同会社チャオアイアドハスキー,,合同会社,北海道,札幌市中央区,南十五条西１７丁目２番１２－２号,,01,101,0640915,,,,,,,2023-01-30,1,,,,,チャオアイアドハスキー,0
1377,5700150113988,新規,0,2023-01-30,2023-01-30,Ｆｒｅｅｌｅｔｉｃｓ　ＧｍｂＨ,,外国会社等,,,,,,,,Ｅｉｎｓｔｅｉｎｓｔｒ．１７４，ｃ／ｏ　Ｄｅｓｉｇｎ　Ｏｆｆｉｃｅｓ，８１６７７　Ｍｕｎｉｃｈ,,,,,,2023-01-30,1,,,,,フリーレテイツクスゲーエムベーハー,0
1404,6010401171664,新規,0,2023-01-30,2023-01-30,株式会社マネジメントオム,,株式会社,東京都,港区,赤坂３丁目４番４号専修赤坂ビルＢ１階,,13,103,1070052,,,,,,,2023-01-30,1,,,,,マネジメントオム,0
1405,6010401172126,新規,0,2023-01-30,2023-01-30,Ｆｒｏｎｔｉｅｒ　Ｉｎｎｏｖａｔｉｏｎｓ株式会社,,株式会社,東京都,港区,芝浦４丁目２１番１号,,13,103,1080023,,,,,,,2023-01-30,1,,,,,フロンティアイノベーションズ,0
1411,6010501049926,新規,0,2023-01-30,2023-01-30,フィナンシャルエース株式会社,,株式会社,東京都,台東区,台東１丁目１６番３号,,13,106,1100016,,,,,,,2023-01-30,1,,,,,フィナンシャルエース,0
1412,6010503006867,新規,0,2023-01-30,2023-01-30,ＪＰ　ｃｅｙｌｏｎ合同会社,,合同会社,東京都,台東区,下谷３丁目１番２４号７１５号室,,13,106,1100004,,,,,,,2023-01-30,1,,,,,ジェイピーセイロン,0
1440,6011001152245,新規,0,2023-01-30,2023-01-30,株式会社裕来恵,,株式会社,東京都,渋谷区,上原２丁目２９番８－６０１号,,13,113,1510064,,,,,,,2023-01-30,1,,,,,ユキエ,0
1441,6011001152253,新規,0,2023-01-30,2023-01-30,株式会社ＮＲ,,株式会社,東京都,渋谷区,猿楽町５番１０号猿楽ＩＳビル３Ｃ,,13,113,1500033,,,,,,,2023-01-30,1,,,,,エヌアール,0
1446,6011101101655,新規,0,2023-01-30,2023-01-30,株式会社ｔｅｌｅｍｅｄｉｃｉｎｅ,,株式会社,東京都,新宿区,市谷仲之町２番３号グランエクレール市ヶ谷４０１,,13,104,1620064,,,,,,,2023-01-30,1,,,,,テレメディシン,0
1447,6011101101663,新規,0,2023-01-30,2023-01-30,株式会社瑞工房,,株式会社,東京都,新宿区,新宿６丁目１３番５号ＡＴＣ会館２Ｆ,,13,104,1600022,,,,,,,2023-01-30,1,,,,,ズイコウボウ,0
1448,6011101101688,新規,0,2023-01-30,2023-01-30,ザ東京ワールド株式会社,,株式会社,東京都,新宿区,北新宿１丁目２６番１３－３０１号,,13,104,1690074,,,,,,,2023-01-30,1,,,,,ザトウキョウワールド,0
1450,6011103012652,新規,0,2023-01-30,2023-01-30,合同会社ナイトトレイン,,合同会社,東京都,新宿区,中落合３丁目１６番１４－４０６号,,13,104,1610032,,,,,,,2023-01-30,1,,,,,ナイトトレイン,0
1457,6011401024861,新規,0,2023-01-30,2023-01-30,株式会社吉見通信工業,,株式会社,東京都,板橋区,前野町３丁目１８番１号,,13,119,1740063,,,,,,,2023-01-30,1,,,,,ヨシミツウシンコウギョウ,0
1459,6011503005454,新規,0,2023-01-30,2023-01-30,萩原デベロップメント合同会社,,合同会社,東京都,北区,赤羽１丁目７番９号赤羽第一葉山ビル４Ｆ,,13,117,1150045,,,,,,,2023-01-30,1,,,,,ハギワラデベロップメント,0
1462,6011803005484,新規,0,2023-01-30,2023-01-30,合同会社ウィング,,合同会社,東京都,葛飾区,西亀有２丁目３５番１２号,,13,122,1240002,,,,,,,2023-01-30,1,,,,,ウィング,0
1470,6012803002991,新規,0,2023-01-30,2023-01-30,合同会社Ｎさぽーと,,合同会社,東京都,日野市,大字日野１０２６番地の３ルーチェ・ステラ１０３,,13,212,1910012,,,,,,,2023-01-30,1,,,,,エヌサポート,0
1480,6020001150027,新規,0,2023-01-30,2023-01-30,株式会社福の樹,,株式会社,神奈川県,横浜市泉区,上飯田町１９１番地１０,,14,116,2450018,,,,,,,2023-01-30,1,,,,,フクノキ,0
1481,6020001150035,新規,0,2023-01-30,2023-01-30,ＣＣ　ＦＩＮＤＳ株式会社,,株式会社,神奈川県,川崎市川崎区,池田１丁目１０番２号１０１号室,,14,131,2100022,,,,,,,2023-01-30,1,,,,,シーシーファインズ,0
1482,6020001150043,新規,0,2023-01-30,2023-01-30,株式会社ＡＣＥ,,株式会社,神奈川県,横浜市港北区,綱島東４丁目７番２７号,,14,109,2230052,,,,,,,2023-01-30,1,,,,,エース,0
1483,6020003023214,新規,0,2023-01-30,2023-01-30,合同会社澁谷雄二設計事務所,,合同会社,神奈川県,横浜市港南区,芹が谷５丁目４番１３－４号,,14,111,2330006,,,,,,,2023-01-30,1,,,,,,0
1490,6021001078092,新規,0,2023-01-30,2023-01-30,株式会社アカデミー管理,,株式会社,神奈川県,海老名市,上今泉５丁目２８番３５号,,14,215,2430431,,,,,,,2023-01-30,1,,,,,アカデミーカンリ,0
1509,6021003012685,新規,0,2023-01-30,2023-01-30,合同会社３６９Ｓｔｙｌｅ,,合同会社,神奈川県,茅ヶ崎市,松林３丁目１番３５－３号,,14,207,2530017,,,,,,,2023-01-30,1,,,,,ミロクスタイル,0
1520,6030001152138,新規,0,2023-01-30,2023-01-30,株式会社協真エンジニアリングＨＤ,,株式会社,埼玉県,川口市,本蓮２丁目５番５号,,11,203,3340076,,,,,,,2023-01-30,1,,,,,キョウシンエンジニアリングホールディングス,0
1521,6030001152146,新規,0,2023-01-30,2023-01-30,株式会社Ｓ．ＡＨ,,株式会社,埼玉県,戸田市,喜沢南１丁目３番３４号,,11,224,3350014,,,,,,,2023-01-30,1,,,,,エスエーエイチ,0
1522,6030003021068,新規,0,2023-01-30,2023-01-30,合同会社アッパープランニング,,合同会社,埼玉県,草加市,栄町２丁目２番１２－３０５号,,11,221,3400011,,,,,,,2023-01-30,1,,,,,アッパープランニング,0
1527,6040001126818,新規,0,2023-01-30,2023-01-30,株式会社空き家テラス,,株式会社,千葉県,習志野市,谷津町１丁目７番地１８,,12,216,2750027,,,,,,,2023-01-30,1,,,,,アキヤテラス,0
1528,6040001126826,新規,0,2023-01-30,2023-01-30,新奇株式会社,,株式会社,千葉県,印西市,牧の原３丁目５番地４９,,12,231,2701331,,,,,,,2023-01-30,1,,,,,シンキ,0
1530,6040003021785,新規,0,2023-01-30,2023-01-30,合同会社ケアスタッフ,,合同会社,千葉県,成田市,公津の杜３丁目３番１号三恵ビル２階,,12,211,2860048,,,,,,,2023-01-30,1,,,,,ケアスタッフ,0
1540,6070001040074,新規,0,2023-01-30,2023-01-30,ハイランドファーム株式会社,,株式会社,群馬県,邑楽郡邑楽町,大字藤川３８番地,,10,525,3700605,,,,,,,2023-01-30,1,,,,,ハイランドファーム,0
1542,6080005007507,新規,0,2023-01-30,2023-01-30,一般社団法人Ｃｏｎｎｅｃｔｉｎｇ　Ｃｏｍｍｕｎｉｔｙ,,その他の設立登記法人,静岡県,藤枝市,岡出山３丁目１３番２３号,,22,214,4260026,,,,,,,2023-01-30,1,,,,,コネクティングコミュニティ,0
1543,6080101023770,新規,0,2023-01-30,2023-01-30,アプトホールディングス株式会社,,株式会社,静岡県,沼津市,西沢田５６,,22,203,4100007,,,,,,,2023-01-30,1,,,,,アプトホールディングス,0
1546,6090001017954,新規,0,2023-01-30,2023-01-30,株式会社ＹｓＴ,,株式会社,山梨県,上野原市,八ツ沢２１９３－２５２,,19,212,4090133,,,,,,,2023-01-30,1,,,,,ワイズティー,0
1547,6090003002236,新規,0,2023-01-30,2023-01-30,ワールドエクイティリサーチ合同会社,,合同会社,山梨県,北杜市,高根町五町田８９３番地４サンコーポラス高根２－１０２,,19,209,4080017,,,,,,,2023-01-30,1,,,,,ワールドエクイティリサーチ,0
1552,6110001037264,新規,0,2023-01-30,2023-01-30,新潟ホームサービス株式会社,,株式会社,新潟県,新潟市西蒲区,和納６４９４番地１,,15,108,9530125,,,,,,,2023-01-30,1,,,,,ニイガタホームサービス,0
1556,6120001252060,新規,0,2023-01-30,2023-01-30,株式会社ジークラッセ,,株式会社,大阪府,大阪市北区,紅梅町３番９－１２０１号,,27,127,5300038,,,,,,,2023-01-30,1,,,,,ジークラッセ,0
1557,6120001252127,新規,0,2023-01-30,2023-01-30,タイラク株式会社,,株式会社,大阪府,大阪市東淀川区,西淡路２丁目１４番４号Ｔ’ｓＣｕｂｅ東淀川４０２号室,,27,114,5330031,,,,,,,2023-01-30,1,,,,,タイラク,0
1561,6120003023303,新規,0,2023-01-30,2023-01-30,アジズル合同会社,,合同会社,大阪府,大阪市生野区,巽北１丁目２１番２９号,00129244,27,116,5440004,,,,,,,2023-01-30,1,,,,,アジズル,0
1562,6120003023352,新規,0,2023-01-30,2023-01-30,合同会社千草,,合同会社,大阪府,大阪市西成区,橘１丁目７番１８号,,27,122,5570051,,,,,,,2023-01-30,1,,,,,チグサ,0
1563,6120005023433,新規,0,2023-01-30,2023-01-30,医療法人ｍ．ＦＯＲＴＨ,,その他の設立登記法人,大阪府,大阪市西区,京町堀１丁目３番１３号辰巳ビル１階,,27,106,5500003,,,,,,,2023-01-30,1,,,,,エムフォース,0
1565,6120105009679,新規,0,2023-01-30,2023-01-30,医療法人太倉会,,その他の設立登記法人,大阪府,大阪狭山市,茱萸木４丁目３７２番地１０メディカルスクエアくみの木２階,,27,231,5890013,,,,,,,2023-01-30,1,,,,,タイソウカイ,0
1568,6122005003662,新規,0,2023-01-30,2023-01-30,一般社団法人いきいきライフ協会大阪八尾,,その他の設立登記法人,大阪府,八尾市,若林町１丁目７０番１号樋口ビル１号館３０３号室,,27,212,5810038,,,,,,,2023-01-30,1,,,,,イキイキライフキョウカイオオサカヤオ,0
1577,6140001128903,新規,0,2023-01-30,2023-01-30,株式会社林,,株式会社,兵庫県,神戸市垂水区,西舞子１丁目９番１１号,,28,108,6550048,,,,,,,2023-01-30,1,,,,,ハヤシ,0
1583,6180001154739,新規,0,2023-01-30,2023-01-30,ｎｅｃｏｎｏｔｅ株式会社,,株式会社,愛知県,名古屋市北区,水草町２丁目６０番地の２,,23,103,4620042,,,,,,,2023-01-30,1,,,,,ネコノテ,0
1584,6180003024782,新規,0,2023-01-30,2023-01-30,合同会社Ｄ‐ＱＵＡＬＩＴＹ,,合同会社,愛知県,名古屋市瑞穂区,平郷町２丁目９番地の４,,23,108,4670879,,,,,,,2023-01-30,1,,,,,ディークォリティー,0
1585,6190003004214,新規,0,2023-01-30,2023-01-30,合同会社Ｕプロダクツ,,合同会社,三重県,名張市,梅が丘北１番町３３０番地,,24,208,5180746,,,,,,,2023-01-30,1,,,,,ユープロダクツ,0
1587,6200001040903,新規,0,2023-01-30,2023-01-30,株式会社クラウナフェア,,株式会社,岐阜県,岐阜市,日ノ本町３丁目４番地,,21,201,5008852,,,,,,,2023-01-30,1,,,,,クラウナフェア,0
1592,6240001061020,新規,0,2023-01-30,2023-01-30,株式会社ＨＩＴＭＡＮ,,株式会社,広島県,広島市西区,観音新町１丁目２０番３６－１号,,34,104,7330036,,,,,,,2023-01-30,1,,,,,ヒットマン,0
1596,6240003005990,新規,0,2023-01-30,2023-01-30,合同会社ひかり,,合同会社,広島県,福山市,今津町５丁目１３番３２－７号,,34,207,7290111,,,,,,,2023-01-30,1,,,,,ヒカリ,0
1598,6280003001689,新規,0,2023-01-30,2023-01-30,合同会社笑瑠,,合同会社,島根県,松江市,東朝日町１１１番地（１階）,,32,201,6900001,,,,,,,2023-01-30,1,,,,,エール,0
1604,6290001100351,新規,0,2023-01-30,2023-01-30,株式会社テイク・プロモート,,株式会社,福岡県,柳川市,七ツ家２５０番地,,40,207,8320087,,,,,,,2023-01-30,1,,,,,テイクプロモート,0
1605,6290001100376,新規,0,2023-01-30,2023-01-30,株式会社ＳＥＩＺＡＮ,,株式会社,福岡県,福岡市中央区,荒戸１丁目９番２１号仙成ビル６０１号,,40,133,8100062,,,,,,,2023-01-30,1,,,,,セイザン,0
1606,6290001100384,新規,0,2023-01-30,2023-01-30,株式会社ストック,,株式会社,福岡県,太宰府市,朱雀３丁目９番２６号,,40,221,8180103,,,,,,,2023-01-30,1,,,,,ストック,0
1609,6300001013205,新規,0,2023-01-30,2023-01-30,株式会社ゼロファースト,,株式会社,佐賀県,西松浦郡有田町,外尾山丙１６０６－１６,,41,401,8440025,,,,,,,2023-01-30,1,,,,,ゼロファースト,0
1613,6330001030536,新規,0,2023-01-30,2023-01-30,ベネフィシャル株式会社,,株式会社,熊本県,熊本市中央区,下通１丁目３番８号下通ＮＳビル６Ｆ,,43,101,8600807,,,,,,,2023-01-30,1,,,,,ベネフィシャル,0
1638,6430001088317,新規,0,2023-01-30,2023-01-30,株式会社勇建装工業,,株式会社,北海道,江別市,野幌美幸町２１番地の１５,,01,217,0690804,,,,,,,2023-01-30,1,,,,,ユウケンソウコウギョウ,0
1639,6430003014691,新規,0,2023-01-30,2023-01-30,合同会社ＡｄｏＯｆｆｅｒ,,合同会社,北海道,札幌市中央区,南一条西１６丁目１番地３２３春野ビル３Ｆ,,01,101,0600061,,,,,,,2023-01-30,1,,,,,アドオファー,0
1659,6700150113987,新規,0,2023-01-30,2023-01-30,Ｄｏｎｇｇｕａｎｓｈｉ　ｄｏｎｇｙｕｎｓｈｅｊｉ　ｙｏｕｘｉａｎｇｏｎｇｓｉ,,外国会社等,,,,,,,,１０４　ＨＡＯ　ＳＨＡＮＧ　ＰＵ　ＪＩＡ　Ｙｌ　ＧＥ　１　ＬＯＵ，ＪＩＡ　ＸＩＮ　ＧＵＡＮＧ　ＣＨＡＮＧ　ＱＩＮＧ　ＸＩ　ＺＨＥＮ，Ｄｏｎｇｇｕａｎ，Ｇｕａｎｇｄｏｎｇ，Ｃｈｉｎａ,,,,,,2023-01-30,1,,,,,ドングアンシドンギュンシェジユウゲンコウシ,0
1660,6700150113995,新規,0,2023-01-30,2023-01-30,ｓｈｅｎｚｈｅｎｓｈｉ　ｙｉｈｏｎｇｃｈａｎｇ　ｄｉａｎｚｉｙｏｕｘｉａｎｇｏｎｇｓｉ,,外国会社等,,,,,,,,Ｆ０１，１１ｔｈ　Ｆｌｏｏｒ，Ｅａｓｔ，Ｂｕｉｌｄｉｎｇ４，ＳＥＧ　Ｔｅｃｈｎｏｌｏｇｙ　Ｐａｒｋ　Ｎｏ．１２０，Ｚｈｅｎｘｉｎｇ　Ｒｏａｄ，Ｌｉｃｕｎ　Ｃｏｍｍｕｎｉｔｙ，Ｈｕａｑｉａｎｇｂｅｉ　Ｓｔｒｅｅｔ　ｓｈｅｎｚｈｅｎ　ｇｕａｎｇｄｏｎｇ，Ｃｈｉｎａ,,,,,,2023-01-30,1,,,,,シンセンシイホンシャンデンシユウゲンコウシ,0
1673,7010001232428,新規,0,2023-01-30,2023-01-30,株式会社ＳＵＩＭＯＮ,,株式会社,東京都,中央区,銀座１丁目１２番４号Ｎ＆ＥＢＬＤ．６Ｆ,,13,102,1040061,,,,,,,2023-01-30,1,,,,,スイモン,0
1674,7010001232551,新規,0,2023-01-30,2023-01-30,Ｈ‐ｓｉ株式会社,,株式会社,東京都,中央区,銀座４丁目１３番８号岩藤ビル５階,,13,102,1040061,,,,,,,2023-01-30,1,,,,,エイチシリコン,0
1675,7010001232576,新規,0,2023-01-30,2023-01-30,株式会社ＮｅｘｔＦｏｏｄｓ,,株式会社,東京都,中央区,日本橋小舟町１３番１０号,,13,102,1030024,,,,,,,2023-01-30,1,,,,,ネクストフーズ,0
1678,7010003039689,新規,0,2023-01-30,2023-01-30,アストロ・ナイン合同会社,,合同会社,東京都,中央区,銀座１丁目６番１１号土志田ビルディング３Ｆ,,13,102,1040061,,,,,,,2023-01-30,1,,,,,アストロナイン,0
1685,7010401172059,新規,0,2023-01-30,2023-01-30,株式会社メリ・フォン,,株式会社,東京都,港区,芝浦３丁目１７番１１号天翔田町ビル６１１号室,,13,103,1080023,,,,,,,2023-01-30,1,,,,,メリフォン,0
1686,7010401172067,新規,0,2023-01-30,2023-01-30,１９０プレシャス株式会社,,株式会社,東京都,港区,六本木５丁目１５番２１－１０１号,,13,103,1060032,,,,,,,2023-01-30,1,,,,,イチキュウマルプレシャス,0
1687,7010401172141,新規,0,2023-01-30,2023-01-30,株式会社アールエス,,株式会社,東京都,港区,六本木６丁目１２番２－８０８号,,13,103,1060032,,,,,,,2023-01-30,1,,,,,アールエス,0
1688,7010401172182,新規,0,2023-01-30,2023-01-30,株式会社スマートホームデベロップメント,,株式会社,東京都,港区,赤坂７丁目６番１５号,,13,103,1070052,,,,,,,2023-01-30,1,,,,,スマートホームデベロップメント,0
1690,7010403029389,新規,0,2023-01-30,2023-01-30,合同会社ＫＣ　ＩＮＶＥＳＴＭＥＮＴ,,合同会社,東京都,港区,六本木６丁目２－３１－１７Ｆ,,13,103,1060032,,,,,,,2023-01-30,1,,,,,ケーシーインベストメント,0
1694,7010801033637,新規,0,2023-01-30,2023-01-30,株式会社ｍｐｓＡ,,株式会社,東京都,大田区,北糀谷１丁目１１番８号,,13,111,1440032,,,,,,,2023-01-30,1,,,,,エムピーエスエー,0
1716,7011001152244,新規,0,2023-01-30,2023-01-30,株式会社ｒ３ｋｔ,,株式会社,東京都,渋谷区,桜丘町４番１４号ＶＯＲＴ渋谷桜丘ビル５Ｆ,,13,113,1500031,,,,,,,2023-01-30,1,,,,,レクト,0
1720,7011003016109,新規,0,2023-01-30,2023-01-30,合同会社Ｄ３プランニング,,合同会社,東京都,渋谷区,幡ヶ谷２丁目１３番４号幡ヶ谷定石ビル３階,,13,113,1510072,,,,,,,2023-01-30,1,,,,,ディースリープランニング,0
1725,7011101101679,新規,0,2023-01-30,2023-01-30,株式会社オフィスアスク,,株式会社,東京都,新宿区,横寺町６４番地２,,13,104,1620831,,,,,,,2023-01-30,1,,,,,オフィスアスク,0
1731,7011503005453,新規,0,2023-01-30,2023-01-30,ＫＨＡＮＨ　ＰＨＡＴ合同会社,,合同会社,東京都,北区,赤羽西１丁目１６番１２号赤羽ＴＰビルＡ棟１１３号室,,13,117,1150055,,,,,,,2023-01-30,1,,,,,カンファット,0
1736,7011703003372,新規,0,2023-01-30,2023-01-30,合同会社ＳＥＳパートナーズ,,合同会社,東京都,江戸川区,東葛西８丁目３８－１９ライオンズガーデン葛西６０３,,13,123,1340084,,,,,,,2023-01-30,1,,,,,エスイーエスパートナーズ,0
1738,7011801041852,新規,0,2023-01-30,2023-01-30,株式会社ＨＯＵＴ,,株式会社,東京都,足立区,鹿浜５丁目１７－１５,,13,121,1230864,,,,,,,2023-01-30,1,,,,,ハウト,0
1739,7011803005483,新規,0,2023-01-30,2023-01-30,Ｎａｎｃｙ合同会社,,合同会社,東京都,足立区,中川１丁目１７－１５,,13,121,1200002,,,,,,,2023-01-30,1,,,,,ナンシー,0
1740,7013105001822,新規,0,2023-01-30,2023-01-30,一般社団法人多摩身元保証センターそうしんＰＬＵＳ,,その他の設立登記法人,東京都,青梅市,末広町１丁目２番地１,,13,205,1980025,,,,,,,2023-01-30,1,,,,,タマミモトホショウセンターソウシンプラス,0
1748,7020001150034,新規,0,2023-01-30,2023-01-30,ＫＫＨ株式会社,,株式会社,神奈川県,横浜市中区,長者町１丁目３番地７長者町福神ビル３階,,14,104,2310033,,,,,,,2023-01-30,1,,,,,ケイケイエイチ,0
1749,7020001150042,新規,0,2023-01-30,2023-01-30,株式会社テック防災,,株式会社,神奈川県,川崎市川崎区,藤崎４丁目１８番１７－６０７号,,14,131,2100804,,,,,,,2023-01-30,1,,,,,テックボウサイ,0
1752,7020003023213,新規,0,2023-01-30,2023-01-30,合同会社一心,,合同会社,神奈川県,川崎市川崎区,東田町４番地１４,,14,131,2100005,,,,,,,2023-01-30,1,,,,,イッシン,0
1790,7030001152104,新規,0,2023-01-30,2023-01-30,株式会社Ｅｘａｓ,,株式会社,埼玉県,さいたま市南区,別所５丁目１５－２,,11,108,3360021,,,,,,,2023-01-30,1,,,,,エクサス,0
1791,7030001152145,新規,0,2023-01-30,2023-01-30,株式会社ＲｅＮＥＷ,,株式会社,埼玉県,さいたま市南区,沼影１丁目３０番２５－１００２号,,11,108,3360027,,,,,,,2023-01-30,1,,,,,リニュー,0
1792,7030001152153,新規,0,2023-01-30,2023-01-30,株式会社灯エンジニアリング,,株式会社,埼玉県,富士見市,東みずほ台３丁目１６番地３２,,11,235,3540015,,,,,,,2023-01-30,1,,,,,アカリエンジニアリング,0
1793,7030001152161,新規,0,2023-01-30,2023-01-30,株式会社ＢＲＩＤＧＥ,,株式会社,埼玉県,狭山市,大字水野５８３番地の２６,,11,215,3501317,,,,,,,2023-01-30,1,,,,,ブリッジ,0
1794,7030003021050,新規,0,2023-01-30,2023-01-30,合同会社ライフライン,,合同会社,埼玉県,戸田市,大字新曽２２２０番地の１（北戸田ファーストゲートタワー１００６号室）,,11,224,3350021,,,,,,,2023-01-30,1,,,,,ライフライン,0
1795,7030003021059,新規,0,2023-01-30,2023-01-30,ＡＱＳＡ合同会社,,合同会社,埼玉県,蕨市,南町３丁目１９－３妙高ビル３０２号室,,11,223,3350003,,,,,,,2023-01-30,1,,,,,アクサ,0
1797,7030005021131,新規,0,2023-01-30,2023-01-30,特定非営利活動法人スマイルこどもの家ちょこ,,その他の設立登記法人,埼玉県,新座市,東北１丁目１４番１－２０９号,,11,230,3520001,,,,,,,2023-01-30,1,,,,,スマイルコドモノイエチョコ,0
1798,7040001126825,新規,0,2023-01-30,2023-01-30,株式会社エアリ,,株式会社,千葉県,船橋市,高根台６丁目２５番９号,,12,204,2740065,,,,,,,2023-01-30,1,,,,,エアリ,0
1802,7040003021784,新規,0,2023-01-30,2023-01-30,合同会社Ｃ・Ｇ・ＭＯＴＯＲＳ,,合同会社,千葉県,市原市,犬成９０８番地１６,,12,219,2900166,,,,,,,2023-01-30,1,,,,,シージーモータース,0
1805,7050001052302,新規,0,2023-01-30,2023-01-30,コネクターエンターテイメント株式会社,,株式会社,茨城県,高萩市,春日町２丁目７８シノハラビル１Ｆ,,08,214,3180031,,,,,,,2023-01-30,1,,,,,コネクターエンターテイメント,0
1808,7070001040073,新規,0,2023-01-30,2023-01-30,株式会社エムシーシー,,株式会社,群馬県,渋川市,有馬８８０番地３,,10,208,3770005,,,,,,,2023-01-30,1,,,,,エムシーシー,0
1809,7070003004803,新規,0,2023-01-30,2023-01-30,Ｍ２．ＬＩＮＫ合同会社,,合同会社,群馬県,伊勢崎市,赤堀今井町２丁目１２４１番地２５メイプルウエストタウンＢ,,10,204,3792215,,,,,,,2023-01-30,1,,,,,エムツーリンク,0
1814,7090001017953,新規,0,2023-01-30,2023-01-30,株式会社Ｑｏｏｘ,,株式会社,山梨県,甲府市,和田町２７０３番地,,19,201,4000001,,,,,,,2023-01-30,1,,,,,,0
1821,7120001251706,新規,0,2023-01-30,2023-01-30,株式会社ＰＥＴＩＴ　ＣＯＮＣＩＥＲＧＥ,,株式会社,大阪府,大阪市中央区,南船場１丁目１７番８号,,27,128,5420081,,,,,,,2023-01-30,1,,,,,プチコンシェルジュ,0
1822,7120001251978,新規,0,2023-01-30,2023-01-30,株式会社草葉,,株式会社,大阪府,大阪市生野区,巽北１丁目２１番２９号,00129251,27,116,5440004,,,,,,,2023-01-30,1,,,,,クサバ,0
1823,7120001252076,新規,0,2023-01-30,2023-01-30,株式会社エアコン・ショップ,,株式会社,大阪府,大阪市西区,本田４丁目９番５号２Ｆ,,27,106,5500022,,,,,,,2023-01-30,1,,,,,エアコンショップ,0
1824,7120001252101,新規,0,2023-01-30,2023-01-30,エア・ウォーター・エレクトロニクス株式会社,,株式会社,大阪府,守口市,寺内町２丁目７番２７号,,27,209,5700056,,,,,,,2023-01-30,1,,,,,エアウォーターエレクトロニクス,0
1825,7120001252118,新規,0,2023-01-30,2023-01-30,八方園株式会社,,株式会社,大阪府,大阪市生野区,中川４丁目２番４－２０１号,,27,116,5440005,,,,,,,2023-01-30,1,,,,,ハッポウエン,0
1826,7120001252126,新規,0,2023-01-30,2023-01-30,株式会社Ｍａｃａｕｄａ,,株式会社,大阪府,大阪市中央区,常盤町２丁目１番３－１０１号,,27,128,5400028,,,,,,,2023-01-30,1,,,,,マカウダ,0
1830,7120003023343,新規,0,2023-01-30,2023-01-30,合同会社島田測量事務所,,合同会社,大阪府,大阪市中央区,石町１丁目１番１１－２０２号,,27,128,5400033,,,,,,,2023-01-30,1,,,,,シマダソクリョウジムショ,0
1835,7120005023432,新規,0,2023-01-30,2023-01-30,一般財団法人小野薬品がん・免疫・神経研究財団,,その他の設立登記法人,大阪府,大阪市中央区,道修町２丁目１番５号,,27,128,5410045,,,,,,,2023-01-30,1,,,,,オノヤクヒンガンメンエキシンケイケンキュウザイダン,0
1838,7120101066905,新規,0,2023-01-30,2023-01-30,株式会社ファセラ,,株式会社,大阪府,松原市,東新町３丁目１３番２０号,,27,217,5800024,,,,,,,2023-01-30,1,,,,,ファセラ,0
1841,7120901047047,新規,0,2023-01-30,2023-01-30,株式会社ステップアップ,,株式会社,大阪府,池田市,五月丘２丁目１番７－Ａ３０１号,,27,204,5630029,,,,,,,2023-01-30,1,,,,,ステップアップ,0
1842,7120905006420,新規,0,2023-01-30,2023-01-30,医療法人藤実会,,その他の設立登記法人,大阪府,池田市,緑丘２丁目８番１６号池田みどり丘クリニックビル３階,,27,204,5630026,,,,,,,2023-01-30,1,,,,,フジミカイ,0
1849,7140001128902,新規,0,2023-01-30,2023-01-30,エースクラフト株式会社,,株式会社,兵庫県,神戸市北区,有野台３丁目３番地の１０,,28,109,6511321,,,,,,,2023-01-30,1,,,,,エースクラフト,0
1850,7140001128919,新規,0,2023-01-30,2023-01-30,株式会社ドエル,,株式会社,兵庫県,伊丹市,春日丘６丁目５６番地,,28,207,6640893,,,,,,,2023-01-30,1,,,,,ドエル,0
1856,7140005026466,新規,0,2023-01-30,2023-01-30,一般社団法人繋ぐライクファミリーサポート,,その他の設立登記法人,兵庫県,神戸市東灘区,御影３丁目２番１１号２０３号室,,28,101,6580047,,,,,,,2023-01-30,1,,,,,ツナグライクファミリーサポート,0
1858,7160001024793,新規,0,2023-01-30,2023-01-30,Ｋｏｃｏｒｏ　ｈｏｕｓｅ不動産株式会社,,株式会社,滋賀県,栗東市,安養寺２丁目４番２０号,,25,208,5203015,,,,,,,2023-01-30,1,,,,,ココロハウスフドウサン,0
1860,7170001017458,新規,0,2023-01-30,2023-01-30,株式会社紬生,,株式会社,和歌山県,和歌山市,万町２５フューチャー本町１０１,,30,201,6408035,,,,,,,2023-01-30,1,,,,,ツムギ,0
1872,7180005020093,新規,0,2023-01-30,2023-01-30,ホワイトキャッスル平針２管理組合法人,,その他の設立登記法人,愛知県,名古屋市天白区,原１丁目１２０９番地,,23,116,4680015,,,,,,,2023-01-30,1,,,,,ホワイトキャッスルヒラバリツー,0
1874,7190001030129,新規,0,2023-01-30,2023-01-30,株式会社ＫＴホールディングス,,株式会社,三重県,桑名市,明正町一丁目５６５番地,,24,205,5110823,,,,,,,2023-01-30,1,,,,,ケーティーホールディングス,0
1876,7200001040902,新規,0,2023-01-30,2023-01-30,株式会社たきち,,株式会社,岐阜県,養老郡養老町,船附１５０８番地１,,21,341,5031382,,,,,,,2023-01-30,1,,,,,タキチ,0
1880,7230003001965,新規,0,2023-01-30,2023-01-30,合同会社クリアトーン,,合同会社,富山県,中新川郡立山町,利田１０６７番地５３,,16,323,9300275,,,,,,,2023-01-30,1,,,,,クリアトーン,0
1881,7240001061011,新規,0,2023-01-30,2023-01-30,株式会社ＴＥＧＯ,,株式会社,広島県,呉市,川尻町西１丁目２番４２号,,34,202,7372603,,,,,,,2023-01-30,1,,,,,テゴー,0
1888,7290001100383,新規,0,2023-01-30,2023-01-30,株式会社エイチアンドフューチャーズ,,株式会社,福岡県,久留米市,東町４８０番地２５,,40,203,8300032,,,,,,,2023-01-30,1,,,,,エイチアンドフューチャーズ,0
1889,7290001100391,新規,0,2023-01-30,2023-01-30,株式会社ＴＳＣ,,株式会社,福岡県,福岡市中央区,今泉１丁目２２番２０号,,40,133,8100021,,,,,,,2023-01-30,1,,,,,ティーエスシー,0
1891,7290003013468,新規,0,2023-01-30,2023-01-30,ＰＴ合同会社,,合同会社,福岡県,福岡市南区,塩原４丁目２０番１７号－４０９号,,40,134,8150032,,,,,,,2023-01-30,1,,,,,ピーティー,0
1899,7340001025328,新規,0,2023-01-30,2023-01-30,株式会社濱田,,株式会社,鹿児島県,姶良市,加治木町木田６７１番地,,46,225,8995241,,,,,,,2023-01-30,1,,,,,ハマダ,0
1901,7340003004032,新規,0,2023-01-30,2023-01-30,ｍａｔｃｈ合同会社,,合同会社,鹿児島県,鹿児島市,田上台４丁目３８番１３号,,46,201,8900036,,,,,,,2023-01-30,1,,,,,マッチ,0
1908,7370001049539,新規,0,2023-01-30,2023-01-30,株式会社ヨシダホールディングス,,株式会社,宮城県,気仙沼市,長磯牧通１２４番地,,04,205,9880235,,,,,,,2023-01-30,1,,,,,ヨシダホールディングス,0
1909,7370003005969,新規,0,2023-01-30,2023-01-30,合同会社大場ボーリング,,合同会社,宮城県,仙台市太白区,西中田７丁目３０番１５－４０３号,,04,104,9811105,,,,,,,2023-01-30,1,,,,,オオバボーリング,0
1916,7430003014690,新規,0,2023-01-30,2023-01-30,合同会社Ｂｅｙｏｎｄ　ｔｈａｔ,,合同会社,北海道,札幌市中央区,南十三条西１０丁目２－２５－３０１,,01,101,0640913,,,,,,,2023-01-30,1,,,,,ビヨンドザット,0
1917,7450003002289,新規,0,2023-01-30,2023-01-30,合同会社ＯＮＥ,,合同会社,北海道,旭川市,東六条１丁目３番２４号ＲＡＶＩＥＳＴ２０２号室,,01,204,0700026,,,,,,,2023-01-30,1,,,,,ワン,0
1918,7470001019440,新規,0,2023-01-30,2023-01-30,株式会社ＪＬＩＣＡ,,株式会社,香川県,高松市,林町６７７番地６,,37,201,7610301,,,,,,,2023-01-30,1,,,,,ジェリカ,0
1924,7490001010389,新規,0,2023-01-30,2023-01-30,株式会社ステップアップ,,株式会社,高知県,高知市,寿町４番５号ＹＭビル６Ｆ,,39,201,7800043,,,,,,,2023-01-30,1,,,,,ステップアップ,0
1929,7700150113986,新規,0,2023-01-30,2023-01-30,Ｇｕａｎｇｚｈｏｕ　ｌｉａｎｇｆａｎ　Ｃｏ．，ｌｔｄ／Ｌｔｄ,,外国会社等,,,,,,,,Ｂｕｉｌｄｉｎｇ　Ａ，Ｒｏｏｍ　２０４１，１２０２　Ｔｉａｎｙｕａｎ　Ｒｏａｄ，Ｂａｉｙｕｎ　Ｄｉｓｔｒｉｃｔ，Ｇｕａｎｇｚｈｏｕ　Ｇｕａｎｇｄｏｎｇ，ｃｈｉｎａ,,,,,,2023-01-30,1,,,,,ゴンジョウリアンファンカンパニーリミテッド,0
1930,7700150113994,新規,0,2023-01-30,2023-01-30,Ｓｈｅｎｚｈｅｎ　Ｗａｎ　Ｃｈｕａｎｇ　Ｑｉａｎ　Ｃｈａｏ　Ｔｅｃｈｎｏｌｏｇｙ,,外国会社等,,,,,,,,ｌｏｎｇｇａｎｇｑｕｂａｎｔｉａｎｊｉｅｄａｏ　ｃｈａｎｇｆａｚｈｏｎｇｌｕ　７ｈａｏ　ｚｈｏｎｇｐｏｇｏｎｇｙｅｙｕａｎ　Ｅｄｏｎｇ　６０８　ｓｈｅｎｚｈｅｎ　ｇｕａｎｇｄｏｎｇ　Ｃｈｉｎａ,,,,,,2023-01-30,1,,,,,シンセンワンチャンキオンチャオテクノロジー,0
1942,8010001232600,新規,0,2023-01-30,2023-01-30,株式会社ヴォカリーズ,,株式会社,東京都,中央区,銀座６丁目１３番１６号銀座ＷａｌｌビルＵＣＦ５階,,13,102,1040061,,,,,,,2023-01-30,1,,,,,ヴォカリーズ,0
1946,8010003039696,新規,0,2023-01-30,2023-01-30,合同会社福岡川崎町,,合同会社,東京都,千代田区,平河町１丁目３番１３号平河町フロントビル７階株式会社シリウス・アドバイザリー内,,13,101,1020093,,,,,,,2023-01-30,1,,,,,フクオカカワサキチョウ,0
1947,8010005036171,新規,0,2023-01-30,2023-01-30,一般社団法人福岡川崎町,,その他の設立登記法人,東京都,千代田区,平河町１丁目３番１３号平河町フロントビル７階株式会社シリウス・アドバイザリー内,,13,101,1020093,,,,,,,2023-01-30,1,,,,,フクオカカワサキチョウ,0
1950,8010401172058,新規,0,2023-01-30,2023-01-30,ヒポポタマス株式会社,,株式会社,東京都,港区,芝浦４丁目１６番３１－１００３号,,13,103,1080023,,,,,,,2023-01-30,1,,,,,ヒポポタマス,0
1953,8010403029405,新規,0,2023-01-30,2023-01-30,合同会社ＦＡＶ　ＰＲＦ１号,,合同会社,東京都,港区,元赤坂１丁目１番７号,,13,103,1070051,,,,,,,2023-01-30,1,,,,,ファブプレリートファンドイチゴウ,0
1954,8010405021748,新規,0,2023-01-30,2023-01-30,ＹＡＮＡＧＩ特定目的会社,,その他の設立登記法人,東京都,港区,虎ノ門３丁目２２番１０－２０１号,,13,103,1050001,,,,,,,2023-01-30,1,,,,,ヤナギ,0
1960,8010501049924,新規,0,2023-01-30,2023-01-30,Ｌｉｔ株式会社,,株式会社,東京都,台東区,上野３丁目１８番４号エムズ上野スクエア,,13,106,1100005,,,,,,,2023-01-30,1,,,,,リット,0
1962,8010601062505,新規,0,2023-01-30,2023-01-30,ＩＢＩＺＯＮ株式会社,,株式会社,東京都,江東区,有明３丁目７番２６号有明フロンティアビルＢ棟９階,,13,108,1350063,,,,,,,2023-01-30,1,,,,,イビゾン,0
1967,8010705003470,新規,0,2023-01-30,2023-01-30,一般社団法人在日ベトナム知識人協会,,その他の設立登記法人,東京都,品川区,大崎１丁目１９番１３－２４０７号,,13,109,1410032,,,,,,,2023-01-30,1,,,,,ザイニチベトナムチシキジンキョウカイ,0
1993,8011001152136,新規,0,2023-01-30,2023-01-30,ＷｏＯＬＴＲＡＫＥＹ株式会社,,株式会社,東京都,渋谷区,西原１丁目２８番７－３０１号ＭＯＤＩＥＲＨＡＴＡＧＡＹＡ,,13,113,1510066,,,,,,,2023-01-30,1,,,,,ウルトラキー,0
1994,8011001152235,新規,0,2023-01-30,2023-01-30,株式会社ｑｕａｓａｒｉｏｎ,,株式会社,東京都,渋谷区,道玄坂１丁目１０番８号渋谷道玄坂東急ビル２Ｆ－Ｃ,,13,113,1500043,,,,,,,2023-01-30,1,,,,,クアサリオン,0
1995,8011001152251,新規,0,2023-01-30,2023-01-30,株式会社バックチャンネル,,株式会社,東京都,渋谷区,東１丁目１３番１号,,13,113,1500011,,,,,,,2023-01-30,1,,,,,バックチャンネル,0
2002,8011101101661,新規,0,2023-01-30,2023-01-30,株式会社Ｂ　ＯＲＩＧＩＮ,,株式会社,東京都,新宿区,西新宿７丁目７番３０－９０１号,,13,104,1600023,,,,,,,2023-01-30,1,,,,,ビーオリジン,0
2010,8011601026540,新規,0,2023-01-30,2023-01-30,株式会社ポリッシュファクトリー,,株式会社,東京都,練馬区,三原台２丁目６番１７号,,13,120,1770031,,,,,,,2023-01-30,1,,,,,ポリッシュファクトリー,0
2011,8011801041851,新規,0,2023-01-30,2023-01-30,株式会社ｄｏｔＣｏｎｆ,,株式会社,東京都,足立区,古千谷本町３丁目２番１２号リブリ・桜花１０７,,13,121,1210832,,,,,,,2023-01-30,1,,,,,ドットコンフ,0
2014,8012703002628,新規,0,2023-01-30,2023-01-30,ＴＳ５合同会社,,合同会社,東京都,西東京市,栄町２丁目７番４号,,13,229,2020006,,,,,,,2023-01-30,1,,,,,ティーエスファイブ,0
2030,8020001150025,新規,0,2023-01-30,2023-01-30,株式会社デュアフォース,,株式会社,神奈川県,横浜市西区,北幸１丁目１１番１号水信ビル７階,,14,103,2200004,,,,,,,2023-01-30,1,,,,,デュアフォース,0
2031,8020001150041,新規,0,2023-01-30,2023-01-30,株式会社湘南法医学研究所,,株式会社,神奈川県,川崎市麻生区,上麻生２丁目６番５号,,14,137,2150021,,,,,,,2023-01-30,1,,,,,ショウナンホウイガクケンキュウジョ,0
2034,8020003023204,新規,0,2023-01-30,2023-01-30,合同会社ＵＢＵＴ,,合同会社,神奈川県,横浜市栄区,笠間３丁目４５番Ｊ－４０８号,,14,115,2470006,,,,,,,2023-01-30,1,,,,,ウブット,0
2066,8021003012592,新規,0,2023-01-30,2023-01-30,ＢｒａｉｎＴｒｕｓｔ　ＨＩＲＯ合同会社,,合同会社,神奈川県,平塚市,公所２９７番地の２,,14,203,2540906,,,,,,,2023-01-30,1,,,,,ブレイントラストヒロ,0
2069,8030001152111,新規,0,2023-01-30,2023-01-30,株式会社ディーエル,,株式会社,埼玉県,朝霞市,本町２丁目１９番１２号朝霞ニューハイツ２Ｆ,,11,227,3510011,,,,,,,2023-01-30,1,,,,,ディーエル,0
2070,8030001152136,新規,0,2023-01-30,2023-01-30,株式会社東和商事,,株式会社,埼玉県,さいたま市南区,太田窪５丁目２３－２メゾン恵比寿１Ｆ－Ａ,,11,108,3360015,,,,,,,2023-01-30,1,,,,,トウワショウジ,0
2071,8030001152144,新規,0,2023-01-30,2023-01-30,Ｋ＆Ｎ株式会社,,株式会社,埼玉県,さいたま市中央区,大字下落合１０２５番地５－１５０４号,,11,105,3380002,,,,,,,2023-01-30,1,,,,,ケイアンドエヌ,0
2072,8030001152160,新規,0,2023-01-30,2023-01-30,株式会社オーガニック・ハーベスト丸山,,株式会社,埼玉県,さいたま市見沼区,大字蓮沼１６９４番地,,11,104,3370015,,,,,,,2023-01-30,1,,,,,オーガニックハーベストマルヤマ,0
2080,8040001126634,新規,0,2023-01-30,2023-01-30,艾一株式会社,00129243,株式会社,千葉県,船橋市,印内２丁目３番１５号ＴＯＰ西船橋第－４０１,,12,204,2730039,,,,,,,2023-01-30,1,,,,,アイイチ,0
2081,8040001126790,新規,0,2023-01-30,2023-01-30,ヴァンクール株式会社,,株式会社,千葉県,木更津市,清見台東２丁目３１番６号,,12,206,2920041,,,,,,,2023-01-30,1,,,,,ヴァンクール,0
2082,8040001126824,新規,0,2023-01-30,2023-01-30,株式会社関東自動車工業,,株式会社,千葉県,四街道市,大日１１８８番地４,,12,228,2840001,,,,,,,2023-01-30,1,,,,,カントウジドウシャコウギョウ,0
2083,8040001126840,新規,0,2023-01-30,2023-01-30,ＳＭＨ　ＪＡＰＡＮ株式会社,,株式会社,千葉県,富里市,十倉１８５番地５７１,,12,233,2860212,,,,,,,2023-01-30,1,,,,,エスエムエイチジャパン,0
2086,8040003021783,新規,0,2023-01-30,2023-01-30,合同会社Ｊ．Ｔ．Ｏ．,,合同会社,千葉県,我孫子市,天王台２丁目３番３２号（１０１号）アパルト小池,,12,222,2701143,,,,,,,2023-01-30,1,,,,,ジェイティオー,0
2087,8040003021791,新規,0,2023-01-30,2023-01-30,合同会社ワイケイ,,合同会社,千葉県,印西市,牧の原４丁目１７番地２６,,12,231,2701331,,,,,,,2023-01-30,1,,,,,ワイケイ,0
2088,8040005021889,新規,0,2023-01-30,2023-01-30,医療法人社団ＭＡＧＮＯＬＩＡ,,その他の設立登記法人,千葉県,松戸市,本町１番地１松栄館ビル３階４階,,12,207,2710091,,,,,,,2023-01-30,1,,,,,マグノリア,0
2103,8070001040072,新規,0,2023-01-30,2023-01-30,プラスタ・オカ株式会社,,株式会社,群馬県,高崎市,乗附町２９４４番地,,10,202,3700867,,,,,,,2023-01-30,1,,,,,プラスタオカ,0
2122,8120001252026,新規,0,2023-01-30,2023-01-30,大橋不動産株式会社,,株式会社,大阪府,大阪市西区,江戸堀１丁目１８番１１号,,27,106,5500002,,,,,,,2023-01-30,1,,,,,オオハシフドウサン,0
2123,8120001252067,新規,0,2023-01-30,2023-01-30,Ｇｒｏｗ　Ｏｎｅ株式会社,,株式会社,大阪府,大阪市中央区,南船場３丁目１番７号,,27,128,5420081,,,,,,,2023-01-30,1,,,,,グローワン,0
2124,8120001252075,新規,0,2023-01-30,2023-01-30,株式会社Ｈｏｎｊｏ　ｓｔａｔｅ,,株式会社,大阪府,大阪市北区,天神橋２丁目３番８号ＭＦ南森町ビル,,27,127,5300041,,,,,,,2023-01-30,1,,,,,ホンジョステート,0
2127,8120101066904,新規,0,2023-01-30,2023-01-30,株式会社ノベル,,株式会社,大阪府,松原市,東新町３丁目１３番２０号,,27,217,5800024,,,,,,,2023-01-30,1,,,,,ノベル,0
2129,8120901047054,新規,0,2023-01-30,2023-01-30,エヌテクト株式会社,,株式会社,大阪府,吹田市,千里山月が丘５０番１０号,,27,205,5650847,,,,,,,2023-01-30,1,,,,,エヌテクト,0
2139,8140001128884,新規,0,2023-01-30,2023-01-30,ヨールクリエイト株式会社,,株式会社,兵庫県,神戸市長田区,二葉町５丁目１番１号アスタくにづか５番館南棟１１８,,28,106,6530042,,,,,,,2023-01-30,1,,,,,ヨールクリエイト,0
2140,8140001128901,新規,0,2023-01-30,2023-01-30,株式会社ＴＭＢコーポレーション,,株式会社,兵庫県,加古川市,加古川町中津２３７番地の８,,28,210,6750068,,,,,,,2023-01-30,1,,,,,ティーエムビーコーポレーション,0
2141,8140001128918,新規,0,2023-01-30,2023-01-30,株式会社ＴＡＳＵＫＵ,,株式会社,兵庫県,西宮市,末広町２番２５－５０２号,,28,204,6620041,,,,,,,2023-01-30,1,,,,,,0
2145,8140003018646,新規,0,2023-01-30,2023-01-30,カイセイ合同会社,,合同会社,兵庫県,神戸市北区,上津台２丁目３１番３２号,,28,109,6511515,,,,,,,2023-01-30,1,,,,,カイセイ,0
2146,8140003018654,新規,0,2023-01-30,2023-01-30,合同会社山海企画,,合同会社,兵庫県,神戸市北区,広陵町２丁目１９５番地,,28,109,6511213,,,,,,,2023-01-30,1,,,,,サンカイキカク,0
2149,8170001017457,新規,0,2023-01-30,2023-01-30,株式会社紀ノ国外装,,株式会社,和歌山県,西牟婁郡上富田町,朝来２０８７番地の３２,,30,404,6492105,,,,,,,2023-01-30,1,,,,,キノクニガイソウ,0
2153,8180001154729,新規,0,2023-01-30,2023-01-30,株式会社Ｖｅｒ,,株式会社,愛知県,名古屋市中村区,竹橋町５番１２号ＴＨＥＷＨＩＴＥＯＩＳＥ２０３,,23,105,4530016,,,,,,,2023-01-30,1,,,,,ウェール,0
2158,8190001030128,新規,0,2023-01-30,2023-01-30,株式会社大志,,株式会社,三重県,鈴鹿市,野町西２丁目８番３１号,,24,207,5100218,,,,,,,2023-01-30,1,,,,,ダイシ,0
2160,8200001040901,新規,0,2023-01-30,2023-01-30,株式会社ＰＨＯＥＮＩＣＳ,,株式会社,岐阜県,大垣市,今宿６丁目５２番地１６ドリーム・コア５１６号室,,21,202,5030807,,,,,,,2023-01-30,1,,,,,フェニックス,0
2163,8230001019694,新規,0,2023-01-30,2023-01-30,株式会社危機管理信用調査コンサルタント,,株式会社,富山県,富山市,越前町３番５号,,16,201,9300067,,,,,,,2023-01-30,1,,,,,キキカンリシンヨウチョウサコンサルタント,0
2168,8240003005989,新規,0,2023-01-30,2023-01-30,合同会社ＲＥＦＩＮＥ,,合同会社,広島県,広島市安佐南区,緑井８丁目３０番２０号Ｂ,,34,105,7310103,,,,,,,2023-01-30,1,,,,,リファイン,0
2171,8290001100358,新規,0,2023-01-30,2023-01-30,株式会社ビフレンド,,株式会社,福岡県,太宰府市,国分４丁目１５番３号,,40,221,8180132,,,,,,,2023-01-30,1,,,,,ビフレンド,0
2180,8310001018242,新規,0,2023-01-30,2023-01-30,株式会社まろやか,,株式会社,長崎県,長崎市,玉園町１番１１号ビードロヒルズ３０２号,,42,201,8500053,,,,,,,2023-01-30,1,,,,,マロヤカ,0
2184,8330001030542,新規,0,2023-01-30,2023-01-30,ＣＲＡＦＩＴ株式会社,,株式会社,熊本県,熊本市西区,二本木２丁目１番３０－１５０６号アルファステイツ熊本駅東,,43,103,8600051,,,,,,,2023-01-30,1,,,,,クラフィット,0
2188,8340001025327,新規,0,2023-01-30,2023-01-30,株式会社ガーデンライク,,株式会社,鹿児島県,薩摩郡さつま町,山崎１６１番地１,,46,392,8951721,,,,,,,2023-01-30,1,,,,,ガーデンライク,0
2191,8350003004278,新規,0,2023-01-30,2023-01-30,合同会社アールエン,,合同会社,宮崎県,宮崎市,学園木花台南１丁目１２番地１６,,45,201,8892153,,,,,,,2023-01-30,1,,,,,アールエン,0
2195,8370001049538,新規,0,2023-01-30,2023-01-30,株式会社ヨシダアセットマネジメント,,株式会社,宮城県,気仙沼市,長磯牧通１２４番地,,04,205,9880235,,,,,,,2023-01-30,1,,,,,ヨシダアセットマネジメント,0
2201,8400003003027,新規,0,2023-01-30,2023-01-30,合同会社ＧＲｅｅｅＮ,,合同会社,岩手県,盛岡市,上田２丁目２１－５,,03,201,0200066,,,,,,,2023-01-30,1,,,,,グリーン,0
2207,8430001088298,新規,0,2023-01-30,2023-01-30,株式会社シュプラス,,株式会社,北海道,札幌市北区,屯田五条２丁目３－７,,01,102,0020855,,,,,,,2023-01-30,1,,,,,シュプラス,0
2208,8430001088307,新規,0,2023-01-30,2023-01-30,株式会社エンアンド,,株式会社,北海道,札幌市東区,北二十三条東１５丁目５－２５ノーブル２３　２Ｆ,,01,103,0650023,,,,,,,2023-01-30,1,,,,,エンアンド,0
2209,8430001088315,新規,0,2023-01-30,2023-01-30,株式会社Ｙｕｒｉ　Ｈｏｍｅ,,株式会社,北海道,札幌市北区,新川四条６丁目３番２７号,,01,102,0010924,,,,,,,2023-01-30,1,,,,,ユリホーム,0
2217,8700150113985,新規,0,2023-01-30,2023-01-30,Ｓｈｅｎｚｈｅｎｓｈｉ　ｙｏｕｃｈｏｎｇｋｅｊｉ　ｙｏｕｘｉａｎｇｏｎｇｓｉ,,外国会社等,,,,,,,,Ｒｏｏｍ４０２　Ｎｏ．１６　Ｓａｎｈｅｈｕａｑｉａｏｅｒｑｕ，ＤａＬａｎｇ　ｓｔｒｅｅｔ，Ｌｏｎｇｈｕａ　Ｄｉｓｔｒｉｃｔ，Ｓｈｅｎｚｈｅｎ，Ｇｕａｎｇｄｏｎｇ　Ｐｒｏｖｉｎｃｅ，Ｃｈｉｎａ,,,,,,2023-01-30,1,,,,,シンセンシヨウチョンケジユウゲンコウシ,0
2218,8700150113993,新規,0,2023-01-30,2023-01-30,ｇｕａｎｇｚｈｏｕｈｕａｎｈｏｎｇ　ｗａｎｇｌｕｏｋｅｊｉ　ｙｏｕｘｉａｎｇｏｎｇｓｉ,,外国会社等,,,,,,,,１１０９Ｓｈｉ，ｈｕａｎｇｐｕｑｕｈｕａｎｇｐｕｄｏｎｇｌｕ５ｈａｏ，ＧｕａｎｇＺｈｏｕ，Ｃｈｉｎａ,,,,,,2023-01-30,1,,,,,ゴンジョウハンホンワングルオケジユウゲンコウシ,0
2227,9010001232599,新規,0,2023-01-30,2023-01-30,株式会社ハンズアーチ,,株式会社,東京都,中央区,佃１丁目１０番８号,,13,102,1040051,,,,,,,2023-01-30,1,,,,,ハンズアーチ,0
2236,9010401172123,新規,0,2023-01-30,2023-01-30,ＡＺＪＰ株式会社,,株式会社,東京都,港区,浜松町１丁目１８番１１号イマスオフィス浜松町４Ｆ,,13,103,1050013,,,,,,,2023-01-30,1,,,,,エーゼットジェイピー,0
2240,9010403029395,新規,0,2023-01-30,2023-01-30,ＣＴＳ合同会社,,合同会社,東京都,港区,芝浦４丁目１０番１－７１１号,,13,103,1080023,,,,,,,2023-01-30,1,,,,,シーティーエス,0
2242,9010501049915,新規,0,2023-01-30,2023-01-30,株式会社高橋構造設計事務所,,株式会社,東京都,台東区,元浅草３丁目１８番８号,,13,106,1110041,,,,,,,2023-01-30,1,,,,,タカハシコウゾウセッケイジムショ,0
2269,9011001152234,新規,0,2023-01-30,2023-01-30,株式会社ＴＡＫＥ,,株式会社,東京都,目黒区,中央町２丁目３－２１０１,,13,110,1520001,,,,,,,2023-01-30,1,,,,,テイク,0
2273,9011003016172,新規,0,2023-01-30,2023-01-30,Ｂａｉｇｅｎ合同会社,,合同会社,東京都,渋谷区,道玄坂１丁目１０番８号渋谷道玄坂東急ビル２Ｆ－Ｃ,,13,113,1500043,,,,,,,2023-01-30,1,,,,,バイゲン,0
2276,9011103012633,新規,0,2023-01-30,2023-01-30,合同会社アイ,,合同会社,東京都,新宿区,西新宿４丁目２－１５－３２０２,,13,104,1600023,,,,,,,2023-01-30,1,,,,,アイ,0
2277,9011103012641,新規,0,2023-01-30,2023-01-30,合同会社Ｃａｒｓｉ,,合同会社,東京都,新宿区,西新宿３丁目３番１３号西新宿水間ビル６階,,13,104,1600023,,,,,,,2023-01-30,1,,,,,チャルシュ,0
2278,9011105010536,新規,0,2023-01-30,2023-01-30,一般社団法人日本の未来構築研究機構,,その他の設立登記法人,東京都,新宿区,揚場町１番２１号,,13,104,1620824,,,,,,,2023-01-30,1,,,,,ニッポンノミライコウチクケンキュウキコウ,0
2283,9011401024867,新規,0,2023-01-30,2023-01-30,株式会社Ｆａｒｓｏ,,株式会社,東京都,板橋区,本町１０番２１号グリーンフォレスト板橋６０１号室,,13,119,1730001,,,,,,,2023-01-30,1,,,,,ファルソ,0
2285,9011403003893,新規,0,2023-01-30,2023-01-30,合同会社ネオリアン,,合同会社,東京都,板橋区,中台１丁目１８－６あすかパレス中台１０５号室,,13,119,1740064,,,,,,,2023-01-30,1,,,,,ネオリアン,0
2310,9020001150024,新規,0,2023-01-30,2023-01-30,永吉国際物流株式会社,,株式会社,神奈川県,横浜市中区,相生町１丁目１８光南ビル４Ｆ－Ｂ,,14,104,2310012,,,,,,,2023-01-30,1,,,,,エイキチコクサイブツリュウ,0
2311,9020001150049,新規,0,2023-01-30,2023-01-30,株式会社Ｂｌｏｗｕｐ,,株式会社,神奈川県,横浜市西区,北幸２丁目１０番地２８むつみビル３Ｆ,,14,103,2200004,,,,,,,2023-01-30,1,,,,,ブローアップ,0
2314,9020003023145,新規,0,2023-01-30,2023-01-30,こつこつ道合同会社,,合同会社,神奈川県,横浜市中区,石川町１丁目２１穂苅ビル４０３,,14,104,2310868,,,,,,,2023-01-30,1,,,,,コツコツドウ,0
2325,9021001078024,新規,0,2023-01-30,2023-01-30,マツコウ商事株式会社,,株式会社,神奈川県,足柄下郡湯河原町,土肥２丁目９－１４,,14,384,2590303,,,,,,,2023-01-30,1,,,,,マツコウショウジ,0
2337,9030001152135,新規,0,2023-01-30,2023-01-30,株式会社コンサルティングプラザ和光,,株式会社,埼玉県,和光市,本町２番１８号ピュアパークヒルズ５０２,,11,229,3510114,,,,,,,2023-01-30,1,,,,,コンサルティングプラザワコウ,0
2338,9030001152151,新規,0,2023-01-30,2023-01-30,株式会社ＳＳＫサービス,,株式会社,埼玉県,行田市,大字前谷９８１番地,,11,206,3610038,,,,,,,2023-01-30,1,,,,,エスエスケイサービス,0
2339,9030001152176,新規,0,2023-01-30,2023-01-30,株式会社ＢＡＮＧ,,株式会社,埼玉県,川口市,並木３丁目６番２２－３０４号,,11,203,3320034,,,,,,,2023-01-30,1,,,,,バング,0
2346,9040001126757,新規,0,2023-01-30,2023-01-30,株式会社イノテックホールディングス,,株式会社,千葉県,佐倉市,上志津原３７番地１９,,12,212,2850844,,,,,,,2023-01-30,1,,,,,イノテックホールディングス,0
2347,9040001126815,新規,0,2023-01-30,2023-01-30,ＬＥＡＦ株式会社,,株式会社,千葉県,松戸市,西馬橋３丁目４８－５,,12,207,2710044,,,,,,,2023-01-30,1,,,,,リーフ,0
2348,9040001126831,新規,0,2023-01-30,2023-01-30,株式会社Ｔ‐ｔｈｒｅｅ　ｆａｍｉｌｌｅ,,株式会社,千葉県,八街市,大木６３６番地６,,12,230,2891111,,,,,,,2023-01-30,1,,,,,ティースリーファミーユ,0
2350,9040003021790,新規,0,2023-01-30,2023-01-30,合同会社友進,,合同会社,千葉県,千葉市中央区,富士見２丁目１６－１２北斗会館２階,,12,101,2600015,,,,,,,2023-01-30,1,,,,,ユウシン,0
2351,9040005021888,新規,0,2023-01-30,2023-01-30,医療法人社団ながしま整形外科,,その他の設立登記法人,千葉県,千葉市美浜区,若葉３丁目１番地３８幕張ベイパークメディカルセンター１階１０１,,12,106,2610014,,,,,,,2023-01-30,1,,,,,ナガシマセイケイゲカ,0
2353,9050001052309,新規,0,2023-01-30,2023-01-30,株式会社山建,,株式会社,茨城県,牛久市,神谷５丁目２５番地３４,,08,219,3001216,,,,,,,2023-01-30,1,,,,,ヤマケン,0
2358,9050003007194,新規,0,2023-01-30,2023-01-30,合同会社マグノーリエ,,合同会社,茨城県,水戸市,千波町１８３８番地の２７メゾン緑ヶ丘１０２,,08,201,3100851,,,,,,,2023-01-30,1,,,,,マグノーリエ,0
2365,9070005010079,新規,0,2023-01-30,2023-01-30,一般社団法人レバレッジファンドホールディングス,,その他の設立登記法人,群馬県,高崎市,和田町１０－１１,,10,202,3700847,,,,,,,2023-01-30,1,,,,,レバレッジファンドホールディングス,0
2366,9080401026280,新規,0,2023-01-30,2023-01-30,株式会社ｃｏｎｎｅｃｔ,,株式会社,静岡県,浜松市中区,海老塚町８５０番地－２１１号室,,22,131,4328032,,,,,,,2023-01-30,1,,,,,コネクト,0
2368,9090001017951,新規,0,2023-01-30,2023-01-30,株式会社青柳工務店,,株式会社,山梨県,南アルプス市,下今諏訪４７８番地,,19,208,4000212,,,,,,,2023-01-30,1,,,,,アオヤギコウムテン,0
2372,9110001037261,新規,0,2023-01-30,2023-01-30,株式会社エヌエスケイ,,株式会社,新潟県,長岡市,黒坂２７４番地５,,15,202,9494502,,,,,,,2023-01-30,1,,,,,エヌエスケイ,0
2382,9120001252108,新規,0,2023-01-30,2023-01-30,株式会社イースト,,株式会社,大阪府,大阪市旭区,中宮５丁目６番１２－１０１号,,27,117,5350003,,,,,,,2023-01-30,1,,,,,イースト,0
2390,9120901047053,新規,0,2023-01-30,2023-01-30,株式会社オカジマ製作所,,株式会社,大阪府,吹田市,泉町５丁目１８番２１号,,27,205,5640041,,,,,,,2023-01-30,1,,,,,オカジマセイサクショ,0
2391,9120905006419,新規,0,2023-01-30,2023-01-30,医療法人恕心会,,その他の設立登記法人,大阪府,箕面市,粟生間谷西１丁目１番１２号－１階,,27,220,5620023,,,,,,,2023-01-30,1,,,,,ジョシンカイ,0
2393,9130001073569,新規,0,2023-01-30,2023-01-30,株式会社京松屋総本店,,株式会社,京都府,京都市北区,新町鞍馬口東入る長乗西町１７９,,26,101,6030000,,,,,,,2023-01-30,1,,,,,キョウマツヤソウホンテン,0
2398,9140001128909,新規,0,2023-01-30,2023-01-30,株式会社ｍｅｌｌｏｗ,,株式会社,兵庫県,西宮市,里中町２丁目７番１６号,,28,204,6638183,,,,,,,2023-01-30,1,,,,,メロウ,0
2399,9140001128917,新規,0,2023-01-30,2023-01-30,株式会社サカエテック,,株式会社,兵庫県,加古川市,平岡町中野６７７番地の１,,28,210,6750113,,,,,,,2023-01-30,1,,,,,サカエテック,0
2403,9140005026472,新規,0,2023-01-30,2023-01-30,特定非営利活動法人アライブワン,,その他の設立登記法人,兵庫県,神戸市兵庫区,石井町１丁目４番１４－４０１号,,28,105,6520061,,,,,,,2023-01-30,1,,,,,アライブワン,0
2406,9160003002787,新規,0,2023-01-30,2023-01-30,植塁おざき庭店合同会社,,合同会社,滋賀県,彦根市,後三条町５６６番地１,,25,202,5220086,,,,,,,2023-01-30,1,,,,,ウエルイオザキニワテン,0
2414,9180003024788,新規,0,2023-01-30,2023-01-30,Ｂ‐ＣＯＭＭＯＮＳ合同会社,,合同会社,愛知県,日進市,赤池町箕ノ手２－３２バンベール赤池ヒルズ４０１,,23,230,4700126,,,,,,,2023-01-30,1,,,,,ビーコモンズ,0
2416,9180301037046,新規,0,2023-01-30,2023-01-30,ＩＴガーデン株式会社,,株式会社,愛知県,西尾市,戸ケ崎２丁目１８番地２０,,23,213,4450075,,,,,,,2023-01-30,1,,,,,アイティガーデン,0
2419,9180303005579,新規,0,2023-01-30,2023-01-30,合同会社ＭＫＴ　ｉｎｎｏｖａｔｉｏｎ,,合同会社,愛知県,豊田市,寺部町３丁目５４１番地Ｇｒｅｅｎｓｔａｇｅ２０５号,,23,211,4710017,,,,,,,2023-01-30,1,,,,,エムケーティーイノベーション,0
2424,9200001040900,新規,0,2023-01-30,2023-01-30,株式会社桜ケ丘コンタクトレンズ,,株式会社,岐阜県,可児市,桜ケ丘１丁目１９７番地,,21,214,5090235,,,,,,,2023-01-30,1,,,,,サクラガオカコンタクトレンズ,0
2425,9200001040909,新規,0,2023-01-30,2023-01-30,ＭＭ　ＴＲＡＤＩＮＧ株式会社,,株式会社,岐阜県,可児市,下恵土５８２６番地５ベラウッド可児３０５号室,,21,214,5090203,,,,,,,2023-01-30,1,,,,,エムエムトレーディング,0
2426,9230001019693,新規,0,2023-01-30,2023-01-30,株式会社チップ,,株式会社,富山県,小矢部市,経田１４５番地,,16,209,9320103,,,,,,,2023-01-30,1,,,,,チップ,0
2427,9230003001963,新規,0,2023-01-30,2023-01-30,クオーレ合同会社,,合同会社,富山県,富山市,婦中町分田４５番地３,,16,201,9392718,,,,,,,2023-01-30,1,,,,,クオーレ,0
2430,9260001037610,新規,0,2023-01-30,2023-01-30,株式会社カレラ,,株式会社,岡山県,岡山市北区,久米２２２番地７ガウディビル３０１号室,,33,101,7010144,,,,,,,2023-01-30,1,,,,,カレラ,0
2437,9290001100381,新規,0,2023-01-30,2023-01-30,株式会社ＮＺｃｏｍｐａｎｙ,,株式会社,福岡県,福岡市早良区,野芥４丁目１６番２５－２０１号ＧＲＡＮＤＴＩＣ　ＬａＶｉｔａ野芥,,40,137,8140171,,,,,,,2023-01-30,1,,,,,エヌゼットカンパニー,0
2438,9290801029242,新規,0,2023-01-30,2023-01-30,株式会社システムエフ,,株式会社,福岡県,北九州市小倉南区,西水町１２番５－４０１号,,40,107,8020812,,,,,,,2023-01-30,1,,,,,システムエフ,0
2449,9370001049545,新規,0,2023-01-30,2023-01-30,株式会社Ｐａ‐ｓｕ　ｆａｒｍ,,株式会社,宮城県,岩沼市,三色吉字山神６４番地,,04,211,9892464,,,,,,,2023-01-30,1,,,,,パースファーム,0
2450,9370005010593,新規,0,2023-01-30,2023-01-30,一般社団法人ライフステージ,,その他の設立登記法人,宮城県,仙台市泉区,上谷刈３丁目８番４６号,,04,105,9813121,,,,,,,2023-01-30,1,,,,,ライフステージ,0
2451,9390005008990,新規,0,2023-01-30,2023-01-30,特定非営利活動法人地域づくり・フォローアップセンター,,その他の設立登記法人,山形県,新庄市,金沢１４５番地,,06,205,9960002,,,,,,,2023-01-30,1,,,,,チイキヅクリフォローアップセンター,0
2452,9400001016145,新規,0,2023-01-30,2023-01-30,株式会社ユースフル,,株式会社,岩手県,一関市,青葉１丁目１０番４号,,03,209,0210031,,,,,,,2023-01-30,1,,,,,ユースフル,0
2453,9400005008295,新規,0,2023-01-30,2023-01-30,税理士法人リーガル,,その他の設立登記法人,岩手県,一関市,東五代１５番２５号,,03,209,0210003,,,,,,,2023-01-30,1,,,,,リーガル,0
2461,9430001088297,新規,0,2023-01-30,2023-01-30,株式会社ＢＵＤＤＩＥＳ,,株式会社,北海道,札幌市白石区,南郷通１丁目南３－５－２,,01,104,0030022,,,,,,,2023-01-30,1,,,,,バディーズ,0
2462,9430001088306,新規,0,2023-01-30,2023-01-30,株式会社キャピタル・バイソン・ネット,,株式会社,北海道,札幌市白石区,本通３丁目北２番３号クレステージ本通２０１,,01,104,0030027,,,,,,,2023-01-30,1,,,,,キャピタルバイソンネット,0
2463,9430003014689,新規,0,2023-01-30,2023-01-30,合同会社かなで,,合同会社,北海道,札幌市白石区,東札幌一条４丁目７番１０号２Ｆ,,01,104,0030001,,,,,,,2023-01-30,1,,,,,カナデ,0
2466,9470001019439,新規,0,2023-01-30,2023-01-30,株式会社ニューコート,,株式会社,香川県,高松市,香西本町２２８－４－１０１,,37,201,7618012,,,,,,,2023-01-30,1,,,,,ニューコート,0
2468,9700150113984,新規,0,2023-01-30,2023-01-30,Ｎａｎｊｉｎｇ　Ｋｏｎｇｆｅｉ　Ｅｌｅｃｔｒｏｎｉｃ　Ｃｏｍｍｅｒｃｅ　Ｃｏ．，Ｌｔｄ,,外国会社等,,,,,,,,ｑｉｘｉａｑｕ，ｙａｎｚｉｊｉｊｉｅｄａｏ，ｓｈｅｎｎｏｎｇｌｕ２－６ｈａｏ，Ｎａｎｊｉｎｇ，Ｊｉａｎｇｓｕ，Ｃｈｉｎａ,,,,,,2023-01-30,1,,,,,ナンジンコンフェイエレクトロニックコマースカンパニーリミテッド,0
2469,9700150113992,新規,0,2023-01-30,2023-01-30,ｓｈｅｎｚｈｅｎｓｈｉｂａｉｘｉｎｈｕｌｉａｎｗａｎｇｋｅｊｉｙｏｕｘｉａｎｇｏｎｇｓｉ,,外国会社等,,,,,,,,５２－１４０４，Ｘｉａｎｇｎａｎ　２ｎｄ　Ｄｉｓｔｒｉｃｔ，Ｍｉｎｑｉａｎｇ　Ｃｏｍｍｕｎｉｔｙ，Ｍｉｎｚｈｉ　Ｓｔｒｅｅｔ，Ｌｏｎｇｈｕａ　Ｄｉｓｔｒｉｃｔ，ＳｈｅｎＺｈｅｎ,,,,,,2023-01-30,1,,,,,シンセンシハクシンインターネツトユウゲンガイシヤ,0
