sequenceNumber,corporateNumber,process,correct,updateDate,changeDate,name,nameImageId,kind,prefectureName,cityName,streetNumber,addressImageId,prefectureCode,cityCode,postCode,addressOutside,addressOutsideImageId,closeDate,closeCause,successorCorporateNumber,changeCause,assignmentDate,latest,enName,enPrefectureName,enCityName,enAddressOutside,furigana,hihyoji
14,1010001251292,新規,0,2025-01-28,2025-01-28,株式会社ＦｏｒｃｅＶｉｓｉｏｎ,,株式会社,東京都,中央区,銀座１丁目１２番４号Ｎ＆ＥＢＬＤ．６Ｆ,,13,102,1040061,,,,,,,2025-01-28,1,,,,,フォースビジョン,0
15,1010001251706,新規,0,2025-01-28,2025-01-28,ＨＹ株式会社,,株式会社,東京都,文京区,水道２丁目９番８江戸川ハイツ２１２号室,,13,105,1120005,,,,,,,2025-01-28,1,,,,,エイチワイ,0
16,1010001251730,新規,0,2025-01-28,2025-01-28,株式会社ＧＣＭ,,株式会社,東京都,中央区,日本橋蛎殻町１丁目３２番６号イハラビル１Ｆ,,13,102,1030014,,,,,,,2025-01-28,1,,,,,ジーシーエム,0
17,1010001251788,新規,0,2025-01-28,2025-01-28,首都高リテイル株式会社,,株式会社,東京都,中央区,日本橋３丁目１１番１号,,13,102,1030027,,,,,,,2025-01-28,1,,,,,シュトコウリテイル,0
18,1010001251813,新規,0,2025-01-28,2025-01-28,株式会社エンタ,,株式会社,東京都,中央区,勝どき４丁目６番２－９３０号,,13,102,1040054,,,,,,,2025-01-28,1,,,,,エンタ,0
19,1010001251821,新規,0,2025-01-28,2025-01-28,株式会社樫和,,株式会社,東京都,中央区,銀座１丁目１２番４号Ｎ＆ＥＢＬＤ．６Ｆ,,13,102,1040061,,,,,,,2025-01-28,1,,,,,カシワ,0
25,1010103002503,新規,0,2025-01-28,2025-01-28,花雲合同会社,,合同会社,東京都,八王子市,東町１０番３号１階３０１号,,13,201,1920082,,,,,,,2025-01-28,1,,,,,ハナグモ,0
29,1010401187748,新規,0,2025-01-28,2025-01-28,ホロンパートナーズ株式会社,,株式会社,東京都,港区,芝５丁目３６番４号札の辻スクエア９階,,13,103,1080014,,,,,,,2025-01-28,1,,,,,ホロンパートナーズ,0
30,1010401187772,新規,0,2025-01-28,2025-01-28,株式会社ｏｖｅｒｐｅａｋ,,株式会社,東京都,港区,西新橋１丁目１８番６号クロスオフィス内幸町１１０４,,13,103,1050003,,,,,,,2025-01-28,1,,,,,オーバーピーク,0
31,1010401187780,新規,0,2025-01-28,2025-01-28,株式会社リンクシンク,,株式会社,東京都,港区,虎ノ門５丁目１１番１２号虎ノ門ＡＣＴビル,,13,103,1050001,,,,,,,2025-01-28,1,,,,,リンクシンク,0
33,1010403034279,新規,0,2025-01-28,2025-01-28,ＧＳＳＧ　Ｓｏｌａｒ　Ｊａｐａｎ　Ｈｏｌｄｉｎｇｓ１８合同会社,,合同会社,東京都,港区,高輪１丁目３番１３号ＮＢＦ高輪ビル７階,,13,103,1080074,,,,,,,2025-01-28,1,,,,,ジーエスエスジーソーラージャパンホールディングスエイティーン,0
40,1010405024047,新規,0,2025-01-28,2025-01-28,ＧＳＳＧ　Ｓｏｌａｒ　Ｊａｐａｎ　Ｈｏｌｄｉｎｇｓ１７一般社団法人,,その他の設立登記法人,東京都,港区,赤坂１丁目１１番４４号赤坂インターシティ５階Ｆｏｒｖｉｓ・Ｍａｚａｒｓ・Ｊａｐａｎ株式会社内,,13,103,1070052,,,,,,,2025-01-28,1,,,,,ジーエスエスジーソーラージャパンホールディングスセブンティーン,0
158,1010805003154,新規,0,2025-01-28,2025-01-28,特定非営利活動法人にじいろかぞく,,その他の設立登記法人,東京都,大田区,池上７丁目２番７号,,13,111,1460082,,,,,,,2025-01-28,1,,,,,ニジイロカゾク,0
160,1010901056717,新規,0,2025-01-28,2025-01-28,ＳＤサポート株式会社,,株式会社,東京都,世田谷区,玉川３丁目２０番２号マノア玉川第３ビル５０１号室,,13,112,1580094,,,,,,,2025-01-28,1,,,,,エスディーサポート,0
161,1010901056733,新規,0,2025-01-28,2025-01-28,株式会社Ｍｏｉ　ｄｅ　Ｍｏｉ,,株式会社,東京都,世田谷区,玉川３丁目２０番２号マノア玉川第３ビル５０１号室,,13,112,1580094,,,,,,,2025-01-28,1,,,,,モアドゥモア,0
168,1011003020512,新規,0,2025-01-28,2025-01-28,合同会社ＢＵＬＬ　ＣＯＮＳＵＬＴＩＮＧ,,合同会社,東京都,渋谷区,道玄坂１丁目１０番８号渋谷道玄坂東急ビル２階‐Ｃ,,13,113,1500043,,,,,,,2025-01-28,1,,,,,ブルコンサルティング,0
170,1011101110405,新規,0,2025-01-28,2025-01-28,ＭＳＫ株式会社,,株式会社,東京都,新宿区,原町２丁目１番地４,,13,104,1620053,,,,,,,2025-01-28,1,,,,,エムエスケイ,0
171,1011103015461,新規,0,2025-01-28,2025-01-28,合同会社ワダダダン,,合同会社,東京都,新宿区,高田馬場２丁目１９番８号３０３,,13,104,1690075,,,,,,,2025-01-28,1,,,,,ワダダダン,0
226,1011703004087,新規,0,2025-01-28,2025-01-28,合同会社エスピース,,合同会社,東京都,江戸川区,江戸川６丁目２２番１３号,,13,123,1340013,,,,,,,2025-01-28,1,,,,,エスピース,0
227,1011703004104,新規,0,2025-01-28,2025-01-28,ケイアイ企画合同会社,,合同会社,東京都,江戸川区,南篠崎町１丁目４番７号,,13,123,1330065,,,,,,,2025-01-28,1,,,,,ケイアイキカク,0
228,1011801045487,新規,0,2025-01-28,2025-01-28,株式会社ミネルバ,,株式会社,東京都,葛飾区,堀切１丁目１６番２０号ジョイワン２０１,,13,122,1240006,,,,,,,2025-01-28,1,,,,,ミネルバ,0
229,1011801045504,新規,0,2025-01-28,2025-01-28,ＨＡＲＯＮ株式会社,,株式会社,東京都,葛飾区,東金町６丁目６番５号センタービル金町４階４１８室,,13,122,1250041,,,,,,,2025-01-28,1,,,,,ハロン,0
233,1011803006660,新規,0,2025-01-28,2025-01-28,合同会社ＣＷＣ,,合同会社,東京都,足立区,西新井４丁目２６－２０－２０６,,13,121,1230841,,,,,,,2025-01-28,1,,,,,シーダブリューシー,0
280,1012701018673,新規,0,2025-01-28,2025-01-28,株式会社Ｗｉｎｎｅｒ　Ｍｅｄｉｃａｌ,,株式会社,東京都,小平市,美園町３丁目７番１４号,,13,211,1870041,,,,,,,2025-01-28,1,,,,,ウィナーメディカル,0
285,1012703003186,新規,0,2025-01-28,2025-01-28,合同会社ジョイントマニア,,合同会社,東京都,小平市,花小金井８丁目２－５,,13,211,1870002,,,,,,,2025-01-28,1,,,,,ジョイントマニア,0
310,1020001161029,新規,0,2025-01-28,2025-01-28,株式会社ぷぷぷ,,株式会社,神奈川県,横浜市戸塚区,矢部町１２８３番地４,,14,110,2440002,,,,,,,2025-01-28,1,,,,,プププ,0
311,1020003027681,新規,0,2025-01-28,2025-01-28,合同会社心響音,,合同会社,神奈川県,川崎市川崎区,駅前本町１１番地２川崎フロンティアビル４階,,14,131,2100007,,,,,,,2025-01-28,1,,,,,シンキョウオン,0
312,1020003027698,新規,0,2025-01-28,2025-01-28,コバクス合同会社,,合同会社,神奈川県,横浜市港北区,日吉本町２丁目４４番１－２０４号,,14,109,2230062,,,,,,,2025-01-28,1,,,,,コバクス,0
313,1021001084327,新規,0,2025-01-28,2025-01-28,内田商事株式会社,,株式会社,神奈川県,藤沢市,弥勒寺２丁目２番７号,,14,205,2510016,,,,,,,2025-01-28,1,,,,,ウチダショウジ,0
314,1021001084343,新規,0,2025-01-28,2025-01-28,株式会社フォーエス,,株式会社,神奈川県,藤沢市,辻堂太平台１丁目１２番２９号,,14,205,2510044,,,,,,,2025-01-28,1,,,,,フォーエス,0
316,1021003015511,新規,0,2025-01-28,2025-01-28,レオＨＲマネジメント合同会社,,合同会社,神奈川県,足柄上郡松田町,神山３００,,14,363,2580002,,,,,,,2025-01-28,1,,,,,レオエイチアールマネジメント,0
321,1030001164451,新規,0,2025-01-28,2025-01-28,Ｇ　ＳＴＡＲ　ＣＯＮＳＴＲＵＣＴＩＯＮ株式会社,,株式会社,埼玉県,越谷市,大字弥十郎５２０番地４,,11,222,3430047,,,,,,,2025-01-28,1,,,,,ジースターコンストラクション,0
322,1030001164526,新規,0,2025-01-28,2025-01-28,ＴＡＫＵ　ＯＢＡＴＡ　ＳＴＵＤＩＯ株式会社,,株式会社,埼玉県,所沢市,大字日比田３９９番地１,,11,208,3590015,,,,,,,2025-01-28,1,,,,,タクオバタスタジオ,0
323,1030001164575,新規,0,2025-01-28,2025-01-28,株式会社彩,,株式会社,埼玉県,本庄市,児玉町児玉１２８９番地１,,11,211,3670212,,,,,,,2025-01-28,1,,,,,イロドリ,0
324,1030001164617,新規,0,2025-01-28,2025-01-28,株式会社Ｘ．ＳＩＲＩＵＳ,,株式会社,埼玉県,加須市,下高柳１０４３－１０,,11,210,3470000,,,,,,,2025-01-28,1,,,,,エックスシリウス,0
328,1030003025973,新規,0,2025-01-28,2025-01-28,合同会社松本,,合同会社,埼玉県,富士見市,大字鶴馬３５７１番地５,,11,235,3540021,,,,,,,2025-01-28,1,,,,,マツモト,0
333,1040001137150,新規,0,2025-01-28,2025-01-28,株式会社エムシーパレット,,株式会社,千葉県,浦安市,高洲１丁目５番１８号,,12,227,2790023,,,,,,,2025-01-28,1,,,,,エムシーパレット,0
334,1040001137159,新規,0,2025-01-28,2025-01-28,ＢＹ　Ｍｏｔｏｒｓ株式会社,,株式会社,千葉県,船橋市,市場４丁目２０番８号,,12,204,2730001,,,,,,,2025-01-28,1,,,,,ビーワイモータース,0
335,1040001137175,新規,0,2025-01-28,2025-01-28,株式会社ｈｉｗ,,株式会社,千葉県,鎌ケ谷市,南初富３丁目７番３５号,,12,224,2730123,,,,,,,2025-01-28,1,,,,,エイチアイダブリュー,0
336,1040005022646,新規,0,2025-01-28,2025-01-28,農事組合法人山辺,,その他の設立登記法人,千葉県,大網白里市,金谷郷２２３１番地,,12,239,2993242,,,,,,,2025-01-28,1,,,,,ヤマベ,0
341,1060001037860,新規,0,2025-01-28,2025-01-28,株式会社ＬＩＮＫ,,株式会社,栃木県,鹿沼市,久野６７９番地４３,,09,205,3220303,,,,,,,2025-01-28,1,,,,,リンク,0
342,1070001042587,新規,0,2025-01-28,2025-01-28,設備パートナーズ株式会社,,株式会社,群馬県,前橋市,上大島町１９番地１,,10,201,3792153,,,,,,,2025-01-28,1,,,,,セツビパートナーズ,0
347,1080005007668,新規,0,2025-01-28,2025-01-28,特定非営利活動法人いきものがかりｄｅみんなの農業高校,,その他の設立登記法人,静岡県,静岡市清水区,馬走９７６番地の６５,,22,103,4240875,,,,,,,2025-01-28,1,,,,,イキモノガカリデミンナノノウギョウコウコウ,0
349,1080401027699,新規,0,2025-01-28,2025-01-28,株式会社ＫＲ・ＭＨＳ,,株式会社,静岡県,浜松市中央区,増楽町７９０番地の６,,22,138,4328062,,,,,,,2025-01-28,1,,,,,ケーアールエムエイチエス,0
352,1090001019113,新規,0,2025-01-28,2025-01-28,ａｎ２２２株式会社,,株式会社,山梨県,甲府市,富竹２丁目４番１９号,,19,201,4000049,,,,,,,2025-01-28,1,,,,,アンニニニ,0
353,1090003002728,新規,0,2025-01-28,2025-01-28,合同会社ありのまま製作所,,合同会社,山梨県,甲斐市,富竹新田８１０番地５,,19,210,4000113,,,,,,,2025-01-28,1,,,,,アリノママセイサクジョ,0
355,1100001038227,新規,0,2025-01-28,2025-01-28,株式会社浅間土木,,株式会社,長野県,北佐久郡御代田町,大字馬瀬口１８０８番地１５,,20,323,3890207,,,,,,,2025-01-28,1,,,,,アサマドボク,0
357,1100003007964,新規,0,2025-01-28,2025-01-28,ＥＣ‐ｓｕｎｎｙ合同会社,,合同会社,長野県,松本市,寿北２丁目２番２８号,,20,202,3990011,,,,,,,2025-01-28,1,,,,,イーシーサニィ,0
365,1120001272195,新規,0,2025-01-28,2025-01-28,株式会社ＧＧＣ　Ｐｒｏｄｕｃｔｉｏｎ,,株式会社,大阪府,大阪市中央区,本町４丁目８番１号ＳＤ本町ビル７０２号,,27,128,5410053,,,,,,,2025-01-28,1,,,,,ジージーシープロダクション,0
366,1120001272311,新規,0,2025-01-28,2025-01-28,株式会社あいゆめ,,株式会社,大阪府,大阪市都島区,都島南通２丁目６番２１号,,27,102,5340023,,,,,,,2025-01-28,1,,,,,アイユメ,0
367,1120001272369,新規,0,2025-01-28,2025-01-28,株式会社ＳＭＭＲ,,株式会社,大阪府,大阪市阿倍野区,阪南町５丁目１１番２５号,,27,119,5450021,,,,,,,2025-01-28,1,,,,,サマー,0
373,1120003028447,新規,0,2025-01-28,2025-01-28,細胞修復合同会社,,合同会社,大阪府,大阪市中央区,南船場１丁目１６－２３－６０３,,27,128,5420081,,,,,,,2025-01-28,1,,,,,サイボウシュウフク,0
374,1120003028463,新規,0,2025-01-28,2025-01-28,合同会社ＯＬＤＢＡＹ　ＰＲＯＤＵＣＴＩＯＮＳ,,合同会社,大阪府,大阪市北区,梅田３丁目２－１２３５,,27,127,5300001,,,,,,,2025-01-28,1,,,,,オールドベイプロダクションズ,0
380,1120005024766,新規,0,2025-01-28,2025-01-28,一般社団法人さくら,,その他の設立登記法人,大阪府,大阪市生野区,田島６丁目１４番１９号,,27,116,5440011,,,,,,,2025-01-28,1,,,,,サクラ,0
588,1130003010164,新規,0,2025-01-28,2025-01-28,ナカジマ合同会社,,合同会社,京都府,京都市中京区,御池通東洞院東入笹屋町４３６番地永和御池ビル６０６号,,26,104,6048187,,,,,,,2025-01-28,1,,,,,ナカジマ,0
589,1130003010172,新規,0,2025-01-28,2025-01-28,Ｒｅｃｋｏｎｅｒ合同会社,,合同会社,京都府,京都市下京区,朱雀宝蔵町４４番地協栄ビル２階京都朱雀スタジオ,,26,106,6008846,,,,,,,2025-01-28,1,,,,,レコナー,0
593,1140001137149,新規,0,2025-01-28,2025-01-28,ＤＥＣ株式会社,,株式会社,兵庫県,三木市,府内町７番２６号、共栄ビル２Ｆ,,28,215,6730416,,,,,,,2025-01-28,1,,,,,ディーイーシー,0
594,1140001137198,新規,0,2025-01-28,2025-01-28,株式会社寿,,株式会社,兵庫県,神戸市須磨区,離宮前町１丁目１番地４４号,,28,107,6540065,,,,,,,2025-01-28,1,,,,,コトブキ,0
595,1140003021581,新規,0,2025-01-28,2025-01-28,合同会社ＯＦＦＩＣＥ‐ＧＩＮＴＡ,,合同会社,兵庫県,神戸市北区,幸陽町１丁目１番１フォルテコート神戸花山３０５,,28,109,6511203,,,,,,,2025-01-28,1,,,,,オフィスギンタ,0
601,1160001026507,新規,0,2025-01-28,2025-01-28,ＪｓＷＩＮ　ＪＡＰＡＮ株式会社,,株式会社,滋賀県,近江八幡市,十王町１０９番地,,25,204,5230063,,,,,,,2025-01-28,1,,,,,ジェースウィンジャパン,0
610,1180001165146,新規,0,2025-01-28,2025-01-28,株式会社ハッチデザイン建築事務所,,株式会社,愛知県,名古屋市千種区,覚王山通８丁目４６番地,,23,101,4640841,,,,,,,2025-01-28,1,,,,,ハッチデザインケンチクジムショ,0
611,1180001165162,新規,0,2025-01-28,2025-01-28,ＮＳＰコラボレーション株式会社,,株式会社,愛知県,小牧市,小牧５丁目４６番地,,23,219,4850041,,,,,,,2025-01-28,1,,,,,エヌエスピーコラボレーション,0
612,1180001165179,新規,0,2025-01-28,2025-01-28,株式会社かなで,,株式会社,愛知県,名古屋市西区,清里町４３６番地グリーンヴィラ清里１階,,23,104,4520801,,,,,,,2025-01-28,1,,,,,カナデ,0
613,1180001165195,新規,0,2025-01-28,2025-01-28,株式会社ＳＫミルテック,,株式会社,愛知県,瀬戸市,窯町４８７番地４,,23,204,4801219,,,,,,,2025-01-28,1,,,,,エスケーミルテック,0
614,1180001165212,新規,0,2025-01-28,2025-01-28,株式会社ａｉＳＯＫ,,株式会社,愛知県,春日井市,大泉寺町２９０番地５０８,,23,206,4860812,,,,,,,2025-01-28,1,,,,,アイソク,0
615,1180001165229,新規,0,2025-01-28,2025-01-28,株式会社エーゲート,,株式会社,愛知県,名古屋市東区,東桜１丁目３番８号,,23,102,4610005,,,,,,,2025-01-28,1,,,,,エーゲート,0
621,1180003027906,新規,0,2025-01-28,2025-01-28,ＳＥＶＥＮ　ＳＴＡＲ　ＤＧ合同会社,,合同会社,愛知県,名古屋市中村区,長筬町６丁目４６－３,,23,105,4530839,,,,,,,2025-01-28,1,,,,,セブンスターディジ,0
622,1180003027914,新規,0,2025-01-28,2025-01-28,合同会社ＬＸＲ　Ｊａｐａｎ,,合同会社,愛知県,名古屋市千種区,清住町２丁目３８番地の２東山ハウス７０７号,,23,101,4640034,,,,,,,2025-01-28,1,,,,,エルエックスアールジャパン,0
624,1180005020933,新規,0,2025-01-28,2025-01-28,一般社団法人種美,,その他の設立登記法人,愛知県,名古屋市名東区,高社１丁目８９番地,,23,115,4650095,,,,,,,2025-01-28,1,,,,,タネビ,0
628,1180305009651,新規,0,2025-01-28,2025-01-28,一般社団法人建築防災推進協会,,その他の設立登記法人,愛知県,岡崎市,鴨田町字南魂場４８番地３,,23,202,4442121,,,,,,,2025-01-28,1,,,,,ケンチクボウサイスイシンキョウカイ,0
634,1200003006683,新規,0,2025-01-28,2025-01-28,合同会社ＤＩＬＳＨＡＮ　ＭＯＴＯＲＳ,,合同会社,岐阜県,岐阜市,又丸柳町２０番地２,,21,201,5011154,,,,,,,2025-01-28,1,,,,,ディルシャンモータース,0
635,1210001020041,新規,0,2025-01-28,2025-01-28,知場建設株式会社,,株式会社,福井県,三方郡美浜町,佐田４６号１番地の１,,18,442,9191205,,,,,,,2025-01-28,1,,,,,チバケンセツ,0
652,1290001108787,新規,0,2025-01-28,2025-01-28,株式会社ＧＯＪＯ,,株式会社,福岡県,福岡市博多区,祇園町６番２７号,,40,132,8120038,,,,,,,2025-01-28,1,,,,,ゴジョウ,0
658,1310001019429,新規,0,2025-01-28,2025-01-28,株式会社ＣＯ．ＬＡＢ,,株式会社,長崎県,長崎市,本原町３２番４号,,42,201,8528133,,,,,,,2025-01-28,1,,,,,コラボ,0
659,1330001032834,新規,0,2025-01-28,2025-01-28,ルミライフデザイン株式会社,,株式会社,熊本県,熊本市中央区,花畑町１番１４号Ａ＆Ｍ　ＨＡＮＡＢＡＴＡ３０１号,,43,101,8600806,,,,,,,2025-01-28,1,,,,,ルミライフデザイン,0
682,1360003014638,新規,0,2025-01-28,2025-01-28,合同会社ＣＢＷ,,合同会社,沖縄県,那覇市,東町１６番１号デュエット東町５０３,,47,201,9000034,,,,,,,2025-01-28,1,,,,,シービーダブル,0
688,1380001035064,新規,0,2025-01-28,2025-01-28,咲建材工業株式会社,,株式会社,福島県,いわき市,小名浜大原字中野地１４９番地の５,,07,204,9718111,,,,,,,2025-01-28,1,,,,,サキケンザイコウギョウ,0
689,1410003004039,新規,0,2025-01-28,2025-01-28,Ｋ　ｃｒｅｗｓ合同会社,,合同会社,秋田県,横手市,大雄字田町１３６番地,,05,203,0130486,,,,,,,2025-01-28,1,,,,,ケイクルーズ,0
691,1430001093552,新規,0,2025-01-28,2025-01-28,株式会社ＢａｒｃｈＥ,,株式会社,北海道,札幌市豊平区,月寒東三条７丁目３番２０号,,01,105,0620053,,,,,,,2025-01-28,1,,,,,バーチェ,0
692,1430001093569,新規,0,2025-01-28,2025-01-28,セーブヒーティング株式会社,,株式会社,北海道,札幌市手稲区,富丘三条７丁目５番２２号,,01,109,0060013,,,,,,,2025-01-28,1,,,,,セーブヒーティング,0
693,1430001093577,新規,0,2025-01-28,2025-01-28,ＯＣＣ株式会社,,株式会社,北海道,虻田郡倶知安町,ニセコひらふ五条２丁目６番１５号,,01,400,0440086,,,,,,,2025-01-28,1,,,,,オーシーシー,0
694,1430003017220,新規,0,2025-01-28,2025-01-28,ＮＯＲＴＨ‐Ｋ．ｂａｓｅ合同会社,,合同会社,北海道,浦河郡浦河町,荻伏町４８６番地の４４　２０１号,,01,607,0593451,,,,,,,2025-01-28,1,,,,,ノースケードットベース,0
696,1450001014515,新規,0,2025-01-28,2025-01-28,株式会社Ｆｉｒｓｔ　Ｎｏｔｅ,,株式会社,北海道,旭川市,東光七条５丁目１番３号,,01,204,0788347,,,,,,,2025-01-28,1,,,,,ファーストノート,0
699,1470001020552,新規,0,2025-01-28,2025-01-28,株式会社四真,,株式会社,香川県,丸亀市,飯野町東分１１８０番地１,,37,202,7630085,,,,,,,2025-01-28,1,,,,,ヨンシン,0
702,1700150128998,新規,0,2025-01-28,2025-01-28,ＮＡＮＤＡＮＩ　ＭＯＴＯＲＳ,,外国会社等,千葉県,山武市,大木６５０番地９オフィス１,,12,237,2891211,スリランカ民主社会主義共和国、ケキラワ、ドゥンリヤナガラヤ、Ｎｏ．２０６,,,,,,2025-01-28,1,,,,,ナンダニモータース,0
714,2010001251738,新規,0,2025-01-28,2025-01-28,株式会社ＣＸＯ　Ａｇｅｎｃｙ,,株式会社,東京都,中央区,銀座１丁目１２－４Ｎ＆ＥＢＬＤ．７階,,13,102,1040061,,,,,,,2025-01-28,1,,,,,シーエックスオーエージェンシー,0
715,2010001251770,新規,0,2025-01-28,2025-01-28,キネテック株式会社,,株式会社,東京都,中央区,銀座１丁目２２番１１号銀座大竹ビジデンス２Ｆ,,13,102,1040061,,,,,,,2025-01-28,1,,,,,キネテック,0
716,2010001251787,新規,0,2025-01-28,2025-01-28,首都高ファシリティマネジメント株式会社,,株式会社,東京都,中央区,日本橋３丁目１１番１号,,13,102,1030027,,,,,,,2025-01-28,1,,,,,シュトコウファシリティマネジメント,0
717,2010001251812,新規,0,2025-01-28,2025-01-28,株式会社フジトミ,,株式会社,東京都,中央区,日本橋蛎殻町１丁目２９番６号,,13,102,1030014,,,,,,,2025-01-28,1,,,,,フジトミ,0
723,2010003046194,新規,0,2025-01-28,2025-01-28,合同会社厚木インベストメント,,合同会社,東京都,中央区,日本橋１丁目４番１号日本橋一丁目ビルディング,,13,102,1030027,,,,,,,2025-01-28,1,,,,,アツギインベストメント,0
725,2010005039444,新規,0,2025-01-28,2025-01-28,一般社団法人ＰｅｔＣａｒｅ　Ｆｏｕｎｄａｔｉｏｎ,,その他の設立登記法人,東京都,千代田区,平河町２丁目４－５ＶＯＲＴ平河町ＩＩ５階,,13,101,1020093,,,,,,,2025-01-28,1,,,,,ペットケアファウンデーション,0
728,2010401187730,新規,0,2025-01-28,2025-01-28,株式会社デストゲイツＷＳ,,株式会社,東京都,港区,南青山２丁目２番１５号ウィン青山９４２,,13,103,1070062,,,,,,,2025-01-28,1,,,,,デストゲイツダブリューエス,0
729,2010401187747,新規,0,2025-01-28,2025-01-28,株式会社Ｗｅｓｔ　Ｖａｌｌｅｙ,,株式会社,東京都,港区,赤坂９丁目７番２号ミッドタウン・イースト４階,,13,103,1070052,,,,,,,2025-01-28,1,,,,,ウエストバレー,0
732,2010403034212,新規,0,2025-01-28,2025-01-28,Ｓｕｓｈｉｎ　Ｃｏｎｓｕｌｔｉｎｇ合同会社,,合同会社,東京都,港区,新橋４丁目１４番１号新橋ＡＵＮ　ＢＬＤＧ４階,,13,103,1050004,,,,,,,2025-01-28,1,,,,,スシンコンサルティング,0
733,2010403034237,新規,0,2025-01-28,2025-01-28,合同会社Ｌｉｎｏｕｌｕ,,合同会社,東京都,港区,麻布十番２丁目２０番１３号メゾン中村３０２,,13,103,1060045,,,,,,,2025-01-28,1,,,,,リノール,0
734,2010403034278,新規,0,2025-01-28,2025-01-28,ＧＳＳＧ　Ｓｏｌａｒ　Ｊａｐａｎ　Ｈｏｌｄｉｎｇｓ１７合同会社,,合同会社,東京都,港区,高輪１丁目３番１３号ＮＢＦ高輪ビル７階,,13,103,1080074,,,,,,,2025-01-28,1,,,,,ジーエスエスジーソーラージャパンホールディングスセブンティーン,0
739,2010405024046,新規,0,2025-01-28,2025-01-28,ＧＳＳＧ　Ｓｏｌａｒ　Ｊａｐａｎ　Ｈｏｌｄｉｎｇｓ１９一般社団法人,,その他の設立登記法人,東京都,港区,赤坂１丁目１１番４４号赤坂インターシティ５階Ｆｏｒｖｉｓ・Ｍａｚａｒｓ・Ｊａｐａｎ株式会社内,,13,103,1070052,,,,,,,2025-01-28,1,,,,,ジーエスエスジーソーラージャパンホールディングスナインティーン,0
849,2010501053519,新規,0,2025-01-28,2025-01-28,株式会社ＳＯＦＮＡＶＩ,,株式会社,東京都,台東区,浅草橋５丁目２番３号鈴和ビル２階,,13,106,1110053,,,,,,,2025-01-28,1,,,,,ソフナビ,0
857,2010801035786,新規,0,2025-01-28,2025-01-28,株式会社ＥＮＣＨＡＮＴ,,株式会社,東京都,大田区,鵜の木２丁目２４番３－１０３号,,13,111,1460091,,,,,,,2025-01-28,1,,,,,エンチャント,0
858,2010901056724,新規,0,2025-01-28,2025-01-28,株式会社ふらっと．,,株式会社,東京都,世田谷区,船橋５丁目３番８号オークプレイス世田谷船橋３０７,,13,112,1560055,,,,,,,2025-01-28,1,,,,,フラット,0
861,2011001167305,新規,0,2025-01-28,2025-01-28,株式会社ＬＹＮＣ,,株式会社,東京都,渋谷区,恵比寿西２丁目４番８号ウインド恵比寿ビル８Ｆ,,13,113,1500021,,,,,,,2025-01-28,1,,,,,リンク,0
863,2011003020775,新規,0,2025-01-28,2025-01-28,ｐｏｅｍａ合同会社,,合同会社,東京都,渋谷区,恵比寿西２丁目４番８号ウィンド恵比寿ビル８Ｆ,,13,113,1500021,,,,,,,2025-01-28,1,,,,,ポエマ,0
867,2011101110338,新規,0,2025-01-28,2025-01-28,株式会社ＩＮＮＯＶＥＲ,,株式会社,東京都,新宿区,西新宿３丁目３番１３号西新宿水間ビル２Ｆ,,13,104,1600023,,,,,,,2025-01-28,1,,,,,イノヴェ,0
868,2011101110404,新規,0,2025-01-28,2025-01-28,株式会社新水堂,,株式会社,東京都,新宿区,西新宿３丁目３番１３号西新宿水間ビル２Ｆ,,13,104,1600023,,,,,,,2025-01-28,1,,,,,シンスイドウ,0
869,2011101110420,新規,0,2025-01-28,2025-01-28,株式会社リンテック,,株式会社,東京都,新宿区,西新宿８丁目１１番１０号星野ビル３階,,13,104,1600023,,,,,,,2025-01-28,1,,,,,リンテック,0
870,2011103015460,新規,0,2025-01-28,2025-01-28,合同会社ワイデーワン,,合同会社,東京都,新宿区,高田馬場２丁目１９番８号３０３,,13,104,1690075,,,,,,,2025-01-28,1,,,,,ワイデーワン,0
871,2011201026079,新規,0,2025-01-28,2025-01-28,株式会社Ｔｈｒｅｅｓｔｅｐ　ＪＡＰＡＮ,,株式会社,東京都,中野区,鷺宮３丁目２７番９号ハックベリー２０３,,13,114,1650032,,,,,,,2025-01-28,1,,,,,スリーステップジャパン,0
936,2011501031588,新規,0,2025-01-28,2025-01-28,ＴＥＣＴＯＭＯ　ＡＵＴＯ　ＰＡＲＴＳ株式会社,,株式会社,東京都,荒川区,南千住３丁目２７－２浅草ビル５０８,,13,118,1160003,,,,,,,2025-01-28,1,,,,,テクトモオートパーツ,0
937,2011603004590,新規,0,2025-01-28,2025-01-28,サイラ合同会社,,合同会社,東京都,練馬区,田柄２丁目３３番１３号,,13,120,1790073,,,,,,,2025-01-28,1,,,,,サイラ,0
941,2011801045511,新規,0,2025-01-28,2025-01-28,株式会社ＮＵＤＧＥＲＳ,,株式会社,東京都,葛飾区,四つ木１丁目１５－７,,13,122,1240011,,,,,,,2025-01-28,1,,,,,ナッジャーズ,0
1005,2012803003614,新規,0,2025-01-28,2025-01-28,合同会社きらめき,,合同会社,東京都,東大和市,芋窪１丁目２１０１番地の５,,13,220,2070033,,,,,,,2025-01-28,1,,,,,キラメキ,0
1042,2020003027631,新規,0,2025-01-28,2025-01-28,Ｍ９合同会社,,合同会社,神奈川県,川崎市高津区,二子２丁目８番１－３０２号,,14,134,2130002,,,,,,,2025-01-28,1,,,,,エムキュー,0
1044,2021001084318,新規,0,2025-01-28,2025-01-28,株式会社Ｏｎ　Ｙｏｕｒ　Ｍａｒｋ,,株式会社,神奈川県,伊勢原市,伊勢原１丁目２４番３号,,14,214,2591131,,,,,,,2025-01-28,1,,,,,オンユアマーク,0
1045,2021001084326,新規,0,2025-01-28,2025-01-28,株式会社さぽ,,株式会社,神奈川県,平塚市,松風町１１番２０－２０１号室,,14,203,2540812,,,,,,,2025-01-28,1,,,,,サポ,0
1049,2021003015519,新規,0,2025-01-28,2025-01-28,ｊＬＩＮＥ合同会社,,合同会社,神奈川県,相模原市緑区,若柳６３９－２スネヤハイツ２０２,,14,151,2520175,,,,,,,2025-01-28,1,,,,,ジェイライン,0
1050,2021003015527,新規,0,2025-01-28,2025-01-28,Ｏｈａｎａ合同会社,,合同会社,神奈川県,足柄下郡真鶴町,真鶴１９１４－２８,,14,383,2590201,,,,,,,2025-01-28,1,,,,,オハナ,0
1062,2030003025948,新規,0,2025-01-28,2025-01-28,ＭＩＣテクノサポート合同会社,,合同会社,埼玉県,川口市,中青木２丁目１８号２８番コスモ川口中青木公園８０１,,11,203,3320032,,,,,,,2025-01-28,1,,,,,エムアイシーテクノサポート,0
1066,2040001137158,新規,0,2025-01-28,2025-01-28,ザ・ホーム株式会社,,株式会社,千葉県,印西市,岩戸１５３４番地,,12,231,2701616,,,,,,,2025-01-28,1,,,,,ザホーム,0
1067,2040001137174,新規,0,2025-01-28,2025-01-28,株式会社トゥワイス,,株式会社,千葉県,松戸市,松戸１３０７番地１松戸ビル１３Ｆ,,12,207,2710092,,,,,,,2025-01-28,1,,,,,トゥワイス,0
1068,2040001137182,新規,0,2025-01-28,2025-01-28,ｃｒｅｗ’ｖｅ株式会社,,株式会社,千葉県,八千代市,大和田新田１０８９－１１１,,12,221,2760046,,,,,,,2025-01-28,1,,,,,クルーブ,0
1072,2040003026664,新規,0,2025-01-28,2025-01-28,合同会社サステイン・グローバル,,合同会社,千葉県,千葉市若葉区,若松町４４２番地２ビューパレー都賀１０８号,,12,104,2640021,,,,,,,2025-01-28,1,,,,,サステイングローバル,0
1073,2040003026680,新規,0,2025-01-28,2025-01-28,合同会社ＦＴＨ,,合同会社,千葉県,野田市,つつみ野２丁目２７番地の１,,12,208,2780038,,,,,,,2025-01-28,1,,,,,エフティエイチ,0
1074,2040003026706,新規,0,2025-01-28,2025-01-28,合同会社ｃｈａｎＸｅ,,合同会社,千葉県,市川市,鬼高２丁目１０番１２－２０５　号（モア・クレスト市川）,,12,203,2720015,,,,,,,2025-01-28,1,,,,,シャンゼ,0
1075,2040003026714,新規,0,2025-01-28,2025-01-28,合同会社ＡＳＴＲＡ,,合同会社,千葉県,船橋市,本中山４丁目３－３－４０３,,12,204,2730035,,,,,,,2025-01-28,1,,,,,アストラ,0
1077,2050001056068,新規,0,2025-01-28,2025-01-28,株式会社ジェネレーション,,株式会社,茨城県,取手市,ゆめみ野５丁目３番地５,,08,217,3020039,,,,,,,2025-01-28,1,,,,,ジェネレーション,0
1078,2050003008983,新規,0,2025-01-28,2025-01-28,合同会社三葉技研,,合同会社,茨城県,北茨城市,関南町神岡上８３３番地,,08,215,3191714,,,,,,,2025-01-28,1,,,,,サンヨウギケン,0
1081,2070001042586,新規,0,2025-01-28,2025-01-28,善匠株式会社,,株式会社,群馬県,太田市,台之郷町６７２番地１,,10,205,3730801,,,,,,,2025-01-28,1,,,,,ゼンショウ,0
1085,2080005007659,新規,0,2025-01-28,2025-01-28,農事組合法人Ｄ３,,その他の設立登記法人,静岡県,静岡市清水区,三保４１３１,,22,103,4240901,,,,,,,2025-01-28,1,,,,,ディースリー,0
1093,2090001019112,新規,0,2025-01-28,2025-01-28,太陽ファーム株式会社,,株式会社,山梨県,北杜市,須玉町江草７７０番地,,19,209,4080103,,,,,,,2025-01-28,1,,,,,タイヨウファーム,0
1094,2100001038201,新規,0,2025-01-28,2025-01-28,株式会社カミライズ,,株式会社,長野県,上伊那郡辰野町,大字赤羽１１０番地４,,20,382,3990424,,,,,,,2025-01-28,1,,,,,カミライズ,0
1115,2120001272269,新規,0,2025-01-28,2025-01-28,株式会社京福,,株式会社,大阪府,大阪市中央区,安土町２丁目５番１号角丸ビル,,27,128,5410052,,,,,,,2025-01-28,1,,,,,ケイフク,0
1116,2120001272302,新規,0,2025-01-28,2025-01-28,ＴＮパートナーズ株式会社,,株式会社,大阪府,大阪市中央区,南本町２丁目３番１２号ＥＤＧＥ本町３階,,27,128,5410054,,,,,,,2025-01-28,1,,,,,ティーエヌパートナーズ,0
1117,2120001272310,新規,0,2025-01-28,2025-01-28,理邦プレシジョンモールド株式会社,,株式会社,大阪府,寝屋川市,萱島南町１３番３０号３０１号室,,27,215,5720825,,,,,,,2025-01-28,1,,,,,リホウプレシジョンモールド,0
1118,2120001272319,新規,0,2025-01-28,2025-01-28,株式会社ｔｅｃＨＲ,,株式会社,大阪府,大阪市西区,京町堀１丁目１１番７号京旺ビル４階Ｂ号室,,27,106,5500003,,,,,,,2025-01-28,1,,,,,テックエイチアール,0
1119,2120001272335,新規,0,2025-01-28,2025-01-28,株式会社Ｎａｋａｍａ,,株式会社,大阪府,大阪市西成区,千本南２丁目１１番２５号,,27,122,5570055,,,,,,,2025-01-28,1,,,,,ナカマ,0
1122,2120003028479,新規,0,2025-01-28,2025-01-28,合同会社ＹＭファクトリー,,合同会社,大阪府,大阪市北区,野崎町６番８号トレックノース梅田６０１,,27,127,5300055,,,,,,,2025-01-28,1,,,,,ワイエムファクトリー,0
1123,2120005024757,新規,0,2025-01-28,2025-01-28,特定非営利活動法人青少年自立生活援助の会,,その他の設立登記法人,大阪府,大阪市中央区,谷町５丁目７番９－１３０１号,,27,128,5400012,,,,,,,2025-01-28,1,,,,,セイショウネンジリツセイカツエンジョノカイ,0
1126,2120901050022,新規,0,2025-01-28,2025-01-28,株式会社池田電気,,株式会社,大阪府,高槻市,深沢町１丁目１８番７号,,27,207,5690035,,,,,,,2025-01-28,1,,,,,イケダデンキ,0
1127,2120901050352,新規,0,2025-01-28,2025-01-28,ＳｋｙＬｕｎａｒ株式会社,,株式会社,大阪府,茨木市,彩都やまぶき４丁目３番２５号,,27,211,5670086,,,,,,,2025-01-28,1,,,,,スカイルナー,0
1321,2130001078855,新規,0,2025-01-28,2025-01-28,株式会社Ｍｅｅｔａｔ　Ｆｏｏｄｓ,,株式会社,京都府,京都市西京区,大原野灰方町５４０番地６,,26,111,6101132,,,,,,,2025-01-28,1,,,,,ミータットフーズ,0
1339,2140001137197,新規,0,2025-01-28,2025-01-28,株式会社リペアハウスウィーズ,,株式会社,兵庫県,明石市,魚住町金ケ崎５６８番１,,28,203,6740071,,,,,,,2025-01-28,1,,,,,リペアハウスウィーズ,0
1344,2170001018469,新規,0,2025-01-28,2025-01-28,株式会社ＫＩＳ,,株式会社,和歌山県,和歌山市,秋月４７４－１,,30,201,6408322,,,,,,,2025-01-28,1,,,,,ケイアイエス,0
1348,2180001165129,新規,0,2025-01-28,2025-01-28,株式会社ＡＲＣ,,株式会社,愛知県,名古屋市中区,伊勢山１丁目１－４ＤＡＩＯビル７階,,23,106,4600026,,,,,,,2025-01-28,1,,,,,エーアールシー,0
1349,2180001165153,新規,0,2025-01-28,2025-01-28,株式会社はちはちや,,株式会社,愛知県,北名古屋市,片場八瀬の木４０番地２－２Ｆ,,23,234,4810002,,,,,,,2025-01-28,1,,,,,ハチハチヤ,0
1350,2180001165161,新規,0,2025-01-28,2025-01-28,株式会社Ｇ‐ＨＯＬＤＥＭ,,株式会社,愛知県,名古屋市中区,新栄１丁目２番２９号ウエストビル２階,,23,106,4600007,,,,,,,2025-01-28,1,,,,,ジーホールデム,0
1351,2180001165203,新規,0,2025-01-28,2025-01-28,株式会社リンクケア,,株式会社,愛知県,名古屋市中村区,名駅１丁目１番１号ＪＰタワー名古屋２１Ｆ,,23,105,4500002,,,,,,,2025-01-28,1,,,,,リンクケア,0
1356,2180003027913,新規,0,2025-01-28,2025-01-28,零一アーキテクト合同会社,,合同会社,愛知県,名古屋市中村区,竹橋町５番９号みのやビル１Ｆ,,23,105,4530016,,,,,,,2025-01-28,1,,,,,ゼロイチアーキテクト,0
1362,2190001031965,新規,0,2025-01-28,2025-01-28,株式会社ニコパン,,株式会社,三重県,多気郡多気町,片野３８３番地４,,24,441,5192203,,,,,,,2025-01-28,1,,,,,ニコパン,0
1367,2200001043364,新規,0,2025-01-28,2025-01-28,株式会社ＡＩＳＴ,,株式会社,岐阜県,瑞浪市,西小田町１丁目６９番地,,21,208,5096114,,,,,,,2025-01-28,1,,,,,アイスト,0
1368,2200001043380,新規,0,2025-01-28,2025-01-28,リノネクスト株式会社,,株式会社,岐阜県,岐阜市,荒川町９番地１,,21,201,5008449,,,,,,,2025-01-28,1,,,,,リノネクスト,0
1369,2200003006674,新規,0,2025-01-28,2025-01-28,アニュイティ合同会社,,合同会社,岐阜県,大垣市,内原１丁目１７５番地３,,21,202,5030936,,,,,,,2025-01-28,1,,,,,アニュイティ,0
1370,2200003006682,新規,0,2025-01-28,2025-01-28,合同会社ＲＹＭ,,合同会社,岐阜県,岐阜市,桜通３丁目１２‐１,,21,201,5008318,,,,,,,2025-01-28,1,,,,,アールワイエム,0
1376,2240003007033,新規,0,2025-01-28,2025-01-28,合同会社Ｈｉ‐Ｂｅｅｎｏ,,合同会社,広島県,広島市西区,観音本町１丁目１４番２０－８０３号,,34,104,7330033,,,,,,,2025-01-28,1,,,,,ハイビーノ,0
1380,2260001039852,新規,0,2025-01-28,2025-01-28,株式会社防災ネットワーク,,株式会社,岡山県,都窪郡早島町,前潟１６７番地５,,33,423,7010303,,,,,,,2025-01-28,1,,,,,ボウサイネットワーク,0
1389,2290001108803,新規,0,2025-01-28,2025-01-28,株式会社スペースカウボーイ,,株式会社,福岡県,福岡市中央区,天神４丁目６―２８天神ファーストビル７階,,40,133,8100001,,,,,,,2025-01-28,1,,,,,スペースカウボーイ,0
1390,2290003016327,新規,0,2025-01-28,2025-01-28,合同会社プレミアムサービス,,合同会社,福岡県,糟屋郡新宮町,夜臼１丁目２－１７,,40,345,8110110,,,,,,,2025-01-28,1,,,,,プレミアムサービス,0
1391,2290005019625,新規,0,2025-01-28,2025-01-28,行政書士法人オアシス,,その他の設立登記法人,福岡県,福岡市博多区,住吉５丁目５番１２号,,40,132,8120018,,,,,,,2025-01-28,1,,,,,オアシス,0
1397,2340001027089,新規,0,2025-01-28,2025-01-28,株式会社焼酎酒々蔵．,,株式会社,鹿児島県,鹿児島市,城山２丁目２７番６号,,46,201,8920813,,,,,,,2025-01-28,1,,,,,ショウチュウササクラ,0
1407,2350001019382,新規,0,2025-01-28,2025-01-28,斗夢工業株式会社,,株式会社,宮崎県,宮崎市,大塚町樋ノ口１９６６番地,,45,201,8800951,,,,,,,2025-01-28,1,,,,,トムコウギョウ,0
1410,2360003014645,新規,0,2025-01-28,2025-01-28,合同会社ＨＤＳ,,合同会社,沖縄県,南城市,佐敷字佐敷１９０番地１,,47,215,9011403,,,,,,,2025-01-28,1,,,,,エイチディーエス,0
1414,2370001052183,新規,0,2025-01-28,2025-01-28,日向工業株式会社,,株式会社,宮城県,多賀城市,南宮字伊勢２２１番地,,04,209,9850851,,,,,,,2025-01-28,1,,,,,ヒューガコウギョウ,0
1420,2380001035063,新規,0,2025-01-28,2025-01-28,株式会社彩光,,株式会社,福島県,いわき市,洋向台３丁目９番地の９,,07,204,9700314,,,,,,,2025-01-28,1,,,,,サイコウ,0
1430,2430001093551,新規,0,2025-01-28,2025-01-28,株式会社Ｒｅ　Ｓｍｉｌｅ,,株式会社,北海道,札幌市中央区,南六条西１８丁目２番３号サンクレスト円山４０１,,01,101,0640806,,,,,,,2025-01-28,1,,,,,リスマイル,0
1431,2430001093568,新規,0,2025-01-28,2025-01-28,株式会社ベッツ,,株式会社,北海道,札幌市西区,八軒六条西５丁目１番１号,,01,107,0630846,,,,,,,2025-01-28,1,,,,,ベッツ,0
1438,2480005004211,新規,0,2025-01-28,2025-01-28,医療法人川田耳鼻咽喉科,,その他の設立登記法人,徳島県,阿南市,宝田町平岡８２８番地１,,36,204,7740045,,,,,,,2025-01-28,1,,,,,カワタジビインコウカ,0
1440,2700150128989,新規,0,2025-01-28,2025-01-28,ＡＲ　ＭＯＴＯＲＳ,,外国会社等,千葉県,八街市,東吉田７２５番地ビジネスオフィス４３号,,12,230,2891114,スリランカ民主社会主義共和国、ヤタワッタ、メディヤポラ、マハウェラロード、Ｎｏ．４６／４,,,,,,2025-01-28,1,,,,,エーアールモータース,0
1441,2700150128997,新規,0,2025-01-28,2025-01-28,ＬＵＣＫＹ　ＭＯＴＯＲ　ＴＲＡＤＩＮＧ　ＣＯＭＰＡＮＹ,,外国会社等,千葉県,八街市,東吉田７２５番地ビジネスオフィス４２号,,12,230,2891114,スリランカ民主社会主義共和国、カトゥポタ、クーンゴッラ、Ｎｏ．４０５／１Ａ,,,,,,2025-01-28,1,,,,,ラツキーモータートレーデイングカンパニー,0
1454,3010005039468,新規,0,2025-01-28,2025-01-28,一般社団法人ＧＸ　ＩＮＶＥＳＴＭＥＮＴ,,その他の設立登記法人,東京都,中央区,京橋２丁目１２番６号ＡＯＪ税理士法人内,,13,102,1040031,,,,,,,2025-01-28,1,,,,,ジーエックスインベストメント,0
1460,3010401187738,新規,0,2025-01-28,2025-01-28,株式会社日本革新投資,,株式会社,東京都,港区,虎ノ門５丁目１１番１－９０３号,,13,103,1050001,,,,,,,2025-01-28,1,,,,,ニホンカクシントウシ,0
1463,3010403034277,新規,0,2025-01-28,2025-01-28,ＧＳＳＧ　Ｓｏｌａｒ　Ｊａｐａｎ　Ｈｏｌｄｉｎｇｓ１９合同会社,,合同会社,東京都,港区,高輪１丁目３番１３号ＮＢＦ高輪ビル７階,,13,103,1080074,,,,,,,2025-01-28,1,,,,,ジーエスエスジーソーラージャパンホールディングスナインティーン,0
1469,3010405024045,新規,0,2025-01-28,2025-01-28,ＧＳＳＧ　Ｓｏｌａｒ　Ｊａｐａｎ　Ｈｏｌｄｉｎｇｓ１６一般社団法人,,その他の設立登記法人,東京都,港区,赤坂１丁目１１番４４号赤坂インターシティ５階Ｆｏｒｖｉｓ・Ｍａｚａｒｓ・Ｊａｐａｎ株式会社内,,13,103,1070052,,,,,,,2025-01-28,1,,,,,ジーエスエスジーソーラージャパンホールディングスシックスティーン,0
1603,3010701047146,新規,0,2025-01-28,2025-01-28,グレートウェーブベンチャーズ株式会社,,株式会社,東京都,品川区,南品川５丁目７番１１号,,13,109,1400004,,,,,,,2025-01-28,1,,,,,グレートウェーブベンチャーズ,0
1604,3010703007544,新規,0,2025-01-28,2025-01-28,ユーロフォルム合同会社,,合同会社,東京都,品川区,西五反田７丁目２２－１７ＴＯＣビル４Ｆ－５３,,13,109,1410031,,,,,,,2025-01-28,1,,,,,ユーロフォルム,0
1606,3010801035785,新規,0,2025-01-28,2025-01-28,株式会社ＢＲＩＧＨＴ,,株式会社,東京都,大田区,東六郷３丁目８番４－５０８号,,13,111,1440046,,,,,,,2025-01-28,1,,,,,ブライト,0
1607,3010903009670,新規,0,2025-01-28,2025-01-28,合同会社樹,,合同会社,東京都,世田谷区,成城２丁目１３番１０号,,13,112,1570066,,,,,,,2025-01-28,1,,,,,キ,0
1615,3011101110345,新規,0,2025-01-28,2025-01-28,Ｐｉｏｕｓｍａｒｔ株式会社,,株式会社,東京都,新宿区,百人町１丁目３番１２号朝日新大久保マンション４０２,,13,104,1690073,,,,,,,2025-01-28,1,,,,,パイアスマート,0
1616,3011101110386,新規,0,2025-01-28,2025-01-28,ＮＲＹＳ株式会社,,株式会社,東京都,新宿区,西新宿３丁目３番１３号西新宿水間ビル６階,,13,104,1600023,,,,,,,2025-01-28,1,,,,,エヌアールワイエス,0
1617,3011101110394,新規,0,2025-01-28,2025-01-28,麒祥株式会社,,株式会社,東京都,新宿区,山吹町３３７番地５都住創山吹町ビル６０４Ｍ,,13,104,1620801,,,,,,,2025-01-28,1,,,,,リンショウ,0
1618,3011101110411,新規,0,2025-01-28,2025-01-28,株式会社さくら管理,,株式会社,東京都,新宿区,榎町４５番地,,13,104,1620806,,,,,,,2025-01-28,1,,,,,サクラカンリ,0
1619,3011103015419,新規,0,2025-01-28,2025-01-28,合同会社ミスティックコスメティック,,合同会社,東京都,新宿区,西新宿５丁目２－１シティタワー新宿２４０４号室,,13,104,1600023,,,,,,,2025-01-28,1,,,,,ミスティックコスメティック,0
1622,3011301030319,新規,0,2025-01-28,2025-01-28,ダヴィンチ・コンサルティング株式会社,,株式会社,東京都,杉並区,上井草２丁目３７番１３号,,13,115,1670023,,,,,,,2025-01-28,1,,,,,ダヴィンチコンサルティング,0
1682,3011501031629,新規,0,2025-01-28,2025-01-28,Ｎｅｘｔ　ＩＴ　Ｃｏｎｓｕｌｔｉｎｇ株式会社,,株式会社,東京都,北区,赤羽西３丁目７番７号,,13,117,1150055,,,,,,,2025-01-28,1,,,,,ネクストアイティコンサルティング,0
1687,3011801045535,新規,0,2025-01-28,2025-01-28,嘉碩實業株式会社,,株式会社,東京都,足立区,足立４丁目３３番１号ＺＫＹビル３０２号室,,13,121,1200015,,,,,,,2025-01-28,1,,,,,カセキジツギョウ,0
1695,3012403006933,新規,0,2025-01-28,2025-01-28,合同会社Ｌｉｎｋ‐Ｓ,,合同会社,東京都,府中市,本宿町１丁目３１－３１,,13,206,1830032,,,,,,,2025-01-28,1,,,,,リンクス,0
1768,3020001161019,新規,0,2025-01-28,2025-01-28,株式会社コージーコンサル,,株式会社,神奈川県,横浜市保土ケ谷区,境木本町５５番２８号,,14,106,2400033,,,,,,,2025-01-28,1,,,,,コージーコンサル,0
1772,3020003027589,新規,0,2025-01-28,2025-01-28,合同会社ＫＧＰ,,合同会社,神奈川県,横浜市港南区,笹下５丁目１８番１４号,,14,111,2340052,,,,,,,2025-01-28,1,,,,,ケージーピー,0
1773,3020003027713,新規,0,2025-01-28,2025-01-28,合同会社モダンステイ,,合同会社,神奈川県,横浜市青葉区,あかね台１丁目１６番地３９,,14,117,2270066,,,,,,,2025-01-28,1,,,,,モダンステイ,0
1774,3020003027721,新規,0,2025-01-28,2025-01-28,ＲＳＴＣ合同会社,,合同会社,神奈川県,横浜市中区,池袋３４６番地３,,14,104,2310834,,,,,,,2025-01-28,1,,,,,アールエスティーシー,0
1779,3021001084341,新規,0,2025-01-28,2025-01-28,株式会社ＲＴＫ,,株式会社,神奈川県,藤沢市,石川５丁目１番地の３メルヴェイユ壱番館１０３号,,14,205,2520815,,,,,,,2025-01-28,1,,,,,アールティーケー,0
1793,3030001164565,新規,0,2025-01-28,2025-01-28,株式会社オートセンターハギモト,,株式会社,埼玉県,所沢市,大字下富８６４番地の２１,,11,208,3590001,,,,,,,2025-01-28,1,,,,,オートセンターハギモト,0
1794,3030001164615,新規,0,2025-01-28,2025-01-28,株式会社ケーテーテックホールディングス,,株式会社,埼玉県,三郷市,戸ケ崎１丁目４１７番地,,11,237,3410044,,,,,,,2025-01-28,1,,,,,ケーテーテックホールディングス,0
1798,3030003025781,新規,0,2025-01-28,2025-01-28,合同会社ＤＯＲＹＯ,,合同会社,埼玉県,越谷市,中町３番２４－１号,,11,222,3430817,,,,,,,2025-01-28,1,,,,,ドリョウ,0
1799,3030003025971,新規,0,2025-01-28,2025-01-28,ＫＫＲ合同会社,,合同会社,埼玉県,川口市,長蔵２丁目７－１３,,11,203,3330807,,,,,,,2025-01-28,1,,,,,ケーケーアール,0
1804,3040001137149,新規,0,2025-01-28,2025-01-28,ＲＰＭ　ＧＡＲＡＧＥ株式会社,,株式会社,千葉県,四街道市,山梨１５１３番地１４,,12,228,2840022,,,,,,,2025-01-28,1,,,,,アールピーエムガレージ,0
1805,3040001137181,新規,0,2025-01-28,2025-01-28,ヤスイホールディングス株式会社,,株式会社,千葉県,松戸市,紙敷１５６６番地８ＹＡＳＵＩビル第１５‐１０１号,,12,207,2702221,,,,,,,2025-01-28,1,,,,,ヤスイホールディングス,0
1806,3040003026705,新規,0,2025-01-28,2025-01-28,Ｅｒｉｋａ合同会社,,合同会社,千葉県,野田市,山崎１８４８番地６サンライズビル１Ｆ,,12,208,2780022,,,,,,,2025-01-28,1,,,,,エリカ,0
1807,3040003026713,新規,0,2025-01-28,2025-01-28,オシカル合同会社,,合同会社,千葉県,松戸市,松戸新田５００番地の８松戸グリーンハイツ１０１号,,12,207,2702241,,,,,,,2025-01-28,1,,,,,オシカル,0
1811,3050003008966,新規,0,2025-01-28,2025-01-28,ＳｕｓａＭｉ合同会社,,合同会社,茨城県,下妻市,高道祖１３２８番地１ナカジマハイツ２、８号室,,08,210,3040031,,,,,,,2025-01-28,1,,,,,スサミ,0
1812,3050003008974,新規,0,2025-01-28,2025-01-28,合同会社ＢａｃｋＯｆｆｉｃｅ,,合同会社,茨城県,水戸市,渡里町２５６８－５ブローテ宮脇Ａ１０１号室,,08,201,3100902,,,,,,,2025-01-28,1,,,,,バックオフィス,0
1813,3060001037867,新規,0,2025-01-28,2025-01-28,株式会社Ｔ‐ｔｅｃｈ,,株式会社,栃木県,宇都宮市,上横田町１４７９番地１４,,09,201,3210106,,,,,,,2025-01-28,1,,,,,ティーテック,0
1817,3080001026736,新規,0,2025-01-28,2025-01-28,株式会社ＰＬＵＳ　ＶＥＴどうぶつ病院,,株式会社,静岡県,静岡市葵区,大岩本町１９番１５号,,22,101,4200884,,,,,,,2025-01-28,1,,,,,プラスベットドウブツビョウイン,0
1820,3080101025274,新規,0,2025-01-28,2025-01-28,株式会社ＡＩＷＩＮ,,株式会社,静岡県,御殿場市,駒門３２３番地５,,22,215,4120038,,,,,,,2025-01-28,1,,,,,アイウィン,0
1824,3090001019111,新規,0,2025-01-28,2025-01-28,株式会社ルナソルキ,,株式会社,山梨県,南アルプス市,小笠原２５０５番地サニーハイツＫ１０３,,19,208,4000306,,,,,,,2025-01-28,1,,,,,ルナソルキ,0
1850,3120001272292,新規,0,2025-01-28,2025-01-28,星宏株式会社,,株式会社,大阪府,大阪市港区,市岡元町２丁目６番１１－３０５号,,27,107,5520002,,,,,,,2025-01-28,1,,,,,シンホン,0
1851,3120001272301,新規,0,2025-01-28,2025-01-28,株式会社大和ＥＸＰＲＥＳＳ,,株式会社,大阪府,寝屋川市,高倉１丁目１４番２２号Ａ－０１,,27,215,5720864,,,,,,,2025-01-28,1,,,,,ヤマトエクスプレス,0
1852,3120001272318,新規,0,2025-01-28,2025-01-28,ＮＥＸＵＳ　ＣＯＲ株式会社,,株式会社,大阪府,大阪市平野区,瓜破６丁目８番２４号,,27,126,5470024,,,,,,,2025-01-28,1,,,,,ネクサスコア,0
1854,3120003028478,新規,0,2025-01-28,2025-01-28,ａｏ合同会社,,合同会社,大阪府,大阪市東成区,神路２丁目７番２０号フェリーチェ深江橋１号館１１０６号,,27,115,5370003,,,,,,,2025-01-28,1,,,,,アオ,0
1855,3120005024756,新規,0,2025-01-28,2025-01-28,医療法人むらかわ内科,,その他の設立登記法人,大阪府,守口市,大久保町５丁目６８番９号エクセレントコート１０３号,,27,209,5700012,,,,,,,2025-01-28,1,,,,,ムラカワナイカ,0
2034,3130001078879,新規,0,2025-01-28,2025-01-28,株式会社Ｍａｒｌｅｓ,,株式会社,京都府,京都市南区,東九条上御霊町６６番地９,,26,107,6018015,,,,,,,2025-01-28,1,,,,,マーレス,0
2043,3130003010170,新規,0,2025-01-28,2025-01-28,合同会社アテリス,,合同会社,京都府,京都市中京区,西ノ京御輿岡町１０番地３０１号,,26,104,6048451,,,,,,,2025-01-28,1,,,,,アテリス,0
2050,3140001137196,新規,0,2025-01-28,2025-01-28,株式会社Ａｖｅｎｉｒ,,株式会社,兵庫県,宝塚市,安倉中５丁目２２番３－３０６号,,28,214,6650822,,,,,,,2025-01-28,1,,,,,アヴニール,0
2051,3140001137213,新規,0,2025-01-28,2025-01-28,株式会社つぼみ,,株式会社,兵庫県,神戸市長田区,若松町１１丁目６番１号,,28,106,6530038,,,,,,,2025-01-28,1,,,,,ツボミ,0
2052,3140001137221,新規,0,2025-01-28,2025-01-28,Ｒｅ．ｃｉａ　ＩＮＴＥＲＮＡＴＩＯＮＡＬ株式会社,,株式会社,兵庫県,神戸市中央区,中山手通２丁目１５番１３号サンシャイン山手６０１,,28,110,6500004,,,,,,,2025-01-28,1,,,,,レシアインターナショナル,0
2056,3160001026505,新規,0,2025-01-28,2025-01-28,株式会社ＥＢｉｎｇ,,株式会社,滋賀県,草津市,西渋川１丁目８番５－４号,,25,206,5250025,,,,,,,2025-01-28,1,,,,,エビング,0
2057,3160005011370,新規,0,2025-01-28,2025-01-28,特定非営利活動法人Ｌａａｆｉｉラーフィー,,その他の設立登記法人,滋賀県,大津市,御幸町４－８,,25,201,5200057,,,,,,,2025-01-28,1,,,,,ラーフィーラーフィー,0
2063,3180001165111,新規,0,2025-01-28,2025-01-28,イーコンサルティング株式会社,,株式会社,愛知県,東海市,名和町馬坂３６番地１,,23,222,4760002,,,,,,,2025-01-28,1,,,,,イーコンサルティング,0
2064,3180001165128,新規,0,2025-01-28,2025-01-28,株式会社ＯＮＥモトーレン,,株式会社,愛知県,名古屋市中区,栄４丁目１番１号中日ビル１５階,,23,106,4600008,,,,,,,2025-01-28,1,,,,,ワンモトーレン,0
2065,3180001165160,新規,0,2025-01-28,2025-01-28,株式会社タニグチルーフ,,株式会社,愛知県,尾張旭市,霞ケ丘町中１１１番地,,23,226,4880846,,,,,,,2025-01-28,1,,,,,タニグチルーフ,0
2066,3180001165169,新規,0,2025-01-28,2025-01-28,Ｆｕｔｕｒｅ　Ｂｒｅｗｅｒｙ株式会社,,株式会社,愛知県,名古屋市中区,栄３丁目１８番１号ナゴヤイノベーターズガレージ内,,23,106,4600008,,,,,,,2025-01-28,1,,,,,フューチャーブルワリー,0
2067,3180001165193,新規,0,2025-01-28,2025-01-28,株式会社杜鵑草,,株式会社,愛知県,名古屋市中村区,日比津町１丁目７番４号,,23,105,4530061,,,,,,,2025-01-28,1,,,,,ホトトギス,0
2068,3180001165227,新規,0,2025-01-28,2025-01-28,株式会社ＰＲｅＣＨＩＥｎｔ,,株式会社,愛知県,名古屋市中村区,佐古前町１３番５６号スリーエイトキミ３０２号,,23,105,4530018,,,,,,,2025-01-28,1,,,,,プレッチェント,0
2070,3180005020931,新規,0,2025-01-28,2025-01-28,一般社団法人中部女子硬式野球連盟,,その他の設立登記法人,愛知県,一宮市,牛野通４番地１５,,23,203,4910000,,,,,,,2025-01-28,1,,,,,チュウブジョシコウシキヤキュウレンメイ,0
2072,3180301039469,新規,0,2025-01-28,2025-01-28,株式会社ＤＥＥＰ　ＢＬＵＥ,,株式会社,愛知県,西尾市,下矢田町観音前１８番地１,,23,213,4440314,,,,,,,2025-01-28,1,,,,,ディープブルー,0
2073,3180303006442,新規,0,2025-01-28,2025-01-28,合同会社羅針盤,,合同会社,愛知県,豊橋市,小島町字峠９４番地２４,,23,201,4413122,,,,,,,2025-01-28,1,,,,,ラシンバン,0
2077,3200003006681,新規,0,2025-01-28,2025-01-28,合同会社ｍｙワークインライフ,,合同会社,岐阜県,岐阜市,田神６番地６‐３０１,,21,201,5008158,,,,,,,2025-01-28,1,,,,,マイワークインライフ,0
2080,3220003003941,新規,0,2025-01-28,2025-01-28,合同会社氣月,,合同会社,石川県,羽咋市,寺家町セ２６番地２,,17,207,9250003,,,,,,,2025-01-28,1,,,,,,0
2082,3240005015883,新規,0,2025-01-28,2025-01-28,一般社団法人介助組合,,その他の設立登記法人,広島県,尾道市,美ノ郷町三成２２７９番地６４,,34,205,7220215,,,,,,,2025-01-28,1,,,,,カイジョクミアイ,0
2088,3280001009340,新規,0,2025-01-28,2025-01-28,株式会社Ｎｏ．ｉ３,,株式会社,島根県,出雲市,中野美保南１丁目６番地４,,32,203,6930082,,,,,,,2025-01-28,1,,,,,,0
2096,3290001108703,新規,0,2025-01-28,2025-01-28,株式会社武田建設,,株式会社,福岡県,朝倉市,三奈木１４６７番地１,,40,228,8380023,,,,,,,2025-01-28,1,,,,,タケダケンセツ,0
2097,3290001108711,新規,0,2025-01-28,2025-01-28,寶琳株式会社,,株式会社,福岡県,福岡市西区,愛宕１丁目１７番１２－５０２号,,40,135,8190015,,,,,,,2025-01-28,1,,,,,ホウリン,0
2098,3290003016326,新規,0,2025-01-28,2025-01-28,合同会社心音,,合同会社,福岡県,福岡市南区,中尾２丁目４６番１４号,,40,134,8111364,,,,,,,2025-01-28,1,,,,,ココネ,0
2101,3290005019632,新規,0,2025-01-28,2025-01-28,特定非営利活動法人ぽこの会,,その他の設立登記法人,福岡県,福岡市博多区,中洲５丁目３番２０－２０７号エンクレスト博多ハーモニー,,40,132,8100801,,,,,,,2025-01-28,1,,,,,,0
2103,3310005008822,新規,0,2025-01-28,2025-01-28,特定非営利活動法人じげもん,,その他の設立登記法人,長崎県,大村市,坂口町３９３番地４,,42,205,8560028,,,,,,,2025-01-28,1,,,,,ジゲモン,0
2120,3360001034727,新規,0,2025-01-28,2025-01-28,株式会社まぶい,,株式会社,沖縄県,石垣市,字石垣２７３番地２,,47,207,9070023,,,,,,,2025-01-28,1,,,,,マブイ,0
2121,3360003014628,新規,0,2025-01-28,2025-01-28,合同会社グローバルリング,,合同会社,沖縄県,浦添市,沢岻１丁目２８番７号,,47,208,9012112,,,,,,,2025-01-28,1,,,,,グローバルリング,0
2123,3390001005865,新規,0,2025-01-28,2025-01-28,株式会社下大湯,,株式会社,山形県,上山市,十日町９番３０号,,06,207,9993153,,,,,,,2025-01-28,1,,,,,シモオオユ,0
2127,3400003003386,新規,0,2025-01-28,2025-01-28,合同会社ＡＭＢＥＲ,,合同会社,岩手県,盛岡市,岩脇町１８－３４,,03,201,0200101,,,,,,,2025-01-28,1,,,,,アンバー,0
2135,3430001093550,新規,0,2025-01-28,2025-01-28,株式会社ＰＡＬ‐ＴＥＣＨ,,株式会社,北海道,札幌市中央区,南五条西１５丁目２番３－５０３,,01,101,0640805,,,,,,,2025-01-28,1,,,,,パルテック,0
2146,3700150128996,新規,0,2025-01-28,2025-01-28,ＷＡＧＯＮ　ＷＨＥＥＬＳ　ＰＶＴ　ＬＴＤ,,外国会社等,千葉県,八街市,東吉田７２５番地ビジネスオフィス３５号,,12,230,2891114,スリランカ民主社会主義共和国、キャンディ、アクラナ、ブルゴハテンナ、Ｎｏ．２９０／Ａ／２,,,,,,2025-01-28,1,,,,,ワゴンホイールズプライベートリミテツド,0
2158,4010001251703,新規,0,2025-01-28,2025-01-28,あかね株式会社,,株式会社,東京都,千代田区,外神田２丁目１番８スクエア秋葉原１０７号,,13,101,1010021,,,,,,,2025-01-28,1,,,,,アカネ,0
2159,4010001251785,新規,0,2025-01-28,2025-01-28,株式会社エリナビ,,株式会社,東京都,中央区,銀座１丁目１２番４号Ｎ＆Ｅ、ＢＬＤ．７階,,13,102,1040061,,,,,,,2025-01-28,1,,,,,エリナビ,0
2160,4010001251793,新規,0,2025-01-28,2025-01-28,天誠産業株式会社,,株式会社,東京都,中央区,新川１丁目７番１号,,13,102,1040033,,,,,,,2025-01-28,1,,,,,テンセイサンギョウ,0
2161,4010001251810,新規,0,2025-01-28,2025-01-28,Ａ＆Ｙ株式会社,,株式会社,東京都,中央区,日本橋茅場町２丁目１４番８号,,13,102,1030025,,,,,,,2025-01-28,1,,,,,エーアンドワイ,0
2162,4010001251835,新規,0,2025-01-28,2025-01-28,株式会社ラッキーコンセプト,,株式会社,東京都,千代田区,神田錦町３丁目１３番地７名古路ビル本館１階,,13,101,1010054,,,,,,,2025-01-28,1,,,,,ラッキーコンセプト,0
2165,4010003046184,新規,0,2025-01-28,2025-01-28,Ｏｃｔａｖｅ　Ｒｅａｌ　Ｅｓｔａｔｅ　Ｊｉｎｇｕｍａｅ１２３合同会社,,合同会社,東京都,千代田区,霞が関３丁目２番５号,,13,101,1000013,,,,,,,2025-01-28,1,,,,,オクターブリアルエステートジングウマエワンツースリー,0
2166,4010003046242,新規,0,2025-01-28,2025-01-28,トリピックル合同会社,,合同会社,東京都,千代田区,丸の内１丁目４番１号東京共同会計事務所内,,13,101,1000005,,,,,,,2025-01-28,1,,,,,トリピックル,0
2167,4010101016502,新規,0,2025-01-28,2025-01-28,株式会社ＢＹＣ,,株式会社,東京都,八王子市,狭間町１９９４番地５４３,,13,201,1930941,,,,,,,2025-01-28,1,,,,,ビーワイーシー,0
2172,4010401187778,新規,0,2025-01-28,2025-01-28,株式会社超銀河レコード,,株式会社,東京都,港区,芝４丁目１番２８号ＰＭＯ田町ＩＩＩ７Ｆ,00137798,13,103,1080014,,,,,,,2025-01-28,1,,,,,チョウギンガレコード,0
2173,4010401187852,新規,0,2025-01-28,2025-01-28,株式会社ＩＧ,,株式会社,東京都,港区,北青山１丁目３番１号アールキューブ青山３階,,13,103,1070061,,,,,,,2025-01-28,1,,,,,アイジー,0
2174,4010401187869,新規,0,2025-01-28,2025-01-28,Ｌ’ｅｔｏｉｌｅ株式会社,,株式会社,東京都,港区,南青山３丁目１番３６号青山丸竹ビル６Ｆ,,13,103,1070062,,,,,,,2025-01-28,1,,,,,レトワール,0
2177,4010403034276,新規,0,2025-01-28,2025-01-28,ＧＳＳＧ　Ｓｏｌａｒ　Ｊａｐａｎ　Ｈｏｌｄｉｎｇｓ２０合同会社,,合同会社,東京都,港区,高輪１丁目３番１３号ＮＢＦ高輪ビル７階,,13,103,1080074,,,,,,,2025-01-28,1,,,,,ジーエスエスジーソーラージャパンホールディングストゥエンティ,0
2181,4010405023979,新規,0,2025-01-28,2025-01-28,一般社団法人日本細胞遺伝子治療研究所,,その他の設立登記法人,東京都,港区,麻布十番３丁目１０番１号,,13,103,1060045,,,,,,,2025-01-28,1,,,,,ニホンサイボウイデンシチリョウケンキュウジョ,0
2182,4010405024044,新規,0,2025-01-28,2025-01-28,ＧＳＳＧ　Ｓｏｌａｒ　Ｊａｐａｎ　Ｈｏｌｄｉｎｇｓ１８一般社団法人,,その他の設立登記法人,東京都,港区,赤坂１丁目１１番４４号赤坂インターシティ５階Ｆｏｒｖｉｓ・Ｍａｚａｒｓ・Ｊａｐａｎ株式会社内,,13,103,1070052,,,,,,,2025-01-28,1,,,,,ジーエスエスジーソーラージャパンホールディングスエイティーン,0
2308,4010501053509,新規,0,2025-01-28,2025-01-28,檸檬株式会社,,株式会社,東京都,台東区,竜泉３丁目３１番１３号尚禾ビル５０２号室,,13,106,1100012,,,,,,,2025-01-28,1,,,,,レモン,0
2312,4010901056722,新規,0,2025-01-28,2025-01-28,株式会社ノーマンズギア,,株式会社,東京都,世田谷区,太子堂４丁目１８番１５号マガザン三軒茶屋２－３Ｆ－３,,13,112,1540004,,,,,,,2025-01-28,1,,,,,ノーマンズギア,0
2313,4010901056730,新規,0,2025-01-28,2025-01-28,株式会社アンタイトル,,株式会社,東京都,世田谷区,代沢４丁目２７番地８号クウェストスクエア代沢３０３号室,,13,112,1550032,,,,,,,2025-01-28,1,,,,,アンタイトル,0
2329,4011101110377,新規,0,2025-01-28,2025-01-28,株式会社ＭＫＣ,,株式会社,東京都,新宿区,西新宿８丁目１番２号ＰＭＯ西新宿６０７,,13,104,1600023,,,,,,,2025-01-28,1,,,,,エムケーシー,0
2330,4011101110402,新規,0,2025-01-28,2025-01-28,株式会社ヒロマネジメント,,株式会社,東京都,新宿区,西新宿６丁目１２番６号,,13,104,1600023,,,,,,,2025-01-28,1,,,,,ヒロマネジメント,0
2331,4011101110410,新規,0,2025-01-28,2025-01-28,日清食品ダイレクトマーケティング株式会社,,株式会社,東京都,新宿区,新宿６丁目２８番１号,,13,104,1600022,,,,,,,2025-01-28,1,,,,,ニッシンショクヒンダイレクトマーケティング,0
2332,4011101110419,新規,0,2025-01-28,2025-01-28,株式会社西田仁勇,,株式会社,東京都,新宿区,高田馬場３丁目１番５号サンパティオ高田馬場３０９号室,,13,104,1690075,,,,,,,2025-01-28,1,,,,,ニシダマサオ,0
2333,4011101110427,新規,0,2025-01-28,2025-01-28,株式会社ＬＵＭＩＮＡ,,株式会社,東京都,新宿区,西新宿４丁目２３番１号近喰アパート２０２,,13,104,1600023,,,,,,,2025-01-28,1,,,,,ルミナ,0
2336,4011103015459,新規,0,2025-01-28,2025-01-28,合同会社ワデイズ,,合同会社,東京都,新宿区,高田馬場２丁目１９番８号３０３,,13,104,1690075,,,,,,,2025-01-28,1,,,,,ワデイズ,0
2338,4011201026085,新規,0,2025-01-28,2025-01-28,株式会社ブルーストーリー,,株式会社,東京都,中野区,新井１丁目３６番１３号,,13,114,1650026,,,,,,,2025-01-28,1,,,,,ブルーストーリー,0
2339,4011301030318,新規,0,2025-01-28,2025-01-28,株式会社ヴェリナルクス,,株式会社,東京都,杉並区,荻窪５丁目２６番３号ニューライフ荻窪１Ａ,,13,115,1670051,,,,,,,2025-01-28,1,,,,,ヴェリナルクス,0
2414,4011501031628,新規,0,2025-01-28,2025-01-28,三木ホールディングス株式会社,,株式会社,東京都,北区,赤羽西４丁目２１番１４号Ａ１０１,,13,117,1150055,,,,,,,2025-01-28,1,,,,,ミキホールディングス,0
2415,4011501031636,新規,0,2025-01-28,2025-01-28,株式会社ｃｏｌｏｒ,,株式会社,東京都,荒川区,南千住４丁目７番３号,,13,118,1160003,,,,,,,2025-01-28,1,,,,,カラー,0
2416,4011503006396,新規,0,2025-01-28,2025-01-28,新谷商事合同会社,,合同会社,東京都,荒川区,西日暮里３丁目９番４号,,13,118,1160013,,,,,,,2025-01-28,1,,,,,アラヤショウジ,0
2421,4011801045518,新規,0,2025-01-28,2025-01-28,株式会社エレファントパートナーズ,,株式会社,東京都,葛飾区,お花茶屋３丁目２７番５号ブルーメンハイム１０１号,,13,122,1240003,,,,,,,2025-01-28,1,,,,,エレファントパートナーズ,0
2422,4011801045542,新規,0,2025-01-28,2025-01-28,株式会社日本情報ファクトリー,,株式会社,東京都,足立区,加平３丁目１５番３－４０４号,,13,121,1210055,,,,,,,2025-01-28,1,,,,,,0
2493,4020001161026,新規,0,2025-01-28,2025-01-28,Ｑｗｅｒｔｙ株式会社,,株式会社,神奈川県,川崎市中原区,小杉陣屋町１丁目２２番４７号アルファ永寿２０１,,14,133,2110062,,,,,,,2025-01-28,1,,,,,クワーティ,0
2497,4021001084308,新規,0,2025-01-28,2025-01-28,株式会社Ｉ．Ｏ．Ｋ,,株式会社,神奈川県,厚木市,妻田北１丁目１２番３０号,,14,212,2430812,,,,,,,2025-01-28,1,,,,,アイオーケー,0
2498,4021001084340,新規,0,2025-01-28,2025-01-28,株式会社リベルカ,,株式会社,神奈川県,相模原市緑区,与瀬１０６２番地８,,14,151,2520171,,,,,,,2025-01-28,1,,,,,リベルカ,0
2501,4021003015517,新規,0,2025-01-28,2025-01-28,ＨＩＲＯＫＡ　ＩＮＴＥＲＮＡＴＩＯＮＡＬ合同会社,,合同会社,神奈川県,海老名市,本郷４６８６－１,,14,215,2430417,,,,,,,2025-01-28,1,,,,,ヒロカインターナショナル,0
2508,4030001164564,新規,0,2025-01-28,2025-01-28,Ｓｍａｒｔ　Ａｒｒａｙ株式会社,,株式会社,埼玉県,さいたま市大宮区,東町２丁目１６２番地２,,11,103,3300841,,,,,,,2025-01-28,1,,,,,スマートアレイ,0
2509,4030001164580,新規,0,2025-01-28,2025-01-28,ＨａｐｐｙＴａｂｌｅ株式会社,,株式会社,埼玉県,所沢市,上新井１丁目３５番地の１７,,11,208,3591142,,,,,,,2025-01-28,1,,,,,ハッピーテーブル,0
2514,4030003025970,新規,0,2025-01-28,2025-01-28,ジャパンエステート合同会社,,合同会社,埼玉県,深谷市,武蔵野４０２９番地１,,11,218,3691241,,,,,,,2025-01-28,1,,,,,ジャパンエステート,0
2515,4030005022017,新規,0,2025-01-28,2025-01-28,一般社団法人かけはし,,その他の設立登記法人,埼玉県,川口市,大字神戸１４６番地の１,,11,203,3330832,,,,,,,2025-01-28,1,,,,,カケハシ,0
2517,4040001137180,新規,0,2025-01-28,2025-01-28,株式会社Ｌｕｚ,,株式会社,千葉県,船橋市,夏見台２丁目２１番５号,,12,204,2730866,,,,,,,2025-01-28,1,,,,,ルース,0
2518,4040001137189,新規,0,2025-01-28,2025-01-28,株式会社新千葉新港学校給食,,株式会社,千葉県,千葉市美浜区,新港６２番地,,12,106,2610002,,,,,,,2025-01-28,1,,,,,シンチバシンミナトガッコウキュウショク,0
2521,4040003026704,新規,0,2025-01-28,2025-01-28,合同会社ＫＮＯＴ,,合同会社,千葉県,印西市,戸神台１丁目１８番地２－６１１号,,12,231,2701349,,,,,,,2025-01-28,1,,,,,ノット,0
2522,4040003026712,新規,0,2025-01-28,2025-01-28,キズナインク合同会社,,合同会社,千葉県,市川市,中国分５丁目９番３号,,12,203,2720835,,,,,,,2025-01-28,1,,,,,キズナインク,0
2525,4070001042584,新規,0,2025-01-28,2025-01-28,株式会社Ｙ’ｓコーポレーション,,株式会社,群馬県,邑楽郡大泉町,西小泉５丁目１２番１０－３０４号ブレインコート・アイビス,,10,524,3700517,,,,,,,2025-01-28,1,,,,,ワイズコーポレーション,0
2529,4080401027705,新規,0,2025-01-28,2025-01-28,株式会社和水,,株式会社,静岡県,浜松市中央区,貴平町５４３番地,,22,138,4313104,,,,,,,2025-01-28,1,,,,,ナゴミ,0
2530,4080405007703,新規,0,2025-01-28,2025-01-28,一般社団法人マイエンハンスメント,,その他の設立登記法人,静岡県,浜松市中央区,中央２丁目１０番１号青色会館３階,,22,138,4300929,,,,,,,2025-01-28,1,,,,,マイエンハンスメント,0
2532,4090001019110,新規,0,2025-01-28,2025-01-28,株式会社Ｎｏａｈ　Ｅｓｔａｔｅ,,株式会社,山梨県,甲府市,下飯田１丁目１１番４７号,,19,201,4000064,,,,,,,2025-01-28,1,,,,,ノアエステート,0
2533,4100001038199,新規,0,2025-01-28,2025-01-28,株式会社長野プロテクノ,,株式会社,長野県,上田市,上丸子８８４番地３,,20,203,3860404,,,,,,,2025-01-28,1,,,,,ナガノプロテクノ,0
2534,4100001038240,新規,0,2025-01-28,2025-01-28,株式会社マルセン,,株式会社,長野県,小県郡青木村,大字奈良本７６１番地８,,20,349,3861607,,,,,,,2025-01-28,1,,,,,マルセン,0
2535,4100005013289,新規,0,2025-01-28,2025-01-28,団子エナジーパワー一般社団法人,,その他の設立登記法人,長野県,上田市,古里７７７番地３,,20,203,3860005,,,,,,,2025-01-28,1,,,,,ダンゴエナジーパワー,0
2552,4120001272135,新規,0,2025-01-28,2025-01-28,株式会社ｍｉｒａｉｅ,,株式会社,大阪府,大阪市住之江区,西加賀屋３丁目１８－１１－１０１,,27,125,5590016,,,,,,,2025-01-28,1,,,,,ミライヘ,0
2553,4120001272192,新規,0,2025-01-28,2025-01-28,株式会社バレンタイン,,株式会社,大阪府,大阪市北区,豊崎３丁目１６番１６－３００２号,,27,127,5310072,,,,,,,2025-01-28,1,,,,,バレンタイン,0
2554,4120001272291,新規,0,2025-01-28,2025-01-28,幸原株式会社,,株式会社,大阪府,大阪市東淀川区,東中島１丁目５－２５－９０４,,27,114,5330033,,,,,,,2025-01-28,1,,,,,コウハラ,0
2555,4120001272309,新規,0,2025-01-28,2025-01-28,株式会社ＫＫ,,株式会社,大阪府,門真市,小路町２７番３号,,27,223,5710058,,,,,,,2025-01-28,1,,,,,ケイケイ,0
2558,4120003028477,新規,0,2025-01-28,2025-01-28,Ｐｅｔｒａ合同会社,,合同会社,大阪府,大阪市天王寺区,東高津町１２番１３－１５０１号,,27,109,5430021,,,,,,,2025-01-28,1,,,,,ペトラ,0
2559,4120003028485,新規,0,2025-01-28,2025-01-28,ユーソー合同会社,,合同会社,大阪府,守口市,梶町４丁目９番２５号,,27,209,5700015,,,,,,,2025-01-28,1,,,,,ユーソー,0
2560,4120005024763,新規,0,2025-01-28,2025-01-28,医療法人紘律会,,その他の設立登記法人,大阪府,寝屋川市,昭栄町１４番８号Ｊホーム医療ビル１階,,27,215,5720834,,,,,,,2025-01-28,1,,,,,コウリツカイ,0
2562,4120101070959,新規,0,2025-01-28,2025-01-28,株式会社河内電工,,株式会社,大阪府,堺市西区,上６０８－１７,,27,144,5938311,,,,,,,2025-01-28,1,,,,,カワチデンコウ,0
2567,4120905006679,新規,0,2025-01-28,2025-01-28,医療法人ひとら会,,その他の設立登記法人,大阪府,高槻市,西冠３丁目２９番７号関西スーパー西冠店１階,,27,207,5690055,,,,,,,2025-01-28,1,,,,,ヒトラカイ,0
2762,4140003021570,新規,0,2025-01-28,2025-01-28,合同会社おおたにさんのフルーツチョコ,,合同会社,兵庫県,川西市,栄町３－２,,28,217,6660033,,,,,,,2025-01-28,1,,,,,オオタニサンノフルーツチョコ,0
2763,4140003021587,新規,0,2025-01-28,2025-01-28,ラッキートリオ合同会社,,合同会社,兵庫県,神戸市中央区,中山手通７丁目８－１４ベイヒル山の手３０６号,,28,110,6500004,,,,,,,2025-01-28,1,,,,,ラッキートリオ,0
2776,4180001165143,新規,0,2025-01-28,2025-01-28,株式会社三昧,,株式会社,愛知県,名古屋市中区,丸の内３丁目２０番５号６０１号,,23,106,4600002,,,,,,,2025-01-28,1,,,,,サンマイ,0
2777,4180001165151,新規,0,2025-01-28,2025-01-28,株式会社バイ・ステップ,,株式会社,愛知県,名古屋市中村区,名駅南１丁目１１番１２号Ｋｉｎｊｉｒｏ名駅Ｍｉｎａｍｉビル１Ｆ,,23,105,4500003,,,,,,,2025-01-28,1,,,,,バイステップ,0
2778,4180001165168,新規,0,2025-01-28,2025-01-28,ワイユー株式会社,,株式会社,愛知県,知多郡武豊町,字祠峯１丁目４１番地,00137808,23,447,4702303,,,,,,,2025-01-28,1,,,,,ワイユー,0
2779,4180001165192,新規,0,2025-01-28,2025-01-28,株式会社クラッシハウス,,株式会社,愛知県,小牧市,藤島１丁目２３９番地,,23,219,4850068,,,,,,,2025-01-28,1,,,,,クラッシハウス,0
2781,4180003027903,新規,0,2025-01-28,2025-01-28,野口ケミカル合同会社,,合同会社,愛知県,名古屋市中村区,名駅３丁目４－１０アルティメイト名駅１ｓｔ２階,,23,105,4500002,,,,,,,2025-01-28,1,,,,,ノグチケミカル,0
2784,4180303006441,新規,0,2025-01-28,2025-01-28,合同会社社ＭＵＳＩＣＡ　ＦＩＯＲＥ,,合同会社,愛知県,田原市,田原町晩田２０番地１０,,23,231,4413421,,,,,,,2025-01-28,1,,,,,ムジカフィオーレ,0
2793,4200001043362,新規,0,2025-01-28,2025-01-28,株式会社ｍｉｍｉ,,株式会社,岐阜県,岐阜市,柳津町流通センター１丁目１８番地３,,21,201,5016123,,,,,,,2025-01-28,1,,,,,ミミ,0
2794,4200001043379,新規,0,2025-01-28,2025-01-28,株式会社ＨＯＤ,,株式会社,岐阜県,恵那市,岩村町飯羽間２６７１番地１,,21,210,5097401,,,,,,,2025-01-28,1,,,,,,0
2795,4200003006680,新規,0,2025-01-28,2025-01-28,Ｌａｋｍａｌ　Ｍｏｔｏｒ　Ｊａｐａｎ合同会社,,合同会社,岐阜県,土岐市,妻木町３０５３番地の２６,,21,212,5095301,,,,,,,2025-01-28,1,,,,,ラックマルモータージャパン,0
2796,4200005013709,新規,0,2025-01-28,2025-01-28,特定非営利活動法人あおいねっと,,その他の設立登記法人,岐阜県,多治見市,笠原町３５５５番地の１,,21,204,5070901,,,,,,,2025-01-28,1,,,,,アオイネット,0
2797,4210001020039,新規,0,2025-01-28,2025-01-28,株式会社松栄建材,,株式会社,福井県,敦賀市,公文名５４号１１番地の１１,,18,202,9140131,,,,,,,2025-01-28,1,,,,,ショウエイケンザイ,0
2801,4230001020722,新規,0,2025-01-28,2025-01-28,株式会社リトルハーバー,,株式会社,富山県,魚津市,大字大海寺野村１１７２番地３９,,16,204,9370000,,,,,,,2025-01-28,1,,,,,リトルハーバー,0
2804,4250003003640,新規,0,2025-01-28,2025-01-28,ｎｅｏ‐ｔｅｃ　ｆｏｒｅｓｔ　ｗｏｒｋｓ合同会社,,合同会社,山口県,宇部市,大字西吉部１６６４番地１,,35,202,7570402,,,,,,,2025-01-28,1,,,,,ネオテックフォレストワークス,0
2806,4260001039859,新規,0,2025-01-28,2025-01-28,株式会社Ｒｅ　ＬＩＦＥ,,株式会社,岡山県,倉敷市,北畝１丁目１３－５,,33,202,7128032,,,,,,,2025-01-28,1,,,,,リライフ,0
2811,4290001108743,新規,0,2025-01-28,2025-01-28,株式会社善導,,株式会社,福岡県,福岡市早良区,田村３丁目１９番１２号,,40,137,8140175,,,,,,,2025-01-28,1,,,,,ゼンドウ,0
2813,4290801031228,新規,0,2025-01-28,2025-01-28,プランズ太陽石株式会社,,株式会社,福岡県,北九州市八幡西区,東鳴水２丁目５番５号,,40,109,8060051,,,,,,,2025-01-28,1,,,,,プランズタイヨウセキ,0
2814,4300001014064,新規,0,2025-01-28,2025-01-28,株式会社甘陣屋コーポレーション,,株式会社,佐賀県,佐賀市,西与賀町大字高太郎２５３番地１,,41,201,8400036,,,,,,,2025-01-28,1,,,,,カンジンヤコーポレーション,0
2817,4320001020911,新規,0,2025-01-28,2025-01-28,エム・システム株式会社,,株式会社,大分県,国東市,国東町小原２５０４番地,,44,214,8730511,,,,,,,2025-01-28,1,,,,,エムシステム,0
2819,4320003004565,新規,0,2025-01-28,2025-01-28,合同会社Ｓｔａｒ　Ｒｉｓｅ,,合同会社,大分県,別府市,大字北石垣１０９２番地の２河彦ビル３０５号,,44,202,8740000,,,,,,,2025-01-28,1,,,,,スターライズ,0
2836,4340003004729,新規,0,2025-01-28,2025-01-28,合同会社Ｒｃｏｎｎｅｃｔｉｏｎ,,合同会社,鹿児島県,日置市,伊集院町下谷口１０２７番地２１,,46,216,8992501,,,,,,,2025-01-28,1,,,,,アールコネクション,0
2837,4350001019380,新規,0,2025-01-28,2025-01-28,株式会社ＧＭ,,株式会社,宮崎県,延岡市,無鹿町２丁目３２５１番地６,,45,203,8820021,,,,,,,2025-01-28,1,,,,,ジーエム,0
2838,4360001034726,新規,0,2025-01-28,2025-01-28,株式会社Ｃｈａｒｍ,,株式会社,沖縄県,沖縄市,与儀１丁目６番４６号グランディールアカツキヒルズ２０５,,47,211,9042174,,,,,,,2025-01-28,1,,,,,チャーム,0
2848,4380003005946,新規,0,2025-01-28,2025-01-28,合同会社双建,,合同会社,福島県,須賀川市,上北町１５１番地,,07,207,9620841,,,,,,,2025-01-28,1,,,,,ソウケン,0
2850,4410001014045,新規,0,2025-01-28,2025-01-28,株式会社ｄｏｃｋａ　ＬＡＢ,,株式会社,秋田県,大仙市,大花町２５番８号,,05,212,0140022,,,,,,,2025-01-28,1,,,,,ドッカラボ,0
2853,4420003003061,新規,0,2025-01-28,2025-01-28,青森フォレストホテルアネックス合同会社,,合同会社,青森県,青森市,本町２丁目５番１８号,,02,201,0300802,,,,,,,2025-01-28,1,,,,,アオモリフォレストホテルアネックス,0
2855,4430001093541,新規,0,2025-01-28,2025-01-28,株式会社臨濤館,,株式会社,北海道,小樽市,花園３丁目４番６号,,01,203,0470024,,,,,,,2025-01-28,1,,,,,リントウカン,0
2856,4430001093558,新規,0,2025-01-28,2025-01-28,ＴｏＳＯ　ｈｏｍｅ株式会社,,株式会社,北海道,札幌市中央区,南五条西１５丁目２番３号リズム医大前５０３号室,,01,101,0640805,,,,,,,2025-01-28,1,,,,,トーソーホーム,0
2858,4430003017218,新規,0,2025-01-28,2025-01-28,合同会社Ｖｏｌｐｅ,,合同会社,北海道,札幌市豊平区,美園十二条７丁目４番１９号奥寺ハイツ１０３号,,01,105,0620012,,,,,,,2025-01-28,1,,,,,ヴォルペ,0
2860,4430005015145,新規,0,2025-01-28,2025-01-28,一般社団法人Ｌｉｅｎ　Ｃｕｌｔｕｒｅ,,その他の設立登記法人,北海道,札幌市南区,真駒内２５４番地１９号,,01,106,0050861,,,,,,,2025-01-28,1,,,,,リアンカルチャー,0
2867,4490001010945,新規,0,2025-01-28,2025-01-28,株式会社ＮＩＣＯＬＩＦＥホールディングス,,株式会社,高知県,土佐市,高岡町乙３３３２番地２,,39,205,7811102,,,,,,,2025-01-28,1,,,,,ニコライフホールディングス,0
2871,4700150128995,新規,0,2025-01-28,2025-01-28,ＺＡＲＡ　ＩＮＴＥＲＮＡＴＩＯＮＡＬ,,外国会社等,千葉県,八街市,東吉田７２５番地ビジネスオフィス３３号,,12,230,2891114,スリランカ民主社会主義共和国、キャンディ、ペラデニヤロード、Ｎｏ．５２２／１,,,,,,2025-01-28,1,,,,,ザラインターナシヨナル,0
2872,4700150129003,新規,0,2025-01-28,2025-01-28,蘇州市小パ蔡科技有限公司,,外国会社等,,,,,,,,蘇州市高新区青花路６号６幢２楼８３４室,,,,,,2025-01-28,1,,,,,ソシュウシショウパサイカギユウゲンコウシ,0
2876,5010001251693,新規,0,2025-01-28,2025-01-28,拓米国際株式会社,,株式会社,東京都,中央区,晴海２丁目３番３０－３３０４号,,13,102,1040053,,,,,,,2025-01-28,1,,,,,トミコクサイ,0
2877,5010001251702,新規,0,2025-01-28,2025-01-28,株式会社ＣａｒｅＣｒａｆｔ,,株式会社,東京都,中央区,日本橋小伝馬町８番１号Ｔ４ビル４階,,13,102,1030001,,,,,,,2025-01-28,1,,,,,ケアクラフト,0
2878,5010001251784,新規,0,2025-01-28,2025-01-28,ダイヤアシュレ株式会社,,株式会社,東京都,千代田区,丸の内１丁目５番１号,,13,101,1000005,,,,,,,2025-01-28,1,,,,,ダイヤアシュレ,0
2881,5010003046175,新規,0,2025-01-28,2025-01-28,ＢｉｏＬａｂｓ　Ｊａｐａｎ合同会社,,合同会社,東京都,中央区,日本橋室町１丁目５番５号,,13,102,1030022,,,,,,,2025-01-28,1,,,,,バイオラブスジャパン,0
2882,5010003046183,新規,0,2025-01-28,2025-01-28,ＨＢＳエナジー２号合同会社,,合同会社,東京都,千代田区,紀尾井町４番１号ニューオータニガーデンコート１９階フィンポート税理士法人内,,13,101,1020094,,,,,,,2025-01-28,1,,,,,エイチビーエスエナジーニゴウ,0
2883,5010003046191,新規,0,2025-01-28,2025-01-28,ＴｏｙｏｍｉＡＩ合同会社,,合同会社,東京都,中央区,銀座１丁目１２番４号Ｎ＆ＥＢＬＤ．６階,,13,102,1040061,,,,,,,2025-01-28,1,,,,,トヨミエーアイ,0
2884,5010005039458,新規,0,2025-01-28,2025-01-28,一般社団法人不動産投資診断協会,,その他の設立登記法人,東京都,中央区,日本橋浜町２丁目２５番２号,,13,102,1030007,,,,,,,2025-01-28,1,,,,,フドウサントウシシンダンキョウカイ,0
2890,5010103002499,新規,0,2025-01-28,2025-01-28,合同会社ＲＪギケン,,合同会社,東京都,八王子市,初沢町１２２７番地４高尾パークハイツＡ－１３２３号,,13,201,1930845,,,,,,,2025-01-28,1,,,,,アールジェイギケン,0
2894,5010401187760,新規,0,2025-01-28,2025-01-28,株式会社梅馨文,,株式会社,東京都,港区,南青山３丁目１番３６号青山丸竹ビル６Ｆ,,13,103,1070062,,,,,,,2025-01-28,1,,,,,バイケイモン,0
2895,5010401187785,新規,0,2025-01-28,2025-01-28,漣株式会社,,株式会社,東京都,港区,南青山２丁目２番１５号ウィン青山１２１４号,,13,103,1070062,,,,,,,2025-01-28,1,,,,,サザナミ,0
2896,5010401187851,新規,0,2025-01-28,2025-01-28,株式会社ｉＣＯＮ,,株式会社,東京都,港区,南青山３丁目１番３６号青山丸竹ビル６Ｆ,,13,103,1070062,,,,,,,2025-01-28,1,,,,,アイコン,0
2898,5010403034267,新規,0,2025-01-28,2025-01-28,合同会社ＬＡＲＧＥ　ＲＩＣＥ,,合同会社,東京都,港区,南青山３丁目１番３６号青山丸竹ビル６階,,13,103,1070062,,,,,,,2025-01-28,1,,,,,ラージライス,0
2899,5010403034275,新規,0,2025-01-28,2025-01-28,ＧＳＳＧ　Ｓｏｌａｒ　Ｊａｐａｎ　Ｈｏｌｄｉｎｇｓ１６合同会社,,合同会社,東京都,港区,高輪１丁目３番１３号ＮＢＦ高輪ビル７階,,13,103,1080074,,,,,,,2025-01-28,1,,,,,ジーエスエスジーソーラージャパンホールディングスシックスティーン,0
2900,5010403034291,新規,0,2025-01-28,2025-01-28,ｉｎｓｐｉｄｅａ合同会社,,合同会社,東京都,港区,高輪４丁目１４－１－５０３,,13,103,1080074,,,,,,,2025-01-28,1,,,,,インスピディア,0
2902,5010405024043,新規,0,2025-01-28,2025-01-28,ＧＳＳＧ　Ｓｏｌａｒ　Ｊａｐａｎ　Ｈｏｌｄｉｎｇｓ２０一般社団法人,,その他の設立登記法人,東京都,港区,赤坂１丁目１１番４４号赤坂インターシティ５階Ｆｏｒｖｉｓ・Ｍａｚａｒｓ・Ｊａｐａｎ株式会社内,,13,103,1070052,,,,,,,2025-01-28,1,,,,,ジーエスエスジーソーラージャパンホールディングストゥエンティ,0
3030,5010601066673,新規,0,2025-01-28,2025-01-28,株式会社ＯＳＡＧＡＲＩ,,株式会社,東京都,江東区,森下５丁目１５番１０号,,13,108,1350004,,,,,,,2025-01-28,1,,,,,オサガリ,0
3032,5010703007550,新規,0,2025-01-28,2025-01-28,Ｓａｖｖｙ　Ａｄｖｉｓｏｒｙ合同会社,,合同会社,東京都,品川区,東五反田４丁目４番２号,,13,109,1410022,,,,,,,2025-01-28,1,,,,,サヴィアドバイザリー,0
3036,5010901056721,新規,0,2025-01-28,2025-01-28,株式会社Ｈａｖｅ　ａ　ｇｏｏｄ　ｔｉｍｅ,,株式会社,東京都,世田谷区,瀬田２丁目３０番４号８８．ＦＵＴＡＫＯＴＡＭＡＧＡＷＡ１０２,,13,112,1580095,,,,,,,2025-01-28,1,,,,,ハブアグッドタイム,0
3041,5011101110376,新規,0,2025-01-28,2025-01-28,ＪＥイノベーション株式会社,,株式会社,東京都,新宿区,富久町３２－３東新富久町ビル１０５号室,,13,104,1620067,,,,,,,2025-01-28,1,,,,,ジェイイーイノベーション,0
3042,5011101110426,新規,0,2025-01-28,2025-01-28,エスカマーレ株式会社,,株式会社,東京都,新宿区,岩戸町１８日交神楽坂ビル７階,,13,104,1620832,,,,,,,2025-01-28,1,,,,,エスカマーレ,0
3044,5011105011315,新規,0,2025-01-28,2025-01-28,一般社団法人ＴＵ００９,,その他の設立登記法人,東京都,新宿区,四谷２丁目９番地１５東京ユナイテッド綜合事務所内,,13,104,1600004,,,,,,,2025-01-28,1,,,,,ティーユーゼロゼロナイン,0
3046,5011303005399,新規,0,2025-01-28,2025-01-28,ヒダリガ合同会社,,合同会社,東京都,杉並区,永福２丁目１５番２５号,,13,115,1680064,,,,,,,2025-01-28,1,,,,,ヒダリガ,0
3130,5011501031635,新規,0,2025-01-28,2025-01-28,東芳草本株式会社,,株式会社,東京都,北区,十条仲原１丁目３番５号鈴木ビル２０２号室,,13,117,1140031,,,,,,,2025-01-28,1,,,,,トウホウソウホン,0
3136,5011801045500,新規,0,2025-01-28,2025-01-28,金益株式会社,,株式会社,東京都,葛飾区,水元２丁目１０番７号エリービル１２０９,,13,122,1250032,,,,,,,2025-01-28,1,,,,,キンエキ,0
3228,5020001161025,新規,0,2025-01-28,2025-01-28,株式会社ＲＡＺＷＡＲＤ,,株式会社,神奈川県,横浜市西区,平沼１丁目３８番２１号コスモ横浜東口２０６,,14,103,2200023,,,,,,,2025-01-28,1,,,,,ラズワルド,0
3233,5021001084348,新規,0,2025-01-28,2025-01-28,株式会社南関東ヘリテージファンド,,株式会社,神奈川県,高座郡寒川町,倉見１０００番地６,,14,321,2530101,,,,,,,2025-01-28,1,,,,,ミナミカントウヘリテージファンド,0
3234,5021003015508,新規,0,2025-01-28,2025-01-28,川田商事合同会社,,合同会社,神奈川県,海老名市,国分北３丁目１６番１９号,,14,215,2430406,,,,,,,2025-01-28,1,,,,,カワダショウジ,0
3235,5021003015516,新規,0,2025-01-28,2025-01-28,合同会社Ｒａｉｎｂｏｗ　Ｆｌｏｗｅｒ,,合同会社,神奈川県,横須賀市,田浦町３丁目６９番地,,14,201,2370075,,,,,,,2025-01-28,1,,,,,レインボーフラワー,0
3245,5030001164605,新規,0,2025-01-28,2025-01-28,株式会社サンプラン,,株式会社,埼玉県,さいたま市北区,宮原町３丁目４７８番地４,,11,102,3310812,,,,,,,2025-01-28,1,,,,,サンプラン,0
3247,5030003025953,新規,0,2025-01-28,2025-01-28,合同会社イノセンス,,合同会社,埼玉県,さいたま市大宮区,浅間町１丁目２３番地１アルバニーフジ壱番館１０３,,11,103,3300842,,,,,,,2025-01-28,1,,,,,イノセンス,0
3250,5040001137188,新規,0,2025-01-28,2025-01-28,株式会社クラリス,,株式会社,千葉県,千葉市中央区,新宿２丁目２－５藤ビル６　階,,12,101,2600021,,,,,,,2025-01-28,1,,,,,クラリス,0
3254,5040003026703,新規,0,2025-01-28,2025-01-28,合同会社利,,合同会社,千葉県,八千代市,大和田新田１８４番地１,,12,221,2760046,,,,,,,2025-01-28,1,,,,,トシ,0
3255,5040003026711,新規,0,2025-01-28,2025-01-28,たかし合同会社,,合同会社,千葉県,松戸市,北松戸２丁目１番８－５０３号,,12,207,2710063,,,,,,,2025-01-28,1,,,,,タカシ,0
3258,5060001037865,新規,0,2025-01-28,2025-01-28,株式会社Ｃｈａｒｍｉｎｅ,,株式会社,栃木県,那須塩原市,阿波町１１１番地２,,09,213,3250073,,,,,,,2025-01-28,1,,,,,シャーミン,0
3262,5080001026734,新規,0,2025-01-28,2025-01-28,株式会社エム・トラスト,,株式会社,静岡県,静岡市清水区,山切７０８番地,,22,103,4240105,,,,,,,2025-01-28,1,,,,,エムトラスト,0
3266,5080005007664,新規,0,2025-01-28,2025-01-28,農事組合法人Ｄ４１,,その他の設立登記法人,静岡県,静岡市清水区,三保４１３１,,22,103,4240901,,,,,,,2025-01-28,1,,,,,ディーフォーワン,0
3269,5090003002732,新規,0,2025-01-28,2025-01-28,合同会社Ｄｉａｌａｍ,,合同会社,山梨県,南都留郡山中湖村,平野１７２９－６,,19,425,4010502,,,,,,,2025-01-28,1,,,,,ディアラム,0
3270,5100001038248,新規,0,2025-01-28,2025-01-28,株式会社富夢想家,,株式会社,長野県,小諸市,大字柏木９７番地,,20,208,3840055,,,,,,,2025-01-28,1,,,,,トムソーヤ,0
3282,5120001272209,新規,0,2025-01-28,2025-01-28,セミロック株式会社,,株式会社,大阪府,大阪市北区,豊崎３丁目１６番１６－１１０１号,,27,127,5310072,,,,,,,2025-01-28,1,,,,,セミロック,0
3283,5120001272290,新規,0,2025-01-28,2025-01-28,希星株式会社,,株式会社,大阪府,大阪市都島区,大東町２丁目９番４号,,27,102,5340002,,,,,,,2025-01-28,1,,,,,キセイ,0
3284,5120001272299,新規,0,2025-01-28,2025-01-28,ビジュエルド日本株式会社,,株式会社,大阪府,大阪市住之江区,浜口西３丁目７番６－１１０２号,,27,125,5590006,,,,,,,2025-01-28,1,,,,,ビジュエルドニホン,0
3285,5120001272407,新規,0,2025-01-28,2025-01-28,竹子株式会社,,株式会社,大阪府,大阪市天王寺区,伶人町２－３１ＳｔａｒＯｆｆｉｃｅ大阪天王寺北６０９号室,,27,109,5430061,,,,,,,2025-01-28,1,,,,,タケノコ,0
3291,5120003028336,新規,0,2025-01-28,2025-01-28,合同会社Ｙ’ｓ,,合同会社,大阪府,大阪市東住吉区,駒川５丁目２２番１２号,,27,121,5460043,,,,,,,2025-01-28,1,,,,,ワイズ,0
3292,5120003028476,新規,0,2025-01-28,2025-01-28,合同会社Ｈ２,,合同会社,大阪府,大阪市中央区,伏見町３丁目１番１－４０７号,,27,128,5410044,,,,,,,2025-01-28,1,,,,,エイチツー,0
3294,5120101070941,新規,0,2025-01-28,2025-01-28,玉蘭国際貿易株式会社,,株式会社,大阪府,堺市中区,毛穴３９番地１－１０２室,,27,142,5990000,,,,,,,2025-01-28,1,,,,,ギョクランコクサイボウエキ,0
3295,5120101070966,新規,0,2025-01-28,2025-01-28,株式会社ＡＵＲＡ,,株式会社,大阪府,貝塚市,脇浜１丁目２番１５号,,27,208,5970073,,,,,,,2025-01-28,1,,,,,アウラ,0
3299,5120905006678,新規,0,2025-01-28,2025-01-28,医療法人じゅんこ内科クリニック,,その他の設立登記法人,大阪府,吹田市,津雲台４丁目１番７号,,27,205,5650862,,,,,,,2025-01-28,1,,,,,ジュンコナイカクリニック,0
3303,5122005003804,新規,0,2025-01-28,2025-01-28,医療法人百帆会,,その他の設立登記法人,大阪府,大東市,赤井１丁目１５番３０号イイダビル２階,,27,218,5740046,,,,,,,2025-01-28,1,,,,,ヒャクホカイ,0
3513,5130001078877,新規,0,2025-01-28,2025-01-28,株式会社のほほん,,株式会社,京都府,京都市伏見区,久我森の宮町２番地１５２,,26,109,6128495,,,,,,,2025-01-28,1,,,,,ノホホン,0
3519,5130003010169,新規,0,2025-01-28,2025-01-28,合同会社ＸＰＯＤＩＵＭ　ＪＡＰＡＮ,,合同会社,京都府,向日市,寺戸町修理式２番地の５７,,26,208,6170002,,,,,,,2025-01-28,1,,,,,エックスポディウムジャパン,0
3525,5140001137236,新規,0,2025-01-28,2025-01-28,株式会社圓,,株式会社,兵庫県,神戸市中央区,磯辺通１丁目１番１８－７０７号,,28,110,6510084,,,,,,,2025-01-28,1,,,,,マドカ,0
3536,5180001165084,新規,0,2025-01-28,2025-01-28,アイティホールディングス株式会社,,株式会社,愛知県,弥富市,楠１丁目６３番地,,23,235,4980066,,,,,,,2025-01-28,1,,,,,アイティホールディングス,0
3537,5180001165150,新規,0,2025-01-28,2025-01-28,株式会社日東,,株式会社,愛知県,名古屋市中川区,烏森町字蓮池１５０,,23,110,4540819,,,,,,,2025-01-28,1,,,,,ニットウ,0
3538,5180001165191,新規,0,2025-01-28,2025-01-28,株式会社ＡＦＳ,,株式会社,愛知県,名古屋市中村区,名駅南２丁目１１番４３号,,23,105,4500003,,,,,,,2025-01-28,1,,,,,エーエフエス,0
3539,5180001165209,新規,0,2025-01-28,2025-01-28,ＬｉＴａｋｅ株式会社,,株式会社,愛知県,名古屋市西区,枇杷島４丁目２２番７号－１,,23,104,4510053,,,,,,,2025-01-28,1,,,,,リテイク,0
3547,5180301039475,新規,0,2025-01-28,2025-01-28,高橋プロパティ株式会社,,株式会社,愛知県,岡崎市,滝町字外浦３５１番地,,23,202,4443173,,,,,,,2025-01-28,1,,,,,タカハシプロパティ,0
3553,5200001043386,新規,0,2025-01-28,2025-01-28,株式会社Ｎａｍｉｒａｉ,,株式会社,岐阜県,羽島郡岐南町,下印食４丁目１２４番地,,21,302,5016018,,,,,,,2025-01-28,1,,,,,ナミライ,0
3556,5230001020721,新規,0,2025-01-28,2025-01-28,ＫＷＤホールディングス株式会社,,株式会社,富山県,南砺市,城端１３７０番地,,16,210,9391861,,,,,,,2025-01-28,1,,,,,ケイダブリューディーホールディングス,0
3560,5240001064453,新規,0,2025-01-28,2025-01-28,株式会社ＨＩＦ‐Ｉ,,株式会社,広島県,広島市中区,中町７番１６号ポレスター広島２階,,34,101,7300037,,,,,,,2025-01-28,1,,,,,エイチアイエフアイ,0
3569,5270003001708,新規,0,2025-01-28,2025-01-28,ひなた合同会社,,合同会社,鳥取県,倉吉市,国府６８５番地３,,31,203,6820942,,,,,,,2025-01-28,1,,,,,ヒナタ,0
3581,5290005019630,新規,0,2025-01-28,2025-01-28,医療法人ハーモニー,,その他の設立登記法人,福岡県,久留米市,国分町１１４６番地１,,40,203,8390863,,,,,,,2025-01-28,1,,,,,ハーモニー,0
3583,5300001014063,新規,0,2025-01-28,2025-01-28,株式会社Ｓｈｉｎ‐ｗａ,,株式会社,佐賀県,三養基郡みやき町,大字中津隈３６３４番地７６,,41,346,8490114,,,,,,,2025-01-28,1,,,,,シンワ,0
3585,5320003004564,新規,0,2025-01-28,2025-01-28,合同会社ケリュネイア,,合同会社,大分県,豊後高田市,来縄２１０番地５,,44,209,8790614,,,,,,,2025-01-28,1,,,,,ケリュネイア,0
3596,5360001034717,新規,0,2025-01-28,2025-01-28,株式会社ひだまり,,株式会社,沖縄県,島尻郡南風原町,字津嘉山１４６６番地５、１階,,47,350,9011117,,,,,,,2025-01-28,1,,,,,ヒダマリ,0
3597,5360001034725,新規,0,2025-01-28,2025-01-28,株式会社建築設計事務所ｔｏｍｏｒｉ,,株式会社,沖縄県,石垣市,字平得５４５番地１４,,47,207,9070003,,,,,,,2025-01-28,1,,,,,ケンチクセッケイジムショトモリ,0
3599,5370003006911,新規,0,2025-01-28,2025-01-28,合同会社ｎｉｎｅ,,合同会社,宮城県,仙台市青葉区,本町３丁目２番４－２０２号,,04,101,9800014,,,,,,,2025-01-28,1,,,,,ナイン,0
3605,5380001035060,新規,0,2025-01-28,2025-01-28,ＡＲＩＡ株式会社,,株式会社,福島県,田村郡小野町,大字塩庭字永志田３番４０,,07,522,9633314,,,,,,,2025-01-28,1,,,,,アリア,0
3609,5390001017859,新規,0,2025-01-28,2025-01-28,ＴＩＴＩ株式会社,,株式会社,山形県,酒田市,泉町２１４番地,,06,204,9980018,,,,,,,2025-01-28,1,,,,,チチ,0
3615,5430001093549,新規,0,2025-01-28,2025-01-28,株式会社ライト不動産,,株式会社,北海道,札幌市西区,八軒五条西４丁目９２番地４２,,01,107,0630845,,,,,,,2025-01-28,1,,,,,ライトフドウサン,0
3616,5430001093557,新規,0,2025-01-28,2025-01-28,アスカ・サポート株式会社,,株式会社,北海道,室蘭市,日の出町２丁目２３番１７号,,01,205,0500081,,,,,,,2025-01-28,1,,,,,アスカサポート,0
3627,5500003003424,新規,0,2025-01-28,2025-01-28,合同会社スマイリーポットラック,,合同会社,愛媛県,松山市,山越２丁目１１番１１号アルファスマート山越４０７号,,38,201,7918013,,,,,,,2025-01-28,1,,,,,スマイリーポットラック,0
3628,5700150128994,新規,0,2025-01-28,2025-01-28,ＳＩＬＶＥＲ　ＬＩＮＥ　ＥＮＴＥＲＰＲＩＳＥＳ,,外国会社等,千葉県,八街市,東吉田７２５番地ビジネスオフィス３２号,,12,230,2891114,スリランカ民主社会主義共和国、カルムナイ、サインタマルトゥ７、メインストリート、Ｎｏ．１３７,,,,,,2025-01-28,1,,,,,シルバーラインエンタープライズ,0
3629,5700150129002,新規,0,2025-01-28,2025-01-28,蘇州大図商貿服務有限公司,,外国会社等,,,,,,,,中国（江蘇）自由貿易試験区蘇州片区蘇州工業園区新昌路２８号３号楼２楼２１６０室,,,,,,2025-01-28,1,,,,,ソシュウダイズショウボウフクムユウゲンコウシ,0
3643,6010001251701,新規,0,2025-01-28,2025-01-28,株式会社誠和,,株式会社,東京都,文京区,音羽１丁目２３番１２第一晃和堂ビル４１２号室,,13,105,1120013,,,,,,,2025-01-28,1,,,,,セイワ,0
3644,6010001251775,新規,0,2025-01-28,2025-01-28,Ｎｏｔｒｅ株式会社,,株式会社,東京都,中央区,銀座１丁目１２番４号Ｎ＆ＥＢＬＤ．６Ｆ,,13,102,1040061,,,,,,,2025-01-28,1,,,,,ノートル,0
3645,6010001251791,新規,0,2025-01-28,2025-01-28,株式会社Ａｒｅａ,,株式会社,東京都,中央区,日本橋人形町２丁目３番４号第三ロータリービル７階,,13,102,1030013,,,,,,,2025-01-28,1,,,,,エリア,0
3649,6010003046190,新規,0,2025-01-28,2025-01-28,Ｅｒｅｓｅｒ．合同会社,,合同会社,東京都,千代田区,神田須田町１丁目２８番地タイムビル１０階,,13,101,1010041,,,,,,,2025-01-28,1,,,,,イレイザー,0
3651,6010005039457,新規,0,2025-01-28,2025-01-28,一般社団法人日本資産成長協会,,その他の設立登記法人,東京都,中央区,新川１丁目３番２１号,,13,102,1040033,,,,,,,2025-01-28,1,,,,,ニホンシサンセイチョウキョウカイ,0
3655,6010401187727,新規,0,2025-01-28,2025-01-28,株式会社ｌｉｆｅ　ｌａｂ．,,株式会社,東京都,港区,六本木６丁目１０番１号,,13,103,1060032,,,,,,,2025-01-28,1,,,,,ライフラボ,0
3656,6010401187909,新規,0,2025-01-28,2025-01-28,Ｃｏｌｌｅｃｔｅｄ　Ｊａｐａｎ株式会社,,株式会社,東京都,港区,麻布十番２丁目２０番１０号－４０１,,13,103,1060045,,,,,,,2025-01-28,1,,,,,コレクテッドジャパン,0
3777,6010501053523,新規,0,2025-01-28,2025-01-28,株式会社ＧＷＦ,,株式会社,東京都,台東区,東上野３丁目３６番１０－９０１号佳家ヒルズ東上野,,13,106,1100015,,,,,,,2025-01-28,1,,,,,ジーダブリューエフ,0
3778,6010501053531,新規,0,2025-01-28,2025-01-28,株式会社喜粋,,株式会社,東京都,台東区,池之端４丁目１５番２号,,13,106,1100008,,,,,,,2025-01-28,1,,,,,キスイ,0
3789,6010803005263,新規,0,2025-01-28,2025-01-28,合同会社フーズ・フロンティア,,合同会社,東京都,大田区,上池台２丁目２３番６号フロンティア洗足池アネックス２０１,,13,111,1450064,,,,,,,2025-01-28,1,,,,,フーズフロンティア,0
3796,6010901056720,新規,0,2025-01-28,2025-01-28,Ｎｅｘｔ　Ｗａｖｅ　Ａｓｓｅｔ　Ｍａｎａｇｅｍｅｎｔ株式会社,,株式会社,東京都,世田谷区,深沢２丁目１番６－１０１号,,13,112,1580081,,,,,,,2025-01-28,1,,,,,ネクストウェーブアセットマネジメント,0
3800,6011003020631,新規,0,2025-01-28,2025-01-28,合同会社Ｉｍａ,,合同会社,東京都,渋谷区,神宮前３丁目３１－２,,13,113,1500001,,,,,,,2025-01-28,1,,,,,イマ,0
3801,6011005010837,新規,0,2025-01-28,2025-01-28,一般社団法人日本デジタル推進協議会連合会,,その他の設立登記法人,東京都,目黒区,平町２丁目６番５－１０６号,,13,110,1520032,,,,,,,2025-01-28,1,,,,,ニホンデジタルスイシンキョウギカイレンゴウカイ,0
3804,6011101110334,新規,0,2025-01-28,2025-01-28,株式会社ＬＵＡＮＡ　Ｉｎｓｕｒａｎｃｅ,,株式会社,東京都,新宿区,高田馬場３丁目２番１４号天翔高田馬場ビル２０２号室,,13,104,1690075,,,,,,,2025-01-28,1,,,,,ルアナインシュアランス,0
3805,6011101110400,新規,0,2025-01-28,2025-01-28,Ｌｕｆｌｙ　Ｊａｐａｎ株式会社,,株式会社,東京都,新宿区,新宿１丁目３６番２号新宿第七葉山ビル３階,,13,104,1600022,,,,,,,2025-01-28,1,,,,,ルーフライジャパン,0
3806,6011103015465,新規,0,2025-01-28,2025-01-28,合同会社ｕｒａｎｏａｈ,,合同会社,東京都,新宿区,西新宿３丁目３番１３号西新宿水間ビル２Ｆ,,13,104,1600023,,,,,,,2025-01-28,1,,,,,ウラノア,0
3807,6011103015473,新規,0,2025-01-28,2025-01-28,合同会社Ｓｔｏｋｏｒｉ,,合同会社,東京都,新宿区,西新宿４丁目２－１８武居ビル５階,,13,104,1600023,,,,,,,2025-01-28,1,,,,,ストコリ,0
3809,6011105011297,新規,0,2025-01-28,2025-01-28,一般社団法人日本ペヌエル・バイブル・アセンブリース,,その他の設立登記法人,東京都,新宿区,下落合３丁目１７－１７,,13,104,1610033,,,,,,,2025-01-28,1,,,,,ニッポンペヌエルバイブルアセンブリース,0
3810,6011105011314,新規,0,2025-01-28,2025-01-28,一般社団法人ＴＵ００８,,その他の設立登記法人,東京都,新宿区,四谷２丁目９番地１５東京ユナイテッド綜合事務所内,,13,104,1600004,,,,,,,2025-01-28,1,,,,,ティーユーゼロゼロエイト,0
3878,6011501031618,新規,0,2025-01-28,2025-01-28,株式会社すずらん企画,,株式会社,東京都,北区,赤羽１丁目１３番１号ミドリヤビル６階,,13,117,1150045,,,,,,,2025-01-28,1,,,,,スズランキカク,0
3881,6011801045499,新規,0,2025-01-28,2025-01-28,ヤサ株式会社,,株式会社,東京都,葛飾区,水元２丁目１０番７号エリービル１３０８,,13,122,1250032,,,,,,,2025-01-28,1,,,,,ヤサ,0
3933,6012801023668,新規,0,2025-01-28,2025-01-28,株式会社Ｋ　ｗｏｒｋｓ,,株式会社,東京都,東大和市,高木２丁目１２４番地の９,,13,220,2070005,,,,,,,2025-01-28,1,,,,,ケーワークス,0
3935,6012803003610,新規,0,2025-01-28,2025-01-28,ＳＡＮＤＥＮＳＯＮ合同会社,,合同会社,東京都,昭島市,もくせいの杜２丁目９番１,,13,207,1960035,,,,,,,2025-01-28,1,,,,,サンデンソン,0
3967,6020001161024,新規,0,2025-01-28,2025-01-28,株式会社くまさんの手,,株式会社,神奈川県,横浜市港南区,芹が谷２丁目６番６－４号,,14,111,2330006,,,,,,,2025-01-28,1,,,,,クマサンノテ,0
3968,6020001161131,新規,0,2025-01-28,2025-01-28,株式会社創房,,株式会社,神奈川県,川崎市高津区,北見方１丁目２番４５号,,14,134,2130005,,,,,,,2025-01-28,1,,,,,ソウボウ,0
3970,6020003027529,新規,0,2025-01-28,2025-01-28,合同会社ラージ,,合同会社,神奈川県,横浜市戸塚区,南舞岡３丁目２４－２,,14,110,2440814,,,,,,,2025-01-28,1,,,,,ラージ,0
3971,6020003027719,新規,0,2025-01-28,2025-01-28,合同会社ＬＩＢ　Ｓｍｉｌｅ,,合同会社,神奈川県,横浜市港南区,上大岡西１丁目１８番５－２００６号,,14,111,2330002,,,,,,,2025-01-28,1,,,,,リブスマイル,0
3977,6021001084347,新規,0,2025-01-28,2025-01-28,株式会社Ｕｔｅｎａ,,株式会社,神奈川県,愛甲郡愛川町,春日台２丁目７－４,,14,401,2430302,,,,,,,2025-01-28,1,,,,,ウテナ,0
3980,6021003015507,新規,0,2025-01-28,2025-01-28,合同会社ファイン,,合同会社,神奈川県,鎌倉市,城廻４２３番地４９,,14,204,2470074,,,,,,,2025-01-28,1,,,,,ファイン,0
3981,6021003015515,新規,0,2025-01-28,2025-01-28,カラスノリフォーム合同会社,,合同会社,神奈川県,大和市,柳橋５丁目１２－９ヴァンハウス大和４０２,,14,213,2420022,,,,,,,2025-01-28,1,,,,,カラスノリフォーム,0
3989,6030001164455,新規,0,2025-01-28,2025-01-28,株式会社ＯＮＥ,,株式会社,埼玉県,川口市,南鳩ヶ谷６丁目９番１２－４１１号,,11,203,3340013,,,,,,,2025-01-28,1,,,,,ワン,0
3990,6030001164620,新規,0,2025-01-28,2025-01-28,株式会社ｃｕｓｔｏｍ,,株式会社,埼玉県,川口市,大字榛松１８７６番地,,11,203,3340062,,,,,,,2025-01-28,1,,,,,カスタム,0
3993,6030003025969,新規,0,2025-01-28,2025-01-28,合同会社ヒカリ,,合同会社,埼玉県,朝霞市,栄町３丁目５番１１－７０７号,,11,227,3510012,,,,,,,2025-01-28,1,,,,,ヒカリ,0
4001,6040001137162,新規,0,2025-01-28,2025-01-28,Ｓｅｌｆ　ｔｏｃｈｉｍａ株式会社,,株式会社,千葉県,八千代市,八千代台西１丁目２番地６,,12,221,2760034,,,,,,,2025-01-28,1,,,,,セルフトチマー,0
4002,6040001137170,新規,0,2025-01-28,2025-01-28,株式会社ａｙａｔａｋａｓ,,株式会社,千葉県,大網白里市,みずほ台１丁目４３番地６,,12,239,2993234,,,,,,,2025-01-28,1,,,,,アヤタカ,0
4003,6040001137179,新規,0,2025-01-28,2025-01-28,株式会社ほしば,,株式会社,千葉県,千葉市美浜区,高洲４丁目１０番２－２１９号,,12,106,2610004,,,,,,,2025-01-28,1,,,,,ホシバ,0
4004,6040001137187,新規,0,2025-01-28,2025-01-28,メンズプライム株式会社,,株式会社,千葉県,浦安市,海楽１丁目２４番２１－１号,,12,227,2790003,,,,,,,2025-01-28,1,,,,,メンズプライム,0
4005,6040003026693,新規,0,2025-01-28,2025-01-28,合同会社ＲＡ,,合同会社,千葉県,千葉市中央区,千葉寺町４０３番地,,12,101,2600844,,,,,,,2025-01-28,1,,,,,アールエイ,0
4006,6040003026710,新規,0,2025-01-28,2025-01-28,合同会社ポケット,,合同会社,千葉県,習志野市,東習志野６丁目１１番２４－　５０３号,,12,216,2750001,,,,,,,2025-01-28,1,,,,,ポケット,0
4008,6050001056089,新規,0,2025-01-28,2025-01-28,Ｇｒａｃｅ　Ｈｏｍｅ株式会社,,株式会社,茨城県,つくば市,並木２丁目８番地５０,,08,220,3050044,,,,,,,2025-01-28,1,,,,,グレースホーム,0
4012,6070001042590,新規,0,2025-01-28,2025-01-28,株式会社拓実,,株式会社,群馬県,みどり市,笠懸町久宮４３７番地の６,,10,212,3792312,,,,,,,2025-01-28,1,,,,,タクミ,0
4016,6080001026733,新規,0,2025-01-28,2025-01-28,株式会社Ｏｐｔｉｏｎ,,株式会社,静岡県,藤枝市,岡出山１丁目１７番１６－２０１号,,22,214,4260026,,,,,,,2025-01-28,1,,,,,オプション,0
4019,6080005007663,新規,0,2025-01-28,2025-01-28,農事組合法人Ｄ１１,,その他の設立登記法人,静岡県,静岡市清水区,三保４１３１,,22,103,4240901,,,,,,,2025-01-28,1,,,,,ディージュウイチ,0
4022,6090001019109,新規,0,2025-01-28,2025-01-28,株式会社ガーデンプランニング満開,,株式会社,山梨県,中巨摩郡昭和町,築地新居１５７０番地１７コーポタカノ１０１号,,19,384,4093853,,,,,,,2025-01-28,1,,,,,ガーデンプランニングマンカイ,0
4023,6090003002731,新規,0,2025-01-28,2025-01-28,合同会社ＭＩＮＤ,,合同会社,山梨県,甲府市,下石田２丁目１５番７号,,19,201,4000046,,,,,,,2025-01-28,1,,,,,マインド,0
4024,6100001038214,新規,0,2025-01-28,2025-01-28,株式会社エアープランニング,,株式会社,長野県,安曇野市,豊科南穂高３７４番地１７,,20,220,3998201,,,,,,,2025-01-28,1,,,,,エアープランニング,0
4025,6100001038247,新規,0,2025-01-28,2025-01-28,株式会社Ｆ・Ｙ・Ｌアルク,,株式会社,長野県,飯田市,白山通り３丁目３８０－１,,20,205,3950075,,,,,,,2025-01-28,1,,,,,エフワイエルアルク,0
4026,6100003007968,新規,0,2025-01-28,2025-01-28,合同会社普利育堂,,合同会社,長野県,飯田市,知久町１丁目１７番地,,20,205,3950045,,,,,,,2025-01-28,1,,,,,フリイクドウ,0
4032,6120001000576,新規,0,2025-01-28,2025-01-28,株式会社シルバーケミカル,,株式会社,大阪府,大阪市旭区,新森７丁目６番１９号,,27,117,5350022,,,,,,,2025-01-28,1,,,,,シルバーケミカル,0
4042,6120001272315,新規,0,2025-01-28,2025-01-28,株式会社Ｄａｙ１,,株式会社,大阪府,大阪市中央区,本町４丁目７番４号本町グラマシー３０２号,,27,128,5410053,,,,,,,2025-01-28,1,,,,,デイワン,0
4043,6120003028475,新規,0,2025-01-28,2025-01-28,合同会社九十九,,合同会社,大阪府,大阪市淀川区,十三本町１丁目５番２３号,,27,123,5320024,,,,,,,2025-01-28,1,,,,,ツクモ,0
4045,6120005024761,新規,0,2025-01-28,2025-01-28,一般社団法人日本アジアメディカルリンク,,その他の設立登記法人,大阪府,大阪市中央区,南船場３丁目３番２０号ＯＮＥＳビル南船場４階,,27,128,5420081,,,,,,,2025-01-28,1,,,,,ニホンアジアメディカルリンク,0
4048,6120101070949,新規,0,2025-01-28,2025-01-28,株式会社エムズビルド,,株式会社,大阪府,藤井寺市,藤井寺３丁目９番２８号,,27,226,5830024,,,,,,,2025-01-28,1,,,,,エムズビルド,0
4050,6120901050349,新規,0,2025-01-28,2025-01-28,株式会社ロードコネクト,,株式会社,大阪府,茨木市,東安威２丁目６番２７号,00137801,27,211,5670002,,,,,,,2025-01-28,1,,,,,ロードコネクト,0
4051,6120901050357,新規,0,2025-01-28,2025-01-28,株式会社Ｓａｋｕｒａ　Ｌｉｖｉｎｇ,,株式会社,大阪府,池田市,神田１丁目２１－１０,,27,204,5630043,,,,,,,2025-01-28,1,,,,,サクラリビング,0
4052,6120901050365,新規,0,2025-01-28,2025-01-28,株式会社ＮＫファースト,,株式会社,大阪府,豊中市,緑丘４丁目３４番３０号,,27,203,5600002,,,,,,,2025-01-28,1,,,,,エヌケーファースト,0
4061,6122003003103,新規,0,2025-01-28,2025-01-28,合同会社ｅｎｂｏｎｄ,,合同会社,大阪府,東大阪市,若江東町１丁目５－２１,,27,227,5780935,,,,,,,2025-01-28,1,,,,,エンボンド,0
4062,6122005003803,新規,0,2025-01-28,2025-01-28,医療法人ともしび会,,その他の設立登記法人,大阪府,柏原市,国分西１丁目１番１７－２０２号幸喜ビル,,27,221,5820025,,,,,,,2025-01-28,1,,,,,トモシビカイ,0
4258,6130001078851,新規,0,2025-01-28,2025-01-28,ＫＣＴ株式会社,,株式会社,京都府,京都市右京区,花園伊町１番地,,26,108,6168042,,,,,,,2025-01-28,1,,,,,ケイシイティ,0
4259,6130001078884,新規,0,2025-01-28,2025-01-28,Ｏ‐ｃｒａｆｔ株式会社,,株式会社,京都府,京都市伏見区,下鳥羽北ノ口町４０,,26,109,6128392,,,,,,,2025-01-28,1,,,,,オークラフト,0
4272,6140001137202,新規,0,2025-01-28,2025-01-28,佳悦株式会社,,株式会社,兵庫県,神戸市東灘区,本山中町２丁目６番２０－１０６号,,28,101,6580016,,,,,,,2025-01-28,1,,,,,カエツ,0
4273,6140001137219,新規,0,2025-01-28,2025-01-28,カイタク株式会社,,株式会社,兵庫県,神戸市中央区,磯辺通１丁目１番１８号カサベラ国際プラザビル７０７,,28,110,6510084,,,,,,,2025-01-28,1,,,,,カイタク,0
4274,6140001137227,新規,0,2025-01-28,2025-01-28,株式会社楓,,株式会社,兵庫県,神戸市東灘区,岡本２丁目１０－１５シャンブル岡本１０７号,,28,101,6580072,,,,,,,2025-01-28,1,,,,,カエデ,0
4275,6140001137243,新規,0,2025-01-28,2025-01-28,株式会社シロコーポレーション,,株式会社,兵庫県,西宮市,川添町８番１１－２０１号,,28,204,6620944,,,,,,,2025-01-28,1,,,,,シロコーポレーション,0
4276,6140003021577,新規,0,2025-01-28,2025-01-28,合同会社エアコンフィックス,,合同会社,兵庫県,明石市,朝霧東町３丁目１番５０号,,28,203,6730860,,,,,,,2025-01-28,1,,,,,エアコンフィックス,0
4283,6150005009660,新規,0,2025-01-28,2025-01-28,特定非営利活動法人子ども未来えにしの会,,その他の設立登記法人,奈良県,橿原市,東池尻町２５５番地の３,,29,205,6340021,,,,,,,2025-01-28,1,,,,,コドモミライエニシノカイ,0
4284,6160001026510,新規,0,2025-01-28,2025-01-28,Ｃｏｃｈｅ　Ｃｏｃｉｎａ株式会社,,株式会社,滋賀県,大津市,本堅田１丁目２２番３０号,,25,201,5200242,,,,,,,2025-01-28,1,,,,,コチェコシーナ,0
4292,6180001165067,新規,0,2025-01-28,2025-01-28,株式会社光輝真,,株式会社,愛知県,愛西市,本部田町三反田５８番地１,,23,232,4960915,,,,,,,2025-01-28,1,,,,,コウキシン,0
4293,6180001165158,新規,0,2025-01-28,2025-01-28,株式会社ＦＳＤ,,株式会社,愛知県,名古屋市東区,東桜２丁目１３－９板倉屋ビル２０２,,23,102,4610005,,,,,,,2025-01-28,1,,,,,エフシード,0
4294,6180001165190,新規,0,2025-01-28,2025-01-28,株式会社リンドウ,,株式会社,愛知県,知多市,新知字西屋敷５７番地の２,,23,224,4780017,,,,,,,2025-01-28,1,,,,,リンドウ,0
4295,6180001165199,新規,0,2025-01-28,2025-01-28,ＭＡＳＡテクノ株式会社,,株式会社,愛知県,知多市,岡田字久平１３番地ローズガーデンＥ,,23,224,4780021,,,,,,,2025-01-28,1,,,,,マサテクノ,0
4296,6180001165208,新規,0,2025-01-28,2025-01-28,ＭＬＤ株式会社,,株式会社,愛知県,名古屋市守山区,大森４丁目１３０３番地の２,,23,113,4630021,,,,,,,2025-01-28,1,,,,,エムエルディー,0
4305,6180301039466,新規,0,2025-01-28,2025-01-28,ＭＹＫホールディングス株式会社,,株式会社,愛知県,豊田市,清水町２丁目７９番地１,,23,211,4710843,,,,,,,2025-01-28,1,,,,,エムワイケーホールディングス,0
4306,6180301039474,新規,0,2025-01-28,2025-01-28,Ｍｅｃａｉｉ株式会社,,株式会社,愛知県,岡崎市,岡町字東神馬崎北側３７番地２,,23,202,4440005,,,,,,,2025-01-28,1,,,,,メカイイ,0
4319,6230001020720,新規,0,2025-01-28,2025-01-28,ｉｔｏ株式会社,,株式会社,富山県,富山市,丸の内１丁目８番１７号新丸の内ビル４Ｆ,,16,201,9300085,,,,,,,2025-01-28,1,,,,,イト,0
4321,6240001064452,新規,0,2025-01-28,2025-01-28,株式会社ＡＲＣＨＩＶＥ　ＣＯＦＦＥＥ,,株式会社,広島県,広島市中区,本川町２丁目１番１２号１Ｆ,,34,101,7300802,,,,,,,2025-01-28,1,,,,,アーカイブコーヒー,0
4326,6240003007038,新規,0,2025-01-28,2025-01-28,合同会社Ｖｉｐａｓｓａｎａ　Ｈａｒｍｏｎｙ,,合同会社,広島県,福山市,草戸町３丁目３－２７（東側）,,34,207,7200831,,,,,,,2025-01-28,1,,,,,ヴィパッサナーハーモニー,0
4329,6250003003639,新規,0,2025-01-28,2025-01-28,合同会社弥栄,,合同会社,山口県,周南市,入船町６番２７号,,35,215,7450047,,,,,,,2025-01-28,1,,,,,ヤサカ,0
4332,6260001039849,新規,0,2025-01-28,2025-01-28,株式会社ブランニューデイ,,株式会社,岡山県,倉敷市,中島２２３６番地１００,,33,202,7100803,,,,,,,2025-01-28,1,,,,,ブランニューデイ,0
4334,6290001108709,新規,0,2025-01-28,2025-01-28,株式会社池尻畳店,,株式会社,福岡県,大牟田市,神田町２１８番地３,,40,202,8360093,,,,,,,2025-01-28,1,,,,,イケジリタタミテン,0
4335,6290001108725,新規,0,2025-01-28,2025-01-28,株式会社Ｎｏｖｅｌ　Ｄｒｅａｍ,,株式会社,福岡県,筑後市,大字山ノ井９７５番地,,40,211,8330031,,,,,,,2025-01-28,1,,,,,ノーベルドリーム,0
4337,6290003016315,新規,0,2025-01-28,2025-01-28,合同会社ＲＥＮＴＯ,,合同会社,福岡県,福岡市博多区,東平尾２丁目１３番３号,,40,132,8120853,,,,,,,2025-01-28,1,,,,,レント,0
4339,6290801031226,新規,0,2025-01-28,2025-01-28,株式会社ｇｒｕｎｅｒ　Ｈｕｇｅｌ,,株式会社,福岡県,北九州市小倉北区,緑ケ丘１丁目１番５号,,40,106,8030827,,,,,,,2025-01-28,1,,,,,グリューネヒューゲル,0
4343,6300001014062,新規,0,2025-01-28,2025-01-28,東利商事株式会社,,株式会社,佐賀県,佐賀市,神園６丁目２－９－１０１,,41,201,8400806,,,,,,,2025-01-28,1,,,,,トウリショウジ,0
4363,6360001034716,新規,0,2025-01-28,2025-01-28,株式会社大浩組,,株式会社,沖縄県,うるま市,字赤道９番地１伸和荘１階,,47,213,9042245,,,,,,,2025-01-28,1,,,,,オオヒログミ,0
4364,6360001034724,新規,0,2025-01-28,2025-01-28,株式会社ＰＦＴ,,株式会社,沖縄県,中頭郡北中城村,字ライカム４０３番地,,47,327,9012306,,,,,,,2025-01-28,1,,,,,ピーエフティー,0
4365,6360005007164,新規,0,2025-01-28,2025-01-28,一般社団法人いきいきライフ協会つむぎ,,その他の設立登記法人,沖縄県,那覇市,古波蔵２丁目１５番１２号,,47,201,9000024,,,,,,,2025-01-28,1,,,,,イキイキライフキョウカイツムギ,0
4372,6380005012914,新規,0,2025-01-28,2025-01-28,一般社団法人慈山会医学研究所,,その他の設立登記法人,福島県,郡山市,安積町長久保１丁目１０番地１３,,07,203,9630105,,,,,,,2025-01-28,1,,,,,ジザンカイイガクケンキュウジョ,0
4373,6400003003383,新規,0,2025-01-28,2025-01-28,合同会社ｔａｎｅｍａｋｉ,,合同会社,岩手県,盛岡市,上堂１丁目１５番５号,,03,201,0200125,,,,,,,2025-01-28,1,,,,,タネマキ,0
4374,6410001014043,新規,0,2025-01-28,2025-01-28,株式会社Ｄｅｕｘ　ｔｏｗｎ,,株式会社,秋田県,横手市,婦気大堤字下久保５５番地１,,05,203,0130063,,,,,,,2025-01-28,1,,,,,ドゥータウン,0
4375,6410003004042,新規,0,2025-01-28,2025-01-28,合同会社ユーフォニティ,,合同会社,秋田県,横手市,安田字向田２０２番地,,05,203,0130043,,,,,,,2025-01-28,1,,,,,ユーフォニティ,0
4380,6430001093548,新規,0,2025-01-28,2025-01-28,ここいろ株式会社,,株式会社,北海道,札幌市豊平区,平岸二条３丁目５番５号,,01,105,0620932,,,,,,,2025-01-28,1,,,,,ココイロ,0
4381,6430001093564,新規,0,2025-01-28,2025-01-28,株式会社猪野毛ファーム,,株式会社,北海道,日高郡新ひだか町,三石歌笛５７８番地の２,,01,610,0593351,,,,,,,2025-01-28,1,,,,,イノケファーム,0
4383,6430003017224,新規,0,2025-01-28,2025-01-28,ＳＫＹ　ＧＡＭＥＳ合同会社,,合同会社,北海道,札幌市西区,発寒二条５丁目１番２号,,01,107,0630822,,,,,,,2025-01-28,1,,,,,スカイゲームズ,0
4385,6430005015143,新規,0,2025-01-28,2025-01-28,一般社団法人ネオンケア,,その他の設立登記法人,北海道,札幌市中央区,南二条西１２丁目３２４番地１１南２条藤井ビル６階,,01,101,0600062,,,,,,,2025-01-28,1,,,,,ネオンケア,0
4394,6470001020556,新規,0,2025-01-28,2025-01-28,株式会社ＴＯＣソリューション,,株式会社,香川県,高松市,仏生山町甲１６６０番地３,,37,201,7618078,,,,,,,2025-01-28,1,,,,,,0
4402,6500001026112,新規,0,2025-01-28,2025-01-28,株式会社秋川農園,,株式会社,愛媛県,西条市,明理川１５２番地,,38,206,7991345,,,,,,,2025-01-28,1,,,,,アキガワノウエン,0
4403,6700150128993,新規,0,2025-01-28,2025-01-28,ＡＵＴＯ　ＣＥＮＴＥＲ,,外国会社等,千葉県,八街市,東吉田７２５番地ビジネスオフィス３６号,,12,230,2891114,スリランカ民主社会主義共和国、コロンボ１５、マッタクリヤ、ファームロード、Ｎｏ．１９／１,,,,,,2025-01-28,1,,,,,オートセンター,0
4404,6700150129001,新規,0,2025-01-28,2025-01-28,深セン市酷岳科技有限公司,,外国会社等,,,,,,,,広東省深セン市龍華新区民治街道民治大道民康花園Ｂ６棟１０２,,,,,,2025-01-28,1,,,,,シンセンシコクガクカギユウゲンコウシ,0
4417,7010001251766,新規,0,2025-01-28,2025-01-28,Ｎｅｕｒａ株式会社,,株式会社,東京都,千代田区,丸の内２丁目３－２郵船ビルディング１階,,13,101,1000005,,,,,,,2025-01-28,1,,,,,ニューラ,0
4418,7010001251782,新規,0,2025-01-28,2025-01-28,株式会社ＣＬＲ,,株式会社,東京都,中央区,日本橋人形町２丁目２６番８－８０１号,,13,102,1030013,,,,,,,2025-01-28,1,,,,,シーエルアール,0
4421,7010003046000,新規,0,2025-01-28,2025-01-28,合同会社ＲａＳｉＣ,,合同会社,東京都,中央区,日本橋兜町５－１兜町第一平和ビル３Ｆ,,13,102,1030026,,,,,,,2025-01-28,1,,,,,ラシク,0
4422,7010003046198,新規,0,2025-01-28,2025-01-28,合同会社ＫＪ,,合同会社,東京都,千代田区,三番町２６番地１,,13,101,1020075,,,,,,,2025-01-28,1,,,,,ケージェイ,0
4437,7010401187750,新規,0,2025-01-28,2025-01-28,株式会社ＨＭＣａｐｉｔａｌ,,株式会社,東京都,港区,新橋４丁目１４番１　新橋ＡＵＮ　ＢＬＤＧ　４階,,13,103,1050004,,,,,,,2025-01-28,1,,,,,エイチエムキャピタル,0
4438,7010401187783,新規,0,2025-01-28,2025-01-28,株式会社エスアップ,,株式会社,東京都,港区,赤坂１丁目３番５号赤坂アビタシオン３Ｆ３０９号室,,13,103,1070052,,,,,,,2025-01-28,1,,,,,エスアップ,0
4569,7010501053530,新規,0,2025-01-28,2025-01-28,株式会社エル・エス・エステート,,株式会社,東京都,台東区,元浅草１丁目２０番９号Ｅｓｔａｔｅ・Ｏｎｅ・Ｂｌｄｇ４０２室,,13,106,1110041,,,,,,,2025-01-28,1,,,,,エルエスエステート,0
4576,7010801035798,新規,0,2025-01-28,2025-01-28,株式会社シーラバー,,株式会社,東京都,大田区,池上８丁目１７番２１号,,13,111,1460082,,,,,,,2025-01-28,1,,,,,シーラバー,0
4581,7011003020837,新規,0,2025-01-28,2025-01-28,合同会社フィデリエ,,合同会社,東京都,渋谷区,道玄坂１丁目１０－８渋谷道玄坂東急ビル２Ｆ－Ｃ,,13,113,1500043,,,,,,,2025-01-28,1,,,,,,0
4585,7011101110390,新規,0,2025-01-28,2025-01-28,株式会社Ｎｅｗ　Ｅｒａ　Ｄｅｓｉｇｎ,,株式会社,東京都,新宿区,西新宿３丁目３番１３号西新宿水間ビル２Ｆ,,13,104,1600023,,,,,,,2025-01-28,1,,,,,ニューエラデザイン,0
4586,7011101110408,新規,0,2025-01-28,2025-01-28,株式会社ＫＩＥＳ,,株式会社,東京都,新宿区,四谷１丁目６番２号,,13,104,1600004,,,,,,,2025-01-28,1,,,,,キーズ,0
4587,7011101110440,新規,0,2025-01-28,2025-01-28,株式会社アンコイル,,株式会社,東京都,新宿区,神楽坂３丁目２－６神楽坂越後屋ビル６階,,13,104,1620825,,,,,,,2025-01-28,1,,,,,アンコイル,0
4589,7011103015448,新規,0,2025-01-28,2025-01-28,合同会社ＴＵ００９,,合同会社,東京都,新宿区,四谷２丁目９番地１５東京ユナイテッド綜合事務所内,,13,104,1600004,,,,,,,2025-01-28,1,,,,,ティーユーゼロゼロナイン,0
4590,7011103015456,新規,0,2025-01-28,2025-01-28,合同会社ＭＯＫＵ,,合同会社,東京都,新宿区,上落合２丁目４－１２エコロジー落合レジデンスＩＩ３０３号室,00137794,13,104,1610034,,,,,,,2025-01-28,1,,,,,モク,0
4591,7011201026082,新規,0,2025-01-28,2025-01-28,株式会社ＢＡＣＥ．,,株式会社,東京都,中野区,弥生町２丁目２７番２号中野新橋駅前ビル１階,,13,114,1640013,,,,,,,2025-01-28,1,,,,,ベース,0
4654,7012301014241,新規,0,2025-01-28,2025-01-28,株式会社ＢＴトレーディング,,株式会社,東京都,町田市,小川２丁目２０番地３１,,13,209,1940003,,,,,,,2025-01-28,1,,,,,ビーティートレーディング,0
4657,7012401042712,新規,0,2025-01-28,2025-01-28,ＫＯＨＡＫＵウェブサービス株式会社,,株式会社,東京都,府中市,四谷３丁目５２番地の５１,,13,206,1830035,,,,,,,2025-01-28,1,,,,,コハクウェブサービス,0
4702,7012701018676,新規,0,2025-01-28,2025-01-28,海浜商事株式会社,,株式会社,東京都,小平市,回田町３２６番地の３３,,13,211,1870013,,,,,,,2025-01-28,1,,,,,カイヒンショウジ,0
4710,7012801023725,新規,0,2025-01-28,2025-01-28,株式会社スプリンタージャパン,,株式会社,東京都,昭島市,松原町１丁目１番２０－４０８号,,13,207,1960003,,,,,,,2025-01-28,1,,,,,スプリンタージャパン,0
4739,7020001161007,新規,0,2025-01-28,2025-01-28,株式会社喜和美,,株式会社,神奈川県,川崎市川崎区,小田５丁目１７番２４号,,14,131,2100846,,,,,,,2025-01-28,1,,,,,,0
4740,7020001161031,新規,0,2025-01-28,2025-01-28,株式会社Ｒｏｏｔｕｓ,,株式会社,神奈川県,横浜市鶴見区,上末吉１丁目２３番１９号,,14,101,2300011,,,,,,,2025-01-28,1,,,,,ルータス,0
4741,7020001161188,新規,0,2025-01-28,2025-01-28,株式会社プロシティ・アドバイザーズ,,株式会社,神奈川県,川崎市麻生区,白鳥１丁目１－９－２,,14,137,2150024,,,,,,,2025-01-28,1,,,,,プロシティアドバイザーズ,0
4742,7020001161221,新規,0,2025-01-28,2025-01-28,株式会社ｐａｐｉ‐ｃａ,,株式会社,神奈川県,横浜市西区,浅間町１丁目４番３号ウィザードビル４０２,,14,103,2200072,,,,,,,2025-01-28,1,,,,,パピカ,0
4746,7020003027635,新規,0,2025-01-28,2025-01-28,合同会社ｇｏｚｒ,,合同会社,神奈川県,横浜市中区,末吉町３丁目６１,,14,104,2310055,,,,,,,2025-01-28,1,,,,,ゴズル,0
4758,7030001164421,新規,0,2025-01-28,2025-01-28,えびす家管理サービス株式会社,,株式会社,埼玉県,川口市,幸町２丁目５番５号,,11,203,3320016,,,,,,,2025-01-28,1,,,,,エビスヤカンリサービス,0
4759,7030001164529,新規,0,2025-01-28,2025-01-28,株式会社ティーエー,,株式会社,埼玉県,児玉郡神川町,大字小浜５６８,,11,383,3670236,,,,,,,2025-01-28,1,,,,,ティーエー,0
4767,7030003025951,新規,0,2025-01-28,2025-01-28,合同会社嘉成,,合同会社,埼玉県,さいたま市岩槻区,東岩槻１丁目９番地３４,,11,110,3390005,,,,,,,2025-01-28,1,,,,,カセイ,0
4770,7040001137161,新規,0,2025-01-28,2025-01-28,株式会社繕屋,,株式会社,千葉県,千葉市中央区,川戸町４０４番地３グランガレージ川戸１０２号,,12,101,2600802,,,,,,,2025-01-28,1,,,,,ツクロイヤ,0
4771,7040001137186,新規,0,2025-01-28,2025-01-28,株式会社ＭＳクラフト,,株式会社,千葉県,館山市,佐野２１０９番地１,,12,205,2940225,,,,,,,2025-01-28,1,,,,,エムエスクラフト,0
4779,7050001056071,新規,0,2025-01-28,2025-01-28,ＮＥＷＴ株式会社,,株式会社,茨城県,日立市,砂沢町１６３番２,,08,202,3191418,,,,,,,2025-01-28,1,,,,,ニュート,0
4780,7050003008970,新規,0,2025-01-28,2025-01-28,グローバルオートトレーディング合同会社,,合同会社,茨城県,下妻市,高道祖４１８２番地２,,08,210,3040031,,,,,,,2025-01-28,1,,,,,グローバルオートトレーディング,0
4781,7060001037863,新規,0,2025-01-28,2025-01-28,株式会社Ｃｈｅｒ　Ｍｏｉ,,株式会社,栃木県,宇都宮市,砂田町３０９番地５,,09,201,3210113,,,,,,,2025-01-28,1,,,,,シェルモア,0
4782,7070001042573,新規,0,2025-01-28,2025-01-28,豊商事株式会社,,株式会社,群馬県,高崎市,貝沢町１０２番地,,10,202,3700042,,,,,,,2025-01-28,1,,,,,ユタカショウジ,0
4784,7070003005768,新規,0,2025-01-28,2025-01-28,合同会社ネコネコハーモニー,,合同会社,群馬県,桐生市,新里町板橋４５０－１,,10,203,3760136,,,,,,,2025-01-28,1,,,,,,0
4787,7080005007662,新規,0,2025-01-28,2025-01-28,農事組合法人Ｄ９,,その他の設立登記法人,静岡県,静岡市清水区,三保４１３１,,22,103,4240901,,,,,,,2025-01-28,1,,,,,ディーナイン,0
4792,7090001019116,新規,0,2025-01-28,2025-01-28,富士の縁株式会社,,株式会社,山梨県,南都留郡山中湖村,山中９８９‐３,,19,425,4010501,,,,,,,2025-01-28,1,,,,,フジノエン,0
4794,7090003002730,新規,0,2025-01-28,2025-01-28,合同会社仁安,,合同会社,山梨県,甲府市,中村町１３番４号,,19,201,4000069,,,,,,,2025-01-28,1,,,,,ジンアン,0
4797,7100003007959,新規,0,2025-01-28,2025-01-28,合同会社白馬ホスピタリティグループ,,合同会社,長野県,北安曇郡白馬村,大字北城５０９０番地１,,20,485,3999301,,,,,,,2025-01-28,1,,,,,ハクバホスピタリティグループ,0
4817,7120001272132,新規,0,2025-01-28,2025-01-28,つばさ製薬研究所株式会社,,株式会社,大阪府,大阪市北区,梅田３丁目２番１２３号,,27,127,5300001,,,,,,,2025-01-28,1,,,,,ツバサセイヤクケンキュウショ,0
4818,7120001272231,新規,0,2025-01-28,2025-01-28,株式会社ＳＰＣ,,株式会社,大阪府,大阪市住吉区,苅田８丁目１２番２－３０３号,,27,120,5580011,,,,,,,2025-01-28,1,,,,,エスピーシー,0
4819,7120001272413,新規,0,2025-01-28,2025-01-28,志和通商株式会社,,株式会社,大阪府,大阪市生野区,新今里３丁目４番３－４０１号,,27,116,5440001,,,,,,,2025-01-28,1,,,,,シワツウショウ,0
4821,7120005024744,新規,0,2025-01-28,2025-01-28,一般社団法人工医会,,その他の設立登記法人,大阪府,大阪市旭区,今市１丁目１３番１３号,,27,117,5350011,,,,,,,2025-01-28,1,,,,,コウイカイ,0
4823,7120105009967,新規,0,2025-01-28,2025-01-28,ＮＰＯ法人貝塚三玲みどりの会,,その他の設立登記法人,大阪府,貝塚市,近木町２１番１号,,27,208,5970001,,,,,,,2025-01-28,1,,,,,カイヅカミレイミドリノカイ,0
4826,7120901050364,新規,0,2025-01-28,2025-01-28,株式会社ＥＮ,,株式会社,大阪府,高槻市,辻子３丁目６６番１１号,00137802,27,207,5690036,,,,,,,2025-01-28,1,,,,,エン,0
5045,7130001078850,新規,0,2025-01-28,2025-01-28,株式会社住和,,株式会社,京都府,京都市右京区,嵯峨天龍寺椎野町１４番地,,26,108,6168357,,,,,,,2025-01-28,1,,,,,ジュウワ,0
5051,7130003010167,新規,0,2025-01-28,2025-01-28,合同会社ケイモーション,,合同会社,京都府,京都市中京区,大炊町３６５－７ＰＡＬビル２Ｆ,,26,104,6040092,,,,,,,2025-01-28,1,,,,,ケイモーション,0
5057,7140001137201,新規,0,2025-01-28,2025-01-28,ＴＫＮ株式会社,,株式会社,兵庫県,明石市,小久保３丁目４番地の１２,,28,203,6730005,,,,,,,2025-01-28,1,,,,,ティケイエヌ,0
5058,7140001137234,新規,0,2025-01-28,2025-01-28,株式会社ＫＩ‐ＥＮ,,株式会社,兵庫県,三木市,末広３丁目３２３番地の２スエカゲビル１Ｆ,,28,215,6730403,,,,,,,2025-01-28,1,,,,,キエン,0
5059,7140003021576,新規,0,2025-01-28,2025-01-28,Ｍｏｖｅ　Ｆｏｒｗａｒｄ　Ｊａｐａｎ合同会社,,合同会社,兵庫県,三田市,沢谷７４８番地,,28,219,6691335,,,,,,,2025-01-28,1,,,,,ムーブフォワードジャパン,0
5060,7140003021584,新規,0,2025-01-28,2025-01-28,合同会社Ｌｉｆｅ,,合同会社,兵庫県,伊丹市,鴻池３丁目２番１号,,28,207,6640006,,,,,,,2025-01-28,1,,,,,ライフ,0
5062,7150001027822,新規,0,2025-01-28,2025-01-28,株式会社森本建設,,株式会社,奈良県,宇陀郡御杖村,大字神末５５３５番地,,29,386,6331301,,,,,,,2025-01-28,1,,,,,モリモトケンセツ,0
5068,7180001165132,新規,0,2025-01-28,2025-01-28,株式会社モリスアンドコー,,株式会社,愛知県,名古屋市中村区,名駅４丁目２４番５号第２森ビル４０１,,23,105,4500002,,,,,,,2025-01-28,1,,,,,モリスアンドコー,0
5069,7180001165173,新規,0,2025-01-28,2025-01-28,Ｒｅグループ株式会社,,株式会社,愛知県,名古屋市中区,栄４丁目２０番９号第１０六本木ビレッジビル３０６号,,23,106,4600008,,,,,,,2025-01-28,1,,,,,アールイーグループ,0
5070,7180001165181,新規,0,2025-01-28,2025-01-28,株式会社ジニア,,株式会社,愛知県,名古屋市緑区,黒沢台３丁目１４０７番地,,23,114,4580003,,,,,,,2025-01-28,1,,,,,ジニア,0
5071,7180001165198,新規,0,2025-01-28,2025-01-28,株式会社Ｌｅａｄ　Ａｒｒｏｗ,,株式会社,愛知県,名古屋市名東区,大針２丁目３９番地の１,,23,115,4650064,,,,,,,2025-01-28,1,,,,,リードアロー,0
5072,7180001165207,新規,0,2025-01-28,2025-01-28,株式会社エスアール,,株式会社,愛知県,名古屋市名東区,貴船３丁目１２０番地ツインホワイトＢ３０２,,23,115,4650058,,,,,,,2025-01-28,1,,,,,エスアール,0
5073,7180001165215,新規,0,2025-01-28,2025-01-28,株式会社ｓｅｃｏｎｄ　ａｃｔ,,株式会社,愛知県,名古屋市中川区,富船町３丁目１番地の１,,23,110,4540823,,,,,,,2025-01-28,1,,,,,セカンドアクト,0
5076,7180003027917,新規,0,2025-01-28,2025-01-28,合同会社エグゼ,,合同会社,愛知県,長久手市,片平２３番地１７３,,23,238,4801146,,,,,,,2025-01-28,1,,,,,エグゼ,0
5081,7180303006439,新規,0,2025-01-28,2025-01-28,正一不動産合同会社,,合同会社,愛知県,豊田市,陣中町２丁目１１番地４,,23,211,4710079,,,,,,,2025-01-28,1,,,,,マサカズフドウサン,0
5097,7220001026453,新規,0,2025-01-28,2025-01-28,株式会社アクトＨＤ,,株式会社,石川県,金沢市,大豆田本町ハ１７番地２,,17,201,9218047,,,,,,,2025-01-28,1,,,,,アクトエイチディ,0
5105,7260003005047,新規,0,2025-01-28,2025-01-28,合同会社レユスィール,,合同会社,岡山県,岡山市北区,田町２丁目１２番２２号アスパイア参番館６階,,33,101,7000825,,,,,,,2025-01-28,1,,,,,レユスィール,0
5110,7290001108716,新規,0,2025-01-28,2025-01-28,株式会社協事,,株式会社,福岡県,久留米市,田主丸町豊城１５６７－１Ｃ－２,,40,203,8391234,,,,,,,2025-01-28,1,,,,,キョウジ,0
5112,7290801031233,新規,0,2025-01-28,2025-01-28,株式会社ＲＡＹＳグループ,,株式会社,福岡県,北九州市小倉北区,大手町１２－５,,40,106,8030814,,,,,,,2025-01-28,1,,,,,,0
5115,7290805009804,新規,0,2025-01-28,2025-01-28,一般社団法人ジャパングローバルハラル認証機構,,その他の設立登記法人,福岡県,中間市,上蓮花寺１丁目２番１号,,40,215,8090013,,,,,,,2025-01-28,1,,,,,ジャパングローバルハラルニンショウキコウ,0
5126,7340001027084,新規,0,2025-01-28,2025-01-28,株式会社真茅モータース,,株式会社,鹿児島県,南九州市,知覧町塩屋１９１８３番地１,,46,223,8910911,,,,,,,2025-01-28,1,,,,,マカヤモータース,0
5136,7360001034715,新規,0,2025-01-28,2025-01-28,株式会社クライマックス,,株式会社,沖縄県,宜野湾市,大山１丁目１４番５号,,47,205,9012223,,,,,,,2025-01-28,1,,,,,クライマックス,0
5137,7360001034723,新規,0,2025-01-28,2025-01-28,株式会社まぁる企画,,株式会社,沖縄県,中頭郡中城村,字奥間９４８番地４,,47,328,9012412,,,,,,,2025-01-28,1,,,,,マァルキカク,0
5142,7380001035059,新規,0,2025-01-28,2025-01-28,株式会社ＰＯＮＯ,,株式会社,福島県,福島市,五月町７番９号サンクレイドル福島五月ウィンフォート９０４号室,,07,201,9608061,,,,,,,2025-01-28,1,,,,,ポノ,0
5145,7410003004041,新規,0,2025-01-28,2025-01-28,合同会社鉱物資源科学ラボ,,合同会社,秋田県,秋田市,桜ガ丘１丁目４番地１,,05,201,0100043,,,,,,,2025-01-28,1,,,,,コウブツシゲンカガクラボ,0
5152,7430001093547,新規,0,2025-01-28,2025-01-28,Ｏｕｔｄｏｏｒ　Ｍｉｃｈｉ株式会社,,株式会社,北海道,虻田郡倶知安町,南三条西２丁目３－３－１０１,,01,400,0440033,,,,,,,2025-01-28,1,,,,,アウトドアーミチ,0
5153,7430001093571,新規,0,2025-01-28,2025-01-28,ＰＬ　Ａ‐ＶＥＮＴＵＲＥ株式会社,,株式会社,北海道,虻田郡ニセコ町,字元町７９番地４８,,01,395,0481544,,,,,,,2025-01-28,1,,,,,ピーエルアバンチュール,0
5155,7430003017223,新規,0,2025-01-28,2025-01-28,衆悦合同会社,,合同会社,北海道,札幌市中央区,円山西町１０丁目６番１４号,,01,101,0640944,,,,,,,2025-01-28,1,,,,,シュウエツ,0
5157,7450005004440,新規,0,2025-01-28,2025-01-28,一般社団法人移る夢,,その他の設立登記法人,北海道,深川市,音江町２丁目６番２８号,,01,228,0741273,,,,,,,2025-01-28,1,,,,,,0
5161,7470001020555,新規,0,2025-01-28,2025-01-28,エスエーシー株式会社,,株式会社,香川県,丸亀市,飯野町東二１４８６番地,,37,202,7630084,,,,,,,2025-01-28,1,,,,,エスエーシー,0
5164,7490003001972,新規,0,2025-01-28,2025-01-28,合同会社ＭＩＺＵＹＵＫＩ,,合同会社,高知県,高知市,札場３番３６号セジュールふだばＢ棟１０１号室,,39,201,7810085,,,,,,,2025-01-28,1,,,,,,0
5166,7700150050866,新規,0,2025-01-28,2015-10-09,富山県中小企業家同友会,,その他,富山県,富山市,上飯野２５,,16,201,9300827,,,,,,,2015-10-09,1,,,,,トヤマケンチユウシヨウキギヨウカドウユウカイ,0
5167,7700150128992,新規,0,2025-01-28,2025-01-28,Ｄ　Ｍ　Ｓ　ＡＵＴＯ　ＴＲＡＤＥＲＳ,,外国会社等,千葉県,八街市,東吉田７２５番地ビジネスオフィス３７号,,12,230,2891114,スリランカ民主社会主義共和国、パンニピティヤ、アレウワラ、マハラガマロード、Ｎｏ．４７４／１Ｄ,,,,,,2025-01-28,1,,,,,デイーエムエスオートトレーダース,0
5168,7700150129000,新規,0,2025-01-28,2025-01-28,ＭＡＧＷＨＥＥＬ　ＡＵＴＯ　ＩＮＴＥＲＮＡＴＩＯＮＡＬ,,外国会社等,千葉県,山武市,大木６５０番地９オフィス３,,12,237,2891211,スリランカ民主社会主義共和国、ガンポラ、ウナンブワ、ヘナワスタ、ナランガハ、Ｎｏ．４２／２,,,,,,2025-01-28,1,,,,,マグウイールオートインターナシヨナル,0
5176,8010001251740,新規,0,2025-01-28,2025-01-28,Ｋｉｏｃｏ株式会社,,株式会社,東京都,中央区,銀座６丁目１３番１６号銀座ＷａｌｌビルＵＣＦ５０１,,13,102,1040061,,,,,,,2025-01-28,1,,,,,キオコ,0
5177,8010001251757,新規,0,2025-01-28,2025-01-28,株式会社Ｐｒｉｍｅ　ＬＩＮＥＲ,,株式会社,東京都,千代田区,九段南１丁目５番６号りそな九段ビル５階ＫＳフロア,,13,101,1020074,,,,,,,2025-01-28,1,,,,,プライムライナー,0
5178,8010001251765,新規,0,2025-01-28,2025-01-28,福慶永株式会社,,株式会社,東京都,千代田区,神田練塀町７３番地,,13,101,1010022,,,,,,,2025-01-28,1,,,,,フッケイエイ,0
5179,8010003046180,新規,0,2025-01-28,2025-01-28,合同会社ｔｗｏ　ｍｏｒｅ,,合同会社,東京都,中央区,銀座１丁目１２番４号Ｎ＆ＥＢＬＤ．６Ｆ,,13,102,1040061,,,,,,,2025-01-28,1,,,,,ツーモア,0
5180,8010003046230,新規,0,2025-01-28,2025-01-28,日本能記合同会社,,合同会社,東京都,中央区,銀座１丁目１２番４号Ｎ＆ＥＢＬＤ．６Ｆ,,13,102,1040061,,,,,,,2025-01-28,1,,,,,ニホンノウキ,0
5181,8010005039471,新規,0,2025-01-28,2025-01-28,一般社団法人ＳＥＣＯＮＤ,,その他の設立登記法人,東京都,千代田区,神田須田町１丁目８番地４陽友神田ビル５階,,13,101,1010041,,,,,,,2025-01-28,1,,,,,セカンド,0
5188,8010403034223,新規,0,2025-01-28,2025-01-28,合同会社ＵＩＫＸ,,合同会社,東京都,港区,三田３丁目７番２４－５０４号,,13,103,1080073,,,,,,,2025-01-28,1,,,,,ユーアイケーエックス,0
5190,8010405023950,新規,0,2025-01-28,2025-01-28,一般社団法人Ｇｒｏｗｎｅｒ,,その他の設立登記法人,東京都,港区,赤坂５丁目１－２６サンライズ赤坂ビル４０１,,13,103,1070052,,,,,,,2025-01-28,1,,,,,グロウナー,0
5331,8010601066670,新規,0,2025-01-28,2025-01-28,株式会社Ｐ＆Ｇ,,株式会社,東京都,江東区,東陽２丁目３番６－３１１号,,13,108,1350016,,,,,,,2025-01-28,1,,,,,ピーアンドジー,0
5337,8010801035789,新規,0,2025-01-28,2025-01-28,株式会社ＰＹＯＮ,,株式会社,東京都,大田区,蒲田１丁目２４番１２号ヒュッゲカンダハイムＡＴＥＬＩＥＲＤＯＵＸＲＥＰＯＳ,,13,111,1440052,,,,,,,2025-01-28,1,,,,,ピョン,0
5338,8010803005261,新規,0,2025-01-28,2025-01-28,合同会社すうがくに,,合同会社,東京都,大田区,南千束３丁目２６番１３号川端方２０１,,13,111,1450063,,,,,,,2025-01-28,1,,,,,スウガクニ,0
5339,8010901056702,新規,0,2025-01-28,2025-01-28,ミッケン株式会社,,株式会社,東京都,世田谷区,太子堂４丁目１８－１５マガザン三軒茶屋２－３Ｆ－３,,13,112,1540004,,,,,,,2025-01-28,1,,,,,ミッケン,0
5346,8011001167126,新規,0,2025-01-28,2025-01-28,リトルリンク株式会社,,株式会社,東京都,渋谷区,道玄坂１丁目１０番８号渋谷道玄坂東急ビル２Ｆ－Ｃ,,13,113,1500043,,,,,,,2025-01-28,1,,,,,リトルリンク,0
5351,8011101110332,新規,0,2025-01-28,2025-01-28,株式会社キャメル,,株式会社,東京都,新宿区,下落合１丁目３番１６－１０６号,,13,104,1610033,,,,,,,2025-01-28,1,,,,,キャメル,0
5352,8011101110423,新規,0,2025-01-28,2025-01-28,株式会社Ｐａｎｄａｆｕｌ,,株式会社,東京都,新宿区,西新宿３丁目３番１３号西新宿水間ビル６階,,13,104,1600023,,,,,,,2025-01-28,1,,,,,パンダフル,0
5354,8011103015447,新規,0,2025-01-28,2025-01-28,合同会社ＴＵ００８,,合同会社,東京都,新宿区,四谷２丁目９番地１５東京ユナイテッド綜合事務所内,,13,104,1600004,,,,,,,2025-01-28,1,,,,,ティーユーゼロゼロエイト,0
5355,8011105011304,新規,0,2025-01-28,2025-01-28,特定非営利活動法人在日ママ読書教育協会,,その他の設立登記法人,東京都,新宿区,西新宿３丁目３番１３号西新宿水間ビル２Ｆ,,13,104,1600023,,,,,,,2025-01-28,1,,,,,ザイニチママドクショキョウイクキョウカイ,0
5357,8011201026073,新規,0,2025-01-28,2025-01-28,株式会社ＲＯＹＡＬ,,株式会社,東京都,中野区,沼袋３丁目７番１５号,,13,114,1650025,,,,,,,2025-01-28,1,,,,,ロイヤル,0
5358,8011203004589,新規,0,2025-01-28,2025-01-28,合同会社ＴＫＳ,,合同会社,東京都,中野区,丸山１丁目４番１号,,13,114,1650021,,,,,,,2025-01-28,1,,,,,ティーケーエス,0
5359,8011301030322,新規,0,2025-01-28,2025-01-28,株式会社ＧｌｏＣａｌ,,株式会社,東京都,杉並区,永福４丁目１４－３－１０２,,13,115,1680064,,,,,,,2025-01-28,1,,,,,グローカル,0
5424,8011501031640,新規,0,2025-01-28,2025-01-28,株式会社ルミナリーデジタルマジック,,株式会社,東京都,荒川区,東日暮里５丁目５０番５号アートホテル日暮里ラングウッド３Ｆ,,13,118,1160014,,,,,,,2025-01-28,1,,,,,ルミナリーデジタルマジック,0
5427,8011801045506,新規,0,2025-01-28,2025-01-28,Ｍａｇｅｌｌａｎ　Ｓｅｒｖｉｃｅ株式会社,,株式会社,東京都,葛飾区,東四つ木４丁目３８番１５－５０５号ライオンズマンション四つ木第２,,13,122,1240014,,,,,,,2025-01-28,1,,,,,マゼランサービス,0
5428,8011801045522,新規,0,2025-01-28,2025-01-28,スピリッツ株式会社,,株式会社,東京都,足立区,千住桜木２丁目１７番２－４０６号リバーサイド桜木２号棟,,13,121,1200045,,,,,,,2025-01-28,1,,,,,スピリッツ,0
5520,8020001161022,新規,0,2025-01-28,2025-01-28,ロジファスト株式会社,,株式会社,神奈川県,横浜市南区,真金町２丁目１９－２１クオス横浜大通り公園７０４,,14,105,2320021,,,,,,,2025-01-28,1,,,,,ロジファスト,0
5521,8020001161088,新規,0,2025-01-28,2025-01-28,株式会社Ｒｕｋｕａ,,株式会社,神奈川県,横浜市緑区,十日市場町８０５番地１佐藤ビル４０５,,14,113,2260025,,,,,,,2025-01-28,1,,,,,ルクア,0
5522,8020001161187,新規,0,2025-01-28,2025-01-28,株式会社ＴＡＧ,,株式会社,神奈川県,横浜市瀬谷区,北新２９番地１４,,14,114,2460036,,,,,,,2025-01-28,1,,,,,タッグ,0
5524,8020003027634,新規,0,2025-01-28,2025-01-28,合同会社大治コーポレーション,,合同会社,神奈川県,横浜市港北区,仲手原２丁目２５番１７号,,14,109,2220023,,,,,,,2025-01-28,1,,,,,ダイジコーポレーション,0
5525,8020003027675,新規,0,2025-01-28,2025-01-28,合同会社ＹＯＳＳＨＹ,,合同会社,神奈川県,横浜市金沢区,富岡東１丁目１番２１－１０３号,,14,108,2360051,,,,,,,2025-01-28,1,,,,,ヨッシー,0
5533,8021001084312,新規,0,2025-01-28,2025-01-28,株式会社ｔｉｔｏ,,株式会社,神奈川県,藤沢市,本鵠沼５丁目１３番２４号,,14,205,2510028,,,,,,,2025-01-28,1,,,,,ティト,0
5534,8021001084329,新規,0,2025-01-28,2025-01-28,株式会社タスク創建,,株式会社,神奈川県,藤沢市,善行５丁目８番５号,,14,205,2510871,,,,,,,2025-01-28,1,,,,,タスクソウケン,0
5535,8021001084337,新規,0,2025-01-28,2025-01-28,株式会社東京耐風コンサルティング,,株式会社,神奈川県,相模原市南区,相模大野７丁目１４－３メゾンリキ２０４号,,14,153,2520303,,,,,,,2025-01-28,1,,,,,トウキョウタイフウコンサルティング,0
5540,8021003015505,新規,0,2025-01-28,2025-01-28,東京外観合同会社,,合同会社,神奈川県,厚木市,下川入３９１－１プランドルＳ１－２０２,,14,212,2430206,,,,,,,2025-01-28,1,,,,,トウキョウガイカン,0
5544,8030001164552,新規,0,2025-01-28,2025-01-28,株式会社ＢＵ,,株式会社,埼玉県,川口市,大字東本郷１７２８番地１,,11,203,3340063,,,,,,,2025-01-28,1,,,,,ビーユー,0
5545,8030001164569,新規,0,2025-01-28,2025-01-28,ＨＡＳＥＹＡＭＡ商社株式会社,,株式会社,埼玉県,川越市,大字今福２７７７番地１４,,11,201,3501151,,,,,,,2025-01-28,1,,,,,ハセヤマショウシャ,0
5546,8030001164585,新規,0,2025-01-28,2025-01-28,株式会社ワンダーポケット,,株式会社,埼玉県,さいたま市浦和区,瀬ヶ崎２丁目９番１号５０１,,11,107,3300044,,,,,,,2025-01-28,1,,,,,ワンダーポケット,0
5547,8030001164619,新規,0,2025-01-28,2025-01-28,ウエスト株式会社,,株式会社,埼玉県,さいたま市大宮区,吉敷町２丁目１０８番地４吉敷スカイハイツ２１１,,11,103,3300843,,,,,,,2025-01-28,1,,,,,ウエスト,0
5550,8030003025934,新規,0,2025-01-28,2025-01-28,合同会社２５ＢＡＳＥ,,合同会社,埼玉県,蕨市,中央４丁目１８番１６号栄光ビル１０２,,11,223,3350004,,,,,,,2025-01-28,1,,,,,ニコベース,0
5551,8030003025942,新規,0,2025-01-28,2025-01-28,合同会社ＬｉＬｉＨａ,,合同会社,埼玉県,加須市,上高柳１２５番地１,,11,210,3470101,,,,,,,2025-01-28,1,,,,,リリハ,0
5552,8030003025950,新規,0,2025-01-28,2025-01-28,サンウエスト合同会社,,合同会社,埼玉県,新座市,西堀２丁目１７番２７－４０号,,11,230,3520031,,,,,,,2025-01-28,1,,,,,サンウエスト,0
5553,8030003025967,新規,0,2025-01-28,2025-01-28,合同会社ＮＷ７６５,,合同会社,埼玉県,富士見市,ふじみ野東１丁目４番地１ベルフラワーふじみ野４０１,,11,235,3540036,,,,,,,2025-01-28,1,,,,,エヌダブリューナナロクゴ,0
5560,8040001137160,新規,0,2025-01-28,2025-01-28,株式会社Ｇｉｖｉｎｇ４Ｈ　Ｇｌｏｂａｌ,,株式会社,千葉県,千葉市花見川区,幕張町１丁目７６８７番地４０８号室,,12,102,2620032,,,,,,,2025-01-28,1,,,,,ギビングフォーエイチグローバル,0
5561,8040001137185,新規,0,2025-01-28,2025-01-28,株式会社ギアライン,,株式会社,千葉県,市川市,南八幡５丁目１２番８号,,12,203,2720023,,,,,,,2025-01-28,1,,,,,ギアライン,0
5567,8050003008953,新規,0,2025-01-28,2025-01-28,合同会社ファーム,,合同会社,茨城県,神栖市,波崎７８９７番地６,,08,232,3140408,,,,,,,2025-01-28,1,,,,,ファーム,0
5568,8050003008986,新規,0,2025-01-28,2025-01-28,Ｏ　Ｓａｋｅ　Ｂａｓｅ合同会社,,合同会社,茨城県,つくば市,島名１１０１番地,,08,220,3002655,,,,,,,2025-01-28,1,,,,,オサケベース,0
5570,8060001037862,新規,0,2025-01-28,2025-01-28,ＭＯＮＴＴＹ株式会社,,株式会社,栃木県,真岡市,田町１７８４番地,,09,209,3214325,,,,,,,2025-01-28,1,,,,,モンティ,0
5571,8060001037870,新規,0,2025-01-28,2025-01-28,株式会社なかよし,,株式会社,栃木県,栃木市,大平町新１４６４番地１,,09,203,3294425,,,,,,,2025-01-28,1,,,,,ナカヨシ,0
5573,8070001042498,新規,0,2025-01-28,2025-01-28,ＧＴ　ＷＯＲＫＳ株式会社,,株式会社,群馬県,太田市,福沢町２９９番地１３新和ハイツＡ－２,,10,205,3730831,,,,,,,2025-01-28,1,,,,,ジーティーワークス,0
5574,8070001042589,新規,0,2025-01-28,2025-01-28,株式会社がんばり屋さん,,株式会社,群馬県,太田市,小舞木町３１１ＭＢＣＶ２０２号,,10,205,3730818,,,,,,,2025-01-28,1,,,,,ガンバリヤサン,0
5581,8080005007661,新規,0,2025-01-28,2025-01-28,農事組合法人Ｄ７,,その他の設立登記法人,静岡県,静岡市清水区,三保４１３１,,22,103,4240901,,,,,,,2025-01-28,1,,,,,ディーセブン,0
5589,8090001019107,新規,0,2025-01-28,2025-01-28,旭株式会社,,株式会社,山梨県,甲府市,酒折２丁目９番２３ＲＣコード１０３室,,19,201,4000805,,,,,,,2025-01-28,1,,,,,,0
5595,8100003007966,新規,0,2025-01-28,2025-01-28,合同会社ニブルス,,合同会社,長野県,諏訪郡原村,１７２１７－１６２５,,20,363,3910100,,,,,,,2025-01-28,1,,,,,ニブルス,0
5610,8120001272271,新規,0,2025-01-28,2025-01-28,株式会社ＭＹＵ,,株式会社,大阪府,大阪市天王寺区,玉造本町１３番３０号ＭＡＳＴ真田山４０３,,27,109,5430013,,,,,,,2025-01-28,1,,,,,エムワイユー,0
5611,8120001272296,新規,0,2025-01-28,2025-01-28,井上空調設備株式会社,,株式会社,大阪府,大阪市生野区,勝山北２丁目１５番２８号,,27,116,5440033,,,,,,,2025-01-28,1,,,,,イノウエクウチョウセツビ,0
5612,8120001272313,新規,0,2025-01-28,2025-01-28,株式会社ＶＩＡ,,株式会社,大阪府,大阪市北区,長柄西２丁目１番１号,,27,127,5310061,,,,,,,2025-01-28,1,,,,,ヴィア,0
5613,8120001272338,新規,0,2025-01-28,2025-01-28,株式会社ナイトプラネット,,株式会社,大阪府,大阪市天王寺区,上汐５丁目４番２２－８０１号,,27,109,5430002,,,,,,,2025-01-28,1,,,,,ナイトプラネット,0
5614,8120003028382,新規,0,2025-01-28,2025-01-28,美容外科クリニック比較ナビ合同会社,,合同会社,大阪府,大阪市都島区,都島中通２丁目１５－７,,27,102,5340022,,,,,,,2025-01-28,1,,,,,ビヨウゲカクリニックヒカクナビ,0
5622,8122001038834,新規,0,2025-01-28,2025-01-28,株式会社Ｃｏｃｏｃｏ,,株式会社,大阪府,大東市,赤井１丁目４番１号,,27,218,5740046,,,,,,,2025-01-28,1,,,,,コココ,0
5842,8130001078882,新規,0,2025-01-28,2025-01-28,アースウインド株式会社,,株式会社,京都府,八幡市,下奈良今里３０番,,26,210,6148147,,,,,,,2025-01-28,1,,,,,アースウインド,0
5856,8140001137217,新規,0,2025-01-28,2025-01-28,株式会社三木コンサルティング,,株式会社,兵庫県,神戸市東灘区,鴨子ヶ原１丁目１２番２１号,,28,101,6580064,,,,,,,2025-01-28,1,,,,,ミキコンサルティング,0
5857,8140001137225,新規,0,2025-01-28,2025-01-28,未来デザイン株式会社,,株式会社,兵庫県,姫路市,元町１１３－１元町西ビル２０９,,28,201,6700049,,,,,,,2025-01-28,1,,,,,ミライデザイン,0
5858,8140001137241,新規,0,2025-01-28,2025-01-28,アシリーオイル株式会社,,株式会社,兵庫県,神戸市中央区,元町通５丁目３－１８－４０１,,28,110,6500022,,,,,,,2025-01-28,1,,,,,アシリーオイル,0
5859,8140001137258,新規,0,2025-01-28,2025-01-28,株式会社ｓｅｅｄ,,株式会社,兵庫県,尼崎市,南武庫之荘１２丁目２０－５４,,28,202,6610033,,,,,,,2025-01-28,1,,,,,シード,0
5864,8140003021583,新規,0,2025-01-28,2025-01-28,Ａ　ｓｔｕｄｉｏ合同会社,,合同会社,兵庫県,神戸市中央区,磯辺通１丁目１番１８号カサベラ国際プラザビル７０７号室,,28,110,6510084,,,,,,,2025-01-28,1,,,,,エースタジオ,0
5865,8140003021591,新規,0,2025-01-28,2025-01-28,ＹＵＲＩｎｅｓｔ合同会社,,合同会社,兵庫県,神戸市東灘区,青木５丁目１３番１４－８０３号,,28,101,6580027,,,,,,,2025-01-28,1,,,,,ユリネスト,0
5871,8180001165148,新規,0,2025-01-28,2025-01-28,株式会社ベル経営研究所,,株式会社,愛知県,名古屋市守山区,桜坂５丁目５０６番地,,23,113,4630018,,,,,,,2025-01-28,1,,,,,ベルケイエイケンキュウショ,0
5872,8180001165156,新規,0,2025-01-28,2025-01-28,株式会社ｏｌｄ　ｃｉｎｅｍａ　ｔｒａｎｓｉｔｉｏｎ,,株式会社,愛知県,名古屋市緑区,桶狭間１９１０番地,,23,114,4580925,,,,,,,2025-01-28,1,,,,,オールドシネマトランジション,0
5873,8180001165164,新規,0,2025-01-28,2025-01-28,株式会社ＫＮＳホールディングス,,株式会社,愛知県,名古屋市守山区,八反６番９号,,23,113,4630063,,,,,,,2025-01-28,1,,,,,ケーエヌエスホールディングス,0
5874,8180001165172,新規,0,2025-01-28,2025-01-28,不二木工芸株式会社,,株式会社,愛知県,あま市,七宝町下田西長代１３４３番地,,23,237,4970012,,,,,,,2025-01-28,1,,,,,フジモクコウゲイ,0
5875,8180001165180,新規,0,2025-01-28,2025-01-28,株式会社向島オフィス,,株式会社,愛知県,名古屋市中村区,名駅３丁目４－１０アルティメイト名駅１ｓｔ２階,,23,105,4500002,,,,,,,2025-01-28,1,,,,,ムコウジマオフィス,0
5876,8180001165214,新規,0,2025-01-28,2025-01-28,株式会社Ｕｐｌｕｓ,,株式会社,愛知県,名古屋市中村区,名駅４丁目２４番５号第２森ビル４０１,,23,105,4500002,,,,,,,2025-01-28,1,,,,,ユープラス,0
5877,8180001165239,新規,0,2025-01-28,2025-01-28,Ｚｅｎｗａｒｅ株式会社,,株式会社,愛知県,名古屋市中村区,平池町４丁目６０－１２ＷｅＷｏｒｋ　Ｇｌｏｂａｌ　Ｇａｔｅ　Ｎａｇｏｙａ,,23,105,4530872,,,,,,,2025-01-28,1,,,,,ゼンウエア,0
5880,8180003027882,新規,0,2025-01-28,2025-01-28,合同会社ＡＮＤＮＥＷ,,合同会社,愛知県,名古屋市中村区,名駅南１丁目１３－８セントラルハイツ柳橋２０１,,23,105,4500003,,,,,,,2025-01-28,1,,,,,アンドニュー,0
5881,8180003027916,新規,0,2025-01-28,2025-01-28,ベースディ合同会社,,合同会社,愛知県,名古屋市西区,市場木町４９１番地の１（カルティア庄内緑地公園４０７号）,,23,104,4520805,,,,,,,2025-01-28,1,,,,,ベースディ,0
5882,8180301039464,新規,0,2025-01-28,2025-01-28,株式会社ＮＥＸＴ,,株式会社,愛知県,豊橋市,松葉町２丁目３２番地ＬａＬａ松葉ビル４階,,23,201,4400897,,,,,,,2025-01-28,1,,,,,ネクスト,0
5883,8180301039472,新規,0,2025-01-28,2025-01-28,株式会社ＡＵＧ,,株式会社,愛知県,刈谷市,中手町３丁目５１３番地,,23,210,4480049,,,,,,,2025-01-28,1,,,,,エーユージー,0
5884,8180303006438,新規,0,2025-01-28,2025-01-28,合同会社ひまわり,,合同会社,愛知県,岡崎市,康生通南１丁目３８番地アルバックスタワー岡崎康生１４０４号,,23,202,4440044,,,,,,,2025-01-28,1,,,,,ヒマワリ,0
5889,8190003004922,新規,0,2025-01-28,2025-01-28,合同会社Ｆｕｌｌ　Ｈｅａｌｔｈ,,合同会社,三重県,四日市市,富士町８‐６６,,24,202,5100013,,,,,,,2025-01-28,1,,,,,フルヘルス,0
5899,8250001020980,新規,0,2025-01-28,2025-01-28,株式会社拓電工,,株式会社,山口県,下関市,彦島塩浜町３丁目１１番５号,,35,201,7500086,,,,,,,2025-01-28,1,,,,,タクデンコウ,0
5904,8260003005046,新規,0,2025-01-28,2025-01-28,合同会社アミティエ,,合同会社,岡山県,岡山市北区,田町２丁目１２番２２号アスパイア参番館６階,,33,101,7000825,,,,,,,2025-01-28,1,,,,,アミティエ,0
5905,8270001009139,新規,0,2025-01-28,2025-01-28,株式会社ＣＡＭＥＬ　Ａｉｄ,,株式会社,鳥取県,米子市,米原９丁目１１番１３号,,31,202,6830804,,,,,,,2025-01-28,1,,,,,キャメルエイド,0
5907,8290003016313,新規,0,2025-01-28,2025-01-28,合同会社ブライド,,合同会社,福岡県,福岡市博多区,博多駅前１丁目２３番２号ＰａｒｋＦｒｏｎｔ博多駅前１丁目５Ｆ－Ｂ,,40,132,8120011,,,,,,,2025-01-28,1,,,,,ブライド,0
5920,8340001027091,新規,0,2025-01-28,2025-01-28,株式会社ＷｏＷ　Ａｇｒｉ,,株式会社,鹿児島県,鹿屋市,西原４丁目１４－３２－Ｃ,,46,203,8930064,,,,,,,2025-01-28,1,,,,,ワオアグリ,0
5931,8350003004831,新規,0,2025-01-28,2025-01-28,合同会社グッドコミニティプロデュース,,合同会社,宮崎県,宮崎市,霧島４丁目３９番２,,45,201,8800032,,,,,,,2025-01-28,1,,,,,,0
5937,8360001034722,新規,0,2025-01-28,2025-01-28,株式会社ＫＡＭＥ．,,株式会社,沖縄県,島尻郡渡嘉敷村,字阿波連７６,,47,353,9013502,,,,,,,2025-01-28,1,,,,,カメ,0
5944,8380001035066,新規,0,2025-01-28,2025-01-28,株式会社ファインネスト,,株式会社,福島県,本宮市,本宮字小原田２００番地２,,07,214,9691169,,,,,,,2025-01-28,1,,,,,ファインネスト,0
5947,8410003004040,新規,0,2025-01-28,2025-01-28,合同会社ＭＣコンサルティング,,合同会社,秋田県,鹿角市,花輪字上花輪１０５番地３‐２階,,05,209,0185201,,,,,,,2025-01-28,1,,,,,エムシーコンサルティング,0
5955,8430001093546,新規,0,2025-01-28,2025-01-28,株式会社永野農場,,株式会社,北海道,雨竜郡雨竜町,字尾白利加２２５番地９８１,,01,436,0782600,,,,,,,2025-01-28,1,,,,,ナガノノウジョウ,0
5956,8430001093562,新規,0,2025-01-28,2025-01-28,ＥＫ　Ｃｏｒｅ株式会社,,株式会社,北海道,札幌市中央区,大通西２２丁目１－１２石井ビル３階,,01,101,0640820,,,,,,,2025-01-28,1,,,,,イーケーコア,0
5963,8450003002593,新規,0,2025-01-28,2025-01-28,合同会社すみか,,合同会社,北海道,留萌市,栄町３丁目２‐２１,,01,212,0770007,,,,,,,2025-01-28,1,,,,,スミカ,0
5964,8460103001676,新規,0,2025-01-28,2025-01-28,合同会社Ｔ’ｓＬＡＢＯ,,合同会社,北海道,帯広市,西十八条南３６丁目２番地３,,01,207,0800028,,,,,,,2025-01-28,1,,,,,ティーズラボ,0
5972,8480001012724,新規,0,2025-01-28,2025-01-28,株式会社ＶＯＣＯ,,株式会社,徳島県,徳島市,名東町３丁目１９５－１,,36,201,7700047,,,,,,,2025-01-28,1,,,,,ヴォコ,0
5973,8500001026119,新規,0,2025-01-28,2025-01-28,株式会社ラ・ポルテ,,株式会社,愛媛県,松山市,福音寺町１２３番地１２,,38,201,7900921,,,,,,,2025-01-28,1,,,,,ラポルテ,0
5976,8700150128356,新規,0,2025-01-28,2024-12-23,高槻市コミュニティ市民会議,,その他,大阪府,高槻市,桃園町２－１　コミュニティ推進室内,,27,207,5690067,,,,,,,2024-12-23,1,,,,,タカツキシコミユニテイシミンカイギ,0
5977,8700150128991,新規,0,2025-01-28,2025-01-28,ＫＡＶＩＮＤＵ　ＥＮＴＥＲＰＲＩＳＥＳ,,外国会社等,千葉県,八街市,東吉田７２５番地ビジネスオフィス４１号,,12,230,2891114,スリランカ民主社会主義共和国、クンブクウェワ、アランケッレ,,,,,,2025-01-28,1,,,,,カヴインドウエンタープライズ,0
5986,9010001251657,新規,0,2025-01-28,2025-01-28,ＷＯＷ　ＦＡＣＴＯＲ　ＧＲＯＵＰ株式会社,,株式会社,東京都,中央区,銀座１丁目２２番１１号銀座大竹ビジデンス２階,,13,102,1040061,,,,,,,2025-01-28,1,,,,,ワオファクターグループ,0
5987,9010001251707,新規,0,2025-01-28,2025-01-28,三和株式会社,,株式会社,東京都,文京区,音羽１丁目２３番１２第一晃和堂ビル４２６号室,,13,105,1120013,,,,,,,2025-01-28,1,,,,,サンワ,0
5988,9010001251748,新規,0,2025-01-28,2025-01-28,株式会社Ｎ＆Ａ,,株式会社,東京都,千代田区,神田佐久間町３丁目３４番地３Ｎステージ秋葉原７０２号,,13,101,1010025,,,,,,,2025-01-28,1,,,,,エヌアンドエー,0
5989,9010001251822,新規,0,2025-01-28,2025-01-28,新和ＨＤ株式会社,,株式会社,東京都,中央区,勝どき４丁目８番６－２０４号,,13,102,1040054,,,,,,,2025-01-28,1,,,,,シンワホールディングス,0
5990,9010001251847,新規,0,2025-01-28,2025-01-28,株式会社まるプロ,,株式会社,東京都,中央区,日本橋人形町１丁目２番１２号,,13,102,1030013,,,,,,,2025-01-28,1,,,,,マルプロ,0
5991,9010001251855,新規,0,2025-01-28,2025-01-28,株式会社Ｎａｔｕｒａｌ　Ｆｌｏｗ,,株式会社,東京都,千代田区,外神田６丁目１５番４号ＭＡＳＵｎｏＳＱＵＡＲＥ・ＡＫＩＨＡＢＡＲＡ２階・Ａｉｒ－Ｅｒａ,,13,101,1010021,,,,,,,2025-01-28,1,,,,,ナチュラルフロー,0
5992,9010001251896,新規,0,2025-01-28,2025-01-28,株式会社グリッドスタジオ,,株式会社,東京都,千代田区,丸の内３丁目２－２丸の内二重橋ビル２階,,13,101,1000005,,,,,,,2025-01-28,1,,,,,グリッドスタジオ,0
5994,9010003045974,新規,0,2025-01-28,2025-01-28,Ｐｒｅｍｉｔａｓ合同会社,,合同会社,東京都,中央区,銀座１丁目２２番１１号銀座大竹ビジデンス２Ｆ,,13,102,1040061,,,,,,,2025-01-28,1,,,,,プレミタス,0
5997,9010101016497,新規,0,2025-01-28,2025-01-28,株式会社ＮＢＳ,,株式会社,東京都,八王子市,横山町４番５－１００２号,,13,201,1920081,,,,,,,2025-01-28,1,,,,,,0
5999,9010401187757,新規,0,2025-01-28,2025-01-28,株式会社Ｋ’ｓ,,株式会社,東京都,港区,南青山２丁目２番１５号ＷｉｎＡｏｙａｍａビルＵＣＦ６階,,13,103,1070062,,,,,,,2025-01-28,1,,,,,ケーズ,0
6115,9010501053487,新規,0,2025-01-28,2025-01-28,白馬国際株式会社,,株式会社,東京都,台東区,下谷１丁目４－１１,,13,106,1100004,,,,,,,2025-01-28,1,,,,,ハクバコクサイ,0
6116,9010501053529,新規,0,2025-01-28,2025-01-28,人瑞日本株式会社,,株式会社,東京都,台東区,台東２丁目２７番３号ＮＳＫビル１０Ｆ,,13,106,1100016,,,,,,,2025-01-28,1,,,,,ジンズイニホン,0
6126,9010701047140,新規,0,2025-01-28,2025-01-28,株式会社トゥエンティーフォーセブン設立準備会社,,株式会社,東京都,品川区,東品川２丁目３番１２号,,13,109,1400002,,,,,,,2025-01-28,1,,,,,トゥエンティーフォーセブンセツリツジュンビカイシャ,0
6127,9010801035796,新規,0,2025-01-28,2025-01-28,株式会社ＳＴＵＤＩＯえん,,株式会社,東京都,大田区,池上４丁目３２－９,,13,111,1460082,,,,,,,2025-01-28,1,,,,,スタジオエン,0
6128,9010901056718,新規,0,2025-01-28,2025-01-28,株式会社七色広告,,株式会社,東京都,世田谷区,太子堂１丁目１２番２７号コンフォートテラス１００５号,,13,112,1540004,,,,,,,2025-01-28,1,,,,,ナナイロコウコク,0
6135,9011001165830,新規,0,2025-01-28,2025-01-28,株式会社ＯＮ‐ＤＯ,,株式会社,東京都,渋谷区,渋谷２丁目１９‐１５宮益坂ビルディング６０９,,13,113,1500002,,,,,,,2025-01-28,1,,,,,オンド,0
6136,9011001167331,新規,0,2025-01-28,2025-01-28,株式会社リロケーションアドバイス,,株式会社,東京都,渋谷区,渋谷２丁目１９－１５宮益坂ビルディング６０９,,13,113,1500002,,,,,,,2025-01-28,1,,,,,リロケーションアドバイス,0
6139,9011003020819,新規,0,2025-01-28,2025-01-28,Ｏｒｉｅｎｔａｌ　Ｌｅｇａｃｙ　Ｉｎｔｅｒｎａｔｉｏｎａｌ合同会社,,合同会社,東京都,渋谷区,本町４丁目１１番１号パークアヴェニュー新宿西５０２,,13,113,1510071,,,,,,,2025-01-28,1,,,,,オリエンタルレガシーインターナショナル,0
6140,9011003020827,新規,0,2025-01-28,2025-01-28,合同会社スーパースリー,,合同会社,東京都,渋谷区,神宮前６丁目３５－３－８０３号室,,13,113,1500001,,,,,,,2025-01-28,1,,,,,スーパースリー,0
6143,9011101110406,新規,0,2025-01-28,2025-01-28,パソナル株式会社,,株式会社,東京都,新宿区,西新宿６丁目１２番１６号,,13,104,1600023,,,,,,,2025-01-28,1,,,,,パソナル,0
6144,9011101110439,新規,0,2025-01-28,2025-01-28,リキュー株式会社,,株式会社,東京都,新宿区,西新宿３丁目３番１３号西新宿水間ビル２Ｆ,,13,104,1600023,,,,,,,2025-01-28,1,,,,,リキュー,0
6145,9011201026080,新規,0,2025-01-28,2025-01-28,株式会社ステージアップ,,株式会社,東京都,中野区,上高田２丁目２６番３号ライフピアシェイド２０５,,13,114,1640002,,,,,,,2025-01-28,1,,,,,ステージアップ,0
6146,9011301030321,新規,0,2025-01-28,2025-01-28,株式会社ティーノ,,株式会社,東京都,杉並区,大宮１丁目５番１８号,,13,115,1680061,,,,,,,2025-01-28,1,,,,,ティーノ,0
6217,9011503006391,新規,0,2025-01-28,2025-01-28,合同会社ＭＳＹ,,合同会社,東京都,荒川区,南千住５丁目２６番１３－３０７号,,13,118,1160003,,,,,,,2025-01-28,1,,,,,エムエスワイ,0
6219,9011703004105,新規,0,2025-01-28,2025-01-28,合同会社＿盛,00137806,合同会社,東京都,江戸川区,本一色２丁目１８－２,,13,123,1330044,,,,,,,2025-01-28,1,,,,,キンセイ,0
6230,9012401042702,新規,0,2025-01-28,2025-01-28,株式会社Ｓ．Ｋ．Ｕ,,株式会社,東京都,小金井市,東町５丁目２３番２７号,,13,210,1840011,,,,,,,2025-01-28,1,,,,,エスケーユー,0
6282,9012703003187,新規,0,2025-01-28,2025-01-28,エードットヨシダ合同会社,,合同会社,東京都,小平市,花小金井南町３丁目３４番４２－７号,,13,211,1870003,,,,,,,2025-01-28,1,,,,,エードットヨシダ,0
6283,9012801023715,新規,0,2025-01-28,2025-01-28,株式会社薫大,,株式会社,東京都,日野市,平山６丁目２０番地の９,,13,212,1910043,,,,,,,2025-01-28,1,,,,,クンダイ,0
6315,9013301053673,新規,0,2025-01-28,2025-01-28,株式会社ソリューショニア,,株式会社,東京都,豊島区,池袋２丁目５２番８号大河内ビル３階,,13,116,1710014,,,,,,,2025-01-28,1,,,,,ソリューショニア,0
6321,9020001161021,新規,0,2025-01-28,2025-01-28,株式会社オネストレンタカー,,株式会社,神奈川県,横浜市鶴見区,馬場２丁目３番６号,,14,101,2300076,,,,,,,2025-01-28,1,,,,,オネストレンタカー,0
6322,9020001161038,新規,0,2025-01-28,2025-01-28,株式会社アクショナリー,,株式会社,神奈川県,川崎市宮前区,宮崎２丁目１２番地１４オーベル宮崎台３０３,,14,136,2160033,,,,,,,2025-01-28,1,,,,,アクショナリー,0
6323,9020001161120,新規,0,2025-01-28,2025-01-28,株式会社ｆｕｎ　ｌｉｆｅ,,株式会社,神奈川県,横浜市旭区,本村町５７番地５８,,14,112,2410024,,,,,,,2025-01-28,1,,,,,ファンライフ,0
6324,9020003027716,新規,0,2025-01-28,2025-01-28,イロトヒト合同会社,,合同会社,神奈川県,川崎市中原区,新城５丁目４番２号－３階,,14,133,2110044,,,,,,,2025-01-28,1,,,,,イロトヒト,0
6328,9021001084336,新規,0,2025-01-28,2025-01-28,株式会社ＫＥＮＳＴＹＬＥ．ｌｉｇ,,株式会社,神奈川県,小田原市,桑原１０８番地１,,14,206,2500861,,,,,,,2025-01-28,1,,,,,ケンスタイルリグ,0
6331,9021003015512,新規,0,2025-01-28,2025-01-28,合同会社家族の学校,,合同会社,神奈川県,逗子市,新宿１丁目１番１３号－２,,14,208,2490007,,,,,,,2025-01-28,1,,,,,カゾクノガッコウ,0
6332,9030001164618,新規,0,2025-01-28,2025-01-28,株式会社コココ,,株式会社,埼玉県,さいたま市緑区,東浦和１丁目１６番地７,,11,109,3360926,,,,,,,2025-01-28,1,,,,,コココ,0
6338,9030003025958,新規,0,2025-01-28,2025-01-28,合同会社キューラ,,合同会社,埼玉県,草加市,遊馬町８１０番地８,,11,221,3400032,,,,,,,2025-01-28,1,,,,,キューラ,0
6341,9040001137135,新規,0,2025-01-28,2025-01-28,株式会社ナカマル,,株式会社,千葉県,鎌ケ谷市,東初富４丁目１４番１９号,,12,224,2730122,,,,,,,2025-01-28,1,,,,,ナカマル,0
6342,9040001137176,新規,0,2025-01-28,2025-01-28,株式会社鳥希工業,,株式会社,千葉県,船橋市,松が丘１丁目３５番２号,,12,204,2740064,,,,,,,2025-01-28,1,,,,,トリキコウギョウ,0
6343,9040001137184,新規,0,2025-01-28,2025-01-28,株式会社ユートピア,,株式会社,千葉県,柏市,花野井１２４２番地１３,,12,217,2770812,,,,,,,2025-01-28,1,,,,,ユートピア,0
6346,9040003026699,新規,0,2025-01-28,2025-01-28,合同会社ＯＫＧ,,合同会社,千葉県,松戸市,栄町８丁目６９４番地の１０,,12,207,2710062,,,,,,,2025-01-28,1,,,,,オーケージー,0
6347,9040003026708,新規,0,2025-01-28,2025-01-28,合同会社ＦＯＯＤ　ＬＩＮＥＲ,,合同会社,千葉県,鎌ケ谷市,中沢２６７－２,,12,224,2730118,,,,,,,2025-01-28,1,,,,,フードライナ,0
6348,9040005022647,新規,0,2025-01-28,2025-01-28,医療法人社団緑西会,,その他の設立登記法人,千葉県,印西市,西の原５丁目１２番地２,,12,231,2701334,,,,,,,2025-01-28,1,,,,,リョクセイカイ,0
6353,9050003008936,新規,0,2025-01-28,2025-01-28,Ｎａｋａｍｕｒａ　Ｈａｔａｋｅ合同会社,,合同会社,茨城県,坂東市,寺久１３番地,,08,228,3060656,,,,,,,2025-01-28,1,,,,,ナカムラハタケ,0
6354,9050003008952,新規,0,2025-01-28,2025-01-28,合同会社ＥＸプローラー,,合同会社,茨城県,神栖市,波崎７８９７番地６,,08,232,3140408,,,,,,,2025-01-28,1,,,,,エクスプローラー,0
6357,9060001037837,新規,0,2025-01-28,2025-01-28,株式会社Ｔｉｍｅｓ　Ｌｏｇｉｓｔｉｃ　Ｗｏｒｌｄｗｉｄｅ　Ｓｅｒｖｉｃｅｓ,,株式会社,栃木県,宇都宮市,雀の宮７丁目１３番２５号,,09,201,3210132,,,,,,,2025-01-28,1,,,,,タイムズロジスティックワールドワイドサービセズ,0
6358,9060003005404,新規,0,2025-01-28,2025-01-28,合同会社ｇｌｏｓｓ,,合同会社,栃木県,宇都宮市,天神２丁目４－３９ウイングステイツ御本丸公園２０６,,09,201,3200816,,,,,,,2025-01-28,1,,,,,グロス,0
6359,9060005010294,新規,0,2025-01-28,2025-01-28,一般社団法人塩谷町観光協会,,その他の設立登記法人,栃木県,塩谷郡塩谷町,大字熊ノ木１１９１－４,,09,384,3292213,,,,,,,2025-01-28,1,,,,,シオヤマチカンコウキョウカイ,0
6362,9070001042588,新規,0,2025-01-28,2025-01-28,株式会社Ｃｏｎｆｉａｎｃｅ,,株式会社,群馬県,伊勢崎市,今泉町１丁目１４０３番地２ベルモーロＡ１０１,,10,204,3720031,,,,,,,2025-01-28,1,,,,,コンフィアンス,0
6369,9080005007660,新規,0,2025-01-28,2025-01-28,農事組合法人Ｄ５,,その他の設立登記法人,静岡県,静岡市清水区,三保４１３１,,22,103,4240901,,,,,,,2025-01-28,1,,,,,ディーファイブ,0
6370,9080005007669,新規,0,2025-01-28,2025-01-28,税理士法人静央,,その他の設立登記法人,静岡県,静岡市葵区,黒金町５９番地の６大同生命静岡ビル６階,,22,101,4200851,,,,,,,2025-01-28,1,,,,,セイオウ,0
6379,9110001039010,新規,0,2025-01-28,2025-01-28,株式会社ＵＫ＆カンパニー,,株式会社,新潟県,新潟市中央区,出来島１丁目２番１２号,,15,103,9500962,,,,,,,2025-01-28,1,,,,,ユーケーアンドカンパニー,0
6393,9120001272254,新規,0,2025-01-28,2025-01-28,錦源株式会社,,株式会社,大阪府,大阪市淀川区,西中島５丁目６番３号－２０６,,27,123,5320011,,,,,,,2025-01-28,1,,,,,キンゲン,0
6394,9120001272262,新規,0,2025-01-28,2025-01-28,俊貿国際株式会社,,株式会社,大阪府,大阪市西成区,岸里東２丁目１４番１６号－３Ａ,,27,122,5570042,,,,,,,2025-01-28,1,,,,,シュンボウコクサイ,0
6395,9120001272312,新規,0,2025-01-28,2025-01-28,株式会社エフブンノイチ,,株式会社,大阪府,大阪市北区,大淀中５丁目８番３号,,27,127,5310076,,,,,,,2025-01-28,1,,,,,エフブンノイチ,0
6396,9120001272361,新規,0,2025-01-28,2025-01-28,てこや株式会社,,株式会社,大阪府,大阪市天王寺区,大道１丁目１２番１３号,,27,109,5430052,,,,,,,2025-01-28,1,,,,,テコヤ,0
6397,9120001272378,新規,0,2025-01-28,2025-01-28,株式会社ＦＪＫ,,株式会社,大阪府,大阪市北区,東天満１丁目５番８号,,27,127,5300044,,,,,,,2025-01-28,1,,,,,エフジェイケー,0
6398,9120001272394,新規,0,2025-01-28,2025-01-28,Ｍ．Ｓ．Ｓ．アーキテクト株式会社,,株式会社,大阪府,大阪市生野区,勝山北４丁目３番１１号,,27,116,5440033,,,,,,,2025-01-28,1,,,,,エムエスエスアーキテクト,0
6399,9120003028381,新規,0,2025-01-28,2025-01-28,美容皮膚科クリニック比較ナビ合同会社,,合同会社,大阪府,大阪市都島区,都島中通２丁目１５－７,,27,102,5340022,,,,,,,2025-01-28,1,,,,,ビヨウヒフカクリニックヒカクナビ,0
6400,9120003028464,新規,0,2025-01-28,2025-01-28,合同会社イナカメディア,,合同会社,大阪府,大阪市北区,梅田３丁目２－１２３５,,27,127,5300001,,,,,,,2025-01-28,1,,,,,イナカメディア,0
6401,9120003028480,新規,0,2025-01-28,2025-01-28,合同会社Ｒａｓｈｉｋｕ,,合同会社,大阪府,大阪市城東区,中浜１丁目１７－１４センチュリー中浜６Ａ,,27,118,5360024,,,,,,,2025-01-28,1,,,,,ラシク,0
6405,9120103006254,新規,0,2025-01-28,2025-01-28,フィールドジオサポート合同会社,,合同会社,大阪府,堺市堺区,三国ヶ丘御幸通１０－１三幸ビル,,27,141,5900028,,,,,,,2025-01-28,1,,,,,フィールドジオサポート,0
6409,9120905006682,新規,0,2025-01-28,2025-01-28,医療法人みずの眼科,,その他の設立登記法人,大阪府,茨木市,西駅前町６番２号クリニックステーション茨木駅前１階,,27,211,5670032,,,,,,,2025-01-28,1,,,,,ミズノガンカ,0
6639,9130003010173,新規,0,2025-01-28,2025-01-28,合同会社ＮＡＧＯＭＩ,,合同会社,京都府,京都市南区,久世上久世町８１６番地２８,,26,107,6018212,,,,,,,2025-01-28,1,,,,,ナゴミ,0
6643,9140001137190,新規,0,2025-01-28,2025-01-28,株式会社エンカレッジ・クラブ,,株式会社,兵庫県,神戸市中央区,磯辺通１丁目１番１８号カサベラ国際プラザビル７０７号室,,28,110,6510084,,,,,,,2025-01-28,1,,,,,エンカレッジクラブ,0
6644,9140001137199,新規,0,2025-01-28,2025-01-28,ＳＡＳ　Ｉｎｔｅｒｎａｔｉｏｎａｌ株式会社,,株式会社,兵庫県,神戸市長田区,寺池町２丁目２－１３、２０２号室,,28,106,6530804,,,,,,,2025-01-28,1,,,,,エスエーエスインターナショナル,0
6645,9140001137232,新規,0,2025-01-28,2025-01-28,株式会社ＮＵＮＵ,,株式会社,兵庫県,丹波市,氷上町谷村１３,,28,223,6693572,,,,,,,2025-01-28,1,,,,,ヌヌ,0
6647,9140003021582,新規,0,2025-01-28,2025-01-28,合同会社プラニシモ,,合同会社,兵庫県,宝塚市,武庫山１丁目１０－１９,,28,214,6650005,,,,,,,2025-01-28,1,,,,,プラニシモ,0
6648,9150001027845,新規,0,2025-01-28,2025-01-28,株式会社誠縁,,株式会社,奈良県,奈良市,中山町１６７３番地の９,,29,201,6310012,,,,,,,2025-01-28,1,,,,,セイエン,0
6652,9170001018470,新規,0,2025-01-28,2025-01-28,アップグレード株式会社,,株式会社,和歌山県,有田郡湯浅町,大字別所５９－２４,,30,361,6430003,,,,,,,2025-01-28,1,,,,,アップグレード,0
6661,9180001165122,新規,0,2025-01-28,2025-01-28,シキ株式会社,,株式会社,愛知県,名古屋市中村区,名駅５丁目１０番７号花車ビル中館７０１号室Ｄ,,23,105,4500002,,,,,,,2025-01-28,1,,,,,シキ,0
6662,9180001165163,新規,0,2025-01-28,2025-01-28,株式会社Ｐｌａｎ４Ｕ,,株式会社,愛知県,名古屋市瑞穂区,豆田町２丁目５番地の２,,23,108,4670864,,,,,,,2025-01-28,1,,,,,プランフォーユー,0
6663,9180001165171,新規,0,2025-01-28,2025-01-28,株式会社プラム,,株式会社,愛知県,名古屋市天白区,植田西２丁目１３０５番地（Ａ棟）,,23,116,4680058,,,,,,,2025-01-28,1,,,,,プラム,0
6664,9180001165188,新規,0,2025-01-28,2025-01-28,株式会社ＵｎｉＧａｉｎ,,株式会社,愛知県,名古屋市中村区,名駅４丁目２４番５号第２森ビル４０１,,23,105,4500002,,,,,,,2025-01-28,1,,,,,ユニゲイン,0
6665,9180001165205,新規,0,2025-01-28,2025-01-28,株式会社ミラリード,,株式会社,愛知県,名古屋市中区,丸の内３丁目７番２６号ＡＣＡビル５階,,23,106,4600002,,,,,,,2025-01-28,1,,,,,ミラリード,0
6666,9180001165213,新規,0,2025-01-28,2025-01-28,株式会社ＲＥＶＩＶＥ,,株式会社,愛知県,名古屋市西区,大野木２丁目６０番地の４,,23,104,4520803,,,,,,,2025-01-28,1,,,,,リバイブ,0
6667,9180001165221,新規,0,2025-01-28,2025-01-28,株式会社Ｎｅｘｔ　ｅｄｇｅ,,株式会社,愛知県,名古屋市中川区,九重町１０－２６クレフラスト黄金Ａ棟１０１号室,,23,110,4540808,,,,,,,2025-01-28,1,,,,,ネクストエッジ,0
6673,9180301039471,新規,0,2025-01-28,2025-01-28,ＫＨＡホールディングス株式会社,,株式会社,愛知県,豊橋市,明海町２番地５９,,23,201,4418074,,,,,,,2025-01-28,1,,,,,ケイエイチエーホールディングス,0
6674,9180303006437,新規,0,2025-01-28,2025-01-28,合同会社Ｒｅａｄｙ,,合同会社,愛知県,豊橋市,松葉町１丁目８２番地３階Ｂ室,,23,201,4400897,,,,,,,2025-01-28,1,,,,,レディー,0
6680,9220001026451,新規,0,2025-01-28,2025-01-28,株式会社いしこえ,,株式会社,石川県,金沢市,西泉３丁目１２番地,,17,201,9218043,,,,,,,2025-01-28,1,,,,,イシコエ,0
6683,9230003002367,新規,0,2025-01-28,2025-01-28,カリエル不動産合同会社,,合同会社,富山県,魚津市,湯上１０８８番地２,,16,204,9370823,,,,,,,2025-01-28,1,,,,,カリエルフドウサン,0
6689,9290001001778,新規,0,2025-01-28,2025-01-28,藤機産業株式会社,,株式会社,福岡県,福岡市南区,大楠１丁目３０番２６号トーキビル,,40,134,8150082,,,,,,,2025-01-28,1,,,,,,0
6702,9320003004560,新規,0,2025-01-28,2025-01-28,Ａ‐ｃｕｂｅ合同会社,,合同会社,大分県,中津市,大字蛎瀬８１８番地１クロッキオＣ－３,,44,203,8710007,,,,,,,2025-01-28,1,,,,,エイキューブ,0
6730,9430001093529,新規,0,2025-01-28,2025-01-28,株式会社ＫＡＥＤＥ,,株式会社,北海道,苫小牧市,東開町４丁目３番１６号,,01,213,0591301,,,,,,,2025-01-28,1,,,,,カエデ,0
6731,9430001093553,新規,0,2025-01-28,2025-01-28,株式会社Ｎ．Ｏ　ＦＲＯＮＴＩＥＲ,,株式会社,北海道,石狩市,花川南五条３丁目１８６番地,,01,235,0613205,,,,,,,2025-01-28,1,,,,,エヌオーフロンティア,0
6732,9430001093561,新規,0,2025-01-28,2025-01-28,ＭＡＲＵＹＡＭＡ　Ｋｉｄｓ　Ａｃａｄｅｍｙ株式会社,,株式会社,北海道,札幌市中央区,大通西２２丁目１－１２石井ビル１階,,01,101,0640820,,,,,,,2025-01-28,1,,,,,マルヤマキッズアカデミー,0
6738,9430003017205,新規,0,2025-01-28,2025-01-28,白い旅合同会社,,合同会社,北海道,札幌市中央区,北十五条西１５丁目４－１１,,01,101,0600015,,,,,,,2025-01-28,1,,,,,シロイタビ,0
6739,9430003017221,新規,0,2025-01-28,2025-01-28,合同会社サピュイエＹｏｔｅｉ,,合同会社,北海道,磯谷郡蘭越町,蘭越町１３０番地,,01,394,0481301,,,,,,,2025-01-28,1,,,,,サピュイエヨウテイ,0
6741,9450001014508,新規,0,2025-01-28,2025-01-28,株式会社ＳＰＡＲＫ　ＳＯＵＬ,,株式会社,北海道,宗谷郡猿払村,浜鬼志別３４６７番地２８,,01,511,0986222,,,,,,,2025-01-28,1,,,,,スパークソウル,0
6745,9460301005271,新規,0,2025-01-28,2025-01-28,千里堂メガネ株式会社,,株式会社,北海道,網走市,南四条西３丁目３番地,,01,211,0930014,,,,,,,2025-01-28,1,,,,,センリドウメガネ,0
6751,9700150128990,新規,0,2025-01-28,2025-01-28,ＤＥＲＡＮＡ　ＭＯＴＯＲＳ,,外国会社等,千葉県,八街市,東吉田７２５番地ビジネスオフィス４０号,,12,230,2891114,スリランカ民主社会主義共和国、ティラッパネ、カダビーディヤ,,,,,,2025-01-28,1,,,,,デラナモータース,0
6752,9700150128999,新規,0,2025-01-28,2025-01-28,ＭＡＪＥＳＴＩＣ　ＡＵＴＯ　ＬＩＮＥ,,外国会社等,千葉県,山武市,成東２５０２番地５ラフィーヌ成東Ａ１０２,,12,237,2891326,スリランカ民主社会主義共和国、キャンディ、アクラナ、デマタガステンナ、Ｎｏ．１７８,,,,,,2025-01-28,1,,,,,マジエステイツクオートライン,0
