sequenceNumber,corporateNumber,process,correct,updateDate,changeDate,name,nameImageId,kind,prefectureName,cityName,streetNumber,addressImageId,prefectureCode,cityCode,postCode,addressOutside,addressOutsideImageId,closeDate,closeCause,successorCorporateNumber,changeCause,assignmentDate,latest,enName,enPrefectureName,enCityName,enAddressOutside,furigana,hihyoji
6,1010001237358,新規,0,2023-08-07,2023-08-07,ブルーライン・ホールディングス株式会社,,株式会社,東京都,中央区,新川２丁目１番１号,,13,102,1040033,,,,,,,2023-08-07,1,,,,,ブルーラインホールディングス,0
7,1010001237374,新規,0,2023-08-07,2023-08-07,ビジネスアクセント株式会社,,株式会社,東京都,千代田区,神田駿河台２丁目１番１９号７２１号室,,13,101,1010062,,,,,,,2023-08-07,1,,,,,ビジネスアクセント,0
8,1010001237424,新規,0,2023-08-07,2023-08-07,株式会社アズラエル,,株式会社,東京都,中央区,銀座１丁目１２－４Ｎ＆ＥＢＬＤ．６Ｆ,,13,102,1040061,,,,,,,2023-08-07,1,,,,,アズラエル,0
11,1010003041238,新規,0,2023-08-07,2023-08-07,ＬＥＶＥＣＨＹファンド４号合同会社,,合同会社,東京都,千代田区,紀尾井町３－８第２紀尾井町ビル９０１アクシス綜合会計事務所内,,13,101,1020094,,,,,,,2023-08-07,1,,,,,レベチーファンドヨンゴウ,0
19,1010401176164,新規,0,2023-08-07,2023-08-07,メロキッズ株式会社,,株式会社,東京都,港区,南青山２丁目２番１５号,,13,103,1070062,,,,,,,2023-08-07,1,,,,,メロキッズ,0
20,1010403030633,新規,0,2023-08-07,2023-08-07,合同会社ＩＡ,,合同会社,東京都,港区,六本木１丁目５番３－１１０５号,,13,103,1060032,,,,,,,2023-08-07,1,,,,,アイエー,0
21,1010403030674,新規,0,2023-08-07,2023-08-07,合同会社共創デザイン工房,,合同会社,東京都,港区,南青山２丁目２番１５号ウィン青山９４２,,13,103,1070062,,,,,,,2023-08-07,1,,,,,キョウソウデザインコウボウ,0
27,1010601063550,新規,0,2023-08-07,2023-08-07,株式会社Ｂ．Ｗ,,株式会社,東京都,江東区,東陽３丁目６番８号ＢＢ東陽町ビル３階,,13,108,1350016,,,,,,,2023-08-07,1,,,,,ビーダブル,0
29,1010701044681,新規,0,2023-08-07,2023-08-07,株式会社ジンコネクト,,株式会社,東京都,品川区,西五反田７丁目２２番１５号ＴＯＣビル８階,,13,109,1410031,,,,,,,2023-08-07,1,,,,,ジンコネクト,0
30,1010703006804,新規,0,2023-08-07,2023-08-07,ＷＡＴＡＳＥＩ合同会社,,合同会社,東京都,品川区,西五反田４丁目１番１０号アーバンハイム不動前４０３,,13,109,1410031,,,,,,,2023-08-07,1,,,,,ワセタイ,0
34,1010901053540,新規,0,2023-08-07,2023-08-07,株式会社早川企画,,株式会社,東京都,世田谷区,奥沢４丁目３６番２１号,,13,112,1580083,,,,,,,2023-08-07,1,,,,,ハヤカワキカク,0
44,1011101103895,新規,0,2023-08-07,2023-08-07,株式会社Ｇｉｆｔａｔｅ,,株式会社,東京都,新宿区,新宿５丁目１８番２０号ルックハイツ新宿８０３号,,13,104,1600022,,,,,,,2023-08-07,1,,,,,ギフテイト,0
45,1011101103920,新規,0,2023-08-07,2023-08-07,株式会社ＩＫＯＴ,,株式会社,東京都,新宿区,原町３丁目４６番地６－４０１,,13,104,1620053,,,,,,,2023-08-07,1,,,,,イコット,0
46,1011201024819,新規,0,2023-08-07,2023-08-07,株式会社ＡＯＢＡＣＯ,,株式会社,東京都,中野区,中野４丁目１０番２号中野セントラルパークサウス２階,,13,114,1640001,,,,,,,2023-08-07,1,,,,,アオバコ,0
47,1011203004141,新規,0,2023-08-07,2023-08-07,合同会社三和,,合同会社,東京都,中野区,沼袋１丁目１３番１号エクセランマンション３０１,,13,114,1650025,,,,,,,2023-08-07,1,,,,,サンワ,0
48,1011401025344,新規,0,2023-08-07,2023-08-07,スターチャージエネルギージャパン株式会社,,株式会社,東京都,板橋区,小豆沢１丁目１５番７－４１０号,,13,119,1740051,,,,,,,2023-08-07,1,,,,,スターチャージエネルギージャパン,0
51,1011601027025,新規,0,2023-08-07,2023-08-07,株式会社ＢＷＶ,,株式会社,東京都,練馬区,三原台３丁目２８番－１０号ＮＦビル２０１号,,13,120,1770031,,,,,,,2023-08-07,1,,,,,ビーダブリューヴィ,0
52,1011603004006,新規,0,2023-08-07,2023-08-07,ｉ‐Ｅａｓｔ合同会社,,合同会社,東京都,練馬区,春日町６丁目１１番６－４０２号,,13,120,1790074,,,,,,,2023-08-07,1,,,,,アイイースト,0
57,1012401040820,新規,0,2023-08-07,2023-08-07,株式会社エムソル,,株式会社,東京都,小金井市,梶野町１丁目２番３６号,,13,210,1840002,,,,,,,2023-08-07,1,,,,,エムソル,0
58,1012401040829,新規,0,2023-08-07,2023-08-07,株式会社フォー・ナイン,,株式会社,東京都,調布市,深大寺南町１丁目７番地１３,,13,208,1820013,,,,,,,2023-08-07,1,,,,,フォーナイン,0
62,1013305003500,新規,0,2023-08-07,2023-08-07,弁理士法人ＭＳウィード,,その他の設立登記法人,東京都,豊島区,南池袋１丁目１６番２０号ぬかりやビル６階,,13,116,1710022,,,,,,,2023-08-07,1,,,,,エムエスウィード,0
69,1020001152696,新規,0,2023-08-07,2023-08-07,富士愛森株式会社,,株式会社,神奈川県,川崎市中原区,今井西町２番３０－２号,,14,133,2110066,,,,,,,2023-08-07,1,,,,,フジアイセン,0
70,1020001152762,新規,0,2023-08-07,2023-08-07,株式会社Ａ　ｐｒｏ,,株式会社,神奈川県,横浜市金沢区,富岡西１丁目２３－５,,14,108,2360052,,,,,,,2023-08-07,1,,,,,エープロ,0
71,1020001152820,新規,0,2023-08-07,2023-08-07,株式会社ＨＯＲＩＤＡＹ,,株式会社,神奈川県,横浜市戸塚区,戸塚町３９３５番地桜ハウス１Ｆ,,14,110,2440003,,,,,,,2023-08-07,1,,,,,ホリデイ,0
72,1020001152837,新規,0,2023-08-07,2023-08-07,株式会社Ｂ．Ｒカンパニー,,株式会社,神奈川県,横浜市西区,岡野２丁目１２番２３－６０４号,,14,103,2200073,,,,,,,2023-08-07,1,,,,,ビーアールカンパニー,0
73,1020001152845,新規,0,2023-08-07,2023-08-07,ＲＰＧ株式会社,,株式会社,神奈川県,横浜市西区,北幸１丁目１１番５号相鉄ＫＳビル９Ｆ,,14,103,2200004,,,,,,,2023-08-07,1,,,,,アールピージー,0
83,1021001079797,新規,0,2023-08-07,2023-08-07,株式会社エスフィーダ,,株式会社,神奈川県,藤沢市,藤沢１０９８－８,,14,205,2510052,,,,,,,2023-08-07,1,,,,,エスフィーダ,0
84,1021003013390,新規,0,2023-08-07,2023-08-07,合同会社ｄａｃｃｏ,,合同会社,神奈川県,相模原市中央区,田名塩田３丁目１０番４１号,,14,152,2520245,,,,,,,2023-08-07,1,,,,,ダッコ,0
85,1021003013416,新規,0,2023-08-07,2023-08-07,Ｓｅｎａｋａ　Ｏｓｈｉｔａｒｕ合同会社,,合同会社,神奈川県,座間市,相武台２丁目１３―１０,,14,216,2520011,,,,,,,2023-08-07,1,,,,,セナカオシタル,0
97,1040001129494,新規,0,2023-08-07,2023-08-07,ＡｄｖａｎｃｅＮｅｔ株式会社,,株式会社,千葉県,習志野市,東習志野８丁目３０番２９号,,12,216,2750001,,,,,,,2023-08-07,1,,,,,アドヴァンスネット,0
98,1040001129536,新規,0,2023-08-07,2023-08-07,株式会社プランテージ,,株式会社,千葉県,船橋市,行田１丁目５０番１１－１２８号,,12,204,2730044,,,,,,,2023-08-07,1,,,,,プランテージ,0
102,1040003023101,新規,0,2023-08-07,2023-08-07,ＲＵＳＫ　Ｃｏｎｓｕｌｔｉｎｇ合同会社,,合同会社,千葉県,松戸市,樋野口７４２番地の１１,,12,207,2710067,,,,,,,2023-08-07,1,,,,,ラスクコンサルティング,0
103,1040005022084,新規,0,2023-08-07,2023-08-07,一般社団法人ゼロファクトリアル,,その他の設立登記法人,千葉県,松戸市,常盤平陣屋前１番地１３,,12,207,2702265,,,,,,,2023-08-07,1,,,,,ゼロファクトリアル,0
108,1050001053248,新規,0,2023-08-07,2023-08-07,株式会社小沼ファーム,,株式会社,茨城県,鉾田市,田崎６９２番地,,08,234,3111406,,,,,,,2023-08-07,1,,,,,オヌマファーム,0
109,1050003007697,新規,0,2023-08-07,2023-08-07,合同会社エーネック,,合同会社,茨城県,つくばみらい市,筒戸２０９２番地１,,08,235,3002435,,,,,,,2023-08-07,1,,,,,エーネック,0
110,1050003007706,新規,0,2023-08-07,2023-08-07,合同会社アロー・スペース,,合同会社,茨城県,つくば市,竹園３丁目２４番地１２,,08,220,3050032,,,,,,,2023-08-07,1,,,,,アロースペース,0
120,1070001040707,新規,0,2023-08-07,2023-08-07,株式会社エフプラントサービス,,株式会社,群馬県,安中市,中宿１１３３番地４,,10,211,3790115,,,,,,,2023-08-07,1,,,,,エフプラントサービス,0
122,1080103002868,新規,0,2023-08-07,2023-08-07,合同会社いまここ,,合同会社,静岡県,沼津市,大岡８０６‐１エンゼルフォート大岡２１３,,22,203,4100022,,,,,,,2023-08-07,1,,,,,イマココ,0
136,1110001037748,新規,0,2023-08-07,2023-08-07,株式会社ＳＲＳシステム,,株式会社,新潟県,新潟市中央区,下大川前通２ノ町２２３０番地３３,,15,103,9518052,,,,,,,2023-08-07,1,,,,,エスアールエスシステム,0
141,1120001256982,新規,0,2023-08-07,2023-08-07,株式会社Ｔｒｕｓｔ,,株式会社,大阪府,大阪市平野区,加美正覚寺１丁目２４番１７号ジョイフル平野２０２号,,27,126,5470006,,,,,,,2023-08-07,1,,,,,トラスト,0
142,1120001256990,新規,0,2023-08-07,2023-08-07,株式会社ＰＵＲＥＬＡＢ,,株式会社,大阪府,大阪市中央区,南船場３丁目６番１０号エミネント心斎橋ビル５階,,27,128,5420081,,,,,,,2023-08-07,1,,,,,ピュアラボ,0
143,1120001257007,新規,0,2023-08-07,2023-08-07,株式会社オーク,,株式会社,大阪府,大阪市住吉区,苅田２丁目３番２０号,,27,120,5580011,,,,,,,2023-08-07,1,,,,,オーク,0
144,1120001257196,新規,0,2023-08-07,2023-08-07,ａｌｔｏ＆ｋｏｂｅ　ｆａｃｔｏｒｙ株式会社,,株式会社,大阪府,大阪市生野区,中川東２丁目４番１３号,,27,116,5440006,,,,,,,2023-08-07,1,,,,,アルトアンドコービーファクトリー,0
148,1120003024628,新規,0,2023-08-07,2023-08-07,杉本商事合同会社,,合同会社,大阪府,大阪市住之江区,北島２丁目２番２０号,,27,125,5590014,,,,,,,2023-08-07,1,,,,,スギモトショウジ,0
149,1120003024652,新規,0,2023-08-07,2023-08-07,合同会社ダブルエイトオー,,合同会社,大阪府,大阪市浪速区,日本橋４丁目９－２２－４Ｆ,,27,111,5560005,,,,,,,2023-08-07,1,,,,,ダブルエイトオー,0
154,1120901047911,新規,0,2023-08-07,2023-08-07,株式会社ＴＫコーポレーション,,株式会社,大阪府,吹田市,春日１丁目４番２８号,,27,205,5650853,,,,,,,2023-08-07,1,,,,,ティーケイコーポレーション,0
159,1122001037215,新規,0,2023-08-07,2023-08-07,株式会社モノリス,,株式会社,大阪府,東大阪市,花園西町１丁目９番２８号,,27,227,5780936,,,,,,,2023-08-07,1,,,,,モノリス,0
160,1122001037231,新規,0,2023-08-07,2023-08-07,セブンマイル株式会社,,株式会社,大阪府,八尾市,弓削町２丁目１４０番地,,27,212,5810032,,,,,,,2023-08-07,1,,,,,セブンマイル,0
164,1130001074855,新規,0,2023-08-07,2023-08-07,株式会社小平工業,,株式会社,京都府,八幡市,八幡土井１２３番地,,26,210,6148002,,,,,,,2023-08-07,1,,,,,コヒラコウギョウ,0
170,1140001131069,新規,0,2023-08-07,2023-08-07,株式会社ＬＩＭ,,株式会社,兵庫県,伊丹市,野間８丁目１番１号サンロイヤル伊丹野間４階,,28,207,6640873,,,,,,,2023-08-07,1,,,,,リム,0
171,1140001131077,新規,0,2023-08-07,2023-08-07,株式会社Ｏ．Ｆ．Ａ,,株式会社,兵庫県,姫路市,塩町１４６番地－４０５号,,28,201,6700904,,,,,,,2023-08-07,1,,,,,オーエフエー,0
172,1140001131102,新規,0,2023-08-07,2023-08-07,株式会社真建設,,株式会社,兵庫県,神戸市西区,天が岡４番地の１０,,28,111,6512141,,,,,,,2023-08-07,1,,,,,シンケンセツ,0
173,1140001131143,新規,0,2023-08-07,2023-08-07,株式会社ＦＵＴＯＭＯＭＯ,,株式会社,兵庫県,神戸市長田区,滝谷町３丁目２番１９号,,28,106,6530881,,,,,,,2023-08-07,1,,,,,フトモモ,0
176,1140003019403,新規,0,2023-08-07,2023-08-07,シブヤカバン企画室合同会社,,合同会社,兵庫県,佐用郡佐用町,真盛４７９,,28,501,6795303,,,,,,,2023-08-07,1,,,,,シブヤカバンキカクシツ,0
178,1140005026703,新規,0,2023-08-07,2023-08-07,ことほぎ社会保険労務士法人,,その他の設立登記法人,兵庫県,尼崎市,上坂部３丁目８番２３－２号,,28,202,6610979,,,,,,,2023-08-07,1,,,,,コトホギ,0
181,1150001026607,新規,0,2023-08-07,2023-08-07,スターフィールド株式会社,,株式会社,奈良県,橿原市,内膳町１丁目６番６号上田ビル２Ｆ南側,,29,205,6340804,,,,,,,2023-08-07,1,,,,,スターフィールド,0
182,1160001025252,新規,0,2023-08-07,2023-08-07,株式会社ＭＩＦＵＫＵ,,株式会社,滋賀県,草津市,草津町１８６８番地１１,,25,206,5250036,,,,,,,2023-08-07,1,,,,,ミフク,0
189,1180001157374,新規,0,2023-08-07,2023-08-07,株式会社Ｍ．Ｈ　ＩＮＴＥＲＮＡＴＩＯＮＡＬ,,株式会社,愛知県,名古屋市中川区,東起町４丁目１０１番１号吉田荘２０４号室,,23,110,4540935,,,,,,,2023-08-07,1,,,,,エムエイチインターナショナル,0
190,1180001157382,新規,0,2023-08-07,2023-08-07,株式会社貴翔建設,,株式会社,愛知県,江南市,高屋町北上６番地３,,23,217,4838087,,,,,,,2023-08-07,1,,,,,キショウケンセツ,0
191,1180001157408,新規,0,2023-08-07,2023-08-07,株式会社Ｇｏｌａｚｏｇｏｌ,,株式会社,愛知県,一宮市,木曽川町黒田字下市場南１２８番地５,,23,203,4930001,,,,,,,2023-08-07,1,,,,,ゴラッソゴル,0
192,1180001157449,新規,0,2023-08-07,2023-08-07,株式会社Ｓｅｎｒｏｙａ,,株式会社,愛知県,名古屋市瑞穂区,雁道町１丁目９番地の２,,23,108,4670877,,,,,,,2023-08-07,1,,,,,センロヤ,0
193,1180001157457,新規,0,2023-08-07,2023-08-07,株式会社ライフアップベース,,株式会社,愛知県,名古屋市天白区,土原５丁目２１５番地の１,,23,116,4680026,,,,,,,2023-08-07,1,,,,,ライフアップベース,0
194,1180001157465,新規,0,2023-08-07,2023-08-07,株式会社ＳＴＡＮＤ　ＵＰ,,株式会社,愛知県,春日井市,勝川町２丁目８番地３,,23,206,4860945,,,,,,,2023-08-07,1,,,,,スタンドアップ,0
201,1180003025562,新規,0,2023-08-07,2023-08-07,合同会社ｏｆｆｏｎ,,合同会社,愛知県,名古屋市西区,那古野２丁目１４番１号なごのキャンパス,,23,104,4510042,,,,,,,2023-08-07,1,,,,,オフオン,0
212,1200001041575,新規,0,2023-08-07,2023-08-07,株式会社直電設,,株式会社,岐阜県,岐阜市,六条片田１丁目２２番１３号,,21,201,5008355,,,,,,,2023-08-07,1,,,,,ナオデンセツ,0
218,1230001019949,新規,0,2023-08-07,2023-08-07,株式会社シンメイシステム,,株式会社,富山県,高岡市,下麻生１３７９番地５フローリア２０２号,,16,202,9391272,,,,,,,2023-08-07,1,,,,,シンメイシステム,0
219,1230001019957,新規,0,2023-08-07,2023-08-07,株式会社がる,,株式会社,富山県,富山市,堀端町４番３０号,,16,201,9300074,,,,,,,2023-08-07,1,,,,,ガル,0
221,1240001061891,新規,0,2023-08-07,2023-08-07,株式会社鉄骨モデリングＬＡＢＯ,,株式会社,広島県,広島市南区,的場町１丁目８番１５号アートビル１０Ｆ－Ａ,,34,103,7320824,,,,,,,2023-08-07,1,,,,,テッコツモデリングラボ,0
230,1260003004392,新規,0,2023-08-07,2023-08-07,ミールック合同会社,,合同会社,岡山県,岡山市北区,田中１４０番地１０４,,33,101,7000951,,,,,,,2023-08-07,1,,,,,ミールック,0
232,1290001102518,新規,0,2023-08-07,2023-08-07,株式会社ＦＢＣ,,株式会社,福岡県,筑紫野市,岡田２丁目２０番地３３,,40,217,8180013,,,,,,,2023-08-07,1,,,,,エフビーシー,0
233,1290001102609,新規,0,2023-08-07,2023-08-07,株式会社ＧＰ,,株式会社,福岡県,福岡市博多区,住吉５丁目１０番１５－５０３号,,40,132,8120018,,,,,,,2023-08-07,1,,,,,ジーピー,0
241,1310001018554,新規,0,2023-08-07,2023-08-07,株式会社モデレイト・スペース,,株式会社,長崎県,長崎市,万屋町６番４０号ビバシティ観光通りセンティア２０２号室,,42,201,8500852,,,,,,,2023-08-07,1,,,,,モデレイトスペース,0
246,1320003004139,新規,0,2023-08-07,2023-08-07,Ｎｅｒｕ　ｆｉｒｍ合同会社,,合同会社,大分県,大分市,大字森町３９０番地の４,,44,201,8700127,,,,,,,2023-08-07,1,,,,,ネルファーム,0
249,1340001025770,新規,0,2023-08-07,2023-08-07,株式会社鹿屋金属,,株式会社,鹿児島県,鹿屋市,串良町細山田３１４９番地６,,46,203,8931601,,,,,,,2023-08-07,1,,,,,カノヤキンゾク,0
250,1350001018484,新規,0,2023-08-07,2023-08-07,Ｒｉｎｋ株式会社,,株式会社,宮崎県,児湯郡都農町,大字川北１８８１０－４３,,45,406,8891201,,,,,,,2023-08-07,1,,,,,リンク,0
263,1410001013561,新規,0,2023-08-07,2023-08-07,株式会社ＭａｓｔｅｒＴｒｅｅ,,株式会社,秋田県,秋田市,新屋松美ガ丘東町１０番４４号,,05,201,0101617,,,,,,,2023-08-07,1,,,,,マスターツリー,0
266,1420001018353,新規,0,2023-08-07,2023-08-07,株式会社ぴー企画,,株式会社,青森県,むつ市,新町２８番１７号,,02,208,0350051,,,,,,,2023-08-07,1,,,,,ピーキカク,0
281,1460003000958,新規,0,2023-08-07,2023-08-07,エコード合同会社,,合同会社,北海道,釧路市,愛国西３丁目３１‐１１,,01,206,0850057,,,,,,,2023-08-07,1,,,,,エコード,0
284,1480001012169,新規,0,2023-08-07,2023-08-07,株式会社ＵＮＩＮＯＶＡ,,株式会社,徳島県,徳島市,北沖洲２丁目１０番５７号,,36,201,7700872,,,,,,,2023-08-07,1,,,,,ユニノバ,0
287,1500001025110,新規,0,2023-08-07,2023-08-07,株式会社マッシン,,株式会社,愛媛県,松山市,桑原１丁目７番３２号,,38,201,7900911,,,,,,,2023-08-07,1,,,,,マッシン,0
288,1500001025119,新規,0,2023-08-07,2023-08-07,株式会社かどや冷電,,株式会社,愛媛県,松山市,石風呂町５８０番地２６,,38,201,7918084,,,,,,,2023-08-07,1,,,,,カドヤレイデン,0
289,1500003003072,新規,0,2023-08-07,2023-08-07,合同会社ビレッジ,,合同会社,愛媛県,松山市,岩崎町１丁目３番２２号,,38,201,7900854,,,,,,,2023-08-07,1,,,,,ビレッジ,0
290,1500005008631,新規,0,2023-08-07,2023-08-07,一般社団法人こども未来創造機構,,その他の設立登記法人,愛媛県,伊予郡砥部町,宮内１３３９番地１,,38,402,7912120,,,,,,,2023-08-07,1,,,,,コドモミライソウゾウキコウ,0
292,1700150113975,新規,0,2023-08-07,2023-08-07,Ｓｈｅｎ　Ｚｈｅｎ　Ｓｈｉ　Ｙｅ　Ｏｕ　Ｄｉａｎ　Ｚｉ　Ｋｅ　Ｊｉ　Ｙｏｕ　Ｘｉａｎ　Ｇｏｎｇ　Ｓｉ,,外国会社等,,,,,,,,ｌｕｏｈｕｑｕ　ｎａｎｈｕｊｉｅｄａｏ　ｊｉａｂｅｉｓｈｅｑｕ　ｒｅｎｍｉｎｎａｎｌｕ　３００５　ｈａｏ　ｓｈｅｎｇｆａｎｇ　ｇｕａｎｇｃｈａｎｇ　Ａ２９０１－３９３　ｓｈｅｎｚｈｅｎｓｈｉ,,,,,,2023-08-07,1,,,,,シェンヂェンシーイェオウディェンズークェァジーヨウシィェンゴンスー,0
293,1700150114420,新規,0,2023-08-07,2023-08-07,ＱｕａｎＺｈｏｕＳｈｉＤａｉＳｈｅｎｇＪｉａＪｕＹｏｕＸｉａｎＧｏｎｇＳｉ,,外国会社等,,,,,,,,Ｆｕｊｉａｎｓｈｅｎｇ　ＱｕａｎｚｈｏｕｓｈｉＦｅｎｇｚｅｑｕ　ＤｏｎｇｈａｉＪｉｅＤａｏ　ＢｉｎＣｈｅｎｇＳｈｅＱｕ　ＸｉａｎｇＢｉｎＪｉｅ　１８Ｈａｏ,,,,,,2023-08-07,1,,,,,チュェンヂョウシーダイシォンジャジュヨウシィェンゴンスー,0
294,1700150114817,新規,0,2023-08-07,2023-08-07,Ａｎｈｕｉ　ＩＮＮＳＴＡＲ　Ｆｉｔｎｅｓｓ　Ｅｑｕｉｐｍｅｎｔ　Ｔｅｃｈｎｏｌｏｇｙ　Ｃｏ．，Ｌｔｄ,,外国会社等,,,,,,,,Ａ５，Ｌｉｈｅｎｇ　ｉｎｄｕｓｔｒｉａｌ　ｓｑｕａｒｅ　Ｐｈａｓｅ　ＩＩ，Ｔａｏｈｕａ　Ｉｎｄｕｓ　Ｈｅｆｅｉ　Ａｎｈｕｉ　２３００９３　ＣＮ,00131336,,,,,2023-08-07,1,,,,,アンフゥイジークァアドンシェンジィェンシェンチーシェクァアジーヨウシィェンゴンスー,0
295,1700150118818,新規,0,2023-08-07,2023-08-07,Ｓｈｅｎｚｈｅｎ　Ｓｈｕｉｈｅｎ　Ｏｕｔｄｏｏｒ　Ｐｒｏｄｕｃｔｓ　Ｃｏ．Ｌｔｄ．,,外国会社等,,,,,,,,Ｐｉｎｇｘｉｎ　Ｎｏｒｔｈ　Ｐｉｎｇｈｕ　ｓｔｒｅｅｔ，Ｌｏｎｇｇａｎｇ　ｄｉｓｔｒｉｃｔ，Ｂ３０８－Ｂ８６，ｂｕｉｌｄ　Ｂ，Ｇｕａｎｇｈｏｎｇ　Ｍｅｒｃｕｒｅ，Ｎｏ．１６３，ｓｈｅｎｚｈｅｎ　Ｇｕａｎｇｄｏｎｇ　ｐｒｏｖｉｎｃｅ,,,,,,2023-08-07,1,,,,,シェンジェンシーシュイヘンフーワイヨンビンヨウシエンゴンスー,0
296,1700150118826,新規,0,2023-08-07,2023-08-07,ｓｈｅｎ　ｚｈｅｎ　ａｉ　ｋｕ　ｓｉ　ｋｅ　ｊｉ　ｙｏｕ　ｘｉａｎ　ｇｏｎｇ　ｓｉ,,外国会社等,,,,,,,,Ｅ２１０２，Ｄｏｎｇｃｈｅｎｇ　Ｃｅｎｔｒａｌ　Ｇａｒｄｅｎ（ＰｈａｓｅＩＩ）Ｌｉｕｙｕｅ　Ｃｏｍｍ．，Ｈｅｎｇｇａｎｇ　Ｓｔ．，Ｌｏｎｇｇａｎｇ　Ｄｉｓｔ．,,,,,,2023-08-07,1,,,,,シェンヂェンアイクースーカァージーヨウシィェンゴンスー,0
297,1700150118834,新規,0,2023-08-07,2023-08-07,ｓｈｅｎｚｈｅｎｓｈｉ　ｍｉｄｕｏｌｖ　ｋｅｊｉ　ｙｏｕｘｉａｎｇｏｎｇｓｉ,,外国会社等,,,,,,,,ｇｕａｎｇｄｏｎｇｓｈｅｎｇ　ｓｈｅｎｚｈｅｎｓｈｉ　ｌｏｎｇｈｕａｑｕ　ｌｏｎｇｈｕａｊｉｅｄａｏｙｕｃｕｉｓｈｅｑｕｌｏｎｇｈｕａｙｕｃｕｉｘｉｎｃｕｎｓａｎｑｕ４３ｈａｏｌｏｎｇｈｕａｙｕｃｕｉｘｉｎｃｕｎｓａｎｑｕ４３－２ｈａｏ５１８０００　ＣＮ,,,,,,2023-08-07,1,,,,,シェンゼェンシミドルケジヨウシェンゴンスー,0
298,1700150118842,新規,0,2023-08-07,2023-08-07,ｓｈｅｎｚｈｅｎｓｈｉ　ｒｏｎｇｔｏｎｇｗｅｉｄａ　ｄｉａｎｚｉ　ｙｏｕｘｉａｎｇｏｎｇｓｉ,,外国会社等,,,,,,,,ｓｈｉｙａｎｊｉｅｄａｏ　ｌｕｏｚｕｓｈｅｑｕ　ｓｈｉｙａｎｊｉｅｄａｏ　ｌｕｏｚｕｓｈｅｑｕ　２ｄｏｎｇ　ｅｒｃｅｎｇ，ｂａｏａｎｑｕ　ｓｈｅｎｚｈｅｎｓｈｉ　ｇｕａｎｇｄｏｎｇｓｈｅｎｇ,,,,,,2023-08-07,1,,,,,シンセンシロントンウェイダデンシユウゲンコウシ,0
299,1700150118850,新規,0,2023-08-07,2023-08-07,Ｓｈｅｎｚｈｅｎ　Ｊｕｎ　Ｈｅ　Ｏｕｔｄｏｏｒ　Ｐｒｏｄｕｃｔｓ　Ｃｏ．，Ｌｔｄ．,,外国会社等,,,,,,,,Ｎａｎｓｈａｎ　Ｙｕｎｇｕ　Ｃｒｅａｔｉｏｎ，Ｎｏ．４０９３，Ｌｉｕｘｉａｎ　Ａｖｅｎｕｅ，Ｐｉｎｇｓｈａｎ　Ｃｏｍｍｕｎｉｔｙ，Ｔａｏｙｕａｎ　Ｓｔｒｅｅｔ　Ｎａｎｓｈａｎ　Ｄｉｓｔｒｉｃｔ，Ｓｈｅｎｚｈｅｎ　Ｃｉｔｙ，Ｇｕａｎｇｄｏｎｇ　Ｐｒｏｖｉｎｃｅ　Ｃｈｉｎａ,,,,,,2023-08-07,1,,,,,シンセンクンワアウトドアプロダクツカンパニーリミテッド,0
300,1700150118859,新規,0,2023-08-07,2023-08-07,ＺｈｕＨａｉＳｈｉＳｈｅｎｇＬｏｎｇＫｅＪｉＹｏｕＸｉａｎＧｏｎｇＳｉ,,外国会社等,,,,,,,,ｚｈｕｈａｉｓｈｉｘｉａｎｇｚｈｏｕｑｕｌ　ｙｏｕｌｕ２８２３ｈａｏ３ｃｅｎｇ３０６８ｓｈｉ,,,,,,2023-08-07,1,,,,,ジューハイシーションロンコージーヨウシエンゴンスー,0
301,1700150118867,新規,0,2023-08-07,2023-08-07,ＳｈｅｎＺｈｅｎＳｈｉ　ＱｉＨｕａＴｏｎｇＣｈｕａｎｇ　ＫｅＪｉ　ＹｏｕＸｉａｎＧｏｎｇＳｉ,,外国会社等,,,,,,,,Ｑｉａｎ　Ｈａｉ　Ｓｈｅｎ　Ｇａｎｇ　Ｈｅ　Ｚｕｏ　Ｑｕ　Ｑｉａｎ　Ｗａｎ　Ｙｉ　Ｌｕ　１　Ｈａｏ　Ａ　Ｄｏｎｇ　２０１　Ｓｈｉ　Ｓｈｅｎ　Ｚｈｅｎ　Ｇｕａｎｇ　Ｄｏｎｇ,,,,,,2023-08-07,1,,,,,シェンゼェンシチフアトンチュアンケジユウゲンコウシ,0
306,2010001237431,新規,0,2023-08-07,2023-08-07,株式会社イープラス,,株式会社,東京都,千代田区,岩本町２丁目１番１９号６Ａ,,13,101,1010032,,,,,,,2023-08-07,1,,,,,イープラス,0
315,2010401176163,新規,0,2023-08-07,2023-08-07,昨日今日明日株式会社,,株式会社,東京都,港区,北青山１丁目３番１号アールキューブ青山３階,,13,103,1070061,,,,,,,2023-08-07,1,,,,,キノウキョウアシタ,0
316,2010401176171,新規,0,2023-08-07,2023-08-07,ＲＹＵ　ＦＩＬＭ株式会社,,株式会社,東京都,港区,西新橋２丁目７番４号,,13,103,1050003,,,,,,,2023-08-07,1,,,,,リューフィルム,0
317,2010401176188,新規,0,2023-08-07,2023-08-07,ブルーム２株式会社,,株式会社,東京都,港区,六本木６丁目１０番１号六本木ヒルズ森タワー３７階,,13,103,1060032,,,,,,,2023-08-07,1,,,,,ブルームツー,0
318,2010403030624,新規,0,2023-08-07,2023-08-07,合同会社経営サポート,,合同会社,東京都,港区,南青山３丁目１番３６号青山丸竹ビル６Ｆ,,13,103,1070062,,,,,,,2023-08-07,1,,,,,ケイエイサポート,0
319,2010403030673,新規,0,2023-08-07,2023-08-07,Ｓ‐ＭＩＬＥ　Ｊａｐａｎ合同会社,,合同会社,東京都,港区,北青山１丁目３番１号アールキューブ青山３階,,13,103,1070061,,,,,,,2023-08-07,1,,,,,スマイルジャパン,0
324,2010701044680,新規,0,2023-08-07,2023-08-07,株式会社リーダーズクリエイティブラボ,,株式会社,東京都,品川区,中延２丁目１７番７号クレアトール中延６０４,,13,109,1420053,,,,,,,2023-08-07,1,,,,,リーダーズクリエイティブラボ,0
329,2010901053580,新規,0,2023-08-07,2023-08-07,株式会社イーストアーキテクツ,,株式会社,東京都,世田谷区,代沢４丁目２７番１７－３０４号,,13,112,1550032,,,,,,,2023-08-07,1,,,,,イーストアーキテクツ,0
330,2010901053589,新規,0,2023-08-07,2023-08-07,株式会社アプリテイジ,,株式会社,東京都,世田谷区,三軒茶屋２丁目１１番２４号サンタワーズＡ棟３０１,,13,112,1540024,,,,,,,2023-08-07,1,,,,,アプリテイジ,0
335,2011001156092,新規,0,2023-08-07,2023-08-07,株式会社ＲＰＥＡＲＬ,,株式会社,東京都,渋谷区,道玄坂１丁目１０番８号渋谷道玄坂東急ビル２Ｆ－Ｃ,,13,113,1500043,,,,,,,2023-08-07,1,,,,,アールパール,0
336,2011003017301,新規,0,2023-08-07,2023-08-07,ＦＵＮ　Ｃｒｅａｔｉｖｅ合同会社,,合同会社,東京都,渋谷区,初台１丁目４６番７号オーパスヴィラ初台２０３,,13,113,1510061,,,,,,,2023-08-07,1,,,,,ファンクリエイティブ,0
340,2011101103886,新規,0,2023-08-07,2023-08-07,株式会社コネックス,,株式会社,東京都,新宿区,中里町２７番地神楽坂ファーストビル６階,,13,104,1620804,,,,,,,2023-08-07,1,,,,,コネックス,0
342,2011103013340,新規,0,2023-08-07,2023-08-07,合同会社サンライズ,,合同会社,東京都,新宿区,新宿３丁目１２番４号新宿Ｎタウンプラザ３０９号,,13,104,1600022,,,,,,,2023-08-07,1,,,,,サンライズ,0
346,2011203004140,新規,0,2023-08-07,2023-08-07,ａｃａｉｉ合同会社,,合同会社,東京都,中野区,中央４丁目３１番１６号,,13,114,1640011,,,,,,,2023-08-07,1,,,,,アサイー,0
348,2011603004005,新規,0,2023-08-07,2023-08-07,合同会社Ｓｕｒｇｅｘ,,合同会社,東京都,練馬区,東大泉３丁目４番９号,,13,120,1780063,,,,,,,2023-08-07,1,,,,,サージェックス,0
351,2012701017781,新規,0,2023-08-07,2023-08-07,株式会社ミノル興業,,株式会社,東京都,東村山市,青葉町２丁目２番地５０,,13,213,1890002,,,,,,,2023-08-07,1,,,,,ミノルコウギョウ,0
364,2020001152761,新規,0,2023-08-07,2023-08-07,株式会社エムズクラフトファクトリー,,株式会社,神奈川県,川崎市中原区,木月伊勢町５番１１号,,14,133,2110032,,,,,,,2023-08-07,1,,,,,エムズクラフトファクトリー,0
365,2020001152844,新規,0,2023-08-07,2023-08-07,株式会社コスト・エコ研究所,,株式会社,神奈川県,横浜市瀬谷区,本郷３丁目６番地１０コーポヘイキチＡ２０３,,14,114,2460015,,,,,,,2023-08-07,1,,,,,コストエコケンキュウジョ,0
371,2020003024315,新規,0,2023-08-07,2023-08-07,合同会社インテリッジアセットマネジメント,,合同会社,神奈川県,川崎市高津区,下作延５丁目１０―２５―７０８,,14,134,2130033,,,,,,,2023-08-07,1,,,,,インテリッジアセットネジメント,0
372,2020003024331,新規,0,2023-08-07,2023-08-07,合同会社ＴＹプランニング,,合同会社,神奈川県,横浜市都筑区,大棚西３番３－５０６号,00131416,14,118,2240028,,,,,,,2023-08-07,1,,,,,ティーワイプランニング,0
373,2021001079739,新規,0,2023-08-07,2023-08-07,サンガーデン株式会社,,株式会社,神奈川県,相模原市緑区,下九沢１５９８番地６榎本ビル１Ｆ,,14,151,2520134,,,,,,,2023-08-07,1,,,,,サンガーデン,0
374,2021001079805,新規,0,2023-08-07,2023-08-07,株式会社千歳建設,,株式会社,神奈川県,大和市,桜森２丁目８番９号,,14,213,2420028,,,,,,,2023-08-07,1,,,,,チトセケンセツ,0
375,2021001079813,新規,0,2023-08-07,2023-08-07,株式会社Ｄｅａｌ,,株式会社,神奈川県,藤沢市,善行７丁目１１番２～３０９号,,14,205,2510871,,,,,,,2023-08-07,1,,,,,ディール,0
378,2021003013381,新規,0,2023-08-07,2023-08-07,合同会社Ｐ．Ｊ,,合同会社,神奈川県,南足柄市,塚原１３５９番地１,,14,217,2500117,,,,,,,2023-08-07,1,,,,,ピージェイ,0
379,2021003013423,新規,0,2023-08-07,2023-08-07,エコユニバース合同会社,,合同会社,神奈川県,海老名市,上今泉６丁目４２―７,,14,215,2430431,,,,,,,2023-08-07,1,,,,,エコユニバース,0
387,2040001129493,新規,0,2023-08-07,2023-08-07,ノースヴィレッジ株式会社,,株式会社,千葉県,松戸市,中金杉４丁目１４７番地,,12,207,2700007,,,,,,,2023-08-07,1,,,,,ノースヴィレッジ,0
388,2040001129519,新規,0,2023-08-07,2023-08-07,株式会社エーモーション,,株式会社,千葉県,浦安市,美浜１丁目７番,,12,227,2790011,,,,,,,2023-08-07,1,,,,,エーモーション,0
390,2040003023075,新規,0,2023-08-07,2023-08-07,Ｅｖｅｒｇｒｅｅｎ　Ｉｎｖｅｓｔｍｅｎｔ合同会社,,合同会社,千葉県,船橋市,金杉７丁目３８番１３号,,12,204,2730853,,,,,,,2023-08-07,1,,,,,エバーグリーンインベストメント,0
394,2040005022083,新規,0,2023-08-07,2023-08-07,一般社団法人グリーフケア・ビリーブメントケア研究所,,その他の設立登記法人,千葉県,船橋市,西船４丁目８番地１５号サンウイング西船７０３号室,,12,204,2730031,,,,,,,2023-08-07,1,,,,,,0
397,2050001053239,新規,0,2023-08-07,2023-08-07,株式会社北総園,,株式会社,茨城県,守谷市,同地２０６番地,,08,224,3020112,,,,,,,2023-08-07,1,,,,,ホクソウエン,0
407,2070001040697,新規,0,2023-08-07,2023-08-07,株式会社Ａｉ３,,株式会社,群馬県,伊勢崎市,宮子町３２２０番地,,10,204,3720801,,,,,,,2023-08-07,1,,,,,エイアイスリー,0
408,2070001040714,新規,0,2023-08-07,2023-08-07,株式会社華蔵,,株式会社,群馬県,伊勢崎市,境百々２６２―１シャルマンＡ２０４,,10,204,3700117,,,,,,,2023-08-07,1,,,,,カグラ,0
415,2080401026650,新規,0,2023-08-07,2023-08-07,株式会社永心工業,,株式会社,静岡県,浜松市中区,高丘西２丁目２３番２２号,,22,131,4338118,,,,,,,2023-08-07,1,,,,,エイシンコウギョウ,0
416,2080403004844,新規,0,2023-08-07,2023-08-07,合同会社さつき,,合同会社,静岡県,浜松市東区,笠井町２６４番地の３,,22,132,4313107,,,,,,,2023-08-07,1,,,,,サツキ,0
417,2080405007564,新規,0,2023-08-07,2023-08-07,一般社団法人こども支援協会,,その他の設立登記法人,静岡県,浜松市中区,旭町６番地の１一条タワー９０３号,,22,131,4300927,,,,,,,2023-08-07,1,,,,,コドモシエンキョウカイ,0
420,2100005013051,新規,0,2023-08-07,2023-08-07,上田市ごみ収集事業協同組合,,その他の設立登記法人,長野県,上田市,天神３丁目１１番４０号,,20,203,3860025,,,,,,,2023-08-07,1,,,,,ウエダシゴミシュウシュウ,0
422,2110001037755,新規,0,2023-08-07,2023-08-07,株式会社Ｒｕｈｍ　Ｈａｈｎ,,株式会社,新潟県,新潟市秋葉区,東金沢１６７７番地１,,15,105,9560814,,,,,,,2023-08-07,1,,,,,ラウムハーン,0
433,2120001256965,新規,0,2023-08-07,2023-08-07,株式会社ネコぱらテックラボ,,株式会社,大阪府,寝屋川市,高柳５丁目１２番２号,,27,215,5720051,,,,,,,2023-08-07,1,,,,,ネコパラテックラボ,0
434,2120001256981,新規,0,2023-08-07,2023-08-07,株式会社福寿海,,株式会社,大阪府,大阪市浪速区,難波中１丁目１３番５号タイヨービル５０３号室,,27,111,5560011,,,,,,,2023-08-07,1,,,,,フクジュカイ,0
435,2120001257022,新規,0,2023-08-07,2023-08-07,タツミ研磨株式会社,,株式会社,大阪府,大阪市生野区,巽西３丁目１５番４号,00131426,27,116,5440012,,,,,,,2023-08-07,1,,,,,タツミケンマ,0
437,2120005023800,新規,0,2023-08-07,2023-08-07,司法書士法人ＳＫリーガル,,その他の設立登記法人,大阪府,大阪市中央区,内本町１丁目１番６号内本町Ｂ＆Ｍビル５Ｆ,,27,128,5400026,,,,,,,2023-08-07,1,,,,,エスケーリーガル,0
438,2120101067973,新規,0,2023-08-07,2023-08-07,株式会社松野舗装,,株式会社,大阪府,泉佐野市,鶴原１０６６番地,,27,213,5980071,,,,,,,2023-08-07,1,,,,,マツノホソウ,0
440,2120901047893,新規,0,2023-08-07,2023-08-07,株式会社日本国際,,株式会社,大阪府,吹田市,内本町１丁目１２－４－１０２,,27,205,5640032,,,,,,,2023-08-07,1,,,,,ニホンコクサイ,0
441,2120901047902,新規,0,2023-08-07,2023-08-07,ＴＮＫＳ株式会社,,株式会社,大阪府,高槻市,南平台４丁目５番１１号,,27,207,5691042,,,,,,,2023-08-07,1,,,,,ティーエヌケーエス,0
442,2120901047910,新規,0,2023-08-07,2023-08-07,株式会社ウェルスアップ,,株式会社,大阪府,豊中市,上野東２丁目１１番３５号,,27,203,5600013,,,,,,,2023-08-07,1,,,,,ウェルスアップ,0
445,2122001037214,新規,0,2023-08-07,2023-08-07,株式会社ＧＹカンパニー,,株式会社,大阪府,柏原市,大字高井田１５７８番地の１１,,27,221,5820015,,,,,,,2023-08-07,1,,,,,ジーワイカンパニー,0
454,2130001074879,新規,0,2023-08-07,2023-08-07,株式会社京ノ,,株式会社,京都府,京都市上京区,烏丸通丸太町上る春日町４３４番地１,,26,102,6028023,,,,,,,2023-08-07,1,,,,,キョウノ,0
456,2130003008901,新規,0,2023-08-07,2023-08-07,合同会社コネクト京都,,合同会社,京都府,京都市下京区,富小路通松原下る本上神明町４４９－１洛縁五条,,26,106,6008064,,,,,,,2023-08-07,1,,,,,コネクトキョウト,0
459,2140001131076,新規,0,2023-08-07,2023-08-07,株式会社Ｌｅａｐ,,株式会社,兵庫県,神戸市兵庫区,門口町３番１５号,,28,105,6520814,,,,,,,2023-08-07,1,,,,,リープ,0
460,2140001131134,新規,0,2023-08-07,2023-08-07,Ｔｈｅ　Ｓｅｖｅｎ　Ｓｔａｒｓ株式会社,,株式会社,兵庫県,神戸市中央区,下山手通３丁目１１番３－２号,,28,110,6500011,,,,,,,2023-08-07,1,,,,,ザセブンスターズ,0
462,2140005026702,新規,0,2023-08-07,2023-08-07,一般社団法人医療創成工学研究開発機構,,その他の設立登記法人,兵庫県,神戸市中央区,楠町７丁目５番,,28,110,6500017,,,,,,,2023-08-07,1,,,,,イリョウソウセイコウガクケンキュウカイハツキコウ,0
465,2160003002942,新規,0,2023-08-07,2023-08-07,合同会社Ｋｉｅｆｅｒ　Ｄｏｒｆ,,合同会社,滋賀県,大津市,松が丘４丁目４番２９号,,25,201,5202102,,,,,,,2023-08-07,1,,,,,キーファードルフ,0
466,2160003002950,新規,0,2023-08-07,2023-08-07,合同会社Ｌ．Ａ．Ｃ,,合同会社,滋賀県,草津市,野村２丁目６－２２,,25,206,5250027,,,,,,,2023-08-07,1,,,,,エルエーシー,0
467,2170005007030,新規,0,2023-08-07,2023-08-07,医療法人長尾会,,その他の設立登記法人,和歌山県,御坊市,湯川町小松原５３１番地１,,30,205,6440012,,,,,,,2023-08-07,1,,,,,ナガオカイ,0
477,2180001157398,新規,0,2023-08-07,2023-08-07,ＳＥＩＪＯＵ株式会社,,株式会社,愛知県,名古屋市東区,東桜１丁目１０番２９号,,23,102,4610005,,,,,,,2023-08-07,1,,,,,セイジョウ,0
478,2180001157415,新規,0,2023-08-07,2023-08-07,株式会社ヨシケン建設工業,,株式会社,愛知県,名古屋市緑区,大高町字神戸２４番地,,23,114,4598001,,,,,,,2023-08-07,1,,,,,ヨシケンケンセツコウギョウ,0
479,2180001157423,新規,0,2023-08-07,2023-08-07,株式会社Ｇｒｏｗ,,株式会社,愛知県,名古屋市中区,栄５丁目１８番１１号,,23,106,4600008,,,,,,,2023-08-07,1,,,,,グロウ,0
480,2180001157431,新規,0,2023-08-07,2023-08-07,株式会社スイッチ＆スイッチ,,株式会社,愛知県,名古屋市中川区,服部３丁目１０５番地,,23,110,4540976,,,,,,,2023-08-07,1,,,,,スイッチアンドスイッチ,0
481,2180001157448,新規,0,2023-08-07,2023-08-07,株式会社宏由建設,,株式会社,愛知県,春日井市,藤山台１０丁目１７番地３サンハイツ藤山台Ｃ１０３,,23,206,4870035,,,,,,,2023-08-07,1,,,,,コウユウケンセツ,0
482,2180001157464,新規,0,2023-08-07,2023-08-07,株式会社イフー,,株式会社,愛知県,名古屋市北区,柳原３丁目６番７号プレサンスグラン名城公園２１０号,,23,103,4620845,,,,,,,2023-08-07,1,,,,,イフー,0
489,2180003025561,新規,0,2023-08-07,2023-08-07,合同会社うさきちや,,合同会社,愛知県,名古屋市中村区,名駅４丁目２４番５号第２森ビル４０１,,23,105,4500002,,,,,,,2023-08-07,1,,,,,ウサキチヤ,0
490,2180003025578,新規,0,2023-08-07,2023-08-07,ジービーオー合同会社,,合同会社,愛知県,名古屋市名東区,藤森２丁目２６５番地（シャルマン藤ケ丘３－Ａ号）,,23,115,4650026,,,,,,,2023-08-07,1,,,,,ジービーオー,0
491,2180003025586,新規,0,2023-08-07,2023-08-07,ＡＤ’ｓ　ＴＲＡＮＣＥＲ合同会社,,合同会社,愛知県,名古屋市中村区,則武２丁目１４番１１号名駅富士ビル４Ｆ,,23,105,4530014,,,,,,,2023-08-07,1,,,,,アドストランサー,0
494,2180301037647,新規,0,2023-08-07,2023-08-07,株式会社ＦＲＥＥＤＯＭ,,株式会社,愛知県,西尾市,矢曽根町寺後３０番地２,,23,213,4450872,,,,,,,2023-08-07,1,,,,,フリーダム,0
499,2200001041590,新規,0,2023-08-07,2023-08-07,ラポール株式会社,,株式会社,岐阜県,岐阜市,長良１０４６番地１,,21,201,5020071,,,,,,,2023-08-07,1,,,,,ラポール,0
501,2200003006039,新規,0,2023-08-07,2023-08-07,ａｍａｎａ合同会社,,合同会社,岐阜県,岐阜市,鷺山新町５番１８号,,21,201,5020871,,,,,,,2023-08-07,1,,,,,アマナ,0
504,2220001025534,新規,0,2023-08-07,2023-08-07,株式会社ｍｉｒａｉ,,株式会社,石川県,金沢市,野田４丁目８３番地（ＣＨＩＡＲＡ・２０１号）,,17,201,9218107,,,,,,,2023-08-07,1,,,,,ミライ,0
507,2230001019948,新規,0,2023-08-07,2023-08-07,株式会社ＴＨＸマネジメント,,株式会社,富山県,富山市,呉羽町３６０番地６,,16,201,9300138,,,,,,,2023-08-07,1,,,,,サンクスマネジメント,0
513,2260001038202,新規,0,2023-08-07,2023-08-07,株式会社ＯＫＡＤＡ,,株式会社,岡山県,岡山市北区,東島田町２丁目７番１８号,,33,101,7000983,,,,,,,2023-08-07,1,,,,,オカダ,0
515,2260003004391,新規,0,2023-08-07,2023-08-07,合同会社ＭｉＣＨｉＲＵ,,合同会社,岡山県,岡山市北区,田中１４８番地１０１クレール長瀬１０５,,33,101,7000951,,,,,,,2023-08-07,1,,,,,ミチル,0
516,2260005011262,新規,0,2023-08-07,2023-08-07,医療法人社団ＭＡＲＩＮＡ,,その他の設立登記法人,岡山県,岡山市北区,内山下１丁目３番１３号,,33,101,7000824,,,,,,,2023-08-07,1,,,,,マリーナ,0
531,2310001018537,新規,0,2023-08-07,2023-08-07,株式会社ＳＡＷＡＹＡＭＡ＆ＭＯＬ,,株式会社,長崎県,長崎市,出島町３番１０号,,42,201,8500862,,,,,,,2023-08-07,1,,,,,サワヤマアンドエムオーエル,0
532,2310001018545,新規,0,2023-08-07,2023-08-07,株式会社はた会計,,株式会社,長崎県,長崎市,松山町４番４０号,,42,201,8528118,,,,,,,2023-08-07,1,,,,,ハタカイケイ,0
537,2320001019930,新規,0,2023-08-07,2023-08-07,株式会社ｍ‐ｃｏｎｓｕｌｔｉｎｇ,,株式会社,大分県,別府市,大字鶴見３０９番地の１,,44,202,8740840,,,,,,,2023-08-07,1,,,,,エムコンサルティング,0
538,2320003004138,新規,0,2023-08-07,2023-08-07,合同会社おひさま,,合同会社,大分県,大分市,大字光吉１７８５番地の１９,,44,201,8701132,,,,,,,2023-08-07,1,,,,,オヒサマ,0
539,2330001031109,新規,0,2023-08-07,2023-08-07,株式会社プチ・パルク,,株式会社,熊本県,熊本市西区,谷尾崎町１３５２番地２,,43,103,8600044,,,,,,,2023-08-07,1,,,,,プチパルク,0
541,2350001018483,新規,0,2023-08-07,2023-08-07,株式会社ＫＴ,,株式会社,宮崎県,宮崎市,薫る坂１丁目８番５号,,45,201,8800947,,,,,,,2023-08-07,1,,,,,ケイティ,0
546,2360003013176,新規,0,2023-08-07,2023-08-07,合同会社ＣｏＲＥプランニング,,合同会社,沖縄県,宮古島市,平良字下里１０４０番地８,,47,214,9060013,,,,,,,2023-08-07,1,,,,,コアプランニング,0
548,2370001050237,新規,0,2023-08-07,2023-08-07,株式会社ガレージ丹野,,株式会社,宮城県,仙台市宮城野区,蒲生１丁目１０３－１－１０２,,04,102,9830002,,,,,,,2023-08-07,1,,,,,ガレージタンノ,0
556,2380003005527,新規,0,2023-08-07,2023-08-07,合同会社グローバル,,合同会社,福島県,郡山市,大槻町字広町１５番地の２,,07,203,9630201,,,,,,,2023-08-07,1,,,,,グローバル,0
565,2420003002767,新規,0,2023-08-07,2023-08-07,合同会社田子衛生,,合同会社,青森県,三戸郡田子町,大字田子字矢田郎９０番地５,,02,443,0390201,,,,,,,2023-08-07,1,,,,,タッコエイセイ,0
568,2430001089657,新規,0,2023-08-07,2023-08-07,株式会社友映,,株式会社,北海道,札幌市厚別区,厚別中央一条４丁目５番２１号,,01,108,0040051,,,,,,,2023-08-07,1,,,,,ユウエイ,0
572,2450003002368,新規,0,2023-08-07,2023-08-07,ｏｐｅｒａ農苑合同会社,,合同会社,北海道,紋別市,渚滑町宇津々４９１番地の１,,01,219,0995174,,,,,,,2023-08-07,1,,,,,オペラノウエン,0
579,2500003003071,新規,0,2023-08-07,2023-08-07,合同会社Ｐｌａｎｎｉｎｇ８,,合同会社,愛媛県,松山市,中村４丁目５番９号,,38,201,7900964,,,,,,,2023-08-07,1,,,,,,0
581,2700150118817,新規,0,2023-08-07,2023-08-07,ｓｈｅｎｚｈｅｎｓｈｉｘｉｎｘｉａｎｇｄｉａｎｚｉｓｈａｎｇｗｕｙｏｕｘｉａｎｇｏｎｇｓｉ,,外国会社等,,,,,,,,ＧｕａｎｇＤｏｎｇＳｈｅｎｇＳｈｅｎＺｈｅｎＳｈｉＬｏｎｇＧａｎｇＱｕＬｏｎｇＧａｎｇＪｉｅＤａｏＷｕＬｉａｎＳｈｅＱｕＱｉａｎＬｉｎＳｈａｎＪｕＳａｎＱｉ３５ＤｏｎｇＡＺｕｏ２００１,,,,,,2023-08-07,1,,,,,シェンジェンシーシンシャンディエンズーシャンウーヨウシエンゴンスー,0
582,2700150118825,新規,0,2023-08-07,2023-08-07,Ｓｈｅｎｚｈｅｎ　Ｈａｉｍａｉｔｏｎｇ　Ｔｒａｄｉｎｇ　Ｃｏ．，Ｌｔｄ．,,外国会社等,,,,,,,,Ｒｏｏｍ　６Ｂ－２２，Ｈａｓｅｅ　Ｃｏｍｐｕｔｅｒ　Ｂｕｉｌｄｉｎｇ　Ｂａｎｔｉａｎ　Ｓｔｒｅｅｔ，Ｌｏｎｇｇａｎｇ　Ｄｉｓｔｒｉｃｔ，Ｓｈｅｎｚｈｅｎ．Ｓｈｅｎｚｈｅｎｓｈｉ　ｇｕａｎｇｄｏｎｇｓｈｅｎｇ　５１８１００　ＣＮ,,,,,,2023-08-07,1,,,,,シェンヂェンハイマイトンマオイーヨウシィェンゴンスー,0
583,2700150118833,新規,0,2023-08-07,2023-08-07,Ｇｕａｎｇｚｈｏｕ　ｆｅｉｋｅｄａ　ｔｅｃｈ　ｃｏ．，ｌｔｄ,,外国会社等,,,,,,,,７０９　Ｒｏｏｍ，ｆｕｃｈｅｎｇ　ｂｕｉｌｄｉｎｇ，Ｎｏ．１３　ｓｏｎｇｎａｎ　ｒｏａｄ　ｂａｉｙｕｎ　ｄｉｓｔｒｉｃｔ　Ｇｕａｎｇｚｈｏｕ　Ｇｕａｎｇｄｏｎｇ　５１００００　ＣＮ,,,,,,2023-08-07,1,,,,,グゥアンゾォウフェイケダテクカンパニーリミテッド,0
584,2700150118841,新規,0,2023-08-07,2023-08-07,Ｇｕａｎｇｚｈｏｕ　Ｒｉｍｉｎｇｘｉｅｙｅ　Ｙｏｕｘｉａｎｇｏｎｇｓｉ,,外国会社等,,,,,,,,Ｂａｉｙｕｎｑｕ　Ｈｅｌｏｎｇｅｒｌｕ　８６　Ｈａｏ　Ａ３　Ｄｏｎｇ　３０１　Ｓｈｉ　Ｇｕａｎｇｚｈｏｕ　Ｇｕａｎｇｄｏｎｇ　ＣＮ,,,,,,2023-08-07,1,,,,,コウシュウリミンシエイェユウゲンコウシ,0
585,2700150118858,新規,0,2023-08-07,2023-08-07,Ｓｈｅｎｚｈｅｎ　Ｙｕｃｈｅｎｘｉ　Ｋｅｊｉ　Ｙｏｕｘｉａｎ　Ｇｏｎｇｓｉ,,外国会社等,,,,,,,,３０１７，Ｂｕｉｌｄｉｎｇ　Ｂ，Ｔｉａｎｘｉａ　Ｉｎｔｅｒｎａｔｉｏｎａｌ　Ｃｅｎｔｅｒ，Ｎｏ．８　Ｔａｏｙｕａｎ　Ｒｏａｄ，Ｄａｗａｎｇｓｈａｎ　Ｃｏｍｍｕｎｉｔｙ，Ｎａｎｔｏｕ　Ｓｔｒｅｅｔ，Ｎａｎｓｈａｎ　Ｄｉｓｔｒｉｃｔ，Ｓｈｅｎｚｈｅｎ,,,,,,2023-08-07,1,,,,,シェンジェンシーイーチェンシーコージーヨウシエンゴンスー,0
586,2700150118866,新規,0,2023-08-07,2023-08-07,Ｓｈｅｎｚｈｅｎ　Ｘｉｎｗｏｙｕａｎ　ｔｅｃｈｎｏｌｏｇｙ　Ｃｏ．，Ｌｔｄ．,,外国会社等,,,,,,,,ｌｏｎｇｈｕａｑｕ　ｌｏｎｇｈｕａｊｉｅｄａｏ　ｌｏｎｇｙｕａｎｓｈｅｑｕ　ｈｕａｙｕａｎｄａｏ　ｇｏｎｇｙｕａｎｌｕ　ｓｈａｎｇｙｅｊｉｅ２４９　Ｇｕａｎｇｄｏｎｇ　Ｓｈｅｎｚｈｅｎ,,,,,,2023-08-07,1,,,,,シンセンシンヲユェンテクノロジーカンパニーリミテッド,0
598,3010003041260,新規,0,2023-08-07,2023-08-07,合同会社ムラサキ,,合同会社,東京都,中央区,銀座１丁目６番１１号土志田ビルディング３Ｆ,,13,102,1040061,,,,,,,2023-08-07,1,,,,,ムラサキ,0
605,3010401176121,新規,0,2023-08-07,2023-08-07,株式会社Ａｉｌｅｓ,,株式会社,東京都,港区,北青山１丁目３番１号アールキューブ青山３階,,13,103,1070061,,,,,,,2023-08-07,1,,,,,エイル,0
606,3010401176187,新規,0,2023-08-07,2023-08-07,ブルーム１株式会社,,株式会社,東京都,港区,六本木６丁目１０番１号六本木ヒルズ森タワー３７階,,13,103,1060032,,,,,,,2023-08-07,1,,,,,ブルームワン,0
607,3010401176220,新規,0,2023-08-07,2023-08-07,Ｗａｙ　Ｅｑｕｉｔｙ　Ｐａｒｔｎｅｒｓ株式会社,,株式会社,東京都,港区,六本木１丁目９番１０号アークヒルズ仙石山森タワー２８階べーカー＆マッケンジー法律事務所（外国法共同事業）内,,13,103,1060032,,,,,,,2023-08-07,1,,,,,ウェイエクイティーパートナーズ,0
608,3010403030648,新規,0,2023-08-07,2023-08-07,日向コンサルティング合同会社,,合同会社,東京都,港区,芝浦４丁目２２番１号,,13,103,1080023,,,,,,,2023-08-07,1,,,,,ヒュウガコンサルティング,0
609,3010405022354,新規,0,2023-08-07,2023-08-07,一般社団法人ＥＸＯ‐ＣＰＦ,,その他の設立登記法人,東京都,港区,浜松町２丁目５番３号,,13,103,1050013,,,,,,,2023-08-07,1,,,,,エクソシーピーエフ,0
621,3010903008276,新規,0,2023-08-07,2023-08-07,合同会社紬,,合同会社,東京都,世田谷区,大原１丁目１７番１７号トリム下北５０２,,13,112,1560041,,,,,,,2023-08-07,1,,,,,ツムギ,0
622,3010903008342,新規,0,2023-08-07,2023-08-07,銀河合同会社,,合同会社,東京都,世田谷区,太子堂３丁目１－１５コットンハイム２０１号,,13,112,1540004,,,,,,,2023-08-07,1,,,,,ギンガ,0
623,3010903008367,新規,0,2023-08-07,2023-08-07,合同会社ほっこりらいふ,,合同会社,東京都,世田谷区,桜上水１丁目２０番４号,,13,112,1560045,,,,,,,2023-08-07,1,,,,,ホッコリライフ,0
629,3011001156109,新規,0,2023-08-07,2023-08-07,博航商事株式会社,,株式会社,東京都,渋谷区,富ヶ谷１丁目１４番１４号スタンフォードアネックスビル３Ｆ,,13,113,1510063,,,,,,,2023-08-07,1,,,,,ハクコウショウジ,0
630,3011001156117,新規,0,2023-08-07,2023-08-07,Ｘ　Ｐｉｐｅｌｉｎｅｓ株式会社,,株式会社,東京都,渋谷区,神宮前６丁目２３番４号桑野ビル２階,,13,113,1500001,,,,,,,2023-08-07,1,,,,,クロスパイプラインズ,0
633,3011003017275,新規,0,2023-08-07,2023-08-07,ディークロスソリューションズ合同会社,,合同会社,東京都,渋谷区,円山町５番５号,,13,113,1500044,,,,,,,2023-08-07,1,,,,,ディークロスソリューションズ,0
634,3011003017291,新規,0,2023-08-07,2023-08-07,こぶし企画合同会社,,合同会社,東京都,目黒区,目黒４丁目６番２７号,,13,110,1530063,,,,,,,2023-08-07,1,,,,,コブシキカク,0
637,3011501029631,新規,0,2023-08-07,2023-08-07,株式会社イーストテイル,,株式会社,東京都,荒川区,東尾久８丁目２７番４号,,13,118,1160012,,,,,,,2023-08-07,1,,,,,イーストテイル,0
640,3011601027023,新規,0,2023-08-07,2023-08-07,Ｃ＆Ｚ商事株式会社,,株式会社,東京都,練馬区,東大泉６丁目１９番５号,,13,120,1780063,,,,,,,2023-08-07,1,,,,,シーアンドゼットショウジ,0
642,3011701026461,新規,0,2023-08-07,2023-08-07,株式会社くれよん,,株式会社,東京都,江戸川区,中葛西７丁目１１番１３号,,13,123,1340083,,,,,,,2023-08-07,1,,,,,クレヨン,0
643,3011701026478,新規,0,2023-08-07,2023-08-07,株式会社ＭＯＳＨ,,株式会社,東京都,江戸川区,南小岩２丁目１７番３号サカシンビル１Ｆ,,13,123,1330056,,,,,,,2023-08-07,1,,,,,モッシュ,0
644,3011703003558,新規,0,2023-08-07,2023-08-07,Ｐｅａｃｅ　ｒｏｏｍ合同会社,,合同会社,東京都,江戸川区,北小岩７丁目１番３号,,13,123,1330051,,,,,,,2023-08-07,1,,,,,ピースルーム,0
646,3011801042854,新規,0,2023-08-07,2023-08-07,株式会社ステラコード,,株式会社,東京都,足立区,伊興２丁目１９番２７号,,13,121,1210823,,,,,,,2023-08-07,1,,,,,ステラコード,0
651,3012401040827,新規,0,2023-08-07,2023-08-07,ちょいぷらす株式会社,,株式会社,東京都,調布市,飛田給１丁目３４番地１,,13,208,1820036,,,,,,,2023-08-07,1,,,,,チョイプラス,0
655,3020001152819,新規,0,2023-08-07,2023-08-07,株式会社伊井工務店,,株式会社,神奈川県,横浜市神奈川区,神大寺１丁目７番７号,,14,102,2210801,,,,,,,2023-08-07,1,,,,,イイコウムテン,0
656,3020001152876,新規,0,2023-08-07,2023-08-07,株式会社スカイ,,株式会社,神奈川県,川崎市川崎区,本町１丁目５番８号シーズ川崎１０３,,14,131,2100001,,,,,,,2023-08-07,1,,,,,スカイ,0
663,3021001079738,新規,0,2023-08-07,2023-08-07,株式会社Ｔ＆Ｍ　Ｇｌｏｂａｌ,,株式会社,神奈川県,相模原市南区,新磯野１丁目１０番６号ステイエム相模原南１０３号,,14,153,2520325,,,,,,,2023-08-07,1,,,,,ティーアンドエムグローバル,0
664,3021001079787,新規,0,2023-08-07,2023-08-07,株式会社ベースバリュー,,株式会社,神奈川県,藤沢市,下土棚６１６番地富士見台ハイツ２～２０５,00131424,14,205,2520807,,,,,,,2023-08-07,1,,,,,ベースバリュー,0
665,3021001079804,新規,0,2023-08-07,2023-08-07,株式会社長田興業,,株式会社,神奈川県,足柄上郡大井町,上大井６８１番地２メゾン・ド・ラフィーネＡ１０３,,14,362,2580016,,,,,,,2023-08-07,1,,,,,オサダコウギョウ,0
669,3021003013389,新規,0,2023-08-07,2023-08-07,エボニボ合同会社,,合同会社,神奈川県,鎌倉市,雪ノ下２丁目９番８号,,14,204,2480005,,,,,,,2023-08-07,1,,,,,エボニボ,0
673,3030001155069,新規,0,2023-08-07,2023-08-07,大輪産業株式会社,,株式会社,埼玉県,さいたま市南区,太田窪２丁目６番８号,,11,108,3360015,,,,,,,2023-08-07,1,,,,,ダイリンサンギョウ,0
679,3030005021341,新規,0,2023-08-07,2023-08-07,一般社団法人ふきこぼれ,,その他の設立登記法人,埼玉県,吉川市,保１丁目３０番地４ソフィア吉川ガーデニアン３０３号,,11,243,3420041,,,,,,,2023-08-07,1,,,,,フキコボレ,0
688,3040001129492,新規,0,2023-08-07,2023-08-07,とうかつ塗料株式会社,,株式会社,千葉県,松戸市,緑ケ丘１丁目１２０番地,,12,207,2710074,,,,,,,2023-08-07,1,,,,,トウカツトリョウ,0
689,3040001129542,新規,0,2023-08-07,2023-08-07,ＲＰＣプランニング株式会社,,株式会社,千葉県,松戸市,松戸１１２５番地の４松戸中央公園パーク・ホームズ参番館１０１号,,12,207,2710092,,,,,,,2023-08-07,1,,,,,アールピーシープランニング,0
694,3040003023074,新規,0,2023-08-07,2023-08-07,松下経営研究室合同会社,,合同会社,千葉県,八千代市,高津８２５－１３,,12,221,2760036,,,,,,,2023-08-07,1,,,,,マツシタケイエイケンキュウシツ,0
697,3050001053238,新規,0,2023-08-07,2023-08-07,株式会社ＤＵＣ　ＴＲＩ,,株式会社,茨城県,常総市,内守谷町きぬの里３丁目２番地１７,,08,211,3030046,,,,,,,2023-08-07,1,,,,,ドゥックチー,0
702,3060003004667,新規,0,2023-08-07,2023-08-07,合同会社弥來,,合同会社,栃木県,栃木市,平井町９８２－７,,09,203,3280054,,,,,,,2023-08-07,1,,,,,ミライ,0
706,3070001040696,新規,0,2023-08-07,2023-08-07,エコシステム株式会社,,株式会社,群馬県,伊勢崎市,東町２８０７番地９,,10,204,3792231,,,,,,,2023-08-07,1,,,,,エコシステム,0
707,3070001040705,新規,0,2023-08-07,2023-08-07,株式会社はやぶさ,,株式会社,群馬県,高崎市,飯塚町１６７番地１サンテラス植原２号棟２０５号,,10,202,3700069,,,,,,,2023-08-07,1,,,,,ハヤブサ,0
708,3070003005053,新規,0,2023-08-07,2023-08-07,愛宕マテリアル合同会社,,合同会社,群馬県,桐生市,堤町２丁目６番１７号,,10,203,3760042,,,,,,,2023-08-07,1,,,,,アタゴマテリアル,0
712,3080105006353,新規,0,2023-08-07,2023-08-07,一般社団法人Ｅｄｅｎ’ｓ　Ｐｒｏｊｅｃｔ,,その他の設立登記法人,静岡県,熱海市,梅園町２６－２,,22,205,4130032,,,,,,,2023-08-07,1,,,,,エデンズプロジェクト,0
720,3110001037754,新規,0,2023-08-07,2023-08-07,株式会社ｗｏｌ,,株式会社,新潟県,新潟市中央区,米山１丁目５番地９,,15,103,9500916,,,,,,,2023-08-07,1,,,,,ウル,0
722,3110003005131,新規,0,2023-08-07,2023-08-07,合同会社ｗｉｎｐｅｒｄ,,合同会社,新潟県,上越市,木田２丁目５―４３,,15,222,9430805,,,,,,,2023-08-07,1,,,,,ウィンパード,0
730,3120001256980,新規,0,2023-08-07,2023-08-07,株式会社ロイヤルキッズインターナショナル,,株式会社,大阪府,大阪市西区,北堀江１丁目１番２３号養田ビル４・５Ｆ,,27,106,5500014,,,,,,,2023-08-07,1,,,,,ロイヤルキッズインターナショナル,0
731,3120001257021,新規,0,2023-08-07,2023-08-07,株式会社Ｃｕｏｒｅ,,株式会社,大阪府,大阪市浪速区,恵美須西２丁目５番９号,,27,111,5560003,,,,,,,2023-08-07,1,,,,,クオーレ,0
737,3120003024650,新規,0,2023-08-07,2023-08-07,テクノソシエタ合同会社,,合同会社,大阪府,大阪市北区,梅田１丁目２番２号大阪駅前第２ビル１２－１２,,27,127,5300001,,,,,,,2023-08-07,1,,,,,テクノソシエタ,0
738,3120003024659,新規,0,2023-08-07,2023-08-07,色花良品合同会社,,合同会社,大阪府,大阪市淀川区,十三本町２丁目９番３－９０５号,,27,123,5320024,,,,,,,2023-08-07,1,,,,,イロハナリョウヒン,0
739,3120005023799,新規,0,2023-08-07,2023-08-07,医療法人新月会,,その他の設立登記法人,大阪府,大阪市西区,江戸堀３丁目１番地２０号ＬＯＩＳＧＲＡＮＤ靭公園９０１号室,,27,106,5500002,,,,,,,2023-08-07,1,,,,,シンゲツカイ,0
753,3140001131067,新規,0,2023-08-07,2023-08-07,株式会社エターナル,,株式会社,兵庫県,神戸市中央区,楠町６丁目２番３号,,28,110,6500017,,,,,,,2023-08-07,1,,,,,エターナル,0
754,3140001131109,新規,0,2023-08-07,2023-08-07,神戸みらい建設株式会社,,株式会社,兵庫県,神戸市中央区,栄町通２丁目４番１３号,,28,110,6500023,,,,,,,2023-08-07,1,,,,,コウベミライケンセツ,0
761,3160005011214,新規,0,2023-08-07,2023-08-07,特定非営利活動法人ひら森のがっこう,,その他の設立登記法人,滋賀県,大津市,北比良１０４３－１５７,,25,201,5200503,,,,,,,2023-08-07,1,,,,,ヒラモリノガッコウ,0
772,3180001157380,新規,0,2023-08-07,2023-08-07,株式会社発想工房,,株式会社,愛知県,名古屋市千種区,菊坂町３丁目７番地の１ザ・サンメゾン覚王山グランクレア６０１号,,23,101,4640836,,,,,,,2023-08-07,1,,,,,ハッソウコウボウ,0
773,3180001157389,新規,0,2023-08-07,2023-08-07,東邦ガスコミュニケーションズ株式会社,,株式会社,愛知県,名古屋市熱田区,桜田町１９番１８号,,23,109,4560004,,,,,,,2023-08-07,1,,,,,トウホウガスコミュニケーションズ,0
774,3180001157414,新規,0,2023-08-07,2023-08-07,株式会社ＩＮＯＳ‐Ｔ,,株式会社,愛知県,名古屋市緑区,浦里１丁目１６７番地２,,23,114,4580847,,,,,,,2023-08-07,1,,,,,イノスト,0
775,3180001157422,新規,0,2023-08-07,2023-08-07,株式会社はるこころ愛知,,株式会社,愛知県,名古屋市中区,東桜２丁目２２番３３号,,23,106,4600005,,,,,,,2023-08-07,1,,,,,ハルココロアイチ,0
776,3180001157430,新規,0,2023-08-07,2023-08-07,株式会社ヒオケス,,株式会社,愛知県,名古屋市港区,船見町２９番１,,23,111,4550027,,,,,,,2023-08-07,1,,,,,ヒオケス,0
777,3180001157439,新規,0,2023-08-07,2023-08-07,株式会社アシスト,,株式会社,愛知県,稲沢市,平和町下三宅北出４３番地４,,23,220,4901312,,,,,,,2023-08-07,1,,,,,アシスト,0
778,3180001157463,新規,0,2023-08-07,2023-08-07,佳林株式会社,,株式会社,愛知県,知多市,八幡字儀七山６番地１０,,23,224,4780001,,,,,,,2023-08-07,1,,,,,カリン,0
786,3190001030628,新規,0,2023-08-07,2023-08-07,ＤＲＭコーポレーション株式会社,,株式会社,三重県,桑名市,内堀４０番地,,24,205,5110038,,,,,,,2023-08-07,1,,,,,ディーアールエムコーポレーション,0
792,3200003006046,新規,0,2023-08-07,2023-08-07,合同会社ｍａｒｂｌｅ,,合同会社,岐阜県,多治見市,市之倉町７丁目１９２番地の４２,,21,204,5070814,,,,,,,2023-08-07,1,,,,,マーブル,0
797,3230001019947,新規,0,2023-08-07,2023-08-07,株式会社大進電工,,株式会社,富山県,富山市,山室２番地１０７,,16,201,9398006,,,,,,,2023-08-07,1,,,,,ダイシンデンコウ,0
801,3230003002059,新規,0,2023-08-07,2023-08-07,アールアイ合同会社,,合同会社,富山県,富山市,本町１番１号,,16,201,9300029,,,,,,,2023-08-07,1,,,,,アールアイ,0
810,3250003003328,新規,0,2023-08-07,2023-08-07,合同会社Ｂプラス,,合同会社,山口県,山口市,平井８４５－４,,35,203,7530831,,,,,,,2023-08-07,1,,,,,ビープラス,0
811,3260003004390,新規,0,2023-08-07,2023-08-07,合同会社赤星,,合同会社,岡山県,総社市,清音柿木９３４番地３３,,33,208,7191176,,,,,,,2023-08-07,1,,,,,アカホシ,0
821,3290001102466,新規,0,2023-08-07,2023-08-07,立石電気株式会社,,株式会社,福岡県,糸島市,有田中央２丁目１５番４７号,,40,230,8191127,,,,,,,2023-08-07,1,,,,,タテイシデンキ,0
824,3290003014197,新規,0,2023-08-07,2023-08-07,合同会社Ｈｏｎｅｓｔｐｕｒｓｕｉｔ,,合同会社,福岡県,福岡市中央区,渡辺通５丁目２４番３７－７０５号,,40,133,8100004,,,,,,,2023-08-07,1,,,,,オネストパシュー,0
830,3310001018544,新規,0,2023-08-07,2023-08-07,株式会社心総業,,株式会社,長崎県,大村市,岩松町１１７１番地１,,42,205,8560044,,,,,,,2023-08-07,1,,,,,ココロソウギョウ,0
831,3310001018552,新規,0,2023-08-07,2023-08-07,株式会社Ｓｈｉｋｉ,,株式会社,長崎県,長崎市,昭和３丁目３２４番地９ＣｒｏｓｓＣｏｒｅ昭和町２０１,,42,201,8528145,,,,,,,2023-08-07,1,,,,,シキ,0
835,3320003004137,新規,0,2023-08-07,2023-08-07,ＬＰＣ合同会社,,合同会社,大分県,大分市,大字三芳９３３番地の２８カステルムハイツ１０１号,,44,201,8700030,,,,,,,2023-08-07,1,,,,,エルピーシー,0
843,3350001018474,新規,0,2023-08-07,2023-08-07,株式会社ｓｔｅｌｌａｒ３,,株式会社,宮崎県,都城市,前田町１３街区２９－２０２号,,45,202,8850025,,,,,,,2023-08-07,1,,,,,ステラスリー,0
847,3370001050244,新規,0,2023-08-07,2023-08-07,株式会社新輝建設,,株式会社,宮城県,気仙沼市,本町２丁目５番２１号,,04,205,9880074,,,,,,,2023-08-07,1,,,,,シンコウケンセツ,0
859,3410005006535,新規,0,2023-08-07,2023-08-07,農事組合法人中清水,,その他の設立登記法人,秋田県,横手市,平鹿町中吉田字清水ノ上９２番地,,05,203,0130106,,,,,,,2023-08-07,1,,,,,,0
860,3420001018351,新規,0,2023-08-07,2023-08-07,株式会社エイティ‐エイト,,株式会社,青森県,青森市,大字筒井字八ツ橋１９１番地１３,,02,201,0300944,,,,,,,2023-08-07,1,,,,,エイティエイト,0
869,3480001012175,新規,0,2023-08-07,2023-08-07,株式会社Ｙ’ｓプラス,,株式会社,徳島県,海部郡牟岐町,大字牟岐浦字宮ノ本１番地５,,36,383,7750012,,,,,,,2023-08-07,1,,,,,ワイズプラス,0
873,3500001025125,新規,0,2023-08-07,2023-08-07,株式会社ＧＳ,,株式会社,愛媛県,松山市,南梅本町甲７０７番地２,,38,201,7910245,,,,,,,2023-08-07,1,,,,,ジーエス,0
876,3700150111911,新規,0,2023-08-07,2023-08-07,ｓｈｅｎｚｈｅｎｑｉｎｓｈｅｎｇｄｉａｎｚｉｓｈａｎｇｗｕｙｏｕｘｉａｎｇｏｎｇｓｉ,,外国会社等,,,,,,,,ｓｈｅｎｚｈｅｎｓｈｉｌｏｎｇｇａｎｇｑｕｂａｎｔｉａｎｊｉｅｄａｏ　ｗｕｈｅｓｈｅｑｕｗｕｈｅｌｕｂａｘｉａｎｇ６ｈａｏ１０５,,,,,,2023-08-07,1,,,,,シェンヂェンチンシォンディェンズーシャンウーヨウシィェンゴンスー,0
877,3700150114138,新規,0,2023-08-07,2023-08-07,Ｔａｎｇｓｈａｎ　ｗｅｉｓｈａｎ　ｂｏｎｅ　Ｃｈｉｎａ　ｃｏ．ＬＴＤ．,,外国会社等,,,,,,,,ｇａｏｘｉｎｊｉｓｈｕｃｈａｎ　ｙｅｙｕａｎｑｕ　ｙｉｎｈｅｌｕ　６６ｈａｏ　ｔａｎｇｓｈａｎ　ｈｅｂｅｉ　０６３０００　ＣＮ,,,,,,2023-08-07,1,,,,,タンシャンウェイシャングーヂーツーヨウシィェンゴンスー,0
878,3700150116002,新規,0,2023-08-07,2023-08-07,ＺＨＯＮＧＳＨＡＮ　ＳＴＡＴＥＯＵＮＴ　ＳＰＯＲＴＩＮＧ　ＧＯＯＤＳ　ＰＲＵＤＵＣＴＳ　ＣＯ．，ＬＴ,,外国会社等,,,,,,,,４／ＦＬＯＯＲ，ＷＥＳＴ　ＢＬＯＣＫ　１，ＮＯ９　ＸＩＮＢＡＯ　ＷＥＳＴ　ＲＯＡＤ，　ＳＨＡＸＩ　ＴＯＷＮ　ＺＨＯＮＧＳＨＡＮ　ＣＩＴＹ　ＧＵＡＮＧＤＯＮＧ　５２８４００　ＣＮ,,,,,,2023-08-07,1,,,,,ジョンシャンラホアフォンフゥジュァンヨウシェンゴンスー,0
879,3700150118816,新規,0,2023-08-07,2023-08-07,Ｎａｎｎｉｎｇｓｈｉｓａｎｒｅｎｘｉｎｇｄｉ　ａｎｚｉｋｅｊｉｙｏｕｘｉａｎｇｏｎｇｓｉ,,外国会社等,,,,,,,,６１３ｈａｏｂａｎｇｏｎｇ　Ｃ１ｈａｏｌｏｕＬｉｕｃｅｎｇ　Ｌｖｄｉｚｈｏｎｇｙａｎｇｇｕａｎｇｃｈａｎｇ　Ｄｏｎｇｇｅｌｕ１６５ｈａｏ　Ｑｉｎｇｘｉｕｑｕ　Ｎａｎｎｉｎｇ　ＧｕａｎｇＸｉ,,,,,,2023-08-07,1,,,,,ナンニンシーサンレンシンディエンズーコージーヨウシエンゴンスー,0
880,3700150118824,新規,0,2023-08-07,2023-08-07,Ｈｏｎｇｋｏｎｇ　Ｇｌｏｂｅｂｉｚ　Ｃｏ．，Ｌｉｍｉｔｅｄ,,外国会社等,,,,,,,,ＦＬＡＴ　ＲＭ　７０５，７／Ｆ，ＦＡ　ＹＵＥＮ　ＣＯＭＭ　ＢＬＤＧ　ＮＯ．７５，ＦＡ　ＹＵＥＮ　ＳＴＲＥＥＴ　ＭＯＮＧ　ＫＯＫ　ＫＬ　９９９０７７　ＨＫ,,,,,,2023-08-07,1,,,,,シィァンガングェァルゥンブーシャンウーヨウシィェンゴンスー,0
881,3700150118832,新規,0,2023-08-07,2023-08-07,ＳＨＥＮ　ＺＨＥＮ　ＨＵＩ　ＲＵＩ　ＫＥ　ＪＩ　ＹＯＵ　ＸＩＡＮ　ＧＯＮＧ　ＳＩ,,外国会社等,,,,,,,,ｘｉ　ｘｉａｎｇ　ｊｉｅ　ｄａｏ　ｇｏｎｇ　ｌｅ　ｓｈｅ　ｑｕ　ｇｏｎｇ　ｈｅ　ｇｏｎｇ　ｙｅ　ｌｕ　１０７　ｈａｏ　Ｈｕａ　ｆｅｎｇ　ｈｕ　ｌｉａｎ　ｗａｎｇ　ｃｈｕａｎｇ　ｙｉ　ｙｕａｎ　Ａ　ｚｕｏ　６１３　Ｂａｏ　ａｎ　Ｓｈｅｎｚｈｅｎ　５１８１０１　ＣＮ,,,,,,2023-08-07,1,,,,,シェンゼェンフイルイケジヨウシェンゴンスー,0
882,3700150118840,新規,0,2023-08-07,2023-08-07,ｂａｏｄｉｎｇ　ｈａｉｔｉａｎｃｈａｎｇｓｈｅｎｇｋｅｍａｏ　ｙｏｕｘｉａｎｇｏｎｇｓｉ,,外国会社等,,,,,,,,ｄｏｎｇｊｉｎｚｈｕａｎｇｘｉａｎｇｑｉｙｉｚｈｏｎｇｌｕ１５８８ｈａｏ　ｗｅｉｌａｉｊｉｎｒｏｎｇｇａｎｇ１ｈａｏｌｏｕ８０２ｓｈａｎｇｙｏｎｇ　ｂａｏｄｉｎｇ　ｈｅｂｅｉ　ｌｉａｎｃｈｉｑｕ　ｚｈｏｎｇｇｕｏ,,,,,,2023-08-07,1,,,,,ホテイカイテンチョウセイカボウユウゲンコウシ,0
883,3700150118849,新規,0,2023-08-07,2023-08-07,ｑｉｎｇｚｈｏｕ　ｄａｏｓｈｅｎｇｓｈａｎｇｍａｏ　ｙｏｕｘｉａｎｇｏｎｇｓｉ,,外国会社等,,,,,,,,ｑｉｎｇｚｈｏｕｓｈｉｈｅｎｇｗａｎｇｆｕｘｉｊｉｅｈｕａｎｇｃｈｅｎｇｌｉｊｉｎｇｙｕａｎ２ｈａｏｌｏｕ　ｗｅｉｆａｎｇｓｈｉ　ｓｈａｎｄｏｎｇｓｈｅｎｇ,,,,,,2023-08-07,1,,,,,セイシュウドウセイショウボウユウゲンコウシ,0
884,3700150118857,新規,0,2023-08-07,2023-08-07,Ｆｕｚｈｏｕ　Ｈｏｎｇｆｅｉｘｉｎｇ　Ｅｌｅｃｔｒｏｎｉｃ　Ｃｏｍｍｅｒｃｅ　Ｃｏ．，Ｌｔｄ．,,外国会社等,,,,,,,,Ｒｏｏｍ　６６４，Ｓｔｏｒｅｆｒｏｎｔ　０１，６ｔｈ　Ｆｌｏｏｒ，Ｕｎｉｖｅｒｓａｌ　Ｐｌａｚａ，Ｎｏ．１５８，Ｗｕｓｉ　Ｒｏａｄ，Ｇｕｄｏｎｇ　Ｓｔｒｅｅｔ，Ｇｕｌｏｕ　Ｄｉｓｔｒｉｃｔ，Ｆｕｚｈｏｕ　Ｃｉｔｙ，Ｆｕｊｉａｎ　Ｐｒｏｖｉｎｃｅ,,,,,,2023-08-07,1,,,,,フージョウホンフェイシンディエンズーシャンウーヨウシエンゴンスー,0
885,3700150118865,新規,0,2023-08-07,2023-08-07,Ｓｈｅｎ　Ｚｈｅｎ　Ｈｕａ　Ｓｕ　Ｄｏｎｇ　Ｌｉ　Ｋｅ　Ｊｉ　Ｙｏｕ　Ｘｉａｎ　Ｇｏｎｇ　Ｓｉ,,外国会社等,,,,,,,,Ｘｕｅｇａｎｇ　ｓｏｕｔｈ　ｒｏａｄ　Ｎｏ．１１７１，ｃｈｅｎｇｓｈｉｓｈａｎｈａｉ　ｙｕｎｈｕｉ　ｅｒ　ｑｉ，ｂｕｉｌｄｉｎｇ　Ｃ　ｅｒ　ｃｅｎｇ，Ｓｈｅｎｚｈｅｎ　ｃｉｔｙ，Ｌｏｎｇｇａｎｇ　ｄｉｓｔｒｉｃｔ，ｂａｎｔｉａｎ　ａｖｅｎｕｅ，ｘｉａｎｇｊｉａｏｔａｎｇ　ｃｏｎｍｕｎｉｔｙ,,,,,,2023-08-07,1,,,,,シェンゼェンフアスドンリケジユウゲンコウシ,0
891,4010001237578,新規,0,2023-08-07,2023-08-07,株式会社ｈｏｔ　ｓｐｏｔ,,株式会社,東京都,中央区,勝どき６丁目３番１－３９２２号,,13,102,1040054,,,,,,,2023-08-07,1,,,,,ホットスポット,0
899,4010401176087,新規,0,2023-08-07,2023-08-07,Ｇ．Ｌ‐ｊａｐａｎ株式会社,,株式会社,東京都,港区,三田２丁目１４番７－２０１号,,13,103,1080073,,,,,,,2023-08-07,1,,,,,ジーエルジャパン,0
903,4010601063548,新規,0,2023-08-07,2023-08-07,ＳＣＳＫセキュリティ株式会社,,株式会社,東京都,江東区,豊洲３丁目２番２０号,,13,108,1350061,,,,,,,2023-08-07,1,,,,,エスシーエスケイセキュリティ,0
914,4011001156082,新規,0,2023-08-07,2023-08-07,株式会社ＭＥＮＩＴＹ,,株式会社,東京都,渋谷区,渋谷２丁目１９番１５号宮益坂ビルディング６０９,,13,113,1500002,,,,,,,2023-08-07,1,,,,,メニティ,0
915,4011001156108,新規,0,2023-08-07,2023-08-07,ＡＣＴＩＰＥＸ株式会社,,株式会社,東京都,渋谷区,道玄坂１丁目２０番２号オリエンタル道玄坂安達ビル２Ｆ,,13,113,1500043,,,,,,,2023-08-07,1,,,,,アクティペックス,0
916,4011001156149,新規,0,2023-08-07,2023-08-07,株式会社ＣＲＡＺＹ　ＡＧＥＮＴ,,株式会社,東京都,渋谷区,神宮前５丁目６番１５号,,13,113,1500001,,,,,,,2023-08-07,1,,,,,クレイジーエージェント,0
920,4011003017324,新規,0,2023-08-07,2023-08-07,合同会社ＭＹＫデザイン事務所,,合同会社,東京都,渋谷区,西原３丁目２１番７号メトロステージ代々木上原１０１,,13,113,1510066,,,,,,,2023-08-07,1,,,,,エムワイケーデザインジムショ,0
925,4011101103868,新規,0,2023-08-07,2023-08-07,株式会社ＲＵＵＢＯＮ,,株式会社,東京都,新宿区,西新宿３丁目３番１３号西新宿水間ビル６階,,13,104,1600023,,,,,,,2023-08-07,1,,,,,ルーボン,0
926,4011101103892,新規,0,2023-08-07,2023-08-07,株式会社ロイディア,,株式会社,東京都,新宿区,西新宿３丁目３番１３号６階,,13,104,1600023,,,,,,,2023-08-07,1,,,,,ロイディア,0
931,4011603004003,新規,0,2023-08-07,2023-08-07,ＰａｎＤａｎｃｅ合同会社,,合同会社,東京都,練馬区,大泉学園町４丁目１１番２０号,,13,120,1780061,,,,,,,2023-08-07,1,,,,,パンダンス,0
932,4011701026493,新規,0,2023-08-07,2023-08-07,株式会社ユーネス,,株式会社,東京都,江戸川区,小松川１丁目５番２号,,13,123,1320034,,,,,,,2023-08-07,1,,,,,ユーネス,0
933,4011703003557,新規,0,2023-08-07,2023-08-07,ムラマツ車輌合同会社,,合同会社,東京都,江戸川区,東小松川４丁目１５－１０,,13,123,1320033,,,,,,,2023-08-07,1,,,,,ムラマツシャリョウ,0
938,4012401040776,新規,0,2023-08-07,2023-08-07,株式会社ＴＥＩＫＯＵ,,株式会社,東京都,狛江市,中和泉２丁目１０番１４－１０３号,,13,219,2010012,,,,,,,2023-08-07,1,,,,,テイコウ,0
939,4012403006107,新規,0,2023-08-07,2023-08-07,合同会社ＮＥＣＯＴＯＮＯ,,合同会社,東京都,調布市,西つつじケ丘１丁目５７番地１１１,,13,208,1820006,,,,,,,2023-08-07,1,,,,,ネコトノ,0
940,4012403006115,新規,0,2023-08-07,2023-08-07,合同会社Ｎｏ．３９,,合同会社,東京都,狛江市,東野川３丁目１５番４－１１０３号,,13,219,2010002,,,,,,,2023-08-07,1,,,,,ナンバーサンジュウキュウ,0
951,4020001152768,新規,0,2023-08-07,2023-08-07,株式会社エンライトメント,,株式会社,神奈川県,横浜市西区,北幸２丁目１０番地２８むつみビル３Ｆ,,14,103,2200004,,,,,,,2023-08-07,1,,,,,エンライトメント,0
952,4020001152784,新規,0,2023-08-07,2023-08-07,株式会社Ｆｌｏｒｉｓｓａｎｔ　ｄｅｓｓｅｒｔ　ｄｅｓｉｇｎ,,株式会社,神奈川県,横浜市西区,みなとみらい２丁目３番５号クイーンズタワーＣ－１０Ｆ,,14,103,2200012,,,,,,,2023-08-07,1,,,,,フロリサントデザートデザイン,0
953,4020001152850,新規,0,2023-08-07,2023-08-07,株式会社穂由,,株式会社,神奈川県,横浜市港北区,新横浜３丁目７番地７新横浜アリーナ通りビル３Ｆ,,14,109,2220033,,,,,,,2023-08-07,1,,,,,フォーユー,0
954,4020001152875,新規,0,2023-08-07,2023-08-07,株式会社アルプス,,株式会社,神奈川県,川崎市川崎区,本町２丁目９番２号トップ川崎第二５０５,,14,131,2100001,,,,,,,2023-08-07,1,,,,,アルプス,0
958,4021001079778,新規,0,2023-08-07,2023-08-07,株式会社カーズ,,株式会社,神奈川県,大和市,下鶴間４７１番地,,14,213,2420001,,,,,,,2023-08-07,1,,,,,カーズ,0
959,4021001079786,新規,0,2023-08-07,2023-08-07,株式会社山幸総合建美,,株式会社,神奈川県,相模原市南区,新磯野１丁目５３番５号,,14,153,2520325,,,,,,,2023-08-07,1,,,,,ヤマサチソウゴウケンビ,0
960,4021003013396,新規,0,2023-08-07,2023-08-07,合同会社ポルト,,合同会社,神奈川県,大和市,南林間１丁目１０番１７号加瀬ビル１８２,,14,213,2420006,,,,,,,2023-08-07,1,,,,,ボルト,0
968,4030001154887,新規,0,2023-08-07,2023-08-07,株式会社ＰＩＡＭ,,株式会社,埼玉県,三郷市,中央２丁目６番地１７,,11,237,3410038,,,,,,,2023-08-07,1,,,,,ピーアイエーエム,0
976,4040001129500,新規,0,2023-08-07,2023-08-07,株式会社ｔｅｔｅ　ａ　ｔｅｔｅ,,株式会社,千葉県,八千代市,吉橋１０５４番地３５,,12,221,2760047,,,,,,,2023-08-07,1,,,,,テテアテテ,0
984,4050001053261,新規,0,2023-08-07,2023-08-07,株式会社ＴｅｃｈＳｐａｃｅ,,株式会社,茨城県,つくば市,天久保３丁目２１－３星谷ビル２－Ａ,,08,220,3050005,,,,,,,2023-08-07,1,,,,,テックスペース,0
991,4080101024151,新規,0,2023-08-07,2023-08-07,株式会社不二運輸ホールディングス,,株式会社,静岡県,沼津市,双葉町９番１１－２号,,22,203,4100005,,,,,,,2023-08-07,1,,,,,フジウンユホールディングス,0
1002,4110003005130,新規,0,2023-08-07,2023-08-07,合同会社タキヤマ,,合同会社,新潟県,新発田市,富塚町１丁目６番２４号５,,15,206,9570062,,,,,,,2023-08-07,1,,,,,タキヤマ,0
1010,4120001256889,新規,0,2023-08-07,2023-08-07,コンガイマネジメント株式会社,,株式会社,大阪府,大阪市中央区,高津２丁目４番６号フェニックス日本橋高津３２３,,27,128,5420072,,,,,,,2023-08-07,1,,,,,コンガイマネジメント,0
1011,4120001257012,新規,0,2023-08-07,2023-08-07,Ｂａｓｓｏｔｔｏ株式会社,,株式会社,大阪府,大阪市鶴見区,浜２丁目５番１５－９０２号,,27,124,5380035,,,,,,,2023-08-07,1,,,,,バソット,0
1012,4120001257045,新規,0,2023-08-07,2023-08-07,株式会社ココフル,,株式会社,大阪府,寝屋川市,点野５丁目４番３０号,,27,215,5720077,,,,,,,2023-08-07,1,,,,,ココフル,0
1013,4120001257053,新規,0,2023-08-07,2023-08-07,浩虹株式会社,,株式会社,大阪府,大阪市住吉区,万代東１丁目３番２２号メゾン東和１０６号室,,27,120,5580056,,,,,,,2023-08-07,1,,,,,ヒロコ,0
1015,4120003024641,新規,0,2023-08-07,2023-08-07,ＢＬＵＥ　ＢＥＡＲ合同会社,,合同会社,大阪府,大阪市北区,浪花町１３－２８－２０２,,27,127,5300022,,,,,,,2023-08-07,1,,,,,ブルーベア,0
1018,4120901047909,新規,0,2023-08-07,2023-08-07,株式会社ＯＭＫ,,株式会社,大阪府,茨木市,山手台５丁目２１番３７号,,27,211,5670009,,,,,,,2023-08-07,1,,,,,オーエムケー,0
1024,4122001037245,新規,0,2023-08-07,2023-08-07,株式会社初山板金,,株式会社,大阪府,東大阪市,瓜生堂１丁目９番１５号,,27,227,5780946,,,,,,,2023-08-07,1,,,,,ハツヤマバンキン,0
1031,4130001074877,新規,0,2023-08-07,2023-08-07,株式会社Ｌｅｇａｒｅ,,株式会社,京都府,京都市中京区,毘沙門町５３３－１,,26,104,6040082,,,,,,,2023-08-07,1,,,,,レガーレ,0
1036,4140001131066,新規,0,2023-08-07,2023-08-07,株式会社ＳＡＮＳＴ,,株式会社,兵庫県,三田市,武庫が丘７丁目４番地Ｃ棟７０３号,,28,219,6691544,,,,,,,2023-08-07,1,,,,,サンスト,0
1037,4140001131090,新規,0,2023-08-07,2023-08-07,株式会社ファイブレンジ,,株式会社,兵庫県,神戸市西区,池上４丁目２－１１,,28,111,6512111,,,,,,,2023-08-07,1,,,,,ファイブレンジ,0
1038,4140001131099,新規,0,2023-08-07,2023-08-07,株式会社壱番,,株式会社,兵庫県,神戸市長田区,久保町５丁目１番１号アスタくにづか３番館,,28,106,6530041,,,,,,,2023-08-07,1,,,,,イチバン,0
1039,4140001131108,新規,0,2023-08-07,2023-08-07,株式会社宮野住建,,株式会社,兵庫県,川西市,出在家町７番１９号,,28,217,6660011,,,,,,,2023-08-07,1,,,,,ミヤノジュウケン,0
1046,4170001017717,新規,0,2023-08-07,2023-08-07,Ｌｅｓ　ｍａｉｎｓ株式会社,,株式会社,和歌山県,有田市,辻堂４３７番地,00131413,30,204,6490311,,,,,,,2023-08-07,1,,,,,レマン,0
1048,4170005007029,新規,0,2023-08-07,2023-08-07,特定非営利活動法人スポーツトレーニングクラブ,,その他の設立登記法人,和歌山県,新宮市,佐野８８９番地の１,,30,207,6470071,,,,,,,2023-08-07,1,,,,,スポーツトレーニングクラブ,0
1060,4180001157405,新規,0,2023-08-07,2023-08-07,株式会社Ｌｏｒｄ,,株式会社,愛知県,名古屋市瑞穂区,平郷町５丁目３－６,,23,108,4670879,,,,,,,2023-08-07,1,,,,,ロルド,0
1061,4180001157446,新規,0,2023-08-07,2023-08-07,株式会社ｍａｍｍａ　ｍｉａ,,株式会社,愛知県,春日井市,朝宮町１丁目３番地９,,23,206,4860846,,,,,,,2023-08-07,1,,,,,マンマミーア,0
1062,4180001157454,新規,0,2023-08-07,2023-08-07,Ｏ２コンサルティング株式会社,,株式会社,愛知県,名古屋市中村区,名駅４丁目２４番５号第２森ビル４０１,,23,105,4500002,,,,,,,2023-08-07,1,,,,,オーツーコンサルティング,0
1063,4180001157462,新規,0,2023-08-07,2023-08-07,株式会社ＳＰＩＣＥ,,株式会社,愛知県,名古屋市中村区,名駅２丁目２８－５名駅マークビル５階,,23,105,4500002,,,,,,,2023-08-07,1,,,,,スパイス,0
1064,4180001157495,新規,0,2023-08-07,2023-08-07,株式会社イチテンゴ,,株式会社,愛知県,名古屋市中区,大須３丁目２番５号,,23,106,4600011,,,,,,,2023-08-07,1,,,,,イチテンゴ,0
1083,4260001038191,新規,0,2023-08-07,2023-08-07,株式会社堀田工業,,株式会社,岡山県,備前市,伊部１１２１番地３２,,33,211,7050001,,,,,,,2023-08-07,1,,,,,ホッタコウギョウ,0
1092,4290001102531,新規,0,2023-08-07,2023-08-07,株式会社内田空間意匠工房,,株式会社,福岡県,福岡市博多区,豊１丁目３番８号コーポ木梨４０３号,,40,132,8120042,,,,,,,2023-08-07,1,,,,,ウチダクウカンイショウコウボウ,0
1094,4290003014196,新規,0,2023-08-07,2023-08-07,合同会社エナックス,,合同会社,福岡県,福岡市西区,姪の浜２丁目１４番５５号,,40,135,8190002,,,,,,,2023-08-07,1,,,,,エナックス,0
1095,4290003014205,新規,0,2023-08-07,2023-08-07,合同会社ＲＯＧＩＥ,,合同会社,福岡県,福岡市中央区,薬院２丁目３番３６－２０２号薬院中央パークホームズイーストコート,,40,133,8100022,,,,,,,2023-08-07,1,,,,,ロジー,0
1096,4290003014221,新規,0,2023-08-07,2023-08-07,ＳＫＯＯＬＩＥ　ＬＩＦＥ合同会社,,合同会社,福岡県,福岡市早良区,高取２丁目１３－１,,40,137,8140011,,,,,,,2023-08-07,1,,,,,スクーリーライフ,0
1101,4310003004616,新規,0,2023-08-07,2023-08-07,合同会社Ｄａｉｎａｌ,,合同会社,長崎県,南島原市,有家町小川８９０番地１,,42,214,8592205,,,,,,,2023-08-07,1,,,,,ダイナル,0
1104,4320001019929,新規,0,2023-08-07,2023-08-07,株式会社ａｕｂｅ,,株式会社,大分県,大分市,府内町３丁目２番１７号１階,,44,201,8700021,,,,,,,2023-08-07,1,,,,,オーブ,0
1113,4350001018481,新規,0,2023-08-07,2023-08-07,株式会社西部住建,,株式会社,宮崎県,宮崎市,清武町木原３６７４番地６,,45,201,8891601,,,,,,,2023-08-07,1,,,,,セイブジュウケン,0
1115,4360003013166,新規,0,2023-08-07,2023-08-07,Ａｌｏｈａ　Ｔｒｅｅ　Ｄｅｓｉｇｎ合同会社,,合同会社,沖縄県,中頭郡北谷町,北谷２丁目１５番地３コートヴィレッジアラハ・オンザ・ビーチ７０２,,47,326,9040116,,,,,,,2023-08-07,1,,,,,アロハツリーデザイン,0
1116,4370001050243,新規,0,2023-08-07,2023-08-07,株式会社気仙沼商事,,株式会社,宮城県,気仙沼市,長磯牧通１２４番地,,04,205,9880235,,,,,,,2023-08-07,1,,,,,ケセンヌマショウジ,0
1117,4370001050276,新規,0,2023-08-07,2023-08-07,株式会社ケンショー,,株式会社,宮城県,仙台市太白区,富沢西３丁目５番地の１３,,04,104,9820037,,,,,,,2023-08-07,1,,,,,ケンショー,0
1134,4410001013559,新規,0,2023-08-07,2023-08-07,ＷＥＣＯＭ研究所株式会社,,株式会社,秋田県,秋田市,広面字谷地沖１８番地４,,05,201,0100041,,,,,,,2023-08-07,1,,,,,ウィーコムケンキュウジョ,0
1149,4430001089647,新規,0,2023-08-07,2023-08-07,ＣＦＧホールディングス株式会社,,株式会社,北海道,札幌市中央区,南一条東２丁目３番地２,,01,101,0600051,,,,,,,2023-08-07,1,,,,,シーエフジーホールディングス,0
1150,4430001089696,新規,0,2023-08-07,2023-08-07,株式会社ＡＸＩＳ,,株式会社,北海道,札幌市北区,新琴似四条１５丁目２番２８号,,01,102,0010904,,,,,,,2023-08-07,1,,,,,アクシス,0
1153,4430003015312,新規,0,2023-08-07,2023-08-07,合同会社ａｏｓｈｉｒｏ,,合同会社,北海道,札幌市中央区,南四条西５丁目６－３第２秀高ビル２階,,01,101,0640804,,,,,,,2023-08-07,1,,,,,アオシロ,0
1154,4430003015329,新規,0,2023-08-07,2023-08-07,合同会社ＰＲＯ　ＷＯＲＫＳ,,合同会社,北海道,札幌市南区,南沢一条１丁目４番２３号,,01,106,0050821,,,,,,,2023-08-07,1,,,,,プロワークス,0
1158,4470005006520,新規,0,2023-08-07,2023-08-07,一般財団法人池川記念彫刻財団,,その他の設立登記法人,香川県,木田郡三木町,大字氷上４８５２番地１,,37,341,7610612,,,,,,,2023-08-07,1,,,,,イケガワキネンチョウコクザイダン,0
1159,4480001012174,新規,0,2023-08-07,2023-08-07,大哲工業株式会社,,株式会社,徳島県,板野郡北島町,鯛浜字かや７１番地１４,,36,402,7710204,,,,,,,2023-08-07,1,,,,,ダイテツコウギョウ,0
1160,4480003002009,新規,0,2023-08-07,2023-08-07,日和佐ビール合同会社,,合同会社,徳島県,海部郡美波町,日和佐浦２４０番地２,,36,387,7792304,,,,,,,2023-08-07,1,,,,,ヒワサビール,0
1163,4500001025108,新規,0,2023-08-07,2023-08-07,株式会社Ｒ’ｓ,,株式会社,愛媛県,西条市,小松町明穂甲２２１番地１,,38,206,7991107,,,,,,,2023-08-07,1,,,,,アールズ,0
1164,4700150113980,新規,0,2023-08-07,2023-08-07,Ｓｈｅｎｚｈｅｎｓｈｉｚｈｕｏｙｕｘｉｎｃｈｕａｎｇｋｅｊｉｙｏｕｘｉａｎｇｏｎｇｓｉ,,外国会社等,,,,,,,,Ｒｍ．Ａ２９０２，３　Ｂｕｉｌｄｉｎｇｓ，ＹｕｅｆｅｎｇＹａｎｇｍｅｉ　Ｃｏｍｍｕｎｉｔｙ，Ｂａｎｔｉａｎ　Ｓｔｒｅｅｔ，Ｌｏｎｇｇａｎｇ　Ｄｉｓｔｒｉｃｔ　Ｓｈｅｎｚｈｅｎ　Ｇｕａｎｇｄｏｎｇ　５１８１２９　ＣＮ,,,,,,2023-08-07,1,,,,,シェンヂェンシーヂュオユーシンチュゥァングェァジーヨウシィェンゴンスー,0
1165,4700150114137,新規,0,2023-08-07,2023-08-07,Ｈａｎｇｚｈｏｕ　Ｘｉａｏｙｉｎｇ　Ｉｎｎｏｖａｔｉｏｎ　Ｔｅｃｈｎｏｌｏｇｙ　Ｃｏ．，Ｌｔｄ．,,外国会社等,,,,,,,,２２ｔｈ　Ｆｌｏｏｒ，Ｂｌｏｃｋ　Ａ，Ｈｕａｘｉｎｇ　Ｔｉｍｅｓ　Ｓｑｕａｒｅ，Ｎｏ．４７８　Ｗｅｎｓａｎ　Ｒｏａｄ，Ｘｉｈｕ　Ｄｉｓｔｒｉｃｔ，Ｈａｎｇｚｈｏｕ，Ｚｈｅｊｉａｎｇ,,,,,,2023-08-07,1,,,,,ハンヂョウシァォインチュゥァンシンクグァジーグーフェンヨウシィェンゴンスー,0
1166,4700150116001,新規,0,2023-08-07,2023-08-07,Ｊｉｎｈｕａ　Ｙｉｃｈｕａｎ　Ｄｉａｎｚｉ　Ｓｈａｎｇｗｕ　ＣＯ．，Ｌｔｄ,,外国会社等,,,,,,,,Ｒｏｏｍ　４０２，Ｎｏ．２５－７，Ｘｉａｎｇｚｈａｉ　Ｃｏｍｍｕｎｉｔｙ，Ｓａｎｊｉａｎｇ　Ｓｔｒｅｅｔ　Ｗｕｃｈｅｎｇ　Ｄｉｓｔｒｉｃｔ　Ｊｉｎｈｕａ　Ｚｈｅｊｉａｎｇ　３２１０００　ＣＮ,,,,,,2023-08-07,1,,,,,ジンホアシーイーチュァンディエンズーシャンウヨウシェンゴンスー,0
1167,4700150118815,新規,0,2023-08-07,2023-08-07,Ｑｕｖｉｄｅｏ　（Ｈｏｎｇ　Ｋｏｎｇ）　Ｌｉｍｉｔｅｄ,,外国会社等,,,,,,,,ＦＬＡＴ／ＲＭ　Ａ１，１１／Ｆ，Ｓｕｃｃｅｓｓ　Ｃｏｍｍｅｒｃｉａｌ　Ｂｕｉｌｄｉｎｇ，２４５－２５１　Ｈｅｎｎｅｓｓｙ　Ｒｏａｄ，ＨＫ,,,,,,2023-08-07,1,,,,,チュウェイシィァンガンヨウシィェンゴンスー,0
1168,4700150118823,新規,0,2023-08-07,2023-08-07,Ｇｕａｎｇｄｏｎｇ　Ａｉｚｈｉｈｕｉ　Ｍａｏｙｉ　Ｙｏｕｘｉａｎｇｏｎｇｓｉ,,外国会社等,,,,,,,,Ｙｕｅｘｉｕｑｕ　Ｓａｎｙｕａｎｌｉｄａｄａｏ　１６５ｈａｏ　Ｑｉａｏｙｕｅｄａｓｈａ　８ｌｏｕ　８０５ｓｈｉ　Ｔ２０ｈａｏ　Ｇｕａｎｇｚｈｏｕ　Ｇｕａｎｇｄｏｎｇ　５１０４９９ＣＮ,,,,,,2023-08-07,1,,,,,グゥァンドンアイヂーフゥイマオイーヨウシィェンゴンス,0
1169,4700150118831,新規,0,2023-08-07,2023-08-07,ＤｏｎｇＧｕａｎＳｈｉ　ＣａｉＹａｎ　ＤｉａｎＺｉ　ＳｈａｎｇＷｕ　ＹｏｕＸｉａｎ　ＧｏｎｇＳｉ,,外国会社等,,,,,,,,７♯　４０７　ＨｏｕＪｉｅ　ＮａｎＨｕａｎ　２３♯　Ｄｏｎｇｇｕａｎ　Ｇｕａｎｇｄｏｎｇ　５２３９６２　ＣＮ,,,,,,2023-08-07,1,,,,,ドングゥアンシチャイイェンデンシシャンウヨウシェンゴンスー,0
1170,4700150118848,新規,0,2023-08-07,2023-08-07,Ｓｈａｎ　Ｘｉ　Ｊｉｎ　Ｙａｎｇ　Ｄｉａｎ　Ｚｉ　Ｋｅ　Ｊｉ　Ｙｏｕ　Ｘｉａｎ　Ｇｏｎｇ　Ｓｉ,,外国会社等,,,,,,,,Ｘｉａｏ　Ｄｉａｎ　Ｑｕ　Ｃｈａｎｇ　Ｆｅｎｇ　Ｊｉｅ　１２５　Ｈａｏ　Ｃｈａｎｇ　Ｆｅｎｇ　Ｂａｉ　Ｓｈｅｎｇ　８　Ｃｅｎｇ　０８０４　Ｈａｏ　Ｔａｉ　Ｙｕａｎ　Ｓｈｉ　Ｓｈａｎ　Ｘｉ　Ｓｈｅｎｇ　ＣＮ,,,,,,2023-08-07,1,,,,,サンセイキンヨウデンシカギユウゲンコウシ,0
1171,4700150118856,新規,0,2023-08-07,2023-08-07,ｊｉｎａｎｔｅｎｇｙｕｄｉａｎｚｉｋｅｊｉｙｏｕｘｉａｎｇｏｎｇｓｉ,,外国会社等,,,,,,,,ｊｉｎａｎｓｈｉｌｉｘｉａｑｕｓｈａｎｄａｌｕ１５７ｈａｏｈｕａｑｉａｎｇｇｕａｎｇｃｈａｎｇａｚｕｏ１１０４ｓｈｉ,,,,,,2023-08-07,1,,,,,ジーナントンイーディエンズーコージーヨウシエンゴンスー,0
1172,4700150118864,新規,0,2023-08-07,2023-08-07,ｈｕｎａｎｓｈｅｎｇ　ｓｈｉｘｉ　ｘｉｎｘｉｋｅｊｉ　ｙｏｕｘｉａｎｇｏｎｇｓｉ,,外国会社等,,,,,,,,ＨｕＮａｎＳｈｅｎｇＬｏｕＤｉＳｈｉＳｈｕａｎｇＦｅｎｇＸｉａｎＺｉＭｅｎＱｉａｏＺｈｅｎｇＺｉＭｅｎＱｉａｏＣｕｎＤｉＥｒＣｕｎＭｉｎＺｕ,,,,,,2023-08-07,1,,,,,フーナンションシシシンシケジユウゲンコウシ,0
1178,5010001237412,新規,0,2023-08-07,2023-08-07,株式会社木質素研究所,,株式会社,東京都,千代田区,外神田２丁目１番４号,,13,101,1010021,,,,,,,2023-08-07,1,,,,,モクシツソケンキュウジョ,0
1179,5010001237420,新規,0,2023-08-07,2023-08-07,株式会社Ｓｏｙ＆Ｓａｌｔ　Ｓｌｏｖｅｎｉａ‐Ｊａｐａｎ,,株式会社,東京都,千代田区,平河町２丁目７番１号,,13,101,1020093,,,,,,,2023-08-07,1,,,,,ソイアンドソルトスロヴェニアジャパン,0
1180,5010001237461,新規,0,2023-08-07,2023-08-07,株式会社マクレイ,,株式会社,東京都,中央区,銀座１丁目１２－４Ｎ＆ＥＢＬＤ．７階,,13,102,1040061,,,,,,,2023-08-07,1,,,,,マクレイ,0
1185,5010003041300,新規,0,2023-08-07,2023-08-07,カタリス合同会社,,合同会社,東京都,中央区,銀座１丁目１２番４号Ｎ＆ＥＢＬＤ．６Ｆ,,13,102,1040061,,,,,,,2023-08-07,1,,,,,カタリス,0
1186,5010003041309,新規,0,2023-08-07,2023-08-07,Ｅｃｏｍａａｔ　Ｊａｐａｎ合同会社,,合同会社,東京都,千代田区,有楽町２丁目１０－１東京交通会館６Ｆ６０８号,,13,101,1000006,,,,,,,2023-08-07,1,,,,,エコマットジャパン,0
1187,5010003041325,新規,0,2023-08-07,2023-08-07,Ｌａｐｌａｃｅ　Ｄｉｇｉｔａｌ合同会社,,合同会社,東京都,中央区,銀座１丁目１２番４号Ｎ＆ＥＢＬＤ．６Ｆ,,13,102,1040061,,,,,,,2023-08-07,1,,,,,ラプラスデジタル,0
1190,5010401176128,新規,0,2023-08-07,2023-08-07,株式会社ＳｔｕｄｉｏＴ・Ｎ,,株式会社,東京都,港区,北青山１丁目３番１号アールキューブ青山３階,,13,103,1070061,,,,,,,2023-08-07,1,,,,,スタジオティエヌ,0
1191,5010401176144,新規,0,2023-08-07,2023-08-07,株式会社山喜多,,株式会社,東京都,港区,赤坂３丁目１５番４号レアルタ赤坂ビル４階,,13,103,1070052,,,,,,,2023-08-07,1,,,,,ヤマキタ,0
1192,5010401176160,新規,0,2023-08-07,2023-08-07,株式会社ディグラフト,,株式会社,東京都,港区,三田３丁目１４番１３号,,13,103,1080073,,,,,,,2023-08-07,1,,,,,ディグラフト,0
1193,5010401176185,新規,0,2023-08-07,2023-08-07,株式会社エクセルレイズ,,株式会社,東京都,港区,新橋５丁目１２番１号露月町ビル７階,,13,103,1050004,,,,,,,2023-08-07,1,,,,,エクセルレイズ,0
1194,5010401176219,新規,0,2023-08-07,2023-08-07,Ｍ‐ｓｔｙｌｅ株式会社,,株式会社,東京都,港区,六本木７丁目４番１号スマイリー３階,,13,103,1060032,,,,,,,2023-08-07,1,,,,,エムスタイル,0
1195,5010403030638,新規,0,2023-08-07,2023-08-07,合同会社Ｒｅｎａｂｅｒａ,,合同会社,東京都,港区,北青山１丁目３番１号アールキューブ青山３階,,13,103,1070061,,,,,,,2023-08-07,1,,,,,レナベラ,0
1216,5011001156065,新規,0,2023-08-07,2023-08-07,株式会社ＣＬＡＲＯＦＯＮＴＥ,,株式会社,東京都,渋谷区,富ヶ谷２丁目７番３号シェルガーデン富ヶ谷５０１,,13,113,1510063,,,,,,,2023-08-07,1,,,,,クラロフォンテ,0
1217,5011001156107,新規,0,2023-08-07,2023-08-07,株式会社Ｈａｂｉｔ　Ｐｉｌａｔｅｓ,,株式会社,東京都,渋谷区,恵比寿西１丁目３２番１４号Ｄｅａｒ恵比寿ビル６階,,13,113,1500021,,,,,,,2023-08-07,1,,,,,ハビットピラティス,0
1219,5011003017307,新規,0,2023-08-07,2023-08-07,合同会社ワイティー,,合同会社,東京都,渋谷区,神宮前６丁目２３番４号桑野ビル２階,,13,113,1500001,,,,,,,2023-08-07,1,,,,,ワイティー,0
1223,5011101103900,新規,0,2023-08-07,2023-08-07,株式会社ＮＳＱ,,株式会社,東京都,新宿区,西新宿６丁目１６番６号,,13,104,1600023,,,,,,,2023-08-07,1,,,,,エヌエスキュー,0
1224,5011101103909,新規,0,2023-08-07,2023-08-07,株式会社ＸＹＺ,,株式会社,東京都,新宿区,中落合２丁目１２番１５号,,13,104,1610032,,,,,,,2023-08-07,1,,,,,エックスワイゼット,0
1228,5011801042836,新規,0,2023-08-07,2023-08-07,株式会社ＳＨＩＮＣ,,株式会社,東京都,葛飾区,奥戸７丁目１１番９号,,13,122,1240022,,,,,,,2023-08-07,1,,,,,シンク,0
1229,5012401040817,新規,0,2023-08-07,2023-08-07,株式会社Ｆ．Ｃ．Ｕ,,株式会社,東京都,府中市,多磨町２丁目１７番地の２３,,13,206,1830002,,,,,,,2023-08-07,1,,,,,エフシーユー,0
1230,5012403006114,新規,0,2023-08-07,2023-08-07,ハッチリープ合同会社,,合同会社,東京都,武蔵野市,中町１丁目２１番８－６０２号イトーピア武蔵野ブランマーク,,13,203,1800006,,,,,,,2023-08-07,1,,,,,ハッチリープ,0
1231,5012801022563,新規,0,2023-08-07,2023-08-07,株式会社Ｂｅｓｔ　Ｄｉｒｅｃｔｉｏｎ,,株式会社,東京都,昭島市,宮沢町１丁目１９番２号,,13,207,1960024,,,,,,,2023-08-07,1,,,,,ベストディレクション,0
1233,5012803003149,新規,0,2023-08-07,2023-08-07,合同会社レアノア,,合同会社,東京都,日野市,三沢４丁目７番地の１６,,13,212,1910032,,,,,,,2023-08-07,1,,,,,レアノア,0
1239,5020001152809,新規,0,2023-08-07,2023-08-07,株式会社アインスファミリア,,株式会社,神奈川県,横浜市中区,山下町２５５番地１リリファ横濱山下町７０８号室,,14,104,2310023,,,,,,,2023-08-07,1,,,,,アインスファミリア,0
1240,5020001152841,新規,0,2023-08-07,2023-08-07,ケー・スリー株式会社,,株式会社,神奈川県,横浜市旭区,上白根１丁目５番６－６５２号,,14,112,2410002,,,,,,,2023-08-07,1,,,,,ケースリー,0
1241,5020001152874,新規,0,2023-08-07,2023-08-07,株式会社スタープラン,,株式会社,神奈川県,川崎市幸区,大宮町２８番地２ブリリアタワーカワサキ２２０１,,14,132,2120014,,,,,,,2023-08-07,1,,,,,スタープラン,0
1246,5020003024304,新規,0,2023-08-07,2023-08-07,合同会社アマトリチャーナ,,合同会社,神奈川県,川崎市麻生区,王禅寺西６丁目９番３５－２０５号,,14,137,2150017,,,,,,,2023-08-07,1,,,,,アマトリチャーナ,0
1247,5020003024329,新規,0,2023-08-07,2023-08-07,合同会社Ａ．Ｃ．Ｒ．,,合同会社,神奈川県,横浜市金沢区,富岡東２丁目６番２８－１０４号,,14,108,2360051,,,,,,,2023-08-07,1,,,,,エーシーアール,0
1249,5021001079785,新規,0,2023-08-07,2023-08-07,エスアウトリーチ株式会社,,株式会社,神奈川県,藤沢市,辻堂２丁目２０番２１号,,14,205,2510047,,,,,,,2023-08-07,1,,,,,エスアウトリーチ,0
1250,5021001079810,新規,0,2023-08-07,2023-08-07,ＧＲ　Ｒｉｃｏ　Ｃｏｒｐｏｒａｔｉｏｎ株式会社,,株式会社,神奈川県,平塚市,明石町４番６号ムネカタビル３階,,14,203,2540042,,,,,,,2023-08-07,1,,,,,ジーアールリココーポレーション,0
1253,5021003013387,新規,0,2023-08-07,2023-08-07,Ｏｆｆｉｃｅ　Ｈｉｒｏ合同会社,,合同会社,神奈川県,三浦市,南下浦町上宮田１０９７－４ポスト・ラ・ソーレ三浦２０２,,14,210,2380101,,,,,,,2023-08-07,1,,,,,オフィスヒロ,0
1254,5021003013395,新規,0,2023-08-07,2023-08-07,合同会社みのり,,合同会社,神奈川県,茅ヶ崎市,甘沼９９３－２,,14,207,2530004,,,,,,,2023-08-07,1,,,,,ミノリ,0
1255,5021003013420,新規,0,2023-08-07,2023-08-07,ミニマム・アンド・アミカブル合同会社,,合同会社,神奈川県,藤沢市,片瀬２丁目２番２１号,,14,205,2510032,,,,,,,2023-08-07,1,,,,,ミニマムアンドアミカブル,0
1263,5030001155059,新規,0,2023-08-07,2023-08-07,株式会社福山グループ,,株式会社,埼玉県,鶴ヶ島市,大字下新田６２１番地４４１、１Ｆ１０１室,,11,241,3502222,,,,,,,2023-08-07,1,,,,,フクヤマグループ,0
1264,5030001155067,新規,0,2023-08-07,2023-08-07,株式会社浅葱農園,,株式会社,埼玉県,さいたま市緑区,美園２丁目１１番地１３,,11,109,3360967,,,,,,,2023-08-07,1,,,,,アサギノウエン,0
1269,5040001129499,新規,0,2023-08-07,2023-08-07,株式会社ニッショウ,,株式会社,千葉県,柏市,大井１８３５番地１２,,12,217,2770902,,,,,,,2023-08-07,1,,,,,ニッショウ,0
1270,5040001129532,新規,0,2023-08-07,2023-08-07,株式会社ＯＪ設備,,株式会社,千葉県,船橋市,上山町１丁目２２５番地５,,12,204,2730046,,,,,,,2023-08-07,1,,,,,オージェイセツビ,0
1274,5040003023089,新規,0,2023-08-07,2023-08-07,合同会社このきのこ,,合同会社,千葉県,八千代市,ゆりのき台８丁目２１番３号,,12,221,2760042,,,,,,,2023-08-07,1,,,,,コノキノコ,0
1284,5080101024150,新規,0,2023-08-07,2023-08-07,ＨＣＣ株式会社,,株式会社,静岡県,富士市,中里９３０‐４,,22,210,4170826,,,,,,,2023-08-07,1,,,,,エイチシーシー,0
1286,5080401026648,新規,0,2023-08-07,2023-08-07,株式会社ＦａＢｏ　Ｆｌｏｗｅｒｓ,,株式会社,静岡県,浜松市西区,村櫛町２９３４番地の１,,22,133,4311207,,,,,,,2023-08-07,1,,,,,ファボフラワーズ,0
1306,5120001256962,新規,0,2023-08-07,2023-08-07,株式会社ＰＬＡＮ‐Ｂマーケティングパートナーズ,,株式会社,大阪府,大阪市西区,新町１丁目２８番３号,,27,106,5500013,,,,,,,2023-08-07,1,,,,,プランビーマーケティングパートナーズ,0
1307,5120001256979,新規,0,2023-08-07,2023-08-07,株式会社ＬＡＢ,,株式会社,大阪府,大阪市淀川区,三津屋中１丁目６番２１号,,27,123,5320036,,,,,,,2023-08-07,1,,,,,ラボ,0
1308,5120001256995,新規,0,2023-08-07,2023-08-07,四和株式会社,,株式会社,大阪府,門真市,江端町１１番１－１１０号,,27,223,5710012,,,,,,,2023-08-07,1,,,,,ヨンワ,0
1309,5120001257011,新規,0,2023-08-07,2023-08-07,株式会社Ｐｒｕｉｍ,,株式会社,大阪府,大阪市淀川区,三津屋南３丁目１２番１３号,,27,123,5320035,,,,,,,2023-08-07,1,,,,,プライム,0
1310,5120001257028,新規,0,2023-08-07,2023-08-07,株式会社ケアエイト,,株式会社,大阪府,大阪市城東区,成育２丁目３番２１号ドゥエリング成育１階,,27,118,5360007,,,,,,,2023-08-07,1,,,,,ケアエイト,0
1311,5120001257036,新規,0,2023-08-07,2023-08-07,株式会社Ｃａｌｍｔｒｅｅ,,株式会社,大阪府,大阪市天王寺区,上本町６丁目９番２６－１００１号,,27,109,5430001,,,,,,,2023-08-07,1,,,,,カームツリー,0
1312,5120001257044,新規,0,2023-08-07,2023-08-07,新拓精工株式会社,,株式会社,大阪府,大阪市生野区,巽中１丁目１９番３０号,00131425,27,116,5440013,,,,,,,2023-08-07,1,,,,,シンタクセイコウ,0
1313,5120001257052,新規,0,2023-08-07,2023-08-07,ＢＩＧ株式会社,,株式会社,大阪府,大阪市東住吉区,西今川２丁目２０番１３号,,27,121,5460042,,,,,,,2023-08-07,1,,,,,ビッグ,0
1314,5120001257077,新規,0,2023-08-07,2023-08-07,Ｌ＆Ｄ株式会社,,株式会社,大阪府,大阪市中央区,北久宝寺町１丁目５番６－４０９号,,27,128,5410057,,,,,,,2023-08-07,1,,,,,エルアンドデー,0
1315,5120001257085,新規,0,2023-08-07,2023-08-07,株式会社ＢＲＧ防音,,株式会社,大阪府,大阪市東住吉区,鷹合４丁目１７番８号,,27,121,5460014,,,,,,,2023-08-07,1,,,,,ビーアールジーボウオン,0
1317,5120003024624,新規,0,2023-08-07,2023-08-07,合同会社ハーベストＣａｒｅ,,合同会社,大阪府,寝屋川市,点野５丁目９番３号,,27,215,5720077,,,,,,,2023-08-07,1,,,,,ハーベストケア,0
1318,5120003024649,新規,0,2023-08-07,2023-08-07,合同会社Ｓｏｎｏｄａ,,合同会社,大阪府,枚方市,南楠葉２丁目６－４ヌーベルルネ２０２,,27,210,5731105,,,,,,,2023-08-07,1,,,,,ソノダ,0
1322,5120901047899,新規,0,2023-08-07,2023-08-07,株式会社ＴＲＡＩＭ,,株式会社,大阪府,摂津市,学園町２丁目５－６,,27,224,5660033,,,,,,,2023-08-07,1,,,,,トライム,0
1323,5120901047916,新規,0,2023-08-07,2023-08-07,株式会社ＧＡＣＨＩコーポレション,,株式会社,大阪府,高槻市,野見町６－５８,,27,207,5690077,,,,,,,2023-08-07,1,,,,,ガッチコーポレーション,0
1324,5120903004774,新規,0,2023-08-07,2023-08-07,トヨマツエンテック合同会社,,合同会社,大阪府,豊中市,中桜塚５丁目９番１８の１号,,27,203,5610881,,,,,,,2023-08-07,1,,,,,トヨマツエンテック,0
1338,5140001131073,新規,0,2023-08-07,2023-08-07,株式会社ユタカウェルテック,,株式会社,兵庫県,加古郡稲美町,森安３３９番地,,28,381,6751124,,,,,,,2023-08-07,1,,,,,ユタカウェルテック,0
1339,5140001131230,新規,0,2023-08-07,2023-08-07,株式会社ニュークリエイター,,株式会社,兵庫県,揖保郡太子町,東南２３５番地１,,28,464,6711523,,,,,,,2023-08-07,1,,,,,ニュークリエイター,0
1340,5140003019390,新規,0,2023-08-07,2023-08-07,リトルドリーム合同会社,,合同会社,兵庫県,豊岡市,出石町町分１８９,,28,209,6680221,,,,,,,2023-08-07,1,,,,,リトルドリーム,0
1347,5160001025240,新規,0,2023-08-07,2023-08-07,株式会社ＯＮ,,株式会社,滋賀県,大津市,真野５丁目１６番１８号,,25,201,5200232,,,,,,,2023-08-07,1,,,,,オン,0
1349,5170001017724,新規,0,2023-08-07,2023-08-07,株式会社大谷商店,,株式会社,和歌山県,橋本市,北馬場２５３番地,,30,203,6480061,,,,,,,2023-08-07,1,,,,,オオタニショウテン,0
1350,5170003001908,新規,0,2023-08-07,2023-08-07,Ａ‐Ａｒｔｓ製作所合同会社,,合同会社,和歌山県,海南市,小野田１５３１番地１２２,,30,202,6420014,,,,,,,2023-08-07,1,,,,,エーアーツセイサクショ,0
1355,5180001157395,新規,0,2023-08-07,2023-08-07,祐伸電気株式会社,,株式会社,愛知県,あま市,七宝町安松上屋敷２０３２番地,,23,237,4970011,,,,,,,2023-08-07,1,,,,,ユウシンデンキ,0
1356,5180001157420,新規,0,2023-08-07,2023-08-07,ドットシンク株式会社,,株式会社,愛知県,名古屋市天白区,道明町１５１番地の２,,23,116,4680064,,,,,,,2023-08-07,1,,,,,ドットシンク,0
1362,5180003025559,新規,0,2023-08-07,2023-08-07,合同会社Ｒｏｃｋｆｏｉｌ,,合同会社,愛知県,名古屋市中区,大須３丁目６番２５号ミュプレ矢場町６０１号,,23,106,4600011,,,,,,,2023-08-07,1,,,,,ロックフォイル,0
1363,5180003025583,新規,0,2023-08-07,2023-08-07,合同会社ストックデザイン,,合同会社,愛知県,名古屋市緑区,有松１０４６番地,,23,114,4580924,,,,,,,2023-08-07,1,,,,,ストックデザイン,0
1365,5180301037644,新規,0,2023-08-07,2023-08-07,株式会社エクステリアムラカミ,,株式会社,愛知県,豊橋市,柱一番町２０番地（６０２）,,23,201,4418054,,,,,,,2023-08-07,1,,,,,エクステリアムラカミ,0
1376,5190001030634,新規,0,2023-08-07,2023-08-07,ＨＯＰＥＣホールディングス株式会社,,株式会社,三重県,鳥羽市,松尾町１００２番地１,,24,211,5170042,,,,,,,2023-08-07,1,,,,,ホーペックホールディングス,0
1381,5200001041571,新規,0,2023-08-07,2023-08-07,株式会社サムライワークス,,株式会社,岐阜県,岐阜市,江添２丁目７番６号辻マンション２０５,,21,201,5008383,,,,,,,2023-08-07,1,,,,,サムライワークス,0
1394,5260003004372,新規,0,2023-08-07,2023-08-07,合同会社ｌｅ　ｍｅｎａｇｅ,,合同会社,岡山県,岡山市中区,四御神１３２－２５,,33,102,7038201,,,,,,,2023-08-07,1,,,,,ルメナージュ,0
1395,5260003004389,新規,0,2023-08-07,2023-08-07,合同会社コテツ,,合同会社,岡山県,倉敷市,連島町鶴新田１５３２‐１,,33,202,7128006,,,,,,,2023-08-07,1,,,,,コテツ,0
1407,5290001102506,新規,0,2023-08-07,2023-08-07,株式会社ＨＡＦＵ,,株式会社,福岡県,福岡市南区,玉川町１８番１２－２０３サンハイツ玉川,,40,134,8150037,,,,,,,2023-08-07,1,,,,,ハフ,0
1408,5290001102613,新規,0,2023-08-07,2023-08-07,株式会社デイブライト,,株式会社,福岡県,福岡市博多区,東光寺町１丁目１０番１１号,,40,132,8120896,,,,,,,2023-08-07,1,,,,,デイブライト,0
1413,5290803004478,新規,0,2023-08-07,2023-08-07,まるち会計合同会社,,合同会社,福岡県,北九州市八幡西区,鉄王２丁目４番１８号,,40,109,8060057,,,,,,,2023-08-07,1,,,,,マルチカイケイ,0
1417,5310001018542,新規,0,2023-08-07,2023-08-07,Ｄ‐ｖｉｓｉｏｎ株式会社,,株式会社,長崎県,長崎市,中町５－３１,,42,201,8500055,,,,,,,2023-08-07,1,,,,,ディーヴィジョン,0
1419,5310003004615,新規,0,2023-08-07,2023-08-07,ＣａｒｅＰｌａｎｎｉｎｇ合同会社,,合同会社,長崎県,長崎市,東立神町１１―２１,,42,201,8500073,,,,,,,2023-08-07,1,,,,,ケアプランニング,0
1423,5320001019928,新規,0,2023-08-07,2023-08-07,株式会社Ｄｉｇｇｅｒ,,株式会社,大分県,大分市,大字小池原８７２－２９,,44,201,8700147,,,,,,,2023-08-07,1,,,,,ディガー,0
1424,5320001019936,新規,0,2023-08-07,2023-08-07,株式会社大心工業,,株式会社,大分県,大分市,大字猪野７２２番地の３,,44,201,8700134,,,,,,,2023-08-07,1,,,,,ダイシンコウギョウ,0
1433,5350001018480,新規,0,2023-08-07,2023-08-07,株式会社都城研磨,,株式会社,宮崎県,北諸県郡三股町,大字餅原１１７４番地１,,45,341,8891913,,,,,,,2023-08-07,1,,,,,ミヤコノジョウケンマ,0
1439,5370001050242,新規,0,2023-08-07,2023-08-07,ＷＡＰＡＮ株式会社,,株式会社,宮城県,仙台市青葉区,錦ケ丘１丁目４５番地の３,,04,101,9893123,,,,,,,2023-08-07,1,,,,,ワパン,0
1450,5430001089646,新規,0,2023-08-07,2023-08-07,株式会社ｍｉｌｌｅｎｎｉｕｍ,,株式会社,北海道,札幌市厚別区,厚別中央三条３丁目１５番７－３０１号,,01,108,0040053,,,,,,,2023-08-07,1,,,,,ミレニアム,0
1452,5430003015311,新規,0,2023-08-07,2023-08-07,合同会社ＲＯＧ　ＥＮＴＥＲＴＡＩＮＭＥＮＴ,,合同会社,北海道,札幌市北区,北三十三条西２丁目１－１５,,01,102,0010033,,,,,,,2023-08-07,1,,,,,ログエンターテイメント,0
1456,5480001012165,新規,0,2023-08-07,2023-08-07,株式会社ｈｉｋａｒｉ,,株式会社,徳島県,小松島市,金磯町４番５９号,,36,203,7730007,,,,,,,2023-08-07,1,,,,,ヒカリ,0
1459,5500001025107,新規,0,2023-08-07,2023-08-07,株式会社アルティス,,株式会社,愛媛県,松山市,安城寺町１１７番地１０,,38,201,7918006,,,,,,,2023-08-07,1,,,,,アルティス,0
1460,5500001025115,新規,0,2023-08-07,2023-08-07,あいしん工業株式会社,,株式会社,愛媛県,松山市,天山３丁目１４－２５天山中央ビル３０４,,38,201,7900951,,,,,,,2023-08-07,1,,,,,アイシンコウギョウ,0
1461,5700150116504,新規,0,2023-08-07,2023-08-07,Ａｒｂｏｌｅａｆ　Ｃｏｒｐｏｒａｔｉｏｎ,,外国会社等,,,,,,,,５４６５　Ｌｅｇａｃｙ　Ｄｒｉｖｅ，Ｓｕｉｔｅ　６５０　Ｐｌａｎｏ，ＴＸ　７５０２４　ＵＳ,,,,,,2023-08-07,1,,,,,アルボリーフコーポレーシヨン,0
1462,5700150118814,新規,0,2023-08-07,2023-08-07,Ｓｈｅｎｚｈｅｎｓｈｉｒｕｉｋａｉｈｕｉｋｅｍａｏｙｏｕｘｉａｎｇｏｎｇｓｉ,,外国会社等,,,,,,,,Ｌｏｎｇｈｕａｘｉｎｑｕｄａｌａｎｇｊｉｅｄａｏｓａｎｈｅｈｕａｑｉａｏｘｉｎｃｕｎ　３ｑｕ６３ｃｈｕａｎｇ　５０１　Ｓｈｅｎｚｈｅｎ　Ｇｕａｎｇｄｏｎｇ　５１８１０９　ＣＮ,,,,,,2023-08-07,1,,,,,シェンヂェンシールイカイフウイグェアマオヨウシィェンゴンスー,0
1463,5700150118822,新規,0,2023-08-07,2023-08-07,ＮＩＮＧＢＯ　ＳＴＡＲ　ＣＯＬＬＥＣＴＩＯＮＳ　Ｅ－ＣＯＭＭＥＲＣＥ　Ｃｏ．，ＬＴＤ,,外国会社等,,,,,,,,Ｔｏｎｇｊｉｌｕ　１９９　ｈａｏ　９－１　Ｎｉｎｇｂｏ　Ｚｈｅｊｉａｎｇ３１５０３３ＣＮ,,,,,,2023-08-07,1,,,,,ニンブォジュシンピンディェンズーシャンウーヨウシィェンゴンスー,0
1464,5700150118830,新規,0,2023-08-07,2023-08-07,ｆｏｓｈａｎｓｈｉｓｈｕｎｄｅｑｕｙａｏｔｉａｎｇｕａｎｇｇａｏｃｅｈｕａｙｏｕｘｉａｎｇｏｎｇｓｉ,,外国会社等,,,,,,,,ｓｈｕｎｄｅｑｕｄａｌｉａｎｇｘｉｎｇｕｉｂｅｉｌｕ２２１ｈａｏｊｉｎｇｕａｎｇｅ７ｈａｏｐｕ　ｆｏｓｈａｎｓｈｉ　ｇｕａｎｇｄｏｎｇｓｈｅｎｇ　５２８３１１　ＣＮ,,,,,,2023-08-07,1,,,,,フォーシャンシシュンダチュイヤオティェングァンガオツァホアヨウシェンゴンスー,0
1465,5700150118839,新規,0,2023-08-07,2023-08-07,Ｈｅｎａｎ　ｙｕｌｉｎ　ｄｉａｎｚｉｓｈａｎｇｗｕ　ｙｏｕｘｉａｎｇｏｎｇｓｉ,,外国会社等,,,,,,,,ｈｅｎａｎｓｈｅｎｇｚｈｅｎｇｚｈｏｕｓｈｉｊｉｎｓｈｕｉｑｕｙａｎｇｊｉｎｌｕｎｉｕｄｕｎｇｕｏｊｉＢｚｕｏ　７ｃｅｎｇＡ７１９　ｚｈｅｎｇｚｈｏｕ　ｈｅｎａｎ　ＣＮ,,,,,,2023-08-07,1,,,,,カナンウリンデンシショウムユウゲンコウシ,0
1466,5700150118847,新規,0,2023-08-07,2023-08-07,Ｓｈａｎｇｈａｉ　Ｓｈａｏ　Ｓｈｅｎｇ　Ｑｉ　Ｙｅ　Ｇｕａｎ　Ｌｉ　Ｙｏｕ　Ｘｉａｎ　Ｇｏｎｇ　Ｓｉ,,外国会社等,,,,,,,,Ｒｏｏｍ　５５０４，Ｂｕｉｌｄｉｎｇ　３３，Ｎｏ．１３５５，Ｓｈｉ　Ｈｕａ　Ｗｅｉｑｉｎｇ　Ｗｅｓｔ　Ｒｏａｄ　Ｊｉｎｓｈａｎ　Ｄｉｓｔｒｉｃｔ　Ｓｈａｎｇｈａｉ　ＣＮ,,,,,,2023-08-07,1,,,,,シャンハイサオセンキギョウカンリユウゲンコウシ,0
1467,5700150118855,新規,0,2023-08-07,2023-08-07,ｓｈａｎｄｏｎｇｇａｎｇｙｉｎｇｓｈａｎｇｍａｏｙｏｕｘｉａｎｇｏｎｇｓｉ,,外国会社等,,,,,,,,ｓｈａｎｄｏｎｇｓｈｅｎｇｗｅｉｆａｎｇｓｈｉｚｈｕｃｈｅｎｇｓｈｉｆａｎｒｏｎｇｘｉｌｕ２７ｈａｏ,,,,,,2023-08-07,1,,,,,シャンドンガンインシャンマオヨウシエンゴンスー,0
1468,5700150118863,新規,0,2023-08-07,2023-08-07,Ｓｕｐｅｒ　Ｖｉｓｉｏｎ　Ｄｉｓｐｌａｙ（Ｓｈｅｎｚｈｅｎ）Ｃｏ．，Ｌｔｄ．,,外国会社等,,,,,,,,２０４，２ｎｄ　Ｆｌｏｏｒ，Ｂｕｉｌｄｉｎｇ　２，Ｄｅｔａｉ　Ｉｎｄｕｓｔｒｉａｌ　Ｐａｒｋ　Ｎｏ．４９６　Ｈｕａｒｏｎｇ　Ｒｏａｄ，Ｌａｎｇｋｏｕ　Ｃｏｍｍｕｎｉｔｙ，　Ｄａｌａｎｇ　Ｓｔｒｅｅｔ　ｌｏｎｇｈｕａ　ｓｈｅｎｚｈｅｎ　ＣＮ,,,,,,2023-08-07,1,,,,,スーパービジョンディスプレイシンセンカンパニーリミテッド,0
1477,6010001237378,新規,0,2023-08-07,2023-08-07,電気事業準備会社株式会社,,株式会社,東京都,千代田区,大手町１丁目１番２号,,13,101,1000004,,,,,,,2023-08-07,1,,,,,デンキジギョウジュンビガイシャ,0
1478,6010001237411,新規,0,2023-08-07,2023-08-07,アイ・セブン株式会社,,株式会社,東京都,中央区,八重洲２丁目１－１ＹＡＮＭＡＲＴＯＫＹＯ１２階,,13,102,1040028,,,,,,,2023-08-07,1,,,,,アイセブン,0
1479,6010001237428,新規,0,2023-08-07,2023-08-07,株式会社ＡＩＫＯ,,株式会社,東京都,中央区,日本橋蛎殻町２丁目１１番８号,,13,102,1030014,,,,,,,2023-08-07,1,,,,,アイコ,0
1483,6010401176102,新規,0,2023-08-07,2023-08-07,ＡＩ‐ｚｅｎ株式会社,,株式会社,東京都,港区,浜松町１丁目３－２パークコート浜離宮ザ・タワー１３０９,,13,103,1050013,,,,,,,2023-08-07,1,,,,,アイゼン,0
1484,6010401176135,新規,0,2023-08-07,2023-08-07,株式会社Ｈｅａｖｅｎ,,株式会社,東京都,港区,西新橋２丁目８番４号,,13,103,1050003,,,,,,,2023-08-07,1,,,,,ヘブン,0
1485,6010401176143,新規,0,2023-08-07,2023-08-07,ｇｆ．Ｍ株式会社,,株式会社,東京都,港区,高輪３丁目１２番８号,,13,103,1080074,,,,,,,2023-08-07,1,,,,,ジーエフドットエム,0
1486,6010401176176,新規,0,2023-08-07,2023-08-07,Ｓｔｕｄｉｏ　Ｈ株式会社,,株式会社,東京都,港区,元麻布２丁目４番２号,,13,103,1060046,,,,,,,2023-08-07,1,,,,,スタジオエイチ,0
1487,6010401176192,新規,0,2023-08-07,2023-08-07,株式会社カノン・ミュージック,,株式会社,東京都,港区,南麻布５丁目１０番３２―５０１号,,13,103,1060047,,,,,,,2023-08-07,1,,,,,カノンミュージック,0
1489,6010405022392,新規,0,2023-08-07,2023-08-07,一般社団法人ｒｅｎｇａプロ第１号,,その他の設立登記法人,東京都,港区,赤坂４丁目１５番１号赤坂ガーデンシティ３階,,13,103,1070052,,,,,,,2023-08-07,1,,,,,レンガプロダイイチゴウ,0
1493,6010601063521,新規,0,2023-08-07,2023-08-07,ＦＭＴ株式会社,,株式会社,東京都,江東区,北砂６丁目８番６号２０１,,13,108,1360073,,,,,,,2023-08-07,1,,,,,エフエムティー,0
1498,6010801034231,新規,0,2023-08-07,2023-08-07,株式会社ＬＷＡｒｔ,,株式会社,東京都,大田区,西蒲田８丁目２１番３号３１１,,13,111,1440051,,,,,,,2023-08-07,1,,,,,ロアート,0
1499,6010901053552,新規,0,2023-08-07,2023-08-07,株式会社ＺＹＸ　Ｐｒｏｄｕｃｔｉｏｎ,,株式会社,東京都,世田谷区,世田谷１丁目３番８号,,13,112,1540017,,,,,,,2023-08-07,1,,,,,ゼットワイエクスプロダクション,0
1500,6010901053560,新規,0,2023-08-07,2023-08-07,株式会社Ｐａｎｔａｕｘ,,株式会社,東京都,世田谷区,中町５丁目９番１号,,13,112,1580091,,,,,,,2023-08-07,1,,,,,パントークス,0
1501,6010903008364,新規,0,2023-08-07,2023-08-07,合同会社ＡＬＬ　ＡＧＥＳ,,合同会社,東京都,世田谷区,桜丘４丁目９－１６桜丘ガーデンハイツ１０８号室,,13,112,1560054,,,,,,,2023-08-07,1,,,,,オールエイジズ,0
1505,6011001156089,新規,0,2023-08-07,2023-08-07,Ｖａｌｕｅ＆Ｃｏｍｐａｎｙ株式会社,,株式会社,東京都,渋谷区,神宮前６丁目２３番４号桑野ビル２階,,13,113,1500001,,,,,,,2023-08-07,1,,,,,ヴァリューアンドカンパニー,0
1506,6011001156114,新規,0,2023-08-07,2023-08-07,株式会社ＳＴＡＧＥ,,株式会社,東京都,渋谷区,西原２丁目２３番９号代々木西原テラス００２,,13,113,1510066,,,,,,,2023-08-07,1,,,,,ステージ,0
1517,6011101103866,新規,0,2023-08-07,2023-08-07,株式会社エスケーホールディングス,,株式会社,東京都,新宿区,西新宿２丁目６番１号新宿住友ビル１５階,,13,104,1600023,,,,,,,2023-08-07,1,,,,,エスケーホールディングス,0
1518,6011101103882,新規,0,2023-08-07,2023-08-07,Ｓｉｎｇｕｌａｒｉｔｙ　Ｇａｍｅｓ株式会社,,株式会社,東京都,新宿区,四谷３丁目１３番地シーバードビル２階,,13,104,1600004,,,,,,,2023-08-07,1,,,,,シンギュラリティーゲームズ,0
1519,6011101103899,新規,0,2023-08-07,2023-08-07,株式会社ｗｉｎｇ,,株式会社,東京都,新宿区,新宿５丁目１８番２０号ルックハイツ新宿８０３号,,13,104,1600022,,,,,,,2023-08-07,1,,,,,ウィング,0
1522,6011601027029,新規,0,2023-08-07,2023-08-07,バイオラボ製薬株式会社,,株式会社,東京都,練馬区,栄町１１番１４－３０６,,13,120,1760006,,,,,,,2023-08-07,1,,,,,バイオラボセイヤク,0
1523,6011603004001,新規,0,2023-08-07,2023-08-07,合同会社ＨＲサービス,,合同会社,東京都,練馬区,中村南３丁目１２番４号,,13,120,1760025,,,,,,,2023-08-07,1,,,,,エイチアールサービス,0
1525,6011801042843,新規,0,2023-08-07,2023-08-07,株式会社ビバクリーン神奈川,,株式会社,東京都,足立区,南花畑３丁目３４番１１号,,13,121,1210062,,,,,,,2023-08-07,1,,,,,ビバクリーンカナガワ,0
1527,6012403006105,新規,0,2023-08-07,2023-08-07,合同会社藤と熊,,合同会社,東京都,武蔵野市,吉祥寺南町４丁目３番１３－１１０４号,,13,203,1800003,,,,,,,2023-08-07,1,,,,,フジトクマ,0
1531,6012801022554,新規,0,2023-08-07,2023-08-07,株式会社ＨＩＤＡＫＡｙａ,,株式会社,東京都,立川市,富士見町６丁目２３番５０７号,,13,202,1900013,,,,,,,2023-08-07,1,,,,,ヒダカヤ,0
1532,6013101009218,新規,0,2023-08-07,2023-08-07,ミズホ防災株式会社,,株式会社,東京都,西多摩郡瑞穂町,大字長岡長谷部４１４番地１,,13,303,1901231,,,,,,,2023-08-07,1,,,,,ミズホボウサイ,0
1540,6020001152725,新規,0,2023-08-07,2023-08-07,龍盛株式会社,,株式会社,神奈川県,横浜市中区,山下町２１１番地４デュオ・スカーラ横浜山下町２０２号,,14,104,2310023,,,,,,,2023-08-07,1,,,,,,0
1541,6020001152774,新規,0,2023-08-07,2023-08-07,株式会社イルファインターナショナル,,株式会社,神奈川県,川崎市高津区,北見方２丁目３４番２５号,,14,134,2130005,,,,,,,2023-08-07,1,,,,,イルファインターナショナル,0
1542,6020001152816,新規,0,2023-08-07,2023-08-07,株式会社ＡＰＴ,,株式会社,神奈川県,横浜市港北区,日吉５丁目１５番１０－１０２号,,14,109,2230061,,,,,,,2023-08-07,1,,,,,エーピーティー,0
1543,6020001152840,新規,0,2023-08-07,2023-08-07,株式会社ナレッジリング,,株式会社,神奈川県,横浜市西区,浅間町１丁目４番地３ウィザードビル４０２,,14,103,2200072,,,,,,,2023-08-07,1,,,,,ナレッジリング,0
1544,6020001152865,新規,0,2023-08-07,2023-08-07,株式会社ＩＣ,,株式会社,神奈川県,横浜市中区,石川町１丁目１３番地４,,14,104,2310868,,,,,,,2023-08-07,1,,,,,アイシー,0
1553,6020003024286,新規,0,2023-08-07,2023-08-07,合同会社６６,,合同会社,神奈川県,横浜市神奈川区,泉町２番地４コンフォートＫ４０１号,,14,102,2210842,,,,,,,2023-08-07,1,,,,,シックスティーシックス,0
1554,6020003024303,新規,0,2023-08-07,2023-08-07,合同会社タマ美装・ナオイ,,合同会社,神奈川県,川崎市多摩区,中野島６丁目２９番３－７０２号,,14,135,2140012,,,,,,,2023-08-07,1,,,,,タマビソウナオイ,0
1560,6021001079776,新規,0,2023-08-07,2023-08-07,Ｐｌａｔｉｎｕｍ　Ｐｌａｎ株式会社,,株式会社,神奈川県,藤沢市,天神町３丁目２９番地の８,,14,205,2520814,,,,,,,2023-08-07,1,,,,,プラチナプラン,0
1561,6021001079784,新規,0,2023-08-07,2023-08-07,株式会社ティーエム,,株式会社,神奈川県,愛甲郡愛川町,田代１６３２番地の１,,14,401,2430306,,,,,,,2023-08-07,1,,,,,ティーエム,0
1562,6021003013394,新規,0,2023-08-07,2023-08-07,ＯＦコンサルティング合同会社,,合同会社,神奈川県,鎌倉市,西御門１丁目６番１６号,,14,204,2480004,,,,,,,2023-08-07,1,,,,,オーエフコンサルティング,0
1563,6021003013428,新規,0,2023-08-07,2023-08-07,合同会社シナジー,,合同会社,神奈川県,茅ヶ崎市,本村１丁目２番３１－２号,,14,207,2530042,,,,,,,2023-08-07,1,,,,,シナジー,0
1568,6030001155066,新規,0,2023-08-07,2023-08-07,株式会社フィールドオール,,株式会社,埼玉県,飯能市,大字下赤工４７０番地,,11,209,3570126,,,,,,,2023-08-07,1,,,,,フィールドオール,0
1569,6030001155140,新規,0,2023-08-07,2023-08-07,株式会社花荘商事,,株式会社,埼玉県,越谷市,蒲生茜町４１番地１根岸ビル２Ｆ,,11,222,3430843,,,,,,,2023-08-07,1,,,,,ハナソウショウジ,0
1573,6030003022124,新規,0,2023-08-07,2023-08-07,合同会社白井コンサルティング,,合同会社,埼玉県,北本市,北本４丁目６８番地３,,11,233,3640006,,,,,,,2023-08-07,1,,,,,シライコンサルティング,0
1574,6030005021347,新規,0,2023-08-07,2023-08-07,まごころ協同組合,,その他の設立登記法人,埼玉県,狭山市,広瀬２丁目３４番２号,,11,215,3501319,,,,,,,2023-08-07,1,,,,,マゴコロ,0
1580,6040001129507,新規,0,2023-08-07,2023-08-07,株式会社ツダエステート,,株式会社,千葉県,船橋市,本町４丁目３５番１２号,,12,204,2730005,,,,,,,2023-08-07,1,,,,,ツダエステート,0
1582,6040003023105,新規,0,2023-08-07,2023-08-07,レトリバーアセットマネジメント合同会社,,合同会社,千葉県,八千代市,緑が丘５丁目６－１５,,12,221,2760049,,,,,,,2023-08-07,1,,,,,レトリバーアセットマネジメント,0
1587,6050001053243,新規,0,2023-08-07,2023-08-07,株式会社庄建,,株式会社,茨城県,つくば市,九万坪５２番地２５,,08,220,3001262,,,,,,,2023-08-07,1,,,,,ショーケン,0
1595,6070001040710,新規,0,2023-08-07,2023-08-07,株式会社コニタ製作所,,株式会社,群馬県,邑楽郡千代田町,大字赤岩３３０９番地８,,10,523,3700503,,,,,,,2023-08-07,1,,,,,コニタセイサクショ,0
1596,6070001040719,新規,0,2023-08-07,2023-08-07,リーベリオ株式会社,,株式会社,群馬県,高崎市,貝沢町１３３５番地３,,10,202,3700042,,,,,,,2023-08-07,1,,,,,リーベリオ,0
1597,6070005010156,新規,0,2023-08-07,2023-08-07,一般社団法人全国障害者就労支援機構,,その他の設立登記法人,群馬県,吾妻郡東吾妻町,大字郷原６９３番地１,,10,429,3770811,,,,,,,2023-08-07,1,,,,,ゼンコクショウガイシャシエンキコウ,0
1600,6080401026647,新規,0,2023-08-07,2023-08-07,株式会社Ｓｉｎｆｉｎｉｔｙ,,株式会社,静岡県,浜松市中区,佐藤３丁目２３番２４号,,22,131,4300807,,,,,,,2023-08-07,1,,,,,シンフィニティー,0
1601,6080401026655,新規,0,2023-08-07,2023-08-07,株式会社ＴＭＴ・ＢＬＩＳＳ,,株式会社,静岡県,浜松市西区,志都呂町３００番地の８５,,22,133,4328066,,,,,,,2023-08-07,1,,,,,ティーエムティーブリス,0
1602,6100001036655,新規,0,2023-08-07,2023-08-07,株式会社光豊,,株式会社,長野県,長野市,青木島町大塚１１１０番地６,,20,201,3812205,,,,,,,2023-08-07,1,,,,,コウホウ,0
1603,6100001036671,新規,0,2023-08-07,2023-08-07,株式会社無間茶屋,,株式会社,長野県,下高井郡野沢温泉村,大字豊郷字大ナデ７８０２番地１,,20,563,3892502,,,,,,,2023-08-07,1,,,,,ムゲンヂャヤ,0
1604,6110005016982,新規,0,2023-08-07,2023-08-07,一般社団法人新潟障害年金相談センター,,その他の設立登記法人,新潟県,燕市,井土巻２番２３８,,15,213,9591232,,,,,,,2023-08-07,1,,,,,ニイガタショウガイネンキンソウダンセンター,0
1614,6120001256994,新規,0,2023-08-07,2023-08-07,日本東海株式会社,,株式会社,大阪府,大阪市浪速区,敷津西２丁目６番８号松原ビル３０２号室,,27,111,5560015,,,,,,,2023-08-07,1,,,,,ニッポントウカイ,0
1615,6120001257051,新規,0,2023-08-07,2023-08-07,株式会社湯ノ口電工,,株式会社,大阪府,寝屋川市,点野３丁目２０番５８号,,27,215,5720077,,,,,,,2023-08-07,1,,,,,ユノクチデンコウ,0
1616,6120001257068,新規,0,2023-08-07,2023-08-07,株式会社森一ビル,,株式会社,大阪府,大阪市中央区,南本町３丁目３番１９号森一ビル６Ｆ,,27,128,5410054,,,,,,,2023-08-07,1,,,,,モリイチビル,0
1617,6120001257076,新規,0,2023-08-07,2023-08-07,株式会社ＬＨＹ　Ｃｏｒｐｏｒａｔｉｏｎ,,株式会社,大阪府,大阪市港区,市岡３丁目６番２号ＬｕｘＰｏｒｔｏ２０１号室,,27,107,5520012,,,,,,,2023-08-07,1,,,,,エルエイチワイコーポレーション,0
1624,6120901047881,新規,0,2023-08-07,2023-08-07,株式会社友恒,,株式会社,大阪府,豊中市,熊野町２丁目１番３５号,,27,203,5600014,,,,,,,2023-08-07,1,,,,,トモツネ,0
1625,6120901047915,新規,0,2023-08-07,2023-08-07,株式会社招健,,株式会社,大阪府,茨木市,山手台６丁目２番１９号,,27,211,5670009,,,,,,,2023-08-07,1,,,,,ショウケン,0
1631,6130001074883,新規,0,2023-08-07,2023-08-07,株式会社京和設計事務所,,株式会社,京都府,京都市南区,久世上久世町１３９番地２,,26,107,6018212,,,,,,,2023-08-07,1,,,,,キョウワセッケイジムショ,0
1635,6140001131155,新規,0,2023-08-07,2023-08-07,関西クリーン開発株式会社,,株式会社,兵庫県,揖保郡太子町,鵤５０９番地７,,28,464,6711561,,,,,,,2023-08-07,1,,,,,カンサイクリーンカイハツ,0
1642,6160003002947,新規,0,2023-08-07,2023-08-07,合同会社かのと,,合同会社,滋賀県,守山市,小島町１７６４番地４,,25,207,5240002,,,,,,,2023-08-07,1,,,,,カノト,0
1643,6170001017715,新規,0,2023-08-07,2023-08-07,株式会社はるこころ和歌山,,株式会社,和歌山県,東牟婁郡古座川町,下露３５４番地２,,30,424,6494562,,,,,,,2023-08-07,1,,,,,ハルココロワカヤマ,0
1644,6170001017723,新規,0,2023-08-07,2023-08-07,株式会社Ｇｌｅａｍ,,株式会社,和歌山県,和歌山市,栄谷２５７番地１７ソレアードパルケＩＩＩ１０２号室,00131414,30,201,6408441,,,,,,,2023-08-07,1,,,,,グリーム,0
1653,6180001157444,新規,0,2023-08-07,2023-08-07,株式会社Ｈ．Ｓ．トータル,,株式会社,愛知県,小牧市,村中新町４７番地１,,23,219,4850083,,,,,,,2023-08-07,1,,,,,エイチエストータル,0
1654,6180001157502,新規,0,2023-08-07,2023-08-07,株式会社セニスル,,株式会社,愛知県,名古屋市中区,丸の内２丁目１７番１３号ＮＫ丸の内ビル２階,,23,106,4600002,,,,,,,2023-08-07,1,,,,,セニスル,0
1664,6200003006043,新規,0,2023-08-07,2023-08-07,合同会社ゆかし,,合同会社,岐阜県,岐阜市,五反田町１０番地オフィスＫＯ‐ＫＥＮ２１０－５,,21,201,5008328,,,,,,,2023-08-07,1,,,,,ユカシ,0
1670,6230001019952,新規,0,2023-08-07,2023-08-07,株式会社ＳＫＦ未来,,株式会社,富山県,富山市,上飯野１１番地１,,16,201,9300827,,,,,,,2023-08-07,1,,,,,エスケーエフミライ,0
1682,6260001038207,新規,0,2023-08-07,2023-08-07,株式会社ＧＥＡＲ　ＯＦ　ＨＥＡＲＴ,,株式会社,岡山県,岡山市中区,門田屋敷３丁目４番６号サンライト門田屋敷７０５,,33,102,7038275,,,,,,,2023-08-07,1,,,,,ギアオブハート,0
1684,6260003004388,新規,0,2023-08-07,2023-08-07,合同会社ハノハノ,,合同会社,岡山県,岡山市北区,白石５７２番地１０アーバンライフ白石１０８号室,,33,101,7010143,,,,,,,2023-08-07,1,,,,,ハノハノ,0
1692,6290001102521,新規,0,2023-08-07,2023-08-07,株式会社Ｒ‐ＦＲＯＮＴ,,株式会社,福岡県,那珂川市,道善２丁目１９番３号,,40,231,8111254,,,,,,,2023-08-07,1,,,,,アールフロント,0
1693,6290001102554,新規,0,2023-08-07,2023-08-07,株式会社エヌエスハーク,,株式会社,福岡県,福岡市博多区,博多駅東３丁目９番７号,,40,132,8120013,,,,,,,2023-08-07,1,,,,,エヌエスハーク,0
1696,6290005019101,新規,0,2023-08-07,2023-08-07,一般社団法人ｔａｔａｍａｍａ,,その他の設立登記法人,福岡県,福岡市中央区,大名１丁目３番３２号ラコルテ大名２０３,,40,133,8100041,,,,,,,2023-08-07,1,,,,,タタママ,0
1697,6290801029773,新規,0,2023-08-07,2023-08-07,株式会社ＯＮＥ　ＴＲＵＳＴ,,株式会社,福岡県,北九州市若松区,小石本村町８番１０号,,40,103,8080001,,,,,,,2023-08-07,1,,,,,ワントラスト,0
1698,6290801029781,新規,0,2023-08-07,2023-08-07,大義株式会社,,株式会社,福岡県,北九州市小倉北区,片野新町２丁目８番２－１０５号,,40,106,8020062,,,,,,,2023-08-07,1,,,,,タイギ,0
1699,6290803004477,新規,0,2023-08-07,2023-08-07,ＫＡＮＴＯＦ　ＪＡＰＡＮ合同会社,,合同会社,福岡県,北九州市小倉北区,新高田２丁目１１－３６,,40,106,8030852,,,,,,,2023-08-07,1,,,,,カントフジャパン,0
1705,6320003004142,新規,0,2023-08-07,2023-08-07,合同会社セキガン,,合同会社,大分県,大分市,西鶴崎２丁目２－１８エンブレム西鶴崎３０２,,44,201,8700105,,,,,,,2023-08-07,1,,,,,セキガン,0
1706,6320005010097,新規,0,2023-08-07,2023-08-07,一般社団法人国東人,,その他の設立登記法人,大分県,国東市,武蔵町糸原１２７８番地１,,44,214,8730421,,,,,,,2023-08-07,1,,,,,クニサキビト,0
1709,6330001031113,新規,0,2023-08-07,2023-08-07,大村兄弟株式会社,,株式会社,熊本県,熊本市東区,長嶺東７丁目１０番５２号,,43,102,8618038,,,,,,,2023-08-07,1,,,,,オオムラキョウダイ,0
1714,6350003004404,新規,0,2023-08-07,2023-08-07,ブレスエステート合同会社,,合同会社,宮崎県,児湯郡高鍋町,大字北高鍋５２７０番地,,45,401,8840002,,,,,,,2023-08-07,1,,,,,ブレスエステート,0
1719,6370003006225,新規,0,2023-08-07,2023-08-07,仙台アシストガーデン合同会社,,合同会社,宮城県,仙台市泉区,福岡字阿弥陀前８番地,,04,105,9813225,,,,,,,2023-08-07,1,,,,,センダイアシストガーデン,0
1736,6420001018357,新規,0,2023-08-07,2023-08-07,株式会社中華味,,株式会社,青森県,弘前市,大字宮舘字房崎１９０番地３,,02,202,0368384,,,,,,,2023-08-07,1,,,,,チュウカアジ,0
1740,6430001089645,新規,0,2023-08-07,2023-08-07,株式会社ｐｒｏｃｅｅｄ,,株式会社,北海道,札幌市西区,西野八条９丁目１７番１０号,,01,107,0630038,,,,,,,2023-08-07,1,,,,,プロシード,0
1741,6430001089661,新規,0,2023-08-07,2023-08-07,株式会社樹りん,,株式会社,北海道,札幌市白石区,南郷通３丁目南１番１８－３０１号,,01,104,0030022,,,,,,,2023-08-07,1,,,,,キリン,0
1750,6460001005814,新規,0,2023-08-07,2023-08-07,株式会社Ｆｏｕｒ　Ｃ．,,株式会社,北海道,釧路市,鳥取大通１丁目１０番２号,,01,206,0840906,,,,,,,2023-08-07,1,,,,,フォーシー,0
1753,6480001012172,新規,0,2023-08-07,2023-08-07,株式会社桜商運,,株式会社,徳島県,徳島市,国府町観音寺３６１番地の１８,,36,201,7793123,,,,,,,2023-08-07,1,,,,,サクラショウウン,0
1755,6500001025114,新規,0,2023-08-07,2023-08-07,タイヨウ株式会社,,株式会社,愛媛県,新居浜市,瀬戸町１０番３１号,,38,205,7920821,,,,,,,2023-08-07,1,,,,,タイヨウ,0
1756,6500001025122,新規,0,2023-08-07,2023-08-07,株式会社イトハ,,株式会社,愛媛県,西条市,樋之口１５番地１メゾンひうちＥ棟１１２号,,38,206,7930043,,,,,,,2023-08-07,1,,,,,イトハ,0
1759,6700150118813,新規,0,2023-08-07,2023-08-07,マドゥランガインターナショナル,,外国会社等,京都府,八幡市,男山吉井９番地９,,26,210,6148363,０４，Ｍａｄｕｒａｎｇａ，Ｍａｄａｇａｌｌａ　Ｒｏａｄ，Ｋｉｒｉｂａｍｕｎａ，Ｉｂｂａｇａｍｕｗａ,,,,,,2023-08-07,1,,,,,マドウランガインターナシヨナル,0
1760,6700150118821,新規,0,2023-08-07,2023-08-07,ＬＯＮＧＹＡＮ　ＳＨＩＷＡＮＲＵＩＮＯＮＧＹＥ　ＦＡＺＨＡＮＧ　ＹＯＵ　ＸＩＡＮ　ＧＯＮＧ　ＳＩ,,外国会社等,,,,,,,,Ｎｏ．６－３，Ｊｉａｎｇｔａｎｇ　Ｒｏａｄ，Ｓｈａｎｔａｎｇ　Ｖｉｌｌａｇｅ，Ｔｏｎｇｌｕｏ　Ｖｉｌｌａｇｅ，Ｊｉａｎｇｓｈａｎ　Ｔｏｗｎ，Ｓｉｌｌａ　Ｄｉｓｔｒｉｃｔ，Ｌｏｎｇｙａｎ　Ｃｉｔｙ，Ｆｕｊｉｔａｎ　Ｐｒｏｖｉｎｃｅ（Ｘｉｎ，Ｌｏｎｇｙａｎ　Ｃｉｔｙ，Ｆｕｊｉａｎ　Ｐｒｏｖｉｎｃｅ　Ｇｒｏｕｐ６　ｏｆ　Ｔｏｎｇｐｉｎｇ　Ｖｉｌｌａｇｅ　ｉｎ　Ｓｈａｎｇｓｈｅｐｕ　Ｖｉｌｌａｇｅ，Ｌｕｏ　Ｄｉｓｔｒｉｃｔ，Ｇｒｏｕｐ３　ｏｆ　Ｔｏｎｇｐｉｎｇ　Ｖｉｌｌａｇｅ　ｉｎ　ｔｈｅ　ｗｅｓｔ，Ｇｒｏｕｐ９　ｏｆ　Ｔｏｎｇｔｏｎｇ　Ｖｉｌｌａｇｅ　ｉｎ　ｔｈｅ　ｎｏｒｔｈ　оｆ　Ｓｈａｎｎａｎ）,,,,,,2023-08-07,1,,,,,ロンイエンシーワンルイノンイエファージャンヨウシエンゴンスー,0
1761,6700150118838,新規,0,2023-08-07,2023-08-07,Ｃｈａｎｇ　Ｓｈａ　Ｙｉ　Ｙｉ　Ｉｎｆｏｒｍａｔｉｏｎ　Ｔｅｃｈｎｏｌｏｎｙ　Ｃｏ．，Ｌｔｄ,,外国会社等,,,,,,,,Ｋａｉｆｕｑｕｘｉｎｓｈｉｄａｉｓｈａｎｇｗｕｇｕａｎｇｃｈａｎｇ　８１７ｈａｏ　Ｄｏｎｇ　ｆｅｎｇ　ｌｕ　ｊｉｅｄａｏ　ｆｕｒｏｎｇｚｈｏｎｇｌｕｙｉｄｕａｎ　１６１ｈａｏ　ＣｈａｎｇＳｈａ　Ｈｕｎａｎ　ＣＮ,,,,,,2023-08-07,1,,,,,チョウサイイインフォメーションテクノロジーカンパニーリミテッド,0
1762,6700150118846,新規,0,2023-08-07,2023-08-07,ＲＵＮＨＯＯＤ　ＰＯＷＥＲ　ＩＮＣ．,,外国会社等,,,,,,,,３９８０－Ｄ　Ｖａｌｌｅｙ　Ｂｌｖｄ．ＷＡＬＮＵＴ　ＣＡ　Ｕｎｉｔｅｄ　Ｓｔａｔｅｓ,,,,,,2023-08-07,1,,,,,ランフッドパワーインコーポレイテッド,0
1763,6700150118854,新規,0,2023-08-07,2023-08-07,Ｎａｎｔｏｎｇｆｅｉｒｕｉｘｕｅｄｉａｎｚｉｓｈａｎｇｗｕｙｏｕｘｉａｎｚｅｒｅｎｇｏｎｇｓｉ,,外国会社等,,,,,,,,Ｒｏｏｍ　６１０，Ｂｕｉｌｄｉｎｇ　４，ＴｉａｎＫｏｎｇＣａｉＦｕ　Ｂｕｉｌｄｉｎｇ，Ｎｏ．２８８　Ｑｉｎｇ　Ｎｉａｎ　Ｒｏａｄ，Ｇｕａｎ　Ｙｉｎ　Ｓｈａｎ　Ｓｔｒｅｅｔ，Ｃｈｏｎｇ　Ｃｈｕａｎ　Ｄｉｓｔｒｉｃｔ，Ｎａｎｔｏｎｇ，Ｊｉａｎｇｓｕ,,,,,,2023-08-07,1,,,,,ナントンフェイルイシュエディエンズーシャンウーヨウシエンゾーレンゴンスー,0
1764,6700150118862,新規,0,2023-08-07,2023-08-07,Ｓｈｅｎｚｈｅｎ　Ｑｉａｏｈｕｉ　Ｅ－ｃｏｍｍｅｒｃｅ　Ｃｏ．，Ｌｔｄ,,外国会社等,,,,,,,,Ｄ２１２，Ｂｌｏｃｋ　Ｄ，Ｈｏｎｇｗａｎ　Ｂｕｓｉｎｅｓｓ　Ｃｅｎｔｅｒ　Ｇｕｓｈｕ　Ｃｏｍｍｕｎｉｔｙ，Ｘｉｘｉａｎｇ　Ｓｔｒｅｅｔ，Ｂａｏａｎ　Ｄｉｓｔｒｉｃｔ　Ｓｈｅｎｚｈｅｎ　Ｃｈｉｎａ,,,,,,2023-08-07,1,,,,,シンセンチャオホウイイーコマースカンパニーリミテッド,0
1776,7010001237369,新規,0,2023-08-07,2023-08-07,株式会社ブレイクアウト,,株式会社,東京都,千代田区,神田練塀町３番地,,13,101,1010022,,,,,,,2023-08-07,1,,,,,ブレイクアウト,0
1777,7010001237427,新規,0,2023-08-07,2023-08-07,株式会社ＡＬＬ　Ｂｕｌｌ,,株式会社,東京都,中央区,日本橋室町１丁目１１番１２号日本橋水野ビル７階,,13,102,1030022,,,,,,,2023-08-07,1,,,,,オールブル,0
1778,7010001237518,新規,0,2023-08-07,2023-08-07,株式会社日本テックスピッツ,,株式会社,東京都,中央区,銀座１丁目１２番４号Ｎ＆ＥＢＬＤ．６Ｆ,,13,102,1040061,,,,,,,2023-08-07,1,,,,,ニホンテックスピッツ,0
1783,7010401176191,新規,0,2023-08-07,2023-08-07,株式会社シンファクトリー,,株式会社,東京都,港区,北青山３丁目９番２号,,13,103,1070061,,,,,,,2023-08-07,1,,,,,シンファクトリー,0
1784,7010401176225,新規,0,2023-08-07,2023-08-07,株式会社ナイスゥゥゥ,,株式会社,東京都,港区,白金台２丁目２６－８岡田ビル２０２,,13,103,1080071,,,,,,,2023-08-07,1,,,,,ナイスゥゥゥ,0
1785,7010403030644,新規,0,2023-08-07,2023-08-07,合同会社ＲＮ,,合同会社,東京都,港区,赤坂３丁目１０番２０号,,13,103,1070052,,,,,,,2023-08-07,1,,,,,アールエヌ,0
1787,7010505003432,新規,0,2023-08-07,2023-08-07,特定非営利活動法人吉原の未来を考える会,,その他の設立登記法人,東京都,台東区,千束４丁目３０番１号,,13,106,1110031,,,,,,,2023-08-07,1,,,,,ヨシワラノミライヲカンガエルカイ,0
1790,7010601063553,新規,0,2023-08-07,2023-08-07,株式会社彩景社,,株式会社,東京都,墨田区,墨田３丁目２４番３号,,13,107,1310031,,,,,,,2023-08-07,1,,,,,サイケイシャ,0
1797,7010701044676,新規,0,2023-08-07,2023-08-07,株式会社サエスタ,,株式会社,東京都,品川区,西大井１丁目１－２Ｊタワー西大井イーストタワー２階,,13,109,1400015,,,,,,,2023-08-07,1,,,,,サエスタ,0
1805,7011001156105,新規,0,2023-08-07,2023-08-07,株式会社Ｐ‐ＴＨＲＥＥ,,株式会社,東京都,目黒区,目黒本町５丁目３番２－６０７号,,13,110,1520002,,,,,,,2023-08-07,1,,,,,ピースリー,0
1806,7011001156113,新規,0,2023-08-07,2023-08-07,株式会社ｓｐｉｎｌｏｏｐ,,株式会社,東京都,目黒区,中目黒４丁目５－２クレッセント中目黒５０５,,13,110,1530061,,,,,,,2023-08-07,1,,,,,スピンループ,0
1814,7011101103898,新規,0,2023-08-07,2023-08-07,株式会社ツン,,株式会社,東京都,新宿区,西新宿３丁目３番１３号西新宿水間ビル６階,,13,104,1600023,,,,,,,2023-08-07,1,,,,,ツン,0
1815,7011101103923,新規,0,2023-08-07,2023-08-07,株式会社Ｔｒｉｌｌｉｏｎ,,株式会社,東京都,新宿区,新宿６丁目２７番４８－１０１２号,,13,104,1600022,,,,,,,2023-08-07,1,,,,,トリリオン,0
1817,7011103013344,新規,0,2023-08-07,2023-08-07,Ｋ＆Ｍ合同会社,,合同会社,東京都,新宿区,西新宿３丁目３番１３号西新宿水間ビル２Ｆ,,13,104,1600023,,,,,,,2023-08-07,1,,,,,ケイアンドエム,0
1820,7011201024805,新規,0,2023-08-07,2023-08-07,株式会社Ｕｔｏｐｉａ　Ｇｌｏｂａｌ,,株式会社,東京都,中野区,丸山１丁目１５番２０号,,13,114,1650021,,,,,,,2023-08-07,1,,,,,ユートピアグローバル,0
1821,7011201024821,新規,0,2023-08-07,2023-08-07,株式会社ＭＡＷＫＳ,,株式会社,東京都,中野区,中野３丁目３４番１４号,,13,114,1640001,,,,,,,2023-08-07,1,,,,,マークス,0
1822,7011205002567,新規,0,2023-08-07,2023-08-07,司法書士法人プライマリー,,その他の設立登記法人,東京都,中野区,中野２丁目２８番１－６０１号,,13,114,1640001,,,,,,,2023-08-07,1,,,,,プライマリー,0
1824,7011501029628,新規,0,2023-08-07,2023-08-07,笑福株式会社,,株式会社,東京都,荒川区,東日暮里６丁目１０－４－１０２,,13,118,1160014,,,,,,,2023-08-07,1,,,,,ショウフク,0
1826,7011703003554,新規,0,2023-08-07,2023-08-07,Ｋ＆Ｂ合同会社,,合同会社,東京都,江戸川区,篠崎町３丁目１９番８－２０３号,,13,123,1330061,,,,,,,2023-08-07,1,,,,,ケーアンドビー,0
1829,7011803005772,新規,0,2023-08-07,2023-08-07,合同会社ＳＮ　Ａｃｃｏｕｎｔｉｎｇ,,合同会社,東京都,足立区,伊興４丁目１番５号,,13,121,1210823,,,,,,,2023-08-07,1,,,,,,0
1830,7012401040831,新規,0,2023-08-07,2023-08-07,株式会社ｉＭｅｄｉｃａｌ,,株式会社,東京都,小金井市,桜町１丁目８番２０号,,13,210,1840005,,,,,,,2023-08-07,1,,,,,アイメディカル,0
1833,7012403006112,新規,0,2023-08-07,2023-08-07,合同会社ＡＫメディア企画,,合同会社,東京都,武蔵野市,緑町１丁目２番２１号,,13,203,1800012,,,,,,,2023-08-07,1,,,,,エーケーメディアキカク,0
1836,7012801022553,新規,0,2023-08-07,2023-08-07,株式会社ＳＡＳＡＥＲＵ,,株式会社,東京都,立川市,若葉町２丁目３２番地の３７,,13,202,1900001,,,,,,,2023-08-07,1,,,,,ササエル,0
1837,7012803003147,新規,0,2023-08-07,2023-08-07,合同会社栞プロダクション,,合同会社,東京都,国分寺市,西町１丁目２２番地１ムービングオン２０１,,13,214,1850035,,,,,,,2023-08-07,1,,,,,シオリプロダクション,0
1841,7013303006747,新規,0,2023-08-07,2023-08-07,始動メディカルコンサルティング合同会社,,合同会社,東京都,豊島区,南大塚３丁目３６－７南大塚Ｔ＆Ｔビル６Ｆ,,13,116,1700005,,,,,,,2023-08-07,1,,,,,シドウメディカルコンサルティング,0
1845,7020001152815,新規,0,2023-08-07,2023-08-07,株式会社ｙａｍａｎｏｔａ,,株式会社,神奈川県,川崎市麻生区,千代ケ丘４丁目１０番地６０,,14,137,2150005,,,,,,,2023-08-07,1,,,,,ヤマノタ,0
1846,7020001152823,新規,0,2023-08-07,2023-08-07,株式会社ＪＡＲＹ　ＤＥＳＩＧＮ,,株式会社,神奈川県,川崎市宮前区,南野川２丁目１３番５号,,14,136,2160042,,,,,,,2023-08-07,1,,,,,ジャリィデザイン,0
1847,7020001152848,新規,0,2023-08-07,2023-08-07,株式会社そのあと,,株式会社,神奈川県,川崎市中原区,上平間１２５４川崎住宅１－２０５,,14,133,2110013,,,,,,,2023-08-07,1,,,,,ソノアト,0
1848,7020001152864,新規,0,2023-08-07,2023-08-07,株式会社ＩＮＦＩＮＩＴＹ,,株式会社,神奈川県,横浜市栄区,犬山町６５番２４号,,14,115,2470026,,,,,,,2023-08-07,1,,,,,インフィニティ,0
1854,7020003024269,新規,0,2023-08-07,2023-08-07,合同会社ＣＯＮＧ,,合同会社,神奈川県,横浜市中区,翁町２丁目７番地１２グランパセオ横浜関内プレミアム５０２,,14,104,2310028,,,,,,,2023-08-07,1,,,,,チョン,0
1855,7020003024293,新規,0,2023-08-07,2023-08-07,合同会社巛縁,,合同会社,神奈川県,横浜市中区,桜木町１丁目１０１番地１クロスゲート７階,,14,104,2310062,,,,,,,2023-08-07,1,,,,,セン,0
1859,7021003013393,新規,0,2023-08-07,2023-08-07,合同会社泉華,,合同会社,神奈川県,鎌倉市,西御門１丁目６番１６号,,14,204,2480004,,,,,,,2023-08-07,1,,,,,センカ,0
1863,7021005012864,新規,0,2023-08-07,2023-08-07,一般社団法人こえとえほん日英絵本読み聞かせ協会,,その他の設立登記法人,神奈川県,藤沢市,辻堂太平台２丁目１番３５－６４号,,14,205,2510044,,,,,,,2023-08-07,1,,,,,コエトエホンニチエイエホンヨミキカセキョウカイ,0
1876,7040001129489,新規,0,2023-08-07,2023-08-07,株式会社レックシステム,,株式会社,千葉県,木更津市,長須賀３０５番地４,,12,206,2920054,,,,,,,2023-08-07,1,,,,,レックシステム,0
1877,7040001129514,新規,0,2023-08-07,2023-08-07,株式会社Ａｌｐｈａ,,株式会社,千葉県,我孫子市,本町３丁目５番４－５０１号,,12,222,2701151,,,,,,,2023-08-07,1,,,,,アルファ,0
1878,7040001129522,新規,0,2023-08-07,2023-08-07,日本機材ホールディングス株式会社,,株式会社,千葉県,茂原市,本納字富士見台３２１０番地１４,,12,210,2994114,,,,,,,2023-08-07,1,,,,,ニホンキザイホールディングス,0
1879,7040001129605,新規,0,2023-08-07,2023-08-07,マンションｅコネクト株式会社,,株式会社,千葉県,流山市,流山８丁目１３２４番地パーチェ流山３０３,,12,220,2700164,,,,,,,2023-08-07,1,,,,,マンションイーコネクト,0
1882,7040003023070,新規,0,2023-08-07,2023-08-07,合同会社エソラ,,合同会社,千葉県,印旛郡栄町,酒直１６８４番地６,,12,329,2701513,,,,,,,2023-08-07,1,,,,,エソラ,0
1889,7050001053242,新規,0,2023-08-07,2023-08-07,ＵＴＵＲＴＡ株式会社,,株式会社,茨城県,土浦市,小松３丁目１８番１４号,,08,203,3000823,,,,,,,2023-08-07,1,,,,,ウトゥルタ,0
1896,7050003007691,新規,0,2023-08-07,2023-08-07,ハニーデュークス合同会社,,合同会社,茨城県,土浦市,藤沢９４６番地１,,08,203,3004115,,,,,,,2023-08-07,1,,,,,ハニーデュークス,0
1897,7050003007700,新規,0,2023-08-07,2023-08-07,ＴＴ合同会社,,合同会社,茨城県,日立市,諏訪町１丁目１０－２５、２０２号,,08,202,3160001,,,,,,,2023-08-07,1,,,,,ティーティー,0
1899,7060001036221,新規,0,2023-08-07,2023-08-07,株式会社ＢＷ,,株式会社,栃木県,足利市,梁田町９番地１,,09,202,3260321,,,,,,,2023-08-07,1,,,,,ビーダブリュ,0
1903,7070001040718,新規,0,2023-08-07,2023-08-07,北海産業株式会社,,株式会社,群馬県,伊勢崎市,田部井町３丁目５６番地,,10,204,3792222,,,,,,,2023-08-07,1,,,,,ホッカイサンギョウ,0
1905,7080001025783,新規,0,2023-08-07,2023-08-07,株式会社すまいるべーす,,株式会社,静岡県,静岡市葵区,瀬名７丁目２３番１７号,,22,101,4200911,,,,,,,2023-08-07,1,,,,,スマイルベース,0
1909,7080103002870,新規,0,2023-08-07,2023-08-07,合同会社富士海フレーベル,,合同会社,静岡県,沼津市,大岡１２８１‐４,,22,203,4100022,,,,,,,2023-08-07,1,,,,,フジミフレーベル,0
1912,7080401026646,新規,0,2023-08-07,2023-08-07,恵比寿工業株株式会社,,株式会社,静岡県,浜松市西区,篠原町２２４７１番地,,22,133,4310201,,,,,,,2023-08-07,1,,,,,エビスコウギョウ,0
1926,7120001256969,新規,0,2023-08-07,2023-08-07,株式会社ＸＥＶＬＯ,,株式会社,大阪府,寝屋川市,黒原旭町２４番１５－１号,,27,215,5720057,,,,,,,2023-08-07,1,,,,,ゼブロ,0
1927,7120001256993,新規,0,2023-08-07,2023-08-07,ＶＩＰ株式会社,,株式会社,大阪府,大阪市中央区,北久宝寺町１丁目９番６号ネオフィス堺筋本町５０２号室,,27,128,5410057,,,,,,,2023-08-07,1,,,,,ブイアイピー,0
1928,7120001257050,新規,0,2023-08-07,2023-08-07,ＮＧＫ関西株式会社,,株式会社,大阪府,大阪市住之江区,浜口西１丁目１４番１０号ＬＵＮＡ・ＰＩＥＮＡ浜口西３０３号室,,27,125,5590006,,,,,,,2023-08-07,1,,,,,エヌジーケーカンサイ,0
1931,7120003024622,新規,0,2023-08-07,2023-08-07,合同会社麺処諭吉,,合同会社,大阪府,大阪市都島区,東野田町３丁目１１番４号,,27,102,5340024,,,,,,,2023-08-07,1,,,,,メンドコロユキチ,0
1932,7120003024630,新規,0,2023-08-07,2023-08-07,合同会社なごみ家,,合同会社,大阪府,交野市,私市山手５丁目１番１４号,,27,230,5760032,,,,,,,2023-08-07,1,,,,,ナゴミヤ,0
1933,7120101068001,新規,0,2023-08-07,2023-08-07,株式会社ＧＲ,,株式会社,大阪府,堺市中区,土師町４丁７番１６号,,27,142,5998238,,,,,,,2023-08-07,1,,,,,ジーアール,0
1936,7120901047906,新規,0,2023-08-07,2023-08-07,多喜興業株式会社,,株式会社,大阪府,高槻市,氷室町６丁目１番５号,,27,207,5691141,,,,,,,2023-08-07,1,,,,,タキコウギョウ,0
1940,7122001037242,新規,0,2023-08-07,2023-08-07,株式会社ＭＳ　ＨＯＬＤＩＮＧＳ,,株式会社,大阪府,八尾市,南本町４丁目１番１１号,,27,212,5810081,,,,,,,2023-08-07,1,,,,,エムエスホールディングス,0
1943,7130001074858,新規,0,2023-08-07,2023-08-07,株式会社モーヴ,,株式会社,京都府,京都市西京区,桂市ノ前町３番・９番の１合地,,26,111,6158026,,,,,,,2023-08-07,1,,,,,モーヴ,0
1944,7130001074874,新規,0,2023-08-07,2023-08-07,フロンソル株式会社,,株式会社,京都府,京都市中京区,小川通六角下る元本能寺町３８２番地Ｍ／Ｂビル４ＦＵ３Ｃ号室,,26,104,6048244,,,,,,,2023-08-07,1,,,,,フロンソル,0
1945,7130001074882,新規,0,2023-08-07,2023-08-07,丹後ロケットストーブ株式会社,,株式会社,京都府,京丹後市,弥栄町鳥取２３３４番地,,26,212,6270133,,,,,,,2023-08-07,1,,,,,タンゴロケットストーブ,0
1950,7140001131138,新規,0,2023-08-07,2023-08-07,株式会社ユニコ・クリーンワークス,,株式会社,兵庫県,西宮市,津門大箇町８番２７号,,28,204,6638243,,,,,,,2023-08-07,1,,,,,ユニコクリーンワークス,0
1951,7140001131187,新規,0,2023-08-07,2023-08-07,株式会社ＣＯＮＥＣＴＡＲ,,株式会社,兵庫県,明石市,小久保１丁目４番７号メゾン西明石３０５号,,28,203,6730005,,,,,,,2023-08-07,1,,,,,コネクタル,0
1959,7160003002946,新規,0,2023-08-07,2023-08-07,合同会社辰美建設,,合同会社,滋賀県,長浜市,木之本町廣瀬２８８番地８,,25,203,5290424,,,,,,,2023-08-07,1,,,,,タツミケンセツ,0
1960,7160003002954,新規,0,2023-08-07,2023-08-07,ｈｏｃｃｏ合同会社,,合同会社,滋賀県,守山市,浮気町３２１番地の３駅前東住宅３‐４０１,,25,207,5240033,,,,,,,2023-08-07,1,,,,,ホッコ,0
1973,7180001157369,新規,0,2023-08-07,2023-08-07,株式会社Ｏｕｒｕｍ　ｒａｂｂｉｔ,,株式会社,愛知県,名古屋市瑞穂区,雁道町２丁目２２Ａ－Ｃｉｔｙ瑞穂雁道１１４,,23,108,4670877,,,,,,,2023-08-07,1,,,,,オーラムラビット,0
1974,7180001157385,新規,0,2023-08-07,2023-08-07,株式会社ｅ‐Ｇｒａｎｔｓ,,株式会社,愛知県,一宮市,時之島字妙光寺４９番地３,,23,203,4910002,,,,,,,2023-08-07,1,,,,,イーグランツ,0
1975,7180001157393,新規,0,2023-08-07,2023-08-07,株式会社Ｃａｐｉｔａｎｏ,,株式会社,愛知県,名古屋市中村区,名駅４丁目２４番５号第２森ビル４０１,,23,105,4500002,,,,,,,2023-08-07,1,,,,,カピターノ,0
1976,7180001157402,新規,0,2023-08-07,2023-08-07,株式会社十五夜,,株式会社,愛知県,春日井市,藤山台７丁目１番地１２,,23,206,4870035,,,,,,,2023-08-07,1,,,,,ジュウゴヤ,0
1977,7180001157451,新規,0,2023-08-07,2023-08-07,株式会社Ｉ’ｓ,,株式会社,愛知県,大府市,東新町６丁目６１番地,,23,223,4740073,,,,,,,2023-08-07,1,,,,,アイズ,0
1978,7180001157468,新規,0,2023-08-07,2023-08-07,株式会社ｓｔｕｄｉｏ　ｗａｌｒｕｓ,,株式会社,愛知県,大府市,桃山町１丁目３８０番地の１,,23,223,4740026,,,,,,,2023-08-07,1,,,,,スタジオウォルラス,0
1979,7180001157501,新規,0,2023-08-07,2023-08-07,株式会社ＳＳＫ,,株式会社,愛知県,長久手市,打越２００４番地２,,23,238,4801152,,,,,,,2023-08-07,1,,,,,エスエスケー,0
1980,7180001157575,新規,0,2023-08-07,2023-08-07,マイテレハウジング株式会社,,株式会社,愛知県,名古屋市東区,泉１丁目１１番６号,,23,102,4610001,,,,,,,2023-08-07,1,,,,,マイテレハウジング,0
1993,7180303005795,新規,0,2023-08-07,2023-08-07,エフステ合同会社,,合同会社,愛知県,みよし市,莇生町藤塚６番地１５９,,23,236,4700206,,,,,,,2023-08-07,1,,,,,エフステ,0
2000,7200001041586,新規,0,2023-08-07,2023-08-07,株式会社ＧＲＡＣＥ,,株式会社,岐阜県,可児市,桜ケ丘５丁目６６番地,,21,214,5090235,,,,,,,2023-08-07,1,,,,,グレース,0
2002,7200003006042,新規,0,2023-08-07,2023-08-07,合同会社Ｖｅｎｅｒｉｓ,,合同会社,岐阜県,岐阜市,白山町３丁目２番地３,,21,201,5008172,,,,,,,2023-08-07,1,,,,,ウェネリス,0
2011,7230003002063,新規,0,2023-08-07,2023-08-07,合同会社満志麻社中,,合同会社,富山県,氷見市,間島１番３号,,16,205,9350003,,,,,,,2023-08-07,1,,,,,マシマシャチュウ,0
2018,7260001038197,新規,0,2023-08-07,2023-08-07,株式会社イージスゲートウェイ,,株式会社,岡山県,岡山市北区,野田３丁目２番８号,,33,101,7000971,,,,,,,2023-08-07,1,,,,,イージスゲートウェイ,0
2020,7280001009007,新規,0,2023-08-07,2023-08-07,サンライトクリーン株式会社,,株式会社,島根県,出雲市,今市町北本町１丁目１番地３,,32,203,6930002,,,,,,,2023-08-07,1,,,,,サンライトクリーン,0
2023,7290001102512,新規,0,2023-08-07,2023-08-07,株式会社泉里,,株式会社,福岡県,久留米市,高良内町２９４４番地１１９,,40,203,8390852,,,,,,,2023-08-07,1,,,,,センリ,0
2024,7290001102628,新規,0,2023-08-07,2023-08-07,株式会社ヨウキ工業,,株式会社,福岡県,糟屋郡粕屋町,駕与丁１丁目３番１１号２階,,40,349,8112309,,,,,,,2023-08-07,1,,,,,ヨウキコウギョウ,0
2026,7290003014193,新規,0,2023-08-07,2023-08-07,ライフスタイルプラン＆サポート合同会社,,合同会社,福岡県,福岡市中央区,天神２丁目２番１２号Ｔ＆Ｊビルディング７Ｆ,,40,133,8100001,,,,,,,2023-08-07,1,,,,,ライフスタイルプランアンドサポート,0
2034,7310001018549,新規,0,2023-08-07,2023-08-07,株式会社平吉設備,,株式会社,長崎県,長崎市,石神町３１番５４号,,42,201,8528126,,,,,,,2023-08-07,1,,,,,ヒラヨシセツビ,0
2045,7370003006232,新規,0,2023-08-07,2023-08-07,ＫＡＳＨＡＮ　ＴＲＡＤＩＮＧ合同会社,,合同会社,宮城県,東松島市,宮戸字里３６番地２Ｄ－４号,,04,214,9810412,,,,,,,2023-08-07,1,,,,,カシャントレーディング,0
2047,7380001033888,新規,0,2023-08-07,2023-08-07,住吉不動産株式会社,,株式会社,福島県,会津若松市,住吉町１番２号サンシャインＯＯＫＵＲＡ・Ａ棟１０１号室,,07,202,9650855,,,,,,,2023-08-07,1,,,,,スミヨシフドウサン,0
2054,7430001089677,新規,0,2023-08-07,2023-08-07,株式会社ＮＡサービス,,株式会社,北海道,札幌市白石区,北郷三条４丁目１１－１２－２０２,,01,104,0030833,,,,,,,2023-08-07,1,,,,,エヌエーサービス,0
2058,7450001014071,新規,0,2023-08-07,2023-08-07,株式会社ＣＬＥＡＲ　ＨＯＰＥ,,株式会社,北海道,旭川市,東光九条４丁目３番５号,,01,204,0788349,,,,,,,2023-08-07,1,,,,,クリアホープ,0
2060,7450003002371,新規,0,2023-08-07,2023-08-07,合同会社ＧｒｅｅｎＳｈａｐｅｒｓ,,合同会社,北海道,旭川市,旭神三条２丁目１番８号,,01,204,0788373,,,,,,,2023-08-07,1,,,,,グリーンシェイパーズ,0
2061,7460401001255,新規,0,2023-08-07,2023-08-07,株式会社雪国,,株式会社,北海道,根室市,宝林町１丁目１０番地,,01,223,0870024,,,,,,,2023-08-07,1,,,,,ユキグニ,0
2063,7480001012171,新規,0,2023-08-07,2023-08-07,株式会社竹森,,株式会社,徳島県,小松島市,和田島町字平見１３３番地の４,,36,203,7730025,,,,,,,2023-08-07,1,,,,,タケモリ,0
2069,7500001025105,新規,0,2023-08-07,2023-08-07,株式会社ユーフォリア,,株式会社,愛媛県,西予市,宇和町卯之町４丁目５１０番地１,,38,214,7970015,,,,,,,2023-08-07,1,,,,,ユーフォリア,0
2070,7500001025113,新規,0,2023-08-07,2023-08-07,株式会社ｗｅａｄ,,株式会社,愛媛県,松山市,久米窪田町３３７－１テクノプラザ愛媛本館内,,38,201,7911101,,,,,,,2023-08-07,1,,,,,ウィード,0
2071,7500001025121,新規,0,2023-08-07,2023-08-07,飛勝工業株式会社,,株式会社,愛媛県,今治市,北高下町３丁目４番５２号大誠ハイツ北高下ＩＩ５号,00131417,38,202,7940812,,,,,,,2023-08-07,1,,,,,ヒショウコウギョウ,0
2073,7700150118820,新規,0,2023-08-07,2023-08-07,ｓｈｅｎｚｈｅｎｓｈｉ　ｘｉｎｃｈｕａｎｇｈｕｉｓｈａｎｇｍａｏ　ｙｏｕｘｉａｎｇｏｎｇｓｉ,,外国会社等,,,,,,,,ｇｕａｎｇｄｏｎｇｓｈｅｎｇ　ｓｈｅｎｚｈｅｎｓｈｉ　ｌｏｎｇｈｕａｑｕ　ｌｏｎｇｈｕａｊｉｅｄａｏ　ｑｉｎｇｈｕａｓｈｅｑｕ　ｊｉａｎｓｈｅｄｏｎｇｌｕ１８ｈａｏ　ｑｉｎｇｎｉａｎｃｈｕａｎｇｙｅｙｕａｎＡｄｏｎｇ１ｌｏｕｊｉａｃｅｎｇ１Ａ１３,,,,,,2023-08-07,1,,,,,シェンジェンシーシンチュワンフイシャンマオヨウシエンゴンスー,0
2074,7700150118829,新規,0,2023-08-07,2023-08-07,Ｂｏ　Ｚｈｕｏ　Ｅ－Ｂｕｓｉｎｅｓｓ　Ｃｏｍｐａｎｙ　Ｌｔｄ．,,外国会社等,,,,,,,,Ｒｏｏｍ　５０３，Ｂｕｉｌｄｉｎｇ　Ｂ，Ｔａｏ　Ｍａｌｌ，Ｙｕｅ　Ｊｉｎ　Ｍｉｄ．Ｒｏａｄ，Ｂｅｉｊｉａｏ，Ｓｈｕｎｄｅ　Ｄｉｓｔｒｉｃｔ．Ｆｏｓｈａｎ，Ｇｕａｎｇｄｏｎｇ　５２８３１１　ＣＮ,,,,,,2023-08-07,1,,,,,フォーシャンシボージュオディエンズーシャンウヨウシェンゴンスー,0
2075,7700150118837,新規,0,2023-08-07,2023-08-07,ｓｈｅｎｚｈｅｎｓｈｉ　ｈｅｎｇｙｉ　ｋｅｊｉ　ｙｏｕｘｉａｎｇｏｎｇｓｉ,,外国会社等,,,,,,,,Ｂａｏａｎｑｕ，Ｓｈｉｙａｎｊｉｅｄａｏ，Ｓｈｉｘｉｎｓｈｅｑｕ　Ｙｕｓｈａｎｇｏｎｇｙｅｙｕａｎ　Ｄ　ｄｏｎｇ　ｃｈａｎｇｆａｎｇ２　ｌｏｕ　ｂｅｉｃｅ　Ｓｈｅｎｚｈｅｎ　Ｇｕａｎｇｄｏｎｇ　ＣＮ,,,,,,2023-08-07,1,,,,,シンセンシコウオクカギユウゲンコウシ,0
2076,7700150118845,新規,0,2023-08-07,2023-08-07,ｄｏｎｇｇｕａｎｓｈｉ　ｓｈｅｎｇｃｈａｎｇｌｏｎｇｋｅｊｉ　ｙｏｕｘｉａｎｇｏｎｇｓｉ,,外国会社等,,,,,,,,Ｄａｌａｎｇｚｈｅｎｇｏｎｇａｏｈｅｎｇｙｉｌｕｙｉｘｉａｎｇ　８ｈａｏ１０１ｓｈｉ　ｄｏｎｇｇｕａｎ　Ｇｕａｎｇｄｏｎｇ,,,,,,2023-08-07,1,,,,,トンガンシセイショウリュウカギユウゲンコウシ,0
2077,7700150118853,新規,0,2023-08-07,2023-08-07,ｓｈｅｎｚｈｅｎｓｈｉ　ＳｈａｎｇＹｕ　Ｔｅｃｈｎｏｌｏｇｙ　Ｃｏ．，Ｌｔｄ,,外国会社等,,,,,,,,ｌｏｎｇｈｕａｑｕ　ｍｉｎｇｚｈｉｊｉｅｄａｏ　ｍｉｎｌｅｌａｏｃｕｎ８２－４１９　ｓｈｅｎｚｈｅｎ　ＧｕａｎｇＤｏｎｇ,,,,,,2023-08-07,1,,,,,シンセンシショウゴテクノロジーカンパニーリミテッド,0
2078,7700150118861,新規,0,2023-08-07,2023-08-07,ＮＩＮＧＢＯ　ＹＩＫＥＧＯＮＧＹＩＮＧＬＩＡＮＧＵＡＮＬＩ　ＹＯＵＸＩＡＮＧＯＮＧＳＩ,,外国会社等,,,,,,,,ｈａｉｓｈｕｑｕｊｉｓｈｉｇａｎｇｚｈｅｎｋｅｘｉｎｌｕ２９８ｈａｏ３０７ｓｈｉ　ｎｉｎｇｂｉ　ｚｈｅｊｉａｎｇ　ＣＮ,,,,,,2023-08-07,1,,,,,ニンボイケゴンインレングゥアンリユウゲンコウシ,0
2083,8010001237442,新規,0,2023-08-07,2023-08-07,ジラフ・キャピタル・パートナーズ株式会社,,株式会社,東京都,中央区,晴海２丁目２－４２パークタワー晴海３２２２,,13,102,1040053,,,,,,,2023-08-07,1,,,,,ジラフキャピタルパートナーズ,0
2085,8010003041280,新規,0,2023-08-07,2023-08-07,合同会社ハイジマインターナショナル,,合同会社,東京都,千代田区,内神田３丁目２２番５号,,13,101,1010047,,,,,,,2023-08-07,1,,,,,ハイジマインターナショナル,0
2089,8010401176109,新規,0,2023-08-07,2023-08-07,株式会社エターナルワン,,株式会社,東京都,港区,北青山１丁目３番１号アールキューブ青山３階,,13,103,1070061,,,,,,,2023-08-07,1,,,,,エターナルワン,0
2090,8010401176158,新規,0,2023-08-07,2023-08-07,株式会社Ｔｒａｎｓｌｅａｄ,,株式会社,東京都,港区,西新橋３丁目２５番３１号愛宕山ＰＲＥＸ１０Ｆ,,13,103,1050003,,,,,,,2023-08-07,1,,,,,トランスリード,0
2091,8010401176174,新規,0,2023-08-07,2023-08-07,株式会社ＧＡＬＬＥＲＩＡ,,株式会社,東京都,港区,白金台５丁目１８番４号,,13,103,1080071,,,,,,,2023-08-07,1,,,,,ガレリア,0
2093,8010403030635,新規,0,2023-08-07,2023-08-07,合同会社ＩＪ,,合同会社,東京都,港区,六本木１丁目５番３－１１０５号,,13,103,1060032,,,,,,,2023-08-07,1,,,,,アイジェイ,0
2094,8010403030643,新規,0,2023-08-07,2023-08-07,合同会社ＦＳＣｏｍｐａｎｙ,,合同会社,東京都,港区,新橋２丁目８番１号ＭＯＭ１１階,,13,103,1050004,,,,,,,2023-08-07,1,,,,,エフエスカンパニー,0
2095,8010403030684,新規,0,2023-08-07,2023-08-07,ｒｅｎｇａプロ第１号合同会社,,合同会社,東京都,港区,赤坂４丁目１５番１号赤坂ガーデンシティ３階,,13,103,1070052,,,,,,,2023-08-07,1,,,,,レンガプロダイイチゴウ,0
2101,8010603010288,新規,0,2023-08-07,2023-08-07,江東運輸合同会社,,合同会社,東京都,江東区,大島７丁目４２番６号１０２,,13,108,1360072,,,,,,,2023-08-07,1,,,,,コウトウウンユ,0
2102,8010603010296,新規,0,2023-08-07,2023-08-07,合同会社リコペン,,合同会社,東京都,墨田区,押上１丁目３６番１号,,13,107,1310045,,,,,,,2023-08-07,1,,,,,リコペン,0
2103,8010701044650,新規,0,2023-08-07,2023-08-07,ＶＩＬＬＡＲＳコンサルティング株式会社,,株式会社,東京都,品川区,北品川２丁目２１番７号ＶＩＬＬＡＲＳ品川ビル１Ｆ,,13,109,1400001,,,,,,,2023-08-07,1,,,,,ヴィラーズコンサルティング,0
2109,8010901053567,新規,0,2023-08-07,2023-08-07,株式会社ＤＥＮＴｉＳＴＡＲ,,株式会社,東京都,世田谷区,奥沢５丁目４２番３号２Ｆ,,13,112,1580083,,,,,,,2023-08-07,1,,,,,デンティスター,0
2110,8010901053575,新規,0,2023-08-07,2023-08-07,ＴＳＣ株式会社,,株式会社,東京都,世田谷区,桜新町１丁目５番１３号,,13,112,1540015,,,,,,,2023-08-07,1,,,,,ティーエスシー,0
2115,8011001156070,新規,0,2023-08-07,2023-08-07,株式会社ＧＹＭ＆ＳＡＵＮＡ,,株式会社,東京都,渋谷区,代官山町２０番９号サザン代官山Ｂ１Ｆ,,13,113,1500034,,,,,,,2023-08-07,1,,,,,ジムアンドサウナ,0
2116,8011001156104,新規,0,2023-08-07,2023-08-07,株式会社Ｃｕｅｚ,,株式会社,東京都,渋谷区,円山町３番６号Ｅ・スペースタワー６Ｆ西,,13,113,1500044,,,,,,,2023-08-07,1,,,,,キューズ,0
2117,8011001156112,新規,0,2023-08-07,2023-08-07,株式会社ｌｏｖｅ＆ｒｏｃｋ‐ｓｔａｒｓ,,株式会社,東京都,渋谷区,広尾１丁目１５番６号,,13,113,1500012,,,,,,,2023-08-07,1,,,,,ラブアンドロックスターズ,0
2119,8011101103897,新規,0,2023-08-07,2023-08-07,株式会社ＳＴＥＰ　ＵＰ,,株式会社,東京都,新宿区,新宿２丁目７－３ヴェラハイツ新宿御苑４０２,,13,104,1600022,,,,,,,2023-08-07,1,,,,,ステップアップ,0
2120,8011101103914,新規,0,2023-08-07,2023-08-07,株式会社リベ研,,株式会社,東京都,新宿区,西新宿３丁目３番１３号西新宿水間ビル６階,,13,104,1600023,,,,,,,2023-08-07,1,,,,,リベケン,0
2122,8011103013302,新規,0,2023-08-07,2023-08-07,合同会社ＯｐｅｎＣｏｕｎｔｒｙ,,合同会社,東京都,新宿区,西新宿３丁目３番１３号西新宿水間ビル２Ｆ,,13,104,1600023,,,,,,,2023-08-07,1,,,,,オープンカントリー,0
2123,8011103013335,新規,0,2023-08-07,2023-08-07,Ａｓ　Ｐｒｏｊｅｃｔ合同会社,,合同会社,東京都,新宿区,百人町１丁目１５番２－１１３号,,13,104,1690073,,,,,,,2023-08-07,1,,,,,アスプロジェクト,0
2124,8011103013343,新規,0,2023-08-07,2023-08-07,合同会社ＦＯＲＢＳ,,合同会社,東京都,新宿区,西新宿３丁目３番１３号西新宿水間ビル６階,,13,104,1600023,,,,,,,2023-08-07,1,,,,,フォーブス,0
2125,8011201024804,新規,0,2023-08-07,2023-08-07,株式会社Ｆｕｔｕｒｅ　Ｍｅｄｉａ,,株式会社,東京都,中野区,丸山１丁目１５番２０号,,13,114,1650021,,,,,,,2023-08-07,1,,,,,フューチャーメディア,0
2128,8011403004067,新規,0,2023-08-07,2023-08-07,ＮＯＶＡＬＩＡ合同会社,,合同会社,東京都,板橋区,中台３丁目２７サンシティＡ棟１００８号,,13,119,1740064,,,,,,,2023-08-07,1,,,,,ノヴァリア,0
2130,8011601027019,新規,0,2023-08-07,2023-08-07,株式会社クリーンウェーブ,,株式会社,東京都,練馬区,中村南２丁目６番５－３０３号,,13,120,1760025,,,,,,,2023-08-07,1,,,,,クリーンウェーブ,0
2131,8011801042833,新規,0,2023-08-07,2023-08-07,株式会社一秀,,株式会社,東京都,足立区,加平１丁目１７番７－３０３号,,13,121,1210055,,,,,,,2023-08-07,1,,,,,イッシュウ,0
2132,8011803005771,新規,0,2023-08-07,2023-08-07,合同会社ＴＲＹＹＰｒｏｊｅｃｔ,,合同会社,東京都,葛飾区,立石２丁目３６―１５,,13,122,1240012,,,,,,,2023-08-07,1,,,,,トライワイプロジェクト,0
2136,8012401040822,新規,0,2023-08-07,2023-08-07,株式会社ＳｐａｃｅＷｏｒｋｓ,,株式会社,東京都,府中市,住吉町３丁目５８番地の６,,13,206,1830034,,,,,,,2023-08-07,1,,,,,スペースワークス,0
2137,8012401040839,新規,0,2023-08-07,2023-08-07,株式会社イニシアティブ,,株式会社,東京都,調布市,深大寺南町３丁目１７－１深大寺レジデンスＦ１１１,,13,208,1820013,,,,,,,2023-08-07,1,,,,,イニシアティブ,0
2138,8012403006111,新規,0,2023-08-07,2023-08-07,スクリーボ合同会社,,合同会社,東京都,武蔵野市,吉祥寺北町２丁目１９番２６号１４,,13,203,1800001,,,,,,,2023-08-07,1,,,,,スクリーボ,0
2150,8020001152748,新規,0,2023-08-07,2023-08-07,ジャパン・プライド株式会社,,株式会社,神奈川県,横浜市西区,北幸１丁目１１番１号水信ビル７階,,14,103,2200004,,,,,,,2023-08-07,1,,,,,ジャパンプライド,0
2151,8020001152830,新規,0,2023-08-07,2023-08-07,株式会社ｓｔａｒｔｕｐＥｗｏｒｋｓ,,株式会社,神奈川県,川崎市川崎区,浅田１丁目５番１８号,,14,131,2100847,,,,,,,2023-08-07,1,,,,,スタートアップイーワークス,0
2152,8020001152871,新規,0,2023-08-07,2023-08-07,双仁産業株式会社,,株式会社,神奈川県,川崎市川崎区,池上新町１丁目１０番５号,,14,131,2100832,,,,,,,2023-08-07,1,,,,,ソウジンサンギョウ,0
2153,8020001152905,新規,0,2023-08-07,2023-08-07,Ｏｒｉｅｎｔ　Ｈｕｍａｎ　Ｄｅｓｉｇｎ株式会社,,株式会社,神奈川県,横浜市港南区,日野南３丁目７番１５号,,14,111,2340055,,,,,,,2023-08-07,1,,,,,オリエントヒューマンデザイン,0
2158,8020003024334,新規,0,2023-08-07,2023-08-07,合同会社ポコピー,,合同会社,神奈川県,横浜市中区,桜木町１丁目１０１番地１クロスゲート７階,,14,104,2310062,,,,,,,2023-08-07,1,,,,,ポコピー,0
2163,8021001079824,新規,0,2023-08-07,2023-08-07,株式会社カームホーム,,株式会社,神奈川県,藤沢市,鵠沼海岸７丁目６番１２号,00131427,14,205,2510037,,,,,,,2023-08-07,1,,,,,カームホーム,0
2166,8021003013376,新規,0,2023-08-07,2023-08-07,合同会社梅吉豪,,合同会社,神奈川県,藤沢市,片瀬海岸３丁目２３－１８－２０３,,14,205,2510035,,,,,,,2023-08-07,1,,,,,ウメヨシゴウ,0
2167,8021003013392,新規,0,2023-08-07,2023-08-07,ＯＮＥ　Ｆｉｅｌｄ合同会社,,合同会社,神奈川県,鎌倉市,西御門１丁目６番１６号,,14,204,2480004,,,,,,,2023-08-07,1,,,,,ワンフィールド,0
2174,8030005021345,新規,0,2023-08-07,2023-08-07,一般社団法人ムジカルダ,,その他の設立登記法人,埼玉県,熊谷市,宮町１丁目１０６番地,,11,202,3600041,,,,,,,2023-08-07,1,,,,,ムジカルダ,0
2181,8040001129496,新規,0,2023-08-07,2023-08-07,株式会社Ｍ．ｓｔｙｌｅ,,株式会社,千葉県,松戸市,六高台８丁目１４３番地の１４,,12,207,2702203,,,,,,,2023-08-07,1,,,,,エムスタイル,0
2182,8040001129505,新規,0,2023-08-07,2023-08-07,Ｍａｙｌｉａ株式会社,,株式会社,千葉県,我孫子市,中峠１２３５番地３,,12,222,2701121,,,,,,,2023-08-07,1,,,,,メイリア,0
2183,8040001129513,新規,0,2023-08-07,2023-08-07,株式会社ハピネスハウジング,,株式会社,千葉県,柏市,末広町４番２号,,12,217,2770842,,,,,,,2023-08-07,1,,,,,ハピネスハウジング,0
2184,8040001129521,新規,0,2023-08-07,2023-08-07,ＭＡＳＴＡＲ　ＩＮＴＥＲＮＡＴＩＯＮＡＬ株式会社,,株式会社,千葉県,野田市,新田戸１１４番地１の２,,12,208,2700212,,,,,,,2023-08-07,1,,,,,マスタインタナショナル,0
2187,8040003023061,新規,0,2023-08-07,2023-08-07,合同会社ＳＴＶ,,合同会社,千葉県,松戸市,常盤平３丁目２９番地の１７スズキビル３Ｆ,,12,207,2702261,,,,,,,2023-08-07,1,,,,,エスティーブイ,0
2188,8040003023086,新規,0,2023-08-07,2023-08-07,Ｇｒｅａｔ　Ｆｏｒｅｓｔ合同会社,,合同会社,千葉県,船橋市,滝台１丁目５番６号,,12,204,2740074,,,,,,,2023-08-07,1,,,,,グレートフォレスト,0
2193,8050001053233,新規,0,2023-08-07,2023-08-07,株式会社ふじやま,,株式会社,茨城県,つくば市,研究学園２丁目２２番地１６,,08,220,3050817,,,,,,,2023-08-07,1,,,,,フジヤマ,0
2194,8050003007682,新規,0,2023-08-07,2023-08-07,シルバー農園合同会社,,合同会社,茨城県,つくば市,西高野２０９１番地２,,08,220,3002613,,,,,,,2023-08-07,1,,,,,シルバーノウエン,0
2198,8060001036220,新規,0,2023-08-07,2023-08-07,株式会社ひふみ,,株式会社,栃木県,小山市,大字下生井１２０１番地１,,09,208,3290223,,,,,,,2023-08-07,1,,,,,ヒフミ,0
2200,8060003004662,新規,0,2023-08-07,2023-08-07,Ｔ＆Ｔ　Ｆｏｏｄ合同会社,,合同会社,栃木県,足利市,葉鹿南町１９－３ビレッジハウス足利葉鹿１－２０４,,09,202,3260144,,,,,,,2023-08-07,1,,,,,ティーアンドティフード,0
2203,8070001040709,新規,0,2023-08-07,2023-08-07,株式会社縁と匠,,株式会社,群馬県,太田市,西新町２７番地１９バカンスハイツＥ－２０６号,,10,205,3730847,,,,,,,2023-08-07,1,,,,,エニシトタクミ,0
2208,8080101024156,新規,0,2023-08-07,2023-08-07,ふわり株式会社,,株式会社,静岡県,御殿場市,東田中１８７８番地の５,,22,215,4120026,,,,,,,2023-08-07,1,,,,,フワリ,0
2210,8080401026645,新規,0,2023-08-07,2023-08-07,古川株式会社,,株式会社,静岡県,浜松市中区,細島町３８７番地,,22,131,4350045,,,,,,,2023-08-07,1,,,,,フルカワ,0
2211,8080401026661,新規,0,2023-08-07,2023-08-07,株式会社シークレットベース,,株式会社,静岡県,浜松市天竜区,二俣町鹿島５４２－８,,22,137,4313313,,,,,,,2023-08-07,1,,,,,シークレットベース,0
2212,8090003002358,新規,0,2023-08-07,2023-08-07,アプローズ合同会社,,合同会社,山梨県,富士吉田市,新町２丁目７番１号,,19,202,4030019,,,,,,,2023-08-07,1,,,,,アプローズ,0
2214,8110003005135,新規,0,2023-08-07,2023-08-07,合同会社ＣＨＵ１０,,合同会社,新潟県,新潟市中央区,鳥屋野４１６番地６,,15,103,9500951,,,,,,,2023-08-07,1,,,,,チュウテン,0
2224,8120001256951,新規,0,2023-08-07,2023-08-07,株式会社ＣＨＡＫＫＡ,,株式会社,大阪府,大阪市中央区,安土町２丁目４番１１－４４１３号,,27,128,5410052,,,,,,,2023-08-07,1,,,,,チャッカ,0
2231,8120003024646,新規,0,2023-08-07,2023-08-07,合同会社ＡＰＰＡＲＥ　ＷＯＲＫＳ,,合同会社,大阪府,門真市,大橋町１５－３－１０２,,27,223,5710077,,,,,,,2023-08-07,1,,,,,アッパレワークス,0
2232,8120003024654,新規,0,2023-08-07,2023-08-07,合同会社タテガミ,,合同会社,大阪府,大阪市福島区,吉野５丁目１４番３－３０３号,,27,103,5530006,,,,,,,2023-08-07,1,,,,,タテガミ,0
2237,8120103005364,新規,0,2023-08-07,2023-08-07,合同会社ＳＵＮＫＩＴ,,合同会社,大阪府,堺市東区,白鷺町２丁７番４－３０４号,,27,143,5998107,,,,,,,2023-08-07,1,,,,,サンキット,0
2239,8120901047888,新規,0,2023-08-07,2023-08-07,株式会社イマム,,株式会社,大阪府,豊中市,緑丘４丁目１３番１０号,,27,203,5600002,,,,,,,2023-08-07,1,,,,,イマム,0
2242,8120903004771,新規,0,2023-08-07,2023-08-07,ＲＢＲ合同会社,,合同会社,大阪府,吹田市,朝日が丘町２７番１－１００３号,,27,205,5640083,,,,,,,2023-08-07,1,,,,,アールビーアール,0
2244,8122001037225,新規,0,2023-08-07,2023-08-07,ｈａｐｐｙ　ｏｎｅ株式会社,,株式会社,大阪府,東大阪市,長田中１丁目４番１７号,,27,227,5770013,,,,,,,2023-08-07,1,,,,,ハッピーワン,0
2245,8122001037241,新規,0,2023-08-07,2023-08-07,ＴＳリアン株式会社,,株式会社,大阪府,東大阪市,吉田１丁目７番２８－１０１号,,27,227,5780924,,,,,,,2023-08-07,1,,,,,ティーエスリアン,0
2257,8140001131070,新規,0,2023-08-07,2023-08-07,ＭＡＴ株式会社,,株式会社,兵庫県,神戸市西区,大津和１丁目６番地の２,,28,111,6512112,,,,,,,2023-08-07,1,,,,,エムエーティー,0
2258,8140001131079,新規,0,2023-08-07,2023-08-07,株式会社風和カンパニー,,株式会社,兵庫県,姫路市,保城１６３番地４,,28,201,6700804,,,,,,,2023-08-07,1,,,,,フウワカンパニー,0
2259,8140001131087,新規,0,2023-08-07,2023-08-07,株式会社Ｒａｄｉａｎｔ　Ｇｌｏｗ,,株式会社,兵庫県,尼崎市,東園田町５丁目８２番地,,28,202,6610953,,,,,,,2023-08-07,1,,,,,レイディアントグロウ,0
2263,8140003019388,新規,0,2023-08-07,2023-08-07,ＫＯＩ　ＦＯＯＤ　ＳＥＲＶＩＣＥ合同会社,,合同会社,兵庫県,神戸市長田区,花山町１丁目２番３号,,28,106,6530876,,,,,,,2023-08-07,1,,,,,コイフードサービス,0
2267,8160003002953,新規,0,2023-08-07,2023-08-07,Ｗｏｏｄｅｎ　ｒｏｏｓｔｅｒ合同会社,,合同会社,滋賀県,大津市,仰木の里２丁目７番５号,,25,201,5200246,,,,,,,2023-08-07,1,,,,,ウッドゥンルースター,0
2268,8170003001905,新規,0,2023-08-07,2023-08-07,合同会社ＳＡＫＥ　ＷＯＲＫＥＲＳ,,合同会社,和歌山県,和歌山市,江南１６５番地６,,30,201,6400343,,,,,,,2023-08-07,1,,,,,サケワーカーズ,0
2275,8180001157442,新規,0,2023-08-07,2023-08-07,株式会社アトラクションホールディングス,,株式会社,愛知県,名古屋市名東区,一社３丁目６５番地の１（コルティーレ２０３号）,,23,115,4650093,,,,,,,2023-08-07,1,,,,,アトラクションホールディングス,0
2276,8180001157459,新規,0,2023-08-07,2023-08-07,株式会社新未来アート企画,,株式会社,愛知県,名古屋市天白区,表山３丁目１４２番地,,23,116,4680069,,,,,,,2023-08-07,1,,,,,シンミライアートキカク,0
2277,8180001157467,新規,0,2023-08-07,2023-08-07,株式会社Ａｓｓｅｔｍｅｎｔ,,株式会社,愛知県,小牧市,小牧原２丁目２５０番地,,23,219,4850829,,,,,,,2023-08-07,1,,,,,アセットメント,0
2278,8180001157533,新規,0,2023-08-07,2023-08-07,ケイアンドエム株式会社,,株式会社,愛知県,名古屋市港区,九番町５丁目１番地の１１,,23,111,4550008,,,,,,,2023-08-07,1,,,,,ケイアンドエム,0
2287,8180003025572,新規,0,2023-08-07,2023-08-07,まきしまむ合同会社,,合同会社,愛知県,名古屋市港区,金城ふ頭２丁目７番地の１－２７,,23,111,4550848,,,,,,,2023-08-07,1,,,,,マキシマム,0
2288,8180003025589,新規,0,2023-08-07,2023-08-07,スノーフレイク・コンサルティング合同会社,,合同会社,愛知県,名古屋市中村区,名駅４丁目１７―３メイヨンビル２Ｆ,,23,105,4500002,,,,,,,2023-08-07,1,,,,,スノーフレイクコンサルティング,0
2293,8180303005786,新規,0,2023-08-07,2023-08-07,ＹＡ９６合同会社,,合同会社,愛知県,岡崎市,伝馬通５丁目２７サンクレーア梅園１００３,,23,202,4440038,,,,,,,2023-08-07,1,,,,,ワイエイキュウジュウロク,0
2295,8200001041577,新規,0,2023-08-07,2023-08-07,株式会社アキラ板金,,株式会社,岐阜県,関市,上白金１８６番地１,,21,205,5013947,,,,,,,2023-08-07,1,,,,,アキラバンキン,0
2296,8200001041585,新規,0,2023-08-07,2023-08-07,株式会社ｂｅｅ,,株式会社,岐阜県,恵那市,大井町２７１１番地１２４グリーンヒル金龍１０１号,,21,210,5097201,,,,,,,2023-08-07,1,,,,,ビー,0
2302,8230001019950,新規,0,2023-08-07,2023-08-07,株式会社Ｋａｈｕｎａ,,株式会社,富山県,富山市,粟島町１丁目４番２７号,,16,201,9318314,,,,,,,2023-08-07,1,,,,,カフナ,0
2316,8260001038188,新規,0,2023-08-07,2023-08-07,株式会社ＥＤＥＮ,,株式会社,岡山県,倉敷市,沖５４４番地１７,,33,202,7100836,,,,,,,2023-08-07,1,,,,,エデン,0
2317,8260001038196,新規,0,2023-08-07,2023-08-07,株式会社ＲｅＳｅｔ,,株式会社,岡山県,倉敷市,児島小川９丁目７番３１－４３号,,33,202,7110911,,,,,,,2023-08-07,1,,,,,リセット,0
2318,8260003004386,新規,0,2023-08-07,2023-08-07,合同会社ＬＩＦＩＸ,,合同会社,岡山県,岡山市北区,田中１７１番地１０５（３０２）,,33,101,7000951,,,,,,,2023-08-07,1,,,,,リフィックス,0
2321,8280001009006,新規,0,2023-08-07,2023-08-07,株式会社丸古,,株式会社,島根県,浜田市,三隅町下古和１３６２番地７,,32,202,6993215,,,,,,,2023-08-07,1,,,,,マルコ,0
2331,8290001102494,新規,0,2023-08-07,2023-08-07,株式会社アルシス,,株式会社,福岡県,福岡市博多区,博多駅前３丁目１４番１０号,,40,132,8120011,,,,,,,2023-08-07,1,,,,,アルシス,0
2334,8300001013418,新規,0,2023-08-07,2023-08-07,株式会社あじや,,株式会社,佐賀県,唐津市,呼子町殿ノ浦９１３番地４,,41,202,8470304,,,,,,,2023-08-07,1,,,,,アジヤ,0
2338,8320001019917,新規,0,2023-08-07,2023-08-07,株式会社ＭＫＺ,,株式会社,大分県,大分市,大字市１１８０番地サンパ－クわさだ中央レジデンス６０１,,44,201,8701151,,,,,,,2023-08-07,1,,,,,エムケイゼット,0
2339,8320001019925,新規,0,2023-08-07,2023-08-07,ＭＡＳ株式会社,,株式会社,大分県,日田市,若宮町３番９２号,,44,204,8770037,,,,,,,2023-08-07,1,,,,,エムエーエス,0
2340,8320001019933,新規,0,2023-08-07,2023-08-07,Ｋ・エイチ株式会社,,株式会社,大分県,大分市,畑中３丁目４番１１号,,44,201,8700856,,,,,,,2023-08-07,1,,,,,ケイエイチ,0
2345,8320003004140,新規,0,2023-08-07,2023-08-07,合同会社エンノード,,合同会社,大分県,大分市,高松１丁目８番地１４コンフォートハウス高松３０３号,,44,201,8700917,,,,,,,2023-08-07,1,,,,,エンノード,0
2350,8350001018478,新規,0,2023-08-07,2023-08-07,株式会社Ｎｏｒｔｈ　ｂａｎｋ,,株式会社,宮崎県,宮崎市,広島１丁目３番２３号オーヴィジョン広島パークサイド１１０１号,,45,201,8800806,,,,,,,2023-08-07,1,,,,,ノースバンク,0
2358,8370001050256,新規,0,2023-08-07,2023-08-07,株式会社Ｌｅａｆ　ｃｕｒｒｅｎｔ,,株式会社,宮城県,仙台市青葉区,大町２丁目４番１－７０１号,,04,101,9800804,,,,,,,2023-08-07,1,,,,,リーフカレント,0
2366,8400001016336,新規,0,2023-08-07,2023-08-07,株式会社農直クラブ,,株式会社,岩手県,盛岡市,乙部２６地割７０番地,,03,201,0200403,,,,,,,2023-08-07,1,,,,,ノウチョククラブ,0
2381,8430001089692,新規,0,2023-08-07,2023-08-07,株式会社ＫＮＧ,,株式会社,北海道,札幌市中央区,南九条西４丁目３番１－２２０６号,,01,101,0640809,,,,,,,2023-08-07,1,,,,,ケーエヌジー,0
2385,8450003002370,新規,0,2023-08-07,2023-08-07,ＥＣＨＯ　ＦＵＲＡＮＯ合同会社,,合同会社,北海道,富良野市,住吉町３番２１号,,01,229,0760057,,,,,,,2023-08-07,1,,,,,エコーフラノ,0
2388,8462503000209,新規,0,2023-08-07,2023-08-07,合同会社魚誠,,合同会社,北海道,目梨郡羅臼町,知昭町４３０番地２７,,01,694,0861836,,,,,,,2023-08-07,1,,,,,ウオセイ,0
2390,8470001019729,新規,0,2023-08-07,2023-08-07,株式会社ｚｅｋｋｅｉ,,株式会社,香川県,小豆郡小豆島町,草壁本町１０５５－１４,,37,324,7614432,,,,,,,2023-08-07,1,,,,,ゼッケイ,0
2393,8500001025104,新規,0,2023-08-07,2023-08-07,トトノ堂株式会社,,株式会社,愛媛県,西予市,宇和町卯之町３丁目２２０番地,,38,214,7970015,,,,,,,2023-08-07,1,,,,,トトノドウ,0
2394,8500001025112,新規,0,2023-08-07,2023-08-07,株式会社Ｇｏ　Ｍａｘ．２４４,,株式会社,愛媛県,松山市,持田町１丁目１番１号クレアホームズ持田７０２号,,38,201,7900855,,,,,,,2023-08-07,1,,,,,ゴーマックスニヨンヨン,0
2395,8500001025120,新規,0,2023-08-07,2023-08-07,株式会社ＡＥＲＵ,,株式会社,愛媛県,松山市,二番町３丁目７番地２,,38,201,7900002,,,,,,,2023-08-07,1,,,,,アエル,0
2397,8700150113977,新規,0,2023-08-07,2023-08-07,Ｓｈｅｎｚｈｅｎｓｈｉ　Ｗｅｉｋｅｏｕｋｅｊｉ　Ｙｏｕｘｉａｎｇｏｎｇｓｉ,,外国会社等,,,,,,,,Ｓｈｅｎｚｈｅｎｓｈｉ　Ｌｏｎｇｈｕａｑｕ　Ｇｕａｎｌａｎｊｉｅｄａｏ　Ｇｕａｎｌａｎｄａｄａｏ　８８　Ｈａｏ　Ｓｈｏｕｙｕ　Ｚｈｉｙｕｌａｎｗａｎｈｕａｙｕａｎ　Ａ　Ｄｏｎｇ　２２Ｋ,,,,,,2023-08-07,1,,,,,シェンヂェンシーウェイグェァオウグェァジーヨウシィェンゴンスー,0
2398,8700150114819,新規,0,2023-08-07,2023-08-07,ｈａｏｆｅｎｇｆａｚｈａｎ（ｘｉａｍｅｎ）ｍａｏｙｉｙｏｕｘｉａｎｇｏｎｇｓｉ,,外国会社等,,,,,,,,Ｃｈｉｎａ　（Ｆｕｊｉａｎ）　Ｐｉｌｏｔ　Ｆｒｅｅ　Ｔｒａｄｅ　Ｚｏｎｅ　Ｘｉａｍｅｎ　ＡｒｅａＸ　Ｕｎｉｔ　０５，８／Ｆ，Ｂｌｄｇ．Ｄ，Ｘｉａｍｅｎ　Ｉｎｔｅｒｎａｔｉｏｎａｌ　Ｓｈｉｐｐｉｎｇ　Ｃｅｎｔｅ　ｘｉａｍｅｎ　ｆｕｊｉａｎ　３６１０００ＣＮ,,,,,,2023-08-07,1,,,,,ハオフォンファージャンシャアメンマオイーヨウシェンゴンスー,0
2399,8700150118828,新規,0,2023-08-07,2023-08-07,ｆｏｓｈａｎｓｈｉｄｏｎｇｚｈｅｎｚｈｕｂａｏｙｏｕｘｉａｎｇｏｎｇｓｉ,,外国会社等,,,,,,,,ｇｕａｎｇｄｏｎｇｓｈｅｎｆｏｓｈａｎｓｈｉｓｈｕｎｄｅｑｕｃｈｅｎｃｕｎｚｈｅｎｈｅｃｈｅｎｇｓｈｅｑｕｂａｉｃｈｅｎｇｏｎｇｌｕ１８９ｈａｏｙｕｅｆｅｎｇｈｕａｙｕａｎ２ｈａｏｐｕｚｈｉｓａｎ,,,,,,2023-08-07,1,,,,,フォーシャンシドンジェンジュウバオヨウシェンゴンスー,0
2400,8700150118836,新規,0,2023-08-07,2023-08-07,ＳｈｕＴｉｎｇ　Ｅ－ｂｕｓｉｎｅｓｓ　ＣＯ．，ＬＴＤ,,外国会社等,,,,,,,,Ｒｏｏｍ　５０６，ＳｈｅｎＣａｉ　Ｂｕｉｌｄｉｎｇ，Ｎｏ．９２，ＦｕＹｏｎｇ　Ｒｏａｄ，ＢａｉＳｈｉＸｉａ　Ｃｏｍｍｕｎｉｔｙ，ＢａｏＡｎ　Ｄｉｓｔｒｉｃｔ　Ｓｈｅｎｚｈｅｎ　Ｃｉｔｙ　Ｇｕａｎｇｄｏｎｇ　Ｐｒｏｖｉｎｃｅ　ＣＮ,,,,,,2023-08-07,1,,,,,スティンイービジネスカンパニーリミテッド,0
2401,8700150118844,新規,0,2023-08-07,2023-08-07,ＳｈｅｎＺｈｅｎＳｈｉ　ＢｏＥｒ　ＳｈｕＺｉＫｅＪｉ　ＹｏｕＸｉａｎＧｏｎｇＳｉ,,外国会社等,,,,,,,,Ｇｕａｎｇｄｏｎｇｓｈｅｎｇ　ＳｈｅｎＺｈｅｎ　ＮａｎＳｈａｎＱｕ　ＹｕｅＨａｉＪｉｅＤａｏＫｅＪｉＹｕａｎＳｈｅＱｕＫｅＹｕａｎＬｕ１５Ｈａｏ　ＫｅＸｉｎｇＫｅＸｕｅＹｕａｎＢＤｏｎｇＢ２－８０３,,,,,,2023-08-07,1,,,,,シンセンシボエルスウジカギユウゲンコウシ,0
2402,8700150118852,新規,0,2023-08-07,2023-08-07,ｆｕｑｉｎｇｓｈｉ　ｆｅｉｓｕｎｌｉｕｊｉｎｗａｎｇｌｕｏｋｅｊｉ　ｙｏｕｘｉａｎｇｏｎｇｓｉ,,外国会社等,,,,,,,,ｃａｎｇｘｉｃｕｎ　ｔａｘｉ６２２－１ｈａｏ　ｆｕｚｈｏｕｓｈｉｆｕｑｉｎｇｓｈｉｊｉａｎｇｊｉｎｇｚｈｅｎ　ｆｕｊｉａｎｓｈｅｎｇ,,,,,,2023-08-07,1,,,,,フッセイシフェイスンリュウキンワンロケジユウゲンコウシ,0
2403,8700150118860,新規,0,2023-08-07,2023-08-07,Ｑｕａｎｚｈｏｕ　Ｆｅｉ　Ｃｈａｎｇ　Ｍｉｎｇ　Ｅ－ｃｏｍｍｅｒｃｅ　Ｃｏ．，Ｌｔｄ．,,外国会社等,,,,,,,,Ｂｕｉｌｄｉｎｇ　２，　Ｎｏ．３１，Ｓｈａｎｇｃｈｅｎｇ　Ｓｔｒｅｅｔ，Ｔｏｒｃｈ　Ｃｏｍｍｕｎｉｔｙ　Ｊｉａｎｇｎａｎ　Ｓｔｒｅｅｔ，Ｌｉｃｈｅｎｇ　Ｄｉｓｔｒｉｃｔ，Ｑｕａｎｚｈｏｕ　Ｃｉｔｙ，Ｆｕｊｉａｎ　Ｐｒｏｖｉｎｃｅ,,,,,,2023-08-07,1,,,,,ツェンゾォウフェイチャンミンイーコマースカンパニーリミテッド,0
2406,9010001237425,新規,0,2023-08-07,2023-08-07,Ｃｌｏｖｉｓ株式会社,,株式会社,東京都,千代田区,平河町２丁目６番１号平河町ビル７階,,13,101,1020093,,,,,,,2023-08-07,1,,,,,クローヴィス,0
2408,9010003041239,新規,0,2023-08-07,2023-08-07,ＬＥＶＥＣＨＹファンド５号合同会社,,合同会社,東京都,千代田区,紀尾井町３－８第２紀尾井町ビル９０１アクシス綜合会計事務所内,,13,101,1020094,,,,,,,2023-08-07,1,,,,,レベチーファンドゴゴウ,0
2409,9010003041288,新規,0,2023-08-07,2023-08-07,合同会社ＴＡＰ,,合同会社,東京都,中央区,銀座１丁目１２番４号Ｎ＆ＥＢＬＤ．６Ｆ,,13,102,1040061,,,,,,,2023-08-07,1,,,,,タップ,0
2412,9010005037045,新規,0,2023-08-07,2023-08-07,弁護士法人ゆたか,,その他の設立登記法人,東京都,中央区,新富１丁目６番５号,,13,102,1040041,,,,,,,2023-08-07,1,,,,,ユタカ,0
2419,9010401176116,新規,0,2023-08-07,2023-08-07,ＭｕｓｕｂｉＡｉ株式会社,,株式会社,東京都,港区,南青山６丁目７番８号ファーロ南青山７０２号室,,13,103,1070062,,,,,,,2023-08-07,1,,,,,ムスビアイ,0
2420,9010401176132,新規,0,2023-08-07,2023-08-07,インフォウェアシステムズ株式会社,,株式会社,東京都,港区,芝大門１丁目１０番１１号芝大門センタービル１０階,,13,103,1050012,,,,,,,2023-08-07,1,,,,,インフォウェアシステムズ,0
2421,9010401176181,新規,0,2023-08-07,2023-08-07,リンク・トゥー・リンギスト株式会社,,株式会社,東京都,港区,南青山２丁目２番１５号ウィン青山９４２,,13,103,1070062,,,,,,,2023-08-07,1,,,,,リンクトゥーリンギスト,0
2422,9010403030634,新規,0,2023-08-07,2023-08-07,合同会社ＩＥ,,合同会社,東京都,港区,六本木１丁目５番３－１１０５号,,13,103,1060032,,,,,,,2023-08-07,1,,,,,アイイー,0
2427,9010701044682,新規,0,2023-08-07,2023-08-07,ＡＹＲＡ　ＪＡＰＡＮ株式会社,,株式会社,東京都,品川区,西五反田２丁目９番７号ドルミ五反田アンメゾン４０７号,,13,109,1410031,,,,,,,2023-08-07,1,,,,,アイラジャパン,0
2431,9010903008361,新規,0,2023-08-07,2023-08-07,合同会社Ｅｍｍａ　Ｄｉａｒｙ,,合同会社,東京都,世田谷区,中町４丁目１９番３号グランデュール中町１０２,,13,112,1580091,,,,,,,2023-08-07,1,,,,,エマダイアリー,0
2443,9011001156078,新規,0,2023-08-07,2023-08-07,錦貿易株式会社,,株式会社,東京都,渋谷区,恵比寿４丁目２０番３号恵比寿ガーデンプレイスタワー１８階,,13,113,1500013,,,,,,,2023-08-07,1,,,,,ニシキボウエキ,0
2444,9011001156086,新規,0,2023-08-07,2023-08-07,株式会社Ｃｒａｂｃｌｕｂ,,株式会社,東京都,目黒区,駒場１丁目３－７マリオン駒場３０１,,13,110,1530041,,,,,,,2023-08-07,1,,,,,クラブクラブ,0
2445,9011001156103,新規,0,2023-08-07,2023-08-07,株式会社リネウス,,株式会社,東京都,渋谷区,円山町３番６号Ｅ・スペースタワー６Ｆ西,,13,113,1500044,,,,,,,2023-08-07,1,,,,,リネウス,0
2446,9011001156128,新規,0,2023-08-07,2023-08-07,株式会社ＯｐｅｎＥｄ,,株式会社,東京都,渋谷区,渋谷２丁目１９番１５号宮益坂ビルディングザ渋谷レジデンス,,13,113,1500002,,,,,,,2023-08-07,1,,,,,オープンエド,0
2449,9011003017294,新規,0,2023-08-07,2023-08-07,ＲＯＯＴＡＧＥ合同会社,,合同会社,東京都,渋谷区,渋谷２丁目１９番１５号宮益坂ビルディング６０９,,13,113,1500002,,,,,,,2023-08-07,1,,,,,ルーティジ,0
2452,9011101103896,新規,0,2023-08-07,2023-08-07,株式会社Ｍｉｓｓｉｏｎ,,株式会社,東京都,新宿区,西新宿３丁目３番１３号西新宿水間ビル６階,,13,104,1600023,,,,,,,2023-08-07,1,,,,,ミッション,0
2456,9011201024803,新規,0,2023-08-07,2023-08-07,株式会社Ｇｌｏｂａｌコミュニケーション,,株式会社,東京都,中野区,丸山１丁目１５番２０号,,13,114,1650021,,,,,,,2023-08-07,1,,,,,グローバルコミュニケーション,0
2457,9011203004142,新規,0,2023-08-07,2023-08-07,合同会社ＩＳＤＡＣ,,合同会社,東京都,中野区,上高田４丁目２４番３号,,13,114,1640002,,,,,,,2023-08-07,1,,,,,イズダック,0
2462,9011601027018,新規,0,2023-08-07,2023-08-07,株式会社ファーストテック,,株式会社,東京都,練馬区,中村北１丁目２番８－１２０４号,,13,120,1760023,,,,,,,2023-08-07,1,,,,,ファーストテック,0
2465,9012401040838,新規,0,2023-08-07,2023-08-07,株式会社ミックスアップ,,株式会社,東京都,調布市,深大寺元町４丁目２６番地１９,,13,208,1820017,,,,,,,2023-08-07,1,,,,,ミックスアップ,0
2474,9020001152722,新規,0,2023-08-07,2023-08-07,株式会社ソフィアグローバルワークス,,株式会社,神奈川県,横浜市港北区,新横浜２丁目１５番１２号,,14,109,2220033,,,,,,,2023-08-07,1,,,,,ソフィアグローバルワークス,0
2475,9020001152771,新規,0,2023-08-07,2023-08-07,Ｒａｙ　ｆｏｒｃｅ株式会社,,株式会社,神奈川県,横浜市都筑区,牛久保東１丁目２８番２４号,,14,118,2240014,,,,,,,2023-08-07,1,,,,,レイフォース,0
2476,9020001152796,新規,0,2023-08-07,2023-08-07,株式会社ＫＥＳ,,株式会社,神奈川県,横浜市保土ケ谷区,天王町１丁目２３番地１５－６０２号,,14,106,2400003,,,,,,,2023-08-07,1,,,,,ケイイーエス,0
2477,9020001152821,新規,0,2023-08-07,2023-08-07,株式会社光正,,株式会社,神奈川県,横浜市青葉区,美しが丘５丁目２３番地１２,,14,117,2250002,,,,,,,2023-08-07,1,,,,,コウセイ,0
2481,9020003024218,新規,0,2023-08-07,2023-08-07,ＫＯＮＡジャパン合同会社,,合同会社,神奈川県,横浜市都筑区,中川中央１丁目３０番１号プレミアヨコハマ３ＦＢＩＺｃｏｍｆｏｒｔ＃１８,,14,118,2240003,,,,,,,2023-08-07,1,,,,,コナジャパン,0
2482,9020003024300,新規,0,2023-08-07,2023-08-07,合同会社ボールパーク,,合同会社,神奈川県,横浜市旭区,中白根３丁目２６番１０号,,14,112,2410004,,,,,,,2023-08-07,1,,,,,ボールパーク,0
2495,9030005021344,新規,0,2023-08-07,2023-08-07,特定非営利活動法人幸手の家,,その他の設立登記法人,埼玉県,幸手市,大字木立字西田１３１１番１,,11,240,3400123,,,,,,,2023-08-07,1,,,,,サッテノイエ,0
2498,9040001129529,新規,0,2023-08-07,2023-08-07,株式会社豊宗,,株式会社,千葉県,千葉市稲毛区,作草部町７４２番地,,12,103,2630014,,,,,,,2023-08-07,1,,,,,トヨソウ,0
2503,9040003023052,新規,0,2023-08-07,2023-08-07,合同会社ドリームライン３９,,合同会社,千葉県,市川市,幸２丁目１１番１号,,12,203,2720123,,,,,,,2023-08-07,1,,,,,ドリームラインサンキュウ,0
2504,9040003023085,新規,0,2023-08-07,2023-08-07,Ｃａｎｎｅ　Ｔａｓｑｕｅ　Ｊａｐａｎ合同会社,,合同会社,千葉県,柏市,花野井７３７番地１２０,,12,217,2770812,,,,,,,2023-08-07,1,,,,,カネタスケジャパン,0
2512,9050001053249,新規,0,2023-08-07,2023-08-07,株式会社四季龍会,,株式会社,茨城県,筑西市,板橋２３２番地４,,08,227,3080116,,,,,,,2023-08-07,1,,,,,,0
2528,9080401026652,新規,0,2023-08-07,2023-08-07,ＬｉＡｎｎ株式会社,,株式会社,静岡県,磐田市,上本郷１００７番地１７,,22,211,4380822,,,,,,,2023-08-07,1,,,,,リアン,0
2529,9080403004846,新規,0,2023-08-07,2023-08-07,Ｍａｒｉａ　Ｆｅｒｎａｎｄａ　Ｌｉｎｇｅｒｉｅ合同会社,,合同会社,静岡県,湖西市,太田４７０番地の１１,,22,221,4310404,,,,,,,2023-08-07,1,,,,,マリアフェルナンダランジェリー,0
2533,9110003005126,新規,0,2023-08-07,2023-08-07,合同会社アローズ,,合同会社,新潟県,柏崎市,幸町６番４７号,,15,205,9450821,,,,,,,2023-08-07,1,,,,,アローズ,0
2534,9110003005134,新規,0,2023-08-07,2023-08-07,合同会社千福,,合同会社,新潟県,新潟市東区,江南３丁目３番地８,,15,102,9500855,,,,,,,2023-08-07,1,,,,,チフク,0
2539,9120001256835,新規,0,2023-08-07,2023-08-07,株式会社Ｗ‐ＴＲＥＥ,,株式会社,大阪府,大阪市北区,天神橋２丁目５番２５号,,27,127,5300041,,,,,,,2023-08-07,1,,,,,ダブルトゥリー,0
2540,9120001256926,新規,0,2023-08-07,2023-08-07,株式会社ＲＴＳ,,株式会社,大阪府,大阪市北区,天満２丁目１番２７号天満橋永ビル５階,,27,127,5300043,,,,,,,2023-08-07,1,,,,,アールティエス,0
2541,9120001256967,新規,0,2023-08-07,2023-08-07,トリニティ株式会社,,株式会社,大阪府,大阪市港区,磯路２丁目１６番８号モリハイツ１０１,,27,107,5520003,,,,,,,2023-08-07,1,,,,,トリニティ,0
2542,9120001256991,新規,0,2023-08-07,2023-08-07,株式会社リアルネット,,株式会社,大阪府,大阪市中央区,谷町２丁目５番４号,,27,128,5400012,,,,,,,2023-08-07,1,,,,,リアルネット,0
2543,9120001257008,新規,0,2023-08-07,2023-08-07,株式会社前田防災,,株式会社,大阪府,大阪市東住吉区,西今川４丁目２０番１号,,27,121,5460042,,,,,,,2023-08-07,1,,,,,マエダボウサイ,0
2544,9120001257016,新規,0,2023-08-07,2023-08-07,よしおメディカルサービス株式会社,,株式会社,大阪府,大阪市天王寺区,北山町５番１７号,,27,109,5430035,,,,,,,2023-08-07,1,,,,,ヨシオメディカルサービス,0
2545,9120001257065,新規,0,2023-08-07,2023-08-07,株式会社みみらぼ,,株式会社,大阪府,大阪市住吉区,遠里小野７丁目３番２１号,,27,120,5580032,,,,,,,2023-08-07,1,,,,,ミミラボ,0
2546,9120003024645,新規,0,2023-08-07,2023-08-07,ＡＩＭ合同会社,,合同会社,大阪府,大阪市北区,中津３丁目２９番３８－５０４号,,27,127,5310071,,,,,,,2023-08-07,1,,,,,エイム,0
2547,9120003024653,新規,0,2023-08-07,2023-08-07,合同会社グレイド,,合同会社,大阪府,大阪市浪速区,日本橋３丁目３番７－１２０５号,,27,111,5560005,,,,,,,2023-08-07,1,,,,,グレイド,0
2553,9120901047887,新規,0,2023-08-07,2023-08-07,ＬＯＹＡＬ株式会社,,株式会社,大阪府,豊中市,曽根東町６丁目１２番１３－６０６号,,27,203,5610802,,,,,,,2023-08-07,1,,,,,ロイヤル,0
2564,9130001074848,新規,0,2023-08-07,2023-08-07,株式会社フルバース,,株式会社,京都府,京都市東山区,大黒町１６４番地イーグルコート三条京阪２１０,,26,105,6050000,,,,,,,2023-08-07,1,,,,,フルバース,0
2565,9130001074906,新規,0,2023-08-07,2023-08-07,株式会社現代の寺子屋,,株式会社,京都府,京都市伏見区,桃山町金森出雲３番地２８,,26,109,6128088,,,,,,,2023-08-07,1,,,,,ゲンダイノテラコヤ,0
2572,9140001131078,新規,0,2023-08-07,2023-08-07,ＲＥＤ　ＨＯＴ　ＦＡＣＴＯＲＹ株式会社,,株式会社,兵庫県,姫路市,下手野１丁目８番１－１号,,28,201,6700063,,,,,,,2023-08-07,1,,,,,レッドホットファクトリー,0
2577,9150005009501,新規,0,2023-08-07,2023-08-07,一般社団法人社会福祉士事務所Ｂｒｉｇｈｔ,,その他の設立登記法人,奈良県,生駒市,有里町２９番地８,,29,209,6300233,,,,,,,2023-08-07,1,,,,,シャカイフクシシジムショブライト,0
2579,9160001025245,新規,0,2023-08-07,2023-08-07,株式会社ＫＡＣＨＩ,,株式会社,滋賀県,彦根市,東沼波町１１８２－５４,,25,202,5220027,,,,,,,2023-08-07,1,,,,,カチ,0
2590,9180001157383,新規,0,2023-08-07,2023-08-07,博遠株式会社,,株式会社,愛知県,名古屋市中区,錦２丁目１６－４,,23,106,4600003,,,,,,,2023-08-07,1,,,,,ボウエン,0
2591,9180001157417,新規,0,2023-08-07,2023-08-07,株式会社宝丸,,株式会社,愛知県,名古屋市中区,丸の内３丁目７番９号チサンマンション丸の内第二１１階,,23,106,4600002,,,,,,,2023-08-07,1,,,,,タカラマル,0
2592,9180001157458,新規,0,2023-08-07,2023-08-07,株式会社日本アシスト,,株式会社,愛知県,名古屋市守山区,向台１丁目１１０６Ｐｒｉｍｉｅｒｅ４Ｄ,,23,113,4630036,,,,,,,2023-08-07,1,,,,,ニホンアシスト,0
2598,9180003025588,新規,0,2023-08-07,2023-08-07,合同会社リアン,,合同会社,愛知県,あま市,本郷柿ノ木１１番地,,23,237,4901116,,,,,,,2023-08-07,1,,,,,リアン,0
2601,9180301037624,新規,0,2023-08-07,2023-08-07,株式会社大三元,,株式会社,愛知県,豊田市,清水町１丁目２９番地３,,23,211,4710843,,,,,,,2023-08-07,1,,,,,ダイサンゲン,0
2605,9200001041576,新規,0,2023-08-07,2023-08-07,株式会社創京堂,,株式会社,岐阜県,本巣郡北方町,北方２３１４番地２,,21,421,5010431,,,,,,,2023-08-07,1,,,,,ソウケイドウ,0
2606,9200001041584,新規,0,2023-08-07,2023-08-07,Ｔ，Ｉ，Ｅ株式会社,,株式会社,岐阜県,瑞穂市,別府１７４０番地１,,21,216,5010222,,,,,,,2023-08-07,1,,,,,ティアイイー,0
2607,9200003006040,新規,0,2023-08-07,2023-08-07,合同会社樹林堂,,合同会社,岐阜県,揖斐郡揖斐川町,市場１５４１番地２,,21,401,5010627,,,,,,,2023-08-07,1,,,,,キリンドウ,0
2619,9240001061926,新規,0,2023-08-07,2023-08-07,株式会社ハズアットビリーフ,,株式会社,広島県,廿日市市,下平良１丁目１３番５－３０７号,,34,213,7380023,,,,,,,2023-08-07,1,,,,,ハズアットビリーフ,0
2623,9260001038179,新規,0,2023-08-07,2023-08-07,株式会社ｆｕｕａ,,株式会社,岡山県,岡山市中区,江崎４９６番地６,,33,102,7028005,,,,,,,2023-08-07,1,,,,,フーア,0
2624,9260001038212,新規,0,2023-08-07,2023-08-07,株式会社則枝塗装,,株式会社,岡山県,赤磐市,桜が丘東１丁目１番地１９,,33,213,7090721,,,,,,,2023-08-07,1,,,,,ノリエダトソウ,0
2625,9260003004385,新規,0,2023-08-07,2023-08-07,合同会社倉敷光作所,,合同会社,岡山県,倉敷市,羽島６３０－２,,33,202,7100043,,,,,,,2023-08-07,1,,,,,クラシキコウサクショ,0
2628,9280001009005,新規,0,2023-08-07,2023-08-07,株式会社ダイヤモンドグループ,,株式会社,島根県,出雲市,高岡町６４４番地２,,32,203,6930066,,,,,,,2023-08-07,1,,,,,ダイヤモンドグループ,0
2630,9280005007566,新規,0,2023-08-07,2023-08-07,一般社団法人学びＤｅｓｉｇｎ,,その他の設立登記法人,島根県,松江市,宍道町宍道１４４１番地１,,32,201,6990401,,,,,,,2023-08-07,1,,,,,マナビデザイン,0
2633,9290001102543,新規,0,2023-08-07,2023-08-07,株式会社紀伸,,株式会社,福岡県,福岡市早良区,西新７丁目１番５－５０２号,,40,137,8140002,,,,,,,2023-08-07,1,,,,,キシン,0
2640,9300001013417,新規,0,2023-08-07,2023-08-07,株式会社エムオーエム,,株式会社,佐賀県,佐賀市,鍋島町大字森田９０２番地,,41,201,8490936,,,,,,,2023-08-07,1,,,,,エムオーエム,0
2641,9300003002005,新規,0,2023-08-07,2023-08-07,合同会社ＭＡＲＳ,,合同会社,佐賀県,佐賀市,兵庫北１丁目２１番２２－２０３号,,41,201,8490919,,,,,,,2023-08-07,1,,,,,マーズ,0
2647,9320001019916,新規,0,2023-08-07,2023-08-07,株式会社エスペランサグループホールディングス,,株式会社,大分県,大分市,大字田原９６番地（エスポワールわさだ弐番館１０３）,,44,201,8701154,,,,,,,2023-08-07,1,,,,,エスペランサグループホールディングス,0
2648,9320001019940,新規,0,2023-08-07,2023-08-07,株式会社スリースマイル,,株式会社,大分県,大分市,金池南１丁目１－１９,,44,201,8700839,,,,,,,2023-08-07,1,,,,,スリースマイル,0
2656,9370001050255,新規,0,2023-08-07,2023-08-07,株式会社沼田,,株式会社,宮城県,仙台市泉区,南光台２丁目１５番１７号,,04,105,9818003,,,,,,,2023-08-07,1,,,,,ヌマタ,0
2657,9370003006230,新規,0,2023-08-07,2023-08-07,遠藤技研合同会社,,合同会社,宮城県,仙台市宮城野区,岩切字観音前１４番地７号サニーセトル弐号館２０３,,04,102,9830821,,,,,,,2023-08-07,1,,,,,エンドウギケン,0
2660,9380001033894,新規,0,2023-08-07,2023-08-07,株式会社ばっくほーむ,,株式会社,福島県,福島市,佐倉下字宿２１番地,,07,201,9602154,,,,,,,2023-08-07,1,,,,,バックホーム,0
2662,9380003005529,新規,0,2023-08-07,2023-08-07,合同会社塩姫の宿観山,,合同会社,福島県,耶麻郡北塩原村,大字大塩字中島道北５１１１番地,,07,402,9660402,,,,,,,2023-08-07,1,,,,,シオヒメノヤドカンザン,0
2663,9410001013562,新規,0,2023-08-07,2023-08-07,株式会社伊藤工業,,株式会社,秋田県,潟上市,天王字二田７１番地,,05,211,0100201,,,,,,,2023-08-07,1,,,,,イトウコウギョウ,0
2668,9430001089642,新規,0,2023-08-07,2023-08-07,株式会社ライフマーカー,,株式会社,北海道,札幌市手稲区,新発寒二条３丁目１番５号２階,,01,109,0060802,,,,,,,2023-08-07,1,,,,,ライフマーカー,0
2670,9430003015340,新規,0,2023-08-07,2023-08-07,合同会社タキカワ飛行機,,合同会社,北海道,滝川市,中島町１４８‐２,,01,225,0730035,,,,,,,2023-08-07,1,,,,,タキカワヒコウキ,0
2672,9450001014061,新規,0,2023-08-07,2023-08-07,大順株式会社,,株式会社,北海道,上川郡東川町,北町４丁目５番５号,,01,458,0711426,,,,,,,2023-08-07,1,,,,,ダイジュン,0
2679,9500001025111,新規,0,2023-08-07,2023-08-07,株式会社Ｋ,,株式会社,愛媛県,松山市,西長戸町乙１０８３番地５,,38,201,7918017,,,,,,,2023-08-07,1,,,,,ケイ,0
2680,9700150113720,新規,0,2023-08-07,2023-08-07,Ｎａｎｔｏｎｇ　Ｃｈｕｈａｉｊｉ　Ｅ－ｃｏｍｍｅｒｃｅ　Ｃｏ．，Ｌｔｄ,,外国会社等,,,,,,,,Ｒｏｏｍ　７０１，Ｂｕｉｌｄｉｎｇ　２９，Ｉｎｔｅｒｎａｔｉｏｎａｌ　Ｃｈｅｃｈｅｎｇ，Ｈａｉｍｅｎ　Ｓｔｒｅｅｔ　Ｎａｎｔｏｎｇ　Ｊｉａｎｇｓｕ　２２６１００ＣＮ,,,,,,2023-08-07,1,,,,,ナントンチュハイジディエンジシャンウヨウシエンゴンシ,0
2681,9700150118810,新規,0,2023-08-07,2023-08-07,小林市土地改良区,,その他,宮崎県,小林市,堤１０８番地１,,45,205,8860003,,,,,,,2023-08-07,1,,,,,コバヤシシトチカイリヨウク,0
2682,9700150118819,新規,0,2023-08-07,2023-08-07,Ｓｈｅｎｚｈｅｎ　Ｍｉｙａｎｇ　Ｅｌｅｃｔｒｏｎｉｃ　Ｃｏｍｍｅｒｃｅ　Ｃｏ．，Ｌｔｄ,,外国会社等,,,,,,,,Ｈｕａｌｉａｎ　Ｃｏｍｍｕｎｉｔｙ　Ｈｅｂｅｉ　Ｉｎｄｕｓｔｒｉａｌ　Ｚｏｎｅ　ｂｉｇ　ｄａｔａ　ｒｅｓｅａｒｃｈ　ａｎｄ　ｄｅｖｅｌｏｐｍｅｎｔ　ｃｅｎｔｅｒ　ｃｏｍｐｌｅｘ　Ｂｕｉｌｄｉｎｇ　５０５　Ｓｈｅｎｚｈｅｎ　Ｌｏｎｇｈｕａ　Ｓｔｒｅｅｔ　Ｇｕａｎｇｄｏｎｇ　Ｐｒｏｖｉｎｃｅ　５１８１０９　ＣＮ,,,,,,2023-08-07,1,,,,,シェンジェンシーミーヤンディエンズーシャンウーヨウシエンゴンスー,0
2683,9700150118827,新規,0,2023-08-07,2023-08-07,ｓｈｕｎｄｅｑｕｘｉｎｙａｏｔｉａｏｇｕａｎｇｇａｏｃｅｈｕａｙｏｕｘｉａｎｇｏｎｇｓｉ,,外国会社等,,,,,,,,ｓｈｕｎｄｅｑｕｄａｌｉａｎｇｊｉｅｄａｏｘｉｎｇｕｉｂｅｉｌｕ２２１ｈａｏｊｉｎｇｕａｎｇｅ７ｈａｏｐｕｚｈｉｅｒ　ｆｏｓｈａｎｓｈｉ　ｇｕａｎｇｄｏｎｇｓｈｅｎｇ　５２８３９９　ＣＮ,,,,,,2023-08-07,1,,,,,フォーシャンシシュンダチュイシンヤオティェングァンガオツァホアヨウシェンゴンスー,0
2684,9700150118835,新規,0,2023-08-07,2023-08-07,Ｓｈｉ　Ｊｉ　Ｍｅｉ　Ｓｈａｎｇ（Ｇｕａｎｇｚｈｏｕ）Ｃｏｓｍｅｔｉｃｓ　Ｃｏ．Ｌｔｄ,,外国会社等,,,,,,,,Ｒｏｏｍ　２５０２（Ｐａｒｔ：Ｓｅｌｆ－ｅｄｉｔｅｄ　１）（Ｏｆｆｉｃｅ　ｏｎｌｙ），Ｎｏ．８３　Ｐａｚｈｏｕ　Ａｖｅｎｕｅ，Ｈａｉｚｈｕ　Ｄｉｓｔｒｉｃｔ，Ｇｕａｎｇｚｈｏｕ，Ｇｕａｎｇｄｏｎｇ　Ｐｒｏｖｉｎｃｅ，５１００００　ＣＮ,,,,,,2023-08-07,1,,,,,シジメイシャングアンヂョウコズメティックスカンパニーリミテッド,0
2685,9700150118843,新規,0,2023-08-07,2023-08-07,Ｆｏｓｈａｎ　ａｏｌｏｎｇ　ｑｉｃｈｅｐｅｉｊｉａｎｚｈｉｚｈａｏ　ｙｏｕｘｉａｎｇｏｎｇｓｉ,,外国会社等,,,,,,,,Ｆｏｓｈａｎｓｈｉｎａｎｈａｉｑｕｌｉｓｈｕｉｚｈｅｎｈｅｃｕｎｓｈｅｑｕｓｈｉｒｏｎｇｄａｄａｏ８ｈａｏｓｉｌｏｕ,,,,,,2023-08-07,1,,,,,フツザンアオロンチチェペイジャンジジァオユウゲンコウシ,0
2686,9700150118851,新規,0,2023-08-07,2023-08-07,Ｓｈｅｎｚｈｅｎｓｈｉ　ｎｕｏｋｅ　ｃｈｕａｎｇｘｉｎｋｅｊｉ　ｙｏｕｘｉａｎｇｏｎｇｓｉ,,外国会社等,,,,,,,,ＢａｏａｎｑｕｘｉｘｉａｎｇｊｉｅｄａｏＧｕｓｈｕｓｈｅｑｕｃｈａｓｈｕｘｉｎｃｕｎｙｉｘｉａｎｇ１０ｈａｏ　ｔａｎｇｘｉｈｕａｙｕａｎ３２６　Ｓｈｅｎｚｈｅｎ　Ｇｕａｎｇｄｏｎｇ　ＣＮ,,,,,,2023-08-07,1,,,,,シンセンシノウクソウシンカギユウゲンコウシ,0
