sequenceNumber,corporateNumber,process,correct,updateDate,changeDate,name,nameImageId,kind,prefectureName,cityName,streetNumber,addressImageId,prefectureCode,cityCode,postCode,addressOutside,addressOutsideImageId,closeDate,closeCause,successorCorporateNumber,changeCause,assignmentDate,latest,enName,enPrefectureName,enCityName,enAddressOutside,furigana,hihyoji
7,1010003036618,新規,0,2021-12-24,2021-12-24,合同会社グリーンパーク長崎,,合同会社,東京都,千代田区,一ツ橋２丁目６番３号アクシスインベストメントアドバイザーズ株式会社内,,13,101,1010003,,,,,,,2021-12-24,1,,,,,グリーンパークナガサキ,0
11,1010103001835,新規,0,2021-12-24,2021-12-24,ＹＡＮＫＯ　ＤＥＳＩＧＮ合同会社,,合同会社,東京都,八王子市,横山町１２番８号ソエダビル４階,,13,201,1920081,,,,,,,2021-12-24,1,,,,,ヤンコーデザイン,0
22,1010401164607,新規,0,2021-12-24,2021-12-24,ＦＯＣＵＳ　ＯＮＥ株式会社,,株式会社,東京都,港区,港南２丁目１５－１品川インターシティＡ棟２８階,,13,103,1080075,,,,,,,2021-12-24,1,,,,,フォーカスワン,0
24,1010403026788,新規,0,2021-12-24,2021-12-24,合同会社Ｔｒｕｅ　Ｃｏｌｏｒｓ,,合同会社,東京都,港区,南青山２丁目２番１５号,,13,103,1070062,,,,,,,2021-12-24,1,,,,,トゥルーカラーズ,0
29,1010501048255,新規,0,2021-12-24,2021-12-24,株式会社ＩＰＲＥＸ,,株式会社,東京都,台東区,竜泉１丁目２番３号－１２０４,,13,106,1100012,,,,,,,2021-12-24,1,,,,,アイプレックス,0
30,1010501048263,新規,0,2021-12-24,2021-12-24,成田製薬株式会社,,株式会社,東京都,台東区,西浅草２丁目８番２号,,13,106,1110035,,,,,,,2021-12-24,1,,,,,ナリタセイヤク,0
32,1010601060424,新規,0,2021-12-24,2021-12-24,株式会社ぽんぽんぽん,,株式会社,東京都,江東区,富岡１丁目４番８号,,13,108,1350047,,,,,,,2021-12-24,1,,,,,ポンポンポン,0
33,1010603009312,新規,0,2021-12-24,2021-12-24,高野合同会社,,合同会社,東京都,江東区,枝川３丁目９－５、７０４号,,13,108,1350051,,,,,,,2021-12-24,1,,,,,コウノ,0
40,1010901050059,新規,0,2021-12-24,2021-12-24,株式会社ｙａｎａ,,株式会社,東京都,世田谷区,砧４丁目１０番１８－４１０号,,13,112,1570073,,,,,,,2021-12-24,1,,,,,ヤナ,0
41,1010901050067,新規,0,2021-12-24,2021-12-24,Ｍｏｖａｌ株式会社,,株式会社,東京都,世田谷区,玉川４丁目４番９－１０１号,,13,112,1580094,,,,,,,2021-12-24,1,,,,,ムーバル,0
50,1011001144742,新規,0,2021-12-24,2021-12-24,株式会社キャドプラス,,株式会社,東京都,渋谷区,代々木２丁目２１番１０号,,13,113,1510053,,,,,,,2021-12-24,1,,,,,キャドプラス,0
54,1011101097312,新規,0,2021-12-24,2021-12-24,株式会社みさごデザイン,,株式会社,東京都,新宿区,新宿５丁目１８番２０号ルックハイツ新宿８０３号,,13,104,1600022,,,,,,,2021-12-24,1,,,,,ミサゴデザイン,0
57,1011301027449,新規,0,2021-12-24,2021-12-24,株式会社ジェイワンズ,,株式会社,東京都,杉並区,西荻南２丁目２４番７号,,13,115,1670053,,,,,,,2021-12-24,1,,,,,ジェイワンズ,0
58,1011303004256,新規,0,2021-12-24,2021-12-24,合同会社リアルエステートゆり,,合同会社,東京都,杉並区,南荻窪３丁目２３番２号,,13,115,1670052,,,,,,,2021-12-24,1,,,,,リアルエステートユリ,0
62,1011603003478,新規,0,2021-12-24,2021-12-24,合同会社昇華尊塾,,合同会社,東京都,練馬区,向山４丁目９番３２号,,13,120,1760022,,,,,,,2021-12-24,1,,,,,ショウカソンジュク,0
65,1011701024871,新規,0,2021-12-24,2021-12-24,株式会社ＭＹＰ,,株式会社,東京都,江戸川区,北葛西４丁目１１番１５－３０９号,,13,123,1340081,,,,,,,2021-12-24,1,,,,,エムワイピー,0
68,1011801040100,新規,0,2021-12-24,2021-12-24,株式会社グローバルスタイル,,株式会社,東京都,足立区,関原１丁目４番１１号,,13,121,1230852,,,,,,,2021-12-24,1,,,,,グローバルスタイル,0
69,1011803004904,新規,0,2021-12-24,2021-12-24,合同会社Ｓｔｏｎｅ　ｉｎｔｅｃｈ,,合同会社,東京都,足立区,西保木間２丁目２番３３号,,13,121,1210812,,,,,,,2021-12-24,1,,,,,ストーンインテック,0
72,1012701016834,新規,0,2021-12-24,2021-12-24,株式会社ＬｅａＰＲ,,株式会社,東京都,東久留米市,東本町１６番２号カーサブランカ久仁４０１,,13,222,2030014,,,,,,,2021-12-24,1,,,,,リープル,0
74,1012801021288,新規,0,2021-12-24,2021-12-24,株式会社ログカンパニー,,株式会社,東京都,日野市,百草４２７番地の１,,13,212,1910033,,,,,,,2021-12-24,1,,,,,ログカンパニー,0
84,1020001144363,新規,0,2021-12-24,2021-12-24,株式会社ＰＯＰ,,株式会社,神奈川県,横浜市南区,新川町５丁目２７番,,14,105,2320027,,,,,,,2021-12-24,1,,,,,ポップ,0
85,1020001144470,新規,0,2021-12-24,2021-12-24,株式会社とと家,,株式会社,神奈川県,横浜市保土ケ谷区,天王町１丁目３３－１,,14,106,2400003,,,,,,,2021-12-24,1,,,,,トトヤ,0
89,1021001074815,新規,0,2021-12-24,2021-12-24,株式会社石川事務所,,株式会社,神奈川県,大和市,上和田６１３番地１３,,14,213,2420014,,,,,,,2021-12-24,1,,,,,イシカワジムショ,0
96,1030001145996,新規,0,2021-12-24,2021-12-24,株式会社クドウ工務店,,株式会社,埼玉県,越谷市,レイクタウン１丁目３４番地９ラ・グラシューズ１０２号,,11,222,3430828,,,,,,,2021-12-24,1,,,,,クドウコウムテン,0
97,1030001146004,新規,0,2021-12-24,2021-12-24,株式会社ｔ．ｓｔｙｌｅ,,株式会社,埼玉県,児玉郡美里町,大字木部３１８番地２,,11,381,3670112,,,,,,,2021-12-24,1,,,,,ティースタイル,0
98,1030001146012,新規,0,2021-12-24,2021-12-24,ａｎｄ　ＩＲＡＢＯＫ株式会社,,株式会社,埼玉県,さいたま市南区,鹿手袋３丁目２２番１号,,11,108,3360031,,,,,,,2021-12-24,1,,,,,アンドアイラボーク,0
99,1030001146029,新規,0,2021-12-24,2021-12-24,株式会社ＣＨＨＥＴＲＩ　ＧＲＯＵＰ,,株式会社,埼玉県,上尾市,緑丘３丁目３番１１号Ｐ・Ａ・Ｐ・Ａ上尾ショッピングアヴェニュー１階,,11,219,3620015,,,,,,,2021-12-24,1,,,,,チェットリグループ,0
102,1030003018548,新規,0,2021-12-24,2021-12-24,合同会社ＳＫ,,合同会社,埼玉県,入間郡毛呂山町,大字小田谷３２７番地１－２０１,,11,326,3500446,,,,,,,2021-12-24,1,,,,,エスケー,0
105,1040001121476,新規,0,2021-12-24,2021-12-24,白日株式会社,,株式会社,千葉県,流山市,江戸川台東４丁目２９９－１ベルビア江戸川台第７－２０１,,12,220,2700111,,,,,,,2021-12-24,1,,,,,ハクジツ,0
106,1040001121526,新規,0,2021-12-24,2021-12-24,ＤＡＷＮ　ｔｅｃｈｎｏｌｏｇｉｅｓ株式会社,,株式会社,千葉県,市川市,原木１丁目３－２５－３０８,,12,203,2720004,,,,,,,2021-12-24,1,,,,,ドーンテクノロジーズ,0
112,1040005021474,新規,0,2021-12-24,2021-12-24,一般社団法人ＩＴ錠前ネットワーク,,その他の設立登記法人,千葉県,柏市,豊四季２６９番地２１,,12,217,2770863,,,,,,,2021-12-24,1,,,,,アイティージョウマエネットワーク,0
115,1050003006286,新規,0,2021-12-24,2021-12-24,Ｃｈｅｎａｙａ　Ｉｎｔｅｒｎａｔｉｏｎａｌ合同会社,,合同会社,茨城県,土浦市,中高津２丁目６－８２－１,,08,203,3000815,,,,,,,2021-12-24,1,,,,,チェナヤインターナショナル,0
118,1060001034395,新規,0,2021-12-24,2021-12-24,株式会社秋澤ファーム,,株式会社,栃木県,佐野市,山越町８８番地,,09,204,3270318,,,,,,,2021-12-24,1,,,,,アキサワファーム,0
123,1080001024659,新規,0,2021-12-24,2021-12-24,令和エンジニアリング株式会社,,株式会社,静岡県,藤枝市,大東町７２番地の３,,22,214,4260044,,,,,,,2021-12-24,1,,,,,レイワエンジニアリング,0
127,1100003006330,新規,0,2021-12-24,2021-12-24,シグマリンクス合同会社,,合同会社,長野県,長野市,小島田町５５５番地６０,,20,201,3812212,,,,,,,2021-12-24,1,,,,,シグマリンクス,0
128,1110001036279,新規,0,2021-12-24,2021-12-24,猪浦物産株式会社,,株式会社,新潟県,長岡市,坂之上町３丁目１番地１１,,15,202,9400065,,,,,,,2021-12-24,1,,,,,イノウラブッサン,0
137,1120001242611,新規,0,2021-12-24,2021-12-24,Ａ　Ｋｎｏｔｓ株式会社,,株式会社,大阪府,大阪市西区,南堀江１丁目１６番１１号ＲＥ－００８－６－Ｅ,,27,106,5500015,,,,,,,2021-12-24,1,,,,,エーノッツ,0
138,1120001242644,新規,0,2021-12-24,2021-12-24,株式会社ハウストップ,,株式会社,大阪府,寝屋川市,北大利町１７番２０号,,27,215,5720032,,,,,,,2021-12-24,1,,,,,ハウストップ,0
173,1140001124122,新規,0,2021-12-24,2021-12-24,株式会社ブライトサービスジャパン,,株式会社,兵庫県,加古川市,平荘町里８９８－４,,28,210,6751232,,,,,,,2021-12-24,1,,,,,ブライトサービスジャパン,0
174,1140001124312,新規,0,2021-12-24,2021-12-24,株式会社タケテック,,株式会社,兵庫県,尼崎市,玄番南之町５番地,,28,202,6600873,,,,,,,2021-12-24,1,,,,,タケテック,0
175,1140001124337,新規,0,2021-12-24,2021-12-24,株式会社きずな,,株式会社,兵庫県,神戸市東灘区,本庄町３丁目７番２２号,,28,101,6580012,,,,,,,2021-12-24,1,,,,,キズナ,0
193,1180001149248,新規,0,2021-12-24,2021-12-24,株式会社ｒｅｃｏｒｄｓ,,株式会社,愛知県,名古屋市中区,丸の内３丁目１６番１９号三弘ビル２Ｆ,,23,106,4600002,,,,,,,2021-12-24,1,,,,,レコーズ,0
194,1180001149272,新規,0,2021-12-24,2021-12-24,株式会社ケーエー企画,,株式会社,愛知県,名古屋市緑区,上旭１丁目７１２番地の２,,23,114,4580016,,,,,,,2021-12-24,1,,,,,ケーエーキカク,0
195,1180003023319,新規,0,2021-12-24,2021-12-24,合同会社ｐｏｗｅｒｓ,,合同会社,愛知県,北名古屋市,鹿田９６番地３プランドール２０１号,,23,234,4810004,,,,,,,2021-12-24,1,,,,,パワーズ,0
200,1190001028962,新規,0,2021-12-24,2021-12-24,コバルト株式会社,,株式会社,三重県,三重郡川越町,大字当新田１０８番地,,24,344,5108111,,,,,,,2021-12-24,1,,,,,コバルト,0
201,1190003003856,新規,0,2021-12-24,2021-12-24,合同会社ギネスレコード,,合同会社,三重県,四日市市,大矢知町１１１２番地,,24,202,5108034,,,,,,,2021-12-24,1,,,,,ギネスレコード,0
204,1200001039561,新規,0,2021-12-24,2021-12-24,株式会社Ｎ．Ｙ　ｓｔｏｒｙ,,株式会社,岐阜県,大垣市,上面２丁目５４番地３,,21,202,5030817,,,,,,,2021-12-24,1,,,,,エヌワイストーリー,0
207,1200003005405,新規,0,2021-12-24,2021-12-24,合同会社インダワークス,,合同会社,岐阜県,各務原市,桜木町１丁目６９番地,,21,213,5090127,,,,,,,2021-12-24,1,,,,,インダワークス,0
209,1220001024611,新規,0,2021-12-24,2021-12-24,株式会社ＯＮ　ＦＬＥＥＫ,,株式会社,石川県,金沢市,彦三町１丁目２番１号アソルティ金沢彦三１Ｆ,,17,201,9200901,,,,,,,2021-12-24,1,,,,,オンフリーク,0
214,1220005008619,新規,0,2021-12-24,2021-12-24,社会福祉法人ＮＧＵ福祉会,,その他の設立登記法人,石川県,河北郡内灘町,白帆台２丁目１番地,,17,365,9200269,,,,,,,2021-12-24,1,,,,,エヌジーユーフクシカイ,0
215,1230001019148,新規,0,2021-12-24,2021-12-24,株式会社Ｒｅ．ｍｅｍｂｅｒＺ,,株式会社,富山県,富山市,中川原２８１番地,,16,201,9398015,,,,,,,2021-12-24,1,,,,,リメンバーズ,0
217,1230005009186,新規,0,2021-12-24,2021-12-24,特定非営利活動法人山田りんご体験農園,,その他の設立登記法人,富山県,富山市,山田今山田１９３４番地,,16,201,9302125,,,,,,,2021-12-24,1,,,,,,0
219,1240001059085,新規,0,2021-12-24,2021-12-24,株式会社ｅｖｅｒ　ｃｏｕｒｔ,,株式会社,広島県,広島市中区,幟町１２番９号幟ビル６０３,,34,101,7300016,,,,,,,2021-12-24,1,,,,,エバーコート,0
229,1250003002959,新規,0,2021-12-24,2021-12-24,セカンドステージリノベーション合同会社,,合同会社,山口県,防府市,大字江泊１０１１６番地の１９,,35,206,7470014,,,,,,,2021-12-24,1,,,,,セカンドステージリノベーション,0
230,1250003002967,新規,0,2021-12-24,2021-12-24,合同会社ＳＴＡＮＤＦＩＲＭ,,合同会社,山口県,周南市,楠木１丁目８－１,,35,215,7450831,,,,,,,2021-12-24,1,,,,,スタンドファーム,0
232,1260001036339,新規,0,2021-12-24,2021-12-24,株式会社ＮＡＭＢＡ　ＢＡＫＥＲＹ,,株式会社,岡山県,総社市,駅南２丁目３４番地１,,33,208,7191137,,,,,,,2021-12-24,1,,,,,ナンバベーカリー,0
240,1290001095811,新規,0,2021-12-24,2021-12-24,株式会社ＢＡＳＥＫＩＴＣＨＥＮ,,株式会社,福岡県,福岡市中央区,薬院４丁目７番１１号モンテスパツィオ薬院大通２０２,,40,133,8100022,,,,,,,2021-12-24,1,,,,,ベースキッチン,0
248,1320001018801,新規,0,2021-12-24,2021-12-24,株式会社スムプラ,,株式会社,大分県,大分市,大字羽田７８９番地の５,,44,201,8700942,,,,,,,2021-12-24,1,,,,,スムプラ,0
251,1330001029293,新規,0,2021-12-24,2021-12-24,株式会社テンダー,,株式会社,熊本県,宇城市,松橋町西下郷２０７番地,,43,213,8690534,,,,,,,2021-12-24,1,,,,,テンダー,0
255,1340001024351,新規,0,2021-12-24,2021-12-24,株式会社いぶすきエコクリーン,,株式会社,鹿児島県,指宿市,十二町２２０２番地１,,46,210,8910403,,,,,,,2021-12-24,1,,,,,イブスキエコクリーン,0
257,1340003003659,新規,0,2021-12-24,2021-12-24,合同会社Ｔｗｉｎｋｌｅ‐輝き,,合同会社,鹿児島県,出水市,下鯖町１７０３番地,,46,208,8990123,,,,,,,2021-12-24,1,,,,,トゥインクルカガヤキ,0
262,1370001047985,新規,0,2021-12-24,2021-12-24,株式会社ＣａｒＭｅ,,株式会社,宮城県,加美郡加美町,字矢越３４１番地３,,04,445,9814265,,,,,,,2021-12-24,1,,,,,カーミー,0
263,1370001047993,新規,0,2021-12-24,2021-12-24,株式会社Ｌｉｂｅｒａ　Ｗｏｒｋｓ,,株式会社,宮城県,仙台市青葉区,本町１丁目５番２８号カーニープレイス仙台駅前通６０３号室,,04,101,9800014,,,,,,,2021-12-24,1,,,,,リベラワークス,0
272,1390001016724,新規,0,2021-12-24,2021-12-24,ダブルインフィニティ株式会社,,株式会社,山形県,山形市,桜田東２丁目３番８‐５号キラリ☆ドリームアカデミー＃２,,06,201,9902323,,,,,,,2021-12-24,1,,,,,ダブルインフィニティ,0
278,1430001085657,新規,0,2021-12-24,2021-12-24,ＫＩＴＡＫＡＲＡホールディングス株式会社,,株式会社,北海道,札幌市中央区,北五条西１０丁目１３番地福長ビル１階,,01,101,0600005,,,,,,,2021-12-24,1,,,,,キタカラホールディングス,0
284,1430003013475,新規,0,2021-12-24,2021-12-24,ａｔｅｌｉｅｒ　ｈｉｐｐｏ合同会社,,合同会社,北海道,札幌市中央区,北四条西２０丁目１番２１号,,01,101,0640824,,,,,,,2021-12-24,1,,,,,アトリエヒッポ,0
286,1430005014348,新規,0,2021-12-24,2021-12-24,一般社団法人アイヌ力,,その他の設立登記法人,北海道,白老郡白老町,東町３丁目３番４号,,01,578,0590904,,,,,,,2021-12-24,1,,,,,アイヌヂカラ,0
294,1500005008441,新規,0,2021-12-24,2021-12-24,行政書士法人えひめ行政手続サポート事務所,,その他の設立登記法人,愛媛県,松山市,森松町１０３２番地１,,38,201,7911113,,,,,,,2021-12-24,1,,,,,エヒメギョウセイテツヅキサポートジムショ,0
305,2010001223489,新規,0,2021-12-24,2021-12-24,株式会社フェニックス,,株式会社,東京都,中央区,晴海３丁目１３番１－３３０２号,,13,102,1040053,,,,,,,2021-12-24,1,,,,,フェニックス,0
306,2010001223506,新規,0,2021-12-24,2021-12-24,株式会社ＳＥｍａｐｓ,,株式会社,東京都,千代田区,麹町６丁目２番６号,,13,101,1020083,,,,,,,2021-12-24,1,,,,,エスイーマップス,0
318,2010401164606,新規,0,2021-12-24,2021-12-24,株式会社Ｖｉｂｒａｃｉｏｎ．,,株式会社,東京都,港区,西麻布３丁目２１番２０号,,13,103,1060031,,,,,,,2021-12-24,1,,,,,ヴィブラシオン,0
319,2010401164614,新規,0,2021-12-24,2021-12-24,Ｔｒｅｎｄｐｉｏｎ株式会社,,株式会社,東京都,港区,西麻布３丁目２１番２０号,,13,103,1060031,,,,,,,2021-12-24,1,,,,,トレンドピオン,0
320,2010401164630,新規,0,2021-12-24,2021-12-24,株式会社クリニカルインベスター,,株式会社,東京都,港区,西麻布３丁目２－３３,,13,103,1060031,,,,,,,2021-12-24,1,,,,,クリニカルインベスター,0
323,2010405020532,新規,0,2021-12-24,2021-12-24,一般社団法人日本占いコンテンツ推進協会,,その他の設立登記法人,東京都,港区,新橋６丁目４番３号ル・グラシエルＢＬＤＧ７号館４０８号室,,13,103,1050004,,,,,,,2021-12-24,1,,,,,ニホンウラナイコンテンツスイシンキョウカイ,0
332,2010701041983,新規,0,2021-12-24,2021-12-24,株式会社ソニックスリサーチ＆ディベロップメント,,株式会社,東京都,品川区,西五反田７丁目９番５号,,13,109,1410031,,,,,,,2021-12-24,1,,,,,ソニックスリサーチアンドディベロップメント,0
334,2010803003997,新規,0,2021-12-24,2021-12-24,ｌａｐｅｌ　ｔｏｋｙｏ合同会社,,合同会社,東京都,大田区,西六郷１丁目５０番７号,,13,111,1440056,,,,,,,2021-12-24,1,,,,,ラペルトウキョウ,0
343,2011003013903,新規,0,2021-12-24,2021-12-24,合同会社ｍｏｆｕｓａｎｄ,,合同会社,東京都,渋谷区,神宮前６丁目２３番４号桑野ビル２階,,13,113,1500001,,,,,,,2021-12-24,1,,,,,モフサンド,0
344,2011003013911,新規,0,2021-12-24,2021-12-24,合同会社銀我社,,合同会社,東京都,渋谷区,千駄ヶ谷４丁目１３番７号ＡＬＥＲＯｋｉｔａｓａｎｄｏ２０３,,13,113,1510051,,,,,,,2021-12-24,1,,,,,ギンガシャ,0
346,2011005009362,新規,0,2021-12-24,2021-12-24,一般社団法人タグボート,,その他の設立登記法人,東京都,目黒区,青葉台１丁目１６番６－２０１号,,13,110,1530042,,,,,,,2021-12-24,1,,,,,タグボート,0
351,2011101097303,新規,0,2021-12-24,2021-12-24,株式会社ＶＩＶＡＷＡＶＥ　ＪＡＰＡＮ,,株式会社,東京都,新宿区,西新宿３丁目７番１号新宿パークタワー,,13,104,1600023,,,,,,,2021-12-24,1,,,,,ビバウェブジャパン,0
352,2011101097369,新規,0,2021-12-24,2021-12-24,株式会社丸長商店,,株式会社,東京都,新宿区,若松町２２番３０号,,13,104,1620056,,,,,,,2021-12-24,1,,,,,マルチョウショウテン,0
358,2011303004255,新規,0,2021-12-24,2021-12-24,合同会社アーバンソリューションあや,,合同会社,東京都,杉並区,南荻窪３丁目２３番２号,,13,115,1670052,,,,,,,2021-12-24,1,,,,,アーバンソリューションアヤ,0
360,2011401023925,新規,0,2021-12-24,2021-12-24,株式会社ＳＲＢ,,株式会社,東京都,板橋区,若木３丁目２６番３号,,13,119,1740065,,,,,,,2021-12-24,1,,,,,エスアールビー,0
364,2011701024929,新規,0,2021-12-24,2021-12-24,株式会社辰和電工,,株式会社,東京都,江戸川区,東葛西１丁目４５番６号,,13,123,1340084,,,,,,,2021-12-24,1,,,,,シンワデンコウ,0
380,2021003011195,新規,0,2021-12-24,2021-12-24,ＴＮＹ合同会社,,合同会社,神奈川県,藤沢市,大鋸２丁目８番１０号リブリオブリガーダ３０２,,14,205,2510002,,,,,,,2021-12-24,1,,,,,ティーエヌワイ,0
388,2030001145995,新規,0,2021-12-24,2021-12-24,埼玉美術学院株式会社,,株式会社,埼玉県,さいたま市大宮区,堀の内町１丁目６９７番地６,,11,103,3300804,,,,,,,2021-12-24,1,,,,,サイタマビジュツガクイン,0
389,2030001146003,新規,0,2021-12-24,2021-12-24,アルファプラン株式会社,,株式会社,埼玉県,川口市,上青木西４丁目１４番１３号,,11,203,3330845,,,,,,,2021-12-24,1,,,,,アルファプラン,0
390,2030001146011,新規,0,2021-12-24,2021-12-24,株式会社ＰＳＵ,,株式会社,埼玉県,川越市,吉田新町１丁目２番地２（２－１０５）,,11,201,3500808,,,,,,,2021-12-24,1,,,,,ピーエスユー,0
391,2030001146028,新規,0,2021-12-24,2021-12-24,株式会社Ｙｏｕ＆Ｍ,,株式会社,埼玉県,さいたま市大宮区,桜木町２丁目４番２５号,,11,103,3300854,,,,,,,2021-12-24,1,,,,,ユーアンドエム,0
392,2030001146036,新規,0,2021-12-24,2021-12-24,株式会社Ｄｉｖｅｒｓｉｔｙ　Ｌｉｆｅ,,株式会社,埼玉県,所沢市,くすのき台３丁目１２－６ヴァンベール所沢２０８,,11,208,3590037,,,,,,,2021-12-24,1,,,,,ダイバーシティライフ,0
401,2030003018530,新規,0,2021-12-24,2021-12-24,合同会社ＲＥＶＥＲＳＡＬ,,合同会社,埼玉県,東松山市,大字大黒部９番地１,,11,212,3550046,,,,,,,2021-12-24,1,,,,,リバーサル,0
402,2030003018555,新規,0,2021-12-24,2021-12-24,ＵＣＡＰ合同会社,,合同会社,埼玉県,さいたま市見沼区,染谷１丁目２２７－３,,11,104,3370026,,,,,,,2021-12-24,1,,,,,ユーシーエーピー,0
404,2040001121467,新規,0,2021-12-24,2021-12-24,なのはなホーム株式会社,,株式会社,千葉県,市川市,南行徳３丁目１番２号,,12,203,2720138,,,,,,,2021-12-24,1,,,,,ナノハナホーム,0
405,2040001121475,新規,0,2021-12-24,2021-12-24,ＬＵＣＫＹ　ＳＴＲＩＫＥ株式会社,,株式会社,千葉県,船橋市,西船４丁目２０－１１リッツビル１階,,12,204,2730031,,,,,,,2021-12-24,1,,,,,ラッキーストライク,0
406,2040001121483,新規,0,2021-12-24,2021-12-24,株式会社ｉｆ,,株式会社,千葉県,八千代市,八千代台東１丁目２９番２号,,12,221,2760032,,,,,,,2021-12-24,1,,,,,イフ,0
411,2040005021473,新規,0,2021-12-24,2021-12-24,グラン・コート東金管理組合法人,,その他の設立登記法人,千葉県,東金市,道庭７４８番地１,,12,213,2830003,,,,,,,2021-12-24,1,,,,,グランコートトウガネ,0
412,2050001050368,新規,0,2021-12-24,2021-12-24,株式会社ＡＧＡＩＮ,,株式会社,茨城県,土浦市,並木１丁目２番２６－２０２号,,08,203,3000061,,,,,,,2021-12-24,1,,,,,アゲイン,0
424,2100001034919,新規,0,2021-12-24,2021-12-24,株式会社吉村創造,,株式会社,長野県,上伊那郡箕輪町,大字中箕輪３７３０番地４８４,,20,383,3994601,,,,,,,2021-12-24,1,,,,,ヨシムラソウゾウ,0
425,2110001036294,新規,0,2021-12-24,2021-12-24,株式会社重野商店,,株式会社,新潟県,新潟市中央区,花園１丁目１番８号アパガーデンコート新潟駅前２２２号,,15,103,9500086,,,,,,,2021-12-24,1,,,,,シゲノショウテン,0
435,2120001242180,新規,0,2021-12-24,2021-12-24,エフアンドエフ株式会社,,株式会社,大阪府,大阪市中央区,上汐２丁目２－１２―５０３,,27,128,5420064,,,,,,,2021-12-24,1,,,,,エフアンドエフ,0
436,2120001242503,新規,0,2021-12-24,2021-12-24,株式会社優,,株式会社,大阪府,大阪市北区,天神橋２丁目北１番１４－３０５号,,27,127,5300041,,,,,,,2021-12-24,1,,,,,マサル,0
437,2120001242684,新規,0,2021-12-24,2021-12-24,株式会社ＭＡＧＩ,,株式会社,大阪府,大阪市西区,江之子島１丁目９番１－８０５号,,27,106,5500006,,,,,,,2021-12-24,1,,,,,マギ,0
438,2120001242718,新規,0,2021-12-24,2021-12-24,株式会社ＣＲＥＡＳ　ＪＡＰＡＮ,,株式会社,大阪府,守口市,桜町５番９－４０１号,,27,209,5700027,,,,,,,2021-12-24,1,,,,,クレアスジャパン,0
439,2120001242726,新規,0,2021-12-24,2021-12-24,株式会社ＨＤＹ,,株式会社,大阪府,大阪市淀川区,十三東５丁目２番４－７０６号,,27,123,5320023,,,,,,,2021-12-24,1,,,,,エッチディーワイ,0
442,2120003020824,新規,0,2021-12-24,2021-12-24,合同会社Ｆｒｅｅｓｉａ,,合同会社,大阪府,大阪市中央区,本町４丁目６番４－９０５号,,27,128,5410053,,,,,,,2021-12-24,1,,,,,フリージア,0
447,2120101064847,新規,0,2021-12-24,2021-12-24,株式会社ＲＵＳＨ　ＢＯＡＲ,,株式会社,大阪府,泉佐野市,高松西２丁目５６１７番地（３１０）,,27,213,5980016,,,,,,,2021-12-24,1,,,,,ラッシュボア,0
451,2120901045369,新規,0,2021-12-24,2021-12-24,株式会社こだち,,株式会社,大阪府,吹田市,豊津町２５番１９号,,27,205,5640051,,,,,,,2021-12-24,1,,,,,コダチ,0
454,2122001035449,新規,0,2021-12-24,2021-12-24,株式会社ＭＳテック,,株式会社,大阪府,八尾市,植松町５丁目１５番４号,,27,212,5810084,,,,,,,2021-12-24,1,,,,,エムエステック,0
463,2140001124336,新規,0,2021-12-24,2021-12-24,株式会社ＩＴ’Ｓ　ＦＩＮＥ,,株式会社,兵庫県,西宮市,上甲子園４丁目３－１０,,28,204,6638114,,,,,,,2021-12-24,1,,,,,イッツファイン,0
467,2140003017133,新規,0,2021-12-24,2021-12-24,合同会社クオンタムアセット,,合同会社,兵庫県,西宮市,分銅町１番１６－１１０６号,,28,204,6620042,,,,,,,2021-12-24,1,,,,,クオンタムアセット,0
471,2160001023899,新規,0,2021-12-24,2021-12-24,株式会社Ｋｉｎｏｃｏ,,株式会社,滋賀県,草津市,野村５丁目９番３４号,,25,206,5250027,,,,,,,2021-12-24,1,,,,,キノコ,0
474,2160003002455,新規,0,2021-12-24,2021-12-24,合同会社Ｅｘｉ,,合同会社,滋賀県,大津市,真野１丁目４６－１０－３０２,,25,201,5200232,,,,,,,2021-12-24,1,,,,,イーエックスアイ,0
484,2180001149206,新規,0,2021-12-24,2021-12-24,株式会社プレジャー,,株式会社,愛知県,名古屋市名東区,上社３丁目１０２番地東名ビルディング３０４,,23,115,4650025,,,,,,,2021-12-24,1,,,,,プレジャー,0
494,2190003003855,新規,0,2021-12-24,2021-12-24,合同会社夢庵,,合同会社,三重県,松阪市,塚本町２００番地１アルハンブラＢ－１０３,,24,204,5150811,,,,,,,2021-12-24,1,,,,,ユメアン,0
497,2200001039560,新規,0,2021-12-24,2021-12-24,株式会社ポン・アヴェック・アート,,株式会社,岐阜県,岐阜市,加納鉄砲町１丁目２５番地,,21,201,5008453,,,,,,,2021-12-24,1,,,,,ポンアヴェックアート,0
498,2200001039569,新規,0,2021-12-24,2021-12-24,ＧＦｍａｄｅホールディングス株式会社,,株式会社,岐阜県,岐阜市,六条南３丁目９番７号,,21,201,5008358,,,,,,,2021-12-24,1,,,,,ジーエフメイドホールディングス,0
504,2210001018737,新規,0,2021-12-24,2021-12-24,越前市西部電力株式会社,,株式会社,福井県,越前市,広瀬町第１１７号１番地の１１,,18,209,9150872,,,,,,,2021-12-24,1,,,,,エチゼンシセイブデンリョク,0
506,2220001024610,新規,0,2021-12-24,2021-12-24,ゼン・エンヂニアリング株式会社,,株式会社,石川県,金沢市,古府２丁目４６,,17,201,9200362,,,,,,,2021-12-24,1,,,,,ゼンエンヂニアリング,0
509,2220003003174,新規,0,2021-12-24,2021-12-24,合同会社快活時間,,合同会社,石川県,羽咋郡志賀町,高浜町ノ‐４０７‐３サンフォレスト２・１０２号室,,17,384,9250141,,,,,,,2021-12-24,1,,,,,カイカツジカン,0
510,2230001019155,新規,0,2021-12-24,2021-12-24,株式会社ＴＣ,,株式会社,富山県,砺波市,中神３丁目３番地,,16,208,9391344,,,,,,,2021-12-24,1,,,,,ティーシー,0
511,2240001059092,新規,0,2021-12-24,2021-12-24,株式会社エスライン,,株式会社,広島県,大竹市,元町２丁目９番２号,,34,211,7390615,,,,,,,2021-12-24,1,,,,,エスライン,0
518,2250003002966,新規,0,2021-12-24,2021-12-24,ＴＨＪ　ＳＯＬＡＲ　ＪＡＰＡＮ合同会社,,合同会社,山口県,下関市,南部町２０－３アドバンス２１バイスキューレコンコルディア１１０２,,35,201,7500006,,,,,,,2021-12-24,1,,,,,ティエイチジェイソーラージャパン,0
532,2290001095736,新規,0,2021-12-24,2021-12-24,株式会社ＮＮプロ,,株式会社,福岡県,糟屋郡宇美町,四王寺坂１丁目１９番２０号,,40,341,8112103,,,,,,,2021-12-24,1,,,,,エヌエヌプロ,0
533,2290001095819,新規,0,2021-12-24,2021-12-24,ＯＮＥ　ＯＲＤＥＲ株式会社,,株式会社,福岡県,福岡市東区,香椎駅前２丁目８－１８Ｍビルデベロップコアスリー１２０１,,40,131,8130013,,,,,,,2021-12-24,1,,,,,ワンオーダー,0
536,2290801028110,新規,0,2021-12-24,2021-12-24,株式会社ＳＵＭＩＲＥＳＴＹＬＥ,,株式会社,福岡県,北九州市小倉北区,井堀２丁目１番１４－４０３号,,40,106,8030835,,,,,,,2021-12-24,1,,,,,スミレスタイル,0
537,2290805009503,新規,0,2021-12-24,2021-12-24,医療法人クローバー,,その他の設立登記法人,福岡県,直方市,大字上新入２０３５番地２,,40,204,8220033,,,,,,,2021-12-24,1,,,,,クローバー,0
542,2310001017646,新規,0,2021-12-24,2021-12-24,株式会社あこう不動産,,株式会社,長崎県,大村市,諏訪１丁目６０３番地３,,42,205,8560024,,,,,,,2021-12-24,1,,,,,アコウフドウサン,0
543,2310003004238,新規,0,2021-12-24,2021-12-24,合同会社集,,合同会社,長崎県,長崎市,ダイヤランド２丁目３３番２号,,42,201,8500963,,,,,,,2021-12-24,1,,,,,シュー,0
545,2320001018791,新規,0,2021-12-24,2021-12-24,株式会社九州エコ電気,,株式会社,大分県,日田市,大字十二町６６７番地５,,44,204,8770000,,,,,,,2021-12-24,1,,,,,キュウシュウエコデンキ,0
546,2320001018800,新規,0,2021-12-24,2021-12-24,株式会社旺牙建設工業,,株式会社,大分県,大分市,大字端登１８１０番地の１,,44,201,8797502,,,,,,,2021-12-24,1,,,,,オウガケンセツコウギョウ,0
548,2330001029292,新規,0,2021-12-24,2021-12-24,株式会社ウィズライフ天草,,株式会社,熊本県,天草市,亀場町亀川１９９３番地６,,43,215,8630043,,,,,,,2021-12-24,1,,,,,ウィズライフアマクサ,0
549,2330003009177,新規,0,2021-12-24,2021-12-24,合同会社トレジャーブライト,,合同会社,熊本県,熊本市南区,田井島３丁目３－１９,,43,104,8620965,,,,,,,2021-12-24,1,,,,,トレジャーブライト,0
551,2340001024350,新規,0,2021-12-24,2021-12-24,株式会社まる福工務店,,株式会社,鹿児島県,奄美市,名瀬有屋町１番地６,,46,222,8940062,,,,,,,2021-12-24,1,,,,,マルフクコウムテン,0
552,2340003003658,新規,0,2021-12-24,2021-12-24,合同会社こもれび,,合同会社,鹿児島県,鹿児島市,明和１丁目４１番６号,,46,201,8900024,,,,,,,2021-12-24,1,,,,,コモレビ,0
554,2350001017493,新規,0,2021-12-24,2021-12-24,株式会社Ｋｚｕ　ｐｌａｎｎｉｎｇ,,株式会社,宮崎県,都城市,山之口町富吉字飯起２８０８－３,,45,202,8891801,,,,,,,2021-12-24,1,,,,,ケイズプランニング,0
557,2360001029802,新規,0,2021-12-24,2021-12-24,株式会社うるまーる,,株式会社,沖縄県,うるま市,字喜屋武４６４番地,,47,213,9042225,,,,,,,2021-12-24,1,,,,,ウルマール,0
558,2360001029810,新規,0,2021-12-24,2021-12-24,株式会社レガビスタ,,株式会社,沖縄県,島尻郡与那原町,字与那原８２１番地２Ｆ,,47,348,9011303,,,,,,,2021-12-24,1,,,,,レガビスタ,0
560,2360003011675,新規,0,2021-12-24,2021-12-24,合同会社宅建スクール,,合同会社,沖縄県,南城市,玉城字喜良原２２３,,47,215,9010607,,,,,,,2021-12-24,1,,,,,タッケンスクール,0
562,2370001047992,新規,0,2021-12-24,2021-12-24,株式会社ＬＩＦＥ　ＵＰサポート,,株式会社,宮城県,東松島市,大塚字大塚３９番地,,04,214,9810414,,,,,,,2021-12-24,1,,,,,ライフアップサポート,0
576,2390001016723,新規,0,2021-12-24,2021-12-24,株式会社ＧＯＫＵ,,株式会社,山形県,東置賜郡高畠町,大字福沢６６８番地,,06,381,9992174,,,,,,,2021-12-24,1,,,,,ゴク,0
579,2400001015715,新規,0,2021-12-24,2021-12-24,株式会社陸中高井屋,00125224,株式会社,岩手県,一関市,大東町大原字立町１１番地,,03,209,0290711,,,,,,,2021-12-24,1,,,,,リクチュウタカイヤ,0
580,2400003002876,新規,0,2021-12-24,2021-12-24,合同会社ひなた,,合同会社,岩手県,盛岡市,加賀野１丁目７－１８オーパル加賀野ＩＩ１０１,00125221,03,201,0200807,,,,,,,2021-12-24,1,,,,,ヒナタ,0
587,2430001085656,新規,0,2021-12-24,2021-12-24,株式会社アールワイ,,株式会社,北海道,苫小牧市,字錦岡４９１番地の２２３,,01,213,0591275,,,,,,,2021-12-24,1,,,,,アールワイ,0
588,2430001085664,新規,0,2021-12-24,2021-12-24,株式会社鈴霞,,株式会社,北海道,札幌市中央区,大通西２３丁目２番８号,,01,101,0640820,,,,,,,2021-12-24,1,,,,,スズカ,0
596,2470001018876,新規,0,2021-12-24,2021-12-24,株式会社成建,,株式会社,香川県,丸亀市,土器町西５丁目１７２番地アルファスマート丸亀城東１０１号,,37,202,7630081,,,,,,,2021-12-24,1,,,,,セイケン,0
597,2470001018884,新規,0,2021-12-24,2021-12-24,友和工業株式会社,,株式会社,香川県,三豊市,財田町財田中５４２番地５,,37,208,7690402,,,,,,,2021-12-24,1,,,,,ユウワコウギョウ,0
599,2470005006398,新規,0,2021-12-24,2021-12-24,協同組合ＰＪｔｕｌａｙ,,その他の設立登記法人,香川県,高松市,春日町１２９番地,,37,201,7610101,,,,,,,2021-12-24,1,,,,,ピージェイトゥライ,0
600,2480001011590,新規,0,2021-12-24,2021-12-24,株式会社阿波和,,株式会社,徳島県,鳴門市,撫養町南浜字東浜３３９番地,,36,202,7720003,,,,,,,2021-12-24,1,,,,,アワワ,0
603,2500001023880,新規,0,2021-12-24,2021-12-24,株式会社建築工房中田建設,,株式会社,愛媛県,松山市,北土居４丁目１５番３７号,,38,201,7911104,,,,,,,2021-12-24,1,,,,,ケンチクコウボウナカタケンセツ,0
604,2500001023889,新規,0,2021-12-24,2021-12-24,株式会社ＢＥＣＫＥＮ,,株式会社,愛媛県,今治市,松木３３２番地１,,38,202,7991513,,,,,,,2021-12-24,1,,,,,ベッケン,0
617,3010001223505,新規,0,2021-12-24,2021-12-24,２４７Ｆｉｔｎｅｓｓ　Ｊａｐａｎ株式会社,,株式会社,東京都,中央区,京橋２丁目８－２１仁大ビル,,13,102,1040031,,,,,,,2021-12-24,1,,,,,ニーヨンナナフィットネスジャパン,0
620,3010103001833,新規,0,2021-12-24,2021-12-24,Ｂ＆Ａ合同会社,,合同会社,東京都,八王子市,絹ケ丘１丁目５３－６,,13,201,1920912,,,,,,,2021-12-24,1,,,,,ビーアンドエー,0
625,3010401164662,新規,0,2021-12-24,2021-12-24,株式会社ＳＵＳＡＮＯＲ,,株式会社,東京都,港区,新橋６丁目１３番１３－１００１号,,13,103,1050004,,,,,,,2021-12-24,1,,,,,スサノオ,0
636,3010901050057,新規,0,2021-12-24,2021-12-24,株式会社もとき植木,,株式会社,東京都,世田谷区,松原５丁目１０－２１－３０２,,13,112,1560043,,,,,,,2021-12-24,1,,,,,モトキウエキ,0
637,3010901050065,新規,0,2021-12-24,2021-12-24,株式会社ＬＭＯ,,株式会社,東京都,世田谷区,太子堂５丁目１番１０号,,13,112,1540004,,,,,,,2021-12-24,1,,,,,エルモ,0
644,3011001144724,新規,0,2021-12-24,2021-12-24,株式会社ごほうび,,株式会社,東京都,目黒区,上目黒２丁目４４番１０－７０１号,,13,110,1530051,,,,,,,2021-12-24,1,,,,,ゴホウビ,0
645,3011001144773,新規,0,2021-12-24,2021-12-24,株式会社ＴＧＭ,,株式会社,東京都,目黒区,緑が丘２丁目６番１７－２０３号,,13,110,1520034,,,,,,,2021-12-24,1,,,,,ティージーエム,0
648,3011101097285,新規,0,2021-12-24,2021-12-24,株式会社和高,,株式会社,東京都,新宿区,新宿１丁目１８番４号,,13,104,1600022,,,,,,,2021-12-24,1,,,,,ワコウ,0
649,3011103011310,新規,0,2021-12-24,2021-12-24,合同会社鈴木パートナーズ,,合同会社,東京都,新宿区,西新宿７丁目２０番１６－５０３号,,13,104,1600023,,,,,,,2021-12-24,1,,,,,スズキパートナーズ,0
650,3011103011319,新規,0,2021-12-24,2021-12-24,合同会社アドユーキ,,合同会社,東京都,新宿区,余丁町８番２－６０１号,,13,104,1620055,,,,,,,2021-12-24,1,,,,,アドユーキ,0
651,3011201023505,新規,0,2021-12-24,2021-12-24,鉅進株式会社,,株式会社,東京都,中野区,野方３丁目２３番３号,,13,114,1650027,,,,,,,2021-12-24,1,,,,,キョシン,0
653,3011301027447,新規,0,2021-12-24,2021-12-24,花の王様ヘルスケアテクノロジー株式会社,,株式会社,東京都,杉並区,天沼２丁目７番７号マンション大竹３０１,,13,115,1670032,,,,,,,2021-12-24,1,,,,,ハナノオウサマヘルスケアテクノロジー,0
658,3011501027602,新規,0,2021-12-24,2021-12-24,星程株式会社,,株式会社,東京都,荒川区,西尾久１丁目２６番４号ハイツウチダ２０２号室,,13,118,1160011,,,,,,,2021-12-24,1,,,,,ホシテイ,0
663,3011701024928,新規,0,2021-12-24,2021-12-24,株式会社ｗｉｎｇｓｆｏｒｃｅ,,株式会社,東京都,江戸川区,平井４丁目２０番１５－１０１号,,13,123,1320035,,,,,,,2021-12-24,1,,,,,ウィングスフォース,0
667,3011801040107,新規,0,2021-12-24,2021-12-24,株式会社レアルエステート,,株式会社,東京都,葛飾区,西水元３丁目２９－３－１Ｆ,,13,122,1250031,,,,,,,2021-12-24,1,,,,,レアルエステート,0
672,3012801021303,新規,0,2021-12-24,2021-12-24,カデンツァカンパニー株式会社,,株式会社,東京都,国分寺市,本町２丁目１６番１号アトラス国分寺本町１００２,,13,214,1850012,,,,,,,2021-12-24,1,,,,,カデンツァカンパニー,0
683,3020001144403,新規,0,2021-12-24,2021-12-24,株式会社ａｍｉ,,株式会社,神奈川県,川崎市高津区,子母口３４７番地１シルクハイツＢ－１０１,,14,134,2130023,,,,,,,2021-12-24,1,,,,,アミ,0
684,3020001144477,新規,0,2021-12-24,2021-12-24,株式会社ドリーム,,株式会社,神奈川県,横浜市鶴見区,仲通３丁目７６－５－２０５,,14,101,2300042,,,,,,,2021-12-24,1,,,,,ドリーム,0
686,3020005015328,新規,0,2021-12-24,2021-12-24,税理士法人横浜さくら総合事務所,,その他の設立登記法人,神奈川県,横浜市中区,海岸通４丁目２３マリンビル８階,,14,104,2310002,,,,,,,2021-12-24,1,,,,,ヨコハマサクラソウゴウジムショ,0
695,3021001074805,新規,0,2021-12-24,2021-12-24,マーブル株式会社,,株式会社,神奈川県,大和市,福田６１１７番地,,14,213,2420024,,,,,,,2021-12-24,1,,,,,マーブル,0
696,3021001074813,新規,0,2021-12-24,2021-12-24,株式会社カガテック,,株式会社,神奈川県,足柄下郡湯河原町,門川４３番地の２,,14,384,2590302,,,,,,,2021-12-24,1,,,,,カガテック,0
707,3030001146002,新規,0,2021-12-24,2021-12-24,株式会社コンフォートロジ,,株式会社,埼玉県,三郷市,新和３丁目２５３番地１,,11,237,3410034,,,,,,,2021-12-24,1,,,,,コンフォートロジ,0
718,3030003018554,新規,0,2021-12-24,2021-12-24,合同会社ＴＴＣ,,合同会社,埼玉県,朝霞市,三原１丁目１５番５１号,,11,227,3510025,,,,,,,2021-12-24,1,,,,,ティティシー,0
724,3040001121474,新規,0,2021-12-24,2021-12-24,株式会社ＪＯＩＮＴ,,株式会社,千葉県,船橋市,本町４丁目４４－１３須藤ビル２階,,12,204,2730005,,,,,,,2021-12-24,1,,,,,ジョイント,0
725,3040001121482,新規,0,2021-12-24,2021-12-24,ＲｅｆＴ　Ｃｏｍｐｕｔｅｒ株式会社,,株式会社,千葉県,船橋市,二子町４９３番地９明和コーポＣ３０３,,12,204,2730034,,,,,,,2021-12-24,1,,,,,レフトコンピューター,0
729,3040003019155,新規,0,2021-12-24,2021-12-24,合同会社シトラスワン,,合同会社,千葉県,市川市,菅野４丁目１０－１９,,12,203,2720824,,,,,,,2021-12-24,1,,,,,シトラスワン,0
730,3050001050359,新規,0,2021-12-24,2021-12-24,株式会社ＪＴＣ,,株式会社,茨城県,土浦市,川口１丁目３－１３４－Ｅ２０１,,08,203,3000033,,,,,,,2021-12-24,1,,,,,ジェイテーシー,0
733,3050005012990,新規,0,2021-12-24,2021-12-24,一般社団法人情報ナビ,,その他の設立登記法人,茨城県,龍ケ崎市,馴馬町７５４番地,,08,208,3010004,,,,,,,2021-12-24,1,,,,,ジョウホウナビ,0
734,3060001034419,新規,0,2021-12-24,2021-12-24,株式会社佳乃や,,株式会社,栃木県,宇都宮市,馬場通り４丁目１番１号うつのみや表参道スクエア１Ｆ,,09,201,3200026,,,,,,,2021-12-24,1,,,,,カノヤ,0
737,3080001024657,新規,0,2021-12-24,2021-12-24,Ａｉｒｐｌａｎｔ株式会社,,株式会社,静岡県,榛原郡吉田町,住吉５３７７番地の１,,22,424,4210301,,,,,,,2021-12-24,1,,,,,エアープラント,0
750,3110001036293,新規,0,2021-12-24,2021-12-24,株式会社カトケン,,株式会社,新潟県,新潟市東区,津島屋３丁目１２５番地１,,15,102,9500801,,,,,,,2021-12-24,1,,,,,カトケン,0
757,3120001242683,新規,0,2021-12-24,2021-12-24,株式会社ＳＳＴ,,株式会社,大阪府,枚方市,長尾元町７丁目１６番２０－２０１号,,27,210,5730163,,,,,,,2021-12-24,1,,,,,エスエスティ,0
758,3120001242717,新規,0,2021-12-24,2021-12-24,株式会社ＬＥＧＯ,,株式会社,大阪府,大阪市北区,角田町１－１７Ｓｉｄｅｔｒｉｐ１１・１０Ｆ,,27,127,5300017,,,,,,,2021-12-24,1,,,,,レゴ,0
759,3120001242725,新規,0,2021-12-24,2021-12-24,株式会社ビーワイエス,,株式会社,大阪府,大阪市北区,東天満１丁目１１番７号,,27,127,5300044,,,,,,,2021-12-24,1,,,,,ビーワイエス,0
761,3120003020798,新規,0,2021-12-24,2021-12-24,ＧＴ合同会社,,合同会社,大阪府,大阪市生野区,新今里３丁目１９番８号メルヘン新今里２１０号室,,27,116,5440001,,,,,,,2021-12-24,1,,,,,ジーティー,0
772,3122001035456,新規,0,2021-12-24,2021-12-24,イントベント株式会社,,株式会社,大阪府,東大阪市,中鴻池町３丁目４番７号,,27,227,5780975,,,,,,,2021-12-24,1,,,,,イントベント,0
784,3140003017140,新規,0,2021-12-24,2021-12-24,合同会社優,,合同会社,兵庫県,宝塚市,山本丸橋１丁目７番１５号,,28,214,6650815,,,,,,,2021-12-24,1,,,,,ユタカ,0
785,3140005025959,新規,0,2021-12-24,2021-12-24,ＮＰＯ法人神戸野球スタジアム,,その他の設立登記法人,兵庫県,神戸市中央区,山本通３丁目２０番２３号,,28,110,6500003,,,,,,,2021-12-24,1,,,,,コウベヤキュウスタジアム,0
787,3150001025202,新規,0,2021-12-24,2021-12-24,株式会社ゼノ,,株式会社,奈良県,五條市,住川町９１番地の２９８,,29,207,6370014,,,,,,,2021-12-24,1,,,,,ゼノ,0
800,3180001149246,新規,0,2021-12-24,2021-12-24,株式会社Ｂ．Ａ．Ｇ,,株式会社,愛知県,名古屋市中区,丸の内３丁目１５番７号第２３プロスパー丸の内１０１,,23,106,4600002,,,,,,,2021-12-24,1,,,,,ビーエージー,0
811,3200005013296,新規,0,2021-12-24,2021-12-24,一般社団法人ひだまりの風助産院,,その他の設立登記法人,岐阜県,瑞穂市,呂久１０４１番地,,21,216,5010324,,,,,,,2021-12-24,1,,,,,ヒダマリノカゼジョサンイン,0
813,3220003003173,新規,0,2021-12-24,2021-12-24,合同会社ウミネコパーラー,,合同会社,石川県,金沢市,石引１丁目１６番４０号,,17,201,9200935,,,,,,,2021-12-24,1,,,,,ウミネコパーラー,0
817,3240001059083,新規,0,2021-12-24,2021-12-24,株式会社大知セキュリティー,,株式会社,広島県,広島市西区,草津南１丁目２番１０号,,34,104,7330863,,,,,,,2021-12-24,1,,,,,ダイチセキュリティー,0
818,3240001059091,新規,0,2021-12-24,2021-12-24,株式会社Ｇｒｏｗ　Ｕｐ,,株式会社,広島県,福山市,神辺町字徳田２０１９番３号,,34,207,7202126,,,,,,,2021-12-24,1,,,,,グローアップ,0
820,3240003005424,新規,0,2021-12-24,2021-12-24,合同会社弘知会,,合同会社,広島県,福山市,松永町４丁目２番２号,,34,207,7290104,,,,,,,2021-12-24,1,,,,,コウチカイ,0
822,3260001036337,新規,0,2021-12-24,2021-12-24,株式会社スマイルホーム,,株式会社,岡山県,倉敷市,林１７２８番地７,,33,202,7100142,,,,,,,2021-12-24,1,,,,,スマイルホーム,0
823,3260001036345,新規,0,2021-12-24,2021-12-24,株式会社ダイエックス中四国,,株式会社,岡山県,岡山市北区,大内田８３３番地２,,33,101,7010165,,,,,,,2021-12-24,1,,,,,ダイエックスチュウシコク,0
828,3270003001379,新規,0,2021-12-24,2021-12-24,合同会社ケイサポート,,合同会社,鳥取県,米子市,加茂町２丁目２１９番地,,31,202,6830823,,,,,,,2021-12-24,1,,,,,ケイサポート,0
835,3290001095768,新規,0,2021-12-24,2021-12-24,株式会社琴花蒼本舗,,株式会社,福岡県,久留米市,白山町９６番,,40,203,8300041,,,,,,,2021-12-24,1,,,,,キンカソウホンポ,0
836,3290001095801,新規,0,2021-12-24,2021-12-24,株式会社あんの花,,株式会社,福岡県,福岡市東区,香椎浜３丁目３番５－２５１４号,,40,131,8130016,,,,,,,2021-12-24,1,,,,,アンノハナ,0
838,3290003011962,新規,0,2021-12-24,2021-12-24,ＰＧＫＬソーラー合同会社,,合同会社,福岡県,福岡市博多区,博多駅前４丁目３番１８号,,40,132,8120011,,,,,,,2021-12-24,1,,,,,ピージーケイエルソーラー,0
840,3290005018493,新規,0,2021-12-24,2021-12-24,一般社団法人Ｂｏｎｄ　Ｈａｒｂｏｒ,,その他の設立登記法人,福岡県,小郡市,祇園２丁目６番１１号,,40,216,8380144,,,,,,,2021-12-24,1,,,,,ボンドハーバー,0
846,3320001018799,新規,0,2021-12-24,2021-12-24,株式会社健誠建設工業,,株式会社,大分県,大分市,上野丘東６番３号,,44,201,8700833,,,,,,,2021-12-24,1,,,,,ケンセイケンセツコウギョウ,0
849,3330001029291,新規,0,2021-12-24,2021-12-24,ザン商事株式会社,,株式会社,熊本県,熊本市中央区,横手３丁目２４番６６号,,43,101,8600046,,,,,,,2021-12-24,1,,,,,ザンショウジ,0
851,3350001017492,新規,0,2021-12-24,2021-12-24,株式会社ＫＡＧＵＹＡ,,株式会社,宮崎県,日南市,星倉４丁目２番地１７,,45,204,8892533,,,,,,,2021-12-24,1,,,,,カグヤ,0
858,3360001029784,新規,0,2021-12-24,2021-12-24,東村振興開発株式会社,,株式会社,沖縄県,国頭郡東村,字慶佐次３８２番地,,47,303,9051205,,,,,,,2021-12-24,1,,,,,ヒガシソンシンコウカイハツ,0
861,3370001047991,新規,0,2021-12-24,2021-12-24,株式会社ユイット,,株式会社,宮城県,仙台市青葉区,北山１丁目２番１６号,,04,101,9810931,,,,,,,2021-12-24,1,,,,,ユイット,0
862,3370003005527,新規,0,2021-12-24,2021-12-24,Ｍ－ｍｅｄｉａ合同会社,,合同会社,宮城県,仙台市青葉区,小松島４丁目２２番１２－５号,,04,101,9810905,,,,,,,2021-12-24,1,,,,,エムメディア,0
867,3410001013048,新規,0,2021-12-24,2021-12-24,阿部電気工事株式会社,,株式会社,秋田県,大館市,清水５丁目６番５６－１号,,05,204,0170046,,,,,,,2021-12-24,1,,,,,アベデンキコウジ,0
872,3430001085655,新規,0,2021-12-24,2021-12-24,株式会社ファースト,,株式会社,北海道,札幌市豊平区,西岡５３８－６８,,01,105,0620039,,,,,,,2021-12-24,1,,,,,ファースト,0
875,3430003013481,新規,0,2021-12-24,2021-12-24,合同会社全管協北海道,,合同会社,北海道,札幌市中央区,北五条西２６丁目１番７号,,01,101,0640825,,,,,,,2021-12-24,1,,,,,ゼンカンキョウホッカイドウ,0
877,3450001013564,新規,0,2021-12-24,2021-12-24,株式会社エイシンカッター,,株式会社,北海道,旭川市,東光十八条４丁目１番１３号,,01,204,0788358,,,,,,,2021-12-24,1,,,,,エイシンカッター,0
878,3470001018875,新規,0,2021-12-24,2021-12-24,株式会社宝友,,株式会社,香川県,高松市,木太町１９４７番地８,,37,201,7600080,,,,,,,2021-12-24,1,,,,,ホウユウ,0
879,3470001018883,新規,0,2021-12-24,2021-12-24,株式会社環境白鳥,,株式会社,香川県,東かがわ市,白鳥２２１９番地,,37,207,7692705,,,,,,,2021-12-24,1,,,,,カンキョウシロトリ,0
889,3700150106184,新規,0,2021-12-24,2021-12-10,グランステイツ津島管理組合,,その他,愛知県,津島市,藤里町１丁目１５番,,23,208,4960048,,,,,,,2021-12-10,1,,,,,グランステイツツシマカンリクミアイ,0
890,4010001223470,新規,0,2021-12-24,2021-12-24,株式会社ニッコー,,株式会社,東京都,千代田区,神田佐久間町２丁目１２番地西尾ビル,,13,101,1010025,,,,,,,2021-12-24,1,,,,,ニッコー,0
891,4010001223520,新規,0,2021-12-24,2021-12-24,株式会社ドゥトップ,,株式会社,東京都,千代田区,丸の内２丁目３番２号郵船ビルディング１階,,13,101,1000005,,,,,,,2021-12-24,1,,,,,ドゥトップ,0
896,4010101014992,新規,0,2021-12-24,2021-12-24,星河株式会社,,株式会社,東京都,八王子市,台町１丁目２４番２７号２,,13,201,1930931,,,,,,,2021-12-24,1,,,,,,0
897,4010103001832,新規,0,2021-12-24,2021-12-24,合同会社なえどこ,,合同会社,東京都,八王子市,南大沢２丁目１１番地５,,13,201,1920364,,,,,,,2021-12-24,1,,,,,ナエドコ,0
918,4010803003995,新規,0,2021-12-24,2021-12-24,Ｙ’ｓエステート合同会社,,合同会社,東京都,大田区,大森北６丁目５番１４号,,13,111,1430016,,,,,,,2021-12-24,1,,,,,ワイズエステート,0
923,4011001144780,新規,0,2021-12-24,2021-12-24,株式会社インフィニティ,,株式会社,東京都,渋谷区,神宮前２丁目２番３９－２００６号,,13,113,1500001,,,,,,,2021-12-24,1,,,,,インフィニティ,0
926,4011003013918,新規,0,2021-12-24,2021-12-24,ＰＲＩＭＯＴＡＣＴ合同会社,,合同会社,東京都,渋谷区,渋谷２丁目１９番１５－６０９号宮益坂ビルディング,,13,113,1500002,,,,,,,2021-12-24,1,,,,,プリモタクト,0
932,4011203003719,新規,0,2021-12-24,2021-12-24,Ａｇｏｏ　Ｃｏｎｓｕｌｔｉｎｇ合同会社,,合同会社,東京都,中野区,中野１丁目１番７号,,13,114,1640001,,,,,,,2021-12-24,1,,,,,アグーコンサルティング,0
933,4011501027601,新規,0,2021-12-24,2021-12-24,株式会社ハモリング,,株式会社,東京都,北区,十条仲原２丁目６番８号,,13,117,1140031,,,,,,,2021-12-24,1,,,,,ハモリング,0
940,4012401038696,新規,0,2021-12-24,2021-12-24,株式会社ＫＳ,,株式会社,東京都,三鷹市,北野１丁目８番７号エアリクスＣ１０３,,13,204,1810003,,,,,,,2021-12-24,1,,,,,ケーエス,0
954,4020001144484,新規,0,2021-12-24,2021-12-24,株式会社不老組,,株式会社,神奈川県,横浜市旭区,今宿東町６６５番地４ソラーレ・コルティーレＤ１０３,,14,112,2410032,,,,,,,2021-12-24,1,,,,,フロウグミ,0
957,4020003021021,新規,0,2021-12-24,2021-12-24,合同会社サブフィールド,,合同会社,神奈川県,川崎市幸区,小向町６番１号,,14,132,2120003,,,,,,,2021-12-24,1,,,,,サブフィールド,0
958,4020005015327,新規,0,2021-12-24,2021-12-24,一般社団法人日本発酵食研究協会,,その他の設立登記法人,神奈川県,横浜市中区,長者町５丁目７５－１スクエア長者町３２０,,14,104,2310033,,,,,,,2021-12-24,1,,,,,ニホンハッコウショクケンキュウキョウカイ,0
960,4021001074795,新規,0,2021-12-24,2021-12-24,東洋ジャパン株式会社,,株式会社,神奈川県,厚木市,愛甲東３丁目２０番１１号,,14,212,2430027,,,,,,,2021-12-24,1,,,,,トウヨウジャパン,0
961,4021001074820,新規,0,2021-12-24,2021-12-24,株式会社Ｍｉｅｒ,,株式会社,神奈川県,大和市,南林間１丁目６番７－２０１号,,14,213,2420006,,,,,,,2021-12-24,1,,,,,ミエル,0
963,4021003011227,新規,0,2021-12-24,2021-12-24,合同会社トラスト,,合同会社,神奈川県,綾瀬市,寺尾台２丁目２番２号,,14,218,2521137,,,,,,,2021-12-24,1,,,,,トラスト,0
964,4021005012371,新規,0,2021-12-24,2021-12-24,ＮＰＯ法人ライラック心の会,,その他の設立登記法人,神奈川県,愛甲郡愛川町,中津３５５２番地,,14,401,2430303,,,,,,,2021-12-24,1,,,,,ライラックココロノカイ,0
971,4030001145985,新規,0,2021-12-24,2021-12-24,株式会社ＴＥＮＧＡＬＯＮＣＡＰ,,株式会社,埼玉県,上尾市,大字中新井３００番地５４,,11,219,3620052,,,,,,,2021-12-24,1,,,,,テンガロンキャップ,0
972,4030001146001,新規,0,2021-12-24,2021-12-24,株式会社早月工務店,,株式会社,埼玉県,さいたま市中央区,新中里５丁目４番１８号,,11,105,3380011,,,,,,,2021-12-24,1,,,,,サツキコウムテン,0
973,4030001146026,新規,0,2021-12-24,2021-12-24,株式会社シーリンク,,株式会社,埼玉県,川口市,大字久左衛門新田１０２番地,,11,203,3330804,,,,,,,2021-12-24,1,,,,,シーリンク,0
977,4030003018545,新規,0,2021-12-24,2021-12-24,盛営商事合同会社,,合同会社,埼玉県,川口市,金山町１３－１７－１０３号,,11,203,3320014,,,,,,,2021-12-24,1,,,,,セイエイショウジ,0
983,4040001121473,新規,0,2021-12-24,2021-12-24,ＵＮＩＳＥＥＤ株式会社,,株式会社,千葉県,船橋市,本町１丁目１３－１孫ビル２階,,12,204,2730005,,,,,,,2021-12-24,1,,,,,ユニシード,0
984,4040001121481,新規,0,2021-12-24,2021-12-24,株式会社万昌,,株式会社,千葉県,柏市,ひばりが丘８番１５号,,12,217,2770088,,,,,,,2021-12-24,1,,,,,バンショウ,0
985,4040001121515,新規,0,2021-12-24,2021-12-24,株式会社ＣＯＮＮＥＣＴ,,株式会社,千葉県,千葉市若葉区,愛生町５３番地１８,,12,104,2640031,,,,,,,2021-12-24,1,,,,,コネクト,0
986,4040001121523,新規,0,2021-12-24,2021-12-24,株式会社Ｌｈｏ,,株式会社,千葉県,流山市,加３丁目１４番地の１,,12,220,2700176,,,,,,,2021-12-24,1,,,,,ロホ,0
991,4040003019187,新規,0,2021-12-24,2021-12-24,光テクノサービス合同会社,,合同会社,千葉県,柏市,布施２１９３番地,,12,217,2770825,,,,,,,2021-12-24,1,,,,,ヒカルテクノサービス,0
993,4050001050358,新規,0,2021-12-24,2021-12-24,カワイホールディングス株式会社,,株式会社,茨城県,結城郡八千代町,大字新地７３９番地３,,08,521,3003541,,,,,,,2021-12-24,1,,,,,カワイホールディングス,0
995,4060001034418,新規,0,2021-12-24,2021-12-24,株式会社田中緑生園,,株式会社,栃木県,宇都宮市,鐺山町１７２６番地２,,09,201,3213235,,,,,,,2021-12-24,1,,,,,タナカリョクセイエン,0
1007,4100005012803,新規,0,2021-12-24,2021-12-24,一般社団法人食育推進研究所,,その他の設立登記法人,長野県,北佐久郡軽井沢町,大字長倉１８９２－４１,,20,321,3890111,,,,,,,2021-12-24,1,,,,,ショクイクスイシンケンキュウジョ,0
1026,4120001242674,新規,0,2021-12-24,2021-12-24,株式会社えびす,,株式会社,大阪府,大阪市浪速区,恵美須東１丁目２１番２号,,27,111,5560002,,,,,,,2021-12-24,1,,,,,エビス,0
1027,4120001242699,新規,0,2021-12-24,2021-12-24,株式会社みね建装,,株式会社,大阪府,門真市,小路町２番２８－４号,,27,223,5710058,,,,,,,2021-12-24,1,,,,,ミネケンソウ,0
1028,4120001242708,新規,0,2021-12-24,2021-12-24,ｂｅｃｒｙｐｔｏ株式会社,,株式会社,大阪府,大阪市北区,梅田２丁目２番２号１８Ｆ,,27,127,5300001,,,,,,,2021-12-24,1,,,,,ビクリプト,0
1029,4120001242716,新規,0,2021-12-24,2021-12-24,あさひ株式会社,,株式会社,大阪府,大阪市北区,曾根崎２丁目３番５号,,27,127,5300057,,,,,,,2021-12-24,1,,,,,アサヒ,0
1030,4120001242757,新規,0,2021-12-24,2021-12-24,株式会社ＭＩＮＡＴＯ　ＧＲＯＵＰ,,株式会社,大阪府,大阪市中央区,西心斎橋２丁目７番８号,,27,128,5420086,,,,,,,2021-12-24,1,,,,,ミナトグループ,0
1033,4120003020814,新規,0,2021-12-24,2021-12-24,合同会社Ｋ＆Ｓ,,合同会社,大阪府,大阪市浪速区,日本橋４丁目２番１５－４０６号,,27,111,5560005,,,,,,,2021-12-24,1,,,,,ケーアンドエス,0
1034,4120003020839,新規,0,2021-12-24,2021-12-24,Ｎｅｘｔ　ｆｕｔｕｒｅ合同会社,,合同会社,大阪府,大阪市東淀川区,大桐３丁目１６－１３－２０７,,27,114,5330011,,,,,,,2021-12-24,1,,,,,ネクストフューチャー,0
1042,4122001035455,新規,0,2021-12-24,2021-12-24,ハコブネ株式会社,,株式会社,大阪府,大東市,諸福３丁目３番１３号,,27,218,5740044,,,,,,,2021-12-24,1,,,,,ハコブネ,0
1049,4130003007653,新規,0,2021-12-24,2021-12-24,糖餃子合同会社,,合同会社,京都府,京都市左京区,下鴨貴船町４９－２貴船マンション３０５号室,,26,103,6060813,,,,,,,2021-12-24,1,,,,,トウキョウザ,0
1054,4140001124326,新規,0,2021-12-24,2021-12-24,株式会社ミタソア,,株式会社,兵庫県,神戸市中央区,中山手通１丁目２２－２３－２０３,,28,110,6500004,,,,,,,2021-12-24,1,,,,,ミタソア,0
1057,4150001025201,新規,0,2021-12-24,2021-12-24,株式会社空吾,,株式会社,奈良県,橿原市,中曽司町２９８番地の１ネオハイツ八木西３０５号,,29,205,6340845,,,,,,,2021-12-24,1,,,,,クウゴ,0
1059,4160001023897,新規,0,2021-12-24,2021-12-24,株式会社ＹＦＰ,,株式会社,滋賀県,近江八幡市,中小森町６７２番地１４,,25,204,5230041,,,,,,,2021-12-24,1,,,,,ワイエフピー,0
1060,4160003002453,新規,0,2021-12-24,2021-12-24,合同会社飛びうし,,合同会社,滋賀県,大津市,大江６丁目２２番５号,,25,201,5202141,,,,,,,2021-12-24,1,,,,,トビウシ,0
1070,4180301035756,新規,0,2021-12-24,2021-12-24,株式会社イシハラタイヤ,,株式会社,愛知県,豊橋市,中岩田２丁目１４番地の１８,,23,201,4400832,,,,,,,2021-12-24,1,,,,,イシハラタイヤ,0
1076,4200001039559,新規,0,2021-12-24,2021-12-24,株式会社ファームコタニア,,株式会社,岐阜県,海津市,平田町高田１０２１番地,,21,221,5030313,,,,,,,2021-12-24,1,,,,,ファームコタニア,0
1077,4200001039567,新規,0,2021-12-24,2021-12-24,株式会社カミヤ,,株式会社,岐阜県,下呂市,金山町金山２０８１番地２５,,21,220,5091622,,,,,,,2021-12-24,1,,,,,カミヤ,0
1081,4210003001433,新規,0,2021-12-24,2021-12-24,合同会社Ｌ’ａｊｉｔｔｏ,,合同会社,福井県,福井市,門前２丁目３１２番地,,18,201,9188021,,,,,,,2021-12-24,1,,,,,ラジット,0
1084,4220001024609,新規,0,2021-12-24,2021-12-24,株式会社コンスティンク,,株式会社,石川県,白山市,小柳町ホ１４０番地１,,17,210,9202103,,,,,,,2021-12-24,1,,,,,コンスティンク,0
1086,4230002014707,新規,0,2021-12-24,2021-12-24,有限会社中村製靴店,,有限会社,富山県,高岡市,末広町４１番地,,16,202,9330023,,,,,,,2021-12-24,1,,,,,ナカムラセイカテン,0
1097,4260001036336,新規,0,2021-12-24,2021-12-24,長圓牧場株式会社,,株式会社,岡山県,勝田郡奈義町,中島東６０１番地,,33,623,7081313,,,,,,,2021-12-24,1,,,,,チョウエンボクジョウ,0
1098,4260001036344,新規,0,2021-12-24,2021-12-24,株式会社Ｂ．Ｉ．ＧＪＡＰＡＮ,,株式会社,岡山県,岡山市北区,表町３丁目３番３２号ウエスタンビル３０２号室,,33,101,7000822,,,,,,,2021-12-24,1,,,,,ビーアイジージャパン,0
1100,4260005011013,新規,0,2021-12-24,2021-12-24,特定非営利活動法人Ｖネットおかやま,,その他の設立登記法人,岡山県,玉野市,迫間２２７６番地６,,33,204,7060142,,,,,,,2021-12-24,1,,,,,ブイネットオカヤマ,0
1107,4290003011961,新規,0,2021-12-24,2021-12-24,コールドチェーンマーケティング合同会社,,合同会社,福岡県,福岡市東区,原田２丁目１０‐３２‐３０３,,40,131,8120063,,,,,,,2021-12-24,1,,,,,コールドチェーンマーケティング,0
1108,4290005018492,新規,0,2021-12-24,2021-12-24,医療法人まつもと医院,,その他の設立登記法人,福岡県,久留米市,上津１丁目１０番２６号,,40,203,8300055,,,,,,,2021-12-24,1,,,,,マツモトイイン,0
1110,4290801028117,新規,0,2021-12-24,2021-12-24,Ｓ＆Ｆコンディショニングサポート株式会社,,株式会社,福岡県,北九州市小倉北区,木町３丁目１３番７－１０１号,,40,106,8030851,,,,,,,2021-12-24,1,,,,,エスアンドエフコンディショニングサポート,0
1117,4320001018798,新規,0,2021-12-24,2021-12-24,ＢＬＮＤ　Ｅｍｐｉｒｅ　Ｇｒｏｕｐ株式会社,,株式会社,大分県,別府市,京町１１番８号２階,,44,202,8740926,,,,,,,2021-12-24,1,,,,,ブレンドエンパイアグループ,0
1118,4320001018807,新規,0,2021-12-24,2021-12-24,株式会社コネクト,,株式会社,大分県,大分市,大字迫８８４番地の７,,44,201,8700272,,,,,,,2021-12-24,1,,,,,コネクト,0
1123,4340001024349,新規,0,2021-12-24,2021-12-24,株式会社アグリバレー,,株式会社,鹿児島県,志布志市,志布志町安楽２８７３番地４,,46,221,8997104,,,,,,,2021-12-24,1,,,,,アグリバレー,0
1127,4360001029809,新規,0,2021-12-24,2021-12-24,株式会社Ｌａｅｄｉ,,株式会社,沖縄県,那覇市,金城５丁目８番地１３,,47,201,9010155,,,,,,,2021-12-24,1,,,,,ラエディ,0
1131,4370001047982,新規,0,2021-12-24,2021-12-24,株式会社ａｎｄ　ｐｌｕｓ,,株式会社,宮城県,仙台市泉区,実沢字一本橋４５－１,,04,105,9813217,,,,,,,2021-12-24,1,,,,,アンドプラス,0
1132,4370001047990,新規,0,2021-12-24,2021-12-24,株式会社佑真,,株式会社,宮城県,気仙沼市,古町２丁目４番５１号,,04,205,9880077,,,,,,,2021-12-24,1,,,,,ユウマ,0
1141,4430001085654,新規,0,2021-12-24,2021-12-24,株式会社ＯＩＭ,,株式会社,北海道,札幌市白石区,北郷三条１３丁目１番３８－８０３号,,01,104,0030833,,,,,,,2021-12-24,1,,,,,オーアイエム,0
1142,4430001085662,新規,0,2021-12-24,2021-12-24,株式会社Ｔｈｅ　ＰＯＷ　ＢＡＲ,,株式会社,北海道,虻田郡ニセコ町,字元町７７－２８,,01,395,0481544,,,,,,,2021-12-24,1,,,,,ザパウバー,0
1146,4430003013480,新規,0,2021-12-24,2021-12-24,合同会社ＧＯ,,合同会社,北海道,夕張郡長沼町,西１１線南６番地,,01,428,0691481,,,,,,,2021-12-24,1,,,,,ゴー,0
1147,4460401001241,新規,0,2021-12-24,2021-12-24,株式会社デジコネ,,株式会社,北海道,根室市,昭和町４丁目１９７番地,,01,223,0870022,,,,,,,2021-12-24,1,,,,,デジコネ,0
1161,5010005034376,新規,0,2021-12-24,2021-12-24,一般社団法人日本トラッキング協会,,その他の設立登記法人,東京都,中央区,日本橋兜町１３番１号スマートソーラー株式会社内,,13,102,1030026,,,,,,,2021-12-24,1,,,,,ニホントラッキングキョウカイ,0
1172,5010401164669,新規,0,2021-12-24,2021-12-24,株式会社ＢＥ　ＬＩＮＥＲ,,株式会社,東京都,港区,西麻布３丁目１３番１０,,13,103,1060031,,,,,,,2021-12-24,1,,,,,ビーライナー,0
1173,5010403026776,新規,0,2021-12-24,2021-12-24,ＭＫＯ合同会社,,合同会社,東京都,港区,浜松町２丁目２－１５浜松町ダイヤビル２Ｆ,,13,103,1050013,,,,,,,2021-12-24,1,,,,,エムケーオー,0
1177,5010503006455,新規,0,2021-12-24,2021-12-24,合同会社ＨＯＬＹ,,合同会社,東京都,台東区,鳥越１丁目３０番５号エスプラ御徒町１０１,,13,106,1110054,,,,,,,2021-12-24,1,,,,,ホーリー,0
1182,5010801032590,新規,0,2021-12-24,2021-12-24,株式会社アップライズ,,株式会社,東京都,大田区,西糀谷２丁目１２－１５－６１１,,13,111,1440034,,,,,,,2021-12-24,1,,,,,アップライズ,0
1185,5010803003994,新規,0,2021-12-24,2021-12-24,インタレスト合同会社,,合同会社,東京都,大田区,久が原５丁目３番４－５０４号,,13,111,1460085,,,,,,,2021-12-24,1,,,,,インタレスト,0
1189,5010901050063,新規,0,2021-12-24,2021-12-24,株式会社ラネージュ,,株式会社,東京都,世田谷区,経堂５丁目１７番２１号,,13,112,1560052,,,,,,,2021-12-24,1,,,,,ラネージュ,0
1190,5010903007037,新規,0,2021-12-24,2021-12-24,グランアズーリジャパン合同会社,,合同会社,東京都,世田谷区,玉川３丁目２１番８号ジャルダン長崎１Ｆ,,13,112,1580094,,,,,,,2021-12-24,1,,,,,グランアズーリジャパン,0
1194,5011001144714,新規,0,2021-12-24,2021-12-24,株式会社Ｒｉｓａｖｉｌｄ,,株式会社,東京都,渋谷区,渋谷２丁目１９番１５号宮益坂ビルディング６０９,,13,113,1500002,,,,,,,2021-12-24,1,,,,,リサビルド,0
1195,5011001144739,新規,0,2021-12-24,2021-12-24,株式会社ＡＴ　Ｃｏｎｎｅｃｔｉｏｎ,,株式会社,東京都,渋谷区,桜丘町１５番１４号フジビル４０・７Ｆ,,13,113,1500031,,,,,,,2021-12-24,1,,,,,エーティーコネクション,0
1196,5011001144747,新規,0,2021-12-24,2021-12-24,株式会社プチぺパン,,株式会社,東京都,渋谷区,渋谷１丁目４番６－１０１号,,13,113,1500002,,,,,,,2021-12-24,1,,,,,プチペパン,0
1197,5011001144755,新規,0,2021-12-24,2021-12-24,株式会社ＤＯＯＲ,,株式会社,東京都,渋谷区,渋谷２丁目１９番１５－６０９号宮益坂ビルディング,,13,113,1500002,,,,,,,2021-12-24,1,,,,,ドアー,0
1198,5011005009368,新規,0,2021-12-24,2021-12-24,司法書士法人Ｋｏｌｌｅｃｔカウンティ,,その他の設立登記法人,東京都,渋谷区,代々木１丁目４７番９号ザ・パークレックス代々木,,13,113,1510053,,,,,,,2021-12-24,1,,,,,コレクトカウンティ,0
1204,5011101097309,新規,0,2021-12-24,2021-12-24,株式会社ヨナ,,株式会社,東京都,新宿区,西新宿４丁目１６番１２号ライオンズマンション西新宿第８－２０７号室,,13,104,1600023,,,,,,,2021-12-24,1,,,,,ヨナ,0
1212,5011103011317,新規,0,2021-12-24,2021-12-24,合同会社こつめ企画,,合同会社,東京都,新宿区,西新宿３丁目３－１３西新宿水間ビル６Ｆ,,13,104,1600023,,,,,,,2021-12-24,1,,,,,,0
1214,5011203003718,新規,0,2021-12-24,2021-12-24,はなまる合同会社,,合同会社,東京都,中野区,東中野４丁目４－５－５０５,,13,114,1640003,,,,,,,2021-12-24,1,,,,,ハナマル,0
1217,5011601025628,新規,0,2021-12-24,2021-12-24,株式会社アール・プランニング,,株式会社,東京都,練馬区,石神井町６丁目３番１号,,13,120,1770041,,,,,,,2021-12-24,1,,,,,アールプランニング,0
1220,5011603003482,新規,0,2021-12-24,2021-12-24,合同会社ＬＵＰＵＳ,,合同会社,東京都,練馬区,豊玉北６丁目５番３号ジョイフル練馬４０３号,,13,120,1760012,,,,,,,2021-12-24,1,,,,,ルプス,0
1221,5011701024926,新規,0,2021-12-24,2021-12-24,株式会社ジャパフリ,,株式会社,東京都,江戸川区,平井４丁目１９番１１－１０２号ＰｉｎｅＨｉｌｌＥｓｔａｔｅ,,13,123,1320035,,,,,,,2021-12-24,1,,,,,ジャパフリ,0
1224,5011801040113,新規,0,2021-12-24,2021-12-24,株式会社東華通商,,株式会社,東京都,葛飾区,細田５丁目１１番１７号,,13,122,1240021,,,,,,,2021-12-24,1,,,,,トウカツウショウ,0
1230,5013101008807,新規,0,2021-12-24,2021-12-24,ＢＡＰＡＬＩＬＵＶＮＡ株式会社,,株式会社,東京都,福生市,加美平４丁目１番地,,13,218,1970012,,,,,,,2021-12-24,1,,,,,バパリルボナ,0
1237,5020001144392,新規,0,2021-12-24,2021-12-24,株式会社Ｍａｃｙ,,株式会社,神奈川県,川崎市幸区,小向西町３丁目５０番地三島ハイツ３０１,,14,132,2120004,,,,,,,2021-12-24,1,,,,,メイシー,0
1238,5020001144467,新規,0,2021-12-24,2021-12-24,株式会社ＣＯＮＡ,,株式会社,神奈川県,横浜市青葉区,美しが丘２丁目２８番地６たまプラーザガーデンハウス５０３,,14,117,2250002,,,,,,,2021-12-24,1,,,,,コナ,0
1239,5020001144475,新規,0,2021-12-24,2021-12-24,株式会社ＷＨＩＲＬ　ＷＩＮＤ,,株式会社,神奈川県,横浜市南区,井土ケ谷中町６５番地１,,14,105,2320052,,,,,,,2021-12-24,1,,,,,ワールウィンド,0
1240,5020001144491,新規,0,2021-12-24,2021-12-24,サミュエル株式会社,,株式会社,神奈川県,横浜市西区,みなとみらい２丁目２番１号,,14,103,2200012,,,,,,,2021-12-24,1,,,,,サミュエル,0
1246,5021001074811,新規,0,2021-12-24,2021-12-24,株式会社酒井工務店,,株式会社,神奈川県,足柄上郡中井町,井ノ口１８５６番地５,,14,361,2590151,,,,,,,2021-12-24,1,,,,,サカイコウムテン,0
1257,5030001145992,新規,0,2021-12-24,2021-12-24,ＧＣ株式会社,,株式会社,埼玉県,川越市,新宿町１丁目１７番地１７ウェスタ川越５２４号,,11,201,3501124,,,,,,,2021-12-24,1,,,,,ジーシー,0
1258,5030001146000,新規,0,2021-12-24,2021-12-24,株式会社デンエンプランニング,,株式会社,埼玉県,さいたま市岩槻区,東岩槻１丁目５番地１岩槻ハイツ店舗棟２０１,,11,110,3390005,,,,,,,2021-12-24,1,,,,,デンエンプランニング,0
1259,5030001146009,新規,0,2021-12-24,2021-12-24,１ｒｉｎｇ株式会社,,株式会社,埼玉県,さいたま市見沼区,大字上山口新田５３番地１,,11,104,3370044,,,,,,,2021-12-24,1,,,,,イチリン,0
1264,5030003018552,新規,0,2021-12-24,2021-12-24,合同会社結心,,合同会社,埼玉県,吉川市,栄町１４４１番地１３,,11,243,3420050,,,,,,,2021-12-24,1,,,,,ココロ,0
1274,5040001121522,新規,0,2021-12-24,2021-12-24,株式会社ＣＮ,,株式会社,千葉県,匝瑳市,飯倉台１９番地１６町家テラス２０２,,12,235,2892148,,,,,,,2021-12-24,1,,,,,シーエヌ,0
1280,5040003019194,新規,0,2021-12-24,2021-12-24,ＦＥＥＬＮＯＷ合同会社,,合同会社,千葉県,千葉市美浜区,高浜６丁目２２番１９号,,12,106,2610003,,,,,,,2021-12-24,1,,,,,フィールナウ,0
1281,5040003019203,新規,0,2021-12-24,2021-12-24,合同会社藍の丸不動産研究所,,合同会社,千葉県,千葉市美浜区,打瀬１丁目４番地,,12,106,2610013,,,,,,,2021-12-24,1,,,,,アイノマルフドウサンケンキュウジョ,0
1285,5050001050357,新規,0,2021-12-24,2021-12-24,株式会社アクツ技研,,株式会社,茨城県,古河市,葛生１７７４番地２,,08,204,3060211,,,,,,,2021-12-24,1,,,,,アクツギケン,0
1290,5080001024655,新規,0,2021-12-24,2021-12-24,株式会社ＹＢＤ,,株式会社,静岡県,静岡市清水区,八坂北２丁目３番２２号ＳＹＫ２４、２０３,,22,103,4240023,,,,,,,2021-12-24,1,,,,,ワイビーディー,0
1293,5100001034924,新規,0,2021-12-24,2021-12-24,株式会社ＢＬＵＥ,,株式会社,長野県,飯田市,上郷別府２７１４番地,,20,205,3950003,,,,,,,2021-12-24,1,,,,,ブルー,0
1308,5120001242707,新規,0,2021-12-24,2021-12-24,株式会社ＴＴＳ,,株式会社,大阪府,門真市,島頭４丁目１１番２号,,27,223,5710016,,,,,,,2021-12-24,1,,,,,ティーティーエス,0
1309,5120001242748,新規,0,2021-12-24,2021-12-24,株式会社和洛,,株式会社,大阪府,大阪市港区,市岡元町２丁目６番１１－２０６号,,27,107,5520002,,,,,,,2021-12-24,1,,,,,ワラク,0
1313,5120103004492,新規,0,2021-12-24,2021-12-24,合同会社エイト・オー,,合同会社,大阪府,泉大津市,池浦町４丁目３番３１号,,27,206,5950024,,,,,,,2021-12-24,1,,,,,エイトオー,0
1320,5122001035454,新規,0,2021-12-24,2021-12-24,株式会社Ｋ．Ｍ,,株式会社,大阪府,東大阪市,高井田西１丁目１０番１６号,,27,227,5770067,,,,,,,2021-12-24,1,,,,,ケーエム,0
1321,5122003002238,新規,0,2021-12-24,2021-12-24,合同会社ｃｉｒｃｌｅ,,合同会社,大阪府,八尾市,北本町２丁目１２番１号,,27,212,5810802,,,,,,,2021-12-24,1,,,,,サークル,0
1334,5140001124317,新規,0,2021-12-24,2021-12-24,株式会社ＩＨＭブラザーズ,,株式会社,兵庫県,芦屋市,茶屋之町１１番１２号,,28,206,6590067,,,,,,,2021-12-24,1,,,,,アイエイチエムブラザーズ,0
1335,5140001124333,新規,0,2021-12-24,2021-12-24,株式会社Ｆｒｅｄｄｏ,,株式会社,兵庫県,加東市,吉井３３４番地,,28,228,6731334,,,,,,,2021-12-24,1,,,,,フレッド,0
1337,5140003017139,新規,0,2021-12-24,2021-12-24,合同会社泰伽,,合同会社,兵庫県,宝塚市,山本丸橋１丁目７番１５号,,28,214,6650815,,,,,,,2021-12-24,1,,,,,ヤスラカ,0
1338,5140005025965,新規,0,2021-12-24,2021-12-24,医療法人社団優誠会,,その他の設立登記法人,兵庫県,明石市,東仲ノ町１０番１８号みなとビル明石東仲ノ町２階,,28,203,6730886,,,,,,,2021-12-24,1,,,,,ユウセイカイ,0
1339,5150001025183,新規,0,2021-12-24,2021-12-24,株式会社光輝,,株式会社,奈良県,橿原市,東坊城町２２１番地の７,,29,205,6340835,,,,,,,2021-12-24,1,,,,,カガヤキ,0
1340,5150001025200,新規,0,2021-12-24,2021-12-24,株式会社コダマシーン,,株式会社,奈良県,橿原市,菖蒲町３丁目２番７号,,29,205,6340042,,,,,,,2021-12-24,1,,,,,コダマシーン,0
1341,5150003002569,新規,0,2021-12-24,2021-12-24,合同会社ＹＡＭＡＴＯ,,合同会社,奈良県,葛城市,北花内６００番地３号,,29,211,6392113,,,,,,,2021-12-24,1,,,,,ヤマト,0
1345,5160001023896,新規,0,2021-12-24,2021-12-24,株式会社Ｐｅａｃｅ　Ｓｔａｃｋ,,株式会社,滋賀県,大津市,青山６丁目１２番１０号,,25,201,5202101,,,,,,,2021-12-24,1,,,,,ピーススタック,0
1347,5160003002452,新規,0,2021-12-24,2021-12-24,クリエイト合同会社,,合同会社,滋賀県,彦根市,八坂町２０６１番地１０３,,25,202,5220057,,,,,,,2021-12-24,1,,,,,クリエイト,0
1348,5160005011022,新規,0,2021-12-24,2021-12-24,一般社団法人滋賀建設組合,,その他の設立登記法人,滋賀県,大津市,京町４丁目４番２３号アソルティ大津京町,,25,201,5200044,,,,,,,2021-12-24,1,,,,,シガケンセツクミアイ,0
1356,5180001149269,新規,0,2021-12-24,2021-12-24,株式会社井道建設,,株式会社,愛知県,一宮市,大和町福森字馬引境１３番地３,,23,203,4910935,,,,,,,2021-12-24,1,,,,,イミチケンセツ,0
1362,5190001028967,新規,0,2021-12-24,2021-12-24,株式会社うな錦,,株式会社,三重県,四日市市,生桑町２６７番地１,,24,202,5120911,,,,,,,2021-12-24,1,,,,,ウナキン,0
1367,5200001039558,新規,0,2021-12-24,2021-12-24,株式会社ＮＡＣＳ,,株式会社,岐阜県,岐阜市,岩滝東３丁目１７８番地,,21,201,5013151,,,,,,,2021-12-24,1,,,,,ナックス,0
1368,5200001039566,新規,0,2021-12-24,2021-12-24,株式会社伸光窯,,株式会社,岐阜県,土岐市,泉町定林寺６２９番地の２,,21,212,5095102,,,,,,,2021-12-24,1,,,,,シンコウガマ,0
1370,5220001024608,新規,0,2021-12-24,2021-12-24,株式会社ＬＯＬＯ,,株式会社,石川県,金沢市,新竪町３丁目７４番地,,17,201,9200995,,,,,,,2021-12-24,1,,,,,ロロ,0
1378,5250001019316,新規,0,2021-12-24,2021-12-24,株式会社ＡｔｏＺ,,株式会社,山口県,宇部市,大字西岐波１２６９番地１,,35,202,7550151,,,,,,,2021-12-24,1,,,,,エートゥゼット,0
1379,5250003002971,新規,0,2021-12-24,2021-12-24,合同会社アトリエミー,,合同会社,山口県,下関市,武久町１丁目１９番１８－４０１,,35,201,7510833,,,,,,,2021-12-24,1,,,,,アトリエミー,0
1389,5290001095808,新規,0,2021-12-24,2021-12-24,Ｆｅｅｌ　Ｓｏｎｇｏｏｄ株式会社,,株式会社,福岡県,福岡市早良区,次郎丸５丁目１３番４７号,,40,137,8140165,,,,,,,2021-12-24,1,,,,,フィールソングッド,0
1393,5290005018491,新規,0,2021-12-24,2021-12-24,医療法人東合川山田整形外科・リハビリテーション科,,その他の設立登記法人,福岡県,久留米市,東合川４丁目９番地１,,40,203,8390809,,,,,,,2021-12-24,1,,,,,ヒガシアイカワヤマダセイケイゲカリハビリテーションカ,0
1396,5290801028108,新規,0,2021-12-24,2021-12-24,クリエイションバリュー株式会社,,株式会社,福岡県,北九州市八幡東区,河内３丁目４番１６号,,40,108,8050045,,,,,,,2021-12-24,1,,,,,クリエイションバリュー,0
1399,5300001012752,新規,0,2021-12-24,2021-12-24,ＴＨＥ　ＢＯＤＹ　ＢＥＡＵＴＩＦＵＬ株式会社,,株式会社,佐賀県,佐賀市,神野東４丁目７番２１号,,41,201,8400804,,,,,,,2021-12-24,1,,,,,ザボディビューティフル,0
1404,5320001018806,新規,0,2021-12-24,2021-12-24,株式会社ＨＩＲＯＫＡＤＯ,,株式会社,大分県,別府市,大字南立石３９５番地の２６,,44,202,8740000,,,,,,,2021-12-24,1,,,,,ヒロカド,0
1407,5340001024348,新規,0,2021-12-24,2021-12-24,株式会社パンの木ベーカリー,,株式会社,鹿児島県,霧島市,溝辺町麓１６９１番地７,,46,218,8996404,,,,,,,2021-12-24,1,,,,,パンノキベーカリー,0
1411,5350005006036,新規,0,2021-12-24,2021-12-24,特定非営利活動法人らしく,,その他の設立登記法人,宮崎県,都城市,下川東１丁目１１－２,,45,202,8850011,,,,,,,2021-12-24,1,,,,,ラシク,0
1418,5370001047981,新規,0,2021-12-24,2021-12-24,株式会社陸奥守,,株式会社,宮城県,黒川郡大和町,杜の丘２丁目１０番地の８,,04,421,9813628,,,,,,,2021-12-24,1,,,,,ムツモリ,0
1420,5370005010416,新規,0,2021-12-24,2021-12-24,一般社団法人ＷＡＤＡＣＨＩ,,その他の設立登記法人,宮城県,石巻市,門脇町５丁目１１番１号,,04,202,9860834,,,,,,,2021-12-24,1,,,,,ワダチ,0
1431,5410001013054,新規,0,2021-12-24,2021-12-24,株式会社МＤＳ,,株式会社,秋田県,秋田市,添川字境内川原２０番地１０,,05,201,0100822,,,,,,,2021-12-24,1,,,,,エムディエス,0
1433,5420001017681,新規,0,2021-12-24,2021-12-24,株式会社リボン,,株式会社,青森県,北津軽郡鶴田町,大字鶴田字生松４番地２,,02,384,0383503,,,,,,,2021-12-24,1,,,,,リボン,0
1435,5430001085645,新規,0,2021-12-24,2021-12-24,株式会社Ｒａｖｉｅｎｒｏｓｅ,,株式会社,北海道,札幌市中央区,南三条東３丁目８番地ラフィネタワー札幌南３条１８０５号,,01,101,0600053,,,,,,,2021-12-24,1,,,,,ラビアンローズ,0
1440,5440001009000,新規,0,2021-12-24,2021-12-24,株式会社Ｙ’ｓファーム,,株式会社,北海道,山越郡長万部町,字静狩４４６番地６,,01,347,0495141,,,,,,,2021-12-24,1,,,,,ワイズファーム,0
1444,5490003001611,新規,0,2021-12-24,2021-12-24,合同会社土居興業,,合同会社,高知県,高知市,薊野西町３丁目３１番１７号,,39,201,7810015,,,,,,,2021-12-24,1,,,,,ドイコウギョウ,0
1448,5700150106174,新規,0,2021-12-24,2021-12-10,岐阜駅北中央西地区市街地再開発準備組合,,その他,岐阜県,羽島市,竹鼻町丸の内１丁目１４,,21,209,5016244,,,,,,,2021-12-10,1,,,,,ギフエキキタチユウオウニシチクシガイチサイカイハツジユンビクミアイ,0
1457,6010001223436,新規,0,2021-12-24,2021-12-24,ＢＢＭ株式会社,,株式会社,東京都,中央区,銀座２丁目１２番４－４０１号,,13,102,1040061,,,,,,,2021-12-24,1,,,,,ビービーエム,0
1458,6010001223502,新規,0,2021-12-24,2021-12-24,株式会社ｄｅｅｐｔｉｅｒ,,株式会社,東京都,千代田区,富士見１丁目６番１号フジビュータワー飯田橋９０２,,13,101,1020071,,,,,,,2021-12-24,1,,,,,ディープティア,0
1460,6010003036605,新規,0,2021-12-24,2021-12-24,合同会社ｏｐｔｇｅｎ,,合同会社,東京都,文京区,小石川１丁目１０番５－１４０８号,,13,105,1120002,,,,,,,2021-12-24,1,,,,,オプトジェン,0
1464,6010005034375,新規,0,2021-12-24,2021-12-24,一般社団法人志鴻会,,その他の設立登記法人,東京都,中央区,銀座８丁目８番１号,,13,102,1040061,,,,,,,2021-12-24,1,,,,,シコウカイ,0
1477,6010501048250,新規,0,2021-12-24,2021-12-24,春日櫻山食品株式会社,,株式会社,東京都,台東区,台東３丁目３０番９号クリオラベルヴィ新御徒町６０３号,,13,106,1100016,,,,,,,2021-12-24,1,,,,,カスガサクラヤマショクヒン,0
1478,6010501048259,新規,0,2021-12-24,2021-12-24,手打ち蕎麦たけむら株式会社,,株式会社,東京都,台東区,台東４丁目３１番６号,,13,106,1100016,,,,,,,2021-12-24,1,,,,,テウチソバタケムラ,0
1481,6010601060428,新規,0,2021-12-24,2021-12-24,ＣＬＥＲＡ株式会社,,株式会社,東京都,江東区,豊洲６丁目２番３１－１５１１号,,13,108,1350061,,,,,,,2021-12-24,1,,,,,クレラ,0
1489,6010901050046,新規,0,2021-12-24,2021-12-24,株式会社ＮＯＢＯＤＣＲ,,株式会社,東京都,世田谷区,下馬５丁目３６番２２－１０８号,,13,112,1540002,,,,,,,2021-12-24,1,,,,,ノーボーダー,0
1490,6010901050062,新規,0,2021-12-24,2021-12-24,スリーグッドジャパン株式会社,,株式会社,東京都,世田谷区,経堂５丁目２９番２１号,,13,112,1560052,,,,,,,2021-12-24,1,,,,,スリーグッドジャパン,0
1492,6010903007036,新規,0,2021-12-24,2021-12-24,Ｋｉｒｏｎｉｃｓ合同会社,,合同会社,東京都,世田谷区,松原５丁目３番１５号鈴木ビル３Ｆ,,13,112,1560043,,,,,,,2021-12-24,1,,,,,キロニクス,0
1493,6010905004238,新規,0,2021-12-24,2021-12-24,弁護士法人巴法律事務所,,その他の設立登記法人,東京都,世田谷区,千歳台６丁目１６番７－７１４号,,13,112,1570071,,,,,,,2021-12-24,1,,,,,トモエホウリツジムショ,0
1503,6011103011308,新規,0,2021-12-24,2021-12-24,合同会社Ｋｅｓｅｒａ　Ｗａｙ,,合同会社,東京都,新宿区,中町１５番地神楽坂マンション３０５,,13,104,1620835,,,,,,,2021-12-24,1,,,,,ケセラウェイ,0
1504,6011105010076,新規,0,2021-12-24,2021-12-24,ＭＴ管理組合法人,,その他の設立登記法人,東京都,新宿区,戸塚町１丁目１０２番地,,13,104,1690071,,,,,,,2021-12-24,1,,,,,エムティー,0
1508,6011501027590,新規,0,2021-12-24,2021-12-24,株式会社グロー・エイジング,,株式会社,東京都,北区,東十条３丁目１３－１７グランコート東十条１０１,,13,117,1140001,,,,,,,2021-12-24,1,,,,,グローエイジング,0
1509,6011601025627,新規,0,2021-12-24,2021-12-24,株式会社友輪防水,,株式会社,東京都,練馬区,関町北５丁目１８番３７号,,13,120,1770051,,,,,,,2021-12-24,1,,,,,ユウワボウスイ,0
1510,6011703003035,新規,0,2021-12-24,2021-12-24,合同会社Ｍｉｋａｔｓｕｋｉ,,合同会社,東京都,江戸川区,中葛西５丁目２－２９ＯＦＦＩＣＥ５２２９ＢＬＤＧ．０３０２号室,,13,123,1340083,,,,,,,2021-12-24,1,,,,,ミカツキ,0
1513,6011801040112,新規,0,2021-12-24,2021-12-24,株式会社ＴＥＴＯ,,株式会社,東京都,葛飾区,柴又５丁目２７－１０ローゼハイム３０２,,13,122,1250052,,,,,,,2021-12-24,1,,,,,テト,0
1530,6021001074810,新規,0,2021-12-24,2021-12-24,株式会社林工業,,株式会社,神奈川県,相模原市南区,磯部２１１６番地３,,14,153,2520327,,,,,,,2021-12-24,1,,,,,ハヤシコウギョウ,0
1531,6021001074819,新規,0,2021-12-24,2021-12-24,株式会社ｆｕｋｕｂｏｋｕ,,株式会社,神奈川県,横須賀市,須軽谷７３６番地,,14,201,2380314,,,,,,,2021-12-24,1,,,,,フクボク,0
1537,6030001145991,新規,0,2021-12-24,2021-12-24,株式会社千代,,株式会社,埼玉県,狭山市,中央１丁目４２番２５号,,11,215,3501308,,,,,,,2021-12-24,1,,,,,チヨ,0
1538,6030001146008,新規,0,2021-12-24,2021-12-24,株式会社ＩＣＨＩＣＯＮ,,株式会社,埼玉県,川口市,金山町１２番１号サウスゲートタワー川口２ＦＭｉｏ川口,,11,203,3320014,,,,,,,2021-12-24,1,,,,,イチコン,0
1541,6030003018535,新規,0,2021-12-24,2021-12-24,合同会社ＴＫＭ商事,,合同会社,埼玉県,熊谷市,御正新田１７番地１,,11,202,3600113,,,,,,,2021-12-24,1,,,,,ティーケーエムショウジ,0
1542,6030003018551,新規,0,2021-12-24,2021-12-24,合同会社ＣＬＡＣＩＹＡＳ,,合同会社,埼玉県,さいたま市南区,大字太田窪２９０１番地１レカン壱番館２０２,,11,108,3360015,,,,,,,2021-12-24,1,,,,,クラシヤス,0
1549,6040001121455,新規,0,2021-12-24,2021-12-24,株式会社ＣＫインターナショナル,,株式会社,千葉県,船橋市,本町６丁目２６番６号扇屋ビル５Ｆ,,12,204,2730005,,,,,,,2021-12-24,1,,,,,シーケーインターナショナル,0
1550,6040001121463,新規,0,2021-12-24,2021-12-24,株式会社Ｂｅｔａｐｉｎ,,株式会社,千葉県,千葉市緑区,あすみが丘９丁目３番地１,,12,105,2670066,,,,,,,2021-12-24,1,,,,,ベタピン,0
1551,6040001121471,新規,0,2021-12-24,2021-12-24,布施光学株式会社,,株式会社,千葉県,市川市,市川南２丁目６番４棟３０４号,,12,203,2720033,,,,,,,2021-12-24,1,,,,,フセコウガク,0
1552,6040001121488,新規,0,2021-12-24,2021-12-24,株式会社ＨａｖｅＦｕｎ,,株式会社,千葉県,柏市,北柏２丁目１３番地の４,,12,217,2770832,,,,,,,2021-12-24,1,,,,,ハブファン,0
1555,6040003019160,新規,0,2021-12-24,2021-12-24,合同会社美織堂,,合同会社,千葉県,野田市,尾崎８６７番地３,,12,208,2700235,,,,,,,2021-12-24,1,,,,,ミオリドウ,0
1556,6040003019177,新規,0,2021-12-24,2021-12-24,合同会社Ｈ２,,合同会社,千葉県,船橋市,大穴北３丁目１４－１３,,12,204,2740068,,,,,,,2021-12-24,1,,,,,エイチツー,0
1557,6040003019193,新規,0,2021-12-24,2021-12-24,ＨＴ　ＶＩＮＡ　ＳＴＡＲ合同会社,,合同会社,千葉県,市川市,湊新田２丁目５番１９号（ディアコート榎本１０３号）,,12,203,2720132,,,,,,,2021-12-24,1,,,,,エイチティヴィナスター,0
1559,6050001050356,新規,0,2021-12-24,2021-12-24,株式会社豊建,,株式会社,茨城県,石岡市,根当１１９７９番地１,,08,205,3150029,,,,,,,2021-12-24,1,,,,,トヨケン,0
1564,6070001038770,新規,0,2021-12-24,2021-12-24,株式会社Ｋクリエイティブ,,株式会社,群馬県,前橋市,総社町総社１２６６番地３６,,10,201,3710852,,,,,,,2021-12-24,1,,,,,,0
1566,6080001024654,新規,0,2021-12-24,2021-12-24,株式会社Ｂｏｎｄ　Ｃｏｒｐｏｒａｔｉｏｎ,,株式会社,静岡県,藤枝市,青木１丁目１７番１８号,,22,214,4260037,,,,,,,2021-12-24,1,,,,,ボンドコーポレーション,0
1572,6100001034923,新規,0,2021-12-24,2021-12-24,株式会社宝星澤,,株式会社,長野県,松本市,本庄２丁目３番２５号,,20,202,3900814,,,,,,,2021-12-24,1,,,,,ホウセイサワ,0
1588,6120001242697,新規,0,2021-12-24,2021-12-24,株式会社Ｃ．Ｓ．Ｋ,,株式会社,大阪府,大阪市城東区,諏訪３丁目４－１５タルミハイツ１０３,,27,118,5360021,,,,,,,2021-12-24,1,,,,,シーエスケー,0
1589,6120001242730,新規,0,2021-12-24,2021-12-24,株式会社ＱＬＵＭＡ,,株式会社,大阪府,大阪市福島区,海老江３丁目１０番１３号,,27,103,5530001,,,,,,,2021-12-24,1,,,,,クルマ,0
1590,6120001242739,新規,0,2021-12-24,2021-12-24,株式会社ＪＭ,,株式会社,大阪府,大阪市中央区,瓦町３丁目１番３クレヴィアタワー大阪本町１６０２号,,27,128,5410048,,,,,,,2021-12-24,1,,,,,ジェイエム,0
1591,6120001242747,新規,0,2021-12-24,2021-12-24,貞素株式会社,,株式会社,大阪府,大阪市港区,市岡元町２丁目６番１１－１０６号,,27,107,5520002,,,,,,,2021-12-24,1,,,,,テイソ,0
1597,6120101064843,新規,0,2021-12-24,2021-12-24,株式会社ａ＆ｎ,,株式会社,大阪府,岸和田市,田治米町５８７番地,,27,202,5960805,,,,,,,2021-12-24,1,,,,,エーアンドエヌ,0
1601,6122001035453,新規,0,2021-12-24,2021-12-24,株式会社大昇コーポレーション,00125233,株式会社,大阪府,東大阪市,西石切町３丁目８番４０号,,27,227,5798013,,,,,,,2021-12-24,1,,,,,ダイショウコーポレーション,0
1605,6130005016345,新規,0,2021-12-24,2021-12-24,一般社団法人ｅｃｏｒｏｍａｐ,,その他の設立登記法人,京都府,京都市上京区,宮垣町９１番地１０２,,26,102,6020853,,,,,,,2021-12-24,1,,,,,エコロマップ,0
1609,6140001124332,新規,0,2021-12-24,2021-12-24,株式会社トーシンイレクション,,株式会社,兵庫県,尼崎市,水堂町４丁目６番１２号,,28,202,6610026,,,,,,,2021-12-24,1,,,,,トーシンイレクション,0
1610,6140001124340,新規,0,2021-12-24,2021-12-24,株式会社リフィックス,,株式会社,兵庫県,伊丹市,桜ケ丘７丁目１－１０－１０２,,28,207,6640897,,,,,,,2021-12-24,1,,,,,リフィックス,0
1613,6140003017146,新規,0,2021-12-24,2021-12-24,ＫＨＡＮＨ　ＭＯＭ合同会社,,合同会社,兵庫県,神戸市兵庫区,福原町３－２２福原町ビル１－２Ｆ,,28,105,6520036,,,,,,,2021-12-24,1,,,,,カンエムオーエム,0
1614,6140005025956,新規,0,2021-12-24,2021-12-24,一般社団法人ぷくぷく,,その他の設立登記法人,兵庫県,神戸市北区,山田町上谷上字古々山２９番地３３９ｂｌａｎｃｕｂｅ大池１０３,,28,109,6511242,,,,,,,2021-12-24,1,,,,,プクプク,0
1615,6140005025964,新規,0,2021-12-24,2021-12-24,社会保険労務士法人Ｍ．Ｊ．ＮＥＴ,,その他の設立登記法人,兵庫県,神戸市中央区,熊内橋通６丁目３番１１号,,28,110,6510055,,,,,,,2021-12-24,1,,,,,エムジェイネット,0
1616,6150003002568,新規,0,2021-12-24,2021-12-24,ＩＷＡＴＡ合同会社,,合同会社,奈良県,香芝市,良福寺５６－１６,,29,210,6390235,,,,,,,2021-12-24,1,,,,,イワタ,0
1617,6150003002576,新規,0,2021-12-24,2021-12-24,合同会社フィールドエンジニアリング,,合同会社,奈良県,橿原市,葛本町５７３番地,,29,205,6340007,,,,,,,2021-12-24,1,,,,,フィールドエンジニアリング,0
1619,6160001023895,新規,0,2021-12-24,2021-12-24,ことばの力株式会社,,株式会社,滋賀県,長浜市,大宮町９番１２号,,25,203,5260054,,,,,,,2021-12-24,1,,,,,コトバノチカラ,0
1627,6180001149235,新規,0,2021-12-24,2021-12-24,株式会社パルス,,株式会社,愛知県,名古屋市千種区,内山３丁目２５－６,,23,101,4640075,,,,,,,2021-12-24,1,,,,,パルス,0
1635,6180005019574,新規,0,2021-12-24,2021-12-24,一般社団法人戌起の会,,その他の設立登記法人,愛知県,弥富市,前ケ須町戌起１４番地,,23,235,4980017,,,,,,,2021-12-24,1,,,,,イヌオコシノカイ,0
1639,6180301035754,新規,0,2021-12-24,2021-12-24,株式会社丸ま佐藤,,株式会社,愛知県,西尾市,一色町味浜下川田３９番地１６,,23,213,4440422,,,,,,,2021-12-24,1,,,,,マルマサトウ,0
1641,6180303005177,新規,0,2021-12-24,2021-12-24,ＳａａＳＥＯ合同会社,,合同会社,愛知県,岡崎市,真伝２丁目７番地１,,23,202,4443175,,,,,,,2021-12-24,1,,,,,サーエスイーオー,0
1642,6190001028966,新規,0,2021-12-24,2021-12-24,川村電機株式会社,,株式会社,三重県,四日市市,ときわ３丁目２番２５号,,24,202,5100834,,,,,,,2021-12-24,1,,,,,カワムラデンキ,0
1644,6200001039557,新規,0,2021-12-24,2021-12-24,株式会社建創,,株式会社,岐阜県,大垣市,久瀬川町２丁目２７番地１,,21,202,5030974,,,,,,,2021-12-24,1,,,,,ケンソウ,0
1645,6200001039565,新規,0,2021-12-24,2021-12-24,株式会社Ｋ　Ｇｒｏｕｐ,,株式会社,岐阜県,岐阜市,玉宮町２丁目４番地３Ｅ－２ビル１Ｆ,,21,201,5008835,,,,,,,2021-12-24,1,,,,,ケイグループ,0
1648,6220001024607,新規,0,2021-12-24,2021-12-24,株式会社Ｒｏｕｎｄｓ,,株式会社,石川県,河北郡津幡町,字加賀爪ニ５４,,17,361,9290325,,,,,,,2021-12-24,1,,,,,ラウンズ,0
1651,6250003002970,新規,0,2021-12-24,2021-12-24,トワレス合同会社,,合同会社,山口県,周南市,大字徳山４１８４番地,,35,215,7450851,,,,,,,2021-12-24,1,,,,,トワレス,0
1654,6260001036342,新規,0,2021-12-24,2021-12-24,株式会社テンポイント,,株式会社,岡山県,倉敷市,中庄２３４８番地３,,33,202,7100016,,,,,,,2021-12-24,1,,,,,テンポイント,0
1655,6260001036350,新規,0,2021-12-24,2021-12-24,株式会社栄輝工業,,株式会社,岡山県,岡山市中区,海吉１４６１番地１,,33,102,7038261,,,,,,,2021-12-24,1,,,,,エイキコウギョウ,0
1657,6260003003753,新規,0,2021-12-24,2021-12-24,合同会社ＭＢＣアセットマネジメント,,合同会社,岡山県,岡山市北区,久米２６５番地４,,33,101,7010144,,,,,,,2021-12-24,1,,,,,エムビーシーアセットマネジメント,0
1668,6290001095807,新規,0,2021-12-24,2021-12-24,Ａ・Ｙ・グランディール株式会社,,株式会社,福岡県,大野城市,緑ケ丘１丁目９番１１号,,40,219,8160961,,,,,,,2021-12-24,1,,,,,エーワイグランディール,0
1670,6290003011951,新規,0,2021-12-24,2021-12-24,合同会社ＭＣ．カンパニー,,合同会社,福岡県,福岡市東区,香椎３丁目４８－１０,,40,131,8130011,,,,,,,2021-12-24,1,,,,,エムシーカンパニー,0
1671,6290801028107,新規,0,2021-12-24,2021-12-24,株式会社ＫＣ電機,,株式会社,福岡県,行橋市,泉中央８丁目４番１５号,,40,213,8240034,,,,,,,2021-12-24,1,,,,,ケーシーデンキ,0
1678,6320003003680,新規,0,2021-12-24,2021-12-24,ＤＡＩＳＹ貿易合同会社,,合同会社,大分県,大分市,城崎町１丁目３－９リファレンス城崎４０２,,44,201,8700045,,,,,,,2021-12-24,1,,,,,デイジーボウエキ,0
1682,6340001024347,新規,0,2021-12-24,2021-12-24,株式会社徳田林業,00125223,株式会社,鹿児島県,霧島市,国分郡田５６６番地１,,46,218,8994305,,,,,,,2021-12-24,1,,,,,トクダリンギョウ,0
1691,6360001029773,新規,0,2021-12-24,2021-12-24,しまのとき株式会社,,株式会社,沖縄県,石垣市,字新川３番地,,47,207,9070024,,,,,,,2021-12-24,1,,,,,シマノトキ,0
1696,6370003005524,新規,0,2021-12-24,2021-12-24,合同会社ｗｉｔｈ結,,合同会社,宮城県,登米市,東和町米谷字新細待井４１－１０,,04,212,9870902,,,,,,,2021-12-24,1,,,,,ウィズユー,0
1707,6460301005027,新規,0,2021-12-24,2021-12-24,株式会社地域価値協創システム,,株式会社,北海道,網走郡美幌町,字仲町２丁目１番地,,01,543,0920004,,,,,,,2021-12-24,1,,,,,チイキカチキョウソウシステム,0
1709,6470001018880,新規,0,2021-12-24,2021-12-24,株式会社ＮＦＣ,,株式会社,香川県,仲多度郡まんのう町,塩入１３番地１,,37,406,7690302,,,,,,,2021-12-24,1,,,,,エヌエフシー,0
1718,6500001023893,新規,0,2021-12-24,2021-12-24,株式会社ＨＧ,,株式会社,愛媛県,松山市,高岡町６３０－１,,38,201,7918036,,,,,,,2021-12-24,1,,,,,エイチジー,0
1721,6700150068835,新規,0,2021-12-24,2015-12-17,福岡県司法書士会　福岡西支部,,その他,福岡県,福岡市早良区,祖原１４－１３ロマネスク西新２０８号,,40,137,8140005,,,,,,,2015-12-17,1,,,,,フクオカケンシホウシヨシカイフクオカニシシブ,0
1730,7010001223427,新規,0,2021-12-24,2021-12-24,ｆａｌｃｏｎ－ｏｎｅ株式会社,,株式会社,東京都,千代田区,神田猿楽町２丁目８番１１号ＶＯＲＴ水道橋ＩＩＩ９階ＩＧＮＩＳ内,00125220,13,101,1010064,,,,,,,2021-12-24,1,,,,,ファルコンワン,0
1731,7010001223435,新規,0,2021-12-24,2021-12-24,ＨＥＬＩＯＳ株式会社,,株式会社,東京都,千代田区,麹町５丁目３番地,,13,101,1020083,,,,,,,2021-12-24,1,,,,,ヘリオス,0
1732,7010001223501,新規,0,2021-12-24,2021-12-24,株式会社ヘノカンパニー,,株式会社,東京都,千代田区,神田須田町２丁目１５番地クレアール神田４０４号,,13,101,1010041,,,,,,,2021-12-24,1,,,,,ヘノカンパニー,0
1737,7010401164634,新規,0,2021-12-24,2021-12-24,株式会社ＧＳＴ,,株式会社,東京都,港区,港南２丁目１６番７－３４０５号,,13,103,1080075,,,,,,,2021-12-24,1,,,,,ジーエスティー,0
1740,7010501048258,新規,0,2021-12-24,2021-12-24,株式会社樽誠,,株式会社,東京都,台東区,上野３丁目２３番２号,,13,106,1100005,,,,,,,2021-12-24,1,,,,,タルセイ,0
1744,7010601060427,新規,0,2021-12-24,2021-12-24,株式会社天とてん東京,,株式会社,東京都,江東区,佐賀１丁目１６番３号,,13,108,1350031,,,,,,,2021-12-24,1,,,,,テントテントウキョウ,0
1745,7010703006047,新規,0,2021-12-24,2021-12-24,合同会社カクタソ,,合同会社,東京都,品川区,上大崎４丁目６番１６号,,13,109,1410021,,,,,,,2021-12-24,1,,,,,カクタソ,0
1748,7010801032606,新規,0,2021-12-24,2021-12-24,泉商会株式会社,,株式会社,東京都,大田区,鵜の木１丁目２番７－１０３号,,13,111,1460091,,,,,,,2021-12-24,1,,,,,イズミショウカイ,0
1750,7010803003992,新規,0,2021-12-24,2021-12-24,合同会社平和島,,合同会社,東京都,大田区,大森東１丁目３１番１号シティコープ大森東６０１号室,,13,111,1430012,,,,,,,2021-12-24,1,,,,,ヘイワジマ,0
1759,7010903007035,新規,0,2021-12-24,2021-12-24,合同会社ＰＡＬ,,合同会社,東京都,世田谷区,桜新町２丁目２８番１６－４０１,,13,112,1540015,,,,,,,2021-12-24,1,,,,,パル,0
1765,7011001144712,新規,0,2021-12-24,2021-12-24,株式会社Ｂｒｉｇｈｔｉｓｔ,,株式会社,東京都,渋谷区,神宮前６丁目２３番４号桑野ビル２階,,13,113,1500001,,,,,,,2021-12-24,1,,,,,ブライテスト,0
1766,7011001144729,新規,0,2021-12-24,2021-12-24,株式会社Ｙｏｕｒ　Ｆｉｌｍｓ,,株式会社,東京都,渋谷区,渋谷３丁目１番８号,,13,113,1500002,,,,,,,2021-12-24,1,,,,,ユアフィルムズ,0
1768,7011005009358,新規,0,2021-12-24,2021-12-24,一般社団法人ＣＯＲＤ　ＰＲＯＪＥＣＴ,,その他の設立登記法人,東京都,渋谷区,鶯谷町２番３号ＣＯＭＳ１－Ａ,,13,113,1500032,,,,,,,2021-12-24,1,,,,,コードプロジェクト,0
1769,7011005009374,新規,0,2021-12-24,2021-12-24,ウェル土地家屋調査士法人,,その他の設立登記法人,東京都,渋谷区,東２丁目２３番８号渋谷ＭＭＩビル３Ａ,,13,113,1500011,,,,,,,2021-12-24,1,,,,,ウェル,0
1774,7011103011315,新規,0,2021-12-24,2021-12-24,合同会社ＰＯＮＯＡＨ,,合同会社,東京都,新宿区,矢来町４１番地ラヴィ神楽坂１０１,,13,104,1620805,,,,,,,2021-12-24,1,,,,,ポノア,0
1775,7011301027427,新規,0,2021-12-24,2021-12-24,株式会社エラスティックレーベル,,株式会社,東京都,杉並区,阿佐谷北２丁目２１番１９号,,13,115,1660001,,,,,,,2021-12-24,1,,,,,エラスティックレーベル,0
1777,7011503005016,新規,0,2021-12-24,2021-12-24,合同会社ウエスト,,合同会社,東京都,荒川区,西尾久２丁目４番１５－３０５号,,13,118,1160011,,,,,,,2021-12-24,1,,,,,ウエスト,0
1779,7011601025626,新規,0,2021-12-24,2021-12-24,株式会社Ｐｏｌａｒｉｓ,,株式会社,東京都,練馬区,南田中１丁目２０番１９号１Ｆ,,13,120,1770035,,,,,,,2021-12-24,1,,,,,ポラリス,0
1781,7011703003034,新規,0,2021-12-24,2021-12-24,合同会社アカリエ,,合同会社,東京都,江戸川区,小松川３丁目９番１－８０７号,,13,123,1320034,,,,,,,2021-12-24,1,,,,,アカリエ,0
1785,7011801040103,新規,0,2021-12-24,2021-12-24,セレンディピティ株式会社,,株式会社,東京都,足立区,西新井本町５丁目２番４－２０５号,,13,121,1230845,,,,,,,2021-12-24,1,,,,,セレンディピティ,0
1786,7011801040111,新規,0,2021-12-24,2021-12-24,株式会社ＡＣＴ,,株式会社,東京都,足立区,南花畑４丁目２５番１２－１０２号,,13,121,1210062,,,,,,,2021-12-24,1,,,,,アクト,0
1796,7012403005171,新規,0,2021-12-24,2021-12-24,荒井運送合同会社,,合同会社,東京都,三鷹市,上連雀７丁目３２－１２、１０２,,13,204,1810012,,,,,,,2021-12-24,1,,,,,アライウンソウ,0
1803,7013301048469,新規,0,2021-12-24,2021-12-24,株式会社Ｉｎｃｏｍｅ　Ｄｉｖｅｒｓｉｔｙ,,株式会社,東京都,豊島区,南池袋２丁目４５番２－３１０２号,,13,116,1710022,,,,,,,2021-12-24,1,,,,,インカムダイバーシティ,0
1807,7020001144465,新規,0,2021-12-24,2021-12-24,株式会社ＫＪ鉄板レンタル,,株式会社,神奈川県,横浜市泉区,中田東３丁目１０番２２号,,14,116,2450013,,,,,,,2021-12-24,1,,,,,ケイジェイテッパンレンタル,0
1809,7020003021019,新規,0,2021-12-24,2021-12-24,ケーエヌワイ合同会社,,合同会社,神奈川県,川崎市川崎区,追分町１４番１４－８０９号ジェイパーク・シティ川崎,,14,131,2100835,,,,,,,2021-12-24,1,,,,,ケーエヌワイ,0
1810,7020005015324,新規,0,2021-12-24,2021-12-24,医療法人社団ウェルビーイング,,その他の設立登記法人,神奈川県,川崎市川崎区,観音２丁目１０－６第三忠ぶねビル１階,,14,131,2100831,,,,,,,2021-12-24,1,,,,,ウェルビーイング,0
1830,7030001145999,新規,0,2021-12-24,2021-12-24,株式会社ＡＫＩＮＡＩ,,株式会社,埼玉県,越谷市,登戸町３８番２１号,,11,222,3430846,,,,,,,2021-12-24,1,,,,,アキナイ,0
1831,7030001146007,新規,0,2021-12-24,2021-12-24,株式会社ワイズ,,株式会社,埼玉県,さいたま市大宮区,宮町３丁目３６番地１ガルボ大宮３０１,,11,103,3300802,,,,,,,2021-12-24,1,,,,,ワイズ,0
1832,7030001146023,新規,0,2021-12-24,2021-12-24,株式会社ＹＭＣコーポレーション,,株式会社,埼玉県,越谷市,レイクタウン５丁目２６番地４,,11,222,3430828,,,,,,,2021-12-24,1,,,,,ワイエムシーコーポレーション,0
1839,7030003018550,新規,0,2021-12-24,2021-12-24,合同会社ＳＹＣ,,合同会社,埼玉県,朝霞市,浜崎３丁目９番３１号,,11,227,3510033,,,,,,,2021-12-24,1,,,,,エスワイシー,0
1846,7040001121438,新規,0,2021-12-24,2021-12-24,ＧＦ株式会社,,株式会社,千葉県,船橋市,三山８丁目１２番７号,,12,204,2740072,,,,,,,2021-12-24,1,,,,,ジーエフ,0
1847,7040001121454,新規,0,2021-12-24,2021-12-24,株式会社ケーエス保険サービス,,株式会社,千葉県,柏市,南増尾２丁目１６番３３号,,12,217,2770054,,,,,,,2021-12-24,1,,,,,ケーエスホケンサービス,0
1848,7040001121462,新規,0,2021-12-24,2021-12-24,株式会社サンワフォーム,,株式会社,千葉県,佐倉市,南臼井台６－１,,12,212,2850865,,,,,,,2021-12-24,1,,,,,サンワフォーム,0
1849,7040001121470,新規,0,2021-12-24,2021-12-24,ＴＣＤ株式会社,,株式会社,千葉県,松戸市,二十世紀が丘中松町６８番地３シティマウント２０２,,12,207,2710085,,,,,,,2021-12-24,1,,,,,ティーシーディー,0
1854,7050001050363,新規,0,2021-12-24,2021-12-24,株式会社Ｔ－Ｄｉｖｅｒｓｉｔｙ,,株式会社,茨城県,鹿嶋市,大字津賀１８４３番地５,,08,222,3112205,,,,,,,2021-12-24,1,,,,,ティダイバーシティ,0
1856,7060001034407,新規,0,2021-12-24,2021-12-24,株式会社５３０,,株式会社,栃木県,栃木市,薗部町４丁目１７,,09,203,3280074,,,,,,,2021-12-24,1,,,,,ゴミゼロ,0
1857,7060001034415,新規,0,2021-12-24,2021-12-24,株式会社小川建材,,株式会社,栃木県,宇都宮市,下横田町７１７番地,,09,201,3210124,,,,,,,2021-12-24,1,,,,,オガワケンザイ,0
1858,7060001034423,新規,0,2021-12-24,2021-12-24,ＲＡ商事株式会社,,株式会社,栃木県,栃木市,藤岡町新波５０３番地１,,09,203,3290314,,,,,,,2021-12-24,1,,,,,アールエーショウジ,0
1865,7090001017342,新規,0,2021-12-24,2021-12-24,株式会社Ｄｅｎｓｅｉ,,株式会社,山梨県,甲府市,和戸町１０６５番地１,,19,201,4000812,,,,,,,2021-12-24,1,,,,,デンセイ,0
1880,7120003020803,新規,0,2021-12-24,2021-12-24,合同会社Ｄｉｖｅｒｓｉｔｙ,,合同会社,大阪府,大阪市鶴見区,横堤３丁目７番２号,,27,124,5380052,,,,,,,2021-12-24,1,,,,,ダイバーシティ,0
1885,7120101064842,新規,0,2021-12-24,2021-12-24,株式会社ＡＲＣＲＥＸ,,株式会社,大阪府,富田林市,大字佐備１５００,,27,214,5840052,,,,,,,2021-12-24,1,,,,,アークレックス,0
1889,7130001070774,新規,0,2021-12-24,2021-12-24,丹の国工芸株式会社,,株式会社,京都府,亀岡市,千歳町毘沙門腰前２３番地１,,26,206,6210004,,,,,,,2021-12-24,1,,,,,ニノクニコウゲイ,0
1890,7130003007650,新規,0,2021-12-24,2021-12-24,合同会社ハウスクール,,合同会社,京都府,京都市左京区,田中東高原町３４,,26,103,6068243,,,,,,,2021-12-24,1,,,,,ハウスクール,0
1893,7130005016344,新規,0,2021-12-24,2021-12-24,特定非営利活動法人野球やろうぜ,,その他の設立登記法人,京都府,京都市北区,上賀茂津ノ国町７７番地２２,,26,101,6038027,,,,,,,2021-12-24,1,,,,,ヤキュウヤロウゼ,0
1899,7140001124298,新規,0,2021-12-24,2021-12-24,株式会社Ｌａ　Ｎａｕｔｉｃａ,,株式会社,兵庫県,尼崎市,南武庫之荘１丁目１１番３号ハイズコート武庫之荘１０５,,28,202,6610033,,,,,,,2021-12-24,1,,,,,ラナウティカ,0
1900,7140001124331,新規,0,2021-12-24,2021-12-24,株式会社トーシンサポート,,株式会社,兵庫県,尼崎市,水堂町４丁目６番８号,,28,202,6610026,,,,,,,2021-12-24,1,,,,,トーシンサポート,0
1904,7140005025963,新規,0,2021-12-24,2021-12-24,一般社団法人あんしん相続協会,,その他の設立登記法人,兵庫県,神戸市東灘区,住吉宮町２丁目１７番２１－５１５号,,28,101,6580053,,,,,,,2021-12-24,1,,,,,アンシンソウゾクキョウカイ,0
1906,7150001025181,新規,0,2021-12-24,2021-12-24,株式会社古泉,,株式会社,奈良県,葛城市,北花内６３３番地１プレミスト葛城６０４号,00125218,29,211,6392113,,,,,,,2021-12-24,1,,,,,コイズミ,0
1907,7150001025198,新規,0,2021-12-24,2021-12-24,株式会社ティズムクリエイション,,株式会社,奈良県,橿原市,新賀町４４７番地の１ディアコート八木１Ｆ,,29,205,6340006,,,,,,,2021-12-24,1,,,,,ティズムクリエイション,0
1926,7180001149234,新規,0,2021-12-24,2021-12-24,株式会社アート,,株式会社,愛知県,名古屋市中区,正木３丁目１３０８番地,,23,106,4600024,,,,,,,2021-12-24,1,,,,,アート,0
1927,7180001149250,新規,0,2021-12-24,2021-12-24,人材バンク株式会社,,株式会社,愛知県,名古屋市中村区,名駅４丁目２４番１６号広小路ガーデンアベニュー５階,,23,105,4500002,,,,,,,2021-12-24,1,,,,,ジンザイバンク,0
1928,7180001149259,新規,0,2021-12-24,2021-12-24,株式会社ＭＡＲＳ,,株式会社,愛知県,西春日井郡豊山町,大字豊場字四ツ塚７番地２,,23,342,4800202,,,,,,,2021-12-24,1,,,,,マーズ,0
1934,7180003023321,新規,0,2021-12-24,2021-12-24,合同会社すくなひこ,,合同会社,愛知県,名古屋市熱田区,六野１丁目３番６号５０１,,23,109,4560023,,,,,,,2021-12-24,1,,,,,スクナヒコ,0
1937,7180301035753,新規,0,2021-12-24,2021-12-24,株式会社ｒｉｌｅｙ,,株式会社,愛知県,岡崎市,日名西町１番地１ヴィオラ日名Ｄ,,23,202,4440917,,,,,,,2021-12-24,1,,,,,ライリー,0
1940,7190001028973,新規,0,2021-12-24,2021-12-24,株式会社クルウチ自動車,,株式会社,三重県,多気郡明和町,大字佐田９０６番地１２,,24,442,5150331,,,,,,,2021-12-24,1,,,,,クルウチジドウシャ,0
1948,7220001024606,新規,0,2021-12-24,2021-12-24,株式会社てんからせん,,株式会社,石川県,白山市,七原町チ４８番地４,,17,210,9202143,,,,,,,2021-12-24,1,,,,,テンカラセン,0
1951,7230001019150,新規,0,2021-12-24,2021-12-24,株式会社ラップス,,株式会社,富山県,中新川郡立山町,利田５５６番地２,,16,323,9300275,,,,,,,2021-12-24,1,,,,,ラップス,0
1959,7240001059088,新規,0,2021-12-24,2021-12-24,株式会社ＴＤ　Ｈｏｌｄｉｎｇｓ,,株式会社,広島県,広島市安佐南区,緑井４丁目２２番２５号,,34,105,7310103,,,,,,,2021-12-24,1,,,,,ティーディーホールディングス,0
1961,7250001019314,新規,0,2021-12-24,2021-12-24,岡崎設備株式会社,00125219,株式会社,山口県,宇部市,床波５丁目２番４号,,35,202,7550153,,,,,,,2021-12-24,1,,,,,オカザキセツビ,0
1965,7260003003752,新規,0,2021-12-24,2021-12-24,合名会社ＭＯＭＯエステート,,合名会社,岡山県,岡山市南区,浜野１丁目１１番２０号,,33,104,7000845,,,,,,,2021-12-24,1,,,,,モモエステート,0
1968,7280005007452,新規,0,2021-12-24,2021-12-24,医療法人花田クリニック,,その他の設立登記法人,島根県,江津市,嘉久志町イ６６８番地１９,,32,207,6950016,,,,,,,2021-12-24,1,,,,,ハナダクリニック,0
1976,7290001095756,新規,0,2021-12-24,2021-12-24,ＨＡ　ＭＥＮ　ＳＴＯＲＥ株式会社,,株式会社,福岡県,福岡市中央区,天神４丁目５番１０号１０１２,,40,133,8100001,,,,,,,2021-12-24,1,,,,,ハメンストアー,0
1983,7290801028114,新規,0,2021-12-24,2021-12-24,株式会社ＳＫＹ,,株式会社,福岡県,北九州市小倉南区,上石田１丁目６番３３号,,40,107,8020833,,,,,,,2021-12-24,1,,,,,スカイ,0
1985,7320001018804,新規,0,2021-12-24,2021-12-24,株式会社勝美,,株式会社,大分県,大分市,下郡中央２丁目１番４３号,,44,201,8700954,,,,,,,2021-12-24,1,,,,,カツミ,0
1990,7340001024354,新規,0,2021-12-24,2021-12-24,Ｂセールスオフィス株式会社,,株式会社,鹿児島県,鹿児島市,城南町７番３３号,,46,201,8920835,,,,,,,2021-12-24,1,,,,,ビーセールスオフィス,0
1994,7350001017489,新規,0,2021-12-24,2021-12-24,株式会社春野工業,,株式会社,宮崎県,えびの市,大字西長江浦１３６６番地２,,45,209,8894232,,,,,,,2021-12-24,1,,,,,ハルノコウギョウ,0
1998,7360001029789,新規,0,2021-12-24,2021-12-24,株式会社貴ろく,,株式会社,沖縄県,うるま市,字兼箇段２７０番地,,47,213,9042241,,,,,,,2021-12-24,1,,,,,キロク,0
1999,7360001029797,新規,0,2021-12-24,2021-12-24,株式会社あおいコンサルティング,,株式会社,沖縄県,中頭郡西原町,字翁長５９２番地伸ビル４－Ａ,,47,329,9030117,,,,,,,2021-12-24,1,,,,,アオイコンサルティング,0
2005,7370001047996,新規,0,2021-12-24,2021-12-24,株式会社ＺｉＺｉ,,株式会社,宮城県,栗原市,築館字萩沢木戸１５８番地１,,04,213,9872223,,,,,,,2021-12-24,1,,,,,ジィジィ,0
2024,7430001085643,新規,0,2021-12-24,2021-12-24,株式会社アスタートラスト,,株式会社,北海道,札幌市中央区,北一条西１９丁目２番地２モンドミオ札幌近代美術館４０５号,,01,101,0600001,,,,,,,2021-12-24,1,,,,,アスタートラスト,0
2025,7430001085668,新規,0,2021-12-24,2021-12-24,アルズリライト株式会社,,株式会社,北海道,札幌市西区,西町南７丁目１番１９号,,01,107,0630062,,,,,,,2021-12-24,1,,,,,アルズリライト,0
2026,7430001085676,新規,0,2021-12-24,2021-12-24,株式会社山技建,,株式会社,北海道,千歳市,みどり台北３丁目８番１７号,,01,224,0660083,,,,,,,2021-12-24,1,,,,,ヤマギケン,0
2027,7430003013478,新規,0,2021-12-24,2021-12-24,合同会社白陽商事,,合同会社,北海道,札幌市南区,簾舞一条４丁目４番１２号,,01,106,0612261,,,,,,,2021-12-24,1,,,,,ハクヨウショウジ,0
2040,7480003001775,新規,0,2021-12-24,2021-12-24,インディゴブルー合同会社,,合同会社,徳島県,板野郡藍住町,住吉字神蔵２０９番地１,,36,403,7711265,,,,,,,2021-12-24,1,,,,,インディゴブルー,0
2041,7480005006871,新規,0,2021-12-24,2021-12-24,特定非営利活動法人日本腎不全合併症医学会,,その他の設立登記法人,徳島県,徳島市,北佐古一番町６番１号社会医療法人川島会川島病院内,,36,201,7700011,,,,,,,2021-12-24,1,,,,,ニホンジンフゼンガッペイショウイガクカイ,0
2046,7500001023884,新規,0,2021-12-24,2021-12-24,株式会社Ｇｌｏｂａｌ　Ｓｕｐｐｏｒｔ,,株式会社,愛媛県,松山市,元町７番２４号,,38,201,7918064,,,,,,,2021-12-24,1,,,,,グローバルサポート,0
2047,7500001023892,新規,0,2021-12-24,2021-12-24,株式会社ＮＰエージェント,,株式会社,愛媛県,西条市,北条９６２番地６２,,38,206,7991354,,,,,,,2021-12-24,1,,,,,エヌピーエージェント,0
2049,7700150106222,新規,0,2021-12-24,2021-12-13,未来クラブ,,その他,千葉県,船橋市,薬円台６丁目６－８－２０２,,12,204,2740077,,,,,,,2021-12-13,1,,,,,ミライクラブ,0
2056,8010001223500,新規,0,2021-12-24,2021-12-24,株式会社Ｐｌｕｓ　Ｏｎｅ,,株式会社,東京都,千代田区,外神田４丁目９番２号,,13,101,1010021,,,,,,,2021-12-24,1,,,,,プラスワン,0
2064,8010401164658,新規,0,2021-12-24,2021-12-24,株式会社ＦｕｎＤｏ,,株式会社,東京都,港区,浜松町２丁目２－１５浜松町ダイヤビル２階,,13,103,1050013,,,,,,,2021-12-24,1,,,,,ファンドゥ,0
2073,8010801032605,新規,0,2021-12-24,2021-12-24,株式会社ケリュネイア,,株式会社,東京都,大田区,大森中３丁目２９番１０号－３０７,,13,111,1430014,,,,,,,2021-12-24,1,,,,,ケリュネイア,0
2074,8010903007034,新規,0,2021-12-24,2021-12-24,Ｍｅｒｕｋｕｒａ合同会社,,合同会社,東京都,世田谷区,成城５丁目２番地１４,,13,112,1570066,,,,,,,2021-12-24,1,,,,,メルクラ,0
2080,8011001144802,新規,0,2021-12-24,2021-12-24,株式会社スペースアパレル,,株式会社,東京都,渋谷区,広尾４丁目１番１５－２０４号,,13,113,1500012,,,,,,,2021-12-24,1,,,,,スペースアパレル,0
2085,8011101097297,新規,0,2021-12-24,2021-12-24,東京モジャイク株式会社,,株式会社,東京都,新宿区,西新宿３丁目３番１３号西新宿水間ビル６階,,13,104,1600023,,,,,,,2021-12-24,1,,,,,,0
2087,8011103011314,新規,0,2021-12-24,2021-12-24,Ｇｌｏｂａｌ　Ｍｙａｎｍａｒ合同会社,,合同会社,東京都,新宿区,高田馬場３丁目１番５号,,13,104,1690075,,,,,,,2021-12-24,1,,,,,グローバルミャンマー,0
2094,8011303004258,新規,0,2021-12-24,2021-12-24,合同会社ＰＯＴＩＯＮ,,合同会社,東京都,杉並区,下高井戸４丁目１番１７号,,13,115,1680073,,,,,,,2021-12-24,1,,,,,ポーション,0
2100,8011503005015,新規,0,2021-12-24,2021-12-24,東京モーターカンパニー合同会社,,合同会社,東京都,北区,田端１丁目３０番１号小鳩荘はぎ号室,,13,117,1140014,,,,,,,2021-12-24,1,,,,,トウキョウモーターカンパニー,0
2103,8011601025633,新規,0,2021-12-24,2021-12-24,株式会社どなプリ,,株式会社,東京都,練馬区,東大泉５丁目８番２号メゾン聖泉１０２,,13,120,1780063,,,,,,,2021-12-24,1,,,,,ドナプリ,0
2104,8011701024931,新規,0,2021-12-24,2021-12-24,株式会社オカダハイム,,株式会社,東京都,江戸川区,東葛西４丁目１５番２号,,13,123,1340084,,,,,,,2021-12-24,1,,,,,オカダハイム,0
2105,8011703003033,新規,0,2021-12-24,2021-12-24,エイチ・スクエアー・アドバイザリー合同会社,,合同会社,東京都,江戸川区,東小松川２丁目２６番１２号,,13,123,1320033,,,,,,,2021-12-24,1,,,,,エイチスクエアーアドバイザリー,0
2106,8011801040102,新規,0,2021-12-24,2021-12-24,株式会社サントラップ,,株式会社,東京都,葛飾区,亀有３丁目７番７号サンセリテ鞠子６１１号室,,13,122,1250061,,,,,,,2021-12-24,1,,,,,サントラップ,0
2115,8013303005954,新規,0,2021-12-24,2021-12-24,合同会社レアジュール,,合同会社,東京都,豊島区,池袋３丁目３４番７号ビジネスパーク池袋２階,,13,116,1710014,,,,,,,2021-12-24,1,,,,,レアジュール,0
2119,8020001144464,新規,0,2021-12-24,2021-12-24,株式会社ｆｌｏａｔｉｎｇ　ｌｉｍｅ,,株式会社,神奈川県,横浜市西区,みなとみらい３丁目７－１・ＯＣＥＡＮ・ＧＡＴＥ・ＭＩＮＡＴＯ・ＭＩＲＡＩ・８階,,14,103,2200012,,,,,,,2021-12-24,1,,,,,フローティングライム,0
2120,8020001144472,新規,0,2021-12-24,2021-12-24,株式会社くるみパートナー,,株式会社,神奈川県,川崎市高津区,北見方２丁目６番２２－７３７号,,14,134,2130005,,,,,,,2021-12-24,1,,,,,クルミパートナー,0
2121,8020001144480,新規,0,2021-12-24,2021-12-24,株式会社ＳＤＡＳＨ,,株式会社,神奈川県,横浜市鶴見区,鶴見中央３丁目１番６号ダイアパレス鶴見第２－４１９号,,14,101,2300051,,,,,,,2021-12-24,1,,,,,エスダッシュ,0
2128,8020003020969,新規,0,2021-12-24,2021-12-24,合同会社サイドアーム,,合同会社,神奈川県,川崎市中原区,小杉町２丁目２０１番地１パークホームズ武蔵小杉５１１,,14,133,2110063,,,,,,,2021-12-24,1,,,,,サイドアーム,0
2129,8020003021026,新規,0,2021-12-24,2021-12-24,わくわくウェルネス合同会社,,合同会社,神奈川県,川崎市麻生区,高石５丁目２０番地の５,,14,137,2150003,,,,,,,2021-12-24,1,,,,,ワクワクウェルネス,0
2130,8020005015323,新規,0,2021-12-24,2021-12-24,医療法人西川クリニック,,その他の設立登記法人,神奈川県,横浜市港北区,新横浜２丁目１２番地８扶桑ビルディング６階,,14,109,2220033,,,,,,,2021-12-24,1,,,,,ニシカワクリニック,0
2135,8021001074817,新規,0,2021-12-24,2021-12-24,株式会社ＤＡＩＳＨＩＮエンジニアリング,,株式会社,神奈川県,平塚市,明石町１３－１１、２階,,14,203,2540042,,,,,,,2021-12-24,1,,,,,ダイシンエンジニアリング,0
2138,8021003011223,新規,0,2021-12-24,2021-12-24,リーカスタムアンプ合同会社,,合同会社,神奈川県,相模原市緑区,下九沢２８３１番地１６,,14,151,2520134,,,,,,,2021-12-24,1,,,,,リーカスタムアンプ,0
2145,8030001145643,新規,0,2021-12-24,2021-12-24,株式会社ｇｒｏｘ,,株式会社,埼玉県,川越市,藤木町１１－１８,,11,201,3500018,,,,,,,2021-12-24,1,,,,,グロックス,0
2146,8030001145998,新規,0,2021-12-24,2021-12-24,ＴＯＫＹＯ国際株式会社,,株式会社,埼玉県,川口市,仲町１５番２１号,,11,203,3320022,,,,,,,2021-12-24,1,,,,,トウキョウコクサイ,0
2147,8030001146006,新規,0,2021-12-24,2021-12-24,株式会社エムズ,,株式会社,埼玉県,さいたま市大宮区,宮町３丁目３６番地１ガルボ大宮３０１,,11,103,3300802,,,,,,,2021-12-24,1,,,,,エムズ,0
2148,8030001146030,新規,0,2021-12-24,2021-12-24,株式会社パーサー,,株式会社,埼玉県,川口市,大字芝６９６７－３,,11,203,3330866,,,,,,,2021-12-24,1,,,,,パーサー,0
2160,8040001121478,新規,0,2021-12-24,2021-12-24,株式会社Ｔ－グループ,,株式会社,千葉県,我孫子市,我孫子４丁目２９番１号トミービル２Ｆ,,12,222,2701166,,,,,,,2021-12-24,1,,,,,ティーグループ,0
2166,8040003019200,新規,0,2021-12-24,2021-12-24,合同会社ＳＮＡＰ　ＳＨＯＯＴＥＲ,,合同会社,千葉県,佐倉市,六崎９８２番地１０,,12,212,2850812,,,,,,,2021-12-24,1,,,,,スナップシューター,0
2170,8050001050362,新規,0,2021-12-24,2021-12-24,株式会社木湖李,,株式会社,茨城県,つくば市,天久保２丁目１６番地８,,08,220,3050005,,,,,,,2021-12-24,1,,,,,キコリ,0
2176,8080001024652,新規,0,2021-12-24,2021-12-24,株式会社ＫＭＴ,,株式会社,静岡県,静岡市葵区,南沼上３丁目１６番４０号,,22,101,4200905,,,,,,,2021-12-24,1,,,,,ケーエムティー,0
2182,8100001034921,新規,0,2021-12-24,2021-12-24,株式会社厨房機器ＲＹＯ,,株式会社,長野県,松本市,村井町西２丁目１０番１４号,,20,202,3990037,,,,,,,2021-12-24,1,,,,,チュウボウキキリョウ,0
2184,8100003006332,新規,0,2021-12-24,2021-12-24,合同会社ＫＡＳＵＧＡ,,合同会社,長野県,上伊那郡宮田村,１６８０番地１,,20,388,3994301,,,,,,,2021-12-24,1,,,,,カスガ,0
2192,8120001242605,新規,0,2021-12-24,2021-12-24,株式会社Ｈａｒｂｏｕｒｆｒｏｎｔ,,株式会社,大阪府,大阪市此花区,伝法３丁目１番１２号,,27,104,5540002,,,,,,,2021-12-24,1,,,,,ハーバーフロント,0
2196,8120101064841,新規,0,2021-12-24,2021-12-24,ＦＩＶＥＳＴＡＲ株式会社,,株式会社,大阪府,堺市堺区,熊野町東３丁１番１４号,,27,141,5900946,,,,,,,2021-12-24,1,,,,,ファイブスター,0
2202,8120901045396,新規,0,2021-12-24,2021-12-24,株式会社ホクシン,,株式会社,大阪府,高槻市,寿町１丁目３０番２号,,27,207,5690826,,,,,,,2021-12-24,1,,,,,ホクシン,0
2208,8140001124223,新規,0,2021-12-24,2021-12-24,株式会社高野空調,00125222,株式会社,兵庫県,尼崎市,御園３丁目５番３４号,,28,202,6610984,,,,,,,2021-12-24,1,,,,,タカノクウチョウ,0
2209,8140001124289,新規,0,2021-12-24,2021-12-24,株式会社ワタリドリファーム,,株式会社,兵庫県,小野市,浄谷町字寺山２４３７番,,28,218,6751317,,,,,,,2021-12-24,1,,,,,ワタリドリファーム,0
2210,8140001124330,新規,0,2021-12-24,2021-12-24,株式会社心商,,株式会社,兵庫県,尼崎市,水堂町４丁目６番１２号,,28,202,6610026,,,,,,,2021-12-24,1,,,,,シンショウ,0
2212,8140003017136,新規,0,2021-12-24,2021-12-24,Ｄｕｅｔ　Ｉｎｖｅｓｔｍｅｎｔ合同会社,,合同会社,兵庫県,神戸市中央区,浜辺通３丁目１－３３,,28,110,6510083,,,,,,,2021-12-24,1,,,,,デゥエットインベストメント,0
2215,8170002011979,新規,0,2021-12-24,2021-12-24,有限会社幸源商事,,有限会社,和歌山県,有田郡有田川町,大字中井原２番地の９,,30,366,6430153,,,,,,,2021-12-24,1,,,,,コウゲンショウジ,0
2220,8180001149209,新規,0,2021-12-24,2021-12-24,世界ＭＯＮＯ開発株式会社,,株式会社,愛知県,名古屋市熱田区,新尾頭１丁目６番１３号第１９金山フクマルビル,,23,109,4560018,,,,,,,2021-12-24,1,,,,,セカイモノカイハツ,0
2221,8180001149225,新規,0,2021-12-24,2021-12-24,株式会社ＱＵＯ,,株式会社,愛知県,名古屋市中村区,亀島２丁目３番３号Ｔ’ｓＲｅｓｉｄｅｎｃｅＮａｇｏｙａ，１Ｆ,,23,105,4530013,,,,,,,2021-12-24,1,,,,,クオ,0
2222,8180001149266,新規,0,2021-12-24,2021-12-24,株式会社ハリショウ,,株式会社,愛知県,小牧市,新町２丁目２６２番地３,,23,219,4850013,,,,,,,2021-12-24,1,,,,,ハリショウ,0
2230,8190001028964,新規,0,2021-12-24,2021-12-24,株式会社アヴェスタ,,株式会社,三重県,伊賀市,四十九町１１０２番地８,,24,216,5180823,,,,,,,2021-12-24,1,,,,,アヴェスタ,0
2232,8200001039563,新規,0,2021-12-24,2021-12-24,ＳＡＫＵＲＡ８株式会社,,株式会社,岐阜県,各務原市,那加石山町１丁目１２２番地,,21,213,5040044,,,,,,,2021-12-24,1,,,,,サクラエイト,0
2236,8200003005407,新規,0,2021-12-24,2021-12-24,ＡＲＴＳＵ　ＥＮＥＲＧＹ合同会社,,合同会社,岐阜県,多治見市,小泉町２丁目１７０番地の１グランデール小泉４１０,,21,204,5070073,,,,,,,2021-12-24,1,,,,,アルツエナジー,0
2243,8220001024613,新規,0,2021-12-24,2021-12-24,株式会社Ｅｎｅｒｅａ,,株式会社,石川県,金沢市,泉２丁目５番１０号,,17,201,9218041,,,,,,,2021-12-24,1,,,,,エネリア,0
2257,8250003002969,新規,0,2021-12-24,2021-12-24,合同会社ｍｅｌｔ,,合同会社,山口県,岩国市,麻里布町３丁目１１番２４号,,35,208,7400018,,,,,,,2021-12-24,1,,,,,メルト,0
2259,8260001036340,新規,0,2021-12-24,2021-12-24,株式会社くらしき中央コンサルティング,,株式会社,岡山県,倉敷市,沖新町７９番地７,,33,202,7100837,,,,,,,2021-12-24,1,,,,,クラシキチュウオウコンサルティング,0
2260,8260001036349,新規,0,2021-12-24,2021-12-24,株式会社Ｆｅｌｌｏｗ　Ｇｒｏｕｐ,,株式会社,岡山県,浅口市,金光町大谷７６３－２,,33,216,7190111,,,,,,,2021-12-24,1,,,,,フェローグループ,0
2267,8290001095805,新規,0,2021-12-24,2021-12-24,株式会社Ｕｎｋｎｏｗｎ　Ｒｅｇｉｏｎ,,株式会社,福岡県,福岡市博多区,中洲中島町３番１５－１２０３号ウェルリバービュー天神,,40,132,8100802,,,,,,,2021-12-24,1,,,,,アンノウンリージョン,0
2268,8290001095813,新規,0,2021-12-24,2021-12-24,株式会社ｈｕｕ,,株式会社,福岡県,福岡市中央区,西公園１番１４号きさらぎビル１０１号,,40,133,8100061,,,,,,,2021-12-24,1,,,,,フー,0
2272,8290803004013,新規,0,2021-12-24,2021-12-24,エアロハブ合同会社,,合同会社,福岡県,北九州市小倉北区,鍛冶町１丁目１番１号,,40,106,8020004,,,,,,,2021-12-24,1,,,,,エアロハブ,0
2279,8350001017488,新規,0,2021-12-24,2021-12-24,株式会社ＬＥＯ,,株式会社,宮崎県,西諸県郡高原町,大字西麓１７４４番地４,,45,361,8894412,,,,,,,2021-12-24,1,,,,,レオ,0
2283,8360001029796,新規,0,2021-12-24,2021-12-24,株式会社エヌズメディカルサービス,,株式会社,沖縄県,中頭郡西原町,字翁長５９２番地,,47,329,9030117,,,,,,,2021-12-24,1,,,,,エヌズメディカルサービス,0
2289,8370001047970,新規,0,2021-12-24,2021-12-24,株式会社コヤマオフィス,,株式会社,宮城県,仙台市青葉区,一番町１丁目１番３１号山口ビル７０３号,,04,101,9800811,,,,,,,2021-12-24,1,,,,,コヤマオフィス,0
2290,8370001047987,新規,0,2021-12-24,2021-12-24,株式会社イチマル佐藤,,株式会社,宮城県,石巻市,緑町１丁目１１番地１２,,04,202,9860021,,,,,,,2021-12-24,1,,,,,イチマルサトウ,0
2298,8430001085642,新規,0,2021-12-24,2021-12-24,アムニスコア株式会社,,株式会社,北海道,札幌市中央区,北六条西２８丁目２－２円山北町団地２号棟５０１号室,,01,101,0640826,,,,,,,2021-12-24,1,,,,,アムニスコア,0
2299,8430001085675,新規,0,2021-12-24,2021-12-24,株式会社三城,,株式会社,北海道,札幌市厚別区,厚別中央三条３丁目９番１７号,,01,108,0040053,,,,,,,2021-12-24,1,,,,,サンジョウ,0
2304,8470001018887,新規,0,2021-12-24,2021-12-24,株式会社ｍｉｎｅｔｔｅ,,株式会社,香川県,高松市,西宝町２丁目６番１－６０３号サーパス西宝町,,37,201,7600004,,,,,,,2021-12-24,1,,,,,ミネット,0
2309,8500001023883,新規,0,2021-12-24,2021-12-24,株式会社Ｇ３ＪＡＰＡＮ,,株式会社,愛媛県,伊予郡松前町,大字筒井３９３番地２,,38,401,7913120,,,,,,,2021-12-24,1,,,,,ジースリージャパン,0
2310,8500001023891,新規,0,2021-12-24,2021-12-24,株式会社工藤興業,,株式会社,愛媛県,西条市,野々市１１２番地８,,38,206,7930066,,,,,,,2021-12-24,1,,,,,クドウコウギョウ,0
2320,9010001223409,新規,0,2021-12-24,2021-12-24,株式会社Ｌａｒｋ　Ｓｔａｒ,,株式会社,東京都,千代田区,神田佐久間町２丁目１番地,,13,101,1010025,,,,,,,2021-12-24,1,,,,,ラークスター,0
2321,9010005034372,新規,0,2021-12-24,2021-12-24,一般社団法人インシュアランス１号,,その他の設立登記法人,東京都,千代田区,丸の内３丁目１番１号東京共同会計事務所内,,13,101,1000005,,,,,,,2021-12-24,1,,,,,インシュアランスイチゴウ,0
2322,9010101007694,新規,0,2021-12-24,2021-12-24,株式会社アイ・アール・アイ,,株式会社,東京都,八王子市,下柚木２１０４番地,,13,201,1920372,,,,,,,2021-12-24,1,,,,,,0
2323,9010101014996,新規,0,2021-12-24,2021-12-24,株式会社日月,,株式会社,東京都,八王子市,宇津木町４３５番地１,,13,201,1920024,,,,,,,2021-12-24,1,,,,,ニチゲツ,0
2332,9010401164632,新規,0,2021-12-24,2021-12-24,Ｇｏｖｅｒｎｍｅｎｔ＆ＶｅｎｔｕｒｅＰａｒｔｎｅｒｓ株式会社,,株式会社,東京都,港区,六本木６丁目１２番４号六本木ヒルズレジデンスＤ,,13,103,1060032,,,,,,,2021-12-24,1,,,,,ガバメントアンドベンチャーパートナーズ,0
2335,9010403026772,新規,0,2021-12-24,2021-12-24,合同会社プリンシーデジアート,,合同会社,東京都,港区,新橋３丁目１１番８号オーイズミ新橋第２ビル７０２,,13,103,1050004,,,,,,,2021-12-24,1,,,,,プリンシーデジアート,0
2337,9010501048256,新規,0,2021-12-24,2021-12-24,株式会社ゴルフフェイバー,,株式会社,東京都,台東区,東上野２丁目２０－１２ヒロビル１Ｆ,,13,106,1100015,,,,,,,2021-12-24,1,,,,,ゴルフフェイバー,0
2342,9010603009321,新規,0,2021-12-24,2021-12-24,合同会社フラット,,合同会社,東京都,墨田区,堤通２丁目５－５、４１４号,,13,107,1310034,,,,,,,2021-12-24,1,,,,,フラット,0
2348,9010801032612,新規,0,2021-12-24,2021-12-24,株式会社ＲＵＬＥＲ,,株式会社,東京都,大田区,東雪谷４丁目１３－６,,13,111,1450065,,,,,,,2021-12-24,1,,,,,ルーラー,0
2358,9011001144776,新規,0,2021-12-24,2021-12-24,株式会社ＭＫＭ,,株式会社,東京都,渋谷区,神宮前６丁目２３番４号桑野ビル２階,,13,113,1500001,,,,,,,2021-12-24,1,,,,,エムケイエム,0
2361,9011003013921,新規,0,2021-12-24,2021-12-24,ＴＯＷ合同会社,,合同会社,東京都,渋谷区,恵比寿西１丁目３番２号恵比寿テラスビル８Ｆ－Ａ,,13,113,1500021,,,,,,,2021-12-24,1,,,,,トゥ,0
2364,9011103011313,新規,0,2021-12-24,2021-12-24,合同会社豆,,合同会社,東京都,新宿区,東五軒町４番８－５０５号,,13,104,1620813,,,,,,,2021-12-24,1,,,,,マメ,0
2366,9011303004257,新規,0,2021-12-24,2021-12-24,合同会社インダストリークリエイション,,合同会社,東京都,杉並区,成田東２丁目３７番１４号,,13,115,1660015,,,,,,,2021-12-24,1,,,,,インダストリークリエイション,0
2367,9011401023927,新規,0,2021-12-24,2021-12-24,Ｍ．Ｙ．Ｇ株式会社,,株式会社,東京都,板橋区,大山西町１９番１号,,13,119,1730033,,,,,,,2021-12-24,1,,,,,エムワイジー,0
2368,9011501027596,新規,0,2021-12-24,2021-12-24,美恒株式会社,,株式会社,東京都,荒川区,東日暮里６丁目４６番１７号ＴＳビル２Ｆ,,13,118,1160014,,,,,,,2021-12-24,1,,,,,ビコウ,0
2369,9011503005014,新規,0,2021-12-24,2021-12-24,合同会社ＳＲＩ潤,,合同会社,東京都,北区,赤羽南２丁目１２番２号－２０８,,13,117,1150044,,,,,,,2021-12-24,1,,,,,シュリージュン,0
2370,9011603003479,新規,0,2021-12-24,2021-12-24,ｎｐ．合同会社,,合同会社,東京都,練馬区,栄町３７番９号３階,,13,120,1760006,,,,,,,2021-12-24,1,,,,,エヌピー,0
2373,9011701024922,新規,0,2021-12-24,2021-12-24,株式会社ＡｐｐＭｉｎｄｓ,,株式会社,東京都,江戸川区,平井４丁目２０－１５－８０９,,13,123,1320035,,,,,,,2021-12-24,1,,,,,アップマインズ,0
2374,9011701024930,新規,0,2021-12-24,2021-12-24,マインズあい株式会社,,株式会社,東京都,江戸川区,西小岩１丁目２３番８号小貫ビル１Ｆ,,13,123,1330057,,,,,,,2021-12-24,1,,,,,マインズアイ,0
2387,9020001144463,新規,0,2021-12-24,2021-12-24,株式会社ＧＤみなとみらい１号,,株式会社,神奈川県,横浜市西区,みなとみらい３丁目７－１・ＯＣＥＡＮ・ＧＡＴＥ・ＭＩＮＡＴＯ・ＭＩＲＡＩ・８階,,14,103,2200012,,,,,,,2021-12-24,1,,,,,ジーディーミナトミライイチゴウ,0
2389,9020002036420,新規,0,2021-12-24,2021-12-24,有限会社横浜技術サービス,,有限会社,神奈川県,横浜市港北区,太尾町１７３０番地６芙蓉ハイツ１０１,,14,109,2220031,,,,,,,2021-12-24,1,,,,,ヨコハマギジュツサービス,0
2391,9020003021017,新規,0,2021-12-24,2021-12-24,合同会社Ｙ．Ａ　ｓｔｙｌｅ,,合同会社,神奈川県,川崎市川崎区,砂子１丁目５番地１１ルフレプレミアム川崎１３０３,,14,131,2100006,,,,,,,2021-12-24,1,,,,,ワイエースタイル,0
2392,9020003021025,新規,0,2021-12-24,2021-12-24,合同会社ホリデイ・マーケティング・プロジェクト,,合同会社,神奈川県,川崎市宮前区,東有馬２丁目３９番９－２号,,14,136,2160002,,,,,,,2021-12-24,1,,,,,ホリデイマーケティングプロジェクト,0
2397,9021001074816,新規,0,2021-12-24,2021-12-24,株式会社箱根新聞店,,株式会社,神奈川県,足柄下郡箱根町,湯本６９１番地,,14,382,2500311,,,,,,,2021-12-24,1,,,,,ハコネシンブンテン,0
2399,9021003011222,新規,0,2021-12-24,2021-12-24,Ｙブログ合同会社,,合同会社,神奈川県,茅ヶ崎市,浜見平１４－１－２０７コンフォール茅ヶ崎浜見平,,14,207,2530062,,,,,,,2021-12-24,1,,,,,ワイブログ,0
2402,9030001146013,新規,0,2021-12-24,2021-12-24,株式会社ＡＳＳＫ,,株式会社,埼玉県,所沢市,東所沢和田２丁目１８番地の１５,,11,208,3590023,,,,,,,2021-12-24,1,,,,,エーエスエスケー,0
2407,9030003018549,新規,0,2021-12-24,2021-12-24,合同会社みたすネットワーク,,合同会社,埼玉県,川口市,大字源左衛門新田３１番地の１１,,11,203,3330822,,,,,,,2021-12-24,1,,,,,ミタスネットワーク,0
2408,9030003018557,新規,0,2021-12-24,2021-12-24,合同会社ＰＨＯ　ＮＵＩ,,合同会社,埼玉県,児玉郡神川町,大字二ノ宮５６６番地１,,11,383,3670233,,,,,,,2021-12-24,1,,,,,フォーヌイ,0
2416,9040001121411,新規,0,2021-12-24,2021-12-24,株式会社ティーマック,,株式会社,千葉県,市川市,柏井町２丁目４９番地５号,,12,203,2720802,,,,,,,2021-12-24,1,,,,,ティーマック,0
2417,9040001121485,新規,0,2021-12-24,2021-12-24,株式会社Ｙｏｓｈｉ　ｙｏｓｈｉ,,株式会社,千葉県,千葉市緑区,平山町１０４８番地,,12,105,2660002,,,,,,,2021-12-24,1,,,,,ヨシヨシ,0
2423,9050001050361,新規,0,2021-12-24,2021-12-24,株式会社ＯＯＴＯＲＩ,,株式会社,茨城県,牛久市,ひたち野東３丁目１番地３ひたち野プラザ,,08,219,3001207,,,,,,,2021-12-24,1,,,,,オオトリ,0
2424,9050003006287,新規,0,2021-12-24,2021-12-24,ＢＬＯＯＭ合同会社,,合同会社,茨城県,守谷市,本町４２４４番地の４バレリアンＩＩ－１０４,00125232,08,224,3020109,,,,,,,2021-12-24,1,,,,,ブルーム,0
2429,9080101023000,新規,0,2021-12-24,2021-12-24,株式会社シギ,,株式会社,静岡県,伊豆市,土肥７４６,,22,222,4103302,,,,,,,2021-12-24,1,,,,,シギ,0
2435,9100001034920,新規,0,2021-12-24,2021-12-24,株式会社はやかわ,,株式会社,長野県,安曇野市,豊科南穂高６２７７番地１,,20,220,3998201,,,,,,,2021-12-24,1,,,,,ハヤカワ,0
2442,9120001242711,新規,0,2021-12-24,2021-12-24,株式会社ＯＬＤ　ＮＥＷ,,株式会社,大阪府,大阪市阿倍野区,播磨町１丁目１８番２８－１０１号,,27,119,5450022,,,,,,,2021-12-24,1,,,,,オールドニュー,0
2443,9120001242728,新規,0,2021-12-24,2021-12-24,株式会社ＣＡＴＡＣＨＩ,,株式会社,大阪府,大阪市旭区,生江１丁目２番１５号,,27,117,5350004,,,,,,,2021-12-24,1,,,,,カタチ,0
2446,9120002084129,新規,0,2021-12-24,2021-12-24,有限会社伸幸住建,,有限会社,大阪府,門真市,古川町２番１号,,27,223,5710031,,,,,,,2021-12-24,1,,,,,シンコウジュウケン,0
2448,9120003020834,新規,0,2021-12-24,2021-12-24,Ｈａｔａｃｈｉ合同会社,,合同会社,大阪府,大阪市都島区,都島中通２丁目２５番１５号,,27,102,5340022,,,,,,,2021-12-24,1,,,,,ハタチ,0
2451,9120101064840,新規,0,2021-12-24,2021-12-24,株式会社ＥＮＰｏｌａｒｉｓ,,株式会社,大阪府,阪南市,箱作１１７８番地の６３,,27,232,5990232,,,,,,,2021-12-24,1,,,,,エンポラリス,0
2454,9122001035450,新規,0,2021-12-24,2021-12-24,キタガワ防災株式会社,,株式会社,大阪府,東大阪市,森河内東１丁目１２番１８号,,27,227,5770062,,,,,,,2021-12-24,1,,,,,キタガワボウサイ,0
2455,9122001035459,新規,0,2021-12-24,2021-12-24,株式会社縁,,株式会社,大阪府,東大阪市,花園東町１丁目１６番２４号,,27,227,5780931,,,,,,,2021-12-24,1,,,,,エン,0
2464,9140001124305,新規,0,2021-12-24,2021-12-24,カインドライム株式会社,,株式会社,兵庫県,川西市,丸山台３丁目１番地の１８,,28,217,6660152,,,,,,,2021-12-24,1,,,,,カインドライム,0
2465,9140001124321,新規,0,2021-12-24,2021-12-24,株式会社ＳＨＩＮＫＡＮ,,株式会社,兵庫県,神戸市須磨区,須磨寺町１丁目９番２３号,,28,107,6540071,,,,,,,2021-12-24,1,,,,,シンカン,0
2469,9150001025196,新規,0,2021-12-24,2021-12-24,株式会社オートレッツ,,株式会社,奈良県,天理市,乙木町８０７番地２,,29,204,6320047,,,,,,,2021-12-24,1,,,,,オートレッツ,0
2484,9180001149232,新規,0,2021-12-24,2021-12-24,株式会社ＧｌｏｂａｌＴＯＰ,,株式会社,愛知県,名古屋市東区,相生町５５番地いそのビル２階,,23,102,4610012,,,,,,,2021-12-24,1,,,,,グローバルトップ,0
2485,9180001149240,新規,0,2021-12-24,2021-12-24,株式会社ＭＡＲＵＹＯ,,株式会社,愛知県,名古屋市中区,栄５丁目１９番２４号プレサンスＴＨＥ栄４０５号,,23,106,4600008,,,,,,,2021-12-24,1,,,,,マルヨ,0
2486,9180001149249,新規,0,2021-12-24,2021-12-24,株式会社ＭＥＩＲＩ,,株式会社,愛知県,名古屋市中区,丸の内３丁目１６番１９号三弘ビル２Ｆ,,23,106,4600002,,,,,,,2021-12-24,1,,,,,メイリ,0
2487,9180001149265,新規,0,2021-12-24,2021-12-24,ＲＩ．ＭＡ株式会社,,株式会社,愛知県,春日井市,勝川町１丁目７０,,23,206,4860945,,,,,,,2021-12-24,1,,,,,リーマ,0
2492,9180005019571,新規,0,2021-12-24,2021-12-24,医療法人豊幸会,,その他の設立登記法人,愛知県,名古屋市東区,砂田橋４丁目１番５２号コノミヤ砂田橋店２階,,23,102,4610045,,,,,,,2021-12-24,1,,,,,ホウコウカイ,0
2500,9200001039562,新規,0,2021-12-24,2021-12-24,株式会社満星商事,,株式会社,岐阜県,羽島市,足近町小荒井字村内４５１番地,,21,209,5016204,,,,,,,2021-12-24,1,,,,,マンセイショウジ,0
2510,9240001059086,新規,0,2021-12-24,2021-12-24,株式会社甲斐畳店,,株式会社,広島県,福山市,駅家町大字倉光７８番地５,,34,207,7201132,,,,,,,2021-12-24,1,,,,,カイタタミテン,0
2513,9250001019312,新規,0,2021-12-24,2021-12-24,株式会社Ｋｉｙｏｋｕｎｉ,,株式会社,山口県,防府市,八王子１丁目１３番１２―３０１号,,35,206,7470037,,,,,,,2021-12-24,1,,,,,キヨクニ,0
2518,9270003001381,新規,0,2021-12-24,2021-12-24,合同会社ＣＲＥＡＳ,,合同会社,鳥取県,鳥取市,卯垣１２５番地１５,,31,201,6800074,,,,,,,2021-12-24,1,,,,,クレアス,0
2530,9290001095820,新規,0,2021-12-24,2021-12-24,株式会社Ｂｒｉｄｇｅｓ,,株式会社,福岡県,福岡市博多区,住吉３丁目３番９号ニューガイアクレドール博多５階,,40,132,8120018,,,,,,,2021-12-24,1,,,,,ブリッジス,0
2532,9290005018496,新規,0,2021-12-24,2021-12-24,医療法人福岡元輝会,,その他の設立登記法人,福岡県,福岡市中央区,今泉１丁目１１番５号ロクラス今泉５階,,40,133,8100021,,,,,,,2021-12-24,1,,,,,フクオカゲンキカイ,0
2535,9290801028112,新規,0,2021-12-24,2021-12-24,白岩システム株式会社,,株式会社,福岡県,北九州市八幡西区,白岩町１６番１６号,,40,109,8071113,,,,,,,2021-12-24,1,,,,,シライワシステム,0
2536,9290801028120,新規,0,2021-12-24,2021-12-24,株式会社吉村印象堂,,株式会社,福岡県,北九州市若松区,浜町２丁目９番５号,,40,103,8080024,,,,,,,2021-12-24,1,,,,,ヨシムラインショウドウ,0
2546,9320001018802,新規,0,2021-12-24,2021-12-24,株式会社ケイプラス,,株式会社,大分県,中津市,大字大塚６２２番地２,,44,203,8710008,,,,,,,2021-12-24,1,,,,,ケイプラス,0
2556,9340001024352,新規,0,2021-12-24,2021-12-24,株式会社オーエスサポート,,株式会社,鹿児島県,鹿児島市,川上町４２５６番地１,,46,201,8920875,,,,,,,2021-12-24,1,,,,,オーエスサポート,0
2559,9350003003997,新規,0,2021-12-24,2021-12-24,合同会社ケント,,合同会社,宮崎県,都城市,安久町６３５５番地３,,45,202,8850044,,,,,,,2021-12-24,1,,,,,ケント,0
2561,9360001029795,新規,0,2021-12-24,2021-12-24,株式会社シアクリエイト,,株式会社,沖縄県,浦添市,城間２丁目５番８号１Ｆ,,47,208,9012133,,,,,,,2021-12-24,1,,,,,シアクリエイト,0
2562,9360001029812,新規,0,2021-12-24,2021-12-24,株式会社福南,,株式会社,沖縄県,島尻郡南風原町,字津嘉山１５３８番地１２コーポマルキン５（１０２）,,47,350,9011117,,,,,,,2021-12-24,1,,,,,フクナン,0
2565,9370001047879,新規,0,2021-12-24,2021-12-24,Ａｉｍ　Ｈｉｇｈ株式会社,,株式会社,宮城県,仙台市太白区,中田町字寺浦１０番地の３３,,04,104,9811103,,,,,,,2021-12-24,1,,,,,エイムハイ,0
2566,9370001047986,新規,0,2021-12-24,2021-12-24,トミサワ産業株式会社,,株式会社,宮城県,仙台市太白区,八本松２丁目８番１２－６０７号,,04,104,9820001,,,,,,,2021-12-24,1,,,,,トミサワサンギョウ,0
2578,9390001016725,新規,0,2021-12-24,2021-12-24,株式会社Ｌｕｍｉｅｒｅ,,株式会社,山形県,東村山郡山辺町,大字山辺２８１１番地３,,06,301,9900301,,,,,,,2021-12-24,1,,,,,ルミエール,0
2582,9410001013050,新規,0,2021-12-24,2021-12-24,株式会社セントラルボデー,,株式会社,秋田県,能代市,河戸川字北西山１１８番１,,05,202,0160171,,,,,,,2021-12-24,1,,,,,,0
2584,9430001085559,新規,0,2021-12-24,2021-12-24,株式会社レベルアップ,,株式会社,北海道,札幌市北区,北四十条西４丁目２番２０号麻生むらもとビル２階,,01,102,0010040,,,,,,,2021-12-24,1,,,,,レベルアップ,0
2585,9430001085658,新規,0,2021-12-24,2021-12-24,株式会社Ｍｉｄｗｉｎｔｅｒ,,株式会社,北海道,札幌市東区,北二十五条東２０丁目２番１号,,01,103,0650025,,,,,,,2021-12-24,1,,,,,ミッドウィンター,0
2586,9430001085674,新規,0,2021-12-24,2021-12-24,株式会社らぁめん道中膝栗毛,,株式会社,北海道,札幌市東区,北三十五条東１丁目２番８号,,01,103,0070835,,,,,,,2021-12-24,1,,,,,ラァメンドウチュウヒザクリゲ,0
2593,9450001013567,新規,0,2021-12-24,2021-12-24,ティーエヌコーポレーション株式会社,,株式会社,北海道,上川郡美瑛町,字旭中央６６４－１,,01,459,0710261,,,,,,,2021-12-24,1,,,,,ティーエヌコーポレーション,0
2595,9450003002163,新規,0,2021-12-24,2021-12-24,合同会社旅の宿からまつ,,合同会社,北海道,紋別市,緑町５丁目２２番３号,,01,219,0940014,,,,,,,2021-12-24,1,,,,,タビノヤドカラマツ,0
2601,9480001011592,新規,0,2021-12-24,2021-12-24,株式会社サカノブロス,,株式会社,徳島県,板野郡北島町,江尻字妙蛇池６番地１リバージュ北島Ａ１０１号,,36,402,7710205,,,,,,,2021-12-24,1,,,,,サカノブロス,0
2605,9500001023890,新規,0,2021-12-24,2021-12-24,株式会社秀栄,,株式会社,愛媛県,今治市,大新田町２丁目４番３２号,,38,202,7940005,,,,,,,2021-12-24,1,,,,,シュウエイ,0
2607,9700150036120,新規,0,2021-12-24,2015-10-09,大塩自治協議会,,その他,宮城県,東松島市,大塩字中沢２６－１,,04,214,9810505,,,,,,,2015-10-09,1,,,,,オオシオジチキヨウギカイ,0
