sequenceNumber,corporateNumber,process,correct,updateDate,changeDate,name,nameImageId,kind,prefectureName,cityName,streetNumber,addressImageId,prefectureCode,cityCode,postCode,addressOutside,addressOutsideImageId,closeDate,closeCause,successorCorporateNumber,changeCause,assignmentDate,latest,enName,enPrefectureName,enCityName,enAddressOutside,furigana,hihyoji
6,1010001260558,新規,0,2025-12-01,2025-12-01,株式会社ＦＬＩＰ第３３２号,,株式会社,東京都,千代田区,丸の内２丁目７番２号,,13,101,1000005,,,,,,,2025-12-01,1,,,,,エフエルアイピーダイサンビャクサンジュウニゴウ,0
7,1010001260748,新規,0,2025-12-01,2025-12-01,株式会社女神ロイヤルユニオン,,株式会社,東京都,中央区,日本橋室町１丁目２番６号日本橋大栄ビル７階,,13,102,1030022,,,,,,,2025-12-01,1,,,,,メガミロイヤルユニオン,0
13,1010005041013,新規,0,2025-12-01,2025-12-01,一般社団法人ｒｅｎｇａ第２号,,その他の設立登記法人,東京都,千代田区,霞が関３丁目２番５号,,13,101,1000013,,,,,,,2025-12-01,1,,,,,レンガダイニゴウ,0
14,1010101016959,新規,0,2025-12-01,2025-12-01,株式会社ＨＡＹＡＢＵＳＡ　ＥＩＧＨＴ,,株式会社,東京都,八王子市,台町３丁目４－２,,13,201,1930931,,,,,,,2025-12-01,1,,,,,ハヤブサエイト,0
21,1010403036630,新規,0,2025-12-01,2025-12-01,合同会社えにし,,合同会社,東京都,港区,芝浦３丁目１７－１１－６１０,,13,103,1080023,,,,,,,2025-12-01,1,,,,,エニシ,0
22,1010403036705,新規,0,2025-12-01,2025-12-01,Ｗｅｌｌｂｅｉｎｇ合同会社,,合同会社,東京都,港区,虎ノ門３丁目１８番６号,,13,103,1050001,,,,,,,2025-12-01,1,,,,,ウェルビーイング,0
25,1010501055103,新規,0,2025-12-01,2025-12-01,株式会社シェアトリップジャパン,,株式会社,東京都,台東区,浅草１丁目３２番１３号１階,,13,106,1110032,,,,,,,2025-12-01,1,,,,,シェアトリップジャパン,0
30,1010703007983,新規,0,2025-12-01,2025-12-01,伊勢屋合同会社,,合同会社,東京都,品川区,戸越６丁目８－１９,,13,109,1420041,,,,,,,2025-12-01,1,,,,,イセヤ,0
36,1011001173931,新規,0,2025-12-01,2025-12-01,株式会社ＦＮホールディングス,,株式会社,東京都,目黒区,下目黒１丁目６番２０号,,13,110,1530064,,,,,,,2025-12-01,1,,,,,エフエヌホールディングス,0
39,1011003022995,新規,0,2025-12-01,2025-12-01,合同会社兆,,合同会社,東京都,渋谷区,初台１丁目２２番１２号,,13,113,1510061,,,,,,,2025-12-01,1,,,,,キザシ,0
49,1011401027621,新規,0,2025-12-01,2025-12-01,泰軒株式会社,,株式会社,東京都,板橋区,舟渡１丁目９番１９号プレシス浮間舟渡駅前１０３室,,13,119,1740041,,,,,,,2025-12-01,1,,,,,タイケン,0
56,1011603004939,新規,0,2025-12-01,2025-12-01,合同会社ＳＴＡＲ　ＧＡＲＤＥＮ９９９,,合同会社,東京都,練馬区,石神井台５丁目２５－２０クレール石神井台３０３号室,,13,120,1770045,,,,,,,2025-12-01,1,,,,,スターガーデンスリーナイン,0
85,1030001169847,新規,0,2025-12-01,2025-12-01,株式会社火和,,株式会社,埼玉県,川口市,大字赤山３０９番地ベルドゥムール川口東９０５号,,11,203,3330825,,,,,,,2025-12-01,1,,,,,ヒヨリ,0
86,1030001169863,新規,0,2025-12-01,2025-12-01,株式会社ＭＡＭＩ　ｄａ　ＨＡＮＤＥ,,株式会社,埼玉県,さいたま市岩槻区,大字柏崎１３９０番地３,,11,110,3390045,,,,,,,2025-12-01,1,,,,,マミダハンデ,0
87,1030001169871,新規,0,2025-12-01,2025-12-01,株式会社高瀬企画,,株式会社,埼玉県,川口市,川口５丁目１１番３５号,,11,203,3320015,,,,,,,2025-12-01,1,,,,,タカセキカク,0
91,1030003028126,新規,0,2025-12-01,2025-12-01,合同会社Ｊｅｄｉ　Ｐｒｏｐｅｒｔｉｅｓ,,合同会社,埼玉県,川口市,幸町１丁目１１－１８,,11,203,3320016,,,,,,,2025-12-01,1,,,,,ジェダイプロパティーズ,0
97,1040001141549,新規,0,2025-12-01,2025-12-01,株式会社ゆば,,株式会社,千葉県,浦安市,北栄３丁目３番１４号,,12,227,2790002,,,,,,,2025-12-01,1,,,,,ユバ,0
98,1040001141557,新規,0,2025-12-01,2025-12-01,株式会社ビルドコネクト,,株式会社,千葉県,市原市,能満８８８番地２５・２Ｆ,,12,219,2900011,,,,,,,2025-12-01,1,,,,,ビルドコネクト,0
105,1060001038792,新規,0,2025-12-01,2025-12-01,株式会社ステラ,,株式会社,栃木県,栃木市,岩舟町新里５８２番１,,09,203,3294316,,,,,,,2025-12-01,1,,,,,ステラ,0
107,1080003003611,新規,0,2025-12-01,2025-12-01,合同会社Ｌｉｆｅ．Ｌｏｎｇ．Ｌｅａｒｎｉｎｇ,,合同会社,静岡県,島田市,中河町２８５番地の５,,22,209,4270041,,,,,,,2025-12-01,1,,,,,ライフロングラーニング,0
108,1080005007742,新規,0,2025-12-01,2025-12-01,一般社団法人音楽の贈り物をする会,,その他の設立登記法人,静岡県,静岡市葵区,東鷹匠町７番１７号,,22,101,4200833,,,,,,,2025-12-01,1,,,,,オンガクノオクリモノヲスルカイ,0
111,1080103003478,新規,0,2025-12-01,2025-12-01,合同会社Ｆａｍｉｌｙ　Ｌｉｆｅ　Ｆｒｅｅｌｙ,,合同会社,静岡県,下田市,東本郷１丁目１番７号高橋ビル１０２,,22,219,4150035,,,,,,,2025-12-01,1,,,,,ファミリーライフフリーリー,0
128,1120001282319,新規,0,2025-12-01,2025-12-01,株式会社ＧＲＡＮＦＩＡ,,株式会社,大阪府,大阪市中央区,難波２丁目３番１１号ナンバ八千代ビル１１階Ｆ号室,,27,128,5420076,,,,,,,2025-12-01,1,,,,,グランフィア,0
129,1120001282327,新規,0,2025-12-01,2025-12-01,株式会社フレイヤ・Ｆｒｅｙｊａ,,株式会社,大阪府,大阪市淀川区,西中島６丁目２番３号チサンマンション新大阪第７新大阪８０１号室,,27,123,5320011,,,,,,,2025-12-01,1,,,,,フレイヤフレイヤ,0
131,1120003031310,新規,0,2025-12-01,2025-12-01,合同会社ＬＬＣ,,合同会社,大阪府,大阪市西区,江戸堀２丁目６番２５号,,27,106,5500002,,,,,,,2025-12-01,1,,,,,エルエルシー,0
132,1120003031319,新規,0,2025-12-01,2025-12-01,Ｃｏｚｙ　Ｓｔａｙ合同会社,,合同会社,大阪府,大阪市西成区,千本北２丁目２３番６号,,27,122,5570053,,,,,,,2025-12-01,1,,,,,コージーステイ,0
133,1120003031335,新規,0,2025-12-01,2025-12-01,合同会社ＦＬＩＮＴ,,合同会社,大阪府,大阪市中央区,南船場３丁目２番２２号おおきに南船場ビル２０５,,27,128,5420081,,,,,,,2025-12-01,1,,,,,フリント,0
134,1120003031343,新規,0,2025-12-01,2025-12-01,Ｍａｓａ＆ｃｏ合同会社,,合同会社,大阪府,大阪市北区,梅田１丁目２番２号,,27,127,5300001,,,,,,,2025-12-01,1,,,,,マサアンドコー,0
135,1120101072875,新規,0,2025-12-01,2025-12-01,株式会社ＴａｍＴａｍ,,株式会社,大阪府,堺市中区,福田４１３番地１０,,27,142,5998241,,,,,,,2025-12-01,1,,,,,タムタム,0
136,1120103006872,新規,0,2025-12-01,2025-12-01,合同会社ＰＲＯＪＥＣＴｍｙａｋｕ,,合同会社,大阪府,藤井寺市,さくら町３番２４号,,27,226,5830023,,,,,,,2025-12-01,1,,,,,プロジェクトミャク,0
139,1130001081109,新規,0,2025-12-01,2025-12-01,株式会社グロース,,株式会社,京都府,京都市西京区,大原野上里南ノ町５２６－６,,26,111,6101123,,,,,,,2025-12-01,1,,,,,グロース,0
140,1130001081117,新規,0,2025-12-01,2025-12-01,株式会社アサヒ食材,,株式会社,京都府,京都市北区,紫野西泉堂町９番地,,26,101,6038246,,,,,,,2025-12-01,1,,,,,アサヒショクザイ,0
144,1130005017521,新規,0,2025-12-01,2025-12-01,一般社団法人さくらエージェント,,その他の設立登記法人,京都府,京都市下京区,七条御所ノ内北町４６番地１、２Ｆ,,26,106,6008861,,,,,,,2025-12-01,1,,,,,サクラエージェント,0
156,1180001169618,新規,0,2025-12-01,2025-12-01,株式会社ＴＬＲ,,株式会社,愛知県,清須市,寺野郷前９８番地キャッスル小川１０１,,23,233,4520908,,,,,,,2025-12-01,1,,,,,ティーエルアール,0
157,1180001169642,新規,0,2025-12-01,2025-12-01,ＰＵＥＮＴＥＡＲＱ株式会社,,株式会社,愛知県,清須市,西市場４丁目１５番地１３,,23,233,4520941,,,,,,,2025-12-01,1,,,,,プエンテアーク,0
158,1180001169675,新規,0,2025-12-01,2025-12-01,さはしでんき株式会社,,株式会社,愛知県,小牧市,小牧４丁目４１４番地,,23,219,4850041,,,,,,,2025-12-01,1,,,,,サハシデンキ,0
172,1220003004157,新規,0,2025-12-01,2025-12-01,合同会社ＨｏＮｕ,,合同会社,石川県,金沢市,中屋南３２３,,17,201,9200379,,,,,,,2025-12-01,1,,,,,ホヌ,0
177,1240001065843,新規,0,2025-12-01,2025-12-01,株式会社ＦＡＭＺ未来Ｍ＆Ａ,,株式会社,広島県,広島市中区,舟入町２番２０号,,34,101,7300841,,,,,,,2025-12-01,1,,,,,ファムズミライエムアンドエー,0
188,1290001112137,新規,0,2025-12-01,2025-12-01,株式会社明治屋,,株式会社,福岡県,福岡市東区,多の津１丁目７番５号,,40,131,8130034,,,,,,,2025-12-01,1,,,,,メイジヤ,0
189,1290001112194,新規,0,2025-12-01,2025-12-01,ＧＤＸ株式会社,,株式会社,福岡県,福岡市中央区,天神２丁目２番１２号Ｔ＆Ｊビルディング７Ｆ,,40,133,8100001,,,,,,,2025-12-01,1,,,,,ジーディーエックス,0
190,1290001112335,新規,0,2025-12-01,2025-12-01,ＦＵＫＵエステート株式会社,,株式会社,福岡県,福岡市中央区,渡辺通５丁目３番１５号モダンパラッツォ天神プレシャス１０３号,,40,133,8100004,,,,,,,2025-12-01,1,,,,,フクエステート,0
196,1290003017706,新規,0,2025-12-01,2025-12-01,合同会社ｕｃｈｉｋｏ　Ｊａｐａｎ,,合同会社,福岡県,久留米市,山川町１３２番地２ジェイズタウンＢ１０８号,,40,203,8390817,,,,,,,2025-12-01,1,,,,,ウチコジャパン,0
197,1290003017747,新規,0,2025-12-01,2025-12-01,合同会社Ｈａｕ’ｏｌｉ,,合同会社,福岡県,八女市,立花町原島５０８番地２,,40,210,8340075,,,,,,,2025-12-01,1,,,,,ハウオリ,0
198,1290803005208,新規,0,2025-12-01,2025-12-01,合同会社ＬＯＧＩＴＡＳ,,合同会社,福岡県,北九州市小倉北区,赤坂２丁目１１番４１号パラシオ赤坂Ａ１０３,,40,106,8020032,,,,,,,2025-12-01,1,,,,,ロジタス,0
201,1330001033790,新規,0,2025-12-01,2025-12-01,株式会社ＷＡＴ熊本,,株式会社,熊本県,菊池市,隈府１０９０番地１,,43,210,8611331,,,,,,,2025-12-01,1,,,,,ワットクマモト,0
208,1340003005028,新規,0,2025-12-01,2025-12-01,合同会社楽喜,,合同会社,鹿児島県,鹿児島市,下荒田１丁目４１番１１号,,46,201,8900056,,,,,,,2025-12-01,1,,,,,ラクキ,0
209,1360001036089,新規,0,2025-12-01,2025-12-01,即応運送株式会社,,株式会社,沖縄県,浦添市,字城間２６８０番地３－８０２,,47,208,9012133,,,,,,,2025-12-01,1,,,,,ソクオウウンソウ,0
218,1370001053257,新規,0,2025-12-01,2025-12-01,華株式会社,,株式会社,宮城県,仙台市宮城野区,原町１丁目３番１４－１３０５号,,04,102,9830841,,,,,,,2025-12-01,1,,,,,フア,0
236,1430001095747,新規,0,2025-12-01,2025-12-01,株式会社楽たのしい,,株式会社,北海道,虻田郡倶知安町,北一条東１丁目２番地１,,01,400,0440001,,,,,,,2025-12-01,1,,,,,ラクタノシイ,0
237,1430001095755,新規,0,2025-12-01,2025-12-01,株式会社小林商事,,株式会社,北海道,札幌市中央区,南五条西２丁目２サイバーシティビル２階,,01,101,0640805,,,,,,,2025-12-01,1,,,,,,0
238,1430003018367,新規,0,2025-12-01,2025-12-01,北都医療サービス合同会社,,合同会社,北海道,札幌市北区,北八条西４丁目１－１,,01,102,0600808,,,,,,,2025-12-01,1,,,,,ホクトイリョウサービス,0
239,1440001009722,新規,0,2025-12-01,2025-12-01,株式会社ＬｏｃａｌＲｅｖｏｌｕｔｉｏｎ,,株式会社,北海道,函館市,青柳町３５番７－４号,,01,202,0400044,,,,,,,2025-12-01,1,,,,,ローカルレボリューション,0
243,1480001013019,新規,0,2025-12-01,2025-12-01,株式会社まるとしかく,,株式会社,徳島県,美馬市,脇町大字猪尻字庄１００番地,,36,207,7793603,,,,,,,2025-12-01,1,,,,,マルトシカク,0
244,1700150133123,新規,0,2025-12-01,2025-12-01,Ｓｈｅｎｚｈｅｎ　Ｓｈａｎｙｕ　Ｔｒａｄｉｎｇ　Ｃｏ．，Ｌｔｄ．,,外国会社等,,,,,,,,Ｒｏｏｍ　４０３－４，Ｂｕｉｌｄｉｎｇ　２，Ｈｕａｎａｎ　Ｘｉｙｕａｎ，Ｎｏ．２９５　Ｐｉｎｇｊｉ　Ａｖｅｎｕｅ，Ｈｅｈｕａ　Ｃｏｍｍｕｎｉｔｙ，Ｐｉｎｇｈｕ　Ｓｕｂｄｉｓｔｒｉｃｔ，Ｌｏｎｇｇａｎｇ　Ｄｉｓｔｒｉｃｔ，Ｓｈｅｎｚｈｅｎ　Ｃｉｔｙ，Ｓｈｅｎｚｈｅｎ，Ｇｕａｎｇｄｏｎｇ，５１８０００,,,,,,2025-12-01,1,,,,,シェンジェンシーシャンイーマオイーヨウシエンゴンスー,0
246,2010001260549,新規,0,2025-12-01,2025-12-01,株式会社ＦＬＩＰ第３２３号,,株式会社,東京都,千代田区,丸の内２丁目７番２号,,13,101,1000005,,,,,,,2025-12-01,1,,,,,エフエルアイピーダイサンビャクニジュウサンゴウ,0
247,2010001260557,新規,0,2025-12-01,2025-12-01,株式会社ＦＬＩＰ第３３１号,,株式会社,東京都,千代田区,丸の内２丁目７番２号,,13,101,1000005,,,,,,,2025-12-01,1,,,,,エフエルアイピーダイサンビャクサンジュウイチゴウ,0
248,2010001260755,新規,0,2025-12-01,2025-12-01,Ｗｏｒｋｕｐ株式会社,,株式会社,東京都,千代田区,麹町４丁目３－５Ｋｉｏｉｃｈｏ４３５－７階,,13,101,1020083,,,,,,,2025-12-01,1,,,,,ワークアップ,0
252,2010005041012,新規,0,2025-12-01,2025-12-01,一般社団法人ファンドドゥ２２号,,その他の設立登記法人,東京都,千代田区,霞が関３丁目２番５号,,13,101,1000013,,,,,,,2025-12-01,1,,,,,ファンドドゥニジュウニゴウ,0
257,2010401194529,新規,0,2025-12-01,2025-12-01,株式会社Ｐｅｒｐｅｔｕａｌ　Ｊａｐａｎ,,株式会社,東京都,港区,南青山３丁目１番３６号青山丸竹ビル６階,,13,103,1070062,,,,,,,2025-12-01,1,,,,,パーペチュアルジャパン,0
258,2010401194768,新規,0,2025-12-01,2025-12-01,株式会社ＭＹＲＭＩＤＯＮ,,株式会社,東京都,港区,北青山１丁目３番１号アールキューブ青山３階,,13,103,1070061,,,,,,,2025-12-01,1,,,,,ミュルミドン,0
261,2010403036704,新規,0,2025-12-01,2025-12-01,ＡＳＡＧＩ　Ｌａｂｓ　Ｖｅｎｔｕｒｅｓ合同会社,,合同会社,東京都,港区,芝大門１丁目２番１４号Ｈ１Ｏ浜松町３０８号室,,13,103,1050012,,,,,,,2025-12-01,1,,,,,アサギラブスベンチャーズ,0
263,2010501055102,新規,0,2025-12-01,2025-12-01,和信株式会社,,株式会社,東京都,台東区,千束３丁目９番５号１０１,,13,106,1110031,,,,,,,2025-12-01,1,,,,,ワシン,0
270,2010801036818,新規,0,2025-12-01,2025-12-01,株式会社ローカルオフィスアーキテクツ,,株式会社,東京都,大田区,池上７丁目８番１９号,,13,111,1460082,,,,,,,2025-12-01,1,,,,,ローカルオフィスアーキテクツ,0
271,2010803005614,新規,0,2025-12-01,2025-12-01,ジェイファイブ合同会社,,合同会社,東京都,大田区,大森西２丁目１０番８号,,13,111,1430015,,,,,,,2025-12-01,1,,,,,ジェイファイブ,0
272,2010803005630,新規,0,2025-12-01,2025-12-01,合同会社Ｋパートナーズ,,合同会社,東京都,大田区,南雪谷３丁目３番１号サイプレスヤマト１０５,,13,111,1450066,,,,,,,2025-12-01,1,,,,,ケーパートナーズ,0
278,2011001173765,新規,0,2025-12-01,2025-12-01,ライムクロス株式会社,,株式会社,東京都,渋谷区,道玄坂１丁目１０番８号渋谷道玄坂東急ビル２Ｆ－Ｃ,,13,113,1500043,,,,,,,2025-12-01,1,,,,,ライムクロス,0
280,2011003022706,新規,0,2025-12-01,2025-12-01,合同会社ＫＩＴＩ　ＤＥＳＩＧＮ　ＯＦＦＩＣＥ,,合同会社,東京都,目黒区,中央町１丁目４番３１－３０３号,,13,110,1520001,,,,,,,2025-12-01,1,,,,,キチデザインオフィス,0
281,2011003022994,新規,0,2025-12-01,2025-12-01,合同会社光,,合同会社,東京都,渋谷区,初台１丁目２２番１２号,,13,113,1510061,,,,,,,2025-12-01,1,,,,,ヒカリ,0
287,2011103016723,新規,0,2025-12-01,2025-12-01,合同会社ＮＯＨＯＷ,,合同会社,東京都,新宿区,西新宿３丁目３番１３号西新宿水間ビル２Ｆ,,13,104,1600023,,,,,,,2025-12-01,1,,,,,ノーハウ,0
294,2012401043789,新規,0,2025-12-01,2025-12-01,株式会社時美旬,,株式会社,東京都,武蔵野市,吉祥寺南町１丁目４番１号２Ｆ,,13,203,1800003,,,,,,,2025-12-01,1,,,,,ジビシュン,0
305,2020001166010,新規,0,2025-12-01,2025-12-01,株式会社ＡＯＨＡ,,株式会社,神奈川県,横浜市青葉区,大場町１７４番地７２,,14,117,2250023,,,,,,,2025-12-01,1,,,,,アオハ,0
326,2030001169838,新規,0,2025-12-01,2025-12-01,株式会社ＤＡＳＨ,,株式会社,埼玉県,川越市,大字鯨井１１２５番地１,,11,201,3500815,,,,,,,2025-12-01,1,,,,,ダッシュ,0
327,2030001169870,新規,0,2025-12-01,2025-12-01,株式会社Ｈａｎｇｏｕｔ,,株式会社,埼玉県,三郷市,早稲田１丁目５番８号加藤ビル１Ｆ－Ｄ号,,11,237,3410018,,,,,,,2025-12-01,1,,,,,ハングアウト,0
340,2040001141564,新規,0,2025-12-01,2025-12-01,株式会社ツクイ物流,,株式会社,千葉県,野田市,柳沢２４番地の８５,,12,208,2780006,,,,,,,2025-12-01,1,,,,,ツクイブツリュウ,0
345,2040003028867,新規,0,2025-12-01,2025-12-01,合同会社ＥＳＳマネジメント,,合同会社,千葉県,八千代市,緑が丘１丁目１番１１０６－５,,12,221,2760049,,,,,,,2025-12-01,1,,,,,イーエスエスマネジメント,0
346,2040003029015,新規,0,2025-12-01,2025-12-01,ＺＹ合同会社,,合同会社,千葉県,印西市,原山２丁目２番地３棟４０２号,,12,231,2701341,,,,,,,2025-12-01,1,,,,,ゼットワイ,0
347,2040003029056,新規,0,2025-12-01,2025-12-01,合同会社オリンパス,,合同会社,千葉県,市原市,五井中央南１丁目３－１０,,12,219,2900082,,,,,,,2025-12-01,1,,,,,オリンパス,0
361,2100001039141,新規,0,2025-12-01,2025-12-01,株式会社ユーサフモータース,,株式会社,長野県,塩尻市,大字広丘郷原１７６４番地２４２,,20,215,3990704,,,,,,,2025-12-01,1,,,,,ユーサフモータース,0
377,2120001282144,新規,0,2025-12-01,2025-12-01,株式会社城美商事,,株式会社,大阪府,守口市,東郷通３丁目７番９号,,27,209,5700041,,,,,,,2025-12-01,1,,,,,シロビショウジ,0
378,2120001282350,新規,0,2025-12-01,2025-12-01,株式会社Ｄｏｕｂｌｅ　Ｅｉｇｈｔ,,株式会社,大阪府,大阪市北区,堂島２丁目２番８号堂島ザ・レジデンスマークタワー１３０３号,,27,127,5300003,,,,,,,2025-12-01,1,,,,,ダブルエイト,0
379,2120001282383,新規,0,2025-12-01,2025-12-01,株式会社ｃａｎｃｅｒ,,株式会社,大阪府,大阪市北区,堂島２丁目１番１９号４階,,27,127,5300003,,,,,,,2025-12-01,1,,,,,キャンサー,0
384,2120101072866,新規,0,2025-12-01,2025-12-01,株式会社ａｎｃｈｏｒ,,株式会社,大阪府,堺市美原区,多治井１７９番地１１,,27,147,5870012,,,,,,,2025-12-01,1,,,,,アンカー,0
385,2120101072882,新規,0,2025-12-01,2025-12-01,株式会社Ｌｅｂｅｎ　Ｌｉｎｅ,,株式会社,大阪府,和泉市,観音寺町５３９－１ザ・リバーサイト２０２号,,27,219,5940065,,,,,,,2025-12-01,1,,,,,レーベンライン,0
387,2120103006871,新規,0,2025-12-01,2025-12-01,住信ホームズ合同会社,,合同会社,大阪府,堺市堺区,宿院町東２丁２－１５－５０３,,27,141,5900955,,,,,,,2025-12-01,1,,,,,スミシンホームズ,0
388,2120105010087,新規,0,2025-12-01,2025-12-01,特定非営利活動法人まつばらベース,,その他の設立登記法人,大阪府,松原市,上田２丁目６番２１号,,27,217,5800016,,,,,,,2025-12-01,1,,,,,マツバラベース,0
393,2122001039978,新規,0,2025-12-01,2025-12-01,エスライフ株式会社,,株式会社,大阪府,東大阪市,瓜生堂１丁目１８番２０号１号室,,27,227,5780946,,,,,,,2025-12-01,1,,,,,エスライフ,0
404,2160001027248,新規,0,2025-12-01,2025-12-01,ヤマジックスＨＤ株式会社,,株式会社,滋賀県,野洲市,野洲１２３２番地１,,25,210,5202342,,,,,,,2025-12-01,1,,,,,ヤマジックスホールディング,0
411,2180001169625,新規,0,2025-12-01,2025-12-01,株式会社ＳＨＯＥＩ,,株式会社,愛知県,名古屋市緑区,大将ケ根２丁目１１２３番地,,23,114,4580822,,,,,,,2025-12-01,1,,,,,ショウエイ,0
412,2180001169716,新規,0,2025-12-01,2025-12-01,株式会社ＳＬＹ,,株式会社,愛知県,名古屋市東区,泉１丁目１４番３号,,23,102,4610001,,,,,,,2025-12-01,1,,,,,スライ,0
414,2180003029439,新規,0,2025-12-01,2025-12-01,合同会社アーク,,合同会社,愛知県,名古屋市西区,城西１丁目１２番４号,,23,104,4510031,,,,,,,2025-12-01,1,,,,,アーク,0
416,2180301040452,新規,0,2025-12-01,2025-12-01,西村プラスチック株式会社,,株式会社,愛知県,西尾市,羽塚町西新田１６番地１,00141686,23,213,4440316,,,,,,,2025-12-01,1,,,,,ニシムラプラスチック,0
419,2180303006823,新規,0,2025-12-01,2025-12-01,中部総合メンテナンス合同会社,,合同会社,愛知県,豊田市,前田町５丁目２番地,,23,211,4710874,,,,,,,2025-12-01,1,,,,,チュウブソウゴウメンテナンス,0
428,2200003007152,新規,0,2025-12-01,2025-12-01,合同会社Ｏｎｅ’ｓ,,合同会社,岐阜県,安八郡神戸町,大字丈六道１１８８番地の１,,21,381,5032304,,,,,,,2025-12-01,1,,,,,ワンズ,0
434,2240001065842,新規,0,2025-12-01,2025-12-01,株式会社未来クリエイト,,株式会社,広島県,広島市安佐南区,大塚西３丁目３番１７号,,34,105,7313167,,,,,,,2025-12-01,1,,,,,ミライクリエイト,0
438,2260001040769,新規,0,2025-12-01,2025-12-01,島村薬局株式会社,,株式会社,岡山県,小田郡矢掛町,小田５５２６番地１,,33,461,7141227,,,,,,,2025-12-01,1,,,,,シマムラヤッキョク,0
449,2290001112169,新規,0,2025-12-01,2025-12-01,株式会社ＧＲＯＷＷＯＲＫＳ,,株式会社,福岡県,福岡市東区,和白東３丁目８番８号,,40,131,8110214,,,,,,,2025-12-01,1,,,,,グローワークス,0
450,2290001112202,新規,0,2025-12-01,2025-12-01,富晟株式会社,,株式会社,福岡県,福岡市中央区,天神１丁目４番１号西日本新聞会館１６Ｆ,,40,133,8100001,,,,,,,2025-12-01,1,,,,,フーシェン,0
451,2290001112318,新規,0,2025-12-01,2025-12-01,株式会社オールケア,,株式会社,福岡県,三潴郡大木町,大字横溝６９２番地７,,40,522,8300405,,,,,,,2025-12-01,1,,,,,オールケア,0
452,2290001112326,新規,0,2025-12-01,2025-12-01,株式会社ＥＧＧ　ＰＬＡＮＴ,,株式会社,福岡県,糟屋郡粕屋町,大字仲原２４７７番地６,,40,349,8112304,,,,,,,2025-12-01,1,,,,,エッグプラント,0
453,2290001112334,新規,0,2025-12-01,2025-12-01,株式会社ＳＡＹＡ,,株式会社,福岡県,久留米市,合川町２６９番地６,,40,203,8390861,,,,,,,2025-12-01,1,,,,,サヤ,0
454,2290001112383,新規,0,2025-12-01,2025-12-01,株式会社ＧＲＥＥＮ　ＷＯＲＫ,,株式会社,福岡県,福岡市中央区,平和５丁目１７番１号,,40,133,8100016,,,,,,,2025-12-01,1,,,,,グリーンワーク,0
461,2290003017762,新規,0,2025-12-01,2025-12-01,合同会社ＬＡＳＴ,,合同会社,福岡県,飯塚市,横田６１－５,,40,205,8200044,,,,,,,2025-12-01,1,,,,,ラスト,0
462,2290003017770,新規,0,2025-12-01,2025-12-01,合同会社ＣａｒｄｉｏＧｅｎｉｘ,,合同会社,福岡県,福岡市西区,愛宕浜２丁目３番１０－１３０６号マリナタウンリベーラガーデンイーストタワー,,40,135,8190013,,,,,,,2025-12-01,1,,,,,カルディオジェニクス,0
470,2340003005027,新規,0,2025-12-01,2025-12-01,Ｋ＆Ｍ合同会社,,合同会社,鹿児島県,鹿児島市,犬迫町１０４７２番地１,,46,201,8911205,,,,,,,2025-12-01,1,,,,,ケーアンドエム,0
472,2350003005083,新規,0,2025-12-01,2025-12-01,合同会社ぼんど,,合同会社,宮崎県,東諸県郡国富町,大字本庄１８８６番地１フェニックスＩＩＩ１０６号室,00141683,45,382,8801101,,,,,,,2025-12-01,1,,,,,ボンド,0
487,2700150133122,新規,0,2025-12-01,2025-12-01,ＨＯＮＧ　ＫＯＮＧ　ＳＨＵＮＹＩＷＡＮＧ　ＴＥＣＨＮＯＬＯＧＹ　ＬＩＭＩＴＥＤ,,外国会社等,,,,,,,,ＲＯＯＭ　Ｆ０９　ＵＮＩＴ９７／Ｆ　ＷＡＨ　ＳＨＩＮＧ　ＣＥＮＴＲＥ　ＮＯ　１１　ＳＨＩＮＧ　ＹＩＰ　ＳＴＲＥＥＴ　ＫＷＵＮ　ＴＯＮＧ　ＨＫ,,,,,,2025-12-01,1,,,,,シャンガンシュンイーワンコージーヨウシエンゴンスー,0
504,3010001260408,新規,0,2025-12-01,2025-12-01,株式会社ｈａｋｕ,,株式会社,東京都,中央区,銀座１丁目１２番４号Ｎ＆Ｅ・ＢＬＤ．６Ｆ,,13,102,1040061,,,,,,,2025-12-01,1,,,,,ハク,0
505,3010001260548,新規,0,2025-12-01,2025-12-01,株式会社ＦＬＩＰ第３２２号,,株式会社,東京都,千代田区,丸の内２丁目７番２号,,13,101,1000005,,,,,,,2025-12-01,1,,,,,エフエルアイピーダイサンビャクニジュウニゴウ,0
506,3010001260556,新規,0,2025-12-01,2025-12-01,株式会社ＦＬＩＰ第３３０号,,株式会社,東京都,千代田区,丸の内２丁目７番２号,,13,101,1000005,,,,,,,2025-12-01,1,,,,,エフエルアイピーダイサンビャクサンジュウゴウ,0
507,3010001260738,新規,0,2025-12-01,2025-12-01,エンデバー・ユナイテッド・パートナーズ・４２株式会社,,株式会社,東京都,千代田区,丸の内２丁目５番１号丸の内二丁目ビル６階,,13,101,1000005,,,,,,,2025-12-01,1,,,,,エンデバーユナイテッドパートナーズフォーティーツー,0
508,3010001260770,新規,0,2025-12-01,2025-12-01,Ｂｌａｃｋ　Ｐｏｉｎｔ株式会社,,株式会社,東京都,千代田区,丸の内３丁目２番２号丸の内二重橋ビル３階,,13,101,1000005,,,,,,,2025-12-01,1,,,,,ブラックポイント,0
510,3010003049527,新規,0,2025-12-01,2025-12-01,合同会社Ａｏ,,合同会社,東京都,中央区,日本橋久松町６番１０号ＳＶＥＬＴＯ５０１号,,13,102,1030005,,,,,,,2025-12-01,1,,,,,アオ,0
511,3010003049551,新規,0,2025-12-01,2025-12-01,合同会社モンテリブロ,,合同会社,東京都,千代田区,神田和泉町１番地６－１６ヤマトビル４０５,,13,101,1010024,,,,,,,2025-12-01,1,,,,,モンテリブロ,0
512,3010005041011,新規,0,2025-12-01,2025-12-01,一般社団法人ＲＩＣＰＪ２,,その他の設立登記法人,東京都,千代田区,霞が関３丁目２番５号,,13,101,1000013,,,,,,,2025-12-01,1,,,,,アールアイシーピージェーツー,0
517,3010401194750,新規,0,2025-12-01,2025-12-01,株式会社ＲＨ,,株式会社,東京都,港区,六本木４丁目８－７－Ｂ１Ｆ,,13,103,1060032,,,,,,,2025-12-01,1,,,,,アールエイチ,0
518,3010401194791,新規,0,2025-12-01,2025-12-01,株式会社ＨＡＫＡＲＩＯ,,株式会社,東京都,港区,港南２丁目１５番１号,,13,103,1080075,,,,,,,2025-12-01,1,,,,,ハカリオ,0
522,3010403036612,新規,0,2025-12-01,2025-12-01,住建人材ラボ合同会社,,合同会社,東京都,港区,虎ノ門１丁目１５番１０号,,13,103,1050001,,,,,,,2025-12-01,1,,,,,ジュウケンジンザイラボ,0
523,3010403036686,新規,0,2025-12-01,2025-12-01,ＰＳＳ　Ｊａｐａｎ合同会社,,合同会社,東京都,港区,海岸１丁目１６番１号ニューピア竹芝サウスタワー２０Ｆ,,13,103,1050022,,,,,,,2025-12-01,1,,,,,ピーエスエスジャパン,0
525,3010405024994,新規,0,2025-12-01,2025-12-01,一般社団法人ＩＰ　Ｃｅｎｔｒａｌ,,その他の設立登記法人,東京都,港区,西新橋３丁目５番２号,,13,103,1050003,,,,,,,2025-12-01,1,,,,,アイピーセントラル,0
526,3010501055101,新規,0,2025-12-01,2025-12-01,玉源株式会社,,株式会社,東京都,台東区,浅草５丁目１７番５－２０１号,,13,106,1110032,,,,,,,2025-12-01,1,,,,,ギョクゲン,0
528,3010603011935,新規,0,2025-12-01,2025-12-01,合同会社Ｏｓｕｖａ,,合同会社,東京都,江東区,北砂５丁目１１番１号,,13,108,1360073,,,,,,,2025-12-01,1,,,,,オスヴァ,0
531,3010703008014,新規,0,2025-12-01,2025-12-01,合同会社ヒューマンリソース,,合同会社,東京都,品川区,荏原３丁目８番１７－６０３号,,13,109,1420063,,,,,,,2025-12-01,1,,,,,ヒューマンリソース,0
532,3010801036817,新規,0,2025-12-01,2025-12-01,ＧｉＥＮＥ　Ｐｒｏｐｅｒｔｉｅｓ株式会社,,株式会社,東京都,大田区,多摩川１丁目１８番１１号スカイピア多摩川Ｂ棟２０２,,13,111,1460095,,,,,,,2025-12-01,1,,,,,ジーンプロパティーズ,0
543,3011001173806,新規,0,2025-12-01,2025-12-01,株式会社ｅｃｏｎｅ,,株式会社,東京都,渋谷区,千駄ヶ谷４丁目６番８－１９１３号パークコート神宮北参道ザ・タワー,,13,113,1510051,,,,,,,2025-12-01,1,,,,,エコネ,0
544,3011001173822,新規,0,2025-12-01,2025-12-01,株式会社ＬＡＸＩＳ,,株式会社,東京都,目黒区,下目黒１丁目１番１４号コノトラビル７Ｆ,,13,110,1530064,,,,,,,2025-12-01,1,,,,,ラクシス,0
545,3011001173830,新規,0,2025-12-01,2025-12-01,株式会社ＺｉＺｉ,,株式会社,東京都,渋谷区,円山町５番３号ＭＩＥＵＸ渋谷ビル８階,,13,113,1500044,,,,,,,2025-12-01,1,,,,,ジジ,0
548,3011003022944,新規,0,2025-12-01,2025-12-01,合同会社Ｇｒａｂｉｔｙ　ｈｏｕｓｅ,,合同会社,東京都,渋谷区,道玄坂１丁目１０－８渋谷道玄坂東急ビル２Ｆ－Ｃ,,13,113,1500043,,,,,,,2025-12-01,1,,,,,グラビティハウス,0
549,3011003022977,新規,0,2025-12-01,2025-12-01,Ｖｏｉｃｅｌｉｇｈｔ合同会社,,合同会社,東京都,渋谷区,広尾１丁目２番地１号ヒカリビル４階,,13,113,1500012,,,,,,,2025-12-01,1,,,,,ヴォイスライト,0
550,3011003022993,新規,0,2025-12-01,2025-12-01,Ｏ‐ＩＤ合同会社,,合同会社,東京都,渋谷区,東１丁目２９番３号渋谷ブリッジＢ棟,,13,113,1500011,,,,,,,2025-12-01,1,,,,,オーアイディー,0
551,3011003023001,新規,0,2025-12-01,2025-12-01,ＫＯＮＯＨＡＮＡ合同会社,,合同会社,東京都,目黒区,中根１丁目８－１６－１０１,,13,110,1520031,,,,,,,2025-12-01,1,,,,,コノハナ,0
555,3011101114049,新規,0,2025-12-01,2025-12-01,豊本株式会社,,株式会社,東京都,新宿区,原町２丁目５ＫＥＮ２１ビル４階,,13,104,1620053,,,,,,,2025-12-01,1,,,,,トヨモト,0
556,3011101114065,新規,0,2025-12-01,2025-12-01,株式会社ＫＢサービス,,株式会社,東京都,新宿区,百人町２丁目２１番１号,,13,104,1690073,,,,,,,2025-12-01,1,,,,,ケイビイサービス,0
576,3011301031085,新規,0,2025-12-01,2025-12-01,株式会社ＩＬ，ＯＷｓ,,株式会社,東京都,杉並区,荻窪２丁目４３番１７－２１０号,,13,115,1670051,,,,,,,2025-12-01,1,,,,,アイロウズ,0
577,3011501032833,新規,0,2025-12-01,2025-12-01,株式会社ＬｉｆｅＣｈａｌｌｅｎｇｅｒ,,株式会社,東京都,北区,栄町２２番１０号,,13,117,1140005,,,,,,,2025-12-01,1,,,,,ライフチャレンジャー,0
596,3020001166034,新規,0,2025-12-01,2025-12-01,易広株式会社,,株式会社,神奈川県,横浜市中区,日ノ出町２丁目１６６－１,,14,104,2310066,,,,,,,2025-12-01,1,,,,,エキヒロ,0
601,3020003029825,新規,0,2025-12-01,2025-12-01,横浜メンテ合同会社,,合同会社,神奈川県,横浜市西区,北幸２丁目１０－４８むつみビル３階,,14,103,2200004,,,,,,,2025-12-01,1,,,,,ヨコハマメンテ,0
608,3021003016838,新規,0,2025-12-01,2025-12-01,合同会社ＨＯＵＳＥ　ＳＨＥＬＴＥＲ　ＪＡＰＡＮ,,合同会社,神奈川県,座間市,相模が丘１丁目１７－４７,,14,216,2520001,,,,,,,2025-12-01,1,,,,,ハウスシェルタージャパン,0
616,3030001169845,新規,0,2025-12-01,2025-12-01,株式会社ＮｉｐｐｏｎＸ,,株式会社,埼玉県,川越市,大字安比奈新田１７番地３,,11,201,3501173,,,,,,,2025-12-01,1,,,,,ニッポンエックス,0
618,3030003028173,新規,0,2025-12-01,2025-12-01,クレアリア合同会社,,合同会社,埼玉県,三郷市,彦糸１丁目１５０番地６,,11,237,3410001,,,,,,,2025-12-01,1,,,,,クレアリア,0
623,3040001141571,新規,0,2025-12-01,2025-12-01,Ｃｏｒｅ　Ｓｕｐｐｏｒｔ株式会社,,株式会社,千葉県,船橋市,前原西４丁目３８－６－９０１,,12,204,2740825,,,,,,,2025-12-01,1,,,,,コアサポート,0
627,3040003028981,新規,0,2025-12-01,2025-12-01,アソシエイツ国際人材サポート合同会社,,合同会社,千葉県,柏市,篠籠田１０４０－１９,,12,217,2770862,,,,,,,2025-12-01,1,,,,,アソシエイツコクサイジンザイサポート,0
628,3040003029006,新規,0,2025-12-01,2025-12-01,カケス合同会社,,合同会社,千葉県,市川市,北国分３丁目１０－１６,,12,203,2720836,,,,,,,2025-12-01,1,,,,,カケス,0
629,3040003029055,新規,0,2025-12-01,2025-12-01,合同会社パピヨン,,合同会社,千葉県,八街市,東吉田１１１－１８,,12,230,2891114,,,,,,,2025-12-01,1,,,,,パピヨン,0
630,3040003029063,新規,0,2025-12-01,2025-12-01,合同会社サークルリンク,,合同会社,千葉県,四街道市,栗山３１４―６０,,12,228,2840027,,,,,,,2025-12-01,1,,,,,サークルリンク,0
635,3060001038799,新規,0,2025-12-01,2025-12-01,株式会社アンジェロコート,,株式会社,栃木県,宇都宮市,宮みらい１番１号ウツノミヤテラス５階,,09,201,3210969,,,,,,,2025-12-01,1,,,,,アンジェロコート,0
636,3070001043600,新規,0,2025-12-01,2025-12-01,株式会社彩湊,,株式会社,群馬県,高崎市,貝沢町９１８番地６,,10,202,3700042,,,,,,,2025-12-01,1,,,,,,0
643,3100001039149,新規,0,2025-12-01,2025-12-01,株式会社ＤａｙＢｒｅａｋ,,株式会社,長野県,安曇野市,穂高有明３６２７番地３０,,20,220,3998301,,,,,,,2025-12-01,1,,,,,デイブレイク,0
644,3100003008498,新規,0,2025-12-01,2025-12-01,ムーンマックス貿易合同会社,,合同会社,長野県,松本市,大字今井５９４７番地２,,20,202,3901131,,,,,,,2025-12-01,1,,,,,ムーンマックスボウエキ,0
646,3110003005981,新規,0,2025-12-01,2025-12-01,合同会社ｍｉｃｏ,,合同会社,新潟県,新潟市中央区,四ツ屋町１丁目３００１－２,,15,103,9518078,,,,,,,2025-12-01,1,,,,,ミコ,0
652,3120001282309,新規,0,2025-12-01,2025-12-01,株式会社ルミナ,,株式会社,大阪府,大阪市生野区,田島４丁目６番３０号川口方,,27,116,5440011,,,,,,,2025-12-01,1,,,,,ルミナ,0
653,3120001282325,新規,0,2025-12-01,2025-12-01,株式会社アドバンス,,株式会社,大阪府,大阪市中央区,本町橋２番２３号第７松屋ビル２１８号室,,27,128,5400029,,,,,,,2025-12-01,1,,,,,アドバンス,0
654,3120001282341,新規,0,2025-12-01,2025-12-01,株式会社リコキャリ,,株式会社,大阪府,大阪市北区,南森町２丁目２番１０号７Ｆ,,27,127,5300054,,,,,,,2025-12-01,1,,,,,リコキャリ,0
656,3120003031333,新規,0,2025-12-01,2025-12-01,合同会社ティエム,,合同会社,大阪府,大阪市鶴見区,諸口２丁目１０番２８号,,27,124,5380051,,,,,,,2025-12-01,1,,,,,ティエム,0
660,3120101072857,新規,0,2025-12-01,2025-12-01,株式会社ＤＩＣＳ　ＵＳ　ＪＡＰＡＮ,,株式会社,大阪府,泉佐野市,中庄８１２番地の１（５０２）,,27,213,5980002,,,,,,,2025-12-01,1,,,,,ディックスアスジャパン,0
661,3120101072873,新規,0,2025-12-01,2025-12-01,株式会社巧,,株式会社,大阪府,堺市中区,土塔町２２００番地１９,,27,142,5998234,,,,,,,2025-12-01,1,,,,,タクミ,0
667,3122003003403,新規,0,2025-12-01,2025-12-01,ＭＩＹＵＫＩ合同会社,,合同会社,大阪府,八尾市,南本町８丁目１－５,,27,212,5810081,,,,,,,2025-12-01,1,,,,,,0
692,3180001169608,新規,0,2025-12-01,2025-12-01,株式会社グリーンフィールド,,株式会社,愛知県,一宮市,萩原町富田方字八剱６１番地,,23,203,4910352,,,,,,,2025-12-01,1,,,,,グリーンフィールド,0
693,3180001169707,新規,0,2025-12-01,2025-12-01,株式会社ｍｉｉｂ,,株式会社,愛知県,名古屋市東区,葵１丁目２５番７号,,23,102,4610004,,,,,,,2025-12-01,1,,,,,ミーブ,0
711,3230005009507,新規,0,2025-12-01,2025-12-01,一般社団法人ＸＣ　ＲＯＬＬアカデミーとやま,,その他の設立登記法人,富山県,富山市,堀川町４６４－２,,16,201,9398072,,,,,,,2025-12-01,1,,,,,エックスシーロールアカデミートヤマ,0
713,3240001065841,新規,0,2025-12-01,2025-12-01,株式会社ＴＡＮＫ,,株式会社,広島県,安芸郡府中町,浜田４丁目１０番３１号,,34,302,7350013,,,,,,,2025-12-01,1,,,,,タンク,0
714,3250005009042,新規,0,2025-12-01,2025-12-01,医療法人陽葉会,,その他の設立登記法人,山口県,長門市,東深川１９３０番地８,,35,211,7594101,,,,,,,2025-12-01,1,,,,,ヨウヨウカイ,0
715,3260003005430,新規,0,2025-12-01,2025-12-01,合同会社大吉,,合同会社,岡山県,岡山市北区,上中野２丁目４番１０号,,33,101,7000972,,,,,,,2025-12-01,1,,,,,ダイキチ,0
721,3290001112317,新規,0,2025-12-01,2025-12-01,株式会社ＢｅＭＥＮＴＡＬ,,株式会社,福岡県,福岡市中央区,天神４丁目６－２８いちご天神ノースビル７階,,40,133,8100001,,,,,,,2025-12-01,1,,,,,ビーメンタル,0
722,3290001112341,新規,0,2025-12-01,2025-12-01,エムルート株式会社,,株式会社,福岡県,福岡市東区,松崎１丁目２３番７号,,40,131,8130035,,,,,,,2025-12-01,1,,,,,エムルート,0
726,3290003017778,新規,0,2025-12-01,2025-12-01,合同会社アシスト,,合同会社,福岡県,福岡市東区,青葉６丁目１４番６号,,40,131,8130025,,,,,,,2025-12-01,1,,,,,アシスト,0
730,3290801032061,新規,0,2025-12-01,2025-12-01,株式会社愛弘,,株式会社,福岡県,北九州市八幡西区,則松１丁目６番３５－１０１号,,40,109,8070831,,,,,,,2025-12-01,1,,,,,アイコウ,0
737,3320003004839,新規,0,2025-12-01,2025-12-01,合同会社ｕｓｕｔｏｋｉｎｅ,,合同会社,大分県,臼杵市,大字下ノ江４５３－１,,44,206,8750002,,,,,,,2025-12-01,1,,,,,ウストキネ,0
740,3330001033780,新規,0,2025-12-01,2025-12-01,株式会社幸明,,株式会社,熊本県,天草市,東浜町１０番１号三貴ビル１階,,43,215,8630014,,,,,,,2025-12-01,1,,,,,コウメイ,0
743,3340003005026,新規,0,2025-12-01,2025-12-01,合同会社霧島レジャーサービス,,合同会社,鹿児島県,霧島市,隼人町真孝２６９３番１６号,,46,218,8995102,,,,,,,2025-12-01,1,,,,,キリシマレジャーサービス,0
747,3350001019828,新規,0,2025-12-01,2025-12-01,株式会社Ｇｒｅｅｎｋａｇｅ,,株式会社,宮崎県,児湯郡高鍋町,大字蚊口浦５１３６番地,,45,401,8840004,,,,,,,2025-12-01,1,,,,,グリーンケージ,0
753,3370001053263,新規,0,2025-12-01,2025-12-01,株式会社ＥＭ　Ｔｒａｄｅ,,株式会社,宮城県,仙台市青葉区,錦ケ丘５丁目１５番地の１１,,04,101,9893123,,,,,,,2025-12-01,1,,,,,イーエムトレード,0
756,3380003006193,新規,0,2025-12-01,2025-12-01,合同会社ひらくと,,合同会社,福島県,いわき市,小名浜大原小滝町１番地の１２,,07,204,9718111,,,,,,,2025-12-01,1,,,,,ヒラクト,0
759,3430001095737,新規,0,2025-12-01,2025-12-01,株式会社ペコラダイニング,,株式会社,北海道,札幌市中央区,南五条西９丁目１０１６番地９アウローラ５０２号,,01,101,0640805,,,,,,,2025-12-01,1,,,,,ペコラダイニング,0
760,3430001095745,新規,0,2025-12-01,2025-12-01,株式会社片山農場,,株式会社,北海道,夕張郡栗山町,字継立１７８番地３２,,01,429,0680353,,,,,,,2025-12-01,1,,,,,カタヤマノウジョウ,0
769,4010001260547,新規,0,2025-12-01,2025-12-01,株式会社ＦＬＩＰ第３２１号,,株式会社,東京都,千代田区,丸の内２丁目７番２号,,13,101,1000005,,,,,,,2025-12-01,1,,,,,エフエルアイピーダイサンビャクニジュウイチゴウ,0
770,4010001260555,新規,0,2025-12-01,2025-12-01,株式会社ＦＬＩＰ第３２９号,,株式会社,東京都,千代田区,丸の内２丁目７番２号,,13,101,1000005,,,,,,,2025-12-01,1,,,,,エフエルアイピーダイサンビャクニジュウキュウゴウ,0
772,4010003049550,新規,0,2025-12-01,2025-12-01,合同会社Ｒｅｆｉｎｅ,,合同会社,東京都,中央区,銀座６丁目１３番１６号銀座ＷａｌｌビルＵＣＦ５階,,13,102,1040061,,,,,,,2025-12-01,1,,,,,リファイン,0
773,4010003049567,新規,0,2025-12-01,2025-12-01,合同会社コウハ,,合同会社,東京都,千代田区,神田多町２丁目６番地２,,13,101,1010046,,,,,,,2025-12-01,1,,,,,コウハ,0
776,4010005041010,新規,0,2025-12-01,2025-12-01,ＪＬＰ１特定目的会社,,その他の設立登記法人,東京都,千代田区,霞が関３丁目２番５号,,13,101,1000013,,,,,,,2025-12-01,1,,,,,ジェイエルピーワン,0
784,4010401194790,新規,0,2025-12-01,2025-12-01,株式会社ユタカエステート,,株式会社,東京都,港区,三田３丁目３番７号,,13,103,1080073,,,,,,,2025-12-01,1,,,,,ユタカエステート,0
785,4010401194799,新規,0,2025-12-01,2025-12-01,Ｅ＆Ｈ株式会社,,株式会社,東京都,港区,北青山２丁目１２番８号ＢＩＺＳＭＡＲＴ青山,,13,103,1070061,,,,,,,2025-12-01,1,,,,,イーアンドエイチ,0
786,4010401194832,新規,0,2025-12-01,2025-12-01,Ｂｏｒｄｅｒｌｅｓｓ　Ｗｏｒｋｓ株式会社,,株式会社,東京都,港区,北青山１丁目３－１アールキューブ青山８階（ＡＬＭＩＧＯ内）,,13,103,1070061,,,,,,,2025-12-01,1,,,,,ボーダレスワークス,0
789,4010403036603,新規,0,2025-12-01,2025-12-01,ＷｏｒｋＢｌｏｏｍ合同会社,,合同会社,東京都,港区,北青山１丁目３番１号アールキューブ青山３階,,13,103,1070061,,,,,,,2025-12-01,1,,,,,ワークブルーム,0
790,4010403036685,新規,0,2025-12-01,2025-12-01,合同会社ＮＥＸＥＲ,,合同会社,東京都,港区,六本木３丁目１６番１２号六本木ＫＳビル５Ｆ,,13,103,1060032,,,,,,,2025-12-01,1,,,,,ネクサー,0
791,4010405024985,新規,0,2025-12-01,2025-12-01,弁護士法人港総合法律事務所,,その他の設立登記法人,東京都,港区,西新橋２丁目１５番１７号レインボービル４階,,13,103,1050003,,,,,,,2025-12-01,1,,,,,ミナトソウゴウホウリツジムショ,0
801,4011001173771,新規,0,2025-12-01,2025-12-01,株式会社Ｄｒｅａｍ　Ｂｕｉｌｄｅｒｓ,,株式会社,東京都,渋谷区,神宮前６丁目１０番９号原宿董友ビル４階,,13,113,1500001,,,,,,,2025-12-01,1,,,,,ドリームビルダーズ,0
805,4011101114114,新規,0,2025-12-01,2025-12-01,株式会社ＭＢＴＡ,,株式会社,東京都,新宿区,大久保２丁目５番２０－９０２号,,13,104,1690072,,,,,,,2025-12-01,1,,,,,エムビーティーエー,0
806,4011103016721,新規,0,2025-12-01,2025-12-01,Ｖｉｖａ　Ｆｕｄｏ合同会社,,合同会社,東京都,新宿区,新宿１丁目３６番２号新宿第七葉山ビル３階,,13,104,1600022,,,,,,,2025-12-01,1,,,,,ビバフドウ,0
812,4011301031084,新規,0,2025-12-01,2025-12-01,株式会社ＬＥＢＯＩＳ,,株式会社,東京都,杉並区,和田１丁目１３番１２号,,13,115,1660012,,,,,,,2025-12-01,1,,,,,ルボア,0
813,4011503006792,新規,0,2025-12-01,2025-12-01,合同会社泉,,合同会社,東京都,北区,中十条２丁目１８－１サンハイツ２０１,,13,117,1140032,,,,,,,2025-12-01,1,,,,,イズミ,0
817,4012403007484,新規,0,2025-12-01,2025-12-01,合同会社Ｂｌｏｏｍ　Ｔｅｒｒａ,,合同会社,東京都,小金井市,前原町４丁目５‐２０,,13,210,1840013,,,,,,,2025-12-01,1,,,,,ブルームテラ,0
819,4013101009863,新規,0,2025-12-01,2025-12-01,株式会社Ｍｅｖｏｌｖｅ　Ｇｒｏｕｐ,,株式会社,東京都,西多摩郡瑞穂町,大字高根５０番地１２,,13,303,1901203,,,,,,,2025-12-01,1,,,,,ミボルブグループ,0
826,4020001166009,新規,0,2025-12-01,2025-12-01,株式会社Ａｏｔｏ　Ｌｉｎｋ,,株式会社,神奈川県,横浜市港南区,最戸２丁目８番３号,,14,111,2330008,,,,,,,2025-12-01,1,,,,,アオトリンク,0
827,4020001166033,新規,0,2025-12-01,2025-12-01,Ｏｒｉｏｎ株式会社,,株式会社,神奈川県,川崎市川崎区,大島上町４番８号メゾンＫＩＩ２０２,00141685,14,131,2100836,,,,,,,2025-12-01,1,,,,,オリオン,0
832,4020003029898,新規,0,2025-12-01,2025-12-01,キメラ・プランニング合同会社,,合同会社,神奈川県,横浜市神奈川区,金港町５－１４クアドリフォリオ８階,,14,102,2210056,,,,,,,2025-12-01,1,,,,,キメラプランニング,0
834,4021001086849,新規,0,2025-12-01,2025-12-01,株式会社ＮＥＸＴ　ＲＩＳＥ,,株式会社,神奈川県,藤沢市,亀井野１丁目１０－１８ユーアイビル２階,,14,205,2520813,,,,,,,2025-12-01,1,,,,,ネクストライズ,0
835,4021005013469,新規,0,2025-12-01,2025-12-01,ＮＰＯ法人ＫＡＭＯＳＥ,,その他の設立登記法人,神奈川県,逗子市,久木８丁目７番１５号,,14,208,2490001,,,,,,,2025-12-01,1,,,,,カモセ,0
841,4030001169836,新規,0,2025-12-01,2025-12-01,株式会社ＢＥＬＬＳ８,,株式会社,埼玉県,川越市,豊田町２丁目１９番地２５,,11,201,3501110,,,,,,,2025-12-01,1,,,,,ベルズエイト,0
842,4030001169844,新規,0,2025-12-01,2025-12-01,株式会社ロコマイル,,株式会社,埼玉県,さいたま市浦和区,常盤２丁目１０番５号,,11,107,3300061,,,,,,,2025-12-01,1,,,,,ロコマイル,0
844,4030003028148,新規,0,2025-12-01,2025-12-01,合同会社プラス・エス,,合同会社,埼玉県,さいたま市北区,宮原町２丁目９２番地１宮原パークホームズ６０４号,,11,102,3310812,,,,,,,2025-12-01,1,,,,,プラスエス,0
845,4030003028189,新規,0,2025-12-01,2025-12-01,合同会社リレーク,,合同会社,埼玉県,戸田市,美女木２丁目３―２４,,11,224,3350031,,,,,,,2025-12-01,1,,,,,リレーク,0
857,4040001141389,新規,0,2025-12-01,2025-12-01,株式会社Ｍｏｇｕｔｏｒｕ,,株式会社,千葉県,船橋市,二和東２丁目７―７,,12,204,2740805,,,,,,,2025-12-01,1,,,,,モグトル,0
874,4060001038798,新規,0,2025-12-01,2025-12-01,ＹＳＲ株式会社,,株式会社,栃木県,宇都宮市,野沢町５９４番地１９,,09,201,3200071,,,,,,,2025-12-01,1,,,,,ワイエスアール,0
875,4070001043599,新規,0,2025-12-01,2025-12-01,株式会社Ｒａｙ’ｓ,,株式会社,群馬県,太田市,新田金井町５１５番地３,,10,205,3700341,,,,,,,2025-12-01,1,,,,,レイズ,0
885,4100003008497,新規,0,2025-12-01,2025-12-01,合同会社ＫＴプランニング,,合同会社,長野県,安曇野市,豊科４７８番地３,,20,220,3998205,,,,,,,2025-12-01,1,,,,,ケーティープランニング,0
886,4110003005980,新規,0,2025-12-01,2025-12-01,合同会社宮川建設,,合同会社,新潟県,上越市,浦川原区長走１６８番地２,,15,222,9420331,,,,,,,2025-12-01,1,,,,,ミヤガワケンセツ,0
894,4120001282308,新規,0,2025-12-01,2025-12-01,株式会社ＴＬｉＭ,,株式会社,大阪府,大阪市北区,梅田１丁目２番２号大阪駅前第２ビル１２－１２,,27,127,5300001,,,,,,,2025-12-01,1,,,,,トリム,0
895,4120001282324,新規,0,2025-12-01,2025-12-01,越牛商貿株式会社,,株式会社,大阪府,大阪市生野区,巽東２丁目２番８号１０１号室,,27,116,5440014,,,,,,,2025-12-01,1,,,,,エツギュウショウボウ,0
900,4120101072856,新規,0,2025-12-01,2025-12-01,株式会社探循総合研究所,,株式会社,大阪府,阪南市,舞１丁目２７番２号,,27,232,5990224,,,,,,,2025-12-01,1,,,,,タンジュンソウゴウケンキュウショ,0
901,4120101072872,新規,0,2025-12-01,2025-12-01,株式会社スマイリア,,株式会社,大阪府,和泉市,のぞみ野３丁目１９－２０,,27,219,5941105,,,,,,,2025-12-01,1,,,,,スマイリア,0
902,4120901051852,新規,0,2025-12-01,2025-12-01,株式会社Ｅｄｏｓｕｎ,,株式会社,大阪府,茨木市,桑田町１番１号レヴェ・ヴィラージュ７０５号室,,27,211,5670841,,,,,,,2025-12-01,1,,,,,エドゥーサン,0
905,4130001081072,新規,0,2025-12-01,2025-12-01,株式会社木田工業,,株式会社,京都府,城陽市,寺田尺後１０番地の１９,,26,207,6100121,,,,,,,2025-12-01,1,,,,,キダコウギョウ,0
909,4140003022908,新規,0,2025-12-01,2025-12-01,ＨＫ＆ＳＡ合同会社,,合同会社,兵庫県,神戸市長田区,池田広町２番地の５,,28,106,6530814,,,,,,,2025-12-01,1,,,,,エイチケイアンドエスケイ,0
910,4140005027715,新規,0,2025-12-01,2025-12-01,一般社団法人ＭＦＴ　Ｌｉｆｅ　Ｌａｂ,,その他の設立登記法人,兵庫県,神戸市西区,井吹台北町１丁目１９番地３２３号,,28,111,6512244,,,,,,,2025-12-01,1,,,,,エムエフティーライフラボ,0
911,4150003003758,新規,0,2025-12-01,2025-12-01,合同会社Ｔａｏ,,合同会社,奈良県,生駒市,北新町１３－６,,29,209,6300245,,,,,,,2025-12-01,1,,,,,タオ,0
930,4180001169697,新規,0,2025-12-01,2025-12-01,株式会社一歩二歩,,株式会社,愛知県,名古屋市南区,鶴田２丁目８番１０号グランデール鶴田１０５号,,23,112,4570003,,,,,,,2025-12-01,1,,,,,イッポニホ,0
931,4180001169714,新規,0,2025-12-01,2025-12-01,株式会社宮本総研,,株式会社,愛知県,名古屋市中村区,上石川町３丁目２１番地,,23,105,4530835,,,,,,,2025-12-01,1,,,,,ミヤモトソウケン,0
935,4180003029429,新規,0,2025-12-01,2025-12-01,合同会社和倉,,合同会社,愛知県,名古屋市中村区,名駅３丁目４－１０アルティメイト名駅１ｓｔ２階,,23,105,4500002,,,,,,,2025-12-01,1,,,,,ワクラ,0
937,4180301040459,新規,0,2025-12-01,2025-12-01,株式会社癒玄屋,,株式会社,愛知県,岡崎市,緑丘２丁目２３番地３,,23,202,4440806,,,,,,,2025-12-01,1,,,,,,0
939,4190005012092,新規,0,2025-12-01,2025-12-01,ＮＰＯ法人Ｓｔｅｐ,,その他の設立登記法人,三重県,伊賀市,上野桑町２２２０番地,,24,216,5180842,,,,,,,2025-12-01,1,,,,,ステップ,0
941,4200001044468,新規,0,2025-12-01,2025-12-01,ＲＩＣＨＥ株式会社,,株式会社,岐阜県,岐阜市,清本町１０丁目２３番地８,,21,201,5008351,,,,,,,2025-12-01,1,,,,,リッシュ,0
943,4220001027041,新規,0,2025-12-01,2025-12-01,株式会社フィンチア,,株式会社,石川県,金沢市,城南２丁目３８番５号,,17,201,9200966,,,,,,,2025-12-01,1,,,,,フィンチア,0
949,4240001065832,新規,0,2025-12-01,2025-12-01,株式会社ＨｅａｒｔＣｏ,,株式会社,広島県,広島市中区,河原町１４番１２－４０２号,,34,101,7300856,,,,,,,2025-12-01,1,,,,,ハートコ,0
970,4290001112282,新規,0,2025-12-01,2025-12-01,株式会社颯,,株式会社,福岡県,福岡市南区,三宅２丁目１７番１２号,,40,134,8111344,,,,,,,2025-12-01,1,,,,,ソウ,0
971,4290001112332,新規,0,2025-12-01,2025-12-01,カーコンサルティングＬＡＷ株式会社,,株式会社,福岡県,三井郡大刀洗町,大字上高橋１６７８番地３,,40,503,8301222,,,,,,,2025-12-01,1,,,,,カーコンサルティングロー,0
972,4290001112349,新規,0,2025-12-01,2025-12-01,株式会社正崎工業,,株式会社,福岡県,福岡市南区,長住４丁目４番３０号,,40,134,8111362,,,,,,,2025-12-01,1,,,,,ショウザキコウギョウ,0
974,4290003017777,新規,0,2025-12-01,2025-12-01,合同会社プラスパー,,合同会社,福岡県,大野城市,中３丁目９番５号,,40,219,8160906,,,,,,,2025-12-01,1,,,,,プラスパー,0
976,4290005019887,新規,0,2025-12-01,2025-12-01,協同組合マイクロブルワリー九州,,その他の設立登記法人,福岡県,福岡市南区,長住３丁目２番１号,,40,134,8111362,,,,,,,2025-12-01,1,,,,,マイクロブルワリーキュウシュウ,0
978,4320001021455,新規,0,2025-12-01,2025-12-01,株式会社ケアメモリー,,株式会社,大分県,大分市,賀来南１丁目４番３２号,,44,201,8700849,,,,,,,2025-12-01,1,,,,,ケアメモリー,0
981,4340001027814,新規,0,2025-12-01,2025-12-01,株式会社Ｔｏｐｔｅｃｈ　Ｊａｐａｎ,,株式会社,鹿児島県,鹿児島市,高麗町８－６－１００２号室,,46,201,8900051,,,,,,,2025-12-01,1,,,,,トップテックジャパン,0
986,4390001018164,新規,0,2025-12-01,2025-12-01,株式会社レイスリー,,株式会社,山形県,米沢市,成島町２丁目３番３号,,06,202,9920057,,,,,,,2025-12-01,1,,,,,レイスリー,0
987,4400001017239,新規,0,2025-12-01,2025-12-01,株式会社ＡＫＡＳＡＫＡ,,株式会社,岩手県,盛岡市,津志田西１丁目９番１０号,,03,201,0200836,,,,,,,2025-12-01,1,,,,,アカサカ,0
988,4410001014334,新規,0,2025-12-01,2025-12-01,株式会社廻,,株式会社,秋田県,秋田市,横森１丁目１１番２号,,05,201,0100044,,,,,,,2025-12-01,1,,,,,メグリ,0
991,4430001095736,新規,0,2025-12-01,2025-12-01,ｆａｒｍ藤田株式会社,,株式会社,北海道,夕張郡栗山町,字桜山１番地９０,,01,429,0691505,,,,,,,2025-12-01,1,,,,,ファームフジタ,0
992,4430001095752,新規,0,2025-12-01,2025-12-01,株式会社ＫＥＮＳＨＩＮ,,株式会社,北海道,札幌市豊平区,美園五条２丁目２番１８－４０１,,01,105,0620005,,,,,,,2025-12-01,1,,,,,ケンシン,0
993,4430001095760,新規,0,2025-12-01,2025-12-01,株式会社Ｎｏｃｔｉｌ,,株式会社,北海道,札幌市白石区,本郷通９丁目北３番２６－４０１号,,01,104,0030025,,,,,,,2025-12-01,1,,,,,ノクティル,0
994,4430003018364,新規,0,2025-12-01,2025-12-01,ＲｅｇｒｏｗｔｈＣｏｎｓｕｌｔｉｎｇ合同会社,,合同会社,北海道,札幌市中央区,南三条西１丁目８－１０ＣＯＮＮＥＣＴＳＡＰＰＯＲＯ４Ｆ,,01,101,0600063,,,,,,,2025-12-01,1,,,,,リグロースコンサルティング,0
999,4500001026650,新規,0,2025-12-01,2025-12-01,株式会社ヒットポット,,株式会社,愛媛県,新居浜市,泉宮町７番１号,,38,205,7920021,,,,,,,2025-12-01,1,,,,,ヒットポット,0
1004,5010001260546,新規,0,2025-12-01,2025-12-01,株式会社ＦＬＩＰ第３２０号,,株式会社,東京都,千代田区,丸の内２丁目７番２号,,13,101,1000005,,,,,,,2025-12-01,1,,,,,エフエルアイピーダイサンビャクニジュウゴウ,0
1005,5010001260554,新規,0,2025-12-01,2025-12-01,株式会社ＦＬＩＰ第３２８号,,株式会社,東京都,千代田区,丸の内２丁目７番２号,,13,101,1000005,,,,,,,2025-12-01,1,,,,,エフエルアイピーダイサンビャクニジュウハチゴウ,0
1006,5010001260752,新規,0,2025-12-01,2025-12-01,株式会社Ｆ＆Ｐ　ＤＡＴＡ　ｓｅｒｖｉｃｅ,,株式会社,東京都,中央区,日本橋小網町７番２号,,13,102,1030016,,,,,,,2025-12-01,1,,,,,エフアンドピーデータサービス,0
1007,5010001260760,新規,0,2025-12-01,2025-12-01,ＫＡＲＡ　ＤＥＳＩＧＮ株式会社,,株式会社,東京都,文京区,千石４丁目２５番７号,,13,105,1120011,,,,,,,2025-12-01,1,,,,,カラデザイン,0
1008,5010001260785,新規,0,2025-12-01,2025-12-01,ガーディアンファイナンス株式会社,,株式会社,東京都,文京区,湯島３丁目２８番１８号－７０３,,13,105,1130034,,,,,,,2025-12-01,1,,,,,ガーディアンファイナンス,0
1009,5010003049450,新規,0,2025-12-01,2025-12-01,見る合同会社,,合同会社,東京都,千代田区,四番町２番地１クレール東郷坂１Ｆ・ＭＩＤ・ＰＯＩＮＴ市ヶ谷Ｍ－２５,,13,101,1020081,,,,,,,2025-12-01,1,,,,,ミル,0
1010,5010003049590,新規,0,2025-12-01,2025-12-01,合同会社ＤＡＩＤＡＩ,,合同会社,東京都,千代田区,丸の内１丁目４番１号東京共同会計事務所内,,13,101,1000005,,,,,,,2025-12-01,1,,,,,ダイダイ,0
1013,5010005041001,新規,0,2025-12-01,2025-12-01,一般社団法人ＣＡＲＥＬＯＲＥ　ＪＡＰＡＮ,,その他の設立登記法人,東京都,千代田区,九段南１丁目５番６号りそな九段ビル５階ＫＳフロア,,13,101,1020074,,,,,,,2025-12-01,1,,,,,ケアロアジャパン,0
1014,5010005041018,新規,0,2025-12-01,2025-12-01,一般社団法人食と安全研究会,,その他の設立登記法人,東京都,中央区,日本橋蛎殻町１丁目３番５号共同ビル５３号,,13,102,1030014,,,,,,,2025-12-01,1,,,,,ショクトアンゼンケンキュウカイ,0
1018,5010401194690,新規,0,2025-12-01,2025-12-01,株式会社ＷｉｔｈｓｕｎＢｉｏ　ＪＡＰＡＮ,,株式会社,東京都,港区,虎ノ門２丁目３番１７号虎ノ門二丁目タワー１９階,,13,103,1050001,,,,,,,2025-12-01,1,,,,,ウィズサンバイオジャパン,0
1019,5010401194798,新規,0,2025-12-01,2025-12-01,株式会社ＮＬＤＫ,,株式会社,東京都,港区,北青山１丁目３番１号アールキューブ青山３階,,13,103,1070061,,,,,,,2025-12-01,1,,,,,エヌエルディーケー,0
1020,5010401194848,新規,0,2025-12-01,2025-12-01,ＭＭ　ＶＥＳＳＥＬ７株式会社,,株式会社,東京都,港区,虎ノ門１丁目１番１２号,,13,103,1050001,,,,,,,2025-12-01,1,,,,,エムエムベッセルセブン,0
1023,5010403036668,新規,0,2025-12-01,2025-12-01,合同会社ＧＲ,,合同会社,東京都,港区,北青山１丁目３－３三橋ビル３階,,13,103,1070061,,,,,,,2025-12-01,1,,,,,ジーアール,0
1027,5010405024992,新規,0,2025-12-01,2025-12-01,一般社団法人Ｃｏｒｄｉａｌ　ＩＰ,,その他の設立登記法人,東京都,港区,西新橋３丁目５番２号,,13,103,1050003,,,,,,,2025-12-01,1,,,,,コーディアルアイピー,0
1036,5010801036815,新規,0,2025-12-01,2025-12-01,ドットウィル株式会社,,株式会社,東京都,大田区,池上８丁目２－１ＭＩＡビル２階,,13,111,1460082,,,,,,,2025-12-01,1,,,,,ドットウィル,0
1037,5010801036823,新規,0,2025-12-01,2025-12-01,株式会社ゼノシステム,,株式会社,東京都,大田区,下丸子２丁目３１番２２号,,13,111,1460092,,,,,,,2025-12-01,1,,,,,ゼノシステム,0
1039,5010901058552,新規,0,2025-12-01,2025-12-01,株式会社ユダンス,,株式会社,東京都,世田谷区,北烏山１丁目４８－２４,,13,112,1570061,,,,,,,2025-12-01,1,,,,,ユダンス,0
1040,5010903010453,新規,0,2025-12-01,2025-12-01,合同会社ＹＡＲ,,合同会社,東京都,世田谷区,代田３丁目２４－８シティハウス世田谷代田３０９,,13,112,1550033,,,,,,,2025-12-01,1,,,,,ワイエーアール,0
1047,5011001173804,新規,0,2025-12-01,2025-12-01,Ｂｅｙｏｎｄ　Ｔｅｃｈ株式会社,,株式会社,東京都,渋谷区,道玄坂１丁目１０番８号渋谷道玄坂東急ビル２Ｆ－Ｃ,,13,113,1500043,,,,,,,2025-12-01,1,,,,,ビヨンドテック,0
1051,5011003022868,新規,0,2025-12-01,2025-12-01,合同会社ＧｅｎＡＩＴｒａｉｌ,,合同会社,東京都,渋谷区,円山町５番３号ＭＩＥＵＸ渋谷ビル８階,,13,113,1500044,,,,,,,2025-12-01,1,,,,,ジェナイトレイル,0
1054,5011101114121,新規,0,2025-12-01,2025-12-01,ＯｍｎｉＸｕｔｔｌｅ株式会社,,株式会社,東京都,新宿区,津久戸町１番８号神楽坂ＡＫビル９階,,13,104,1620821,,,,,,,2025-12-01,1,,,,,オムニシャトル,0
1057,5011103016811,新規,0,2025-12-01,2025-12-01,なんば日本橋レジ合同会社,,合同会社,東京都,新宿区,四谷２丁目９番地１５東京ユナイテッド綜合事務所内,,13,104,1600004,,,,,,,2025-12-01,1,,,,,ナンバニッポンバシレジ,0
1059,5011205002718,新規,0,2025-12-01,2025-12-01,一般社団法人全国住宅産業振興協会,,その他の設立登記法人,東京都,中野区,中野４丁目１０－２中野セントラルパークサウス２Ｆ,,13,114,1640001,,,,,,,2025-12-01,1,,,,,ゼンコクジュウタクサンギョウシンコウキョウカイ,0
1062,5011503006791,新規,0,2025-12-01,2025-12-01,合同会社もったいないな,,合同会社,東京都,北区,志茂４丁目４８－１３,,13,117,1150042,,,,,,,2025-12-01,1,,,,,モッタイナイナ,0
1064,5011803007218,新規,0,2025-12-01,2025-12-01,合同会社きさらぎ,,合同会社,東京都,足立区,伊興２丁目１４－２－１０２,,13,121,1210823,,,,,,,2025-12-01,1,,,,,キサラギ,0
1069,5013101009870,新規,0,2025-12-01,2025-12-01,ＭＹ　Ｌｉｎｋ株式会社,,株式会社,東京都,福生市,大字福生１０９２番地１,,13,218,1970011,,,,,,,2025-12-01,1,,,,,エムワイリンク,0
1079,5020001166040,新規,0,2025-12-01,2025-12-01,株式会社Ｌｉｎｏｎ,,株式会社,神奈川県,川崎市宮前区,有馬７丁目９番２７号,,14,136,2160003,,,,,,,2025-12-01,1,,,,,リノン,0
1088,5021001086889,新規,0,2025-12-01,2025-12-01,株式会社ＣＴＹテクノ,,株式会社,神奈川県,鎌倉市,由比ガ浜３丁目１１番４９号２０５,,14,204,2480014,,,,,,,2025-12-01,1,,,,,シーティーワイテクノ,0
1089,5021001086897,新規,0,2025-12-01,2025-12-01,株式会社ひとで,,株式会社,神奈川県,厚木市,恩名２丁目１４－２３－６０５,,14,212,2430032,,,,,,,2025-12-01,1,,,,,ヒトデ,0
1102,5030001169851,新規,0,2025-12-01,2025-12-01,株式会社ｃｉｅｌ,,株式会社,埼玉県,さいたま市西区,大字指扇２４０７番地７０,,11,101,3310047,,,,,,,2025-12-01,1,,,,,シエル,0
1103,5030001169868,新規,0,2025-12-01,2025-12-01,株式会社Ｔａｎａｋａ　Ｇｒｏｕｐ,,株式会社,埼玉県,越谷市,川柳町１丁目５９４番地１,,11,222,3430827,,,,,,,2025-12-01,1,,,,,タナカグループ,0
1106,5030003028114,新規,0,2025-12-01,2025-12-01,ＯＳ合同会社,,合同会社,埼玉県,新座市,栄２丁目１１ー１７ー２０１,,11,230,3520014,,,,,,,2025-12-01,1,,,,,オーエス,0
1107,5030003028155,新規,0,2025-12-01,2025-12-01,合同会社大原,,合同会社,埼玉県,さいたま市浦和区,木崎３丁目１１番１３号ピアコート松本１０１号,,11,107,3300042,,,,,,,2025-12-01,1,,,,,オオハラ,0
1109,5040001141586,新規,0,2025-12-01,2025-12-01,株式会社ｎｐｓ,,株式会社,千葉県,流山市,南流山９丁目９番地の１,,12,220,2700163,,,,,,,2025-12-01,1,,,,,エヌピーエス,0
1125,5100003008496,新規,0,2025-12-01,2025-12-01,Ｈａｋｕｂａ　Ｅｘｃｅｌｌｅｎｃｅ合同会社,,合同会社,長野県,北安曇郡白馬村,大字北城８７５７番地２,,20,485,3999301,,,,,,,2025-12-01,1,,,,,ハクバエクセレンス,0
1126,5110001039749,新規,0,2025-12-01,2025-12-01,株式会社一心光,,株式会社,新潟県,新潟市中央区,姥ケ山１丁目８番３号,,15,103,9500923,,,,,,,2025-12-01,1,,,,,イッシンコウ,0
1139,5120001282240,新規,0,2025-12-01,2025-12-01,株式会社ＹＭステイ,,株式会社,大阪府,大阪市浪速区,恵美須西３丁目１５番８－３０５号,,27,111,5560003,,,,,,,2025-12-01,1,,,,,ワイエムステイ,0
1140,5120001282265,新規,0,2025-12-01,2025-12-01,株式会社ミレルコーポレーション,,株式会社,大阪府,大阪市中央区,久太郎町２丁目１番４号,,27,128,5410056,,,,,,,2025-12-01,1,,,,,ミレルコーポレーション,0
1141,5120001282273,新規,0,2025-12-01,2025-12-01,株式会社ＡＳ　Ｃａｐｉｔａｌ,,株式会社,大阪府,大阪市東成区,東小橋１丁目８番２６－４０５号,,27,115,5370024,,,,,,,2025-12-01,1,,,,,アズキャピタル,0
1142,5120001282389,新規,0,2025-12-01,2025-12-01,株式会社ＬＯＬ,,株式会社,大阪府,大阪市北区,豊崎６丁目７－１０,,27,127,5310072,,,,,,,2025-12-01,1,,,,,エルオーエル,0
1149,5120101072855,新規,0,2025-12-01,2025-12-01,タモアセット株式会社,,株式会社,大阪府,堺市北区,百舌鳥西之町１丁６７番地３－１０１号,,27,146,5918033,,,,,,,2025-12-01,1,,,,,タモアセット,0
1150,5120103006877,新規,0,2025-12-01,2025-12-01,合同会社ＢＥＬＵＮＡ,,合同会社,大阪府,岸和田市,土生町７丁目９－２－４０６,,27,202,5960825,,,,,,,2025-12-01,1,,,,,ベルナ,0
1161,5140001140933,新規,0,2025-12-01,2025-12-01,株式会社桜梅桃李,,株式会社,兵庫県,神戸市西区,南別府１丁目２１番地の１グッドライフ伊川谷２０２,,28,111,6512116,,,,,,,2025-12-01,1,,,,,オウバイトウリ,0
1168,5140003022873,新規,0,2025-12-01,2025-12-01,合同会社ＡＭＤ,,合同会社,兵庫県,尼崎市,南武庫之荘５丁目２３－１３プロスペール武庫之荘３０１,,28,202,6610033,,,,,,,2025-12-01,1,,,,,,0
1169,5150001028574,新規,0,2025-12-01,2025-12-01,株式会社寺田自動車,,株式会社,奈良県,葛城市,太田４７９番地１,,29,211,6392153,,,,,,,2025-12-01,1,,,,,テラダジドウシャ,0
1174,5150003003765,新規,0,2025-12-01,2025-12-01,合同会社縁,,合同会社,奈良県,生駒市,北大和１丁目２３番地１,,29,209,6300121,,,,,,,2025-12-01,1,,,,,ユカリ,0
1192,5180001169614,新規,0,2025-12-01,2025-12-01,株式会社Ｄ‐ＳＨＡＲＥ,,株式会社,愛知県,名古屋市中区,新栄１丁目１７番２８号,,23,106,4600007,,,,,,,2025-12-01,1,,,,,ディーシェア,0
1193,5180001169688,新規,0,2025-12-01,2025-12-01,株式会社ナクサス,,株式会社,愛知県,一宮市,城崎通７丁目１９番地２,,23,203,4910866,,,,,,,2025-12-01,1,,,,,ナクサス,0
1194,5180001169705,新規,0,2025-12-01,2025-12-01,株式会社アーリー・ワン,,株式会社,愛知県,名古屋市千種区,覚王山通９丁目２番地,,23,101,4640841,,,,,,,2025-12-01,1,,,,,アーリーワン,0
1195,5180001169713,新規,0,2025-12-01,2025-12-01,株式会社スカイフィールド,,株式会社,愛知県,春日井市,穴橋町１６０６番地１８１,,23,206,4860853,,,,,,,2025-12-01,1,,,,,スカイフィールド,0
1202,5180303006829,新規,0,2025-12-01,2025-12-01,合同会社清運,,合同会社,愛知県,豊川市,八幡町野路５０番地,,23,207,4420857,,,,,,,2025-12-01,1,,,,,,0
1206,5200003007158,新規,0,2025-12-01,2025-12-01,Ｍａｋｋａｈ　Ｍｏｔｏｒ合同会社,,合同会社,岐阜県,美濃加茂市,西町６丁目２４３番地,,21,211,5050046,,,,,,,2025-12-01,1,,,,,マカーモーター,0
1225,5290003017776,新規,0,2025-12-01,2025-12-01,合同会社Ｓｏｉｌ,,合同会社,福岡県,糟屋郡宇美町,ゆりが丘６丁目８番１号,,40,341,8112108,,,,,,,2025-12-01,1,,,,,ソイル,0
1226,5290005019886,新規,0,2025-12-01,2025-12-01,優愛協同組合,,その他の設立登記法人,福岡県,大牟田市,三里町３丁目３番地,,40,202,8360076,,,,,,,2025-12-01,1,,,,,ユウアイ,0
1231,5320001021454,新規,0,2025-12-01,2025-12-01,株式会社グランドメモリー,,株式会社,大分県,大分市,明野北３丁目３番１号,,44,201,8700165,,,,,,,2025-12-01,1,,,,,グランドメモリー,0
1232,5330001033787,新規,0,2025-12-01,2025-12-01,株式会社ＮＯＡ,,株式会社,熊本県,熊本市中央区,新大江１丁目２１番１５－１００２号,,43,101,8620972,,,,,,,2025-12-01,1,,,,,ノア,0
1237,5340001027813,新規,0,2025-12-01,2025-12-01,株式会社ＬＯＳＴ　ＩＮ　ＹＡＫＵＳＨＩＭＡ,,株式会社,鹿児島県,熊毛郡屋久島町,安房２４００番地９３－ＨＡ２－３０１号室,,46,505,8914311,,,,,,,2025-12-01,1,,,,,ロストインヤクシマ,0
1244,5360005007322,新規,0,2025-12-01,2025-12-01,一般社団法人ＭＡＴＵＭＩＹＡ,,その他の設立登記法人,沖縄県,那覇市,字仲井真３３３番地１,,47,201,9020074,,,,,,,2025-12-01,1,,,,,マツミヤ,0
1249,5380001035721,新規,0,2025-12-01,2025-12-01,株式会社ライフドア,,株式会社,福島県,いわき市,平中神谷字天神３３番地の１ミューレンＩＩ－２０１,00141689,07,204,9708021,,,,,,,2025-12-01,1,,,,,ライフドア,0
1250,5380003006191,新規,0,2025-12-01,2025-12-01,ふくしまワークコネクト合同会社,,合同会社,福島県,郡山市,島２丁目４３－１２－２Ｆ,,07,203,9638034,,,,,,,2025-12-01,1,,,,,フクシマワークコネクト,0
1257,5430001095719,新規,0,2025-12-01,2025-12-01,株式会社ＡＲＲＯＷ　ＭＩＲＡＩ　ＴＥＲＡＳＵ,,株式会社,北海道,札幌市中央区,北四条東２丁目８番地札幌ユニオンハイツ３０３号,,01,101,0600034,,,,,,,2025-12-01,1,,,,,アロウミライテラス,0
1259,5430003018306,新規,0,2025-12-01,2025-12-01,合同会社ヒーローコール,,合同会社,北海道,苫小牧市,青葉町１丁目６番１１号,,01,213,0530807,,,,,,,2025-12-01,1,,,,,ヒーローコール,0
1260,5430003018371,新規,0,2025-12-01,2025-12-01,合同会社ＳＷＥＥＴ　ＷＯＲＫＳ,,合同会社,北海道,虻田郡倶知安町,ニセコひらふ四条３丁目１７番５号麦タウンハウスＧ,,01,400,0440087,,,,,,,2025-12-01,1,,,,,スイートワークス,0
1269,6010001260545,新規,0,2025-12-01,2025-12-01,株式会社ＦＬＩＰ第３１９号,,株式会社,東京都,千代田区,丸の内２丁目７番２号,,13,101,1000005,,,,,,,2025-12-01,1,,,,,エフエルアイピーダイサンビャクジュウキュウゴウ,0
1270,6010001260553,新規,0,2025-12-01,2025-12-01,株式会社ＦＬＩＰ第３２７号,,株式会社,東京都,千代田区,丸の内２丁目７番２号,,13,101,1000005,,,,,,,2025-12-01,1,,,,,エフエルアイピーダイサンビャクニジュウナナゴウ,0
1271,6010001260702,新規,0,2025-12-01,2025-12-01,株式会社ｅａｒｔｈ,,株式会社,東京都,千代田区,外神田１丁目３番９号増田ビル２階,,13,101,1010021,,,,,,,2025-12-01,1,,,,,アース,0
1273,6010003049573,新規,0,2025-12-01,2025-12-01,ハニカム１ホールディング合同会社,,合同会社,東京都,千代田区,丸の内１丁目９番２号,,13,101,1000005,,,,,,,2025-12-01,1,,,,,ハニカムワンホールディング,0
1274,6010005041009,新規,0,2025-12-01,2025-12-01,一般社団法人日本インテリムマネジメント協会,,その他の設立登記法人,東京都,中央区,日本橋室町１丁目１１番１２号日本橋水野ビル７階,,13,102,1030022,,,,,,,2025-12-01,1,,,,,ニホンインテリムマネジメントキョウカイ,0
1279,6010401194715,新規,0,2025-12-01,2025-12-01,株式会社ＲｅＮｅｘｔ,,株式会社,東京都,港区,台場２丁目２－２,,13,103,1350091,,,,,,,2025-12-01,1,,,,,リッネクスト,0
1280,6010401194789,新規,0,2025-12-01,2025-12-01,株式会社店舗戦略パートナーズ,,株式会社,東京都,港区,北青山１丁目３番１号アールキューブ青山３階,,13,103,1070061,,,,,,,2025-12-01,1,,,,,テンポセンリャクパートナーズ,0
1281,6010401194797,新規,0,2025-12-01,2025-12-01,株式会社播磨,,株式会社,東京都,港区,元赤坂１丁目２番７号赤坂Ｋタワー４Ｆ,,13,103,1070051,,,,,,,2025-12-01,1,,,,,ハリマ,0
1282,6010401194830,新規,0,2025-12-01,2025-12-01,ジャパン・インテグリティ株式会社,,株式会社,東京都,港区,海岸１丁目２－３汐留芝離宮ビルディング２１階,,13,103,1050022,,,,,,,2025-12-01,1,,,,,ジャパンインテグリティ,0
1283,6010401194847,新規,0,2025-12-01,2025-12-01,ＭＭ　ＶＥＳＳＥＬ６株式会社,,株式会社,東京都,港区,虎ノ門１丁目１番１２号,,13,103,1050001,,,,,,,2025-12-01,1,,,,,エムエムベッセルシックス,0
1289,6010405025040,新規,0,2025-12-01,2025-12-01,天神マネジメント一般社団法人,,その他の設立登記法人,東京都,港区,六本木１丁目６番１号泉ガーデンタワー,,13,103,1060032,,,,,,,2025-12-01,1,,,,,テンジンマネジメント,0
1304,6010903010452,新規,0,2025-12-01,2025-12-01,Ｋｏｋｕｓ合同会社,,合同会社,東京都,世田谷区,用賀３丁目１０番３－５０２号,,13,112,1580097,,,,,,,2025-12-01,1,,,,,コクス,0
1309,6011001174099,新規,0,2025-12-01,2025-12-01,株式会社稲久,,株式会社,東京都,渋谷区,道玄坂１丁目１０番８号渋谷道玄坂東急ビル２Ｆ－Ｃ,,13,113,1500043,,,,,,,2025-12-01,1,,,,,イナヒサ,0
1311,6011003022909,新規,0,2025-12-01,2025-12-01,ＬｉｂｒｅＣｏｄｅ合同会社,,合同会社,東京都,渋谷区,道玄坂１丁目１０番８号渋谷道玄坂東急ビル２Ｆ－Ｃ,,13,113,1500043,,,,,,,2025-12-01,1,,,,,リーブルコード,0
1312,6011003023064,新規,0,2025-12-01,2025-12-01,Ｎｅｘｏｒａ合同会社,,合同会社,東京都,渋谷区,渋谷２丁目７－１４ＶＯＲＴＡＯＹＡＭＡ４０３,,13,113,1500002,,,,,,,2025-12-01,1,,,,,ネクソラ,0
1316,6011101114112,新規,0,2025-12-01,2025-12-01,株式会社ＥＬＫ,,株式会社,東京都,新宿区,新宿５丁目８番２２号,,13,104,1600022,,,,,,,2025-12-01,1,,,,,エルク,0
1317,6011101114120,新規,0,2025-12-01,2025-12-01,株式会社ＭＵＵ,,株式会社,東京都,新宿区,神楽坂５丁目８番地恵比寿亭ビル５０２,,13,104,1620825,,,,,,,2025-12-01,1,,,,,ムウ,0
1319,6011105011677,新規,0,2025-12-01,2025-12-01,なんば日本橋レジ一般社団法人,,その他の設立登記法人,東京都,新宿区,四谷２丁目９番地１５東京ユナイテッド綜合事務所内,,13,104,1600004,,,,,,,2025-12-01,1,,,,,ナンバニッポンバシレジ,0
1323,6011401027617,新規,0,2025-12-01,2025-12-01,ａｎｌａｃｅ株式会社,,株式会社,東京都,板橋区,南町１４－１グランデージ要町１００４,,13,119,1730027,,,,,,,2025-12-01,1,,,,,アンレース,0
1328,6012401043868,新規,0,2025-12-01,2025-12-01,ｂｉｉｐ株式会社,,株式会社,東京都,府中市,白糸台５丁目１０番地の６２,,13,206,1830011,,,,,,,2025-12-01,1,,,,,ビップ,0
1339,6020001165999,新規,0,2025-12-01,2025-12-01,株式会社リメイカ,,株式会社,神奈川県,横浜市都筑区,茅ケ崎中央６２番２２号,,14,118,2240032,,,,,,,2025-12-01,1,,,,,リメイカ,0
1343,6021001086888,新規,0,2025-12-01,2025-12-01,株式会社ＮＥＸＵＳ,,株式会社,神奈川県,鎌倉市,大船４丁目１５番３０号アイマーレ大船,,14,204,2470056,,,,,,,2025-12-01,1,,,,,ネクサス,0
1350,6030001169826,新規,0,2025-12-01,2025-12-01,株式会社Ｌｉｆｅ　ｃｏｎｓｕｌ,,株式会社,埼玉県,さいたま市大宮区,大成町３丁目４９２番地７東京殖産第五ビル３Ｆ,,11,103,3300852,,,,,,,2025-12-01,1,,,,,ライフコンサル,0
1351,6030001169842,新規,0,2025-12-01,2025-12-01,株式会社ＡＲＣＲＩＳＥ,,株式会社,埼玉県,加須市,北下新井１５５番地１グリチネＢ２０３号室,,11,210,3491134,,,,,,,2025-12-01,1,,,,,アークライズ,0
1352,6030001169859,新規,0,2025-12-01,2025-12-01,ピートアルス・アンド・カンパニー株式会社,,株式会社,埼玉県,川口市,東領家１丁目７番８号,,11,203,3320003,,,,,,,2025-12-01,1,,,,,ピートアルスアンドカンパニー,0
1355,6030005022353,新規,0,2025-12-01,2025-12-01,一般社団法人ふくまち,,その他の設立登記法人,埼玉県,川口市,大字小谷場２０６,,11,203,3330857,,,,,,,2025-12-01,1,,,,,フクマチ,0
1359,6040001141552,新規,0,2025-12-01,2025-12-01,Ｋ．Ｈ．Ｆａｍエステート株式会社,,株式会社,千葉県,市原市,大厩１３５７番地３,,12,219,2900002,,,,,,,2025-12-01,1,,,,,ケイエイチファムエステート,0
1360,6040001141560,新規,0,2025-12-01,2025-12-01,株式会社ＬＩＶＩＮＮ,,株式会社,千葉県,八街市,八街ほ３７３番地６,,12,230,2891115,,,,,,,2025-12-01,1,,,,,リビン,0
1361,6040001141569,新規,0,2025-12-01,2025-12-01,株式会社幸賢,,株式会社,千葉県,木更津市,新田１丁目４番４号,,12,206,2920832,,,,,,,2025-12-01,1,,,,,コウケン,0
1362,6040001141593,新規,0,2025-12-01,2025-12-01,株式会社ＳＯＬＡ,,株式会社,千葉県,千葉市稲毛区,小仲台４丁目３番３号,,12,103,2630043,,,,,,,2025-12-01,1,,,,,ソラ,0
1365,6040003029011,新規,0,2025-12-01,2025-12-01,合同会社Ｋ‐ＢＡＳＥ,,合同会社,千葉県,市川市,新井１丁目２４番５―７０２号（サンクレイドル浦安３）,,12,203,2720144,,,,,,,2025-12-01,1,,,,,ケイベース,0
1366,6040003029052,新規,0,2025-12-01,2025-12-01,合同会社幸果,,合同会社,千葉県,千葉市美浜区,打瀬３丁目１３番地５ザ幕張ベイフロント１６０５号,,12,106,2610013,,,,,,,2025-12-01,1,,,,,サチカ,0
1367,6040005022955,新規,0,2025-12-01,2025-12-01,一般社団法人吉川鶴彦翁記念会,,その他の設立登記法人,千葉県,市川市,新井３丁目２８番５－１０３号,,12,203,2720144,,,,,,,2025-12-01,1,,,,,ヨシカワツルヒコオウキネンカイ,0
1373,6080101025924,新規,0,2025-12-01,2025-12-01,株式会社Ｒｉｇｈｔ　Ｔｒａｄｅ,,株式会社,静岡県,富士市,青葉町７３番地の１,,22,210,4160952,,,,,,,2025-12-01,1,,,,,ライトトレード,0
1377,6110001039748,新規,0,2025-12-01,2025-12-01,株式会社ニフティセレクト,,株式会社,新潟県,三条市,塚野目４丁目１７番１１－３号,,15,204,9550055,,,,,,,2025-12-01,1,,,,,ニフティセレクト,0
1380,6110003005954,新規,0,2025-12-01,2025-12-01,合同会社ＹＳＹ,,合同会社,新潟県,上越市,北城町３丁目１６‐２７北城ビル３‐１号室,,15,222,9430824,,,,,,,2025-12-01,1,,,,,ワイエスワイ,0
1393,6120001282306,新規,0,2025-12-01,2025-12-01,株式会社Ｈｏｍｅｌｅｏｎ,,株式会社,大阪府,大阪市生野区,勝山北３丁目１３－２５,,27,116,5440033,,,,,,,2025-12-01,1,,,,,ホーメレオン,0
1394,6120001282322,新規,0,2025-12-01,2025-12-01,波輝株式会社,,株式会社,大阪府,大阪市中央区,島之内２丁目１１番２－１００号第二伊藤ビル,,27,128,5420082,,,,,,,2025-12-01,1,,,,,ナミキ,0
1395,6120001282339,新規,0,2025-12-01,2025-12-01,株式会社Ｇ‐ＣＯＮＮＥＣＴ,,株式会社,大阪府,大阪市北区,南森町２丁目２番１０号７Ｆ,,27,127,5300054,,,,,,,2025-12-01,1,,,,,ジーコネクト,0
1401,6120101072854,新規,0,2025-12-01,2025-12-01,株式会社ＨＯＵＥＩ，ＴＥＣ,,株式会社,大阪府,松原市,上田７丁目４番１５号,,27,217,5800016,,,,,,,2025-12-01,1,,,,,ホウエイテック,0
1402,6120101072879,新規,0,2025-12-01,2025-12-01,株式会社ジャパンメンテナンス,,株式会社,大阪府,堺市西区,鳳北町１丁４番１,,27,144,5938328,,,,,,,2025-12-01,1,,,,,ジャパンメンテナンス,0
1403,6120101072887,新規,0,2025-12-01,2025-12-01,株式会社Ｍｏｒｉｔａ　ＷｏｒｋｓＰｌｕｓ,,株式会社,大阪府,岸和田市,上町４０番８－３０１号,,27,202,5960077,,,,,,,2025-12-01,1,,,,,モリタワークスプラス,0
1404,6120103006868,新規,0,2025-12-01,2025-12-01,合同会社ことは堂,,合同会社,大阪府,堺市北区,百舌鳥梅町３丁１５番地４サウスメゾン１０２号,,27,146,5918032,,,,,,,2025-12-01,1,,,,,コトハドウ,0
1405,6120103006876,新規,0,2025-12-01,2025-12-01,フロンティアプラス合同会社,,合同会社,大阪府,堺市西区,鳳東町６丁６８９番地９,,27,144,5938324,,,,,,,2025-12-01,1,,,,,フロンティアプラス,0
1406,6120901051875,新規,0,2025-12-01,2025-12-01,エックスエルホールディングス株式会社,,株式会社,大阪府,吹田市,豊津町５３番３号,,27,205,5640051,,,,,,,2025-12-01,1,,,,,エックスエルホールディングス,0
1416,6140001140924,新規,0,2025-12-01,2025-12-01,アマココロ株式会社,,株式会社,兵庫県,神戸市中央区,三宮町３丁目９番２４号３０１,,28,110,6500021,,,,,,,2025-12-01,1,,,,,アマココロ,0
1418,6150003003764,新規,0,2025-12-01,2025-12-01,合同会社リンクスプロジェクト,,合同会社,奈良県,生駒郡平群町,大字越木塚６０６番地,,29,342,6360925,,,,,,,2025-12-01,1,,,,,リンクスプロジェクト,0
1426,6180001169712,新規,0,2025-12-01,2025-12-01,株式会社五島企画,,株式会社,愛知県,名古屋市中村区,名駅３丁目４－１０,,23,105,4500002,,,,,,,2025-12-01,1,,,,,ゴトウキカク,0
1427,6180005021324,新規,0,2025-12-01,2025-12-01,一般社団法人ＮＷＡＹ　ＯＯ　ＦＥＳＴＩＶＡＬ,,その他の設立登記法人,愛知県,名古屋市中村区,寿町２番地,,23,105,4530028,,,,,,,2025-12-01,1,,,,,ヌエウーフェスティバル,0
1434,6200001044474,新規,0,2025-12-01,2025-12-01,株式会社ミライスター,,株式会社,岐阜県,各務原市,つつじが丘６丁目２１番地,,21,213,5090131,,,,,,,2025-12-01,1,,,,,ミライスター,0
1437,6200003007157,新規,0,2025-12-01,2025-12-01,合同会社ローズ,,合同会社,岐阜県,可児市,広見３丁目６３番地,,21,214,5090214,,,,,,,2025-12-01,1,,,,,ローズ,0
1438,6200005013822,新規,0,2025-12-01,2025-12-01,一般社団法人ＹＳＫ,,その他の設立登記法人,岐阜県,羽島郡笠松町,長池４７５番地の７,,21,303,5016063,,,,,,,2025-12-01,1,,,,,ワイエスケイ,0
1442,6220003004177,新規,0,2025-12-01,2025-12-01,合同会社ししゃも,,合同会社,石川県,金沢市,涌波１丁目７番３号,,17,201,9200953,,,,,,,2025-12-01,1,,,,,シシャモ,0
1444,6230001021198,新規,0,2025-12-01,2025-12-01,株式会社ＴＡＫＵＭＩ,,株式会社,富山県,中新川郡立山町,日俣３２番地１,,16,323,9300252,,,,,,,2025-12-01,1,,,,,タクミ,0
1448,6240001065839,新規,0,2025-12-01,2025-12-01,株式会社ＩＲＵＪ,,株式会社,広島県,広島市西区,庚午北３丁目２１番２号,,34,104,7330821,,,,,,,2025-12-01,1,,,,,イルジュ,0
1450,6250001021444,新規,0,2025-12-01,2025-12-01,ｉＦ　Ｇｒｏｕｐ株式会社,,株式会社,山口県,山口市,泉都町７番２３号,,35,203,7530076,,,,,,,2025-12-01,1,,,,,アイエフグループ,0
1457,6290001112223,新規,0,2025-12-01,2025-12-01,株式会社節税ＪＡＰＡＮ,,株式会社,福岡県,福岡市博多区,西月隈５丁目１９番３６－４０４号,,40,132,8120857,,,,,,,2025-12-01,1,,,,,セツゼイジャパン,0
1458,6290001112314,新規,0,2025-12-01,2025-12-01,株式会社Ｆｒｅｅ　Ｔｉｍｅ,,株式会社,福岡県,福岡市早良区,百道浜１丁目３番７０号,,40,137,8140001,,,,,,,2025-12-01,1,,,,,フリーターイム,0
1461,6300001014426,新規,0,2025-12-01,2025-12-01,株式会社コンヴィア,,株式会社,佐賀県,佐賀市,高木瀬東６丁目４番３３号,,41,201,8490922,,,,,,,2025-12-01,1,,,,,コンヴィア,0
1463,6320001021461,新規,0,2025-12-01,2025-12-01,ＯＮＳＥＮＸ株式会社,,株式会社,大分県,別府市,光町６番１４号,,44,202,8740930,,,,,,,2025-12-01,1,,,,,オンセンエックス,0
1464,6330001033786,新規,0,2025-12-01,2025-12-01,株式会社こやま不動産,,株式会社,熊本県,菊池郡大津町,美咲野３丁目２３番２号,,43,403,8691237,,,,,,,2025-12-01,1,,,,,コヤマフドウサン,0
1466,6330003011336,新規,0,2025-12-01,2025-12-01,アルメイダキャピタル合同会社,,合同会社,熊本県,天草市,河浦町河浦３３９１番地,,43,215,8631202,,,,,,,2025-12-01,1,,,,,アルメイダキャピタル,0
1467,6360001036084,新規,0,2025-12-01,2025-12-01,株式会社城,,株式会社,沖縄県,島尻郡南風原町,字津嘉山６２６番地,,47,350,9011117,,,,,,,2025-12-01,1,,,,,シロ,0
1480,6430001095750,新規,0,2025-12-01,2025-12-01,クリーンオーシャン株式会社,,株式会社,北海道,浦河郡浦河町,字上杵臼３６３番地の１,,01,607,0570173,,,,,,,2025-12-01,1,,,,,クリーンオーシャン,0
1481,6430003018362,新規,0,2025-12-01,2025-12-01,合同会社Ｍｉｌｌ　Ａｕｔｕｍｎ,,合同会社,北海道,札幌市中央区,南七条西２１丁目１番１０－３０３号,,01,101,0640807,,,,,,,2025-12-01,1,,,,,ミルオータム,0
1482,6430003018370,新規,0,2025-12-01,2025-12-01,合同会社ＫａｎｄＭ無双,,合同会社,北海道,札幌市清田区,里塚緑ケ丘１０丁目５番８号,,01,110,0040805,,,,,,,2025-12-01,1,,,,,ケーアンドエムムソウ,0
1484,6460301005324,新規,0,2025-12-01,2025-12-01,株式会社ＣＨＩＨＩＲＯＪＡＰＡＮ,,株式会社,北海道,北見市,大正９１番地２４,,01,208,0900008,,,,,,,2025-12-01,1,,,,,チヒロジャパン,0
1493,7010001260437,新規,0,2025-12-01,2025-12-01,株式会社バルゴ,,株式会社,東京都,文京区,関口１丁目１９番５号弥助ビル別館３階,,13,105,1120014,,,,,,,2025-12-01,1,,,,,バルゴ,0
1494,7010001260478,新規,0,2025-12-01,2025-12-01,Ｕｎｉｏ株式会社,,株式会社,東京都,中央区,日本橋蛎殻町１丁目３８番１６－１００１号,,13,102,1030014,,,,,,,2025-12-01,1,,,,,ユニオ,0
1495,7010001260544,新規,0,2025-12-01,2025-12-01,株式会社ＦＬＩＰ第３１８号,,株式会社,東京都,千代田区,丸の内２丁目７番２号,,13,101,1000005,,,,,,,2025-12-01,1,,,,,エフエルアイピーダイサンビャクジュウハチゴウ,0
1496,7010001260552,新規,0,2025-12-01,2025-12-01,株式会社ＦＬＩＰ第３２６号,,株式会社,東京都,千代田区,丸の内２丁目７番２号,,13,101,1000005,,,,,,,2025-12-01,1,,,,,エフエルアイピーダイサンビャクニジュウロクゴウ,0
1497,7010001260560,新規,0,2025-12-01,2025-12-01,株式会社ＦＬＩＰ第３３４号,,株式会社,東京都,千代田区,丸の内２丁目７番２号,,13,101,1000005,,,,,,,2025-12-01,1,,,,,エフエルアイピーダイサンビャクサンジュウヨンゴウ,0
1498,7010001260767,新規,0,2025-12-01,2025-12-01,新興電気ホールディングス株式会社,,株式会社,東京都,中央区,日本橋兜町４番３号兜町ビル,,13,102,1030026,,,,,,,2025-12-01,1,,,,,シンコウデンキホールディングス,0
1508,7010401194615,新規,0,2025-12-01,2025-12-01,Ｇｅｎｉｆｙ株式会社,,株式会社,東京都,港区,芝浦１丁目９番７号,,13,103,1050023,,,,,,,2025-12-01,1,,,,,ジェニファイ,0
1509,7010401194714,新規,0,2025-12-01,2025-12-01,ＲｅａｌＣｌｅａｎ洗浄機械株式会社,,株式会社,東京都,港区,南青山１丁目２０番２号,,13,103,1070062,,,,,,,2025-12-01,1,,,,,リアルクリーンセンジョウキカイ,0
1510,7010401194821,新規,0,2025-12-01,2025-12-01,いちばんだいじ株式会社,,株式会社,東京都,港区,北青山１丁目３－３三橋ビル３階,,13,103,1070061,,,,,,,2025-12-01,1,,,,,イチバンダイジ,0
1511,7010401194862,新規,0,2025-12-01,2025-12-01,Ａｘｔｒｕｃｔ株式会社,,株式会社,東京都,港区,北青山１丁目３－３三橋ビル３階,,13,103,1070061,,,,,,,2025-12-01,1,,,,,アクストラクト,0
1513,7010403036641,新規,0,2025-12-01,2025-12-01,合同会社ＰＬＡＧＡ,,合同会社,東京都,港区,北青山１丁目３番１号アールキューブ青山３階,,13,103,1070061,,,,,,,2025-12-01,1,,,,,プラガ,0
1528,7011101114045,新規,0,2025-12-01,2025-12-01,株式会社ａｍｂａｉ,,株式会社,東京都,新宿区,新小川町８番４号ラメール飯田橋２０１,,13,104,1620814,,,,,,,2025-12-01,1,,,,,アンバイ,0
1529,7011101114053,新規,0,2025-12-01,2025-12-01,Ｈｕｂ　ｆｏｒｔ株式会社,,株式会社,東京都,新宿区,四谷２丁目１０番地６,,13,104,1600004,,,,,,,2025-12-01,1,,,,,ハブフォート,0
1530,7011101114061,新規,0,2025-12-01,2025-12-01,核順能源株式会社,,株式会社,東京都,新宿区,百人町２丁目１３番１３号Ｊハウス２１６,,13,104,1690073,,,,,,,2025-12-01,1,,,,,カクジュンノウゲン,0
1531,7011101114103,新規,0,2025-12-01,2025-12-01,株式会社Ｌｉｎｋ　Ｇａｔｅ,,株式会社,東京都,新宿区,西新宿６丁目１５番１号セントラルパークタワー・ラ・トゥール新宿,,13,104,1600023,,,,,,,2025-12-01,1,,,,,リンクゲート,0
1535,7011103016719,新規,0,2025-12-01,2025-12-01,かもんＢｅｅ合同会社,,合同会社,東京都,新宿区,四谷１丁目１１番ＭａｙｆａｉｒＣｏｚｙ四ツ谷１Ｆ,,13,104,1600004,,,,,,,2025-12-01,1,,,,,カモンビー,0
1541,7011401027616,新規,0,2025-12-01,2025-12-01,株式会社創シン,,株式会社,東京都,板橋区,小豆沢２丁目１８番１号,,13,119,1740051,,,,,,,2025-12-01,1,,,,,ソウシン,0
1542,7011403004951,新規,0,2025-12-01,2025-12-01,ＩＴクレッシェンド合同会社,,合同会社,東京都,板橋区,板橋２丁目６１番１６号コスモ和光７０２,,13,119,1730004,,,,,,,2025-12-01,1,,,,,アイティークレッシェンド,0
1543,7011501032854,新規,0,2025-12-01,2025-12-01,株式会社勝確,,株式会社,東京都,北区,赤羽南２丁目１１番１４号,,13,117,1150044,,,,,,,2025-12-01,1,,,,,カチカク,0
1563,7020001165957,新規,0,2025-12-01,2025-12-01,株式会社３丁目カフェプラス,,株式会社,神奈川県,横浜市青葉区,美しが丘１丁目１０番地１ピースフルプレイス１階,,14,117,2250002,,,,,,,2025-12-01,1,,,,,サンチョウメカフェプラス,0
1564,7020001166006,新規,0,2025-12-01,2025-12-01,ベストデイズハウス株式会社,,株式会社,神奈川県,横浜市西区,北幸２丁目１０番４８号むつみビル３階,,14,103,2200004,,,,,,,2025-12-01,1,,,,,ベストデイズハウス,0
1565,7020001166039,新規,0,2025-12-01,2025-12-01,株式会社ＰｏｎｓＡｒｃｕｓ,,株式会社,神奈川県,川崎市多摩区,宿河原１丁目７番地７号藤和シティホームズ登戸２１１号室,,14,135,2140021,,,,,,,2025-12-01,1,,,,,ポンスアルクース,0
1582,7030001169841,新規,0,2025-12-01,2025-12-01,株式会社夢叶,,株式会社,埼玉県,鶴ヶ島市,大字町屋３４１番地４,,11,241,3502224,,,,,,,2025-12-01,1,,,,,ユメカ,0
1583,7030001169858,新規,0,2025-12-01,2025-12-01,株式会社Ｒｅｏｎａ,,株式会社,埼玉県,川越市,むさし野南２２－９,,11,201,3501158,,,,,,,2025-12-01,1,,,,,レオナ,0
1584,7030001169890,新規,0,2025-12-01,2025-12-01,デライトプラス株式会社,,株式会社,埼玉県,春日部市,大沼２丁目６１,,11,214,3440038,,,,,,,2025-12-01,1,,,,,デライトプラス,0
1590,7030003028161,新規,0,2025-12-01,2025-12-01,Ｎプロジェクト合同会社,,合同会社,埼玉県,富士見市,東みずほ台３丁目１９番地１９,,11,235,3540015,,,,,,,2025-12-01,1,,,,,エヌプロジェクト,0
1595,7040003029051,新規,0,2025-12-01,2025-12-01,合同会社Ｌｉｖｅｎｃｅ,,合同会社,千葉県,千葉市緑区,鎌取町２８０８－３８,,12,105,2660011,,,,,,,2025-12-01,1,,,,,リヴェンス,0
1601,7050001057607,新規,0,2025-12-01,2025-12-01,株式会社シシクラファーム,,株式会社,茨城県,潮来市,潮来３９０９番地,,08,223,3112424,,,,,,,2025-12-01,1,,,,,シシクラファーム,0
1608,7080005007745,新規,0,2025-12-01,2025-12-01,ＡＭＩＴＹ協同組合,,その他の設立登記法人,静岡県,静岡市葵区,馬場町９１番地山名屋ビル５０６号室,,22,101,4200867,,,,,,,2025-12-01,1,,,,,アミティ,0
1627,7120001282222,新規,0,2025-12-01,2025-12-01,株式会社ジーエーコーポレーション,,株式会社,大阪府,大阪市天王寺区,北河堀町９番９号,,27,109,5430053,,,,,,,2025-12-01,1,,,,,ジーエーコーポレーション,0
1628,7120001282239,新規,0,2025-12-01,2025-12-01,株式会社ＳＫグロース,,株式会社,大阪府,大阪市城東区,関目６丁目１４Ｂ－２０８号,,27,118,5360008,,,,,,,2025-12-01,1,,,,,エスケイグロース,0
1629,7120001282288,新規,0,2025-12-01,2025-12-01,株式会社エスアンドディー,,株式会社,大阪府,大阪市平野区,西脇２丁目７番１５－７０１号,,27,126,5470035,,,,,,,2025-12-01,1,,,,,エスアンドディー,0
1630,7120001282305,新規,0,2025-12-01,2025-12-01,華利堂株式会社,,株式会社,大阪府,大阪市大正区,千島１丁目１０番１０号－５０６号室,,27,108,5510003,,,,,,,2025-12-01,1,,,,,カリドウ,0
1631,7120001282379,新規,0,2025-12-01,2025-12-01,株式会社アークネスト,,株式会社,大阪府,大阪市阿倍野区,天王寺町北２丁目１０－１５ブランシュ阿倍野３０２,,27,119,5450001,,,,,,,2025-12-01,1,,,,,アークネスト,0
1634,7120003031338,新規,0,2025-12-01,2025-12-01,ぽんこ２合同会社,,合同会社,大阪府,大阪市旭区,赤川１丁目１１－５,,27,117,5350005,,,,,,,2025-12-01,1,,,,,ポンコツー,0
1637,7120101072878,新規,0,2025-12-01,2025-12-01,株式会社ココワークス,,株式会社,大阪府,泉南郡熊取町,大久保中２丁目２６番６号ウエスケビル２０５号室,,27,361,5900403,,,,,,,2025-12-01,1,,,,,ココワークス,0
1653,7150003003763,新規,0,2025-12-01,2025-12-01,合同会社ユニテック,,合同会社,奈良県,香芝市,瓦口２２００－２０３,,29,210,6390225,,,,,,,2025-12-01,1,,,,,ユニテック,0
1654,7170001018893,新規,0,2025-12-01,2025-12-01,ティアラコーポレーション株式会社,,株式会社,和歌山県,岩出市,中島６７７番地の１１,,30,209,6496245,,,,,,,2025-12-01,1,,,,,ティアラコーポレーション,0
1669,7180301040456,新規,0,2025-12-01,2025-12-01,エルエールファーム株式会社,,株式会社,愛知県,田原市,保美町段土１６５番地,,23,231,4413614,,,,,,,2025-12-01,1,,,,,エルエールファーム,0
1679,7200003007156,新規,0,2025-12-01,2025-12-01,合同会社カエル,,合同会社,岐阜県,多治見市,若松町２丁目２１番地１,,21,204,5070053,,,,,,,2025-12-01,1,,,,,カエル,0
1685,7240001065821,新規,0,2025-12-01,2025-12-01,株式会社Ｃａｒｅｘ　Ｒｏａｄ,,株式会社,広島県,江田島市,能美町中町１７４０番地,,34,215,7372301,,,,,,,2025-12-01,1,,,,,カーレックスロード,0
1686,7240001065838,新規,0,2025-12-01,2025-12-01,株式会社貴建工,,株式会社,広島県,広島市東区,戸坂出江２丁目６番１－１０１号,,34,102,7320016,,,,,,,2025-12-01,1,,,,,タカケンコウ,0
1691,7260001040764,新規,0,2025-12-01,2025-12-01,株式会社東陽ライズ,,株式会社,岡山県,岡山市南区,大福７０７番地２イルサローネ２１０室,,33,104,7010204,,,,,,,2025-12-01,1,,,,,トウヨウライズ,0
1695,7260003005435,新規,0,2025-12-01,2025-12-01,合同会社ａｓｍｉｌｅ,,合同会社,岡山県,岡山市中区,江崎４９３番地７,,33,102,7028005,,,,,,,2025-12-01,1,,,,,アスマイル,0
1705,7290001112296,新規,0,2025-12-01,2025-12-01,株式会社ＳＵＮＡＲＵＮＡ,,株式会社,福岡県,糟屋郡粕屋町,長者原東７丁目１５番５号,,40,349,8112317,,,,,,,2025-12-01,1,,,,,サンアルナ,0
1706,7290001112313,新規,0,2025-12-01,2025-12-01,株式会社コールテン,,株式会社,福岡県,福岡市中央区,天神２丁目２番１２号Ｔ＆Ｊビルディング７Ｆ,,40,133,8100001,,,,,,,2025-12-01,1,,,,,コールテン,0
1707,7290001112321,新規,0,2025-12-01,2025-12-01,株式会社トルケン,,株式会社,福岡県,福岡市博多区,博多駅南３丁目２２－２第五大西ビル３０５号,,40,132,8120016,,,,,,,2025-12-01,1,,,,,トルケン,0
1708,7290001112338,新規,0,2025-12-01,2025-12-01,株式会社樹,,株式会社,福岡県,那珂川市,片縄８丁目１３０番地（ル・プラティーヌ１０１号）,,40,231,8111201,,,,,,,2025-12-01,1,,,,,イツキ,0
1709,7290001112354,新規,0,2025-12-01,2025-12-01,株式会社フジプロパティ,,株式会社,福岡県,嘉麻市,大隈町８０５番地,,40,227,8200302,,,,,,,2025-12-01,1,,,,,フジプロパティ,0
1710,7290001112362,新規,0,2025-12-01,2025-12-01,株式会社Ｊ‐Ｔａｃｋｌｅ,,株式会社,福岡県,福岡市博多区,古門戸町５番１号,,40,132,8120029,,,,,,,2025-12-01,1,,,,,ジェイタックル,0
1711,7290003017717,新規,0,2025-12-01,2025-12-01,合同会社ＡｃｃｔＢａｓｅ,,合同会社,福岡県,福岡市中央区,春吉２丁目九番二十五号ラ・レジダンス・ド・レーヌ２０２号室,,40,133,8100003,,,,,,,2025-12-01,1,,,,,アクトベース,0
1712,7290003017774,新規,0,2025-12-01,2025-12-01,合同会社ツナグ哲学研究所,,合同会社,福岡県,福岡市城南区,茶山５丁目２９番２号,,40,136,8140111,,,,,,,2025-12-01,1,,,,,ツナグテツガクケンキュウジョ,0
1714,7310001019869,新規,0,2025-12-01,2025-12-01,地球のチカラ株式会社,,株式会社,長崎県,佐世保市,浦川内町７９２番地２,,42,202,8593225,,,,,,,2025-12-01,1,,,,,チキュウノチカラ,0
1715,7310003005132,新規,0,2025-12-01,2025-12-01,合同会社カオスタウン,,合同会社,長崎県,長崎市,香焼町２００１－４９,,42,201,8510310,,,,,,,2025-12-01,1,,,,,カオスタウン,0
1716,7320001021460,新規,0,2025-12-01,2025-12-01,株式会社二葉工業,,株式会社,大分県,佐伯市,来島町１６番９－９号,,44,205,8760841,,,,,,,2025-12-01,1,,,,,フタバコウギョウ,0
1723,7360001036083,新規,0,2025-12-01,2025-12-01,株式会社ＫＯＮＯＴＯＫＩ,,株式会社,沖縄県,宜野湾市,上原１丁目１７番１０号,,47,205,9012204,,,,,,,2025-12-01,1,,,,,コノトキ,0
1724,7360003015432,新規,0,2025-12-01,2025-12-01,合同会社エバークライム,,合同会社,沖縄県,南城市,玉城字船越３１番地２,,47,215,9010618,,,,,,,2025-12-01,1,,,,,エバークライム,0
1729,7380003006198,新規,0,2025-12-01,2025-12-01,ＴＥＣＨＴＡＳ合同会社,,合同会社,福島県,二本松市,油井字大窪１０９番地３７,,07,210,9691404,,,,,,,2025-12-01,1,,,,,テクタス,0
1733,7390003002469,新規,0,2025-12-01,2025-12-01,Ｌｉｌｕ合同会社,,合同会社,山形県,東置賜郡高畠町,大字相森２４３―１９,,06,381,9920332,,,,,,,2025-12-01,1,,,,,リル,0
1734,7410001014331,新規,0,2025-12-01,2025-12-01,株式会社水音,,株式会社,秋田県,仙北市,田沢湖生保内字石神６４番地８,,05,215,0141201,,,,,,,2025-12-01,1,,,,,ミズネ,0
1736,7430003018361,新規,0,2025-12-01,2025-12-01,合同会社ＨＭコーポレーション,,合同会社,北海道,札幌市中央区,南十二条西２３丁目１番１－２０１号,,01,101,0640912,,,,,,,2025-12-01,1,,,,,エイチエムコーポレーション,0
1738,7460301005323,新規,0,2025-12-01,2025-12-01,株式会社ＳＨＩＯＮ,,株式会社,北海道,網走市,潮見９丁目６番１８号,,01,211,0930042,,,,,,,2025-12-01,1,,,,,シオン,0
1739,7490001011222,新規,0,2025-12-01,2025-12-01,株式会社ＳＪＢ,,株式会社,高知県,高知市,潮新町２丁目１２番１２号,,39,201,7818008,,,,,,,2025-12-01,1,,,,,エスジェイビー,0
1745,7700150133126,新規,0,2025-12-01,2025-12-01,Ｇｕａｎｇｚｈｏｕ　Ｊｉｍｕ　Ｎｅｔｗｏｒｋ　Ｔｅｃｈｎｏｌｏｇｙ　Ｃｏ．，Ｌｉｍｉｔｅｄ,,外国会社等,,,,,,,,８／Ｆ　ＯＦＦＩＣＥ　５　ＭＥＧＡ　ＣＵＢＥ　８　ＷＡＮＧ　ＫＷＯＮＧ　ＲＯＡＤ　ＫＯＷＬＯＯＮ　ＢＡＹ　ＫＬ０００００　ＨＯＮＧ　ＫＯＮＧ　ＨＫ,,,,,,2025-12-01,1,,,,,コウシユウジムネツトワークテクノロジーカンパニーリミテツド,0
1752,8010001260543,新規,0,2025-12-01,2025-12-01,株式会社ＦＬＩＰ第３１７号,,株式会社,東京都,千代田区,丸の内２丁目７番２号,,13,101,1000005,,,,,,,2025-12-01,1,,,,,エフエルアイピーダイサンビャクジュウナナゴウ,0
1753,8010001260551,新規,0,2025-12-01,2025-12-01,株式会社ＦＬＩＰ第３２５号,,株式会社,東京都,千代田区,丸の内２丁目７番２号,,13,101,1000005,,,,,,,2025-12-01,1,,,,,エフエルアイピーダイサンビャクニジュウゴゴウ,0
1754,8010001260709,新規,0,2025-12-01,2025-12-01,杉とオーク株式会社,,株式会社,東京都,千代田区,丸の内２丁目４番１号,,13,101,1000005,,,,,,,2025-12-01,1,,,,,スギトオーク,0
1755,8010001260733,新規,0,2025-12-01,2025-12-01,株式会社クラリス,,株式会社,東京都,中央区,銀座１丁目２７番８号セントラルビル７０３号,,13,102,1040061,,,,,,,2025-12-01,1,,,,,クラリス,0
1756,8010001260758,新規,0,2025-12-01,2025-12-01,株式会社Ｇ３,,株式会社,東京都,中央区,日本橋２丁目１６番４号ｒｅｍｉｘ日本橋６階,,13,102,1030027,,,,,,,2025-12-01,1,,,,,ジースリー,0
1757,8010001260766,新規,0,2025-12-01,2025-12-01,ＡｃｔＨｏｍｅ株式会社,,株式会社,東京都,千代田区,隼町二丁目１０半蔵門ビル８階,,13,101,1020092,,,,,,,2025-12-01,1,,,,,アクトホーム,0
1759,8010003049563,新規,0,2025-12-01,2025-12-01,合同会社ＳＭＬ　Ｊ　ＨＯＴＥＬ２,,合同会社,東京都,中央区,新川１丁目１７番１８号,,13,102,1040033,,,,,,,2025-12-01,1,,,,,エスエムエルジェイホテルツー,0
1760,8010003049588,新規,0,2025-12-01,2025-12-01,矢板バッテリー合同会社,,合同会社,東京都,千代田区,霞が関３丁目２番５号霞が関ビルディング３３階,,13,101,1000013,,,,,,,2025-12-01,1,,,,,ヤイタバッテリー,0
1768,8010401194655,新規,0,2025-12-01,2025-12-01,株式会社シエナ,,株式会社,東京都,港区,六本木３丁目１６番１２号六本木ＫＳビル５Ｆ,,13,103,1060032,,,,,,,2025-12-01,1,,,,,シエナ,0
1769,8010401194795,新規,0,2025-12-01,2025-12-01,株式会社トランスフォーメーション,,株式会社,東京都,港区,元赤坂１丁目２番７号赤坂Ｋタワー４Ｆ,,13,103,1070051,,,,,,,2025-12-01,1,,,,,トランスフォーメーション,0
1770,8010401194812,新規,0,2025-12-01,2025-12-01,Ｌｅｎｄｅｅ株式会社,,株式会社,東京都,港区,北青山２丁目７－１３プラセオ青山ビル３階,,13,103,1070061,,,,,,,2025-12-01,1,,,,,レンディー,0
1771,8010403036665,新規,0,2025-12-01,2025-12-01,合同会社サウンドファイヤーワークス,,合同会社,東京都,港区,北青山１丁目３番１号アールキューブ青山３階,,13,103,1070061,,,,,,,2025-12-01,1,,,,,サウンドファイヤーワークス,0
1772,8010403036681,新規,0,2025-12-01,2025-12-01,Ｍａｉｓｏｎ３６９合同会社,,合同会社,東京都,港区,北青山１丁目３番１号アールキューブ青山３階,,13,103,1070061,,,,,,,2025-12-01,1,,,,,メゾンサンロクキュー,0
1773,8010403036698,新規,0,2025-12-01,2025-12-01,ＳａｕｃｅｒＳｗａｐ　Ｌａｂｓ合同会社,,合同会社,東京都,港区,芝大門１丁目１０番１１号芝大門センタービル１０階,,13,103,1050012,,,,,,,2025-12-01,1,,,,,ソーサースワップラブス,0
1774,8010403036707,新規,0,2025-12-01,2025-12-01,ＨＥＫＩＫＡＩ　ＥＮＥＲＧＹ合同会社,,合同会社,東京都,港区,赤坂２丁目１４番５号Ｄａｉｗａ赤坂ビル４階,,13,103,1070052,,,,,,,2025-12-01,1,,,,,ヘキカイエナジー,0
1776,8010505003662,新規,0,2025-12-01,2025-12-01,一般社団法人ＭＡＲＣＨ,,その他の設立登記法人,東京都,台東区,上野６丁目１番６号御徒町グリーンハイツ１００５号,,13,106,1100005,,,,,,,2025-12-01,1,,,,,マーチ,0
1780,8010903010450,新規,0,2025-12-01,2025-12-01,合同会社ＮＡＧＩ,,合同会社,東京都,世田谷区,豪徳寺１丁目４６－１５豪徳寺レーベル３Ｆ,,13,112,1540021,,,,,,,2025-12-01,1,,,,,ナギ,0
1786,8011001173826,新規,0,2025-12-01,2025-12-01,Ｅｎｖａｌｕｅ株式会社,,株式会社,東京都,渋谷区,円山町５番５号Ｎａｖｉ渋谷Ｖ３階,,13,113,1500044,,,,,,,2025-12-01,1,,,,,エンバリュー,0
1793,8011101114077,新規,0,2025-12-01,2025-12-01,株式会社ＳＴコンサルティング,,株式会社,東京都,新宿区,西新宿５丁目６番１号,,13,104,1600023,,,,,,,2025-12-01,1,,,,,エスティコンサルティング,0
1794,8011101114110,新規,0,2025-12-01,2025-12-01,株式会社Ｖｉｔａ,,株式会社,東京都,新宿区,新宿６丁目２４番２０号,,13,104,1600022,,,,,,,2025-12-01,1,,,,,ヴィータ,0
1798,8011103016791,新規,0,2025-12-01,2025-12-01,日本古物鑑定センター合同会社,,合同会社,東京都,新宿区,新宿７丁目２５番１号,,13,104,1600022,,,,,,,2025-12-01,1,,,,,ニホンコブツカンテイセンター,0
1799,8011103016800,新規,0,2025-12-01,2025-12-01,合同会社ＴｕｎｅＰｌｕｓ,,合同会社,東京都,新宿区,西新宿７丁目１９番９号西新宿ビル４０１,,13,104,1600023,,,,,,,2025-12-01,1,,,,,チューンプラス,0
1804,8011303005776,新規,0,2025-12-01,2025-12-01,ＮＡＢＢ　Ｓｔｕｄｉｏ合同会社,,合同会社,東京都,杉並区,高円寺北１丁目４番１０号ワークカメイヤ４０１,,13,115,1660002,,,,,,,2025-12-01,1,,,,,ナブスタジオ,0
1805,8011401027615,新規,0,2025-12-01,2025-12-01,株式会社ＺＯＯ,,株式会社,東京都,板橋区,加賀１丁目２１番１号プラウドシティ加賀学園通り５２５,,13,119,1730003,,,,,,,2025-12-01,1,,,,,ズー,0
1813,8011601029196,新規,0,2025-12-01,2025-12-01,株式会社ビビエクラ,,株式会社,東京都,練馬区,東大泉７丁目５０番４０号,,13,120,1780063,,,,,,,2025-12-01,1,,,,,ビビエクラ,0
1825,8020001166005,新規,0,2025-12-01,2025-12-01,株式会社ライジング電気,,株式会社,神奈川県,横浜市南区,永田山王台１２番１０号,,14,105,2320074,,,,,,,2025-12-01,1,,,,,ライジングデンキ,0
1827,8020003029861,新規,0,2025-12-01,2025-12-01,ＦＩＳ合同会社,,合同会社,神奈川県,横浜市西区,北幸２丁目１０番４８号むつみビル３階,,14,103,2200004,,,,,,,2025-12-01,1,,,,,エフアイエス,0
1835,8021005013465,新規,0,2025-12-01,2025-12-01,一般社団法人かながわ終活サポートセンター,,その他の設立登記法人,神奈川県,逗子市,逗子５丁目４番３５号,,14,208,2490006,,,,,,,2025-12-01,1,,,,,カナガワシュウカツサポートセンター,0
1836,8021005013473,新規,0,2025-12-01,2025-12-01,一般社団法人日本の庭をつくる,,その他の設立登記法人,神奈川県,鎌倉市,七里ガ浜東３丁目６番２２号,,14,204,2480025,,,,,,,2025-12-01,1,,,,,ニホンノニワヲツクル,0
1845,8030003028160,新規,0,2025-12-01,2025-12-01,合同会社きく八,,合同会社,埼玉県,和光市,南１丁目３４番３５号,,11,229,3510104,,,,,,,2025-12-01,1,,,,,キクヤ,0
1848,8040001141501,新規,0,2025-12-01,2025-12-01,三朝グループ株式会社,,株式会社,千葉県,浦安市,今川４丁目１２―１３―１,,12,227,2790022,,,,,,,2025-12-01,1,,,,,ミササグループ,0
1849,8040001141583,新規,0,2025-12-01,2025-12-01,株式会社ＹＯＵ＆Ｉ,,株式会社,千葉県,銚子市,清水町１５０９－１,,12,202,2880063,,,,,,,2025-12-01,1,,,,,ユーアンドアイ,0
1856,8040003029042,新規,0,2025-12-01,2025-12-01,アクアメディカルアセットパートナー合同会社,,合同会社,千葉県,浦安市,当代島２丁目７番２５号,,12,227,2790001,,,,,,,2025-12-01,1,,,,,アクアメディカルアセットパートナー,0
1861,8050001057589,新規,0,2025-12-01,2025-12-01,松愈東方株式会社,,株式会社,茨城県,日立市,幸町１丁目１５番１号,,08,202,3170073,,,,,,,2025-12-01,1,,,,,マツユトウホウ,0
1862,8050001057630,新規,0,2025-12-01,2025-12-01,株式会社ＡＴＨＬＩＺＥ,,株式会社,茨城県,鹿嶋市,大字粟生２２２９－６５,,08,222,3140021,,,,,,,2025-12-01,1,,,,,アスライズ,0
1866,8070001043595,新規,0,2025-12-01,2025-12-01,株式会社右京,,株式会社,群馬県,高崎市,引間町９９４番地１８,,10,202,3703517,,,,,,,2025-12-01,1,,,,,ウキョウ,0
1868,8080003003613,新規,0,2025-12-01,2025-12-01,合同会社らめーる,,合同会社,静岡県,静岡市葵区,足久保口組１７０２番地の３,,22,101,4212124,,,,,,,2025-12-01,1,,,,,ラメール,0
1869,8080101025914,新規,0,2025-12-01,2025-12-01,株式会社ＨＡＲＵ,,株式会社,静岡県,三島市,文教町２丁目５番２０号,,22,206,4110033,,,,,,,2025-12-01,1,,,,,ハル,0
1870,8100001039152,新規,0,2025-12-01,2025-12-01,株式会社一年,,株式会社,長野県,北佐久郡軽井沢町,大字発地レイクニュータウン内４１４－９０,,20,321,3890113,,,,,,,2025-12-01,1,,,,,イチネン,0
1881,8120001282238,新規,0,2025-12-01,2025-12-01,株式会社Ｇｏｏｄリアルエステート大阪,,株式会社,大阪府,大阪市中央区,北久宝寺町３丁目１番６号船場ミッドキューブ３階,,27,128,5410057,,,,,,,2025-12-01,1,,,,,グッドリアルエステートオオサカ,0
1882,8120001282262,新規,0,2025-12-01,2025-12-01,株式会社ＲｉｐＬａｄ,,株式会社,大阪府,大阪市北区,東天満２丁目１０番２８－５０３号,,27,127,5300044,,,,,,,2025-12-01,1,,,,,リプラド,0
1885,8120003031337,新規,0,2025-12-01,2025-12-01,合同会社Ｓｏｍｅ　Ｌｉｋｅ　Ｉｔ　Ｈｏｔ,,合同会社,大阪府,大阪市生野区,中川４丁目９番１５号,,27,116,5440005,,,,,,,2025-12-01,1,,,,,サムライハート,0
1886,8120005025279,新規,0,2025-12-01,2025-12-01,一般社団法人遠門会,,その他の設立登記法人,大阪府,大阪市中央区,大手前３丁目１番６９号,,27,128,5400008,,,,,,,2025-12-01,1,,,,,トオモンカイ,0
1889,8120101072869,新規,0,2025-12-01,2025-12-01,空建設株式会社,,株式会社,大阪府,和泉市,はつが野２丁目２９－９,,27,219,5941106,,,,,,,2025-12-01,1,,,,,ソラケンセツ,0
1890,8120103006874,新規,0,2025-12-01,2025-12-01,合同会社泰正,,合同会社,大阪府,堺市北区,長曽根町３０２０番地１１,,27,146,5918025,,,,,,,2025-12-01,1,,,,,タイセイ,0
1893,8130003010959,新規,0,2025-12-01,2025-12-01,ＡＰ合同会社,,合同会社,京都府,京都市南区,西九条東島町１７番地１３,,26,107,6018432,,,,,,,2025-12-01,1,,,,,エーピー,0
1894,8130003010967,新規,0,2025-12-01,2025-12-01,合同会社アンシャンテ,,合同会社,京都府,京都市中京区,西ノ京原町１１１－１エスリード京都二条１０２,,26,104,6048431,,,,,,,2025-12-01,1,,,,,アンシャンテ,0
1909,8180001169677,新規,0,2025-12-01,2025-12-01,ロンロンクレエ株式会社,,株式会社,愛知県,春日井市,東山町２３４５番地１８９６,,23,206,4860811,,,,,,,2025-12-01,1,,,,,ロンロンクレエ,0
1913,8180005021322,新規,0,2025-12-01,2025-12-01,一般社団法人中部大学同窓会,,その他の設立登記法人,愛知県,春日井市,松本町字鴫原１２００番地１,,23,206,4870027,,,,,,,2025-12-01,1,,,,,チュウブダイガクドウソウカイ,0
1917,8190001032727,新規,0,2025-12-01,2025-12-01,株式会社ＢＥＮＥＳＴＡＲ,,株式会社,三重県,四日市市,室山町６１３番地６,,24,202,5100948,,,,,,,2025-12-01,1,,,,,ベネスター,0
1919,8200001044472,新規,0,2025-12-01,2025-12-01,ＥＡＴＦＵＬ株式会社,,株式会社,岐阜県,岐阜市,大洞桐が丘３丁目７２番地,,21,201,5013121,,,,,,,2025-12-01,1,,,,,イートフル,0
1920,8200003007155,新規,0,2025-12-01,2025-12-01,ナガラカンテイ合同会社,,合同会社,岐阜県,岐阜市,長良３１１３番地８,,21,201,5020071,,,,,,,2025-12-01,1,,,,,ナガラカンテイ,0
1922,8220001027038,新規,0,2025-12-01,2025-12-01,株式会社クリアフォース,,株式会社,石川県,金沢市,諸江町６番２４号,,17,201,9200014,,,,,,,2025-12-01,1,,,,,クリアフォース,0
1923,8220003004175,新規,0,2025-12-01,2025-12-01,みんなのミカタ合同会社,,合同会社,石川県,金沢市,福増町北１３４８番地１,,17,201,9200376,,,,,,,2025-12-01,1,,,,,ミンナノミカタ,0
1924,8240001065837,新規,0,2025-12-01,2025-12-01,株式会社ワイズ,,株式会社,広島県,呉市,焼山中央１丁目１０番１号,,34,202,7370935,,,,,,,2025-12-01,1,,,,,ワイズ,0
1926,8240003007498,新規,0,2025-12-01,2025-12-01,合同会社みなと組,,合同会社,広島県,尾道市,因島大浜町１６９１－３,,34,205,7222101,,,,,,,2025-12-01,1,,,,,ミナトグミ,0
1929,8260001040771,新規,0,2025-12-01,2025-12-01,株式会社ミィートサァンク,,株式会社,岡山県,岡山市中区,浜３丁目１番１５号,,33,102,7038256,,,,,,,2025-12-01,1,,,,,ミィートサァンク,0
1940,8290001112304,新規,0,2025-12-01,2025-12-01,株式会社シンライズ,,株式会社,福岡県,福岡市中央区,長浜２丁目５番２０１号,,40,133,8100072,,,,,,,2025-12-01,1,,,,,シンライズ,0
1947,8330003011334,新規,0,2025-12-01,2025-12-01,合同会社Ｍ‐ｚｅｒｏ,,合同会社,熊本県,熊本市東区,長嶺南１丁目２番１５号,,43,102,8618039,,,,,,,2025-12-01,1,,,,,エムゼロ,0
1951,8360001036090,新規,0,2025-12-01,2025-12-01,株式会社未来ツアー,,株式会社,沖縄県,那覇市,泉崎１丁目１９番１号田頭アパート１０２号,,47,201,9000021,,,,,,,2025-12-01,1,,,,,ミライツアー,0
1958,8380003006197,新規,0,2025-12-01,2025-12-01,合同会社ＬａｆＹｕ,,合同会社,福島県,会津若松市,大塚１丁目７番１６号,,07,202,9650014,,,,,,,2025-12-01,1,,,,,ラフユー,0
1969,8430003018369,新規,0,2025-12-01,2025-12-01,合同会社ＮＯＲＴＨ　ＡＳＰＩＲＥ,,合同会社,北海道,札幌市南区,澄川一条１丁目５番１１号クレスト５１１－１０５,,01,106,0050001,,,,,,,2025-12-01,1,,,,,ノースアスパイア,0
1970,8460003001082,新規,0,2025-12-01,2025-12-01,合同会社ＬＢＳ,,合同会社,北海道,釧路市,芦野５丁目２４番９号,00141690,01,206,0850061,,,,,,,2025-12-01,1,,,,,エルビーエス,0
1973,8480001013020,新規,0,2025-12-01,2025-12-01,株式会社杉本内装,,株式会社,徳島県,小松島市,横須町１１番２９号,,36,203,7730006,,,,,,,2025-12-01,1,,,,,スギモトナイソウ,0
1976,8700150133125,新規,0,2025-12-01,2025-12-01,山形県鉄道利用・整備強化促進期成同盟会,,その他,山形県,山形市,松波２丁目８－１,,06,201,9900023,,,,,,,2025-12-01,1,,,,,ヤマガタケンテツドウリヨウセイビキョウカソクシンキセイドウメイカイ,0
1987,9010001260550,新規,0,2025-12-01,2025-12-01,株式会社ＦＬＩＰ第３２４号,,株式会社,東京都,千代田区,丸の内２丁目７番２号,,13,101,1000005,,,,,,,2025-12-01,1,,,,,エフエルアイピーダイサンビャクニジュウヨンゴウ,0
1988,9010001260559,新規,0,2025-12-01,2025-12-01,株式会社ＦＬＩＰ第３３３号,,株式会社,東京都,千代田区,丸の内２丁目７番２号,,13,101,1000005,,,,,,,2025-12-01,1,,,,,エフエルアイピーダイサンビャクサンジュウサンゴウ,0
1989,9010001260749,新規,0,2025-12-01,2025-12-01,Ｈ３Ｏアドバイザリー株式会社,,株式会社,東京都,中央区,銀座１丁目１２番４号Ｎ＆ＥＢＬＤ．６Ｆ,,13,102,1040061,,,,,,,2025-12-01,1,,,,,エイチスリーオーアドバイザリー,0
1990,9010001260757,新規,0,2025-12-01,2025-12-01,東京ライフアクセス株式会社,,株式会社,東京都,中央区,勝どき４丁目６番１－４９２２号,,13,102,1040054,,,,,,,2025-12-01,1,,,,,トウキョウライフアクセス,0
1995,9010003049406,新規,0,2025-12-01,2025-12-01,合同会社Ｇｌｏｗｐｒｅｓｓ,,合同会社,東京都,中央区,銀座１丁目２２番１１号銀座大竹ビジデンス２Ｆ,,13,102,1040061,,,,,,,2025-12-01,1,,,,,グロウプレス,0
1996,9010003049570,新規,0,2025-12-01,2025-12-01,合同会社真神田,,合同会社,東京都,千代田区,外神田６丁目４番６－１２０２号,,13,101,1010021,,,,,,,2025-12-01,1,,,,,マカンダ,0
1997,9010003049587,新規,0,2025-12-01,2025-12-01,日光バッテリー合同会社,,合同会社,東京都,千代田区,霞が関３丁目２番５号霞が関ビルディング３３階,,13,101,1000013,,,,,,,2025-12-01,1,,,,,ニッコウバッテリー,0
2000,9010005041006,新規,0,2025-12-01,2025-12-01,一般社団法人Ｇｒｅｅｎ　Ｂｕｉｌｄｉｎｇ　Ｅｃｏｓｙｓｔｅｍ２,,その他の設立登記法人,東京都,中央区,日本橋１丁目４番１号,,13,102,1030027,,,,,,,2025-12-01,1,,,,,グリーンビルディングエコシステムツー,0
2001,9010005041014,新規,0,2025-12-01,2025-12-01,一般社団法人ＴＯＰＡＺ,,その他の設立登記法人,東京都,千代田区,霞が関３丁目２番５号,,13,101,1000013,,,,,,,2025-12-01,1,,,,,トパーズ,0
2004,9010401194695,新規,0,2025-12-01,2025-12-01,株式会社ウマモア,,株式会社,東京都,港区,芝浦２丁目９番１－２１１１号,,13,103,1080023,,,,,,,2025-12-01,1,,,,,ウマモア,0
2005,9010401194712,新規,0,2025-12-01,2025-12-01,株式会社ロールオフィス,,株式会社,東京都,港区,虎ノ門３丁目１８番６号朝日虎ノ門マンション３１４,,13,103,1050001,,,,,,,2025-12-01,1,,,,,ロールオフィス,0
2007,9010403036631,新規,0,2025-12-01,2025-12-01,天神マネジメント合同会社,,合同会社,東京都,港区,六本木１丁目６番１号泉ガーデンタワー,,13,103,1060032,,,,,,,2025-12-01,1,,,,,テンジンマネジメント,0
2008,9010403036697,新規,0,2025-12-01,2025-12-01,ＨｉｒｏＯキャピタル合同会社,,合同会社,東京都,港区,南麻布４丁目１番１２号,,13,103,1060047,,,,,,,2025-12-01,1,,,,,ヒロオキャピタル,0
2009,9010403036730,新規,0,2025-12-01,2025-12-01,合同会社サラリ,,合同会社,東京都,港区,北青山１丁目３－３三橋ビル３階,,13,103,1070061,,,,,,,2025-12-01,1,,,,,サラリ,0
2011,9010501055079,新規,0,2025-12-01,2025-12-01,株式会社オリエントビル,,株式会社,東京都,台東区,上野５丁目１１番２号,,13,106,1100005,,,,,,,2025-12-01,1,,,,,オリエントビル,0
2019,9011001173775,新規,0,2025-12-01,2025-12-01,ＡｉＸ株式会社,,株式会社,東京都,渋谷区,道玄坂１丁目１０番８号渋谷道玄坂東急ビル２Ｆ－Ｃ,,13,113,1500043,,,,,,,2025-12-01,1,,,,,アイエックス,0
2020,9011003022988,新規,0,2025-12-01,2025-12-01,合同会社ＴＭＯ,,合同会社,東京都,渋谷区,元代々木町１１番１号田中ビル３０３号室,,13,113,1510062,,,,,,,2025-12-01,1,,,,,ティエムオー,0
2030,9011101114092,新規,0,2025-12-01,2025-12-01,株式会社ＨＯＯＫ,,株式会社,東京都,新宿区,南町３４番地１グレンパーク神楽坂２０６,,13,104,1620836,,,,,,,2025-12-01,1,,,,,フック,0
2031,9011201026808,新規,0,2025-12-01,2025-12-01,株式会社円ＢＬＯＯＭ,,株式会社,東京都,中野区,野方２丁目１９番４号ｌｕｚｎａｋａｎｏＢ１Ｆ,,13,114,1650027,,,,,,,2025-12-01,1,,,,,エンブルーム,0
2036,9011501032860,新規,0,2025-12-01,2025-12-01,Ｄｉｓ　Ｐｒｏｊｅｃｔ株式会社,,株式会社,東京都,荒川区,南千住３丁目２７－２浅草ビル,,13,118,1160003,,,,,,,2025-12-01,1,,,,,ディスプロジェクト,0
2040,9012401043865,新規,0,2025-12-01,2025-12-01,株式会社みのり,,株式会社,東京都,調布市,布田１丁目３２番地５,,13,208,1820024,,,,,,,2025-12-01,1,,,,,ミノリ,0
2045,9013101009875,新規,0,2025-12-01,2025-12-01,ママエール．テラス株式会社,,株式会社,東京都,あきる野市,小川東３丁目１０番地９,,13,228,1970822,,,,,,,2025-12-01,1,,,,,ママエールテラス,0
2056,9020001165996,新規,0,2025-12-01,2025-12-01,株式会社ＢＪＵホールディングス,,株式会社,神奈川県,横浜市神奈川区,反町２丁目１５－１４ヒルトップ反町６階,,14,102,2210825,,,,,,,2025-12-01,1,,,,,ビージェイユーホールディングス,0
2057,9020001166012,新規,0,2025-12-01,2025-12-01,株式会社ショウエイ,,株式会社,神奈川県,横浜市南区,永楽町１丁目８番地３０,,14,105,2320031,,,,,,,2025-12-01,1,,,,,ショウエイ,0
2058,9020001166037,新規,0,2025-12-01,2025-12-01,株式会社ウェル,,株式会社,神奈川県,横浜市都筑区,二の丸１２番６号,,14,118,2240052,,,,,,,2025-12-01,1,,,,,ウェル,0
2059,9020001166045,新規,0,2025-12-01,2025-12-01,三ツ輪金属塗装株式会社,,株式会社,神奈川県,川崎市中原区,市ノ坪２０２番地,,14,133,2110016,,,,,,,2025-12-01,1,,,,,ミツワキンゾクトソウ,0
2062,9020003029828,新規,0,2025-12-01,2025-12-01,合同会社ネオプランニング,,合同会社,神奈川県,横浜市都筑区,牛久保１丁目４番５号,,14,118,2240012,,,,,,,2025-12-01,1,,,,,ネオプランニング,0
2066,9021001086811,新規,0,2025-12-01,2025-12-01,株式会社Ｖｉｌｌａｇｅ　Ｌｉｆｅ,,株式会社,神奈川県,横須賀市,小川町１９－５富士ビル３階,,14,201,2380004,,,,,,,2025-12-01,1,,,,,ヴィレッジライフ,0
2067,9021003016527,新規,0,2025-12-01,2025-12-01,合同会社ソレイユエナジー１１号,,合同会社,神奈川県,茅ヶ崎市,茅ヶ崎１丁目２番４７号,,14,207,2530041,,,,,,,2025-12-01,1,,,,,ソレイユエナジージュウイチゴウ,0
2068,9021005013464,新規,0,2025-12-01,2025-12-01,社会保険労務士法人Ｏｎｅ’ｓ　Ｓｕｐｐｏｒｔ　Ｏｆｆｉｃｅ,,その他の設立登記法人,神奈川県,相模原市中央区,矢部３丁目１７－１３守市ビル２階,,14,152,2520232,,,,,,,2025-12-01,1,,,,,,0
2076,9030001169856,新規,0,2025-12-01,2025-12-01,株式会社Ａｉｒ　Ｌｉｎｋ,,株式会社,埼玉県,川口市,大字安行吉岡１５９８番地の１４,,11,203,3340072,,,,,,,2025-12-01,1,,,,,エアリンク,0
2077,9030001169872,新規,0,2025-12-01,2025-12-01,林生記株式会社,,株式会社,埼玉県,川越市,中台元町１丁目５番８号,,11,201,3501138,,,,,,,2025-12-01,1,,,,,リンセイキ,0
2079,9030003028168,新規,0,2025-12-01,2025-12-01,合同会社Ｔ‐Ｇｒａｃｅ,,合同会社,埼玉県,さいたま市大宮区,仲町１丁目４０番地三益ビル４階,,11,103,3300845,,,,,,,2025-12-01,1,,,,,ティーグレイス,0
2095,9040003029000,新規,0,2025-12-01,2025-12-01,ＣａｒｅｅｒＷｅａｖｅ合同会社,,合同会社,千葉県,鎌ケ谷市,東初富４丁目１７番１０号,,12,224,2730122,,,,,,,2025-12-01,1,,,,,キャリアウィーブ,0
2096,9040003029033,新規,0,2025-12-01,2025-12-01,トロイ合資会社,,合資会社,千葉県,浦安市,今川２丁目１１番１８号,,12,227,2790022,,,,,,,2025-12-01,1,,,,,トロイ,0
2097,9040003029041,新規,0,2025-12-01,2025-12-01,ホークライズコンサルティング合同会社,,合同会社,千葉県,成田市,西三里塚２５３番地９,,12,211,2860115,,,,,,,2025-12-01,1,,,,,ホークライズコンサルティング,0
2099,9050001057638,新規,0,2025-12-01,2025-12-01,尺尺ファーム株式会社,,株式会社,茨城県,桜川市,青柳１６番地,,08,231,3091456,,,,,,,2025-12-01,1,,,,,シャクシャクファーム,0
2100,9050001057646,新規,0,2025-12-01,2025-12-01,東盛マテリアル株式会社,,株式会社,茨城県,笠間市,小原４１５７番地,,08,216,3091701,,,,,,,2025-12-01,1,,,,,トウセイマテリアル,0
2104,9060003005866,新規,0,2025-12-01,2025-12-01,合同会社サングリッド,,合同会社,栃木県,宇都宮市,平松４丁目８番４号,,09,201,3210936,,,,,,,2025-12-01,1,,,,,サングリッド,0
2110,9080003003612,新規,0,2025-12-01,2025-12-01,合同会社グレイス,,合同会社,静岡県,焼津市,中根新田６０６－１,,22,212,4250062,,,,,,,2025-12-01,1,,,,,グレイス,0
2116,9100003008501,新規,0,2025-12-01,2025-12-01,合同会社あすいろ,,合同会社,長野県,長野市,大字中御所岡田町１６６番地１森ビル新館２階,,20,201,3800936,,,,,,,2025-12-01,1,,,,,アスイロ,0
2118,9110001039745,新規,0,2025-12-01,2025-12-01,株式会社ＦＴＰ,,株式会社,新潟県,新潟市中央区,文京町１３－２８,,15,103,9518153,,,,,,,2025-12-01,1,,,,,エフティーピー,0
2129,9120001282229,新規,0,2025-12-01,2025-12-01,株式会社Ｓｙｎｃｒａｆｔ,,株式会社,大阪府,大阪市中央区,玉造２丁目２６番６９号,,27,128,5400004,,,,,,,2025-12-01,1,,,,,シンクラフト,0
2130,9120001282278,新規,0,2025-12-01,2025-12-01,株式会社Ｗｈｉｍｚｉｃ,,株式会社,大阪府,大阪市中央区,南船場３丁目２番２２号おおきに南船場ビル２０５,,27,128,5420081,,,,,,,2025-12-01,1,,,,,ウィムジック,0
2131,9120001282328,新規,0,2025-12-01,2025-12-01,株式会社Ｒｅｍｉｎｅ,,株式会社,大阪府,大阪市中央区,安土町２丁目３番１３号大阪国際ビルディング３１階,,27,128,5410052,,,,,,,2025-12-01,1,,,,,レミネ,0
2132,9120001282377,新規,0,2025-12-01,2025-12-01,株式会社ＪＵＮＯ,,株式会社,大阪府,大阪市西区,立売堀３丁目８番１５－１７０６号,,27,106,5500012,,,,,,,2025-12-01,1,,,,,ジュノー,0
2133,9120001282385,新規,0,2025-12-01,2025-12-01,建昌株式会社,,株式会社,大阪府,大阪市中央区,内平野町２丁目２番６号ニューライフ大手前三番館５０７号室,,27,128,5400037,,,,,,,2025-12-01,1,,,,,ケンショウ,0
2135,9120003031336,新規,0,2025-12-01,2025-12-01,ＨＹ合同会社,,合同会社,大阪府,大阪市淀川区,十三本町１丁目１８－８北野ルーエ１００４,,27,123,5320024,,,,,,,2025-12-01,1,,,,,エイチワイ,0
2138,9120101072868,新規,0,2025-12-01,2025-12-01,ケヤキマックス株式会社,,株式会社,大阪府,堺市堺区,車之町西１－２－１５－３０２,,27,141,5900000,,,,,,,2025-12-01,1,,,,,ケヤキマックス,0
2140,9120103006873,新規,0,2025-12-01,2025-12-01,ちよ松合同会社,,合同会社,大阪府,泉佐野市,羽倉崎２丁目５番２－１００２号,,27,213,5980046,,,,,,,2025-12-01,1,,,,,チヨマツ,0
2149,9130001081051,新規,0,2025-12-01,2025-12-01,株式会社和久傳グループ,,株式会社,京都府,京都市東山区,高台寺北門前通下河原東入鷲尾町５１２番地,,26,105,6050072,,,,,,,2025-12-01,1,,,,,ワクデングループ,0
2150,9130001081076,新規,0,2025-12-01,2025-12-01,株式会社新創ペイント,,株式会社,京都府,京都市南区,上鳥羽卯ノ花４８－１長束ビル３Ｆ,,26,107,6018141,,,,,,,2025-12-01,1,,,,,シンソウペイント,0
2151,9130001081118,新規,0,2025-12-01,2025-12-01,株式会社コスモメンテナンス,,株式会社,京都府,京都市右京区,西院平町７番地,,26,108,6150022,,,,,,,2025-12-01,1,,,,,コスモメンテナンス,0
2153,9130003010958,新規,0,2025-12-01,2025-12-01,アーキス合同会社,,合同会社,京都府,京都市南区,西九条東島町１７番地１２,,26,107,6018432,,,,,,,2025-12-01,1,,,,,アーキス,0
2159,9150003003761,新規,0,2025-12-01,2025-12-01,ＴＲＡＮＳＩＴ合同会社,,合同会社,奈良県,奈良市,高畑町１８１番地の２３,,29,201,6308301,,,,,,,2025-12-01,1,,,,,トランジット,0
2160,9150005009740,新規,0,2025-12-01,2025-12-01,一般社団法人資金運用研究会,,その他の設立登記法人,奈良県,奈良市,あやめ池南６丁目７番１０－５０７号,,29,201,6310033,,,,,,,2025-12-01,1,,,,,シキンウンヨウケンキュウカイ,0
2172,9180001169676,新規,0,2025-12-01,2025-12-01,株式会社Ｍ＆Ｙメディファルマ,,株式会社,愛知県,一宮市,光明寺字千馬９３番地,,23,203,4910135,,,,,,,2025-12-01,1,,,,,エムアンドワイメディファルマ,0
2176,9180003029382,新規,0,2025-12-01,2025-12-01,合同会社中尾運送,,合同会社,愛知県,半田市,有楽町２丁目２２１番地の２ブラエルメゾン青山１号棟１４０４号,,23,205,4750837,,,,,,,2025-12-01,1,,,,,ナカオウンソウ,0
2179,9180301040454,新規,0,2025-12-01,2025-12-01,株式会社スライヴ,,株式会社,愛知県,安城市,赤松町前川３２番地,,23,212,4460046,,,,,,,2025-12-01,1,,,,,スライヴ,0
2199,9280005007673,新規,0,2025-12-01,2025-12-01,一般社団法人しまね創生ラボ,,その他の設立登記法人,島根県,松江市,東本町２丁目２５番１号東本町ビル４階,,32,201,6900842,,,,,,,2025-12-01,1,,,,,シマネソウセイラボ,0
2207,9290003017756,新規,0,2025-12-01,2025-12-01,Ｓ２Ｂ合同会社,,合同会社,福岡県,福岡市西区,北原１丁目７番５号,,40,135,8190379,,,,,,,2025-12-01,1,,,,,エスツービー,0
2218,9360003015430,新規,0,2025-12-01,2025-12-01,合同会社金城アセット,,合同会社,沖縄県,名護市,宮里６丁目１１番２４号,,47,209,9050011,,,,,,,2025-12-01,1,,,,,キンジョウアセット,0
2221,9370001053258,新規,0,2025-12-01,2025-12-01,株式会社ライフ・プランニング,,株式会社,宮城県,仙台市太白区,東中田２丁目９番２１－１３号,,04,104,9811107,,,,,,,2025-12-01,1,,,,,ライフプランニング,0
2222,9370001053266,新規,0,2025-12-01,2025-12-01,株式会社ＣＬＡＭＰＳ,,株式会社,宮城県,仙台市青葉区,国見３丁目２番１号,,04,101,9810943,,,,,,,2025-12-01,1,,,,,クランプス,0
2223,9370005011030,新規,0,2025-12-01,2025-12-01,一般社団法人医療心理職ネットワーク東北,,その他の設立登記法人,宮城県,仙台市青葉区,中央２丁目１１－１９仙南ビル４階－Ａ,,04,101,9800021,,,,,,,2025-12-01,1,,,,,イリョウシンリショクネットワークトウホク,0
2237,9700150133124,新規,0,2025-12-01,2025-12-01,ｘｕｚｈｏｕｚｈｉｚｈｉｋｅｄｉａｎｚｉｓｈａｎｇｗｕｙｏｕｘｉａｎｇｏｎｇｓｉ,,外国会社等,,,,,,,,Ｒｏｏｍ　１０４，Ｇｒｏｕｐ　７，Ｄｏｕｊｉａ　Ｖｉｌｌａｇｅ，Ｆａｎｇｃｕｎ　Ｔｏｗｎ，Ｔｏｎｇｓｈａｎ　Ｄｉｓｔｒｉｃｔ，Ｘｕｚｈｏｕ　Ｃｉｔｙ，Ｊｉａｎｇｓｕ　Ｐｒｏｖｉｎｃｅ（ｆｏｒｍｅｒ　ｂｏａｒｄ　ｆａｃｔｏｒｙ）,,,,,,2025-12-01,1,,,,,シージョウジージーコーディエンズーシャンウーヨウシエンゴンスー,0
