sequenceNumber,corporateNumber,process,correct,updateDate,changeDate,name,nameImageId,kind,prefectureName,cityName,streetNumber,addressImageId,prefectureCode,cityCode,postCode,addressOutside,addressOutsideImageId,closeDate,closeCause,successorCorporateNumber,changeCause,assignmentDate,latest,enName,enPrefectureName,enCityName,enAddressOutside,furigana,hihyoji
24,1010001259435,新規,0,2025-10-17,2025-10-17,株式会社Ｏｔｏ　Ｌａｂ．,,株式会社,東京都,中央区,銀座１丁目１２－４Ｎ＆ＥＢＬＤ．７階,,13,102,1040061,,,,,,,2025-10-17,1,,,,,オトラボ,0
25,1010003049058,新規,0,2025-10-17,2025-10-17,合同会社ゲンシ,,合同会社,東京都,中央区,銀座１丁目１２番４号Ｎ＆ＥＢＬＤ．６Ｆ,,13,102,1040061,,,,,,,2025-10-17,1,,,,,ゲンシ,0
26,1010003049090,新規,0,2025-10-17,2025-10-17,合同会社ＩＲＭレジデンス１,,合同会社,東京都,千代田区,丸の内１丁目４番１号東京共同会計事務所内,,13,101,1000005,,,,,,,2025-10-17,1,,,,,アイアールエムレジデンスワン,0
28,1010005040790,新規,0,2025-10-17,2025-10-17,一般社団法人ＩＳＨレジ１,,その他の設立登記法人,東京都,千代田区,丸の内１丁目４番１号東京共同会計事務所内,,13,101,1000005,,,,,,,2025-10-17,1,,,,,アイエスエイチレジワン,0
38,1010501054889,新規,0,2025-10-17,2025-10-17,株式会社ＰＯＰＳ,,株式会社,東京都,台東区,今戸１丁目１９番５号渋谷貸店舗１Ｆ,,13,106,1110024,,,,,,,2025-10-17,1,,,,,ポップス,0
46,1010803005581,新規,0,2025-10-17,2025-10-17,リバースト合同会社,,合同会社,東京都,大田区,平和島５丁目１１－１－２階,,13,111,1430006,,,,,,,2025-10-17,1,,,,,リバースト,0
47,1010901058267,新規,0,2025-10-17,2025-10-17,ナルシーネットワーク株式会社,,株式会社,東京都,世田谷区,上野毛２丁目７番１７号ライオンズマンション上野毛第二１０３,,13,112,1580093,,,,,,,2025-10-17,1,,,,,ナルシーネットワーク,0
48,1010901058283,新規,0,2025-10-17,2025-10-17,株式会社第３ラボ,,株式会社,東京都,世田谷区,尾山台３丁目８番１２号,,13,112,1580086,,,,,,,2025-10-17,1,,,,,ダイサンラボ,0
49,1010901058291,新規,0,2025-10-17,2025-10-17,株式会社シブリングス,,株式会社,東京都,世田谷区,千歳台６丁目２番１７－８０２号,,13,112,1570071,,,,,,,2025-10-17,1,,,,,シブリングス,0
74,1011503006738,新規,0,2025-10-17,2025-10-17,合同会社ｆｕｌｌｂｏｄｉｅｄ　ｔｏｎｇｕｅ,,合同会社,東京都,北区,上十条２丁目５番１３号旅ハウス十条１０３－Ｄ,,13,117,1140034,,,,,,,2025-10-17,1,,,,,フルボディタン,0
76,1011603004872,新規,0,2025-10-17,2025-10-17,雅建設合同会社,,合同会社,東京都,練馬区,関町北１丁目４番１－２０８号,,13,120,1770051,,,,,,,2025-10-17,1,,,,,ミヤビケンセツ,0
77,1011605002676,新規,0,2025-10-17,2025-10-17,一般社団法人東京ビルダーズネットワーク,,その他の設立登記法人,東京都,練馬区,南大泉５丁目１８番１７号,,13,120,1780064,,,,,,,2025-10-17,1,,,,,トウキョウビルダーズネットワーク,0
78,1011701028815,新規,0,2025-10-17,2025-10-17,株式会社ＯｎｅＵｐ,,株式会社,東京都,江戸川区,西一之江４丁目５番１４号,,13,123,1320023,,,,,,,2025-10-17,1,,,,,ワンアップ,0
84,1012703003392,新規,0,2025-10-17,2025-10-17,合同会社ＭＨＬ,,合同会社,東京都,東久留米市,本町４丁目１８番１０号,,13,222,2030053,,,,,,,2025-10-17,1,,,,,エムエイチエル,0
85,1012801024308,新規,0,2025-10-17,2025-10-17,Ｃ＆Ｖエステート株式会社,,株式会社,東京都,国立市,東２丁目１４番地の２３,,13,215,1860002,,,,,,,2025-10-17,1,,,,,シーアンドヴイエステート,0
86,1012805003373,新規,0,2025-10-17,2025-10-17,一般社団法人柊,,その他の設立登記法人,東京都,日野市,新町１丁目１６番地の１サンアベニュー日野１１２,,13,212,1910002,,,,,,,2025-10-17,1,,,,,ヒイラギ,0
99,1020001165293,新規,0,2025-10-17,2025-10-17,株式会社ＳＳ管工,,株式会社,神奈川県,横浜市鶴見区,平安町１丁目３５番地４,,14,101,2300031,,,,,,,2025-10-17,1,,,,,エスエスカンコウ,0
100,1020001165343,新規,0,2025-10-17,2025-10-17,株式会社ＲＥＳＯＺＯ,,株式会社,神奈川県,横浜市緑区,台村町３１４番地１第三秋元ビル１０２号室,,14,113,2260014,,,,,,,2025-10-17,1,,,,,リソゾ,0
101,1020001165418,新規,0,2025-10-17,2025-10-17,株式会社誠翔電設工業,,株式会社,神奈川県,横浜市鶴見区,寺谷２丁目４番７－２号,,14,101,2300015,,,,,,,2025-10-17,1,,,,,セイショウデンセツコウギョウ,0
103,1020003029604,新規,0,2025-10-17,2025-10-17,奥谷ＦＰ事務所合同会社,,合同会社,神奈川県,横浜市戸塚区,上倉田町１７３０－１５,,14,110,2440816,,,,,,,2025-10-17,1,,,,,オクタニエフピージムショ,0
106,1021001086587,新規,0,2025-10-17,2025-10-17,株式会社清栄ハウジング,,株式会社,神奈川県,相模原市中央区,清新２丁目２番５号,,14,152,2520216,,,,,,,2025-10-17,1,,,,,セイエイハウジング,0
107,1021001086629,新規,0,2025-10-17,2025-10-17,未来時間株式会社,,株式会社,神奈川県,鎌倉市,由比ガ浜２丁目１３―４―３０４,,14,204,2480014,,,,,,,2025-10-17,1,,,,,ミライジカン,0
109,1021003016682,新規,0,2025-10-17,2025-10-17,東方コネクション合同会社,,合同会社,神奈川県,厚木市,飯山南４丁目１０番５クレストハイム１０６,,14,212,2430218,,,,,,,2025-10-17,1,,,,,,0
114,1030001169120,新規,0,2025-10-17,2025-10-17,株式会社ｓｔａｒａ　Ｃａｒｅｅｒ,,株式会社,埼玉県,越谷市,南越谷４丁目１１番地５トラビ南越谷６階２０号室,,11,222,3430845,,,,,,,2025-10-17,1,,,,,スタラキャリア,0
115,1030001169203,新規,0,2025-10-17,2025-10-17,株式会社Ｑｌｅａｎｐｏｗｅｒ,,株式会社,埼玉県,さいたま市大宮区,桜木町１丁目３９８番地１アドグレイス大宮７Ｆ・ＳＯＨＯ－０１号室,,11,103,3300854,,,,,,,2025-10-17,1,,,,,クリーンパワー,0
116,1030001169236,新規,0,2025-10-17,2025-10-17,株式会社ＪＵＫＡ,,株式会社,埼玉県,川口市,大字新井宿１１１２番地の２,,11,203,3330826,,,,,,,2025-10-17,1,,,,,ジュカ,0
117,1030001169244,新規,0,2025-10-17,2025-10-17,株式会社雄電,,株式会社,埼玉県,加須市,船越２番地２０,,11,210,3470021,,,,,,,2025-10-17,1,,,,,ユウデン,0
118,1030001169252,新規,0,2025-10-17,2025-10-17,ファーマスターズ株式会社,,株式会社,埼玉県,戸田市,大字新曽１４２０番地の１,,11,224,3350021,,,,,,,2025-10-17,1,,,,,ファーマスターズ,0
124,1030003027887,新規,0,2025-10-17,2025-10-17,合同会社コォ・クリエイション,,合同会社,埼玉県,鴻巣市,屈巣３６１７番地,,11,217,3650014,,,,,,,2025-10-17,1,,,,,コォクリエイション,0
137,1040001140914,新規,0,2025-10-17,2025-10-17,株式会社コスモード,,株式会社,千葉県,松戸市,常盤平陣屋前９番地の１－４０１号,,12,207,2702265,,,,,,,2025-10-17,1,,,,,コスモード,0
138,1040001140947,新規,0,2025-10-17,2025-10-17,株式会社福安商会,,株式会社,千葉県,白井市,根１７４５番地の１５,,12,232,2701431,,,,,,,2025-10-17,1,,,,,フクヤスショウカイ,0
139,1040001140971,新規,0,2025-10-17,2025-10-17,株式会社ＪＳＤ　Ｐａｒｔｎｅｒｓ,,株式会社,千葉県,白井市,南山１丁目１０番２棟５０４号,,12,232,2701423,,,,,,,2025-10-17,1,,,,,ジェイエスディパートナーズ,0
145,1040003028785,新規,0,2025-10-17,2025-10-17,合同会社ＲＩＳＥ,,合同会社,千葉県,千葉市花見川区,作新台８丁目１－２５－３０３,,12,102,2620045,,,,,,,2025-10-17,1,,,,,ライズ,0
147,1060001038693,新規,0,2025-10-17,2025-10-17,ＡＣＴＩＶＥ　ＥＸＰＯＲＴ株式会社,,株式会社,栃木県,小山市,大字粟宮１２７０番地４ラ・プワールＣ１０３,,09,208,3290201,,,,,,,2025-10-17,1,,,,,アクティブエクスポート,0
158,1100001039035,新規,0,2025-10-17,2025-10-17,株式会社ふくろうクラウド,,株式会社,長野県,上田市,常田２丁目１番７号,,20,203,3860018,,,,,,,2025-10-17,1,,,,,フクロウクラウド,0
159,1100001039043,新規,0,2025-10-17,2025-10-17,株式会社アイズ保険,,株式会社,長野県,岡谷市,中央町２丁目２－１イルフプラザアミューズメント内おかやシェアオフィス,,20,204,3940027,,,,,,,2025-10-17,1,,,,,アイズホケン,0
176,1120001280917,新規,0,2025-10-17,2025-10-17,株式会社プライムネクスト,,株式会社,大阪府,大阪市中央区,南本町３丁目３番２２号,,27,128,5410054,,,,,,,2025-10-17,1,,,,,プライムネクスト,0
177,1120001280933,新規,0,2025-10-17,2025-10-17,株式会社Ｆｉｓｔｏｒｙ,,株式会社,大阪府,大阪市北区,梅田１丁目２番２号大阪駅前第２ビル１２－１２,,27,127,5300001,,,,,,,2025-10-17,1,,,,,フィストリー,0
178,1120001280958,新規,0,2025-10-17,2025-10-17,株式会社Ｈ＆Ｗ,,株式会社,大阪府,大阪市東住吉区,桑津４丁目１２－２７エスペランス東住吉８０２,,27,121,5460041,,,,,,,2025-10-17,1,,,,,エイチアンドダブリュー,0
179,1120001280966,新規,0,2025-10-17,2025-10-17,七福通商株式会社,,株式会社,大阪府,大阪市中央区,内本町２丁目４番１０号ネオハイツ内本町２０７号室,,27,128,5400026,,,,,,,2025-10-17,1,,,,,シチフクツウショウ,0
180,1120001281007,新規,0,2025-10-17,2025-10-17,味一真心株式会社,,株式会社,大阪府,大阪市東成区,大今里３丁目１５番６号ＩｍａｚａｔｏＴｏｗｅｒ２０３Ａ,,27,115,5370012,,,,,,,2025-10-17,1,,,,,ミイチシンシン,0
181,1120001281023,新規,0,2025-10-17,2025-10-17,信和綜合服務株式会社,,株式会社,大阪府,大阪市東成区,大今里３丁目１５番６号ＩｍａｚａｔｏＴｏｗｅｒ２０３Ｂ,,27,115,5370012,,,,,,,2025-10-17,1,,,,,シンワソウゴウフクム,0
182,1120001281031,新規,0,2025-10-17,2025-10-17,株式会社Ｌｅａｄ　Ｒｅａｌ　Ｅｓｔａｔｅ,,株式会社,大阪府,大阪市北区,豊崎３丁目２０番９号,,27,127,5310072,,,,,,,2025-10-17,1,,,,,リードリアルエステート,0
183,1120003030956,新規,0,2025-10-17,2025-10-17,合同会社ＦＡＭＩＬ,,合同会社,大阪府,大阪市旭区,太子橋１丁目２５番２２号,,27,117,5350001,,,,,,,2025-10-17,1,,,,,ファミル,0
185,1120901051640,新規,0,2025-10-17,2025-10-17,Ｍｏｖｅ株式会社,,株式会社,大阪府,吹田市,豊津町１番１８号エクラート江坂ビル３階,,27,205,5640051,,,,,,,2025-10-17,1,,,,,ムーヴ,0
186,1122001039756,新規,0,2025-10-17,2025-10-17,株式会社武さし,,株式会社,大阪府,八尾市,山本町１丁目１２番１号,,27,212,5810867,,,,,,,2025-10-17,1,,,,,ムサシ,0
189,1130001080812,新規,0,2025-10-17,2025-10-17,株式会社平安ハウジング,,株式会社,京都府,京都市西京区,上桂御正町３番地１,,26,111,6158222,,,,,,,2025-10-17,1,,,,,ヘイアンハウジング,0
190,1130001080845,新規,0,2025-10-17,2025-10-17,株式会社ルルコア,,株式会社,京都府,京都市左京区,修学院沖殿町２３番地１,,26,103,6068021,,,,,,,2025-10-17,1,,,,,ルルコア,0
200,1140001140400,新規,0,2025-10-17,2025-10-17,株式会社モスグリーン,,株式会社,兵庫県,姫路市,白国４丁目１２番３２号,,28,201,6700808,,,,,,,2025-10-17,1,,,,,モスグリーン,0
201,1140001140433,新規,0,2025-10-17,2025-10-17,興楡国際株式会社,,株式会社,兵庫県,神戸市中央区,元町通３丁目１１番８号,,28,110,6500022,,,,,,,2025-10-17,1,,,,,コウユコクサイ,0
202,1140001140466,新規,0,2025-10-17,2025-10-17,株式会社関通ＩＴ分割準備会社,,株式会社,兵庫県,尼崎市,西向島町１１１番地の４,,28,202,6600857,,,,,,,2025-10-17,1,,,,,カンツウアイティーブンカツジュンビガイシャ,0
206,1160001027141,新規,0,2025-10-17,2025-10-17,株式会社やまと商運,,株式会社,滋賀県,甲賀市,甲南町野田３１４番地１,,25,209,5203308,,,,,,,2025-10-17,1,,,,,ヤマトショウウン,0
215,1180001169023,新規,0,2025-10-17,2025-10-17,御禧株式会社,,株式会社,愛知県,名古屋市中村区,下米野町１丁目１４番地,,23,105,4530802,,,,,,,2025-10-17,1,,,,,オンキ,0
216,1180001169097,新規,0,2025-10-17,2025-10-17,株式会社たまよし,,株式会社,愛知県,一宮市,木曽川町内割田字三反田６９番地,,23,203,4930006,,,,,,,2025-10-17,1,,,,,タマヨシ,0
217,1180001169122,新規,0,2025-10-17,2025-10-17,株式会社ＭＳＲエステート,,株式会社,愛知県,名古屋市緑区,大高町字西丸根９７番地,,23,114,4598001,,,,,,,2025-10-17,1,,,,,エムエスアールエステート,0
219,1180003029233,新規,0,2025-10-17,2025-10-17,Ｍ．Ｋ　Ｔｒａｄｉｎｇ合同会社,,合同会社,愛知県,犬山市,大字犬山字大門先３１－１０４,,23,215,4840081,,,,,,,2025-10-17,1,,,,,エムケートレーディング,0
229,1230001021145,新規,0,2025-10-17,2025-10-17,古西板金株式会社,,株式会社,富山県,中新川郡立山町,米沢１４番地２７,,16,323,9303265,,,,,,,2025-10-17,1,,,,,コニシバンキン,0
234,1240001065637,新規,0,2025-10-17,2025-10-17,ＭＩＥＰ株式会社,,株式会社,広島県,広島市安佐北区,安佐町飯室６８７５番地５,,34,106,7391700,,,,,,,2025-10-17,1,,,,,エムアイイーピー,0
248,1290001111675,新規,0,2025-10-17,2025-10-17,株式会社エムケイスリー,,株式会社,福岡県,福岡市南区,若久５丁目１４番１１－２号,,40,134,8150042,,,,,,,2025-10-17,1,,,,,エムケイスリー,0
249,1290001111683,新規,0,2025-10-17,2025-10-17,株式会社ＫＦＬ,,株式会社,福岡県,糟屋郡宇美町,障子岳南３丁目１番８号１Ｆ,,40,341,8112126,,,,,,,2025-10-17,1,,,,,ケーエフエル,0
250,1290001111700,新規,0,2025-10-17,2025-10-17,株式会社サンズ,,株式会社,福岡県,福岡市早良区,高取１丁目１番８号,,40,137,8140011,,,,,,,2025-10-17,1,,,,,サンズ,0
251,1290001111782,新規,0,2025-10-17,2025-10-17,株式会社ＣＬＯＵＤ９,,株式会社,福岡県,福岡市博多区,中洲２丁目６番２３号コウフクビル１階１０号,,40,132,8100801,,,,,,,2025-10-17,1,,,,,クラウドナイン,0
253,1290003017540,新規,0,2025-10-17,2025-10-17,ＥＦ蓄発電合同会社,,合同会社,福岡県,福岡市城南区,荒江１丁目２１－１８－３Ｆ,,40,136,8140101,,,,,,,2025-10-17,1,,,,,イーエフチクハツデン,0
254,1290003017549,新規,0,2025-10-17,2025-10-17,合同会社わらう,,合同会社,福岡県,福岡市西区,下山門４丁目１６番１１号,,40,135,8190052,,,,,,,2025-10-17,1,,,,,ワラウ,0
255,1290003017557,新規,0,2025-10-17,2025-10-17,合同会社ＬＩｂｅＲ,,合同会社,福岡県,飯塚市,川津５１８－１,,40,205,8200067,,,,,,,2025-10-17,1,,,,,リベル,0
256,1290003017615,新規,0,2025-10-17,2025-10-17,合同会社Ｗ・ＹＯＵ,,合同会社,福岡県,福岡市中央区,春吉１丁目５番１－１３０８号ＡＬＦＡＣＩＯ　ＬＩＥＮＳＯ,,40,133,8100003,,,,,,,2025-10-17,1,,,,,ダブルユー,0
263,1310001019825,新規,0,2025-10-17,2025-10-17,ａｉ株式会社,,株式会社,長崎県,大村市,松並２丁目１８４番地２０,,42,205,8560814,,,,,,,2025-10-17,1,,,,,アイ,0
266,1350003005051,新規,0,2025-10-17,2025-10-17,合同会社南九州電力,,合同会社,宮崎県,串間市,大字西方１８０３番地,,45,207,8880001,,,,,,,2025-10-17,1,,,,,ミナミキュウシュウデンリョク,0
268,1360001035925,新規,0,2025-10-17,2025-10-17,株式会社サードプレイスオキナワ,,株式会社,沖縄県,那覇市,首里赤平町１丁目４５番地ワイズエステムコート首里赤平２０１,,47,201,9030811,,,,,,,2025-10-17,1,,,,,サードプレイスオキナワ,0
276,1370005011013,新規,0,2025-10-17,2025-10-17,一般社団法人ハタフルアカデミー,,その他の設立登記法人,宮城県,仙台市若林区,清水小路６－１東日本不動産仙台ファーストビル２Ｆ,,04,103,9840075,,,,,,,2025-10-17,1,,,,,ハタフルアカデミー,0
280,1380005013017,新規,0,2025-10-17,2025-10-17,特定非営利活動法人みどりと青空,,その他の設立登記法人,福島県,福島市,本内字東井戸神３番地の１ウィンベルコーラス福島４０２,,07,201,9600103,,,,,,,2025-10-17,1,,,,,ミドリトアオゾラ,0
291,1700150132546,新規,0,2025-10-17,2025-10-17,ＦＵＳＯ　ＡＵＴＯ　ＥＮＴＥＲＰＲＩＳＥＳ,,外国会社等,神奈川県,座間市,栗原中央５丁目２１番１４号,,14,216,2520014,スリランカ民主社会主義共和国、ウェリマダ、ランデガマ、ヘラリガスワスタ,,,,,,2025-10-17,1,,,,,フソーオートエンタープライズ,0
302,2010001259500,新規,0,2025-10-17,2025-10-17,株式会社ルナーク,,株式会社,東京都,中央区,銀座１丁目１２－４Ｎ＆ＥＢＬＤ．６Ｆ,,13,102,1040061,,,,,,,2025-10-17,1,,,,,ルナーク,0
304,2010003049065,新規,0,2025-10-17,2025-10-17,合同会社大塚ＰＧ,,合同会社,東京都,中央区,日本橋箱崎町１６－１東益ビル６階,,13,102,1030015,,,,,,,2025-10-17,1,,,,,オオツカピージー,0
306,2010103002683,新規,0,2025-10-17,2025-10-17,合同会社バースト,,合同会社,東京都,八王子市,中町７番１０号紅洋ビル５階,,13,201,1920085,,,,,,,2025-10-17,1,,,,,バースト,0
312,2010401193497,新規,0,2025-10-17,2025-10-17,株式会社ＢＬＵＥ,,株式会社,東京都,港区,南青山３丁目１番３６号青山丸竹ビル６Ｆ,,13,103,1070062,,,,,,,2025-10-17,1,,,,,ブルー,0
313,2010401193778,新規,0,2025-10-17,2025-10-17,コスモス株式会社,,株式会社,東京都,港区,六本木４丁目３番１１号六本木ユニハウス２２３,,13,103,1060032,,,,,,,2025-10-17,1,,,,,コスモス,0
314,2010403036316,新規,0,2025-10-17,2025-10-17,ＳＫＹＹ　Ｉｒｉｄｉｕｍ　Ｉｎｖｅｓｔｍｅｎｔ　Ｍａｎａｇｅｍｅｎｔ　Ｊａｐａｎ合同会社,,合同会社,東京都,港区,六本木１丁目９番１０号アークヒルズ仙石山森タワー４０階,,13,103,1060032,,,,,,,2025-10-17,1,,,,,スカイイリジウムインベストメントマネジメントジャパン,0
316,2010501054863,新規,0,2025-10-17,2025-10-17,株式会社またたび,,株式会社,東京都,台東区,台東１丁目１２番２号モンシャトー秋葉原３０１,,13,106,1100016,,,,,,,2025-10-17,1,,,,,マタタビ,0
324,2010803005580,新規,0,2025-10-17,2025-10-17,合同会社ツイストホールディングス,,合同会社,東京都,大田区,多摩川２丁目２８番１６号,,13,111,1460095,,,,,,,2025-10-17,1,,,,,ツイストホールディングス,0
326,2010901058200,新規,0,2025-10-17,2025-10-17,ブリッジインターナショナル株式会社,,株式会社,東京都,世田谷区,太子堂４丁目１番１号,,13,112,1540004,,,,,,,2025-10-17,1,,,,,ブリッジインターナショナル,0
331,2010903010349,新規,0,2025-10-17,2025-10-17,合同会社エムワイハウジング,,合同会社,東京都,世田谷区,砧４丁目７番６－１０３号,,13,112,1570073,,,,,,,2025-10-17,1,,,,,エムワイハウジング,0
340,2011101113497,新規,0,2025-10-17,2025-10-17,カイナテクノロジー株式会社,,株式会社,東京都,新宿区,新宿１丁目３６番２号新宿第七葉山ビル３Ｆ,,13,104,1600022,,,,,,,2025-10-17,1,,,,,カイナテクノロジー,0
342,2011403004898,新規,0,2025-10-17,2025-10-17,ＡＬＶＪ合同会社,,合同会社,東京都,板橋区,小茂根１丁目１６番１１号,,13,119,1730037,,,,,,,2025-10-17,1,,,,,エーエルブイジェイ,0
346,2011601029094,新規,0,2025-10-17,2025-10-17,チノール株式会社,,株式会社,東京都,練馬区,春日町６丁目１６番１１号,,13,120,1790074,,,,,,,2025-10-17,1,,,,,チノール,0
347,2011701028756,新規,0,2025-10-17,2025-10-17,長江地産日本株式会社,,株式会社,東京都,江戸川区,平井５丁目４４番６号４階４０３,,13,123,1320035,,,,,,,2025-10-17,1,,,,,チョウコウチサンニホン,0
349,2012401043715,新規,0,2025-10-17,2025-10-17,株式会社京王財託,,株式会社,東京都,調布市,国領町８丁目４－１アトラス国領サウスコートＪ－１０３号,,13,208,1820022,,,,,,,2025-10-17,1,,,,,ケイオウザイタク,0
355,2012801024307,新規,0,2025-10-17,2025-10-17,こいずみ道具店株式会社,,株式会社,東京都,国立市,富士見台２丁目２番地の３１,,13,215,1860003,,,,,,,2025-10-17,1,,,,,コイズミドウグテン,0
358,2013305003771,新規,0,2025-10-17,2025-10-17,一般社団法人珠美ひだまり相談室,,その他の設立登記法人,東京都,豊島区,駒込１丁目３７番１号,,13,116,1700003,,,,,,,2025-10-17,1,,,,,タマミヒダマリソウダンシツ,0
368,2020001165292,新規,0,2025-10-17,2025-10-17,株式会社ＩＰｈａｒｍａ,,株式会社,神奈川県,横浜市鶴見区,豊岡町９番９ラティエラ横濱鶴見４２３号室,,14,101,2300062,,,,,,,2025-10-17,1,,,,,アイファーマ,0
369,2020001165326,新規,0,2025-10-17,2025-10-17,Ａ‐ＰＬＡＮ株式会社,,株式会社,神奈川県,横浜市旭区,二俣川２丁目５７－５,,14,112,2410821,,,,,,,2025-10-17,1,,,,,エープラン,0
370,2020001165375,新規,0,2025-10-17,2025-10-17,株式会社ＭＹＫコンサルティング,,株式会社,神奈川県,横浜市都筑区,北山田６丁目２５番１３号,,14,118,2240021,,,,,,,2025-10-17,1,,,,,エムワイケーコンサルティング,0
371,2020001165391,新規,0,2025-10-17,2025-10-17,株式会社のうきん,,株式会社,神奈川県,横浜市緑区,霧が丘４丁目２番地,,14,113,2260016,,,,,,,2025-10-17,1,,,,,ノウキン,0
373,2020003029636,新規,0,2025-10-17,2025-10-17,合同会社ＩＮＴＥＲＭＡＲＫＥＴ,,合同会社,神奈川県,横浜市中区,寿町１丁目３番地１２ライオンズマンション関内第６－２０４,,14,104,2310026,,,,,,,2025-10-17,1,,,,,インターマーケット,0
375,2021001086561,新規,0,2025-10-17,2025-10-17,株式会社Ｂｌｕｅ　ｏｃｅａｎ＆Ｃｏ．,,株式会社,神奈川県,藤沢市,片瀬海岸１丁目９番地２５－４０３号,,14,205,2510035,,,,,,,2025-10-17,1,,,,,ブルーオーシャンアンドコー,0
376,2021001086578,新規,0,2025-10-17,2025-10-17,株式会社ＭｃＬａ,,株式会社,神奈川県,藤沢市,遠藤２０１０番地の１,,14,205,2520816,,,,,,,2025-10-17,1,,,,,マクラ,0
377,2021001086586,新規,0,2025-10-17,2025-10-17,株式会社医健生,,株式会社,神奈川県,三浦郡葉山町,下山口１９０８番地の３,,14,301,2400116,,,,,,,2025-10-17,1,,,,,イケンセイ,0
383,2030001169235,新規,0,2025-10-17,2025-10-17,株式会社ダイニングパートナー,,株式会社,埼玉県,さいたま市浦和区,高砂２丁目６番３号ファーストセンタービル,,11,107,3300063,,,,,,,2025-10-17,1,,,,,ダイニングパートナー,0
389,2030003027853,新規,0,2025-10-17,2025-10-17,マヒナアイ合同会社,,合同会社,埼玉県,所沢市,小手指町１丁目６番地小手指タワーズディアスカイタワー１００６,,11,208,3591141,,,,,,,2025-10-17,1,,,,,マヒナアイ,0
390,2030003027886,新規,0,2025-10-17,2025-10-17,合同会社ナイン,,合同会社,埼玉県,さいたま市岩槻区,加倉５丁目９番７６号２,,11,110,3390056,,,,,,,2025-10-17,1,,,,,ナイン,0
391,2030005022299,新規,0,2025-10-17,2025-10-17,医療法人社団ユニバース,,その他の設立登記法人,埼玉県,志木市,本町５丁目２４番９号龍生堂志木ビル１階・地下１階,,11,228,3530004,,,,,,,2025-10-17,1,,,,,ユニバース,0
392,2030005022308,新規,0,2025-10-17,2025-10-17,医療法人社団ＳａｌｕｓＤＯ,,その他の設立登記法人,埼玉県,戸田市,大字新曽２２３５番地ライフコート２階,,11,224,3350021,,,,,,,2025-10-17,1,,,,,サルースディーオー,0
393,2030005022316,新規,0,2025-10-17,2025-10-17,一般社団法人ローハッドＪＡＰＡＮ,,その他の設立登記法人,埼玉県,さいたま市浦和区,大原３丁目１０番１号,,11,107,3300046,,,,,,,2025-10-17,1,,,,,ローハッドジャパン,0
397,2040001140913,新規,0,2025-10-17,2025-10-17,株式会社ｍｉｉｒｏ,,株式会社,千葉県,柏市,明原１丁目２番７号,,12,217,2770843,,,,,,,2025-10-17,1,,,,,ミイロ,0
398,2040001140938,新規,0,2025-10-17,2025-10-17,ＴＨＥ　ＢＯＮＤＳ　ＲＥＳＯＲＴ株式会社,,株式会社,千葉県,市川市,八幡３丁目２７番８号,,12,203,2720021,,,,,,,2025-10-17,1,,,,,ザボンズリゾート,0
399,2040001140954,新規,0,2025-10-17,2025-10-17,株式会社飛天雲将,,株式会社,千葉県,千葉市若葉区,野呂町１７９３番地１２４,,12,104,2650053,,,,,,,2025-10-17,1,,,,,ヒテンウンソウ,0
411,2070001043460,新規,0,2025-10-17,2025-10-17,ＪＰＲネクスト株式会社,,株式会社,群馬県,高崎市,問屋町１丁目３番地２０,,10,202,3700006,,,,,,,2025-10-17,1,,,,,ジェイピーアールネクスト,0
412,2080001027223,新規,0,2025-10-17,2025-10-17,株式会社ＳＥＥＭＡＰＡＡＲ,,株式会社,静岡県,静岡市葵区,新富町３丁目３５番地の１０,,22,101,4200061,,,,,,,2025-10-17,1,,,,,シーマパール,0
417,2100001039042,新規,0,2025-10-17,2025-10-17,株式会社リブホーム長野,,株式会社,長野県,長野市,大字稲葉１６２３番地５,,20,201,3800911,,,,,,,2025-10-17,1,,,,,リブホームナガノ,0
427,2120001280899,新規,0,2025-10-17,2025-10-17,株式会社ルチア,,株式会社,大阪府,大阪市生野区,巽東３丁目９番２４号シーマックイースト９０１号,00141145,27,116,5440014,,,,,,,2025-10-17,1,,,,,ルチア,0
428,2120001280940,新規,0,2025-10-17,2025-10-17,錦繍麗豊商旅投資諮詢株式会社,00141139,株式会社,大阪府,大阪市東住吉区,中野４丁目１番１６号リベラルオリエンテ中野５０１Ａ,,27,121,5460012,,,,,,,2025-10-17,1,,,,,キンシュウレイホウショウリョトウシシシュン,0
429,2120001280949,新規,0,2025-10-17,2025-10-17,株式会社ＴＡＫＡＭＩＮＥ,,株式会社,大阪府,大阪市西淀川区,竹島２丁目１番５３号,,27,113,5550011,,,,,,,2025-10-17,1,,,,,タカミネ,0
430,2120001280957,新規,0,2025-10-17,2025-10-17,ＭＡＮＹ　ＭＡＲＫＥＴＳ株式会社,,株式会社,大阪府,大阪市旭区,生江３丁目１－１３－３階,,27,117,5350004,,,,,,,2025-10-17,1,,,,,メニーマーケッツ,0
431,2120001280965,新規,0,2025-10-17,2025-10-17,株式会社Ｔｈｏｕｓａｎｄ　Ｂｒａｎｃｈ,,株式会社,大阪府,大阪市北区,梅田１丁目２番２号大阪駅前第二ビル１２－１２,,27,127,5300001,,,,,,,2025-10-17,1,,,,,サウザンドブランチ,0
432,2120001280981,新規,0,2025-10-17,2025-10-17,株式会社ＳＹＮＡＳＩＡ　ＴＥＣＨ,,株式会社,大阪府,大阪市中央区,徳井町２丁目４番８号,,27,128,5400025,,,,,,,2025-10-17,1,,,,,シナジアテック,0
433,2120001281006,新規,0,2025-10-17,2025-10-17,Ｆｕｔｕｒｅ　Ｈｅａｌｔｈ　Ｆｏｏｄ株式会社,,株式会社,大阪府,大阪市東住吉区,中野４丁目１番１６号サラオリエンテ中野６１２Ｂ,,27,121,5460012,,,,,,,2025-10-17,1,,,,,フューチャーヘルスフード,0
434,2120001281014,新規,0,2025-10-17,2025-10-17,岳峰株式会社,,株式会社,大阪府,大阪市東住吉区,中野４丁目１番１６号サラオリエンテ中野４１０Ａ,,27,121,5460012,,,,,,,2025-10-17,1,,,,,ガクホウ,0
435,2120001281022,新規,0,2025-10-17,2025-10-17,三迅科技株式会社,,株式会社,大阪府,大阪市東住吉区,中野４丁目１番１６号サラオリエンテ中野８１１Ａ,,27,121,5460012,,,,,,,2025-10-17,1,,,,,サンジンカギ,0
441,2120003030798,新規,0,2025-10-17,2025-10-17,合同会社ＪＵＳＴ　ＹＫ　ＴＥＣ,,合同会社,大阪府,寝屋川市,打上宮前町３－２－４０７,,27,215,5720862,,,,,,,2025-10-17,1,,,,,ジャストワイケイテック,0
442,2120003030971,新規,0,2025-10-17,2025-10-17,ウエストホーム合同会社,,合同会社,大阪府,大阪市港区,弁天１丁目３番１３－４２０９号,,27,107,5520007,,,,,,,2025-10-17,1,,,,,ウエストホーム,0
447,2120101072668,新規,0,2025-10-17,2025-10-17,株式会社サヤマ機械サービス,,株式会社,大阪府,大阪狭山市,半田２丁目２７４番地１,,27,231,5890011,,,,,,,2025-10-17,1,,,,,サヤマキカイサービス,0
451,2120901051623,新規,0,2025-10-17,2025-10-17,株式会社アールケーアール,,株式会社,大阪府,吹田市,古江台３丁目１８番６号,,27,205,5650874,,,,,,,2025-10-17,1,,,,,アールケーアール,0
453,2122001039739,新規,0,2025-10-17,2025-10-17,ＳＫＫＹ株式会社,,株式会社,大阪府,東大阪市,菱屋西１丁目１６番１３号長瀬ビル３０１,,27,227,5770807,,,,,,,2025-10-17,1,,,,,エスケーケーワイ,0
465,2140001140465,新規,0,2025-10-17,2025-10-17,株式会社関通物流分割準備会社,,株式会社,兵庫県,尼崎市,西向島町１１１番地の４,,28,202,6600857,,,,,,,2025-10-17,1,,,,,カンツウブツリュウブンカツジュンビガイシャ,0
466,2140001140481,新規,0,2025-10-17,2025-10-17,Ｐａｔｅｎｔａｉｗａｎ　Ｂｒｉｄｇｅ株式会社,,株式会社,兵庫県,西宮市,中前田町７番４４号１０２号室,,28,204,6620857,,,,,,,2025-10-17,1,,,,,パテンタイワンブリッジ,0
467,2140003022694,新規,0,2025-10-17,2025-10-17,ｒｅｇｉｏｎ合同会社,,合同会社,兵庫県,佐用郡佐用町,口長谷９９－２,,28,501,6795343,,,,,,,2025-10-17,1,,,,,リージョン,0
468,2140005027667,新規,0,2025-10-17,2025-10-17,一般社団法人こども学習室,,その他の設立登記法人,兵庫県,尼崎市,昭和通２丁目６番６８号,,28,202,6600881,,,,,,,2025-10-17,1,,,,,コドモガクシュウシツ,0
469,2150001028478,新規,0,2025-10-17,2025-10-17,ミントワークス株式会社,,株式会社,奈良県,生駒市,南田原町１２３０番地８０,,29,209,6300135,,,,,,,2025-10-17,1,,,,,ミントワークス,0
473,2160001027124,新規,0,2025-10-17,2025-10-17,株式会社ＭＧ,,株式会社,滋賀県,野洲市,近江富士４丁目５番４号,,25,210,5202324,,,,,,,2025-10-17,1,,,,,エムジー,0
474,2160001027140,新規,0,2025-10-17,2025-10-17,ＨＥＸ　ＭＡＲＩＮＥ株式会社,,株式会社,滋賀県,大津市,下阪本５丁目４番１５号,,25,201,5200105,,,,,,,2025-10-17,1,,,,,ヘックスマリン,0
487,2180001169039,新規,0,2025-10-17,2025-10-17,株式会社リルクス,,株式会社,愛知県,名古屋市中区,新栄１丁目３５番１９号,,23,106,4600007,,,,,,,2025-10-17,1,,,,,リルクス,0
488,2180001169088,新規,0,2025-10-17,2025-10-17,株式会社ニイミホールディングス,,株式会社,愛知県,半田市,南末広町１２０番地の１,,23,205,4750853,,,,,,,2025-10-17,1,,,,,ニイミホールディングス,0
499,2230001021144,新規,0,2025-10-17,2025-10-17,ＭＡＮＺＯＯＲ＆ＳＯＮＳ株式会社,,株式会社,富山県,射水市,堀岡古明神１３９番地８,,16,211,9330224,,,,,,,2025-10-17,1,,,,,マンゾールアンドサンズ,0
504,2240003007446,新規,0,2025-10-17,2025-10-17,合同会社藁火堂,,合同会社,広島県,福山市,駅家町大字法成寺１１４番地９,,34,207,7202413,,,,,,,2025-10-17,1,,,,,ワラビドウ,0
515,2290001111625,新規,0,2025-10-17,2025-10-17,株式会社テックメディカル,,株式会社,福岡県,福岡市博多区,東光２丁目８番３２号,,40,132,8120008,,,,,,,2025-10-17,1,,,,,テックメディカル,0
516,2290001111682,新規,0,2025-10-17,2025-10-17,株式会社エントクリエイティブ,,株式会社,福岡県,朝倉郡筑前町,山隈１６５８番地３,,40,447,8380823,,,,,,,2025-10-17,1,,,,,エントクリエイティブ,0
517,2290001111699,新規,0,2025-10-17,2025-10-17,株式会社スタイルデコ,,株式会社,福岡県,太宰府市,向佐野２丁目４番２６号,,40,221,8180135,,,,,,,2025-10-17,1,,,,,スタイルデコ,0
518,2290001111708,新規,0,2025-10-17,2025-10-17,株式会社アイリス・ストーン,,株式会社,福岡県,福岡市早良区,高取１丁目１４番１８－５０６号,,40,137,8140011,,,,,,,2025-10-17,1,,,,,アイリスストーン,0
519,2290001111724,新規,0,2025-10-17,2025-10-17,株式会社アポロ不動産,,株式会社,福岡県,福岡市東区,松香台１丁目２５番９号,,40,131,8130004,,,,,,,2025-10-17,1,,,,,アポロフドウサン,0
520,2290001111749,新規,0,2025-10-17,2025-10-17,白刺機工株式会社,,株式会社,福岡県,宗像市,久原１８６番地３,,40,220,8113437,,,,,,,2025-10-17,1,,,,,ハクシキコウ,0
521,2290001111757,新規,0,2025-10-17,2025-10-17,ファーストプレイス株式会社,,株式会社,福岡県,糟屋郡粕屋町,酒殿４丁目１４番１－２０３号,,40,349,8112303,,,,,,,2025-10-17,1,,,,,ファーストプレイス,0
522,2290001111773,新規,0,2025-10-17,2025-10-17,株式会社ＰＬＵＳ,,株式会社,福岡県,福岡市中央区,大名２丁目２番４３号,,40,133,8100041,,,,,,,2025-10-17,1,,,,,プラス,0
533,2340001027725,新規,0,2025-10-17,2025-10-17,株式会社インクルージョン,,株式会社,鹿児島県,姶良市,加治木町木田１７１８番地１,,46,225,8995241,,,,,,,2025-10-17,1,,,,,インクルージョン,0
534,2360001035932,新規,0,2025-10-17,2025-10-17,株式会社ブラインプロダクションズ,,株式会社,沖縄県,那覇市,金城１丁目１０－９,,47,201,9010155,,,,,,,2025-10-17,1,,,,,ブラインプロダクションズ,0
557,2450003002731,新規,0,2025-10-17,2025-10-17,合同会社ＡＩＣ,,合同会社,北海道,雨竜郡妹背牛町,字妹背牛３６８の９,,01,433,0790500,,,,,,,2025-10-17,1,,,,,エイアイシー,0
560,2470001020923,新規,0,2025-10-17,2025-10-17,株式会社瀬戸内セレクト,,株式会社,香川県,丸亀市,綾歌町栗熊西８４４番地２,,37,202,7612405,,,,,,,2025-10-17,1,,,,,,0
567,2700150132545,新規,0,2025-10-17,2025-10-17,Ｂｉｎｏｖｏ　Ｍａｎｕｆａｃｔｕｒｉｎｇ　Ｃｏ．，Ｌｔｄ．,,外国会社等,,,,,,,,ＹａｎｇＪｉａｎｇＳｈｉＪｉａｎｇＣｈｅｎｇＱｕＹｉｎＬｉｎｇＫｅＪｉＣｈａｎＹｅＹｕａｎＢ９－３,,,,,,2025-10-17,1,,,,,ビノヴォマニュファクチャリングカンパニーリミテッド,0
568,3010001259482,新規,0,2025-10-17,2025-10-17,株式会社ホビーストリーム,,株式会社,東京都,千代田区,外神田６丁目１１番１８号,,13,101,1010021,,,,,,,2025-10-17,1,,,,,ホビーストリーム,0
569,3010003049031,新規,0,2025-10-17,2025-10-17,グラヴェルタン合同会社,,合同会社,東京都,中央区,日本橋室町１丁目１１番１２号日本橋水野ビル７階,,13,102,1030022,,,,,,,2025-10-17,1,,,,,グラヴェルタン,0
570,3010003049080,新規,0,2025-10-17,2025-10-17,合同会社しちみ,,合同会社,東京都,中央区,銀座１丁目１２番４号Ｎ＆ＥＢＬＤ．６Ｆ,,13,102,1040061,,,,,,,2025-10-17,1,,,,,シチミ,0
574,3010101016916,新規,0,2025-10-17,2025-10-17,株式会社マーベルフィットネス,,株式会社,東京都,八王子市,明神町４丁目１－２ストーク八王子２０２,,13,201,1920046,,,,,,,2025-10-17,1,,,,,マーベルフィットネス,0
588,3010501054854,新規,0,2025-10-17,2025-10-17,株式会社ＡＹプランニング,,株式会社,東京都,台東区,橋場１丁目３６番１３号コスモ浅草リバーステージ４０４号,,13,106,1110023,,,,,,,2025-10-17,1,,,,,エーワイプランニング,0
589,3010501054887,新規,0,2025-10-17,2025-10-17,東京安信株式会社,,株式会社,東京都,台東区,台東４丁目２５番３号,,13,106,1100016,,,,,,,2025-10-17,1,,,,,トウキョウアンシン,0
594,3010801036692,新規,0,2025-10-17,2025-10-17,株式会社カシオペアテクノロジーズ,,株式会社,東京都,大田区,南六郷３丁目１０番１６号,,13,111,1440045,,,,,,,2025-10-17,1,,,,,カシオペアテクノロジーズ,0
595,3010801036701,新規,0,2025-10-17,2025-10-17,アペリオ株式会社,,株式会社,東京都,大田区,大森北６丁目６番１１号,,13,111,1430016,,,,,,,2025-10-17,1,,,,,アペリオ,0
598,3010901058265,新規,0,2025-10-17,2025-10-17,湯馬商事株式会社,,株式会社,東京都,世田谷区,上北沢５丁目４番１７号,,13,112,1560057,,,,,,,2025-10-17,1,,,,,トウマショウジ,0
599,3010903010331,新規,0,2025-10-17,2025-10-17,フォーミントデザインパートナー合同会社,,合同会社,東京都,世田谷区,駒沢１丁目５番１０－８０３号,,13,112,1540012,,,,,,,2025-10-17,1,,,,,フォーミントデザインパートナー,0
600,3010903010348,新規,0,2025-10-17,2025-10-17,合同会社キッチンの小物,,合同会社,東京都,世田谷区,祖師谷４丁目２１番５号,,13,112,1570072,,,,,,,2025-10-17,1,,,,,キッチンノコモノ,0
603,3011003022597,新規,0,2025-10-17,2025-10-17,Ｆｕｌｆｉｌｌ合同会社,,合同会社,東京都,渋谷区,恵比寿１丁目３０番１号（１３０４号）,,13,113,1500013,,,,,,,2025-10-17,1,,,,,フルフィル,0
605,3011101113471,新規,0,2025-10-17,2025-10-17,株式会社ＳＥＥＤＯＲ,,株式会社,東京都,新宿区,西新宿７丁目７番２４号ＧＳプラザ新宿ビル６０５,,13,104,1600023,,,,,,,2025-10-17,1,,,,,シードル,0
606,3011101113661,新規,0,2025-10-17,2025-10-17,株式会社クリファ,,株式会社,東京都,新宿区,西新宿３丁目３番１３号西新宿水間ビル６階,,13,104,1600023,,,,,,,2025-10-17,1,,,,,クリファ,0
610,3011501032676,新規,0,2025-10-17,2025-10-17,株式会社博達,,株式会社,東京都,北区,豊島２丁目１０番６－４０６号,,13,117,1140003,,,,,,,2025-10-17,1,,,,,ハクタツ,0
617,3011703004424,新規,0,2025-10-17,2025-10-17,ピザマリスマイル合同会社,,合同会社,東京都,江戸川区,中葛西５丁目４１番１０号,,13,123,1340083,,,,,,,2025-10-17,1,,,,,ピザマリスマイル,0
623,3012401043722,新規,0,2025-10-17,2025-10-17,株式会社ＺＥＡＬ,,株式会社,東京都,調布市,染地２丁目８番地３Ｃ－６１２,,13,208,1820023,,,,,,,2025-10-17,1,,,,,ジール,0
631,3013301055072,新規,0,2025-10-17,2025-10-17,株式会社ＤＡＹＳＩＯ,,株式会社,東京都,豊島区,南池袋２丁目３０番１２号,,13,116,1710022,,,,,,,2025-10-17,1,,,,,デイジオ,0
633,3020001165259,新規,0,2025-10-17,2025-10-17,やすらぎケアサービス株式会社,,株式会社,神奈川県,横浜市緑区,いぶき野３１－１エアリー横浜２０４号,,14,113,2260028,,,,,,,2025-10-17,1,,,,,ヤスラギケアサービス,0
634,3020001165267,新規,0,2025-10-17,2025-10-17,株式会社Ｅｎ‐ｈａｎｃｅ,,株式会社,神奈川県,横浜市中区,桜木町１丁目１０１番地１クロスゲート７階,,14,104,2310062,,,,,,,2025-10-17,1,,,,,エンハンス,0
635,3020001165275,新規,0,2025-10-17,2025-10-17,株式会社Ｖｉｌｌａｇｅ　Ｉ,,株式会社,神奈川県,横浜市戸塚区,原宿４丁目１番２３－２号,,14,110,2450063,,,,,,,2025-10-17,1,,,,,ヴィレッジアイ,0
636,3020001165283,新規,0,2025-10-17,2025-10-17,株式会社Ｒｉｓｔａｒｔ,,株式会社,神奈川県,横浜市磯子区,杉田７丁目４番６号,,14,107,2350033,,,,,,,2025-10-17,1,,,,,リスタート,0
637,3020001165325,新規,0,2025-10-17,2025-10-17,ＴＫ１株式会社,,株式会社,神奈川県,川崎市中原区,新城５丁目９番９号日光コーポ１０２,,14,133,2110044,,,,,,,2025-10-17,1,,,,,ティーケーワン,0
638,3020001165399,新規,0,2025-10-17,2025-10-17,株式会社ＹＣコンサルティング,,株式会社,神奈川県,横浜市保土ケ谷区,星川３丁目１５番２５号,,14,106,2400006,,,,,,,2025-10-17,1,,,,,ワイシーコンサルティング,0
642,3020003029569,新規,0,2025-10-17,2025-10-17,合同会社Ｕｎｄｅｒ　Ｔｈｅ　Ｂｒｉｄｇｅ,,合同会社,神奈川県,横浜市西区,北幸２丁目１０番４８号むつみビル３階,,14,103,2200004,,,,,,,2025-10-17,1,,,,,アンダーザブリッジ,0
643,3020003029585,新規,0,2025-10-17,2025-10-17,合同会社ハルハル,,合同会社,神奈川県,横浜市栄区,小菅ケ谷１丁目１－１市営本郷台住宅４０７,,14,115,2470007,,,,,,,2025-10-17,1,,,,,ハルハル,0
644,3020003029635,新規,0,2025-10-17,2025-10-17,オフィスリンクス合同会社,,合同会社,神奈川県,横浜市西区,浅間町１丁目７－１,,14,103,2200072,,,,,,,2025-10-17,1,,,,,オフィスリンクス,0
655,3030001169250,新規,0,2025-10-17,2025-10-17,Ｍｉｌａｉ株式会社,,株式会社,埼玉県,さいたま市見沼区,大字大谷１７８６番地９,,11,104,3370014,,,,,,,2025-10-17,1,,,,,ミライ,0
656,3030001169259,新規,0,2025-10-17,2025-10-17,株式会社パスファイ,,株式会社,埼玉県,川口市,大字芝６９６２番地の１１,,11,203,3330866,,,,,,,2025-10-17,1,,,,,パスファイ,0
660,3030003027885,新規,0,2025-10-17,2025-10-17,合同会社アクロディア,,合同会社,埼玉県,所沢市,東所沢５丁目１１－７レクセルプラザ東所沢１０４,,11,208,3590021,,,,,,,2025-10-17,1,,,,,アクロディア,0
661,3030003027893,新規,0,2025-10-17,2025-10-17,合同会社信創システム,,合同会社,埼玉県,さいたま市見沼区,大和田町２丁目６００番地１,,11,104,3370053,,,,,,,2025-10-17,1,,,,,シンソウシステム,0
662,3030003027902,新規,0,2025-10-17,2025-10-17,ロイヤルブルー合同会社,,合同会社,埼玉県,深谷市,蓮沼８５７－５,,11,218,3660015,,,,,,,2025-10-17,1,,,,,ロイヤルブルー,0
663,3030003027910,新規,0,2025-10-17,2025-10-17,合同会社ＵＴ１,,合同会社,埼玉県,川口市,戸塚２丁目１８番２３号,,11,203,3330811,,,,,,,2025-10-17,1,,,,,ユーティーワン,0
664,3030005022315,新規,0,2025-10-17,2025-10-17,医療法人社団ＳＨＩＮ美会,,その他の設立登記法人,埼玉県,久喜市,葛梅３１２番地４,,11,232,3400214,,,,,,,2025-10-17,1,,,,,シンビカイ,0
668,3040001140937,新規,0,2025-10-17,2025-10-17,株式会社ＡＢＣＤＩＲＥＣＴＩＯＮ,,株式会社,千葉県,木更津市,文京６丁目１－７ティー・アンソレイユ２０３号室,,12,206,2920804,,,,,,,2025-10-17,1,,,,,エービーシーディレクション,0
669,3040001140953,新規,0,2025-10-17,2025-10-17,ＬＢＴ　ＩＮＴＥＲＮＡＴＩＯＮＡＬ株式会社,,株式会社,千葉県,鎌ケ谷市,丸山２丁目７番３２－１９号,,12,224,2730103,,,,,,,2025-10-17,1,,,,,エルビーティーインターナショナル,0
670,3040003028775,新規,0,2025-10-17,2025-10-17,ＲＩＭＳＴＥＣＨ合同会社,,合同会社,千葉県,松戸市,稔台３丁目５３番地の１１,,12,207,2702231,,,,,,,2025-10-17,1,,,,,リムステック,0
674,3070001043451,新規,0,2025-10-17,2025-10-17,株式会社３６９デンタルラボラトリー,,株式会社,群馬県,藤岡市,藤岡甲６１０番地１,,10,209,3750024,,,,,,,2025-10-17,1,,,,,ミロクデンタルラボラトリー,0
675,3070001043468,新規,0,2025-10-17,2025-10-17,ナガセクリエイティブ株式会社,,株式会社,群馬県,太田市,牛沢町２５７番地１,,10,205,3730833,,,,,,,2025-10-17,1,,,,,ナガセクリエイティブ,0
678,3070003006150,新規,0,2025-10-17,2025-10-17,ＨＴＣ　ＨＵＣ　ＴＨＵＹ合同会社,,合同会社,群馬県,伊勢崎市,上諏訪町１２２６－１,,10,204,3720021,,,,,,,2025-10-17,1,,,,,ハテシフックトウイ,0
679,3070003006159,新規,0,2025-10-17,2025-10-17,Ｇａｉｊｉｎ　Ｔｏｋｙｏ　Ａｒｔ合同会社,,合同会社,群馬県,太田市,鳥山中町７９０－３５,,10,205,3730062,,,,,,,2025-10-17,1,,,,,ガイジントウキョウアート,0
683,3080101025852,新規,0,2025-10-17,2025-10-17,株式会社Ｒ＆Ｌ,,株式会社,静岡県,富士宮市,大宮町３１澤田ビル１Ｆ,,22,207,4180066,,,,,,,2025-10-17,1,,,,,アールアンドエル,0
685,3080401028225,新規,0,2025-10-17,2025-10-17,株式会社ワイツーアセット,,株式会社,静岡県,浜松市中央区,初生町１０３－９,,22,138,4338112,,,,,,,2025-10-17,1,,,,,ワイツーアセット,0
687,3100001039041,新規,0,2025-10-17,2025-10-17,株式会社ＳＵＮ　ＧＩＦＴ,,株式会社,長野県,須坂市,大字小島町６８９－１,,20,207,3820906,,,,,,,2025-10-17,1,,,,,サンギフト,0
689,3100005013406,新規,0,2025-10-17,2025-10-17,一般社団法人太郎山スポーツクラブドリームプロジェクト,,その他の設立登記法人,長野県,上田市,上田１４８９－１６,,20,203,3860001,,,,,,,2025-10-17,1,,,,,タロウヤマスポーツクラブドリームプロジェクト,0
695,3120001280642,新規,0,2025-10-17,2025-10-17,フジアルテグループ株式会社,,株式会社,大阪府,大阪市港区,磯路１丁目６番１９号,,27,107,5520003,,,,,,,2025-10-17,1,,,,,フジアルテグループ,0
696,3120001280799,新規,0,2025-10-17,2025-10-17,株式会社アンバー警備保障,,株式会社,大阪府,大阪市浪速区,幸町２丁目２番４０号,,27,111,5560021,,,,,,,2025-10-17,1,,,,,アンバーケイビホショウ,0
697,3120001280881,新規,0,2025-10-17,2025-10-17,ＷＡＰＰＹ株式会社,,株式会社,大阪府,大阪市中央区,南船場３丁目２７－２７ＮＬＣ心斎橋７階,,27,128,5420081,,,,,,,2025-10-17,1,,,,,ワッピー,0
698,3120001280898,新規,0,2025-10-17,2025-10-17,ＭｉＲＯＫＵ株式会社,,株式会社,大阪府,枚方市,岡山手町２番６０－５０７号,,27,210,5730034,,,,,,,2025-10-17,1,,,,,ミロク,0
699,3120001280964,新規,0,2025-10-17,2025-10-17,紅豆株式会社,,株式会社,大阪府,大阪市東住吉区,西今川３丁目２２番１－３０２号,,27,121,5460042,,,,,,,2025-10-17,1,,,,,アズキ,0
700,3120001280980,新規,0,2025-10-17,2025-10-17,株式会社ｔｏｖｉｌａ,,株式会社,大阪府,大阪市中央区,糸屋町１丁目３番２号,,27,128,5400022,,,,,,,2025-10-17,1,,,,,トビラ,0
701,3120001281269,新規,0,2025-10-17,2025-10-17,康臣株式会社,,株式会社,大阪府,大阪市西成区,花園南１丁目６番１０号花園ハイツ２０２号室,,27,122,5570015,,,,,,,2025-10-17,1,,,,,コウシン,0
711,3120901051630,新規,0,2025-10-17,2025-10-17,Ｗｉｎｎｉｎｇ　Ｊａｐａｎ株式会社,,株式会社,大阪府,吹田市,藤白台５丁目７番４４号,,27,205,5650873,,,,,,,2025-10-17,1,,,,,ウィニングジャパン,0
718,3130001080793,新規,0,2025-10-17,2025-10-17,志優株式会社,,株式会社,京都府,向日市,上植野町泰田１４番地の１２,,26,208,6170006,,,,,,,2025-10-17,1,,,,,シユウ,0
725,3140001140464,新規,0,2025-10-17,2025-10-17,株式会社関通営業分割準備会社,,株式会社,兵庫県,尼崎市,西向島町１１１番地の４,,28,202,6600857,,,,,,,2025-10-17,1,,,,,カンツウエイギョウブンカツジュンビガイシャ,0
728,3160005011445,新規,0,2025-10-17,2025-10-17,一般社団法人日本子ども心理支援機構,,その他の設立登記法人,滋賀県,東近江市,上大森町１３１４番地,,25,213,5270062,,,,,,,2025-10-17,1,,,,,ニホンコドモシンリシエンキコウ,0
734,3180001168907,新規,0,2025-10-17,2025-10-17,株式会社ＨＴＮ,,株式会社,愛知県,名古屋市東区,筒井１丁目１０番２４号プレサンスロジェ車道１５０１号,,23,102,4610003,,,,,,,2025-10-17,1,,,,,エイチティーエヌ,0
735,3180001169153,新規,0,2025-10-17,2025-10-17,セノリシス株式会社,,株式会社,愛知県,丹羽郡扶桑町,大字南山名字野田浦５３番地,,23,362,4800105,,,,,,,2025-10-17,1,,,,,セノリシス,0
749,3250001021397,新規,0,2025-10-17,2025-10-17,株式会社ｏｎｅ‐ｏｎ‐ｏｎｅ,,株式会社,山口県,山口市,阿知須３２５８番地３,,35,203,7541277,,,,,,,2025-10-17,1,,,,,ワンオンワン,0
762,3290001111673,新規,0,2025-10-17,2025-10-17,ＭＥＧＵＲＵ株式会社,,株式会社,福岡県,福岡市中央区,清川２丁目１９番２９号,,40,133,8100005,,,,,,,2025-10-17,1,,,,,メグル,0
763,3290001111698,新規,0,2025-10-17,2025-10-17,株式会社ＳＥＥＫ,,株式会社,福岡県,福岡市中央区,大名１丁目３－４１－６階,,40,133,8100041,,,,,,,2025-10-17,1,,,,,シーク,0
764,3290001111715,新規,0,2025-10-17,2025-10-17,株式会社弥榮,,株式会社,福岡県,福岡市中央区,警固２丁目２番１号,,40,133,8100023,,,,,,,2025-10-17,1,,,,,イヤサカ,0
765,3290801031947,新規,0,2025-10-17,2025-10-17,株式会社ＴＯＷＡＮＩ,,株式会社,福岡県,北九州市八幡西区,八千代町１番７号,,40,109,8060023,,,,,,,2025-10-17,1,,,,,トワニ,0
766,3290803005189,新規,0,2025-10-17,2025-10-17,合同会社ＷＲＲＤ,,合同会社,福岡県,北九州市小倉南区,富士見２丁目３－１０,,40,107,8020801,,,,,,,2025-10-17,1,,,,,ダブルアールアールディー,0
769,3330001033673,新規,0,2025-10-17,2025-10-17,株式会社新輝,,株式会社,熊本県,熊本市中央区,桜町１番２５－４０３号桜町ハイム,,43,101,8600805,,,,,,,2025-10-17,1,,,,,シンキ,0
782,3370001053148,新規,0,2025-10-17,2025-10-17,株式会社Ｐｏｌｉｔａ,,株式会社,宮城県,仙台市青葉区,錦ケ丘１丁目４５番地の３,,04,101,9893123,,,,,,,2025-10-17,1,,,,,ポリータ,0
784,3370005011011,新規,0,2025-10-17,2025-10-17,一般社団法人Ｆｒｉｄａｙｓ　Ｆｏｒ　Ｆｕｔｕｒｅ　Ｓｅｎｄａｉ,,その他の設立登記法人,宮城県,仙台市青葉区,本町１丁目１４番２０号本町キクタビル６０１,,04,101,9800014,,,,,,,2025-10-17,1,,,,,フライデーズフォーフューチャーセンダイ,0
788,3380001035649,新規,0,2025-10-17,2025-10-17,株式会社Ｓｅｎｓｅ．,,株式会社,福島県,いわき市,鹿島町米田字殿作２７番地の３５,,07,204,9718133,,,,,,,2025-10-17,1,,,,,センス,0
792,3400001017207,新規,0,2025-10-17,2025-10-17,株式会社ＧＳ,,株式会社,岩手県,盛岡市,盛岡駅前通２番１－４０１号,,03,201,0200034,,,,,,,2025-10-17,1,,,,,ジーエス,0
801,3460303000887,新規,0,2025-10-17,2025-10-17,合同会社レスト,,合同会社,北海道,紋別郡湧別町,栄町１５１番地,,01,559,0996404,,,,,,,2025-10-17,1,,,,,レスト,0
804,3500001026585,新規,0,2025-10-17,2025-10-17,株式会社ＷＥＬＬ’ｓ,,株式会社,愛媛県,西予市,野村町阿下６号１２３番地,,38,214,7971211,,,,,,,2025-10-17,1,,,,,ウェルズ,0
805,3500005008828,新規,0,2025-10-17,2025-10-17,一般社団法人瀬戸内福祉グループ,,その他の設立登記法人,愛媛県,松山市,北条辻１４２３番地４,00141148,38,201,7992430,,,,,,,2025-10-17,1,,,,,セトウチフクシグループ,0
806,3700150132544,新規,0,2025-10-17,2025-10-17,ｔａｉｈｅｗｅｎｊｉａｈａｎｇｄｉａｎｚｉｓｈａｎｇｗｕｙｏｕｘｉａｎｇｏｎｇｓｉ,,外国会社等,,,,,,,,１　Ｈｏｕｓｅｈｏｌｄ　Ｎｏ．１９４，Ｘｕ　Ｖｉｌｌａｇｅ，Ｚｏｕｑｉａｏ　Ｖｉｌｌａｇｅ　Ｃｏｍｍｉｔｔｅｅ，Ｓｈｕｉｚｈｅｎ　Ｔｏｗｎ，Ｔａｉｈｅ　Ｃｏｕｎｔｙ，Ｆｕｙａｎｇ　Ｃｉｔｙ，Ａｎｈｕｉ　Ｐｒｏｖｉｎｃｅ,,,,,,2025-10-17,1,,,,,タイヘウェンジャハンデンシショウムユウゲンコウシ,0
814,4010001258822,新規,0,2025-10-17,2025-10-17,株式会社プロヴィダンス,,株式会社,東京都,千代田区,富士見２丁目１１－３,,13,101,1020071,,,,,,,2025-10-17,1,,,,,プロヴィダンス,0
815,4010001259481,新規,0,2025-10-17,2025-10-17,城南興業ホールディングス株式会社,,株式会社,東京都,千代田区,内神田２丁目５番５号,,13,101,1010047,,,,,,,2025-10-17,1,,,,,ジョウナンコウギョウホールディングス,0
818,4010003049006,新規,0,2025-10-17,2025-10-17,合同会社櫻井機創ウェルネス,,合同会社,東京都,千代田区,富士見１丁目３番１１号富士見デュープレックスＢ’ｓ４階,,13,101,1020071,,,,,,,2025-10-17,1,,,,,サクライキソウウェルネス,0
819,4010003049039,新規,0,2025-10-17,2025-10-17,小島興業合同会社,,合同会社,東京都,中央区,銀座１丁目１２番４号Ｎ＆Ｅ・ＢＬＤ．６Ｆ,,13,102,1040061,,,,,,,2025-10-17,1,,,,,コジマコウギョウ,0
820,4010003049071,新規,0,2025-10-17,2025-10-17,合同会社余白,,合同会社,東京都,文京区,根津２丁目３５番１号,,13,105,1130031,,,,,,,2025-10-17,1,,,,,ヨハク,0
823,4010403036248,新規,0,2025-10-17,2025-10-17,合同会社Ｒｉｔｏｍｏ,,合同会社,東京都,港区,北青山１丁目３番１号アールキューブ青山３階,,13,103,1070061,,,,,,,2025-10-17,1,,,,,リトモ,0
824,4010403036272,新規,0,2025-10-17,2025-10-17,天成コントロールズジャパン合同会社,,合同会社,東京都,港区,港南２丁目１６番１号品川イーストワンタワー４階,,13,103,1080075,,,,,,,2025-10-17,1,,,,,テンセイコントロールズジャパン,0
829,4010601068118,新規,0,2025-10-17,2025-10-17,株式会社ジョウクン,,株式会社,東京都,江東区,亀戸３丁目６０番１５号プレイスＭ２０３,,13,108,1360071,,,,,,,2025-10-17,1,,,,,ジョウクン,0
833,4010701048481,新規,0,2025-10-17,2025-10-17,株式会社ブレアス,,株式会社,東京都,品川区,西五反田２丁目３１番２号プラウド五反田５０３,,13,109,1410031,,,,,,,2025-10-17,1,,,,,ブレアス,0
834,4010801036700,新規,0,2025-10-17,2025-10-17,ファースト・リバー株式会社,,株式会社,東京都,大田区,山王２丁目９番１２－１０５号,,13,111,1430023,,,,,,,2025-10-17,1,,,,,ファーストリバー,0
846,4011005011201,新規,0,2025-10-17,2025-10-17,一般社団法人サイバー戦略研究機構,,その他の設立登記法人,東京都,渋谷区,道玄坂１丁目１０番８号渋谷道玄坂東急ビル２Ｆ－Ｃ,,13,113,1500043,,,,,,,2025-10-17,1,,,,,サイバーセンリャクケンキュウキコウ,0
849,4011101113545,新規,0,2025-10-17,2025-10-17,ＪＩＳＵＬＩＦＥ　ＴＥＣＨＮＯＬＯＧＹ株式会社,,株式会社,東京都,新宿区,百人町１丁目１８－８大久保カドビル４０４室１１５区画,,13,104,1690073,,,,,,,2025-10-17,1,,,,,ジスライフテクノロジー,0
856,4011601029101,新規,0,2025-10-17,2025-10-17,株式会社エースリフォーム,,株式会社,東京都,練馬区,向山４丁目２１番１１号,,13,120,1760022,,,,,,,2025-10-17,1,,,,,エースリフォーム,0
861,4011801046937,新規,0,2025-10-17,2025-10-17,株式会社ナッツクラン,,株式会社,東京都,足立区,皿沼１丁目１８番１０号津山ビル３Ｆ,,13,121,1230862,,,,,,,2025-10-17,1,,,,,ナッツクラン,0
862,4011803007136,新規,0,2025-10-17,2025-10-17,フローティオ合同会社,,合同会社,東京都,葛飾区,東新小岩２丁目２３番１４号,,13,122,1240023,,,,,,,2025-10-17,1,,,,,フォローティオ,0
870,4012403007377,新規,0,2025-10-17,2025-10-17,ペンポス合同会社,,合同会社,東京都,府中市,清水が丘３丁目８－６７,,13,206,1830015,,,,,,,2025-10-17,1,,,,,ペンポス,0
871,4012403007410,新規,0,2025-10-17,2025-10-17,合同会社ａｏｉｃｏｌｏｒｓ,,合同会社,東京都,三鷹市,大沢１丁目１２－７,,13,204,1810015,,,,,,,2025-10-17,1,,,,,アオイカラーズ,0
875,4013301055071,新規,0,2025-10-17,2025-10-17,株式会社ＬＸＶＥ,,株式会社,東京都,豊島区,南大塚３丁目９番１５号,,13,116,1700005,,,,,,,2025-10-17,1,,,,,エルエックスブイイー,0
880,4020001165233,新規,0,2025-10-17,2025-10-17,株式会社ゲキヘン,,株式会社,神奈川県,横浜市中区,元町４丁目１６８番地,,14,104,2310861,,,,,,,2025-10-17,1,,,,,ゲキヘン,0
881,4020001165274,新規,0,2025-10-17,2025-10-17,株式会社Ｌｏｋａｈｉ,,株式会社,神奈川県,横浜市旭区,鶴ケ峰１丁目１２番地３１,,14,112,2410022,,,,,,,2025-10-17,1,,,,,ロカヒ,0
882,4020001165282,新規,0,2025-10-17,2025-10-17,株式会社Ｏｋａｐｉｓ．,,株式会社,神奈川県,横浜市都筑区,見花山一丁目３０番,,14,118,2240066,,,,,,,2025-10-17,1,,,,,オカピス,0
883,4020001165290,新規,0,2025-10-17,2025-10-17,株式会社彩・プランニング,,株式会社,神奈川県,横浜市保土ケ谷区,岩井町１０番地９第３島蔵屋ビル３階,,14,106,2400023,,,,,,,2025-10-17,1,,,,,サイプランニング,0
884,4020001165373,新規,0,2025-10-17,2025-10-17,株式会社善,,株式会社,神奈川県,川崎市麻生区,上麻生４丁目１６番１－１０１号,,14,137,2150021,,,,,,,2025-10-17,1,,,,,ゼン,0
885,4020003029576,新規,0,2025-10-17,2025-10-17,ＨＡＴ合同会社,,合同会社,神奈川県,横浜市瀬谷区,本郷３丁目１７番地１５,,14,114,2460015,,,,,,,2025-10-17,1,,,,,エッチエィティ,0
886,4020003029584,新規,0,2025-10-17,2025-10-17,合同会社ＮＡＣ　Ｐｌｕｓ,,合同会社,神奈川県,川崎市宮前区,犬蔵２丁目８－３２,,14,136,2160011,,,,,,,2025-10-17,1,,,,,ナックプラス,0
889,4021001086584,新規,0,2025-10-17,2025-10-17,厚木ことぶき投資株式会社,,株式会社,神奈川県,厚木市,中町４丁目１３番１－９０８号,,14,212,2430018,,,,,,,2025-10-17,1,,,,,アツギコトブキトウシ,0
890,4021001086592,新規,0,2025-10-17,2025-10-17,株式会社電総,,株式会社,神奈川県,平塚市,片岡８７９番地の５,,14,203,2591213,,,,,,,2025-10-17,1,,,,,デンソウ,0
894,4021005013444,新規,0,2025-10-17,2025-10-17,一般社団法人Ｖ‐ＣＡＴＳ　ＪＡＰＡＮ,,その他の設立登記法人,神奈川県,相模原市緑区,大島１１番地３７２,,14,151,2520135,,,,,,,2025-10-17,1,,,,,ヴイキャッツジャパン,0
904,4030001169225,新規,0,2025-10-17,2025-10-17,株式会社ＮＩＣＨＩＥＩ,,株式会社,埼玉県,熊谷市,佐谷田３８９８番地２,,11,202,3600023,,,,,,,2025-10-17,1,,,,,ニチエイ,0
905,4030001169241,新規,0,2025-10-17,2025-10-17,株式会社のすけ,,株式会社,埼玉県,川越市,大字大袋４１３番地１５,,11,201,3501168,,,,,,,2025-10-17,1,,,,,ノスケ,0
906,4030001169258,新規,0,2025-10-17,2025-10-17,株式会社Ｉ＆Ａ,,株式会社,埼玉県,朝霞市,根岸台７丁目４８番３５号,,11,227,3510005,,,,,,,2025-10-17,1,,,,,アイアンドエー,0
907,4030001169274,新規,0,2025-10-17,2025-10-17,株式会社ＦＯＵＲ　ＮＩＮＥＳ,,株式会社,埼玉県,朝霞市,本町２丁目７番２９－２０２号,,11,227,3510011,,,,,,,2025-10-17,1,,,,,フォーナインズ,0
913,4030003027884,新規,0,2025-10-17,2025-10-17,合同会社ＡＫ,,合同会社,埼玉県,川口市,並木２丁目２９番１０‐２０１号,,11,203,3320034,,,,,,,2025-10-17,1,,,,,エーケー,0
915,4040001140960,新規,0,2025-10-17,2025-10-17,ＦＯＬＵ株式会社,,株式会社,千葉県,千葉市中央区,道場北２丁目２番８号道場北町マンション１０１号室,,12,101,2600006,,,,,,,2025-10-17,1,,,,,フォウル,0
916,4040001140985,新規,0,2025-10-17,2025-10-17,株式会社Ｆｌｙｉｎｇ　Ｂｅｅ,,株式会社,千葉県,市川市,入船３番１９号,,12,203,2720134,,,,,,,2025-10-17,1,,,,,フライングビー,0
917,4040001141001,新規,0,2025-10-17,2025-10-17,株式会社とわ内装,,株式会社,千葉県,習志野市,花咲１丁目７番３号,,12,216,2750013,,,,,,,2025-10-17,1,,,,,トワナイソウ,0
918,4040001141083,新規,0,2025-10-17,2025-10-17,株式会社ＺＨＬ,,株式会社,千葉県,野田市,はやま１７番地２,,12,208,2700217,,,,,,,2025-10-17,1,,,,,ゼットエッチエル,0
919,4040003028774,新規,0,2025-10-17,2025-10-17,合同会社共豊,,合同会社,千葉県,松戸市,北松戸２丁目７－１９,,12,207,2710063,,,,,,,2025-10-17,1,,,,,キョウホウ,0
930,4080001027221,新規,0,2025-10-17,2025-10-17,株式会社トヨダ物産,,株式会社,静岡県,焼津市,相川１３３０番地,,22,212,4210216,,,,,,,2025-10-17,1,,,,,トヨダブッサン,0
936,4090001019564,新規,0,2025-10-17,2025-10-17,株式会社アマレット,,株式会社,山梨県,富士吉田市,新町１丁目６番１８号,,19,202,4030019,,,,,,,2025-10-17,1,,,,,アマレット,0
958,4120001280708,新規,0,2025-10-17,2025-10-17,株式会社Ｆｉｎｅ　Ｈｏｎｎｅｔｅ,,株式会社,大阪府,大阪市此花区,四貫島１丁目７番６ハイマート千鳥橋４０７号,,27,104,5540014,,,,,,,2025-10-17,1,,,,,ファインオネット,0
959,4120001280848,新規,0,2025-10-17,2025-10-17,株式会社シンアルケミストリマ,,株式会社,大阪府,大阪市阿倍野区,昭和町２丁目９番３号,,27,119,5450011,,,,,,,2025-10-17,1,,,,,シンアルケミストリマ,0
960,4120001280930,新規,0,2025-10-17,2025-10-17,ｍｏｃｈｉｔｕ　ｍｏｔａｒｅｔｕ株式会社,,株式会社,大阪府,大阪市福島区,海老江１丁目５番３０号１３２５号室,,27,103,5530001,,,,,,,2025-10-17,1,,,,,モチツモタレツ,0
961,4120001280947,新規,0,2025-10-17,2025-10-17,和光屋株式会社,,株式会社,大阪府,大阪市天王寺区,堂ケ芝２丁目１８－１１,,27,109,5430033,,,,,,,2025-10-17,1,,,,,ワコウヤ,0
962,4120001280955,新規,0,2025-10-17,2025-10-17,株式会社ＬＩＶＩＯＮ　ｐａｒｔｎｅｒｓ,,株式会社,大阪府,大阪市中央区,北久宝寺町２丁目５番１号プレサンス本町エクストラ１００４,,27,128,5410057,,,,,,,2025-10-17,1,,,,,リヴィオンパートーナーズ,0
963,4120001280963,新規,0,2025-10-17,2025-10-17,啓勝株式会社,,株式会社,大阪府,大阪市浪速区,大国１丁目９番１５－６０１号,,27,111,5560014,,,,,,,2025-10-17,1,,,,,ケイショウ,0
966,4120003030953,新規,0,2025-10-17,2025-10-17,三米日中合同会社,,合同会社,大阪府,大阪市平野区,長吉六反３丁目１７－２５－Ｈ室,,27,126,5470012,,,,,,,2025-10-17,1,,,,,サンマイニッチュウ,0
968,4120101072666,新規,0,2025-10-17,2025-10-17,伊友株式会社,,株式会社,大阪府,堺市堺区,緑町２丁５７－２１,,27,141,5900907,,,,,,,2025-10-17,1,,,,,イユウ,0
973,4122003003360,新規,0,2025-10-17,2025-10-17,ワイズサポート合同会社,,合同会社,大阪府,東大阪市,本庄西１丁目１番４－８０３号,,27,227,5780965,,,,,,,2025-10-17,1,,,,,ワイズサポート,0
978,4130001080784,新規,0,2025-10-17,2025-10-17,株式会社リガーレ,,株式会社,京都府,京都市山科区,大塚檀ノ浦１９番地３０,00141147,26,110,6078124,,,,,,,2025-10-17,1,,,,,リガーレ,0
979,4130001080801,新規,0,2025-10-17,2025-10-17,株式会社はちや,,株式会社,京都府,京都市南区,久世大藪町１３１番地１,,26,107,6010000,,,,,,,2025-10-17,1,,,,,ハチヤ,0
980,4130001080826,新規,0,2025-10-17,2025-10-17,ＫＡＩ　ＬＡＮＤ　ＫＹＯＴＯ株式会社,,株式会社,京都府,京都市左京区,岡崎法勝寺町８３番地,,26,103,6068333,,,,,,,2025-10-17,1,,,,,カイランドキョウト,0
981,4130001080842,新規,0,2025-10-17,2025-10-17,株式会社ＡｕｔｏＮｏｖａ,,株式会社,京都府,八幡市,美濃山幸水２３番地２６,,26,210,6148279,,,,,,,2025-10-17,1,,,,,オートノヴァ,0
982,4130001080867,新規,0,2025-10-17,2025-10-17,株式会社ＤＫサービス,,株式会社,京都府,京都市中京区,聚楽廻西町１８６番地９９,,26,104,6048402,,,,,,,2025-10-17,1,,,,,ディーケーサービス,0
986,4130005017485,新規,0,2025-10-17,2025-10-17,医療法人酒井クリニック,,その他の設立登記法人,京都府,城陽市,寺田樋尻２９番地７,,26,207,6100121,,,,,,,2025-10-17,1,,,,,サカイクリニック,0
991,4140001140372,新規,0,2025-10-17,2025-10-17,株式会社２ｗｏｒｋｓ,,株式会社,兵庫県,宝塚市,逆瀬台１丁目７－１阪急逆瀬台マンション１０１,,28,214,6650024,,,,,,,2025-10-17,1,,,,,ツーワークス,0
994,4150001028484,新規,0,2025-10-17,2025-10-17,株式会社Ｒｅｓｉｌｉｅｎｔ,,株式会社,奈良県,生駒市,谷田町１６１５アコール生駒もやい館４階オフィスルーム４,,29,209,6300251,,,,,,,2025-10-17,1,,,,,レジリエント,0
995,4150001028492,新規,0,2025-10-17,2025-10-17,株式会社セイオーセキュリティ,,株式会社,奈良県,奈良市,法蓮町３０４番地の２,,29,201,6308113,,,,,,,2025-10-17,1,,,,,セイオーセキュリティ,0
997,4160001027139,新規,0,2025-10-17,2025-10-17,ユニバーサルツーリズムデスク滋賀株式会社,,株式会社,滋賀県,草津市,渋川１丁目３番１１－６０５号ペルル草津,,25,206,5250026,,,,,,,2025-10-17,1,,,,,ユニバーサルツーリズムデスクシガ,0
998,4160003003633,新規,0,2025-10-17,2025-10-17,Ｇｌｏｂａｌ　Ｍａｒｔ合同会社,,合同会社,滋賀県,野洲市,久野部１６４番地サンフォーレ野洲４０５号,,25,210,5202353,,,,,,,2025-10-17,1,,,,,グローバルマート,0
999,4160005011452,新規,0,2025-10-17,2025-10-17,一般財団法人Ａｙａ　Ｄｒｅａｍ,,その他の設立登記法人,滋賀県,守山市,勝部２丁目４番２５－１号,,25,207,5240041,,,,,,,2025-10-17,1,,,,,アヤドリーム,0
1004,4180001168947,新規,0,2025-10-17,2025-10-17,株式会社きららサポート,,株式会社,愛知県,名古屋市東区,代官町７番１２号,,23,102,4610002,,,,,,,2025-10-17,1,,,,,キララサポート,0
1005,4180001169086,新規,0,2025-10-17,2025-10-17,株式会社Ａｘｉｏｍ　Ｐａｒｔｎｅｒｓ,,株式会社,愛知県,名古屋市中区,丸の内３丁目１７番１３号いちご丸の内ビル２階,,23,106,4600002,,,,,,,2025-10-17,1,,,,,アクシオムパートナーズ,0
1027,4230003002520,新規,0,2025-10-17,2025-10-17,連富商事合同会社,,合同会社,富山県,富山市,寺町けや木台１８４番地,,16,201,9300875,,,,,,,2025-10-17,1,,,,,レンフウショウジ,0
1031,4240001065659,新規,0,2025-10-17,2025-10-17,株式会社圓,,株式会社,広島県,広島市中区,光南４丁目７－３４,,34,101,7300825,,,,,,,2025-10-17,1,,,,,エン,0
1043,4290001111672,新規,0,2025-10-17,2025-10-17,ＭＡＭＲＥ株式会社,,株式会社,福岡県,福岡市西区,姪の浜２丁目３－１６ＯＡＫＶＩＬＬＡＭＡＩＳＯＮ姪浜１０１室,,40,135,8190002,,,,,,,2025-10-17,1,,,,,マムレ,0
1044,4290001111714,新規,0,2025-10-17,2025-10-17,株式会社Ｇｕ‐Ｇａｎ,,株式会社,福岡県,糟屋郡宇美町,神武原３丁目１６番６号,,40,341,8112129,,,,,,,2025-10-17,1,,,,,グーガン,0
1045,4290003017570,新規,0,2025-10-17,2025-10-17,合同会社ａｔｅｌｉｅｒ　ｔｏｉ,,合同会社,福岡県,福岡市南区,横手２丁目２番１９－３０３号アップルコア,,40,134,8111311,,,,,,,2025-10-17,1,,,,,アトリエトイ,0
1063,4340003004984,新規,0,2025-10-17,2025-10-17,合同会社ＬＩＢＥＲＯ,,合同会社,鹿児島県,霧島市,国分清水１丁目３０－２１－４,,46,218,8994304,,,,,,,2025-10-17,1,,,,,リベロ,0
1064,4350003005040,新規,0,2025-10-17,2025-10-17,合同会社むそう,,合同会社,宮崎県,児湯郡木城町,大字椎木１１５５番地１,,45,404,8840102,,,,,,,2025-10-17,1,,,,,ムソウ,0
1067,4360001035914,新規,0,2025-10-17,2025-10-17,株式会社碧建設,,株式会社,沖縄県,うるま市,喜仲２丁目５番４号,,47,213,9042236,,,,,,,2025-10-17,1,,,,,ミドリケンセツ,0
1081,4400002017592,新規,0,2025-10-17,2025-10-17,有限会社ポパイ,,有限会社,岩手県,花巻市,若葉町３丁目１１番１７号,,03,205,0250097,,,,,,,2025-10-17,1,,,,,ポパイ,0
1085,4420003003193,新規,0,2025-10-17,2025-10-17,コヘライグ合同会社,,合同会社,青森県,弘前市,大字南塘町２番地１３,,02,202,0368212,,,,,,,2025-10-17,1,,,,,コヘライグ,0
1092,4490001011175,新規,0,2025-10-17,2025-10-17,桜興産株式会社,,株式会社,高知県,高知市,仁井田４５６３番地１,,39,201,7810112,,,,,,,2025-10-17,1,,,,,サクラコウサン,0
1094,4500005008827,新規,0,2025-10-17,2025-10-17,一般社団法人Ｈｕｅｌｏ’ＯｈａｎａＦａｒｍＳａｎｃｔｕａｒｙ,,その他の設立登記法人,愛媛県,今治市,波方町樋口甲１９９３番地２,,38,202,7992102,,,,,,,2025-10-17,1,,,,,フレオオハナファームサンクチュアリ,0
1095,4700150132543,新規,0,2025-10-17,2025-10-17,ｓｈｅｎｚｈｅｎｆｅｉｔｉａｎｙｕｎｓｈｉｙｅｙｏｕｘｉａｎｇｏｎｇｓｉ,,外国会社等,,,,,,,,Ｒｏｏｍ　１３０７，Ｙｉｎｇｌｏｎｇ　Ｂｕｓｉｎｅｓｓ　Ｂｕｉｌｄｉｎｇ，Ｎｏ．１１，Ｓｈａｎｇｂａｏ　Ｅａｓｔ　Ｒｏａｄ，Ｚｉｊｉｎｇ　Ｃｏｍｍｕｎｉｔｙ，Ｌｉａｎｈｕａ　Ｓｕｂ－ｄｉｓｔｒｉｃｔ，Ｆｕｔｉａｎ　Ｄｉｓｔｒｉｃｔ，Ｓｈｅｎｚｈｅｎ　Ｃｉｔｙ,,,,,,2025-10-17,1,,,,,シンセンフェイテンユンシイェユウゲンコウシ,0
1101,5010001259200,新規,0,2025-10-17,2025-10-17,Ｗｏｌｆｇａｎｇ　Ｊａｐａｎ株式会社,,株式会社,東京都,中央区,日本橋中洲３－１３オーベルジュ日本橋６０３号室,,13,102,1030008,,,,,,,2025-10-17,1,,,,,ウルフギャングジャパン,0
1102,5010001259522,新規,0,2025-10-17,2025-10-17,ＥＮＳＴＹＮＥＬ株式会社,,株式会社,東京都,中央区,銀座１丁目１２番４号Ｎ＆ＥＢＬＤ．６Ｆ,,13,102,1040061,,,,,,,2025-10-17,1,,,,,エンスティネル,0
1105,5010101016914,新規,0,2025-10-17,2025-10-17,株式会社Ｈ．Ｋ２Ａｒｃｈｉｔｅｃｔ,,株式会社,東京都,八王子市,川口町１５４０番地８０,,13,201,1930801,,,,,,,2025-10-17,1,,,,,エイチケーツーアーキテクト,0
1115,5010403036206,新規,0,2025-10-17,2025-10-17,楽語集合同会社,,合同会社,東京都,港区,浜松町２丁目２番１５号浜松町ダイヤビル２Ｆ,,13,103,1050013,,,,,,,2025-10-17,1,,,,,ガクゴシュウ,0
1116,5010403036271,新規,0,2025-10-17,2025-10-17,Ｎｉｓｅｋｏ　Ｌｕｘ　Ｄｅｖｅｌｏｐｍｅｎｔｓ合同会社,,合同会社,東京都,港区,元麻布３丁目１番６号,,13,103,1060046,,,,,,,2025-10-17,1,,,,,ニセコラックスデベロップメンツ,0
1117,5010403036305,新規,0,2025-10-17,2025-10-17,ＧＳＳＧ　Ｓｏｌａｒ　Ｊａｐａｎ　Ｈｏｌｄｉｎｇｓ１０‐１ＢＥＳＳ合同会社,,合同会社,東京都,港区,高輪１丁目３番１３号ＮＢＦ高輪ビル７階,,13,103,1080074,,,,,,,2025-10-17,1,,,,,ジーエスエスジーソーラージャパンホールディングステンワンビーイーエスエス,0
1143,5011003022744,新規,0,2025-10-17,2025-10-17,合同会社ＷｅｌｌＬｉｎｋ,,合同会社,東京都,渋谷区,恵比寿西１丁目８番８号ライオンズマンション小川恵比寿４０４,,13,113,1500021,,,,,,,2025-10-17,1,,,,,ウェルリンク,0
1146,5011101113486,新規,0,2025-10-17,2025-10-17,株式会社Ｈｕｍａｎ　Ａｉｍ　Ｆａｃｔｏｒｙ,,株式会社,東京都,新宿区,西新宿３丁目３番１３号西新宿水間ビル２Ｆ,,13,104,1600023,,,,,,,2025-10-17,1,,,,,ヒューマンエイムファクトリー,0
1149,5011103016489,新規,0,2025-10-17,2025-10-17,ｍａｊｅｓｔｉｃ　ｇｒｏｗ合同会社,,合同会社,東京都,新宿区,西新宿３丁目３－１３西新宿水間ビル６Ｆ,,13,104,1600023,,,,,,,2025-10-17,1,,,,,マジェスティックグロウ,0
1152,5011301030969,新規,0,2025-10-17,2025-10-17,ＦＲＥＥＳＴＹＬＥ株式会社,,株式会社,東京都,杉並区,梅里２丁目２５番１３号高円寺プラザ２１１号－Ｃ室,,13,115,1660011,,,,,,,2025-10-17,1,,,,,フリースタイル,0
1154,5011501032716,新規,0,2025-10-17,2025-10-17,株式会社津恒,,株式会社,東京都,北区,王子本町１丁目１２番８号,,13,117,1140022,,,,,,,2025-10-17,1,,,,,シンコ,0
1156,5011601029091,新規,0,2025-10-17,2025-10-17,Ｂｕｔｔｅｒｆｌｙ　Ｌａｂ株式会社,,株式会社,東京都,練馬区,桜台５丁目１１番２２号,,13,120,1760002,,,,,,,2025-10-17,1,,,,,バタフライラボ,0
1162,5011801046903,新規,0,2025-10-17,2025-10-17,株式会社江戸川総合アシスト,,株式会社,東京都,葛飾区,柴又５丁目２６番５号,,13,122,1250052,,,,,,,2025-10-17,1,,,,,エドガワソウゴウアシスト,0
1164,5012403007401,新規,0,2025-10-17,2025-10-17,パレスエステート合同会社,,合同会社,東京都,調布市,深大寺元町２丁目２３番地２５,,13,208,1820017,,,,,,,2025-10-17,1,,,,,パレスエステート,0
1167,5013101009838,新規,0,2025-10-17,2025-10-17,株式会社エコルホーム,,株式会社,東京都,あきる野市,小川東３丁目９番地１５,,13,228,1970822,,,,,,,2025-10-17,1,,,,,エコルホーム,0
1173,5020001165249,新規,0,2025-10-17,2025-10-17,株式会社ゴッタニ,,株式会社,神奈川県,川崎市宮前区,南野川２丁目５番６号,,14,136,2160042,,,,,,,2025-10-17,1,,,,,ゴッタニ,0
1174,5020001165331,新規,0,2025-10-17,2025-10-17,株式会社なとり,,株式会社,神奈川県,横浜市戸塚区,戸塚町４２０８番地１０パイロットハウス・サン戸塚１０３号,,14,110,2440003,,,,,,,2025-10-17,1,,,,,ナトリ,0
1177,5020003029410,新規,0,2025-10-17,2025-10-17,ＨＡＭ合同会社,,合同会社,神奈川県,横浜市都筑区,茅ケ崎中央４０－２２－９０３,,14,118,2240032,,,,,,,2025-10-17,1,,,,,エイチエイエム,0
1178,5020003029550,新規,0,2025-10-17,2025-10-17,合同会社ＴＡＩｗｏｒｋｓ,,合同会社,神奈川県,横浜市港北区,小机町８４４,,14,109,2220036,,,,,,,2025-10-17,1,,,,,ティーエーアイワークス,0
1179,5020003029633,新規,0,2025-10-17,2025-10-17,マルハチ合同会社,,合同会社,神奈川県,横浜市中区,本郷町３丁目１７１番地５,,14,104,2310843,,,,,,,2025-10-17,1,,,,,マルハチ,0
1181,5021001086583,新規,0,2025-10-17,2025-10-17,株式会社ＡＱＵＡＨＥＡＲＴＳ,,株式会社,神奈川県,大和市,下鶴間２１９０番地１０,,14,213,2420001,,,,,,,2025-10-17,1,,,,,アクアハーツ,0
1184,5021003016662,新規,0,2025-10-17,2025-10-17,アライメント合同会社,,合同会社,神奈川県,高座郡寒川町,一之宮９丁目６番地７号,,14,321,2530111,,,,,,,2025-10-17,1,,,,,アライメント,0
1185,5021003016695,新規,0,2025-10-17,2025-10-17,合同会社音和花,,合同会社,神奈川県,相模原市南区,東大沼３丁目２番１２号,,14,153,2520333,,,,,,,2025-10-17,1,,,,,,0
1186,5021003016704,新規,0,2025-10-17,2025-10-17,合同会社ＵＩクリーニング,,合同会社,神奈川県,足柄下郡箱根町,宮城野３４１番地,,14,382,2500401,,,,,,,2025-10-17,1,,,,,ユーアイクリーニング,0
1193,5030001169174,新規,0,2025-10-17,2025-10-17,株式会社シャイニングＣＧ,,株式会社,埼玉県,川口市,朝日２丁目１番１８－１１１８号,,11,203,3320001,,,,,,,2025-10-17,1,,,,,シャイニングシージー,0
1194,5030001169232,新規,0,2025-10-17,2025-10-17,朝霧蒸留所株式会社,,株式会社,埼玉県,川越市,新宿町３丁目１３番地７,,11,201,3501124,,,,,,,2025-10-17,1,,,,,アサギリジョウリュウショ,0
1195,5030001169240,新規,0,2025-10-17,2025-10-17,株式会社光建,,株式会社,埼玉県,飯能市,大字青木１５３番地２３,,11,209,3570003,,,,,,,2025-10-17,1,,,,,コウケン,0
1196,5030001169249,新規,0,2025-10-17,2025-10-17,株式会社熊谷学校給食サービス,,株式会社,埼玉県,熊谷市,石原１１９４番地,,11,202,3600816,,,,,,,2025-10-17,1,,,,,クマガヤガッコウキュウショクサービス,0
1197,5030001169257,新規,0,2025-10-17,2025-10-17,株式会社竹田工業,,株式会社,埼玉県,蓮田市,蓮田３丁目１２４番地,,11,238,3490115,,,,,,,2025-10-17,1,,,,,タケダコウギョウ,0
1198,5030001169265,新規,0,2025-10-17,2025-10-17,株式会社クラートマネジメント,,株式会社,埼玉県,熊谷市,妻沼１８５５番地１,,11,202,3600201,,,,,,,2025-10-17,1,,,,,クラートマネジメント,0
1199,5030003027891,新規,0,2025-10-17,2025-10-17,合同会社ｔｅａｍ　ＨＯＵＳＥ　ＬＡＢＯ,,合同会社,埼玉県,八潮市,緑町１丁目１１－３,,11,234,3400808,,,,,,,2025-10-17,1,,,,,チームハウスラボ,0
1200,5030003027909,新規,0,2025-10-17,2025-10-17,合同会社ＶｉｂｅＮｅｔ,,合同会社,埼玉県,戸田市,笹目南町３６－６ベルラポール３０１,,11,224,3350035,,,,,,,2025-10-17,1,,,,,ヴァイブネット,0
1204,5040001140984,新規,0,2025-10-17,2025-10-17,株式会社Ｍ’ｓ　Ｇａｒａｇｅ,,株式会社,千葉県,袖ケ浦市,横田２２６５番地１,,12,229,2990236,,,,,,,2025-10-17,1,,,,,エムズガレージ,0
1208,5040003028757,新規,0,2025-10-17,2025-10-17,合同会社Ｃｏｍｅ　ｌａｂｏ,,合同会社,千葉県,柏市,花野井４１５番地,,12,217,2770812,,,,,,,2025-10-17,1,,,,,コメラボ,0
1209,5040003028765,新規,0,2025-10-17,2025-10-17,合同会社もんじゅ,,合同会社,千葉県,習志野市,谷津１丁目１５番２２－３１１０号,,12,216,2750026,,,,,,,2025-10-17,1,,,,,モンジュ,0
1210,5040003028781,新規,0,2025-10-17,2025-10-17,合同会社ＭＹＫＡＲＩＮ,,合同会社,千葉県,松戸市,本町４番地の５ＭＨ４５－９０１号,,12,207,2710091,,,,,,,2025-10-17,1,,,,,マイカーリン,0
1211,5050001057468,新規,0,2025-10-17,2025-10-17,株式会社ＴＲＡＤＥ　ＨＵＢ　ＪＡＰＡＮ,,株式会社,茨城県,結城市,大字上山川６００４番地４,,08,207,3070021,,,,,,,2025-10-17,1,,,,,トレードハブジャパン,0
1216,5060003005812,新規,0,2025-10-17,2025-10-17,合同会社Ｈｉｍａｌａｙａｎ　Ｈａｎａ,,合同会社,栃木県,宇都宮市,野沢町１８７番地１１０,,09,201,3200071,,,,,,,2025-10-17,1,,,,,ヒマラヤンハナ,0
1219,5070001043458,新規,0,2025-10-17,2025-10-17,株式会社ＬＵＭＩＮＯＵＳ　ＰＨＡＲＭＡＣＹ,,株式会社,群馬県,館林市,本町１丁目１０番１０号－１Ｆ,,10,207,3740024,,,,,,,2025-10-17,1,,,,,ルミナスファーマシー,0
1224,5080101025850,新規,0,2025-10-17,2025-10-17,株式会社篠原組,,株式会社,静岡県,富士市,宮島９９７番地の１,,22,210,4160945,,,,,,,2025-10-17,1,,,,,シノハラグミ,0
1228,5110001039658,新規,0,2025-10-17,2025-10-17,株式会社スワンテック,,株式会社,新潟県,阿賀野市,小島３４９－３,,15,223,9592146,,,,,,,2025-10-17,1,,,,,スワンテック,0
1247,5120001280896,新規,0,2025-10-17,2025-10-17,株式会社Ａｒａｓｕｋｕ,,株式会社,大阪府,大阪市東淀川区,豊新２丁目９番１４号,,27,114,5330014,,,,,,,2025-10-17,1,,,,,アラスク,0
1248,5120001280946,新規,0,2025-10-17,2025-10-17,Ｅｃｏｐａｌ株式会社,,株式会社,大阪府,大阪市北区,南森町１丁目１番２５号,,27,127,5300054,,,,,,,2025-10-17,1,,,,,エコパル,0
1249,5120001280962,新規,0,2025-10-17,2025-10-17,兆＿ネットワークテクノロジー株式会社,00141150,株式会社,大阪府,大阪市西成区,天下茶屋１丁目１番１６号,,27,122,5570014,,,,,,,2025-10-17,1,,,,,チョウヨウネットワークテクノロジー,0
1250,5120001280970,新規,0,2025-10-17,2025-10-17,株式会社ＳＩＬＡＲＩＳ,,株式会社,大阪府,大阪市北区,梅田１丁目１番３号大阪駅前第３ビル２９階１－１－１号室,,27,127,5300001,,,,,,,2025-10-17,1,,,,,シラリス,0
1251,5120001281325,新規,0,2025-10-17,2025-10-17,株式会社リアントラスト,,株式会社,大阪府,大阪市住吉区,苅田９丁目２‐２８,,27,120,5580011,,,,,,,2025-10-17,1,,,,,リアントラスト,0
1258,5120003030969,新規,0,2025-10-17,2025-10-17,ＰＨＡＰ　ＬＩＮＨ合同会社,,合同会社,大阪府,大阪市西成区,萩之茶屋３丁目１－１８サンタウンあき３１０号,,27,122,5570004,,,,,,,2025-10-17,1,,,,,ファップリン,0
1259,5120003030985,新規,0,2025-10-17,2025-10-17,合同会社澤田,,合同会社,大阪府,大阪市福島区,福島４丁目２番５０号,,27,103,5530003,,,,,,,2025-10-17,1,,,,,サワダ,0
1262,5120103006794,新規,0,2025-10-17,2025-10-17,合同会社こふんカフェ,,合同会社,大阪府,堺市堺区,向陵西町４丁１１－１５,,27,141,5900026,,,,,,,2025-10-17,1,,,,,コフンカフェ,0
1264,5120105010068,新規,0,2025-10-17,2025-10-17,特定非営利活動法人きらきらひかるこどもプロジェクト,,その他の設立登記法人,大阪府,貝塚市,中町一丁目５番,,27,208,5970003,,,,,,,2025-10-17,1,,,,,キラキラヒカルコドモプロジェクト,0
1270,5130001080841,新規,0,2025-10-17,2025-10-17,ＭＩＹＡＫＯ株式会社,,株式会社,京都府,京都市北区,上賀茂狭間町３７番地の１,,26,101,6038042,,,,,,,2025-10-17,1,,,,,ミヤコ,0
1274,5140003022717,新規,0,2025-10-17,2025-10-17,合同会社ｈｔｒ,,合同会社,兵庫県,川辺郡猪名川町,伏見台２丁目１番地４３,,28,301,6660262,,,,,,,2025-10-17,1,,,,,エイチティアール,0
1275,5140003022725,新規,0,2025-10-17,2025-10-17,ＧＲＥＥＮ　ＪＡＰＡＮ合同会社,,合同会社,兵庫県,小野市,粟生町１５０６番地の１１,,28,218,6751358,,,,,,,2025-10-17,1,,,,,グリーンジャパン,0
1279,5160003003632,新規,0,2025-10-17,2025-10-17,ＶｏＬｉ合同会社,,合同会社,滋賀県,甲賀市,信楽町中野２５番地,,25,209,5291835,,,,,,,2025-10-17,1,,,,,ヴォリ,0
1293,5220001026975,新規,0,2025-10-17,2025-10-17,株式会社建築板金道下,,株式会社,石川県,鳳珠郡能登町,字藤ノ瀬１字１１４番地,,17,463,9270451,,,,,,,2025-10-17,1,,,,,ケンチクバンキンミチシタ,0
1308,5290001111738,新規,0,2025-10-17,2025-10-17,株式会社ＭＡＲＩＳ　ＮＩＧＲＩ,,株式会社,福岡県,福岡市南区,高宮４丁目１３番１５号,,40,134,8150083,,,,,,,2025-10-17,1,,,,,マリスニグリ,0
1309,5290001111770,新規,0,2025-10-17,2025-10-17,浦設備株式会社,,株式会社,福岡県,柳川市,立石５３５番地１,,40,207,8320003,,,,,,,2025-10-17,1,,,,,ウラセツビ,0
1313,5290003017611,新規,0,2025-10-17,2025-10-17,ＨＸＭ合同会社,,合同会社,福岡県,うきは市,浮羽町浮羽３２０番地１,,40,225,8391402,,,,,,,2025-10-17,1,,,,,エイチエックスエム,0
1316,5300001014385,新規,0,2025-10-17,2025-10-17,ＭｉｚｕｔａＨｏｌｄｉｎｇｓ株式会社,,株式会社,佐賀県,伊万里市,立花町９３９番地２,,41,205,8480027,,,,,,,2025-10-17,1,,,,,ミズタホールディングス,0
1320,5330001033647,新規,0,2025-10-17,2025-10-17,株式会社ＣｏｏｌＡｒｔＪａｐａｎ,,株式会社,熊本県,熊本市東区,江津１丁目３０－１６,,43,102,8620942,,,,,,,2025-10-17,1,,,,,クールアートジャパン,0
1321,5330003011246,新規,0,2025-10-17,2025-10-17,合同会社ＭＩＹＡＫＯ‐Ｐ,,合同会社,熊本県,熊本市南区,田井島１丁目１１番３４－６０１号インフィニティ田迎,,43,104,8620965,,,,,,,2025-10-17,1,,,,,ミヤコピー,0
1326,5360001035913,新規,0,2025-10-17,2025-10-17,株式会社ＳＡＩＺＥＮ沖縄,,株式会社,沖縄県,うるま市,石川伊波１０２７番地１,,47,213,9041115,,,,,,,2025-10-17,1,,,,,サイゼンオキナワ,0
1329,5360003015327,新規,0,2025-10-17,2025-10-17,合同会社やきな,,合同会社,沖縄県,石垣市,字新川８３６番地９,,47,207,9070024,,,,,,,2025-10-17,1,,,,,ヤキナ,0
1330,5370001053154,新規,0,2025-10-17,2025-10-17,美・Ｌｉｅｌｌａ株式会社,,株式会社,宮城県,大崎市,古川北稲葉２丁目３番４８号,,04,215,9896145,,,,,,,2025-10-17,1,,,,,ビリエラ,0
1349,5500001026583,新規,0,2025-10-17,2025-10-17,株式会社アイビーホーム,,株式会社,愛媛県,松山市,朝生田町７丁目２番２２号大興ビル２０１号,,38,201,7900952,,,,,,,2025-10-17,1,,,,,アイビーホーム,0
1351,5700150132542,新規,0,2025-10-17,2025-10-17,ｓｈｅｎｚｈｅｎｓｈｉｌｅｃｈｅｎｇｂａｏｚｈｕｏｍａｏｙｉｙｏｕｘｉａｎｇｏｎｇｓｉ,,外国会社等,,,,,,,,Ｄａｌａｎｇ　Ｓｔｒｅｅｔ，Ｌａｎｇｋｏｕ　Ｃｏｍｍｕｎｉｔｙ，Ｒｏｏｍ　３０１，３ｒｄ　Ｆｌｏｏｒ，Ｂｕｉｌｄｉｎｇ　４，Ｎｏ．４５，Ｈｕａｓｈｅｎｇ　Ｒｏａｄ，Ｓｈｅｎｚｈｅｎ，Ｌｏｎｇｈｕａ　Ｄｉｓｔｒｉｃｔ,,,,,,2025-10-17,1,,,,,シンセンシレチェンバオズオマオイユウゲンコウシ,0
1360,6010001258993,新規,0,2025-10-17,2025-10-17,ＭＩＫＡＴＡ株式会社,,株式会社,東京都,中央区,銀座１丁目１２番４号Ｎ＆Ｅ＿ＢＬＤ．６Ｆ,,13,102,1040061,,,,,,,2025-10-17,1,,,,,ミカタ,0
1361,6010001259505,新規,0,2025-10-17,2025-10-17,ＳｈｉＥｎ株式会社,,株式会社,東京都,中央区,東日本橋２丁目２８番４号日本橋ＣＥＴビル２階,,13,102,1030004,,,,,,,2025-10-17,1,,,,,シエン,0
1362,6010001259538,新規,0,2025-10-17,2025-10-17,株式会社Ｍ＆Ａ介護ジャパン,,株式会社,東京都,千代田区,九段北１丁目１３番５号,,13,101,1020073,,,,,,,2025-10-17,1,,,,,エムアンドエーカイゴジャパン,0
1367,6010401193709,新規,0,2025-10-17,2025-10-17,株式会社ＭＭｓｕｎ,,株式会社,東京都,港区,元赤坂１丁目２番７号赤坂Ｋタワー４階,,13,103,1070051,,,,,,,2025-10-17,1,,,,,エムエムサン,0
1369,6010403036312,新規,0,2025-10-17,2025-10-17,合同会社Ｎｅｘｐｏｒｔ,,合同会社,東京都,港区,三田３丁目４番３号ＲＩＰＬ９,,13,103,1080073,,,,,,,2025-10-17,1,,,,,ネクスポート,0
1373,6010603011866,新規,0,2025-10-17,2025-10-17,Ｓｕｍｉｘ　Ｊａｐａｎ合同会社,,合同会社,東京都,江東区,豊洲６丁目２番３１－１９１７号,,13,108,1350061,,,,,,,2025-10-17,1,,,,,スミックスジャパン,0
1376,6010803005577,新規,0,2025-10-17,2025-10-17,Ｇｒｏｖａｎｃｅ合同会社,,合同会社,東京都,大田区,大森北５丁目１６番１－５１２号,,13,111,1430016,,,,,,,2025-10-17,1,,,,,グロヴァンス,0
1406,6012401043678,新規,0,2025-10-17,2025-10-17,株式会社Ｎｕｌｌｏｎ,,株式会社,東京都,武蔵野市,吉祥寺本町２丁目１０―６　Ａ０３,,13,203,1800004,,,,,,,2025-10-17,1,,,,,ナロン,0
1409,6012403007400,新規,0,2025-10-17,2025-10-17,ＫＵＳＫ　ＳＴＵＤＩＯ合同会社,,合同会社,東京都,三鷹市,井の頭５丁目１２－５,,13,204,1810001,,,,,,,2025-10-17,1,,,,,クスクスタジオ,0
1415,6020001165256,新規,0,2025-10-17,2025-10-17,吟和株式会社,,株式会社,神奈川県,横浜市中区,不老町１丁目２－７,,14,104,2310032,,,,,,,2025-10-17,1,,,,,ギンワ,0
1416,6020001165289,新規,0,2025-10-17,2025-10-17,株式会社志賀施工,,株式会社,神奈川県,横浜市泉区,中田西１丁目４番３０－３０１号,,14,116,2450015,,,,,,,2025-10-17,1,,,,,シガセコウ,0
1417,6020001165322,新規,0,2025-10-17,2025-10-17,株式会社かながわ総合事務所,,株式会社,神奈川県,横浜市神奈川区,金港町５番地１４クアドリフォリオ８階,,14,102,2210056,,,,,,,2025-10-17,1,,,,,カナガワソウゴウジムショ,0
1421,6021001086566,新規,0,2025-10-17,2025-10-17,鈴木エクスプレス株式会社,,株式会社,神奈川県,相模原市緑区,相原６丁目２４－５,,14,151,2520141,,,,,,,2025-10-17,1,,,,,スズキエクスプレス,0
1422,6021001086582,新規,0,2025-10-17,2025-10-17,門吉商事株式会社,,株式会社,神奈川県,秦野市,南矢名２２２３番地の４東海ビル１０８Ａ,,14,211,2570003,,,,,,,2025-10-17,1,,,,,モンキチショウジ,0
1423,6021001086590,新規,0,2025-10-17,2025-10-17,アマートアント株式会社,,株式会社,神奈川県,厚木市,寿町２丁目２－１０パークサイドビル５０１室,,14,212,2430003,,,,,,,2025-10-17,1,,,,,アマートアント,0
1442,6030001169231,新規,0,2025-10-17,2025-10-17,株式会社遥美建,,株式会社,埼玉県,春日部市,栄町１丁目４４７番地８ジュネシオンサカエ２０２,,11,214,3440058,,,,,,,2025-10-17,1,,,,,ハルビケン,0
1443,6030001169248,新規,0,2025-10-17,2025-10-17,株式会社エルデン,,株式会社,埼玉県,志木市,柏町５丁目１３番３３号クラージュ１０３号,,11,228,3530007,,,,,,,2025-10-17,1,,,,,エルデン,0
1446,6030003027841,新規,0,2025-10-17,2025-10-17,合同会社ＳｉｎＴｅｘｔ,,合同会社,埼玉県,川越市,大字下広谷９０１番地４９,,11,201,3500804,,,,,,,2025-10-17,1,,,,,シンテキスト,0
1452,6040001140744,新規,0,2025-10-17,2025-10-17,株式会社リノキノ・スタッフィング,,株式会社,千葉県,松戸市,小金４４３番地北小金ビル２０２,,12,207,2700014,,,,,,,2025-10-17,1,,,,,リノキノスタッフィング,0
1453,6040001140983,新規,0,2025-10-17,2025-10-17,株式会社英学館,,株式会社,千葉県,松戸市,中和倉１６６－１０,,12,207,2700025,,,,,,,2025-10-17,1,,,,,エイガクカン,0
1457,6040003028780,新規,0,2025-10-17,2025-10-17,Ｍｉｄｏ’ｓ　Ｄｏｎｕｔｓ合同会社,,合同会社,千葉県,千葉市美浜区,中瀬１丁目６番地,,12,106,2610023,,,,,,,2025-10-17,1,,,,,ミドズドーナツ,0
1458,6050001057467,新規,0,2025-10-17,2025-10-17,ＳＨＡＭＳ株式会社,,株式会社,茨城県,古河市,大和田１２６０番地８,,08,204,3060111,,,,,,,2025-10-17,1,,,,,シャムス,0
1460,6050005013714,新規,0,2025-10-17,2025-10-17,社会保険労務士法人Ｂｌｏｏｍ　Ｏｆｆｉｃｅ,,その他の設立登記法人,茨城県,結城市,大字結城７２３－１,,08,207,3070001,,,,,,,2025-10-17,1,,,,,ブルームオフィス,0
1462,6060003005811,新規,0,2025-10-17,2025-10-17,ＳＳ　ＩＮＴＥＲＮＡＴＩＯＮＡＬ合同会社,,合同会社,栃木県,栃木市,岩舟町新里１１４５番地３,,09,203,3294316,,,,,,,2025-10-17,1,,,,,エスエスインターナショナル,0
1465,6070001043457,新規,0,2025-10-17,2025-10-17,株式会社ＦＡＮＴＡＳＩＳＴＡ,,株式会社,群馬県,館林市,本町１丁目１０番１０号－２Ｆ,,10,207,3740024,,,,,,,2025-10-17,1,,,,,ファンタジスタ,0
1466,6070001043473,新規,0,2025-10-17,2025-10-17,斎藤工商株式会社,,株式会社,群馬県,多野郡神流町,大字万場１０５６,,10,367,3701504,,,,,,,2025-10-17,1,,,,,サイトウコウショウ,0
1469,6080401028222,新規,0,2025-10-17,2025-10-17,Ａｐｐｌｅ　Ｗｉｎｄ株式会社,,株式会社,静岡県,浜松市中央区,花川町１１９１番地,,22,138,4338109,,,,,,,2025-10-17,1,,,,,アップルウインド,0
1471,6090005007745,新規,0,2025-10-17,2025-10-17,一般社団法人ともに生きる研究所,,その他の設立登記法人,山梨県,北杜市,大泉町西井出８２４０番地５５９３レーゲンボーグ,,19,209,4091501,,,,,,,2025-10-17,1,,,,,トモニイキルケンキュウショ,0
1489,6120001280904,新規,0,2025-10-17,2025-10-17,リトライフホーム株式会社,,株式会社,大阪府,大阪市福島区,吉野３丁目２７番１４号東亜ビル６０２号,,27,103,5530006,,,,,,,2025-10-17,1,,,,,リトライフホーム,0
1490,6120001280945,新規,0,2025-10-17,2025-10-17,株式会社宏普瑞,,株式会社,大阪府,大阪市東成区,大今里３丁目１５番６号ＩｍａｚａｔｏＴｏｗｅｒ３１０Ａ,,27,115,5370012,,,,,,,2025-10-17,1,,,,,コウフスイ,0
1491,6120001280961,新規,0,2025-10-17,2025-10-17,東昇株式会社,,株式会社,大阪府,大阪市浪速区,大国１丁目９番１５－５０１号,,27,111,5560014,,,,,,,2025-10-17,1,,,,,トウショウ,0
1492,6120001280978,新規,0,2025-10-17,2025-10-17,株式会社Ｓｔａｒｒｙ　Ｎａｉｌ,,株式会社,大阪府,大阪市阿倍野区,阿倍野筋３丁目１０－１あべのベルタ１Ｆ９号,,27,119,5450052,,,,,,,2025-10-17,1,,,,,スターリーネイル,0
1493,6120001280986,新規,0,2025-10-17,2025-10-17,ＯＭＯ不動産株式会社,,株式会社,大阪府,大阪市中央区,南船場４丁目５番４号,,27,128,5420081,,,,,,,2025-10-17,1,,,,,オーエムオーフドウサン,0
1494,6120001281002,新規,0,2025-10-17,2025-10-17,株式会社ＷＥ　ＳＨＡＲＥ,,株式会社,大阪府,大阪市北区,天満２丁目１番６号８Ｆ,,27,127,5300043,,,,,,,2025-10-17,1,,,,,ウィシェア,0
1495,6120001281019,新規,0,2025-10-17,2025-10-17,株式会社和旅,,株式会社,大阪府,大阪市北区,曾根崎２丁目１番１２号,,27,127,5300057,,,,,,,2025-10-17,1,,,,,ワタビ,0
1496,6120001281051,新規,0,2025-10-17,2025-10-17,Ａｒａｂｉａ　Ｆｌｅｘ株式会社,,株式会社,大阪府,大阪市港区,築港２丁目２番２０号,,27,107,5520021,,,,,,,2025-10-17,1,,,,,アラビアフレックス,0
1497,6120001281068,新規,0,2025-10-17,2025-10-17,株式会社ＧｒａｎＳｈｉｐ,,株式会社,大阪府,大阪市中央区,南久宝寺町４丁目１－２御堂筋ダイビル４Ｆ,,27,128,5410058,,,,,,,2025-10-17,1,,,,,グランシップ,0
1498,6120001281282,新規,0,2025-10-17,2025-10-17,達凱株式会社,,株式会社,大阪府,大阪市都島区,都島北通２丁目９番５号２階,,27,102,5340014,,,,,,,2025-10-17,1,,,,,タツガイ,0
1504,6120101072664,新規,0,2025-10-17,2025-10-17,株式会社ＢＩＧＢＯＮＤ,,株式会社,大阪府,大阪狭山市,狭山２丁目９７４－８－１０１６,,27,231,5890005,,,,,,,2025-10-17,1,,,,,ビッグボンド,0
1505,6120903005904,新規,0,2025-10-17,2025-10-17,合同会社雅,,合同会社,大阪府,高槻市,如是町１１番２号,,27,207,5690827,,,,,,,2025-10-17,1,,,,,,0
1506,6122001039751,新規,0,2025-10-17,2025-10-17,株式会社Ｒｙｕ設計工房,,株式会社,大阪府,東大阪市,東山町４番１２号石切ビル２Ｆ,,27,227,5798027,,,,,,,2025-10-17,1,,,,,リュウセッケイコウボウ,0
1507,6122001039768,新規,0,2025-10-17,2025-10-17,株式会社Ｓｏｍｅｔｈｉｎｇ　Ｈｅａｒｔ,,株式会社,大阪府,八尾市,天王寺屋３丁目８４番地の２,,27,212,5810025,,,,,,,2025-10-17,1,,,,,サムシングハート,0
1510,6130001080790,新規,0,2025-10-17,2025-10-17,株式会社未来志創,,株式会社,京都府,宇治市,木幡北山畑３０番地１０１号,,26,204,6110002,,,,,,,2025-10-17,1,,,,,ミライシソウ,0
1515,6140001140486,新規,0,2025-10-17,2025-10-17,ゼオンバイオソリューションズ株式会社,,株式会社,兵庫県,神戸市中央区,港島南町１丁目５番５号,,28,110,6500047,,,,,,,2025-10-17,1,,,,,ゼオンバイオソリューションズ,0
1519,6140005027663,新規,0,2025-10-17,2025-10-17,一般社団法人ＲｅａＲｉｚｅ　Ｎｅｔｗｏｒｋ,,その他の設立登記法人,兵庫県,尼崎市,杭瀬寺島１丁目４番３９号リンクスタイルＶ１０３,,28,202,6600813,,,,,,,2025-10-17,1,,,,,リアライズネットワーク,0
1522,6160003003631,新規,0,2025-10-17,2025-10-17,ビジテク合同会社,,合同会社,滋賀県,大津市,一里山６丁目８番３号,,25,201,5202153,,,,,,,2025-10-17,1,,,,,ビジテク,0
1526,6180001168854,新規,0,2025-10-17,2025-10-17,株式会社ブライトパス・コンサルティング,,株式会社,愛知県,名古屋市中区,錦２丁目５－５八木兵伝馬町ビル３階Ｓ０２号室,,23,106,4600003,,,,,,,2025-10-17,1,,,,,ブライトパスコンサルティング,0
1527,6180001169167,新規,0,2025-10-17,2025-10-17,株式会社ＡＭ　ＨＬＤＧＳ,,株式会社,愛知県,名古屋市港区,いろは町２丁目４１番地,,23,111,4550052,,,,,,,2025-10-17,1,,,,,エーエムホールディングス,0
1531,6180003029146,新規,0,2025-10-17,2025-10-17,合同会社ｂｅａｔｉｆｙ,,合同会社,愛知県,東海市,富木島町南島５－２,,23,222,4760011,,,,,,,2025-10-17,1,,,,,ビーティファイ,0
1539,6200001044350,新規,0,2025-10-17,2025-10-17,株式会社なかむら不動産,,株式会社,岐阜県,多治見市,滝呂町１２丁目１５９番地１０,,21,204,5070813,,,,,,,2025-10-17,1,,,,,ナカムラフドウサン,0
1545,6210001020359,新規,0,2025-10-17,2025-10-17,株式会社ブレイクアート,,株式会社,福井県,福井市,みのり３丁目２７番３号,,18,201,9188005,,,,,,,2025-10-17,1,,,,,ブレイクアート,0
1549,6230003002519,新規,0,2025-10-17,2025-10-17,合同会社ＨＯＰＥ　ＷＯＲＬＤ,,合同会社,富山県,魚津市,吉島６５４番地５,,16,204,9370041,,,,,,,2025-10-17,1,,,,,ホープワールド,0
1554,6240001065640,新規,0,2025-10-17,2025-10-17,株式会社ミライサポート,,株式会社,広島県,東広島市,西条町寺家７９０２番地２,,34,212,7390041,,,,,,,2025-10-17,1,,,,,ミライサポート,0
1571,6290001111670,新規,0,2025-10-17,2025-10-17,株式会社Ｙｏｕ＆Ｍｅ,,株式会社,福岡県,福岡市中央区,天神２丁目２番１２号Ｔ＆Ｊビルディング７Ｆ,,40,133,8100001,,,,,,,2025-10-17,1,,,,,ユーアンドミー,0
1572,6290001111729,新規,0,2025-10-17,2025-10-17,Ｒｉｃｅ株式会社,,株式会社,福岡県,糟屋郡志免町,志免２丁目２３番１７号,,40,343,8112202,,,,,,,2025-10-17,1,,,,,ライス,0
1573,6290001111737,新規,0,2025-10-17,2025-10-17,株式会社テクノ未来,,株式会社,福岡県,福岡市博多区,博多駅東３丁目１１番１５号,,40,132,8120013,,,,,,,2025-10-17,1,,,,,テクノミライ,0
1574,6290001111753,新規,0,2025-10-17,2025-10-17,神代コンサルティング株式会社,,株式会社,福岡県,福岡市中央区,天神１丁目１５番５号天神明治通りビル８階,,40,133,8100001,,,,,,,2025-10-17,1,,,,,カミシロコンサルティング,0
1579,6290003017528,新規,0,2025-10-17,2025-10-17,合同会社ＫＯＮＯＭＩ,,合同会社,福岡県,飯塚市,勢田８９４番地１,,40,205,8201111,,,,,,,2025-10-17,1,,,,,コノミ,0
1580,6290003017593,新規,0,2025-10-17,2025-10-17,合同会社ｍａｈａｌｏ,,合同会社,福岡県,福岡市東区,松崎４丁目６番１９－１０１号,,40,131,8130035,,,,,,,2025-10-17,1,,,,,マハロ,0
1582,6300003002362,新規,0,2025-10-17,2025-10-17,幻映合同会社,,合同会社,佐賀県,嬉野市,嬉野町大字岩屋川内甲１００８番地５,,41,209,8430304,,,,,,,2025-10-17,1,,,,,ゲンエイ,0
1584,6330001033670,新規,0,2025-10-17,2025-10-17,株式会社ＧＴコーポレーション,,株式会社,熊本県,熊本市東区,錦ケ丘１２番１０号－１０２,,43,102,8620912,,,,,,,2025-10-17,1,,,,,ジーティーコーポレーション,0
1587,6350001019759,新規,0,2025-10-17,2025-10-17,株式会社栄松漁港振興会,,株式会社,宮崎県,日南市,南郷町中村乙７０５１番地６１１,,45,204,8893204,,,,,,,2025-10-17,1,,,,,サカエマツギョコウシンコウカイ,0
1590,6360001035920,新規,0,2025-10-17,2025-10-17,株式会社嘉手苅組,,株式会社,沖縄県,那覇市,字仲井真４００番地４,,47,201,9020074,,,,,,,2025-10-17,1,,,,,カデカルグミ,0
1605,6380003006166,新規,0,2025-10-17,2025-10-17,合同会社ｋｍｇ　Ｃｏｍｐａｎｙ,,合同会社,福島県,いわき市,平北白土字宮前２６番地の５,,07,204,9708024,,,,,,,2025-10-17,1,,,,,ケーエムジーカンパニー,0
1609,6400003003540,新規,0,2025-10-17,2025-10-17,合同会社エナジーサポート遠野,,合同会社,岩手県,遠野市,土淵町土淵４地割２１－６,,03,208,0280555,,,,,,,2025-10-17,1,,,,,エナジーサポートトオノ,0
1628,6490003002055,新規,0,2025-10-17,2025-10-17,合同会社ＩＴＯ企業,,合同会社,高知県,高知市,朝倉西町２丁目８番１４号,,39,201,7808077,,,,,,,2025-10-17,1,,,,,アイティーオーキギョウ,0
1632,6700150132541,新規,0,2025-10-17,2025-10-17,Ｌｉｎｋｔｒｅｅ　Ｐｔｙ　Ｌｔｄ,,外国会社等,,,,,,,,１－９　Ｓａｃｋｖｉｌｌｅ　Ｓｔｒｅｅｔ，Ｃｏｌｌｉｎｇｗｏｏｄ，ＶＩＣ，３０６６，ＡＵ,,,,,,2025-10-17,1,,,,,リンクツリー,0
1638,7010001259090,新規,0,2025-10-17,2025-10-17,株式会社白音工業,,株式会社,東京都,千代田区,神田須田町１丁目７番８号ＶＯＲＴ秋葉原ＩＶ２Ｆ,00141158,13,101,1010041,,,,,,,2025-10-17,1,,,,,シラネコウギョウ,0
1639,7010001259371,新規,0,2025-10-17,2025-10-17,株式会社ＥＡＲＵＸ,,株式会社,東京都,中央区,日本橋小網町６－１山万ビルＢ１,,13,102,1030016,,,,,,,2025-10-17,1,,,,,エアラクス,0
1640,7010001259487,新規,0,2025-10-17,2025-10-17,ＭＣＣ　Ｌｏｇｉｓｔｉｃｓ株式会社,,株式会社,東京都,文京区,小石川１丁目４番１号,,13,105,1120002,,,,,,,2025-10-17,1,,,,,エムシーシーロジスティクス,0
1641,7010001259495,新規,0,2025-10-17,2025-10-17,株式会社Ａｒｃｈｉ　Ｃｏｎｓｕｌｔａｎｔ　Ｌａｂ,,株式会社,東京都,千代田区,神田須田町１丁目７番８号ＶＯＲＴ秋葉原ＩＶ２Ｆ,00141143,13,101,1010041,,,,,,,2025-10-17,1,,,,,アーキコンサルタントラボ,0
1642,7010001259537,新規,0,2025-10-17,2025-10-17,株式会社Ｍ＆Ａホテルジャパン,,株式会社,東京都,千代田区,九段北１丁目１３番５号,,13,101,1020073,,,,,,,2025-10-17,1,,,,,エムアンドエーホテルジャパン,0
1647,7010003048995,新規,0,2025-10-17,2025-10-17,ペンギンサイト合同会社,,合同会社,東京都,千代田区,神田須田町１丁目７番８号ＶＯＲＴ秋葉原ＩＶ２Ｆ,00141142,13,101,1010041,,,,,,,2025-10-17,1,,,,,ペンギンサイト,0
1659,7010401193765,新規,0,2025-10-17,2025-10-17,株式会社Ｉｓｈｉｉ・Ｍ,,株式会社,東京都,港区,六本木６丁目１０番１号１６階,,13,103,1060032,,,,,,,2025-10-17,1,,,,,イシイエム,0
1661,7010403036294,新規,0,2025-10-17,2025-10-17,ＨＷインベスト合同会社,,合同会社,東京都,港区,芝４丁目１０番１号,,13,103,1080014,,,,,,,2025-10-17,1,,,,,エイチダブリューインベスト,0
1662,7010403036311,新規,0,2025-10-17,2025-10-17,合同会社Ｙｉｈｏｏ,,合同会社,東京都,港区,三田３丁目４番３号ＲＩＰＬ９,,13,103,1080073,,,,,,,2025-10-17,1,,,,,イーハオ,0
1672,7010703007961,新規,0,2025-10-17,2025-10-17,合同会社心家柊,,合同会社,東京都,品川区,西大井５丁目１５番１４号,,13,109,1400015,,,,,,,2025-10-17,1,,,,,ココロヤシュウ,0
1678,7010901058229,新規,0,2025-10-17,2025-10-17,ネイビークリエイティブ株式会社,,株式会社,東京都,世田谷区,下馬１丁目２９番１２号,,13,112,1540002,,,,,,,2025-10-17,1,,,,,ネイビークリエイティブ,0
1680,7010903010344,新規,0,2025-10-17,2025-10-17,合同会社ＴＲＩ‐ＧＲＯＷＴＨ,,合同会社,東京都,世田谷区,中町１丁目１１番１３号,,13,112,1580091,,,,,,,2025-10-17,1,,,,,トライグロース,0
1686,7011003022726,新規,0,2025-10-17,2025-10-17,合同会社めきしこ,,合同会社,東京都,渋谷区,猿楽町１２番３５号,,13,113,1500033,,,,,,,2025-10-17,1,,,,,メキシコ,0
1692,7011501032714,新規,0,2025-10-17,2025-10-17,ＫＡＩＧＡＮ　ＢＬＵＥ株式会社,,株式会社,東京都,荒川区,東尾久２丁目２番９号三祥ビル２４１,,13,118,1160012,,,,,,,2025-10-17,1,,,,,カイガンブルー,0
1693,7011603004875,新規,0,2025-10-17,2025-10-17,合同会社パワード,,合同会社,東京都,練馬区,石神井台４丁目５－２－８０３,,13,120,1770045,,,,,,,2025-10-17,1,,,,,パワード,0
1701,7013301055069,新規,0,2025-10-17,2025-10-17,株式会社ＯＮＥ　ＲＩＳＥ,,株式会社,東京都,豊島区,北大塚３丁目３２番７号,,13,116,1700004,,,,,,,2025-10-17,1,,,,,ワンライズ,0
1702,7013305003775,新規,0,2025-10-17,2025-10-17,一般社団法人全国生活再生相談窓口,,その他の設立登記法人,東京都,豊島区,池袋２丁目１７－８－４０８,,13,116,1710014,,,,,,,2025-10-17,1,,,,,ゼンコクセイカツサイセイソウダンマドグチ,0
1707,7020001165206,新規,0,2025-10-17,2025-10-17,ＪＯＰＰＬＥ株式会社,,株式会社,神奈川県,川崎市中原区,下小田中１丁目２４番１１－１０４号,,14,133,2110041,,,,,,,2025-10-17,1,,,,,ジョップル,0
1708,7020001165321,新規,0,2025-10-17,2025-10-17,株式会社タマコーポレーション横浜,,株式会社,神奈川県,横浜市神奈川区,菅田町２３０８番地４,,14,102,2210864,,,,,,,2025-10-17,1,,,,,タマコーポレーションヨコハマ,0
1709,7020001165370,新規,0,2025-10-17,2025-10-17,海月設備株式会社,,株式会社,神奈川県,横浜市瀬谷区,南瀬谷１丁目４番地８,,14,114,2460034,,,,,,,2025-10-17,1,,,,,ミヅキセツビ,0
1710,7020001165379,新規,0,2025-10-17,2025-10-17,株式会社ジラソーレ,,株式会社,神奈川県,横浜市西区,北幸２丁目１０番４８号むつみビル３階,,14,103,2200004,,,,,,,2025-10-17,1,,,,,ジラソーレ,0
1711,7020003029482,新規,0,2025-10-17,2025-10-17,ＬＡＸＭＩ合同会社,,合同会社,神奈川県,川崎市川崎区,本町２丁目１０番１１号,,14,131,2100001,,,,,,,2025-10-17,1,,,,,ラクシミ,0
1712,7020003029565,新規,0,2025-10-17,2025-10-17,合同会社ひげふじ,,合同会社,神奈川県,川崎市麻生区,片平１７９０番地４,,14,137,2150023,,,,,,,2025-10-17,1,,,,,ヒゲフジ,0
1713,7020005017015,新規,0,2025-10-17,2025-10-17,一般社団法人Ｓ．Ｔ．Ｇ．ＤＩＶＥ,,その他の設立登記法人,神奈川県,横浜市港南区,港南６丁目３２番７－２号,,14,111,2330003,,,,,,,2025-10-17,1,,,,,エスティジーダイブ,0
1719,7021001086581,新規,0,2025-10-17,2025-10-17,魔鑄株式会社,,株式会社,神奈川県,秦野市,南矢名２２２３番地の４東海ビル１０５Ａ,,14,211,2570003,,,,,,,2025-10-17,1,,,,,マチュウ,0
1720,7021001086598,新規,0,2025-10-17,2025-10-17,クオリタスキャリア株式会社,,株式会社,神奈川県,平塚市,宝町３番１号平塚ＭＮビル２階２０７号室,,14,203,2540034,,,,,,,2025-10-17,1,,,,,クオリタスキャリア,0
1729,7030001169230,新規,0,2025-10-17,2025-10-17,株式会社アドバンス,,株式会社,埼玉県,さいたま市緑区,大字大崎２０３０－５グリーンパレスＡ棟１０２,,11,109,3360974,,,,,,,2025-10-17,1,,,,,アドバンス,0
1730,7030001169239,新規,0,2025-10-17,2025-10-17,株式会社フォーワン,,株式会社,埼玉県,川口市,芝中田２丁目４７番５号エテルノ３０２,,11,203,3330847,,,,,,,2025-10-17,1,,,,,フォーワン,0
1731,7030001169263,新規,0,2025-10-17,2025-10-17,Ｐａｎｄａｖｅｒｓｅ株式会社,,株式会社,埼玉県,さいたま市中央区,大戸３丁目４－２,,11,105,3380012,,,,,,,2025-10-17,1,,,,,,0
1734,7030003027898,新規,0,2025-10-17,2025-10-17,Ｌｉ‐Ｆｏｒｔ合同会社,,合同会社,埼玉県,狭山市,柏原２５２０番地の２３９,,11,215,3501335,,,,,,,2025-10-17,1,,,,,ライフォート,0
1735,7030003027907,新規,0,2025-10-17,2025-10-17,ＰＲＩＮＣＥ合同会社,,合同会社,埼玉県,ふじみ野市,上福岡３丁目６番７号マンション秀王２０３,,11,245,3560004,,,,,,,2025-10-17,1,,,,,プリンス,0
1736,7030005022286,新規,0,2025-10-17,2025-10-17,一般社団法人イングルサイド,,その他の設立登記法人,埼玉県,三郷市,早稲田３丁目１９番地２号棟１０２号,,11,237,3410018,,,,,,,2025-10-17,1,,,,,イングルサイド,0
1740,7040001140909,新規,0,2025-10-17,2025-10-17,株式会社海老澤造園,,株式会社,千葉県,千葉市中央区,新宿２丁目３番２号８０１号,,12,101,2600021,,,,,,,2025-10-17,1,,,,,エビサワゾウエン,0
1741,7040001140925,新規,0,2025-10-17,2025-10-17,株式会社ＩＬＩＹＡ,,株式会社,千葉県,印旛郡酒々井町,酒々井１６０番地４,,12,322,2850927,,,,,,,2025-10-17,1,,,,,イリヤ,0
1742,7040001140966,新規,0,2025-10-17,2025-10-17,ＫＵＪＵＫＵＲＩ＆ＣＯ株式会社,,株式会社,千葉県,山武市,白幡１６０１－１１,,12,237,2891306,,,,,,,2025-10-17,1,,,,,クジュウクリアンドコー,0
1743,7040001140974,新規,0,2025-10-17,2025-10-17,株式会社鐵,,株式会社,千葉県,君津市,坂田３５５番地１１,,12,225,2991142,,,,,,,2025-10-17,1,,,,,クロガネ,0
1744,7040001140982,新規,0,2025-10-17,2025-10-17,ジャパンコーポレーション株式会社,,株式会社,千葉県,野田市,関宿台町６５４２－３,,12,208,2700202,,,,,,,2025-10-17,1,,,,,,0
1745,7040001141031,新規,0,2025-10-17,2025-10-17,株式会社春秋,,株式会社,千葉県,木更津市,矢那４３８５番地の１,,12,206,2920812,,,,,,,2025-10-17,1,,,,,ハルアキ,0
1750,7040003028854,新規,0,2025-10-17,2025-10-17,合同会社アメージングイメージズ,,合同会社,千葉県,市川市,南行徳３丁目１９－５ローズガーデン南行徳五番館２０４号室,,12,203,2720138,,,,,,,2025-10-17,1,,,,,アメージングイメージズ,0
1753,7050001057466,新規,0,2025-10-17,2025-10-17,株式会社ＡＸｅｌｅｒ,,株式会社,茨城県,つくば市,天久保３丁目１４番地１１ヴィレッジコスモ１０１,,08,220,3050005,,,,,,,2025-10-17,1,,,,,アクセラー,0
1754,7060001038688,新規,0,2025-10-17,2025-10-17,株式会社フジエール,,株式会社,栃木県,日光市,鬼怒川温泉大原７３１－１－６１０,,09,206,3212522,,,,,,,2025-10-17,1,,,,,フジエール,0
1757,7060005010387,新規,0,2025-10-17,2025-10-17,さくらコミュニティチャーチ,,その他の設立登記法人,栃木県,さくら市,櫻野２０３５－２７,,09,214,3291312,,,,,,,2025-10-17,1,,,,,サクラコミュニティチャーチ,0
1759,7070001043464,新規,0,2025-10-17,2025-10-17,株式会社福島屋,,株式会社,群馬県,伊勢崎市,境下武士２６９９,,10,204,3700126,,,,,,,2025-10-17,1,,,,,フクシマヤ,0
1760,7070001043472,新規,0,2025-10-17,2025-10-17,株式会社縁,,株式会社,群馬県,前橋市,下小出町２丁目２番地１０,,10,201,3710031,,,,,,,2025-10-17,1,,,,,エン,0
1762,7080001027219,新規,0,2025-10-17,2025-10-17,ＢＩＳＨＯホールディングス株式会社,,株式会社,静岡県,榛原郡吉田町,住吉５３０９番地の１,,22,424,4210301,,,,,,,2025-10-17,1,,,,,ビショウホールディングス,0
1767,7080103003448,新規,0,2025-10-17,2025-10-17,合同会社らくじゅ,,合同会社,静岡県,沼津市,足高２７６番地の９,,22,203,4100001,,,,,,,2025-10-17,1,,,,,ラクジュ,0
1776,7100003008437,新規,0,2025-10-17,2025-10-17,合同会社千之木,,合同会社,長野県,長野市,大字川合新田７２８番地,,20,201,3800913,,,,,,,2025-10-17,1,,,,,センノキ,0
1797,7120001280424,新規,0,2025-10-17,2025-10-17,栄興堂株式会社,,株式会社,大阪府,大阪市中央区,瓦町２丁目３番１４号,,27,128,5410048,,,,,,,2025-10-17,1,,,,,エイコウドウ,0
1798,7120001280853,新規,0,2025-10-17,2025-10-17,理学療法士が本気で考えてみた株式会社,,株式会社,大阪府,大阪市中央区,南本町３丁目４番４号３０３号室,,27,128,5410054,,,,,,,2025-10-17,1,,,,,リガクリョウホウシガホンキデカンガエテミタ,0
1799,7120001280928,新規,0,2025-10-17,2025-10-17,ＴＹＳテート株式会社,,株式会社,大阪府,枚方市,楠葉花園町１１番３－７０９号,,27,210,5731121,,,,,,,2025-10-17,1,,,,,ティーワイエステート,0
1800,7120001280936,新規,0,2025-10-17,2025-10-17,株式会社ホープチ,,株式会社,大阪府,枚方市,走谷２丁目７番１２－２０２号,,27,210,5730063,,,,,,,2025-10-17,1,,,,,ホープチ,0
1801,7120001280944,新規,0,2025-10-17,2025-10-17,羽波株式会社,,株式会社,大阪府,大阪市東住吉区,中野４丁目１番１６号リベラルオリエンテ中野４０７Ｂ,,27,121,5460012,,,,,,,2025-10-17,1,,,,,ウハ,0
1802,7120001280960,新規,0,2025-10-17,2025-10-17,株式会社Ｓｔｕｄｉｏ　Ｌｉｖｅｒａ,,株式会社,大阪府,大阪市北区,梅田１丁目２番２号大阪駅前第２ビル１２－１２,,27,127,5300001,,,,,,,2025-10-17,1,,,,,スタジオリヴェラ,0
1803,7120001281026,新規,0,2025-10-17,2025-10-17,峰海株式会社,,株式会社,大阪府,大阪市東住吉区,中野４丁目１番１６号サラオリエンテ中野８１１Ｂ,,27,121,5460012,,,,,,,2025-10-17,1,,,,,ホウカイ,0
1804,7120001281034,新規,0,2025-10-17,2025-10-17,筑鳥商事株式会社,,株式会社,大阪府,大阪市城東区,蒲生３丁目１５番１２号セザンヌ藤５０５Ｂ,,27,118,5360016,,,,,,,2025-10-17,1,,,,,チクチョウショウジ,0
1807,7120003030959,新規,0,2025-10-17,2025-10-17,ヒルシュホールセールジャパン合同会社,,合同会社,大阪府,大阪市阿倍野区,松崎町２丁目１番２８号近鉄松崎町ビル２階,,27,119,5450053,,,,,,,2025-10-17,1,,,,,ヒルシュホールセールジャパン,0
1808,7120003030967,新規,0,2025-10-17,2025-10-17,合同会社Ｏ‐ｆｉｔ,,合同会社,大阪府,大阪市平野区,加美東１丁目９－３０－４０９,,27,126,5470002,,,,,,,2025-10-17,1,,,,,オーフィット,0
1814,7122001039759,新規,0,2025-10-17,2025-10-17,株式会社Ｂ．ｉ．Ｃｏｒｐ．,,株式会社,大阪府,八尾市,南太子堂１丁目３番３５号,,27,212,5810056,,,,,,,2025-10-17,1,,,,,ビーアイコーポレーション,0
1824,7130001080807,新規,0,2025-10-17,2025-10-17,京都バイオメカニクス株式会社,,株式会社,京都府,京都市下京区,七条通油小路東入大黒町２２７番地第２キョートビル４０２,,26,106,6008223,,,,,,,2025-10-17,1,,,,,キョウトバイオメカニクス,0
1826,7130003010836,新規,0,2025-10-17,2025-10-17,合同会社フレフレ,,合同会社,京都府,京都市下京区,小稲荷町８５－２Ｇｒａｎｄ－Ｋ京都駅前ビル２０１,,26,106,6008208,,,,,,,2025-10-17,1,,,,,フレフレ,0
1830,7140001140403,新規,0,2025-10-17,2025-10-17,トワエール株式会社,,株式会社,兵庫県,神戸市東灘区,御影郡家１丁目１６番１３号,,28,101,6580048,,,,,,,2025-10-17,1,,,,,トワエール,0
1831,7140001140411,新規,0,2025-10-17,2025-10-17,ＴＳＬＪＡＰＡＮ株式会社,,株式会社,兵庫県,神戸市中央区,熊内橋通４丁目３番１３号,,28,110,6510055,,,,,,,2025-10-17,1,,,,,ティーエスエルジャパン,0
1832,7140003022756,新規,0,2025-10-17,2025-10-17,合同会社Ａ‐Ｌａｂ,,合同会社,兵庫県,神戸市長田区,神楽町３丁目４－２５,,28,106,6530836,,,,,,,2025-10-17,1,,,,,エーラボ,0
1835,7160001027111,新規,0,2025-10-17,2025-10-17,株式会社ＬＯＧＩＶＡＬ,,株式会社,滋賀県,長浜市,神照町１３７番地ソル・レヴェンテウーノ２０４号室,,25,203,5260015,,,,,,,2025-10-17,1,,,,,,0
1836,7160001027152,新規,0,2025-10-17,2025-10-17,ＳＢＭ株式会社,,株式会社,滋賀県,大津市,朝日が丘１丁目２４－１６－６０７号,,25,201,5200052,,,,,,,2025-10-17,1,,,,,エスビーエム,0
1838,7170001018836,新規,0,2025-10-17,2025-10-17,青華株式会社,,株式会社,和歌山県,和歌山市,狐島３８９番地２９ＭＹビル３階３Ｆ号室,,30,201,6408412,,,,,,,2025-10-17,1,,,,,セイカ,0
1860,7200003007107,新規,0,2025-10-17,2025-10-17,合同会社ゲーム蔵,,合同会社,岐阜県,高山市,森下町２丁目２４０番地９,,21,203,5060823,,,,,,,2025-10-17,1,,,,,ゲームクラ,0
1862,7220003004143,新規,0,2025-10-17,2025-10-17,合同会社ＳＡＲＡ,,合同会社,石川県,野々市市,横宮町１３番２２号,,17,212,9218817,,,,,,,2025-10-17,1,,,,,サラ,0
1870,7290001111703,新規,0,2025-10-17,2025-10-17,株式会社アレイン,,株式会社,福岡県,福岡市博多区,空港前５丁目１０番１号,,40,132,8120002,,,,,,,2025-10-17,1,,,,,アレイン,0
1872,7310001019828,新規,0,2025-10-17,2025-10-17,株式会社Ｓ．Ａ．Ｐ．,,株式会社,長崎県,佐世保市,重尾町９６６番地２２,,42,202,8593224,,,,,,,2025-10-17,1,,,,,エスエーピー,0
1876,7330001033678,新規,0,2025-10-17,2025-10-17,ＨＨ　Ｉｎｖｅｓｔｍｅｎｔ　Ｊａｐａｎ株式会社,,株式会社,熊本県,菊池郡大津町,大字室１６７６番地１８,,43,403,8691235,,,,,,,2025-10-17,1,,,,,エイチエイチインベストメントジャパン,0
1894,7380001035645,新規,0,2025-10-17,2025-10-17,株式会社ｈａｂｉｂｉ．,,株式会社,福島県,郡山市,大槻町字下町８２番地,,07,203,9630201,,,,,,,2025-10-17,1,,,,,ハビビ,0
1895,7380001035653,新規,0,2025-10-17,2025-10-17,株式会社メルカド,,株式会社,福島県,郡山市,桑野３丁目１２番４０号,,07,203,9638025,,,,,,,2025-10-17,1,,,,,メルカド,0
1897,7400005008520,新規,0,2025-10-17,2025-10-17,一般社団法人全国遊漁船船長会,,その他の設立登記法人,岩手県,大船渡市,盛町字町６番地８ＳＧビル,,03,203,0220003,,,,,,,2025-10-17,1,,,,,ゼンコクユウギョセンセンチョウカイ,0
1899,7410001014298,新規,0,2025-10-17,2025-10-17,ナマーンインターナショナル株式会社,,株式会社,秋田県,男鹿市,払戸字下千間１０番地,,05,206,0100431,,,,,,,2025-10-17,1,,,,,,0
1919,7700150132540,新規,0,2025-10-17,2025-10-17,ＲＡＴＨＮＡＹＡＫＥ　ＡＵＴＯ　ＤＥＡＬＥＲＳ,,外国会社等,奈良県,桜井市,大字吉備７６０番地６－３,,29,206,6330065,スリランカ民主社会主義共和国、キャンディ、アルッポラ、ナショナルハウジングスキーム、Ｎｏ．６４／２,,,,,,2025-10-17,1,,,,,ラスナヤケオートデイーラース,0
1928,8010001258975,新規,0,2025-10-17,2025-10-17,ＰＷ株式会社,,株式会社,東京都,千代田区,神田三崎町２丁目１０－１１Ｐｅｇ５Ａ－３号,,13,101,1010061,,,,,,,2025-10-17,1,,,,,ピーダブリュー,0
1929,8010001259354,新規,0,2025-10-17,2025-10-17,アテナ株式会社,,株式会社,東京都,千代田区,富士見２丁目１０番３－１００５号,,13,101,1020071,,,,,,,2025-10-17,1,,,,,アテナ,0
1930,8010001259437,新規,0,2025-10-17,2025-10-17,株式会社Ｌｏｋｉ＆Ｂａｌｄｒ,,株式会社,東京都,文京区,関口１丁目５－１０、１ＦＡｎｄＷｏｒｋｅｒ,,13,105,1120014,,,,,,,2025-10-17,1,,,,,ロキアンドバルドル,0
1933,8010005040768,新規,0,2025-10-17,2025-10-17,一般社団法人克己会,,その他の設立登記法人,東京都,文京区,関口２丁目１０番８号ホテル椿山荘東京３階ロビーフロア,,13,105,1120014,,,,,,,2025-10-17,1,,,,,コッキカイ,0
1934,8010401193491,新規,0,2025-10-17,2025-10-17,株式会社インテリジェント戦略研究所,,株式会社,東京都,港区,南青山３丁目１番３６号青山丸竹ビル６Ｆ,,13,103,1070062,,,,,,,2025-10-17,1,,,,,インテリジェントセンリャクケンキュウジョ,0
1935,8010401193533,新規,0,2025-10-17,2025-10-17,株式会社ＲＥＳＴ　ＳＰＯＴ,,株式会社,東京都,港区,六本木３丁目１３番６号ウィンド六本木ビル２階－Ａ,,13,103,1060032,,,,,,,2025-10-17,1,,,,,レストスポット,0
1936,8010401193574,新規,0,2025-10-17,2025-10-17,ＪＡＰＡＮ　ＴＡＬＥＮＴ　ＡＧＥＮＴ株式会社,,株式会社,東京都,港区,虎ノ門２丁目６番１号虎ノ門ヒルズステーションタワー１８階,,13,103,1050001,,,,,,,2025-10-17,1,,,,,ジャパンタレントエージェント,0
1937,8010401193649,新規,0,2025-10-17,2025-10-17,株式会社ＥＵＲＥＬＩＸ,,株式会社,東京都,港区,六本木３丁目１６番１２号六本木ＫＳビル５Ｆ,,13,103,1060032,,,,,,,2025-10-17,1,,,,,エウレリクス,0
1938,8010401193715,新規,0,2025-10-17,2025-10-17,株式会社アニマプラス．,,株式会社,東京都,港区,南青山２丁目２４番５号レマン南青山２０２,,13,103,1070062,,,,,,,2025-10-17,1,,,,,アニマプラス,0
1939,8010401193847,新規,0,2025-10-17,2025-10-17,株式会社ＫＥＹＷＯＲＫ,,株式会社,東京都,港区,六本木４丁目８番７号六本木三河台ビル５階,,13,103,1060032,,,,,,,2025-10-17,1,,,,,キーワーク,0
1940,8010403036211,新規,0,2025-10-17,2025-10-17,合同会社ＮＯＥＲＡ,,合同会社,東京都,港区,北青山１丁目３－３三橋ビル３階,,13,103,1070061,,,,,,,2025-10-17,1,,,,,ノエラ,0
1948,8010701048478,新規,0,2025-10-17,2025-10-17,株式会社ＧＡＩ,,株式会社,東京都,品川区,西五反田２丁目１４番１３号ニックハイム五反田２階,,13,109,1410031,,,,,,,2025-10-17,1,,,,,ジーエーアイ,0
1949,8010703007960,新規,0,2025-10-17,2025-10-17,合同会社ルツキ,,合同会社,東京都,品川区,西五反田８丁目１－１３ＧＢＳ－Ａ－７号,,13,109,1410031,,,,,,,2025-10-17,1,,,,,ルツキ,0
1950,8010803005583,新規,0,2025-10-17,2025-10-17,合同会社Ｍｅｅｋｓ,,合同会社,東京都,大田区,下丸子４丁目２７番１―４０４号,,13,111,1460092,,,,,,,2025-10-17,1,,,,,ミークス,0
1951,8010901058302,新規,0,2025-10-17,2025-10-17,ＡＸ　ＩＮＶＥＳＴＭＥＮＴ株式会社,,株式会社,東京都,世田谷区,代田２丁目１７番１６号代田タウンハウスＪ,,13,112,1550033,,,,,,,2025-10-17,1,,,,,アックスインベストメント,0
1959,8011101113475,新規,0,2025-10-17,2025-10-17,京彩商事株式会社,,株式会社,東京都,新宿区,百人町２丁目５－４－Ｓ１３号室土屋ビル２Ｆ,,13,104,1690073,,,,,,,2025-10-17,1,,,,,キョウサイショウジ,0
1960,8011101113509,新規,0,2025-10-17,2025-10-17,藤井アンドパートナーズ株式会社,,株式会社,東京都,新宿区,西新宿３丁目３番１３号西新宿水間ビル２Ｆ,,13,104,1600023,,,,,,,2025-10-17,1,,,,,フジイアンドパートナーズ,0
1964,8011301030982,新規,0,2025-10-17,2025-10-17,株式会社ＳＵＮＲＩＳＥ,,株式会社,東京都,杉並区,和田１丁目５４番８号,,13,115,1660012,,,,,,,2025-10-17,1,,,,,サンライズ,0
1965,8011501032705,新規,0,2025-10-17,2025-10-17,フレンドネットワークス株式会社,,株式会社,東京都,北区,神谷３丁目４７番１０号,,13,117,1150043,,,,,,,2025-10-17,1,,,,,フレンドネットワークス,0
1969,8012403007398,新規,0,2025-10-17,2025-10-17,ＭａＨｏＳＹ合同会社,,合同会社,東京都,三鷹市,下連雀５丁目１番１号プラウドシティ吉祥寺８７０,,13,204,1810013,,,,,,,2025-10-17,1,,,,,マホージー,0
1970,8012403007407,新規,0,2025-10-17,2025-10-17,合同会社鈴木会計,,合同会社,東京都,武蔵野市,境２丁目２２番６－１１５号,,13,203,1800022,,,,,,,2025-10-17,1,,,,,,0
1972,8012703003386,新規,0,2025-10-17,2025-10-17,合同会社エバーフロー,,合同会社,東京都,東久留米市,下里４丁目１番３３－４０２,,13,222,2030043,,,,,,,2025-10-17,1,,,,,エバーフロー,0
1976,8013303007918,新規,0,2025-10-17,2025-10-17,ＴＵＡＮ　ＴＲＡＮ合同会社,,合同会社,東京都,豊島区,池袋本町４丁目３４－４号ＳＴ池袋本町２０４号,,13,116,1700011,,,,,,,2025-10-17,1,,,,,トアンチャン,0
1977,8013305003774,新規,0,2025-10-17,2025-10-17,一般社団法人マイロードグループ,,その他の設立登記法人,東京都,豊島区,南池袋１丁目１９番４号幸伸ビル９Ｆ,,13,116,1710022,,,,,,,2025-10-17,1,,,,,マイロードグループ,0
1983,8020001165205,新規,0,2025-10-17,2025-10-17,株式会社Ｇｒｏｏｖｅ　Ｇａｔｅ,,株式会社,神奈川県,川崎市多摩区,枡形３丁目５番３号グラスコート向ヶ丘１０５,,14,135,2140032,,,,,,,2025-10-17,1,,,,,グルーヴゲート,0
1984,8020001165295,新規,0,2025-10-17,2025-10-17,株式会社チームふわふわ,,株式会社,神奈川県,横浜市西区,浅間町１丁目４番３号ウィザードビル４０２,,14,103,2200072,,,,,,,2025-10-17,1,,,,,チームフワフワ,0
1985,8020001165353,新規,0,2025-10-17,2025-10-17,Ｔｗｉｎ　Ｖ　Ｃａｐｉｔａｌ株式会社,,株式会社,神奈川県,横浜市中区,本牧和田２８番１４号,,14,104,2310827,,,,,,,2025-10-17,1,,,,,ツインヴイキャピタル,0
1986,8020001165361,新規,0,2025-10-17,2025-10-17,ＣＡＰＳＵＬＥ　ＲＯＣＫ株式会社,,株式会社,神奈川県,横浜市港北区,樽町３丁目１－２７－５０４,,14,109,2220001,,,,,,,2025-10-17,1,,,,,カプセルロック,0
1987,8020001165378,新規,0,2025-10-17,2025-10-17,株式会社ｆｌｏｒＥＮ,,株式会社,神奈川県,横浜市都筑区,北山田１丁目８番９号２０１,,14,118,2240021,,,,,,,2025-10-17,1,,,,,フローレン,0
1991,8020003029622,新規,0,2025-10-17,2025-10-17,Ｈｉｋａｒｉ　Ｅｄｕｃａｔｉｏｎ合同会社,,合同会社,神奈川県,横浜市南区,高根町１丁目４－４０ＫＹＳオフイス２ＦＡ０１７,,14,105,2320022,,,,,,,2025-10-17,1,,,,,ヒカリエデュケーション,0
1999,8030001169048,新規,0,2025-10-17,2025-10-17,ＧＯＲＫＨＡ　ＫＡＬＩＫＡ株式会社,,株式会社,埼玉県,川越市,旭町１丁目２４－１２,,11,201,3501126,,,,,,,2025-10-17,1,,,,,ゴルカカリカ,0
2000,8030001169196,新規,0,2025-10-17,2025-10-17,株式会社ＲＥＸ,,株式会社,埼玉県,所沢市,三ケ島３丁目１３６４番地の２,,11,208,3591164,,,,,,,2025-10-17,1,,,,,レックス,0
2005,8030003027856,新規,0,2025-10-17,2025-10-17,合同会社ＡＭＡＢＩＫＩ,,合同会社,埼玉県,上尾市,大字小泉３７６番地７,,11,219,3620063,,,,,,,2025-10-17,1,,,,,,0
2006,8030003027864,新規,0,2025-10-17,2025-10-17,合同会社Ｕｌｉｎｋ,,合同会社,埼玉県,吉川市,大字三輪野江２４２１番地,,11,243,3420027,,,,,,,2025-10-17,1,,,,,ユーリンク,0
2007,8030003027906,新規,0,2025-10-17,2025-10-17,マカロニアップ合同会社,,合同会社,埼玉県,行田市,大字堤根１１１１番地１,,11,206,3610035,,,,,,,2025-10-17,1,,,,,マカロニアップ,0
2008,8040001140916,新規,0,2025-10-17,2025-10-17,株式会社Ｈａｙａｍｉ　Ｄｅｎｔａｌ　Ｌａｂｏｒａｔｏｒｙ,,株式会社,千葉県,柏市,松葉町２丁目１５番地７染谷ビル２階,,12,217,2770827,,,,,,,2025-10-17,1,,,,,ハヤミデンタルラボラトリー,0
2009,8040001140965,新規,0,2025-10-17,2025-10-17,株式会社ｐｏｋｋｅ　ｃｏｍｐａｎｙ,,株式会社,千葉県,船橋市,藤原１丁目１０番２４－２号,,12,204,2730047,,,,,,,2025-10-17,1,,,,,ポッケカンパニー,0
2010,8040001141071,新規,0,2025-10-17,2025-10-17,株式会社Ｂｕｆｆｙ,,株式会社,千葉県,流山市,おおたかの森北２丁目２６―６アステールピュールＭ３０２,,12,220,2700119,,,,,,,2025-10-17,1,,,,,ブフィー,0
2013,8040003028762,新規,0,2025-10-17,2025-10-17,合同会社ＨＯＫＵＬＡＮＩ,,合同会社,千葉県,千葉市中央区,稲荷町１丁目１２－５６,,12,101,2600833,,,,,,,2025-10-17,1,,,,,ホクラニ,0
2014,8040003028812,新規,0,2025-10-17,2025-10-17,合同会社バリュー投資,,合同会社,千葉県,柏市,旭町１丁目１１番７号ローヤルシティ柏３０２,,12,217,2770852,,,,,,,2025-10-17,1,,,,,バリュートウシ,0
2015,8050003009695,新規,0,2025-10-17,2025-10-17,ＭＧ不動産管理合同会社,,合同会社,茨城県,水戸市,緑町３丁目５番４１号,,08,201,3100034,,,,,,,2025-10-17,1,,,,,エムジーフドウサンカンリ,0
2024,8080005007736,新規,0,2025-10-17,2025-10-17,医療法人社団ナインチェプラウス,,その他の設立登記法人,静岡県,静岡市清水区,村松原３丁目３番１０号,,22,103,4240934,,,,,,,2025-10-17,1,,,,,ナインチェプラウス,0
2025,8080101025856,新規,0,2025-10-17,2025-10-17,大広商事株式会社,,株式会社,静岡県,伊東市,吉田１００６番地,,22,208,4140051,,,,,,,2025-10-17,1,,,,,ダイコウショウジ,0
2027,8080401028220,新規,0,2025-10-17,2025-10-17,まるおホールディングス株式会社,,株式会社,静岡県,袋井市,川井９８１番地,,22,216,4370064,,,,,,,2025-10-17,1,,,,,マルオホールディングス,0
2031,8100001039045,新規,0,2025-10-17,2025-10-17,株式会社ＦＣＯ,,株式会社,長野県,松本市,大字空港東８９７３番地１,,20,202,3901132,,,,,,,2025-10-17,1,,,,,エフシィオー,0
2046,8120001280687,新規,0,2025-10-17,2025-10-17,エンリンク株式会社,,株式会社,大阪府,大阪市東淀川区,北江口２丁目３番９－６０６号,,27,114,5330002,,,,,,,2025-10-17,1,,,,,エンリンク,0
2047,8120001280852,新規,0,2025-10-17,2025-10-17,株式会社ＳＣＯＯＴ,,株式会社,大阪府,枚方市,野村中町３６番５号,,27,210,5730144,,,,,,,2025-10-17,1,,,,,スクート,0
2048,8120001280927,新規,0,2025-10-17,2025-10-17,株式会社Ｓｏｌｅｉｌ,,株式会社,大阪府,大阪市住吉区,苅田６丁目１３番２７号キャステロ３０１号,,27,120,5580011,,,,,,,2025-10-17,1,,,,,ソレイユ,0
2049,8120001280935,新規,0,2025-10-17,2025-10-17,株式会社吉,,株式会社,大阪府,大阪市東住吉区,田辺１丁目８番１１号南田辺コーポ３０５,,27,121,5460031,,,,,,,2025-10-17,1,,,,,キチ,0
2050,8120001280943,新規,0,2025-10-17,2025-10-17,Ａ　ＶＩＶＥ　ＬＩＢＥＮ株式会社,,株式会社,大阪府,大阪市北区,梅田１丁目２番２号大阪駅前第２ビル１２－１２,,27,127,5300001,,,,,,,2025-10-17,1,,,,,アビベリベン,0
2051,8120001281017,新規,0,2025-10-17,2025-10-17,明鋭株式会社,00141144,株式会社,大阪府,大阪市東住吉区,中野４丁目１番１６号リベラルオリエンテ中野３１０Ａ,,27,121,5460012,,,,,,,2025-10-17,1,,,,,メイエイ,0
2052,8120001281025,新規,0,2025-10-17,2025-10-17,日本黎虹株式会社,,株式会社,大阪府,大阪市生野区,中川西１丁目１７番１０号２０６,,27,116,5440032,,,,,,,2025-10-17,1,,,,,ニホンリコウ,0
2064,8130001080748,新規,0,2025-10-17,2025-10-17,株式会社ＰＩＬＩＮＡ,,株式会社,京都府,京都市伏見区,下鳥羽南柳長町２９番地,,26,109,6128490,,,,,,,2025-10-17,1,,,,,ピリナ,0
2065,8130001080789,新規,0,2025-10-17,2025-10-17,株式会社アントファン,,株式会社,京都府,京都市下京区,貞安前之町５８９番地ＴＭ四条寺町ビル８階,,26,106,6008031,,,,,,,2025-10-17,1,,,,,アントファン,0
2069,8140002071480,新規,0,2025-10-17,2025-10-17,ハリマデンタル有限会社,,有限会社,兵庫県,加古川市,加古川町備後１３０番地の１０,,28,210,6750032,,,,,,,2025-10-17,1,,,,,ハリマデンタル,0
2079,8180001169074,新規,0,2025-10-17,2025-10-17,株式会社ＰＡＴＨＦＩＮＤＥＲ　ＷＯＲＬＤ,,株式会社,愛知県,名古屋市港区,小碓３丁目２３０番地１,,23,111,4550801,,,,,,,2025-10-17,1,,,,,パスファインダーワールド,0
2080,8180001169124,新規,0,2025-10-17,2025-10-17,株式会社ＹＨ,,株式会社,愛知県,名古屋市中村区,亀島２丁目１２番２３号,,23,105,4530013,,,,,,,2025-10-17,1,,,,,ワイエイチ,0
2081,8180001169149,新規,0,2025-10-17,2025-10-17,吉至貿易株式会社,,株式会社,愛知県,名古屋市中村区,名駅４丁目２４番５号第２森ビル４０１,,23,105,4500002,,,,,,,2025-10-17,1,,,,,キッシボウエキ,0
2082,8180001169181,新規,0,2025-10-17,2025-10-17,株式会社ベアトゥース,,株式会社,愛知県,名古屋市昭和区,恵方町１丁目１４番地の１,,23,107,4660037,,,,,,,2025-10-17,1,,,,,ベアトゥース,0
2086,8180003029185,新規,0,2025-10-17,2025-10-17,合同会社ミラリンク,,合同会社,愛知県,名古屋市西区,木前町６１番地,,23,104,4520834,,,,,,,2025-10-17,1,,,,,ミラリンク,0
2098,8200001044349,新規,0,2025-10-17,2025-10-17,株式会社岐阜リビング,,株式会社,岐阜県,岐阜市,曙町２丁目９番地,,21,201,5008148,,,,,,,2025-10-17,1,,,,,ギフリビング,0
2100,8210001020357,新規,0,2025-10-17,2025-10-17,株式会社サンドゲート,,株式会社,福井県,福井市,二の宮４丁目１－１０,,18,201,9100015,,,,,,,2025-10-17,1,,,,,,0
2104,8240001065663,新規,0,2025-10-17,2025-10-17,株式会社ＥＳＯＲＡ　ＳＥＥＤ,,株式会社,広島県,廿日市市,桜尾１丁目１０番３６号,,34,213,7380004,,,,,,,2025-10-17,1,,,,,エソラシード,0
2112,8290001111636,新規,0,2025-10-17,2025-10-17,Ａｒｘ　Ｋ株式会社,,株式会社,福岡県,福岡市博多区,比恵町１５番３２－１１０５号グランフォーレ博多駅東スタイル,,40,132,8120014,,,,,,,2025-10-17,1,,,,,アルクスケイ,0
2113,8290001111751,新規,0,2025-10-17,2025-10-17,株式会社仕組み化,,株式会社,福岡県,福岡市博多区,博多駅前１丁目２３番２号５Ｆ－Ｂ,,40,132,8120011,,,,,,,2025-10-17,1,,,,,シクミカ,0
2114,8290001111768,新規,0,2025-10-17,2025-10-17,株式会社ＣＯＡＴＥＱ,,株式会社,福岡県,筑紫野市,大字永岡２２３番地２エイルマンション筑紫野１１０３号,,40,217,8180066,,,,,,,2025-10-17,1,,,,,コーテック,0
2115,8290001111776,新規,0,2025-10-17,2025-10-17,株式会社Ｌｉｎｋｓｙ,,株式会社,福岡県,福岡市中央区,大名１丁目１番３１号大名テラス３,,40,133,8100041,,,,,,,2025-10-17,1,,,,,リンクシー,0
2116,8290003017501,新規,0,2025-10-17,2025-10-17,合同会社長崎工業,00141149,合同会社,福岡県,福岡市博多区,相生町３丁目１番２８号２０１号室,,40,132,8120885,,,,,,,2025-10-17,1,,,,,ナガサキコウギョウ,0
2117,8290801031950,新規,0,2025-10-17,2025-10-17,Ｃｌｏｕｄ９株式会社,,株式会社,福岡県,田川郡香春町,大字鏡山４５３番地の５,,40,601,8221402,,,,,,,2025-10-17,1,,,,,クラウドナイン,0
2118,8290803005192,新規,0,2025-10-17,2025-10-17,合同会社サンクユニヴァース,,合同会社,福岡県,直方市,大字感田１４５３－８,,40,204,8220001,,,,,,,2025-10-17,1,,,,,サンクユニヴァース,0
2124,8310001019827,新規,0,2025-10-17,2025-10-17,株式会社ワイ・エール,,株式会社,長崎県,長崎市,新地町５－５６－５０６,,42,201,8500842,,,,,,,2025-10-17,1,,,,,ワイエール,0
2130,8330001033669,新規,0,2025-10-17,2025-10-17,ＣＦＶＡＬＵＥコンサルタント株式会社,,株式会社,熊本県,熊本市西区,新土河原１丁目６番３８号,,43,103,8600056,,,,,,,2025-10-17,1,,,,,シーエフバリューコンサルタント,0
2138,8360003015332,新規,0,2025-10-17,2025-10-17,ＴＲＩＮＩＴＹ　Ｇ合同会社,,合同会社,沖縄県,島尻郡八重瀬町,字東風平３０番地１１カフーナＦ２０２,,47,362,9010401,,,,,,,2025-10-17,1,,,,,トリニティジー,0
2147,8380001035652,新規,0,2025-10-17,2025-10-17,株式会社モンマ,,株式会社,福島県,いわき市,四倉町字東三丁目３９番地,,07,204,9790201,,,,,,,2025-10-17,1,,,,,モンマ,0
2172,9010001258891,新規,0,2025-10-17,2025-10-17,株式会社ルナリス,,株式会社,東京都,中央区,銀座１丁目３番３号銀座西ビルヂング３階,,13,102,1040061,,,,,,,2025-10-17,1,,,,,ルナリス,0
2173,9010001259436,新規,0,2025-10-17,2025-10-17,オイコフィージャパン株式会社,,株式会社,東京都,中央区,銀座６丁目６番１号銀座風月堂ビル５階,,13,102,1040061,,,,,,,2025-10-17,1,,,,,オイコフィージャパン,0
2175,9010003048606,新規,0,2025-10-17,2025-10-17,合同会社Ｋ．Ｋ,,合同会社,東京都,中央区,中央区東日本橋三丁目１１番１１号東日本橋Ｙ’ｓビル１階,,13,102,1030000,,,,,,,2025-10-17,1,,,,,ケーケー,0
2176,9010005040783,新規,0,2025-10-17,2025-10-17,一般社団法人ＧＳＩ　Ｎｉｈｏｎｂａｓｈｉ,,その他の設立登記法人,東京都,中央区,日本橋１丁目４番１号日本橋一丁目ビルディング,,13,102,1030027,,,,,,,2025-10-17,1,,,,,ジーエスアイニホンバシ,0
2185,9010401193499,新規,0,2025-10-17,2025-10-17,Ｗｅｌｌ　Ｉｎｓｉｇｈｔ株式会社,,株式会社,東京都,港区,北青山３丁目６－７青山パラシオタワー１１階,,13,103,1070061,,,,,,,2025-10-17,1,,,,,ウエルインサイト,0
2186,9010401193565,新規,0,2025-10-17,2025-10-17,株式会社ＳＥデジタル,,株式会社,東京都,港区,芝浦４丁目９番２５号,,13,103,1080023,,,,,,,2025-10-17,1,,,,,エスイーデジタル,0
2192,9010501054881,新規,0,2025-10-17,2025-10-17,株式会社Ｂｕｙｂａｃｋ,,株式会社,東京都,台東区,東上野１丁目２４番８号グランパセオ６０１号室,,13,106,1100015,,,,,,,2025-10-17,1,,,,,バイバック,0
2200,9010803005582,新規,0,2025-10-17,2025-10-17,合同会社ＳＥＮＫＥＮ,,合同会社,東京都,大田区,西蒲田７丁目４３番９号ザ・シティ蒲田ＩＩ,00141157,13,111,1440051,,,,,,,2025-10-17,1,,,,,センケン,0
2205,9011001173197,新規,0,2025-10-17,2025-10-17,Ｓｔｏｌｌｅｎ株式会社,,株式会社,東京都,渋谷区,道玄坂１丁目１０番８号渋谷道玄坂東急ビル,,13,113,1500043,,,,,,,2025-10-17,1,,,,,シュトーレン,0
2209,9011101113540,新規,0,2025-10-17,2025-10-17,株式会社Ｍｏｇｕ動物病院,,株式会社,東京都,新宿区,西新宿５丁目３番１１号リヴィエールブラン１階,,13,104,1600023,,,,,,,2025-10-17,1,,,,,モグドウブツビョウイン,0
2210,9011101113557,新規,0,2025-10-17,2025-10-17,千豊株式会社,,株式会社,東京都,新宿区,百人町２丁目５－４土屋ビル２ＦＬｉｎｋＳｐａｃｅＳ１４号室,,13,104,1690073,,,,,,,2025-10-17,1,,,,,チホウ,0
2217,9011501032704,新規,0,2025-10-17,2025-10-17,株式会社ＫＳＫ,,株式会社,東京都,北区,滝野川１丁目４０番５号カーサ栄３０１,,13,117,1140023,,,,,,,2025-10-17,1,,,,,ケーエスケー,0
2227,9013301055100,新規,0,2025-10-17,2025-10-17,ＰｅａｒｌＷｏｒｋｓ株式会社,,株式会社,東京都,豊島区,南長崎２丁目７番１１号,,13,116,1710052,,,,,,,2025-10-17,1,,,,,パールワークス,0
2235,9020001165204,新規,0,2025-10-17,2025-10-17,株式会社ＢＫＳ,,株式会社,神奈川県,川崎市多摩区,登戸３１４１番地４ドリームハウス登戸第５－３０３,,14,135,2140014,,,,,,,2025-10-17,1,,,,,,0
2236,9020001165393,新規,0,2025-10-17,2025-10-17,株式会社Ｔ＆Ｅプライム,,株式会社,神奈川県,川崎市川崎区,殿町１丁目１０番５号２０７,,14,131,2100821,,,,,,,2025-10-17,1,,,,,ティーアンドイープライム,0
2241,9020003029654,新規,0,2025-10-17,2025-10-17,合同会社Ｃｏｄｉｎｇｈｏｌｉｃ,,合同会社,神奈川県,横浜市西区,浅間町１丁目４番３号ウィザードビル４０２,,14,103,2200072,,,,,,,2025-10-17,1,,,,,コーディングホリック,0
2247,9021001086539,新規,0,2025-10-17,2025-10-17,株式会社ＨＫＢＡ,,株式会社,神奈川県,三浦郡葉山町,下山口１１０１番地の３,,14,301,2400116,,,,,,,2025-10-17,1,,,,,,0
2248,9021001086588,新規,0,2025-10-17,2025-10-17,嘉山農園株式会社,,株式会社,神奈川県,横須賀市,長井１丁目１２番２８号,,14,201,2380316,,,,,,,2025-10-17,1,,,,,カヤマノウエン,0
2249,9021001086605,新規,0,2025-10-17,2025-10-17,株式会社大祐,,株式会社,神奈川県,藤沢市,辻堂４丁目６番２０号,,14,205,2510047,,,,,,,2025-10-17,1,,,,,ダイユウ,0
2250,9021001086613,新規,0,2025-10-17,2025-10-17,株式会社Ｂ‐Ｓｔｅｅｐ,,株式会社,神奈川県,藤沢市,弥勒寺１丁目１７番１５号,,14,205,2510016,,,,,,,2025-10-17,1,,,,,ビースティープ,0
2262,9030001169195,新規,0,2025-10-17,2025-10-17,株式会社アイエスジー,,株式会社,埼玉県,所沢市,小手指元町１丁目１６番地の１４,,11,208,3591147,,,,,,,2025-10-17,1,,,,,アイエスジー,0
2263,9030001169212,新規,0,2025-10-17,2025-10-17,アイアールホーム株式会社,,株式会社,埼玉県,羽生市,中央５丁目１１番１５号,,11,216,3480058,,,,,,,2025-10-17,1,,,,,アイアールホーム,0
2267,9030003027888,新規,0,2025-10-17,2025-10-17,合同会社本庄座,,合同会社,埼玉県,本庄市,栄２丁目１２番７号,,11,211,3670046,,,,,,,2025-10-17,1,,,,,ホンジョウザ,0
2269,9030005022292,新規,0,2025-10-17,2025-10-17,一般社団法人埼玉県公認心理師協会,,その他の設立登記法人,埼玉県,さいたま市浦和区,岸町４丁目１７番１号クレール浦和１０４,,11,107,3300064,,,,,,,2025-10-17,1,,,,,サイタマケンコウニンシンリシキョウカイ,0
2274,9040001140964,新規,0,2025-10-17,2025-10-17,株式会社ＴＲＹＶＡＬ,,株式会社,千葉県,千葉市中央区,登戸１丁目２２番１９号ハイブリッジ２０３号,,12,101,2600032,,,,,,,2025-10-17,1,,,,,トライバル,0
2275,9040001141021,新規,0,2025-10-17,2025-10-17,株式会社ＷｉｉＢ,,株式会社,千葉県,千葉市中央区,中央２丁目５－１千葉中央ツインビル２号館７階,,12,101,2600013,,,,,,,2025-10-17,1,,,,,ウィーブ,0
2276,9040003028778,新規,0,2025-10-17,2025-10-17,合同会社ＭＥＤＯＣ,,合同会社,千葉県,佐倉市,上志津原３３４－９５,,12,212,2850844,,,,,,,2025-10-17,1,,,,,メドック,0
2277,9040003028811,新規,0,2025-10-17,2025-10-17,合同会社ぽっしぶる,,合同会社,千葉県,松戸市,串崎新田１７０－８,,12,207,2702216,,,,,,,2025-10-17,1,,,,,ポッシブル,0
2279,9050001057464,新規,0,2025-10-17,2025-10-17,ＡＳＨＡＺ　ＴＲＡＤＩＮＧ　ＪＡＰＡＮ株式会社,,株式会社,茨城県,稲敷郡美浦村,大字布佐１４８２番地８３,,08,442,3000427,,,,,,,2025-10-17,1,,,,,アシャズトレーディングジャパン,0
2291,9070003006153,新規,0,2025-10-17,2025-10-17,ＳＳ　ＴＲＡＤＩＮＧ合同会社,,合同会社,群馬県,太田市,金山町３４番１２号,,10,205,3730027,,,,,,,2025-10-17,1,,,,,エスエストレーディング,0
2297,9100001039044,新規,0,2025-10-17,2025-10-17,Ｉ　ＡＭ株式会社,,株式会社,長野県,北佐久郡軽井沢町,大字発地１１８４番地３１,,20,321,3890113,,,,,,,2025-10-17,1,,,,,アイアム,0
2317,9120001280769,新規,0,2025-10-17,2025-10-17,Ｖｉｃｔｏｒｙ株式会社,,株式会社,大阪府,大阪市北区,堂島２丁目４番４－１７０３号,,27,127,5300003,,,,,,,2025-10-17,1,,,,,ビクトリー,0
2318,9120001280950,新規,0,2025-10-17,2025-10-17,株式会社Ｙｏｕｔｈｆｕｌ,,株式会社,大阪府,大阪市中央区,北浜東２番２０－１３０３号,,27,128,5400031,,,,,,,2025-10-17,1,,,,,ユースフル,0
2319,9120001280991,新規,0,2025-10-17,2025-10-17,Ｈｉｕｃｈｉ　Ｐｈａｒｍａ株式会社,,株式会社,大阪府,大阪市北区,芝田１丁目１４番８号梅田北プレイス６Ｆ,,27,127,5300012,,,,,,,2025-10-17,1,,,,,ヒウチファーマ,0
2320,9120001281008,新規,0,2025-10-17,2025-10-17,羲和陽光株式会社,,株式会社,大阪府,大阪市東成区,大今里３丁目１５番６号ＩｍａｚａｔｏＴｏｗｅｒ１０６Ａ,,27,115,5370012,,,,,,,2025-10-17,1,,,,,ギワヨウコウ,0
2321,9120001281016,新規,0,2025-10-17,2025-10-17,堤喀株式会社,,株式会社,大阪府,大阪市東住吉区,中野４丁目１番１６号サラオリエンテ中野８０１Ａ,,27,121,5460012,,,,,,,2025-10-17,1,,,,,テイカク,0
2322,9120001281024,新規,0,2025-10-17,2025-10-17,現代精工株式会社,,株式会社,大阪府,大阪市東住吉区,中野４丁目１番１６号サラオリエンテ中野８０７Ｂ,,27,121,5460012,,,,,,,2025-10-17,1,,,,,ゲンダイセイコウ,0
2323,9120001281098,新規,0,2025-10-17,2025-10-17,合＿辰株式会社,00141146,株式会社,大阪府,大阪市東住吉区,中野４丁目１番１６号リベラルオリエンテ中野３０４Ａ,,27,121,5460012,,,,,,,2025-10-17,1,,,,,ゴウシュウシン,0
2324,9120001281313,新規,0,2025-10-17,2025-10-17,株式会社ドリーヴン,,株式会社,大阪府,大阪市西成区,北開２丁目３番２３号,,27,122,5570021,,,,,,,2025-10-17,1,,,,,ドリーヴン,0
2332,9120003030940,新規,0,2025-10-17,2025-10-17,合同会社カライド,,合同会社,大阪府,大阪市淀川区,宮原５丁目６番３２－２０５号,,27,123,5320003,,,,,,,2025-10-17,1,,,,,カライド,0
2333,9120003030973,新規,0,2025-10-17,2025-10-17,合同会社笑顔つなぐ輪,,合同会社,大阪府,大阪市東成区,中本４丁目６番４号,,27,115,5370022,,,,,,,2025-10-17,1,,,,,エガオツナグワ,0
2340,9120901051625,新規,0,2025-10-17,2025-10-17,株式会社クレディ,,株式会社,大阪府,豊中市,庄内西町２丁目４番３号－４Ａ,,27,203,5610832,,,,,,,2025-10-17,1,,,,,クレディ,0
2341,9120901051641,新規,0,2025-10-17,2025-10-17,株式会社Ｎａｚ　ｃｈｉｌｄ,,株式会社,大阪府,摂津市,新在家２丁目２６番２６号,,27,224,5660055,,,,,,,2025-10-17,1,,,,,ナーズチャイルド,0
2345,9122001039798,新規,0,2025-10-17,2025-10-17,Ｄ‐ｅｘｐｒｅｓｓ株式会社,,株式会社,大阪府,東大阪市,南上小阪１２番３０号,,27,227,5770814,,,,,,,2025-10-17,1,,,,,ディーエクスプレス,0
2351,9140001140327,新規,0,2025-10-17,2025-10-17,株式会社ＮＣサービス,,株式会社,兵庫県,三木市,別所町小林７３４番地の１７ローレルハイツ北神戸３号棟１２２号室,,28,215,6730434,,,,,,,2025-10-17,1,,,,,,0
2360,9160003003620,新規,0,2025-10-17,2025-10-17,合同会社ＴＷＩＬＩＧＨＴ,,合同会社,滋賀県,大津市,栄町６－２８－１２０４,,25,201,5200855,,,,,,,2025-10-17,1,,,,,トワイライト,0
2383,9240001065654,新規,0,2025-10-17,2025-10-17,東広島開発株式会社,,株式会社,広島県,広島市中区,中町８番６号,,34,101,7300037,,,,,,,2025-10-17,1,,,,,ヒガシヒロシマカイハツ,0
2388,9260003005375,新規,0,2025-10-17,2025-10-17,合同会社ｔａｙｌａ,,合同会社,岡山県,岡山市北区,磨屋町３－１０（２Ｆ）ＴＯＧＩＴＯＧＩ,,33,101,7000826,,,,,,,2025-10-17,1,,,,,テイラ,0
2390,9270001009311,新規,0,2025-10-17,2025-10-17,株式会社ミライズ,,株式会社,鳥取県,鳥取市,末広温泉町６２２番地１Ｆ,,31,201,6800833,,,,,,,2025-10-17,1,,,,,ミライズ,0
2391,9280001009533,新規,0,2025-10-17,2025-10-17,株式会社ＢｌｕｅＰｅａｋ,,株式会社,島根県,出雲市,古志町９８２番地３ベラビスタ古志２０５,,32,203,6930031,,,,,,,2025-10-17,1,,,,,ブルーピーク,0
2394,9290001111759,新規,0,2025-10-17,2025-10-17,Ｅ．Ｇａｉｎ株式会社,,株式会社,福岡県,福岡市南区,大楠３丁目２５番１２－１号,,40,134,8150082,,,,,,,2025-10-17,1,,,,,イーゲイン,0
2395,9290001111783,新規,0,2025-10-17,2025-10-17,株式会社宮原創建,,株式会社,福岡県,福岡市西区,上山門３丁目１１番１２－２０２号,,40,135,8190054,,,,,,,2025-10-17,1,,,,,ミヤハラソウケン,0
2396,9290001111809,新規,0,2025-10-17,2025-10-17,株式会社アサクラノート,,株式会社,福岡県,朝倉市,甘木１１８５－１,,40,228,8380068,,,,,,,2025-10-17,1,,,,,アサクラノート,0
2399,9290003017533,新規,0,2025-10-17,2025-10-17,合同会社ＵＳＴＡ　Ｐａｒｔｎｅｒｓ,,合同会社,福岡県,福岡市中央区,春吉１丁目１６－８－４０３,,40,133,8100003,,,,,,,2025-10-17,1,,,,,ユーエスティーエーパートナーズ,0
2400,9290003017541,新規,0,2025-10-17,2025-10-17,ＥＮマネジメント合同会社,,合同会社,福岡県,福岡市城南区,荒江１丁目２１－１８－３Ｆ,,40,136,8140101,,,,,,,2025-10-17,1,,,,,エンマネジメント,0
2405,9310001019826,新規,0,2025-10-17,2025-10-17,株式会社Ｐａｌｅｔｔｅ,,株式会社,長崎県,西彼杵郡長与町,吉無田郷２０４１番地５,,42,307,8512126,,,,,,,2025-10-17,1,,,,,パレット,0
2412,9330003011267,新規,0,2025-10-17,2025-10-17,合同会社精美,,合同会社,熊本県,熊本市中央区,坪井５丁目２番８号,,43,101,8600863,,,,,,,2025-10-17,1,,,,,マサミ,0
2417,9360001035926,新規,0,2025-10-17,2025-10-17,エスアールエヌ株式会社,,株式会社,沖縄県,名護市,東江５丁目８－１６,,47,209,9050021,,,,,,,2025-10-17,1,,,,,エスアールエヌ,0
2425,9380001035651,新規,0,2025-10-17,2025-10-17,株式会社ＫＡＧＡＲＩＢＩ,,株式会社,福島県,会津若松市,飯寺南２丁目１番８号,,07,202,9650840,,,,,,,2025-10-17,1,,,,,カガリビ,0
2426,9390001018135,新規,0,2025-10-17,2025-10-17,ニューマラスガーベラ株式会社,,株式会社,山形県,山形市,幸町１６番８号,,06,201,9900038,,,,,,,2025-10-17,1,,,,,ニューマラスガーベラ,0
2446,9490003002060,新規,0,2025-10-17,2025-10-17,合同会社Ｃｌａｉｒ,,合同会社,高知県,土佐市,蓮池２０８６番地４,,39,205,7811105,,,,,,,2025-10-17,1,,,,,クレール,0
2449,9700150132539,新規,0,2025-10-17,2025-10-17,ＡＮＤＲＥＷＳ　ＭＯＴＯＲＳ,,外国会社等,千葉県,旭市,井戸野４２９３番地,,12,215,2892531,スリランカ民主社会主義共和国、コロンボ１３、ジャンパッタストリート、Ｎｏ．３２７／１Ａ,,,,,,2025-10-17,1,,,,,アンドリユースモータース,0
