sequenceNumber,corporateNumber,process,correct,updateDate,changeDate,name,nameImageId,kind,prefectureName,cityName,streetNumber,addressImageId,prefectureCode,cityCode,postCode,addressOutside,addressOutsideImageId,closeDate,closeCause,successorCorporateNumber,changeCause,assignmentDate,latest,enName,enPrefectureName,enCityName,enAddressOutside,furigana,hihyoji
18,1010001220454,新規,0,2021-08-18,2021-08-18,株式会社チアーズ,,株式会社,東京都,中央区,銀座１丁目１４番４号,,13,102,1040061,,,,,,,2021-08-18,1,,,,,チアーズ,0
19,1010001220470,新規,0,2021-08-18,2021-08-18,人間力経営株式会社,,株式会社,東京都,千代田区,三番町３０－６日興パレス４０３,,13,101,1020075,,,,,,,2021-08-18,1,,,,,ニンゲンリョクケイエイ,0
20,1010001220504,新規,0,2021-08-18,2021-08-18,株式会社ｅｖｅｒａ,,株式会社,東京都,中央区,銀座１丁目１２－４Ｎ＆Ｅ・ＢＬＤ．７階,,13,102,1040061,,,,,,,2021-08-18,1,,,,,エベラ,0
23,1010003035537,新規,0,2021-08-18,2021-08-18,合同会社ＧＬＯＷＦＩＴ,,合同会社,東京都,文京区,本郷３丁目２７番１２号本郷デントビル２階,,13,105,1130033,,,,,,,2021-08-18,1,,,,,グローフィット,0
24,1010003035586,新規,0,2021-08-18,2021-08-18,ＮａＮａ　Ｃｏｎｓｕｌｔｉｎｇ合同会社,,合同会社,東京都,千代田区,平河町１丁目３－６,,13,101,1020093,,,,,,,2021-08-18,1,,,,,ナナコンサルティング,0
25,1010003035628,新規,0,2021-08-18,2021-08-18,合同会社ＫｉＳＥＴＵ,,合同会社,東京都,千代田区,平河町１丁目６番１５号ＵＳビル８Ｆ,,13,101,1020093,,,,,,,2021-08-18,1,,,,,キセツ,0
26,1010101014814,新規,0,2021-08-18,2021-08-18,株式会社からこる,,株式会社,東京都,八王子市,西片倉１丁目１５番地２号デルソル１０３号,,13,201,1920917,,,,,,,2021-08-18,1,,,,,カラコル,0
27,1010103001752,新規,0,2021-08-18,2021-08-18,合同会社マテイニ,,合同会社,東京都,八王子市,大和田町１丁目６番１２号,,13,201,1920045,,,,,,,2021-08-18,1,,,,,マテイニ,0
30,1010401162197,新規,0,2021-08-18,2021-08-18,株式会社Ｅｓｃａｐｅ,,株式会社,東京都,港区,浜松町２丁目２番１５号ダイヤビル２Ｆ,,13,103,1050013,,,,,,,2021-08-18,1,,,,,エスケープ,0
36,1010403025939,新規,0,2021-08-18,2021-08-18,合同会社フル・ハウス３,,合同会社,東京都,港区,元赤坂１丁目１番７号,,13,103,1070051,,,,,,,2021-08-18,1,,,,,フルハウススリー,0
38,1010405020104,新規,0,2021-08-18,2021-08-18,一般社団法人長谷川総研,,その他の設立登記法人,東京都,港区,赤坂２丁目１３番１９－１１０２号,,13,103,1070052,,,,,,,2021-08-18,1,,,,,ハセガワソウケン,0
43,1010601059796,新規,0,2021-08-18,2021-08-18,株式会社ナチュラルロジスティクス,,株式会社,東京都,江東区,亀戸１丁目３６番４号－４０５号,,13,108,1360071,,,,,,,2021-08-18,1,,,,,ナチュラルロジスティクス,0
44,1010601059805,新規,0,2021-08-18,2021-08-18,株式会社ボンベール,,株式会社,東京都,江東区,木場６丁目１４番１－７０４号,,13,108,1350042,,,,,,,2021-08-18,1,,,,,ボンベール,0
46,1010603009106,新規,0,2021-08-18,2021-08-18,ＬＩＦＥ　ＴＩＭＥ　ＳＰＡＣＥ合同会社,,合同会社,東京都,江東区,枝川３丁目８番６－９０７号,,13,108,1350051,,,,,,,2021-08-18,1,,,,,ライフタイムスペース,0
59,1011001142317,新規,0,2021-08-18,2021-08-18,Ｒｉｎｇ－ｎｄｘ株式会社,,株式会社,東京都,渋谷区,道玄坂１丁目２番３号渋谷フクラス１７階ビジネスエアポート渋谷フクラス,,13,113,1500043,,,,,,,2021-08-18,1,,,,,リングニューディエックス,0
60,1011001142333,新規,0,2021-08-18,2021-08-18,株式会社Ｐｏｒｒｏ,,株式会社,東京都,渋谷区,円山町６番７号,,13,113,1500044,,,,,,,2021-08-18,1,,,,,ポロ,0
62,1011003013227,新規,0,2021-08-18,2021-08-18,合同会社ｉｌｌｎｏａ,,合同会社,東京都,渋谷区,恵比寿４丁目１１番７号,,13,113,1500013,,,,,,,2021-08-18,1,,,,,イルノア,0
74,1011103010933,新規,0,2021-08-18,2021-08-18,アルファーブレイン合同会社,,合同会社,東京都,新宿区,北新宿３丁目３８番９号リバーサイドテラス東中野１０２,,13,104,1690074,,,,,,,2021-08-18,1,,,,,アルファーブレイン,0
76,1011301027110,新規,0,2021-08-18,2021-08-18,株式会社ＫＳＨマネジメント,,株式会社,東京都,杉並区,永福１丁目３４番２０号,,13,115,1680064,,,,,,,2021-08-18,1,,,,,ケイエスエイチマネジメント,0
78,1011303004132,新規,0,2021-08-18,2021-08-18,合同会社ＣＨＡＮＤＲＡＭＡ　ＣＯＲＰＯＲＡＴＩＯＮ,,合同会社,東京都,杉並区,高円寺北３丁目３１番１９号恵荘２Ｆ１号,,13,115,1660002,,,,,,,2021-08-18,1,,,,,チャンドラマコーポレーション,0
85,1011501027224,新規,0,2021-08-18,2021-08-18,日本ジェネレーション株式会社,,株式会社,東京都,北区,赤羽２丁目１９番６号サンハイム２０１号,,13,117,1150045,,,,,,,2021-08-18,1,,,,,ニホンジェネレーション,0
93,1012803002575,新規,0,2021-08-18,2021-08-18,合同会社若紫,,合同会社,東京都,国立市,富士見台１丁目４番４号,,13,215,1860003,,,,,,,2021-08-18,1,,,,,ワカムラサキ,0
98,1020001142607,新規,0,2021-08-18,2021-08-18,株式会社コンパスイノベーションジャパン,,株式会社,神奈川県,横浜市中区,弁天通２丁目２９番地加州ビル６Ｆ,,14,104,2310007,,,,,,,2021-08-18,1,,,,,コンパスイノベーションジャパン,0
100,1020003020331,新規,0,2021-08-18,2021-08-18,合同会社ミライ,,合同会社,神奈川県,横浜市泉区,中田東２丁目１６－２４－２０１,,14,116,2450013,,,,,,,2021-08-18,1,,,,,ミライ,0
113,1030003017797,新規,0,2021-08-18,2021-08-18,ｅサービス合同会社,,合同会社,埼玉県,川口市,大字安行原１３２２番地の１０,,11,203,3340057,,,,,,,2021-08-18,1,,,,,イーサービス,0
118,1040001119834,新規,0,2021-08-18,2021-08-18,株式会社柚慈杏,,株式会社,千葉県,市原市,松崎７４－２４,,12,219,2900217,,,,,,,2021-08-18,1,,,,,ユジアン,0
127,1040003018316,新規,0,2021-08-18,2021-08-18,合同会社ＢＯＳＯ　ＦＲＯＮＴＩＥＲ,,合同会社,千葉県,長生郡長生村,一松乙７４９－７,,12,423,2994326,,,,,,,2021-08-18,1,,,,,ボウソウフロンティア,0
134,1060001034008,新規,0,2021-08-18,2021-08-18,株式会社エックスディーエンターテインメント,,株式会社,栃木県,宇都宮市,峰２丁目５番７号,,09,201,3210942,,,,,,,2021-08-18,1,,,,,エックスディーエンターテインメント,0
145,1100003006207,新規,0,2021-08-18,2021-08-18,合同会社Ｊ・Ｙ,,合同会社,長野県,千曲市,大字磯部８８８番地１ボナール１０３,,20,218,3890806,,,,,,,2021-08-18,1,,,,,ジェイワイ,0
158,1120001239814,新規,0,2021-08-18,2021-08-18,株式会社ウゴウネス,,株式会社,大阪府,大阪市天王寺区,逢阪２丁目５番７号,,27,109,5430062,,,,,,,2021-08-18,1,,,,,ウゴウネス,0
159,1120001239822,新規,0,2021-08-18,2021-08-18,株式会社ＣＲＹ４,,株式会社,大阪府,大阪市北区,梅田１丁目１－３大阪駅前第３ビル２３０７,,27,127,5300001,,,,,,,2021-08-18,1,,,,,クライフォー,0
166,1120003020049,新規,0,2021-08-18,2021-08-18,マイド合同会社,,合同会社,大阪府,大阪市中央区,南久宝寺町１丁目９番７号船場ツタダビル６階２号,,27,128,5410058,,,,,,,2021-08-18,1,,,,,マイド,0
171,1120101064162,新規,0,2021-08-18,2021-08-18,株式会社アンドオム,,株式会社,大阪府,堺市北区,中百舌鳥町５丁６９２番地１,,27,146,5918023,,,,,,,2021-08-18,1,,,,,アンドオム,0
173,1120901044776,新規,0,2021-08-18,2021-08-18,株式会社アンビション,,株式会社,大阪府,豊中市,新千里東町１丁目１－２－４７０９,,27,203,5600082,,,,,,,2021-08-18,1,,,,,アンビション,0
180,1130005016250,新規,0,2021-08-18,2021-08-18,一般社団法人ＮｅｕｒｏＰｉａｎｏ,,その他の設立登記法人,京都府,京都市下京区,松原通東洞院東入本燈籠町１３－１,,26,106,6008086,,,,,,,2021-08-18,1,,,,,ニューロピアノ,0
183,1140001122720,新規,0,2021-08-18,2021-08-18,ＨＩＢＡＮＡＳ株式会社,,株式会社,兵庫県,尼崎市,次屋３丁目１８番１２号,,28,202,6610965,,,,,,,2021-08-18,1,,,,,ヒバナス,0
184,1140001122729,新規,0,2021-08-18,2021-08-18,株式会社Ｆクリエート,,株式会社,兵庫県,川西市,下加茂２丁目３５番８号,,28,217,6660022,,,,,,,2021-08-18,1,,,,,エフクリエート,0
185,1140001122737,新規,0,2021-08-18,2021-08-18,ＥＹＨ株式会社,,株式会社,兵庫県,尼崎市,南塚口町２丁目１６番１号,,28,202,6610012,,,,,,,2021-08-18,1,,,,,イーワイエイチ,0
188,1140003016648,新規,0,2021-08-18,2021-08-18,ＰＢ　ＦＩＲＭ合同会社,,合同会社,兵庫県,神戸市中央区,磯上通８丁目１番２９号カサベラビルＣ＆Ｍ４０３号室,,28,110,6510086,,,,,,,2021-08-18,1,,,,,ピービーファーム,0
199,1180001147482,新規,0,2021-08-18,2021-08-18,株式会社ＡＰＥＳ　Ｂｏｒｄｅｒ,,株式会社,愛知県,名古屋市緑区,鳥澄１丁目３２７番地の１,,23,114,4580025,,,,,,,2021-08-18,1,,,,,エイプスボーダー,0
201,1180305009230,新規,0,2021-08-18,2021-08-18,特定非営利活動法人三河牡丹,,その他の設立登記法人,愛知県,豊田市,上野町７丁目７５番地,,23,211,4710015,,,,,,,2021-08-18,1,,,,,ミカワボタン,0
206,1200001039033,新規,0,2021-08-18,2021-08-18,株式会社Ｆ＆Ｕ,,株式会社,岐阜県,大垣市,笠木町４９３番地５,,21,202,5030023,,,,,,,2021-08-18,1,,,,,エフアンドユー,0
213,1240001058459,新規,0,2021-08-18,2021-08-18,株式会社ＲＯＯＯＦ,,株式会社,広島県,広島市西区,三滝町６番１号１階,,34,104,7330005,,,,,,,2021-08-18,1,,,,,ルーフ,0
225,1310001017416,新規,0,2021-08-18,2021-08-18,株式会社ＧООＤ　ＰＯＩＮＴ,,株式会社,長崎県,諫早市,津久葉町６番地７４　２Ｆ,,42,204,8540065,,,,,,,2021-08-18,1,,,,,グッドポイント,0
227,1310005008535,新規,0,2021-08-18,2021-08-18,特定非営利活動法人長崎わんにゃん会,,その他の設立登記法人,長崎県,長崎市,香焼町２００１番地２９,,42,201,8510310,,,,,,,2021-08-18,1,,,,,ナガサキワンニャンカイ,0
235,1360001029241,新規,0,2021-08-18,2021-08-18,株式会社玉城・工業,,株式会社,沖縄県,糸満市,字賀数１８０番地１,,47,210,9010313,,,,,,,2021-08-18,1,,,,,タマシロコウギョウ,0
248,1470001018662,新規,0,2021-08-18,2021-08-18,モスルーム株式会社,,株式会社,香川県,高松市,屋島西町２２８４番地１０,,37,201,7610113,,,,,,,2021-08-18,1,,,,,モスルーム,0
254,1500005008409,新規,0,2021-08-18,2021-08-18,一般社団法人ダブルブラスト協会,,その他の設立登記法人,愛媛県,新居浜市,萩生７２３番地の６,,38,205,7920050,,,,,,,2021-08-18,1,,,,,ダブルブラストキョウカイ,0
257,1700150104446,新規,0,2021-08-18,2021-08-18,ＴＨＥ　ＭＡＲＴ　ＥＮＴＥＲＰＲＩＳＥＳ,,外国会社等,千葉県,山武市,椎崎１４３８番地５１オフィスＢ,,12,237,2891205,スリランカ民主社会主義共和国、コロンボ１２、メーラニヤストリート、２３７－１８Ａ,,,,,,2021-08-18,1,,,,,ザマートエンタープライセス,0
273,2010001220536,新規,0,2021-08-18,2021-08-18,ザ・ジャクソン・ラボラトリー・ジャパン・ホールディングス株式会社,,株式会社,東京都,千代田区,永田町２丁目１１番１号山王パークタワー４階,,13,101,1000014,,,,,,,2021-08-18,1,,,,,ザジャクソンラボラトリージャパンホールディングス,0
286,2010401162196,新規,0,2021-08-18,2021-08-18,株式会社アトノイ,,株式会社,東京都,港区,虎ノ門１丁目１７番１号,,13,103,1050001,,,,,,,2021-08-18,1,,,,,アトノイ,0
291,2010405020128,新規,0,2021-08-18,2021-08-18,一般社団法人オービーエフ,,その他の設立登記法人,東京都,港区,元赤坂１丁目１番８号赤坂コミュニティビル４階,,13,103,1070051,,,,,,,2021-08-18,1,,,,,オービーエフ,0
297,2010601059804,新規,0,2021-08-18,2021-08-18,株式会社Ｋ２Ｍ,,株式会社,東京都,江東区,青海２丁目７番４号,,13,108,1350064,,,,,,,2021-08-18,1,,,,,ケーツーエム,0
302,2010701041397,新規,0,2021-08-18,2021-08-18,株式会社ＬｉＨ,,株式会社,東京都,品川区,東大井５丁目２３番３２号,,13,109,1400011,,,,,,,2021-08-18,1,,,,,エルアイエイチ,0
304,2010801032239,新規,0,2021-08-18,2021-08-18,ＴＯ－ＴＯ　ＬＡＢＯ株式会社,,株式会社,東京都,大田区,池上５丁目２５番３号,,13,111,1460082,,,,,,,2021-08-18,1,,,,,トートラボ,0
309,2010903006719,新規,0,2021-08-18,2021-08-18,合同会社サンセバスチャン,,合同会社,東京都,世田谷区,成城２丁目３番１７号成城コンパウンドＦ棟,,13,112,1570066,,,,,,,2021-08-18,1,,,,,サンセバスチャン,0
316,2011101095901,新規,0,2021-08-18,2021-08-18,株式会社住福,,株式会社,東京都,新宿区,大久保１丁目４番地１５号,,13,104,1690072,,,,,,,2021-08-18,1,,,,,スミフク,0
317,2011101096024,新規,0,2021-08-18,2021-08-18,株式会社アイウェル,,株式会社,東京都,新宿区,西新宿１丁目５番１２号ニューセントラルビル８０１,,13,104,1600023,,,,,,,2021-08-18,1,,,,,,0
329,2012401038211,新規,0,2021-08-18,2021-08-18,株式会社ＬＦＵ,,株式会社,東京都,武蔵野市,吉祥寺北町１丁目２番１１号,,13,203,1800001,,,,,,,2021-08-18,1,,,,,エルエフユー,0
330,2012403004995,新規,0,2021-08-18,2021-08-18,船木資産管理合同会社,,合同会社,東京都,狛江市,岩戸北１丁目１６番１３号,,13,219,2010004,,,,,,,2021-08-18,1,,,,,フナキシサンカンリ,0
334,2013301047830,新規,0,2021-08-18,2021-08-18,株式会社アイサット,,株式会社,東京都,豊島区,南池袋２丁目３０番１２号ＢＩＴビル,,13,116,1710022,,,,,,,2021-08-18,1,,,,,アイサット,0
342,2020001142556,新規,0,2021-08-18,2021-08-18,株式会社Ｔｒａｄｅｒ＆Ｄｅｌｉｇｈｔ,,株式会社,神奈川県,横浜市港北区,篠原東２丁目１０番６号,,14,109,2220022,,,,,,,2021-08-18,1,,,,,トレーダーアンドディライト,0
343,2020001142622,新規,0,2021-08-18,2021-08-18,株式会社ＮＡＶＥＩＲＡ,,株式会社,神奈川県,川崎市川崎区,駅前本町１１－２川崎フロンティアビル４階,,14,131,2100007,,,,,,,2021-08-18,1,,,,,ナヴェイラ,0
351,2021003010809,新規,0,2021-08-18,2021-08-18,ＴＫＹ合同会社,,合同会社,神奈川県,相模原市中央区,田名５５５１番地１サニーレジデンス２０２,,14,152,2520244,,,,,,,2021-08-18,1,,,,,ティーケーワイ,0
352,2021003010817,新規,0,2021-08-18,2021-08-18,ＤＩＹＯ合同会社,,合同会社,神奈川県,小田原市,掘之内２０２国原ビル１Ｆ,,14,206,2500000,,,,,,,2021-08-18,1,,,,,ディヨ,0
363,2030001143859,新規,0,2021-08-18,2021-08-18,株式会社ミナト,,株式会社,埼玉県,川越市,中台南３丁目５番地１,,11,201,3501150,,,,,,,2021-08-18,1,,,,,ミナト,0
364,2030001143891,新規,0,2021-08-18,2021-08-18,西建株式会社,,株式会社,埼玉県,川越市,中原町２丁目１２－２３、２０２,,11,201,3500042,,,,,,,2021-08-18,1,,,,,ニシケン,0
370,2030003017763,新規,0,2021-08-18,2021-08-18,ＨＡＩ　ＮＡＭ合同会社,,合同会社,埼玉県,川口市,西川口１丁目９番８スカイコート西川口第５－３０５号,,11,203,3320021,,,,,,,2021-08-18,1,,,,,ハイナム,0
371,2030003017788,新規,0,2021-08-18,2021-08-18,サシオカ合同会社,,合同会社,埼玉県,川越市,泉町２番地２６－１１０１,,11,201,3500026,,,,,,,2021-08-18,1,,,,,サシオカ,0
372,2030003017796,新規,0,2021-08-18,2021-08-18,新星通国際合同会社,,合同会社,埼玉県,川口市,西川口２丁目１番８号ライオンズプラザ西川口７０３号室,,11,203,3320021,,,,,,,2021-08-18,1,,,,,シンセイツウコクサイ,0
379,2040001119809,新規,0,2021-08-18,2021-08-18,株式会社日下芸術企画,,株式会社,千葉県,柏市,大室１４９９番地４９,,12,217,2770813,,,,,,,2021-08-18,1,,,,,クサカゲイジュツキカク,0
380,2040001119817,新規,0,2021-08-18,2021-08-18,株式会社ＩＫｍｕｓｉｃ,,株式会社,千葉県,千葉市中央区,白旗３丁目２１番１４号,,12,101,2600841,,,,,,,2021-08-18,1,,,,,アイケーミュージック,0
381,2040001119833,新規,0,2021-08-18,2021-08-18,株式会社木下総合鑑定,,株式会社,千葉県,市川市,南八幡１丁目７－３,,12,203,2720023,,,,,,,2021-08-18,1,,,,,キノシタソウゴウカンテイ,0
385,2060001033999,新規,0,2021-08-18,2021-08-18,株式会社ＯＴＷ,,株式会社,栃木県,宇都宮市,上戸祭町２３１番地１０,,09,201,3200051,,,,,,,2021-08-18,1,,,,,オーティーダブリュー,0
388,2070001038361,新規,0,2021-08-18,2021-08-18,株式会社ファン工房,,株式会社,群馬県,高崎市,白銀町９番地白銀ビル３階,,10,202,3700825,,,,,,,2021-08-18,1,,,,,ファンコウボウ,0
391,2080003002629,新規,0,2021-08-18,2021-08-18,合同会社鈴悠,,合同会社,静岡県,藤枝市,瀬古２丁目７番３３号,,22,214,4260082,,,,,,,2021-08-18,1,,,,,スズユウ,0
394,2090001017157,新規,0,2021-08-18,2021-08-18,ＭＡＲＢＬＥ株式会社,,株式会社,山梨県,甲府市,大手３丁目４番５３号,,19,201,4000015,,,,,,,2021-08-18,1,,,,,マーブル,0
397,2100001034530,新規,0,2021-08-18,2021-08-18,大雅株式会社,,株式会社,長野県,諏訪市,高島４丁目２６９０番地１,,20,206,3920022,,,,,,,2021-08-18,1,,,,,タイガ,0
416,2120001239805,新規,0,2021-08-18,2021-08-18,ライフウォーク株式会社,,株式会社,大阪府,枚方市,招提北町１丁目２３１５番地３５,,27,210,5731138,,,,,,,2021-08-18,1,,,,,ライフウォーク,0
417,2120001239821,新規,0,2021-08-18,2021-08-18,株式会社Ｌ＆Ｙ,,株式会社,大阪府,大阪市中央区,日本橋１丁目２３番３５号,,27,128,5420073,,,,,,,2021-08-18,1,,,,,エルアンドワイ,0
424,2120003020048,新規,0,2021-08-18,2021-08-18,合同会社アストラ,,合同会社,大阪府,大阪市東淀川区,下新庄５丁目６－１６－１４０４,,27,114,5330021,,,,,,,2021-08-18,1,,,,,アストラ,0
426,2120101064161,新規,0,2021-08-18,2021-08-18,７Ｐｉｌｌａｒ　Ｃｒａｆｔ株式会社,,株式会社,大阪府,堺市東区,日置荘西町７丁１３番９号,,27,143,5998114,,,,,,,2021-08-18,1,,,,,セブンピラークラフト,0
439,2140001122736,新規,0,2021-08-18,2021-08-18,株式会社ＳＨＩＰ,,株式会社,兵庫県,姫路市,駅前町２２２,,28,201,6700927,,,,,,,2021-08-18,1,,,,,シップ,0
442,2140003016647,新規,0,2021-08-18,2021-08-18,合同会社ハヤテ,,合同会社,兵庫県,西宮市,松園町７番１０号,,28,204,6620053,,,,,,,2021-08-18,1,,,,,ハヤテ,0
452,2180001147449,新規,0,2021-08-18,2021-08-18,ケーツー株式会社,,株式会社,愛知県,名古屋市中区,丸の内３丁目１８番９号秀光堂ビル３０１,,23,106,4600002,,,,,,,2021-08-18,1,,,,,ケーツー,0
466,2290001094234,新規,0,2021-08-18,2021-08-18,Ａｇｅｎｃｙ－Ｍａａｑｂｌｕｅ株式会社,,株式会社,福岡県,福岡市中央区,平尾５丁目１４番１２－４０１号,,40,133,8100014,,,,,,,2021-08-18,1,,,,,エージェンシーマアクブルー,0
469,2310001017415,新規,0,2021-08-18,2021-08-18,株式会社ソーシャル・デザイニングナガサキ,,株式会社,長崎県,長崎市,油木町４６番地３１,,42,201,8528035,,,,,,,2021-08-18,1,,,,,ソーシャルデザイニングナガサキ,0
477,2360003011378,新規,0,2021-08-18,2021-08-18,合同会社３９清掃,,合同会社,沖縄県,沖縄市,室川２丁目３３番７４号メゾン室川３０３号室,,47,211,9040013,,,,,,,2021-08-18,1,,,,,サンキュウセイソウ,0
487,2420003002370,新規,0,2021-08-18,2021-08-18,合同会社アザルギン,,合同会社,青森県,青森市,自由ケ丘２丁目５番地６,,02,201,0300941,,,,,,,2021-08-18,1,,,,,アザルギン,0
498,2500005008408,新規,0,2021-08-18,2021-08-18,一般社団法人世界絶対平和萬歳の鐘,,その他の設立登記法人,愛媛県,宇和島市,元結掛２丁目５番６号,,38,203,7980072,,,,,,,2021-08-18,1,,,,,セカイゼッタイヘイワバンザイノカネ,0
499,2700150104445,新規,0,2021-08-18,2021-08-18,ＨＳ　ＣＡＲＳ,,外国会社等,千葉県,山武市,井之内３７５番地Ｂ,,12,237,2891304,スリランカ民主社会主義共和国、アクラナ、マタレロード、２８４－２,,,,,,2021-08-18,1,,,,,エイチエスカーズ,0
500,2700150104461,新規,0,2021-08-18,2021-08-18,Ｓ．Ａ．Ｆ．ＧＲＯＵＰ　ＭＥＲＣＨＡＮＴＳ　ＰＲＩＶＡＴＥ　ＬＩＭＩＴＥＤ,,外国会社等,千葉県,山武郡芝山町,新井田６４６番地１ビジネスオフィス１４号,,12,409,2891625,スリランカ民主社会主義共和国、キャンディ、アンバテンナ、クドゥガラ、マタレロード、１９４－１,,,,,,2021-08-18,1,,,,,エスエイエフグループマーチヤンツプライベートリミテツド,0
510,3010001220469,新規,0,2021-08-18,2021-08-18,株式会社フィールド・ジャパン,,株式会社,東京都,千代田区,九段南１丁目５番６号りそな九段ビル５階ＫＳフロア,,13,101,1020074,,,,,,,2021-08-18,1,,,,,フィールドジャパン,0
511,3010001220485,新規,0,2021-08-18,2021-08-18,株式会社おひさま,,株式会社,東京都,文京区,本駒込６丁目４番９号,,13,105,1130021,,,,,,,2021-08-18,1,,,,,オヒサマ,0
512,3010001220510,新規,0,2021-08-18,2021-08-18,大宝株式会社,,株式会社,東京都,中央区,日本橋久松町１３番６号,,13,102,1030005,,,,,,,2021-08-18,1,,,,,ダイホウ,0
515,3010003035626,新規,0,2021-08-18,2021-08-18,趨勢コンサルティング合同会社,,合同会社,東京都,千代田区,九段南１丁目５番６号りそな九段ビル５Ｆ,,13,101,1020074,,,,,,,2021-08-18,1,,,,,スウセイコンサルティング,0
518,3010005033801,新規,0,2021-08-18,2021-08-18,ＧＬＰジャパンデベロップメント４一般社団法人,,その他の設立登記法人,東京都,千代田区,丸の内３丁目１番１号東京共同会計事務所内,,13,101,1000005,,,,,,,2021-08-18,1,,,,,ジーエルピージャパンデベロップメントフォー,0
520,3010401162195,新規,0,2021-08-18,2021-08-18,ＧＡＸマーケティング株式会社,,株式会社,東京都,港区,白金１丁目１７番３号,,13,103,1080072,,,,,,,2021-08-18,1,,,,,ガックスマーケティング,0
521,3010403025937,新規,0,2021-08-18,2021-08-18,田原グリーンバイオマス合同会社,,合同会社,東京都,港区,北青山２丁目５番１号,,13,103,1070061,,,,,,,2021-08-18,1,,,,,タハラグリーンバイオマス,0
529,3010603009095,新規,0,2021-08-18,2021-08-18,合同会社ゆうるまーる,,合同会社,東京都,墨田区,菊川３丁目１１番１７－９０３号,,13,107,1300024,,,,,,,2021-08-18,1,,,,,ユウルマール,0
532,3010801032246,新規,0,2021-08-18,2021-08-18,株式会社スマイルワークス,,株式会社,東京都,大田区,南千束２丁目２７番８号Ｅ棟,,13,111,1450063,,,,,,,2021-08-18,1,,,,,スマイルワークス,0
544,3011001142273,新規,0,2021-08-18,2021-08-18,株式会社ＡＬＭＯＮＤＢＡＧＧＥＲ,,株式会社,東京都,渋谷区,神宮前６丁目２３－４桑野ビル２階,,13,113,1500001,,,,,,,2021-08-18,1,,,,,アーモンドバガー,0
545,3011001142356,新規,0,2021-08-18,2021-08-18,株式会社マッチ,,株式会社,東京都,目黒区,上目黒２丁目２６番２号ヴィラハーモニー中目黒３０４号室,,13,110,1530051,,,,,,,2021-08-18,1,,,,,マッチ,0
551,3011101095966,新規,0,2021-08-18,2021-08-18,Ｋｉｎｇ’ｓ　Ｒｏａｄ株式会社,,株式会社,東京都,新宿区,須賀町１０番地８ウェリス四ツ谷４０６,,13,104,1600018,,,,,,,2021-08-18,1,,,,,キングスロード,0
552,3011101096015,新規,0,2021-08-18,2021-08-18,株式会社イープロダクト,,株式会社,東京都,新宿区,西新宿５丁目２５番１３－２０８号,,13,104,1600023,,,,,,,2021-08-18,1,,,,,イープロダクト,0
554,3011303004130,新規,0,2021-08-18,2021-08-18,カタリーズ合同会社,,合同会社,東京都,杉並区,久我山５丁目２１番１４号,,13,115,1680082,,,,,,,2021-08-18,1,,,,,,0
556,3011401023602,新規,0,2021-08-18,2021-08-18,株式会社ＥＤＤＹＰＲＯＤＵＣＴＩＯＮ,,株式会社,東京都,板橋区,上板橋３丁目２０番８号１－Ｅ,,13,119,1740076,,,,,,,2021-08-18,1,,,,,エディプロダクション,0
571,3012403004994,新規,0,2021-08-18,2021-08-18,合同会社河野製作所,,合同会社,東京都,多摩市,落川１３６５番地８,,13,224,2060015,,,,,,,2021-08-18,1,,,,,コウノセイサクジョ,0
606,3040001119808,新規,0,2021-08-18,2021-08-18,わたなべ不動産株式会社,,株式会社,千葉県,松戸市,松戸１１７６番地の１３,,12,207,2710092,,,,,,,2021-08-18,1,,,,,ワタナベフドウサン,0
607,3040001119824,新規,0,2021-08-18,2021-08-18,株式会社美紀コンサルティング,,株式会社,千葉県,鎌ケ谷市,道野辺中央１丁目２－６大野ビル２０２号,,12,224,2730113,,,,,,,2021-08-18,1,,,,,ミキコンサルティング,0
608,3040001119832,新規,0,2021-08-18,2021-08-18,株式会社シーアップ,,株式会社,千葉県,印西市,瀬戸２０９１番地,,12,231,2701614,,,,,,,2021-08-18,1,,,,,シーアップ,0
609,3040001119840,新規,0,2021-08-18,2021-08-18,株式会社ＧＯＯＤ　ＬＩＦＥ,,株式会社,千葉県,市川市,東菅野１丁目１６番２１号１０５号室,,12,203,2720823,,,,,,,2021-08-18,1,,,,,グッドライフ,0
612,3040003018339,新規,0,2021-08-18,2021-08-18,合同会社Ｋｏｋａｇｅ,,合同会社,千葉県,市原市,瀬又６３２番地２,,12,219,2900151,,,,,,,2021-08-18,1,,,,,コカゲ,0
613,3040003018347,新規,0,2021-08-18,2021-08-18,合同会社ＩＮＤＩＧＯＬＤ,,合同会社,千葉県,千葉市美浜区,打瀬２丁目２３番地パティオス１９番街２－２０８号,,12,106,2610013,,,,,,,2021-08-18,1,,,,,インディゴールド,0
620,3070001038352,新規,0,2021-08-18,2021-08-18,ランドワークス株式会社,,株式会社,群馬県,邑楽郡大泉町,大字古海７９４番地の３６,,10,524,3700524,,,,,,,2021-08-18,1,,,,,ランドワークス,0
621,3070001038360,新規,0,2021-08-18,2021-08-18,株式会社ＢＲＵＧＥＳ,,株式会社,群馬県,伊勢崎市,田中島町１４１６番地１３,,10,204,3720802,,,,,,,2021-08-18,1,,,,,ブルージュ,0
627,3110005016696,新規,0,2021-08-18,2021-08-18,一般社団法人涌井建築,,その他の設立登記法人,新潟県,長岡市,栃堀１９９番地２,,15,202,9400145,,,,,,,2021-08-18,1,,,,,ワクイケンチク,0
637,3120001239779,新規,0,2021-08-18,2021-08-18,株式会社イイナ,,株式会社,大阪府,大阪市中央区,南久宝寺町３丁目３番３号三都ビル３０５号,,27,128,5410058,,,,,,,2021-08-18,1,,,,,イイナ,0
657,3130003007415,新規,0,2021-08-18,2021-08-18,合同会社Ｎ．Ｏ．Ｅ,,合同会社,京都府,京都市伏見区,深草泓ノ壺町２５－３第２住田屋ビル２０２,,26,109,6128435,,,,,,,2021-08-18,1,,,,,エヌオーイー,0
662,3140003016638,新規,0,2021-08-18,2021-08-18,合同会社ＢＲＩＳＫ,,合同会社,兵庫県,神戸市中央区,元町通５丁目４－８三木ビル１Ｆ,,28,110,6500022,,,,,,,2021-08-18,1,,,,,ブリスク,0
677,3180001147480,新規,0,2021-08-18,2021-08-18,株式会社Ｈａｒｂｏｒ,,株式会社,愛知県,名古屋市中区,栄４丁目９番１０号愛信プラザビル２階１２号室,,23,106,4600008,,,,,,,2021-08-18,1,,,,,ハーバー,0
681,3180003022871,新規,0,2021-08-18,2021-08-18,合同会社エイチエム・アーキ,,合同会社,愛知県,名古屋市中村区,本陣通５丁目４３番地の３,,23,105,4530041,,,,,,,2021-08-18,1,,,,,エイチエムアーキ,0
699,3260001035875,新規,0,2021-08-18,2021-08-18,株式会社ＴＬＣ,,株式会社,岡山県,岡山市南区,豊成３丁目２１番１８－３０２号,,33,104,7000942,,,,,,,2021-08-18,1,,,,,ティーエルシー,0
724,3360001029215,新規,0,2021-08-18,2021-08-18,ｇｌｏｗ　ａｒｋ株式会社,,株式会社,沖縄県,那覇市,小禄１丁目２３－２３ＬＵＣＫマンション５０３,,47,201,9010152,,,,,,,2021-08-18,1,,,,,グローアーク,0
725,3360003011369,新規,0,2021-08-18,2021-08-18,合同会社千喜,,合同会社,沖縄県,那覇市,天久２丁目１番１７号５０５,,47,201,9000005,,,,,,,2021-08-18,1,,,,,センキ,0
732,3370003005361,新規,0,2021-08-18,2021-08-18,合同会社ＫＥＺＡＲＩＮ,,合同会社,宮城県,仙台市泉区,向陽台３丁目３６番２５号－２Ｆ,,04,105,9813102,,,,,,,2021-08-18,1,,,,,ケザリン,0
743,3460301005005,新規,0,2021-08-18,2021-08-18,株式会社マルミツ運送,,株式会社,北海道,北見市,公園町１６３番地２５,,01,208,0900015,,,,,,,2021-08-18,1,,,,,マルミツウンソウ,0
759,4010003035625,新規,0,2021-08-18,2021-08-18,合同会社ＧｒｅｅｎＲｕｓｈ,,合同会社,東京都,文京区,小石川２丁目２４番８－２１２号,,13,105,1120002,,,,,,,2021-08-18,1,,,,,グリーンラッシュ,0
760,4010101014811,新規,0,2021-08-18,2021-08-18,株式会社ＴＡＮＡＫＡ　ＴＲＡＤＩＮＧ,,株式会社,東京都,八王子市,子安町４丁目７番１－２３１１号,,13,201,1920904,,,,,,,2021-08-18,1,,,,,タナカトレーディング,0
773,4010401162137,新規,0,2021-08-18,2021-08-18,株式会社ＮＯＡＳＩＳ,,株式会社,東京都,港区,新橋２丁目１１－１０,,13,103,1050004,,,,,,,2021-08-18,1,,,,,ノアシス,0
774,4010401162145,新規,0,2021-08-18,2021-08-18,ＳＴＡＲＳＥＥＤ株式会社,,株式会社,東京都,港区,西麻布２丁目８番１２号,,13,103,1060031,,,,,,,2021-08-18,1,,,,,スターシード,0
775,4010401162186,新規,0,2021-08-18,2021-08-18,ＺＩＧＺＡＧＧＥＲ株式会社,,株式会社,東京都,港区,南麻布５丁目４－１オパス有栖川テラスアンドレジデンス６０４号室,,13,103,1060047,,,,,,,2021-08-18,1,,,,,ジグザガー,0
776,4010401162194,新規,0,2021-08-18,2021-08-18,パサリスファーマ・ジャパン株式会社,,株式会社,東京都,港区,南青山３丁目８番１４号,,13,103,1070062,,,,,,,2021-08-18,1,,,,,パサリスファーマジャパン,0
777,4010405020126,新規,0,2021-08-18,2021-08-18,特定目的会社港北開発,,その他の設立登記法人,東京都,港区,六本木６丁目１０番１号六本木ヒルズ森タワー,,13,103,1060032,,,,,,,2021-08-18,1,,,,,コウホクカイハツ,0
793,4010901049271,新規,0,2021-08-18,2021-08-18,株式会社Ｔａｋｅ　ＯＮ,,株式会社,東京都,世田谷区,上野毛４丁目２１番１８号,,13,112,1580093,,,,,,,2021-08-18,1,,,,,テイクオン,0
795,4010903006733,新規,0,2021-08-18,2021-08-18,ステラトレーディング合同会社,,合同会社,東京都,世田谷区,玉堤１丁目２５番１５号ヴィラ・フィオーレ５０１,,13,112,1580087,,,,,,,2021-08-18,1,,,,,,0
799,4011001142215,新規,0,2021-08-18,2021-08-18,株式会社ａｏ,,株式会社,東京都,渋谷区,千駄ヶ谷４丁目１５番１０号北参道ヒルズ２階,,13,113,1510051,,,,,,,2021-08-18,1,,,,,アオ,0
800,4011001142256,新規,0,2021-08-18,2021-08-18,株式会社ＡＳＩＳ,,株式会社,東京都,渋谷区,神宮前６丁目２３番４号桑野ビル２階,,13,113,1500001,,,,,,,2021-08-18,1,,,,,アズイズ,0
801,4011003013232,新規,0,2021-08-18,2021-08-18,Ａｉｒｆｌｏｗ合同会社,,合同会社,東京都,渋谷区,代々木１丁目２４番１５号代々木ハイツ１０１,,13,113,1510053,,,,,,,2021-08-18,1,,,,,エアフロー,0
829,4020001142637,新規,0,2021-08-18,2021-08-18,株式会社輝繋,,株式会社,神奈川県,横浜市泉区,岡津町１０４０番地６,,14,116,2450003,,,,,,,2021-08-18,1,,,,,キズナ,0
830,4020001142645,新規,0,2021-08-18,2021-08-18,株式会社Ｉ．Ｆ．,,株式会社,神奈川県,川崎市多摩区,登戸２６６３番地－５階Ａ－１,,14,135,2140014,,,,,,,2021-08-18,1,,,,,アイエフ,0
834,4020003020329,新規,0,2021-08-18,2021-08-18,合同会社Ｌｕｍｉｎｏｘ,,合同会社,神奈川県,横浜市港南区,丸山台２丁目２９番１４号,,14,111,2330013,,,,,,,2021-08-18,1,,,,,ルミノクス,0
835,4020003020337,新規,0,2021-08-18,2021-08-18,合同会社ＡＲＡＴＡ,,合同会社,神奈川県,横浜市瀬谷区,北新３番地２２サンフラワーハイツ２０１,,14,114,2460036,,,,,,,2021-08-18,1,,,,,アラタ,0
838,4021001073698,新規,0,2021-08-18,2021-08-18,株式会社ＴＩＭ,,株式会社,神奈川県,厚木市,栄町１丁目６－１メゾン厚木１０６,,14,212,2430017,,,,,,,2021-08-18,1,,,,,ティム,0
862,4040001119807,新規,0,2021-08-18,2021-08-18,株式会社イワモトワークス,,株式会社,千葉県,君津市,浜子６１－１,,12,225,2991122,,,,,,,2021-08-18,1,,,,,イワモトワークス,0
863,4040001119815,新規,0,2021-08-18,2021-08-18,株式会社よもぎ,,株式会社,千葉県,茂原市,千沢５４３番地１１,,12,210,2994103,,,,,,,2021-08-18,1,,,,,ヨモギ,0
864,4040001119823,新規,0,2021-08-18,2021-08-18,株式会社ＫＩＣ,,株式会社,千葉県,市原市,五井２１９５番地６,,12,219,2900056,,,,,,,2021-08-18,1,,,,,ケーアイシー,0
872,4050001049689,新規,0,2021-08-18,2021-08-18,株式会社ＦｏｒＣｒｅａ,,株式会社,茨城県,つくば市,吾妻２丁目５－１つくば市産業振興センター内,,08,220,3050031,,,,,,,2021-08-18,1,,,,,フォクリエ,0
875,4070001038351,新規,0,2021-08-18,2021-08-18,株式会社Ｂ＆Ａ　ＥＮＬＩＧＨＴ,,株式会社,群馬県,伊勢崎市,本町２０番地５,,10,204,3720047,,,,,,,2021-08-18,1,,,,,ビーアンドエーエンライト,0
899,4120001239786,新規,0,2021-08-18,2021-08-18,株式会社パラレル,,株式会社,大阪府,大阪市中央区,谷町１丁目３番４号ウェリス大手前２０４号,,27,128,5400012,,,,,,,2021-08-18,1,,,,,パラレル,0
900,4120001239803,新規,0,2021-08-18,2021-08-18,株式会社Ａ－ｓｔａｔｉｏｎ,,株式会社,大阪府,大阪市阿倍野区,旭町１丁目５－４５ココファン阿倍野２Ｆ,,27,119,5450051,,,,,,,2021-08-18,1,,,,,エーステーション,0
901,4120001239828,新規,0,2021-08-18,2021-08-18,株式会社木村工務店,,株式会社,大阪府,大阪市西淀川区,中島１丁目３４番６２号,,27,113,5550041,,,,,,,2021-08-18,1,,,,,キムラコウムテン,0
907,4120003020038,新規,0,2021-08-18,2021-08-18,合同会社追進坊,,合同会社,大阪府,大阪市西成区,玉出中２丁目１６番６号,,27,122,5570044,,,,,,,2021-08-18,1,,,,,オイシンボウ,0
908,4120003020046,新規,0,2021-08-18,2021-08-18,合同会社ＣＲＵＩＳＥ,,合同会社,大阪府,大阪市北区,梅田１丁目２－２大阪駅前第２ビル２階５－６,,27,127,5300001,,,,,,,2021-08-18,1,,,,,クルーズ,0
909,4120003020054,新規,0,2021-08-18,2021-08-18,合同会社Ａ＆Ｇ,,合同会社,大阪府,大阪市東淀川区,下新庄４丁目２１番生島リバーサイドマンションＡ棟１００６号室,,27,114,5330021,,,,,,,2021-08-18,1,,,,,エーアンドジー,0
911,4120103004304,新規,0,2021-08-18,2021-08-18,合同会社あすなろ,,合同会社,大阪府,岸和田市,畑町４丁目３番１号,,27,202,5960831,,,,,,,2021-08-18,1,,,,,アスナロ,0
927,4140001122692,新規,0,2021-08-18,2021-08-18,株式会社ＺＩＮＧ,,株式会社,兵庫県,神戸市西区,長畑町１番地の６,,28,111,6512148,,,,,,,2021-08-18,1,,,,,ジング,0
928,4140001122718,新規,0,2021-08-18,2021-08-18,株式会社プレリンク,,株式会社,兵庫県,尼崎市,水堂町２丁目１３番１９号,,28,202,6610026,,,,,,,2021-08-18,1,,,,,プレリンク,0
929,4140001122726,新規,0,2021-08-18,2021-08-18,株式会社輝,,株式会社,兵庫県,神戸市兵庫区,塚本通５丁目４番１２号酒井ハイツ２０１号,,28,105,6520804,,,,,,,2021-08-18,1,,,,,カガヤキ,0
937,4160001023559,新規,0,2021-08-18,2021-08-18,株式会社Ｃｈｏｉｃｅ,,株式会社,滋賀県,近江八幡市,上田町９７４番地２２,,25,204,5230015,,,,,,,2021-08-18,1,,,,,チョイッス,0
949,4180001147397,新規,0,2021-08-18,2021-08-18,株式会社ＡＲＳ　ＪＡＰＡＮ,,株式会社,愛知県,名古屋市港区,藤高２丁目２番,,23,111,4550854,,,,,,,2021-08-18,1,,,,,エーアールエスジャパン,0
953,4190001028613,新規,0,2021-08-18,2021-08-18,株式会社ルミナ,,株式会社,三重県,伊勢市,上野町１５６８番地２,,24,203,5161104,,,,,,,2021-08-18,1,,,,,ルミナ,0
955,4200001039022,新規,0,2021-08-18,2021-08-18,株式会社環境プロジェクト,,株式会社,岐阜県,羽島郡笠松町,円城寺１５０６番地の１サニーフィールド１０２号室,,21,303,5016035,,,,,,,2021-08-18,1,,,,,カンキョウプロジェクト,0
978,4360001029247,新規,0,2021-08-18,2021-08-18,株式会社ＨＡＬＥイシガキ,,株式会社,沖縄県,石垣市,字登野城５８９番地外間アパート２０２号,,47,207,9070004,,,,,,,2021-08-18,1,,,,,ハレイシガキ,0
980,4370001047495,新規,0,2021-08-18,2021-08-18,株式会社結心,,株式会社,宮城県,宮城郡利府町,青山３丁目３２番地１３,,04,406,9810131,,,,,,,2021-08-18,1,,,,,ユウシン,0
996,4450001013448,新規,0,2021-08-18,2021-08-18,株式会社マルチ・リテイリング,,株式会社,北海道,旭川市,豊岡二条８丁目６番１３号,,01,204,0788232,,,,,,,2021-08-18,1,,,,,マルチリテイリング,0
1018,5010001220467,新規,0,2021-08-18,2021-08-18,株式会社ＫＯＷＡ　ＴＲＡＶＥＬ,,株式会社,東京都,中央区,銀座５丁目１４番１６号銀座アビダシオン８０３,,13,102,1040061,,,,,,,2021-08-18,1,,,,,コーワトラベル,0
1019,5010001220475,新規,0,2021-08-18,2021-08-18,株式会社セラネス,,株式会社,東京都,文京区,湯島３丁目１８番１０－７０６号,,13,105,1130034,,,,,,,2021-08-18,1,,,,,セラネス,0
1020,5010001220483,新規,0,2021-08-18,2021-08-18,Ｈｅｒａ株式会社,,株式会社,東京都,千代田区,永田町２丁目１４番２号山王グランドビル３階スリーアイズキャピタル株式会社内,,13,101,1000014,,,,,,,2021-08-18,1,,,,,ヘラ,0
1021,5010001220500,新規,0,2021-08-18,2021-08-18,アーガス・メディア・ジャパン株式会社,,株式会社,東京都,中央区,京橋２丁目７番１４号,,13,102,1040031,,,,,,,2021-08-18,1,,,,,アーガスメディアジャパン,0
1022,5010001220509,新規,0,2021-08-18,2021-08-18,東京令和株式会社,,株式会社,東京都,文京区,本駒込２丁目２９番２７号レニール本駒込８０１号室,,13,105,1130021,,,,,,,2021-08-18,1,,,,,トウキョウレイワ,0
1028,5010003035590,新規,0,2021-08-18,2021-08-18,ミッケル合同会社,,合同会社,東京都,中央区,銀座１丁目２２番１１号銀座大竹ビジデンス２階,,13,102,1040061,,,,,,,2021-08-18,1,,,,,ミッケル,0
1036,5010401162136,新規,0,2021-08-18,2021-08-18,Ｖｉｓｉｏｎ　Ｌａｂ株式会社,,株式会社,東京都,港区,赤坂６丁目１０番４２号パシフィックパレス赤坂５０３,,13,103,1070052,,,,,,,2021-08-18,1,,,,,ビジョンラボ,0
1037,5010401162185,新規,0,2021-08-18,2021-08-18,株式会社ＲＭＣＫ,,株式会社,東京都,港区,赤坂７丁目４番１８号赤坂プラザ１０３,,13,103,1070052,,,,,,,2021-08-18,1,,,,,アールエムシイケイ,0
1041,5010403025919,新規,0,2021-08-18,2021-08-18,合同会社Ｔｉａｓｔａｌ　Ｊａｐａｎ,,合同会社,東京都,港区,北青山２丁目７－２０猪瀬ビル２Ｆ,,13,103,1070061,,,,,,,2021-08-18,1,,,,,ティアスタルジャパン,0
1047,5010601059818,新規,0,2021-08-18,2021-08-18,株式会社Ｃｏ　Ｃｏ　Ｇｌｏｂａｌ,,株式会社,東京都,墨田区,太平４丁目１番２号オリナスモール１Ｆザ・グリーンターラ,,13,107,1300012,,,,,,,2021-08-18,1,,,,,ココグローバル,0
1068,5011105009912,新規,0,2021-08-18,2021-08-18,行政書士法人テンポート,,その他の設立登記法人,東京都,新宿区,新宿１丁目１９番１０号サンモールクレスト２０４,,13,104,1600022,,,,,,,2021-08-18,1,,,,,テンポート,0
1069,5011203003619,新規,0,2021-08-18,2021-08-18,ピクトメイク合同会社,,合同会社,東京都,中野区,弥生町２丁目４１－１７,,13,114,1640013,,,,,,,2021-08-18,1,,,,,ピクトメイク,0
1074,5011503004861,新規,0,2021-08-18,2021-08-18,合同会社レットファイン,,合同会社,東京都,荒川区,東日暮里３丁目２番４－３０７号,,13,118,1160014,,,,,,,2021-08-18,1,,,,,レットファイン,0
1080,5012401038209,新規,0,2021-08-18,2021-08-18,ランクス株式会社,,株式会社,東京都,小金井市,本町２丁目２０－１５,,13,210,1840004,,,,,,,2021-08-18,1,,,,,ランクス,0
1081,5012403004992,新規,0,2021-08-18,2021-08-18,合同会社リーサット,,合同会社,東京都,多摩市,中沢２丁目２４番１０号,,13,224,2060036,,,,,,,2021-08-18,1,,,,,リーサット,0
1093,5020001142644,新規,0,2021-08-18,2021-08-18,株式会社ＳＨＩＴＯＲＩ．ＣＭ,,株式会社,神奈川県,横浜市中区,尾上町４丁目５７番地横浜尾上町ビルディング８階,,14,104,2310015,,,,,,,2021-08-18,1,,,,,シトリシーエム,0
1103,5021001073706,新規,0,2021-08-18,2021-08-18,ニューロード株式会社,,株式会社,神奈川県,座間市,入谷東４丁目１７番１０号,,14,216,2520028,,,,,,,2021-08-18,1,,,,,ニューロード,0
1109,5030005020481,新規,0,2021-08-18,2021-08-18,特定非営利活動法人ぽちたまレスキュー,,その他の設立登記法人,埼玉県,羽生市,大字下川崎１０３９番地２,,11,216,3480034,,,,,,,2021-08-18,1,,,,,ポチタマレスキュー,0
1112,5040001119814,新規,0,2021-08-18,2021-08-18,株式会社藤丸道路,,株式会社,千葉県,柏市,東１丁目２番４号,,12,217,2770014,,,,,,,2021-08-18,1,,,,,フジマルドウロ,0
1114,5040003018329,新規,0,2021-08-18,2021-08-18,真正合同会社,,合同会社,千葉県,柏市,藤ケ谷１２１８番地７,,12,217,2770931,,,,,,,2021-08-18,1,,,,,シンセイ,0
1115,5040003018345,新規,0,2021-08-18,2021-08-18,合同会社ＨＡＹＡＴＯ　Ｔｈｅ　Ｋｉｔｃｈｅｎ,,合同会社,千葉県,四街道市,大日８９番地８,,12,228,2840001,,,,,,,2021-08-18,1,,,,,ハヤトザキッチン,0
1130,5090003001924,新規,0,2021-08-18,2021-08-18,合同会社ソリューション,,合同会社,山梨県,甲州市,塩山三日市場２７１１番地,,19,213,4040047,,,,,,,2021-08-18,1,,,,,ソリューション,0
1139,5120001239521,新規,0,2021-08-18,2021-08-18,株式会社ＨＡＵＳ,,株式会社,大阪府,大阪市福島区,吉野１丁目５番１７号,,27,103,5530006,,,,,,,2021-08-18,1,,,,,ハウス,0
1140,5120001239777,新規,0,2021-08-18,2021-08-18,オリジングローバル株式会社,,株式会社,大阪府,大阪市東成区,玉津２丁目１８番４３号,,27,115,5370023,,,,,,,2021-08-18,1,,,,,オリジングローバル,0
1141,5120001239785,新規,0,2021-08-18,2021-08-18,ＩｒａｎＤＯ株式会社,,株式会社,大阪府,大阪市北区,中之島３丁目３番２３－８０５号,,27,127,5300005,,,,,,,2021-08-18,1,,,,,イランドゥ,0
1144,5120003019987,新規,0,2021-08-18,2021-08-18,スリースワン・アウェイク合同会社,,合同会社,大阪府,大阪市中央区,北浜３丁目２－２５京阪淀屋橋ビル８階,,27,128,5410041,,,,,,,2021-08-18,1,,,,,スリースワンアウェイク,0
1145,5120003020029,新規,0,2021-08-18,2021-08-18,合同会社ａｌｐｈａ,,合同会社,大阪府,枚方市,中宮山戸町２番１３－３０１号,,27,210,5730011,,,,,,,2021-08-18,1,,,,,アルファ,0
1146,5120003020053,新規,0,2021-08-18,2021-08-18,合同会社アドアステラ,,合同会社,大阪府,大阪市北区,中津１丁目６番２９－３１０４号,,27,127,5310071,,,,,,,2021-08-18,1,,,,,アドアステラ,0
1147,5120101064159,新規,0,2021-08-18,2021-08-18,株式会社大瑛建設,,株式会社,大阪府,堺市美原区,北余部２４番地１０,,27,147,5870051,,,,,,,2021-08-18,1,,,,,ダイエイケンセツ,0
1164,5140001122709,新規,0,2021-08-18,2021-08-18,株式会社Ａ　ｔｏ　Ｚ,,株式会社,兵庫県,神戸市北区,大原３丁目１８番地の２,,28,109,6511222,,,,,,,2021-08-18,1,,,,,エートゥーゼット,0
1184,5180001147462,新規,0,2021-08-18,2021-08-18,桜株式会社,,株式会社,愛知県,名古屋市中区,栄１丁目１６番１６号－９１４号室,,23,106,4600008,,,,,,,2021-08-18,1,,,,,サクラ,0
1201,5240001058463,新規,0,2021-08-18,2021-08-18,株式会社ＯＦＦＩＣＥ・ＨＩＴ,,株式会社,広島県,広島市中区,住吉町１６番８号,,34,101,7300813,,,,,,,2021-08-18,1,,,,,オフィスヒット,0
1207,5260001035873,新規,0,2021-08-18,2021-08-18,株式会社エフ・グランド,,株式会社,岡山県,玉野市,八浜町波知１５４２番地２,,33,204,7060223,,,,,,,2021-08-18,1,,,,,エフグランド,0
1214,5290003011515,新規,0,2021-08-18,2021-08-18,尾の岳風力合同会社,,合同会社,福岡県,福岡市中央区,渡辺通５丁目２０番７号,,40,133,8100004,,,,,,,2021-08-18,1,,,,,オノタケフウリョク,0
1219,5310001017420,新規,0,2021-08-18,2021-08-18,北生物流株式会社,,株式会社,長崎県,平戸市,生月町御崎７０４番地１,,42,207,8595707,,,,,,,2021-08-18,1,,,,,ホクセイブツリュウ,0
1221,5320003003599,新規,0,2021-08-18,2021-08-18,合同会社Ｕｐ‐ｏｎｅ,,合同会社,大分県,中津市,大字上如水１２８４番地オアシス如水Ｈ号,,44,203,8710004,,,,,,,2021-08-18,1,,,,,アップワン,0
1231,5360001029238,新規,0,2021-08-18,2021-08-18,株式会社アフマディ貿易,,株式会社,沖縄県,うるま市,字田場９７８番地１－２Ｆ,,47,213,9042213,,,,,,,2021-08-18,1,,,,,アフマディボウエキ,0
1232,5360001029254,新規,0,2021-08-18,2021-08-18,株式会社Ａｗａｙｋｅ,,株式会社,沖縄県,那覇市,松山１丁目７番８号Ａｒｕフェリースビル１Ｆ,,47,201,9000032,,,,,,,2021-08-18,1,,,,,アウェイク,0
1234,5360003011359,新規,0,2021-08-18,2021-08-18,合同会社玻名城,,合同会社,沖縄県,那覇市,首里石嶺町４丁目７７番１号サンヒルズ田場１０３,,47,201,9030804,,,,,,,2021-08-18,1,,,,,ハナシロ,0
1242,5380001032124,新規,0,2021-08-18,2021-08-18,株式会社リモネ,,株式会社,福島県,伊達市,梁川町字右城町５６番地の１,,07,213,9600745,,,,,,,2021-08-18,1,,,,,,0
1264,5480003001711,新規,0,2021-08-18,2021-08-18,合同会社ソーケイ・トータルサービス,,合同会社,徳島県,徳島市,富田橋１丁目３２番地１松村ビル５０１,,36,201,7700937,,,,,,,2021-08-18,1,,,,,ソーケイトータルサービス,0
1267,5500003002681,新規,0,2021-08-18,2021-08-18,合同会社力添え,,合同会社,愛媛県,松山市,南久米町４１１ドエル東山Ｃ棟１０１号,,38,201,7900924,,,,,,,2021-08-18,1,,,,,カゾエ,0
1275,5700150104442,新規,0,2021-08-18,2021-08-18,ＭＡＪＥＥＤ　ＲＩＣＥ　ＭＩＬＬ,,外国会社等,千葉県,山武郡芝山町,新井田６４６番地１ビジネスオフィス１５号,,12,409,2891625,スリランカ民主社会主義共和国、マワディパリ,,,,,,2021-08-18,1,,,,,マジードライスミル,0
1283,6010001220458,新規,0,2021-08-18,2021-08-18,株式会社ＫＣＩＥ,,株式会社,東京都,千代田区,九段南１丁目５－６りそな九段ビル５ＦＫＳフロア,,13,101,1020074,,,,,,,2021-08-18,1,,,,,クシエ,0
1284,6010001220466,新規,0,2021-08-18,2021-08-18,株式会社ｍｉｋｅｙ,,株式会社,東京都,中央区,新川１丁目３番２１号,,13,102,1040033,,,,,,,2021-08-18,1,,,,,マイキー,0
1285,6010001220490,新規,0,2021-08-18,2021-08-18,株式会社プラチナプレイス,,株式会社,東京都,中央区,銀座８丁目５番２０号,,13,102,1040061,,,,,,,2021-08-18,1,,,,,プラチナプレイス,0
1289,6010003035623,新規,0,2021-08-18,2021-08-18,ＭＡＳＨ　ＪＡＰＡＮ合同会社,,合同会社,東京都,中央区,銀座１丁目２２番１１号銀座大竹ビジデンス２階,,13,102,1040061,,,,,,,2021-08-18,1,,,,,マッシュジャパン,0
1294,6010401162176,新規,0,2021-08-18,2021-08-18,株式会社ｂｌｅｎｄｅｒ,,株式会社,東京都,港区,南麻布５丁目１番１１－７０３号,,13,103,1060047,,,,,,,2021-08-18,1,,,,,ブレンダー,0
1296,6010403025926,新規,0,2021-08-18,2021-08-18,ＥＮＩＷ合同会社,,合同会社,東京都,港区,南青山２丁目２番ウィン青山１２０７号室,,13,103,1070062,,,,,,,2021-08-18,1,,,,,エニウ,0
1298,6010601059809,新規,0,2021-08-18,2021-08-18,株式会社アベニール,,株式会社,東京都,江東区,亀戸５丁目１３－１４ＬＯＦＴＨＯＴＥＬ亀戸１０１,,13,108,1360071,,,,,,,2021-08-18,1,,,,,アベニール,0
1299,6010601059817,新規,0,2021-08-18,2021-08-18,株式会社原田久嗣建築設計事務所,,株式会社,東京都,江東区,東雲１丁目９番１４－８１２号,,13,108,1350062,,,,,,,2021-08-18,1,,,,,ハラダヒサツグケンチクセッケイジムショ,0
1312,6011001142287,新規,0,2021-08-18,2021-08-18,株式会社Ｂｌｕｅ　Ｒｏｃｋ,,株式会社,東京都,渋谷区,神宮前２丁目５－６－４０２,,13,113,1500001,,,,,,,2021-08-18,1,,,,,ブルーロック,0
1313,6011001142312,新規,0,2021-08-18,2021-08-18,株式会社スウェル・ホールディングス,,株式会社,東京都,目黒区,上目黒１丁目１１番１号ＯＡＫＢＬＤＧⅡ２Ｆ,00123958,13,110,1530051,,,,,,,2021-08-18,1,,,,,スウェルホールディングス,0
1316,6011101096037,新規,0,2021-08-18,2021-08-18,アンドロメダ株式会社,,株式会社,東京都,新宿区,西新宿３丁目７番１号新宿パークタワーＮ３０階,,13,104,1600023,,,,,,,2021-08-18,1,,,,,アンドロメダ,0
1317,6011105009911,新規,0,2021-08-18,2021-08-18,社会保険労務士法人リーガルネットワークス,,その他の設立登記法人,東京都,新宿区,新宿１丁目３４番１３号,,13,104,1600022,,,,,,,2021-08-18,1,,,,,リーガルネットワークス,0
1322,6011403003418,新規,0,2021-08-18,2021-08-18,合同会社荒川資産管理,,合同会社,東京都,板橋区,大山町５２番２号朝日クレス・パリオ大山２０６,,13,119,1730023,,,,,,,2021-08-18,1,,,,,アラカワシサンカンリ,0
1344,6020001142643,新規,0,2021-08-18,2021-08-18,ラ・ルナ株式会社,,株式会社,神奈川県,横浜市都筑区,すみれが丘３５番地５１,,14,118,2240013,,,,,,,2021-08-18,1,,,,,ラルナ,0
1346,6020003020327,新規,0,2021-08-18,2021-08-18,合同会社ＲＩＳＯ,,合同会社,神奈川県,横浜市中区,本牧三之谷１１番２２号,,14,104,2310824,,,,,,,2021-08-18,1,,,,,リソ,0
1347,6020005015168,新規,0,2021-08-18,2021-08-18,一般社団法人ＳＩＬＶＥＲ　ＳＴＡＲ,,その他の設立登記法人,神奈川県,川崎市川崎区,駅前本町１１番地２川崎フロンティアビル４階,,14,131,2100007,,,,,,,2021-08-18,1,,,,,シルバースター,0
1353,6021003010805,新規,0,2021-08-18,2021-08-18,Ｃｌｅａｒｕｐ　ｐｉｌａｔｅｓ合同会社,,合同会社,神奈川県,藤沢市,川名８８８番地の２フリート湘南７０８号,,14,205,2510015,,,,,,,2021-08-18,1,,,,,,0
1354,6030001143888,新規,0,2021-08-18,2021-08-18,一慶株式会社,,株式会社,埼玉県,深谷市,小前田１２１１番地３,,11,218,3691246,,,,,,,2021-08-18,1,,,,,イッケイ,0
1355,6030001143896,新規,0,2021-08-18,2021-08-18,株式会社エフスリープランニング,,株式会社,埼玉県,川口市,元郷４丁目７番１３－４０３号クランドール南平,,11,203,3320011,,,,,,,2021-08-18,1,,,,,エフスリープランニング,0
1366,6040001119813,新規,0,2021-08-18,2021-08-18,県東荷役株式会社,,株式会社,千葉県,銚子市,柴崎町１丁目９９番地,,12,202,2880842,,,,,,,2021-08-18,1,,,,,ケントウニヤク,0
1367,6040001119821,新規,0,2021-08-18,2021-08-18,ウィズペット株式会社,,株式会社,千葉県,市原市,ちはら台西１丁目１１番地２、８０５,,12,219,2900143,,,,,,,2021-08-18,1,,,,,ウィズペット,0
1373,6050001049695,新規,0,2021-08-18,2021-08-18,株式会社長谷川笑店,,株式会社,茨城県,石岡市,国府２丁目１－４－５０５第１４ＳＹビル,,08,205,3150014,,,,,,,2021-08-18,1,,,,,ハセガワショウテン,0
1376,6070001038358,新規,0,2021-08-18,2021-08-18,株式会社Ａｔｈｅｎａ,,株式会社,群馬県,邑楽郡大泉町,大字吉田２４６６－８７岡部ビル２階,,10,524,3700523,,,,,,,2021-08-18,1,,,,,アテナ,0
1377,6070001038366,新規,0,2021-08-18,2021-08-18,株式会社家和農機商会,,株式会社,群馬県,桐生市,相生町２丁目７４０番地の９グロースベルクＢ２０１,,10,203,3760011,,,,,,,2021-08-18,1,,,,,カワノウキショウカイ,0
1378,6070003004201,新規,0,2021-08-18,2021-08-18,合同会社ＰｒｉｍｅＡＩ,,合同会社,群馬県,北群馬郡榛東村,大字広馬場２７３１番地５,,10,344,3703504,,,,,,,2021-08-18,1,,,,,プライムアイ,0
1387,6110001035978,新規,0,2021-08-18,2021-08-18,株式会社児玉建築店,,株式会社,新潟県,新潟市西区,藤野木２９９番地,,15,107,9502138,,,,,,,2021-08-18,1,,,,,コダマケンチクテン,0
1399,6120001239776,新規,0,2021-08-18,2021-08-18,株式会社阪神リノベーション,,株式会社,大阪府,大阪市北区,本庄東１丁目１０番１９号,,27,127,5310074,,,,,,,2021-08-18,1,,,,,ハンシンリノベーション,0
1400,6120001239784,新規,0,2021-08-18,2021-08-18,株式会社Ｄ・Ａ・Ｌ,,株式会社,大阪府,大阪市中央区,南船場２丁目１１番２０号１Ｆ,,27,128,5420081,,,,,,,2021-08-18,1,,,,,ディーエーエル,0
1401,6120001239792,新規,0,2021-08-18,2021-08-18,株式会社レッドスナッパーズ,,株式会社,大阪府,大阪市北区,豊崎４丁目６番３号クレピス２１－３０４号,,27,127,5310072,,,,,,,2021-08-18,1,,,,,レッドスナッパーズ,0
1402,6120001239801,新規,0,2021-08-18,2021-08-18,株式会社ＡＨ,,株式会社,大阪府,大阪市中央区,西心斎橋２丁目４－２－４０３号室,,27,128,5420086,,,,,,,2021-08-18,1,,,,,エイエイチ,0
1405,6120003020044,新規,0,2021-08-18,2021-08-18,合同会社快進プロジェクト,,合同会社,大阪府,大阪市西区,新町１丁目１４番４３－４０１号室,,27,106,5500013,,,,,,,2021-08-18,1,,,,,カイシンプロジェクト,0
1406,6120005022451,新規,0,2021-08-18,2021-08-18,医療法人みつもとレディースクリニック,,その他の設立登記法人,大阪府,大阪市中央区,南船場１丁目１０番２０号南船場Ｍ２１ビル１Ｆ,,27,128,5420081,,,,,,,2021-08-18,1,,,,,ミツモトレディースクリニック,0
1424,6140001122716,新規,0,2021-08-18,2021-08-18,ヴァロア株式会社,,株式会社,兵庫県,明石市,大久保町江井島８１１番地の１,,28,203,6740064,,,,,,,2021-08-18,1,,,,,ヴァロア,0
1432,6140003016635,新規,0,2021-08-18,2021-08-18,合同会社麦わら帽子,,合同会社,兵庫県,神戸市北区,淡河町野瀬２６１番地,,28,109,6511623,,,,,,,2021-08-18,1,,,,,ムギワラボウシ,0
1433,6140003016643,新規,0,2021-08-18,2021-08-18,合同会社伊藤遠隔画像診断室,,合同会社,兵庫県,西宮市,殿山町１３番３０号,,28,204,6620065,,,,,,,2021-08-18,1,,,,,イトウエンカクガゾウシンダンシツ,0
1442,6170003001618,新規,0,2021-08-18,2021-08-18,合同会社いろどりふぁーむ,,合同会社,和歌山県,有田市,宮原町滝川原２９１番地２,,30,204,6490435,,,,,,,2021-08-18,1,,,,,イロドリファーム,0
1451,6180001147461,新規,0,2021-08-18,2021-08-18,洲茂貿易株式会社,,株式会社,愛知県,名古屋市中区,栄１丁目１６番１６号－７０２号室,,23,106,4600008,,,,,,,2021-08-18,1,,,,,シュウモボウエキ,0
1476,6240005015253,新規,0,2021-08-18,2021-08-18,一般社団法人ひろしま花好会,,その他の設立登記法人,広島県,広島市安佐南区,伴東５丁目１５番３８号,,34,105,7313164,,,,,,,2021-08-18,1,,,,,ヒロシマハナコウカイ,0
1485,6290003011514,新規,0,2021-08-18,2021-08-18,蘇陽風力合同会社,,合同会社,福岡県,福岡市中央区,渡辺通５丁目２０番７号,,40,133,8100004,,,,,,,2021-08-18,1,,,,,ソヨウフウリョク,0
1489,6330001028910,新規,0,2021-08-18,2021-08-18,株式会社Ｓｔｅａｄｆａｓｔ　Ｇｌｏｂａｌ　Ａｒｔ,,株式会社,熊本県,宇城市,小川町河江６３０番地１,,43,213,8690606,,,,,,,2021-08-18,1,,,,,ステッドファストグローバルアート,0
1493,6350001017267,新規,0,2021-08-18,2021-08-18,株式会社エアテックシステム,,株式会社,宮崎県,延岡市,夏田町３６６番地５,,45,203,8820005,,,,,,,2021-08-18,1,,,,,エアテックシステム,0
1494,6360001029245,新規,0,2021-08-18,2021-08-18,ホープ管理警備株式会社,,株式会社,沖縄県,沖縄市,照屋１丁目３２番２３号キャッスル照屋１００２号,,47,211,9040011,,,,,,,2021-08-18,1,,,,,ホープカンリケイビ,0
1495,6360003011374,新規,0,2021-08-18,2021-08-18,合同会社ＫＦローレル,,合同会社,沖縄県,うるま市,字西原１９９番地１２,,47,213,9042204,,,,,,,2021-08-18,1,,,,,ケイエフローレル,0
1520,7010001220457,新規,0,2021-08-18,2021-08-18,株式会社正和通商,,株式会社,東京都,中央区,八丁堀１丁目８番６号,,13,102,1040032,,,,,,,2021-08-18,1,,,,,ショウワツウショウ,0
1523,7010003035630,新規,0,2021-08-18,2021-08-18,タイガーマネージメント合同会社,,合同会社,東京都,千代田区,丸の内１丁目１１番１号,,13,101,1000005,,,,,,,2021-08-18,1,,,,,タイガーマネージメント,0
1536,7010401162167,新規,0,2021-08-18,2021-08-18,コブルストーン株式会社,,株式会社,東京都,港区,虎ノ門４丁目３番１号城山トラストタワー２７階,,13,103,1050001,,,,,,,2021-08-18,1,,,,,コブルストーン,0
1537,7010403025917,新規,0,2021-08-18,2021-08-18,Ｋ＆Ｒ合同会社,,合同会社,東京都,港区,白金台２丁目１８－４,,13,103,1080071,,,,,,,2021-08-18,1,,,,,ケイアンドアール,0
1538,7010403025933,新規,0,2021-08-18,2021-08-18,ＭＭ　ＶＣ１合同会社,,合同会社,東京都,港区,虎ノ門１丁目１番１２号,,13,103,1050001,,,,,,,2021-08-18,1,,,,,エムエムブイシーワン,0
1542,7010601059808,新規,0,2021-08-18,2021-08-18,株式会社ＥＭＩＬＬＩＯＮ,,株式会社,東京都,江東区,森下４丁目２０番１号,,13,108,1350004,,,,,,,2021-08-18,1,,,,,エミリオン,0
1548,7010903006730,新規,0,2021-08-18,2021-08-18,合同会社フジワラオフィス,,合同会社,東京都,世田谷区,下馬２丁目３７番２号,,13,112,1540002,,,,,,,2021-08-18,1,,,,,フジワラオフィス,0
1550,7011001142344,新規,0,2021-08-18,2021-08-18,８１０株式会社,,株式会社,東京都,渋谷区,千駄ヶ谷３丁目１７番１１号,,13,113,1510051,,,,,,,2021-08-18,1,,,,,エイトワンゼロ,0
1551,7011101095946,新規,0,2021-08-18,2021-08-18,株式会社旺文社キャピタルマネジメント,,株式会社,東京都,新宿区,横寺町５５番地,,13,104,1620831,,,,,,,2021-08-18,1,,,,,オウブンシャキャピタルマネジメント,0
1553,7011105009910,新規,0,2021-08-18,2021-08-18,アクシアパートナーズ税理士法人,,その他の設立登記法人,東京都,新宿区,新宿２丁目５番１２号,,13,104,1600022,,,,,,,2021-08-18,1,,,,,アクシアパートナーズ,0
1556,7011301027096,新規,0,2021-08-18,2021-08-18,赤王株式会社,,株式会社,東京都,杉並区,堀ノ内２丁目１５－２,,13,115,1660013,,,,,,,2021-08-18,1,,,,,アカオウ,0
1557,7011301027105,新規,0,2021-08-18,2021-08-18,株式会社ＣＨＩＳＯＨ,,株式会社,東京都,杉並区,和泉２丁目２７番８号,,13,115,1680063,,,,,,,2021-08-18,1,,,,,チソー,0
1558,7011301027113,新規,0,2021-08-18,2021-08-18,株式会社モジャ,,株式会社,東京都,杉並区,和田１丁目３番１２号サンライズＯ．Ｂ．Ａ３０１,,13,115,1660012,,,,,,,2021-08-18,1,,,,,モジャ,0
1567,7011701024635,新規,0,2021-08-18,2021-08-18,宮崎貿易株式会社,,株式会社,東京都,江戸川区,南小岩４丁目２番２４号,,13,123,1330056,,,,,,,2021-08-18,1,,,,,ミヤザキボウエキ,0
1577,7012403004990,新規,0,2021-08-18,2021-08-18,グリーン合同会社,,合同会社,東京都,多摩市,中沢２丁目５番地の５ブルーミングヒルズ多摩センター２０４,,13,224,2060036,,,,,,,2021-08-18,1,,,,,グリーン,0
1591,7020001142634,新規,0,2021-08-18,2021-08-18,株式会社Ｄｅｃｉｄｉｏ,,株式会社,神奈川県,横浜市保土ケ谷区,川辺町３番地１,,14,106,2400001,,,,,,,2021-08-18,1,,,,,デシィディオ,0
1595,7020003020350,新規,0,2021-08-18,2021-08-18,合同会社Ｖａｌｕｅ２Ｊ,,合同会社,神奈川県,川崎市宮前区,有馬６丁目２－５－４０２,,14,136,2160003,,,,,,,2021-08-18,1,,,,,バリュートゥージェイ,0
1598,7020005015167,新規,0,2021-08-18,2021-08-18,一般社団法人分譲マンション管理組合適正運営推進協会,,その他の設立登記法人,神奈川県,横浜市神奈川区,入江１丁目１番１１号,,14,102,2210014,,,,,,,2021-08-18,1,,,,,ブンジョウマンションカンリクミアイテキセイウンエイスイシンキョウカイ,0
1603,7021001073679,新規,0,2021-08-18,2021-08-18,株式会社アネクス,,株式会社,神奈川県,横須賀市,小川町１９－５富士ビル３階１６Ｓｔａｒｔｕｐｓ内,,14,201,2380004,,,,,,,2021-08-18,1,,,,,,0
1605,7021003010804,新規,0,2021-08-18,2021-08-18,合同会社アンガウーア,,合同会社,神奈川県,座間市,座間１丁目３０７８－６,,14,216,2520027,,,,,,,2021-08-18,1,,,,,アンガウーア,0
1608,7030001143854,新規,0,2021-08-18,2021-08-18,株式会社さむ,,株式会社,埼玉県,さいたま市大宮区,桜木町４丁目８９０番地３－２０７号室,,11,103,3300854,,,,,,,2021-08-18,1,,,,,サム,0
1617,7030003017791,新規,0,2021-08-18,2021-08-18,共栄商事合同会社,,合同会社,埼玉県,ふじみ野市,鶴ケ岡５丁目１番８－５０９号,,11,245,3560045,,,,,,,2021-08-18,1,,,,,キョウエイショウジ,0
1619,7040001119820,新規,0,2021-08-18,2021-08-18,株式会社三栄重設,,株式会社,千葉県,富里市,七栄７３４番地１０（サニーヒルＢ１０１）,,12,233,2860221,,,,,,,2021-08-18,1,,,,,サンエイジュウセツ,0
1620,7040001119829,新規,0,2021-08-18,2021-08-18,株式会社ローンチラボ,,株式会社,千葉県,松戸市,新松戸１丁目５４－２,,12,207,2700034,,,,,,,2021-08-18,1,,,,,ローンチラボ,0
1627,7060001034002,新規,0,2021-08-18,2021-08-18,株式会社ＩＭＣ　ＴＲＡＤＩＮＧ　ＣＯ．,,株式会社,栃木県,小山市,大字間々田１３７２番地１,,09,208,3290205,,,,,,,2021-08-18,1,,,,,アイエムシートレーディングシーオー,0
1635,7110001035977,新規,0,2021-08-18,2021-08-18,フジアグリファーム株式会社,,株式会社,新潟県,新潟市中央区,笹口３番１３号,,15,103,9500911,,,,,,,2021-08-18,1,,,,,フジアグリファーム,0
1657,7120001239750,新規,0,2021-08-18,2021-08-18,株式会社Ａｗｓｏｍｅ,,株式会社,大阪府,大阪市北区,神山町９－５,,27,127,5300026,,,,,,,2021-08-18,1,,,,,オーサム,0
1658,7120001239825,新規,0,2021-08-18,2021-08-18,株式会社ワン・プランニング,,株式会社,大阪府,大阪市此花区,伝法６丁目５番８号,,27,104,5540002,,,,,,,2021-08-18,1,,,,,ワンプランニング,0
1662,7120003020051,新規,0,2021-08-18,2021-08-18,合同会社Ｎ．ｎ．Ｎ,,合同会社,大阪府,大阪市西淀川区,竹島３丁目２－４,,27,113,5550011,,,,,,,2021-08-18,1,,,,,エヌエヌエヌ,0
1666,7120103004301,新規,0,2021-08-18,2021-08-18,合同会社ファイブ,,合同会社,大阪府,堺市中区,深井水池町２８６２番地１－３Ｃ,,27,142,5998237,,,,,,,2021-08-18,1,,,,,ファイブ,0
1675,7140001122723,新規,0,2021-08-18,2021-08-18,株式会社ＮＴ不動産,,株式会社,兵庫県,芦屋市,山手町３番３１－１０１号,,28,206,6590096,,,,,,,2021-08-18,1,,,,,エヌティーフドウサン,0
1681,7140003016626,新規,0,2021-08-18,2021-08-18,合同会社ｗｉｌｌ,,合同会社,兵庫県,神戸市中央区,御幸通４丁目２－２４－８０２号,,28,110,6510087,,,,,,,2021-08-18,1,,,,,ウィル,0
1683,7150001024860,新規,0,2021-08-18,2021-08-18,株式会社セイス,,株式会社,奈良県,天理市,柳本町７４５－１エーデルハイム黒塚Ⅱ２０２,00123957,29,204,6320052,,,,,,,2021-08-18,1,,,,,セイス,0
1697,7180003022876,新規,0,2021-08-18,2021-08-18,合同会社Ｐ＆Ｉ　ＴＥＮＮＩＳ,,合同会社,愛知県,日進市,竹の山３丁目１４２２番地ＳａｍｂｒｅｅｌＪｕｔｒａ１０１,,23,230,4700136,,,,,,,2021-08-18,1,,,,,ピーアンドアイテニス,0
1699,7180303005077,新規,0,2021-08-18,2021-08-18,合同会社ベルセントラル,,合同会社,愛知県,みよし市,福谷町落合７番地,,23,236,4700207,,,,,,,2021-08-18,1,,,,,ベルセントラル,0
1701,7200001039028,新規,0,2021-08-18,2021-08-18,株式会社ＭＧコーポレーション,,株式会社,岐阜県,本巣郡北方町,天狗堂１丁目５０番地,,21,421,5010433,,,,,,,2021-08-18,1,,,,,エムジーコーポレーション,0
1718,7310001017419,新規,0,2021-08-18,2021-08-18,株式会社たまてばこ,,株式会社,長崎県,長崎市,梁川町２番５号８０２,,42,201,8528013,,,,,,,2021-08-18,1,,,,,タマテバコ,0
1725,7360001029236,新規,0,2021-08-18,2021-08-18,株式会社八籐後組,,株式会社,沖縄県,中頭郡北中城村,字仲順５３－３０１号,,47,327,9012303,,,,,,,2021-08-18,1,,,,,ヤトウゴグミ,0
1730,7380001032130,新規,0,2021-08-18,2021-08-18,株式会社イノベーションシフト,,株式会社,福島県,福島市,鎌田字沼前１４,,07,201,9600102,,,,,,,2021-08-18,1,,,,,,0
1736,7420001017556,新規,0,2021-08-18,2021-08-18,みちのくみなと未来株式会社,,株式会社,青森県,八戸市,大字湊町字本町９番地,,02,203,0310812,,,,,,,2021-08-18,1,,,,,ミチノクミナトミライ,0
1744,7470001018665,新規,0,2021-08-18,2021-08-18,株式会社Ｒｅｔｕｒｎ,,株式会社,香川県,三豊市,詫間町松崎１９７６番地１,,37,208,7691102,,,,,,,2021-08-18,1,,,,,リターン,0
1753,7700150104449,新規,0,2021-08-18,2021-08-18,ＴＨＡＲＩＮＤＵ　ＭＯＲＴＯＲＳ,,外国会社等,千葉県,山武市,大木４７３－１－６,,12,237,2891211,スリランカ民主社会主義共和国、Ｎｏ．２５、ナーワラピティヤロード、ガッポラ,,,,,,2021-08-18,1,,,,,タリンドウモータース,0
1760,8010001220456,新規,0,2021-08-18,2021-08-18,株式会社ことのは,,株式会社,東京都,中央区,銀座１丁目２２番１１号銀座大竹ビジデンス２階,,13,102,1040061,,,,,,,2021-08-18,1,,,,,コトノハ,0
1761,8010001220472,新規,0,2021-08-18,2021-08-18,株式会社セカミー,,株式会社,東京都,千代田区,外神田６丁目１１－１４アーツ千代田３３３１Ｓ０１,,13,101,1010021,,,,,,,2021-08-18,1,,,,,セカミー,0
1762,8010001220489,新規,0,2021-08-18,2021-08-18,株式会社ＨＭＳパートナーズ,,株式会社,東京都,文京区,湯島１丁目１２番５号,,13,105,1130034,,,,,,,2021-08-18,1,,,,,エイチエムエスパートナーズ,0
1763,8010101014816,新規,0,2021-08-18,2021-08-18,株式会社ＴＫコーポレーション,,株式会社,東京都,八王子市,館町１６０３番地フローラ小島１０５号,,13,201,1930944,,,,,,,2021-08-18,1,,,,,テイケイコーポレーション,0
1768,8010401162026,新規,0,2021-08-18,2021-08-18,株式会社ｄａｄａ,,株式会社,東京都,港区,西麻布１丁目１１番６,,13,103,1060031,,,,,,,2021-08-18,1,,,,,ダダ,0
1769,8010401162141,新規,0,2021-08-18,2021-08-18,株式会社Ｌｕｐｉｎｕｓ,,株式会社,東京都,港区,六本木７丁目１４番２３号ラウンドクロス六本木５階,,13,103,1060032,,,,,,,2021-08-18,1,,,,,ルピナス,0
1774,8010403025916,新規,0,2021-08-18,2021-08-18,Ｔｏｒｉｇａｉ　Ｃｏｎｓｕｌｔｉｎｇ合同会社,,合同会社,東京都,港区,白金台５丁目１５番１０号,,13,103,1080071,,,,,,,2021-08-18,1,,,,,トリガイコンサルティング,0
1775,8010403025932,新規,0,2021-08-18,2021-08-18,合同会社ＲＯＢＡ,,合同会社,東京都,港区,赤坂３丁目１１番１９号,,13,103,1070052,,,,,,,2021-08-18,1,,,,,ロバ,0
1782,8010603009108,新規,0,2021-08-18,2021-08-18,合同会社Ａｓｔｒｏｎａｕｔｓ,,合同会社,東京都,江東区,東砂３丁目３０番１４－１１１１号,,13,108,1360074,,,,,,,2021-08-18,1,,,,,アストロノーツ,0
1785,8010701041400,新規,0,2021-08-18,2021-08-18,株式会社スタンド,,株式会社,東京都,品川区,東五反田１丁目１３番１２号いちご五反田ビル１０Ｆ,,13,109,1410022,,,,,,,2021-08-18,1,,,,,スタンド,0
1797,8010901049284,新規,0,2021-08-18,2021-08-18,株式会社アンパレス,,株式会社,東京都,世田谷区,等々力５丁目１１番２２－１０７号,,13,112,1580082,,,,,,,2021-08-18,1,,,,,アンパレス,0
1798,8010903006738,新規,0,2021-08-18,2021-08-18,合同会社ｇｒａｓｔｙ,,合同会社,東京都,世田谷区,奥沢５丁目２３番１８号メディス自由が丘４階,,13,112,1580083,,,,,,,2021-08-18,1,,,,,ギャラスティ,0
1807,8011201023194,新規,0,2021-08-18,2021-08-18,株式会社ユニバーサル,,株式会社,東京都,中野区,鷺宮２丁目１１番８－２０５号,,13,114,1650032,,,,,,,2021-08-18,1,,,,,ユニバーサル,0
1809,8011303004134,新規,0,2021-08-18,2021-08-18,セントラルビレッジ合同会社,,合同会社,東京都,杉並区,西荻北３丁目２２－４,,13,115,1670042,,,,,,,2021-08-18,1,,,,,セントラルビレッジ,0
1813,8011403003416,新規,0,2021-08-18,2021-08-18,合同会社わっしょい,,合同会社,東京都,板橋区,成増２丁目１７番１９号４Ｆ,,13,119,1750094,,,,,,,2021-08-18,1,,,,,ワッショイ,0
1817,8011701024634,新規,0,2021-08-18,2021-08-18,中雅株式会社,,株式会社,東京都,江戸川区,西葛西１丁目１２番１５号,,13,123,1340088,,,,,,,2021-08-18,1,,,,,ナカミヤビ,0
1819,8012701016621,新規,0,2021-08-18,2021-08-18,株式会社プルミエ,,株式会社,東京都,西東京市,ひばりが丘１丁目１２番２０号,,13,229,2020001,,,,,,,2021-08-18,1,,,,,プルミエ,0
1835,8021001073661,新規,0,2021-08-18,2021-08-18,株式会社海成建設,,株式会社,神奈川県,高座郡寒川町,岡田３丁目２２番４６号,,14,321,2530105,,,,,,,2021-08-18,1,,,,,カイセイケンセツ,0
1836,8021001073678,新規,0,2021-08-18,2021-08-18,ＭＩＲＵＭ株式会社,,株式会社,神奈川県,相模原市南区,東林間２丁目２３番２２号,,14,153,2520311,,,,,,,2021-08-18,1,,,,,,0
1837,8021001073694,新規,0,2021-08-18,2021-08-18,株式会社ＨＬＣ,,株式会社,神奈川県,横須賀市,大津町１丁目１２番４０号大津レジデンス１Ｆ,,14,201,2390808,,,,,,,2021-08-18,1,,,,,エイチエルシー,0
1841,8021003010786,新規,0,2021-08-18,2021-08-18,合同会社ＨＲＫ,,合同会社,神奈川県,相模原市中央区,清新７丁目４番１号,,14,152,2520216,,,,,,,2021-08-18,1,,,,,エイチアールケイ,0
1842,8021003010803,新規,0,2021-08-18,2021-08-18,ホスピタリティデザイン合同会社,,合同会社,神奈川県,三浦郡葉山町,長柄７０５番地の４５０,,14,301,2400113,,,,,,,2021-08-18,1,,,,,ホスピタリティデザイン,0
1847,8030001143853,新規,0,2021-08-18,2021-08-18,石橋自動車株式会社,,株式会社,埼玉県,草加市,西町１１５０番地２,,11,221,3400035,,,,,,,2021-08-18,1,,,,,イシバシジドウシャ,0
1848,8030001143903,新規,0,2021-08-18,2021-08-18,株式会社ＭａｈＫ,,株式会社,埼玉県,さいたま市南区,白幡３丁目１番９号１－８１３,,11,108,3360022,,,,,,,2021-08-18,1,,,,,マーク,0
1851,8030003017790,新規,0,2021-08-18,2021-08-18,三葉商事合同会社,,合同会社,埼玉県,ふじみ野市,鶴ケ岡５丁目１番８－５０４号,,11,245,3560045,,,,,,,2021-08-18,1,,,,,サンヨウショウジ,0
1852,8030003017799,新規,0,2021-08-18,2021-08-18,合同会社十口屋,,合同会社,埼玉県,上尾市,愛宕２丁目５番３号,,11,219,3620034,,,,,,,2021-08-18,1,,,,,ジュウクチヤ,0
1858,8040001119811,新規,0,2021-08-18,2021-08-18,株式会社忽蘭,,株式会社,千葉県,市川市,大野町３丁目１６８６番地１４,,12,203,2720805,,,,,,,2021-08-18,1,,,,,クラン,0
1861,8040003018342,新規,0,2021-08-18,2021-08-18,合同会社エリアワークス,,合同会社,千葉県,市川市,南八幡２丁目７番２号,,12,203,2720023,,,,,,,2021-08-18,1,,,,,エリアワークス,0
1862,8040003018350,新規,0,2021-08-18,2021-08-18,合同会社土屋商会,,合同会社,千葉県,千葉市緑区,おゆみ野２丁目３７番地６,,12,105,2660031,,,,,,,2021-08-18,1,,,,,ツチヤショウカイ,0
1872,8070001038348,新規,0,2021-08-18,2021-08-18,ブラックマウンテンズ株式会社,,株式会社,群馬県,高崎市,剣崎町７６１番地２,,10,202,3700883,,,,,,,2021-08-18,1,,,,,ブラックマウンテンズ,0
1879,8110001035976,新規,0,2021-08-18,2021-08-18,株式会社Ｍｏｕｒａ,,株式会社,新潟県,長岡市,北山３丁目１９番地４,,15,202,9402114,,,,,,,2021-08-18,1,,,,,モーラ,0
1895,8120001239725,新規,0,2021-08-18,2021-08-18,株式会社どすこい,,株式会社,大阪府,大阪市阿倍野区,昭和町４丁目１１番２２号,,27,119,5450011,,,,,,,2021-08-18,1,,,,,ドスコイ,0
1896,8120001239816,新規,0,2021-08-18,2021-08-18,株式会社ｂｏｘＸＸＸ,,株式会社,大阪府,大阪市西区,立売堀１丁目４番１２号立売堀スクエアビル８Ｆ,,27,106,5500012,,,,,,,2021-08-18,1,,,,,ボックスエックス,0
1897,8120001239824,新規,0,2021-08-18,2021-08-18,株式会社Ｆｉｖｅ　ｍｏｒｅ,,株式会社,大阪府,大阪市中央区,日本橋１丁目１７番１７号ピカソ日本一ビル,,27,128,5420073,,,,,,,2021-08-18,1,,,,,ファイブモア,0
1899,8120003020018,新規,0,2021-08-18,2021-08-18,合同会社和美,,合同会社,大阪府,大阪市浪速区,湊町２丁目２番５－１９１６号,,27,111,5560017,,,,,,,2021-08-18,1,,,,,ワミ,0
1900,8120003020034,新規,0,2021-08-18,2021-08-18,ＫＨＡＴＲＩ＆ＫＨＡＴＲＩ合同会社,,合同会社,大阪府,大阪市阿倍野区,昭和町５丁目１２番１３号,,27,119,5450011,,,,,,,2021-08-18,1,,,,,カトゥリアンドカゥトリ,0
1901,8120003020042,新規,0,2021-08-18,2021-08-18,合同会社ＳＵＷＡＮＣ,,合同会社,大阪府,門真市,小路町５番２１号,,27,223,5710058,,,,,,,2021-08-18,1,,,,,スワンク,0
1902,8120003020050,新規,0,2021-08-18,2021-08-18,合同会社ＤＯＮＵＴＳ,,合同会社,大阪府,大阪市此花区,西九条３丁目４－３４ファミール西九条９０２,,27,104,5540012,,,,,,,2021-08-18,1,,,,,ドーナツ,0
1907,8120901044786,新規,0,2021-08-18,2021-08-18,株式会社カラダコモン,,株式会社,大阪府,箕面市,粟生間谷東２丁目１４番９号,,27,220,5620022,,,,,,,2021-08-18,1,,,,,カラダコモン,0
1909,8120905006221,新規,0,2021-08-18,2021-08-18,特定非営利活動法人アニマルはにまる高槻,,その他の設立登記法人,大阪府,高槻市,柳川町２丁目２０番７号,,27,207,5690853,,,,,,,2021-08-18,1,,,,,アニマルハニマルタカツキ,0
1910,8122001035063,新規,0,2021-08-18,2021-08-18,修光ハウス株式会社,,株式会社,大阪府,東大阪市,新上小阪２２番２２号,,27,227,5770813,,,,,,,2021-08-18,1,,,,,シュウコウハウス,0
1930,8180001147451,新規,0,2021-08-18,2021-08-18,株式会社Ｃｒｅａｔｉｖｅ　Ｍ,,株式会社,愛知県,名古屋市千種区,新池町２丁目１５番地バンベール東山５０５号,,23,101,4640027,,,,,,,2021-08-18,1,,,,,クリエイティブエム,0
1931,8180001147484,新規,0,2021-08-18,2021-08-18,株式会社リンクセレクト,,株式会社,愛知県,清須市,西枇杷島町橋詰７６番地プロパティ橋詰１０２,,23,233,4520026,,,,,,,2021-08-18,1,,,,,リンクセレクト,0
1935,8180003022859,新規,0,2021-08-18,2021-08-18,合同会社Ｋ＆Ｈコンサルティング,,合同会社,愛知県,名古屋市中村区,黄金通１丁目７番地,,23,105,4530804,,,,,,,2021-08-18,1,,,,,ケーアンドエイチコンサルティング,0
1942,8200001039027,新規,0,2021-08-18,2021-08-18,高天原株式会社,,株式会社,岐阜県,岐阜市,大字岩崎字一町田６１１番地１,,21,201,5000000,,,,,,,2021-08-18,1,,,,,タカアマハラ,0
1965,8290801027718,新規,0,2021-08-18,2021-08-18,株式会社木林産業,,株式会社,福岡県,直方市,知古３丁目６番７号,,40,204,8220022,,,,,,,2021-08-18,1,,,,,キバヤシサンギョウ,0
1970,8310001017418,新規,0,2021-08-18,2021-08-18,Ｄ－ｔｅｃｈ株式会社,,株式会社,長崎県,東彼杵郡川棚町,白石郷１番地１０,,42,322,8593616,,,,,,,2021-08-18,1,,,,,ディーテック,0
1982,8360001029227,新規,0,2021-08-18,2021-08-18,株式会社エクセル,,株式会社,沖縄県,石垣市,字大川１８４番地６,,47,207,9070022,,,,,,,2021-08-18,1,,,,,エクセル,0
1992,8420001017555,新規,0,2021-08-18,2021-08-18,南郷福地バイオマス発電株式会社,,株式会社,青森県,三戸郡南部町,大字杉沢字上中茎３番地,,02,445,0390813,,,,,,,2021-08-18,1,,,,,ナンゴウフクチバイオマスハツデン,0
2014,9010001220406,新規,0,2021-08-18,2021-08-18,日光ベンチャー株式会社,,株式会社,東京都,千代田区,神田須田町１丁目１４番地１,,13,101,1010041,,,,,,,2021-08-18,1,,,,,ニッコウベンチャー,0
2015,9010001220488,新規,0,2021-08-18,2021-08-18,Ｓｃｏｐｅ株式会社,,株式会社,東京都,中央区,銀座１丁目２２番１１号銀座大竹ビジデンス２階,,13,102,1040061,,,,,,,2021-08-18,1,,,,,スコープ,0
2019,9010003035629,新規,0,2021-08-18,2021-08-18,合同会社ＹＵＩＭＡＲＵ,,合同会社,東京都,中央区,銀座４丁目１４番１５号サントル銀座四丁目８０３号室,,13,102,1040061,,,,,,,2021-08-18,1,,,,,ユイマル,0
2023,9010101014815,新規,0,2021-08-18,2021-08-18,株式会社関八,,株式会社,東京都,八王子市,石川町７０８番地１０セイワビル２０１号,,13,201,1920032,,,,,,,2021-08-18,1,,,,,カンパチ,0
2024,9010103001753,新規,0,2021-08-18,2021-08-18,合同会社㐂利竹,00123963,合同会社,東京都,八王子市,泉町１２７１－８,,13,201,1930814,,,,,,,2021-08-18,1,,,,,キリタケ,0
2035,9010401162124,新規,0,2021-08-18,2021-08-18,株式会社アバターディスパッチ,,株式会社,東京都,港区,浜松町２丁目１番１２号２Ｆ,,13,103,1050013,,,,,,,2021-08-18,1,,,,,アバターディスパッチ,0
2046,9010601059806,新規,0,2021-08-18,2021-08-18,Ｆｏｒｅｃａｓｔ株式会社,,株式会社,東京都,墨田区,京島１丁目８番８号,,13,107,1310046,,,,,,,2021-08-18,1,,,,,フォーキャスト,0
2052,9010905004185,新規,0,2021-08-18,2021-08-18,一般社団法人世田谷音楽指導者協会,,その他の設立登記法人,東京都,世田谷区,松原１丁目５０番１３号,,13,112,1560043,,,,,,,2021-08-18,1,,,,,セタガヤオンガクシドウシャキョウカイ,0
2060,9011003013228,新規,0,2021-08-18,2021-08-18,合同会社Ｖｙｓｈｙｔｅｃｈ,,合同会社,東京都,渋谷区,恵比寿４丁目１１番７号,,13,113,1500013,,,,,,,2021-08-18,1,,,,,ヴィシィテック,0
2068,9011101096026,新規,0,2021-08-18,2021-08-18,ＷｉｌｌｉａｍＧｌａｄｓｔｏｎｅ株式会社,,株式会社,東京都,新宿区,西新宿１丁目２６－２新宿野村ビル３２階,,13,104,1600023,,,,,,,2021-08-18,1,,,,,ウィリアムグラッドストン,0
2069,9011301027103,新規,0,2021-08-18,2021-08-18,株式会社松尾コンシェルジュ,,株式会社,東京都,杉並区,阿佐谷北２丁目１４番９－５０２号,,13,115,1660001,,,,,,,2021-08-18,1,,,,,マツオコンシェルジュ,0
2070,9011301027111,新規,0,2021-08-18,2021-08-18,株式会社ＳＥＣＯＮＤ,,株式会社,東京都,杉並区,高円寺南３丁目５３番１号,,13,115,1660003,,,,,,,2021-08-18,1,,,,,セコンド,0
2077,9011701024633,新規,0,2021-08-18,2021-08-18,プロスペリティ株式会社,,株式会社,東京都,江戸川区,東葛西８丁目１４番２号,,13,123,1340084,,,,,,,2021-08-18,1,,,,,プロスペリティ,0
2078,9011701024641,新規,0,2021-08-18,2021-08-18,株式会社エイシン,,株式会社,東京都,江戸川区,松江３丁目４番５号東西ビル４０５,,13,123,1320025,,,,,,,2021-08-18,1,,,,,エイシン,0
2107,9021001073677,新規,0,2021-08-18,2021-08-18,株式会社なかつぎ不動産,,株式会社,神奈川県,平塚市,赤石町１３－２３,,14,203,2540000,,,,,,,2021-08-18,1,,,,,ナカツギフドウサン,0
2119,9030001143852,新規,0,2021-08-18,2021-08-18,株式会社カネコセツビ,,株式会社,埼玉県,越谷市,谷中町２丁目１２８番地４,,11,222,3430856,,,,,,,2021-08-18,1,,,,,カネコセツビ,0
2120,9030001143860,新規,0,2021-08-18,2021-08-18,株式会社ムーバー,,株式会社,埼玉県,所沢市,大字中富１４００番地１,,11,208,3590002,,,,,,,2021-08-18,1,,,,,ムーバー,0
2124,9030003017781,新規,0,2021-08-18,2021-08-18,合同会社ＥＷＥＳＴ,,合同会社,埼玉県,入間市,東町１丁目６番１６号平成ハウス２８号Ｅ,,11,225,3580002,,,,,,,2021-08-18,1,,,,,イーウェスト,0
2125,9030003017798,新規,0,2021-08-18,2021-08-18,合同会社ＳＶＮＯ,,合同会社,埼玉県,蕨市,中央１丁目７番１－１５０１号,,11,223,3350004,,,,,,,2021-08-18,1,,,,,エスブイエヌオー,0
2132,9040001119802,新規,0,2021-08-18,2021-08-18,成美建設株式会社,,株式会社,千葉県,成田市,野毛平６４３番地２,,12,211,2860824,,,,,,,2021-08-18,1,,,,,ナルミケンセツ,0
2133,9040001119810,新規,0,2021-08-18,2021-08-18,株式会社益子建築,,株式会社,千葉県,船橋市,馬込町９４９番地４３,,12,204,2730851,,,,,,,2021-08-18,1,,,,,マシコケンチク,0
2134,9040001119819,新規,0,2021-08-18,2021-08-18,東秀農育株式会社,,株式会社,千葉県,千葉市中央区,浜野町１２０１番地１,,12,101,2600824,,,,,,,2021-08-18,1,,,,,トウシュウノウイク,0
2140,9040003018341,新規,0,2021-08-18,2021-08-18,Ｊ－ＭＡＣ　ＩＮＶＥＳＴＭＥＮＴ合同会社,,合同会社,千葉県,柏市,片山８番地１,,12,217,2701453,,,,,,,2021-08-18,1,,,,,ジェイマックインベストメント,0
2144,9050001049676,新規,0,2021-08-18,2021-08-18,株式会社イイズミモビリティサービス,,株式会社,茨城県,桜川市,真壁町長岡２５８番地３,,08,231,3004403,,,,,,,2021-08-18,1,,,,,イイズミモビリティサービス,0
2151,9070001038355,新規,0,2021-08-18,2021-08-18,株式会社ユナイト,,株式会社,群馬県,太田市,東別所町２３３番地サンライズ太田２１３号,,10,205,3730815,,,,,,,2021-08-18,1,,,,,ユナイト,0
2152,9070001038363,新規,0,2021-08-18,2021-08-18,株式会社ＴＮＣ,,株式会社,群馬県,太田市,新田中江田町８０６番地４,,10,205,3700332,,,,,,,2021-08-18,1,,,,,ティエヌシー,0
2153,9070003004198,新規,0,2021-08-18,2021-08-18,シミュレーション合同会社,,合同会社,群馬県,高崎市,金古町２１６６番地１,,10,202,3703511,,,,,,,2021-08-18,1,,,,,シミュレーション,0
2170,9120001239749,新規,0,2021-08-18,2021-08-18,美秀株式会社,,株式会社,大阪府,大阪市西成区,玉出中２丁目１４－９－５０１号室,,27,122,5570044,,,,,,,2021-08-18,1,,,,,ビシュウ,0
2171,9120001239781,新規,0,2021-08-18,2021-08-18,株式会社はやぶさ,,株式会社,大阪府,大阪市淀川区,十三東２丁目７番５号,,27,123,5320023,,,,,,,2021-08-18,1,,,,,ハヤブサ,0
2178,9120103004299,新規,0,2021-08-18,2021-08-18,ルナ・エクセルシオ合同会社,,合同会社,大阪府,堺市南区,畑１９１６番地,,27,145,5900124,,,,,,,2021-08-18,1,,,,,ルナエクセルシオ,0
2186,9122001035062,新規,0,2021-08-18,2021-08-18,光樹ハウス株式会社,,株式会社,大阪府,東大阪市,新上小阪２３番７号,,27,227,5770813,,,,,,,2021-08-18,1,,,,,コウジュハウス,0
2190,9130005016251,新規,0,2021-08-18,2021-08-18,一般社団法人京都障害福祉サービスセンター,,その他の設立登記法人,京都府,京都市東山区,今熊野宝蔵町６５番地シャロン栗２階,,26,105,6050952,,,,,,,2021-08-18,1,,,,,キョウトショウガイフクシサービスセンター,0
2198,9140001122713,新規,0,2021-08-18,2021-08-18,株式会社したぼうＨＯＭＥ,,株式会社,兵庫県,三田市,西山１丁目１２番６号,,28,219,6691537,,,,,,,2021-08-18,1,,,,,シタボウホーム,0
2215,9180001147450,新規,0,2021-08-18,2021-08-18,株式会社ＫＦＳ,,株式会社,愛知県,名古屋市中村区,則武２丁目３番２号サン・オフィス名古屋８階,,23,105,4530014,,,,,,,2021-08-18,1,,,,,ケイエフエス,0
2216,9180001147459,新規,0,2021-08-18,2021-08-18,株式会社大希,,株式会社,愛知県,名古屋市緑区,大高町字西丸根９３番地,,23,114,4598001,,,,,,,2021-08-18,1,,,,,ダイキ,0
2217,9180001147467,新規,0,2021-08-18,2021-08-18,株式会社ナカタ設備,,株式会社,愛知県,あま市,七宝町鯰橋７丁目１７番地７,,23,237,4970015,,,,,,,2021-08-18,1,,,,,ナカタセツビ,0
2218,9180001147483,新規,0,2021-08-18,2021-08-18,株式会社いとうビル,,株式会社,愛知県,名古屋市千種区,穂波町３丁目１４番地,,23,101,4640822,,,,,,,2021-08-18,1,,,,,イトウビル,0
2233,9260001035878,新規,0,2021-08-18,2021-08-18,ＳＵＮＲＩＳＥ株式会社,,株式会社,岡山県,岡山市南区,豊浜町１２番８号,,33,104,7000853,,,,,,,2021-08-18,1,,,,,サンライズ,0
2246,9310001017417,新規,0,2021-08-18,2021-08-18,株式会社吉浦総建,,株式会社,長崎県,佐世保市,鹿子前町９５６番地３９,,42,202,8580922,,,,,,,2021-08-18,1,,,,,ヨシウラソウケン,0
2247,9310003004140,新規,0,2021-08-18,2021-08-18,合同会社南部クリーンサービス,,合同会社,長崎県,対馬市,上対馬町琴１２６番地２,,42,209,8172331,,,,,,,2021-08-18,1,,,,,ナンブクリーンサービス,0
2249,9330005010382,新規,0,2021-08-18,2021-08-18,医療法人一森会,,その他の設立登記法人,熊本県,熊本市北区,植木町舞尾６１５番地３,,43,105,8610134,,,,,,,2021-08-18,1,,,,,イチモリカイ,0
2250,9340001023890,新規,0,2021-08-18,2021-08-18,株式会社３時２５分,,株式会社,鹿児島県,志布志市,志布志町安楽２７５２－１－６,,46,221,8997104,,,,,,,2021-08-18,1,,,,,サンジニジュウゴフン,0
2251,9340001024030,新規,0,2021-08-18,2021-08-18,株式会社デイジー,,株式会社,鹿児島県,鹿児島市,加治屋町９番３２号１階,,46,201,8920846,,,,,,,2021-08-18,1,,,,,デイジー,0
2258,9380001032129,新規,0,2021-08-18,2021-08-18,株式会社Ｎ－Ｌｅａｐ,,株式会社,福島県,郡山市,開成４丁目５番１７号,,07,203,9638851,,,,,,,2021-08-18,1,,,,,,0
2262,9460101007047,新規,0,2021-08-18,2021-08-18,株式会社森建設,,株式会社,北海道,帯広市,西七条北３丁目１１番地２,,01,207,0800037,,,,,,,2021-08-18,1,,,,,,0
2272,9700150104447,新規,0,2021-08-18,2021-08-18,ＲＯＹＡＬ　ＬＡＮＫＡ　ＴＲＡＤＩＮＧ,,外国会社等,千葉県,山武市,大木４７３－１０８,,12,237,2891211,スリランカ民主社会主義共和国、１３８メインストリート、ダルガタウン,,,,,,2021-08-18,1,,,,,ローヤルランカトレーデイング,0
