sequenceNumber,corporateNumber,process,correct,updateDate,changeDate,name,nameImageId,kind,prefectureName,cityName,streetNumber,addressImageId,prefectureCode,cityCode,postCode,addressOutside,addressOutsideImageId,closeDate,closeCause,successorCorporateNumber,changeCause,assignmentDate,latest,enName,enPrefectureName,enCityName,enAddressOutside,furigana,hihyoji
21,1010401163105,登記記録の閉鎖等,0,2025-10-06,2025-09-01,株式会社ウィズテックファーマ,,株式会社,東京都,港区,虎ノ門１丁目２３番１号,,13,103,1050001,,,2025-09-01,清算の結了等,,,2021-10-11,1,,,,,ウィズテックファーマ,0
32,1010405022835,登記記録の閉鎖等,0,2025-10-06,2025-09-02,ＲＳ＆パートナーズ税理士法人,,その他の設立登記法人,東京都,港区,白金台２丁目９番１２－２７０３号,,13,103,1080071,,,2025-09-02,清算の結了等,,,2024-01-17,1,,,,,アールエスアンドパートナーズ,0
48,1010701015006,登記記録の閉鎖等,0,2025-10-06,2025-09-03,エムシーコーポレーション株式会社,,株式会社,東京都,目黒区,東が丘１丁目１番４号,,13,110,1520021,,,2025-09-03,清算の結了等,,,2015-10-05,1,,,,,エムシーコーポレーション,0
53,1010901010252,登記記録の閉鎖等,0,2025-10-06,2025-09-30,富士映画株式会社,,株式会社,東京都,世田谷区,給田５丁目９番１８号,,13,112,1570064,,,2025-09-30,合併による解散等,6010901010314,令和７年９月３０日東京都世田谷区給田三丁目２６番３－９０１号富士ロケーションサービス株式会社（6010901010314）に合併し解散,2015-10-05,1,,,,,フジエイガ,0
54,1010901016910,登記記録の閉鎖等,0,2025-10-06,2025-09-30,株式会社プレッジ,,株式会社,東京都,世田谷区,成城６丁目２２番１２号,,13,112,1570066,,,2025-09-30,清算の結了等,,,2015-10-05,1,,,,,プレッジ,0
69,1011101089920,登記記録の閉鎖等,0,2025-10-06,2025-10-01,株式会社Ｇｏｅｓ,,株式会社,東京都,新宿区,西新宿６丁目１２番７号ストーク新宿,,13,104,1600023,,,2025-10-01,合併による解散等,3011101093466,令和７年１０月１日東京都新宿区西新宿六丁目１２番７号ストーク新宿株式会社ａｄｄｒａｎｄｏｍ（3011101093466）に合併し解散,2019-12-20,1,,,,,ゴーズ,0
72,1011502007514,登記記録の閉鎖等,0,2025-10-06,2025-10-02,有限会社大野薬局,,有限会社,東京都,荒川区,西尾久２丁目３番４号,,13,118,1160011,,,2025-10-02,合併による解散等,1020002052193,令和７年８月３１日神奈川県藤沢市片瀬海岸二丁目１７番８－５０５号株式会社カナガワイノン（1020002052193）に合併し解散,2015-10-05,1,,,,,オオノヤッキョク,0
91,1020001113822,登記記録の閉鎖等,0,2025-10-06,2025-09-16,みきお設計株式会社,,株式会社,神奈川県,横浜市磯子区,洋光台４丁目１９番３４－２０６号,,14,107,2350045,,,2025-09-16,清算の結了等,,,2015-12-08,1,,,,,ミキオセッケイ,0
97,1020002023343,登記記録の閉鎖等,0,2025-10-06,2025-09-16,有限会社クスリおざき,,有限会社,神奈川県,横浜市保土ケ谷区,和田１丁目４番２２号,,14,106,2400065,,,2025-09-16,清算の結了等,,,2015-10-05,1,,,,,クスリオザキ,0
117,1030002023482,登記記録の閉鎖等,0,2025-10-06,2025-10-02,有限会社大和精機,,有限会社,埼玉県,さいたま市岩槻区,大字尾ケ崎１７４７番地,,11,110,3390027,,,2025-10-02,清算の結了等,,,2015-10-05,1,,,,,ヤマトセイキ,0
118,1030002053785,登記記録の閉鎖等,0,2025-10-06,2025-09-26,有限会社埼玉弐晃,,有限会社,埼玉県,上尾市,大字平塚１９８８番地の６,,11,219,3620011,,,2025-09-26,清算の結了等,,,2015-10-05,1,,,,,サイタマニコウ,0
119,1030002064436,登記記録の閉鎖等,0,2025-10-06,2025-09-29,有限会社ハマクラフト,,有限会社,埼玉県,和光市,白子２丁目１７番７２号,,11,229,3510101,,,2025-09-29,清算の結了等,,,2015-10-05,1,,,,,ハマクラフト,0
130,1040001104217,登記記録の閉鎖等,0,2025-10-06,2025-09-02,株式会社Ｔ・アセット・マネージメント,,株式会社,千葉県,市川市,妙典３丁目１２番１２号,,12,203,2720111,,,2025-09-02,清算の結了等,,,2018-04-12,1,,,,,ティーアセットマネージメント,0
161,1090001016003,登記記録の閉鎖等,0,2025-10-06,2025-09-26,株式会社橋本工業,,株式会社,山梨県,甲府市,上今井町２１３６番地５,,19,201,4000845,,,2025-09-26,清算の結了等,,,2019-04-16,1,,,,,ハシモトコウギョウ,0
175,1120001137984,登記記録の閉鎖等,0,2025-10-06,2025-09-11,株式会社ＭＯＡＮＡＬＵ,,株式会社,神奈川県,茅ヶ崎市,白浜町６番７号,,14,207,2530036,,,2025-09-11,清算の結了等,,,2015-10-05,1,,,,,モアナルー,0
179,1120001268846,登記記録の閉鎖等,0,2025-10-06,2025-09-25,株式会社コネクト,,株式会社,大阪府,大阪市中央区,南船場４丁目２番４号日本生命御堂筋ビル９階,,27,128,5420081,,,2025-09-25,清算の結了等,,,2024-10-01,1,,,,,コネクト,0
196,1120002002667,登記記録の閉鎖等,0,2025-10-06,2025-10-01,有限会社アベノ・ハート・エンタープライズ,,有限会社,大阪府,大阪市阿倍野区,松崎町２丁目１０番２４号,,27,119,5450053,,,2025-10-01,清算の結了等,,,2015-10-05,1,,,,,アベノハートエンタープライズ,0
197,1120002072883,登記記録の閉鎖等,0,2025-10-06,2025-09-26,有限会社はりま,,有限会社,大阪府,寝屋川市,三井南町２４番２－３０２号,,27,215,5720019,,,2025-09-26,清算の結了等,,,2015-10-05,1,,,,,ハリマ,0
209,1120105005253,登記記録の閉鎖等,0,2025-10-06,2025-09-24,タフテック事業協同組合,,その他の設立登記法人,大阪府,羽曳野市,駒ケ谷５番地４９ハニースチール株式会社内,,27,222,5830841,,,2025-09-24,清算の結了等,,,2015-10-05,1,,,,,タフテック,0
218,1140001014166,登記記録の閉鎖等,0,2025-10-06,2025-09-30,株式会社マサヤ呉服店,,株式会社,兵庫県,神戸市兵庫区,水木通１丁目５番１１－３０１号,,28,105,6520802,,,2025-09-30,清算の結了等,,,2015-10-05,1,,,,,マサヤゴフクテン,0
219,1140001016963,登記記録の閉鎖等,0,2025-10-06,2025-09-29,株式会社宮脇工務店,,株式会社,兵庫県,神戸市長田区,丸山町４丁目４番６号,,28,106,6530875,,,2025-09-29,清算の結了等,,,2015-10-05,1,,,,,ミヤワキコウムテン,0
220,1140001034486,登記記録の閉鎖等,0,2025-10-06,2025-09-30,株式会社あんしんプラザ,,株式会社,兵庫県,明石市,本町２丁目２番２４号明石東京海上日動ビル５階,,28,203,6730892,,,2025-09-30,清算の結了等,,,2015-10-05,1,,,,,アンシンプラザ,0
222,1140001107944,登記記録の閉鎖等,0,2025-10-06,2025-09-30,株式会社丸京,,株式会社,兵庫県,神戸市西区,伊川谷町潤和字北横尾２３８－３６２,,28,111,6512124,,,2025-09-30,清算の結了等,,,2017-10-23,1,,,,,マルキョウ,0
227,1140002040500,登記記録の閉鎖等,0,2025-10-06,2025-09-29,有限会社川嶋工務店,,有限会社,兵庫県,尼崎市,武庫之荘８丁目２８番１８号,,28,202,6610035,,,2025-09-29,清算の結了等,,,2015-10-05,1,,,,,,0
228,1150001004884,登記記録の閉鎖等,0,2025-10-06,2025-10-01,株式会社進弘商事,,株式会社,奈良県,生駒市,真弓２丁目３番１７号,,29,209,6300122,,,2025-10-01,清算の結了等,,,2015-10-05,1,,,,,シンコウショウジ,0
231,1170005006826,登記記録の閉鎖等,0,2025-10-06,2025-10-03,特定非営利活動法人チョイお手伝い,,その他の設立登記法人,和歌山県,和歌山市,吉里４３番地,,30,201,6400363,,,2025-10-03,清算の結了等,,,2020-06-19,1,,,,,チョイオテツダイ,0
232,1180001034086,登記記録の閉鎖等,0,2025-10-06,2025-09-18,株式会社飯田ベニヤ店,,株式会社,愛知県,名古屋市中区,千代田５丁目１５番５号,,23,106,4600012,,,2025-09-18,清算の結了等,,,2015-10-05,1,,,,,イイダベニヤテン,0
233,1180001038772,登記記録の閉鎖等,0,2025-10-06,2025-09-17,株式会社東和建築設備計画,,株式会社,愛知県,名古屋市中区,栄２丁目１番１２号,,23,106,4600008,,,2025-09-17,清算の結了等,,,2015-10-05,1,,,,,トウワケンチクセツビケイカク,0
267,1240001031960,登記記録の閉鎖等,0,2025-10-06,2025-10-01,富士ドレス株式会社,,株式会社,広島県,福山市,地吹町８番１６号,,34,207,7200816,,,2025-10-01,清算の結了等,,,2015-10-05,1,,,,,フジドレス,0
274,1260001022446,登記記録の閉鎖等,0,2025-10-06,2025-09-26,富士タクシー株式会社,,株式会社,岡山県,玉野市,玉４丁目６番２０号,,33,204,7060012,,,2025-09-26,清算の結了等,,,2015-10-05,1,,,,,フジタクシー,0
278,1290001043431,登記記録の閉鎖等,0,2025-10-06,2025-09-03,株式会社山下,,株式会社,福岡県,春日市,昇町５丁目８６番地,,40,218,8160851,,,2025-09-03,清算の結了等,,,2015-10-05,1,,,,,ヤマシタ,0
285,1290801012981,登記記録の閉鎖等,0,2025-10-06,2025-09-26,株式会社マッチアップ,,株式会社,福岡県,北九州市八幡西区,熊西１丁目３番２６－２０３号,,40,109,8060031,,,2025-09-26,清算の結了等,,,2015-10-05,1,,,,,マッチアップ,0
290,1300001010776,商号の登記の抹消,0,2025-10-06,2025-09-29,株式会社如水会,,株式会社,佐賀県,鳥栖市,宿町９３７番地１３,,41,203,8410052,,,,,,,2017-04-11,0,,,,,ジョスイカイ,0
306,1350005001619,登記記録の閉鎖等,0,2025-10-06,2025-09-30,特定非営利活動法人おひさまとまんさく,,その他の設立登記法人,宮崎県,宮崎市,佐土原町上田島８１９２番地１,,45,201,8800301,,,2025-09-30,清算の結了等,,,2015-10-05,1,,,,,オヒサマトマンサク,0
317,1370001014770,登記記録の閉鎖等,0,2025-10-06,2025-09-19,株式会社アクシス,,株式会社,宮城県,仙台市泉区,南中山４丁目５番地の１４,,04,105,9813213,,,2025-09-19,清算の結了等,,,2015-10-05,1,,,,,アクシス,0
328,1420002018245,登記記録の閉鎖等,0,2025-10-06,2025-09-24,有限会社本村酒店,,有限会社,青森県,上北郡おいらせ町,南下田４４番地３,,02,412,0392162,,,2025-09-24,清算の結了等,,,2015-10-05,1,,,,,ホンソンサケテン,0
336,1430002057028,登記記録の閉鎖等,0,2025-10-06,2025-09-16,有限会社じんぼ,,有限会社,北海道,虻田郡倶知安町,北四条西１丁目１２番地,,01,400,0440054,,,2025-09-16,清算の結了等,,,2015-10-05,1,,,,,ジンボ,0
340,1440003001594,登記記録の閉鎖等,0,2025-10-06,2025-09-29,合同会社ｃａｒａｔ,,合同会社,北海道,函館市,弥生町１８番１２号,,01,202,0400056,,,2025-09-29,清算の結了等,,,2024-05-21,1,,,,,カラット,0
344,1460402000526,登記記録の閉鎖等,0,2025-10-06,2025-10-03,有限会社カネト徳永漁業部,,有限会社,北海道,根室市,弁天町１丁目４１番地,,01,223,0870011,,,2025-10-03,清算の結了等,,,2015-10-05,1,,,,,カネトトクナガギョギョウブ,0
345,1480001012103,登記記録の閉鎖等,0,2025-10-06,2025-10-01,株式会社ＫＷＢ,,株式会社,徳島県,徳島市,秋田町２丁目５番地,,36,201,7700934,,,2025-10-01,清算の結了等,,,2023-05-11,1,,,,,ケーダブルビー,0
349,2010001029580,登記記録の閉鎖等,0,2025-10-06,2025-09-12,株式会社丸の内メッセンジャー,,株式会社,東京都,中央区,日本橋本石町４丁目２番１２号,,13,102,1030021,,,2025-09-12,清算の結了等,,,2015-10-05,1,,,,,マルノウチメッセンジャー,0
375,2010003043324,登記記録の閉鎖等,0,2025-10-06,2025-09-16,Ｓ‐Ｐｏｗｅｒ東北１合同会社,,合同会社,東京都,中央区,日本橋１丁目４番１号,,13,102,1030027,,,2025-09-16,清算の結了等,,,2024-04-01,1,,,,,エスパワートウホクイチ,0
406,2011001115908,登記記録の閉鎖等,0,2025-10-06,2025-09-12,レンズ株式会社,,株式会社,神奈川県,横浜市中区,本牧和田１３番２０号,,14,104,2310827,,,2025-09-12,清算の結了等,,,2017-04-20,1,,,,,レンズ,0
432,2020001008591,登記記録の閉鎖等,0,2025-10-06,2025-09-16,株式会社港建,,株式会社,神奈川県,横浜市青葉区,市ケ尾町１０５０番地３,,14,117,2250024,,,2025-09-16,清算の結了等,,,2015-10-05,1,,,,,コウケン,0
435,2020001088799,登記記録の閉鎖等,0,2025-10-06,2025-09-16,株式会社オンフォート,,株式会社,神奈川県,横浜市保土ケ谷区,鎌谷町２９９番地５２,,14,106,2400063,,,2025-09-16,清算の結了等,,,2015-10-05,1,,,,,オンフォート,0
483,2040002026707,登記記録の閉鎖等,0,2025-10-06,2025-09-16,有限会社コス研究所,,有限会社,千葉県,船橋市,飯山満町２丁目４１２番地１,,12,204,2740822,,,2025-09-16,清算の結了等,,,2015-10-05,1,,,,,コスケンキュウジョ,0
484,2040002059509,登記記録の閉鎖等,0,2025-10-06,2025-09-02,有限会社富士鑑定,,有限会社,千葉県,成田市,加良部６丁目６番地１（１０１号）,,12,211,2860036,,,2025-09-02,清算の結了等,,,2015-10-05,1,,,,,フジカンテイ,0
491,2050002036192,登記記録の閉鎖等,0,2025-10-06,2025-09-25,有限会社板倉工業,,有限会社,茨城県,取手市,本郷４丁目１７番３号,,08,217,3020022,,,2025-09-25,清算の結了等,,,2015-10-05,1,,,,,イタクラコウギョウ,0
502,2060002039905,登記記録の閉鎖等,0,2025-10-06,2025-09-29,有限会社中島材木店,,有限会社,栃木県,佐野市,栃本町１６９８番地の１,,09,204,3270312,,,2025-09-29,清算の結了等,,,2015-10-05,1,,,,,ナカジマザイモクテン,0
523,2100002030173,登記記録の閉鎖等,0,2025-10-06,2025-09-30,有限会社立石工務店,,有限会社,長野県,諏訪市,大字中洲１３５６－２,,20,206,3920015,,,2025-09-30,清算の結了等,,,2015-10-05,1,,,,,タテイシコウムテン,0
529,2110002010182,登記記録の閉鎖等,0,2025-10-06,2025-09-26,有限会社石昌,,有限会社,新潟県,新潟市南区,上塩俵１８３２番地１,,15,106,9501244,,,2025-09-26,清算の結了等,,,2015-10-05,1,,,,,セキショウ,0
532,2120001018903,登記記録の閉鎖等,0,2025-10-06,2025-09-29,丸山蒲鉾株式会社,,株式会社,大阪府,大阪市生野区,勝山北１丁目８番３号,,27,116,5440033,,,2025-09-29,清算の結了等,,,2015-10-05,1,,,,,マルヤマカマボコ,0
536,2120001050410,登記記録の閉鎖等,0,2025-10-06,2025-09-30,株式会社野田工業所,,株式会社,大阪府,大阪市西淀川区,御幣島５丁目１７番６号,,27,113,5550012,,,2025-09-30,清算の結了等,,,2015-10-05,1,,,,,ノダコウギョウショ,0
537,2120001065664,登記記録の閉鎖等,0,2025-10-06,2025-09-26,真和設計工業株式会社,,株式会社,大阪府,大阪市北区,南森町１丁目４番１１－１００２号,,27,127,5300054,,,2025-09-26,清算の結了等,,,2015-10-05,1,,,,,シンワセッケイコウギョウ,0
543,2120001173327,登記記録の閉鎖等,0,2025-10-06,2025-09-30,株式会社ページアップ,,株式会社,大阪府,大阪市東淀川区,瑞光１丁目２番１０号１９９５ビル５０２号室,,27,114,5330005,,,2025-09-30,清算の結了等,,,2015-10-05,1,,,,,ページアップ,0
547,2120001255777,登記記録の閉鎖等,0,2025-10-06,2025-09-22,株式会社ナル,,株式会社,愛知県,岡崎市,田口町字深田６５番地,,23,202,4443172,,,2025-09-22,清算の結了等,,,2023-06-16,1,,,,,ナル,0
579,2130002000537,登記記録の閉鎖等,0,2025-10-06,2025-10-02,有限会社くすりのカスガ,,有限会社,京都府,京都市右京区,花園木辻南町１３番地の３,00036810,26,108,6168057,,,2025-10-02,清算の結了等,,,2015-10-05,1,,,,,クスリノカスガ,0
582,2140001037513,登記記録の閉鎖等,0,2025-10-06,2025-09-29,株式会社い川,,株式会社,兵庫県,明石市,大久保町駅前１丁目７番地の１２リアルティ大久保駅前２０２号,,28,203,6740058,,,2025-09-29,清算の結了等,,,2015-10-05,1,,,,,イカワ,0
586,2140002024403,登記記録の閉鎖等,0,2025-10-06,2025-09-30,有限会社Ｔ・ＰＲＡＩＳＥ,,有限会社,兵庫県,神戸市長田区,松野通３丁目２番３８－７０２号,,28,106,6530841,,,2025-09-30,清算の結了等,,,2015-10-05,1,,,,,ティープレイズ,0
592,2160002013718,登記記録の閉鎖等,0,2025-10-06,2025-09-25,有限会社ボードウォークスポーツ,,有限会社,滋賀県,草津市,野路東５丁目１６番１９－１０１号,,25,206,5250058,,,2025-09-25,清算の結了等,,,2015-10-05,1,,,,,ボードウォークスポーツ,0
595,2180001003981,登記記録の閉鎖等,0,2025-10-06,2025-09-19,小林鶏卵株式会社,,株式会社,愛知県,名古屋市千種区,内山１丁目１番２３号,,23,101,4640075,,,2025-09-19,清算の結了等,,,2015-10-05,1,,,,,コバヤシケイラン,0
602,2180001153050,登記記録の閉鎖等,0,2025-10-06,2025-09-11,株式会社コスモスケア,,株式会社,愛知県,名古屋市中村区,名駅５丁目４番１４号花車ビル北館３０６,,23,105,4500002,,,2025-09-11,清算の結了等,,,2022-09-15,1,,,,,コスモスケア,0
608,2180002003774,登記記録の閉鎖等,0,2025-10-06,2025-09-19,有限会社岡本商会,,有限会社,愛知県,名古屋市千種区,清明山２丁目５番２２号,,23,101,4640087,,,2025-09-19,清算の結了等,,,2015-10-05,1,,,,,オカモトショウカイ,0
623,2220002004108,登記記録の閉鎖等,0,2025-10-06,2025-10-01,有限会社藤和商運,,有限会社,石川県,金沢市,東蚊爪町ラ４７番地１,,17,201,9200209,,,2025-10-01,合併による解散等,2220001026045,令和７年１０月１日石川県金沢市東蚊爪町ラ４７番地１トナミコールドロジスティクス株式会社（2220001026045）に合併し解散,2015-10-05,1,,,,,フジワショウウン,0
625,2220005007917,登記記録の閉鎖等,0,2025-10-06,2025-10-01,特定非営利活動法人ｔｒａＮｅｃｏ,,その他の設立登記法人,石川県,金沢市,保古町ホ９９番地１,,17,201,9218053,,,2025-10-01,清算の結了等,,,2015-10-05,1,,,,,トラネコ,0
626,2220005008386,登記記録の閉鎖等,0,2025-10-06,2025-10-01,一般社団法人ＬＡＣマネージメント,,その他の設立登記法人,石川県,金沢市,米泉町８丁目１４７番地３,,17,201,9218044,,,2025-10-01,清算の結了等,,,2019-05-21,1,,,,,ラックマネージメント,0
631,2240001002845,登記記録の閉鎖等,0,2025-10-06,2025-10-01,株式会社食良品館,,株式会社,広島県,広島市西区,商工センター７丁目１番４０号,,34,104,7330833,,,2025-10-01,合併による解散等,3240001011218,令和７年１０月１日広島市西区商工センター七丁目１番４０号丸徳海苔株式会社（3240001011218）に合併し解散,2015-10-05,1,,,,,ショクリョウヒンカン,0
632,2240001029070,登記記録の閉鎖等,0,2025-10-06,2025-10-01,株式会社ダイチ,,株式会社,広島県,廿日市市,大野字中山１５６番地１,,34,213,7390406,,,2025-10-01,清算の結了等,,,2015-10-05,1,,,,,ダイチ,0
637,2260001006935,登記記録の閉鎖等,0,2025-10-06,2025-09-25,株式会社読宣岡山,,株式会社,岡山県,岡山市北区,大安寺南町１丁目１番６５号,,33,101,7000064,,,2025-09-25,清算の結了等,,,2015-10-05,1,,,,,ヨミセンオカヤマ,0
647,2290805008273,登記記録の閉鎖等,0,2025-10-06,2025-09-30,特定非営利活動法人敬愛福祉,,その他の設立登記法人,福岡県,北九州市八幡東区,松尾町２２番２５号,,40,108,8050032,,,2025-09-30,清算の結了等,,,2015-10-05,1,,,,,ケイアイフクシ,0
692,2430003009010,登記記録の閉鎖等,0,2025-10-06,2025-09-19,合同会社メディハンズ,,合同会社,北海道,札幌市中央区,南十五条西１２丁目１番５－１０１号,,01,101,0640915,,,2025-09-19,清算の結了等,,,2018-01-10,1,,,,,メディハンズ,0
696,2440002001644,登記記録の閉鎖等,0,2025-10-06,2025-10-02,有限会社小林製菓,,有限会社,北海道,函館市,本町３１番６号,,01,202,0400011,,,2025-10-02,清算の結了等,,,2015-10-05,1,,,,,コバヤシセイカ,0
698,2450001010736,登記記録の閉鎖等,0,2025-10-06,2025-09-30,株式会社横内漁業,,株式会社,北海道,紋別郡興部町,字興部６番地の２５,,01,561,0981600,,,2025-09-30,清算の結了等,,,2015-10-05,1,,,,,ヨコウチギョギョウ,0
699,2470001009132,登記記録の閉鎖等,0,2025-10-06,2025-10-02,株式会社中山住設,,株式会社,香川県,坂出市,川津町３５８８番地の１４,,37,203,7620025,,,2025-10-02,清算の結了等,,,2015-10-05,1,,,,,ナカヤマジュウセツ,0
701,2480001005139,登記記録の閉鎖等,0,2025-10-06,2025-10-01,板東土建株式会社,,株式会社,徳島県,鳴門市,撫養町斎田字大堤１４８番地,,36,202,7720002,,,2025-10-01,清算の結了等,,,2015-10-05,1,,,,,バンドウドケン,0
715,3010001243049,登記記録の閉鎖等,0,2025-10-06,2025-10-01,株式会社ＫＳＴ１０,,株式会社,東京都,千代田区,内幸町２丁目１番６号,,13,101,1000011,,,2025-10-01,清算の結了等,,,2024-03-18,1,,,,,ケイエスティーテン,0
721,3010002021115,登記記録の閉鎖等,0,2025-10-06,2025-09-16,シャングリラインターナショナルマーケッティング有限会社,,有限会社,東京都,千代田区,丸の内１丁目８番３号丸の内トラストタワー本館,,13,101,1000005,,,2025-09-16,清算の結了等,,,2015-10-05,1,,,,,シャングリラインターナショナルマーケッティング,0
722,3010003036112,登記記録の閉鎖等,0,2025-10-06,2025-09-01,ＧＳＳＧ　Ｓｏｌａｒ　Ｊａｐａｎ　Ｈｏｌｄｉｎｇｓ４ａ合同会社,,合同会社,東京都,千代田区,丸の内１丁目４番１号東京共同会計事務所内,,13,101,1000005,,,2025-09-01,合併による解散等,1010403030410,令和７年９月１日東京都千代田区霞が関三丁目２番５号ＺＥＣ５合同会社（1010403030410）に合併し解散,2021-10-26,1,,,,,ジーエスエスジーソーラージャパンホールディングスフォーエー,0
736,3010401152568,登記記録の閉鎖等,0,2025-10-06,2025-09-01,株式会社ＫＡＮＰＡＩ２４．ｃｏｍ,,株式会社,東京都,港区,芝浦３丁目１７番１１号天翔田町ビル,,13,103,1080023,,,2025-09-01,清算の結了等,,,2020-04-30,1,,,,,カンパイニジュウヨンドットコム,0
751,3011001147297,登記記録の閉鎖等,0,2025-10-06,2025-09-12,株式会社ＹＳコーポレーション,,株式会社,東京都,目黒区,目黒本町５丁目３２番１５号２０３号室,,13,110,1520002,,,2025-09-12,清算の結了等,,,2022-05-09,1,,,,,ワイエスコーポレーション,0
758,3011003022052,登記記録の閉鎖等,0,2025-10-06,2025-10-02,ナイル合同会社,,合同会社,東京都,渋谷区,神宮前１丁目５番８号,,13,113,1500001,,,2025-10-02,合併による解散等,2020001018319,令和７年９月１７日横浜市鶴見区大黒町３番１００号内外輸送株式会社（2020001018319）に合併し解散,2025-07-16,1,,,,,ナイル,0
769,3011202004900,登記記録の閉鎖等,0,2025-10-06,2025-09-19,有限会社パルティール,,有限会社,東京都,中野区,松が丘１丁目２２番２１号,,13,114,1650024,,,2025-09-19,清算の結了等,,,2015-10-05,1,,,,,パルティール,0
778,3011801001505,登記記録の閉鎖等,0,2025-10-06,2025-09-29,国際警備保障株式会社,,株式会社,東京都,葛飾区,新小岩１丁目５１番１７号,,13,122,1240024,,,2025-09-29,清算の結了等,,,2015-10-05,1,,,,,コクサイケイビホショウ,0
782,3012401039175,登記記録の閉鎖等,0,2025-10-06,2025-10-01,株式会社ＺＥＮ,,株式会社,東京都,武蔵野市,吉祥寺本町４丁目９番１０号,,13,203,1800004,,,2025-10-01,合併による解散等,7013301031185,令和７年９月１日東京都港区南青山三丁目１８番１９号株式会社瑞穂（7013301031185）に合併し解散,2022-05-10,1,,,,,ゼン,0
792,3020001032467,登記記録の閉鎖等,0,2025-10-06,2025-09-12,株式会社システムクリエーション・ワン,,株式会社,神奈川県,横浜市港南区,日野南４丁目６番２４号６０５号室,,14,111,2340055,,,2025-09-12,清算の結了等,,,2015-10-05,1,,,,,システムクリエーションワン,0
814,3020003001759,登記記録の閉鎖等,0,2025-10-06,2025-09-12,合資会社横浜洋洗社,,合資会社,神奈川県,横浜市南区,宿町１丁目１８番地,,14,105,2320017,,,2025-09-12,清算の結了等,,,2015-10-05,1,,,,,ヨコハマヨウセンシャ,0
838,3030002052190,登記記録の閉鎖等,0,2025-10-06,2025-09-19,有限会社アイディールタイム,,有限会社,埼玉県,三郷市,彦成２丁目１１５番地２２,,11,237,3410003,,,2025-09-19,清算の結了等,,,2015-10-05,1,,,,,アイディールタイム,0
864,3060002020649,登記記録の閉鎖等,0,2025-10-06,2025-09-30,有限会社なんでもや,,有限会社,栃木県,鹿沼市,池ノ森５５４番地２０,,09,205,3220018,,,2025-09-30,清算の結了等,,,2015-10-05,1,,,,,ナンデモヤ,0
871,3080401026815,登記記録の閉鎖等,0,2025-10-06,2025-09-29,株式会社ＱＵＡＬＩ　ＴＥＣＨ,,株式会社,静岡県,浜松市中央区,板屋町１０２番地の１５,,22,138,4300928,,,2025-09-29,清算の結了等,,,2023-10-31,1,,,,,クオリテック,0
873,3090001007248,登記記録の閉鎖等,0,2025-10-06,2025-09-29,株式会社オフィス山村,,株式会社,山梨県,甲府市,小瀬町１３３３番地３,,19,201,4000836,,,2025-09-29,清算の結了等,,,2015-10-05,1,,,,,オフィスヤマムラ,0
878,3110001006726,登記記録の閉鎖等,0,2025-10-06,2025-09-26,株式会社サンソフト,,株式会社,新潟県,新潟市中央区,沼垂東４丁目２番６号,,15,103,9500075,,,2025-09-26,清算の結了等,,,2015-10-05,1,,,,,サンソフト,0
882,3110001030701,登記記録の閉鎖等,0,2025-10-06,2025-09-26,株式会社かねもりまつや,,株式会社,新潟県,上越市,木田２丁目４番１５号,,15,222,9430805,,,2025-09-26,清算の結了等,,,2015-10-05,1,,,,,カネモリマツヤ,0
886,3120001041573,登記記録の閉鎖等,0,2025-10-06,2025-10-01,ウエストスクエアビル株式会社,,株式会社,大阪府,大阪市西区,西本町１丁目７番２号,,27,106,5500005,,,2025-10-01,清算の結了等,,,2015-10-05,1,,,,,ウエストスクエアビル,0
910,3120002020667,登記記録の閉鎖等,0,2025-10-06,2025-09-30,有限会社松岡マンション,,有限会社,大阪府,大阪市浪速区,日本橋東１丁目５番２０号,,27,111,5560006,,,2025-09-30,清算の結了等,,,2015-10-05,1,,,,,マツオカマンション,0
923,3120102018280,登記記録の閉鎖等,0,2025-10-06,2025-09-22,有限会社花蝶,,有限会社,大阪府,羽曳野市,誉田３丁目１４番６号,,27,222,5830857,,,2025-09-22,清算の結了等,,,2015-10-05,1,,,,,カチョウ,0
930,3122002011448,登記記録の閉鎖等,0,2025-10-06,2025-10-01,有限会社ネオ・ハート・エンタープライズ,,有限会社,大阪府,大阪市阿倍野区,松崎町２丁目１０番２４号,,27,119,5450053,,,2025-10-01,清算の結了等,,,2015-10-05,1,,,,,ネオハートエンタープライズ,0
932,3130001042884,登記記録の閉鎖等,0,2025-10-06,2025-10-01,龍村興産株式会社,,株式会社,京都府,京丹後市,網野町下岡小字有安３６２番地,,26,212,6293102,,,2025-10-01,合併による解散等,9130001021544,令和７年１０月１日京都市右京区西院平町２５番地ライフプラザ西大路四条株式会社龍村美術織物（9130001021544）に合併し解散,2015-10-05,1,,,,,タツムラコウサン,0
936,3140001019205,登記記録の閉鎖等,0,2025-10-06,2025-09-30,株式会社富基ファシリティーズ,,株式会社,兵庫県,神戸市灘区,赤松町３丁目２番３号,,28,102,6570061,,,2025-09-30,合併による解散等,2140001003952,令和７年９月３０日神戸市灘区赤松町三丁目２番３号株式会社富基（2140001003952）に合併し解散,2015-10-05,1,,,,,フキファシリティーズ,0
956,3180002067075,登記記録の閉鎖等,0,2025-10-06,2025-09-12,有限会社光設備,,有限会社,愛知県,春日井市,六軒屋町西１丁目５番地の４,,23,206,4860839,,,2025-09-12,清算の結了等,,,2015-10-05,1,,,,,ヒカリセツビ,0
964,3190001014614,登記記録の閉鎖等,0,2025-10-06,2025-09-30,株式会社カネヒラ阿部,,株式会社,三重県,四日市市,下さざらい町７番３４号,,24,202,5108033,,,2025-09-30,清算の結了等,,,2015-10-05,1,,,,,カネヒラアベ,0
968,3200001016658,登記記録の閉鎖等,0,2025-10-06,2025-09-30,株式会社大垣スクールランチサポート,,株式会社,岐阜県,大垣市,外野３丁目１３番地１,,21,202,5030933,,,2025-09-30,清算の結了等,,,2015-10-05,1,,,,,オオガキスクールランチサポート,0
973,3200002023843,登記記録の閉鎖等,0,2025-10-06,2025-09-30,有限会社鷲見製業所,,有限会社,岐阜県,恵那市,中野方町１６８８番地の１,,21,210,5098231,,,2025-09-30,清算の結了等,,,2015-10-05,1,,,,,スミセイギョウショ,0
976,3220001013001,登記記録の閉鎖等,0,2025-10-06,2025-10-02,株式会社ソーユー物流,,株式会社,石川県,能美市,中町レ６４番地,,17,211,9290123,,,2025-10-02,清算の結了等,,,2015-10-05,1,,,,,ソーユーブツリュウ,0
977,3220003000055,登記記録の閉鎖等,0,2025-10-06,2025-10-01,合名会社額酒販店,,合名会社,石川県,金沢市,額新町１丁目１２番地,,17,201,9218149,,,2025-10-01,清算の結了等,,,2015-10-05,1,,,,,ヌカシュハンテン,0
981,3240001028105,登記記録の閉鎖等,0,2025-10-06,2025-10-01,株式会社広島リゾート,,株式会社,広島県,廿日市市,栗栖５０８番地,,34,213,7380224,,,2025-10-01,合併による解散等,6240001028218,令和７年１０月１日広島県廿日市市栗栖５０８番地中本造林株式会社（6240001028218）に合併し解散,2015-10-05,1,,,,,ヒロシマリゾート,0
986,3250001011860,登記記録の閉鎖等,0,2025-10-06,2025-10-01,株式会社時寛工業,,株式会社,山口県,岩国市,周東町差川１０７５番地２４,,35,208,7420424,,,2025-10-01,清算の結了等,,,2015-10-05,1,,,,,トキヒロコウギョウ,0
1014,3350001001455,登記記録の閉鎖等,0,2025-10-06,2025-09-30,株式会社ビブレアール宮崎,,株式会社,宮崎県,宮崎市,生目台西３丁目２番地２,,45,201,8800943,,,2025-09-30,清算の結了等,,,2015-10-05,1,,,,,ビブレアールミヤザキ,0
1015,3350002015421,登記記録の閉鎖等,0,2025-10-06,2025-09-29,有限会社森家具工業,,有限会社,宮崎県,北諸県郡三股町,大字宮村３３３０番地８,,45,341,8891912,,,2025-09-29,清算の結了等,,,2015-10-05,1,,,,,モリカグコウギョウ,0
1026,3380001015519,登記記録の閉鎖等,0,2025-10-06,2025-09-22,株式会社落合工機,,株式会社,福島県,南相馬市,原町区長野字上田１５７番地,,07,212,9750074,,,2025-09-22,清算の結了等,,,2015-10-05,1,,,,,,0
1039,3430001006009,登記記録の閉鎖等,0,2025-10-06,2025-09-16,株式会社コンゴー特装,,株式会社,北海道,札幌市西区,西野十条８丁目１１番１号,,01,107,0630040,,,2025-09-16,清算の結了等,,,2015-10-05,1,,,,,コンゴートクソウ,0
1042,3430001093303,登記記録の閉鎖等,0,2025-10-06,2025-09-16,北海道ニセコホテルアンドリゾート株式会社,,株式会社,北海道,札幌市中央区,北二条西１０丁目１番地１４西３０２,,01,101,0600002,,,2025-09-16,清算の結了等,,,2024-12-20,1,,,,,ホッカイドウニセコホテルアンドリゾート,0
1052,3470001016037,登記記録の閉鎖等,0,2025-10-06,2025-10-01,株式会社ニューアテンプト,,株式会社,香川県,高松市,下田井町４３７番地４,,37,201,7610313,,,2025-10-01,合併による解散等,6470001007099,令和７年９月２８日香川県高松市下田井町４３７番地４株式会社ユニテル（6470001007099）に合併し解散,2016-12-19,1,,,,,ニューアテンプト,0
1067,4010001174747,登記記録の閉鎖等,0,2025-10-06,2025-09-16,株式会社ＳＫＤ,,株式会社,東京都,千代田区,外神田２丁目３番１号,,13,101,1010021,,,2025-09-16,清算の結了等,,,2016-04-18,1,,,,,エスケーデー,0
1070,4010001247957,登記記録の閉鎖等,0,2025-10-06,2025-09-16,ＬＡＣ株式会社,,株式会社,東京都,千代田区,神田神保町１丁目２４番１－１２０５号,,13,101,1010051,,,2025-09-16,清算の結了等,,,2024-09-03,1,,,,,エルエーシー,0
1083,4010003036111,登記記録の閉鎖等,0,2025-10-06,2025-09-01,ＧＳＳＧ　Ｓｏｌａｒ　Ｊａｐａｎ　Ｈｏｌｄｉｎｇｓ３ａ合同会社,,合同会社,東京都,千代田区,丸の内１丁目４番１号東京共同会計事務所内,,13,101,1000005,,,2025-09-01,合併による解散等,1010403030410,令和７年９月１日東京都千代田区霞が関三丁目２番５号ＺＥＣ５合同会社（1010403030410）に合併し解散,2021-10-26,1,,,,,ジーエスエスジーソーラージャパンホールディングススリーエー,0
1118,4011001135656,登記記録の閉鎖等,0,2025-10-06,2025-09-04,株式会社ブーストラボ,,株式会社,東京都,渋谷区,渋谷２丁目１９－１５宮益坂ビルディング６０９,,13,113,1500002,,,2025-09-04,清算の結了等,,,2020-09-04,1,,,,,ブーストラボ,0
1143,4020001055599,登記記録の閉鎖等,0,2025-10-06,2025-09-16,株式会社アーバン都市開発,,株式会社,神奈川県,横浜市中区,翁町２丁目８番６号第二東里ビル４１９,,14,104,2310028,,,2025-09-16,清算の結了等,,,2015-10-05,1,,,,,アーバントシカイハツ,0
1155,4020002021625,登記記録の閉鎖等,0,2025-10-06,2025-09-12,有限会社鈴木電機商会,,有限会社,神奈川県,横浜市旭区,中白根３丁目１８番１８号,,14,112,2410004,,,2025-09-12,清算の結了等,,,2015-10-05,1,,,,,スズキデンキショウカイ,0
1165,4021002020955,登記記録の閉鎖等,0,2025-10-06,2025-09-26,有限会社新光精密,,有限会社,神奈川県,相模原市中央区,上溝４５８６番地,,14,152,2520243,,,2025-09-26,清算の結了等,,,2015-10-05,1,,,,,シンコウセイミツ,0
1166,4021002034641,登記記録の閉鎖等,0,2025-10-06,2025-09-25,有限会社岩崎園,,有限会社,神奈川県,伊勢原市,石田２６６番地１,,14,214,2591116,,,2025-09-25,清算の結了等,,,2015-10-05,1,,,,,イワサキエン,0
1172,4030001012426,登記記録の閉鎖等,0,2025-10-06,2025-09-26,株式会社シャイン,,株式会社,埼玉県,さいたま市浦和区,常盤３丁目１６番３号,,11,107,3300061,,,2025-09-26,清算の結了等,,,2015-10-05,1,,,,,シャイン,0
1177,4030001136729,登記記録の閉鎖等,0,2025-10-06,2025-09-12,株式会社ＴｏｇａＣｏｍｐａｎｙＺ,,株式会社,神奈川県,横浜市旭区,善部町１０１番地８ロゼール壱番館６０１号,,14,112,2410823,,,2025-09-12,清算の結了等,,,2020-06-04,1,,,,,トガカンパニーゼット,0
1203,4040002101672,登記記録の閉鎖等,0,2025-10-06,2025-09-29,有限会社サンポーファーム,,有限会社,千葉県,南房総市,白浜町白浜７番地１０,,12,234,2950102,,,2025-09-29,合併による解散等,6130001009311,令和７年８月３１日京都市東山区祇園町北側３１３番地９サンポー食品株式会社（6130001009311）に合併し解散,2015-10-05,1,,,,,,0
1205,4040005021810,登記記録の閉鎖等,0,2025-10-06,2025-09-02,一般社団法人バウムベイサイド,,その他の設立登記法人,千葉県,船橋市,前原西２丁目１４番２号津田沼駅前安田ビル５Ｆ,,12,204,2740825,,,2025-09-02,清算の結了等,,,2022-11-11,1,,,,,バウムベイサイド,0
1219,4080402014999,登記記録の閉鎖等,0,2025-10-06,2025-09-29,有限会社さつきコンタクト,,有限会社,静岡県,浜松市浜名区,本沢合８３６番地の１,,22,139,4340014,,,2025-09-29,清算の結了等,,,2015-10-05,1,,,,,サツキコンタクト,0
1224,4090002013104,登記記録の閉鎖等,0,2025-10-06,2025-09-26,有限会社アンティーブ,,有限会社,山梨県,南都留郡富士河口湖町,大石３４５番地,,19,430,4010305,,,2025-09-26,清算の結了等,,,2015-10-05,1,,,,,アンティーブ,0
1236,4120001058922,登記記録の閉鎖等,0,2025-10-06,2025-10-01,ガスウェル販売株式会社,,株式会社,大阪府,大阪市淀川区,三津屋中３丁目８番１号,,27,123,5320036,,,2025-10-01,合併による解散等,4120001102688,令和７年１０月１日大阪市西区新町一丁目１６番１号大陽日酸ガス＆ウェルディング株式会社（4120001102688）に合併し解散,2015-10-05,1,,,,,ガスウェルハンバイ,0
1244,4120001207322,登記記録の閉鎖等,0,2025-10-06,2025-09-25,Ｅｎｕｚｕ株式会社,,株式会社,大阪府,大阪市西区,南堀江４丁目２４番１８号,,27,106,5500015,,,2025-09-25,清算の結了等,,,2017-08-09,1,,,,,エヌズ,0
1259,4120002006698,登記記録の閉鎖等,0,2025-10-06,2025-09-25,有限会社菊屋,,有限会社,大阪府,大阪市旭区,高殿７丁目６番５号,,27,117,5350031,,,2025-09-25,清算の結了等,,,2015-10-05,1,,,,,キクヤ,0
1265,4120005006076,登記記録の閉鎖等,0,2025-10-06,2025-10-02,テクノパーク島屋協同組合,,その他の設立登記法人,大阪府,大阪市此花区,島屋４丁目２番４８号,,27,104,5540024,,,2025-10-02,清算の結了等,,,2015-10-05,1,,,,,テクノパークシマヤ,0
1310,4180003027291,登記記録の閉鎖等,0,2025-10-06,2025-09-16,かいわれ福祉サービス合同会社,,合同会社,愛知県,尾張旭市,平子町長池上６２４６番地２,,23,226,4880872,,,2025-09-16,清算の結了等,,,2024-08-30,1,,,,,カイワレフクシサービス,0
1317,4210001000445,登記記録の閉鎖等,0,2025-10-06,2025-10-01,石橋工務店株式会社,,株式会社,福井県,福井市,飯塚町６号３０番地１,,18,201,9188067,,,2025-10-01,清算の結了等,,,2015-10-05,1,,,,,イシバシコウムテン,0
1339,4290002031993,登記記録の閉鎖等,0,2025-10-06,2025-09-09,株式会社イーハウス,,株式会社,福岡県,福岡市南区,屋形原２丁目３８番２号,,40,134,8111351,,,2025-09-09,清算の結了等,,,2015-10-05,1,,,,,イーハウス,0
1343,4290801010685,登記記録の閉鎖等,0,2025-10-06,2025-10-02,村上興産株式会社,,株式会社,福岡県,北九州市八幡西区,馬場山東１丁目１番１２号,,40,109,8071131,,,2025-10-02,清算の結了等,,,2015-10-05,1,,,,,ムラカミコウサン,0
1345,4300001008933,登記記録の閉鎖等,0,2025-10-06,2025-10-01,リライフ株式会社,,株式会社,佐賀県,佐賀市,水ヶ江６丁目４番１０号,,41,201,8400054,,,2025-10-01,合併による解散等,7300002005514,令和７年１０月１日佐賀市水ヶ江五丁目３番１５号田島ホールディングス株式会社（7300002005514）に合併し解散,2015-10-05,1,,,,,リライフ,0
1351,4340001007758,登記記録の閉鎖等,0,2025-10-06,2025-09-29,株式会社十三塚建設,,株式会社,鹿児島県,霧島市,溝辺町麓５７９番地,,46,218,8996404,,,2025-09-29,清算の結了等,,,2015-10-05,1,,,,,トミヅカケンセツ,0
1372,4370302000780,登記記録の閉鎖等,0,2025-10-06,2025-09-12,有限会社共和電工,,有限会社,宮城県,石巻市,沼津字竹の森８番地の１２,,04,202,9862101,,,2025-09-12,清算の結了等,,,2015-10-05,1,,,,,キョウワデンコウ,0
1387,4430001042168,登記記録の閉鎖等,0,2025-10-06,2025-09-26,合同会社ＳＰＡＣＥ　ＫＵＲＯ,,合同会社,東京都,大田区,西蒲田７丁目４２番７号,,13,111,1440051,,,2025-09-26,清算の結了等,,,2015-10-05,1,,,,,スペースクロ,0
1388,4430001055517,登記記録の閉鎖等,0,2025-10-06,2025-09-01,株式会社中島組,,株式会社,北海道,浦河郡浦河町,荻伏町４９２番地,,01,607,0593451,,,2025-09-01,合併による解散等,9430001030647,令和７年９月１日北海道新冠郡新冠町字大狩部７７番地の１株式会社優駿インベストメント（9430001030647）に合併し解散,2015-10-05,1,,,,,ナカジマグミ,0
1428,5010005005518,登記記録の閉鎖等,0,2025-10-06,2025-09-30,インペリアル御茶の水管理組合法人,,その他の設立登記法人,東京都,千代田区,神田小川町３丁目１１番地２,,13,101,1010052,,,2025-09-30,清算の結了等,,,2015-10-05,1,,,,,インペリアルオチャノミズ,0
1432,5010401038856,登記記録の閉鎖等,0,2025-10-06,2025-09-03,ケイ・エム・ケイ・インターナショナル株式会社,,株式会社,東京都,港区,麻布十番１丁目３番８号,,13,103,1060045,,,2025-09-03,清算の結了等,,,2015-10-05,1,,,,,ケイエムケイインターナショナル,0
1461,5011001134145,登記記録の閉鎖等,0,2025-10-06,2025-10-02,株式会社Ｆｉｎｄ　Ｄｉｓｃｏｖｅｒｙ,,株式会社,東京都,世田谷区,池尻２丁目７－６ピアース三宿１０２号,,13,112,1540001,,,2025-10-02,清算の結了等,,,2020-06-09,1,,,,,ファインドディスカバリー,0
1464,5011101058095,登記記録の閉鎖等,0,2025-10-06,2025-09-02,株式会社ライトハウスメディア,,株式会社,東京都,港区,東麻布１丁目９番１５号,,13,103,1060044,,,2025-09-02,合併による解散等,1011001067737,令和７年９月１日東京都港区東麻布一丁目９番１５号リンクタイズ株式会社（1011001067737）に合併し解散,2015-10-05,1,,,,,ライトハウスメディア,0
1477,5011401019565,登記記録の閉鎖等,0,2025-10-06,2025-09-16,＿震封乾株式会社,00107268,株式会社,千葉県,松戸市,上本郷６１８番地１号第八松戸マンション７２０,,12,207,2710064,,,2025-09-16,清算の結了等,,,2016-07-13,1,,,,,シンシンフカン,0
1478,5011401021892,登記記録の閉鎖等,0,2025-10-06,2025-09-29,株式会社ベストパートナーズ,,株式会社,東京都,板橋区,小茂根１丁目２７番１６－２０５号,,13,119,1730037,,,2025-09-29,清算の結了等,,,2019-06-17,1,,,,,ベストパートナーズ,0
1481,5011502004441,登記記録の閉鎖等,0,2025-10-06,2025-09-30,有限会社奈良タイル工業,,有限会社,東京都,北区,滝野川２丁目１９番７号,,13,117,1140023,,,2025-09-30,清算の結了等,,,2015-10-05,1,,,,,ナラタイルコウギョウ,0
1484,5011702008548,登記記録の閉鎖等,0,2025-10-06,2025-09-02,有限会社中出屋商事,,有限会社,千葉県,市川市,塩焼３丁目１６番１８号,,12,203,2720114,,,2025-09-02,清算の結了等,,,2015-10-05,1,,,,,ナカデヤショウジ,0
1490,5012401003518,登記記録の閉鎖等,0,2025-10-06,2025-09-19,株式会社嵐山オフィス,,株式会社,東京都,国立市,東３丁目２２番地の１２,,13,215,1860002,,,2025-09-19,清算の結了等,,,2015-10-05,1,,,,,アラシヤマオフィス,0
1503,5020001062413,登記記録の閉鎖等,0,2025-10-06,2025-09-02,株式会社アルボル,,株式会社,神奈川県,横浜市港北区,高田東３丁目２５番５号,,14,109,2230065,,,2025-09-02,清算の結了等,,,2015-10-05,1,,,,,アルボル,0
1504,5020001120492,登記記録の閉鎖等,0,2025-10-06,2025-09-16,株式会社メディオ,,株式会社,神奈川県,横浜市南区,中島町２丁目２１,,14,105,2320055,,,2025-09-16,清算の結了等,,,2017-03-22,1,,,,,メディオ,0
1509,5020002023835,登記記録の閉鎖等,0,2025-10-06,2025-09-29,有限会社三豊サービス,,有限会社,大阪府,大阪市中央区,伏見町４丁目２番６号,,27,128,5410044,,,2025-09-29,清算の結了等,,,2015-10-05,1,,,,,サンポウサービス,0
1555,5040002038063,登記記録の閉鎖等,0,2025-10-06,2025-09-02,有限会社千幸,,有限会社,千葉県,鎌ケ谷市,中沢新町７番１２号,,12,224,2730119,,,2025-09-02,清算の結了等,,,2015-10-05,1,,,,,チコウ,0
1559,5050001007258,登記記録の閉鎖等,0,2025-10-06,2025-09-25,株式会社マルイシ水産,,株式会社,茨城県,東茨城郡大洗町,磯浜町６９０２番地の２,,08,309,3111301,,,2025-09-25,清算の結了等,,,2015-10-05,1,,,,,マルイシスイサン,0
1561,5050002015169,登記記録の閉鎖等,0,2025-10-06,2025-09-26,有限会社グット・ウィル,,有限会社,茨城県,小美玉市,野田３３４番地の１８,,08,236,3113411,,,2025-09-26,清算の結了等,,,2015-10-05,1,,,,,グットウィル,0
1562,5050002044060,登記記録の閉鎖等,0,2025-10-06,2025-09-26,有限会社クメヤ,,有限会社,茨城県,桜川市,岩瀬２４６番地,,08,231,3091211,,,2025-09-26,清算の結了等,,,2015-10-05,1,,,,,クメヤ,0
1566,5070002032154,登記記録の閉鎖等,0,2025-10-06,2025-09-30,ぐん庄漬物有限会社,,有限会社,群馬県,太田市,藪塚町４１５０番地５,00026847,10,205,3792301,,,2025-09-30,清算の結了等,,,2015-10-05,1,,,,,グンショウツケモノ,0
1590,5120001036497,登記記録の閉鎖等,0,2025-10-06,2025-09-25,株式会社丸英商会,,株式会社,大阪府,大阪市福島区,鷺洲４丁目４番１０号,,27,103,5530002,,,2025-09-25,清算の結了等,,,2015-10-05,1,,,,,マルエイショウカイ,0
1601,5120001221495,登記記録の閉鎖等,0,2025-10-06,2025-09-29,株式会社グローバルナビゲート,,株式会社,大阪府,大阪市浪速区,難波中１丁目１０番４号,,27,111,5560011,,,2025-09-29,清算の結了等,,,2019-06-05,1,,,,,グローバルナビゲート,0
1623,5120002063581,登記記録の閉鎖等,0,2025-10-06,2025-10-01,有限会社えぬねっと,,有限会社,大阪府,大阪市中央区,松屋町１０番１２号,,27,128,5420067,,,2025-10-01,清算の結了等,,,2015-10-05,1,,,,,エヌネット,0
1635,5140001078430,登記記録の閉鎖等,0,2025-10-06,2025-09-29,ジクカワ建設株式会社,,株式会社,兵庫県,伊丹市,森本９丁目４０番地,,28,207,6640842,,,2025-09-29,清算の結了等,,,2015-10-05,1,,,,,ジクカワケンセツ,0
1647,5150001009302,登記記録の閉鎖等,0,2025-10-06,2025-10-01,株式会社近藤商店,,株式会社,奈良県,桜井市,大字谷６３番地,,29,206,6330053,,,2025-10-01,清算の結了等,,,2015-10-05,1,,,,,コンドウショウテン,0
1666,5180002011080,登記記録の閉鎖等,0,2025-10-06,2025-09-17,有限会社オフィスクリップ,,有限会社,愛知県,名古屋市北区,萩野通２丁目１４番地,,23,103,4620026,,,2025-09-17,清算の結了等,,,2015-10-05,1,,,,,オフィスクリップ,0
1669,5180003020667,登記記録の閉鎖等,0,2025-10-06,2025-09-12,合同会社夢劫,,合同会社,愛知県,名古屋市瑞穂区,萩山町２丁目５６番地,,23,108,4670011,,,2025-09-12,清算の結了等,,,2019-12-18,1,,,,,ムゴウ,0
1674,5190003003712,登記記録の閉鎖等,0,2025-10-06,2025-09-30,合同会社ＥＶＥＲ,,合同会社,三重県,四日市市,南富田町１２番１５‐１号,,24,202,5108013,,,2025-09-30,清算の結了等,,,2021-07-05,1,,,,,エバー,0
1676,5200001009668,登記記録の閉鎖等,0,2025-10-06,2025-10-01,株式会社明日美,,株式会社,岐阜県,岐阜市,正木南１丁目１３番７号,,21,201,5020866,,,2025-10-01,清算の結了等,,,2015-10-05,1,,,,,アスミ,0
1683,5200001029930,登記記録の閉鎖等,0,2025-10-06,2025-09-29,株式会社５次元,,株式会社,岐阜県,本巣郡北方町,高屋白木３丁目３７番地の１,,21,421,5010454,,,2025-09-29,清算の結了等,,,2015-10-05,1,,,,,,0
1687,5200002004569,登記記録の閉鎖等,0,2025-10-06,2025-10-02,有限会社丸美ふじた,,有限会社,岐阜県,岐阜市,西野町六丁目北町３番地の２,,21,201,5008887,,,2025-10-02,清算の結了等,,,2015-10-05,1,,,,,マルミフジタ,0
1690,5220001003792,登記記録の閉鎖等,0,2025-10-06,2025-10-01,大栄自動車工業株式会社,,株式会社,石川県,金沢市,湊１丁目５５番地１０,,17,201,9200211,,,2025-10-01,合併による解散等,2220001026045,令和７年１０月１日石川県金沢市東蚊爪町ラ４７番地１トナミコールドロジスティクス株式会社（2220001026045）に合併し解散,2015-10-05,1,,,,,ダイエイジドウシャコウギョウ,0
1705,5250001016858,登記記録の閉鎖等,0,2025-10-06,2025-10-01,株式会社エスエス,,株式会社,山口県,周南市,二番町３丁目５番地,,35,215,7450002,,,2025-10-01,清算の結了等,,,2017-11-01,1,,,,,エスエス,0
1719,5290001089099,登記記録の閉鎖等,0,2025-10-06,2025-09-03,株式会社樹,,株式会社,福岡県,春日市,下白水北３丁目５番地１,,40,218,8160854,,,2025-09-03,清算の結了等,,,2020-06-16,1,,,,,イツキ,0
1723,5290003001986,登記記録の閉鎖等,0,2025-10-06,2025-09-08,合名会社相川商事,,合名会社,福岡県,朝倉市,甘木１７３５番地,,40,228,8380068,,,2025-09-08,清算の結了等,,,2015-10-05,1,,,,,アイカワショウジ,0
1732,5310001009442,登記記録の閉鎖等,0,2025-10-06,2025-10-03,株式会社アスグラッド,,株式会社,長崎県,諫早市,小川町６２０番地７２,,42,204,8540053,,,2025-10-03,清算の結了等,,,2015-10-05,1,,,,,アスグラッド,0
1733,5310001016934,登記記録の閉鎖等,0,2025-10-06,2025-10-01,株式会社大島ファーマシー,,株式会社,長崎県,西海市,西彼町八木原郷字南１５２６番地３,,42,212,8513423,,,2025-10-01,合併による解散等,4310002012909,令和７年１０月１日長崎県西海市西彼町八木原郷３４６１番地５株式会社Ｓａｉｋａｉ　Ｐｈａｒｍａｃｙ（4310002012909）に合併し解散,2020-11-04,1,,,,,オオシマファーマシー,0
1735,5310002006075,登記記録の閉鎖等,0,2025-10-06,2025-10-01,有限会社りんだ,,有限会社,長崎県,長崎市,矢上町２６番８号,,42,201,8510133,,,2025-10-01,合併による解散等,7310002004110,令和７年１０月１日長崎市矢上町２６番８号株式会社二木屋（7310002004110）に合併し解散,2015-10-05,1,,,,,リンダ,0
1759,5380002031868,登記記録の閉鎖等,0,2025-10-06,2025-09-24,有限会社坂田表具内装,,有限会社,福島県,会津若松市,千石町６番６２号,,07,202,9650817,,,2025-09-24,清算の結了等,,,2015-10-05,1,,,,,サカタヒョウグナイソウ,0
1823,6010601044050,登記記録の閉鎖等,0,2025-10-06,2025-09-12,株式会社平安バイオメディカル研究所,,株式会社,東京都,千代田区,大手町１丁目１番１号,,13,101,1000004,,,2025-09-12,清算の結了等,,,2015-10-05,1,,,,,ヘイアンバイオメディカルケンキュウジョ,0
1855,6011201026380,登記記録の閉鎖等,0,2025-10-06,2025-09-16,立川清登音楽事務所株式会社,,株式会社,東京都,中野区,東中野４丁目７番２０号,,13,114,1640003,,,2025-09-16,清算の結了等,,,2025-06-03,1,,,,,,0
1862,6011601002592,登記記録の閉鎖等,0,2025-10-06,2025-09-19,株式会社三共,,株式会社,東京都,練馬区,栄町３２番３号,,13,120,1760006,,,2025-09-19,清算の結了等,,,2015-10-05,1,,,,,サンキョウ,0
1890,6020001147584,登記記録の閉鎖等,0,2025-10-06,2025-09-11,みらいパートナーズ株式会社,,株式会社,神奈川県,横浜市西区,みなとみらい２丁目２－１ランドマークプラザ５Ｆ,,14,103,2200012,,,2025-09-11,清算の結了等,,,2022-08-05,1,,,,,ミライパートナーズ,0
1905,6021001047675,登記記録の閉鎖等,0,2025-10-06,2025-09-25,株式会社相武石油,,株式会社,神奈川県,秦野市,戸川９１３番地,,14,211,2591306,,,2025-09-25,清算の結了等,,,2015-10-05,1,,,,,ソウブセキユ,0
1919,6030001009924,登記記録の閉鎖等,0,2025-10-06,2025-09-25,こころセレモニー株式会社,,株式会社,埼玉県,さいたま市大宮区,北袋町１丁目１６８番地２,,11,103,3300835,,,2025-09-25,清算の結了等,,,2015-10-05,1,,,,,ココロセレモニー,0
1920,6030001015798,登記記録の閉鎖等,0,2025-10-06,2025-09-19,株式会社アライ,,株式会社,埼玉県,さいたま市南区,別所１丁目１９番１０号,,11,108,3360021,,,2025-09-19,合併による解散等,5030001043841,令和７年８月１日埼玉県北足立郡伊奈町大字小室７１１６番地１中央樹脂化学株式会社（5030001043841）に合併し解散,2015-10-05,1,,,,,アライ,0
1922,6030001078960,登記記録の閉鎖等,0,2025-10-06,2025-09-26,浮羽化工株式会社,,株式会社,埼玉県,川口市,上青木６丁目２７番２７号,,11,203,3330844,,,2025-09-26,清算の結了等,,,2015-10-05,1,,,,,ウキハカコウ,0
1941,6030002081781,登記記録の閉鎖等,0,2025-10-06,2025-09-26,有限会社商業企画,,有限会社,埼玉県,本庄市,児玉町高関１９３番地１,,11,211,3670201,,,2025-09-26,清算の結了等,,,2015-10-05,1,,,,,ショウギョウキカク,0
1976,6120001027669,登記記録の閉鎖等,0,2025-10-06,2025-09-24,株式会社丹治組,,株式会社,大阪府,大阪市大正区,平尾１丁目５番１２号,,27,108,5510012,,,2025-09-24,清算の結了等,,,2015-10-05,1,,,,,タンジグミ,0
2008,6120003027378,登記記録の閉鎖等,0,2025-10-06,2025-09-26,牟礼ヶ岡風力発電合同会社,,合同会社,大阪府,大阪市住之江区,南港北２丁目１番１０号,,27,125,5590034,,,2025-09-26,清算の結了等,,,2024-08-26,1,,,,,ムレガオカフウリョクハツデン,0
2012,6120005020455,登記記録の閉鎖等,0,2025-10-06,2025-09-14,一般社団法人全国特殊清掃協会,,その他の設立登記法人,和歌山県,和歌山市,中之島８２１番地,,30,201,6408392,,,2025-09-14,清算の結了等,,,2018-09-25,1,,,,,ゼンコクトクシュセイソウキョウカイ,0
2013,6120101002002,登記記録の閉鎖等,0,2025-10-06,2025-09-16,株式会社薫主堂,,株式会社,大阪府,堺市堺区,北半町西２番１号,,27,141,5900921,,,2025-09-16,清算の結了等,,,2015-10-05,1,,,,,クンシュドウ,0
2029,6140001027865,登記記録の閉鎖等,0,2025-10-06,2025-09-26,近江リビング株式会社,,株式会社,滋賀県,東近江市,五個荘山本町７１０番地,,25,213,5291431,,,2025-09-26,清算の結了等,,,2015-10-05,1,,,,,オウミリビング,0
2031,6140001065064,登記記録の閉鎖等,0,2025-10-06,2025-09-29,株式会社和南,,株式会社,兵庫県,姫路市,広畑区西蒲田６４２番地１,,28,201,6711107,,,2025-09-29,清算の結了等,,,2015-10-05,1,,,,,ワナン,0
2038,6140002047771,登記記録の閉鎖等,0,2025-10-06,2025-09-29,有限会社テラワキ測量,,有限会社,兵庫県,姫路市,下手野５丁目２２番１３号,,28,201,6700063,,,2025-09-29,清算の結了等,,,2015-10-05,1,,,,,テラワキソクリョウ,0
2039,6140002069246,登記記録の閉鎖等,0,2025-10-06,2025-09-29,有限会社オリオンジユーキ,,有限会社,兵庫県,淡路市,小倉１３番地の３,,28,226,6561736,,,2025-09-29,清算の結了等,,,2015-10-05,1,,,,,オリオンジユーキ,0
2045,6180001145102,登記記録の閉鎖等,0,2025-10-06,2025-09-12,株式会社ＲＥＧＩＸ,,株式会社,東京都,文京区,大塚３丁目２０番１号紅屋茗荷谷ビル６Ｆ,,13,105,1120012,,,2025-09-12,清算の結了等,,,2021-03-11,1,,,,,レジックス,0
2046,6180001153055,登記記録の閉鎖等,0,2025-10-06,2025-09-12,Ｏｎｅ　ｓｔｅｐ株式会社,,株式会社,愛知県,名古屋市中区,栄１丁目２４番３４号,,23,106,4600008,,,2025-09-12,清算の結了等,,,2022-09-20,1,,,,,ワンステップ,0
2053,6180003026011,登記記録の閉鎖等,0,2025-10-06,2025-09-17,合同会社オオハラ,,合同会社,愛知県,名古屋市東区,泉１丁目１７番１０号,,23,102,4610001,,,2025-09-17,清算の結了等,,,2023-11-20,1,,,,,オオハラ,0
2064,6220002014227,登記記録の閉鎖等,0,2025-10-06,2025-09-30,有限会社きむらストアー,,有限会社,石川県,七尾市,中島町中島八部７０番地,,17,202,9292222,,,2025-09-30,清算の結了等,,,2015-10-05,1,,,,,キムラストアー,0
2071,6250002003029,登記記録の閉鎖等,0,2025-10-06,2025-10-01,国府倉庫有限会社,,有限会社,山口県,防府市,緑町２丁目１番１号,,35,206,7470026,,,2025-10-01,清算の結了等,,,2015-10-05,1,,,,,コクフソウコ,0
2072,6260001000109,登記記録の閉鎖等,0,2025-10-06,2025-09-26,株式会社アーダ,,株式会社,岡山県,岡山市中区,関４５８番地の６,,33,102,7038232,,,2025-09-26,清算の結了等,,,2015-10-05,1,,,,,アーダ,0
2076,6260002018546,登記記録の閉鎖等,0,2025-10-06,2025-09-26,有限会社サンライフ,,有限会社,岡山県,倉敷市,児島阿津３丁目１番３号,,33,202,7110923,,,2025-09-26,清算の結了等,,,2015-10-05,1,,,,,サンライフ,0
2107,6340001006849,登記記録の閉鎖等,0,2025-10-06,2025-10-01,株式会社梅コンサル,,株式会社,鹿児島県,鹿児島市,紫原３丁目１３番２６号,,46,201,8900082,,,2025-10-01,清算の結了等,,,2015-10-05,1,,,,,ウメコンサル,0
2112,6350001001015,登記記録の閉鎖等,0,2025-10-06,2025-10-01,株式会社高山建設工業,,株式会社,宮崎県,宮崎市,佐土原町下那珂２９６４番地４２,,45,201,8800212,,,2025-10-01,清算の結了等,,,2015-10-05,1,,,,,タカヤマケンセツコウギョウ,0
2115,6350003001756,登記記録の閉鎖等,0,2025-10-06,2025-09-30,株式会社広渡ソーイング,,株式会社,宮崎県,日南市,大字下方２２１０番地３,,45,204,8893143,,,2025-09-30,清算の結了等,,,2015-10-05,1,,,,,ヒロトソーイング,0
2118,6350003001764,登記記録の閉鎖等,0,2025-10-06,2025-09-30,株式会社中央ソーイング,,株式会社,宮崎県,日南市,大字下方２２１０番地３,,45,204,8893143,,,2025-09-30,清算の結了等,,,2015-10-05,1,,,,,チューオーソーイング,0
2132,6370002006275,登記記録の閉鎖等,0,2025-10-06,2025-09-19,有限会社ラウンド・ハチサン・エルシー,,有限会社,宮城県,仙台市若林区,沖野６丁目２５番５５号,,04,103,9840831,,,2025-09-19,清算の結了等,,,2015-10-05,1,,,,,ラウンドハチサンエルシー,0
2136,6380001003834,登記記録の閉鎖等,0,2025-10-06,2025-09-12,中央不動産株式会社,,株式会社,福島県,福島市,北五老内町１番３号,,07,201,9608131,,,2025-09-12,清算の結了等,,,2025-08-19,1,,,,,チュウオウフドウサン,0
2158,6470001010565,登記記録の閉鎖等,0,2025-10-06,2025-10-02,タクマ技研工業株式会社,,株式会社,香川県,三豊市,詫間町詫間６９１２番地４,,37,208,7691101,,,2025-10-02,清算の結了等,,,2015-10-05,1,,,,,タクマギケンコウギョウ,0
2171,7010001235827,登記記録の閉鎖等,0,2025-10-06,2025-09-17,株式会社おたから金太,,株式会社,東京都,中央区,銀座６丁目１３番９号９階ｂｉｚｃｕｂｅ,,13,102,1040061,,,2025-09-17,清算の結了等,,,2023-06-07,1,,,,,オタカラキンタ,0
2210,7011001058326,登記記録の閉鎖等,0,2025-10-06,2025-09-03,株式会社日本・社会システムラボラトリー,,株式会社,東京都,渋谷区,道玄坂１丁目１２番１号渋谷マークシティＷ２２Ｆ,,13,113,1500043,,,2025-09-03,清算の結了等,,,2015-10-05,1,,,,,ニホンシャカイシステムラボラトリー,0
2222,7011201009855,登記記録の閉鎖等,0,2025-10-06,2025-09-22,株式会社エーエムプラザ,,株式会社,東京都,中野区,本町６丁目１６番１２号,,13,114,1640012,,,2025-09-22,清算の結了等,,,2015-10-05,1,,,,,エーエムプラザ,0
2234,7013101001289,登記記録の閉鎖等,0,2025-10-06,2025-10-02,カラキ樹脂興業株式会社,,株式会社,東京都,西多摩郡瑞穂町,大字武蔵３５７番地９,,13,303,1901213,,,2025-10-02,清算の結了等,,,2015-10-05,1,,,,,カラキジュシコウギョウ,0
2250,7020001121092,登記記録の閉鎖等,0,2025-10-06,2025-09-16,株式会社新光,,株式会社,神奈川県,横浜市都筑区,中川中央１丁目７番２号８０１,,14,118,2240003,,,2025-09-16,清算の結了等,,,2017-05-02,1,,,,,シンコウ,0
2258,7020002017380,登記記録の閉鎖等,0,2025-10-06,2025-09-12,有限会社深野会計事務所,,有限会社,神奈川県,横浜市西区,浜松町１１番２８号,,14,103,2200055,,,2025-09-12,清算の結了等,,,2015-10-05,1,,,,,フカノカイケイジムショ,0
2259,7020002023767,登記記録の閉鎖等,0,2025-10-06,2025-09-12,有限会社三栄電業,,有限会社,神奈川県,横浜市保土ケ谷区,瀬戸ケ谷町１９０番地１グランドメゾン保土ヶ谷ヒルズ６０９号,,14,106,2400024,,,2025-09-12,清算の結了等,,,2015-10-05,1,,,,,サンエイデンギョウ,0
2261,7020002058912,登記記録の閉鎖等,0,2025-10-06,2025-09-16,有限会社アウグストゥス,,有限会社,神奈川県,横浜市鶴見区,東寺尾北台１５番２１号,,14,101,2300016,,,2025-09-16,清算の結了等,,,2015-10-05,1,,,,,アウグストゥス,0
2266,7020002101374,登記記録の閉鎖等,0,2025-10-06,2025-09-11,有限会社マイプレジール,,有限会社,神奈川県,川崎市多摩区,長沢３丁目１６番５号,,14,135,2140035,,,2025-09-11,清算の結了等,,,2015-10-05,1,,,,,マイプレジール,0
2291,7030002045538,登記記録の閉鎖等,0,2025-10-06,2025-09-26,有限会社福島板金工業,,有限会社,埼玉県,草加市,柳島町３９番地２４,,11,221,3400033,,,2025-09-26,清算の結了等,,,2015-10-05,1,,,,,フクシマバンキンコウギョウ,0
2293,7030002067656,登記記録の閉鎖等,0,2025-10-06,2025-09-25,有限会社アライ・テクノサービス,,有限会社,埼玉県,春日部市,備後西１丁目４番３８号,,11,214,3440033,,,2025-09-25,清算の結了等,,,2015-10-05,1,,,,,アライテクノサービス,0
2314,7060001000598,登記記録の閉鎖等,0,2025-10-06,2025-10-01,宇都宮あさひ書籍販売株式会社,,株式会社,栃木県,宇都宮市,平出町３７４３番地６,,09,201,3210901,,,2025-10-01,清算の結了等,,,2015-10-05,1,,,,,ウツノミヤアサヒショセキハンバイ,0
2318,7080001026278,登記記録の閉鎖等,0,2025-10-06,2025-09-22,株式会社川口通信工業,,株式会社,静岡県,静岡市清水区,庵原町１４４番地の８,,22,103,4240114,,,2025-09-22,清算の結了等,,,2024-05-02,1,,,,,カワグチツウシンコウギョウ,0
2321,7080002014736,登記記録の閉鎖等,0,2025-10-06,2025-09-26,有限会社丸明,,有限会社,静岡県,榛原郡吉田町,片岡３８８４番地,,22,424,4210303,,,2025-09-26,清算の結了等,,,2015-10-05,1,,,,,マルアキ,0
2327,7080402015202,登記記録の閉鎖等,0,2025-10-06,2025-09-29,有限会社竜巳建設,,有限会社,静岡県,浜松市浜名区,中条１８１５番地の２,,22,139,4340043,,,2025-09-29,清算の結了等,,,2015-10-05,1,,,,,タツミケンセツ,0
2332,7100002001310,登記記録の閉鎖等,0,2025-10-06,2025-10-01,有限会社北富士電工,,有限会社,長野県,長野市,大字若槻東条６７８番地,,20,201,3810084,,,2025-10-01,清算の結了等,,,2015-10-05,1,,,,,キタフジデンコウ,0
2341,7120001026744,登記記録の閉鎖等,0,2025-10-06,2025-09-26,株式会社東野商事,,株式会社,大阪府,大阪市此花区,伝法２丁目１３番２６号,,27,104,5540002,,,2025-09-26,清算の結了等,,,2015-10-05,1,,,,,ヒガシノショウジ,0
2346,7120001229396,登記記録の閉鎖等,0,2025-10-06,2025-09-26,株式会社新日本教育テレビ,,株式会社,大阪府,大阪市北区,野崎町６番７号大阪北野ビル１０階,,27,127,5300055,,,2025-09-26,清算の結了等,,,2020-06-05,1,,,,,シンニホンキョウイクテレビ,0
2367,7120002053226,登記記録の閉鎖等,0,2025-10-06,2025-09-24,有限会社ニシカワ,,有限会社,大阪府,大阪市中央区,谷町６丁目１６番２３号,,27,128,5420012,,,2025-09-24,清算の結了等,,,2015-10-05,1,,,,,ニシカワ,0
2392,7130005014744,登記記録の閉鎖等,0,2025-10-06,2025-10-02,一般社団法人日本ホリスティックダイエット協会,,その他の設立登記法人,京都府,京都市左京区,新麩屋町通仁王門下る大菊町１５３番地,,26,103,6068376,,,2025-10-02,清算の結了等,,,2016-10-18,1,,,,,ニホンホリスティックダイエットキョウカイ,0
2394,7140001018153,登記記録の閉鎖等,0,2025-10-06,2025-09-29,株式会社アクティブ,,株式会社,兵庫県,神戸市西区,伊川谷町有瀬６５６番地、１０４号,,28,111,6512113,,,2025-09-29,清算の結了等,,,2015-10-05,1,,,,,アクティブ,0
2395,7140001019028,登記記録の閉鎖等,0,2025-10-06,2025-10-01,株式会社コープベーカリー,,株式会社,兵庫県,神戸市東灘区,向洋町西２丁目１,,28,101,6580033,,,2025-10-01,清算の結了等,,,2015-10-05,1,,,,,コープベーカリー,0
2403,7140002045015,登記記録の閉鎖等,0,2025-10-06,2025-09-30,有限会社バックオフィス,,有限会社,兵庫県,尼崎市,武庫之荘２丁目４－１２,,28,202,6610035,,,2025-09-30,清算の結了等,,,2015-10-05,1,,,,,バックオフィス,0
2413,7180001142098,登記記録の閉鎖等,0,2025-10-06,2025-09-05,株式会社オルギア,,株式会社,愛知県,名古屋市千種区,内山３丁目９番１号,,23,101,4640075,,,2025-09-05,清算の結了等,,,2020-07-21,1,,,,,オルギア,0
2414,7180001154408,登記記録の閉鎖等,0,2025-10-06,2025-09-18,株式会社プログラマー,,株式会社,愛知県,名古屋市中川区,福住町９－８サンクマーレ福住１０３,,23,110,4540802,,,2025-09-18,清算の結了等,,,2023-01-05,1,,,,,プログラマー,0
2434,7220001004896,登記記録の閉鎖等,0,2025-10-06,2025-10-01,西金運輸株式会社,,株式会社,石川県,金沢市,湊１丁目５５番地１０,,17,201,9200211,,,2025-10-01,合併による解散等,2220001026045,令和７年１０月１日石川県金沢市東蚊爪町ラ４７番地１トナミコールドロジスティクス株式会社（2220001026045）に合併し解散,2015-10-05,1,,,,,ニシキンウンユ,0
2440,7240002045392,登記記録の閉鎖等,0,2025-10-06,2025-09-30,馬屋原産業有限会社,,有限会社,広島県,福山市,新市町大字戸手１０９２番地の３,,34,207,7293101,,,2025-09-30,清算の結了等,,,2015-10-05,1,,,,,ウマヤハラサンギョウ,0
2448,7260002029170,登記記録の閉鎖等,0,2025-10-06,2025-09-26,服部新聞販売有限会社,,有限会社,岡山県,津山市,高野本郷６２５番地の６,,33,203,7081125,,,2025-09-26,清算の結了等,,,2015-10-05,1,,,,,ハットリシンブンハンバイ,0
2451,7280005005596,登記記録の閉鎖等,0,2025-10-06,2025-09-16,一般社団法人いわみ公共嘱託登記土地家屋調査士協会,,その他の設立登記法人,島根県,益田市,昭和町１２番２５号,,32,204,6980007,,,2025-09-16,清算の結了等,,,2015-10-05,1,,,,,イワミコウキョウショクタクトウキトチカオクチョウサシキョウカイ,0
2459,7290003009185,登記記録の閉鎖等,0,2025-10-06,2025-09-03,合同会社Ａｎｇｅｌｉｑｕｅ‐ｃｏｃｏ,,合同会社,福岡県,春日市,桜ヶ丘５丁目３４番地,,40,218,8160872,,,2025-09-03,清算の結了等,,,2019-07-11,1,,,,,アンジェリークココ,0
2461,7290005001289,登記記録の閉鎖等,0,2025-10-06,2025-09-24,学校法人原学園,,その他の設立登記法人,福岡県,福岡市東区,青葉６丁目４０番７号,,40,131,8130025,,,2025-09-24,清算の結了等,,,2015-10-05,1,,,,,ハラガクエン,0
2467,7290802003173,登記記録の閉鎖等,0,2025-10-06,2025-09-30,有限会社システムプランニング,,有限会社,福岡県,北九州市小倉南区,下貫２丁目５番３６号,,40,107,8000236,,,2025-09-30,清算の結了等,,,2015-10-05,1,,,,,システムプランニング,0
2468,7290805003749,登記記録の閉鎖等,0,2025-10-06,2025-09-30,ＮＰＯ市民のための睡眠障害を考える会,,その他の設立登記法人,福岡県,遠賀郡岡垣町,公園通り２丁目１８番１号,,40,383,8114235,,,2025-09-30,清算の結了等,,,2015-10-05,1,,,,,シミンノタメノスイミンショウガイヲカンガエルカイ,0
2479,7330002024602,登記記録の閉鎖等,0,2025-10-06,2025-09-29,有限会社中村忠義商店,,有限会社,熊本県,宇土市,住吉町２３９１番地の１,,43,211,8690401,,,2025-09-29,清算の結了等,,,2015-10-05,1,,,,,ナカムラタダヨシショウテン,0
2487,7350002014535,登記記録の閉鎖等,0,2025-10-06,2025-09-30,有限会社徳丸産業,,有限会社,宮崎県,都城市,下川東３丁目１７号１８番地,,45,202,8850011,,,2025-09-30,清算の結了等,,,2015-10-05,1,,,,,トクマルサンギョウ,0
2491,7360002011655,登記記録の閉鎖等,0,2025-10-06,2025-09-29,有限会社久米工業,,有限会社,沖縄県,沖縄市,泡瀬２丁目２５番７号,,47,211,9042172,,,2025-09-29,清算の結了等,,,2015-10-05,1,,,,,クメコウギョウ,0
2496,7370001040860,登記記録の閉鎖等,0,2025-10-06,2025-09-18,株式会社ＬＡＳＨ　ＭＡＳＴＥＲ,,株式会社,宮城県,仙台市宮城野区,名掛丁２０１番地４ＳＯＬＥＩＬＥＳＴ名掛丁３０１,,04,102,9830864,,,2025-09-18,清算の結了等,,,2017-01-31,1,,,,,ラッシュマスター,0
2503,7380005004398,登記記録の閉鎖等,0,2025-10-06,2025-09-25,特定非営利活動法人亀谷まちづくり処露伴塾,,その他の設立登記法人,福島県,二本松市,亀谷１丁目１５０番地１,,07,210,9640911,,,2025-09-25,清算の結了等,,,2015-10-05,1,,,,,カメガイマチヅクリドコロロハンジュク,0
2504,7380005006089,登記記録の閉鎖等,0,2025-10-06,2025-09-25,宗教法人いわき中央教会,,その他の設立登記法人,福島県,いわき市,平北白土字愛谷町５２番地,,07,204,9708024,,,2025-09-25,清算の結了等,,,2015-10-05,1,,,,,,0
2514,7410002006996,登記記録の閉鎖等,0,2025-10-06,2025-10-02,有限会社齋藤工務店,,有限会社,秋田県,由利本荘市,西目町西目字御前ヶ沢１４番地６,,05,210,0180603,,,2025-10-02,清算の結了等,,,2015-10-05,1,,,,,サイトウコウムテン,0
2521,7440003001267,登記記録の閉鎖等,0,2025-10-06,2025-10-01,合同会社マサヤ,,合同会社,北海道,奥尻郡奥尻町,字青苗２７４番地５１,,01,367,0431521,,,2025-10-01,清算の結了等,,,2019-05-28,1,,,,,マサヤ,0
2522,7470001012370,登記記録の閉鎖等,0,2025-10-06,2025-09-30,高松観光開発株式会社,,株式会社,香川県,小豆郡小豆島町,池田５５９６番地２３１,,37,324,7614301,,,2025-09-30,清算の結了等,,,2015-10-05,1,,,,,タカマツカンコウカイハツ,0
2529,7500002001311,登記記録の閉鎖等,0,2025-10-06,2025-10-01,有限会社愛プレ,,有限会社,愛媛県,松山市,西長戸町２８８番地６,,38,201,7918017,,,2025-10-01,清算の結了等,,,2015-10-05,1,,,,,アプレ,0
2555,8010102011382,登記記録の閉鎖等,0,2025-10-06,2025-10-01,有限会社あさひサポート,,有限会社,神奈川県,相模原市緑区,橋本４丁目１１番３４号,,14,151,2520143,,,2025-10-01,合併による解散等,2010101008633,令和７年７月１日東京都八王子市別所一丁目７４番地１７株式会社グッドスマイル（2010101008633）に合併し解散,2015-10-05,1,,,,,アサヒサポート,0
2570,8010901034311,登記記録の閉鎖等,0,2025-10-06,2025-10-02,株式会社ライフケアやすらぎ,,株式会社,東京都,世田谷区,豪徳寺１丁目４４番８号２階,,13,112,1540021,,,2025-10-02,清算の結了等,,,2015-10-05,1,,,,,ライフケアヤスラギ,0
2578,8011003012131,登記記録の閉鎖等,0,2025-10-06,2025-09-01,合同会社勝馬ウエルズ,,合同会社,東京都,港区,芝浦１丁目１４番１６－１１０２号,,13,103,1050023,,,2025-09-01,清算の結了等,,,2021-01-15,1,,,,,カツマウエルズ,0
2596,8011301021271,登記記録の閉鎖等,0,2025-10-06,2025-09-22,株式会社ファニー,,株式会社,東京都,練馬区,豊玉北４丁目５－１６桜台武蔵野マンション４０３,,13,120,1760012,,,2025-09-22,清算の結了等,,,2015-10-05,1,,,,,ファニー,0
2627,8020003020201,登記記録の閉鎖等,0,2025-10-06,2025-09-17,Ｐｓｙｃｈｏ‐Ｂｉｚ．Ｉｎｃ．合同会社,,合同会社,東京都,中央区,勝どき４丁目６－１－５０３０パークタワー勝どきサウス,,13,102,1040054,,,2025-09-17,清算の結了等,,,2021-07-21,1,,,,,サイコビズインク,0
2628,8020003023501,登記記録の閉鎖等,0,2025-10-06,2025-09-16,ベルフルール合同会社,,合同会社,神奈川県,横浜市西区,北幸２丁目１０番地２８むつみビル３Ｆ,,14,103,2200004,,,2025-09-16,清算の結了等,,,2023-03-13,1,,,,,ベルフルール,0
2649,8030002070898,登記記録の閉鎖等,0,2025-10-06,2025-09-24,有限会社ワイケイファクトリー,,有限会社,埼玉県,春日部市,豊町４丁目１番地４,,11,214,3440066,,,2025-09-24,清算の結了等,,,2015-10-05,1,,,,,ワイケイファクトリー,0
2680,8080402016100,登記記録の閉鎖等,0,2025-10-06,2025-09-26,有限会社紅ばら美容室,,有限会社,静岡県,浜松市浜名区,引佐町井伊谷７９７番地の４２,,22,139,4312212,,,2025-09-26,清算の結了等,,,2015-10-05,1,,,,,ベニバラビヨウシツ,0
2690,8110002010771,登記記録の閉鎖等,0,2025-10-06,2025-09-26,有限会社豊栄カーセール,,有限会社,新潟県,新潟市北区,東栄町１丁目１２番９号,,15,101,9503323,,,2025-09-26,清算の結了等,,,2015-10-05,1,,,,,トヨサカカーセール,0
2699,8120001050958,登記記録の閉鎖等,0,2025-10-06,2025-09-30,株式会社山口機械,,株式会社,兵庫県,西宮市,上田西町１番－３０号,,28,204,6638135,,,2025-09-30,清算の結了等,,,2015-10-05,1,,,,,ヤマグチキカイ,0
2702,8120001150337,登記記録の閉鎖等,0,2025-10-06,2025-09-24,日本ビスタテック株式会社,,株式会社,大阪府,枚方市,宮之下町２４番１号,,27,210,5730046,,,2025-09-24,清算の結了等,,,2015-10-05,1,,,,,ニホンビスタテック,0
2710,8120001253874,登記記録の閉鎖等,0,2025-10-06,2025-09-25,スマート株式会社,,株式会社,大阪府,大阪市東成区,中道３丁目１５番２１号,,27,115,5370025,,,2025-09-25,清算の結了等,,,2023-04-14,1,,,,,スマート,0
2727,8120005017532,登記記録の閉鎖等,0,2025-10-06,2025-10-02,特定非営利活動法人アムール,,その他の設立登記法人,大阪府,大阪市淀川区,西中島４丁目６番３０号第５新大阪ビル４１０号,,27,123,5320011,,,2025-10-02,清算の結了等,,,2015-10-05,1,,,,,アムール,0
2729,8120101046220,登記記録の閉鎖等,0,2025-10-06,2025-09-04,株式会社ピーアンドビー,,株式会社,大阪府,和泉市,王子町３丁目３番７号,,27,219,5940004,,,2025-09-04,清算の結了等,,,2015-10-05,1,,,,,ピーアンドビー,0
2743,8140002038918,登記記録の閉鎖等,0,2025-10-06,2025-09-29,フィールドテクノ有限会社,,有限会社,兵庫県,加古川市,平岡町新在家３０２農機ビル２０２号室,,28,210,6750101,,,2025-09-29,清算の結了等,,,2015-10-05,1,,,,,フィールドテクノ,0
2758,8180002091995,登記記録の閉鎖等,0,2025-10-06,2025-09-16,有限会社恵鋒,,有限会社,愛知県,海部郡大治町,大字花常字東屋敷７６番地,,23,424,4901136,,,2025-09-16,清算の結了等,,,2015-10-05,1,,,,,ケイホウ,0
2759,8180003001813,登記記録の閉鎖等,0,2025-10-06,2025-09-12,桜井製本合資会社,,合資会社,愛知県,名古屋市北区,五反田町２４４番地,,23,103,4620011,,,2025-09-12,清算の結了等,,,2015-10-05,1,,,,,サクライセイホン,0
2798,8300005002994,登記記録の閉鎖等,0,2025-10-06,2025-09-30,特定非営利活動法人ＮＰＯサンガム,,その他の設立登記法人,佐賀県,多久市,多久町２０８２番地１,,41,204,8460031,,,2025-09-30,清算の結了等,,,2015-10-05,1,,,,,エヌピーオーサンガム,0
2802,8310005005022,登記記録の閉鎖等,0,2025-10-06,2025-10-01,特定非営利活動法人癒,,その他の設立登記法人,長崎県,大村市,小路口本町５０４番地３,,42,205,8560020,,,2025-10-01,清算の結了等,,,2015-10-05,1,,,,,イヤシ,0
2840,8460101006561,登記記録の閉鎖等,0,2025-10-06,2025-10-01,桃華楽堂株式会社,,株式会社,北海道,帯広市,西二十四条北１丁目３番１９号,,01,207,0802464,,,2025-10-01,合併による解散等,1430002020068,令和７年１０月１日北海道帯広市西二十四条北一丁目３番１９号株式会社桃華楽堂（1430002020068）に合併し解散,2019-05-10,1,,,,,トウカガクドウ,0
2844,8480002005553,登記記録の閉鎖等,0,2025-10-06,2025-10-01,ロイヤル商事有限会社,,有限会社,徳島県,徳島市,丈六町丈領１６４番地５,,36,201,7714263,,,2025-10-01,合併による解散等,5480001004360,令和７年１０月１日徳島市西新浜町一丁目５番３８株式会社永翔（5480001004360）に合併し解散,2015-10-05,1,,,,,ロイヤルショウジ,0
2854,9010001215884,登記記録の閉鎖等,0,2025-10-06,2025-09-10,株式会社オメガイノベーション,,株式会社,東京都,中央区,銀座１丁目２２番１１号銀座大竹ビジデンス２Ｆ,,13,102,1040061,,,2025-09-10,清算の結了等,,,2021-02-19,1,,,,,オメガイノベーション,0
2855,9010001219877,登記記録の閉鎖等,0,2025-10-06,2025-10-01,株式会社Ｚ,,株式会社,東京都,中央区,銀座１丁目２２番１１号銀座大竹ビジデンス２階,,13,102,1040061,,,2025-10-01,合併による解散等,4040001025121,令和７年９月１日千葉市中央区登戸一丁目２６番１号株式会社ハイフライヤーズ（4040001025121）に合併し解散,2021-07-27,1,,,,,ゼット,0
2856,9010001227541,登記記録の閉鎖等,0,2025-10-06,2025-09-24,株式会社ＭＧパートナーズ,,株式会社,東京都,世田谷区,奥沢５丁目１番１１－２０２号,,13,112,1580083,,,2025-09-24,清算の結了等,,,2022-06-21,1,,,,,エムジーパートナーズ,0
2862,9010002035737,登記記録の閉鎖等,0,2025-10-06,2025-09-16,有限会社ワークスケイ,,有限会社,東京都,文京区,大塚５丁目６番１６－１３０１号,,13,105,1120012,,,2025-09-16,清算の結了等,,,2015-10-05,1,,,,,ワークスケイ,0
2870,9010005029471,登記記録の閉鎖等,0,2025-10-06,2025-10-01,一般社団法人ＳＤＧｓ支援機構,,その他の設立登記法人,東京都,千代田区,平河町１丁目６番１５号ＵＳビル８Ｆ,,13,101,1020093,,,2025-10-01,清算の結了等,,,2018-12-12,1,,,,,エスディージーズシエンキコウ,0
2903,9010901053715,登記記録の閉鎖等,0,2025-10-06,2025-09-30,株式会社キーストーンパートナーズ,,株式会社,東京都,世田谷区,深沢５丁目３７－１０,,13,112,1580081,,,2025-09-30,清算の結了等,,,2023-09-05,1,,,,,キーストーンパートナーズ,0
2919,9011101061987,登記記録の閉鎖等,0,2025-10-06,2025-09-26,ＴＩＳ北京株式会社,,株式会社,東京都,新宿区,西新宿８丁目１７番１号,,13,104,1600023,,,2025-09-26,清算の結了等,,,2015-10-05,1,,,,,ティアイエスペキン,0
2925,9011601012473,登記記録の閉鎖等,0,2025-10-06,2025-09-22,株式会社フォーラバーズ,,株式会社,東京都,練馬区,田柄３丁目１４番１２号,,13,120,1790073,,,2025-09-22,清算の結了等,,,2015-10-05,1,,,,,フォーラバーズ,0
2928,9011602010162,登記記録の閉鎖等,0,2025-10-06,2025-09-22,ヤハロム・トレーディング有限会社,,有限会社,東京都,練馬区,栄町４番１１号ＴＭビル２Ｆ,,13,120,1760006,,,2025-09-22,清算の結了等,,,2015-10-05,1,,,,,ヤハロムトレーディング,0
2944,9020001060545,登記記録の閉鎖等,0,2025-10-06,2025-09-16,唐華商事株式会社,,株式会社,神奈川県,横浜市鶴見区,鶴見中央４丁目３番３号,,14,101,2300051,,,2025-09-16,清算の結了等,,,2015-10-05,1,,,,,トウカショウジ,0
2947,9020001092431,登記記録の閉鎖等,0,2025-10-06,2025-09-12,株式会社ＴｏｇａＣｏｍｐａｎｙ,,株式会社,神奈川県,横浜市旭区,善部町１０１番地８ロゼール壱番館６０１号,,14,112,2410823,,,2025-09-12,清算の結了等,,,2015-10-05,1,,,,,トガカンパニー,0
2960,9020002074511,登記記録の閉鎖等,0,2025-10-06,2025-09-12,有限会社早乙女,,有限会社,神奈川県,横浜市都筑区,茅ケ崎東１丁目１番１－３１０号,,14,118,2240033,,,2025-09-12,清算の結了等,,,2015-10-05,1,,,,,サオトメ,0
2961,9020002082101,登記記録の閉鎖等,0,2025-10-06,2025-09-16,有限会社藤田商店,,有限会社,神奈川県,川崎市幸区,南加瀬３丁目７番３９号,,14,132,2120055,,,2025-09-16,清算の結了等,,,2015-10-05,1,,,,,フジタショウテン,0
2962,9020003018847,登記記録の閉鎖等,0,2025-10-06,2025-09-11,ＴＡＴ合同会社,,合同会社,神奈川県,横浜市保土ケ谷区,釜台町２－６エクセルコート２１１号,,14,106,2400066,,,2025-09-11,清算の結了等,,,2020-11-27,1,,,,,ティーエーティー,0
2975,9030001075939,登記記録の閉鎖等,0,2025-10-06,2025-09-26,株式会社高孫鋳工所,,株式会社,埼玉県,川口市,栄町３丁目１３番１５号リビオ川口セルフィア１００１号,,11,203,3320017,,,2025-09-26,清算の結了等,,,2015-10-05,1,,,,,タカマゴチュウコウショ,0
2990,9030002058447,登記記録の閉鎖等,0,2025-10-06,2025-09-25,有限会社小池工業,,有限会社,埼玉県,朝霞市,栄町５丁目８番７号,,11,227,3510012,,,2025-09-25,清算の結了等,,,2015-10-05,1,,,,,コイケコウギョウ,0
2996,9040001033598,登記記録の閉鎖等,0,2025-10-06,2025-09-02,株式会社ＣＩＦ,,株式会社,千葉県,千葉市中央区,道場北１丁目９番３号,,12,101,2600006,,,2025-09-02,清算の結了等,,,2015-10-05,1,,,,,シフ,0
2999,9040001100159,登記記録の閉鎖等,0,2025-10-06,2025-09-30,ＮＫハウジング株式会社,,株式会社,東京都,千代田区,神田須田町１丁目２１番４号神田ＮＫビル,,13,101,1010041,,,2025-09-30,合併による解散等,8040001032816,令和７年９月１日千葉県市川市市川一丁目７番６号ＮＫコンサルティング株式会社（8040001032816）に合併し解散,2017-05-17,1,,,,,エヌケイハウジング,0
3000,9040001131138,登記記録の閉鎖等,0,2025-10-06,2025-09-02,株式会社プロジェクトエヌ,,株式会社,千葉県,流山市,西初石３丁目１４５７番地の１５,,12,220,2700121,,,2025-09-02,清算の結了等,,,2023-11-29,1,,,,,プロジェクトエヌ,0
3004,9040002055303,登記記録の閉鎖等,0,2025-10-06,2025-09-02,有限会社テレコミュニケーションズ,,有限会社,千葉県,香取市,下小野１２０４番地,,12,236,2870021,,,2025-09-02,清算の結了等,,,2015-10-05,1,,,,,テレコミュニケーションズ,0
3006,9040002077529,登記記録の閉鎖等,0,2025-10-06,2025-09-02,有限会社デンタルスタジオ笹本,,有限会社,千葉県,東金市,関下３５０番地２２,,12,213,2830038,,,2025-09-02,清算の結了等,,,2015-10-05,1,,,,,デンタルスタジオササモト,0
3015,9050002030783,登記記録の閉鎖等,0,2025-10-06,2025-09-25,有限会社鈴＿工務店,00023082,有限会社,茨城県,日立市,東町１丁目３番１４号,,08,202,3170061,,,2025-09-25,清算の結了等,,,2015-10-05,1,,,,,スズキヨコウムテン,0
3024,9080003002440,登記記録の閉鎖等,0,2025-10-06,2025-09-29,合同会社ＲＥＶＩＶＡＬ　ＤＩＮＩＮＧ,,合同会社,静岡県,静岡市駿河区,西脇１１番地の１、２階,,22,102,4228044,,,2025-09-29,清算の結了等,,,2020-06-11,1,,,,,リバイバルダイニング,0
3037,9110002006455,登記記録の閉鎖等,0,2025-10-06,2025-09-29,有限会社南呉服店,,有限会社,新潟県,新潟市北区,松浜本町１丁目２番２０号,,15,101,9503125,,,2025-09-29,清算の結了等,,,2015-10-05,1,,,,,ミナミゴフクテン,0
3051,9120001081886,登記記録の閉鎖等,0,2025-10-06,2025-09-26,伸和印刷株式会社,,株式会社,大阪府,大阪市城東区,古市３丁目１番２６号,,27,118,5360001,,,2025-09-26,清算の結了等,,,2015-10-05,1,,,,,,0
3053,9120001110158,登記記録の閉鎖等,0,2025-10-06,2025-09-29,株式会社オンライン,,株式会社,大阪府,大阪市北区,天神橋２丁目５番２５号,,27,127,5300041,,,2025-09-29,清算の結了等,,,2015-10-05,1,,,,,オンライン,0
3080,9120002041633,登記記録の閉鎖等,0,2025-10-06,2025-10-01,有限会社サウス・ハート・エンタープライズ,,有限会社,大阪府,大阪市阿倍野区,松崎町２丁目１０番２４号,,27,119,5450053,,,2025-10-01,清算の結了等,,,2015-10-05,1,,,,,サウスハートエンタープライズ,0
3107,9140002054625,登記記録の閉鎖等,0,2025-10-06,2025-09-30,有限会社三田内燃機サービス,,有限会社,兵庫県,三田市,東野上１３８番地の１,,28,219,6691312,,,2025-09-30,清算の結了等,,,2015-10-05,1,,,,,サンダナイネンキサービス,0
3116,9180001058739,登記記録の閉鎖等,0,2025-10-06,2025-09-18,株式会社ミツワ,,株式会社,愛知県,尾張旭市,庄南町４丁目８５番地,,23,226,4880823,,,2025-09-18,清算の結了等,,,2015-10-05,1,,,,,ミツワ,0
3126,9180001148358,登記記録の閉鎖等,0,2025-10-06,2025-09-17,株式会社イマジナリー,,株式会社,愛知県,名古屋市中区,新栄町１丁目１番地,,23,106,4600004,,,2025-09-17,清算の結了等,,,2021-10-19,1,,,,,イマジナリー,0
3130,9180001166979,登記記録の閉鎖等,0,2025-10-06,2025-09-12,大成フィナンシャルグループ株式会社,,株式会社,愛知県,名古屋市東区,白壁３丁目３６,,23,102,4610011,,,2025-09-12,清算の結了等,,,2025-05-27,1,,,,,タイセイフィナンシャルグループ,0
3135,9180002084148,登記記録の閉鎖等,0,2025-10-06,2025-09-19,若宮石油有限会社,,有限会社,愛知県,半田市,乙川畑田町１丁目３８番地,,23,205,4750067,,,2025-09-19,清算の結了等,,,2015-10-05,1,,,,,ワカミヤセキユ,0
3136,9180003002918,登記記録の閉鎖等,0,2025-10-06,2025-09-12,合資会社日新塗料店,,合資会社,愛知県,名古屋市熱田区,六番３丁目６番２号,,23,109,4560058,,,2025-09-12,清算の結了等,,,2015-10-05,1,,,,,ニッシントリョウテン,0
3141,9180005019480,登記記録の閉鎖等,0,2025-10-06,2025-09-30,特定非営利活動法人Ｏｎｌｙ　Ｏｎｅ,,その他の設立登記法人,愛知県,東海市,富木島町北島４９番地,,23,222,4760011,,,2025-09-30,清算の結了等,,,2021-10-14,1,,,,,オンリーワン,0
3163,9290001012180,登記記録の閉鎖等,0,2025-10-06,2025-09-01,株式会社ガイコーポレーション,,株式会社,福岡県,福岡市博多区,博多駅前４丁目２８番１３号,,40,132,8120011,,,2025-09-01,合併による解散等,7290001013610,令和７年９月１日福岡市博多区博多駅前四丁目２８番１３号株式会社シー・アンドエル（7290001013610）に合併し解散,2015-10-05,1,,,,,ガイコーポレーション,0
3172,9290005007747,登記記録の閉鎖等,0,2025-10-06,2025-09-12,特定非営利活動法人グリーンリーフ,,その他の設立登記法人,福岡県,福岡市中央区,桜坂３丁目７番２５－４０２号,,40,133,8100024,,,2025-09-12,清算の結了等,,,2015-10-05,1,,,,,グリーンリーフ,0
3173,9290005014553,登記記録の閉鎖等,0,2025-10-06,2025-09-16,一般社団法人日本キャンドルセラピー協会,,その他の設立登記法人,福岡県,みやま市,高田町江浦町５３７番地２,,40,229,8390212,,,2025-09-16,清算の結了等,,,2015-10-05,1,,,,,ニホンキャンドルセラピーキョウカイ,0
3176,9300001007047,登記記録の閉鎖等,0,2025-10-06,2025-10-01,ホテル桜株式会社,,株式会社,長崎県,諫早市,土師野尾町１１２６番地,,42,204,8540056,,,2025-10-01,合併による解散等,1310001008415,令和７年１０月１日長崎県諫早市土師野尾町１１２６番地株式会社マルケイリース（1310001008415）に合併し解散,2015-10-05,1,,,,,ホテルサクラ,0
3181,9310002018075,登記記録の閉鎖等,0,2025-10-06,2025-10-01,有限会社眉山配車センター,,有限会社,長崎県,島原市,南崩山町丁２８９３番地６,,42,203,8550871,,,2025-10-01,清算の結了等,,,2015-10-05,1,,,,,ビザンハイシャセンター,0
3185,9340001000394,登記記録の閉鎖等,0,2025-10-06,2025-09-30,株式会社アミサージ屋久島道の駅,,株式会社,鹿児島県,熊毛郡屋久島町,小瀬田８２６番地３９,,46,505,8914207,,,2025-09-30,清算の結了等,,,2015-10-05,1,,,,,アミサージヤクシマミチノエキ,0
3189,9350001005434,登記記録の閉鎖等,0,2025-10-06,2025-10-01,株式会社　ビス綾,,株式会社,宮崎県,東諸県郡綾町,大字南俣２３２番地２,,45,383,8801303,,,2025-10-01,清算の結了等,,,2015-10-05,1,,,,,ビスアヤ,0
3191,9350002018451,登記記録の閉鎖等,0,2025-10-06,2025-09-30,有限会社橋口ブロイラー,,有限会社,宮崎県,えびの市,大字坂元１６６６番地１４４,,45,209,8894312,,,2025-09-30,清算の結了等,,,2015-10-05,1,,,,,ハシグチブロイラー,0
3203,9370002000135,登記記録の閉鎖等,0,2025-10-06,2025-09-17,有限会社青葉斫工業,,有限会社,宮城県,仙台市泉区,長命ケ丘５丁目９番地の９,,04,105,9813212,,,2025-09-17,清算の結了等,,,2015-10-05,1,,,,,アオバハツリコウギョウ,0
3220,9400602001405,登記記録の閉鎖等,0,2025-10-06,2025-09-05,有限会社菅勝建設,,有限会社,岩手県,奥州市,前沢字陣場１８９番地１,,03,215,0294206,,,2025-09-05,清算の結了等,,,2015-10-05,1,,,,,スガカツケンセツ,0
3221,9410003002407,登記記録の閉鎖等,0,2025-10-06,2025-09-29,合資会社宕峰愛山社,,合資会社,秋田県,横手市,駅前町２番３５号さらさ横手,,05,203,0130036,,,2025-09-29,清算の結了等,,,2015-10-05,1,,,,,トウホウアイザンシャ,0
