sequenceNumber,corporateNumber,process,correct,updateDate,changeDate,name,nameImageId,kind,prefectureName,cityName,streetNumber,addressImageId,prefectureCode,cityCode,postCode,addressOutside,addressOutsideImageId,closeDate,closeCause,successorCorporateNumber,changeCause,assignmentDate,latest,enName,enPrefectureName,enCityName,enAddressOutside,furigana,hihyoji
3,1010001052220,登記記録の閉鎖等,0,2026-01-14,2026-01-05,株式会社藤兵衛,,株式会社,東京都,中央区,築地４丁目１１番４号,,13,102,1040045,,,2026-01-05,合併による解散等,6010001036623,令和８年１月１日東京都中央区築地四丁目１１番４号味の浜藤株式会社（6010001036623）に合併し解散,2015-10-05,1,,,,,トウベイ,0
18,1010401149806,登記記録の閉鎖等,0,2026-01-14,2025-12-15,ＦＵＴＵＲＩＴＹ　ＢＲＡＮＤＳ　ＬＩＭＩＴＥＤ　ＪＡＰＡＮ株式会社,,株式会社,東京都,渋谷区,道玄坂１丁目１０番８号渋谷道玄坂東急ビル２Ｆ－Ｃ,,13,113,1500043,,,2025-12-15,清算の結了等,,,2019-12-20,1,,,,,フューチャリティブランズリミテッドジャパン,0
29,1010602015815,登記記録の閉鎖等,0,2026-01-14,2025-12-24,有限会社ユーロード,,有限会社,東京都,墨田区,亀沢２丁目１２番８号,,13,107,1300014,,,2025-12-24,合併による解散等,5010601017098,令和７年１２月２４日東京都墨田区亀沢二丁目１２番１１号本間鋼業株式会社（5010601017098）に合併し解散,2015-10-05,1,,,,,ユーロード,0
36,1010901002480,登記記録の閉鎖等,0,2026-01-14,2026-01-05,株式会社尾上企業,,株式会社,東京都,世田谷区,等々力５丁目９番１２号,,13,112,1580082,,,2026-01-05,合併による解散等,1010902022354,令和８年１月１日東京都世田谷区等々力五丁目９番１２号たくたろうホールディングス株式会社（1010902022354）に合併し解散,2015-10-05,1,,,,,オノエキギョウ,0
37,1010901032387,登記記録の閉鎖等,0,2026-01-14,2026-01-05,株式会社ホワイトオーバーシーズ,,株式会社,東京都,世田谷区,上馬３丁目１５番８－１３０１号,,13,112,1540011,,,2026-01-05,合併による解散等,9010901050142,令和８年１月１日東京都世田谷区上馬三丁目１５番８－１３０１号株式会社ＯＣメディア（9010901050142）に合併し解散,2015-10-05,1,,,,,ホワイトオーバーシーズ,0
62,1012402020524,登記記録の閉鎖等,0,2026-01-14,2026-01-05,有限会社ビッツアンドカンパニー,,有限会社,東京都,三鷹市,井の頭１丁目３２番２号,,13,204,1810001,,,2026-01-05,清算の結了等,,,2015-10-05,1,,,,,ビッツアンドカンパニー,0
75,1021001022022,登記記録の閉鎖等,0,2026-01-14,2026-01-08,株式会社ＦＯＳＴＥＲ,,株式会社,神奈川県,横浜市西区,北幸２丁目１０番地４８むつみビル３Ｆ,,14,103,2200004,,,2026-01-08,清算の結了等,,,2015-10-05,1,,,,,,0
85,1030001096975,登記記録の閉鎖等,0,2026-01-14,2026-01-05,グリーンスペース株式会社,,株式会社,埼玉県,朝霞市,溝沼５丁目１５番９号,,11,227,3510023,,,2026-01-05,清算の結了等,,,2015-10-05,1,,,,,グリーンスペース,0
91,1030002005753,登記記録の閉鎖等,0,2026-01-14,2026-01-06,有限会社三和ブロイラー,,有限会社,埼玉県,さいたま市桜区,桜田３丁目３番１号浦和総合流通センター内,,11,106,3380833,,,2026-01-06,清算の結了等,,,2015-10-05,1,,,,,サンワブロイラー,0
93,1030002117318,登記記録の閉鎖等,0,2026-01-14,2026-01-05,モリタ洋装有限会社,,有限会社,埼玉県,深谷市,高畑７１８番地２,,11,218,3660832,,,2026-01-05,清算の結了等,,,2015-10-05,1,,,,,,0
98,1040001079608,登記記録の閉鎖等,0,2026-01-14,2026-01-05,株式会社ニューワールドカンパニー,,株式会社,東京都,千代田区,丸の内１丁目７番１２号サピアタワー,,13,101,1000005,,,2026-01-05,合併による解散等,4011001039460,令和８年１月１日東京都千代田区丸の内一丁目７番１２号サピアタワー株式会社Ｑ’ｓｆｉｘ（4011001039460）に合併し解散,2015-10-05,1,,,,,ニューワールドカンパニー,0
105,1050002043207,登記記録の閉鎖等,0,2026-01-14,2025-12-26,有限会社川澄プレス,,有限会社,茨城県,筑西市,蓮沼字北原１０９２－５番地,,08,227,3091115,,,2025-12-26,清算の結了等,,,2015-10-05,1,,,,,カワスミプレス,0
113,1080101002416,登記記録の閉鎖等,0,2026-01-14,2026-01-09,アニュートレーディング株式会社,,株式会社,静岡県,裾野市,須山２２５５番地の８４４,,22,220,4101231,,,2026-01-09,清算の結了等,,,2015-10-05,1,,,,,アニュートレーディング,0
115,1080402021478,登記記録の閉鎖等,0,2026-01-14,2026-01-05,有限会社カワイ工業,,有限会社,静岡県,袋井市,川会２４２番地,,22,216,4370002,,,2026-01-05,清算の結了等,,,2015-10-05,1,,,,,カワイコウギョウ,0
118,1100001018872,登記記録の閉鎖等,0,2026-01-14,2026-01-09,富士製鋸株式会社,,株式会社,長野県,諏訪市,大字中洲５３０１番地１,,20,206,3920015,,,2026-01-09,清算の結了等,,,2015-10-05,1,,,,,フジセイキョ,0
119,1100001031693,登記記録の閉鎖等,0,2026-01-14,2025-12-25,株式会社六平米,,株式会社,長野県,佐久市,新子田１６９６番地２３,,20,217,3850007,,,2025-12-25,清算の結了等,,,2018-10-23,1,,,,,ロクヘイベイ,0
125,1120001100042,登記記録の閉鎖等,0,2026-01-14,2026-01-08,株式会社未来都タクシー,,株式会社,大阪府,大阪市東淀川区,井高野２丁目５番１５号,,27,114,5330001,,,2026-01-08,清算の結了等,,,2015-10-05,1,,,,,ミライトタクシー,0
127,1120001156745,登記記録の閉鎖等,0,2026-01-14,2026-01-08,株式会社未来都交通,,株式会社,大阪府,守口市,八雲東町１丁目８番２号,,27,209,5700021,,,2026-01-08,清算の結了等,,,2015-10-05,1,,,,,ミライトコウツウ,0
129,1120001219527,登記記録の閉鎖等,0,2026-01-14,2025-12-23,株式会社レベルワン,,株式会社,大阪府,大阪市北区,梅田１丁目２番２号大阪駅前第２ビル１２－１２,,27,127,5300001,,,2025-12-23,清算の結了等,,,2019-03-11,1,,,,,レベルワン,0
139,1120002044370,登記記録の閉鎖等,0,2026-01-14,2026-01-08,有限会社坂州鮮魚,,有限会社,大阪府,大阪市西成区,千本中２丁目１番２２号,,27,122,5570054,,,2026-01-08,清算の結了等,,,2015-10-05,1,,,,,サカシュウセンギョ,0
142,1120101021849,登記記録の閉鎖等,0,2026-01-14,2026-01-05,リュウシン基材株式会社,,株式会社,大阪府,堺市美原区,大保２２５番地,,27,147,5870001,,,2026-01-05,合併による解散等,3120101021847,令和８年１月１日大阪府堺市美原区大保２２５番地流浸工業株式会社（3120101021847）に合併し解散,2015-10-05,1,,,,,リュウシンキザイ,0
144,1120101047092,登記記録の閉鎖等,0,2026-01-14,2026-01-07,株式会社ＰＣ　ＬＩＦＥ,,株式会社,大阪府,大阪市鶴見区,今津北４丁目９番１０号,,27,124,5380041,,,2026-01-07,清算の結了等,,,2015-10-05,1,,,,,ピーシーライフ,0
153,1130001029470,登記記録の閉鎖等,0,2026-01-14,2026-01-07,株式会社キョウワガス,,株式会社,京都府,京都市南区,吉祥院長田町６０９番地協和ハウスビル３０１号,,26,107,6018362,,,2026-01-07,清算の結了等,,,2015-10-05,1,,,,,キョウワガス,0
156,1140001017251,登記記録の閉鎖等,0,2026-01-14,2026-01-06,株式会社荒田エンジニアリング,,株式会社,兵庫県,西宮市,松山町５番２５,,28,204,6638101,,,2026-01-06,清算の結了等,,,2015-10-05,1,,,,,アラタエンジニアリング,0
162,1140003012184,登記記録の閉鎖等,0,2026-01-14,2026-01-05,株式会社リガーレ,,株式会社,兵庫県,尼崎市,南武庫之荘９丁目１８番２１号,,28,202,6610033,,,2026-01-05,合併による解散等,5140001095129,令和７年１２月３１日兵庫県尼崎市南武庫之荘九丁目１８番２１号株式会社クラノス（5140001095129）に合併し解散,2017-06-02,1,,,,,リガーレ,0
168,1150001022960,登記記録の閉鎖等,0,2026-01-14,2026-01-13,株式会社ＤＫロジスティクス,,株式会社,奈良県,北葛城郡河合町,高塚台２丁目９番地１０,,29,427,6360071,,,2026-01-13,清算の結了等,,,2019-04-12,1,,,,,ディーケーロジスティクス,0
173,1180001073266,登記記録の閉鎖等,0,2026-01-14,2025-12-26,ＣＳＪ株式会社,,株式会社,愛知県,春日井市,長塚町１丁目１１１番地４,,23,206,4860934,,,2025-12-26,清算の結了等,,,2015-10-05,1,,,,,シーエスジェイ,0
182,1180002053548,登記記録の閉鎖等,0,2026-01-14,2026-01-05,有限会社キャンユー,,有限会社,愛知県,名古屋市中区,千代田４丁目１５番２号,,23,106,4600012,,,2026-01-05,清算の結了等,,,2015-10-05,1,,,,,キャンユー,0
184,1180002085335,登記記録の閉鎖等,0,2026-01-14,2026-01-07,有限会社カトウスプリング製作所,,有限会社,愛知県,知多郡東浦町,大字石浜字須賀１９番地,,23,442,4702103,,,2026-01-07,清算の結了等,,,2015-10-05,1,,,,,カトウスプリングセイサクショ,0
189,1180302012229,登記記録の閉鎖等,0,2026-01-14,2025-12-23,峰造園有限会社,,有限会社,愛知県,豊橋市,西幸町字笠松２０５番地の１,,23,201,4418113,,,2025-12-23,清算の結了等,,,2015-10-05,1,,,,,ミネゾウエン,0
194,1210002009653,登記記録の閉鎖等,0,2026-01-14,2026-01-08,有限会社南土建,,有限会社,福井県,大野市,八町第６号１３番地,,18,205,9120148,,,2026-01-08,清算の結了等,,,2015-10-05,1,,,,,ミナミドケン,0
197,1210003001527,登記記録の閉鎖等,0,2026-01-14,2026-01-07,合同会社ＰＹＵＭＡ,,合同会社,福井県,福井市,高柳３丁目８０３番地２,,18,201,9100837,,,2026-01-07,清算の結了等,,,2022-06-24,1,,,,,ピューマ,0
214,1270002004038,登記記録の閉鎖等,0,2026-01-14,2026-01-09,有限会社正長ホンダ,,有限会社,鳥取県,鳥取市,気高町下坂本１０３７番地１,,31,201,6890221,,,2026-01-09,合併による解散等,7280001003190,令和８年１月１日島根県出雲市渡橋町１１６６番地１ホンダ中国中央株式会社（7280001003190）に合併し解散,2015-10-05,1,,,,,セイチョウホンダ,0
215,1290001044438,登記記録の閉鎖等,0,2026-01-14,2025-12-24,九州アコン株式会社,,株式会社,福岡県,朝倉郡筑前町,原地蔵２２７０番地,,40,447,8380824,,,2025-12-24,清算の結了等,,,2015-10-05,1,,,,,キュウシュウアコン,0
236,1430001043053,登記記録の閉鎖等,0,2026-01-14,2026-01-08,株式会社トエテック,,株式会社,北海道,江別市,緑町西３丁目５番地２０,,01,217,0670002,,,2026-01-08,清算の結了等,,,2015-10-05,1,,,,,トエテック,0
244,1460301004487,登記記録の閉鎖等,0,2026-01-14,2026-01-09,株式会社ヘルシー,,株式会社,北海道,紋別郡遠軽町,生田原２４５番地,,01,555,0990701,,,2026-01-09,清算の結了等,,,2016-02-25,1,,,,,ヘルシー,0
265,2010502011715,登記記録の閉鎖等,0,2026-01-14,2025-12-26,有限会社八百清,,有限会社,東京都,台東区,浅草６丁目２８番９号,,13,106,1110032,,,2025-12-26,清算の結了等,,,2015-10-05,1,,,,,ヤオセイ,0
276,2010905002641,登記記録の閉鎖等,0,2026-01-14,2026-01-09,特定非営利活動法人アジア情報フォーラム,,その他の設立登記法人,東京都,世田谷区,成城９丁目２３番３号,,13,112,1570066,,,2026-01-09,清算の結了等,,,2015-10-05,1,,,,,アジアジョウホウフォーラム,0
278,2011001071705,登記記録の閉鎖等,0,2026-01-14,2025-12-15,ウェブスター株式会社,,株式会社,東京都,渋谷区,東２丁目２７番２号ｅｓｔ１０４号室,,13,113,1500011,,,2025-12-15,清算の結了等,,,2015-10-05,1,,,,,ウェブスター,0
279,2011001096009,登記記録の閉鎖等,0,2026-01-14,2025-12-17,株式会社ｉ‐ＵＰＷＡＲＤ,,株式会社,東京都,港区,南青山７丁目１番１４－４２４号,,13,103,1070062,,,2025-12-17,清算の結了等,,,2015-10-05,1,,,,,アイアップワード,0
313,2012701016049,登記記録の閉鎖等,0,2026-01-14,2025-12-25,株式会社Ｕｎｄｅｓｋ,,株式会社,東京都,東村山市,美住町２丁目２４番地４６,,13,213,1890023,,,2025-12-25,清算の結了等,,,2020-09-07,1,,,,,アンデスク,0
316,2012803000520,登記記録の閉鎖等,0,2026-01-14,2026-01-06,合同会社Ｂ２Ｆゲームズ,,合同会社,東京都,東大和市,桜が丘２丁目２２４番地の１コスモ・ザ・パークス玉川上水１００８,,13,220,2070022,,,2026-01-06,清算の結了等,,,2015-10-05,1,,,,,ビーツーエフゲームズ,0
333,2020002065748,登記記録の閉鎖等,0,2026-01-14,2026-01-08,グロウセス有限会社,,有限会社,神奈川県,横浜市港北区,綱島東３丁目１１番２０号,,14,109,2230052,,,2026-01-08,清算の結了等,,,2015-10-05,1,,,,,グロウセス,0
334,2020002080202,登記記録の閉鎖等,0,2026-01-14,2026-01-08,有限会社イプシロン,,有限会社,神奈川県,川崎市幸区,北加瀬２丁目３番９号,,14,132,2120057,,,2026-01-08,清算の結了等,,,2015-10-05,1,,,,,イプシロン,0
355,2040001043562,登記記録の閉鎖等,0,2026-01-14,2025-12-15,株式会社宮本商店,,株式会社,千葉県,印旛郡栄町,安食３７７０番地,,12,329,2701516,,,2025-12-15,清算の結了等,,,2015-10-05,1,,,,,ミヤモトショウテン,0
359,2040001088129,登記記録の閉鎖等,0,2026-01-14,2025-12-15,株式会社沼田建装,,株式会社,千葉県,君津市,郡１丁目２１番５－２号,,12,225,2991127,,,2025-12-15,清算の結了等,,,2015-10-05,1,,,,,ヌマタケンソウ,0
360,2040001116871,登記記録の閉鎖等,0,2026-01-14,2025-12-24,ＭＡＲＹ　ＫＨＯＯ株式会社,,株式会社,千葉県,松戸市,稔台７丁目３番地の２７,,12,207,2702231,,,2025-12-24,清算の結了等,,,2021-01-25,1,,,,,マリークー,0
367,2040003007524,登記記録の閉鎖等,0,2026-01-14,2025-12-17,大栄海運合同会社,,合同会社,千葉県,木更津市,畑沢南４丁目１２番２５号,,12,206,2920826,,,2025-12-17,清算の結了等,,,2015-10-05,1,,,,,ダイエイカイウン,0
370,2050001024545,登記記録の閉鎖等,0,2026-01-14,2025-12-25,株式会社プライバ,,株式会社,茨城県,北茨城市,磯原町豊田２丁目１２番地,,08,215,3191543,,,2025-12-25,清算の結了等,,,2015-10-05,1,,,,,プライバ,0
376,2080101006787,登記記録の閉鎖等,0,2026-01-14,2026-01-05,株式会社ヒューマン・エンジニアリング,,株式会社,東京都,千代田区,丸の内１丁目７番１２号サピアタワー,,13,101,1000005,,,2026-01-05,合併による解散等,4011001039460,令和８年１月１日東京都千代田区丸の内一丁目７番１２号サピアタワー株式会社Ｑ’ｓｆｉｘ（4011001039460）に合併し解散,2015-10-05,1,,,,,ヒューマンエンジニアリング,0
379,2080402004135,登記記録の閉鎖等,0,2026-01-14,2026-01-05,有限会社エムワン,,有限会社,静岡県,浜松市中央区,小池町９４番地,,22,138,4350056,,,2026-01-05,清算の結了等,,,2015-10-05,1,,,,,エムワン,0
385,2110001026477,登記記録の閉鎖等,0,2026-01-14,2026-01-06,八海運送株式会社,,株式会社,新潟県,南魚沼市,寺尾１４２９番地,,15,226,9497104,,,2026-01-06,清算の結了等,,,2015-10-05,1,,,,,ハッカイウンソウ,0
388,2120001065821,登記記録の閉鎖等,0,2026-01-14,2026-01-08,株式会社未来都タクシー,,株式会社,大阪府,大阪市北区,中津５丁目１２番２６号,,27,127,5310071,,,2026-01-08,清算の結了等,,,2015-10-05,1,,,,,ミライトタクシー,0
389,2120001074252,登記記録の閉鎖等,0,2026-01-14,2026-01-06,株式会社アンナマリア,,株式会社,大阪府,大阪市中央区,船場中央１丁目３番２－Ｂ１１５号,,27,128,5410055,,,2026-01-06,清算の結了等,,,2015-10-05,1,,,,,アンナマリア,0
390,2120001082668,登記記録の閉鎖等,0,2026-01-14,2026-01-05,セルフ保険サービス株式会社,,株式会社,大阪府,大阪市中央区,久太郎町３丁目４番１２号,,27,128,5410056,,,2026-01-05,合併による解散等,6120001076212,令和８年１月１日大阪市中央区久太郎町四丁目２番１０号グラントラスト株式会社（6120001076212）に合併し解散,2015-10-05,1,,,,,セルフホケンサービス,0
392,2120001156760,登記記録の閉鎖等,0,2026-01-14,2026-01-08,株式会社未来都興業,,株式会社,大阪府,守口市,八雲東町１丁目８番２号,,27,209,5700021,,,2026-01-08,清算の結了等,,,2015-10-05,1,,,,,ミライトコウギョウ,0
395,2120001195783,登記記録の閉鎖等,0,2026-01-14,2026-01-05,株式会社フラウ・ホールディング,,株式会社,大阪府,大阪市中央区,北浜東１番２２号北浜東野村ビル８Ｆ,,27,128,5400031,,,2026-01-05,合併による解散等,3120001119923,令和８年１月１日大阪市中央区北浜東１番２２号北浜東野村ビル８Ｆ株式会社フラウ・インターナショナル（3120001119923）に合併し解散,2016-01-22,1,,,,,フラウホールディング,0
409,2130001020536,登記記録の閉鎖等,0,2026-01-14,2026-01-09,株式会社ＫＩＮＳＨＡ,,株式会社,京都府,京都市下京区,室町通五条上る坂東屋町２６７番,,26,106,6008439,,,2026-01-09,合併による解散等,8010401073462,令和７年１２月１日東京都港区麻布台一丁目３番１号株式会社ＳＨＩＦＴ（8010401073462）に合併し解散,2015-10-05,1,,,,,キンシャ,0
434,2180003027327,登記記録の閉鎖等,0,2026-01-14,2025-12-26,合同会社ＳＣ,,合同会社,愛知県,あま市,甚目寺権現１１１番地６,,23,237,4901111,,,2025-12-26,清算の結了等,,,2024-09-11,1,,,,,エスシー,0
439,2200001021213,登記記録の閉鎖等,0,2026-01-14,2026-01-05,馬駈鉱産株式会社,,株式会社,岐阜県,土岐市,駄知町９８９番地の３６,,21,212,5095401,,,2026-01-05,合併による解散等,2200001021650,令和７年１２月３１日岐阜県土岐市駄知町１１６８番地山津製陶株式会社（2200001021650）に合併し解散,2015-10-05,1,,,,,ウマカケコウサン,0
448,2220002011442,登記記録の閉鎖等,0,2026-01-14,2026-01-09,有限会社アイデイコントロール,,有限会社,石川県,能美市,佐野町巳２８番地,,17,211,9231112,,,2026-01-09,清算の結了等,,,2015-10-05,1,,,,,アイデイコントロール,0
455,2240002032494,登記記録の閉鎖等,0,2026-01-14,2026-01-05,有限会社兼澤建設,,有限会社,広島県,呉市,長ノ木町１２番２０号,,34,202,7370053,,,2026-01-05,清算の結了等,,,2015-10-05,1,,,,,カネザワケンセツ,0
462,2270002000242,登記記録の閉鎖等,0,2026-01-14,2026-01-13,有限会社上林産業,,有限会社,鳥取県,鳥取市,湖山町北５丁目３２５番地,,31,201,6800941,,,2026-01-13,清算の結了等,,,2015-10-05,1,,,,,ウエバヤシサンギョウ,0
486,2330003002594,登記記録の閉鎖等,0,2026-01-14,2025-12-26,合資会社宮本精肉店,,合資会社,熊本県,阿蘇市,黒川１１８８番地,,43,214,8692225,,,2025-12-26,清算の結了等,,,2015-10-05,1,,,,,ミヤモトセイニクテン,0
516,3010001156795,登記記録の閉鎖等,0,2026-01-14,2026-01-05,ＭＣＫＧポートホールディング株式会社,,株式会社,兵庫県,神戸市中央区,浜辺通４丁目１番１１号,,28,110,6510083,,,2026-01-05,合併による解散等,6140001006951,令和８年１月１日神戸市中央区浜辺通四丁目１番１１号株式会社上組（6140001006951）に合併し解散,2015-10-05,1,,,,,エムシーケージーポートホールディング,0
521,3010001222630,登記記録の閉鎖等,0,2026-01-14,2026-01-05,株式会社Ｂｉｚｃａ,,株式会社,東京都,品川区,小山３丁目１４番２－１４０７号,,13,109,1420062,,,2026-01-05,清算の結了等,,,2021-11-17,1,,,,,ビズカ,0
534,3010102011008,登記記録の閉鎖等,0,2026-01-14,2026-01-05,有限会社テー・シー・エス,,有限会社,東京都,八王子市,川町１２８番地１８４,,13,201,1930821,,,2026-01-05,合併による解散等,7010101003349,令和８年１月１日東京都八王子市大和田町一丁目１０番８号株式会社日野電機（7010101003349）に合併し解散,2015-10-05,1,,,,,テーシーエス,0
536,3010401160298,登記記録の閉鎖等,0,2026-01-14,2025-12-12,МＣＰ株式会社,,株式会社,東京都,港区,白金３丁目１番１号第一麻布ビル３０１,,13,103,1080072,,,2025-12-12,清算の結了等,,,2021-05-24,1,,,,,エムシーピー,0
544,3010502006417,登記記録の閉鎖等,0,2026-01-14,2025-12-25,有限会社太陽鉄琴研究所,,有限会社,東京都,台東区,柳橋２丁目８番３号,,13,106,1110052,,,2025-12-25,清算の結了等,,,2015-10-05,1,,,,,タイヨウテッキンケンキュウジョ,0
552,3010802011513,登記記録の閉鎖等,0,2026-01-14,2026-01-05,有限会社バティス日本,,有限会社,東京都,大田区,東雪谷４丁目２０番５号,,13,111,1450065,,,2026-01-05,清算の結了等,,,2015-10-05,1,,,,,,0
553,3010901031585,登記記録の閉鎖等,0,2026-01-14,2026-01-13,スピアインターナショナル株式会社,,株式会社,東京都,世田谷区,玉川３丁目２０番２号マノア玉川第３ビル５０１,,13,112,1580094,,,2026-01-13,清算の結了等,,,2015-10-05,1,,,,,スピアインターナショナル,0
557,3010901049017,登記記録の閉鎖等,0,2026-01-14,2025-12-15,株式会社ｓｃｅｎａｒｉｏ,,株式会社,東京都,渋谷区,道玄坂１丁目１０番８号渋谷道玄坂東急ビル２Ｆ－Ｃ,,13,113,1500043,,,2025-12-15,清算の結了等,,,2021-07-05,1,,,,,シナリオ,0
592,3020001094029,登記記録の閉鎖等,0,2026-01-14,2026-01-07,株式会社エルガ,,株式会社,神奈川県,横浜市西区,みなとみらい４丁目７番１－２３０６号,,14,103,2200012,,,2026-01-07,清算の結了等,,,2015-10-05,1,,,,,エルガ,0
603,3021002057288,登記記録の閉鎖等,0,2026-01-14,2025-12-17,有限会社岳永建設,,有限会社,神奈川県,平塚市,城所１４４８番地の３,,14,203,2540005,,,2025-12-17,清算の結了等,,,2015-10-05,1,,,,,,0
604,3021003008851,登記記録の閉鎖等,0,2026-01-14,2025-12-18,アマレロ合同会社,,合同会社,神奈川県,大和市,西鶴間５丁目７番１１号,,14,213,2420005,,,2025-12-18,清算の結了等,,,2019-11-11,1,,,,,アマレロ,0
606,3030001111311,登記記録の閉鎖等,0,2026-01-14,2026-01-05,株式会社アクト,,株式会社,埼玉県,三郷市,彦川戸１丁目２９７番地１彦川戸ペアタウンＢ棟,,11,237,3410005,,,2026-01-05,清算の結了等,,,2015-11-10,1,,,,,アクト,0
615,3030003011294,登記記録の閉鎖等,0,2026-01-14,2025-12-26,合同会社ＣＯ－ＣＲＥＡＴＩＯＮ,,合同会社,埼玉県,越谷市,七左町１丁目２３３番地４,,11,222,3430851,,,2025-12-26,清算の結了等,,,2018-01-12,1,,,,,コクリエイション,0
619,3030005006689,登記記録の閉鎖等,0,2026-01-14,2025-12-26,一般財団法人関東厚生福祉会,,その他の設立登記法人,埼玉県,朝霞市,大字浜崎７０３番地,,11,227,3510033,,,2025-12-26,合併による解散等,1030005022325,令和７年１２月２６日埼玉県朝霞市大字浜崎７０３番地一般社団法人関東厚生福祉会（1030005022325）に合併し解散,2015-10-05,1,,,,,カントウコウセイフクシカイ,0
632,3070001001814,登記記録の閉鎖等,0,2026-01-14,2025-12-26,関口テント株式会社,,株式会社,群馬県,前橋市,石倉町３丁目１１番地の１,,10,201,3710841,,,2025-12-26,清算の結了等,,,2015-10-05,1,,,,,セキグチテント,0
643,3100002025528,登記記録の閉鎖等,0,2026-01-14,2026-01-09,有限会社ＭＰＭ,,有限会社,長野県,松本市,大字岡田下岡田１７番地４,,20,202,3900313,,,2026-01-09,清算の結了等,,,2015-10-05,1,,,,,エムピーエム,0
663,3120101065670,登記記録の閉鎖等,0,2026-01-14,2026-01-05,株式会社シャーロック,,株式会社,大阪府,堺市西区,鳳南町３丁１９９番地４１,,27,144,5938325,,,2026-01-05,清算の結了等,,,2022-06-06,1,,,,,シャーロック,0
672,3122002004609,登記記録の閉鎖等,0,2026-01-14,2026-01-05,有限会社三玉,,有限会社,大阪府,東大阪市,宝町１番１１号,,27,227,5798025,,,2026-01-05,清算の結了等,,,2015-10-05,1,,,,,ミツタマ,0
689,3180001156705,登記記録の閉鎖等,0,2026-01-14,2025-12-26,日航物流株式会社,,株式会社,愛知県,名古屋市中区,金山１丁目１５番３号アルバックスタワー金山駅前８０２号,,23,106,4600022,,,2025-12-26,清算の結了等,,,2023-06-09,1,,,,,ニッコウブツリュウ,0
704,3200001032465,登記記録の閉鎖等,0,2026-01-14,2026-01-08,株式会社ケイワイサービス,,株式会社,岐阜県,大垣市,津村町４丁目３７番地,,21,202,5030003,,,2026-01-08,清算の結了等,,,2016-01-08,1,,,,,ケイワイサービス,0
707,3200003004917,登記記録の閉鎖等,0,2026-01-14,2026-01-07,フォーティーアイエル合同会社,,合同会社,岐阜県,郡上市,白鳥町恩地２４１番地,,21,219,5015115,,,2026-01-07,清算の結了等,,,2020-08-13,1,,,,,フォーティーアイエル,0
712,3210001003341,登記記録の閉鎖等,0,2026-01-14,2026-01-05,フオワードシステム株式会社,,株式会社,東京都,千代田区,丸の内１丁目７番１２号サピアタワー,,13,101,1000005,,,2026-01-05,合併による解散等,4011001039460,令和８年１月１日東京都千代田区丸の内一丁目７番１２号サピアタワー株式会社Ｑ’ｓｆｉｘ（4011001039460）に合併し解散,2015-10-05,1,,,,,フオワードシステム,0
722,3240002039051,登記記録の閉鎖等,0,2026-01-14,2025-12-26,有限会社合木電気工事,,有限会社,広島県,福山市,瀬戸町地頭分３５番地の５９,,34,207,7210000,,,2025-12-26,清算の結了等,,,2015-10-05,1,,,,,ゴウギデンキコウジ,0
726,3260001005168,登記記録の閉鎖等,0,2026-01-14,2026-01-09,株式会社西村設備,,株式会社,岡山県,岡山市北区,岡町１７番２８号,,33,101,7000867,,,2026-01-09,清算の結了等,,,2015-10-05,1,,,,,ニシムラセツビ,0
727,3260001007486,登記記録の閉鎖等,0,2026-01-14,2026-01-08,株式会社河本食品,,株式会社,岡山県,岡山市北区,建部町富沢４２８番地の３,,33,101,7093144,,,2026-01-08,清算の結了等,,,2015-10-05,1,,,,,コウモトショクヒン,0
728,3260001008121,登記記録の閉鎖等,0,2026-01-14,2026-01-07,犬飼医療器株式会社,,株式会社,岡山県,岡山市南区,西市１１４番地２,,33,104,7000953,,,2026-01-07,清算の結了等,,,2015-10-05,1,,,,,イヌカイイリョウキ,0
734,3290001062371,登記記録の閉鎖等,0,2026-01-14,2025-12-24,株式会社ＬＥＢＥＮ,,株式会社,福岡県,福岡市中央区,平尾２丁目１５番２６号,,40,133,8100014,,,2025-12-24,清算の結了等,,,2015-10-05,1,,,,,レーベン,0
737,3290002035260,登記記録の閉鎖等,0,2026-01-14,2025-12-23,有限会社高山住宅,,有限会社,福岡県,宗像市,吉留３１７７番地,,40,220,8114153,,,2025-12-23,清算の結了等,,,2015-10-05,1,,,,,タカヤマジュウタク,0
757,3380002003019,登記記録の閉鎖等,0,2026-01-14,2026-01-07,有限会社ふじえだ商会,,有限会社,福島県,福島市,御山字中屋敷５４番地２,,07,201,9608252,,,2026-01-07,清算の結了等,,,2015-10-05,1,,,,,フジエダショウカイ,0
765,3410001002612,登記記録の閉鎖等,0,2026-01-14,2026-01-07,株式会社湯川商店,,株式会社,秋田県,秋田市,保戸野通町６番２５号,,05,201,0100912,,,2026-01-07,清算の結了等,,,2015-10-05,1,,,,,ユカワショウテン,0
768,3430001068602,登記記録の閉鎖等,0,2026-01-14,2025-12-26,北海道建機販売株式会社,,株式会社,北海道,伊達市,梅本町２９番地６５,,01,233,0520022,,,2025-12-26,清算の結了等,,,2015-10-05,1,,,,,ホッカイドウケンキハンバイ,0
770,3430002015413,登記記録の閉鎖等,0,2026-01-14,2026-01-08,有限会社野津商店,,有限会社,北海道,札幌市北区,北二十五条西８丁目１番１７号,,01,102,0010025,,,2026-01-08,清算の結了等,,,2015-10-05,1,,,,,ノヅショウテン,0
782,4000020409588,登記記録の閉鎖等,0,2026-01-14,2025-03-31,下田川清掃施設組合,,地方公共団体,福岡県,田川郡福智町,赤池４７４番地５,,40,610,8221101,,,2025-03-31,その他の清算の結了等,,,2015-10-05,1,Shimotagawa Cleaning Facilities Association,Fukuoka,"474-5, Akaike,Fukuchi machi,Tagawa gun",,シモタガワセイソウシセツクミアイ,0
797,4010001231135,登記記録の閉鎖等,0,2026-01-14,2025-12-17,株式会社１ｓｔ　ｐｏｓｉｔｉｏｎ,,株式会社,東京都,中央区,勝どき３丁目４番１０号,,13,102,1040054,,,2025-12-17,清算の結了等,,,2022-12-01,1,,,,,ファーストポジション,0
809,4010401134912,登記記録の閉鎖等,0,2026-01-14,2026-01-07,株式会社モノフル,,株式会社,東京都,中央区,八重洲２丁目２番１号,,13,102,1040028,,,2026-01-07,合併による解散等,8010401080871,令和７年１２月２６日東京都中央区八重洲二丁目２番１号日本ＧＬＰ株式会社（8010401080871）に合併し解散,2017-11-09,1,,,,,モノフル,0
817,4010601048128,登記記録の閉鎖等,0,2026-01-14,2025-12-22,ＫＲＹ株式会社,,株式会社,東京都,千代田区,神田佐久間町１丁目８番４号アルテール秋葉原７０８,,13,101,1010025,,,2025-12-22,清算の結了等,,,2015-10-05,1,,,,,ケーアールワイ,0
819,4010801027443,登記記録の閉鎖等,0,2026-01-14,2026-01-05,株式会社ＴＯＫＩＷＡ,,株式会社,東京都,大田区,矢口１丁目２５番３号,,13,111,1460093,,,2026-01-05,清算の結了等,,,2017-01-26,1,,,,,,0
841,4011503003451,登記記録の閉鎖等,0,2026-01-14,2026-01-05,ＡＮＪＵ合同会社,,合同会社,東京都,国分寺市,西元町２丁目９－２９－１０１,,13,214,1850023,,,2026-01-05,清算の結了等,,,2017-11-28,1,,,,,アンジュ,0
843,4011503006685,登記記録の閉鎖等,0,2026-01-14,2026-01-08,ＡＮＩＬＡ合同会社,,合同会社,東京都,北区,西ケ原１丁目４３番３－１０１号アシュレ駒込,,13,117,1140024,,,2026-01-08,清算の結了等,,,2025-09-16,1,,,,,アニラ,0
850,4011801013846,登記記録の閉鎖等,0,2026-01-14,2026-01-08,千住電子工業株式会社,,株式会社,岩手県,一関市,東山町長坂字丸森８６番地５,,03,209,0290302,,,2026-01-08,合併による解散等,4011801009092,令和８年１月１日東京都足立区千住橋戸町２３番地千住金属工業株式会社（4011801009092）に合併し解散,2015-10-05,1,,,,,センジュデンシコウギョウ,0
861,4012401009292,登記記録の閉鎖等,0,2026-01-14,2026-01-05,株式会社ビーワイルド,,株式会社,東京都,狛江市,岩戸南１丁目１番１０－２０２号,,13,219,2010005,,,2026-01-05,清算の結了等,,,2015-10-05,1,,,,,ビーワイルド,0
862,4012402007816,登記記録の閉鎖等,0,2026-01-14,2026-01-05,有限会社野田オフィス,,有限会社,東京都,調布市,飛田給１丁目３番地８１,,13,208,1820036,,,2026-01-05,清算の結了等,,,2015-10-05,1,,,,,ノダオフィス,0
864,4012701015197,登記記録の閉鎖等,0,2026-01-14,2026-01-05,星野不動産株式会社,,株式会社,東京都,小平市,花小金井３丁目３８番７号,,13,211,1870002,,,2026-01-05,清算の結了等,,,2019-01-30,1,,,,,ホシノフドウサン,0
866,4012801022911,登記記録の閉鎖等,0,2026-01-14,2026-01-05,株式会社ゴールデン東京,,株式会社,東京都,国立市,東３丁目２０番７号東方荘Ｂ－２,,13,215,1860002,,,2026-01-05,清算の結了等,,,2024-01-17,1,,,,,ゴールデントウキョウ,0
881,4020003014826,登記記録の閉鎖等,0,2026-01-14,2026-01-07,合同会社イーリズム,,合同会社,神奈川県,横浜市保土ケ谷区,岩井町４３７番地６,,14,106,2400023,,,2026-01-07,清算の結了等,,,2018-09-05,1,,,,,イーリズム,0
884,4021002059250,登記記録の閉鎖等,0,2026-01-14,2025-12-18,有限会社原酒店,,有限会社,神奈川県,平塚市,南原１丁目１３番２０号,,14,203,2540065,,,2025-12-18,清算の結了等,,,2015-10-05,1,,,,,ハラサケテン,0
892,4030001017012,登記記録の閉鎖等,0,2026-01-14,2026-01-05,株式会社Ｈｏｓｈｉａｉ　Ｓａｌｏｎ　ｏｆ　Ａｒｏｍａｔｈｅｒａｐｙ,,株式会社,埼玉県,さいたま市緑区,美園６丁目９番地１１,,11,109,3360967,,,2026-01-05,清算の結了等,,,2015-10-05,1,,,,,ホシアオサロンオブアロマテラピー,0
894,4030002006848,登記記録の閉鎖等,0,2026-01-14,2025-12-26,有限会社塩原建工,,有限会社,埼玉県,さいたま市見沼区,東大宮６丁目２６番地９,,11,104,3370051,,,2025-12-26,清算の結了等,,,2015-10-05,1,,,,,シオバラケンコウ,0
895,4030002088878,登記記録の閉鎖等,0,2026-01-14,2026-01-05,有限会社パレード,,有限会社,埼玉県,越谷市,大字大林４６４番地６,,11,222,3430021,,,2026-01-05,清算の結了等,,,2015-10-05,1,,,,,パレード,0
910,4050002042668,登記記録の閉鎖等,0,2026-01-14,2025-12-26,有限会社大塚忍建築設計事務所,,有限会社,茨城県,桜川市,真壁町古城３２２番地の１,,08,231,3004407,,,2025-12-26,清算の結了等,,,2015-10-05,1,,,,,オオツカシノブケンチクセッケイジムショ,0
924,4090001017923,登記記録の閉鎖等,0,2026-01-14,2026-01-05,広瀬石材株式会社,,株式会社,山梨県,甲州市,塩山上萩原２０４１番地２,,19,213,4040022,,,2026-01-05,清算の結了等,,,2023-01-12,1,,,,,ヒロセセキザイ,0
935,4120001056216,登記記録の閉鎖等,0,2026-01-14,2025-12-23,成榮運輸株式会社,,株式会社,大阪府,大阪市淀川区,加島３丁目３番８号,,27,123,5320031,,,2025-12-23,清算の結了等,,,2015-10-05,1,,,,,セイエイウンユ,0
937,4120001118131,登記記録の閉鎖等,0,2026-01-14,2026-01-07,香川設計株式会社,,株式会社,大阪府,大阪市西区,江戸堀１丁目２３番１３号肥後橋ビル３号館,,27,106,5500002,,,2026-01-07,清算の結了等,,,2015-10-05,1,,,,,カガワセッケイ,0
949,4120003027719,登記記録の閉鎖等,0,2026-01-14,2026-01-06,合同会社前進,,合同会社,大阪府,大阪市生野区,巽中１丁目１７番６－５０７,,27,116,5440013,,,2026-01-06,清算の結了等,,,2024-10-16,1,,,,,ゼンシン,0
953,4120101030079,登記記録の閉鎖等,0,2026-01-14,2026-01-05,株式会社ウエル,,株式会社,大阪府,堺市南区,竹城台４丁７番１号,,27,145,5900105,,,2026-01-05,清算の結了等,,,2015-10-05,1,,,,,ウエル,0
980,4150001005079,登記記録の閉鎖等,0,2026-01-14,2026-01-09,宮西建材株式会社,,株式会社,奈良県,生駒市,高山町１０６７６番地の２,,29,209,6300101,,,2026-01-09,清算の結了等,,,2015-10-05,1,,,,,ミヤニシケンザイ,0
984,4180001006735,登記記録の閉鎖等,0,2026-01-14,2026-01-05,大洋陸運株式会社,,株式会社,愛知県,名古屋市港区,入船１丁目４番２８号,,23,111,4550032,,,2026-01-05,合併による解散等,2180001006729,令和７年１２月３１日名古屋市港区入船一丁目４番２８号大洋海運株式会社（2180001006729）に合併し解散,2015-10-05,1,,,,,タイヨウリクウン,0
988,4180001133496,登記記録の閉鎖等,0,2026-01-14,2026-01-06,株式会社ゲオクリア,,株式会社,愛知県,名古屋市中区,富士見町８番８号,,23,106,4600014,,,2026-01-06,合併による解散等,5180001138940,令和８年１月１日名古屋市中区富士見町８番８号株式会社ゲオ（5180001138940）に合併し解散,2018-08-24,1,,,,,ゲオクリア,0
1011,4240001016158,登記記録の閉鎖等,0,2026-01-14,2026-01-08,三菱鉛筆中国販売株式会社,,株式会社,広島県,広島市中区,西川口町６番１号,,34,101,7300846,,,2026-01-08,合併による解散等,3120001107556,令和８年１月１日大阪市西区新町一丁目２７番５号三菱鉛筆関西販売株式会社（3120001107556）に合併し解散,2015-10-05,1,,,,,ミツビシエンピツチュウゴクハンバイ,0
1017,4240002015522,登記記録の閉鎖等,0,2026-01-14,2026-01-07,有限会社マンション取引センター,,有限会社,広島県,広島市西区,新庄町４３番１５号,,34,104,7330801,,,2026-01-07,清算の結了等,,,2015-10-05,1,,,,,マンショントリヒキセンター,0
1025,4260003005330,登記記録の閉鎖等,0,2026-01-14,2026-01-07,合同会社ＳＤＭ,,合同会社,岡山県,岡山市北区,中山下１丁目１１番１５号新田第１ビル４０２,,33,101,7000821,,,2026-01-07,清算の結了等,,,2025-09-05,1,,,,,エスディーエム,0
1053,4380002030631,登記記録の閉鎖等,0,2026-01-14,2026-01-05,有限会社アトム,,有限会社,福島県,双葉郡葛尾村,大字落合字大笹２８９番地１０,,07,548,9791602,,,2026-01-05,清算の結了等,,,2015-10-05,1,,,,,アトム,0
1055,4410005002120,登記記録の閉鎖等,0,2026-01-14,2026-01-13,本荘酒販協同組合,,その他の設立登記法人,秋田県,由利本荘市,大鍬町２０３番地の２,,05,210,0150864,,,2026-01-13,清算の結了等,,,2015-10-05,1,,,,,,0
1067,5010001121459,登記記録の閉鎖等,0,2026-01-14,2026-01-05,株式会社フィーノホテルズ,,株式会社,東京都,中央区,新川１丁目２３番５号,,13,102,1040033,,,2026-01-05,合併による解散等,5010001128140,令和８年１月１日東京都中央区新川一丁目２３番５号ポラリス・ホールディングス株式会社（5010001128140）に合併し解散,2015-10-05,1,,,,,フィーノホテルズ,0
1070,5010001232982,登記記録の閉鎖等,0,2026-01-14,2025-12-17,株式会社Ｅｖｅｒ　Ｇｒｏｗｔｈ,,株式会社,東京都,中央区,銀座１丁目１２番４号Ｎ＆ＥＢＬＤ．６Ｆ,,13,102,1040061,,,2025-12-17,清算の結了等,,,2023-02-15,1,,,,,エバーグロース,0
1086,5010403019879,登記記録の閉鎖等,0,2026-01-14,2026-01-05,Ｓｈａｍｉｒ　Ｊａｐａｎ合同会社,,合同会社,東京都,江戸川区,臨海町３丁目６番４号ヒューリック葛西臨海ビル１階１０１,,13,123,1340086,,,2026-01-05,清算の結了等,,,2018-12-21,1,,,,,シャミルジャパン,0
1091,5010405022939,登記記録の閉鎖等,0,2026-01-14,2025-12-16,一般社団法人ＳＵＫＩＹＡＢＡＳＨＩ,,その他の設立登記法人,東京都,港区,芝２丁目１０番６号ＥＡＲＴＨＳＨＩＢＡＢＬＤ．３Ｆイントリム内,,13,103,1050014,,,2025-12-16,清算の結了等,,,2024-02-07,1,,,,,スキヤバシ,0
1097,5010702005365,登記記録の閉鎖等,0,2026-01-14,2025-12-23,有限会社ティーイーエス企画,,有限会社,東京都,品川区,上大崎１丁目２２番１５－２０５号,,13,109,1410021,,,2025-12-23,清算の結了等,,,2015-10-05,1,,,,,ティーイーエスキカク,0
1101,5010802011800,登記記録の閉鎖等,0,2026-01-14,2026-01-05,有限会社原田製作所,,有限会社,東京都,大田区,萩中３丁目１４番１８号,,13,111,1440047,,,2026-01-05,清算の結了等,,,2015-10-05,1,,,,,ハラダセイサクショ,0
1105,5011001070398,登記記録の閉鎖等,0,2026-01-14,2025-12-15,ブレイン・パワー株式会社,,株式会社,東京都,渋谷区,恵比寿西１丁目１４番９号パークサイドＢ２０２,,13,113,1500021,,,2025-12-15,清算の結了等,,,2015-10-05,1,,,,,ブレインパワー,0
1108,5011001143303,登記記録の閉鎖等,0,2026-01-14,2025-12-15,生きのびるブックス株式会社,,株式会社,東京都,渋谷区,恵比寿西１丁目３３番１５号ＥＮ代官山１００１号室,,13,113,1500021,,,2025-12-15,清算の結了等,,,2021-10-08,1,,,,,イキノビルブックス,0
1118,5011201022034,登記記録の閉鎖等,0,2026-01-14,2026-01-05,株式会社ＡＮＦＩＥＬＤ,,株式会社,東京都,杉並区,阿佐谷南２丁目１８番８号ザ・シティ阿佐ヶ谷４階,,13,115,1660004,,,2026-01-05,合併による解散等,1011303002912,令和７年１２月３１日東京都杉並区和田三丁目４１番１４号合同会社装建ホーム（1011303002912）に合併し解散,2020-03-17,1,,,,,アンフィールド,0
1120,5011303004228,登記記録の閉鎖等,0,2026-01-14,2026-01-05,株式会社ホープフルライフ,,株式会社,東京都,杉並区,高円寺南４丁目２９－１３大雅堂マンション６Ｃ,,13,115,1660003,,,2026-01-05,清算の結了等,,,2021-11-25,1,,,,,ホープフルライフ,0
1126,5012301013583,登記記録の閉鎖等,0,2026-01-14,2025-12-23,株式会社ｓｔｍ,,株式会社,東京都,町田市,相原町２６９１番地２４,,13,209,1940211,,,2025-12-23,清算の結了等,,,2023-09-08,1,,,,,エスティーエム,0
1146,5021001067815,登記記録の閉鎖等,0,2026-01-14,2026-01-05,株式会社アプレネイルジャパン,,株式会社,東京都,品川区,上大崎２丁目７－１長者丸ホームズ１０１号,,13,109,1410021,,,2026-01-05,清算の結了等,,,2019-08-21,1,,,,,アプレネイルジャパン,0
1158,5030003014353,登記記録の閉鎖等,0,2026-01-14,2026-01-05,ばいそん合同会社,,合同会社,埼玉県,越谷市,レイクタウン２丁目９番地５,,11,222,3430828,,,2026-01-05,清算の結了等,,,2019-11-07,1,,,,,バイソン,0
1159,5030005020267,登記記録の閉鎖等,0,2026-01-14,2025-12-22,一般社団法人いきいきライフ協会さいたま北,,その他の設立登記法人,埼玉県,鴻巣市,大芦４３０番地５,,11,217,3690137,,,2025-12-22,清算の結了等,,,2021-02-08,1,,,,,イキイキライフキョウカイサイタマキタ,0
1176,5080001017576,登記記録の閉鎖等,0,2026-01-14,2026-01-05,株式会社日新教育研究機関,,株式会社,静岡県,島田市,月坂１丁目１４番地の１８,,22,209,4270112,,,2026-01-05,清算の結了等,,,2015-10-05,1,,,,,ニッシンキョウイクケンキュウキカン,0
1186,5080402020518,登記記録の閉鎖等,0,2026-01-14,2026-01-05,有限会社イエローマジック,,有限会社,静岡県,磐田市,岡８８３番地の７,,22,211,4380204,,,2026-01-05,清算の結了等,,,2015-10-05,1,,,,,イエローマジック,0
1189,5110001013803,登記記録の閉鎖等,0,2026-01-14,2026-01-05,株式会社企業水処理サービス,,株式会社,新潟県,新潟市東区,物見山４丁目１４番３２号,,15,102,9500021,,,2026-01-05,清算の結了等,,,2015-10-05,1,,,,,キギョウミズショリサービス,0
1195,5110003004437,登記記録の閉鎖等,0,2026-01-14,2026-01-06,ブレークポイント合同会社,,合同会社,新潟県,見附市,緑町２３番１３－１号,,15,211,9540045,,,2026-01-06,清算の結了等,,,2021-04-07,1,,,,,ブレークポイント,0
1213,5120002066782,登記記録の閉鎖等,0,2026-01-14,2026-01-09,有限会社奥林電気工事,,有限会社,大阪府,大阪市城東区,野江１丁目１番１６号,,27,118,5360006,,,2026-01-09,清算の結了等,,,2015-10-05,1,,,,,オクバヤシデンキコウジ,0
1214,5120002081798,登記記録の閉鎖等,0,2026-01-14,2026-01-08,有限会社未来都プランニング,,有限会社,大阪府,守口市,八雲東町１丁目８番２号,,27,209,5700021,,,2026-01-08,清算の結了等,,,2015-10-05,1,,,,,ミライトプランニング,0
1220,5120101047080,登記記録の閉鎖等,0,2026-01-14,2026-01-07,株式会社ＭＲＳ,,株式会社,大阪府,大阪市鶴見区,今津北４丁目９番１０号,,27,124,5380041,,,2026-01-07,清算の結了等,,,2015-10-05,1,,,,,エムアールエス,0
1237,5130001029806,登記記録の閉鎖等,0,2026-01-14,2026-01-09,株式会社パワーソリューション,,株式会社,京都府,京都市伏見区,久我本町７番地１５６,,26,109,6128492,,,2026-01-09,清算の結了等,,,2015-10-05,1,,,,,パワーソリューション,0
1260,5160005002161,登記記録の閉鎖等,0,2026-01-14,2026-01-09,あおば弁護士法人,,その他の設立登記法人,滋賀県,大津市,末広町１番１号日本生命大津ビル６階,,25,201,5200056,,,2026-01-09,清算の結了等,,,2015-10-05,1,,,,,アオバ,0
1266,5180001042556,登記記録の閉鎖等,0,2026-01-14,2026-01-07,Ｕ・トラスト株式会社,,株式会社,北海道,札幌市中央区,南十四条西１１丁目１番３号,,01,101,0640914,,,2026-01-07,清算の結了等,,,2015-10-05,1,,,,,ユートラスト,0
1270,5180001131771,登記記録の閉鎖等,0,2026-01-14,2025-12-26,Ｙ’ｓビルド株式会社,,株式会社,愛知県,西春日井郡豊山町,大字豊場字高前１４４番地,,23,342,4800202,,,2025-12-26,清算の結了等,,,2018-04-06,1,,,,,ワイズビルド,0
1291,5200001021581,登記記録の閉鎖等,0,2026-01-14,2026-01-05,マルマ陶器株式会社,,株式会社,岐阜県,土岐市,駄知町１９３１番地の６,,21,212,5095401,,,2026-01-05,清算の結了等,,,2015-10-05,1,,,,,マルマトウキ,0
1311,5250001013789,登記記録の閉鎖等,0,2026-01-14,2026-01-07,株式会社内田不動産,,株式会社,山口県,下関市,大学町１丁目６番２号,,35,201,7510831,,,2026-01-07,清算の結了等,,,2015-10-05,1,,,,,ウチダフドウサン,0
1334,5330001007452,登記記録の閉鎖等,0,2026-01-14,2026-01-05,株式会社森本茶舗,,株式会社,熊本県,熊本市中央区,新町２丁目１２番２５号,,43,101,8600004,,,2026-01-05,清算の結了等,,,2015-10-05,1,,,,,モリモトチャホ,0
1345,5380002030201,登記記録の閉鎖等,0,2026-01-14,2026-01-07,有限会社舘内商店,,有限会社,福島県,双葉郡浪江町,大字権現堂字南深町３４番地の１,,07,547,9791521,,,2026-01-07,清算の結了等,,,2015-10-05,1,,,,,タテウチショウテン,0
1349,5420001001017,登記記録の閉鎖等,0,2026-01-14,2026-01-06,新興自動車株式会社珍田タクシー,,株式会社,青森県,青森市,桂木４丁目４番地６,,02,201,0300844,,,2026-01-06,清算の結了等,,,2015-10-05,1,,,,,シンコウジドウシャチンダタクシー,0
1366,5490002007304,登記記録の閉鎖等,0,2026-01-14,2026-01-07,高知ハウスサポート有限会社,,有限会社,高知県,高知市,葛島４丁目８番８号,,39,201,7818121,,,2026-01-07,清算の結了等,,,2015-10-05,1,,,,,,0
1369,5700150090575,削除,,2026-01-14,,,,,,,,,,,,,,,,,,,,,,,,,
1370,6010001054286,登記記録の閉鎖等,0,2026-01-14,2026-01-05,株式会社浜信,,株式会社,東京都,中央区,築地４丁目１１番４号,,13,102,1040045,,,2026-01-05,合併による解散等,6010001036623,令和８年１月１日東京都中央区築地四丁目１１番４号味の浜藤株式会社（6010001036623）に合併し解散,2015-10-05,1,,,,,ハマシン,0
1383,6010401004361,登記記録の閉鎖等,0,2026-01-14,2026-01-05,エグゼクティブコンサルタンツインターナショナル株式会社,,株式会社,東京都,品川区,南品川２丁目１２番２号川奈ビル７０１号室,,13,109,1400004,,,2026-01-05,清算の結了等,,,2015-10-05,1,,,,,エグゼクティブコンサルタンツインターナショナル,0
1399,6010605003944,登記記録の閉鎖等,0,2026-01-14,2025-12-26,一般社団法人家づくり支援協会,,その他の設立登記法人,東京都,墨田区,八広５丁目２５番４号,,13,107,1310041,,,2025-12-26,清算の結了等,,,2021-03-22,1,,,,,イエヅクリシエンキョウカイ,0
1401,6010703007434,登記記録の閉鎖等,0,2026-01-14,2025-12-25,いくたま合同会社,,合同会社,東京都,江東区,豊洲５丁目６番２９－１２３０号,,13,108,1350061,,,2025-12-25,清算の結了等,,,2024-11-12,1,,,,,イクタマ,0
1428,6011501007477,登記記録の閉鎖等,0,2026-01-14,2026-01-09,タカラ商事株式会社,,株式会社,東京都,荒川区,町屋５丁目１番２号,,13,118,1160001,,,2026-01-09,清算の結了等,,,2015-10-05,1,,,,,タカラショウジ,0
1435,6012302001603,登記記録の閉鎖等,0,2026-01-14,2025-12-26,有限会社クレーヴァワーク,,有限会社,東京都,町田市,野津田町７番地５,,13,209,1950063,,,2025-12-26,清算の結了等,,,2015-10-05,1,,,,,クレーヴァワーク,0
1451,6020002008678,登記記録の閉鎖等,0,2026-01-14,2026-01-08,有限会社根本電業社,,有限会社,神奈川県,横浜市金沢区,寺前２丁目１１番１号,,14,108,2360014,,,2026-01-08,清算の結了等,,,2015-10-05,1,,,,,ネモトデンギョウシャ,0
1460,6030001036209,登記記録の閉鎖等,0,2026-01-14,2025-12-26,東京パネル工業株式会社,,株式会社,埼玉県,八潮市,大字伊勢野４２２番地１,,11,234,3400821,,,2025-12-26,清算の結了等,,,2015-10-05,1,,,,,トウキョウパネルコウギョウ,0
1464,6030001107587,登記記録の閉鎖等,0,2026-01-14,2025-12-22,Ｇｌｏｂａｌ　Ｔｒａｎｓｆｏｒｍａｔｉｏｎ　Ｌｅａｄｅｒｓ株式会社,,株式会社,埼玉県,川越市,新宿町１丁目６番６号,,11,201,3501124,,,2025-12-22,合併による解散等,5030001057478,令和７年１２月２０日埼玉県川越市新宿町一丁目６番６号株式会社エコハウス（5030001057478）に合併し解散,2015-10-05,1,,,,,グローバルトランスフォーメーションリーダーズ,0
1494,6070001011595,登記記録の閉鎖等,0,2026-01-14,2026-01-07,グロウ株式会社,,株式会社,群馬県,高崎市,棟高町９５９番地６,,10,202,3703521,,,2026-01-07,清算の結了等,,,2015-10-05,1,,,,,グロウ,0
1504,6080102009991,登記記録の閉鎖等,0,2026-01-14,2026-01-09,有限会社北沢ゴルフ,,有限会社,静岡県,三島市,北沢２７０番地の１,,22,206,4110805,,,2026-01-09,清算の結了等,,,2015-10-05,1,,,,,,0
1505,6080402007522,登記記録の閉鎖等,0,2026-01-14,2026-01-05,松下板金工業有限会社,,有限会社,静岡県,浜松市中央区,三組町１５８番地,,22,138,4328017,,,2026-01-05,清算の結了等,,,2015-10-05,1,,,,,マツシタバンキンコウギョウ,0
1544,6140001054777,登記記録の閉鎖等,0,2026-01-14,2026-01-05,ＨＱ　ＣＬＵＢ株式会社,,株式会社,兵庫県,尼崎市,西御園町１１９番地の３,,28,202,6600868,,,2026-01-05,合併による解散等,7140001054776,令和８年１月１日兵庫県尼崎市西御園町１１９番地の３株式会社ザ・ヘッドクォーターズ（7140001054776）に合併し解散,2015-10-05,1,,,,,エイチキュークラブ,0
1561,6180002075942,登記記録の閉鎖等,0,2026-01-14,2026-01-07,大崎管理コンサルタント有限会社,00073394,有限会社,愛知県,一宮市,大和町馬引字焼野２３番地の１,,23,203,4910931,,,2026-01-07,清算の結了等,,,2015-10-05,1,,,,,オオサキカンリコンサルタント,0
1562,6180005008635,登記記録の閉鎖等,0,2026-01-14,2025-12-24,特定非営利活動法人口論義運動公園水泳クラブ,,その他の設立登記法人,愛知県,春日井市,藤山台１０丁目１６番地の６,,23,206,4870035,,,2025-12-24,清算の結了等,,,2015-10-05,1,,,,,コウロギウンドウコウエンスイエイクラブ,0
1563,6180301034558,登記記録の閉鎖等,0,2026-01-14,2026-01-06,株式会社皆花,,株式会社,愛知県,豊橋市,富士見台２丁目３３番地の１０,,23,201,4418135,,,2026-01-06,清算の結了等,,,2021-01-22,1,,,,,カイカ,0
1567,6190001005940,登記記録の閉鎖等,0,2026-01-14,2026-01-07,ＳＣパートナー株式会社,,株式会社,三重県,鈴鹿市,国府町３９１７番地３３４,,24,207,5130836,,,2026-01-07,清算の結了等,,,2015-10-05,1,,,,,エスシーパートナー,0
1582,6240002051813,登記記録の閉鎖等,0,2026-01-14,2026-01-06,有限会社リニューアルストーンモトヒロ,,有限会社,広島県,尾道市,高須町東新涯４８１０番地５,,34,205,7290141,,,2026-01-06,清算の結了等,,,2015-10-05,1,,,,,リニューアルストーンモトヒロ,0
1584,6260001004456,登記記録の閉鎖等,0,2026-01-14,2026-01-06,ティー・アイ・シー株式会社,,株式会社,岡山県,岡山市中区,中井１丁目８番２－２号,,33,102,7038205,,,2026-01-06,清算の結了等,,,2015-10-05,1,,,,,ティーアイシー,0
1594,6300002009739,登記記録の閉鎖等,0,2026-01-14,2026-01-09,有限会社鳥栖印刷,,有限会社,佐賀県,鳥栖市,秋葉町２丁目１０４２番地,,41,203,8410036,,,2026-01-09,清算の結了等,,,2015-10-05,1,,,,,トスインサツ,0
1600,6330003011113,登記記録の閉鎖等,0,2026-01-14,2025-12-02,合同会社Ｒｏｙｌａｎｃｅ,,合同会社,熊本県,熊本市中央区,新屋敷２丁目２７－１７ハウスロフティ５０２号室,,43,101,8620975,,,2025-12-02,清算の結了等,,,2025-07-24,1,,,,,ロイランス,0
1609,6370301003114,登記記録の閉鎖等,0,2026-01-14,2025-12-26,マウンテン・ナナ株式会社,,株式会社,宮城県,石巻市,門脇町１丁目１２番１５－４０１号,,04,202,9860834,,,2025-12-26,清算の結了等,,,2015-10-05,1,,,,,マウンテンナナ,0
1619,6440001007754,登記記録の閉鎖等,0,2026-01-14,2026-01-07,株式会社ＬＩＮＫ,,株式会社,北海道,北斗市,常盤３丁目７番１号,,01,236,0490171,,,2026-01-07,清算の結了等,,,2015-10-07,1,,,,,リンク,0
1622,6460301000399,登記記録の閉鎖等,0,2026-01-14,2026-01-08,株式会社ラテック,,株式会社,北海道,北見市,豊地１８番地４８,,01,208,0991587,,,2026-01-08,清算の結了等,,,2015-10-05,1,,,,,ラテック,0
1623,6460301004136,登記記録の閉鎖等,0,2026-01-14,2026-01-13,株式会社Ｓ．Ｍ．Ｙ,,株式会社,北海道,北見市,緑ケ丘３丁目１０番１９号,,01,208,0900067,,,2026-01-13,清算の結了等,,,2015-10-05,1,,,,,エスエムワイ,0
1641,7010003034269,登記記録の閉鎖等,0,2026-01-14,2025-12-17,ジェイコアレジ２合同会社１,,合同会社,東京都,千代田区,丸の内１丁目４番１号東京共同会計事務所内,,13,101,1000005,,,2025-12-17,清算の結了等,,,2021-03-01,1,,,,,ジェイコアレジツーイチ,0
1650,7010401107155,登記記録の閉鎖等,0,2026-01-14,2026-01-06,株式会社チェルシー,,株式会社,愛知県,名古屋市中区,富士見町８番８号,,23,106,4600014,,,2026-01-06,合併による解散等,5180001138940,令和８年１月１日名古屋市中区富士見町８番８号株式会社ゲオ（5180001138940）に合併し解散,2015-10-05,1,,,,,チェルシー,0
1670,7010801023027,登記記録の閉鎖等,0,2026-01-14,2025-12-26,株式会社信特精密,,株式会社,東京都,大田区,久が原１丁目１２番１９号,,13,111,1460085,,,2025-12-26,清算の結了等,,,2015-10-05,1,,,,,シントクセイミツ,0
1696,7011302003278,登記記録の閉鎖等,0,2026-01-14,2026-01-06,有限会社渓泉,,有限会社,東京都,調布市,多摩川１丁目１番地１エスポワール西調布４０３,,13,208,1820025,,,2026-01-06,清算の結了等,,,2015-10-05,1,,,,,ケイセン,0
1700,7011501003483,登記記録の閉鎖等,0,2026-01-14,2026-01-06,株式会社日本アロー設計事務所,,株式会社,東京都,北区,赤羽１丁目１９番７号,,13,117,1150045,,,2026-01-06,清算の結了等,,,2015-10-05,1,,,,,ニホンアローセッケイジムショ,0
1736,7030002041470,登記記録の閉鎖等,0,2026-01-14,2026-01-05,有限会社宮内バラ園,,有限会社,埼玉県,加須市,志多見４６６番地,,11,210,3470042,,,2026-01-05,清算の結了等,,,2015-10-05,1,,,,,ミヤウチバラエン,0
1752,7070002021741,登記記録の閉鎖等,0,2026-01-14,2026-01-08,株式会社トリ中,,株式会社,群馬県,伊勢崎市,福島町２４４番地１１,,10,204,3720826,,,2026-01-08,清算の結了等,,,2015-10-05,1,,,,,トリナカ,0
1755,7080102008522,登記記録の閉鎖等,0,2026-01-14,2026-01-06,有限会社西島,,有限会社,静岡県,伊豆の国市,田京９６番地の１,,22,225,4102315,,,2026-01-06,清算の結了等,,,2015-10-05,1,,,,,ニシジマ,0
1759,7080102009413,登記記録の閉鎖等,0,2026-01-14,2026-01-06,有限会社磯口米店,,有限会社,静岡県,駿東郡長泉町,竹原２０９番地の２,,22,342,4110944,,,2026-01-06,清算の結了等,,,2015-10-05,1,,,,,イソグチコメテン,0
1768,7110005014705,登記記録の閉鎖等,0,2026-01-14,2025-12-26,特定非営利活動法人サードフィールドさど,,その他の設立登記法人,新潟県,佐渡市,中原６６６番地,,15,224,9521324,,,2025-12-26,清算の結了等,,,2015-10-05,1,,,,,サードフィールドサド,0
1771,7120001142285,登記記録の閉鎖等,0,2026-01-14,2026-01-05,株式会社厚生,,株式会社,大阪府,大阪市住吉区,苅田７丁目１１番１０号平元ハイツ１Ｆ,,27,120,5580011,,,2026-01-05,合併による解散等,8120001142292,令和８年１月１日大阪市東住吉区北田辺四丁目２２番６号田辺ビル１Ｆ株式会社青葉堂（8120001142292）に合併し解散,2015-10-05,1,,,,,コウセイ,0
1784,7120002036825,登記記録の閉鎖等,0,2026-01-14,2026-01-05,有限会社大船セキュリティ,,有限会社,大阪府,大阪市中央区,久太郎町３丁目４番１２号,,27,128,5410056,,,2026-01-05,合併による解散等,6120001076212,令和８年１月１日大阪市中央区久太郎町四丁目２番１０号グラントラスト株式会社（6120001076212）に合併し解散,2015-10-05,1,,,,,オオフネセキュリティ,0
1786,7120003018450,登記記録の閉鎖等,0,2026-01-14,2026-01-07,ＣａｍｅｌＣａｓｅ合同会社,,合同会社,大阪府,大阪市西淀川区,佃１丁目１番４７－７０６号,,27,113,5550001,,,2026-01-07,清算の結了等,,,2020-11-24,1,,,,,キャメルケース,0
1797,7122002014612,登記記録の閉鎖等,0,2026-01-14,2025-12-26,有限会社ひまわり,,有限会社,大阪府,八尾市,西山本町４丁目１４番２０号ヴィハーラ山本２０２号,,27,212,5810868,,,2025-12-26,清算の結了等,,,2015-10-05,1,,,,,ヒマワリ,0
1803,7140001016628,登記記録の閉鎖等,0,2026-01-14,2026-01-05,株式会社日包コンピユーターサービス,,株式会社,兵庫県,神戸市長田区,大橋町６丁目６番地,,28,106,6530037,,,2026-01-05,合併による解散等,6140001015663,令和８年１月１日神戸市長田区大橋町六丁目６番地浅野紙工印刷株式会社（6140001015663）に合併し解散,2015-10-05,1,,,,,ニッポウコンピユーターサービス,0
1811,7140001090268,登記記録の閉鎖等,0,2026-01-14,2025-12-23,株式会社ニュー協和,,株式会社,兵庫県,神戸市兵庫区,七宮町２丁目３番１１号,,28,105,6520831,,,2025-12-23,清算の結了等,,,2015-10-05,1,,,,,ニューキョウワ,0
1813,7140001123853,登記記録の閉鎖等,0,2026-01-14,2026-01-05,株式会社信和エンジニア,,株式会社,兵庫県,加古川市,平岡町土山１０番地の１０ミツヤビル,,28,210,6750104,,,2026-01-05,清算の結了等,,,2021-11-12,1,,,,,シンワエンジニア,0
1828,7180001090264,登記記録の閉鎖等,0,2026-01-14,2026-01-05,株式会社アルカンシエルプロデュース,,株式会社,愛知県,名古屋市西区,牛島町４番地１,,23,104,4510046,,,2026-01-05,合併による解散等,8180001088712,令和７年１２月３１日名古屋市西区牛島町４番地１株式会社アルカンシエル（8180001088712）に合併し解散,2015-10-05,1,,,,,アルカンシエルプロデュース,0
1838,7190002010815,登記記録の閉鎖等,0,2026-01-14,2026-01-07,有限会社南勢ミート,,有限会社,三重県,度会郡南伊勢町,伊勢路２７４番地,,24,472,5160112,,,2026-01-07,清算の結了等,,,2015-10-05,1,,,,,,0
1846,7200002016661,登記記録の閉鎖等,0,2026-01-14,2026-01-07,有限会社北村商店,,有限会社,岐阜県,加茂郡坂祝町,酒倉１７８１番地の１,,21,501,5050074,,,2026-01-07,清算の結了等,,,2015-10-05,1,,,,,キタムラショウテン,0
1849,7210001020366,登記記録の閉鎖等,0,2026-01-14,2026-01-06,株式会社中野工業社,,株式会社,福井県,吉田郡永平寺町,栃原４５号１８番地,,18,322,9101206,,,2026-01-06,清算の結了等,,,2025-10-29,1,,,,,ナカノコウギョウシャ,0
1857,7240002030097,登記記録の閉鎖等,0,2026-01-14,2025-12-26,株式会社サンパティオすみよし白木,,株式会社,広島県,広島市安佐北区,白木町小越２４１番地,,34,106,7391700,,,2025-12-26,合併による解散等,4240001024706,令和７年１２月２６日広島県安芸高田市甲田町高田原１３７３番地の２株式会社住吉（4240001024706）に合併し解散,2015-10-05,1,,,,,サンパティオスミヨシシラキ,0
1870,7270001002581,登記記録の閉鎖等,0,2026-01-14,2026-01-09,ホンダ山陰中央株式会社,,株式会社,鳥取県,米子市,車尾３丁目３番５８号,,31,202,6830006,,,2026-01-09,合併による解散等,7280001003190,令和８年１月１日島根県出雲市渡橋町１１６６番地１ホンダ中国中央株式会社（7280001003190）に合併し解散,2015-10-05,1,,,,,ホンダサンインチュウオウ,0
1891,7330003004529,登記記録の閉鎖等,0,2026-01-14,2026-01-05,合同会社ふくろうの森,,合同会社,熊本県,熊本市東区,桜木５丁目９番１号,,43,102,8612101,,,2026-01-05,合併による解散等,7330001018290,令和８年１月１日熊本市東区桜木五丁目９番１号株式会社爽やかな風九州（7330001018290）に合併し解散,2015-10-05,1,,,,,フクロウノモリ,0
1893,7350001004917,登記記録の閉鎖等,0,2026-01-14,2026-01-08,千住技研株式会社,,株式会社,宮崎県,宮崎市,佐土原町東上那珂１７８８０番地２５,,45,201,8800303,,,2026-01-08,合併による解散等,4011801009092,令和８年１月１日東京都足立区千住橋戸町２３番地千住金属工業株式会社（4011801009092）に合併し解散,2015-10-05,1,,,,,センジュギケン,0
1904,7390002003154,登記記録の閉鎖等,0,2026-01-14,2026-01-09,有限会社和伊企画,,有限会社,山形県,山形市,青田南１８番１５号,,06,201,9902324,,,2026-01-09,清算の結了等,,,2015-10-05,1,,,,,,0
1909,7430001003308,登記記録の閉鎖等,0,2026-01-14,2026-01-06,乙坂産業株式会社,,株式会社,北海道,札幌市南区,川沿二条２丁目５番３５号,,01,106,0050802,,,2026-01-06,清算の結了等,,,2015-10-05,1,,,,,オツサカサンギョウ,0
1914,7430002056775,登記記録の閉鎖等,0,2026-01-14,2026-01-07,有限会社ロビンズ,,有限会社,北海道,小樽市,堺町１－２７,,01,203,0470027,,,2026-01-07,清算の結了等,,,2015-10-05,1,,,,,ロビンズ,0
1916,7430002064431,登記記録の閉鎖等,0,2026-01-14,2026-01-05,有限会社タカツ鉄建工業,,有限会社,北海道,室蘭市,寿町２丁目１１番１号,,01,205,0500082,,,2026-01-05,清算の結了等,,,2015-10-05,1,,,,,タカツテッケンコウギョウ,0
1917,7430002065611,登記記録の閉鎖等,0,2026-01-14,2026-01-06,有限会社北欧冷機工業,,有限会社,北海道,登別市,登別東町２丁目１５番地７,,01,230,0590464,,,2026-01-06,清算の結了等,,,2015-10-05,1,,,,,ホクオウレイキコウギョウ,0
1923,7490001010595,登記記録の閉鎖等,0,2026-01-14,2026-01-13,エイト株式会社,,株式会社,高知県,高知市,鴨部２丁目３番２２号,,39,201,7808052,,,2026-01-13,清算の結了等,,,2023-09-26,1,,,,,エイト,0
1924,7490005006656,登記記録の閉鎖等,0,2026-01-14,2026-01-13,医療法人ＭＯＣ,,その他の設立登記法人,高知県,高知市,旭駅前町５番地,,39,201,7800938,,,2026-01-13,清算の結了等,,,2019-08-29,1,,,,,モック,0
1947,8010401117054,登記記録の閉鎖等,0,2026-01-14,2026-01-06,株式会社アキモトアソシエイツ,,株式会社,東京都,豊島区,駒込４丁目１４番１７－１０３号,,13,116,1700003,,,2026-01-06,清算の結了等,,,2015-10-05,1,,,,,アキモトアソシエイツ,0
1948,8010401182817,登記記録の閉鎖等,0,2026-01-14,2026-01-09,ＳＯＵ株式会社,,株式会社,東京都,港区,白金６丁目１６番２４号,,13,103,1080072,,,2026-01-09,合併による解散等,2010901056121,令和７年１２月１９日東京都世田谷区代沢三丁目９番１２号株式会社ＧＥＭホールディングス（2010901056121）に合併し解散,2024-05-31,1,,,,,ソウ,0
1956,8010601055665,登記記録の閉鎖等,0,2026-01-14,2026-01-05,株式会社ＭＫ,,株式会社,東京都,江東区,大島１丁目９番１号,,13,108,1360072,,,2026-01-05,清算の結了等,,,2019-06-17,1,,,,,エムケー,0
1996,8012701001929,登記記録の閉鎖等,0,2026-01-14,2025-12-26,モリサキ技研株式会社,,株式会社,東京都,東村山市,萩山町５丁目６番地２２－５０１,,13,213,1890012,,,2025-12-26,清算の結了等,,,2015-10-05,1,,,,,,0
2018,8030001044515,登記記録の閉鎖等,0,2026-01-14,2026-01-06,株式会社サンライズインベストメント,,株式会社,東京都,練馬区,北町２丁目２７番８号,,13,120,1790081,,,2026-01-06,清算の結了等,,,2015-10-05,1,,,,,サンライズインベストメント,0
2019,8030001047831,登記記録の閉鎖等,0,2026-01-14,2026-01-05,株式会社　山久,,株式会社,埼玉県,川越市,大字笠幡４５４８番地２,,11,201,3501175,,,2026-01-05,清算の結了等,,,2015-10-05,1,,,,,ヤマキュウ,0
2031,8030002010136,登記記録の閉鎖等,0,2026-01-14,2025-12-26,有限会社中野自工,,有限会社,埼玉県,さいたま市見沼区,大字膝子２０６番地の１,,11,104,3370021,,,2025-12-26,清算の結了等,,,2015-10-05,1,,,,,ナカノジコウ,0
2032,8030002041354,登記記録の閉鎖等,0,2026-01-14,2026-01-05,有限会社原田光三商店,,有限会社,埼玉県,加須市,大門町１６番２４号,,11,210,3470068,,,2026-01-05,清算の結了等,,,2015-10-05,1,,,,,ハラダミツゾウショウテン,0
2033,8030002044340,登記記録の閉鎖等,0,2026-01-14,2025-12-26,有限会社三友石材,,有限会社,埼玉県,草加市,氷川町２１８０番地３,,11,221,3400034,,,2025-12-26,清算の結了等,,,2015-10-05,1,,,,,サンユウセキザイ,0
2034,8030002047401,登記記録の閉鎖等,0,2026-01-14,2025-12-26,有限会社立花金属工業所,,有限会社,埼玉県,八潮市,大字木曽根５５０番地１,,11,234,3400813,,,2025-12-26,清算の結了等,,,2015-10-05,1,,,,,,0
2045,8040001128671,登記記録の閉鎖等,0,2026-01-14,2025-12-09,金隆実業株式会社,,株式会社,千葉県,船橋市,夏見２丁目１８番１３号アークヒルズ夏見２０２,,12,204,2730865,,,2025-12-09,清算の結了等,,,2023-06-06,1,,,,,キンリュウジツギョウ,0
2052,8050002002585,登記記録の閉鎖等,0,2026-01-14,2026-01-06,有限会社橋本商店,,有限会社,茨城県,水戸市,泉町１丁目４番２９－１０１号（サウスワード泉）,,08,201,3100026,,,2026-01-06,清算の結了等,,,2015-10-05,1,,,,,,0
2053,8050002026725,登記記録の閉鎖等,0,2026-01-14,2025-12-26,有限会社みやざわ,,有限会社,茨城県,鹿嶋市,大字平井字押合１１２８番地の２７８,,08,222,3140012,,,2025-12-26,清算の結了等,,,2015-10-05,1,,,,,ミヤザワ,0
2054,8050002042409,登記記録の閉鎖等,0,2026-01-14,2025-12-26,有限会社平入建設,,有限会社,茨城県,筑西市,一本松２０番地の３,,08,227,3080842,,,2025-12-26,清算の結了等,,,2015-10-05,1,,,,,ヒライリケンセツ,0
2063,8070001038133,登記記録の閉鎖等,0,2026-01-14,2026-01-07,株式会社はるなパートナーズ,,株式会社,群馬県,高崎市,中室田町５９８９番地,,10,202,3703347,,,2026-01-07,清算の結了等,,,2021-06-10,1,,,,,ハルナパートナーズ,0
2065,8070002002906,登記記録の閉鎖等,0,2026-01-14,2026-01-08,有限会社ファクトリー須賀,,有限会社,群馬県,前橋市,天川大島町２丁目１番地の２１,,10,201,3792154,,,2026-01-08,清算の結了等,,,2015-10-05,1,,,,,ファクトリースガ,0
2066,8070002010405,登記記録の閉鎖等,0,2026-01-14,2026-01-06,有限会社昭和工務店,,有限会社,群馬県,高崎市,昭和町２３１番地,,10,202,3700068,,,2026-01-06,清算の結了等,,,2015-10-05,1,,,,,ショウワコウムテン,0
2069,8080001005421,登記記録の閉鎖等,0,2026-01-14,2026-01-07,株式会社山俊市川組,,株式会社,静岡県,静岡市葵区,足久保口組１６３６番地,,22,101,4212124,,,2026-01-07,清算の結了等,,,2015-10-05,1,,,,,ヤマシュンイチカワグミ,0
2071,8080103000824,登記記録の閉鎖等,0,2026-01-14,2026-01-07,熱海観光建設合名会社,,合名会社,静岡県,熱海市,下多賀８９７番地の１,,22,205,4130102,,,2026-01-07,清算の結了等,,,2015-10-05,1,,,,,アタミカンコウケンセツ,0
2078,8110002009244,登記記録の閉鎖等,0,2026-01-14,2025-12-26,有限会社一匠,,有限会社,新潟県,新潟市中央区,関屋大川前１丁目２番８号,,15,103,9518142,,,2025-12-26,清算の結了等,,,2015-10-05,1,,,,,イッショウ,0
2081,8120001074247,登記記録の閉鎖等,0,2026-01-14,2026-01-08,株式会社アレスクリエイション,,株式会社,大阪府,大阪市中央区,常盤町２丁目１番１３号,,27,128,5400028,,,2026-01-08,清算の結了等,,,2015-10-05,1,,,,,アレスクリエイション,0
2083,8120001136617,登記記録の閉鎖等,0,2026-01-14,2026-01-09,日幸印刷株式会社,,株式会社,大阪府,大阪市東成区,東小橋２丁目９番３号,,27,115,5370024,,,2026-01-09,合併による解散等,5120001012382,令和８年１月１日大阪市東成区東小橋二丁目９番３号ザ・パック株式会社（5120001012382）に合併し解散,2015-10-05,1,,,,,ニッコウインサツ,0
2109,8122005001607,登記記録の閉鎖等,0,2026-01-14,2025-12-26,医療法人愛光会竹本クリニック,,その他の設立登記法人,大阪府,大東市,中垣内１丁目３番６号,,27,218,5740013,,,2025-12-26,清算の結了等,,,2015-10-05,1,,,,,アイコウカイタケモトクリニック,0
2112,8130002015026,登記記録の閉鎖等,0,2026-01-14,2026-01-08,有限会社岬屋,,有限会社,京都府,京都市伏見区,桝形町４３２番地の３,,26,109,6128075,,,2026-01-08,清算の結了等,,,2015-10-05,1,,,,,ミサキヤ,0
2119,8140001023771,登記記録の閉鎖等,0,2026-01-14,2026-01-05,株式会社ＳＲＩウィズ,,株式会社,兵庫県,神戸市中央区,筒井町２丁目１番１号,,28,110,6510071,,,2026-01-05,合併による解散等,3140001009404,令和８年１月１日神戸市中央区筒井町二丁目１番１号株式会社ＳＲＩビジネスアソシエイツ（3140001009404）に合併し解散,2015-10-05,1,,,,,エスアールアイウィズ,0
2120,8140001045485,登記記録の閉鎖等,0,2026-01-14,2025-12-15,株式会社梅井建設,,株式会社,兵庫県,高砂市,高砂町鍵町５８３番地の２,,28,216,6760066,,,2025-12-15,清算の結了等,,,2015-10-05,1,,,,,ウメイケンセツ,0
2121,8140001050618,登記記録の閉鎖等,0,2026-01-14,2026-01-05,株式会社朝日オートセンター,,株式会社,兵庫県,西宮市,六湛寺町１番２７号クライスラー西宮ビル２階,,28,204,6620918,,,2026-01-05,合併による解散等,4140001019567,令和８年１月１日神戸市兵庫区西柳原町４番８号株式会社ナック（4140001019567）に合併し解散,2015-10-05,1,,,,,アサヒオートセンター,0
2145,8180001129177,登記記録の閉鎖等,0,2026-01-14,2026-01-07,シバタ工業株式会社,,株式会社,愛知県,春日井市,二子町１丁目５番地２４,,23,206,4860955,,,2026-01-07,清算の結了等,,,2017-08-24,1,,,,,シバタコウギョウ,0
2152,8180002077730,登記記録の閉鎖等,0,2026-01-14,2025-12-26,有限会社三原製作所,,有限会社,愛知県,一宮市,伝法寺８丁目１９番地２５,,23,203,4910828,,,2025-12-26,清算の結了等,,,2015-10-05,1,,,,,ミハラセイサクショ,0
2153,8180003015697,登記記録の閉鎖等,0,2026-01-14,2026-01-05,合同会社エヌアイケイ,,合同会社,愛知県,名古屋市南区,城下町３丁目４９番地４０２号室,,23,112,4570047,,,2026-01-05,清算の結了等,,,2015-10-05,1,,,,,エヌアイケイ,0
2168,8250001003192,登記記録の閉鎖等,0,2026-01-14,2026-01-07,株式会社小高工務店,,株式会社,山口県,宇部市,大字善和字打越１３０３番地,,35,202,7590134,,,2026-01-07,清算の結了等,,,2015-10-05,1,,,,,コダカコウムテン,0
2171,8260002019526,登記記録の閉鎖等,0,2026-01-14,2026-01-08,有限会社田中建鉄工作所,,有限会社,岡山県,倉敷市,新田２９７３番地,,33,202,7100038,,,2026-01-08,清算の結了等,,,2015-10-05,1,,,,,タナカケンテツコウサクショ,0
2181,8290002028086,登記記録の閉鎖等,0,2026-01-14,2025-12-23,有限会社エリアワーク柏原,,有限会社,福岡県,福岡市早良区,賀茂２丁目３４番２４号,,40,137,8140164,,,2025-12-23,清算の結了等,,,2015-10-05,1,,,,,エリアワークカシワラ,0
2182,8290002041493,登記記録の閉鎖等,0,2026-01-14,2025-12-25,ケイオーコーポレーション有限会社,,有限会社,福岡県,春日市,小倉５丁目１７番地１,,40,218,8160824,,,2025-12-25,清算の結了等,,,2015-10-05,1,,,,,ケイオーコーポレーション,0
2192,8350001019055,登記記録の閉鎖等,0,2026-01-14,2026-01-05,株式会社パルレーザー,,株式会社,宮崎県,日向市,大字富高２２番地１０,,45,206,8830034,,,2026-01-05,合併による解散等,7350001011376,令和８年１月１日宮崎県日向市大字財光寺１８０５番地１株式会社アコン（7350001011376）に合併し解散,2024-07-08,1,,,,,パルレーザー,0
2200,8380001001200,登記記録の閉鎖等,0,2026-01-14,2026-01-07,株式会社パティーナ,,株式会社,福島県,福島市,御山字中屋敷５４番地２,,07,201,9608252,,,2026-01-07,清算の結了等,,,2015-10-05,1,,,,,パティーナ,0
2201,8380001009400,登記記録の閉鎖等,0,2026-01-14,2026-01-08,株式会社シンコー,,株式会社,福島県,二本松市,針道字西ノ内３７番地４,,07,210,9640202,,,2026-01-08,清算の結了等,,,2015-10-05,1,,,,,シンコー,0
2212,8430002010450,登記記録の閉鎖等,0,2026-01-14,2026-01-07,有限会社菅原石材工業,,有限会社,北海道,札幌市白石区,北郷七条８丁目６番２０号,,01,104,0030837,,,2026-01-07,清算の結了等,,,2015-10-05,1,,,,,スガワラセキザイコウギョウ,0
2218,9010001061767,登記記録の閉鎖等,0,2026-01-14,2026-01-05,日本アクアポリス株式会社,,株式会社,東京都,江東区,門前仲町１丁目１９番１１号－５１０号,,13,108,1350048,,,2026-01-05,清算の結了等,,,2015-10-05,1,,,,,,0
2220,9010001212238,登記記録の閉鎖等,0,2026-01-14,2026-01-05,株式会社ココホテルズ,,株式会社,東京都,中央区,新川１丁目２３番５号,,13,102,1040033,,,2026-01-05,合併による解散等,5010001128140,令和８年１月１日東京都中央区新川一丁目２３番５号ポラリス・ホールディングス株式会社（5010001128140）に合併し解散,2020-09-14,1,,,,,ココホテルズ,0
2226,9010101013552,登記記録の閉鎖等,0,2026-01-14,2026-01-13,株式会社イワサ,,株式会社,東京都,八王子市,中野山王３丁目３番９号,,13,201,1920042,,,2026-01-13,清算の結了等,,,2018-12-17,1,,,,,イワサ,0
2240,9010402027425,登記記録の閉鎖等,0,2026-01-14,2025-12-17,有限会社舞々亭,,有限会社,東京都,港区,芝５丁目３３番１号,,13,103,1080014,,,2025-12-17,清算の結了等,,,2015-10-05,1,,,,,マイマイテイ,0
2250,9010801005551,登記記録の閉鎖等,0,2026-01-14,2025-12-26,株式会社修栄電設,,株式会社,東京都,大田区,鵜の木１丁目２１番３号,,13,111,1460091,,,2025-12-26,清算の結了等,,,2015-10-05,1,,,,,シュウエイデンセツ,0
2252,9010901028626,登記記録の閉鎖等,0,2026-01-14,2026-01-05,株式会社ＹＵＩ,,株式会社,東京都,世田谷区,上野毛４丁目１３番１３号,,13,112,1580093,,,2026-01-05,合併による解散等,8010901031184,令和８年１月１日東京都世田谷区上野毛四丁目１３番１３号株式会社ソレイユ（8010901031184）に合併し解散,2015-10-05,1,,,,,ユイ,0
2256,9010903008527,登記記録の閉鎖等,0,2026-01-14,2025-12-12,ファンタジーリゾート合同会社,,合同会社,東京都,新宿区,新宿３丁目１２番４号新宿Ｎタウンプラザ３０９号,,13,104,1600022,,,2025-12-12,清算の結了等,,,2023-10-19,1,,,,,ファンタジーリゾート,0
2259,9011001128390,登記記録の閉鎖等,0,2026-01-14,2026-01-13,ＴＨＩＲＤ株式会社,,株式会社,東京都,世田谷区,奥沢５丁目４２番３号２階,,13,112,1580083,,,2026-01-13,清算の結了等,,,2019-06-10,1,,,,,サード,0
2268,9011101082050,登記記録の閉鎖等,0,2026-01-14,2026-01-09,株式会社ＧＩＮＧＡ,,株式会社,岡山県,総社市,秦２３３６－４５,,33,208,7191142,,,2026-01-09,清算の結了等,,,2017-10-20,1,,,,,ギンガ,0
2293,9012302002516,登記記録の閉鎖等,0,2026-01-14,2025-12-19,有限会社邪子,,有限会社,東京都,町田市,木曽東４丁目２８番１９号,,13,209,1940036,,,2025-12-19,清算の結了等,,,2015-10-05,1,,,,,ジャコ,0
2301,9020001088116,登記記録の閉鎖等,0,2026-01-14,2026-01-07,アーニモインベストメント株式会社,,株式会社,新潟県,糸魚川市,大字大和川１２２７番地３,,15,216,9410007,,,2026-01-07,清算の結了等,,,2015-10-05,1,,,,,アーニモインベストメント,0
2306,9020002043425,登記記録の閉鎖等,0,2026-01-14,2025-12-26,有限会社成光通商,,有限会社,神奈川県,横浜市西区,久保町１９－２８,,14,103,2200061,,,2025-12-26,清算の結了等,,,2015-10-05,1,,,,,セイコウツウショウ,0
2315,9030001021587,登記記録の閉鎖等,0,2026-01-14,2026-01-05,株式会社空調服,,株式会社,東京都,板橋区,舟渡１丁目８番３号,,13,119,1740041,,,2026-01-05,合併による解散等,9030001004609,令和８年１月１日東京都板橋区舟渡一丁目８番３号株式会社セフト研究所（9030001004609）に合併し解散,2015-10-05,1,,,,,クウチョウフク,0
2319,9030001101538,登記記録の閉鎖等,0,2026-01-14,2025-12-22,エコハウス不動産株式会社,,株式会社,埼玉県,川越市,新宿町１丁目６番６号,,11,201,3501124,,,2025-12-22,合併による解散等,5030001057478,令和７年１２月２０日埼玉県川越市新宿町一丁目６番６号株式会社エコハウス（5030001057478）に合併し解散,2015-10-05,1,,,,,エコハウスフドウサン,0
2327,9030003007989,登記記録の閉鎖等,0,2026-01-14,2026-01-05,合同会社常リフォーム工房,,合同会社,埼玉県,深谷市,中瀬１３４番地４,,11,218,3660001,,,2026-01-05,清算の結了等,,,2015-10-19,1,,,,,ジョウリフォームコウボウ,0
2343,9060003003390,登記記録の閉鎖等,0,2026-01-14,2026-01-09,かんしょう合同会社,,合同会社,栃木県,宇都宮市,駅前通り２丁目３番１２号ザ・ミレニアムタワー７０１,,09,201,3210964,,,2026-01-09,清算の結了等,,,2020-06-12,1,,,,,カンショウ,0
2351,9080001017102,登記記録の閉鎖等,0,2026-01-14,2026-01-07,株式会社イーケーシー,,株式会社,静岡県,藤枝市,横内２２８３番地,,22,214,4260002,,,2026-01-07,清算の結了等,,,2015-10-05,1,,,,,イーケーシー,0
2362,9110001012710,登記記録の閉鎖等,0,2026-01-14,2026-01-06,株式会社清輪商会,,株式会社,新潟県,新発田市,中央町３丁目４番４号,,15,206,9570053,,,2026-01-06,清算の結了等,,,2015-10-05,1,,,,,セイリンショウカイ,0
2363,9110002028243,登記記録の閉鎖等,0,2026-01-14,2026-01-06,有限会社高野産業,,有限会社,新潟県,長岡市,柏町１丁目１番１８号,,15,202,9400088,,,2026-01-06,清算の結了等,,,2015-10-05,1,,,,,タカノサンギョウ,0
2373,9120001271826,登記記録の閉鎖等,0,2026-01-14,2026-01-05,ａｂｃ株式会社,,株式会社,大阪府,大阪市中央区,森ノ宮中央２丁目１１－６シュライン森之宮４０６号,,27,128,5400003,,,2026-01-05,清算の結了等,,,2025-01-10,1,,,,,エービーシー,0
2382,9120102014613,登記記録の閉鎖等,0,2026-01-14,2026-01-05,有限会社萬利堂,,有限会社,大阪府,松原市,天美南４丁目１２番１３号,,27,217,5800033,,,2026-01-05,清算の結了等,,,2015-10-05,1,,,,,マンリドウ,0
2390,9130001068288,登記記録の閉鎖等,0,2026-01-14,2026-01-08,株式会社手島製材所,,株式会社,京都府,京都市右京区,梅ケ畑畑町８,,26,108,6168265,,,2026-01-08,清算の結了等,,,2020-12-24,1,,,,,テシマセイザイショ,0
2402,9150001013523,登記記録の閉鎖等,0,2026-01-14,2026-01-13,ムラタ産業株式会社,,株式会社,奈良県,葛城市,北花内６１８番地,,29,211,6392113,,,2026-01-13,清算の結了等,,,2015-10-05,1,,,,,ムラタサンギョウ,0
2408,9180001057245,登記記録の閉鎖等,0,2026-01-14,2026-01-07,岡村都市開発株式会社,,株式会社,愛知県,名古屋市中川区,五女子２丁目３番８号,,23,110,4540033,,,2026-01-07,清算の結了等,,,2015-10-05,1,,,,,オカムラトシカイハツ,0
2422,9180005007477,登記記録の閉鎖等,0,2026-01-14,2026-01-05,木曽御嶽本教心願教会長久手支部,,その他の設立登記法人,愛知県,長久手市,喜婦嶽３１６番地,,23,238,4801117,,,2026-01-05,清算の結了等,,,2015-10-05,1,,,,,キソオンタケホンキョウシンガンキョウカイナガクテシブ,0
2438,9190003002066,登記記録の閉鎖等,0,2026-01-14,2026-01-07,合同会社十三屋,,合同会社,三重県,鈴鹿市,中江島町１２番６号サンビレッジ白子Ｃ－１０１,,24,207,5100236,,,2026-01-07,清算の結了等,,,2015-10-05,1,,,,,トミヤ,0
2444,9240002023850,登記記録の閉鎖等,0,2026-01-14,2026-01-07,有限会社アドネス,,有限会社,広島県,広島市佐伯区,五日市６丁目４番８２号,,34,108,7315127,,,2026-01-07,清算の結了等,,,2015-10-05,1,,,,,アドネス,0
2451,9260002011416,登記記録の閉鎖等,0,2026-01-14,2026-01-07,有限会社堀本建設工業,,有限会社,岡山県,赤磐市,由津里２３１６番地１,,33,213,7012226,,,2026-01-07,清算の結了等,,,2015-10-05,1,,,,,ホリモトケンセツコウギョウ,0
2462,9310002011443,登記記録の閉鎖等,0,2026-01-14,2026-01-09,有限会社ベエニス友の会,,有限会社,長崎県,佐世保市,常盤町７番１８号,,42,202,8570053,,,2026-01-09,清算の結了等,,,2015-10-05,1,,,,,ベエニストモノカイ,0
2469,9340001000015,登記記録の閉鎖等,0,2026-01-14,2025-12-25,株式会社アクト,,株式会社,鹿児島県,鹿児島市,西別府町２９４１番地３７,,46,201,8900033,,,2025-12-25,清算の結了等,,,2015-10-05,1,,,,,アクト,0
2471,9350001010921,登記記録の閉鎖等,0,2026-01-14,2026-01-05,株式会社ひむか警備,,株式会社,宮崎県,西臼杵郡五ヶ瀬町,大字三ヶ所９４７４番地,,45,443,8821203,,,2026-01-05,清算の結了等,,,2015-10-05,1,,,,,ヒムカケイビ,0
2481,9380001006900,登記記録の閉鎖等,0,2026-01-14,2026-01-08,株式会社横山鋼業,,株式会社,福島県,郡山市,田村町上行合字下川原８４番地１,,07,203,9630724,,,2026-01-08,清算の結了等,,,2015-10-05,1,,,,,,0
2482,9380001015249,登記記録の閉鎖等,0,2026-01-14,2026-01-08,株式会社坂倉出版,,株式会社,福島県,いわき市,平赤井字反町１０番地の１２,,07,204,9793131,,,2026-01-08,清算の結了等,,,2015-10-05,1,,,,,,0
2489,9410001000049,登記記録の閉鎖等,0,2026-01-14,2026-01-09,旭ユニット株式会社,,株式会社,秋田県,秋田市,寺内字イサノ９５番地１,,05,201,0110901,,,2026-01-09,清算の結了等,,,2015-10-05,1,,,,,アサヒユニット,0
2492,9420001005427,登記記録の閉鎖等,0,2026-01-14,2026-01-06,株式会社高橋教文堂,00087310,株式会社,青森県,青森市,大字駒込字月見野３６６番２号,,02,201,0300954,,,2026-01-06,清算の結了等,,,2015-10-05,1,,,,,タカハシキョウブンドウ,0
2508,9450001011182,登記記録の閉鎖等,0,2026-01-14,2026-01-08,株式会社クリア旭川,,株式会社,北海道,旭川市,豊岡十四条６丁目１番１９号,,01,204,0788244,,,2026-01-08,清算の結了等,,,2015-10-05,1,,,,,クリアアサヒカワ,0
2512,9470001009299,登記記録の閉鎖等,0,2026-01-14,2026-01-07,ピュアフーズ株式会社,,株式会社,香川県,坂出市,沖の浜１番３４号,,37,203,7620052,,,2026-01-07,合併による解散等,9470001008994,令和８年１月１日香川県坂出市加茂町１３７０番地さぬき丸一製麺株式会社（9470001008994）に合併し解散,2015-10-05,1,,,,,ピュアフーズ,0
