sequenceNumber,corporateNumber,process,correct,updateDate,changeDate,name,nameImageId,kind,prefectureName,cityName,streetNumber,addressImageId,prefectureCode,cityCode,postCode,addressOutside,addressOutsideImageId,closeDate,closeCause,successorCorporateNumber,changeCause,assignmentDate,latest,enName,enPrefectureName,enCityName,enAddressOutside,furigana,hihyoji
2,1010001031686,登記記録の閉鎖等,0,2023-01-25,2023-01-16,株式会社吉安,,株式会社,東京都,千代田区,岩本町２丁目１番１５号,,13,101,1010032,,,2023-01-16,清算の結了等,,,2015-10-05,1,,,,,,0
3,1010001047303,登記記録の閉鎖等,0,2023-01-25,2023-01-16,株式会社晋愛商會,,株式会社,東京都,中央区,日本橋浜町１丁目５番９号,,13,102,1030007,,,2023-01-16,清算の結了等,,,2015-10-05,1,,,,,,0
26,1010401164961,登記記録の閉鎖等,0,2023-01-25,2023-01-06,株式会社Ｒｏｙａｌ　Ｈｏｕｓｅ　Ｋｅｙ,,株式会社,東京都,港区,南青山６丁目２番９号ＫＳビル２Ｆ,,13,103,1070062,,,2023-01-06,清算の結了等,,,2022-01-20,1,,,,,ロイヤルハウスキー,0
35,1010501001321,登記記録の閉鎖等,0,2023-01-25,2023-01-17,栄都商事株式会社,,株式会社,東京都,台東区,浅草１丁目５番９号,,13,106,1110032,,,2023-01-17,清算の結了等,,,2022-07-26,1,,,,,,0
47,1010905003483,登記記録の閉鎖等,0,2023-01-25,2023-01-19,一般社団法人安正,,その他の設立登記法人,東京都,世田谷区,羽根木１丁目２１番２７号亀甲新ろ棟５７,,13,112,1560042,,,2023-01-19,清算の結了等,,,2017-11-06,1,,,,,アタマサ,0
58,1011101003014,登記記録の閉鎖等,0,2023-01-25,2023-01-25,株式会社エス・ケイ・ワイ,,株式会社,東京都,新宿区,内藤町１番地１２１号,,13,104,1600014,,,2023-01-25,登記官による閉鎖,,,2015-10-05,1,,,,,,0
59,1011101014523,登記記録の閉鎖等,0,2023-01-25,2023-01-25,利根食品工業株式会社,,株式会社,東京都,新宿区,高田馬場１丁目５番１７号,,13,104,1690075,,,2023-01-25,登記官による閉鎖,,,2015-10-05,1,,,,,,0
61,1011101043539,登記記録の閉鎖等,0,2023-01-25,2023-01-25,株式会社アクト,,株式会社,東京都,新宿区,北新宿３丁目５番２５号,,13,104,1690074,,,2023-01-25,登記官による閉鎖,,,2015-10-05,1,,,,,,0
62,1011101053505,登記記録の閉鎖等,0,2023-01-25,2023-01-25,株式会社自然エネルギー研究所,,株式会社,東京都,新宿区,下落合３丁目１７番４２号,,13,104,1610033,,,2023-01-25,登記官による閉鎖,,,2015-10-05,1,,,,,,0
63,1011101058306,登記記録の閉鎖等,0,2023-01-25,2023-01-25,株式会社一番フードサービス,,株式会社,東京都,新宿区,歌舞伎町１丁目２２番８号小島屋ビル２階,,13,104,1600021,,,2023-01-25,登記官による閉鎖,,,2015-10-05,1,,,,,,0
64,1011101058628,登記記録の閉鎖等,0,2023-01-25,2023-01-25,株式会社己斐中ジャパン,,株式会社,東京都,新宿区,西早稲田３丁目８番１５号,,13,104,1690051,,,2023-01-25,登記官による閉鎖,,,2015-10-05,1,,,,,,0
66,1011101060105,登記記録の閉鎖等,0,2023-01-25,2023-01-25,株式会社エクシア,,株式会社,東京都,新宿区,歌舞伎町２丁目２５－８－４３０,,13,104,1600021,,,2023-01-25,登記官による閉鎖,,,2015-10-05,1,,,,,,0
70,1011102000175,登記記録の閉鎖等,0,2023-01-25,2023-01-25,有限会社アート・ワーク,,有限会社,東京都,新宿区,新宿１丁目２４番１－４１２号,,13,104,1600022,,,2023-01-25,登記官による閉鎖,,,2015-10-05,1,,,,,,0
71,1011102000976,登記記録の閉鎖等,0,2023-01-25,2023-01-25,有限会社池田板金加工所,,有限会社,東京都,新宿区,新宿７丁目１８番４号,,13,104,1600022,,,2023-01-25,登記官による閉鎖,,,2015-10-05,1,,,,,,0
72,1011102001306,登記記録の閉鎖等,0,2023-01-25,2023-01-25,有限会社今井,,有限会社,東京都,新宿区,榎町５０番地,,13,104,1620806,,,2023-01-25,登記官による閉鎖,,,2015-10-05,1,,,,,,0
73,1011102003707,登記記録の閉鎖等,0,2023-01-25,2023-01-25,協藤電気有限会社,,有限会社,東京都,新宿区,原町１丁目２０番地,,13,104,1620053,,,2023-01-25,登記官による閉鎖,,,2015-10-05,1,,,,,,0
74,1011102026138,登記記録の閉鎖等,0,2023-01-25,2023-01-25,有限会社Ｉ．Ｓ．コーポレーション,,有限会社,東京都,新宿区,大久保３丁目１０番１号Ｂ８３５,,13,104,1690072,,,2023-01-25,登記官による閉鎖,,,2015-10-05,1,,,,,,0
75,1011103002955,登記記録の閉鎖等,0,2023-01-25,2023-01-25,合同会社イースト,,合同会社,東京都,新宿区,新宿２丁目１２番１６号,,13,104,1600022,,,2023-01-25,登記官による閉鎖,,,2015-10-05,1,,,,,,0
76,1011103004134,登記記録の閉鎖等,0,2023-01-25,2023-01-25,合同会社ＫＰＣ,,合同会社,東京都,新宿区,西落合１丁目３０番１９号,,13,104,1610031,,,2023-01-25,登記官による閉鎖,,,2015-10-05,1,,,,,,0
77,1011105001617,登記記録の閉鎖等,0,2023-01-25,2023-01-25,特定非営利活動法人日本カイロプラクティックドクター協会,,その他の設立登記法人,東京都,新宿区,百人町１丁目２２番２０号日本カイロプラクティックドクター専門学校一号館,,13,104,1690073,,,2023-01-25,登記官による閉鎖,,,2015-10-05,1,,,,,,0
78,1011105002598,登記記録の閉鎖等,0,2023-01-25,2023-01-25,特定非営利活動法人日中東北経済振興会,,その他の設立登記法人,東京都,新宿区,百人町１丁目１１番３１号,,13,104,1690073,,,2023-01-25,登記官による閉鎖,,,2015-10-05,1,,,,,,0
83,1011402005345,登記記録の閉鎖等,0,2023-01-25,2023-01-25,有限会社大黒電業社,,有限会社,神奈川県,川崎市麻生区,王禅寺西７丁目１７番２５号,,14,137,2150017,,,2023-01-25,登記官による閉鎖,,,2015-10-05,1,,,,,,0
102,1020001000129,登記記録の閉鎖等,0,2023-01-25,2023-01-25,協立医療株式会社,,株式会社,神奈川県,横浜市磯子区,原町９番９号,,14,107,2350008,,,2023-01-25,登記官による閉鎖,,,2015-10-05,1,,,,,,0
103,1020001001837,登記記録の閉鎖等,0,2023-01-25,2023-01-25,宇路建設株式会社,,株式会社,神奈川県,横浜市緑区,長津田町５２８８番地１,,14,113,2260026,,,2023-01-25,登記官による閉鎖,,,2015-10-05,1,,,,,,0
104,1020001008023,登記記録の閉鎖等,0,2023-01-25,2023-01-25,平和通信工業株式会社,,株式会社,神奈川県,横浜市戸塚区,戸塚町３９４４番地,,14,110,2440003,,,2023-01-25,登記官による閉鎖,,,2015-10-05,1,,,,,,0
105,1020001013691,登記記録の閉鎖等,0,2023-01-25,2023-01-25,株式会社フジ商会,,株式会社,神奈川県,横浜市南区,榎町２丁目４１番地ライオンズマンション蒔田３０１,,14,105,2320044,,,2023-01-25,登記官による閉鎖,,,2015-10-05,1,,,,,,0
106,1020001014095,登記記録の閉鎖等,0,2023-01-25,2023-01-23,株式会社あいちや,,株式会社,神奈川県,横浜市保土ケ谷区,常盤台８６番１－１１０１号,,14,106,2400067,,,2023-01-23,清算の結了等,,,2015-10-05,1,,,,,アイチヤ,0
107,1020001019433,登記記録の閉鎖等,0,2023-01-25,2023-01-25,ハッピィブライダル株式会社,,株式会社,神奈川県,横浜市港北区,菊名７丁目１８番４３号,,14,109,2220011,,,2023-01-25,登記官による閉鎖,,,2015-10-05,1,,,,,,0
108,1020001020647,登記記録の閉鎖等,0,2023-01-25,2023-01-25,住友企画株式会社,,株式会社,神奈川県,横浜市港北区,日吉本町４丁目１番５５号,,14,109,2230062,,,2023-01-25,登記官による閉鎖,,,2015-10-05,1,,,,,,0
109,1020001054926,登記記録の閉鎖等,0,2023-01-25,2023-01-25,東横住販株式会社,,株式会社,神奈川県,横浜市中区,常盤町２丁目１０番地,,14,104,2310014,,,2023-01-25,登記官による閉鎖,,,2015-10-05,1,,,,,,0
110,1020001067077,登記記録の閉鎖等,0,2023-01-25,2023-01-25,株式会社宮村建設,,株式会社,神奈川県,川崎市高津区,子母口５４２番地,,14,134,2130023,,,2023-01-25,登記官による閉鎖,,,2015-10-05,1,,,,,,0
111,1020001069858,登記記録の閉鎖等,0,2023-01-25,2023-01-25,南部管工事株式会社,,株式会社,神奈川県,川崎市中原区,市ノ坪５４８番地１５,,14,133,2110016,,,2023-01-25,登記官による閉鎖,,,2015-10-05,1,,,,,,0
112,1020001076169,登記記録の閉鎖等,0,2023-01-25,2023-01-25,サンシルバー株式会社,,株式会社,神奈川県,川崎市多摩区,登戸３３７０番地３,,14,135,2140014,,,2023-01-25,登記官による閉鎖,,,2015-10-05,1,,,,,,0
113,1020001079618,登記記録の閉鎖等,0,2023-01-25,2023-01-25,株式会社ＡＴＨ,,株式会社,神奈川県,川崎市川崎区,駅前本町４番地９,,14,131,2100007,,,2023-01-25,登記官による閉鎖,,,2015-10-05,1,,,,,,0
114,1020001081383,登記記録の閉鎖等,0,2023-01-25,2023-01-25,株式会社ＨＩＫＡＲＩ　ＫＡＷＡＳＡＫＩ,,株式会社,神奈川県,川崎市川崎区,渡田１丁目１番１号,,14,131,2100837,,,2023-01-25,登記官による閉鎖,,,2015-10-05,1,,,,,,0
116,1020001088049,登記記録の閉鎖等,0,2023-01-25,2023-01-25,株式会社ＭＣＴ,,株式会社,神奈川県,横浜市青葉区,恩田町１０５３番地,,14,117,2270065,,,2023-01-25,登記官による閉鎖,,,2015-10-05,1,,,,,,0
117,1020001088552,登記記録の閉鎖等,0,2023-01-25,2023-01-25,株式会社ヒカリエ,,株式会社,神奈川県,横浜市都筑区,荏田南５丁目８番１５号,,14,118,2240007,,,2023-01-25,登記官による閉鎖,,,2015-10-05,1,,,,,,0
118,1020001089047,登記記録の閉鎖等,0,2023-01-25,2023-01-25,株式会社大門,,株式会社,神奈川県,横浜市港南区,日野３丁目４番１４－５１０号,,14,111,2340051,,,2023-01-25,登記官による閉鎖,,,2015-10-05,1,,,,,,0
119,1020001089294,登記記録の閉鎖等,0,2023-01-25,2023-01-25,株式会社スマイル・ユー,,株式会社,神奈川県,川崎市川崎区,池上町１０番１号,,14,131,2100864,,,2023-01-25,登記官による閉鎖,,,2015-10-05,1,,,,,,0
121,1020002001687,登記記録の閉鎖等,0,2023-01-25,2023-01-25,有限会社土屋書店,,有限会社,神奈川県,横浜市瀬谷区,南台２丁目１４番地の４,,14,114,2460032,,,2023-01-25,登記官による閉鎖,,,2015-10-05,1,,,,,,0
122,1020002010713,登記記録の閉鎖等,0,2023-01-25,2023-01-25,有限会社丸茂商事,,有限会社,神奈川県,横浜市磯子区,田中１丁目２４番７号,,14,107,2350035,,,2023-01-25,登記官による閉鎖,,,2015-10-05,1,,,,,,0
123,1020002015191,登記記録の閉鎖等,0,2023-01-25,2023-01-25,有限会社橋本ガラス,,有限会社,神奈川県,横浜市青葉区,荏田西３丁目１４番地５,,14,117,2250014,,,2023-01-25,登記官による閉鎖,,,2015-10-05,1,,,,,,0
124,1020002026296,登記記録の閉鎖等,0,2023-01-25,2023-01-25,有限会社大国,,有限会社,神奈川県,横浜市神奈川区,反町１丁目７番１号,,14,102,2210825,,,2023-01-25,登記官による閉鎖,,,2015-10-05,1,,,,,,0
125,1020002034373,登記記録の閉鎖等,0,2023-01-25,2023-01-25,有限会社清和,,有限会社,神奈川県,横浜市港北区,新吉田町４６０３番地,,14,109,2230056,,,2023-01-25,登記官による閉鎖,,,2015-10-05,1,,,,,,0
126,1020002040636,登記記録の閉鎖等,0,2023-01-25,2023-01-24,有限会社山口塗装,,有限会社,神奈川県,横浜市鶴見区,向井町４丁目８８番地２９,,14,101,2300037,,,2023-01-24,清算の結了等,,,2015-10-05,1,,,,,ヤマグチトソウ,0
127,1020002041956,登記記録の閉鎖等,0,2023-01-25,2023-01-25,有限会社関内岩亀,,有限会社,神奈川県,横浜市中区,住吉町５丁目５８番地,,14,104,2310013,,,2023-01-25,登記官による閉鎖,,,2015-10-05,1,,,,,,0
128,1020002044604,登記記録の閉鎖等,0,2023-01-25,2023-01-25,有限会社妃,,有限会社,神奈川県,横浜市中区,麦田町４丁目１０６番地,,14,104,2310849,,,2023-01-25,登記官による閉鎖,,,2015-10-05,1,,,,,,0
129,1020002048761,登記記録の閉鎖等,0,2023-01-25,2023-01-25,有限会社キタジマ,,有限会社,神奈川県,横浜市神奈川区,松ケ丘３９番地の４,,14,102,2210843,,,2023-01-25,登記官による閉鎖,,,2015-10-05,1,,,,,,0
130,1020002050833,登記記録の閉鎖等,0,2023-01-25,2023-01-25,有限会社エナジー,,有限会社,神奈川県,横浜市南区,花之木町１丁目９番地の１７,,14,105,2320018,,,2023-01-25,登記官による閉鎖,,,2015-10-05,1,,,,,,0
131,1020002050965,登記記録の閉鎖等,0,2023-01-25,2023-01-25,有限会社湘南ユニット,,有限会社,神奈川県,横浜市旭区,西川島町１０７番地１,,14,112,2410012,,,2023-01-25,登記官による閉鎖,,,2015-10-05,1,,,,,,0
132,1020002054710,登記記録の閉鎖等,0,2023-01-25,2023-01-25,有限会社アイビーシーリング,,有限会社,神奈川県,横浜市保土ケ谷区,天王町１丁目８番地の６,,14,106,2400003,,,2023-01-25,登記官による閉鎖,,,2015-10-05,1,,,,,,0
133,1020002061780,登記記録の閉鎖等,0,2023-01-25,2023-01-25,有限会社タグチリビングテック,,有限会社,神奈川県,横浜市青葉区,鉄町５０９－２２,,14,117,2250025,,,2023-01-25,登記官による閉鎖,,,2015-10-05,1,,,,,,0
134,1020002080120,登記記録の閉鎖等,0,2023-01-25,2023-01-25,有限会社エムケーフラワー,,有限会社,神奈川県,横浜市神奈川区,七島町５番地１０,,14,102,2210061,,,2023-01-25,登記官による閉鎖,,,2015-10-05,1,,,,,,0
135,1020002090219,登記記録の閉鎖等,0,2023-01-25,2023-01-25,有限会社菅生電気商会,,有限会社,神奈川県,川崎市宮前区,菅生３丁目３番１号,,14,136,2160015,,,2023-01-25,登記官による閉鎖,,,2015-10-05,1,,,,,,0
136,1020002090490,登記記録の閉鎖等,0,2023-01-25,2023-01-25,有限会社プロクレエ,,有限会社,神奈川県,川崎市高津区,子母口７６０番地,,14,134,2130023,,,2023-01-25,登記官による閉鎖,,,2015-10-05,1,,,,,,0
137,1020002093709,登記記録の閉鎖等,0,2023-01-25,2023-01-25,有限会社リーデック,,有限会社,神奈川県,川崎市多摩区,宿河原４丁目１３番１０号,,14,135,2140021,,,2023-01-25,登記官による閉鎖,,,2015-10-05,1,,,,,,0
138,1020002094590,登記記録の閉鎖等,0,2023-01-25,2023-01-25,有限会社棚橋智,,有限会社,神奈川県,川崎市麻生区,上麻生１０６４番１号,,14,137,2150021,,,2023-01-25,登記官による閉鎖,,,2015-10-05,1,,,,,,0
140,1020002103450,登記記録の閉鎖等,0,2023-01-25,2023-01-25,有限会社高野,,有限会社,神奈川県,川崎市中原区,市ノ坪１８０番地３ビッグヴァンステイツ武蔵小杉２０７,,14,133,2110016,,,2023-01-25,登記官による閉鎖,,,2015-10-05,1,,,,,,0
141,1020002106676,登記記録の閉鎖等,0,2023-01-25,2023-01-25,有限会社エヌ・アール・デザイン・オフィス,,有限会社,神奈川県,川崎市多摩区,枡形２丁目２３番１号インサイドエムズ１０５号,,14,135,2140032,,,2023-01-25,登記官による閉鎖,,,2015-10-05,1,,,,,,0
142,1020003000457,登記記録の閉鎖等,0,2023-01-25,2023-01-25,合資会社誠信堂書店,,合資会社,神奈川県,横浜市磯子区,汐見台１丁目６番地,,14,107,2350022,,,2023-01-25,登記官による閉鎖,,,2015-10-05,1,,,,,,0
143,1020003002726,登記記録の閉鎖等,0,2023-01-25,2023-01-25,合資会社阪間自動車修理工場,,合資会社,神奈川県,横浜市戸塚区,戸塚町３８１０番地,,14,110,2440003,,,2023-01-25,登記官による閉鎖,,,2015-10-05,1,,,,,,0
144,1020003004598,登記記録の閉鎖等,0,2023-01-25,2023-01-25,合同会社イージートラスト,,合同会社,神奈川県,横浜市港北区,新横浜１丁目１６番地４,,14,109,2220033,,,2023-01-25,登記官による閉鎖,,,2015-10-05,1,,,,,,0
145,1020003004615,登記記録の閉鎖等,0,2023-01-25,2023-01-25,合同会社ＫＵＭＥＲＡ,,合同会社,神奈川県,横浜市泉区,和泉町３６７８番地２パークヒルいずみ中央Ｂ－１０１,,14,116,2450016,,,2023-01-25,登記官による閉鎖,,,2015-10-05,1,,,,,,0
148,1020003014795,登記記録の閉鎖等,0,2023-01-25,2023-01-16,合同会社カメカリ,,合同会社,東京都,渋谷区,神宮前６丁目２３番４号桑野ビル２階,,13,113,1500001,,,2023-01-16,清算の結了等,,,2018-08-27,1,,,,,カメカリ,0
150,1020005004588,登記記録の閉鎖等,0,2023-01-25,2023-01-25,特定非営利活動法人ＮＰＯ総務部,,その他の設立登記法人,神奈川県,横浜市中区,山下町１番地シルクセンタービル,,14,104,2310023,,,2023-01-25,登記官による閉鎖,,,2015-10-05,1,,,,,,0
151,1020005004654,登記記録の閉鎖等,0,2023-01-25,2023-01-25,住宅建設共栄会協同組合,,その他の設立登記法人,神奈川県,横浜市都筑区,早渕１丁目２８番２１号,,14,118,2240025,,,2023-01-25,登記官による閉鎖,,,2015-10-05,1,,,,,,0
153,1021001074476,登記記録の閉鎖等,0,2023-01-25,2023-01-06,株式会社Ｍラボ,,株式会社,神奈川県,中郡大磯町,国府本郷８６３番地８,,14,341,2590111,,,2023-01-06,合併による解散等,1021001070054,令和４年１１月２８日神奈川県藤沢市藤沢５４８番地の１ｒｅｌａｘ　ｔｏｋｙｏ株式会社（1021001070054）に合併し解散,2021-11-18,1,,,,,エムラボ,0
185,1050002041722,登記記録の閉鎖等,0,2023-01-25,2023-01-18,有限会社松本精機,,有限会社,茨城県,牛久市,ひたち野東３丁目３３番地５,,08,219,3001207,,,2023-01-18,清算の結了等,,,2015-10-05,1,,,,,マツモトセイキ,0
189,1070001011971,登記記録の閉鎖等,0,2023-01-25,2023-01-25,大和茶屋株式会社,,株式会社,群馬県,甘楽郡甘楽町,大字小幡６３４番地,,10,384,3702202,,,2023-01-25,登記官による閉鎖,,,2015-10-05,1,,,,,,0
190,1070001012508,登記記録の閉鎖等,0,2023-01-25,2023-01-25,株式会社テーオー工業,,株式会社,群馬県,藤岡市,立石新田２６番地,,10,209,3750003,,,2023-01-25,登記官による閉鎖,,,2015-10-05,1,,,,,,0
191,1070001013836,登記記録の閉鎖等,0,2023-01-25,2023-01-25,和伸工業株式会社,,株式会社,群馬県,伊勢崎市,韮塚町４５９番地４,,10,204,3720813,,,2023-01-25,登記官による閉鎖,,,2015-10-05,1,,,,,,0
192,1070001020931,登記記録の閉鎖等,0,2023-01-25,2023-01-25,株式会社サポートプラス,,株式会社,群馬県,太田市,下浜田町１０８７番地７,,10,205,3730821,,,2023-01-25,登記官による閉鎖,,,2015-10-05,1,,,,,,0
193,1070001026202,登記記録の閉鎖等,0,2023-01-25,2023-01-25,株式会社ＯＳＭ,,株式会社,群馬県,太田市,山之神町６２３番地５,,10,205,3792302,,,2023-01-25,登記官による閉鎖,,,2015-10-05,1,,,,,,0
195,1070002000981,登記記録の閉鎖等,0,2023-01-25,2023-01-25,有限会社エルム,,有限会社,群馬県,前橋市,若宮町４丁目３０番３号,,10,201,3710032,,,2023-01-25,登記官による閉鎖,,,2015-10-05,1,,,,,,0
196,1070002001311,登記記録の閉鎖等,0,2023-01-25,2023-01-25,有限会社鹿子島兄弟工業,,有限会社,群馬県,前橋市,住吉町２丁目２番１４号,,10,201,3710021,,,2023-01-25,登記官による閉鎖,,,2015-10-05,1,,,,,,0
198,1070002018958,登記記録の閉鎖等,0,2023-01-25,2023-01-25,有限会社三栄不動産,,有限会社,群馬県,伊勢崎市,昭和町４０１５番地２,,10,204,3720014,,,2023-01-25,登記官による閉鎖,,,2015-10-05,1,,,,,,0
199,1070002023834,登記記録の閉鎖等,0,2023-01-25,2023-01-25,有限会社須永電子,,有限会社,群馬県,桐生市,東７丁目１番２９号,,10,203,3760034,,,2023-01-25,登記官による閉鎖,,,2015-10-05,1,,,,,,0
200,1070002026779,登記記録の閉鎖等,0,2023-01-25,2023-01-25,福島石油有限会社,,有限会社,群馬県,渋川市,祖母島１１９２番地の３,,10,208,3770024,,,2023-01-25,登記官による閉鎖,,,2015-10-05,1,,,,,,0
201,1070002027059,登記記録の閉鎖等,0,2023-01-25,2023-01-25,有限会社綿貫建材,,有限会社,群馬県,渋川市,渋川元町５３１番地２,,10,208,3770008,,,2023-01-25,登記官による閉鎖,,,2015-10-05,1,,,,,,0
202,1070002028908,登記記録の閉鎖等,0,2023-01-25,2023-01-25,群馬工芸有限会社,,有限会社,群馬県,邑楽郡邑楽町,大字新中野１３０番地９,,10,525,3700612,,,2023-01-25,登記官による閉鎖,,,2015-10-05,1,,,,,,0
203,1070002029377,登記記録の閉鎖等,0,2023-01-25,2023-01-25,有限会社山藤建材,,有限会社,群馬県,太田市,新田市町１８番地５,,10,205,3700304,,,2023-01-25,登記官による閉鎖,,,2015-10-05,1,,,,,,0
204,1070002032612,登記記録の閉鎖等,0,2023-01-25,2023-01-25,有限会社亀菊,,有限会社,群馬県,太田市,新田早川町５４８番地,,10,205,3700344,,,2023-01-25,登記官による閉鎖,,,2015-10-05,1,,,,,,0
205,1070002033429,登記記録の閉鎖等,0,2023-01-25,2023-01-25,有限会社サンエイ,,有限会社,群馬県,館林市,加法師町５番４４号,,10,207,3740022,,,2023-01-25,登記官による閉鎖,,,2015-10-05,1,,,,,,0
206,1070002033890,登記記録の閉鎖等,0,2023-01-25,2023-01-25,有限会社ホテルみさわ,,有限会社,群馬県,館林市,成島町１２５４番地の１７,,10,207,3740055,,,2023-01-25,登記官による閉鎖,,,2015-10-05,1,,,,,,0
207,1070002034113,登記記録の閉鎖等,0,2023-01-25,2023-01-25,有限会社わたなべコーポレーション,,有限会社,群馬県,館林市,美園町２２番１５号,,10,207,3740039,,,2023-01-25,登記官による閉鎖,,,2015-10-05,1,,,,,,0
208,1070005001762,登記記録の閉鎖等,0,2023-01-25,2023-01-25,ＮＰＯ法人フロンティア,,その他の設立登記法人,群馬県,前橋市,元総社町１丁目８番地１９,,10,201,3710846,,,2023-01-25,登記官による閉鎖,,,2015-10-05,1,,,,,,0
209,1070005004600,登記記録の閉鎖等,0,2023-01-25,2023-01-25,特定非営利活動法人県央都市ネットワーク,,その他の設立登記法人,群馬県,伊勢崎市,八坂町８番地９,,10,204,3720044,,,2023-01-25,登記官による閉鎖,,,2015-10-05,1,,,,,,0
210,1070005004682,登記記録の閉鎖等,0,2023-01-25,2023-01-25,両毛人材支援企業組合,,その他の設立登記法人,群馬県,伊勢崎市,連取町１２２７番地２,,10,204,3720812,,,2023-01-25,登記官による閉鎖,,,2015-10-05,1,,,,,,0
211,1070005006480,登記記録の閉鎖等,0,2023-01-25,2023-01-25,東毛ハイテクノロジー協同組合,,その他の設立登記法人,群馬県,邑楽郡大泉町,西小泉３丁目９番１０号,,10,524,3700517,,,2023-01-25,登記官による閉鎖,,,2015-10-05,1,,,,,,0
212,1070005008213,登記記録の閉鎖等,0,2023-01-25,2023-01-25,金剛院,,その他の設立登記法人,群馬県,吾妻郡東吾妻町,大字原町４１５７番地,,10,429,3770801,,,2023-01-25,登記官による閉鎖,,,2015-10-05,1,,,,,,0
220,1120001000291,登記記録の閉鎖等,0,2023-01-25,2023-01-23,カナエエンジニアリング株式会社,,株式会社,大阪府,大阪市中央区,城見１丁目２番２７号,,27,128,5400001,,,2023-01-23,合併による解散等,7120001000278,令和５年１月２１日大阪市中央区城見一丁目２番２７号株式会社カナエ（7120001000278）に合併し解散,2015-10-05,1,,,,,カナエエンジニアリング,0
229,1120001186627,登記記録の閉鎖等,0,2023-01-25,2023-01-24,株式会社ジャイナコーポレイション,,株式会社,大阪府,大阪市鶴見区,諸口３丁目５番１６,,27,124,5380051,,,2023-01-24,清算の結了等,,,2015-10-05,1,,,,,,0
274,1180302010678,登記記録の閉鎖等,0,2023-01-25,2023-01-23,有限会社岡本設備工業,,有限会社,愛知県,田原市,浦町北条５２番地１,,23,231,4413403,,,2023-01-23,清算の結了等,,,2015-10-05,1,,,,,オカモトセツビコウギョウ,0
275,1180303000125,登記記録の閉鎖等,0,2023-01-25,2023-01-23,合資会社建築設備設計荻野,,合資会社,愛知県,岡崎市,中町７丁目６番地３,,23,202,4440015,,,2023-01-23,清算の結了等,,,2015-10-05,1,,,,,ケンチクセツビセッケイオギノ,0
298,1350001007867,登記記録の閉鎖等,0,2023-01-25,2023-01-25,株式会社江夏自転車商会,,株式会社,宮崎県,都城市,蔵原町８街区１５号,,45,202,8850051,,,2023-01-25,登記官による閉鎖,,,2015-10-05,1,,,,,,0
300,1350002002693,登記記録の閉鎖等,0,2023-01-25,2023-01-25,有限会社太雄電装,,有限会社,宮崎県,宮崎市,大字芳士１７０４番地３,,45,201,8800123,,,2023-01-25,登記官による閉鎖,,,2015-10-05,1,,,,,,0
301,1350002003857,登記記録の閉鎖等,0,2023-01-25,2023-01-25,有限会社兵頭,,有限会社,宮崎県,宮崎市,月見ケ丘１丁目２２番３号,,45,201,8800926,,,2023-01-25,登記官による閉鎖,,,2015-10-05,1,,,,,,0
302,1350002004995,登記記録の閉鎖等,0,2023-01-25,2023-01-25,有限会社八千代印刷,,有限会社,宮崎県,宮崎市,大字恒久１００２番地７,,45,201,8800916,,,2023-01-25,登記官による閉鎖,,,2015-10-05,1,,,,,,0
303,1350005001544,登記記録の閉鎖等,0,2023-01-25,2023-01-25,特定非営利活動法人情報ボランティア事業団,,その他の設立登記法人,宮崎県,宮崎市,大塚町乱橋４５４５番地２,,45,201,8800951,,,2023-01-25,登記官による閉鎖,,,2015-10-05,1,,,,,,0
304,1350005002947,登記記録の閉鎖等,0,2023-01-25,2023-01-25,宮崎県同和砂利採取販売企業組合,,その他の設立登記法人,宮崎県,延岡市,緑ケ丘４丁目１番１５号,,45,203,8820863,,,2023-01-25,登記官による閉鎖,,,2015-10-05,1,,,,,,0
309,1360002011074,登記記録の閉鎖等,0,2023-01-25,2023-01-25,農業生産法人有限会社嘉数農園,,有限会社,沖縄県,南城市,大里字稲嶺２０番地２,,47,215,9011204,,,2023-01-25,登記官による閉鎖,,,2015-10-05,1,,,,,,0
310,1360002012980,登記記録の閉鎖等,0,2023-01-25,2023-01-25,有限会社サウザンドユニバース,,有限会社,沖縄県,沖縄市,中央１丁目１０番３号,,47,211,9040004,,,2023-01-25,登記官による閉鎖,,,2015-10-05,1,,,,,,0
311,1360002015538,登記記録の閉鎖等,0,2023-01-25,2023-01-25,有限会社牛特フーズ,,有限会社,沖縄県,浦添市,屋富祖１丁目４番６号,,47,208,9012127,,,2023-01-25,登記官による閉鎖,,,2015-10-05,1,,,,,,0
312,1360002018739,登記記録の閉鎖等,0,2023-01-25,2023-01-25,有限会社ハイジア,,有限会社,沖縄県,浦添市,安波茶１丁目６番１号,,47,208,9012114,,,2023-01-25,登記官による閉鎖,,,2015-10-05,1,,,,,,0
313,1360005000520,登記記録の閉鎖等,0,2023-01-25,2023-01-25,沖縄県酒造組合連合会,,その他の設立登記法人,沖縄県,那覇市,港町２丁目８番９号,,47,201,9000001,,,2023-01-25,登記官による閉鎖,,,2015-10-05,1,,,,,,0
314,1360005002310,登記記録の閉鎖等,0,2023-01-25,2023-01-25,住建環境協同組合,,その他の設立登記法人,沖縄県,うるま市,みどり町５丁目１８番６号,,47,213,9042215,,,2023-01-25,登記官による閉鎖,,,2015-10-05,1,,,,,,0
315,1360005002822,登記記録の閉鎖等,0,2023-01-25,2023-01-25,沖縄鉱採企業組合,,その他の設立登記法人,沖縄県,浦添市,牧港１丁目１８番３号,,47,208,9012131,,,2023-01-25,登記官による閉鎖,,,2015-10-05,1,,,,,,0
316,1360005003795,登記記録の閉鎖等,0,2023-01-25,2023-01-25,農事組合法人クマザ果樹生産組合,,その他の設立登記法人,沖縄県,宮古島市,城辺字長間２１９５番地の１,,47,214,9060105,,,2023-01-25,登記官による閉鎖,,,2015-10-05,1,,,,,,0
319,1370001006413,登記記録の閉鎖等,0,2023-01-25,2023-01-19,東北シンコー株式会社,,株式会社,宮城県,仙台市若林区,卸町東１丁目１番５０号,,04,103,9840002,,,2023-01-19,合併による解散等,5010801006000,令和５年１月１日東京都港区芝大門二丁目１１番８号住友ナコフォークリフト販売株式会社（5010801006000）に合併し解散,2015-10-05,1,,,,,,0
323,1370003004299,登記記録の閉鎖等,0,2023-01-25,2023-01-23,オフィスティアモ合同会社,,合同会社,宮城県,気仙沼市,神山６番地５,,04,205,9880044,,,2023-01-23,清算の結了等,,,2018-11-08,1,,,,,オフィスティアモ,0
326,1380001011503,登記記録の閉鎖等,0,2023-01-25,2023-01-20,フジ企業株式会社,,株式会社,福島県,岩瀬郡鏡石町,大字鏡田字不時沼１９０番地,,07,342,9690401,,,2023-01-20,登記官による閉鎖,,,2017-01-18,1,,,,,,0
329,1390001011428,登記記録の閉鎖等,0,2023-01-25,2023-01-23,株式会社ＰＩＲＯＵＥＴＴＥ,,株式会社,山形県,西置賜郡白鷹町,大字荒砥甲７８８番地１５,,06,402,9920831,,,2023-01-23,登記官による閉鎖,,,2015-10-05,1,,,,,,0
330,1390002001155,登記記録の閉鎖等,0,2023-01-25,2023-01-23,有限会社佐藤構造設計事務所,,有限会社,山形県,山形市,相生町５番２４号,,06,201,9900055,,,2023-01-23,登記官による閉鎖,,,2015-10-05,1,,,,,,0
342,1470001011436,登記記録の閉鎖等,0,2023-01-25,2023-01-25,株式会社豊浜開発,,株式会社,徳島県,阿南市,領家町天神原４５４番地１,,36,204,7740011,,,2023-01-25,登記官による閉鎖,,,2015-10-05,1,,,,,,0
345,1480001000644,登記記録の閉鎖等,0,2023-01-25,2023-01-25,興和サッシ販売株式会社,,株式会社,徳島県,徳島市,大松町榎原外４２の地先,,36,201,7708022,,,2023-01-25,登記官による閉鎖,,,2015-10-05,1,,,,,,0
346,1480001003300,登記記録の閉鎖等,0,2023-01-25,2023-01-25,株式会社ＤＬＬ,,株式会社,徳島県,徳島市,応神町東貞方字八幡前１００番地,,36,201,7711154,,,2023-01-25,登記官による閉鎖,,,2015-10-05,1,,,,,,0
347,1480001004505,登記記録の閉鎖等,0,2023-01-25,2023-01-25,中央ボーリング株式会社,,株式会社,徳島県,吉野川市,川島町川島３９７番地の１,,36,205,7793301,,,2023-01-25,登記官による閉鎖,,,2015-10-05,1,,,,,,0
349,1480002001245,登記記録の閉鎖等,0,2023-01-25,2023-01-25,有限会社勝乃,,有限会社,徳島県,徳島市,富田町２丁目２８番地２,,36,201,7700915,,,2023-01-25,登記官による閉鎖,,,2015-10-05,1,,,,,,0
350,1480002003282,登記記録の閉鎖等,0,2023-01-25,2023-01-25,富屋不動産有限会社,,有限会社,徳島県,徳島市,大道２丁目４２番地,,36,201,7700923,,,2023-01-25,登記官による閉鎖,,,2015-10-05,1,,,,,,0
351,1480002003365,登記記録の閉鎖等,0,2023-01-25,2023-01-25,有限会社徳島新聞津田東専売所,,有限会社,徳島県,徳島市,津田町３丁目６番４１号,,36,201,7708002,,,2023-01-25,登記官による閉鎖,,,2015-10-05,1,,,,,,0
353,1480002005700,登記記録の閉鎖等,0,2023-01-25,2023-01-25,有限会社三吉金属プレス,,有限会社,徳島県,名西郡石井町,石井字石井１２９４番地,,36,341,7793233,,,2023-01-25,登記官による閉鎖,,,2015-10-05,1,,,,,,0
354,1480002007556,登記記録の閉鎖等,0,2023-01-25,2023-01-25,有限会社上田製作所,,有限会社,徳島県,勝浦郡勝浦町,大字沼江字一楽８６番地の２,,36,301,7714301,,,2023-01-25,登記官による閉鎖,,,2015-10-05,1,,,,,,0
355,1480002010056,登記記録の閉鎖等,0,2023-01-25,2023-01-25,有限会社タケダ建工,,有限会社,徳島県,阿波市,阿波町善地２４１番地３,,36,206,7711705,,,2023-01-25,登記官による閉鎖,,,2015-10-05,1,,,,,,0
356,1480002014115,登記記録の閉鎖等,0,2023-01-25,2023-01-25,有限会社丸八食品,,有限会社,徳島県,海部郡海陽町,大里字飯持２７番地の１,,36,388,7750203,,,2023-01-25,登記官による閉鎖,,,2015-10-05,1,,,,,,0
357,1480005004880,登記記録の閉鎖等,0,2023-01-25,2023-01-25,牟岐小売酒販組合,,その他の設立登記法人,徳島県,海部郡牟岐町,大字川長字山戸９３番地１６,,36,383,7750004,,,2023-01-25,登記官による閉鎖,,,2015-10-05,1,,,,,,0
358,1480005005012,登記記録の閉鎖等,0,2023-01-25,2023-01-25,特定非営利活動法人ヒューマンリンク,,その他の設立登記法人,徳島県,海部郡牟岐町,大字中村字清水８８番地１,,36,383,7750006,,,2023-01-25,登記官による閉鎖,,,2015-10-05,1,,,,,,0
368,2010001032865,登記記録の閉鎖等,0,2023-01-25,2023-01-20,日本インターネットエクスチェンジ株式会社,,株式会社,東京都,千代田区,大手町１丁目８番１号,,13,101,1000004,,,2023-01-20,合併による解散等,6010001130756,令和５年１月１日東京都港区赤坂二丁目５番１号株式会社ＪＰＩＸ（6010001130756）に合併し解散,2015-10-05,1,,,,,ニホンインターネットエクスチェンジ,0
380,2010002013419,登記記録の閉鎖等,0,2023-01-25,2023-01-16,有限会社花しん,,有限会社,東京都,千代田区,鍛冶町２丁目５番７号,,13,101,1010044,,,2023-01-16,清算の結了等,,,2015-10-05,1,,,,,ハナシン,0
381,2010003015224,登記記録の閉鎖等,0,2023-01-25,2023-01-18,合同会社Ｖａｎｇｕａｒｄ　ＡＰ,,合同会社,東京都,千代田区,平河町１丁目６番１５号ＵＳビル８Ｆ,,13,101,1020093,,,2023-01-18,清算の結了等,,,2015-10-05,1,,,,,ヴァンガードエーピー,0
394,2010403027562,登記記録の閉鎖等,0,2023-01-25,2023-01-10,ＲＣＳ　Ｊａｐａｎ合同会社,,合同会社,東京都,港区,港南１丁目２番７０号,,13,103,1080075,,,2023-01-10,清算の結了等,,,2022-04-28,1,,,,,アールシーエスジャパン,0
398,2010501004983,登記記録の閉鎖等,0,2023-01-25,2023-01-20,株式会社西賀,,株式会社,栃木県,さくら市,喜連川５８７９番地,,09,214,3291412,,,2023-01-20,清算の結了等,,,2015-10-05,1,,,,,サイガ,0
420,2011101014010,登記記録の閉鎖等,0,2023-01-25,2023-01-25,株式会社東進,,株式会社,東京都,新宿区,高田馬場１丁目３１番８号,,13,104,1690075,,,2023-01-25,登記官による閉鎖,,,2015-10-05,1,,,,,,0
421,2011101017500,登記記録の閉鎖等,0,2023-01-25,2023-01-25,羽生写真印刷株式会社,,株式会社,東京都,新宿区,早稲田鶴巻町５６７番地,,13,104,1620041,,,2023-01-25,登記官による閉鎖,,,2015-10-05,1,,,,,,0
422,2011101043538,登記記録の閉鎖等,0,2023-01-25,2023-01-25,株式会社エース,,株式会社,東京都,新宿区,北新宿３丁目５番２５号,,13,104,1690074,,,2023-01-25,登記官による閉鎖,,,2015-10-05,1,,,,,,0
423,2011101055582,登記記録の閉鎖等,0,2023-01-25,2023-01-25,株式会社ＧＢＣ,,株式会社,東京都,新宿区,百人町２丁目２０番１号大野屋ビル７階,,13,104,1690073,,,2023-01-25,登記官による閉鎖,,,2015-10-05,1,,,,,,0
424,2011101060319,登記記録の閉鎖等,0,2023-01-25,2023-01-25,株式会社ＶＩＳＩＯＮ,,株式会社,東京都,新宿区,西新宿５丁目１５番１２－３０２号,,13,104,1600023,,,2023-01-25,登記官による閉鎖,,,2015-10-05,1,,,,,,0
425,2011101062678,登記記録の閉鎖等,0,2023-01-25,2023-01-25,株式会社ＥＵＰＨＯＮＹ,,株式会社,東京都,新宿区,新宿７丁目１８番７号,,13,104,1600022,,,2023-01-25,登記官による閉鎖,,,2015-10-05,1,,,,,,0
426,2011101063437,登記記録の閉鎖等,0,2023-01-25,2023-01-25,株式会社ゴーイング,,株式会社,東京都,新宿区,富久町１６番８号新宿ユニオンビル３０５号,,13,104,1620067,,,2023-01-25,登記官による閉鎖,,,2015-10-05,1,,,,,,0
427,2011101064476,登記記録の閉鎖等,0,2023-01-25,2023-01-25,株式会社未来リサーチ,,株式会社,東京都,新宿区,歌舞伎町２丁目３番２１号,,13,104,1600021,,,2023-01-25,登記官による閉鎖,,,2015-10-05,1,,,,,,0
433,2011102010727,登記記録の閉鎖等,0,2023-01-25,2023-01-25,有限会社ひろき,,有限会社,東京都,新宿区,高田馬場２丁目１５番９－１０１号,,13,104,1690075,,,2023-01-25,登記官による閉鎖,,,2015-10-05,1,,,,,,0
434,2011102010751,登記記録の閉鎖等,0,2023-01-25,2023-01-25,有限会社広瀬屋,,有限会社,東京都,新宿区,新宿６丁目１９番９号,,13,104,1600022,,,2023-01-25,登記官による閉鎖,,,2015-10-05,1,,,,,,0
435,2011102010826,登記記録の閉鎖等,0,2023-01-25,2023-01-25,武栄商事有限会社,,有限会社,東京都,新宿区,下落合２丁目１５番７号,,13,104,1610033,,,2023-01-25,登記官による閉鎖,,,2015-10-05,1,,,,,,0
436,2011102017516,登記記録の閉鎖等,0,2023-01-25,2023-01-25,有限会社モリ・コンサルタント,,有限会社,東京都,新宿区,百人町３丁目１番４－２０８号,,13,104,1690073,,,2023-01-25,登記官による閉鎖,,,2015-10-05,1,,,,,,0
437,2011102028166,登記記録の閉鎖等,0,2023-01-25,2023-01-25,韓建有限会社,,有限会社,東京都,新宿区,大久保１丁目１４番６号,,13,104,1690072,,,2023-01-25,登記官による閉鎖,,,2015-10-05,1,,,,,,0
438,2011103003110,登記記録の閉鎖等,0,2023-01-25,2023-01-25,合同会社レックス,,合同会社,東京都,新宿区,新宿２丁目１２番１６号,,13,104,1600022,,,2023-01-25,登記官による閉鎖,,,2015-10-05,1,,,,,,0
439,2011103004133,登記記録の閉鎖等,0,2023-01-25,2023-01-25,合同会社金陽社印刷所,,合同会社,東京都,新宿区,西落合１丁目３０番１９号,,13,104,1610031,,,2023-01-25,登記官による閉鎖,,,2015-10-05,1,,,,,,0
447,2011502007083,登記記録の閉鎖等,0,2023-01-25,2023-01-19,有限会社板谷,,有限会社,東京都,荒川区,荒川３丁目７６番３号,,13,118,1160002,,,2023-01-19,清算の結了等,,,2015-10-05,1,,,,,イタヤ,0
457,2020001004459,登記記録の閉鎖等,0,2023-01-25,2023-01-25,株式会社マルシン,,株式会社,神奈川県,横浜市港南区,上大岡西１丁目１６番２５号,,14,111,2330002,,,2023-01-25,登記官による閉鎖,,,2015-10-05,1,,,,,,0
458,2020001010705,登記記録の閉鎖等,0,2023-01-25,2023-01-25,株式会社ユニズンコーポレーション,,株式会社,神奈川県,横浜市南区,平楽１３７番地１４１,,14,105,2320035,,,2023-01-25,登記官による閉鎖,,,2017-08-30,1,,,,,,0
459,2020001020217,登記記録の閉鎖等,0,2023-01-25,2023-01-25,興菱配送株式会社,,株式会社,神奈川県,横浜市港北区,日吉６丁目１０番３３号,,14,109,2230061,,,2023-01-25,登記官による閉鎖,,,2015-10-05,1,,,,,,0
460,2020001029035,登記記録の閉鎖等,0,2023-01-25,2023-01-25,株式会社美奈登,,株式会社,神奈川県,横浜市中区,本牧三之谷１８番８号,,14,104,2310824,,,2023-01-25,登記官による閉鎖,,,2015-10-05,1,,,,,,0
462,2020001037616,登記記録の閉鎖等,0,2023-01-25,2023-01-25,株式会社パナックス,,株式会社,神奈川県,横浜市港北区,綱島東１丁目１４番１２号,,14,109,2230052,,,2023-01-25,登記官による閉鎖,,,2015-10-05,1,,,,,,0
463,2020001043432,登記記録の閉鎖等,0,2023-01-25,2023-01-25,株式会社リベロ,,株式会社,神奈川県,横浜市保土ケ谷区,境木町５９番地４,,14,106,2400034,,,2023-01-25,登記官による閉鎖,,,2015-10-05,1,,,,,,0
464,2020001050098,登記記録の閉鎖等,0,2023-01-25,2023-01-25,株式会社ベイビルド,,株式会社,神奈川県,横浜市南区,井土ケ谷中町１６１番地６グランデール井土ケ谷５０６号,,14,105,2320052,,,2023-01-25,登記官による閉鎖,,,2015-10-05,1,,,,,,0
465,2020001050858,登記記録の閉鎖等,0,2023-01-25,2023-01-25,株式会社イノベーション経営研究所,,株式会社,神奈川県,横浜市港南区,日野南６丁目４５番２４号,,14,111,2340055,,,2023-01-25,登記官による閉鎖,,,2015-10-05,1,,,,,,0
466,2020001056987,登記記録の閉鎖等,0,2023-01-25,2023-01-25,株式会社金澤電設,,株式会社,神奈川県,横浜市鶴見区,東寺尾中台３４番１５－２１６号,,14,101,2300017,,,2023-01-25,登記官による閉鎖,,,2015-10-05,1,,,,,,0
467,2020001057473,登記記録の閉鎖等,0,2023-01-25,2023-01-25,株式会社サロン・ド・麗,,株式会社,神奈川県,横浜市青葉区,市ケ尾町１０６０番地２３,,14,117,2250024,,,2023-01-25,登記官による閉鎖,,,2015-10-05,1,,,,,,0
468,2020001061129,登記記録の閉鎖等,0,2023-01-25,2023-01-25,株式会社エスエス精工,,株式会社,神奈川県,横浜市港北区,新吉田町６０８８－２０,,14,109,2230056,,,2023-01-25,登記官による閉鎖,,,2015-10-05,1,,,,,,0
470,2020001071136,登記記録の閉鎖等,0,2023-01-25,2023-01-25,株式会社拓洋,,株式会社,神奈川県,川崎市幸区,南加瀬３丁目１７番１８号,,14,132,2120055,,,2023-01-25,登記官による閉鎖,,,2015-10-05,1,,,,,,0
471,2020001075913,登記記録の閉鎖等,0,2023-01-25,2023-01-25,株式会社日本寝装工場,,株式会社,神奈川県,川崎市川崎区,鋼管通３丁目１６番６号,,14,131,2100852,,,2023-01-25,登記官による閉鎖,,,2015-10-05,1,,,,,,0
472,2020001077026,登記記録の閉鎖等,0,2023-01-25,2023-01-25,株式会社縮興業,,株式会社,神奈川県,川崎市川崎区,池上新町２丁目２５番１５号３０３,,14,131,2100832,,,2023-01-25,登記官による閉鎖,,,2015-10-05,1,,,,,,0
473,2020001080772,登記記録の閉鎖等,0,2023-01-25,2023-01-25,カイト株式会社,,株式会社,神奈川県,川崎市高津区,坂戸３丁目１６番１号,,14,134,2130012,,,2023-01-25,登記官による閉鎖,,,2015-10-05,1,,,,,,0
474,2020001082117,登記記録の閉鎖等,0,2023-01-25,2023-01-25,株式会社インナースマイル,,株式会社,神奈川県,川崎市中原区,新丸子東２丁目８９６番３６－３０２号ピア小杉,,14,133,2110004,,,2023-01-25,登記官による閉鎖,,,2015-10-05,1,,,,,,0
475,2020001082315,登記記録の閉鎖等,0,2023-01-25,2023-01-25,Ｍａｒｃｏ　Ｐｏｌｏ　Ｉｎｔｅｒｎａｔｉｏｎａｌ　Ｔｒａｄｉｎｇ株式会社,,株式会社,神奈川県,川崎市中原区,小杉御殿町２丁目３６番,,14,133,2110068,,,2023-01-25,登記官による閉鎖,,,2015-10-05,1,,,,,,0
476,2020001123787,登記記録の閉鎖等,0,2023-01-25,2023-01-25,株式会社日本地研,,株式会社,神奈川県,横浜市泉区,上飯田町２１４１番地,,14,116,2450018,,,2023-01-25,登記官による閉鎖,,,2017-11-14,1,,,,,,0
480,2020002005596,登記記録の閉鎖等,0,2023-01-25,2023-01-25,有限会社小野間製作所,,有限会社,神奈川県,横浜市都筑区,川和町１３５番地１１,,14,118,2240057,,,2023-01-25,登記官による閉鎖,,,2015-10-05,1,,,,,,0
481,2020002020199,登記記録の閉鎖等,0,2023-01-25,2023-01-25,有限会社横浜インポート,,有限会社,神奈川県,横浜市港南区,笹下７丁目１８番２３号,,14,111,2340052,,,2023-01-25,登記官による閉鎖,,,2015-10-05,1,,,,,,0
482,2020002022534,登記記録の閉鎖等,0,2023-01-25,2023-01-25,有限会社三木屋商店,,有限会社,神奈川県,横浜市旭区,東希望が丘１０２番地,,14,112,2410826,,,2023-01-25,登記官による閉鎖,,,2017-06-06,1,,,,,,0
483,2020002024794,登記記録の閉鎖等,0,2023-01-25,2023-01-25,有限会社星川コンタクト,,有限会社,神奈川県,横浜市保土ケ谷区,星川２丁目４番１号,,14,106,2400006,,,2023-01-25,登記官による閉鎖,,,2015-10-05,1,,,,,,0
484,2020002034158,登記記録の閉鎖等,0,2023-01-25,2023-01-25,有限会社ジャパン・アーチスト・フォーメイション,,有限会社,神奈川県,横浜市港北区,新吉田東６丁目４２番４３号,,14,109,2230058,,,2023-01-25,登記官による閉鎖,,,2015-10-05,1,,,,,,0
485,2020002041880,登記記録の閉鎖等,0,2023-01-25,2023-01-25,有限会社オリジナル・ジヨーズ,,有限会社,神奈川県,横浜市中区,相生町３丁目６０番地,,14,104,2310012,,,2023-01-25,登記官による閉鎖,,,2015-10-05,1,,,,,,0
486,2020002047523,登記記録の閉鎖等,0,2023-01-25,2023-01-25,艶美加工有限会社,,有限会社,神奈川県,横浜市戸塚区,上矢部町２０２３番地,,14,110,2450053,,,2023-01-25,登記官による閉鎖,,,2015-10-05,1,,,,,,0
488,2020002049395,登記記録の閉鎖等,0,2023-01-25,2023-01-25,有限会社富士見フードサービス,,有限会社,神奈川県,横浜市都筑区,中川１丁目１７番１１号,,14,118,2240001,,,2023-01-25,登記官による閉鎖,,,2015-10-05,1,,,,,,0
489,2020002050642,登記記録の閉鎖等,0,2023-01-25,2023-01-25,有限会社オライオン,,有限会社,神奈川県,横浜市南区,井土ケ谷中町８,,14,105,2320052,,,2023-01-25,登記官による閉鎖,,,2015-10-05,1,,,,,,0
490,2020002053397,登記記録の閉鎖等,0,2023-01-25,2023-01-25,ホックインターナショナル有限会社,,有限会社,神奈川県,横浜市青葉区,桜台３番地１３,,14,117,2270061,,,2023-01-25,登記官による閉鎖,,,2015-10-05,1,,,,,,0
491,2020002064799,登記記録の閉鎖等,0,2023-01-25,2023-01-25,有限会社エヌ・デイー・エム・プロジェクト,,有限会社,神奈川県,横浜市西区,北軽井沢４番地８１,,14,103,2200001,,,2023-01-25,登記官による閉鎖,,,2015-10-05,1,,,,,,0
492,2020002065079,登記記録の閉鎖等,0,2023-01-25,2023-01-25,有限会社エヌケー配管工事,,有限会社,神奈川県,横浜市神奈川区,羽沢町１６９５番地１サンライズ片倉４０６号,,14,102,2210863,,,2023-01-25,登記官による閉鎖,,,2015-10-05,1,,,,,,0
493,2020002070293,登記記録の閉鎖等,0,2023-01-25,2023-01-25,有限会社アール・エス・マネージメント・リサーチ,,有限会社,神奈川県,横浜市金沢区,六浦南４丁目２０番２－５０２号,,14,108,2360038,,,2023-01-25,登記官による閉鎖,,,2015-10-05,1,,,,,,0
494,2020002070863,登記記録の閉鎖等,0,2023-01-25,2023-01-25,有限会社大樹,,有限会社,神奈川県,横浜市港南区,芹が谷４丁目１４番２３号,,14,111,2330006,,,2023-01-25,登記官による閉鎖,,,2015-10-05,1,,,,,,0
495,2020002075292,登記記録の閉鎖等,0,2023-01-25,2023-01-25,有限会社松もと,,有限会社,神奈川県,横浜市西区,岡野２丁目７番２９号,,14,103,2200073,,,2023-01-25,登記官による閉鎖,,,2015-10-05,1,,,,,,0
496,2020002079491,登記記録の閉鎖等,0,2023-01-25,2023-01-25,有限会社東京大黒屋,,有限会社,神奈川県,横浜市港北区,日吉２丁目２２番１号,,14,109,2230061,,,2023-01-25,登記官による閉鎖,,,2015-10-05,1,,,,,,0
497,2020002079979,登記記録の閉鎖等,0,2023-01-25,2023-01-25,有限会社モリエレクトロニクス,,有限会社,神奈川県,横浜市戸塚区,舞岡町３４０５番地１,,14,110,2440813,,,2023-01-25,登記官による閉鎖,,,2015-10-05,1,,,,,,0
498,2020002086703,登記記録の閉鎖等,0,2023-01-25,2023-01-25,有限会社セレスト,,有限会社,神奈川県,川崎市宮前区,潮見台９番９号,,14,136,2160013,,,2023-01-25,登記官による閉鎖,,,2015-10-05,1,,,,,,0
499,2020002091703,登記記録の閉鎖等,0,2023-01-25,2023-01-25,有限会社大久保米店,,有限会社,神奈川県,川崎市多摩区,中野島６丁目１５番１号,,14,135,2140012,,,2023-01-25,登記官による閉鎖,,,2015-10-05,1,,,,,,0
500,2020002092338,登記記録の閉鎖等,0,2023-01-25,2023-01-25,有限会社スタジオフォレスト,,有限会社,神奈川県,川崎市多摩区,西生田３丁目５番１１号１０５,,14,135,2140037,,,2023-01-25,登記官による閉鎖,,,2015-10-05,1,,,,,,0
501,2020003004003,登記記録の閉鎖等,0,2023-01-25,2023-01-25,合資会社フジモトエンジニアリング,,合資会社,神奈川県,横浜市青葉区,あざみ野４丁目３番地あざみ野団地１２棟２０４号,,14,117,2250011,,,2023-01-25,登記官による閉鎖,,,2015-10-05,1,,,,,,0
502,2020003004663,登記記録の閉鎖等,0,2023-01-25,2023-01-25,合同会社ケイシャープ,,合同会社,神奈川県,横浜市戸塚区,上矢部町１５０３番地１７,,14,110,2450053,,,2023-01-25,登記官による閉鎖,,,2015-10-05,1,,,,,,0
506,2020005004133,登記記録の閉鎖等,0,2023-01-25,2023-01-25,かながわ解体工事業協同組合,,その他の設立登記法人,神奈川県,横浜市中区,花咲町２丁目７１番地,,14,104,2310063,,,2023-01-25,登記官による閉鎖,,,2015-10-05,1,,,,,,0
507,2020005004744,登記記録の閉鎖等,0,2023-01-25,2023-01-25,ＦＲＰ建築工事協同組合,,その他の設立登記法人,神奈川県,横浜市保土ケ谷区,新桜ケ丘１丁目１３番１０号,,14,106,2400036,,,2023-01-25,登記官による閉鎖,,,2015-10-05,1,,,,,,0
524,2030003011502,登記記録の閉鎖等,0,2023-01-25,2023-01-23,合同会社ワンズライフワーク,,合同会社,埼玉県,熊谷市,船木台３丁目３番地１３メイプルヒルＡ１０２号,,11,202,3690108,,,2023-01-23,清算の結了等,,,2018-02-27,1,,,,,ワンズライフワーク,0
543,2060002009032,登記記録の閉鎖等,0,2023-01-25,2023-01-23,有限会社森田プラント,,有限会社,栃木県,宇都宮市,五代２丁目２１番２２号,,09,201,3210135,,,2023-01-23,清算の結了等,,,2015-10-05,1,,,,,モリタプラント,0
544,2070001000057,登記記録の閉鎖等,0,2023-01-25,2023-01-25,株式会社アイワ,,株式会社,群馬県,前橋市,西善町６２０番地の５,,10,201,3792131,,,2023-01-25,登記官による閉鎖,,,2015-10-05,1,,,,,,0
545,2070001008414,登記記録の閉鎖等,0,2023-01-25,2023-01-25,株式会社松本システム建築設計事務所,,株式会社,群馬県,高崎市,吉井町馬庭１６番地,,10,202,3702104,,,2023-01-25,登記官による閉鎖,,,2015-10-05,1,,,,,,0
546,2070001010493,登記記録の閉鎖等,0,2023-01-25,2023-01-25,株式会社紅屋,,株式会社,群馬県,高崎市,問屋町西１丁目１０番地１,,10,202,3700007,,,2023-01-25,登記官による閉鎖,,,2015-10-05,1,,,,,,0
547,2070001013496,登記記録の閉鎖等,0,2023-01-25,2023-01-25,関口商事株式会社,,株式会社,群馬県,伊勢崎市,中央町１８番３号,,10,204,3720042,,,2023-01-25,登記官による閉鎖,,,2015-10-05,1,,,,,,0
548,2070001015022,登記記録の閉鎖等,0,2023-01-25,2023-01-25,株式会社ＭＫプランニング,,株式会社,群馬県,伊勢崎市,連取町３０９３番地３４,,10,204,3720812,,,2023-01-25,登記官による閉鎖,,,2015-10-05,1,,,,,,0
549,2070001017811,登記記録の閉鎖等,0,2023-01-25,2023-01-25,株式会社東昇,,株式会社,群馬県,渋川市,石原２０５番地１,,10,208,3770007,,,2023-01-25,登記官による閉鎖,,,2015-10-05,1,,,,,,0
551,2070001023099,登記記録の閉鎖等,0,2023-01-25,2023-01-25,安田建設株式会社,,株式会社,群馬県,沼田市,西原新町１５０１番地４,,10,206,3780054,,,2023-01-25,登記官による閉鎖,,,2015-10-05,1,,,,,,0
553,2070002000568,登記記録の閉鎖等,0,2023-01-25,2023-01-25,有限会社石山塗装工業,,有限会社,群馬県,前橋市,光が丘町２１番地の９,,10,201,3710833,,,2023-01-25,登記官による閉鎖,,,2015-10-05,1,,,,,,0
554,2070002012613,登記記録の閉鎖等,0,2023-01-25,2023-01-25,有限会社湯本酒店,,有限会社,群馬県,高崎市,江木町２３７番地の４,,10,202,3700046,,,2023-01-25,登記官による閉鎖,,,2015-10-05,1,,,,,,0
555,2070002016688,登記記録の閉鎖等,0,2023-01-25,2023-01-25,有限会社山崎板金工業,00025649,有限会社,群馬県,甘楽郡甘楽町,大字庭谷４７７番地,,10,384,3702214,,,2023-01-25,登記官による閉鎖,,,2015-10-05,1,,,,,,0
556,2070002018585,登記記録の閉鎖等,0,2023-01-25,2023-01-25,有限会社大沢建築事務所,,有限会社,群馬県,伊勢崎市,今泉町２丁目４１８番地,,10,204,3720031,,,2023-01-25,登記官による閉鎖,,,2015-10-05,1,,,,,,0
558,2070002020673,登記記録の閉鎖等,0,2023-01-25,2023-01-25,有限会社かつせん前田,,有限会社,群馬県,佐波郡玉村町,大字樋越１７０５番地の１,,10,464,3701103,,,2023-01-25,登記官による閉鎖,,,2015-10-05,1,,,,,,0
559,2070002024030,登記記録の閉鎖等,0,2023-01-25,2023-01-25,有限会社高松紋切所,,有限会社,群馬県,桐生市,宮前町１丁目６番６０号,,10,203,3760046,,,2023-01-25,登記官による閉鎖,,,2015-10-05,1,,,,,,0
560,2070002027000,登記記録の閉鎖等,0,2023-01-25,2023-01-25,有限会社有明館,,有限会社,群馬県,渋川市,伊香保町伊香保乙４８番地,,10,208,3770102,,,2023-01-25,登記官による閉鎖,,,2015-10-05,1,,,,,,0
561,2070002028262,登記記録の閉鎖等,0,2023-01-25,2023-01-25,有限会社エスエスエム,,有限会社,群馬県,邑楽郡大泉町,坂田７丁目１８番１２号,,10,524,3700532,,,2023-01-25,登記官による閉鎖,,,2015-10-05,1,,,,,,0
562,2070002033725,登記記録の閉鎖等,0,2023-01-25,2023-01-25,長島運送有限会社,,有限会社,群馬県,館林市,羽附旭町８７８番地の１３,,10,207,3740012,,,2023-01-25,登記官による閉鎖,,,2015-10-05,1,,,,,,0
563,2070005001919,登記記録の閉鎖等,0,2023-01-25,2023-01-25,特定非営利活動法人上州神輿保存会,,その他の設立登記法人,群馬県,前橋市,鳥羽町５１７番地３,,10,201,3710845,,,2023-01-25,登記官による閉鎖,,,2015-10-05,1,,,,,,0
564,2070005003295,登記記録の閉鎖等,0,2023-01-25,2023-01-25,高崎人材支援企業組合,,その他の設立登記法人,群馬県,高崎市,飯塚町１０７番地,,10,202,3700069,,,2023-01-25,登記官による閉鎖,,,2015-10-05,1,,,,,,0
565,2070005005259,登記記録の閉鎖等,0,2023-01-25,2023-01-25,協同組合群馬東毛の家,,その他の設立登記法人,群馬県,桐生市,新里町小林１４７番地１,,10,203,3760124,,,2023-01-25,登記官による閉鎖,,,2015-10-05,1,,,,,,0
573,2090005005034,登記記録の閉鎖等,0,2023-01-25,2023-01-17,特定非営利活動法人山梨まちづくり協議会,,その他の設立登記法人,山梨県,韮崎市,本町２丁目１０番８号,,19,207,4070024,,,2023-01-17,清算の結了等,,,2015-10-05,1,,,,,ヤマナシマチヅクリキョウギカイ,0
594,2120002000884,登記記録の閉鎖等,0,2023-01-25,2023-01-24,有限会社伊賀電気設備,,有限会社,大阪府,大阪市鶴見区,今津南４丁目５番９号,,27,124,5380043,,,2023-01-24,清算の結了等,,,2015-10-05,1,,,,,イガデンキセツビ,0
609,2120901034495,登記記録の閉鎖等,0,2023-01-25,2023-01-23,ベニバナベンチャー株式会社,,株式会社,大阪府,大阪市淀川区,西中島７丁目４番１７号,,27,123,5320011,,,2023-01-23,合併による解散等,4120001149085,令和５年１月２１日大阪府枚方市招提田近三丁目３番地の２上野化学工業株式会社（4120001149085）に合併し解散,2015-10-05,1,,,,,ベニバナベンチャー,0
617,2130002027159,登記記録の閉鎖等,0,2023-01-25,2023-01-20,有限会社久美山工房,,有限会社,京都府,久世郡久御山町,佐山善乗坊４６番地の３,,26,322,6130034,,,2023-01-20,清算の結了等,,,2015-10-05,1,,,,,クミヤマコウボウ,0
628,2180001104152,登記記録の閉鎖等,0,2023-01-25,2023-01-20,株式会社開陽コーポレーション,,株式会社,愛知県,名古屋市名東区,猪子石原３丁目６１１番地,,23,115,4650008,,,2023-01-20,清算の結了等,,,2015-10-05,1,,,,,カイヨウコーポレーション,0
631,2180002071623,登記記録の閉鎖等,0,2023-01-25,2023-01-20,有限会社加藤春光製型所,,有限会社,愛知県,瀬戸市,進陶町１７８番地,,23,204,4890058,,,2023-01-20,清算の結了等,,,2015-10-05,1,,,,,カトウハルミツセイケイジョ,0
644,2240002042114,登記記録の閉鎖等,0,2023-01-25,2023-01-24,有限会社ミトー,,有限会社,広島県,福山市,柳津町１丁目８番４号,,34,207,7290114,,,2023-01-24,清算の結了等,,,2015-10-05,1,,,,,ミトー,0
646,2240005002726,登記記録の閉鎖等,0,2023-01-25,2023-01-20,特定非営利活動法人危機管理勉強会,,その他の設立登記法人,広島県,広島市中区,大手町３丁目１３番１０－３０２号,,34,101,7300051,,,2023-01-20,清算の結了等,,,2015-10-05,1,,,,,キキカンリベンキョウカイ,0
657,2290002007574,登記記録の閉鎖等,0,2023-01-25,2023-01-20,有限会社いいかわ商事,,有限会社,福岡県,福岡市早良区,原６丁目８番２２号,,40,137,8140022,,,2023-01-20,清算の結了等,,,2015-10-05,1,,,,,イイカワショウジ,0
658,2290002049047,登記記録の閉鎖等,0,2023-01-25,2023-01-20,有限会社三光緑地企画,,有限会社,福岡県,久留米市,東合川２丁目１１番１５号,,40,203,8390809,,,2023-01-20,清算の結了等,,,2015-10-05,1,,,,,サンコウリョクチキカク,0
666,2320002021588,登記記録の閉鎖等,0,2023-01-25,2023-01-23,ナバヤ食品工業有限会社,,有限会社,大分県,中津市,山国町中摩６２５番地,,44,203,8710716,,,2023-01-23,清算の結了等,,,2015-10-05,1,,,,,ナバヤショクヒンコウギョウ,0
673,2350001000953,登記記録の閉鎖等,0,2023-01-25,2023-01-25,大東植産株式会社,,株式会社,宮崎県,宮崎市,清武町今泉甲４６２５番地１,,45,201,8891602,,,2023-01-25,登記官による閉鎖,,,2015-10-05,1,,,,,,0
674,2350002015819,登記記録の閉鎖等,0,2023-01-25,2023-01-25,有限会社マリンライフ,,有限会社,宮崎県,都城市,久保原町９街区３の４２号,,45,202,8850086,,,2023-01-25,登記官による閉鎖,,,2015-10-05,1,,,,,,0
675,2350003000225,登記記録の閉鎖等,0,2023-01-25,2023-01-25,合資会社プランニングボード,,合資会社,宮崎県,宮崎市,末広２丁目１番１号松栄ハイツ１０１号,,45,201,8800012,,,2023-01-25,登記官による閉鎖,,,2015-10-05,1,,,,,,0
676,2350003001875,登記記録の閉鎖等,0,2023-01-25,2023-01-25,フォルマ合同会社,,合同会社,宮崎県,都城市,蓑原町２３７８番地７,,45,202,8850095,,,2023-01-25,登記官による閉鎖,,,2015-10-05,1,,,,,,0
678,2350005001659,登記記録の閉鎖等,0,2023-01-25,2023-01-25,特定非営利活動法人草の根の会,,その他の設立登記法人,宮崎県,宮崎市,大字芳士字前田２１０番地２,,45,201,8800123,,,2023-01-25,登記官による閉鎖,,,2015-10-05,1,,,,,,0
679,2360001006025,登記記録の閉鎖等,0,2023-01-25,2023-01-25,株式会社スーパーわかさ,,株式会社,沖縄県,那覇市,若狭２丁目５番１２号,,47,201,9000031,,,2023-01-25,登記官による閉鎖,,,2015-10-05,1,,,,,,0
680,2360001007337,登記記録の閉鎖等,0,2023-01-25,2023-01-25,株式会社玉城鐡工,,株式会社,沖縄県,沖縄市,知花３丁目４番２５号,,47,211,9042143,,,2023-01-25,登記官による閉鎖,,,2015-10-05,1,,,,,,0
681,2360001015455,登記記録の閉鎖等,0,2023-01-25,2023-01-25,ブライゴールドオキナワ株式会社,,株式会社,沖縄県,那覇市,泊１丁目４番地７中之橋桜マンション４０６,,47,201,9000012,,,2023-01-25,登記官による閉鎖,,,2015-10-05,1,,,,,,0
682,2360002011635,登記記録の閉鎖等,0,2023-01-25,2023-01-25,有限会社具志堅機工,,有限会社,沖縄県,沖縄市,美原１丁目１１番５号,,47,211,9042155,,,2023-01-25,登記官による閉鎖,,,2015-10-05,1,,,,,,0
683,2360002015479,登記記録の閉鎖等,0,2023-01-25,2023-01-25,有限会社和設備工業,,有限会社,沖縄県,宜野湾市,大謝名２丁目１４番１３号,,47,205,9012225,,,2023-01-25,登記官による閉鎖,,,2015-10-05,1,,,,,,0
684,2360002015537,登記記録の閉鎖等,0,2023-01-25,2023-01-25,有限会社経塚墓工事社,00101663,有限会社,沖縄県,宜野湾市,大謝名２丁目２番４１号,,47,205,9012225,,,2023-01-25,登記官による閉鎖,,,2015-10-05,1,,,,,,0
686,2360005000494,登記記録の閉鎖等,0,2023-01-25,2023-01-25,農事組合法人赤嶺農業生産組合,,その他の設立登記法人,沖縄県,那覇市,字栄原三丁目１９番７号,,47,201,9000000,,,2023-01-25,登記官による閉鎖,,,2015-10-05,1,,,,,,0
687,2360005001575,登記記録の閉鎖等,0,2023-01-25,2023-01-25,沖縄人材支援企業組合,,その他の設立登記法人,沖縄県,那覇市,久茂地２丁目４番５号,,47,201,9000015,,,2023-01-25,登記官による閉鎖,,,2015-10-05,1,,,,,,0
688,2360005002697,登記記録の閉鎖等,0,2023-01-25,2023-01-25,沖縄県不発弾探査事業協同組合,,その他の設立登記法人,沖縄県,浦添市,宮城１丁目４番１７号,,47,208,9012126,,,2023-01-25,登記官による閉鎖,,,2015-10-05,1,,,,,,0
689,2360005002929,登記記録の閉鎖等,0,2023-01-25,2023-01-25,サザンコーラル販売事業協同組合,,その他の設立登記法人,沖縄県,中頭郡北中城村,字島袋１４６７番地Ｋ－１７,,47,327,9012301,,,2023-01-25,登記官による閉鎖,,,2015-10-05,1,,,,,,0
696,2380001001346,登記記録の閉鎖等,0,2023-01-25,2023-01-23,株式会社不二林,,株式会社,福島県,福島市,在庭坂字須川端４０番地の１,,07,201,9602262,,,2023-01-23,清算の結了等,,,2015-10-05,1,,,,,フジリン,0
709,2390001005016,登記記録の閉鎖等,0,2023-01-25,2023-01-23,日本工業企画株式会社,,株式会社,山形県,上山市,美咲町１丁目５－１２,,06,207,9993123,,,2023-01-23,登記官による閉鎖,,,2015-10-05,1,,,,,,0
711,2390002013703,登記記録の閉鎖等,0,2023-01-25,2023-01-23,有限会社ファミリープロジェクト,,有限会社,山形県,米沢市,太田町４丁目１番１３４号,,06,202,9920035,,,2023-01-23,登記官による閉鎖,,,2015-10-05,1,,,,,,0
714,2430001035231,登記記録の閉鎖等,0,2023-01-25,2023-01-19,株式会社ＡＳＣｅ　Ｓｙｓｔｅｍ　Ｌａｂ．,,株式会社,北海道,札幌市白石区,本通５丁目南４番６０号,,01,104,0030026,,,2023-01-19,清算の結了等,,,2015-10-05,1,,,,,アスクシステムラボ,0
719,2460102006368,登記記録の閉鎖等,0,2023-01-25,2023-01-20,有限会社涌井住設,,有限会社,北海道,中川郡本別町,南４丁目１６６番地４,,01,646,0893314,,,2023-01-20,清算の結了等,,,2015-10-05,1,,,,,ワクイジュウセツ,0
721,2480001002516,登記記録の閉鎖等,0,2023-01-25,2023-01-25,明和建販株式会社,,株式会社,徳島県,徳島市,川内町大松３１５番地１,,36,201,7710131,,,2023-01-25,登記官による閉鎖,,,2015-10-05,1,,,,,,0
722,2480001004025,登記記録の閉鎖等,0,2023-01-25,2023-01-25,株式会社ミューズ,,株式会社,徳島県,徳島市,川内町沖島２４５番地,,36,201,7710142,,,2023-01-25,登記官による閉鎖,,,2015-10-05,1,,,,,,0
723,2480001004181,登記記録の閉鎖等,0,2023-01-25,2023-01-25,明徳汽船株式会社,,株式会社,徳島県,徳島市,新浜本町４丁目３番２号,,36,201,7708007,,,2023-01-25,登記官による閉鎖,,,2015-10-05,1,,,,,,0
724,2480001004322,登記記録の閉鎖等,0,2023-01-25,2023-01-25,株式会社ＩＹＳ一慶,,株式会社,徳島県,徳島市,八万町福万山８番地の３３,,36,201,7708070,,,2023-01-25,登記官による閉鎖,,,2015-10-05,1,,,,,,0
726,2480001006228,登記記録の閉鎖等,0,2023-01-25,2023-01-25,株式会社楠企画,,株式会社,徳島県,鳴門市,撫養町黒崎字磯崎５９番地,,36,202,7720001,,,2023-01-25,登記官による閉鎖,,,2015-10-05,1,,,,,,0
727,2480001006987,登記記録の閉鎖等,0,2023-01-25,2023-01-25,牧本建設株式会社,,株式会社,徳島県,海部郡美波町,西河内字月輪９５番地,,36,387,7792306,,,2023-01-25,登記官による閉鎖,,,2015-10-05,1,,,,,,0
728,2480001007044,登記記録の閉鎖等,0,2023-01-25,2023-01-25,四国木材工業株式会社,,株式会社,徳島県,阿南市,橘町南新田１０番地の２９,,36,204,7740023,,,2023-01-25,登記官による閉鎖,,,2016-04-06,1,,,,,,0
729,2480001009544,登記記録の閉鎖等,0,2023-01-25,2023-01-25,東邦倉庫株式会社,,株式会社,徳島県,徳島市,中洲町３丁目６番地１,,36,201,7700856,,,2023-01-25,登記官による閉鎖,,,2016-02-16,1,,,,,,0
730,2480002004040,登記記録の閉鎖等,0,2023-01-25,2023-01-25,有限会社林商店,,有限会社,徳島県,徳島市,大道１丁目３２番地,,36,201,7700923,,,2023-01-25,登記官による閉鎖,,,2015-10-05,1,,,,,,0
731,2480002005146,登記記録の閉鎖等,0,2023-01-25,2023-01-25,有限会社山城機力工業,,有限会社,徳島県,徳島市,名東町２丁目６５０番地４８,,36,201,7700047,,,2023-01-25,登記官による閉鎖,,,2015-10-05,1,,,,,,0
732,2480002005625,登記記録の閉鎖等,0,2023-01-25,2023-01-25,有限会社徳島英語学院,,有限会社,徳島県,名西郡石井町,高原字東高原１１１番地の１,,36,341,7793205,,,2023-01-25,登記官による閉鎖,,,2015-10-05,1,,,,,,0
733,2480002005633,登記記録の閉鎖等,0,2023-01-25,2023-01-25,有限会社中筋水道工業,,有限会社,徳島県,名西郡石井町,浦庄字下浦９２９番地の７６,,36,341,7793244,,,2023-01-25,登記官による閉鎖,,,2015-10-05,1,,,,,,0
734,2480002005864,登記記録の閉鎖等,0,2023-01-25,2023-01-25,有限会社山下建設,,有限会社,徳島県,名東郡佐那河内村,下字中辺１２番地,,36,321,7714101,,,2023-01-25,登記官による閉鎖,,,2015-10-05,1,,,,,,0
735,2480002005889,登記記録の閉鎖等,0,2023-01-25,2023-01-25,上山建設有限会社,,有限会社,徳島県,名西郡神山町,下分字安吉７番地の７,,36,342,7713421,,,2023-01-25,登記官による閉鎖,,,2015-10-05,1,,,,,,0
736,2480002006160,登記記録の閉鎖等,0,2023-01-25,2023-01-25,有限会社高砂園,,有限会社,徳島県,名西郡石井町,藍畑字高畑１５５０番地,,36,341,7793213,,,2023-01-25,登記官による閉鎖,,,2015-10-05,1,,,,,,0
737,2480002013099,登記記録の閉鎖等,0,2023-01-25,2023-01-25,有限会社芝山コンクリートブロック製造所,,有限会社,徳島県,阿南市,長生町西方１３３番地の１,,36,204,7740046,,,2023-01-25,登記官による閉鎖,,,2015-10-05,1,,,,,,0
738,2480002013842,登記記録の閉鎖等,0,2023-01-25,2023-01-25,横川手袋有限会社,,有限会社,徳島県,阿南市,七見町松木６２番地,,36,204,7740012,,,2023-01-25,登記官による閉鎖,,,2015-10-05,1,,,,,,0
739,2480002014262,登記記録の閉鎖等,0,2023-01-25,2023-01-25,有限会社樋口建設,,有限会社,徳島県,海部郡美波町,奥河内字弁才天６８番地６,,36,387,7792305,,,2023-01-25,登記官による閉鎖,,,2015-10-05,1,,,,,,0
740,2480002014576,登記記録の閉鎖等,0,2023-01-25,2023-01-25,有限会社うだつメディカルサービス,,有限会社,徳島県,美馬市,脇町大字脇町字郡里町８５８番地の２,,36,207,7793610,,,2023-01-25,登記官による閉鎖,,,2015-10-05,1,,,,,,0
741,2480002015491,登記記録の閉鎖等,0,2023-01-25,2023-01-25,有限会社久保工業,,有限会社,徳島県,三好市,池田町州津葛ヶ久保１０４７番地１,,36,208,7780020,,,2023-01-25,登記官による閉鎖,,,2015-10-05,1,,,,,,0
742,2480002016218,登記記録の閉鎖等,0,2023-01-25,2023-01-25,平尾縫製有限会社,,有限会社,徳島県,阿波市,市場町興崎字南分３３６番地,,36,206,7711622,,,2023-01-25,登記官による閉鎖,,,2017-03-24,1,,,,,,0
743,2480005004194,登記記録の閉鎖等,0,2023-01-25,2023-01-25,丸三海運企業組合,,その他の設立登記法人,徳島県,阿南市,那賀川町中島７５３番地,,36,204,7791245,,,2023-01-25,登記官による閉鎖,,,2015-10-05,1,,,,,,0
748,3010001070113,登記記録の閉鎖等,0,2023-01-25,2023-01-16,株式会社アイ・エフ・ユーネットワーク,,株式会社,東京都,中央区,東日本橋２丁目２番１０号,,13,102,1030004,,,2023-01-16,清算の結了等,,,2015-10-05,1,,,,,,0
750,3010001134330,登記記録の閉鎖等,0,2023-01-25,2023-01-25,エフアンドエフ株式会社,,株式会社,神奈川県,横浜市港北区,新横浜３丁目２１番地２,,14,109,2220033,,,2023-01-25,登記官による閉鎖,,,2015-10-05,1,,,,,,0
752,3010001162810,登記記録の閉鎖等,0,2023-01-25,2023-01-18,株式会社アルブル,,株式会社,東京都,墨田区,八広４丁目３１番１０号,,13,107,1310041,,,2023-01-18,清算の結了等,,,2015-10-05,1,,,,,,0
754,3010001173147,登記記録の閉鎖等,0,2023-01-25,2023-01-17,株式会社ｍｉｔｅｔｅ,,株式会社,福岡県,福岡市中央区,天神２丁目３番１０号天神パインクレスト７１９号室,,40,133,8100001,,,2023-01-17,清算の結了等,,,2016-01-25,1,,,,,ミテテ,0
763,3010003032499,登記記録の閉鎖等,0,2023-01-25,2023-01-16,合同会社ファーストステップ,,合同会社,東京都,中央区,銀座１丁目２２－１１銀座大竹ビジデンス２Ｆ,,13,102,1040061,,,2023-01-16,清算の結了等,,,2020-06-26,1,,,,,,0
788,3011101013432,登記記録の閉鎖等,0,2023-01-25,2023-01-25,株式会社デイスプレイケイ,,株式会社,東京都,新宿区,弁天町１１１番地７弁天ビル２０１,,13,104,1620851,,,2023-01-25,登記官による閉鎖,,,2015-10-05,1,,,,,,0
789,3011101035889,登記記録の閉鎖等,0,2023-01-25,2023-01-25,株式会社正志恵,,株式会社,東京都,新宿区,百人町１丁目５番４号東都ビル４０１,,13,104,1690073,,,2023-01-25,登記官による閉鎖,,,2015-10-05,1,,,,,,0
790,3011101054559,登記記録の閉鎖等,0,2023-01-25,2023-01-25,株式会社Ｌｉｖｅ,,株式会社,東京都,新宿区,新宿５丁目１１番１３号,,13,104,1600022,,,2023-01-25,登記官による閉鎖,,,2015-10-05,1,,,,,,0
791,3011101056274,登記記録の閉鎖等,0,2023-01-25,2023-01-25,株式会社クリスタル,,株式会社,東京都,新宿区,中落合１丁目１４番地２３エヌハイツ１０３,,13,104,1610032,,,2023-01-25,登記官による閉鎖,,,2015-10-05,1,,,,,,0
792,3011101057652,登記記録の閉鎖等,0,2023-01-25,2023-01-25,株式会社ＫＳＪ,,株式会社,東京都,新宿区,大久保１丁目７番２６号,,13,104,1690072,,,2023-01-25,登記官による閉鎖,,,2015-10-05,1,,,,,,0
793,3011101059236,登記記録の閉鎖等,0,2023-01-25,2023-01-25,株式会社お多福,,株式会社,東京都,新宿区,歌舞伎町２丁目２１番５号,,13,104,1600021,,,2023-01-25,登記官による閉鎖,,,2015-10-05,1,,,,,,0
794,3011101061365,登記記録の閉鎖等,0,2023-01-25,2023-01-25,クヌギ株式会社,,株式会社,東京都,新宿区,百人町１丁目４７番１号,,13,104,1690073,,,2023-01-25,登記官による閉鎖,,,2015-10-05,1,,,,,,0
795,3011101061381,登記記録の閉鎖等,0,2023-01-25,2023-01-25,株式会社トアナ,,株式会社,東京都,新宿区,歌舞伎町１丁目２番１６号第一オスカービル１階,,13,104,1600021,,,2023-01-25,登記官による閉鎖,,,2015-10-05,1,,,,,,0
799,3011105002167,登記記録の閉鎖等,0,2023-01-25,2023-01-25,特定非営利活動法人病院環境緑化改善協会,,その他の設立登記法人,東京都,新宿区,新宿５丁目１２番１１号,,13,104,1600022,,,2023-01-25,登記官による閉鎖,,,2015-10-05,1,,,,,,0
800,3011105002745,登記記録の閉鎖等,0,2023-01-25,2023-01-25,特定非営利活動法人エヌピーオー新宿大学,,その他の設立登記法人,東京都,新宿区,矢来町３７番地グレイストーン１０１号,,13,104,1620805,,,2023-01-25,登記官による閉鎖,,,2015-10-05,1,,,,,,0
801,3011105004931,登記記録の閉鎖等,0,2023-01-25,2023-01-25,一般社団法人日本ダンスセルフ自己整体協会,,その他の設立登記法人,東京都,新宿区,西新宿７丁目２番１０号,,13,104,1600023,,,2023-01-25,登記官による閉鎖,,,2015-10-05,1,,,,,,0
807,3011401018395,登記記録の閉鎖等,0,2023-01-25,2023-01-13,株式会社エスシステム,,株式会社,東京都,目黒区,下目黒６丁目９番１３号,,13,110,1530064,,,2023-01-13,清算の結了等,,,2015-10-05,1,,,,,エスシステム,0
809,3011601018955,登記記録の閉鎖等,0,2023-01-25,2023-01-18,株式会社トップギア,,株式会社,東京都,練馬区,東大泉７丁目１４番２号,,13,120,1780063,,,2023-01-18,清算の結了等,,,2015-10-05,1,,,,,トップギア,0
816,3011802011635,登記記録の閉鎖等,0,2023-01-25,2023-01-23,有限会社恊和地所,,有限会社,東京都,足立区,加平２丁目２４番５号,,13,121,1210055,,,2023-01-23,清算の結了等,,,2015-10-05,1,,,,,キョウワジショ,0
819,3012402004962,登記記録の閉鎖等,0,2023-01-25,2023-01-23,有限会社三興,,有限会社,東京都,小金井市,緑町２丁目１７番３７－２０６号,,13,210,1840003,,,2023-01-23,清算の結了等,,,2015-10-05,1,,,,,サンコウ,0
821,3013301031908,登記記録の閉鎖等,0,2023-01-25,2023-01-23,隆盛株式会社,,株式会社,東京都,豊島区,池袋２丁目６１番８－９０１号アゼリア青新ビル,,13,116,1710014,,,2023-01-23,清算の結了等,,,2015-10-05,1,,,,,リュウセイ,0
822,3020001002882,登記記録の閉鎖等,0,2023-01-25,2023-01-25,慶友電設工業株式会社,,株式会社,神奈川県,横浜市磯子区,岡村７丁目２０番８号,,14,107,2350021,,,2023-01-25,登記官による閉鎖,,,2015-10-05,1,,,,,,0
823,3020001007106,登記記録の閉鎖等,0,2023-01-25,2023-01-25,株式会社植田事務所,,株式会社,神奈川県,横浜市泉区,緑園３丁目２５番地９,,14,116,2450002,,,2023-01-25,登記官による閉鎖,,,2015-10-05,1,,,,,,0
824,3020001011594,登記記録の閉鎖等,0,2023-01-25,2023-01-25,センチュリービジネスコンサルティング株式会社,,株式会社,神奈川県,横浜市青葉区,大場町３９７番地７,,14,117,2250023,,,2023-01-25,登記官による閉鎖,,,2015-10-05,1,,,,,,0
825,3020001011900,登記記録の閉鎖等,0,2023-01-25,2023-01-25,株式会社のせ写真館,,株式会社,神奈川県,横浜市青葉区,荏子田１丁目１４番地１８,,14,117,2250005,,,2023-01-25,登記官による閉鎖,,,2015-10-05,1,,,,,,0
826,3020001016346,登記記録の閉鎖等,0,2023-01-25,2023-01-25,株式会社横浜星野屋,,株式会社,神奈川県,横浜市西区,久保町２番２号,,14,103,2200061,,,2023-01-25,登記官による閉鎖,,,2015-10-05,1,,,,,,0
827,3020001017534,登記記録の閉鎖等,0,2023-01-25,2023-01-25,新光商事株式会社,,株式会社,神奈川県,横浜市鶴見区,梶山２丁目３４番３１号,,14,101,2300072,,,2023-01-25,登記官による閉鎖,,,2015-10-05,1,,,,,,0
828,3020001023012,登記記録の閉鎖等,0,2023-01-25,2023-01-25,光洋ビル管理株式会社,,株式会社,神奈川県,横浜市神奈川区,東神奈川２丁目４０番地の８新見ビル２０１号,,14,102,2210044,,,2023-01-25,登記官による閉鎖,,,2015-10-05,1,,,,,,0
829,3020001034091,登記記録の閉鎖等,0,2023-01-25,2023-01-25,ルーフ株式会社,,株式会社,神奈川県,横浜市西区,宮ケ谷４４番地１５,,14,103,2200006,,,2023-01-25,登記官による閉鎖,,,2015-10-05,1,,,,,,0
830,3020001036658,登記記録の閉鎖等,0,2023-01-25,2023-01-25,株式会社エフ・プランニング,,株式会社,神奈川県,横浜市栄区,犬山町２４番９号,,14,115,2470026,,,2023-01-25,登記官による閉鎖,,,2015-10-05,1,,,,,,0
831,3020001041848,登記記録の閉鎖等,0,2023-01-25,2023-01-25,株式会社横浜折込広告社,,株式会社,神奈川県,横浜市中区,扇町１丁目１番地２５号キンガビル４階,,14,104,2310027,,,2023-01-25,登記官による閉鎖,,,2015-10-05,1,,,,,,0
832,3020001054123,登記記録の閉鎖等,0,2023-01-25,2023-01-25,株式会社ＪＴＶ,,株式会社,神奈川県,横浜市栄区,上之町２番１号,,14,115,2470025,,,2023-01-25,登記官による閉鎖,,,2015-10-05,1,,,,,,0
833,3020001062134,登記記録の閉鎖等,0,2023-01-25,2023-01-25,株式会社ＲＥＤＥＶ　ＪＡＰＡＮ,,株式会社,神奈川県,横浜市中区,扇町２丁目４番地の２,,14,104,2310027,,,2023-01-25,登記官による閉鎖,,,2015-10-05,1,,,,,,0
834,3020001069006,登記記録の閉鎖等,0,2023-01-25,2023-01-25,株式会社小田中電気工業,,株式会社,神奈川県,川崎市中原区,上小田中１丁目１９番３４号,,14,133,2110053,,,2023-01-25,登記官による閉鎖,,,2015-10-05,1,,,,,,0
835,3020001073577,登記記録の閉鎖等,0,2023-01-25,2023-01-25,第一工営株式会社,,株式会社,神奈川県,川崎市川崎区,池上新町２丁目４番３号,,14,131,2100832,,,2023-01-25,登記官による閉鎖,,,2015-10-05,1,,,,,,0
836,3020001076811,登記記録の閉鎖等,0,2023-01-25,2023-01-25,タイセイリフォーム株式会社,,株式会社,神奈川県,川崎市高津区,久末３３６番地１久末アーバンコンフォート２２１,,14,134,2130026,,,2023-01-25,登記官による閉鎖,,,2015-10-05,1,,,,,,0
837,3020001079491,登記記録の閉鎖等,0,2023-01-25,2023-01-25,株式会社リンクス,,株式会社,神奈川県,川崎市中原区,中丸子１１８７番地３,,14,133,2110012,,,2023-01-25,登記官による閉鎖,,,2015-10-05,1,,,,,,0
838,3020001082231,登記記録の閉鎖等,0,2023-01-25,2023-01-25,東日本データ通信株式会社,,株式会社,神奈川県,川崎市高津区,溝口６丁目１２番１２号ブランシャンブル１０２,,14,134,2130001,,,2023-01-25,登記官による閉鎖,,,2015-10-05,1,,,,,,0
839,3020001087684,登記記録の閉鎖等,0,2023-01-25,2023-01-25,株式会社ＭＧＭ,,株式会社,神奈川県,横浜市青葉区,美しが丘４丁目１番地１１ＬｉｎｋＳ２１４,,14,117,2250002,,,2023-01-25,登記官による閉鎖,,,2015-10-05,1,,,,,,0
845,3020002004977,登記記録の閉鎖等,0,2023-01-25,2023-01-25,有限会社まるやすサイクル霧が丘,,有限会社,神奈川県,横浜市緑区,霧が丘１丁目２４番地４,,14,113,2260016,,,2023-01-25,登記官による閉鎖,,,2015-10-05,1,,,,,,0
846,3020002005224,登記記録の閉鎖等,0,2023-01-25,2023-01-25,有限会社リカーショップヨシノ,,有限会社,神奈川県,横浜市緑区,青砥町８２１番地６０,,14,113,2260022,,,2023-01-25,登記官による閉鎖,,,2015-10-05,1,,,,,,0
847,3020002007212,登記記録の閉鎖等,0,2023-01-25,2023-01-25,有限会社山研,,有限会社,神奈川県,横浜市都筑区,東山田町２４１番地,,14,118,2240024,,,2023-01-25,登記官による閉鎖,,,2015-10-05,1,,,,,,0
848,3020002007451,登記記録の閉鎖等,0,2023-01-25,2023-01-25,有限会社旭ハウジング,,有限会社,神奈川県,横浜市金沢区,六浦１丁目１１番１７号,,14,108,2360031,,,2023-01-25,登記官による閉鎖,,,2015-10-05,1,,,,,,0
849,3020002015776,登記記録の閉鎖等,0,2023-01-25,2023-01-25,有限会社横浜まつうら,,有限会社,神奈川県,横浜市青葉区,田奈町８番地１８,,14,117,2270064,,,2023-01-25,登記官による閉鎖,,,2015-10-05,1,,,,,,0
850,3020002023052,登記記録の閉鎖等,0,2023-01-25,2023-01-25,有限会社アルション,,有限会社,神奈川県,横浜市保土ケ谷区,西谷町１０７１番地,,14,106,2400052,,,2023-01-25,登記官による閉鎖,,,2015-10-05,1,,,,,,0
851,3020002024918,登記記録の閉鎖等,0,2023-01-25,2023-01-25,有限会社松田商会,,有限会社,神奈川県,横浜市保土ケ谷区,瀬戸ケ谷町５３番地,,14,106,2400024,,,2023-01-25,登記官による閉鎖,,,2015-10-05,1,,,,,,0
852,3020002028010,登記記録の閉鎖等,0,2023-01-25,2023-01-25,有限会社プラネットピーチ,,有限会社,神奈川県,横浜市神奈川区,大野町一丁目８番,,14,102,2210055,,,2023-01-25,登記官による閉鎖,,,2015-10-05,1,,,,,,0
853,3020002028118,登記記録の閉鎖等,0,2023-01-25,2023-01-25,有限会社本場伊勢茂,,有限会社,神奈川県,横浜市神奈川区,山内町１番地の１,,14,102,2210054,,,2023-01-25,登記官による閉鎖,,,2015-10-05,1,,,,,,0
854,3020002036384,登記記録の閉鎖等,0,2023-01-25,2023-01-25,有限会社エンジェルクーパー,,有限会社,神奈川県,横浜市港北区,菊名６丁目２０番２２号,,14,109,2220011,,,2023-01-25,登記官による閉鎖,,,2015-10-05,1,,,,,,0
855,3020002041459,登記記録の閉鎖等,0,2023-01-25,2023-01-25,有限会社魚亀,,有限会社,神奈川県,横浜市中区,石川町２丁目７３番地,,14,104,2310868,,,2023-01-25,登記官による閉鎖,,,2015-10-05,1,,,,,,0
856,3020002046474,登記記録の閉鎖等,0,2023-01-25,2023-01-25,有限会社ホームサービス,,有限会社,神奈川県,横浜市瀬谷区,三ツ境８９番２　３０３号,,14,114,2460022,,,2023-01-25,登記官による閉鎖,,,2015-10-05,1,,,,,,0
857,3020002047209,登記記録の閉鎖等,0,2023-01-25,2023-01-25,日本美景イメージ有限会社,,有限会社,神奈川県,横浜市金沢区,六浦南１丁目１２番１１号,,14,108,2360038,,,2023-01-25,登記官による閉鎖,,,2015-10-05,1,,,,,,0
858,3020002048982,登記記録の閉鎖等,0,2023-01-25,2023-01-25,有限会社竹内材木店,,有限会社,神奈川県,横浜市南区,井土ケ谷上町３５－２５,,14,105,2320051,,,2023-01-25,登記官による閉鎖,,,2015-10-05,1,,,,,,0
859,3020002053140,登記記録の閉鎖等,0,2023-01-25,2023-01-25,有限会社与那嶺電設,,有限会社,神奈川県,横浜市鶴見区,平安町１丁目５６番地１４クレインＫ２０１,,14,101,2300031,,,2023-01-25,登記官による閉鎖,,,2015-10-05,1,,,,,,0
860,3020002074541,登記記録の閉鎖等,0,2023-01-25,2023-01-25,有限会社シンコウテック,,有限会社,神奈川県,横浜市南区,別所中里台３１番４号,,14,105,2320065,,,2023-01-25,登記官による閉鎖,,,2015-10-05,1,,,,,,0
861,3020002086264,登記記録の閉鎖等,0,2023-01-25,2023-01-25,有限会社栗原,,有限会社,神奈川県,川崎市宮前区,水沢１丁目１番１号,,14,136,2160012,,,2023-01-25,登記官による閉鎖,,,2015-10-05,1,,,,,,0
863,3020005003241,登記記録の閉鎖等,0,2023-01-25,2023-01-25,神奈川県複写産業協同組合,,その他の設立登記法人,神奈川県,横浜市港南区,最戸１丁目１３番地１０,,14,111,2330008,,,2023-01-25,登記官による閉鎖,,,2015-10-05,1,,,,,,0
864,3020005005080,登記記録の閉鎖等,0,2023-01-25,2023-01-25,なごみ建築協同組合,,その他の設立登記法人,神奈川県,横浜市神奈川区,栄町１番地１９グレイス横浜ポートシティ,,14,102,2210052,,,2023-01-25,登記官による閉鎖,,,2015-10-05,1,,,,,,0
865,3020005006384,登記記録の閉鎖等,0,2023-01-25,2023-01-25,企業組合Ｈｉ－Ｒ　ＯＳＥ,,その他の設立登記法人,神奈川県,横浜市中区,長者町５丁目５１番１号,,14,104,2310033,,,2023-01-25,登記官による閉鎖,,,2015-10-05,1,,,,,,0
866,3020005007127,登記記録の閉鎖等,0,2023-01-25,2023-01-25,社団法人神奈川県映画教育協会,,その他の設立登記法人,神奈川県,横浜市神奈川区,子安通２丁目２７５番地,,14,102,2210021,,,2023-01-25,登記官による閉鎖,,,2015-10-05,1,,,,,,0
867,3021001016848,登記記録の閉鎖等,0,2023-01-25,2023-01-19,株式会社アイ・ピー・システム,,株式会社,神奈川県,相模原市中央区,青葉１丁目１７番６号,,14,152,2520224,,,2023-01-19,合併による解散等,5010401034839,令和５年１月１日東京都港区麻布台一丁目９番１９号エナ麻布台２Ｆ株式会社ヴイ・エス・テクノロジー（5010401034839）に合併し解散,2015-10-05,1,,,,,アイピーシステム,0
886,3030005004321,登記記録の閉鎖等,0,2023-01-25,2023-01-18,一般財団法人入間市勤労者福祉サービスセンター,,その他の設立登記法人,埼玉県,入間市,向陽台１丁目１番地７,,11,225,3580001,,,2023-01-18,清算の結了等,,,2015-10-05,1,,,,,イルマシキンロウシャフクシサービスセンター,0
901,3070001006276,登記記録の閉鎖等,0,2023-01-25,2023-01-25,株式会社エイアンドエス,,株式会社,群馬県,高崎市,芝塚町１９７８番地４,,10,202,3700064,,,2023-01-25,登記官による閉鎖,,,2015-10-05,1,,,,,,0
902,3070001008207,登記記録の閉鎖等,0,2023-01-25,2023-01-25,株式会社フォルム,,株式会社,群馬県,高崎市,浜川町２１７４番地５,,10,202,3700081,,,2023-01-25,登記官による閉鎖,,,2015-10-05,1,,,,,,0
903,3070001013652,登記記録の閉鎖等,0,2023-01-25,2023-01-25,株式会社野口製作所,,株式会社,群馬県,伊勢崎市,日乃出町５１０番地,,10,204,3720022,,,2023-01-25,登記官による閉鎖,,,2015-10-05,1,,,,,,0
904,3070001020153,登記記録の閉鎖等,0,2023-01-25,2023-01-25,前島建設工業株式会社,,株式会社,群馬県,邑楽郡邑楽町,大字鶉３０番地の３,,10,525,3700601,,,2023-01-25,登記官による閉鎖,,,2015-10-05,1,,,,,,0
905,3070001021275,登記記録の閉鎖等,0,2023-01-25,2023-01-25,翔不動産株式会社,,株式会社,群馬県,太田市,大島町３１７番地２７,,10,205,3730055,,,2023-01-25,登記官による閉鎖,,,2015-10-05,1,,,,,,0
906,3070001026126,登記記録の閉鎖等,0,2023-01-25,2023-01-25,現代自動車株式会社,,株式会社,群馬県,高崎市,矢島町３５３番地１,,10,202,3700016,,,2023-01-25,登記官による閉鎖,,,2015-10-05,1,,,,,,0
907,3070001026316,登記記録の閉鎖等,0,2023-01-25,2023-01-25,株式会社Ｂａｇｕｅｔｔｅ,,株式会社,群馬県,前橋市,石倉町５丁目１０番地１０,,10,201,3710841,,,2023-01-25,登記官による閉鎖,,,2015-10-05,1,,,,,,0
908,3070001026803,登記記録の閉鎖等,0,2023-01-25,2023-01-25,株式会社廣瀬企画,,株式会社,群馬県,前橋市,住吉町１丁目１４番１号,,10,201,3710021,,,2023-01-25,登記官による閉鎖,,,2015-10-05,1,,,,,,0
909,3070002001235,登記記録の閉鎖等,0,2023-01-25,2023-01-25,有限会社オフイス・ベルビー,,有限会社,群馬県,前橋市,大渡町２丁目３番地１３,,10,201,3710854,,,2023-01-25,登記官による閉鎖,,,2015-10-05,1,,,,,,0
910,3070002013692,登記記録の閉鎖等,0,2023-01-25,2023-01-25,有限会社イシハラ建設工業,,有限会社,群馬県,高崎市,引間町１４０番地５,,10,202,3703517,,,2023-01-25,登記官による閉鎖,,,2015-10-05,1,,,,,,0
911,3070002023337,登記記録の閉鎖等,0,2023-01-25,2023-01-25,桑安織物有限会社,,有限会社,群馬県,桐生市,川内町５丁目３０８６番地,,10,203,3760041,,,2023-01-25,登記官による閉鎖,,,2015-10-05,1,,,,,,0
912,3070002027197,登記記録の閉鎖等,0,2023-01-25,2023-01-25,有限会社吉田工務店,,有限会社,群馬県,渋川市,横堀６４９番地の３,,10,208,3770206,,,2023-01-25,登記官による閉鎖,,,2015-10-05,1,,,,,,0
913,3070002028121,登記記録の閉鎖等,0,2023-01-25,2023-01-25,有限会社稲垣工務店,,有限会社,群馬県,太田市,東本町４６番２９号,,10,205,3730026,,,2023-01-25,登記官による閉鎖,,,2015-10-05,1,,,,,,0
914,3070002029227,登記記録の閉鎖等,0,2023-01-25,2023-01-25,有限会社小柳,,有限会社,群馬県,太田市,東本町２２番１０号,,10,205,3730026,,,2023-01-25,登記官による閉鎖,,,2015-10-05,1,,,,,,0
915,3070002032560,登記記録の閉鎖等,0,2023-01-25,2023-01-25,有限会社レベッカティーチングスクール,,有限会社,群馬県,邑楽郡大泉町,坂田３丁目１０番１１号,,10,524,3700532,,,2023-01-25,登記官による閉鎖,,,2015-10-05,1,,,,,,0
916,3070002033617,登記記録の閉鎖等,0,2023-01-25,2023-01-25,有限会社大進コーポレーション,,有限会社,群馬県,館林市,緑町２丁目２７番１９号ベルメゾン緑２０１号,,10,207,3740025,,,2023-01-25,登記官による閉鎖,,,2015-10-05,1,,,,,,0
917,3070002035811,登記記録の閉鎖等,0,2023-01-25,2023-01-25,有限会社宮野入通信,,有限会社,群馬県,沼田市,白沢町上古語父２６５９番地,,10,206,3780126,,,2023-01-25,登記官による閉鎖,,,2015-10-05,1,,,,,,0
918,3070002035885,登記記録の閉鎖等,0,2023-01-25,2023-01-25,有限会社井熊建設工業,,有限会社,群馬県,沼田市,東倉内町２６６番地,,10,206,3780043,,,2023-01-25,登記官による閉鎖,,,2015-10-05,1,,,,,,0
919,3070002036066,登記記録の閉鎖等,0,2023-01-25,2023-01-25,関越ロジスティクス有限会社,,有限会社,群馬県,沼田市,白沢町上古語父２５６０番地,,10,206,3780126,,,2023-01-25,登記官による閉鎖,,,2015-10-05,1,,,,,,0
920,3070005000572,登記記録の閉鎖等,0,2023-01-25,2023-01-25,群馬海産物荷受協同組合,,その他の設立登記法人,群馬県,前橋市,力丸町１１番地の６,,10,201,3792134,,,2023-01-25,登記官による閉鎖,,,2015-10-05,1,,,,,,0
921,3070005004037,登記記録の閉鎖等,0,2023-01-25,2023-01-25,鬼石町庭石協同組合,,その他の設立登記法人,群馬県,藤岡市,鬼石３３４番地の２,,10,209,3701401,,,2023-01-25,登記官による閉鎖,,,2015-10-05,1,,,,,,0
922,3070005004953,登記記録の閉鎖等,0,2023-01-25,2023-01-25,織物協同組合福寿会,,その他の設立登記法人,群馬県,桐生市,新宿１丁目１２番１４号,,10,203,3760006,,,2023-01-25,登記官による閉鎖,,,2015-10-05,1,,,,,,0
923,3070005005200,登記記録の閉鎖等,0,2023-01-25,2023-01-25,群馬産業廃棄物処理支援事業協同組合,,その他の設立登記法人,群馬県,桐生市,広沢町２丁目３０３１番地２７,,10,203,3760013,,,2023-01-25,登記官による閉鎖,,,2015-10-05,1,,,,,,0
924,3070005005299,登記記録の閉鎖等,0,2023-01-25,2023-01-25,特定非営利活動法人太陽の夢楽,,その他の設立登記法人,群馬県,桐生市,相生町２丁目２０４番地,,10,203,3760011,,,2023-01-25,登記官による閉鎖,,,2015-10-05,1,,,,,,0
927,3080401026014,登記記録の閉鎖等,0,2023-01-25,2023-01-16,ＳＫＨＤ株式会社,,株式会社,静岡県,掛川市,宮脇２丁目１３番地の４,,22,213,4360086,,,2023-01-16,合併による解散等,6080001015505,令和５年１月１５日静岡県掛川市宮脇二丁目１３番地の４静岡桂販売株式会社（6080001015505）に合併し解散,2022-08-25,1,,,,,エスケーエイチディー,0
928,3080402000331,登記記録の閉鎖等,0,2023-01-25,2023-01-20,有限会社味彩,,有限会社,静岡県,浜松市中区,幸３丁目４番２１号,,22,131,4338123,,,2023-01-20,清算の結了等,,,2015-10-05,1,,,,,アジサイ,0
933,3110003001601,登記記録の閉鎖等,0,2023-01-25,2023-01-23,合資会社米屋旅館,,合資会社,新潟県,十日町市,松之山湯本６０番地１,,15,210,9421432,,,2023-01-23,清算の結了等,,,2015-10-05,1,,,,,コメヤリョカン,0
991,3230001006177,登記記録の閉鎖等,0,2023-01-25,2023-01-24,株式会社エルビー,,株式会社,富山県,富山市,豊田町１丁目１１番１１号,,16,201,9318313,,,2023-01-24,清算の結了等,,,2015-10-05,1,,,,,エルビー,0
997,3250002019449,登記記録の閉鎖等,0,2023-01-25,2023-01-23,有限会社クロ商,,有限会社,山口県,岩国市,旭町２丁目１２番５７号,,35,208,7400024,,,2023-01-23,清算の結了等,,,2015-10-05,1,,,,,,0
999,3250002020638,登記記録の閉鎖等,0,2023-01-25,2023-01-23,有限会社イートハーブ,,有限会社,広島県,大竹市,新町２丁目２－７,,34,211,7390611,,,2023-01-23,清算の結了等,,,2015-10-05,1,,,,,イートハーブ,0
1003,3260002027137,登記記録の閉鎖等,0,2023-01-25,2023-01-23,有限会社井倉鉄工所,,有限会社,岡山県,新見市,井倉２２９番地の１,,33,210,7192551,,,2023-01-23,清算の結了等,,,2015-10-05,1,,,,,イクラテッコウショ,0
1018,3290001096510,登記記録の閉鎖等,0,2023-01-25,2023-01-20,ララクルジャパン株式会社,,株式会社,福岡県,福岡市南区,大橋３丁目２４番１号,,40,134,8150033,,,2023-01-20,清算の結了等,,,2022-02-21,1,,,,,ララクルジャパン,0
1024,3310001004775,登記記録の閉鎖等,0,2023-01-25,2023-01-24,小川船舶電機株式会社,,株式会社,長崎県,長崎市,脇岬町３６２８番地４,,42,201,8510506,,,2023-01-24,清算の結了等,,,2015-10-05,1,,,,,オガワセンパクデンキ,0
1029,3350002002840,登記記録の閉鎖等,0,2023-01-25,2023-01-25,有限会社高山漁業,00100671,有限会社,宮崎県,宮崎市,中西町１３４番地２,,45,201,8800853,,,2023-01-25,登記官による閉鎖,,,2015-10-05,1,,,,,,0
1030,3350002004093,登記記録の閉鎖等,0,2023-01-25,2023-01-25,有限会社プロテア,,有限会社,宮崎県,宮崎市,大字島之内１０２８７番地１,,45,201,8800121,,,2023-01-25,登記官による閉鎖,,,2015-10-05,1,,,,,,0
1031,3350002010793,登記記録の閉鎖等,0,2023-01-25,2023-01-25,有限会社西建設,,有限会社,宮崎県,日向市,大字財光寺４６１９番地５,,45,206,8830021,,,2023-01-25,登記官による閉鎖,,,2015-10-05,1,,,,,,0
1032,3350002011305,登記記録の閉鎖等,0,2023-01-25,2023-01-25,有限会社西武地建,,有限会社,宮崎県,東臼杵郡美郷町,南郷神門２２５１番地,,45,431,8830306,,,2023-01-25,登記官による閉鎖,,,2015-10-05,1,,,,,,0
1033,3350002016056,登記記録の閉鎖等,0,2023-01-25,2023-01-25,有限会社オトワ建設,,有限会社,宮崎県,都城市,山之口町富吉３６４２番地１,,45,202,8891801,,,2023-01-25,登記官による閉鎖,,,2015-10-05,1,,,,,,0
1034,3350002016428,登記記録の閉鎖等,0,2023-01-25,2023-01-25,有限会社朝比奈工業,,有限会社,宮崎県,日南市,大字平山２１１４番地１,,45,204,8870033,,,2023-01-25,登記官による閉鎖,,,2015-10-05,1,,,,,,0
1036,3360002008382,登記記録の閉鎖等,0,2023-01-25,2023-01-25,有限会社アンプ,,有限会社,沖縄県,那覇市,首里儀保町２丁目１３番地,,47,201,9030821,,,2023-01-25,登記官による閉鎖,,,2015-10-05,1,,,,,,0
1038,3360002017409,登記記録の閉鎖等,0,2023-01-25,2023-01-25,有限会社金信組,,有限会社,沖縄県,中頭郡読谷村,字渡慶次１７番地,,47,324,9040326,,,2023-01-25,登記官による閉鎖,,,2015-10-05,1,,,,,,0
1039,3360002019462,登記記録の閉鎖等,0,2023-01-25,2023-01-25,有限会社カイコン商事,,有限会社,沖縄県,名護市,東江１丁目５番２３号,,47,209,9050021,,,2023-01-25,登記官による閉鎖,,,2015-10-05,1,,,,,,0
1040,3360003005098,登記記録の閉鎖等,0,2023-01-25,2023-01-25,八重山不動産合資会社,,合資会社,沖縄県,石垣市,字登野城５１０番地,,47,207,9070004,,,2023-01-25,登記官による閉鎖,,,2015-10-05,1,,,,,,0
1041,3360005001525,登記記録の閉鎖等,0,2023-01-25,2023-01-25,全沖縄県砂利事業協同組合,,その他の設立登記法人,沖縄県,糸満市,字真栄里２０５３番地１,,47,210,9010362,,,2023-01-25,登記官による閉鎖,,,2015-10-05,1,,,,,,0
1042,3360005001632,登記記録の閉鎖等,0,2023-01-25,2023-01-25,琉球霊芝流通協同組合,,その他の設立登記法人,沖縄県,島尻郡八重瀬町,字玻名城１１２３番地１,,47,362,9010513,,,2023-01-25,登記官による閉鎖,,,2015-10-05,1,,,,,,0
1043,3360005003471,登記記録の閉鎖等,0,2023-01-25,2023-01-25,イーストファーム協同組合,,その他の設立登記法人,沖縄県,国頭郡東村,字慶佐次７１８番地１先,,47,303,9051205,,,2023-01-25,登記官による閉鎖,,,2015-10-05,1,,,,,,0
1045,3370001020370,登記記録の閉鎖等,0,2023-01-25,2023-01-23,株式会社渡邊総建,,株式会社,宮城県,名取市,杜せきのした５丁目２０番地３号,,04,207,9811227,,,2023-01-23,清算の結了等,,,2015-10-05,1,,,,,,0
1048,3370002010107,登記記録の閉鎖等,0,2023-01-25,2023-01-23,有限会社エーアール総合企画,,有限会社,宮城県,仙台市青葉区,柏木３丁目１番５０号,,04,101,9810933,,,2023-01-23,清算の結了等,,,2015-10-05,1,,,,,エーアールソウゴウキカク,0
1050,3390001005097,登記記録の閉鎖等,0,2023-01-25,2023-01-23,株式会社エストゥワン,,株式会社,山形県,山形市,元木１丁目１０番４３号,,06,201,9902447,,,2023-01-23,登記官による閉鎖,,,2015-10-05,1,,,,,,0
1051,3390001005221,登記記録の閉鎖等,0,2023-01-25,2023-01-23,アドバンス．Ｉ株式会社,,株式会社,山形県,山形市,久保田１丁目６番１３号,,06,201,9902482,,,2023-01-23,登記官による閉鎖,,,2015-10-05,1,,,,,,0
1062,3460301005046,登記記録の閉鎖等,0,2023-01-25,2023-01-16,株式会社レゴフラ,,株式会社,北海道,北見市,端野町二区３４１番地１０,,01,208,0992102,,,2023-01-16,清算の結了等,,,2022-02-22,1,,,,,レゴフラ,0
1065,3480001004783,登記記録の閉鎖等,0,2023-01-25,2023-01-25,株式会社活魚水産,,株式会社,徳島県,徳島市,八万町大坪２０番地の３６,,36,201,7708079,,,2023-01-25,登記官による閉鎖,,,2015-10-05,1,,,,,,0
1066,3480002007620,登記記録の閉鎖等,0,2023-01-25,2023-01-25,有限会社春日,,有限会社,徳島県,小松島市,大林町字岩戸１７番地８,,36,203,7730022,,,2023-01-25,登記官による閉鎖,,,2015-10-05,1,,,,,,0
1067,3480002015128,登記記録の閉鎖等,0,2023-01-25,2023-01-25,山口組有限会社,,有限会社,徳島県,美馬市,脇町新町３４８番地の１,,36,207,7793620,,,2023-01-25,登記官による閉鎖,,,2015-10-05,1,,,,,,0
1068,3480003000228,登記記録の閉鎖等,0,2023-01-25,2023-01-25,合資会社ケイエムマッシュ,,合資会社,徳島県,名西郡神山町,鬼籠野字中津川３０６番地,,36,342,7713203,,,2023-01-25,登記官による閉鎖,,,2015-10-05,1,,,,,,0
1069,3480005005002,登記記録の閉鎖等,0,2023-01-25,2023-01-25,特定非営利活動法人自立生活支援センター徳島,,その他の設立登記法人,徳島県,阿南市,那賀川町手島はり４番地３,,36,204,7791123,,,2023-01-25,登記官による閉鎖,,,2015-10-05,1,,,,,,0
1072,3500002013888,登記記録の閉鎖等,0,2023-01-25,2023-01-23,有限会社秋山自動車,,有限会社,愛媛県,西条市,神拝甲１７２番地の３,,38,206,7930041,,,2023-01-23,清算の結了等,,,2015-10-05,1,,,,,,0
1076,4010001137266,登記記録の閉鎖等,0,2023-01-25,2023-01-16,株式会社Ｎ－ＢＡＳＥ,,株式会社,東京都,中央区,日本橋人形町１丁目１番１１号,,13,102,1030013,,,2023-01-16,合併による解散等,4010001136292,令和５年１月１日東京都中央区日本橋人形町一丁目１番１１号株式会社ＮＩＳＳＨＯインベストメント（4010001136292）に合併し解散,2015-10-05,1,,,,,エヌベース,0
1091,4010401165024,登記記録の閉鎖等,0,2023-01-25,2023-01-06,Ｏｎｅ　ｌｉｎｅ株式会社,,株式会社,東京都,港区,新橋２丁目５番２号,,13,103,1050004,,,2023-01-06,清算の結了等,,,2022-01-21,1,,,,,ワンライン,0
1100,4010601037171,登記記録の閉鎖等,0,2023-01-25,2023-01-18,株式会社コーワ,,株式会社,東京都,江東区,亀戸９丁目２３番５号,,13,108,1360071,,,2023-01-18,清算の結了等,,,2015-10-05,1,,,,,,0
1115,4011001139888,登記記録の閉鎖等,0,2023-01-25,2023-01-11,株式会社オレンジオレンジ,,株式会社,東京都,渋谷区,円山町５－５,,13,113,1500044,,,2023-01-11,清算の結了等,,,2021-04-16,1,,,,,オレンジオレンジ,0
1123,4011101003226,登記記録の閉鎖等,0,2023-01-25,2023-01-25,株式会社エヌエスシー,,株式会社,東京都,新宿区,新宿１丁目３２番１５号,,13,104,1600022,,,2023-01-25,登記官による閉鎖,,,2015-10-05,1,,,,,,0
1124,4011101008704,登記記録の閉鎖等,0,2023-01-25,2023-01-25,株式会社しんき,,株式会社,東京都,新宿区,北新宿３丁目９番１２号,,13,104,1690074,,,2023-01-25,登記官による閉鎖,,,2015-10-05,1,,,,,,0
1125,4011101018983,登記記録の閉鎖等,0,2023-01-25,2023-01-25,株式会社プランニングメイト,,株式会社,東京都,新宿区,市谷左内町２１番３９,,13,104,1620846,,,2023-01-25,登記官による閉鎖,,,2015-10-05,1,,,,,,0
1127,4011101049896,登記記録の閉鎖等,0,2023-01-25,2023-01-25,株式会社ライフビギン,,株式会社,東京都,新宿区,大久保２丁目７番１号,,13,104,1690072,,,2023-01-25,登記官による閉鎖,,,2015-10-05,1,,,,,,0
1128,4011101057313,登記記録の閉鎖等,0,2023-01-25,2023-01-25,株式会社セブン,,株式会社,東京都,新宿区,北新宿１丁目２９番１１号,,13,104,1690074,,,2023-01-25,登記官による閉鎖,,,2015-10-05,1,,,,,,0
1129,4011101060275,登記記録の閉鎖等,0,2023-01-25,2023-01-25,株式会社リアルネット,,株式会社,東京都,新宿区,高田馬場２丁目６番１０号,,13,104,1690075,,,2023-01-25,登記官による閉鎖,,,2015-10-05,1,,,,,,0
1130,4011102004264,登記記録の閉鎖等,0,2023-01-25,2023-01-25,京浜防災有限会社,,有限会社,東京都,新宿区,西新宿８丁目１５番１９号,,13,104,1600023,,,2023-01-25,登記官による閉鎖,,,2015-10-05,1,,,,,,0
1131,4011102006351,登記記録の閉鎖等,0,2023-01-25,2023-01-25,有限会社上産商,,有限会社,東京都,新宿区,袋町２番地,,13,104,1620828,,,2023-01-25,登記官による閉鎖,,,2015-10-05,1,,,,,,0
1132,4011102008059,登記記録の閉鎖等,0,2023-01-25,2023-01-25,有限会社辰巳庵,,有限会社,東京都,新宿区,西落合１丁目８番１号,,13,104,1610031,,,2023-01-25,登記官による閉鎖,,,2015-10-05,1,,,,,,0
1133,4011102008232,登記記録の閉鎖等,0,2023-01-25,2023-01-25,有限会社中華一番,,有限会社,東京都,新宿区,富久町１９番１２号,,13,104,1620067,,,2023-01-25,登記官による閉鎖,,,2015-10-05,1,,,,,,0
1134,4011102008323,登記記録の閉鎖等,0,2023-01-25,2023-01-25,有限会社筑波屋,,有限会社,東京都,新宿区,新宿６丁目２０番８号,,13,104,1600022,,,2023-01-25,登記官による閉鎖,,,2015-10-05,1,,,,,,0
1149,4011701013112,登記記録の閉鎖等,0,2023-01-25,2023-01-23,株式会社ロックサーブ,,株式会社,東京都,江戸川区,中葛西８丁目２１番１４号,,13,123,1340083,,,2023-01-23,清算の結了等,,,2015-10-05,1,,,,,ロックサーブ,0
1162,4020001005521,登記記録の閉鎖等,0,2023-01-25,2023-01-25,ひかり商事株式会社,,株式会社,神奈川県,横浜市瀬谷区,三ツ境４６番地の１,,14,114,2460022,,,2023-01-25,登記官による閉鎖,,,2015-10-05,1,,,,,,0
1163,4020001013598,登記記録の閉鎖等,0,2023-01-25,2023-01-25,株式会社バンダイ,,株式会社,神奈川県,横浜市南区,六ツ川１丁目３４０番地,,14,105,2320066,,,2023-01-25,登記官による閉鎖,,,2015-10-05,1,,,,,,0
1164,4020001015826,登記記録の閉鎖等,0,2023-01-25,2023-01-25,株式会社ビデオレック,,株式会社,神奈川県,横浜市都筑区,北山田５丁目２番１７号,,14,118,2240021,,,2023-01-25,登記官による閉鎖,,,2015-10-05,1,,,,,,0
1165,4020001022070,登記記録の閉鎖等,0,2023-01-25,2023-01-25,横浜フロツク工業株式会社,,株式会社,神奈川県,横浜市港北区,綱島東４丁目１１番３０号,,14,109,2230052,,,2023-01-25,登記官による閉鎖,,,2015-10-05,1,,,,,,0
1166,4020001027160,登記記録の閉鎖等,0,2023-01-25,2023-01-25,株式会社鈴木カメラ店,,株式会社,神奈川県,横浜市神奈川区,松本町１丁目１番地の２,,14,102,2210841,,,2023-01-25,登記官による閉鎖,,,2015-10-05,1,,,,,,0
1167,4020001042399,登記記録の閉鎖等,0,2023-01-25,2023-01-25,株式会社ハッピーホーム,,株式会社,神奈川県,横浜市神奈川区,西神奈川１丁目９番５号,,14,102,2210822,,,2023-01-25,登記官による閉鎖,,,2015-10-05,1,,,,,,0
1169,4020001046672,登記記録の閉鎖等,0,2023-01-25,2023-01-25,株式会社半沢,,株式会社,神奈川県,横浜市緑区,長津田町２６７７番地４,,14,113,2260026,,,2023-01-25,登記官による閉鎖,,,2015-10-05,1,,,,,,0
1170,4020001049774,登記記録の閉鎖等,0,2023-01-25,2023-01-25,株式会社アリクシ,,株式会社,神奈川県,横浜市南区,吉野町１丁目１番地６,,14,105,2320014,,,2023-01-25,登記官による閉鎖,,,2015-10-05,1,,,,,,0
1171,4020001051169,登記記録の閉鎖等,0,2023-01-25,2023-01-25,株式会社アイビーシー,,株式会社,神奈川県,横浜市中区,元町５丁目２０３番地元町スカイビル５Ｆ－１,,14,104,2310861,,,2023-01-25,登記官による閉鎖,,,2015-10-05,1,,,,,,0
1172,4020001053545,登記記録の閉鎖等,0,2023-01-25,2023-01-25,株式会社ミラージュ,,株式会社,神奈川県,横浜市保土ケ谷区,権太坂１丁目１番地２７,,14,106,2400026,,,2023-01-25,登記官による閉鎖,,,2015-10-05,1,,,,,,0
1173,4020001064815,登記記録の閉鎖等,0,2023-01-25,2023-01-25,株式会社森田金物店,,株式会社,神奈川県,川崎市多摩区,登戸１９６２番地,,14,135,2140014,,,2023-01-25,登記官による閉鎖,,,2015-10-05,1,,,,,,0
1174,4020001071464,登記記録の閉鎖等,0,2023-01-25,2023-01-25,富士エンジニアリング株式会社,,株式会社,神奈川県,川崎市幸区,南加瀬５丁目１０番２０－１０１号,,14,132,2120055,,,2023-01-25,登記官による閉鎖,,,2015-10-05,1,,,,,,0
1175,4020001077296,登記記録の閉鎖等,0,2023-01-25,2023-01-25,株式会社春日総合開発機構,,株式会社,神奈川県,川崎市宮前区,宮前平１丁目１０番１２号,,14,136,2160006,,,2023-01-25,登記官による閉鎖,,,2015-10-05,1,,,,,,0
1176,4020001084078,登記記録の閉鎖等,0,2023-01-25,2023-01-25,株式会社ハーベスト,,株式会社,神奈川県,横浜市泉区,緑園１丁目４番６号ジョリーファーム１０３,,14,116,2450002,,,2023-01-25,登記官による閉鎖,,,2015-10-05,1,,,,,,0
1177,4020001096486,登記記録の閉鎖等,0,2023-01-25,2023-01-25,株式会社セントラルハウジング,,株式会社,神奈川県,横浜市戸塚区,舞岡町２７８７番地１,,14,110,2440813,,,2023-01-25,登記官による閉鎖,,,2015-10-05,1,,,,,,0
1181,4020002001841,登記記録の閉鎖等,0,2023-01-25,2023-01-25,有限会社ハルナ機材,,有限会社,神奈川県,横浜市瀬谷区,宮沢２丁目２０番地９,,14,114,2460038,,,2023-01-25,登記官による閉鎖,,,2015-10-05,1,,,,,,0
1182,4020002006023,登記記録の閉鎖等,0,2023-01-25,2023-01-25,有限会社酒井畜産,,有限会社,神奈川県,横浜市都筑区,荏田東４丁目３番１３号,,14,118,2240006,,,2023-01-25,登記官による閉鎖,,,2015-10-05,1,,,,,,0
1183,4020002021534,登記記録の閉鎖等,0,2023-01-25,2023-01-25,有限会社スタンダードデンタルラボラトリー,,有限会社,神奈川県,横浜市保土ケ谷区,保土ケ谷町３丁目１８２番地,,14,106,2400021,,,2023-01-25,登記官による閉鎖,,,2015-10-05,1,,,,,,0
1184,4020002023043,登記記録の閉鎖等,0,2023-01-25,2023-01-25,有限会社和泉梱包,,有限会社,神奈川県,横浜市保土ケ谷区,和田２丁目８番４号,,14,106,2400065,,,2023-01-25,登記官による閉鎖,,,2015-10-05,1,,,,,,0
1185,4020002033711,登記記録の閉鎖等,0,2023-01-25,2023-01-25,有限会社齋藤青果,,有限会社,神奈川県,横浜市港北区,大曽根１丁目２３番５号,,14,109,2220003,,,2023-01-25,登記官による閉鎖,,,2015-10-05,1,,,,,,0
1186,4020002035121,登記記録の閉鎖等,0,2023-01-25,2023-01-25,有限会社ナカムラ建工,,有限会社,神奈川県,横浜市港北区,篠原台町３６番１１号,,14,109,2220024,,,2023-01-25,登記官による閉鎖,,,2015-10-05,1,,,,,,0
1187,4020002035229,登記記録の閉鎖等,0,2023-01-25,2023-01-25,有限会社ノースポート,,有限会社,神奈川県,横浜市港北区,篠原東３丁目６番１号,,14,109,2220022,,,2023-01-25,登記官による閉鎖,,,2015-10-05,1,,,,,,0
1188,4020002047629,登記記録の閉鎖等,0,2023-01-25,2023-01-25,有限会社ベターライフ真澄,,有限会社,神奈川県,横浜市戸塚区,平戸４丁目３２番４５号,,14,110,2440802,,,2023-01-25,登記官による閉鎖,,,2015-10-05,1,,,,,,0
1189,4020002053131,登記記録の閉鎖等,0,2023-01-25,2023-01-25,有限会社ナカヤ安全,,有限会社,神奈川県,横浜市南区,永田南２丁目１番１号,,14,105,2320073,,,2023-01-25,登記官による閉鎖,,,2015-10-05,1,,,,,,0
1190,4020002082023,登記記録の閉鎖等,0,2023-01-25,2023-01-25,有限会社トゥ・ワン,,有限会社,神奈川県,川崎市幸区,北加瀬１丁目１６番５号,,14,132,2120057,,,2023-01-25,登記官による閉鎖,,,2015-10-05,1,,,,,,0
1191,4020002092443,登記記録の閉鎖等,0,2023-01-25,2023-01-25,鶴屋商亊有限会社,,有限会社,神奈川県,川崎市多摩区,堰３丁目２番２３号,,14,135,2140022,,,2023-01-25,登記官による閉鎖,,,2015-10-05,1,,,,,,0
1192,4020002094225,登記記録の閉鎖等,0,2023-01-25,2023-01-25,有限会社グランドスラム麻生,,有限会社,神奈川県,川崎市麻生区,上麻生７丁目１１番８号,,14,137,2150021,,,2023-01-25,登記官による閉鎖,,,2015-10-05,1,,,,,,0
1193,4020002094761,登記記録の閉鎖等,0,2023-01-25,2023-01-25,有限会社ながや商事,,有限会社,神奈川県,川崎市麻生区,栗木台１丁目１番１１号,,14,137,2150032,,,2023-01-25,登記官による閉鎖,,,2015-10-05,1,,,,,,0
1194,4020002094811,登記記録の閉鎖等,0,2023-01-25,2023-01-25,有限会社ネットワーク,,有限会社,神奈川県,川崎市麻生区,上麻生６丁目１番１９号,,14,137,2150021,,,2023-01-25,登記官による閉鎖,,,2015-10-05,1,,,,,,0
1195,4020002097459,登記記録の閉鎖等,0,2023-01-25,2023-01-25,有限会社シーピージェイ,,有限会社,神奈川県,川崎市川崎区,中島３丁目５番１０号,,14,131,2100806,,,2023-01-25,登記官による閉鎖,,,2015-10-05,1,,,,,,0
1196,4020002098390,登記記録の閉鎖等,0,2023-01-25,2023-01-25,有限会社中田電設工業,,有限会社,神奈川県,川崎市川崎区,追分町６番２－７０２号エステート森,,14,131,2100835,,,2023-01-25,登記官による閉鎖,,,2015-10-05,1,,,,,,0
1197,4020002099380,登記記録の閉鎖等,0,2023-01-25,2023-01-25,有限会社美鈴,,有限会社,神奈川県,川崎市川崎区,日進町１３番地１２,,14,131,2100024,,,2023-01-25,登記官による閉鎖,,,2015-10-05,1,,,,,,0
1198,4020002105205,登記記録の閉鎖等,0,2023-01-25,2023-01-25,有限会社ゆずりは,,有限会社,神奈川県,川崎市多摩区,菅北浦２丁目４番３５－Ａ２０１号,,14,135,2140008,,,2023-01-25,登記官による閉鎖,,,2015-10-05,1,,,,,,0
1199,4020003000900,登記記録の閉鎖等,0,2023-01-25,2023-01-25,合資会社扇屋酒店,,合資会社,神奈川県,横浜市鶴見区,仲通１丁目１番地の１,,14,101,2300042,,,2023-01-25,登記官による閉鎖,,,2015-10-05,1,,,,,,0
1204,4020005002399,登記記録の閉鎖等,0,2023-01-25,2023-01-25,横浜生活関連事業協同組合,,その他の設立登記法人,神奈川県,横浜市金沢区,鳥浜町１６番６,,14,108,2360002,,,2023-01-25,登記官による閉鎖,,,2015-10-05,1,,,,,,0
1205,4020005008215,登記記録の閉鎖等,0,2023-01-25,2023-01-25,財団法人新日本学院,,その他の設立登記法人,神奈川県,川崎市中原区,木月住吉町２３０５番地,,14,133,2110021,,,2023-01-25,登記官による閉鎖,,,2015-10-05,1,,,,,,0
1206,4021001006600,登記記録の閉鎖等,0,2023-01-25,2023-01-20,株式会社植龜,,株式会社,神奈川県,茅ヶ崎市,幸町２２番６－１０１号,,14,207,2530052,,,2023-01-20,清算の結了等,,,2015-10-05,1,,,,,,0
1212,4030001083021,登記記録の閉鎖等,0,2023-01-25,2023-01-19,株式会社サンフーズ,,株式会社,埼玉県,さいたま市岩槻区,大字長宮２２３番地１,,11,110,3390011,,,2023-01-19,清算の結了等,,,2015-10-05,1,,,,,サンフーズ,0
1231,4040001092987,登記記録の閉鎖等,0,2023-01-25,2023-01-18,株式会社Ｆｅｌｉｃｅ,,株式会社,千葉県,八千代市,緑が丘１丁目２番８号ＣＡＳＳＩＡ八千代緑が丘１０３号室,,12,221,2760049,,,2023-01-18,清算の結了等,,,2015-11-27,1,,,,,フェリーチェ,0
1238,4040002053385,登記記録の閉鎖等,0,2023-01-25,2023-01-23,有限会社水野青果,,有限会社,千葉県,松戸市,栄町８丁目７３３番地の１１,,12,207,2710062,,,2023-01-23,清算の結了等,,,2015-10-05,1,,,,,,0
1249,4070001016357,登記記録の閉鎖等,0,2023-01-25,2023-01-25,トリオ繊維加工株式会社,,株式会社,群馬県,桐生市,広沢町５丁目１２９７番地,,10,203,3760013,,,2023-01-25,登記官による閉鎖,,,2015-10-05,1,,,,,,0
1250,4070001022917,登記記録の閉鎖等,0,2023-01-25,2023-01-25,株式会社サンアールセンター,,株式会社,群馬県,沼田市,西原新町１５１３番地三ッ矢ビル３階,,10,206,3780054,,,2023-01-25,登記官による閉鎖,,,2015-10-05,1,,,,,,0
1251,4070001023089,登記記録の閉鎖等,0,2023-01-25,2023-01-25,村松金属工業株式会社,,株式会社,群馬県,沼田市,高橋場町４２１番地,,10,206,3780056,,,2023-01-25,登記官による閉鎖,,,2015-10-05,1,,,,,,0
1252,4070001025713,登記記録の閉鎖等,0,2023-01-25,2023-01-25,株式会社地域の輪,,株式会社,群馬県,高崎市,八千代町３丁目９番８号,,10,202,3700861,,,2023-01-25,登記官による閉鎖,,,2015-10-05,1,,,,,,0
1253,4070002003544,登記記録の閉鎖等,0,2023-01-25,2023-01-25,有限会社田屋時計店,,有限会社,群馬県,前橋市,三俣町３丁目９番地５,,10,201,3710018,,,2023-01-25,登記官による閉鎖,,,2015-10-05,1,,,,,,0
1254,4070002005359,登記記録の閉鎖等,0,2023-01-25,2023-01-25,有限会社村田屋金物店,,有限会社,群馬県,前橋市,城東町１丁目２番地の１２,,10,201,3710016,,,2023-01-25,登記官による閉鎖,,,2015-10-05,1,,,,,,0
1255,4070002009450,登記記録の閉鎖等,0,2023-01-25,2023-01-25,有限会社きんか堂,,有限会社,群馬県,高崎市,田町６５番地,,10,202,3700824,,,2023-01-25,登記官による閉鎖,,,2015-10-05,1,,,,,,0
1256,4070002018765,登記記録の閉鎖等,0,2023-01-25,2023-01-25,有限会社キタムラ,,有限会社,群馬県,伊勢崎市,新栄町４０６８番地１８,,10,204,3720038,,,2023-01-25,登記官による閉鎖,,,2015-10-05,1,,,,,,0
1257,4070002028509,登記記録の閉鎖等,0,2023-01-25,2023-01-25,有限会社岡部肉店,,有限会社,群馬県,太田市,新田大根町９１８番地の３,,10,205,3700347,,,2023-01-25,登記官による閉鎖,,,2015-10-05,1,,,,,,0
1258,4070002033095,登記記録の閉鎖等,0,2023-01-25,2023-01-25,有限会社魚常,,有限会社,群馬県,館林市,本町３丁目１番１１号,,10,207,3740024,,,2023-01-25,登記官による閉鎖,,,2015-10-05,1,,,,,,0
1259,4070002035439,登記記録の閉鎖等,0,2023-01-25,2023-01-25,有限会社金子製作所,,有限会社,群馬県,利根郡みなかみ町,後閑６２１番地５,,10,449,3791305,,,2023-01-25,登記官による閉鎖,,,2015-10-05,1,,,,,,0
1260,4070002036065,登記記録の閉鎖等,0,2023-01-25,2023-01-25,有限会社Ｍ・Ｖ・Ｐ,,有限会社,群馬県,沼田市,上原町１７１１番地９,,10,206,3780051,,,2023-01-25,登記官による閉鎖,,,2015-10-05,1,,,,,,0
1262,4070005004044,登記記録の閉鎖等,0,2023-01-25,2023-01-25,多野藤岡広域資源リサイクル事業協同組合,,その他の設立登記法人,群馬県,藤岡市,中島４９３番地５,,10,209,3750001,,,2023-01-25,登記官による閉鎖,,,2015-10-05,1,,,,,,0
1263,4070005004309,登記記録の閉鎖等,0,2023-01-25,2023-01-25,境上武工業団地協同組合,,その他の設立登記法人,群馬県,伊勢崎市,境上矢島６７０番地の６,,10,204,3700111,,,2023-01-25,登記官による閉鎖,,,2015-10-05,1,,,,,,0
1264,4070005005629,登記記録の閉鎖等,0,2023-01-25,2023-01-25,榛東商工協同組合,,その他の設立登記法人,群馬県,北群馬郡榛東村,大字新井１４６３番地の１,,10,344,3703503,,,2023-01-25,登記官による閉鎖,,,2015-10-05,1,,,,,,0
1265,4070005006759,登記記録の閉鎖等,0,2023-01-25,2023-01-25,館林市中央清掃事業協同組合,,その他の設立登記法人,群馬県,館林市,北成島町２５３８番地８２,,10,207,3740057,,,2023-01-25,登記官による閉鎖,,,2015-10-05,1,,,,,,0
1284,4120001245215,登記記録の閉鎖等,0,2023-01-25,2023-01-19,株式会社シンシア,,株式会社,大阪府,大阪市天王寺区,生玉前町３番３－２０１号,,27,109,5430072,,,2023-01-19,清算の結了等,,,2022-04-13,1,,,,,シンシア,0
1301,4130001010824,登記記録の閉鎖等,0,2023-01-25,2023-01-23,志のぶ商事株式会社,,株式会社,京都府,京都市南区,上鳥羽塔ノ森東向町４３番地,,26,107,6018151,,,2023-01-23,清算の結了等,,,2015-10-05,1,,,,,シノブショウジ,0
1330,4230002011927,登記記録の閉鎖等,0,2023-01-25,2023-01-23,有限会社プロガレージ・クリークウエスト,,有限会社,富山県,高岡市,四屋４８０番地の１,,16,202,9330949,,,2023-01-23,清算の結了等,,,2015-10-05,1,,,,,プロガレージクリークウエスト,0
1344,4260002004746,登記記録の閉鎖等,0,2023-01-25,2023-01-23,有限会社シーサィドヴィラ,,有限会社,岡山県,岡山市北区,奉還町３丁目１９番１号,,33,101,7000026,,,2023-01-23,清算の結了等,,,2015-10-05,1,,,,,シーサィドヴィラ,0
1348,4290001063641,登記記録の閉鎖等,0,2023-01-25,2023-01-19,株式会社信光電設,,株式会社,福岡県,大野城市,つつじケ丘４丁目３番２号,,40,219,8160962,,,2023-01-19,清算の結了等,,,2015-10-05,1,,,,,シンコウデンセツ,0
1370,4350001001149,登記記録の閉鎖等,0,2023-01-25,2023-01-25,東洋開発工業株式会社,,株式会社,宮崎県,宮崎市,大字跡江２１２０番地ロ,,45,201,8802101,,,2023-01-25,登記官による閉鎖,,,2015-10-05,1,,,,,,0
1371,4350001006478,登記記録の閉鎖等,0,2023-01-25,2023-01-25,株式会社Ｍａｉｎプロデュース,,株式会社,宮崎県,宮崎市,中央通１番１０号宮崎第一ビル４０４号,,45,201,8800002,,,2023-01-25,登記官による閉鎖,,,2015-10-05,1,,,,,,0
1372,4350002016526,登記記録の閉鎖等,0,2023-01-25,2023-01-25,有限会社川畑鉄工所,,有限会社,宮崎県,日南市,瀬貝２丁目１番４５号,,45,204,8870011,,,2023-01-25,登記官による閉鎖,,,2015-10-05,1,,,,,,0
1373,4350003001989,登記記録の閉鎖等,0,2023-01-25,2023-01-25,合同会社ティーセレクト,,合同会社,宮崎県,児湯郡川南町,大字川南１６７０９番地,,45,405,8891301,,,2023-01-25,登記官による閉鎖,,,2015-10-05,1,,,,,,0
1374,4350005001517,登記記録の閉鎖等,0,2023-01-25,2023-01-25,特定非営利活動法人落書きバスターズ,,その他の設立登記法人,宮崎県,宮崎市,阿波岐原町前浜４２７６－２６３番地,,45,201,8800835,,,2023-01-25,登記官による閉鎖,,,2015-10-05,1,,,,,,0
1375,4360001011907,登記記録の閉鎖等,0,2023-01-25,2023-01-25,株式会社ライズヒューマニティ沖縄,,株式会社,沖縄県,那覇市,西２丁目６番１１号神里マンションＡ－２０１,,47,201,9000036,,,2023-01-25,登記官による閉鎖,,,2015-10-05,1,,,,,,0
1376,4360001014463,登記記録の閉鎖等,0,2023-01-25,2023-01-25,株式会社琉球,,株式会社,沖縄県,宮古島市,城辺字福里６３１番地６,,47,214,9060103,,,2023-01-25,登記官による閉鎖,,,2015-10-05,1,,,,,,0
1380,4360002002731,登記記録の閉鎖等,0,2023-01-25,2023-01-25,有限会社高佳商店,00101475,有限会社,沖縄県,那覇市,前島２丁目１３番１号－１０３,,47,201,9000016,,,2023-01-25,登記官による閉鎖,,,2015-10-05,1,,,,,,0
1381,4360002019602,登記記録の閉鎖等,0,2023-01-25,2023-01-25,有限会社大東開発,,有限会社,沖縄県,名護市,字伊差川２５２番地の３,,47,209,9051152,,,2023-01-25,登記官による閉鎖,,,2015-10-05,1,,,,,,0
1382,4360003005634,登記記録の閉鎖等,0,2023-01-25,2023-01-25,アラジン・テクノロジー合同会社,,合同会社,沖縄県,那覇市,泊２丁目１番地１８Ｔ＆Ｃ泊ビル４Ｆ,,47,201,9000012,,,2023-01-25,登記官による閉鎖,,,2015-10-05,1,,,,,,0
1383,4360005000781,登記記録の閉鎖等,0,2023-01-25,2023-01-25,特定非営利活動法人全沖縄戦没者慰霊碑管理協会,,その他の設立登記法人,沖縄県,那覇市,西２丁目１２番１４号,,47,201,9000036,,,2023-01-25,登記官による閉鎖,,,2015-10-05,1,,,,,,0
1384,4360005003512,登記記録の閉鎖等,0,2023-01-25,2023-01-25,沖縄県国頭村特産物協同組合,,その他の設立登記法人,沖縄県,国頭郡国頭村,字辺土名２６番地,,47,301,9051411,,,2023-01-25,登記官による閉鎖,,,2015-10-05,1,,,,,,0
1392,4390001001599,登記記録の閉鎖等,0,2023-01-25,2023-01-17,株式会社ひぐち,,株式会社,山形県,山形市,城北町１丁目４番２１号,,06,201,9900825,,,2023-01-17,清算の結了等,,,2015-10-05,1,,,,,ヒグチ,0
1393,4390001007472,登記記録の閉鎖等,0,2023-01-25,2023-01-23,株式会社エー・アンド・エー,,株式会社,山形県,鶴岡市,鳥居町２０番８号,,06,203,9970023,,,2023-01-23,登記官による閉鎖,,,2015-10-05,1,,,,,,0
1394,4390001008388,登記記録の閉鎖等,0,2023-01-25,2023-01-23,株式会社エスケー興業,,株式会社,山形県,鶴岡市,小淀川字谷地田１３７番地１,,06,203,9970853,,,2023-01-23,登記官による閉鎖,,,2015-10-05,1,,,,,,0
1402,4430001051846,登記記録の閉鎖等,0,2023-01-25,2023-01-18,株式会社松井電気商会,,株式会社,北海道,虻田郡倶知安町,北一条東１丁目１番地,,01,400,0440001,,,2023-01-18,清算の結了等,,,2015-10-05,1,,,,,マツイデンキショウカイ,0
1412,4480001000088,登記記録の閉鎖等,0,2023-01-25,2023-01-25,阿波商運株式会社,,株式会社,徳島県,徳島市,論田町新開６６番地１０１,,36,201,7708011,,,2023-01-25,登記官による閉鎖,,,2015-10-05,1,,,,,,0
1413,4480002011753,登記記録の閉鎖等,0,2023-01-25,2023-01-25,有限会社板野造園土木,,有限会社,徳島県,板野郡板野町,大寺字辻３７番地の１,00006015,36,404,7790105,,,2023-01-25,登記官による閉鎖,,,2015-10-05,1,,,,,,0
1414,4480002013923,登記記録の閉鎖等,0,2023-01-25,2023-01-25,有限会社ドクター・エンドー,,有限会社,徳島県,阿南市,長生町西方４７８番地,,36,204,7740046,,,2023-01-25,登記官による閉鎖,,,2015-10-05,1,,,,,,0
1415,4480002014616,登記記録の閉鎖等,0,2023-01-25,2023-01-25,有限会社尾方工務店,,有限会社,徳島県,美馬市,脇町字西俣名７２６番地,,36,207,7793744,,,2023-01-25,登記官による閉鎖,,,2015-10-05,1,,,,,,0
1416,4480002016199,登記記録の閉鎖等,0,2023-01-25,2023-01-25,有限会社奥津建設,,有限会社,徳島県,小松島市,小松島町字北浜１５４番地の１３,,36,203,7730001,,,2023-01-25,登記官による閉鎖,,,2015-10-05,1,,,,,,0
1418,4500002022137,登記記録の閉鎖等,0,2023-01-25,2023-01-23,睦産業有限会社,,有限会社,愛媛県,四国中央市,土居町入野６８６番地,,38,213,7990712,,,2023-01-23,清算の結了等,,,2015-10-05,1,,,,,ムツミサンギョウ,0
1450,5010501009435,登記記録の閉鎖等,0,2023-01-25,2023-01-23,株式会社東京閣美術店,,株式会社,東京都,台東区,上野１丁目１０番１０号,,13,106,1100005,,,2023-01-23,清算の結了等,,,2015-10-05,1,,,,,トウキョウカクビジュツテン,0
1455,5010601028599,登記記録の閉鎖等,0,2023-01-25,2023-01-10,千葉機械工業株式会社,,株式会社,東京都,墨田区,緑４丁目３０番１０号,,13,107,1300021,,,2023-01-10,清算の結了等,,,2015-10-05,1,,,,,チバキカイコウギョウ,0
1459,5010701025471,登記記録の閉鎖等,0,2023-01-25,2023-01-19,株式会社エイチ・ツー,,株式会社,東京都,品川区,西五反田２丁目１０番８号ドルミ五反田ドゥメゾン２０４号,,13,109,1410031,,,2023-01-19,清算の結了等,,,2015-10-05,1,,,,,エイチツー,0
1461,5010705002426,登記記録の閉鎖等,0,2023-01-25,2023-01-19,一般社団法人グローバルＭ＆Ａアドバイザー協会,,その他の設立登記法人,東京都,品川区,北品川４丁目７番地２５号３０１,,13,109,1400001,,,2023-01-19,清算の結了等,,,2016-03-10,1,,,,,グローバルエムアンドエイアドバイザーキョウカイ,0
1469,5010901030940,登記記録の閉鎖等,0,2023-01-25,2023-01-20,株式会社ジャストワン,,株式会社,東京都,世田谷区,東玉川１丁目２８番５号,,13,112,1580084,,,2023-01-20,合併による解散等,4011401012934,令和５年１月１日東京都北区十条仲原一丁目５番７号株式会社アリスコーポレーション（4011401012934）に合併し解散,2015-10-05,1,,,,,,0
1474,5011001070456,登記記録の閉鎖等,0,2023-01-25,2023-01-05,株式会社ヒント・エンターテインメント,,株式会社,東京都,港区,高輪２丁目１２番５５号,,13,103,1080074,,,2023-01-05,合併による解散等,2011001045675,令和５年１月１日東京都港区南麻布二丁目１３番１２号ＥＭ南麻布ビル４階株式会社ヒント（2011001045675）に合併し解散,2015-10-05,1,,,,,ヒントエンターテインメント,0
1490,5011101001253,登記記録の閉鎖等,0,2023-01-25,2023-01-25,株式会社アローカメラ,,株式会社,東京都,新宿区,荒木町８番地,,13,104,1600007,,,2023-01-25,登記官による閉鎖,,,2015-10-05,1,,,,,,0
1491,5011101009123,登記記録の閉鎖等,0,2023-01-25,2023-01-25,株式会社新富士企画設計,,株式会社,東京都,新宿区,四谷４丁目２７番地八重洲新宿御苑ビル,,13,104,1600004,,,2023-01-25,登記官による閉鎖,,,2015-10-05,1,,,,,,0
1492,5011101011789,登記記録の閉鎖等,0,2023-01-25,2023-01-25,タウン開発株式会社,,株式会社,東京都,新宿区,西新宿３丁目１１番２０号,,13,104,1600023,,,2023-01-25,登記官による閉鎖,,,2015-10-05,1,,,,,,0
1493,5011101018124,登記記録の閉鎖等,0,2023-01-25,2023-01-25,株式会社ビビ,,株式会社,東京都,新宿区,神楽坂２丁目１２番地１,,13,104,1620825,,,2023-01-25,登記官による閉鎖,,,2015-10-05,1,,,,,,0
1494,5011101020906,登記記録の閉鎖等,0,2023-01-25,2023-01-25,明幸商亊株式会社,,株式会社,東京都,新宿区,西新宿１丁目４番１１号,,13,104,1600023,,,2023-01-25,登記官による閉鎖,,,2015-10-05,1,,,,,,0
1495,5011101021375,登記記録の閉鎖等,0,2023-01-25,2023-01-25,柳屋商事株式会社,,株式会社,東京都,新宿区,百人町１丁目６番１５号,,13,104,1690073,,,2023-01-25,登記官による閉鎖,,,2015-10-05,1,,,,,,0
1496,5011101045944,登記記録の閉鎖等,0,2023-01-25,2023-01-25,大陸株式会社,,株式会社,東京都,新宿区,歌舞伎町２丁目３９番５号ＭＴＴ新宿ビル１階,,13,104,1600021,,,2023-01-25,登記官による閉鎖,,,2015-10-05,1,,,,,,0
1497,5011101047817,登記記録の閉鎖等,0,2023-01-25,2023-01-25,ルーチテック株式会社,,株式会社,東京都,新宿区,新宿５丁目１１番１３号富士新宿ビル４階,,13,104,1600022,,,2023-01-25,登記官による閉鎖,,,2015-10-05,1,,,,,,0
1498,5011101052313,登記記録の閉鎖等,0,2023-01-25,2023-01-25,株式会社ブレーブス,,株式会社,東京都,新宿区,西新宿８丁目８番１８号,,13,104,1600023,,,2023-01-25,登記官による閉鎖,,,2015-10-05,1,,,,,,0
1499,5011101061883,登記記録の閉鎖等,0,2023-01-25,2023-01-25,日豊資源株式会社,,株式会社,東京都,新宿区,高田馬場３丁目２８番２号紺清ビル３０２号室,,13,104,1690075,,,2023-01-25,登記官による閉鎖,,,2015-10-05,1,,,,,,0
1501,5011101062543,登記記録の閉鎖等,0,2023-01-25,2023-01-25,株式会社ゴールド,,株式会社,東京都,新宿区,歌舞伎町２丁目２５－８－４３０,,13,104,1600021,,,2023-01-25,登記官による閉鎖,,,2015-10-05,1,,,,,,0
1502,5011101062618,登記記録の閉鎖等,0,2023-01-25,2023-01-25,株式会社ＥＮＴＥＩ,,株式会社,東京都,新宿区,歌舞伎町１丁目３番１１号,,13,104,1600021,,,2023-01-25,登記官による閉鎖,,,2015-10-05,1,,,,,,0
1503,5011102003884,登記記録の閉鎖等,0,2023-01-25,2023-01-25,有限会社くめスタジオ,,有限会社,東京都,新宿区,新宿６丁目３番１５号,,13,104,1600022,,,2023-01-25,登記官による閉鎖,,,2015-10-05,1,,,,,,0
1504,5011102012992,登記記録の閉鎖等,0,2023-01-25,2023-01-25,有限会社森本肉店,,有限会社,東京都,新宿区,余丁町５番８号,,13,104,1620055,,,2023-01-25,登記官による閉鎖,,,2015-10-05,1,,,,,,0
1505,5011102019377,登記記録の閉鎖等,0,2023-01-25,2023-01-25,有限会社シャウトミュージック,,有限会社,東京都,新宿区,荒木町１３番９,,13,104,1600007,,,2023-01-25,登記官による閉鎖,,,2015-10-05,1,,,,,,0
1506,5011102027933,登記記録の閉鎖等,0,2023-01-25,2023-01-25,有限会社ハルテック,,有限会社,東京都,新宿区,北新宿１丁目３０番１５号,,13,104,1690074,,,2023-01-25,登記官による閉鎖,,,2015-10-05,1,,,,,,0
1507,5011102028873,登記記録の閉鎖等,0,2023-01-25,2023-01-25,有限会社レジェンド,,有限会社,東京都,新宿区,新宿１丁目３３番１０号,,13,104,1600022,,,2023-01-25,登記官による閉鎖,,,2015-10-05,1,,,,,,0
1508,5011102030094,登記記録の閉鎖等,0,2023-01-25,2023-01-25,有限会社高木慶一デザイン室,,有限会社,東京都,新宿区,高田馬場１丁目３３番５号タケトモビル３階,,13,104,1690075,,,2023-01-25,登記官による閉鎖,,,2015-10-05,1,,,,,,0
1509,5011102030350,登記記録の閉鎖等,0,2023-01-25,2023-01-25,有限会社リービルサービス,,有限会社,東京都,新宿区,歌舞伎町２丁目１１番４号,,13,104,1600021,,,2023-01-25,登記官による閉鎖,,,2015-10-05,1,,,,,,0
1510,5011103003108,登記記録の閉鎖等,0,2023-01-25,2023-01-25,合同会社ピース,,合同会社,東京都,新宿区,新宿１丁目３３番１０号,,13,104,1600022,,,2023-01-25,登記官による閉鎖,,,2015-10-05,1,,,,,,0
1513,5011105001687,登記記録の閉鎖等,0,2023-01-25,2023-01-25,特定非営利活動法人日本社会福祉協会,,その他の設立登記法人,東京都,新宿区,早稲田鶴巻町５４７番地白坂ハイム４０３号,,13,104,1620041,,,2023-01-25,登記官による閉鎖,,,2015-10-05,1,,,,,,0
1514,5011105001712,登記記録の閉鎖等,0,2023-01-25,2023-01-25,特定非営利活動法人ハートリンクあゆみ,,その他の設立登記法人,東京都,新宿区,早稲田鶴巻町５４３荻原ビル４階有限会社マーベル内,,13,104,1620041,,,2023-01-25,登記官による閉鎖,,,2015-10-05,1,,,,,,0
1515,5011105002132,登記記録の閉鎖等,0,2023-01-25,2023-01-25,特定非営利活動法人フォト・ネットワーク,,その他の設立登記法人,東京都,新宿区,若葉１丁目１番地,,13,104,1600011,,,2023-01-25,登記官による閉鎖,,,2015-10-05,1,,,,,,0
1516,5011105003048,登記記録の閉鎖等,0,2023-01-25,2023-01-25,特定非営利活動法人ＰＯＣＨＡの会,,その他の設立登記法人,東京都,新宿区,三栄町２５番地,,13,104,1600008,,,2023-01-25,登記官による閉鎖,,,2015-10-05,1,,,,,,0
1534,5020001006205,登記記録の閉鎖等,0,2023-01-25,2023-01-25,三協興業株式会社,,株式会社,神奈川県,横浜市中区,相生町２丁目５２番地,,14,104,2310012,,,2023-01-25,登記官による閉鎖,,,2015-10-05,1,,,,,,0
1535,5020001009769,登記記録の閉鎖等,0,2023-01-25,2023-01-25,株式会社カネコ設計,,株式会社,神奈川県,横浜市保土ケ谷区,保土ケ谷町１丁目７４番地,,14,106,2400021,,,2023-01-25,登記官による閉鎖,,,2015-10-05,1,,,,,,0
1536,5020001012780,登記記録の閉鎖等,0,2023-01-25,2023-01-25,株式会社金港海事,,株式会社,神奈川県,横浜市南区,三春台１５６番地,,14,105,2320002,,,2023-01-25,登記官による閉鎖,,,2017-08-15,1,,,,,,0
1537,5020001018869,登記記録の閉鎖等,0,2023-01-25,2023-01-25,宮古通信設備株式会社,,株式会社,神奈川県,横浜市鶴見区,上末吉５丁目１８番２０号,,14,101,2300011,,,2023-01-25,登記官による閉鎖,,,2015-10-05,1,,,,,,0
1538,5020001029156,登記記録の閉鎖等,0,2023-01-25,2023-01-25,メロス株式会社,,株式会社,神奈川県,横浜市中区,翁町１丁目３番地１８,,14,104,2310028,,,2023-01-25,登記官による閉鎖,,,2015-10-05,1,,,,,,0
1539,5020001031161,登記記録の閉鎖等,0,2023-01-25,2023-01-25,株式会社糸歩,,株式会社,神奈川県,横浜市西区,みなとみらい５丁目３番地１－Ｏ－２６０４号,,14,103,2200012,,,2023-01-25,登記官による閉鎖,,,2015-10-05,1,,,,,,0
1542,5020001043685,登記記録の閉鎖等,0,2023-01-25,2023-01-25,サリ株式会社,,株式会社,神奈川県,横浜市中区,山下町２５２番地,,14,104,2310023,,,2023-01-25,登記官による閉鎖,,,2015-10-05,1,,,,,,0
1544,5020001065622,登記記録の閉鎖等,0,2023-01-25,2023-01-25,宮野物産株式会社,,株式会社,神奈川県,川崎市麻生区,百合丘２丁目３番地８,,14,137,2150011,,,2023-01-25,登記官による閉鎖,,,2015-10-05,1,,,,,,0
1545,5020001081306,登記記録の閉鎖等,0,2023-01-25,2023-01-25,アーキクラフト株式会社,,株式会社,神奈川県,川崎市中原区,小杉町３丁目２６０番地９シャンテポ４Ｆ,,14,133,2110063,,,2023-01-25,登記官による閉鎖,,,2015-10-05,1,,,,,,0
1547,5020001082163,登記記録の閉鎖等,0,2023-01-25,2023-01-25,株式会社吉祥,,株式会社,神奈川県,川崎市幸区,塚越３丁目３６７番地,,14,132,2120024,,,2023-01-25,登記官による閉鎖,,,2015-10-05,1,,,,,,0
1549,5020001122225,登記記録の閉鎖等,0,2023-01-25,2023-01-25,株式会社エム・イー,,株式会社,神奈川県,横浜市港北区,菊名６丁目１３番５３号,,14,109,2220011,,,2023-01-25,登記官による閉鎖,,,2017-07-10,1,,,,,,0
1551,5020002009900,登記記録の閉鎖等,0,2023-01-25,2023-01-25,有限会社三協技術工業,,有限会社,神奈川県,横浜市磯子区,杉田９丁目２４番２号,,14,107,2350033,,,2023-01-25,登記官による閉鎖,,,2015-10-05,1,,,,,,0
1552,5020002014256,登記記録の閉鎖等,0,2023-01-25,2023-01-25,有限会社三倖工務店,,有限会社,神奈川県,横浜市青葉区,市ケ尾町４２５番地１６,,14,117,2250024,,,2023-01-25,登記官による閉鎖,,,2015-10-05,1,,,,,,0
1553,5020002030889,登記記録の閉鎖等,0,2023-01-25,2023-01-25,有限会社中沢スクリーン,,有限会社,神奈川県,横浜市南区,大岡４丁目２番１号,,14,105,2320061,,,2023-01-25,登記官による閉鎖,,,2015-10-05,1,,,,,,0
1554,5020002032472,登記記録の閉鎖等,0,2023-01-25,2023-01-25,有限会社板倉精器製作所,,有限会社,神奈川県,横浜市港北区,新羽町１６８１番地,,14,109,2230057,,,2023-01-25,登記官による閉鎖,,,2015-10-05,1,,,,,,0
1555,5020002036259,登記記録の閉鎖等,0,2023-01-25,2023-01-25,有限会社山夫電機工業,,有限会社,神奈川県,横浜市港北区,高田西１丁目１０番１号,,14,109,2230066,,,2023-01-25,登記官による閉鎖,,,2015-10-05,1,,,,,,0
1556,5020002044146,登記記録の閉鎖等,0,2023-01-25,2023-01-25,有限会社中澤事務所,,有限会社,神奈川県,横浜市都筑区,勝田南１丁目１８番８号,,14,118,2240036,,,2023-01-25,登記官による閉鎖,,,2015-10-05,1,,,,,,0
1557,5020002047735,登記記録の閉鎖等,0,2023-01-25,2023-01-25,有限会社トツカ,,有限会社,神奈川県,横浜市戸塚区,舞岡町２７８７番地の１,,14,110,2440813,,,2023-01-25,登記官による閉鎖,,,2015-10-05,1,,,,,,0
1558,5020002048576,登記記録の閉鎖等,0,2023-01-25,2023-01-25,有限会社栗田電設,,有限会社,神奈川県,横浜市保土ケ谷区,瀬戸ケ谷町２０２番地の５,,14,106,2400024,,,2023-01-25,登記官による閉鎖,,,2015-10-05,1,,,,,,0
1559,5020002065290,登記記録の閉鎖等,0,2023-01-25,2023-01-25,有限会社コーセイ企画,,有限会社,神奈川県,横浜市西区,みなとみらい４丁目１０－３,,14,103,2200012,,,2023-01-25,登記官による閉鎖,,,2015-10-05,1,,,,,,0
1561,5020002072444,登記記録の閉鎖等,0,2023-01-25,2023-01-25,有限会社イチケンサービス,,有限会社,神奈川県,横浜市旭区,上川井町４５０,,14,112,2410802,,,2023-01-25,登記官による閉鎖,,,2015-10-05,1,,,,,,0
1562,5020002072650,登記記録の閉鎖等,0,2023-01-25,2023-01-25,有限会社仲條,,有限会社,神奈川県,横浜市旭区,今宿西町５６２番地,,14,112,2410031,,,2023-01-25,登記官による閉鎖,,,2015-10-05,1,,,,,,0
1563,5020002081602,登記記録の閉鎖等,0,2023-01-25,2023-01-25,日本バイオニクス有限会社,,有限会社,神奈川県,川崎市幸区,下平間１番地２,,14,132,2120053,,,2023-01-25,登記官による閉鎖,,,2015-10-05,1,,,,,,0
1564,5020002095073,登記記録の閉鎖等,0,2023-01-25,2023-01-25,有限会社箕輪タイル工業,,有限会社,神奈川県,川崎市麻生区,細山５丁目２６番３号,,14,137,2150001,,,2023-01-25,登記官による閉鎖,,,2015-10-05,1,,,,,,0
1565,5020002095107,登記記録の閉鎖等,0,2023-01-25,2023-01-25,有限会社無コミュニケーションズ,,有限会社,神奈川県,川崎市麻生区,上麻生２丁目１番４号,,14,137,2150021,,,2023-01-25,登記官による閉鎖,,,2015-10-05,1,,,,,,0
1566,5020003006525,登記記録の閉鎖等,0,2023-01-25,2023-01-25,合同会社メディアスワロー,,合同会社,神奈川県,横浜市戸塚区,品濃町１８０３番地５,,14,110,2440801,,,2023-01-25,登記官による閉鎖,,,2015-10-05,1,,,,,,0
1568,5020005002489,登記記録の閉鎖等,0,2023-01-25,2023-01-25,六浦商業協同組合,,その他の設立登記法人,神奈川県,横浜市金沢区,六浦４丁目１６番４号,,14,108,2360031,,,2023-01-25,登記官による閉鎖,,,2015-10-05,1,,,,,,0
1569,5020005010442,登記記録の閉鎖等,0,2023-01-25,2023-01-25,一般社団法人神奈川商工法人会,,その他の設立登記法人,神奈川県,横浜市西区,みなとみらい２丁目２－１横浜ランドマークタワー２０階,,14,103,2200012,,,2023-01-25,登記官による閉鎖,,,2015-10-05,1,,,,,,0
1581,5030002115706,登記記録の閉鎖等,0,2023-01-25,2023-01-19,有限会社ウイングサービス,,有限会社,埼玉県,大里郡寄居町,大字桜沢７３３番地１,,11,408,3691202,,,2023-01-19,清算の結了等,,,2015-10-05,1,,,,,ウイングサービス,0
1584,5030005012545,登記記録の閉鎖等,0,2023-01-25,2023-01-23,医療法人社団翠翔会,,その他の設立登記法人,東京都,中央区,佃２丁目２０番４号,,13,102,1040051,,,2023-01-23,清算の結了等,,,2015-10-05,1,,,,,スイショウカイ,0
1601,5060002018534,登記記録の閉鎖等,0,2023-01-25,2023-01-19,有限会社インテリアユズキ,,有限会社,栃木県,芳賀郡芳賀町,大字稲毛田１９０５番地６５,,09,345,3213303,,,2023-01-19,清算の結了等,,,2015-10-05,1,,,,,インテリアユズキ,0
1607,5070001003651,登記記録の閉鎖等,0,2023-01-25,2023-01-25,株式会社マルヤマ,,株式会社,群馬県,前橋市,富士見町原之郷１４９０番地１,,10,201,3710116,,,2023-01-25,登記官による閉鎖,,,2015-10-05,1,,,,,,0
1608,5070001010391,登記記録の閉鎖等,0,2023-01-25,2023-01-25,アーバンコスモス株式会社,,株式会社,群馬県,高崎市,矢島町３５３番地１,,10,202,3700016,,,2023-01-25,登記官による閉鎖,,,2015-10-05,1,,,,,,0
1609,5070001017833,登記記録の閉鎖等,0,2023-01-25,2023-01-25,南興実業株式会社,,株式会社,群馬県,渋川市,渋川１６１５番地の１,,10,208,3770008,,,2023-01-25,登記官による閉鎖,,,2015-10-05,1,,,,,,0
1610,5070001024367,登記記録の閉鎖等,0,2023-01-25,2023-01-25,田島石材株式会社,,株式会社,群馬県,富岡市,田島２９６番地１,,10,210,3702454,,,2023-01-25,登記官による閉鎖,,,2015-10-05,1,,,,,,0
1611,5070001026966,登記記録の閉鎖等,0,2023-01-25,2023-01-25,株式会社ちよだ,,株式会社,群馬県,渋川市,伊香保町伊香保５３３番地１,,10,208,3770102,,,2023-01-25,登記官による閉鎖,,,2015-10-05,1,,,,,,0
1612,5070002000251,登記記録の閉鎖等,0,2023-01-25,2023-01-25,有限会社アシストシステム,,有限会社,群馬県,前橋市,上増田町７７１番地,,10,201,3792114,,,2023-01-25,登記官による閉鎖,,,2015-10-05,1,,,,,,0
1613,5070002007858,登記記録の閉鎖等,0,2023-01-25,2023-01-25,有限会社メッツスポーツ,,有限会社,群馬県,前橋市,石倉町５丁目９番１０号,,10,201,3710841,,,2023-01-25,登記官による閉鎖,,,2015-10-05,1,,,,,,0
1614,5070002010250,登記記録の閉鎖等,0,2023-01-25,2023-01-25,シン・システムサービス有限会社,,有限会社,群馬県,桐生市,相生町５丁目２０９１番地の７,,10,203,3760011,,,2023-01-25,登記官による閉鎖,,,2015-10-05,1,,,,,,0
1615,5070002011827,登記記録の閉鎖等,0,2023-01-25,2023-01-25,有限会社藤棚くらはし,,有限会社,群馬県,高崎市,中里見町乙２１１番地の１,,10,202,3703344,,,2023-01-25,登記官による閉鎖,,,2015-10-05,1,,,,,,0
1616,5070002013831,登記記録の閉鎖等,0,2023-01-25,2023-01-25,有限会社ジェー・エフ工業,,有限会社,群馬県,高崎市,菅谷町５６２番地,,10,202,3703522,,,2023-01-25,登記官による閉鎖,,,2015-10-05,1,,,,,,0
1617,5070002015662,登記記録の閉鎖等,0,2023-01-25,2023-01-25,有限会社モーブ,,有限会社,群馬県,高崎市,新町２０６０番地,,10,202,3701301,,,2023-01-25,登記官による閉鎖,,,2015-10-05,1,,,,,,0
1618,5070002017997,登記記録の閉鎖等,0,2023-01-25,2023-01-25,有限会社越前屋商店,,有限会社,群馬県,多野郡神流町,大字平原２５７番地,,10,367,3701603,,,2023-01-25,登記官による閉鎖,,,2015-10-05,1,,,,,,0
1619,5070002019110,登記記録の閉鎖等,0,2023-01-25,2023-01-25,有限会社清水屋設備工業,,有限会社,群馬県,伊勢崎市,中町５１番地３,,10,204,3720822,,,2023-01-25,登記官による閉鎖,,,2015-10-05,1,,,,,,0
1620,5070002019911,登記記録の閉鎖等,0,2023-01-25,2023-01-25,有限会社森文建設工業,,有限会社,群馬県,伊勢崎市,柴町１１２７番地２,,10,204,3720824,,,2023-01-25,登記官による閉鎖,,,2015-10-05,1,,,,,,0
1621,5070002024655,登記記録の閉鎖等,0,2023-01-25,2023-01-25,有限会社邦光,,有限会社,群馬県,桐生市,広沢町５丁目１３１２番地の１,,10,203,3760013,,,2023-01-25,登記官による閉鎖,,,2015-10-05,1,,,,,,0
1622,5070002025281,登記記録の閉鎖等,0,2023-01-25,2023-01-25,有限会社城東造園,,有限会社,群馬県,桐生市,相生町４丁目８３番地,,10,203,3760011,,,2023-01-25,登記官による閉鎖,,,2015-10-05,1,,,,,,0
1623,5070003001637,登記記録の閉鎖等,0,2023-01-25,2023-01-25,ひまわり商店合同会社,,合同会社,群馬県,太田市,龍舞町１９４１番地エルコーポ第１－２０２,,10,205,3730806,,,2023-01-25,登記官による閉鎖,,,2015-10-05,1,,,,,,0
1625,5070005004308,登記記録の閉鎖等,0,2023-01-25,2023-01-25,群馬エスユー協同組合,,その他の設立登記法人,群馬県,伊勢崎市,西久保町３丁目８８５番地７,,10,204,3792204,,,2023-01-25,登記官による閉鎖,,,2015-10-05,1,,,,,,0
1626,5070005006510,登記記録の閉鎖等,0,2023-01-25,2023-01-25,財団法人大谷休泊遺徳顕彰会,,その他の設立登記法人,群馬県,館林市,北成島町１４５５番地,,10,207,3740057,,,2023-01-25,登記官による閉鎖,,,2015-10-05,1,,,,,,0
1627,5070005007509,登記記録の閉鎖等,0,2023-01-25,2023-01-25,六合村温泉旅館協同組合,,その他の設立登記法人,群馬県,吾妻郡中之条町,大字入山１５３３番地,,10,421,3771701,,,2023-01-25,登記官による閉鎖,,,2015-10-05,1,,,,,,0
1629,5080102012906,登記記録の閉鎖等,0,2023-01-25,2023-01-23,ゴールド有限会社,,有限会社,静岡県,三島市,梅名１０３番地１,,22,206,4110816,,,2023-01-23,清算の結了等,,,2015-10-05,1,,,,,ゴールド,0
1651,5122001007916,登記記録の閉鎖等,0,2023-01-25,2023-01-23,株式会社吉川鋼線,,株式会社,大阪府,東大阪市,東山町４番１９号,,27,227,5798027,,,2023-01-23,清算の結了等,,,2015-10-05,1,,,,,ヨシカワコウセン,0
1655,5140001085071,登記記録の閉鎖等,0,2023-01-25,2023-01-24,株式会社北浜システム・コンサルタント,,株式会社,京都府,京都市伏見区,東組町６９２番地,,26,109,6128063,,,2023-01-24,清算の結了等,,,2015-10-05,1,,,,,キタハマシステムコンサルタント,0
1658,5160002012618,登記記録の閉鎖等,0,2023-01-25,2023-01-23,有限会社柏木住建,,有限会社,滋賀県,栗東市,小平井７１番地４２,,25,208,5203034,,,2023-01-23,登記官による閉鎖,,,2015-10-05,1,,,,,,0
1660,5180001142265,登記記録の閉鎖等,0,2023-01-25,2023-01-20,ラブ株式会社,,株式会社,愛知県,名古屋市中村区,本陣通２丁目２９番地ロータス本陣通５０１,,23,105,4530041,,,2023-01-20,清算の結了等,,,2020-08-06,1,,,,,ラブ,0
1661,5180001150680,登記記録の閉鎖等,0,2023-01-25,2023-01-20,ＴｒａｎｓＦｕｔｕｒｅｓ株式会社,,株式会社,愛知県,名古屋市東区,葵１丁目１６番３８号,,23,102,4610004,,,2023-01-20,合併による解散等,7010401001556,令和５年１月１日東京都港区赤坂一丁目８番１号アクセンチュア株式会社（7010401001556）に合併し解散,2022-04-05,1,,,,,トランスフューチャーズ,0
1674,5190002005544,登記記録の閉鎖等,0,2023-01-25,2023-01-19,有限会社森岡商店,,有限会社,三重県,尾鷲市,賀田町１５９６番地,,24,209,5193921,,,2023-01-19,清算の結了等,,,2015-10-05,1,,,,,モリオカショウテン,0
1700,5350001000430,登記記録の閉鎖等,0,2023-01-25,2023-01-25,九州レイホー株式会社,,株式会社,宮崎県,宮崎市,大字赤江字飛江田１２０８番地,,45,201,8800912,,,2023-01-25,登記官による閉鎖,,,2017-02-13,1,,,,,,0
1701,5350001006139,登記記録の閉鎖等,0,2023-01-25,2023-01-25,みらい産業株式会社,,株式会社,宮崎県,日向市,上町１０７３９番地１,,45,206,8830044,,,2023-01-25,登記官による閉鎖,,,2015-10-05,1,,,,,,0
1703,5360001002228,登記記録の閉鎖等,0,2023-01-25,2023-01-25,株式会社りゅうたん,,株式会社,沖縄県,那覇市,首里池端町１０番地,,47,201,9030824,,,2023-01-25,登記官による閉鎖,,,2015-10-05,1,,,,,,0
1704,5360001011360,登記記録の閉鎖等,0,2023-01-25,2023-01-25,株式会社ＳＫＫ,,株式会社,沖縄県,宜野湾市,真栄原１丁目２１番１号,,47,205,9012215,,,2023-01-25,登記官による閉鎖,,,2015-10-05,1,,,,,,0
1705,5360001013670,登記記録の閉鎖等,0,2023-01-25,2023-01-25,株式会社イゼナ電気,,株式会社,沖縄県,うるま市,字赤道１２４番地１,,47,213,9042245,,,2023-01-25,登記官による閉鎖,,,2015-10-05,1,,,,,,0
1706,5360001018810,登記記録の閉鎖等,0,2023-01-25,2023-01-25,アセアン通商株式会社,,株式会社,沖縄県,那覇市,西１丁目１６番１号,,47,201,9000036,,,2023-01-25,登記官による閉鎖,,,2015-10-05,1,,,,,,0
1707,5360002008793,登記記録の閉鎖等,0,2023-01-25,2023-01-25,有限会社ＯＭネットワーク,,有限会社,沖縄県,那覇市,宇栄原２丁目８番２３号１Ｆ,,47,201,9010153,,,2023-01-25,登記官による閉鎖,,,2015-10-05,1,,,,,,0
1708,5360002016722,登記記録の閉鎖等,0,2023-01-25,2023-01-25,有限会社前義産業,,有限会社,沖縄県,浦添市,経塚１丁目９番１２号,,47,208,9012111,,,2023-01-25,登記官による閉鎖,,,2015-10-05,1,,,,,,0
1712,5360005001572,登記記録の閉鎖等,0,2023-01-25,2023-01-25,沖縄エコガード事業協同組合,,その他の設立登記法人,沖縄県,那覇市,松尾１丁目１９番１号ベルザ沖縄６階,,47,201,9000014,,,2023-01-25,登記官による閉鎖,,,2015-10-05,1,,,,,,0
1713,5360005002620,登記記録の閉鎖等,0,2023-01-25,2023-01-25,沖縄県生活環境改善支援協同組合,,その他の設立登記法人,沖縄県,浦添市,大平１丁目２番２０号,,47,208,9012113,,,2023-01-25,登記官による閉鎖,,,2015-10-05,1,,,,,,0
1714,5360005002843,登記記録の閉鎖等,0,2023-01-25,2023-01-25,農事組合法人北宜花卉センター,,その他の設立登記法人,沖縄県,宜野湾市,野嵩３丁目３０番１２号,,47,205,9012203,,,2023-01-25,登記官による閉鎖,,,2017-06-12,1,,,,,,0
1715,5360005003750,登記記録の閉鎖等,0,2023-01-25,2023-01-25,特定非営利活動法人ボディケアリスト協会,,その他の設立登記法人,沖縄県,沖縄市,園田１丁目１６番８号照屋ビル１Ｆ,,47,211,9040022,,,2023-01-25,登記官による閉鎖,,,2015-10-05,1,,,,,,0
1717,5390001005459,登記記録の閉鎖等,0,2023-01-25,2023-01-23,株式会社ディズム,,株式会社,山形県,東村山郡中山町,大字柳沢５１０番７号,,06,302,9900406,,,2023-01-23,登記官による閉鎖,,,2015-10-05,1,,,,,,0
1718,5390001011688,登記記録の閉鎖等,0,2023-01-25,2023-01-23,株式会社秋葉紙店,,株式会社,山形県,寒河江市,本町２丁目７番７号,,06,206,9910031,,,2023-01-23,登記官による閉鎖,,,2015-10-05,1,,,,,,0
1720,5390002006497,登記記録の閉鎖等,0,2023-01-25,2023-01-23,有限会社金子建築,,有限会社,山形県,上山市,河崎３丁目１８番２９号,,06,207,9993145,,,2023-01-23,登記官による閉鎖,,,2015-10-05,1,,,,,,0
1721,5390002007883,登記記録の閉鎖等,0,2023-01-25,2023-01-23,有限会社藤波園茶舗,,有限会社,山形県,酒田市,中町１丁目７番７号,,06,204,9980044,,,2023-01-23,登記官による閉鎖,,,2015-10-05,1,,,,,,0
1740,5480001004773,登記記録の閉鎖等,0,2023-01-25,2023-01-25,株式会社オオツカ,,株式会社,徳島県,吉野川市,鴨島町牛島字四ツ屋５２番地,,36,205,7760001,,,2023-01-25,登記官による閉鎖,,,2015-10-05,1,,,,,,0
1741,5480002000276,登記記録の閉鎖等,0,2023-01-25,2023-01-25,有限会社赤星商会,,有限会社,徳島県,徳島市,佐古四番町１０番１７号,,36,201,7700024,,,2023-01-25,登記官による閉鎖,,,2015-10-05,1,,,,,,0
1742,5480002011166,登記記録の閉鎖等,0,2023-01-25,2023-01-25,有限会社四国樹脂製作所,,有限会社,徳島県,板野郡北島町,北村字西久保１８番地の３,,36,402,7710201,,,2023-01-25,登記官による閉鎖,,,2015-10-05,1,,,,,,0
1743,5480002011348,登記記録の閉鎖等,0,2023-01-25,2023-01-25,有限会社ミキモト,,有限会社,徳島県,板野郡北島町,中村字岸ノ上１２番地２３,,36,402,7710203,,,2023-01-25,登記官による閉鎖,,,2015-10-05,1,,,,,,0
1744,5480002012940,登記記録の閉鎖等,0,2023-01-25,2023-01-25,有限会社倉橋建設,,有限会社,徳島県,阿南市,長生町南平岡５番地の１,,36,204,7740046,,,2023-01-25,登記官による閉鎖,,,2015-10-05,1,,,,,,0
1745,5480005003648,登記記録の閉鎖等,0,2023-01-25,2023-01-25,鳴門工業協業組合,,その他の設立登記法人,徳島県,鳴門市,里浦町里浦字恵美寿６７３番地,,36,202,7720021,,,2023-01-25,登記官による閉鎖,,,2015-10-05,1,,,,,,0
1770,6010501002141,登記記録の閉鎖等,0,2023-01-25,2023-01-23,ＬＦトレーディング株式会社,,株式会社,東京都,港区,芝４丁目７番８号,,13,103,1080014,,,2023-01-23,合併による解散等,9010501004036,令和５年１月１日東京都中央区新川一丁目１７番２５号恒和総業株式会社（9010501004036）に合併し解散,2015-10-05,1,,,,,エルエフトレーディング,0
1773,6010601042228,登記記録の閉鎖等,0,2023-01-25,2023-01-18,株式会社テイエム企画サービス,,株式会社,東京都,墨田区,両国３丁目５番２号,,13,107,1300026,,,2023-01-18,清算の結了等,,,2015-10-05,1,,,,,,0
1783,6011001072947,登記記録の閉鎖等,0,2023-01-25,2023-01-05,株式会社ヒント・エンタテインメント,,株式会社,東京都,港区,高輪２丁目１２番５５号,,13,103,1080074,,,2023-01-05,合併による解散等,2011001045675,令和５年１月１日東京都港区南麻布二丁目１３番１２号ＥＭ南麻布ビル４階株式会社ヒント（2011001045675）に合併し解散,2015-10-05,1,,,,,ヒントエンタテインメント,0
1798,6011101035738,登記記録の閉鎖等,0,2023-01-25,2023-01-25,錦江物産株式会社,,株式会社,東京都,新宿区,西新宿３丁目３番１１号,,13,104,1600023,,,2023-01-25,登記官による閉鎖,,,2015-10-05,1,,,,,,0
1799,6011101046413,登記記録の閉鎖等,0,2023-01-25,2023-01-25,株式会社ＨＧパートナーズ,,株式会社,東京都,新宿区,新宿５丁目１７番１１号,,13,104,1600022,,,2023-01-25,登記官による閉鎖,,,2015-10-05,1,,,,,,0
1800,6011101052312,登記記録の閉鎖等,0,2023-01-25,2023-01-25,株式会社ハイステージ,,株式会社,東京都,新宿区,富久町２０番２号,,13,104,1620067,,,2023-01-25,登記官による閉鎖,,,2015-10-05,1,,,,,,0
1801,6011101055868,登記記録の閉鎖等,0,2023-01-25,2023-01-25,株式会社ＫＴＹカンパニー,,株式会社,東京都,新宿区,若松町３４番５号,,13,104,1620056,,,2023-01-25,登記官による閉鎖,,,2015-10-05,1,,,,,,0
1802,6011101057658,登記記録の閉鎖等,0,2023-01-25,2023-01-25,株式会社シスコ,,株式会社,東京都,新宿区,新宿５丁目９番６号ユーアイビル１階,,13,104,1600022,,,2023-01-25,登記官による閉鎖,,,2015-10-05,1,,,,,,0
1803,6011101063689,登記記録の閉鎖等,0,2023-01-25,2023-01-25,株式会社ｌｕｍｉｅｒｅ,,株式会社,東京都,新宿区,歌舞伎町２丁目２５番８号,,13,104,1600021,,,2023-01-25,登記官による閉鎖,,,2015-10-05,1,,,,,,0
1804,6011102006606,登記記録の閉鎖等,0,2023-01-25,2023-01-25,有限会社新宿歯科補綴研究所,,有限会社,東京都,新宿区,高田馬場３丁目２０番１１号第２林ビル１０２,,13,104,1690075,,,2023-01-25,登記官による閉鎖,,,2015-10-05,1,,,,,,0
1805,6011102009534,登記記録の閉鎖等,0,2023-01-25,2023-01-25,有限会社ナベ企画印刷,,有限会社,東京都,新宿区,北新宿１丁目２９番３号秀建ハイツ３０１,,13,104,1690074,,,2023-01-25,登記官による閉鎖,,,2015-10-05,1,,,,,,0
1806,6011102022529,登記記録の閉鎖等,0,2023-01-25,2023-01-25,有限会社トーワプリント,,有限会社,東京都,新宿区,改代町２２番地,,13,104,1620802,,,2023-01-25,登記官による閉鎖,,,2015-10-05,1,,,,,,0
1807,6011102027932,登記記録の閉鎖等,0,2023-01-25,2023-01-25,有限会社トリエント,,有限会社,東京都,新宿区,北新宿１丁目３０番１５号,,13,104,1690074,,,2023-01-25,登記官による閉鎖,,,2015-10-05,1,,,,,,0
1808,6011102029359,登記記録の閉鎖等,0,2023-01-25,2023-01-25,有限会社内藤興業,,有限会社,東京都,新宿区,四谷４丁目８番地,,13,104,1600004,,,2023-01-25,登記官による閉鎖,,,2015-10-05,1,,,,,,0
1812,6011105001414,登記記録の閉鎖等,0,2023-01-25,2023-01-25,フロンティア都市開発事業協同組合,,その他の設立登記法人,東京都,新宿区,高田馬場２丁目１４番２号,,13,104,1690075,,,2023-01-25,登記官による閉鎖,,,2015-10-05,1,,,,,,0
1813,6011105001942,登記記録の閉鎖等,0,2023-01-25,2023-01-25,特定非営利活動法人高齢者自立支援協会,,その他の設立登記法人,東京都,新宿区,高田馬場２丁目１４番５号熊岡ビル１階,,13,104,1690075,,,2023-01-25,登記官による閉鎖,,,2015-10-05,1,,,,,,0
1814,6011105004318,登記記録の閉鎖等,0,2023-01-25,2023-01-25,特定非営利活動法人研究開発型ＮＰＯ振興機構,,その他の設立登記法人,東京都,新宿区,新宿２丁目１番１号８０３,,13,104,1600022,,,2023-01-25,登記官による閉鎖,,,2015-10-05,1,,,,,,0
1815,6011201005450,登記記録の閉鎖等,0,2023-01-25,2023-01-23,株式会社メンテナンス八千代商事,,株式会社,東京都,中野区,江古田４丁目３４番２号,,13,114,1650022,,,2023-01-23,清算の結了等,,,2015-10-05,1,,,,,,0
1821,6011603001956,登記記録の閉鎖等,0,2023-01-25,2023-01-20,合同会社ＤＮＣ,,合同会社,東京都,豊島区,南大塚２丁目１１番１０号,,13,116,1700005,,,2023-01-20,清算の結了等,,,2016-11-07,1,,,,,ディーエヌシー,0
1828,6012403003325,登記記録の閉鎖等,0,2023-01-25,2023-01-23,合同会社アレンジメント,,合同会社,東京都,調布市,佐須町２丁目３４番地７,,13,208,1820016,,,2023-01-23,清算の結了等,,,2018-01-17,1,,,,,アレンジメント,0
1837,6020001002277,登記記録の閉鎖等,0,2023-01-25,2023-01-25,株式会社中島エージェンシー,,株式会社,神奈川県,横浜市緑区,寺山町６０８番地１,,14,113,2260013,,,2023-01-25,登記官による閉鎖,,,2015-10-05,1,,,,,,0
1838,6020001004967,登記記録の閉鎖等,0,2023-01-25,2023-01-25,株式会社グローバル企画,,株式会社,神奈川県,横浜市旭区,今宿２丁目７０番７号,,14,112,2410817,,,2023-01-25,登記官による閉鎖,,,2015-10-05,1,,,,,,0
1839,6020001010726,登記記録の閉鎖等,0,2023-01-25,2023-01-25,横浜医事信販株式会社,,株式会社,神奈川県,横浜市青葉区,つつじが丘３０番地１,,14,117,2270055,,,2023-01-25,登記官による閉鎖,,,2015-10-05,1,,,,,,0
1840,6020001017151,登記記録の閉鎖等,0,2023-01-25,2023-01-25,株式会社久米電業社,,株式会社,神奈川県,横浜市鶴見区,下末吉４丁目７番８号,,14,101,2300012,,,2023-01-25,登記官による閉鎖,,,2015-10-05,1,,,,,,0
1841,6020001023323,登記記録の閉鎖等,0,2023-01-25,2023-01-25,神静出版サービス株式会社,,株式会社,神奈川県,横浜市金沢区,並木２丁目１２番２－２０２号,,14,108,2360005,,,2023-01-25,登記官による閉鎖,,,2015-10-05,1,,,,,,0
1842,6020001027910,登記記録の閉鎖等,0,2023-01-25,2023-01-25,東亜物産株式会社,,株式会社,神奈川県,横浜市中区,住吉町１丁目１３番地,,14,104,2310013,,,2023-01-25,登記官による閉鎖,,,2015-10-05,1,,,,,,0
1843,6020001033561,登記記録の閉鎖等,0,2023-01-25,2023-01-25,株式会社三慶防災,,株式会社,神奈川県,横浜市栄区,小山台１丁目９番１２号,,14,115,2470002,,,2023-01-25,登記官による閉鎖,,,2015-10-05,1,,,,,,0
1844,6020001043478,登記記録の閉鎖等,0,2023-01-25,2023-01-25,株式会社ヤマケンホーム,,株式会社,神奈川県,横浜市南区,井土ケ谷下町３１番地の６,,14,105,2320053,,,2023-01-25,登記官による閉鎖,,,2015-10-05,1,,,,,,0
1845,6020001044633,登記記録の閉鎖等,0,2023-01-25,2023-01-25,株式会社Ｄ３コーポレーション,,株式会社,神奈川県,横浜市港北区,新横浜３丁目１８番地５,,14,109,2220033,,,2023-01-25,登記官による閉鎖,,,2015-10-05,1,,,,,,0
1848,6020001052520,登記記録の閉鎖等,0,2023-01-25,2023-01-25,株式会社オンユアマーク,,株式会社,神奈川県,横浜市都筑区,中川中央１丁目４番２シャリテ・センター北２０２号室,,14,118,2240003,,,2023-01-25,登記官による閉鎖,,,2015-10-05,1,,,,,,0
1849,6020001055746,登記記録の閉鎖等,0,2023-01-25,2023-01-25,株式会社竹田工事,,株式会社,神奈川県,横浜市都筑区,勝田南２丁目２番２４－５０１号,,14,118,2240036,,,2023-01-25,登記官による閉鎖,,,2015-10-05,1,,,,,,0
1850,6020001056967,登記記録の閉鎖等,0,2023-01-25,2023-01-25,株式会社エス・アンド・エス,,株式会社,神奈川県,横浜市港北区,新横浜３丁目１６番１０号京浜建物第３ビル７０２,,14,109,2220033,,,2023-01-25,登記官による閉鎖,,,2015-10-05,1,,,,,,0
1851,6020001060886,登記記録の閉鎖等,0,2023-01-25,2023-01-25,株式会社ペットコミュニティ,,株式会社,神奈川県,横浜市港北区,新横浜２丁目１５番地１９,,14,109,2220033,,,2023-01-25,登記官による閉鎖,,,2015-10-05,1,,,,,,0
1853,6020001068450,登記記録の閉鎖等,0,2023-01-25,2023-01-25,フジコー株式会社,,株式会社,神奈川県,川崎市宮前区,菅生５丁目２２番１１号,,14,136,2160015,,,2023-01-25,登記官による閉鎖,,,2015-10-05,1,,,,,,0
1854,6020001073649,登記記録の閉鎖等,0,2023-01-25,2023-01-25,株式会社大師ボウル,,株式会社,神奈川県,川崎市川崎区,大師駅前１丁目８番２号,,14,131,2100802,,,2023-01-25,登記官による閉鎖,,,2015-10-05,1,,,,,,0
1855,6020001084877,登記記録の閉鎖等,0,2023-01-25,2023-01-25,ブルーバック株式会社,,株式会社,神奈川県,横浜市都筑区,佐江戸町１３５３番地,,14,118,2240054,,,2023-01-25,登記官による閉鎖,,,2015-10-05,1,,,,,,0
1856,6020001088861,登記記録の閉鎖等,0,2023-01-25,2023-01-25,横浜第一介護施設株式会社,,株式会社,神奈川県,横浜市南区,永田東３丁目２－４－１Ｆ,,14,105,2320072,,,2023-01-25,登記官による閉鎖,,,2015-10-05,1,,,,,,0
1857,6020001089595,登記記録の閉鎖等,0,2023-01-25,2023-01-25,株式会社インファント・Ｂｅ,,株式会社,神奈川県,川崎市麻生区,千代ケ丘５丁目９番９８勝坂ハイツ２０５,,14,137,2150005,,,2023-01-25,登記官による閉鎖,,,2015-10-05,1,,,,,,0
1868,6020002000734,登記記録の閉鎖等,0,2023-01-25,2023-01-25,有限会社ホームセンタークロダ,,有限会社,神奈川県,横浜市栄区,桂台東７番１－４０４号,,14,115,2470032,,,2023-01-25,登記官による閉鎖,,,2015-10-05,1,,,,,,0
1869,6020002002565,登記記録の閉鎖等,0,2023-01-25,2023-01-25,有限会社ベル・スペース・アート,,有限会社,神奈川県,横浜市泉区,上飯田町４６６３番地の１６,,14,116,2450018,,,2023-01-25,登記官による閉鎖,,,2015-10-05,1,,,,,,0
1870,6020002004082,登記記録の閉鎖等,0,2023-01-25,2023-01-25,有限会社市川金型製作所,,有限会社,神奈川県,横浜市緑区,鴨居７丁目１２番１号,,14,113,2260003,,,2023-01-25,登記官による閉鎖,,,2015-10-05,1,,,,,,0
1871,6020002023322,登記記録の閉鎖等,0,2023-01-25,2023-01-25,有限会社大蔵商事,,有限会社,神奈川県,横浜市保土ケ谷区,峰岡町１丁目１番地１２,,14,106,2400064,,,2023-01-25,登記官による閉鎖,,,2015-10-05,1,,,,,,0
1873,6020002032141,登記記録の閉鎖等,0,2023-01-25,2023-01-25,有限会社渡辺工業所,,有限会社,神奈川県,横浜市南区,六ツ川２丁目１２０番地の１９,,14,105,2320066,,,2023-01-25,登記官による閉鎖,,,2015-10-05,1,,,,,,0
1874,6020002061735,登記記録の閉鎖等,0,2023-01-25,2023-01-25,有限会社デザイン・テン,,有限会社,神奈川県,横浜市西区,楠町四丁目３番地藤和西口ハイタウン内,,14,103,2200003,,,2023-01-25,登記官による閉鎖,,,2015-10-05,1,,,,,,0
1875,6020002070892,登記記録の閉鎖等,0,2023-01-25,2023-01-25,有限会社住華,,有限会社,神奈川県,横浜市神奈川区,新子安１丁目２番,,14,102,2210013,,,2023-01-25,登記官による閉鎖,,,2015-10-05,1,,,,,,0
1876,6020002072261,登記記録の閉鎖等,0,2023-01-25,2023-01-25,有限会社田園建設,,有限会社,神奈川県,横浜市青葉区,新石川２丁目３１番地３０,,14,117,2250003,,,2023-01-25,登記官による閉鎖,,,2015-10-05,1,,,,,,0
1877,6020002079315,登記記録の閉鎖等,0,2023-01-25,2023-01-25,有限会社丸装,,有限会社,神奈川県,横浜市港北区,新横浜１丁目２１番地１アデニウム新横浜２０９,,14,109,2220033,,,2023-01-25,登記官による閉鎖,,,2015-10-05,1,,,,,,0
1878,6020002081849,登記記録の閉鎖等,0,2023-01-25,2023-01-25,有限会社ミレー商事,,有限会社,神奈川県,川崎市幸区,南幸町３丁目９１番地,,14,132,2120016,,,2023-01-25,登記官による閉鎖,,,2015-10-05,1,,,,,,0
1879,6020002083432,登記記録の閉鎖等,0,2023-01-25,2023-01-25,有限会社小野口工務店,,有限会社,神奈川県,川崎市中原区,木月３丁目１２番５号,,14,133,2110025,,,2023-01-25,登記官による閉鎖,,,2015-10-05,1,,,,,,0
1880,6020002096368,登記記録の閉鎖等,0,2023-01-25,2023-01-25,有限会社関東ヨシダ,,有限会社,神奈川県,川崎市川崎区,宮前町８番１３号大幸ビル,,14,131,2100012,,,2023-01-25,登記官による閉鎖,,,2015-10-05,1,,,,,,0
1881,6020003007217,登記記録の閉鎖等,0,2023-01-25,2023-01-25,パイリサーチラボ合同会社,,合同会社,神奈川県,横浜市南区,永田東３丁目１１番１－１２０１号,,14,105,2320072,,,2023-01-25,登記官による閉鎖,,,2015-10-05,1,,,,,,0
1882,6020005005680,登記記録の閉鎖等,0,2023-01-25,2023-01-20,特定非営利活動法人神奈川県建築設計協会,,その他の設立登記法人,神奈川県,横浜市神奈川区,栗田谷４８－２３,,14,102,2210804,,,2023-01-20,清算の結了等,,,2015-10-05,1,,,,,カナガワケンケンチクセッケイキョウカイ,0
1883,6020005014756,登記記録の閉鎖等,0,2023-01-25,2023-01-20,税理士法人石岡会計,,その他の設立登記法人,神奈川県,横浜市中区,住吉町２丁目２４番地住吉２４ビル８Ｆ,,14,104,2310013,,,2023-01-20,清算の結了等,,,2020-08-05,1,,,,,イシオカカイケイ,0
1884,6021001066163,登記記録の閉鎖等,0,2023-01-25,2023-01-19,株式会社ｓｔｕｍｐ,,株式会社,神奈川県,逗子市,小坪６丁目１４番２０号,,14,208,2490008,,,2023-01-19,清算の結了等,,,2018-12-06,1,,,,,スタンプ,0
1885,6021001070719,登記記録の閉鎖等,0,2023-01-25,2023-01-06,株式会社ｍａｉｅｌ,,株式会社,神奈川県,藤沢市,藤沢５４８番地の１,,14,205,2510052,,,2023-01-06,合併による解散等,1021001070054,令和４年１１月２８日神奈川県藤沢市藤沢５４８番地の１ｒｅｌａｘ　ｔｏｋｙｏ株式会社（1021001070054）に合併し解散,2020-09-04,1,,,,,マイエル,0
1889,6030001025401,登記記録の閉鎖等,0,2023-01-25,2023-01-23,株式会社イートレード不動産,,株式会社,埼玉県,所沢市,御幸町７番１３号,,11,208,3591115,,,2023-01-23,清算の結了等,,,2015-10-05,1,,,,,イートレードフドウサン,0
1920,6060001027510,登記記録の閉鎖等,0,2023-01-25,2023-01-20,株式会社ＧＲＯＷＩＮＧ,,株式会社,栃木県,宇都宮市,鶴田町１９９８番地５菖蒲苑マンション１０２,,09,201,3200851,,,2023-01-20,清算の結了等,,,2015-10-05,1,,,,,グローイング,0
1926,6070001009400,登記記録の閉鎖等,0,2023-01-25,2023-01-25,株式会社群商,,株式会社,群馬県,高崎市,金古町１２９２番地５,,10,202,3703511,,,2023-01-25,登記官による閉鎖,,,2015-10-05,1,,,,,,0
1927,6070001010283,登記記録の閉鎖等,0,2023-01-25,2023-01-25,株式会社今井商会,,株式会社,群馬県,高崎市,新町６７番地,,10,202,3701301,,,2023-01-25,登記官による閉鎖,,,2015-10-05,1,,,,,,0
1928,6070001013765,登記記録の閉鎖等,0,2023-01-25,2023-01-25,株式会社ミクロス,,株式会社,群馬県,伊勢崎市,日乃出町５１０番地,,10,204,3720022,,,2023-01-25,登記官による閉鎖,,,2015-10-05,1,,,,,,0
1929,6070001021495,登記記録の閉鎖等,0,2023-01-25,2023-01-25,株式会社ワイズ・コーポレーション,,株式会社,群馬県,太田市,飯田町８８３番地,,10,205,3730851,,,2023-01-25,登記官による閉鎖,,,2015-10-05,1,,,,,,0
1930,6070001021685,登記記録の閉鎖等,0,2023-01-25,2023-01-25,久保島建設株式会社,,株式会社,群馬県,館林市,近藤町２番地２３７,,10,207,3740042,,,2023-01-25,登記官による閉鎖,,,2015-10-05,1,,,,,,0
1931,6070001025348,登記記録の閉鎖等,0,2023-01-25,2023-01-25,堀鋼業株式会社,,株式会社,群馬県,藤岡市,本郷１８７８番地４,,10,209,3750023,,,2023-01-25,登記官による閉鎖,,,2015-10-05,1,,,,,,0
1932,6070002002478,登記記録の閉鎖等,0,2023-01-25,2023-01-25,有限会社サロン・ド・セピア,,有限会社,群馬県,前橋市,文京町１丁目４１番１９号,,10,201,3710801,,,2023-01-25,登記官による閉鎖,,,2015-10-05,1,,,,,,0
1933,6070002009408,登記記録の閉鎖等,0,2023-01-25,2023-01-25,有限会社雅鈴,,有限会社,群馬県,高崎市,寄合町１４番地１,,10,202,3700822,,,2023-01-25,登記官による閉鎖,,,2015-10-05,1,,,,,,0
1934,6070002010555,登記記録の閉鎖等,0,2023-01-25,2023-01-25,青輝産業有限会社,,有限会社,群馬県,高崎市,上中居町１４７２番地９,,10,202,3700851,,,2023-01-25,登記官による閉鎖,,,2015-10-05,1,,,,,,0
1935,6070002012675,登記記録の閉鎖等,0,2023-01-25,2023-01-25,有限会社吉田屋酒店,,有限会社,群馬県,高崎市,東町１５８番地の１０,,10,202,3700045,,,2023-01-25,登記官による閉鎖,,,2015-10-05,1,,,,,,0
1936,6070002013459,登記記録の閉鎖等,0,2023-01-25,2023-01-25,株式会社ｌａｂ　ｃｏｍｐａｎｙ,,株式会社,群馬県,高崎市,砂賀町３２番地３河手ビル３階,,10,202,3700832,,,2023-01-25,登記官による閉鎖,,,2015-10-05,1,,,,,,0
1937,6070002014738,登記記録の閉鎖等,0,2023-01-25,2023-01-25,有限会社協勇鍍金,,有限会社,群馬県,安中市,板鼻１３７６番地９,,10,211,3790111,,,2023-01-25,登記官による閉鎖,,,2015-10-05,1,,,,,,0
1938,6070002024217,登記記録の閉鎖等,0,2023-01-25,2023-01-25,東宮織物有限会社,,有限会社,群馬県,桐生市,錦町２丁目４番１０号,,10,203,3760023,,,2023-01-25,登記官による閉鎖,,,2015-10-05,1,,,,,,0
1939,6070002033762,登記記録の閉鎖等,0,2023-01-25,2023-01-25,有限会社野村商店,,有限会社,群馬県,館林市,松原２丁目１４番４７号,,10,207,3740016,,,2023-01-25,登記官による閉鎖,,,2015-10-05,1,,,,,,0
1940,6070002034488,登記記録の閉鎖等,0,2023-01-25,2023-01-25,有限会社飛鳥,,有限会社,群馬県,館林市,近藤町３番地の３,,10,207,3740042,,,2023-01-25,登記官による閉鎖,,,2015-10-05,1,,,,,,0
1941,6070002034991,登記記録の閉鎖等,0,2023-01-25,2023-01-25,有限会社戸部熱設,,有限会社,群馬県,沼田市,大釜町５８番地１,,10,206,3780067,,,2023-01-25,登記官による閉鎖,,,2015-10-05,1,,,,,,0
1942,6070003000828,登記記録の閉鎖等,0,2023-01-25,2023-01-25,合同会社魚鮮丸,,合同会社,群馬県,渋川市,赤城町津久田３７２４番地,,10,208,3791103,,,2023-01-25,登記官による閉鎖,,,2015-10-05,1,,,,,,0
1943,6070005000066,登記記録の閉鎖等,0,2023-01-25,2023-01-25,群馬県パン工業組合,,その他の設立登記法人,群馬県,前橋市,大手町２丁目７番１－２０５号,,10,201,3710026,,,2023-01-25,登記官による閉鎖,,,2015-10-05,1,,,,,,0
1944,6070005005874,登記記録の閉鎖等,0,2023-01-25,2023-01-25,太田商工業協同組合,,その他の設立登記法人,群馬県,太田市,台之郷町１０６１番地,,10,205,3730801,,,2023-01-25,登記官による閉鎖,,,2015-10-05,1,,,,,,0
1947,6080401020055,登記記録の閉鎖等,0,2023-01-25,2023-01-23,株式会社ゴーアヘッド,,株式会社,静岡県,磐田市,岩井２３３９番地１,,22,211,4380016,,,2023-01-23,清算の結了等,,,2015-10-05,1,,,,,ゴーアヘッド,0
1962,6120001202107,登記記録の閉鎖等,0,2023-01-25,2023-01-20,株式会社あじさい,,株式会社,大阪府,寝屋川市,境橋町１番２７号,,27,215,5720018,,,2023-01-20,清算の結了等,,,2016-11-28,1,,,,,アジサイ,0
1971,6120901008909,登記記録の閉鎖等,0,2023-01-25,2023-01-23,株式会社ワシンビル,,株式会社,大阪府,吹田市,千里山高塚２１番１号,,27,205,5650848,,,2023-01-23,清算の結了等,,,2015-10-05,1,,,,,ワシンビル,0
1993,6200002013643,登記記録の閉鎖等,0,2023-01-25,2023-01-23,有限会社フタミヤ温調,,有限会社,岐阜県,不破郡関ケ原町,大字関ケ原２８４２番地の２７,,21,362,5031501,,,2023-01-23,清算の結了等,,,2015-10-05,1,,,,,フタミヤオンチョウ,0
2001,6240001007568,登記記録の閉鎖等,0,2023-01-25,2023-01-24,東宝住宅株式会社,,株式会社,広島県,広島市南区,宇品神田５丁目５番６号,,34,103,7340004,,,2023-01-24,清算の結了等,,,2015-10-05,1,,,,,トウホウジュウタク,0
2002,6240001017666,登記記録の閉鎖等,0,2023-01-25,2023-01-23,ウィル・アド・ジャパン株式会社,,株式会社,広島県,広島市中区,中町２番１６号,,34,101,7300037,,,2023-01-23,合併による解散等,5240001015893,令和５年１月２１日広島市西区横川町二丁目３番４－１２０２号リアルエステートジャパン株式会社（5240001015893）に合併し解散,2015-10-05,1,,,,,ウィルアドジャパン,0
2014,6290001054688,登記記録の閉鎖等,0,2023-01-25,2023-01-23,株式会社中嶋建設,,株式会社,福岡県,柳川市,三橋町垂見２１３５番地の１,,40,207,8320814,,,2023-01-23,清算の結了等,,,2015-10-05,1,,,,,ナカシマケンセツ,0
2016,6290001063623,登記記録の閉鎖等,0,2023-01-25,2023-01-20,Ｍ＆Ｍカンパニー株式会社,,株式会社,福岡県,久留米市,合川町２０４４番地４,,40,203,8390861,,,2023-01-20,清算の結了等,,,2015-10-05,1,,,,,エムアンドエムカンパニー,0
2030,6350001007838,登記記録の閉鎖等,0,2023-01-25,2023-01-25,株式会社池田工務店,,株式会社,宮崎県,都城市,庄内町１２７２２番地イ,,45,202,8850114,,,2023-01-25,登記官による閉鎖,,,2015-10-05,1,,,,,,0
2032,6350002005485,登記記録の閉鎖等,0,2023-01-25,2023-01-25,有限会社西田産機,,有限会社,宮崎県,宮崎市,高岡町五町５５１番地５,,45,201,8802322,,,2023-01-25,登記官による閉鎖,,,2015-10-05,1,,,,,,0
2033,6350002007135,登記記録の閉鎖等,0,2023-01-25,2023-01-25,有限会社高木産業,00100767,有限会社,宮崎県,東諸県郡国富町,大字八代南俣４４７番地２,,45,382,8801223,,,2023-01-25,登記官による閉鎖,,,2015-10-05,1,,,,,,0
2034,6350002010353,登記記録の閉鎖等,0,2023-01-25,2023-01-25,池田精肉店有限会社,,有限会社,宮崎県,西都市,小野崎１丁目７０番地,,45,208,8810012,,,2023-01-25,登記官による閉鎖,,,2015-10-05,1,,,,,,0
2036,6350002016425,登記記録の閉鎖等,0,2023-01-25,2023-01-25,アクネ建機有限会社,,有限会社,宮崎県,日南市,大字隈谷乙１９６２番地８,,45,204,8870023,,,2023-01-25,登記官による閉鎖,,,2015-10-05,1,,,,,,0
2037,6350002017043,登記記録の閉鎖等,0,2023-01-25,2023-01-25,有限会社江川造船,,有限会社,宮崎県,日南市,南郷町中村乙３９２７番地１,,45,204,8893204,,,2023-01-25,登記官による閉鎖,,,2015-10-05,1,,,,,,0
2039,6350002018990,登記記録の閉鎖等,0,2023-01-25,2023-01-25,有限会社大福商事,,有限会社,宮崎県,延岡市,大貫町３丁目９２２番地,,45,203,8820803,,,2023-01-25,登記官による閉鎖,,,2018-01-19,1,,,,,,0
2042,6360002011508,登記記録の閉鎖等,0,2023-01-25,2023-01-25,有限会社沖繩宮城商事,00101617,有限会社,沖縄県,沖縄市,中央１丁目１４番１４号,,47,211,9040004,,,2023-01-25,登記官による閉鎖,,,2015-10-05,1,,,,,,0
2046,6360002020616,登記記録の閉鎖等,0,2023-01-25,2023-01-25,有限会社大勝開発,,有限会社,沖縄県,国頭郡国頭村,字辺土名１５５６番地４,,47,301,9051411,,,2023-01-25,登記官による閉鎖,,,2015-10-05,1,,,,,,0
2047,6360002022109,登記記録の閉鎖等,0,2023-01-25,2023-01-25,有限会社邦工業,,有限会社,沖縄県,宮古島市,城辺字砂川６２９番地５,,47,214,9060108,,,2023-01-25,登記官による閉鎖,,,2015-10-05,1,,,,,,0
2048,6360003002588,登記記録の閉鎖等,0,2023-01-25,2023-01-25,合資会社ワークネット,,合資会社,沖縄県,島尻郡与那原町,字上与那原４３１番地,,47,348,9011302,,,2023-01-25,登記官による閉鎖,,,2015-10-05,1,,,,,,0
2049,6360005003634,登記記録の閉鎖等,0,2023-01-25,2023-01-25,八重山砂利採取事業協同組合,,その他の設立登記法人,沖縄県,石垣市,字宮良１０５５番地の１８,,47,207,9070243,,,2023-01-25,登記官による閉鎖,,,2015-10-05,1,,,,,,0
2053,6380005005380,登記記録の閉鎖等,0,2023-01-25,2023-01-20,職業訓練法人県南地区職業訓練協会,,その他の設立登記法人,福島県,岩瀬郡鏡石町,大字鏡田字岡ノ内７６番地,,07,342,9690401,,,2023-01-20,登記官による閉鎖,,,2015-10-05,1,,,,,,0
2055,6400001007659,登記記録の閉鎖等,0,2023-01-25,2023-01-20,株式会社一戸オート,,株式会社,岩手県,二戸郡一戸町,高善寺字大川鉢２２番地１,,03,524,0285311,,,2023-01-20,清算の結了等,,,2015-10-05,1,,,,,,0
2056,6400501000700,登記記録の閉鎖等,0,2023-01-25,2023-01-18,株式会社デリカサービス,,株式会社,岩手県,一関市,山目字大槻１２２番地５,,03,209,0210063,,,2023-01-18,清算の結了等,,,2015-10-05,1,,,,,デリカサービス,0
2057,6420002005230,登記記録の閉鎖等,0,2023-01-25,2023-01-24,有限会社戸山建設,,有限会社,青森県,青森市,大字滝沢字住吉２２３番地６６,,02,201,0393524,,,2023-01-24,清算の結了等,,,2015-10-05,1,,,,,トヤマケンセツ,0
2061,6430002029856,登記記録の閉鎖等,0,2023-01-25,2023-01-18,株式会社建匠,,株式会社,北海道,札幌市北区,新琴似五条９丁目４番１８号,,01,102,0010905,,,2023-01-18,合併による解散等,8430003009384,令和５年１月１８日札幌市北区新川西四条三丁目１５番８号株式会社匠建（8430003009384）に合併し解散,2015-10-05,1,,,,,ケンショウ,0
2067,6480001004203,登記記録の閉鎖等,0,2023-01-25,2023-01-25,株式会社テクノケルン,,株式会社,徳島県,徳島市,北沖洲４丁目２番１号,,36,201,7700872,,,2023-01-25,登記官による閉鎖,,,2015-10-05,1,,,,,,0
2068,6480001005234,登記記録の閉鎖等,0,2023-01-25,2023-01-25,今切公運株式会社,,株式会社,徳島県,板野郡北島町,中村字本須５番地,,36,402,7710203,,,2023-01-25,登記官による閉鎖,,,2015-10-05,1,,,,,,0
2070,6480002003393,登記記録の閉鎖等,0,2023-01-25,2023-01-25,有限会社徳島新聞川内販売所,,有限会社,徳島県,徳島市,川内町榎瀬６３３番地３,,36,201,7710144,,,2023-01-25,登記官による閉鎖,,,2015-10-05,1,,,,,,0
2071,6480002005927,登記記録の閉鎖等,0,2023-01-25,2023-01-25,有限会社バイオフーズ佐々木,,有限会社,徳島県,名西郡神山町,鬼籠野字一ノ坂３４８番地,,36,342,7713203,,,2023-01-25,登記官による閉鎖,,,2015-10-05,1,,,,,,0
2072,6480002006520,登記記録の閉鎖等,0,2023-01-25,2023-01-25,有限会社吉野川建設,,有限会社,徳島県,名西郡石井町,浦庄字上浦８０番地９,,36,341,7793245,,,2023-01-25,登記官による閉鎖,,,2015-10-05,1,,,,,,0
2073,6480002011339,登記記録の閉鎖等,0,2023-01-25,2023-01-25,有限会社松田石油,,有限会社,徳島県,板野郡松茂町,広島字南ノ川３９番地の３４,,36,401,7710220,,,2023-01-25,登記官による閉鎖,,,2015-10-05,1,,,,,,0
2074,6480002014424,登記記録の閉鎖等,0,2023-01-25,2023-01-25,有限会社Ｓｍｉｌｅ,,有限会社,徳島県,阿南市,那賀川町手島はり４番地７,,36,204,7791123,,,2023-01-25,登記官による閉鎖,,,2015-10-05,1,,,,,,0
2075,6480002015892,登記記録の閉鎖等,0,2023-01-25,2023-01-25,ミキメディカル有限会社,,有限会社,徳島県,三好市,三野町芝生１０２７番地,,36,208,7712304,,,2023-01-25,登記官による閉鎖,,,2015-10-05,1,,,,,,0
2076,6480005002351,登記記録の閉鎖等,0,2023-01-25,2023-01-25,医療法人新井医院,,その他の設立登記法人,徳島県,小松島市,松島町５番８号,,36,203,7730003,,,2023-01-25,登記官による閉鎖,,,2015-10-05,1,,,,,,0
2092,7010001145720,登記記録の閉鎖等,0,2023-01-25,2023-01-16,株式会社グリーンデザイン,,株式会社,東京都,千代田区,霞が関３丁目６番１５号,,13,101,1000013,,,2023-01-16,清算の結了等,,,2015-10-05,1,,,,,,0
2109,7010002039533,登記記録の閉鎖等,0,2023-01-25,2023-01-23,有限会社クレアガンズ,,有限会社,千葉県,印西市,木下東３丁目９番地１５,,12,231,2701323,,,2023-01-23,清算の結了等,,,2015-10-05,1,,,,,クレアガンズ,0
2112,7010003017579,登記記録の閉鎖等,0,2023-01-25,2023-01-16,合同会社アラスカ,,合同会社,東京都,千代田区,霞が関３丁目５番１号霞が関ＩＨＦビル３階,,13,101,1000013,,,2023-01-16,清算の結了等,,,2015-10-05,1,,,,,,0
2117,7010401002447,登記記録の閉鎖等,0,2023-01-25,2023-01-10,イーグル・エンジニアリング・エアロスペース株式会社,,株式会社,東京都,港区,芝大門１丁目１２番１５号,,13,103,1050012,,,2023-01-10,合併による解散等,2010401002451,令和５年１月１日東京都港区芝大門一丁目１２番１５号イーグル工業株式会社（2010401002451）に合併し解散,2015-10-05,1,,,,,イーグルエンジニアリングエアロスペース,0
2120,7010401104441,登記記録の閉鎖等,0,2023-01-25,2023-01-06,ＪＰＡ第１２号株式会社,,株式会社,東京都,港区,虎ノ門２丁目９番１１号,,13,103,1050001,,,2023-01-06,清算の結了等,,,2015-10-05,1,,,,,ジェイピーエーダイジュウニゴウ,0
2132,7011001090857,登記記録の閉鎖等,0,2023-01-25,2023-01-23,株式会社エスエイトラスト,,株式会社,東京都,渋谷区,恵比寿１丁目２６番１８号,,13,113,1500013,,,2023-01-23,清算の結了等,,,2015-10-05,1,,,,,エスエイトラスト,0
2134,7011101004510,登記記録の閉鎖等,0,2023-01-25,2023-01-25,株式会社環境設計体アルゴ,,株式会社,東京都,新宿区,新宿１丁目３１番１８号,,13,104,1600022,,,2023-01-25,登記官による閉鎖,,,2015-10-05,1,,,,,,0
2135,7011101007736,登記記録の閉鎖等,0,2023-01-25,2023-01-25,三彩オフセット株式会社,,株式会社,東京都,新宿区,高田馬場２丁目６番７号,,13,104,1690075,,,2023-01-25,登記官による閉鎖,,,2015-10-05,1,,,,,,0
2136,7011101011614,登記記録の閉鎖等,0,2023-01-25,2023-01-23,株式会社ソウルメデイア・コーポレーシヨン,,株式会社,東京都,新宿区,内藤町１番地,,13,104,1600014,,,2023-01-23,清算の結了等,,,2015-10-05,1,,,,,ソウルメデイアコーポレーシヨン,0
2137,7011101014963,登記記録の閉鎖等,0,2023-01-25,2023-01-25,株式会社東京企画センター,,株式会社,東京都,新宿区,富久町８番２６－１１０１号,,13,104,1620067,,,2023-01-25,登記官による閉鎖,,,2015-10-05,1,,,,,,0
2138,7011101034846,登記記録の閉鎖等,0,2023-01-25,2023-01-25,株式会社テレフォニア,,株式会社,東京都,新宿区,新宿５丁目７番１４号秀和レジデンス８０３号,,13,104,1600022,,,2023-01-25,登記官による閉鎖,,,2015-10-05,1,,,,,,0
2141,7011101055454,登記記録の閉鎖等,0,2023-01-25,2023-01-25,株式会社ＣＯＬＯＲ,,株式会社,東京都,新宿区,歌舞伎町２丁目２４番３号,,13,104,1600021,,,2023-01-25,登記官による閉鎖,,,2015-10-05,1,,,,,,0
2142,7011101061543,登記記録の閉鎖等,0,2023-01-25,2023-01-25,株式会社エコラボ,,株式会社,東京都,新宿区,四谷４丁目１１番地いすずビル５Ｆ,,13,104,1600004,,,2023-01-25,登記官による閉鎖,,,2015-10-05,1,,,,,,0
2146,7011102000252,登記記録の閉鎖等,0,2023-01-25,2023-01-25,有限会社アール・アンド・エス企画,,有限会社,東京都,新宿区,歌舞伎町１丁目７番１号千葉ビル,,13,104,1600021,,,2023-01-25,登記官による閉鎖,,,2015-10-05,1,,,,,,0
2147,7011102000938,登記記録の閉鎖等,0,2023-01-25,2023-01-25,有限会社イーダブリューイー,,有限会社,東京都,新宿区,山吹町２６３番地,,13,104,1620801,,,2023-01-25,登記官による閉鎖,,,2015-10-05,1,,,,,,0
2148,7011102015085,登記記録の閉鎖等,0,2023-01-25,2023-01-25,有限会社スター出版,,有限会社,東京都,新宿区,西五軒町４番１０号,,13,104,1620812,,,2023-01-25,登記官による閉鎖,,,2015-10-05,1,,,,,,0
2150,7011105001355,登記記録の閉鎖等,0,2023-01-25,2023-01-25,東京環境クリーン事業協同組合,,その他の設立登記法人,東京都,新宿区,西新宿７丁目５番５号,,13,104,1600023,,,2023-01-25,登記官による閉鎖,,,2015-10-05,1,,,,,,0
2151,7011201002224,登記記録の閉鎖等,0,2023-01-25,2023-01-19,株式会社サリブン企画,,株式会社,東京都,中野区,中野４丁目２０番９号,,13,114,1640001,,,2023-01-19,清算の結了等,,,2015-10-05,1,,,,,サリブンキカク,0
2164,7020001018025,登記記録の閉鎖等,0,2023-01-25,2023-01-25,鳥海産業株式会社,00009281,株式会社,神奈川県,横浜市鶴見区,上末吉２丁目１８番３号,,14,101,2300011,,,2023-01-25,登記官による閉鎖,,,2015-10-05,1,,,,,,0
2165,7020001018545,登記記録の閉鎖等,0,2023-01-25,2023-01-25,長谷川染色株式会社,,株式会社,神奈川県,横浜市鶴見区,尻手３丁目８番３３号,,14,101,2300003,,,2023-01-25,登記官による閉鎖,,,2015-10-05,1,,,,,,0
2166,7020001025640,登記記録の閉鎖等,0,2023-01-25,2023-01-25,株式会社エム・ティ・シー,,株式会社,神奈川県,横浜市港南区,港南台４丁目２２番９－６０８,,14,111,2340054,,,2023-01-25,登記官による閉鎖,,,2015-10-05,1,,,,,,0
2167,7020001029253,登記記録の閉鎖等,0,2023-01-25,2023-01-25,株式会社山田,,株式会社,神奈川県,横浜市中区,蓬莱町２丁目６番地の５,00026191,14,104,2310048,,,2023-01-25,登記官による閉鎖,,,2015-10-05,1,,,,,,0
2168,7020001031267,登記記録の閉鎖等,0,2023-01-25,2023-01-25,大酒販株式会社,,株式会社,神奈川県,横浜市中区,山下町２５２番地,,14,104,2310023,,,2023-01-25,登記官による閉鎖,,,2015-10-05,1,,,,,,0
2169,7020001034344,登記記録の閉鎖等,0,2023-01-25,2023-01-25,株式会社アール・エス・コンペ,,株式会社,神奈川県,横浜市港北区,高田西４丁目２番１１号,,14,109,2230066,,,2023-01-25,登記官による閉鎖,,,2015-10-05,1,,,,,,0
2170,7020001036720,登記記録の閉鎖等,0,2023-01-25,2023-01-25,東和貿易株式会社,,株式会社,神奈川県,横浜市港南区,港南台５丁目１０番１号,,14,111,2340054,,,2023-01-25,登記官による閉鎖,,,2015-10-05,1,,,,,,0
2172,7020001050382,登記記録の閉鎖等,0,2023-01-25,2023-01-25,株式会社丸岡商事,,株式会社,神奈川県,横浜市瀬谷区,瀬谷４丁目２番７号,,14,114,2460031,,,2023-01-25,登記官による閉鎖,,,2015-10-05,1,,,,,,0
2173,7020001059399,登記記録の閉鎖等,0,2023-01-25,2023-01-25,株式会社羽田製作所,,株式会社,神奈川県,横浜市西区,中央１丁目３５－３三上ビル２Ｆ,,14,103,2200051,,,2023-01-25,登記官による閉鎖,,,2015-10-05,1,,,,,,0
2174,7020001076618,登記記録の閉鎖等,0,2023-01-25,2023-01-25,ネクタス株式会社,,株式会社,神奈川県,川崎市宮前区,有馬８丁目１１番１２号,,14,136,2160003,,,2023-01-25,登記官による閉鎖,,,2015-10-05,1,,,,,,0
2175,7020001078820,登記記録の閉鎖等,0,2023-01-25,2023-01-25,株式会社エージーオー,,株式会社,神奈川県,川崎市川崎区,田町２丁目４番１３号,,14,131,2100822,,,2023-01-25,登記官による閉鎖,,,2015-10-05,1,,,,,,0
2176,7020001079777,登記記録の閉鎖等,0,2023-01-25,2023-01-25,ミィロンフィナンシャル株式会社,,株式会社,神奈川県,川崎市多摩区,菅仙谷２丁目８番２０号,,14,135,2140006,,,2023-01-25,登記官による閉鎖,,,2015-10-05,1,,,,,,0
2177,7020001090817,登記記録の閉鎖等,0,2023-01-25,2023-01-25,株式会社ＴＨＹ,,株式会社,神奈川県,横浜市緑区,青砥町６２９番２号,,14,113,2260022,,,2023-01-25,登記官による閉鎖,,,2015-10-05,1,,,,,,0
2182,7020002001954,登記記録の閉鎖等,0,2023-01-25,2023-01-25,有限会社フルーツナガミ,,有限会社,神奈川県,横浜市瀬谷区,瀬谷４丁目３番地の１３,,14,114,2460031,,,2023-01-25,登記官による閉鎖,,,2015-10-05,1,,,,,,0
2183,7020002003265,登記記録の閉鎖等,0,2023-01-25,2023-01-20,有限会社にしはら,,有限会社,神奈川県,横浜市泉区,新橋町１０６１番地,,14,116,2450009,,,2023-01-20,清算の結了等,,,2015-10-05,1,,,,,ニシハラ,0
2184,7020002003455,登記記録の閉鎖等,0,2023-01-25,2023-01-11,有限会社福島内装,,有限会社,神奈川県,横浜市戸塚区,上矢部町２４４７番地の３,,14,110,2450053,,,2023-01-11,清算の結了等,,,2015-10-05,1,,,,,,0
2185,7020002009262,登記記録の閉鎖等,0,2023-01-25,2023-01-25,有限会社和風ショップ,,有限会社,神奈川県,横浜市金沢区,富岡東６丁目３０番Ｂ－１０５号,,14,108,2360051,,,2023-01-25,登記官による閉鎖,,,2015-10-05,1,,,,,,0
2186,7020002010154,登記記録の閉鎖等,0,2023-01-25,2023-01-25,有限会社大一興業,,有限会社,神奈川県,横浜市磯子区,上中里町４１３番地２１,,14,107,2350042,,,2023-01-25,登記官による閉鎖,,,2015-10-05,1,,,,,,0
2187,7020002020649,登記記録の閉鎖等,0,2023-01-25,2023-01-25,有限会社インテリアおいかわ,,有限会社,神奈川県,横浜市旭区,中沢１丁目９番４３号,,14,112,2410814,,,2023-01-25,登記官による閉鎖,,,2015-10-05,1,,,,,,0
2188,7020002030292,登記記録の閉鎖等,0,2023-01-25,2023-01-25,有限会社清水薬局,,有限会社,神奈川県,横浜市中区,福富町東通３８番地,,14,104,2310044,,,2023-01-25,登記官による閉鎖,,,2015-10-05,1,,,,,,0
2189,7020002039375,登記記録の閉鎖等,0,2023-01-25,2023-01-25,有限会社東野工業,,有限会社,神奈川県,横浜市鶴見区,獅子ケ谷１丁目２３番２５号,,14,101,2300073,,,2023-01-25,登記官による閉鎖,,,2015-10-05,1,,,,,,0
2191,7020002058177,登記記録の閉鎖等,0,2023-01-25,2023-01-25,有限会社ユアーズ,,有限会社,神奈川県,横浜市金沢区,西柴３丁目２４番１１号,,14,108,2360017,,,2023-01-25,登記官による閉鎖,,,2015-10-05,1,,,,,,0
2192,7020002060901,登記記録の閉鎖等,0,2023-01-25,2023-01-25,有限会社ドリームワン,,有限会社,神奈川県,横浜市中区,元町４丁目１６１番地１１,,14,104,2310861,,,2023-01-25,登記官による閉鎖,,,2015-10-05,1,,,,,,0
2195,7020002075429,登記記録の閉鎖等,0,2023-01-25,2023-01-25,有限会社スタジオアスト,,有限会社,神奈川県,横浜市金沢区,谷津町３０番地１３－３１１号,,14,108,2360016,,,2023-01-25,登記官による閉鎖,,,2015-10-05,1,,,,,,0
2196,7020002076294,登記記録の閉鎖等,0,2023-01-25,2023-01-25,有限会社未来詢房,,有限会社,神奈川県,横浜市神奈川区,松見町３丁目４番５号,,14,102,2210005,,,2023-01-25,登記官による閉鎖,,,2015-10-05,1,,,,,,0
2198,7020002090221,登記記録の閉鎖等,0,2023-01-25,2023-01-25,有限会社スガオ自動車保険事務所,,有限会社,神奈川県,川崎市宮前区,犬蔵１丁目３７番１５号,,14,136,2160011,,,2023-01-25,登記官による閉鎖,,,2015-10-05,1,,,,,,0
2199,7020002096953,登記記録の閉鎖等,0,2023-01-25,2023-01-25,有限会社サン・クエーサー,,有限会社,神奈川県,川崎市川崎区,渡田４丁目１２番１５号,,14,131,2100837,,,2023-01-25,登記官による閉鎖,,,2015-10-05,1,,,,,,0
2201,7020005004137,登記記録の閉鎖等,0,2023-01-25,2023-01-25,横浜市マンション管理協同組合,,その他の設立登記法人,神奈川県,横浜市中区,元浜町３丁目２１番２号,,14,104,2310004,,,2023-01-25,登記官による閉鎖,,,2015-10-05,1,,,,,,0
2202,7020005004392,登記記録の閉鎖等,0,2023-01-25,2023-01-25,神奈川県レッカー事業協同組合,,その他の設立登記法人,神奈川県,横浜市西区,浜松町５番２３号,,14,103,2200055,,,2023-01-25,登記官による閉鎖,,,2015-10-05,1,,,,,,0
2203,7020005005498,登記記録の閉鎖等,0,2023-01-25,2023-01-25,神奈川県民家再生・リサイクル住宅事業協同組合,,その他の設立登記法人,神奈川県,横浜市港北区,岸根町５６６番地１,,14,109,2220034,,,2023-01-25,登記官による閉鎖,,,2015-10-05,1,,,,,,0
2204,7020005008567,登記記録の閉鎖等,0,2023-01-25,2023-01-25,特定非営利活動法人ジャパン・ベースボール・アカデミー,,その他の設立登記法人,神奈川県,川崎市麻生区,王禅寺東３丁目３７番２８号,,14,137,2150018,,,2023-01-25,登記官による閉鎖,,,2015-10-05,1,,,,,,0
2205,7020005008939,登記記録の閉鎖等,0,2023-01-25,2023-01-25,特定非営利活動法人業務プロセス監査人協会,,その他の設立登記法人,神奈川県,川崎市高津区,梶ケ谷２丁目８番地２８レオパレス梶ケ谷１０２,,14,134,2130015,,,2023-01-25,登記官による閉鎖,,,2015-10-05,1,,,,,,0
2213,7021005012220,登記記録の閉鎖等,0,2023-01-25,2023-01-18,特定非営利活動法人ベースキャンプ愛甲,,その他の設立登記法人,神奈川県,厚木市,愛甲１丁目７番３０号,,14,212,2430035,,,2023-01-18,清算の結了等,,,2021-06-14,1,,,,,ベースキャンプアイコウ,0
2216,7030001078142,登記記録の閉鎖等,0,2023-01-25,2023-01-20,株式会社埼玉物産,,株式会社,埼玉県,蕨市,南町３丁目４番１２号クレセント南町１０１,,11,223,3350003,,,2023-01-20,清算の結了等,,,2015-10-05,1,,,,,サイタマブッサン,0
2224,7030002069157,登記記録の閉鎖等,0,2023-01-25,2023-01-19,ふくずし有限会社,,有限会社,埼玉県,春日部市,本田町１丁目１７７番地,,11,214,3440016,,,2023-01-19,清算の結了等,,,2015-10-05,1,,,,,フクズシ,0
2225,7030003008948,登記記録の閉鎖等,0,2023-01-25,2023-01-20,合同会社トキワ内装,,合同会社,埼玉県,川口市,大字安行領根岸１８１６番地の８,,11,203,3330834,,,2023-01-20,清算の結了等,,,2016-06-16,1,,,,,,0
2244,7060001018277,登記記録の閉鎖等,0,2023-01-25,2023-01-20,飯田機械工業株式会社,,株式会社,栃木県,足利市,今福町５０番地１,,09,202,3260842,,,2023-01-20,清算の結了等,,,2015-10-05,1,,,,,イイダキカイコウギョウ,0
2248,7070001000671,登記記録の閉鎖等,0,2023-01-25,2023-01-25,株式会社オナヤ,,株式会社,群馬県,前橋市,堀之下町１４１番地の２,,10,201,3710005,,,2023-01-25,登記官による閉鎖,,,2015-10-05,1,,,,,,0
2249,7070001003195,登記記録の閉鎖等,0,2023-01-25,2023-01-25,宮内工業株式会社,,株式会社,群馬県,前橋市,富士見町横室９９７番地の１０,,10,201,3710117,,,2023-01-25,登記官による閉鎖,,,2015-10-05,1,,,,,,0
2250,7070001003402,登記記録の閉鎖等,0,2023-01-25,2023-01-25,株式会社アマナ,,株式会社,群馬県,前橋市,石倉町２丁目９番地の８,,10,201,3710841,,,2023-01-25,登記官による閉鎖,,,2015-10-05,1,,,,,,0
2251,7070001005142,登記記録の閉鎖等,0,2023-01-25,2023-01-25,株式会社プロジェクト花神,,株式会社,群馬県,前橋市,上泉町２８１１番地１３,,10,201,3710007,,,2023-01-25,登記官による閉鎖,,,2015-10-05,1,,,,,,0
2252,7070001009564,登記記録の閉鎖等,0,2023-01-25,2023-01-25,関東ドリル建機株式会社,,株式会社,群馬県,高崎市,箕郷町上芝６４８番地１,,10,202,3703104,,,2023-01-25,登記官による閉鎖,,,2015-10-05,1,,,,,,0
2253,7070001011280,登記記録の閉鎖等,0,2023-01-25,2023-01-25,Ｈｏｎｅｓｔ　ｈａｉｒ株式会社,,株式会社,群馬県,高崎市,通町９３番地２６,,10,202,3700053,,,2023-01-25,登記官による閉鎖,,,2015-10-05,1,,,,,,0
2254,7070001013839,登記記録の閉鎖等,0,2023-01-25,2023-01-25,ランドフーズ株式会社,,株式会社,群馬県,伊勢崎市,波志江町１７８６番地７,,10,204,3720001,,,2023-01-25,登記官による閉鎖,,,2015-10-05,1,,,,,,0
2256,7070001022261,登記記録の閉鎖等,0,2023-01-25,2023-01-25,株式会社エフ＆エス,,株式会社,群馬県,館林市,東美園町１番地６,,10,207,3740031,,,2023-01-25,登記官による閉鎖,,,2015-10-05,1,,,,,,0
2257,7070001022484,登記記録の閉鎖等,0,2023-01-25,2023-01-25,ダイテックジャパン株式会社,,株式会社,群馬県,太田市,南矢島町７３６番地１,,10,205,3730861,,,2023-01-25,登記官による閉鎖,,,2015-10-05,1,,,,,,0
2258,7070001023838,登記記録の閉鎖等,0,2023-01-25,2023-01-25,株式会社関本工業,,株式会社,群馬県,吾妻郡草津町,大字草津４７０番地の３０,,10,426,3771711,,,2023-01-25,登記官による閉鎖,,,2015-10-05,1,,,,,,0
2260,7070002003599,登記記録の閉鎖等,0,2023-01-25,2023-01-25,有限会社ちゃんこ友綱,,有限会社,群馬県,前橋市,元総社町９４７番地４８,,10,201,3710846,,,2023-01-25,登記官による閉鎖,,,2015-10-05,1,,,,,,0
2261,7070002004110,登記記録の閉鎖等,0,2023-01-25,2023-01-25,有限会社日商泉,,有限会社,群馬県,前橋市,天川大島町１丁目３６番地の１０,,10,201,3792154,,,2023-01-25,登記官による閉鎖,,,2015-10-05,1,,,,,,0
2262,7070002005612,登記記録の閉鎖等,0,2023-01-25,2023-01-25,友成興業有限会社,,有限会社,群馬県,前橋市,粕川町月田１７５２番地,,10,201,3710203,,,2023-01-25,登記官による閉鎖,,,2015-10-05,1,,,,,,0
2263,7070002006115,登記記録の閉鎖等,0,2023-01-25,2023-01-25,有限会社丸協,,有限会社,群馬県,前橋市,力丸町４５０番地１,,10,201,3792134,,,2023-01-25,登記官による閉鎖,,,2015-10-05,1,,,,,,0
2264,7070002016808,登記記録の閉鎖等,0,2023-01-25,2023-01-25,有限会社黒沢食品,,有限会社,群馬県,甘楽郡下仁田町,大字馬山２８５５番地１,,10,382,3702603,,,2023-01-25,登記官による閉鎖,,,2015-10-05,1,,,,,,0
2265,7070002017483,登記記録の閉鎖等,0,2023-01-25,2023-01-25,有限会社シャルム柳沢,,有限会社,群馬県,藤岡市,牛田４１８番地,,10,209,3750034,,,2023-01-25,登記官による閉鎖,,,2015-10-05,1,,,,,,0
2266,7070002020371,登記記録の閉鎖等,0,2023-01-25,2023-01-25,有限会社北清,,有限会社,群馬県,伊勢崎市,境平塚１２２８番地,,10,204,3700132,,,2023-01-25,登記官による閉鎖,,,2015-10-05,1,,,,,,0
2267,7070002020529,登記記録の閉鎖等,0,2023-01-25,2023-01-25,有限会社福島宅建,,有限会社,群馬県,伊勢崎市,境３１２番地７,,10,204,3700124,,,2023-01-25,登記官による閉鎖,,,2015-10-05,1,,,,,,0
2268,7070002021114,登記記録の閉鎖等,0,2023-01-25,2023-01-25,有限会社サンエー化工機,,有限会社,群馬県,伊勢崎市,八寸町４８３４番地,,10,204,3792236,,,2023-01-25,登記官による閉鎖,,,2015-10-05,1,,,,,,0
2269,7070002022319,登記記録の閉鎖等,0,2023-01-25,2023-01-25,有限会社豊栄,,有限会社,群馬県,伊勢崎市,市場町２丁目６６０番地１,,10,204,3792211,,,2023-01-25,登記官による閉鎖,,,2015-10-05,1,,,,,,0
2270,7070002029925,登記記録の閉鎖等,0,2023-01-25,2023-01-25,有限会社タケダテクノ,,有限会社,群馬県,太田市,矢場新町１４２番地の１１,,10,205,3730802,,,2023-01-25,登記官による閉鎖,,,2015-10-05,1,,,,,,0
2271,7070002034834,登記記録の閉鎖等,0,2023-01-25,2023-01-25,有限会社白雪,,有限会社,群馬県,沼田市,下沼田町１８９番地の１,,10,206,3780063,,,2023-01-25,登記官による閉鎖,,,2015-10-05,1,,,,,,0
2272,7070005000528,登記記録の閉鎖等,0,2023-01-25,2023-01-25,中央群馬商工協同組合,,その他の設立登記法人,群馬県,前橋市,大友町１丁目３番地１４号,,10,201,3710847,,,2023-01-25,登記官による閉鎖,,,2015-10-05,1,,,,,,0
2273,7070005000577,登記記録の閉鎖等,0,2023-01-25,2023-01-25,群馬県ブロック工事業協同組合,,その他の設立登記法人,群馬県,前橋市,元総社町２丁目１３番地の２,,10,201,3710846,,,2023-01-25,登記官による閉鎖,,,2015-10-05,1,,,,,,0
2274,7070005005361,登記記録の閉鎖等,0,2023-01-25,2023-01-25,財団法人大利根会,,その他の設立登記法人,群馬県,渋川市,渋川３６５８番地２０,,10,208,3770008,,,2023-01-25,登記官による閉鎖,,,2015-10-05,1,,,,,,0
2275,7070005006566,登記記録の閉鎖等,0,2023-01-25,2023-01-25,館林小売商業協同組合,,その他の設立登記法人,群馬県,館林市,本町１丁目１０番１２号,,10,207,3740024,,,2023-01-25,登記官による閉鎖,,,2015-10-05,1,,,,,,0
2276,7070005006871,登記記録の閉鎖等,0,2023-01-25,2023-01-25,新治村木材協同組合,,その他の設立登記法人,群馬県,利根郡みなかみ町,相俣１７番地１,,10,449,3791404,,,2023-01-25,登記官による閉鎖,,,2015-10-05,1,,,,,,0
2289,7120001193031,登記記録の閉鎖等,0,2023-01-25,2023-01-20,Ｂａｙ　Ｓｕｎｓ株式会社,,株式会社,大阪府,門真市,北岸和田３丁目２番１０号,,27,223,5710007,,,2023-01-20,清算の結了等,,,2015-10-05,1,,,,,ベイサンズ,0
2301,7120002006778,登記記録の閉鎖等,0,2023-01-25,2023-01-23,有限会社古賀住設,,有限会社,大阪府,大阪市東成区,深江北１丁目６番４号,,27,115,5370001,,,2023-01-23,清算の結了等,,,2015-10-05,1,,,,,コガジュウセツ,0
2350,7180302026289,登記記録の閉鎖等,0,2023-01-25,2023-01-23,有限会社辻村測量設計事務所,00075235,有限会社,愛知県,西尾市,江原町焼野５番地,,23,213,4450026,,,2023-01-23,清算の結了等,,,2015-10-05,1,,,,,ツジムラソクリョウセッケイジムショ,0
2363,7250003001154,登記記録の閉鎖等,0,2023-01-25,2023-01-12,合同会社ＳＥＩＥＩ会計事務所,,合同会社,山口県,下関市,菊川町大字吉賀４４５番地,,35,201,7500316,,,2023-01-12,清算の結了等,,,2015-10-05,1,,,,,セイエイカイケイジムショ,0
2367,7260001025229,登記記録の閉鎖等,0,2023-01-25,2023-01-20,株式会社ＭＡＳＨ,,株式会社,岡山県,岡山市中区,東川原２５０番地４２,,33,102,7038255,,,2023-01-20,合併による解散等,3260003002766,令和５年１月２０日岡山市中区東川原２５０番地４２合同会社Ｊｕｓｔ　ＳＭＩＬＥ（3260003002766）に合併し解散,2015-10-05,1,,,,,マッシュ,0
2378,7290002003354,登記記録の閉鎖等,0,2023-01-25,2023-01-23,有限会社福岡住設サービス,,有限会社,福岡県,福岡市南区,井尻５丁目６番７号,,40,134,8111302,,,2023-01-23,清算の結了等,,,2015-10-05,1,,,,,フクオカジュウセツサービス,0
2380,7290003008609,登記記録の閉鎖等,0,2023-01-25,2023-01-20,合同会社ＯＡＫ　ＶＩＬＬＡ　ＮＡＫＡＳＵ,,合同会社,福岡県,福岡市中央区,白金１丁目２１番１３号３階,,40,133,8100012,,,2023-01-20,合併による解散等,8290001071987,令和５年１月２０日福岡市中央区白金一丁目２１番１３号３階株式会社カシムラホールディングス（8290001071987）に合併し解散,2018-12-18,1,,,,,オークヴィラナカス,0
2384,7310002013391,登記記録の閉鎖等,0,2023-01-25,2023-01-23,有限会社大島種苗販売,,有限会社,長崎県,西海市,大島町１２５３番地,,42,212,8572427,,,2023-01-23,清算の結了等,,,2015-10-05,1,,,,,オオシマシュビョウハンバイ,0
2389,7350001010485,登記記録の閉鎖等,0,2023-01-25,2023-01-25,株式会社日幸商事,,株式会社,宮崎県,日南市,南郷町中村乙２３４１番地１,,45,204,8893204,,,2023-01-25,登記官による閉鎖,,,2015-10-05,1,,,,,,0
2391,7350002009601,登記記録の閉鎖等,0,2023-01-25,2023-01-25,有限会社光栄丸,,有限会社,宮崎県,児湯郡川南町,大字平田５０３６番地７,,45,405,8891302,,,2023-01-25,登記官による閉鎖,,,2015-10-05,1,,,,,,0
2392,7350002015376,登記記録の閉鎖等,0,2023-01-25,2023-01-25,有限会社福元設備工業,,有限会社,宮崎県,北諸県郡三股町,大字宮村４２５番地４,,45,341,8891912,,,2023-01-25,登記官による閉鎖,,,2015-10-05,1,,,,,,0
2393,7350002017166,登記記録の閉鎖等,0,2023-01-25,2023-01-25,有限会社山元石油店,,有限会社,宮崎県,日南市,南郷町中村乙５８４番地,,45,204,8893204,,,2023-01-25,登記官による閉鎖,,,2015-10-05,1,,,,,,0
2394,7350002017249,登記記録の閉鎖等,0,2023-01-25,2023-01-25,乙姫有限会社,,有限会社,宮崎県,日南市,南郷町中村甲４００番地,,45,204,8893202,,,2023-01-25,登記官による閉鎖,,,2015-10-05,1,,,,,,0
2395,7350005004814,登記記録の閉鎖等,0,2023-01-25,2023-01-25,大浦労働組合,,その他の設立登記法人,宮崎県,都城市,中町１４街区１５号,,45,202,8850071,,,2023-01-25,登記官による閉鎖,,,2015-10-05,1,,,,,,0
2397,7360001007340,登記記録の閉鎖等,0,2023-01-25,2023-01-25,テイアイ建設コンサルタント株式会社,,株式会社,沖縄県,うるま市,勝連平安名７１６番地,,47,213,9042312,,,2023-01-25,登記官による閉鎖,,,2015-10-05,1,,,,,,0
2398,7360001010105,登記記録の閉鎖等,0,2023-01-25,2023-01-25,株式会社トラベルナーチ,,株式会社,沖縄県,浦添市,伊祖５丁目１１番８－３０６号,,47,208,9012132,,,2023-01-25,登記官による閉鎖,,,2015-10-05,1,,,,,,0
2399,7360002009352,登記記録の閉鎖等,0,2023-01-25,2023-01-25,有限会社ベル興業,,有限会社,沖縄県,糸満市,字真栄平１５２番地,,47,210,9010331,,,2023-01-25,登記官による閉鎖,,,2015-10-05,1,,,,,,0
2400,7360002012950,登記記録の閉鎖等,0,2023-01-25,2023-01-25,有限会社みなけん,,有限会社,沖縄県,沖縄市,海邦２丁目２４番２１号,,47,211,9042162,,,2023-01-25,登記官による閉鎖,,,2015-10-05,1,,,,,,0
2401,7360002014336,登記記録の閉鎖等,0,2023-01-25,2023-01-25,有限会社リペアサーベイ,,有限会社,沖縄県,那覇市,字真地１７３番地の１０　１Ｆ,,47,201,9020072,,,2023-01-25,登記官による閉鎖,,,2015-10-05,1,,,,,,0
2402,7360002021464,登記記録の閉鎖等,0,2023-01-25,2023-01-25,農業生産法人有限会社二実農場,,有限会社,沖縄県,石垣市,字登野城９４番地,,47,207,9070004,,,2023-01-25,登記官による閉鎖,,,2015-10-05,1,,,,,,0
2403,7360003005689,登記記録の閉鎖等,0,2023-01-25,2023-01-25,合同会社Ｓｈｏｐ－Ｏｎｅ,,合同会社,沖縄県,那覇市,首里金城町１丁目５２番地１,,47,201,9030815,,,2023-01-25,登記官による閉鎖,,,2015-10-05,1,,,,,,0
2405,7360005001356,登記記録の閉鎖等,0,2023-01-25,2023-01-25,沖縄総合経営サポート協同組合,,その他の設立登記法人,沖縄県,那覇市,古島２丁目２６番地１５津嘉山ビル３階,,47,201,9020061,,,2023-01-25,登記官による閉鎖,,,2015-10-05,1,,,,,,0
2409,7380001016109,登記記録の閉鎖等,0,2023-01-25,2023-01-20,東北美研工業株式会社,,株式会社,福島県,相馬郡新地町,谷地小屋字南狼沢８番地の１２,,07,561,9792702,,,2023-01-20,清算の結了等,,,2015-10-05,1,,,,,トウホクビケンコウギョウ,0
2415,7390002002008,登記記録の閉鎖等,0,2023-01-25,2023-01-23,有限会社内外興業,,有限会社,山形県,山形市,東青田１丁目８番地１号,,06,201,9902423,,,2023-01-23,登記官による閉鎖,,,2015-10-05,1,,,,,,0
2417,7390002014688,登記記録の閉鎖等,0,2023-01-25,2023-01-23,有限会社ビーエスエル,,有限会社,山形県,東置賜郡川西町,大字上小松２５２１番地,,06,382,9990121,,,2023-01-23,登記官による閉鎖,,,2015-10-05,1,,,,,,0
2426,7430003001747,登記記録の閉鎖等,0,2023-01-25,2023-01-20,コバテック合名会社,,合名会社,北海道,札幌市手稲区,星置一条２丁目３番２－４０８号,,01,109,0060851,,,2023-01-20,清算の結了等,,,2015-10-05,1,,,,,コバテック,0
2430,7450001011201,登記記録の閉鎖等,0,2023-01-25,2023-01-24,株式会社兎屋,,株式会社,北海道,旭川市,一条通１０丁目１６０番地２,,01,204,0700031,,,2023-01-24,清算の結了等,,,2015-10-05,1,,,,,ウサギヤ,0
2431,7450002001952,登記記録の閉鎖等,0,2023-01-25,2023-01-24,有限会社教材センター,,有限会社,北海道,旭川市,旭神三条４丁目１番６号,,01,204,0788373,,,2023-01-24,清算の結了等,,,2015-10-05,1,,,,,キョウザイセンター,0
2434,7480001002726,登記記録の閉鎖等,0,2023-01-25,2023-01-25,株式会社ヴィオレ,,株式会社,徳島県,徳島市,仲之町１丁目２６番地,,36,201,7700932,,,2023-01-25,登記官による閉鎖,,,2015-10-05,1,,,,,,0
2435,7480001007270,登記記録の閉鎖等,0,2023-01-25,2023-01-25,株式会社井川建設,,株式会社,徳島県,美馬市,美馬町字天神北８０番地,,36,207,7712106,,,2023-01-25,登記官による閉鎖,,,2015-10-05,1,,,,,,0
2437,7480002000919,登記記録の閉鎖等,0,2023-01-25,2023-01-25,有限会社岡田自動車ボデー工場,,有限会社,徳島県,徳島市,住吉４丁目５番６４号,,36,201,7700861,,,2023-01-25,登記官による閉鎖,,,2015-10-05,1,,,,,,0
2438,7480002003962,登記記録の閉鎖等,0,2023-01-25,2023-01-25,平成商事有限会社,,有限会社,徳島県,徳島市,川内町下別宮西２３１番地の２２,,36,201,7710105,,,2023-01-25,登記官による閉鎖,,,2015-10-05,1,,,,,,0
2439,7480002004861,登記記録の閉鎖等,0,2023-01-25,2023-01-25,美馬手袋有限会社,,有限会社,徳島県,徳島市,鮎喰町１丁目１０８番地,,36,201,7700046,,,2023-01-25,登記官による閉鎖,,,2015-10-05,1,,,,,,0
2440,7480002008004,登記記録の閉鎖等,0,2023-01-25,2023-01-25,中村建設有限会社,,有限会社,徳島県,勝浦郡勝浦町,大字中角字豊田２４番地の３,,36,301,7714302,,,2023-01-25,登記官による閉鎖,,,2015-10-05,1,,,,,,0
2441,7480002008061,登記記録の閉鎖等,0,2023-01-25,2023-01-25,＿縫製有限会社,00008957,有限会社,徳島県,勝浦郡勝浦町,大字三渓字樫渕８４番地の３,,36,301,7714300,,,2023-01-25,登記官による閉鎖,,,2015-10-05,1,,,,,,0
2442,7480002014183,登記記録の閉鎖等,0,2023-01-25,2023-01-25,有限会社はしもと,,有限会社,徳島県,海部郡牟岐町,大字牟岐浦字宮ノ本１０３番地,,36,383,7750012,,,2023-01-25,登記官による閉鎖,,,2015-10-05,1,,,,,,0
2443,7480002014729,登記記録の閉鎖等,0,2023-01-25,2023-01-25,有限会社小松屋,,有限会社,徳島県,美馬市,穴吹町穴吹字平ノ内３４番地１,,36,207,7770005,,,2023-01-25,登記官による閉鎖,,,2015-10-05,1,,,,,,0
2444,7480005003134,登記記録の閉鎖等,0,2023-01-25,2023-01-25,農事組合法人市場果樹生産組合,,その他の設立登記法人,徳島県,阿波市,市場町切幡字古田８８番地,,36,206,7711623,,,2023-01-25,登記官による閉鎖,,,2015-10-05,1,,,,,,0
2446,7500002002961,登記記録の閉鎖等,0,2023-01-25,2023-01-23,有限会社坂本無線商会,,有限会社,愛媛県,松山市,花園町５番地５,,38,201,7900005,,,2023-01-23,清算の結了等,,,2015-10-05,1,,,,,サカモトムセンショウカイ,0
2453,8010001099544,登記記録の閉鎖等,0,2023-01-25,2023-01-16,株式会社トリガーチャンネル,,株式会社,東京都,千代田区,神田佐久間町１丁目８番４号アルテール秋葉原７０８,,13,101,1010025,,,2023-01-16,清算の結了等,,,2015-10-05,1,,,,,,0
2476,8010401104440,登記記録の閉鎖等,0,2023-01-25,2023-01-06,ＪＰＡ第１１号株式会社,,株式会社,東京都,港区,虎ノ門２丁目９番１１号,,13,103,1050001,,,2023-01-06,清算の結了等,,,2015-10-05,1,,,,,ジェイピーエーダイジュウイチゴウ,0
2490,8010501012072,登記記録の閉鎖等,0,2023-01-25,2023-01-20,スポルティバジャパン株式会社,,株式会社,東京都,台東区,北上野２丁目２１番７号,,13,106,1100014,,,2023-01-20,合併による解散等,7010001033917,令和４年１２月３１日東京都千代田区外神田三丁目１１番１１号日本用品株式会社（7010001033917）に合併し解散,2015-10-05,1,,,,,スポルティバジャパン,0
2492,8010601046615,登記記録の閉鎖等,0,2023-01-25,2023-01-19,株式会社中村屋,,株式会社,千葉県,市川市,南八幡２丁目８番７号,,12,203,2720023,,,2023-01-19,清算の結了等,,,2015-10-05,1,,,,,ナカムラヤ,0
2493,8010701038256,登記記録の閉鎖等,0,2023-01-25,2023-01-20,株式会社伊藤企画,,株式会社,埼玉県,さいたま市南区,大字大谷口５９９番１８,,11,108,3360042,,,2023-01-20,清算の結了等,,,2019-10-03,1,,,,,イトウキカク,0
2503,8011101022222,登記記録の閉鎖等,0,2023-01-25,2023-01-25,若井産業株式会社,,株式会社,東京都,新宿区,新宿５丁目９番６号,,13,104,1600022,,,2023-01-25,登記官による閉鎖,,,2015-10-05,1,,,,,,0
2504,8011101057557,登記記録の閉鎖等,0,2023-01-25,2023-01-25,株式会社ちょもらんま,,株式会社,東京都,新宿区,西早稲田１丁目１７番５号タオタビル１Ｆ,,13,104,1690051,,,2023-01-25,登記官による閉鎖,,,2015-10-05,1,,,,,,0
2505,8011101059768,登記記録の閉鎖等,0,2023-01-25,2023-01-25,株式会社リクサン,,株式会社,東京都,新宿区,西新宿６丁目１０番１号,,13,104,1600023,,,2023-01-25,登記官による閉鎖,,,2015-10-05,1,,,,,,0
2506,8011102000160,登記記録の閉鎖等,0,2023-01-25,2023-01-25,有限会社アートフジ,,有限会社,東京都,新宿区,高田馬場１丁目７番１号,,13,104,1690075,,,2023-01-25,登記官による閉鎖,,,2015-10-05,1,,,,,,0
2507,8011102003287,登記記録の閉鎖等,0,2023-01-25,2023-01-25,有限会社嘉茂学園,,有限会社,東京都,新宿区,西新宿８丁目２番２５号ＮＳプラザ新宿５階,,13,104,1600023,,,2023-01-25,登記官による閉鎖,,,2015-10-05,1,,,,,,0
2508,8011102013682,登記記録の閉鎖等,0,2023-01-25,2023-01-25,有限会社頼田,,有限会社,東京都,新宿区,愛住町１３番地,,13,104,1600005,,,2023-01-25,登記官による閉鎖,,,2015-10-05,1,,,,,,0
2509,8011102028706,登記記録の閉鎖等,0,2023-01-25,2023-01-25,有限会社ギガシステム,,有限会社,東京都,新宿区,西新宿６丁目１６番１２号,,13,104,1600023,,,2023-01-25,登記官による閉鎖,,,2015-10-05,1,,,,,,0
2510,8011102028714,登記記録の閉鎖等,0,2023-01-25,2023-01-25,有限会社メディアシステム,,有限会社,東京都,新宿区,北新宿１丁目３０番１５号,,13,104,1690074,,,2023-01-25,登記官による閉鎖,,,2015-10-05,1,,,,,,0
2511,8011102029084,登記記録の閉鎖等,0,2023-01-25,2023-01-25,和光印刷有限会社,,有限会社,東京都,新宿区,高田馬場３丁目２１番９号,,13,104,1690075,,,2023-01-25,登記官による閉鎖,,,2015-10-05,1,,,,,,0
2512,8011103003113,登記記録の閉鎖等,0,2023-01-25,2023-01-25,合同会社ウェーブ,,合同会社,東京都,新宿区,新宿２丁目１２番１６号,,13,104,1600022,,,2023-01-25,登記官による閉鎖,,,2015-10-05,1,,,,,,0
2513,8011103004128,登記記録の閉鎖等,0,2023-01-25,2023-01-25,合同会社タナカコーポレーション,,合同会社,東京都,新宿区,新宿４丁目３番１５号,,13,104,1600022,,,2023-01-25,登記官による閉鎖,,,2015-10-05,1,,,,,,0
2515,8011105002600,登記記録の閉鎖等,0,2023-01-25,2023-01-25,特定非営利活動法人生涯・元気組・ネットワーク,,その他の設立登記法人,東京都,新宿区,新宿２丁目１４－６第一早川屋ビル４０３号,,13,104,1600022,,,2023-01-25,登記官による閉鎖,,,2015-10-05,1,,,,,,0
2516,8011105003648,登記記録の閉鎖等,0,2023-01-25,2023-01-25,エコクリーン建物サービス協同組合,,その他の設立登記法人,東京都,新宿区,西新宿４丁目３２番１１号,,13,104,1600023,,,2023-01-25,登記官による閉鎖,,,2015-10-05,1,,,,,,0
2518,8011301023227,登記記録の閉鎖等,0,2023-01-25,2023-01-18,株式会社塗匠．Ｋ,,株式会社,東京都,世田谷区,南烏山６丁目７番１９号グレイスビル３０１,,13,112,1570062,,,2023-01-18,清算の結了等,,,2017-06-05,1,,,,,ヌリショウケイ,0
2530,8012302003184,登記記録の閉鎖等,0,2023-01-25,2023-01-18,有限会社デイシィティ,,有限会社,東京都,町田市,成瀬５０９２番地３エステ・スクエア成瀬壱番館１０１,,13,209,1940044,,,2023-01-18,清算の結了等,,,2015-10-05,1,,,,,デイシィティ,0
2543,8020001011482,登記記録の閉鎖等,0,2023-01-25,2023-01-25,品川工機株式会社,,株式会社,神奈川県,横浜市青葉区,美しが丘３丁目３０番地,,14,117,2250002,,,2023-01-25,登記官による閉鎖,,,2015-10-05,1,,,,,,0
2545,8020001020649,登記記録の閉鎖等,0,2023-01-25,2023-01-25,株式会社スミヨシ産業,,株式会社,神奈川県,横浜市港北区,大倉山４丁目３０番８号,,14,109,2220037,,,2023-01-25,登記官による閉鎖,,,2015-10-05,1,,,,,,0
2546,8020001049903,登記記録の閉鎖等,0,2023-01-25,2023-01-25,株式会社ＹＯＫＯＨＡＭＡ　ＮＵ,,株式会社,神奈川県,横浜市神奈川区,西寺尾２丁目６番１９号２０４号室,,14,102,2210001,,,2023-01-25,登記官による閉鎖,,,2015-10-05,1,,,,,,0
2547,8020001053335,登記記録の閉鎖等,0,2023-01-25,2023-01-25,株式会社サンテクニカ,,株式会社,神奈川県,横浜市中区,元町１丁目２０番地ストーク元町一番館３０６,,14,104,2310861,,,2023-01-25,登記官による閉鎖,,,2015-10-05,1,,,,,,0
2549,8020001072450,登記記録の閉鎖等,0,2023-01-25,2023-01-25,神奈川スレート株式会社,,株式会社,神奈川県,川崎市川崎区,小田４丁目１９番１０号,,14,131,2100846,,,2023-01-25,登記官による閉鎖,,,2015-10-05,1,,,,,,0
2550,8020001082359,登記記録の閉鎖等,0,2023-01-25,2023-01-25,株式会社山口食品,,株式会社,神奈川県,川崎市宮前区,宮前平３丁目５番地１３宮崎台グレース２０５号,,14,136,2160006,,,2023-01-25,登記官による閉鎖,,,2015-10-05,1,,,,,,0
2551,8020001084537,登記記録の閉鎖等,0,2023-01-25,2023-01-25,株式会社ＡＮＴ,,株式会社,神奈川県,横浜市南区,前里町１丁目１５番地３－２０３号,,14,105,2320004,,,2023-01-25,登記官による閉鎖,,,2015-10-05,1,,,,,,0
2552,8020001119887,登記記録の閉鎖等,0,2023-01-25,2023-01-25,三山観光開発株式会社,,株式会社,神奈川県,横浜市港南区,上大岡東１丁目１５番２８号,,14,111,2330001,,,2023-01-25,登記官による閉鎖,,,2017-02-13,1,,,,,,0
2561,8020002000815,登記記録の閉鎖等,0,2023-01-25,2023-01-25,有限会社山崎商工,00010105,有限会社,神奈川県,横浜市栄区,本郷台５丁目２番１９号,,14,115,2470008,,,2023-01-25,登記官による閉鎖,,,2015-10-05,1,,,,,,0
2562,8020002018568,登記記録の閉鎖等,0,2023-01-25,2023-01-25,有限会社京浜リースキン,,有限会社,神奈川県,横浜市港南区,港南台２丁目２番４－３０３号,,14,111,2340054,,,2023-01-25,登記官による閉鎖,,,2015-10-05,1,,,,,,0
2563,8020002020986,登記記録の閉鎖等,0,2023-01-25,2023-01-25,有限会社カミヒラ建設,,有限会社,神奈川県,横浜市旭区,本宿町４１番地１８,,14,112,2410023,,,2023-01-25,登記官による閉鎖,,,2015-10-05,1,,,,,,0
2564,8020002032263,登記記録の閉鎖等,0,2023-01-25,2023-01-25,有限会社アトリエ創造の泉,,有限会社,神奈川県,横浜市港北区,篠原北１丁目１０番２２号,,14,109,2220021,,,2023-01-25,登記官による閉鎖,,,2015-10-05,1,,,,,,0
2565,8020002038104,登記記録の閉鎖等,0,2023-01-25,2023-01-25,有限会社駒岡だるま薬品．ミユキドラツグ,,有限会社,神奈川県,横浜市鶴見区,駒岡３丁目３７番１６号,,14,101,2300071,,,2023-01-25,登記官による閉鎖,,,2015-10-05,1,,,,,,0
2566,8020002040605,登記記録の閉鎖等,0,2023-01-25,2023-01-25,有限会社山岸工業,,有限会社,神奈川県,横浜市鶴見区,岸谷１丁目２５番２０－４０２号,,14,101,2300078,,,2023-01-25,登記官による閉鎖,,,2015-10-05,1,,,,,,0
2567,8020002040794,登記記録の閉鎖等,0,2023-01-25,2023-01-25,有限会社畑商事,,有限会社,神奈川県,横浜市鶴見区,鶴見中央４丁目１６番１号,,14,101,2300051,,,2023-01-25,登記官による閉鎖,,,2015-10-05,1,,,,,,0
2568,8020002049506,登記記録の閉鎖等,0,2023-01-25,2023-01-25,有限会社甲栄電設,,有限会社,神奈川県,横浜市保土ケ谷区,東川島町３８番地３０,,14,106,2400041,,,2023-01-25,登記官による閉鎖,,,2015-10-05,1,,,,,,0
2569,8020002072623,登記記録の閉鎖等,0,2023-01-25,2023-01-25,有限会社アイアール,,有限会社,神奈川県,横浜市西区,戸部本町４４番１６号,,14,103,2200041,,,2023-01-25,登記官による閉鎖,,,2015-10-05,1,,,,,,0
2570,8020002074883,登記記録の閉鎖等,0,2023-01-25,2023-01-25,有限会社横田製作所,,有限会社,神奈川県,横浜市磯子区,森６丁目１２番１８号,,14,107,2350023,,,2023-01-25,登記官による閉鎖,,,2015-10-05,1,,,,,,0
2571,8020002080972,登記記録の閉鎖等,0,2023-01-25,2023-01-25,有限会社サンユウ商事,,有限会社,神奈川県,川崎市幸区,塚越４丁目３１４番地２,,14,132,2120024,,,2023-01-25,登記官による閉鎖,,,2015-10-05,1,,,,,,0
2572,8020002087976,登記記録の閉鎖等,0,2023-01-25,2023-01-25,有限会社イシハラ,,有限会社,神奈川県,川崎市高津区,向ケ丘字南原１３３番２,,14,134,2130035,,,2023-01-25,登記官による閉鎖,,,2015-10-05,1,,,,,,0
2573,8020002089072,登記記録の閉鎖等,0,2023-01-25,2023-01-25,有限会社桜庭電業,,有限会社,神奈川県,川崎市高津区,下作延７丁目２９番１２号,,14,134,2130033,,,2023-01-25,登記官による閉鎖,,,2015-10-05,1,,,,,,0
2574,8020002095632,登記記録の閉鎖等,0,2023-01-25,2023-01-25,有限会社石純興業,,有限会社,神奈川県,川崎市川崎区,浜町２丁目２３番９号,,14,131,2100851,,,2023-01-25,登記官による閉鎖,,,2015-10-05,1,,,,,,0
2575,8020002100508,登記記録の閉鎖等,0,2023-01-25,2023-01-25,有限会社フジターミナル,,有限会社,神奈川県,川崎市川崎区,千鳥町２０番２号,,14,131,2100865,,,2023-01-25,登記官による閉鎖,,,2015-10-05,1,,,,,,0
2576,8020002101349,登記記録の閉鎖等,0,2023-01-25,2023-01-25,有限会社ユウユウネット,,有限会社,神奈川県,川崎市中原区,上小田中１丁目２０番１８号,,14,133,2110053,,,2023-01-25,登記官による閉鎖,,,2015-10-05,1,,,,,,0
2577,8020003006349,登記記録の閉鎖等,0,2023-01-25,2023-01-20,合同会社プロフィシンク,,合同会社,神奈川県,川崎市宮前区,有馬３丁目１３番１５号,,14,136,2160003,,,2023-01-20,清算の結了等,,,2015-10-05,1,,,,,プロフィシンク,0
2583,8020005004235,登記記録の閉鎖等,0,2023-01-25,2023-01-25,匠飛翔シーシーシーエヌ企業組合,,その他の設立登記法人,神奈川県,横浜市港北区,菊名５丁目２０番２０号,,14,109,2220011,,,2023-01-25,登記官による閉鎖,,,2015-10-05,1,,,,,,0
2584,8020005008962,登記記録の閉鎖等,0,2023-01-25,2023-01-25,特定非営利活動法人ナノ・ケア環境研究所,,その他の設立登記法人,神奈川県,川崎市中原区,新丸子東３丁目１１００－１２財団法人かわさき市民活動センター内５号室,,14,133,2110004,,,2023-01-25,登記官による閉鎖,,,2015-10-05,1,,,,,,0
2605,8040001065403,登記記録の閉鎖等,0,2023-01-25,2023-01-18,柏大北不動産株式会社,,株式会社,千葉県,柏市,あけぼの２丁目９番５号,,12,217,2770841,,,2023-01-18,清算の結了等,,,2015-10-05,1,,,,,カシワダイホクフドウサン,0
2617,8070001003715,登記記録の閉鎖等,0,2023-01-25,2023-01-25,株式会社大和住建,,株式会社,群馬県,前橋市,紅雲町２丁目１番１号,,10,201,3710025,,,2023-01-25,登記官による閉鎖,,,2015-10-05,1,,,,,,0
2618,8070001005422,登記記録の閉鎖等,0,2023-01-25,2023-01-25,株式会社ＩＫ鈴木事務所,,株式会社,群馬県,前橋市,昭和町３丁目１０番２５号,,10,201,3710034,,,2023-01-25,登記官による閉鎖,,,2015-10-05,1,,,,,,0
2619,8070001015090,登記記録の閉鎖等,0,2023-01-25,2023-01-25,株式会社Ｏｃｅａｎ,,株式会社,群馬県,伊勢崎市,境栄７２１番地,,10,204,3700122,,,2023-01-25,登記官による閉鎖,,,2015-10-05,1,,,,,,0
2620,8070001021015,登記記録の閉鎖等,0,2023-01-25,2023-01-25,株式会社Ｉ・Ｄ・Ｓ,,株式会社,群馬県,太田市,東長岡町１６９１番１号もくすいビルＧＡ２３,,10,205,3730812,,,2023-01-25,登記官による閉鎖,,,2015-10-05,1,,,,,,0
2621,8070001022814,登記記録の閉鎖等,0,2023-01-25,2023-01-25,トラシア株式会社,,株式会社,群馬県,太田市,新田木崎町１０１０番地１,,10,205,3700321,,,2023-01-25,登記官による閉鎖,,,2015-10-05,1,,,,,,0
2622,8070001026253,登記記録の閉鎖等,0,2023-01-25,2023-01-25,株式会社セブングループ,,株式会社,群馬県,前橋市,城東町３丁目５番１号サンプラザビル,,10,201,3710016,,,2023-01-25,登記官による閉鎖,,,2015-10-05,1,,,,,,0
2624,8070002000975,登記記録の閉鎖等,0,2023-01-25,2023-01-25,有限会社エレクトロ制御社,,有限会社,群馬県,前橋市,横手町３６番地の３,,10,201,3792145,,,2023-01-25,登記官による閉鎖,,,2015-10-05,1,,,,,,0
2625,8070002002732,登記記録の閉鎖等,0,2023-01-25,2023-01-25,有限会社島宗酒店,,有限会社,群馬県,前橋市,石倉町１丁目４番地の１４,,10,201,3710841,,,2023-01-25,登記官による閉鎖,,,2015-10-05,1,,,,,,0
2626,8070002010520,登記記録の閉鎖等,0,2023-01-25,2023-01-25,有限会社須田製作所,,有限会社,群馬県,高崎市,吉井町吉井川６７番地の１,,10,202,3702133,,,2023-01-25,登記官による閉鎖,,,2015-10-05,1,,,,,,0
2627,8070002011106,登記記録の閉鎖等,0,2023-01-25,2023-01-25,有限会社デュオ,,有限会社,群馬県,高崎市,柳川町４５番地やなぎビル１階,,10,202,3700815,,,2023-01-25,登記官による閉鎖,,,2015-10-05,1,,,,,,0
2628,8070002013556,登記記録の閉鎖等,0,2023-01-25,2023-01-25,有限会社大島彰音楽事務所,,有限会社,群馬県,高崎市,吉井町多比良３６１８番地,,10,202,3702115,,,2023-01-25,登記官による閉鎖,,,2015-10-05,1,,,,,,0
2629,8070002014422,登記記録の閉鎖等,0,2023-01-25,2023-01-25,有限会社ケアサポートゆうゆう,,有限会社,群馬県,高崎市,白岩町１３８番地２,,10,202,3703332,,,2023-01-25,登記官による閉鎖,,,2015-10-05,1,,,,,,0
2632,8070002016617,登記記録の閉鎖等,0,2023-01-25,2023-01-25,有限会社マキクラフト研究所,,有限会社,群馬県,富岡市,妙義町諸戸７１３番地,,10,210,3790209,,,2023-01-25,登記官による閉鎖,,,2015-10-05,1,,,,,,0
2633,8070002017532,登記記録の閉鎖等,0,2023-01-25,2023-01-25,有限会社西武商事,,有限会社,群馬県,前橋市,古市町２１２番地６ヤマサンビル１Ｆ,,10,201,3710844,,,2023-01-25,登記官による閉鎖,,,2015-10-05,1,,,,,,0
2634,8070002018852,登記記録の閉鎖等,0,2023-01-25,2023-01-25,有限会社栗田コーキング,,有限会社,群馬県,伊勢崎市,田中島町１９９番地２,,10,204,3720802,,,2023-01-25,登記官による閉鎖,,,2015-10-05,1,,,,,,0
2635,8070002018869,登記記録の閉鎖等,0,2023-01-25,2023-01-25,有限会社栗原薬局,,有限会社,群馬県,伊勢崎市,連取町１９１６番地,,10,204,3720812,,,2023-01-25,登記官による閉鎖,,,2015-10-05,1,,,,,,0
2636,8070002024272,登記記録の閉鎖等,0,2023-01-25,2023-01-25,有限会社永井鉄工所,,有限会社,群馬県,桐生市,相生町４丁目２４７番地の４１,,10,203,3760011,,,2023-01-25,登記官による閉鎖,,,2015-10-05,1,,,,,,0
2637,8070002029544,登記記録の閉鎖等,0,2023-01-25,2023-01-25,有限会社島電,,有限会社,群馬県,邑楽郡邑楽町,大字石打甲８８６番地の１,,10,525,3700604,,,2023-01-25,登記官による閉鎖,,,2015-10-05,1,,,,,,0
2638,8070002033645,登記記録の閉鎖等,0,2023-01-25,2023-01-25,有限会社館林不動産センター,,有限会社,群馬県,館林市,松原３丁目１３番地１０,,10,207,3740016,,,2023-01-25,登記官による閉鎖,,,2015-10-05,1,,,,,,0
2639,8070002035253,登記記録の閉鎖等,0,2023-01-25,2023-01-25,有限会社レストランほたか,,有限会社,群馬県,沼田市,上原町１８０１番地の１,,10,206,3780051,,,2023-01-25,登記官による閉鎖,,,2015-10-05,1,,,,,,0
2640,8070002037035,登記記録の閉鎖等,0,2023-01-25,2023-01-25,有限会社草津クリーナー,,有限会社,群馬県,吾妻郡嬬恋村,大字鎌原２０９番地２,,10,425,3771524,,,2023-01-25,登記官による閉鎖,,,2015-10-05,1,,,,,,0
2642,8070005000097,登記記録の閉鎖等,0,2023-01-25,2023-01-25,前橋国領町食糧販売企業組合,,その他の設立登記法人,群馬県,前橋市,国領町１丁目１２番１８号,,10,201,3710033,,,2023-01-25,登記官による閉鎖,,,2015-10-05,1,,,,,,0
2643,8070005003397,登記記録の閉鎖等,0,2023-01-25,2023-01-25,群馬繊維加工協同組合,,その他の設立登記法人,群馬県,高崎市,町屋町８１８番地６,,10,202,3700881,,,2023-01-25,登記官による閉鎖,,,2015-10-05,1,,,,,,0
2644,8070005004032,登記記録の閉鎖等,0,2023-01-25,2023-01-25,高崎砂利生産販売協同組合,,その他の設立登記法人,群馬県,藤岡市,上落合３６５番地,,10,209,3750057,,,2023-01-25,登記官による閉鎖,,,2015-10-05,1,,,,,,0
2645,8070005006870,登記記録の閉鎖等,0,2023-01-25,2023-01-25,新治村観光商工協同組合,,その他の設立登記法人,群馬県,利根郡みなかみ町,湯宿温泉６２６番地,,10,449,3791409,,,2023-01-25,登記官による閉鎖,,,2015-10-05,1,,,,,,0
2646,8070005006879,登記記録の閉鎖等,0,2023-01-25,2023-01-25,尾瀬木材産業協同組合,,その他の設立登記法人,群馬県,利根郡片品村,大字鎌田４０８８番地の２,,10,443,3780415,,,2023-01-25,登記官による閉鎖,,,2015-10-05,1,,,,,,0
2679,8140001042409,登記記録の閉鎖等,0,2023-01-25,2023-01-23,アオエス警備保障株式会社,,株式会社,兵庫県,加古川市,平岡町新在家８０番地の１１,,28,210,6750101,,,2023-01-23,清算の結了等,,,2015-10-05,1,,,,,アオエスケイビホショウ,0
2682,8140001127630,登記記録の閉鎖等,0,2023-01-25,2023-01-04,株式会社ＨＡＣＨＩ,,株式会社,兵庫県,宝塚市,中筋２丁目１１番１－４０８号,,28,214,6650874,,,2023-01-04,合併による解散等,9140001078625,令和５年１月１日兵庫県伊丹市北伊丹九丁目８０番３株式会社ティティエヌコーポレーション（9140001078625）に合併し解散,2022-10-18,1,,,,,ハチ,0
2695,8180001088992,登記記録の閉鎖等,0,2023-01-25,2023-01-20,愛ｉｎｇ株式会社,,株式会社,愛知県,名古屋市名東区,上社１丁目１００７番地,,23,115,4650025,,,2023-01-20,清算の結了等,,,2015-10-05,1,,,,,アイイング,0
2710,8230001009885,登記記録の閉鎖等,0,2023-01-25,2023-01-23,カワグチ緑化株式会社,,株式会社,富山県,高岡市,蓮花寺２７４番地,,16,202,9330802,,,2023-01-23,清算の結了等,,,2015-10-05,1,,,,,カワグチリョッカ,0
2717,8240002000859,登記記録の閉鎖等,0,2023-01-25,2023-01-23,天本興産有限会社,,有限会社,広島県,広島市東区,戸坂桜西町７番１５号,,34,102,7320006,,,2023-01-23,清算の結了等,,,2015-10-05,1,,,,,アマモトコウサン,0
2727,8290001047839,登記記録の閉鎖等,0,2023-01-25,2023-01-20,株式会社室園建設,,株式会社,福岡県,八女市,蒲原８１４番地,,40,210,8340064,,,2023-01-20,清算の結了等,,,2015-10-05,1,,,,,ムロゾノケンセツ,0
2742,8350002001755,登記記録の閉鎖等,0,2023-01-25,2023-01-25,有限会社後藤不動産,,有限会社,宮崎県,宮崎市,山崎町上ノ原１０２７番地,,45,201,8800836,,,2023-01-25,登記官による閉鎖,,,2015-10-05,1,,,,,,0
2743,8350002012513,登記記録の閉鎖等,0,2023-01-25,2023-01-25,有限会社橋本電設,,有限会社,宮崎県,延岡市,大貫町４丁目２５７１番地３,,45,203,8820803,,,2023-01-25,登記官による閉鎖,,,2015-10-05,1,,,,,,0
2744,8350002017272,登記記録の閉鎖等,0,2023-01-25,2023-01-25,冨士コーポ有限会社,,有限会社,宮崎県,日南市,大字平野１１１５番地,,45,204,8870015,,,2023-01-25,登記官による閉鎖,,,2015-10-05,1,,,,,,0
2745,8350005001604,登記記録の閉鎖等,0,2023-01-25,2023-01-25,特定非営利活動法人共同作業所第一さくら,,その他の設立登記法人,宮崎県,宮崎市,淀川３丁目５番８号,,45,201,8800907,,,2023-01-25,登記官による閉鎖,,,2015-10-05,1,,,,,,0
2746,8350005004689,登記記録の閉鎖等,0,2023-01-25,2023-01-25,協同組合えびの総合流通集配センター,,その他の設立登記法人,宮崎県,えびの市,大字向江１１０３番地２,,45,209,8894151,,,2023-01-25,登記官による閉鎖,,,2015-10-05,1,,,,,,0
2747,8360001005293,登記記録の閉鎖等,0,2023-01-25,2023-01-25,株式会社エンバイアメント,,株式会社,沖縄県,糸満市,西崎町５丁目１２番地２０,,47,210,9010306,,,2023-01-25,登記官による閉鎖,,,2015-10-05,1,,,,,,0
2748,8360001015508,登記記録の閉鎖等,0,2023-01-25,2023-01-25,株式会社万翔プランニング,,株式会社,沖縄県,豊見城市,字高安５９７番地３プラザとよみ１０１,,47,212,9010242,,,2023-01-25,登記官による閉鎖,,,2015-10-05,1,,,,,,0
2750,8360002004798,登記記録の閉鎖等,0,2023-01-25,2023-01-25,有限会社琉昇,,有限会社,沖縄県,那覇市,高良２丁目８番１１号,,47,201,9010145,,,2023-01-25,登記官による閉鎖,,,2015-10-05,1,,,,,,0
2751,8360002008139,登記記録の閉鎖等,0,2023-01-25,2023-01-25,有限会社Ｄｅｌｉｇｈｔ華,,有限会社,沖縄県,那覇市,田原３丁目８番７号いそ平ビル　４０１号,,47,201,9010156,,,2023-01-25,登記官による閉鎖,,,2015-10-05,1,,,,,,0
2752,8360002017494,登記記録の閉鎖等,0,2023-01-25,2023-01-25,有限会社べに屋,,有限会社,沖縄県,中頭郡読谷村,字高志保１０４６番地,,47,324,9040323,,,2023-01-25,登記官による閉鎖,,,2015-10-05,1,,,,,,0
2753,8360002018162,登記記録の閉鎖等,0,2023-01-25,2023-01-25,ジップ有限会社,,有限会社,沖縄県,うるま市,字具志川２６６４番地５,,47,213,9042223,,,2023-01-25,登記官による閉鎖,,,2015-10-05,1,,,,,,0
2754,8360002018765,登記記録の閉鎖等,0,2023-01-25,2023-01-25,有限会社ＣＯＭＭＯＮ,,有限会社,沖縄県,宜野湾市,大謝名５丁目２３番１－２０４号大謝名団地,,47,205,9012225,,,2023-01-25,登記官による閉鎖,,,2015-10-05,1,,,,,,0
2755,8360003000573,登記記録の閉鎖等,0,2023-01-25,2023-01-25,三洋交通合資会社,,合資会社,沖縄県,那覇市,識名３丁目６番１７号,,47,201,9020078,,,2023-01-25,登記官による閉鎖,,,2015-10-05,1,,,,,,0
2756,8360003004780,登記記録の閉鎖等,0,2023-01-25,2023-01-25,伊江運送合名会社,,合名会社,沖縄県,国頭郡伊江村,字川平４２５番地,,47,315,9050503,,,2023-01-25,登記官による閉鎖,,,2015-10-05,1,,,,,,0
2757,8360005003715,登記記録の閉鎖等,0,2023-01-25,2023-01-25,八重山ブランド協同組合,,その他の設立登記法人,沖縄県,石垣市,字新川４３３番地,,47,207,9070024,,,2023-01-25,登記官による閉鎖,,,2015-10-05,1,,,,,,0
2758,8360005004135,登記記録の閉鎖等,0,2023-01-25,2023-01-25,一般社団法人日本ケアエステ協会,,その他の設立登記法人,沖縄県,中頭郡西原町,字東崎２２－３ムーンテラス東崎３Ｆ,,47,329,9030105,,,2023-01-25,登記官による閉鎖,,,2015-10-05,1,,,,,,0
2760,8390001000242,登記記録の閉鎖等,0,2023-01-25,2023-01-23,株式会社遠藤稔建築設計事務所,,株式会社,山形県,山形市,あさひ町１６番１１号,,06,201,9900024,,,2023-01-23,登記官による閉鎖,,,2015-10-05,1,,,,,,0
2761,8390001004771,登記記録の閉鎖等,0,2023-01-25,2023-01-23,株式会社さらや,,株式会社,山形県,上山市,新丁４番５号,,06,207,9993152,,,2023-01-23,登記官による閉鎖,,,2015-10-05,1,,,,,,0
2762,8390002002510,登記記録の閉鎖等,0,2023-01-25,2023-01-23,有限会社松しまや,,有限会社,山形県,山形市,蔵王温泉３３番地,,06,201,9902301,,,2023-01-23,登記官による閉鎖,,,2015-10-05,1,,,,,,0
2763,8390002003707,登記記録の閉鎖等,0,2023-01-25,2023-01-23,有限会社ベスト,,有限会社,山形県,山形市,円応寺町７番５号,,06,201,9900052,,,2023-01-23,登記官による閉鎖,,,2015-10-05,1,,,,,,0
2764,8390002006602,登記記録の閉鎖等,0,2023-01-25,2023-01-23,新技術工業有限会社,,有限会社,山形県,山形市,花楯２丁目５番２８号,,06,201,9900067,,,2023-01-23,登記官による閉鎖,,,2015-10-05,1,,,,,,0
2766,8400502000433,登記記録の閉鎖等,0,2023-01-25,2023-01-20,有限会社大栄地所,,有限会社,神奈川県,高座郡寒川町,倉見１２０３番地,,14,321,2530101,,,2023-01-20,清算の結了等,,,2015-10-05,1,,,,,ダイエイヂショ,0
2772,8480001005463,登記記録の閉鎖等,0,2023-01-25,2023-01-25,松浦味噌株式会社,00005815,株式会社,徳島県,板野郡藍住町,奥野字乾２１９番地,,36,403,7711201,,,2023-01-25,登記官による閉鎖,,,2015-10-05,1,,,,,,0
2773,8480002000439,登記記録の閉鎖等,0,2023-01-25,2023-01-25,有限会社魚川陶器,,有限会社,徳島県,徳島市,東出来島町２２番地２,,36,201,7700822,,,2023-01-25,登記官による閉鎖,,,2015-10-05,1,,,,,,0
2774,8480002000967,登記記録の閉鎖等,0,2023-01-25,2023-01-25,有限会社岸木材店,,有限会社,徳島県,徳島市,南田宮２丁目１番２４号,,36,201,7700004,,,2023-01-25,登記官による閉鎖,,,2015-10-05,1,,,,,,0
2775,8480002005330,登記記録の閉鎖等,0,2023-01-25,2023-01-25,有限会社横山縫工所,,有限会社,徳島県,徳島市,沖浜町西畑４１１番地の２,,36,201,7708051,,,2023-01-25,登記官による閉鎖,,,2015-10-05,1,,,,,,0
2776,8480002005891,登記記録の閉鎖等,0,2023-01-25,2023-01-25,神山アイ建設有限会社,,有限会社,徳島県,名西郡神山町,鬼籠野字喜来９５番地,,36,342,7713203,,,2023-01-25,登記官による閉鎖,,,2015-10-05,1,,,,,,0
2777,8480002012087,登記記録の閉鎖等,0,2023-01-25,2023-01-25,有限会社徳陽総合電設工業,,有限会社,徳島県,板野郡藍住町,勝瑞字成長１６５番地１,,36,403,7711272,,,2023-01-25,登記官による閉鎖,,,2015-10-05,1,,,,,,0
2778,8480002012649,登記記録の閉鎖等,0,2023-01-25,2023-01-25,有限会社安喜建設,,有限会社,徳島県,阿南市,中大野町南傍示２８６番地１,,36,204,7740048,,,2023-01-25,登記官による閉鎖,,,2015-10-05,1,,,,,,0
2779,8480002013408,登記記録の閉鎖等,0,2023-01-25,2023-01-25,那賀淡水有限会社,,有限会社,徳島県,阿南市,羽ノ浦町古庄張ノ下１６番地の１,,36,204,7791105,,,2023-01-25,登記官による閉鎖,,,2015-10-05,1,,,,,,0
2780,8480002013993,登記記録の閉鎖等,0,2023-01-25,2023-01-25,有限会社小倉建具店,,有限会社,徳島県,海部郡海陽町,宍喰浦字宍喰１４９番地,,36,388,7750501,,,2023-01-25,登記官による閉鎖,,,2015-10-05,1,,,,,,0
2798,9010003027535,登記記録の閉鎖等,0,2023-01-25,2023-01-16,合同会社スケールフリー,,合同会社,東京都,中央区,東日本橋２丁目２８番４号日本橋ＣＥＴビル２階,,13,102,1030004,,,2023-01-16,清算の結了等,,,2018-05-16,1,,,,,スケールフリー,0
2821,9010601033356,登記記録の閉鎖等,0,2023-01-25,2023-01-16,株式会社サイトプラス,,株式会社,東京都,墨田区,石原１丁目３４番８号,,13,107,1300011,,,2023-01-16,清算の結了等,,,2015-10-05,1,,,,,サイトプラス,0
2841,9011101006083,登記記録の閉鎖等,0,2023-01-25,2023-01-25,株式会社現役会,,株式会社,東京都,新宿区,百人町２丁目４番１号,,13,104,1690073,,,2023-01-25,登記官による閉鎖,,,2015-10-05,1,,,,,,0
2842,9011101008583,登記記録の閉鎖等,0,2023-01-25,2023-01-25,株式会社シー・エル・エヌ,,株式会社,東京都,新宿区,新宿１丁目２７番１号,,13,104,1600022,,,2023-01-25,登記官による閉鎖,,,2015-10-05,1,,,,,,0
2843,9011101034745,登記記録の閉鎖等,0,2023-01-25,2023-01-25,株式会社東京トータルローン,,株式会社,東京都,新宿区,新宿２丁目１４番４－７０６号,,13,104,1600022,,,2023-01-25,登記官による閉鎖,,,2015-10-05,1,,,,,,0
2844,9011101049644,登記記録の閉鎖等,0,2023-01-25,2023-01-25,株式会社アジアンリンク,,株式会社,東京都,新宿区,歌舞伎町２丁目４番１４号－９０５号,,13,104,1600021,,,2023-01-25,登記官による閉鎖,,,2015-10-05,1,,,,,,0
2845,9011101054009,登記記録の閉鎖等,0,2023-01-25,2023-01-25,株式会社イーオフィス,,株式会社,東京都,新宿区,新宿２丁目８番１８号マルキビル,,13,104,1600022,,,2023-01-25,登記官による閉鎖,,,2015-10-05,1,,,,,,0
2846,9011101055519,登記記録の閉鎖等,0,2023-01-25,2023-01-25,インフィニートサービス株式会社,,株式会社,東京都,新宿区,住吉町１番６号,,13,104,1620065,,,2023-01-25,登記官による閉鎖,,,2015-10-05,1,,,,,,0
2847,9011101060378,登記記録の閉鎖等,0,2023-01-25,2023-01-25,株式会社システムトレード,,株式会社,東京都,新宿区,百人町３丁目３０番２号,,13,104,1690073,,,2023-01-25,登記官による閉鎖,,,2015-10-05,1,,,,,,0
2848,9011101061376,登記記録の閉鎖等,0,2023-01-25,2023-01-25,株式会社ヴォール,,株式会社,東京都,新宿区,北新宿１丁目８番２０号,,13,104,1690074,,,2023-01-25,登記官による閉鎖,,,2015-10-05,1,,,,,,0
2850,9011101064536,登記記録の閉鎖等,0,2023-01-25,2023-01-25,株式会社ソーラーマテリアル,,株式会社,東京都,新宿区,西新宿５丁目２５番１３号,,13,104,1600023,,,2023-01-25,登記官による閉鎖,,,2015-10-05,1,,,,,,0
2853,9011102011891,登記記録の閉鎖等,0,2023-01-25,2023-01-25,有限会社マウント・リード,,有限会社,東京都,新宿区,四谷４丁目２２番地,,13,104,1600004,,,2023-01-25,登記官による閉鎖,,,2015-10-05,1,,,,,,0
2854,9011103003830,登記記録の閉鎖等,0,2023-01-25,2023-01-25,合同会社ＦＩＥＬＤ,,合同会社,東京都,新宿区,西新宿７丁目１０番１７－４０７号,,13,104,1600023,,,2023-01-25,登記官による閉鎖,,,2015-10-05,1,,,,,,0
2855,9011105002046,登記記録の閉鎖等,0,2023-01-25,2023-01-25,特定非営利活動法人ＮＰＯ国際人育成機構,,その他の設立登記法人,東京都,新宿区,早稲田鶴巻町５１９井筒屋ビル２Ｆ,,13,104,1620041,,,2023-01-25,登記官による閉鎖,,,2015-10-05,1,,,,,,0
2866,9011803003394,登記記録の閉鎖等,0,2023-01-25,2023-01-20,合同会社Ａ＆Ｓ,,合同会社,東京都,足立区,南花畑４丁目１３番１２号,,13,121,1210062,,,2023-01-20,清算の結了等,,,2018-08-03,1,,,,,エーアンドエス,0
2867,9012302003258,登記記録の閉鎖等,0,2023-01-25,2023-01-20,有限会社デンノウ,,有限会社,東京都,町田市,鶴間１７６２番地,,13,209,1940004,,,2023-01-20,登記官による閉鎖,,,2015-10-05,1,,,,,,0
2871,9012803001520,登記記録の閉鎖等,0,2023-01-25,2023-01-16,合同会社フェリシダージ,,合同会社,東京都,日野市,平山１丁目１番地の２,,13,212,1910043,,,2023-01-16,清算の結了等,,,2016-11-11,1,,,,,フェリシダージ,0
2878,9020001005847,登記記録の閉鎖等,0,2023-01-25,2023-01-25,株式会社アスカフーズ,,株式会社,神奈川県,横浜市金沢区,並木１丁目１０番１－３０１号,,14,108,2360005,,,2023-01-25,登記官による閉鎖,,,2015-10-05,1,,,,,,0
2879,9020001006580,登記記録の閉鎖等,0,2023-01-25,2023-01-25,南部工業株式会社,,株式会社,神奈川県,横浜市金沢区,福浦２丁目８番１９号,,14,108,2360004,,,2023-01-25,登記官による閉鎖,,,2015-10-05,1,,,,,,0
2880,9020001006853,登記記録の閉鎖等,0,2023-01-25,2023-01-25,株式会社みらい設計,,株式会社,神奈川県,横浜市金沢区,六浦南４丁目２０番２－８０６号,,14,108,2360038,,,2023-01-25,登記官による閉鎖,,,2015-10-05,1,,,,,,0
2881,9020001013486,登記記録の閉鎖等,0,2023-01-25,2023-01-25,株式会社日本事業開発,,株式会社,神奈川県,横浜市磯子区,森１丁目５番２１－８１８号,,14,107,2350023,,,2023-01-25,登記官による閉鎖,,,2015-10-05,1,,,,,,0
2882,9020001013908,登記記録の閉鎖等,0,2023-01-25,2023-01-25,山形資材株式会社,,株式会社,神奈川県,横浜市南区,永田山王台４番１４号,,14,105,2320074,,,2023-01-25,登記官による閉鎖,,,2015-10-05,1,,,,,,0
2883,9020001018188,登記記録の閉鎖等,0,2023-01-25,2023-01-25,東北建鉄株式会社,,株式会社,神奈川県,横浜市鶴見区,汐入町１丁目１番地の２,,14,101,2300043,,,2023-01-25,登記官による閉鎖,,,2015-10-05,1,,,,,,0
2884,9020001023072,登記記録の閉鎖等,0,2023-01-25,2023-01-25,コスモホーム横浜株式会社,,株式会社,神奈川県,横浜市神奈川区,羽沢南２丁目２１番１８号,,14,102,2210866,,,2023-01-25,登記官による閉鎖,,,2015-10-05,1,,,,,,0
2885,9020001026620,登記記録の閉鎖等,0,2023-01-25,2023-01-25,株式会社榊原履物店,,株式会社,神奈川県,横浜市中区,本牧町１丁目６３番地,,14,104,2310806,,,2023-01-25,登記官による閉鎖,,,2015-10-05,1,,,,,,0
2886,9020001033600,登記記録の閉鎖等,0,2023-01-25,2023-01-25,株式会社オオケン,,株式会社,神奈川県,横浜市緑区,寺山町９０６番地３３,,14,113,2260013,,,2023-01-25,登記官による閉鎖,,,2015-10-05,1,,,,,,0
2887,9020001039804,登記記録の閉鎖等,0,2023-01-25,2023-01-25,ナカヤ精機株式会社,,株式会社,神奈川県,横浜市港南区,日野８丁目３１番２３号,,14,111,2340051,,,2023-01-25,登記官による閉鎖,,,2015-10-05,1,,,,,,0
2888,9020001054704,登記記録の閉鎖等,0,2023-01-25,2023-01-23,株式会社フラット・テン,,株式会社,神奈川県,横浜市神奈川区,六角橋６丁目１５番８号,,14,102,2210802,,,2023-01-23,清算の結了等,,,2015-10-05,1,,,,,フラットテン,0
2889,9020001055768,登記記録の閉鎖等,0,2023-01-25,2023-01-25,株式会社プルーデント,,株式会社,神奈川県,横浜市港北区,仲手原２丁目５３１番地４３,,14,109,2220023,,,2023-01-25,登記官による閉鎖,,,2015-10-05,1,,,,,,0
2890,9020001060875,登記記録の閉鎖等,0,2023-01-25,2023-01-25,株式会社ＫＩＥ,,株式会社,神奈川県,横浜市南区,真金町１丁目４番３号藤井ビル４０５,,14,105,2320021,,,2023-01-25,登記官による閉鎖,,,2015-10-05,1,,,,,,0
2891,9020001062145,登記記録の閉鎖等,0,2023-01-25,2023-01-25,株式会社山静運輸,,株式会社,神奈川県,横浜市保土ケ谷区,上菅田町１４００番地の１,,14,106,2400051,,,2023-01-25,登記官による閉鎖,,,2015-10-05,1,,,,,,0
2892,9020001068836,登記記録の閉鎖等,0,2023-01-25,2023-01-25,井出木材株式会社,,株式会社,神奈川県,川崎市中原区,今井南町５４０番地,,14,133,2110064,,,2023-01-25,登記官による閉鎖,,,2015-10-05,1,,,,,,0
2893,9020001083199,登記記録の閉鎖等,0,2023-01-25,2023-01-25,株式会社デスコジャパン,,株式会社,神奈川県,横浜市都筑区,茅ケ崎中央４３番７号,,14,118,2240032,,,2023-01-25,登記官による閉鎖,,,2015-10-05,1,,,,,,0
2895,9020001088264,登記記録の閉鎖等,0,2023-01-25,2023-01-25,坂本船舶株式会社,,株式会社,神奈川県,横浜市中区,西之谷町４３番地,,14,104,2310844,,,2023-01-25,登記官による閉鎖,,,2015-10-05,1,,,,,,0
2896,9020001088363,登記記録の閉鎖等,0,2023-01-25,2023-01-25,株式会社千代田リアルエステート,,株式会社,神奈川県,横浜市鶴見区,豊岡町１７－１９大倉ビル３階,,14,101,2300062,,,2023-01-25,登記官による閉鎖,,,2015-10-05,1,,,,,,0
2898,9020001092654,登記記録の閉鎖等,0,2023-01-25,2023-01-25,株式会社ＧＡＵＮＴＬＥＴ,,株式会社,神奈川県,川崎市宮前区,神木本町１丁目１０番１号,,14,136,2160031,,,2023-01-25,登記官による閉鎖,,,2015-10-05,1,,,,,,0
2899,9020001097562,登記記録の閉鎖等,0,2023-01-25,2023-01-25,株式会社Ｒｅｇｏｌｉｔｈ,,株式会社,神奈川県,横浜市中区,太田町４丁目４７コーワ太田町ビル７階,,14,104,2310011,,,2023-01-25,登記官による閉鎖,,,2015-10-05,1,,,,,,0
2903,9020001121512,登記記録の閉鎖等,0,2023-01-25,2023-01-25,竹内企業株式会社,,株式会社,神奈川県,横浜市鶴見区,豊岡町１７番１０号,,14,101,2300062,,,2023-01-25,登記官による閉鎖,,,2017-05-19,1,,,,,,0
2910,9020002001705,登記記録の閉鎖等,0,2023-01-25,2023-01-25,テクノ精巧有限会社,,有限会社,神奈川県,横浜市瀬谷区,阿久和西３丁目１番地２,,14,114,2460025,,,2023-01-25,登記官による閉鎖,,,2015-10-05,1,,,,,,0
2911,9020002010334,登記記録の閉鎖等,0,2023-01-25,2023-01-25,有限会社永井エンジニアリング,,有限会社,神奈川県,横浜市磯子区,中原１丁目３番２０号,,14,107,2350036,,,2023-01-25,登記官による閉鎖,,,2015-10-05,1,,,,,,0
2912,9020002015754,登記記録の閉鎖等,0,2023-01-25,2023-01-25,有限会社ヤマタニ工業,,有限会社,神奈川県,横浜市青葉区,すすき野２丁目５番地３－４０１,,14,117,2250021,,,2023-01-25,登記官による閉鎖,,,2015-10-05,1,,,,,,0
2914,9020002022255,登記記録の閉鎖等,0,2023-01-25,2023-01-25,有限会社藤寿園,,有限会社,神奈川県,横浜市旭区,笹野台２丁目２９番２１号,,14,112,2410816,,,2023-01-25,登記官による閉鎖,,,2015-10-05,1,,,,,,0
2915,9020002023492,登記記録の閉鎖等,0,2023-01-25,2023-01-25,有限会社菊川計算センター,,有限会社,神奈川県,横浜市保土ケ谷区,岩間町２丁目１８４番地の５,,14,106,2400004,,,2023-01-25,登記官による閉鎖,,,2015-10-05,1,,,,,,0
2916,9020002030101,登記記録の閉鎖等,0,2023-01-25,2023-01-25,有限会社三和住設,,有限会社,神奈川県,横浜市中区,長者町１丁目３番地１０,,14,104,2310033,,,2023-01-25,登記官による閉鎖,,,2015-10-05,1,,,,,,0
2917,9020002035934,登記記録の閉鎖等,0,2023-01-25,2023-01-25,有限会社三浦建材店,,有限会社,神奈川県,横浜市港北区,小机町２７４番地６,,14,109,2220036,,,2023-01-25,登記官による閉鎖,,,2015-10-05,1,,,,,,0
2918,9020002039431,登記記録の閉鎖等,0,2023-01-25,2023-01-25,有限会社永井工業所,,有限会社,神奈川県,横浜市鶴見区,駒岡４丁目９番８号,,14,101,2300071,,,2023-01-25,登記官による閉鎖,,,2015-10-05,1,,,,,,0
2919,9020002042757,登記記録の閉鎖等,0,2023-01-25,2023-01-25,三信建物管理有限会社,,有限会社,神奈川県,横浜市中区,松影町１丁目３番７号,,14,104,2310025,,,2023-01-25,登記官による閉鎖,,,2015-10-05,1,,,,,,0
2920,9020002044761,登記記録の閉鎖等,0,2023-01-25,2023-01-25,有限会社ふらんす,,有限会社,神奈川県,横浜市中区,末広町２丁目５番地,,14,104,2310046,,,2023-01-25,登記官による閉鎖,,,2015-10-05,1,,,,,,0
2921,9020002047921,登記記録の閉鎖等,0,2023-01-25,2023-01-25,有限会社フェニックスタイル工業,,有限会社,神奈川県,横浜市青葉区,成合町４４１番地,,14,117,2270032,,,2023-01-25,登記官による閉鎖,,,2015-10-05,1,,,,,,0
2922,9020002048655,登記記録の閉鎖等,0,2023-01-25,2023-01-25,有限会社浜長軒,,有限会社,神奈川県,横浜市保土ケ谷区,西谷町１１１１番地,,14,106,2400052,,,2023-01-25,登記官による閉鎖,,,2015-10-05,1,,,,,,0
2923,9020002052822,登記記録の閉鎖等,0,2023-01-25,2023-01-25,有限会社ゼニヤ,,有限会社,神奈川県,横浜市港北区,綱島西２丁目３番２号,,14,109,2230053,,,2023-01-25,登記官による閉鎖,,,2015-10-05,1,,,,,,0
2924,9020002061377,登記記録の閉鎖等,0,2023-01-25,2023-01-25,有限会社ペック,,有限会社,神奈川県,横浜市都筑区,見花山九丁目１４番中山ビューテラス１０１号,,14,118,2240066,,,2023-01-25,登記官による閉鎖,,,2015-10-05,1,,,,,,0
2925,9020002064933,登記記録の閉鎖等,0,2023-01-25,2023-01-25,有限会社グリーンサービス,,有限会社,神奈川県,横浜市港北区,小机町２１３１番地２,,14,109,2220036,,,2023-01-25,登記官による閉鎖,,,2015-10-05,1,,,,,,0
2926,9020002068091,登記記録の閉鎖等,0,2023-01-25,2023-01-25,有限会社エスピーエス,,有限会社,神奈川県,横浜市青葉区,美しが丘１丁目１２番地１美しが丘ドエリングＡ－２０３,,14,117,2250002,,,2023-01-25,登記官による閉鎖,,,2015-10-05,1,,,,,,0
2927,9020002084238,登記記録の閉鎖等,0,2023-01-25,2023-01-25,有限会社高野事務所,,有限会社,神奈川県,川崎市中原区,西加瀬２７４番地,,14,133,2110024,,,2023-01-25,登記官による閉鎖,,,2015-10-05,1,,,,,,0
2928,9020002095838,登記記録の閉鎖等,0,2023-01-25,2023-01-25,江越電設有限会社,,有限会社,神奈川県,川崎市川崎区,藤崎４丁目６番９号,,14,131,2100804,,,2023-01-25,登記官による閉鎖,,,2015-10-05,1,,,,,,0
2929,9020003004599,登記記録の閉鎖等,0,2023-01-25,2023-01-25,合同会社ラウンドフェイス,,合同会社,神奈川県,横浜市青葉区,あざみ野３丁目４番地あざみ野団地９棟１０４号,,14,117,2250011,,,2023-01-25,登記官による閉鎖,,,2015-10-05,1,,,,,,0
2930,9020003006216,登記記録の閉鎖等,0,2023-01-25,2023-01-25,合同会社アクアウィング,,合同会社,神奈川県,川崎市川崎区,京町２丁目７番１０号シャトレーアオキ１０３,,14,131,2100848,,,2023-01-25,登記官による閉鎖,,,2015-10-05,1,,,,,,0
2931,9020003007387,登記記録の閉鎖等,0,2023-01-25,2023-01-25,合同会社ヨシ・トレーディング,,合同会社,神奈川県,横浜市中区,曙町１丁目１番地４エクシール伊勢佐木６０１,00011869,14,104,2310057,,,2023-01-25,登記官による閉鎖,,,2015-10-05,1,,,,,,0
2934,9020005008854,登記記録の閉鎖等,0,2023-01-25,2023-01-25,かわさき建設環境協同組合,,その他の設立登記法人,神奈川県,川崎市川崎区,日進町１３番地２,,14,131,2100024,,,2023-01-25,登記官による閉鎖,,,2015-10-05,1,,,,,,0
2954,9040001015621,登記記録の閉鎖等,0,2023-01-25,2023-01-20,株式会社ホームエスコート,,株式会社,千葉県,習志野市,谷津１丁目１２番５号,,12,216,2750026,,,2023-01-20,清算の結了等,,,2015-10-05,1,,,,,ホームエスコート,0
2955,9040001062184,登記記録の閉鎖等,0,2023-01-25,2023-01-20,株式会社シイナ工務店,,株式会社,千葉県,銚子市,本城町３丁目１０４番地の１,,12,202,2880831,,,2023-01-20,清算の結了等,,,2015-10-05,1,,,,,シイナコウムテン,0
2968,9050002033349,登記記録の閉鎖等,0,2023-01-25,2023-01-17,有限会社小室商店,,有限会社,茨城県,龍ケ崎市,泉町原口１５８７番２５,,08,208,3010857,,,2023-01-17,清算の結了等,,,2015-10-05,1,,,,,コムロショウテン,0
2969,9050002037779,登記記録の閉鎖等,0,2023-01-25,2023-01-18,有限会社ダッシュフォワード,,有限会社,茨城県,牛久市,さくら台２丁目２９番地１７,,08,219,3001217,,,2023-01-18,清算の結了等,,,2015-10-05,1,,,,,ダッシュフォワード,0
2975,9070001003433,登記記録の閉鎖等,0,2023-01-25,2023-01-25,株式会社若喜屋,,株式会社,群馬県,前橋市,山王町１丁目１１番地の１４,,10,201,3792123,,,2023-01-25,登記官による閉鎖,,,2015-10-05,1,,,,,,0
2976,9070001008465,登記記録の閉鎖等,0,2023-01-25,2023-01-25,丸吉木材工業株式会社,,株式会社,群馬県,高崎市,相生町５２番地,,10,202,3700811,,,2023-01-25,登記官による閉鎖,,,2015-10-05,1,,,,,,0
2977,9070001013663,登記記録の閉鎖等,0,2023-01-25,2023-01-25,株式会社パソコンランド,,株式会社,群馬県,伊勢崎市,東本町９４番地２,,10,204,3720025,,,2023-01-25,登記官による閉鎖,,,2015-10-05,1,,,,,,0
2978,9070001013985,登記記録の閉鎖等,0,2023-01-25,2023-01-25,株式会社カルチャープラザさとう,,株式会社,群馬県,伊勢崎市,東町２５９７番地,,10,204,3792231,,,2023-01-25,登記官による閉鎖,,,2015-10-05,1,,,,,,0
2979,9070001016625,登記記録の閉鎖等,0,2023-01-25,2023-01-25,株式会社水村織物工場,,株式会社,群馬県,桐生市,堤町１丁目８番１６号,,10,203,3760042,,,2023-01-25,登記官による閉鎖,,,2015-10-05,1,,,,,,0
2980,9070001020783,登記記録の閉鎖等,0,2023-01-25,2023-01-25,株式会社インターネット・アド,,株式会社,群馬県,太田市,飯田町１０２４番地,,10,205,3730851,,,2023-01-25,登記官による閉鎖,,,2015-10-05,1,,,,,,0
2981,9070001026277,登記記録の閉鎖等,0,2023-01-25,2023-01-25,利根コンクリート株式会社,,株式会社,群馬県,伊勢崎市,柴町８５８番地１,,10,204,3720824,,,2023-01-25,登記官による閉鎖,,,2015-10-05,1,,,,,,0
2985,9070002004422,登記記録の閉鎖等,0,2023-01-25,2023-01-25,有限会社ひざわ商店,,有限会社,群馬県,前橋市,天川大島町１４５３番地,,10,201,3792154,,,2023-01-25,登記官による閉鎖,,,2015-10-05,1,,,,,,0
2986,9070002004777,登記記録の閉鎖等,0,2023-01-25,2023-01-25,有限会社ホームシヨツプタシロ,,有限会社,群馬県,前橋市,広瀬町１丁目２９番地の２７,,10,201,3710812,,,2023-01-25,登記官による閉鎖,,,2015-10-05,1,,,,,,0
2987,9070002012953,登記記録の閉鎖等,0,2023-01-25,2023-01-25,有限会社イン・マニラ,,有限会社,群馬県,高崎市,緑町４丁目１０番地１,,10,202,3700073,,,2023-01-25,登記官による閉鎖,,,2015-10-05,1,,,,,,0
2988,9070002016558,登記記録の閉鎖等,0,2023-01-25,2023-01-25,有限会社一本屋,,有限会社,群馬県,富岡市,富岡１０６６番地,,10,210,3702316,,,2023-01-25,登記官による閉鎖,,,2015-10-05,1,,,,,,0
2989,9070002019619,登記記録の閉鎖等,0,2023-01-25,2023-01-25,有限会社ファースト工業,,有限会社,群馬県,伊勢崎市,連取町１９６４番地１,,10,204,3720812,,,2023-01-25,登記官による閉鎖,,,2015-10-05,1,,,,,,0
2990,9070002024676,登記記録の閉鎖等,0,2023-01-25,2023-01-25,有限会社ホシノ,,有限会社,群馬県,桐生市,広沢町間ノ島１９６番地の６,,10,203,3760014,,,2023-01-25,登記官による閉鎖,,,2015-10-05,1,,,,,,0
2991,9070002026466,登記記録の閉鎖等,0,2023-01-25,2023-01-25,有限会社綜合寢具橋爪,,有限会社,群馬県,渋川市,伊香保町伊香保１４２番地の５,,10,208,3770102,,,2023-01-25,登記官による閉鎖,,,2015-10-05,1,,,,,,0
2992,9070002029898,登記記録の閉鎖等,0,2023-01-25,2023-01-25,有限会社武幸商事,,有限会社,群馬県,邑楽郡邑楽町,大字明野７番地の８,,10,525,3700602,,,2023-01-25,登記官による閉鎖,,,2015-10-05,1,,,,,,0
2993,9070002034808,登記記録の閉鎖等,0,2023-01-25,2023-01-25,新治商事有限会社,,有限会社,群馬県,利根郡みなかみ町,月夜野３２８０番地３,,10,449,3791313,,,2023-01-25,登記官による閉鎖,,,2015-10-05,1,,,,,,0
2994,9070002035260,登記記録の閉鎖等,0,2023-01-25,2023-01-25,有限会社わかばやし,,有限会社,群馬県,沼田市,下久屋町８２０番地の８,,10,206,3780004,,,2023-01-25,登記官による閉鎖,,,2015-10-05,1,,,,,,0
2995,9070005000591,登記記録の閉鎖等,0,2023-01-25,2023-01-25,協同組合ひまわり会,,その他の設立登記法人,群馬県,前橋市,千代田町４丁目１９番５号,,10,201,3710022,,,2023-01-25,登記官による閉鎖,,,2015-10-05,1,,,,,,0
2996,9070005004964,登記記録の閉鎖等,0,2023-01-25,2023-01-25,桐生縫製協同組合,,その他の設立登記法人,群馬県,桐生市,東４丁目８番１１号,,10,203,3760034,,,2023-01-25,登記官による閉鎖,,,2015-10-05,1,,,,,,0
2997,9070005005194,登記記録の閉鎖等,0,2023-01-25,2023-01-25,協同組合建設資材リサイクルグループ,,その他の設立登記法人,群馬県,桐生市,広沢町３丁目３７９６番地の１,,10,203,3760013,,,2023-01-25,登記官による閉鎖,,,2015-10-05,1,,,,,,0
2998,9070005007868,登記記録の閉鎖等,0,2023-01-25,2023-01-25,特定非営利活動法人天使のさと,,その他の設立登記法人,群馬県,北群馬郡榛東村,大字新井２８１０番地２,,10,344,3703503,,,2023-01-25,登記官による閉鎖,,,2015-10-05,1,,,,,,0
3001,9080103000435,登記記録の閉鎖等,0,2023-01-25,2023-01-23,合資会社鈴木商会,,合資会社,静岡県,三島市,泉町１１番４号,,22,206,4110037,,,2023-01-23,清算の結了等,,,2015-10-05,1,,,,,スズキショウカイ,0
3002,9080402008880,登記記録の閉鎖等,0,2023-01-25,2023-01-23,有限会社若松商店,,有限会社,静岡県,浜松市中区,佐藤２丁目３３番８号,,22,131,4300807,,,2023-01-23,清算の結了等,,,2015-10-05,1,,,,,ワカマツショウテン,0
3028,9122002010774,登記記録の閉鎖等,0,2023-01-25,2023-01-24,有限会社キョードー,,有限会社,大阪府,東大阪市,川田４丁目１番２３号,,27,227,5780905,,,2023-01-24,清算の結了等,,,2015-10-05,1,,,,,キョードー,0
3039,9140002063997,登記記録の閉鎖等,0,2023-01-25,2023-01-04,株式会社ＴＴＮホールディングス,,株式会社,兵庫県,伊丹市,北伊丹９丁目８０番３,,28,207,6640831,,,2023-01-04,合併による解散等,9140001078625,令和５年１月１日兵庫県伊丹市北伊丹九丁目８０番３株式会社ティティエヌコーポレーション（9140001078625）に合併し解散,2015-10-05,1,,,,,ティティエヌホールディングス,0
3044,9150005008767,登記記録の閉鎖等,0,2023-01-25,2023-01-20,特定非営利活動法人奈良すまい助けたい改善センター,,その他の設立登記法人,奈良県,奈良市,西九条町５丁目４番地の３,,29,201,6308453,,,2023-01-20,清算の結了等,,,2016-10-12,1,,,,,ナラスマイタスケタイカイゼンセンター,0
3050,9180001116190,登記記録の閉鎖等,0,2023-01-25,2023-01-20,株式会社ＴＲＹ,,株式会社,愛知県,名古屋市中区,大須２丁目１０番４５号,,23,106,4600011,,,2023-01-20,清算の結了等,,,2015-10-05,1,,,,,トライ,0
3068,9220002004992,登記記録の閉鎖等,0,2023-01-25,2023-01-24,有限会社福田,,有限会社,石川県,金沢市,西泉５丁目８０番地,,17,201,9218043,,,2023-01-24,清算の結了等,,,2015-10-05,1,,,,,フクダ,0
3073,9260002029937,登記記録の閉鎖等,0,2023-01-25,2023-01-24,有限会社津山口不動産,,有限会社,岡山県,津山市,津山口１６３番地の３,,33,203,7080884,,,2023-01-24,清算の結了等,,,2015-10-05,1,,,,,ツヤマグチフドウサン,0
3097,9350003001935,登記記録の閉鎖等,0,2023-01-25,2023-01-25,合同会社プロムナード,,合同会社,宮崎県,宮崎市,阿波岐原町前浜４２７６番地７０７,,45,201,8800835,,,2023-01-25,登記官による閉鎖,,,2015-10-05,1,,,,,,0
3098,9350005001677,登記記録の閉鎖等,0,2023-01-25,2023-01-25,特定非営利活動法人創寿会,,その他の設立登記法人,宮崎県,宮崎市,佐土原町下田島１９６６４番地,,45,201,8800211,,,2023-01-25,登記官による閉鎖,,,2015-10-05,1,,,,,,0
3099,9360001005474,登記記録の閉鎖等,0,2023-01-25,2023-01-25,株式会社ＬａＰａｚ,,株式会社,沖縄県,那覇市,おもろまち２丁目１番２４－８０８号,,47,201,9000006,,,2023-01-25,登記官による閉鎖,,,2015-10-05,1,,,,,,0
3100,9360001008923,登記記録の閉鎖等,0,2023-01-25,2023-01-25,株式会社太平山貿易,,株式会社,沖縄県,浦添市,宮城２丁目１９番２号,,47,208,9012126,,,2023-01-25,登記官による閉鎖,,,2015-10-05,1,,,,,,0
3102,9360003005571,登記記録の閉鎖等,0,2023-01-25,2023-01-25,合同会社ＷＩＬＤ　ＴＯＯＬＳ,,合同会社,沖縄県,那覇市,曙２丁目２４番１３号曙沖商ビル１０階,,47,201,9000002,,,2023-01-25,登記官による閉鎖,,,2015-10-05,1,,,,,,0
3104,9360005003466,登記記録の閉鎖等,0,2023-01-25,2023-01-25,大宜味トラック事業協同組合,,その他の設立登記法人,沖縄県,国頭郡大宜味村,字田港１０３７番地,,47,302,9051314,,,2023-01-25,登記官による閉鎖,,,2015-10-05,1,,,,,,0
3110,9380001019456,登記記録の閉鎖等,0,2023-01-25,2023-01-23,ＢＴＳコンサルタント株式会社,,株式会社,福島県,郡山市,安積町字柴宮東３２番地,,07,203,9630114,,,2023-01-23,清算の結了等,,,2015-10-05,1,,,,,ビィティエスコンサルタント,0
3113,9390002007070,登記記録の閉鎖等,0,2023-01-25,2023-01-23,エーワン自動車有限会社,,有限会社,山形県,酒田市,京田１丁目５番３,,06,204,9980102,,,2023-01-23,登記官による閉鎖,,,2015-10-05,1,,,,,,0
3114,9420001015467,登記記録の閉鎖等,0,2023-01-25,2023-01-24,株式会社タムラ発電所,,株式会社,青森県,青森市,南佃２丁目１０番３号,,02,201,0300964,,,2023-01-24,清算の結了等,,,2016-10-28,1,,,,,タムラハツデンショ,0
3115,9420002007067,登記記録の閉鎖等,0,2023-01-25,2023-01-23,有限会社佐美漁業,,有限会社,青森県,八戸市,新湊２丁目２０番６号,,02,203,0310811,,,2023-01-23,清算の結了等,,,2015-10-05,1,,,,,サミギョギョウ,0
3125,9480001000975,登記記録の閉鎖等,0,2023-01-25,2023-01-25,株式会社ダイヤ保険サービス,,株式会社,徳島県,徳島市,川内町宮島本浦１０４番地,,36,201,7710114,,,2023-01-25,登記官による閉鎖,,,2015-10-05,1,,,,,,0
3126,9480001004902,登記記録の閉鎖等,0,2023-01-25,2023-01-25,淡路住研株式会社,,株式会社,徳島県,鳴門市,撫養町南浜字蛭子前東１３７番地,,36,202,7720003,,,2023-01-25,登記官による閉鎖,,,2017-01-18,1,,,,,,0
3130,9480002001015,登記記録の閉鎖等,0,2023-01-25,2023-01-25,有限会社キノシタＫ．Ｓ,,有限会社,徳島県,徳島市,西須賀町鶴島４７番地１３,,36,201,7708024,,,2023-01-25,登記官による閉鎖,,,2015-10-05,1,,,,,,0
3131,9480002002649,登記記録の閉鎖等,0,2023-01-25,2023-01-25,有限会社大喜商会,,有限会社,徳島県,徳島市,津田海岸町１１２５番地１４５,,36,201,7708001,,,2023-01-25,登記官による閉鎖,,,2015-10-05,1,,,,,,0
3132,9480002005453,登記記録の閉鎖等,0,2023-01-25,2023-01-25,有限会社グラフィス,,有限会社,徳島県,名西郡石井町,石井字石井７４番地の１４,,36,341,7793233,,,2023-01-25,登記官による閉鎖,,,2015-10-05,1,,,,,,0
3133,9480002006435,登記記録の閉鎖等,0,2023-01-25,2023-01-25,有限会社広楽,,有限会社,徳島県,徳島市,昭和町２丁目１６番地の２,,36,201,7700942,,,2023-01-25,登記官による閉鎖,,,2015-10-05,1,,,,,,0
3135,9480002011476,登記記録の閉鎖等,0,2023-01-25,2023-01-25,大岡電設有限会社,,有限会社,徳島県,板野郡藍住町,奥野字原１９９番地６,,36,403,7711201,,,2023-01-25,登記官による閉鎖,,,2015-10-05,1,,,,,,0
3136,9480002014529,登記記録の閉鎖等,0,2023-01-25,2023-01-25,有限会社あめん棒,,有限会社,徳島県,美馬市,穴吹町穴吹字東成戸９３番地３,,36,207,7770005,,,2023-01-25,登記官による閉鎖,,,2015-10-05,1,,,,,,0
3137,9480002015691,登記記録の閉鎖等,0,2023-01-25,2023-01-25,有限会社浪花寿司,,有限会社,徳島県,三好市,池田町サラダ１８０４番地の９,,36,208,7780003,,,2023-01-25,登記官による閉鎖,,,2015-10-05,1,,,,,,0
3138,9480002016104,登記記録の閉鎖等,0,2023-01-25,2023-01-25,有限会社天平,,有限会社,徳島県,美馬市,穴吹町三島字舞中島１５７３番地,,36,207,7770002,,,2023-01-25,登記官による閉鎖,,,2015-10-05,1,,,,,,0
