sequenceNumber,corporateNumber,process,correct,updateDate,changeDate,name,nameImageId,kind,prefectureName,cityName,streetNumber,addressImageId,prefectureCode,cityCode,postCode,addressOutside,addressOutsideImageId,closeDate,closeCause,successorCorporateNumber,changeCause,assignmentDate,latest,enName,enPrefectureName,enCityName,enAddressOutside,furigana,hihyoji
4,1010001222211,登記記録の閉鎖等,0,2024-02-16,2024-02-09,株式会社エニシング,,株式会社,東京都,中央区,日本橋茅場町２丁目５番２－７０６号,,13,102,1030025,,,2024-02-09,清算の結了等,,,2021-11-05,1,,,,,エニシング,0
16,1010502009958,登記記録の閉鎖等,0,2024-02-16,2024-02-02,有限会社ふ＿助,00051317,有限会社,東京都,台東区,日本堤１丁目２５番１号,,13,106,1110021,,,2024-02-02,清算の結了等,,,2015-10-05,1,,,,,フクスケ,0
17,1010601000132,登記記録の閉鎖等,0,2024-02-16,2024-02-14,株式会社アトモス,,株式会社,東京都,新宿区,大久保１丁目２番５号,,13,104,1690072,,,2024-02-14,清算の結了等,,,2015-10-05,1,,,,,アトモス,0
28,1010801020590,登記記録の閉鎖等,0,2024-02-16,2024-02-13,株式会社マラウィ,,株式会社,東京都,大田区,東矢口２丁目１０番７号,,13,111,1460094,,,2024-02-13,清算の結了等,,,2015-10-05,1,,,,,マラウィ,0
31,1010905002295,登記記録の閉鎖等,0,2024-02-16,2024-02-14,特定非営利活動法人高濃度ビタミンＣ点滴療法学会,,その他の設立登記法人,東京都,世田谷区,奥沢８丁目３０番１０号,,13,112,1580083,,,2024-02-14,清算の結了等,,,2015-10-05,1,,,,,,0
55,1011602011135,登記記録の閉鎖等,0,2024-02-16,2024-02-14,有限会社若草商事,,有限会社,東京都,練馬区,関町北１丁目２３番１８号,,13,120,1770051,,,2024-02-14,清算の結了等,,,2015-10-05,1,,,,,ワカクサショウジ,0
64,1013302021752,登記記録の閉鎖等,0,2024-02-16,2024-02-13,株式会社エスピーエスエス,,株式会社,東京都,港区,東新橋１丁目９番１号,,13,103,1050021,,,2024-02-13,合併による解散等,5010401068135,令和６年２月１日東京都港区南青山二丁目２２番１８号ギャガ株式会社（5010401068135）に合併し解散,2015-10-05,1,,,,,エスピーエスエス,0
71,1020001104945,登記記録の閉鎖等,0,2024-02-16,2024-02-13,清芳商事株式会社,,株式会社,神奈川県,川崎市川崎区,小田４丁目３１番１号小原方１Ｆ,,14,131,2100846,,,2024-02-13,清算の結了等,,,2015-10-05,1,,,,,セイホウ,0
82,1020002023285,登記記録の閉鎖等,0,2024-02-16,2024-02-14,有限会社太田企画,,有限会社,神奈川県,横浜市保土ケ谷区,岩間町１丁目６番地１３,,14,106,2400004,,,2024-02-14,清算の結了等,,,2015-10-05,1,,,,,オオタキカク,0
117,1040002090638,登記記録の閉鎖等,0,2024-02-16,2024-02-09,有限会社千代田観光,,有限会社,千葉県,柏市,十余二３１３番地４００,,12,217,2770872,,,2024-02-09,清算の結了等,,,2015-10-05,1,,,,,チヨダカンコウ,0
118,1040003011881,登記記録の閉鎖等,0,2024-02-16,2024-02-13,合同会社エスカリエ,,合同会社,神奈川県,川崎市高津区,久末６０４番地,,14,134,2130026,,,2024-02-13,清算の結了等,,,2018-07-24,1,,,,,エスカリエ,0
135,1070002011509,登記記録の閉鎖等,0,2024-02-16,2024-02-09,有限会社パーソナル・オフイス,,有限会社,群馬県,高崎市,上大類町６２８番地９,,10,202,3700031,,,2024-02-09,清算の結了等,,,2015-10-05,1,,,,,パーソナルオフィス,0
137,1080102013602,登記記録の閉鎖等,0,2024-02-16,2024-02-13,有限会社小野田紙工,,有限会社,静岡県,富士市,大渕３２４３番地の２,,22,210,4170000,,,2024-02-13,清算の結了等,,,2015-10-05,1,,,,,,0
151,1120001230517,登記記録の閉鎖等,0,2024-02-16,2024-02-14,株式会社笑むｌｉｆｅ,,株式会社,大阪府,大阪市生野区,林寺３丁目１３番５号,,27,116,5440023,,,2024-02-14,清算の結了等,,,2020-07-20,1,,,,,エムライフ,0
177,1120901034199,登記記録の閉鎖等,0,2024-02-16,2024-02-15,株式会社大和美創,,株式会社,大阪府,摂津市,鳥飼上２丁目２番４号,,27,224,5660062,,,2024-02-15,清算の結了等,,,2015-10-05,1,,,,,,0
195,1140002040962,登記記録の閉鎖等,0,2024-02-16,2024-02-09,有限会社三協,,有限会社,兵庫県,尼崎市,北大物町１０番１６号,,28,202,6600804,,,2024-02-09,清算の結了等,,,2015-10-05,1,,,,,サンキョウ,0
197,1150003003034,登記記録の閉鎖等,0,2024-02-16,2024-02-15,合同会社ＳＥＩＲＹＯ,,合同会社,奈良県,北葛城郡上牧町,服部台１丁目２番３１号,,29,424,6390212,,,2024-02-15,清算の結了等,,,2023-08-10,1,,,,,セイリョウ,0
211,1180302012518,登記記録の閉鎖等,0,2024-02-16,2024-02-13,有限会社さぼてん,,有限会社,愛知県,豊橋市,大清水町字大清水１９８番地コーポ大清水Ｄ－２,,23,201,4418133,,,2024-02-13,清算の結了等,,,2015-10-05,1,,,,,,0
214,1200005013216,登記記録の閉鎖等,0,2024-02-16,2024-02-15,一般社団法人日本看福協会,,その他の設立登記法人,岐阜県,岐阜市,茜部新所４丁目１０４番地,,21,201,5008263,,,2024-02-15,清算の結了等,,,2021-06-18,1,,,,,ニホンカンフクキョウカイ,0
219,1230003001649,登記記録の閉鎖等,0,2024-02-16,2024-02-14,ＣＯＩＮＳ合同会社,,合同会社,富山県,射水市,草岡町１丁目８－１０,,16,211,9330225,,,2024-02-14,清算の結了等,,,2021-04-28,1,,,,,コインズ,0
230,1290001039438,登記記録の閉鎖等,0,2024-02-16,2024-02-13,株式会社ＡＳエンジニアリング,,株式会社,福岡県,糟屋郡須惠町,大字旅石８６番地３３２,,40,344,8112221,,,2024-02-13,清算の結了等,,,2015-10-05,1,,,,,エーエスエンジニアリング,0
261,1360002002643,登記記録の閉鎖等,0,2024-02-16,2024-02-13,有限会社大渡住宅,,有限会社,沖縄県,那覇市,首里末吉町４丁目１番地１７,,47,201,9030801,,,2024-02-13,清算の結了等,,,2015-10-05,1,,,,,,0
270,1370505000556,登記記録の閉鎖等,0,2024-02-16,2024-02-14,一般社団法人復興みなさん会,,その他の設立登記法人,宮城県,本吉郡南三陸町,志津川字上の山２６番地上山八幡宮社務所内,,04,606,9860751,,,2024-02-14,清算の結了等,,,2015-10-05,1,,,,,フッコウミナサンカイ,0
271,1380001015818,登記記録の閉鎖等,0,2024-02-16,2024-02-14,岐阜食品株式会社,,株式会社,福島県,相馬市,成田字大作２９５番地,,07,209,9792542,,,2024-02-14,清算の結了等,,,2015-10-05,1,,,,,ギフショクヒン,0
273,1380002034817,登記記録の閉鎖等,0,2024-02-16,2024-02-14,有限会社古滝板金工業所,,有限会社,福島県,喜多方市,字経壇１０３番地,,07,208,9660892,,,2024-02-14,清算の結了等,,,2015-10-05,1,,,,,コタキバンキンコウギョウショ,0
276,1400002000080,登記記録の閉鎖等,0,2024-02-16,2024-02-14,有限会社青沼電器,,有限会社,岩手県,盛岡市,青山２丁目１５番３２号,,03,201,0200133,,,2024-02-14,清算の結了等,,,2015-10-05,1,,,,,アオヌマデンキ,0
299,2010005007095,登記記録の閉鎖等,0,2024-02-16,2024-02-14,特定非営利活動法人ＭＯＲＩＭＯＲＩネットワーク,,その他の設立登記法人,東京都,町田市,原町田５丁目２番２２号,,13,209,1940013,,,2024-02-14,清算の結了等,,,2015-10-05,1,,,,,モリモリネットワーク,0
309,2010401115410,登記記録の閉鎖等,0,2024-02-16,2024-02-13,コスモアブダビエネルギー開発株式会社,,株式会社,東京都,港区,芝浦１丁目１番１号,,13,103,1050023,,,2024-02-13,合併による解散等,6010401110531,令和６年２月１日東京都港区芝浦一丁目１番１号コスモエネルギー開発株式会社（6010401110531）に合併し解散,2015-10-05,1,,,,,コスモエネルギーカイハツ,0
314,2010601037272,登記記録の閉鎖等,0,2024-02-16,2024-02-08,株式会社ロハスホーム,,株式会社,東京都,渋谷区,桜丘町９番１８－４０４,,13,113,1500031,,,2024-02-08,清算の結了等,,,2015-10-05,1,,,,,ロハスホーム,0
352,2012801007393,登記記録の閉鎖等,0,2024-02-16,2024-02-09,株式会社アンノデザイン,,株式会社,東京都,昭島市,中神町１３６０番地１８,,13,207,1960022,,,2024-02-09,清算の結了等,,,2015-10-05,1,,,,,,0
354,2012805001260,登記記録の閉鎖等,0,2024-02-16,2024-02-07,特定非営利活動法人立川国際芸術祭,,その他の設立登記法人,東京都,立川市,高松町１丁目２番１５号モナーク立川高松町１０５号,,13,202,1900011,,,2024-02-07,清算の結了等,,,2015-10-05,1,,,,,,0
373,2030002083880,登記記録の閉鎖等,0,2024-02-16,2024-02-13,有限会社ハーモニー,,有限会社,埼玉県,鴻巣市,吹上富士見１丁目１３番１２号Ａ,,11,217,3690121,,,2024-02-13,清算の結了等,,,2015-10-05,1,,,,,ハーモニー,0
386,2070001027810,登記記録の閉鎖等,0,2024-02-16,2024-02-09,株式会社ブック・パートナーズ,,株式会社,群馬県,伊勢崎市,喜多町３２番地２,,10,204,3720056,,,2024-02-09,清算の結了等,,,2015-10-05,1,,,,,ブックパートナーズ,0
387,2070001036464,登記記録の閉鎖等,0,2024-02-16,2024-02-13,株式会社フォルテ,,株式会社,群馬県,前橋市,元総社町７３０番地１,,10,201,3710846,,,2024-02-13,清算の結了等,,,2020-01-10,1,,,,,フォルテ,0
425,2130001003326,登記記録の閉鎖等,0,2024-02-16,2024-02-14,株式会社竹半商店,,株式会社,京都府,京都市上京区,下立売通大宮東入橋西二町目６３８番地,,26,102,6028123,,,2024-02-14,清算の結了等,,,2015-10-05,1,,,,,タケハンショウテン,0
443,2140002062287,登記記録の閉鎖等,0,2024-02-16,2024-02-09,有限会社加西企画,,有限会社,兵庫県,加西市,北条町古坂１丁目１００番地,,28,220,6752303,,,2024-02-09,清算の結了等,,,2015-10-05,1,,,,,カサイキカク,0
444,2150001007845,登記記録の閉鎖等,0,2024-02-16,2024-02-14,株式会社エステック,,株式会社,奈良県,生駒市,東新町４番２４－１０７号,,29,209,6300258,,,2024-02-14,清算の結了等,,,2015-10-05,1,,,,,エステック,0
447,2160001011796,登記記録の閉鎖等,0,2024-02-16,2024-02-13,株式会社アサヒ,,株式会社,滋賀県,高島市,新旭町新庄４９２番地の８,,25,212,5201522,,,2024-02-13,清算の結了等,,,2015-10-05,1,,,,,アサヒ,0
451,2170005002353,登記記録の閉鎖等,0,2024-02-16,2024-02-15,医療法人藤陽会,,その他の設立登記法人,和歌山県,和歌山市,黒田２７９番地４,,30,201,6408341,,,2024-02-15,清算の結了等,,,2015-10-05,1,,,,,トウヨウカイ,0
458,2180001146302,登記記録の閉鎖等,0,2024-02-16,2024-02-09,株式会社ゴトウアパート,,株式会社,愛知県,一宮市,木曽川町里小牧字南渡瀬２０番地,,23,203,4930005,,,2024-02-09,清算の結了等,,,2021-06-03,1,,,,,ゴトウアパート,0
466,2180003022245,登記記録の閉鎖等,0,2024-02-16,2024-02-09,ヘルシーナオミスタイル合同会社,,合同会社,愛知県,名古屋市守山区,東禅寺８０４番地,,23,113,4630019,,,2024-02-09,清算の結了等,,,2021-03-16,1,,,,,ヘルシーナオミスタイル,0
486,2250001012562,登記記録の閉鎖等,0,2024-02-16,2024-02-14,株式会社ミヤセン,,株式会社,山口県,熊毛郡田布施町,大字波野３９４番地３６,,35,343,7421502,,,2024-02-14,清算の結了等,,,2015-10-05,1,,,,,ミヤセン,0
532,2370102002236,登記記録の閉鎖等,0,2024-02-16,2024-02-13,有限会社明日香,,有限会社,宮城県,白石市,上久保６番２号,,04,206,9890244,,,2024-02-13,清算の結了等,,,2015-10-05,1,,,,,アスカ,0
538,2420002005663,登記記録の閉鎖等,0,2024-02-16,2024-02-09,有限会社村上新聞店,,有限会社,青森県,青森市,浪岡大字浪岡字浅井１１９番地１,,02,201,0381311,,,2024-02-09,清算の結了等,,,2015-10-05,1,,,,,ムラカミシンブンテン,0
550,3010001207359,登記記録の閉鎖等,0,2024-02-16,2024-02-14,株式会社ＷＩＳ　ＢＥＡＵＴＥ,,株式会社,東京都,中央区,銀座６丁目１３番９号ｂｉｚｃｕｂｅ,,13,102,1040061,,,2024-02-14,合併による解散等,2010001220189,令和６年１月３１日東京都中央区日本橋浜町二丁目３０番１号株式会社ＵＮＩＴＥＤ＆ＢＥＡＵＴＥ（2010001220189）に合併し解散,2020-02-12,1,,,,,ウィスボーテ,0
560,3010401122752,登記記録の閉鎖等,0,2024-02-16,2024-02-13,株式会社ＣＡＲＮＥＬ,,株式会社,東京都,港区,六本木５丁目１６番５０号六本木デュープレックスＭ’ｓ４０７,,13,103,1060032,,,2024-02-13,清算の結了等,,,2016-01-28,1,,,,,カーネル,0
563,3010401166733,登記記録の閉鎖等,0,2024-02-16,2024-02-09,ＴｉｇｅｒＧｒａｐｈ株式会社,,株式会社,東京都,港区,赤坂２丁目２３番１号アークヒルズフロントタワーＲｏＰ８０６号,,13,103,1070052,,,2024-02-09,清算の結了等,,,2022-04-12,1,,,,,タイガーグラフ,0
566,3010403027033,登記記録の閉鎖等,0,2024-02-16,2024-02-13,合同会社ＫＯＨ,,合同会社,東京都,港区,南青山２丁目２番地１５号,,13,103,1070062,,,2024-02-13,清算の結了等,,,2022-02-03,1,,,,,ケーオーエイチ,0
579,3011001069376,登記記録の閉鎖等,0,2024-02-16,2024-02-13,株式会社まどか,,株式会社,東京都,渋谷区,松濤１丁目９番２２号,,13,113,1500046,,,2024-02-13,合併による解散等,3010401085297,令和５年１０月１日東京都渋谷区松濤一丁目９番２２号株式会社ユニコーン（3010401085297）に合併し解散,2015-10-05,1,,,,,マドカ,0
585,3011101070110,登記記録の閉鎖等,0,2024-02-16,2024-02-13,株式会社Ｖｉｌｉｎｇベンチャーパートナーズ,,株式会社,東京都,新宿区,西新宿１丁目２５番１号新宿センタービル４９階,,13,104,1600023,,,2024-02-13,合併による解散等,3010401125813,令和５年１２月３１日福岡市中央区天神四丁目３番８号ミーナ天神８階株式会社リープラジャパン（3010401125813）に合併し解散,2015-10-05,1,,,,,ヴィリングベンチャーパートナーズ,0
614,3030001089738,登記記録の閉鎖等,0,2024-02-16,2024-02-09,椎名建設株式会社,,株式会社,埼玉県,日高市,大字馬引沢３２３番地４,,11,242,3501225,,,2024-02-09,清算の結了等,,,2015-10-05,1,,,,,,0
632,3030002082725,登記記録の閉鎖等,0,2024-02-16,2024-02-08,有限会社関根化工,,有限会社,埼玉県,鴻巣市,宮地３丁目３番５８号,,11,217,3650075,,,2024-02-08,清算の結了等,,,2015-10-05,1,,,,,セキネカコウ,0
633,3030002104330,登記記録の閉鎖等,0,2024-02-16,2024-02-13,有限会社第一プレーナー加工所,00017715,有限会社,埼玉県,川口市,栄町１丁目１９番３号,,11,203,3320017,,,2024-02-13,清算の結了等,,,2015-10-05,1,,,,,ダイイチプレーナーカコウショ,0
643,3040002093556,登記記録の閉鎖等,0,2024-02-16,2024-02-09,タイガー商事有限会社,,有限会社,千葉県,柏市,高柳１４７３番地の１,,12,217,2770941,,,2024-02-09,清算の結了等,,,2015-10-05,1,,,,,タイガーショウジ,0
645,3050001015725,登記記録の閉鎖等,0,2024-02-16,2024-02-05,スターアンドベル株式会社,,株式会社,茨城県,つくば市,春日２丁目１８番８,,08,220,3050821,,,2024-02-05,合併による解散等,1050001038406,令和５年１２月３１日茨城県つくば市西大井１６５１番地６善水株式会社（1050001038406）に合併し解散,2015-10-05,1,,,,,スターアンドベル,0
647,3050002032513,登記記録の閉鎖等,0,2024-02-16,2024-02-13,有限会社タムラ工業,,有限会社,茨城県,北茨城市,磯原町上相田３１７番地の１２,,08,215,3191544,,,2024-02-13,清算の結了等,,,2015-10-05,1,,,,,タムラコウギョウ,0
649,3060001006120,登記記録の閉鎖等,0,2024-02-16,2024-02-14,株式会社宮川電設,,株式会社,栃木県,さくら市,喜連川４０７７番地,,09,214,3291412,,,2024-02-14,清算の結了等,,,2015-10-05,1,,,,,ミヤカワデンセツ,0
652,3080403002888,登記記録の閉鎖等,0,2024-02-16,2024-02-15,合同会社いい気分,,合同会社,静岡県,浜松市浜名区,都田町８００７番地７,,22,139,4312102,,,2024-02-15,清算の結了等,,,2015-10-05,1,,,,,,0
655,3110001007427,登記記録の閉鎖等,0,2024-02-16,2024-02-13,エヌティボディセンター株式会社,,株式会社,新潟県,新潟市南区,北田中字堀留７８０番４０,,15,106,9501237,,,2024-02-13,合併による解散等,5110001003614,令和６年２月１日新潟市江南区下早通柳田二丁目２番１５号トヨタカローラ新潟株式会社（5110001003614）に合併し解散,2015-10-05,1,,,,,エヌティボディセンター,0
669,3120002073905,登記記録の閉鎖等,0,2024-02-16,2024-02-14,有限会社河北設備工業所,,有限会社,大阪府,枚方市,養父丘２丁目４番１５号,,27,210,5731134,,,2024-02-14,清算の結了等,,,2015-10-05,1,,,,,カワキタセツビコウギョウショ,0
677,3120901019727,登記記録の閉鎖等,0,2024-02-16,2024-02-09,高島食品株式会社,,株式会社,大阪府,池田市,城南３丁目１１番２０号,,27,204,5630025,,,2024-02-09,清算の結了等,,,2015-10-05,1,,,,,タカシマショクヒン,0
709,3180001021173,登記記録の閉鎖等,0,2024-02-16,2024-02-09,屋田建設株式会社,,株式会社,愛知県,名古屋市中川区,荒子１丁目１８０番地,,23,110,4540869,,,2024-02-09,清算の結了等,,,2015-10-05,1,,,,,ヤダケンセツ,0
726,3200002028090,登記記録の閉鎖等,0,2024-02-16,2024-02-14,有限会社ケーシーアイ,,有限会社,岐阜県,郡上市,八幡町小野３丁目３番地の２７,,21,219,5014221,,,2024-02-14,清算の結了等,,,2015-10-05,1,,,,,ケーシーアイ,0
731,3220001022869,登記記録の閉鎖等,0,2024-02-16,2024-02-14,株式会社ゴラッソ,,株式会社,石川県,金沢市,旭町２丁目７番１２号,,17,201,9200941,,,2024-02-14,清算の結了等,,,2019-05-15,1,,,,,ゴラッソ,0
732,3220003002200,登記記録の閉鎖等,0,2024-02-16,2024-02-08,ほっとナース合同会社,,合同会社,石川県,白山市,中ノ郷町イ２７番地２,,17,210,9202147,,,2024-02-08,清算の結了等,,,2016-11-15,1,,,,,ホットナース,0
742,3270002009530,登記記録の閉鎖等,0,2024-02-16,2024-02-14,有限会社中西新聞舗,,有限会社,鳥取県,東伯郡琴浦町,大字逢束１１１３番地７,00004407,31,371,6892304,,,2024-02-14,清算の結了等,,,2015-10-05,1,,,,,ナカニシシンブンホ,0
756,3290801019612,登記記録の閉鎖等,0,2024-02-16,2024-02-15,株式会社石炭灰総合研究所,,株式会社,福岡県,北九州市若松区,ひびきの１番８号,,40,103,8080135,,,2024-02-15,清算の結了等,,,2015-10-05,1,,,,,セキタンバイソウゴウケンキュウショ,0
757,3300003001326,登記記録の閉鎖等,0,2024-02-16,2024-02-14,合同会社Ａｌｏｔｔａ,,合同会社,佐賀県,佐賀市,神野東３丁目２番１０号,,41,201,8400804,,,2024-02-14,清算の結了等,,,2017-11-15,1,,,,,アロッタ,0
761,3310002005764,登記記録の閉鎖等,0,2024-02-16,2024-02-15,有限会社山喜食品,,有限会社,長崎県,長崎市,宝町９番３号,,42,201,8500045,,,2024-02-15,清算の結了等,,,2015-10-05,1,,,,,ヤマキショクヒン,0
774,3370202004346,登記記録の閉鎖等,0,2024-02-16,2024-02-14,有限会社オカダ商事,,有限会社,宮城県,栗原市,築館字照越松長根６３番地,,04,213,9872233,,,2024-02-14,清算の結了等,,,2015-10-05,1,,,,,オカダショウジ,0
779,3390001002730,登記記録の閉鎖等,0,2024-02-16,2024-02-15,ビーフロント株式会社,,株式会社,山形県,上山市,朝日台２丁目３番４８号,,06,207,9993164,,,2024-02-15,清算の結了等,,,2015-10-05,1,,,,,ビーフロント,0
822,4010602021100,登記記録の閉鎖等,0,2024-02-16,2024-02-13,有限会社ティフォシ,,有限会社,東京都,江東区,亀戸７丁目１３番１０号,,13,108,1360071,,,2024-02-13,清算の結了等,,,2015-10-05,1,,,,,ティフォシ,0
823,4010603005283,登記記録の閉鎖等,0,2024-02-16,2024-02-09,合同会社ＮＯＳＹ,,合同会社,東京都,江東区,大島３丁目１４番１０号－１Ｆ,,13,108,1360072,,,2024-02-09,清算の結了等,,,2015-10-05,1,,,,,ノージー,0
835,4011001118207,登記記録の閉鎖等,0,2024-02-16,2024-02-13,株式会社ＡＮＡＰラボ,,株式会社,東京都,渋谷区,神宮前１丁目１６番１１号,,13,113,1500001,,,2024-02-13,清算の結了等,,,2017-09-07,1,,,,,アナップラボ,0
843,4011203002415,登記記録の閉鎖等,0,2024-02-16,2024-02-09,彩歌合同会社,,合同会社,東京都,中野区,東中野２丁目２４番１３号,,13,114,1640003,,,2024-02-09,清算の結了等,,,2016-09-14,1,,,,,アヤカ,0
865,4012701004118,登記記録の閉鎖等,0,2024-02-16,2024-02-13,セイワインターナシヨナル株式会社,,株式会社,東京都,清瀬市,竹丘１丁目１６番１号,,13,221,2040023,,,2024-02-13,清算の結了等,,,2015-10-05,1,,,,,セイワインターナシヨナル,0
904,4040002022720,登記記録の閉鎖等,0,2024-02-16,2024-02-09,有限会社新船橋看護婦家政婦紹介所,,有限会社,千葉県,船橋市,本町１丁目２５番３１号,,12,204,2730005,,,2024-02-09,清算の結了等,,,2015-10-05,1,,,,,シンフナバシカンゴフカセイフショウカイジョ,0
905,4040002037867,登記記録の閉鎖等,0,2024-02-16,2024-02-09,有限会社コジマ工業,,有限会社,千葉県,鎌ケ谷市,道野辺中央４丁目１８番２２号,,12,224,2730113,,,2024-02-09,清算の結了等,,,2015-10-05,1,,,,,コジマコウギョウ,0
913,4060001028238,登記記録の閉鎖等,0,2024-02-16,2024-02-13,手塚設備工業株式会社,00106698,株式会社,栃木県,さくら市,上河戸８３７番地５,,09,214,3291401,,,2024-02-13,清算の結了等,,,2016-05-13,1,,,,,テツカセツビコウギョウ,0
923,4080101016108,登記記録の閉鎖等,0,2024-02-16,2024-02-14,株式会社ライオンハート,,株式会社,静岡県,沼津市,大岡２６１番地の９,,22,203,4100022,,,2024-02-14,清算の結了等,,,2015-10-05,1,,,,,ライオンハート,0
927,4090001004426,登記記録の閉鎖等,0,2024-02-16,2024-02-15,株式会社友禅丸章,,株式会社,山梨県,甲斐市,富竹新田５２４番地２,,19,210,4000113,,,2024-02-15,清算の結了等,,,2015-10-05,1,,,,,ユウゼンマルショウ,0
932,4120001143897,登記記録の閉鎖等,0,2024-02-16,2024-02-15,株式会社ＫＭデザイン,,株式会社,大阪府,摂津市,東別府２丁目２０番３１号,,27,224,5660042,,,2024-02-15,清算の結了等,,,2015-10-05,1,,,,,ケイエムデザイン,0
945,4120902014387,登記記録の閉鎖等,0,2024-02-16,2024-02-14,神出商事有限会社,,有限会社,大阪府,池田市,旭丘３丁目５番１１号,,27,204,5630022,,,2024-02-14,清算の結了等,,,2015-10-05,1,,,,,カミデショウジ,0
946,4120902016400,登記記録の閉鎖等,0,2024-02-16,2024-02-13,有限会社デジタル・サン・ギャラリー,,有限会社,大阪府,池田市,伏尾台２丁目９番地の２－４棟４０７号,,27,204,5630017,,,2024-02-13,清算の結了等,,,2015-10-05,1,,,,,デジタルサンギャラリー,0
972,4160002009334,登記記録の閉鎖等,0,2024-02-16,2024-02-13,有限会社有明運送,,有限会社,滋賀県,東近江市,大清水町６０４番地１,,25,213,5270126,,,2024-02-13,合併による解散等,1430001047005,令和６年２月１日北海道岩見沢市栗沢町最上４９８番地９株式会社トッキュウ（1430001047005）に合併し解散,2015-10-05,1,,,,,アリアケウンソウ,0
976,4180001053224,登記記録の閉鎖等,0,2024-02-16,2024-02-08,株式会社ＢＳＣ総研,,株式会社,愛知県,名古屋市名東区,高針４丁目１００３番地,,23,115,4650061,,,2024-02-08,清算の結了等,,,2015-10-05,1,,,,,ビーエスシーソウケン,0
990,4200001016970,登記記録の閉鎖等,0,2024-02-16,2024-02-14,株式会社アーキテクト建築,,株式会社,岐阜県,大垣市,西之川町１丁目３０２番１,,21,202,5030018,,,2024-02-14,合併による解散等,6200001039160,令和６年２月１４日岐阜県大垣市荒川町４５５番地株式会社Ｋａｎｏａ４（6200001039160）に合併し解散,2015-10-05,1,,,,,アーキテクトケンチク,0
991,4200002000560,登記記録の閉鎖等,0,2024-02-16,2024-02-15,有限会社エースデンタル,,有限会社,岐阜県,岐阜市,八代３丁目２４番２号,,21,201,5020812,,,2024-02-15,清算の結了等,,,2015-10-05,1,,,,,エースデンタル,0
1005,4290001086270,登記記録の閉鎖等,0,2024-02-16,2024-02-13,株式会社ＬＫ,,株式会社,福岡県,那珂川市,中原５丁目４６番地,,40,231,8111213,,,2024-02-13,清算の結了等,,,2019-08-21,1,,,,,エルケイ,0
1018,4330001002173,登記記録の閉鎖等,0,2024-02-16,2024-02-13,株式会社ジェイ・エム・シー,,株式会社,熊本県,熊本市東区,画図町大字所島７２５番地１,,43,102,8620946,,,2024-02-13,清算の結了等,,,2015-10-05,1,,,,,ジェイエムシー,0
1021,4350001011585,登記記録の閉鎖等,0,2024-02-16,2024-02-09,株式会社リアルエステートインカム,,株式会社,宮崎県,宮崎市,堀川町１９５番地,,45,201,8800873,,,2024-02-09,清算の結了等,,,2015-10-05,1,,,,,リアルエステートインカム,0
1029,4360002000702,登記記録の閉鎖等,0,2024-02-16,2024-02-14,有限会社ゑびす食品,,有限会社,沖縄県,那覇市,若狭３丁目８番１号,,47,201,9000031,,,2024-02-14,清算の結了等,,,2015-10-05,1,,,,,エビスショクヒン,0
1033,4370002007457,登記記録の閉鎖等,0,2024-02-16,2024-02-15,有限会社サクセスエンジニア,,有限会社,宮城県,仙台市宮城野区,鶴ケ谷東３丁目１６番２３号,,04,102,9830826,,,2024-02-15,清算の結了等,,,2015-10-05,1,,,,,サクセスエンジニア,0
1043,4430001048545,登記記録の閉鎖等,0,2024-02-16,2024-02-13,株式会社長土居商店,,株式会社,北海道,赤平市,泉町１丁目１番地,,01,218,0791134,,,2024-02-13,清算の結了等,,,2015-10-05,1,,,,,ナガドイショウテン,0
1054,4470002005005,登記記録の閉鎖等,0,2024-02-16,2024-02-14,長尾運送有限会社,,有限会社,香川県,高松市,岡本町１２７５番地４,,37,201,7618047,,,2024-02-14,清算の結了等,,,2015-10-05,1,,,,,ナガオウンソウ,0
1070,5010002014315,登記記録の閉鎖等,0,2024-02-16,2024-02-13,ベイシスエンジニアリング有限会社,,有限会社,東京都,千代田区,麹町１丁目６－１６,,13,101,1020083,,,2024-02-13,清算の結了等,,,2015-10-05,1,,,,,ベイシスエンジニアリング,0
1100,5011001134319,登記記録の閉鎖等,0,2024-02-16,2024-02-09,株式会社ＨＡＴＡ－ＧＯ,,株式会社,東京都,渋谷区,渋谷３丁目１番９号ＹＡＺＡＷＡビル３階,,13,113,1500002,,,2024-02-09,清算の結了等,,,2020-06-17,1,,,,,ハタゴ,0
1113,5011402002644,登記記録の閉鎖等,0,2024-02-16,2024-02-09,有限会社北山重機工業,,有限会社,東京都,板橋区,徳丸６丁目１０番２５号,,13,119,1750083,,,2024-02-09,清算の結了等,,,2015-10-05,1,,,,,キタヤマジュウキ,0
1118,5011801041391,登記記録の閉鎖等,0,2024-02-16,2024-02-15,株式会社天勝,,株式会社,東京都,葛飾区,東新小岩１丁目３番５号ライオンズマンション１号館７０１号室,,13,122,1240023,,,2024-02-15,清算の結了等,,,2022-10-14,1,,,,,テンショウ,0
1135,5020001087410,登記記録の閉鎖等,0,2024-02-16,2024-02-13,株式会社宮城電装サービス,,株式会社,神奈川県,横浜市港北区,師岡町６４４番地クイーンハイツ４０５号,,14,109,2220002,,,2024-02-13,清算の結了等,,,2015-10-05,1,,,,,ミヤギデンソウサービス,0
1138,5020002066537,登記記録の閉鎖等,0,2024-02-16,2024-02-14,三興商事有限会社,,有限会社,神奈川県,横浜市西区,戸部本町４３－３,,14,103,2200041,,,2024-02-14,清算の結了等,,,2015-10-05,1,,,,,サンコウショウジ,0
1179,5070002027344,登記記録の閉鎖等,0,2024-02-16,2024-02-09,有限会社タイヨウ,,有限会社,群馬県,北群馬郡榛東村,大字長岡１１７６番地２,,10,344,3703501,,,2024-02-09,清算の結了等,,,2015-10-05,1,,,,,タイヨウ,0
1181,5080101017732,登記記録の閉鎖等,0,2024-02-16,2024-02-13,株式会社トラス,,株式会社,静岡県,沼津市,北園町３番地の１２,,22,203,4100061,,,2024-02-13,清算の結了等,,,2015-10-05,1,,,,,トラス,0
1190,5110002002128,登記記録の閉鎖等,0,2024-02-16,2024-02-13,有限会社グリム,,有限会社,新潟県,新潟市中央区,東大通１丁目１番１０号,,15,103,9500087,,,2024-02-13,清算の結了等,,,2015-10-05,1,,,,,グリム,0
1200,5120001205192,登記記録の閉鎖等,0,2024-02-16,2024-02-09,アフォード株式会社,,株式会社,大阪府,大阪市東淀川区,東中島５丁目１５番１８号岩下マンション１０６号,,27,114,5330033,,,2024-02-09,清算の結了等,,,2017-04-25,1,,,,,アフォード,0
1211,5120002013966,登記記録の閉鎖等,0,2024-02-16,2024-02-09,有限会社旭自動車,,有限会社,大阪府,大阪市此花区,西九条５丁目４番２８号,,27,104,5540012,,,2024-02-09,清算の結了等,,,2015-10-05,1,,,,,アサヒジドウシャ,0
1224,5122001005473,登記記録の閉鎖等,0,2024-02-16,2024-02-13,西本電気株式会社,,株式会社,大阪府,東大阪市,下小阪１丁目２０番１０号,,27,227,5770803,,,2024-02-13,清算の結了等,,,2015-10-05,1,,,,,ニシモトデンキ,0
1228,5130002019418,登記記録の閉鎖等,0,2024-02-16,2024-02-13,有限会社フローリストワタリ,,有限会社,京都府,京都市上京区,寺町通今出川上る３丁目西入十念寺前町３９番地,,26,102,6020811,,,2024-02-13,清算の結了等,,,2015-10-05,1,,,,,フローリストワタリ,0
1243,5150001008428,登記記録の閉鎖等,0,2024-02-16,2024-02-15,株式会社エムユー測量設計,,株式会社,奈良県,奈良市,大宮町４丁目２７３番地の１,,29,201,6308115,,,2024-02-15,清算の結了等,,,2015-10-05,1,,,,,,0
1256,5180003014537,登記記録の閉鎖等,0,2024-02-16,2024-02-05,合同会社フレンズ,,合同会社,愛知県,名古屋市瑞穂区,洲雲町３丁目３９番地の３,,23,108,4670804,,,2024-02-05,清算の結了等,,,2015-10-05,1,,,,,フレンズ,0
1265,5190002017812,登記記録の閉鎖等,0,2024-02-16,2024-02-15,有限会社丸三商事,,有限会社,三重県,員弁郡東員町,笹尾西２丁目１１番の７,,24,324,5110231,,,2024-02-15,清算の結了等,,,2015-10-05,1,,,,,マルサンショウジ,0
1273,5230001013774,登記記録の閉鎖等,0,2024-02-16,2024-02-13,株式会社新石垣ファーム,,株式会社,富山県,富山市,金山新２３８番地,,16,201,9302206,,,2024-02-13,清算の結了等,,,2015-10-05,1,,,,,シンイシガキファーム,0
1280,5250002017921,登記記録の閉鎖等,0,2024-02-16,2024-02-07,有限会社北河内駅構内タクシー,,有限会社,山口県,岩国市,室の木町１丁目７番３０号,,35,208,7400021,,,2024-02-07,清算の結了等,,,2015-10-05,1,,,,,キタゴウチエキコウナイタクシー,0
1284,5280002011186,登記記録の閉鎖等,0,2024-02-16,2024-02-14,有限会社Ｈ＆Ｋカンパニー,,有限会社,島根県,雲南市,掛合町掛合２１５０番地１０,,32,209,6902701,,,2024-02-14,清算の結了等,,,2015-10-05,1,,,,,エッチアンドケイカンパニー,0
1291,5290802014932,登記記録の閉鎖等,0,2024-02-16,2024-02-14,有限会社ニシノ,,有限会社,福岡県,北九州市八幡西区,浅川学園台２丁目９番１０号,,40,109,8070871,,,2024-02-14,清算の結了等,,,2015-10-05,1,,,,,ニシノ,0
1313,5390002007000,登記記録の閉鎖等,0,2024-02-16,2024-02-14,有限会社いとう技研,,有限会社,山形県,酒田市,京田１丁目５番地の１５,,06,204,9980102,,,2024-02-14,清算の結了等,,,2015-10-05,1,,,,,イトウギケン,0
1314,5410003001544,登記記録の閉鎖等,0,2024-02-16,2024-02-08,合資会社田村酒造店,,合資会社,秋田県,鹿角市,花輪字中花輪２９番地,,05,209,0185201,,,2024-02-08,清算の結了等,,,2015-10-05,1,,,,,タムラシュゾウテン,0
1319,5430002055597,登記記録の閉鎖等,0,2024-02-16,2024-02-13,有限会社山本メリヤス,,有限会社,北海道,小樽市,若松１丁目５番１２号,,01,203,0470017,,,2024-02-13,清算の結了等,,,2015-10-05,1,,,,,,0
1326,5480002005812,登記記録の閉鎖等,0,2024-02-16,2024-02-14,有限会社学友館,,有限会社,徳島県,名西郡石井町,石井字石井１６１８番地の１２,,36,341,7793233,,,2024-02-14,清算の結了等,,,2015-10-05,1,,,,,,0
1357,6010601062820,登記記録の閉鎖等,0,2024-02-16,2024-02-09,Ｕ‐ＨＡＷＫＳ株式会社,,株式会社,東京都,江東区,豊洲４丁目９－１３－１００１,,13,108,1350061,,,2024-02-09,清算の結了等,,,2023-03-28,1,,,,,ユーホークス,0
1368,6011001129490,登記記録の閉鎖等,0,2024-02-16,2024-02-14,株式会社新春,,株式会社,東京都,目黒区,駒場１丁目２番１４号玉川ビル１Ｆ,,13,110,1530041,,,2024-02-14,清算の結了等,,,2019-08-14,1,,,,,シンシュン,0
1371,6011002036083,登記記録の閉鎖等,0,2024-02-16,2024-02-14,有限会社モンキーグラフィック,,有限会社,愛媛県,今治市,中寺２１２番地１２,,38,202,7940840,,,2024-02-14,清算の結了等,,,2015-10-05,1,,,,,モンキーグラフィック,0
1400,6013401001238,登記記録の閉鎖等,0,2024-02-16,2024-02-09,株式会社セダック,,株式会社,東京都,多摩市,鶴牧５丁目２１番地の５,,13,224,2060034,,,2024-02-09,清算の結了等,,,2015-10-05,1,,,,,セダック,0
1416,6020002064341,登記記録の閉鎖等,0,2024-02-16,2024-02-13,有限会社ケーユープランニング,,有限会社,神奈川県,横浜市鶴見区,鶴見中央２丁目１３番１４－６０２号,,14,101,2300051,,,2024-02-13,清算の結了等,,,2015-10-05,1,,,,,ケーユープランニング,0
1424,6030001072278,登記記録の閉鎖等,0,2024-02-16,2024-02-09,株式会社ＩＰＳホールディングス,,株式会社,埼玉県,東松山市,桜山台１７番地４,,11,212,3550052,,,2024-02-09,清算の結了等,,,2015-10-05,1,,,,,アイピーエスホールディングス,0
1436,6030002070066,登記記録の閉鎖等,0,2024-02-16,2024-02-13,有限会社たかはぎペットクリニック,,有限会社,埼玉県,春日部市,西金野井１００番地３２,,11,214,3440112,,,2024-02-13,清算の結了等,,,2015-10-05,1,,,,,タカハギペットクリニック,0
1438,6030002107553,登記記録の閉鎖等,0,2024-02-16,2024-02-08,有限会社宮田鉄工所,,有限会社,埼玉県,川口市,飯塚１丁目１４番２６号,,11,203,3320023,,,2024-02-08,清算の結了等,,,2015-10-05,1,,,,,ミヤタテッコウショ,0
1478,6110002033139,登記記録の閉鎖等,0,2024-02-16,2024-02-14,有限会社南雲商店,,有限会社,新潟県,南魚沼市,今町新田８６番地,,15,226,9497254,,,2024-02-14,清算の結了等,,,2015-10-05,1,,,,,ナグモショウテン,0
1496,6120102007066,登記記録の閉鎖等,0,2024-02-16,2024-02-15,有限会社トラベルサロン泉北,,有限会社,大阪府,堺市南区,小代５４６番地の１０,,27,145,5900151,,,2024-02-15,清算の結了等,,,2015-10-05,1,,,,,トラベルサロンセンボク,0
1498,6120903002505,登記記録の閉鎖等,0,2024-02-16,2024-02-14,ウェルビィン合同会社,,合同会社,大阪府,吹田市,佐竹台１丁目５番３－９０５号,,27,205,5650855,,,2024-02-14,清算の結了等,,,2018-06-05,1,,,,,ウェルビン,0
1520,6180001020016,登記記録の閉鎖等,0,2024-02-16,2024-02-09,立山建機リース株式会社,,株式会社,愛知県,名古屋市中川区,高畑５丁目２５９番地,,23,110,4540911,,,2024-02-09,清算の結了等,,,2015-10-05,1,,,,,タテヤマケンキリース,0
1549,6280005004616,登記記録の閉鎖等,0,2024-02-16,2024-02-15,法林寺,,その他の設立登記法人,島根県,江津市,金田町イ２２９番地,,32,207,6950012,,,2024-02-15,清算の結了等,,,2015-10-05,1,,,,,ホウリンジ,0
1561,6330003002252,登記記録の閉鎖等,0,2024-02-16,2024-02-08,合同会社飯田自動車電機,,合同会社,熊本県,熊本市南区,御幸笛田４丁目１４番６７号,,43,104,8614172,,,2024-02-08,清算の結了等,,,2015-10-05,1,,,,,イイダジドウシャデンキ,0
1563,6340002001477,登記記録の閉鎖等,0,2024-02-16,2024-02-15,有限会社イワイオフィス,,有限会社,鹿児島県,鹿児島市,鴨池新町２５番３－２０３号,,46,201,8900064,,,2024-02-15,清算の結了等,,,2015-10-05,1,,,,,イワイオフィス,0
1568,6360001026085,登記記録の閉鎖等,0,2024-02-16,2024-02-09,株式会社新華,,株式会社,沖縄県,名護市,大中１丁目５番１０号１０２号室,,47,209,9050017,,,2024-02-09,清算の結了等,,,2019-08-21,1,,,,,シンカ,0
1578,6390002013245,登記記録の閉鎖等,0,2024-02-16,2024-02-13,有限会社野いちご荘,,有限会社,山形県,米沢市,東１丁目７番３２－２号,,06,202,9920026,,,2024-02-13,清算の結了等,,,2015-10-05,1,,,,,,0
1585,6430001080439,登記記録の閉鎖等,0,2024-02-16,2024-02-09,株式会社ランド,,株式会社,北海道,札幌市北区,南あいの里７丁目３１番７号,,01,102,0028091,,,2024-02-09,清算の結了等,,,2019-12-11,1,,,,,ランド,0
1586,6430002054037,登記記録の閉鎖等,0,2024-02-16,2024-02-13,有限会社奥名塗装工業,,有限会社,北海道,小樽市,赤岩２丁目２９番１５号,,01,203,0470046,,,2024-02-13,清算の結了等,,,2015-10-05,1,,,,,オクナトソウコウギョウ,0
1588,6430002062163,登記記録の閉鎖等,0,2024-02-16,2024-02-13,有限会社大道牧場,,有限会社,北海道,浦河郡浦河町,字上杵臼１８１番地の１,,01,607,0570173,,,2024-02-13,清算の結了等,,,2015-10-05,1,,,,,ダイドウボクジョウ,0
1589,6430002064416,登記記録の閉鎖等,0,2024-02-16,2024-02-13,有限会社だい丸,,有限会社,北海道,室蘭市,輪西町１丁目１３番１１号,,01,205,0500085,,,2024-02-13,清算の結了等,,,2015-10-05,1,,,,,ダイマル,0
1592,6462502000772,登記記録の閉鎖等,0,2024-02-16,2024-02-15,有限会社マルヨシ増田漁業,,有限会社,北海道,目梨郡羅臼町,八木浜町１５４番地の１０,,01,694,0861841,,,2024-02-15,清算の結了等,,,2015-10-05,1,,,,,マルヨシマスダギョギョウ,0
1594,6480001004137,登記記録の閉鎖等,0,2024-02-16,2024-02-15,株式会社大和新聞店,,株式会社,徳島県,勝浦郡勝浦町,大字中角字東山８３番地３,,36,301,7714302,,,2024-02-15,清算の結了等,,,2015-10-05,1,,,,,ヤマトシンブンテン,0
1605,7010102001319,登記記録の閉鎖等,0,2024-02-16,2024-02-14,有限会社エム・シティ,,有限会社,東京都,府中市,白糸台５丁目７番地の２２,,13,206,1830011,,,2024-02-14,清算の結了等,,,2015-10-05,1,,,,,エムシティ,0
1610,7010401129364,登記記録の閉鎖等,0,2024-02-16,2024-02-07,Ｃｕｎｅｒｕ株式会社,,株式会社,東京都,港区,南青山２丁目２番１５号ウィン青山９４２,,13,103,1070062,,,2024-02-07,清算の結了等,,,2017-01-31,1,,,,,クーネル,0
1617,7010601020141,登記記録の閉鎖等,0,2024-02-16,2024-02-09,竹電工業株式会社,,株式会社,東京都,墨田区,向島１丁目１６番１２号,,13,107,1310033,,,2024-02-09,清算の結了等,,,2015-10-05,1,,,,,タケデンコウギョウ,0
1628,7010901029832,登記記録の閉鎖等,0,2024-02-16,2024-02-13,株式会社ディープ,,株式会社,東京都,世田谷区,梅丘３丁目１３番８号,,13,112,1540022,,,2024-02-13,清算の結了等,,,2015-10-05,1,,,,,ディープ,0
1647,7011702002202,登記記録の閉鎖等,0,2024-02-16,2024-02-13,有限会社大川運送店,,有限会社,東京都,江戸川区,中葛西２丁目２４番６号,,13,123,1340083,,,2024-02-13,清算の結了等,,,2015-10-05,1,,,,,オオカワウンソウテン,0
1675,7021002003750,登記記録の閉鎖等,0,2024-02-16,2024-02-13,有限会社オスカル工業,,有限会社,神奈川県,横浜市戸塚区,俣野町１１３１番地,,14,110,2450066,,,2024-02-13,清算の結了等,,,2015-10-05,1,,,,,,0
1678,7030001009163,登記記録の閉鎖等,0,2024-02-16,2024-02-05,新興印刷株式会社,,株式会社,埼玉県,さいたま市桜区,中島２丁目２１番２号,,11,106,3380822,,,2024-02-05,清算の結了等,,,2015-10-05,1,,,,,シンコウインサツ,0
1690,7030002058093,登記記録の閉鎖等,0,2024-02-16,2024-02-13,朝日タクシー株式会社,,株式会社,埼玉県,朝霞市,北原２丁目４番１６号,,11,227,3510036,,,2024-02-13,合併による解散等,8030002058704,令和６年２月１０日埼玉県朝霞市本町二丁目２１番３８号昭和交通株式会社（8030002058704）に合併し解散,2015-10-05,1,,,,,アサヒタクシー,0
1691,7030002069999,登記記録の閉鎖等,0,2024-02-16,2024-02-13,有限会社サイジョウスチール,,有限会社,埼玉県,春日部市,増富４６６番地５,,11,214,3440041,,,2024-02-13,清算の結了等,,,2015-10-05,1,,,,,サイジョウスチール,0
1710,7050003001521,登記記録の閉鎖等,0,2024-02-16,2024-02-13,合同会社茨城県ＳＳ管理委員会,00023368,合同会社,茨城県,日立市,大和田町６２６番地,,08,202,3191234,,,2024-02-13,清算の結了等,,,2015-10-05,1,,,,,イバラキケンエスエスカンリイインカイ,0
1742,7120003018830,登記記録の閉鎖等,0,2024-02-16,2024-02-08,小林靜合同会社,00122058,合同会社,大阪府,大阪市東成区,大今里西１丁目２４番１１号１階３号室,,27,115,5370014,,,2024-02-08,清算の結了等,,,2021-02-03,1,,,,,ショウリンセイ,0
1779,7180001086626,登記記録の閉鎖等,0,2024-02-16,2024-02-09,株式会社ディーケイカンパニー,,株式会社,愛知県,一宮市,時之島字堂山５番地,,23,203,4910002,,,2024-02-09,清算の結了等,,,2015-10-05,1,,,,,ディーケイカンパニー,0
1783,7180002064333,登記記録の閉鎖等,0,2024-02-16,2024-02-01,有限会社瑞穂商店,,有限会社,愛知県,豊明市,阿野町坂部３９番地の５,,23,229,4701147,,,2024-02-01,清算の結了等,,,2015-10-05,1,,,,,ミズホショウテン,0
1790,7180301037064,登記記録の閉鎖等,0,2024-02-16,2024-02-13,株式会社Ｔ・Ｓｃｏｍｍｕｎｉｔｙ,,株式会社,愛知県,刈谷市,今川町山脇１５－１,,23,210,4480005,,,2024-02-13,清算の結了等,,,2023-02-02,1,,,,,ティーエスコミュニティ,0
1810,7240002001131,登記記録の閉鎖等,0,2024-02-16,2024-02-02,有限会社イシイ設計,,有限会社,広島県,広島市安佐南区,伴中央６丁目１６番１－１０６号,,34,105,7313165,,,2024-02-02,清算の結了等,,,2015-10-05,1,,,,,イシイセッケイ,0
1819,7260001021715,登記記録の閉鎖等,0,2024-02-16,2024-02-09,モリシタ株式会社,,株式会社,岡山県,備前市,日生町日生２４３番地,,33,211,7013204,,,2024-02-09,清算の結了等,,,2015-10-05,1,,,,,モリシタ,0
1833,7330001008655,登記記録の閉鎖等,0,2024-02-16,2024-02-14,株式会社寺本瓦,,株式会社,熊本県,熊本市南区,富合町南田尻１８５番地３,,43,104,8614155,,,2024-02-14,清算の結了等,,,2015-10-05,1,,,,,テラモトカワラ,0
1838,7340005000839,登記記録の閉鎖等,0,2024-02-16,2024-02-15,鹿児島鮮魚協同組合,,その他の設立登記法人,鹿児島県,鹿児島市,城南町３７番地２,,46,201,8920835,,,2024-02-15,清算の結了等,,,2015-10-05,1,,,,,カゴシマセンギョ,0
1857,7430001083093,登記記録の閉鎖等,0,2024-02-16,2024-02-01,株式会社アミティエ,,株式会社,北海道,札幌市東区,東苗穂八条３丁目１５番１号,,01,103,0070808,,,2024-02-01,合併による解散等,6430001072989,令和５年１２月３１日札幌市東区東苗穂八条三丁目１５番１号株式会社エアフォルク（6430001072989）に合併し解散,2021-01-07,1,,,,,アミティエ,0
1861,7430002055133,登記記録の閉鎖等,0,2024-02-16,2024-02-13,有限会社ベーカリーシヨツプクリハラ,,有限会社,北海道,小樽市,入船２丁目５番１号,,01,203,0470021,,,2024-02-13,清算の結了等,,,2015-10-05,1,,,,,ベーカリーシヨツプクリハラ,0
1866,7470002004524,登記記録の閉鎖等,0,2024-02-16,2024-02-09,有限会社谷本ビルトハウス,,有限会社,香川県,高松市,木太町１８２１番地５,,37,201,7600080,,,2024-02-09,清算の結了等,,,2023-12-12,1,,,,,タニモトビルトハウス,0
1881,8010001190625,登記記録の閉鎖等,0,2024-02-16,2024-02-13,株式会社つなぐと,,株式会社,東京都,品川区,東五反田２丁目５－２ＴＨＥＣＡＳＫＧＯＴＡＮＤＡ,,13,109,1410022,,,2024-02-13,清算の結了等,,,2018-04-02,1,,,,,ツナグト,0
1893,8010401110125,登記記録の閉鎖等,0,2024-02-16,2024-02-09,株式会社ＨＣ勝島町住宅,,株式会社,東京都,港区,芝２丁目３２番１号,,13,103,1050014,,,2024-02-09,清算の結了等,,,2015-10-05,1,,,,,エイチシーカツシマチョウジュウタク,0
1900,8010601058016,登記記録の閉鎖等,0,2024-02-16,2024-02-09,ブリッジズ株式会社,,株式会社,東京都,江東区,青海２丁目７番４号ｔｈｅＳＯＨＯ１３１０,,13,108,1350064,,,2024-02-09,清算の結了等,,,2020-09-23,1,,,,,ブリッジズ,0
1902,8010602002988,登記記録の閉鎖等,0,2024-02-16,2024-02-09,有限会社酒寮日本盛,,有限会社,東京都,江東区,森下１丁目６番１１号,,13,108,1350004,,,2024-02-09,清算の結了等,,,2015-10-05,1,,,,,シュリョウニホンザカリ,0
1928,8011201014144,登記記録の閉鎖等,0,2024-02-16,2024-02-14,株式会社モナド,,株式会社,東京都,目黒区,平町１丁目９番５号,,13,110,1520032,,,2024-02-14,清算の結了等,,,2015-10-05,1,,,,,モナド,0
1943,8011801033667,登記記録の閉鎖等,0,2024-02-16,2024-02-07,鴻運貿易株式会社,,株式会社,東京都,練馬区,下石神井４丁目３３－７,,13,120,1770042,,,2024-02-07,清算の結了等,,,2017-07-28,1,,,,,コウウンボウエキ,0
1990,8030002021488,登記記録の閉鎖等,0,2024-02-16,2024-02-13,有限会社トライ産業,,有限会社,埼玉県,さいたま市岩槻区,東岩槻６丁目５番地１０,,11,110,3390005,,,2024-02-13,清算の結了等,,,2015-10-05,1,,,,,トライサンギョウ,0
2014,8060001001471,登記記録の閉鎖等,0,2024-02-16,2024-02-13,熊谷商事株式会社,,株式会社,栃木県,宇都宮市,中戸祭１丁目１番４９号,,09,201,3200057,,,2024-02-13,清算の結了等,,,2015-10-05,1,,,,,クマガイショウジ,0
2019,8070005001640,登記記録の閉鎖等,0,2024-02-16,2024-02-09,特定非営利活動法人好古堂,,その他の設立登記法人,群馬県,前橋市,元総社町６７番地,,10,201,3710846,,,2024-02-09,清算の結了等,,,2015-10-05,1,,,,,コウコドウ,0
2029,8120001222210,登記記録の閉鎖等,0,2024-02-16,2024-02-13,株式会社土井保険事務所,,株式会社,大阪府,大阪市住吉区,長峡町６番９号,,27,120,5580044,,,2024-02-13,清算の結了等,,,2019-07-09,1,,,,,ドイホケンジムショ,0
2041,8120003019555,登記記録の閉鎖等,0,2024-02-16,2024-02-09,合同会社ひだまり,,合同会社,大阪府,大阪市淀川区,西中島３丁目２０番８号,,27,123,5320011,,,2024-02-09,清算の結了等,,,2021-06-04,1,,,,,ヒダマリ,0
2052,8120901032907,登記記録の閉鎖等,0,2024-02-16,2024-02-14,株式会社ＮＩＳ,,株式会社,大阪府,大阪市中央区,南船場２丁目３番２号南船場ハートビル１３階,,27,128,5420081,,,2024-02-14,清算の結了等,,,2015-10-05,1,,,,,エヌアイエス,0
2053,8120903000028,登記記録の閉鎖等,0,2024-02-16,2024-02-15,合資会社エフエイチシィ電工,,合資会社,大阪府,茨木市,下中条町１４番１３号,,27,211,5670886,,,2024-02-15,清算の結了等,,,2015-10-05,1,,,,,,0
2074,8160001004241,登記記録の閉鎖等,0,2024-02-16,2024-02-15,株式会社亀屋利光,,株式会社,滋賀県,大津市,大江５丁目２４番３号,,25,201,5202141,,,2024-02-15,清算の結了等,,,2015-10-05,1,,,,,カメヤトシミツ,0
2087,8180301024417,登記記録の閉鎖等,0,2024-02-16,2024-02-13,株式会社あんぜん代行,,株式会社,愛知県,豊田市,千田町大洞５番の内第１地,,23,211,4442606,,,2024-02-13,清算の結了等,,,2015-10-05,1,,,,,アンゼンダイコウ,0
2092,8200001019103,登記記録の閉鎖等,0,2024-02-16,2024-02-14,桑田製菓株式会社,,株式会社,岐阜県,関市,豊岡町１丁目１番３３号,,21,205,5013916,,,2024-02-14,清算の結了等,,,2015-10-05,1,,,,,クワタセイカ,0
2108,8290001078727,登記記録の閉鎖等,0,2024-02-16,2024-02-09,株式会社凜テックス,,株式会社,福岡県,古賀市,薬王寺１７４３－４,,40,223,8113124,,,2024-02-09,清算の結了等,,,2017-08-10,1,,,,,リンテックス,0
2134,8380002030058,登記記録の閉鎖等,0,2024-02-16,2024-02-09,有限会社三商,,有限会社,福島県,双葉郡浪江町,大字下津島字小塚６３番地１,,07,547,9791756,,,2024-02-09,合併による解散等,3380001024536,令和６年２月１日福島市飯坂町字八景５番地の６株式会社タカラプロパティ（3380001024536）に合併し解散,2015-10-05,1,,,,,サンショウ,0
2140,8420001005543,登記記録の閉鎖等,0,2024-02-16,2024-02-09,株式会社アオキ商事,,株式会社,青森県,八戸市,石堂２丁目１２番７号,,02,203,0391165,,,2024-02-09,清算の結了等,,,2015-10-05,1,,,,,アオキショウジ,0
2142,8430002053994,登記記録の閉鎖等,0,2024-02-16,2024-02-13,王子加工有限会社,,有限会社,北海道,小樽市,花園４丁目９番１２号,,01,203,0470024,,,2024-02-13,清算の結了等,,,2015-10-05,1,,,,,,0
2163,9010102000772,登記記録の閉鎖等,0,2024-02-16,2024-02-14,有限会社一美,,有限会社,東京都,八王子市,本町１９番９号,,13,201,1920066,,,2024-02-14,清算の結了等,,,2015-10-05,1,,,,,カズミ,0
2177,9010701026441,登記記録の閉鎖等,0,2024-02-16,2024-02-09,株式会社輝水グループ,,株式会社,東京都,千代田区,鍛冶町１丁目５番２号,,13,101,1010044,,,2024-02-09,清算の結了等,,,2015-10-05,1,,,,,キスイグループ,0
2179,9010702000222,登記記録の閉鎖等,0,2024-02-16,2024-02-13,有限会社アゾート,,有限会社,東京都,品川区,平塚２丁目１５番４号,,13,109,1420051,,,2024-02-13,清算の結了等,,,2015-10-05,1,,,,,アゾート,0
2209,9011702000781,登記記録の閉鎖等,0,2024-02-16,2024-02-13,有限会社飯島穴＿工業所,00056568,有限会社,東京都,江戸川区,西一之江４丁目８番５号,,13,123,1320023,,,2024-02-13,清算の結了等,,,2015-10-05,1,,,,,イイジマアナカガリコウギョウショ,0
2243,9030001039316,登記記録の閉鎖等,0,2024-02-16,2024-02-14,株式会社ケイ・インパクト,,株式会社,埼玉県,三郷市,早稲田５丁目１７番地２６,,11,237,3410018,,,2024-02-14,清算の結了等,,,2015-10-05,1,,,,,ケイインパクト,0
2258,9030005005917,登記記録の閉鎖等,0,2024-02-16,2024-02-09,医療法人社団クマガイこどもクリニック,,その他の設立登記法人,埼玉県,草加市,氷川町２１０５番地６,,11,221,3400034,,,2024-02-09,清算の結了等,,,2015-10-05,1,,,,,クマガイコドモクリニック,0
2262,9040002025801,登記記録の閉鎖等,0,2024-02-16,2024-02-09,有限会社村上紙工,,有限会社,千葉県,船橋市,みやぎ台１丁目８番３６号,,12,204,2740804,,,2024-02-09,清算の結了等,,,2015-10-05,1,,,,,ムラカミシコウ,0
2263,9040002036773,登記記録の閉鎖等,0,2024-02-16,2024-02-13,有限会社丸山工業,,有限会社,千葉県,市川市,堀之内５丁目１５番２号,,12,203,2720837,,,2024-02-13,清算の結了等,,,2015-10-05,1,,,,,マルヤマコウギョウ,0
2273,9050002043736,登記記録の閉鎖等,0,2024-02-16,2024-02-01,有限会社関城交通,,有限会社,茨城県,筑西市,辻１５４３番地の３,00023288,08,227,3080103,,,2024-02-01,清算の結了等,,,2015-10-05,1,,,,,セキジョウコウツウ,0
2277,9070001005999,登記記録の閉鎖等,0,2024-02-16,2024-02-13,アイカワ不動産株式会社,,株式会社,群馬県,高崎市,下小鳥町３５５番地,,10,202,3700074,,,2024-02-13,清算の結了等,,,2015-10-05,1,,,,,アイカワフドウサン,0
2285,9080101021648,登記記録の閉鎖等,0,2024-02-16,2024-02-13,株式会社ひもの浜,,株式会社,静岡県,伊東市,吉田２番地の１４,,22,208,4140051,,,2024-02-13,清算の結了等,,,2020-03-10,1,,,,,ヒモノハマ,0
2288,9080401013386,登記記録の閉鎖等,0,2024-02-16,2024-02-15,株式会社アライアンス,,株式会社,静岡県,浜松市中央区,市野町４１１番地の５,,22,138,4350051,,,2024-02-15,清算の結了等,,,2015-10-05,1,,,,,,0
2291,9080402003840,登記記録の閉鎖等,0,2024-02-16,2024-02-15,有限会社しゆん助寿し,,有限会社,静岡県,浜松市中央区,和合町２７番地の２９６,,22,138,4338125,,,2024-02-15,清算の結了等,,,2015-10-05,1,,,,,シユンスケズシ,0
2330,9140002038438,登記記録の閉鎖等,0,2024-02-16,2024-02-14,有限会社まごころ企画,,有限会社,兵庫県,加古川市,山手２丁目２９番２０号,,28,210,6750002,,,2024-02-14,清算の結了等,,,2015-10-05,1,,,,,マゴコロキカク,0
2331,9150002003382,登記記録の閉鎖等,0,2024-02-16,2024-02-15,有限会社グッド・スペース,,有限会社,奈良県,奈良市,山町８２２番地の２,,29,201,6308434,,,2024-02-15,清算の結了等,,,2015-10-05,1,,,,,,0
2349,9200001017832,登記記録の閉鎖等,0,2024-02-16,2024-02-14,可茂都市開発株式会社,,株式会社,岐阜県,美濃加茂市,下米田町小山８１８番地２,,21,211,5050017,,,2024-02-14,清算の結了等,,,2015-10-05,1,,,,,カモトシカイハツ,0
2350,9200002000003,登記記録の閉鎖等,0,2024-02-16,2024-02-14,有限会社葵,,有限会社,岐阜県,岐阜市,長良杉乃町４丁目５番地の２,,21,201,5020046,,,2024-02-14,清算の結了等,,,2015-10-05,1,,,,,アオイ,0
2352,9220003003127,登記記録の閉鎖等,0,2024-02-16,2024-02-13,合同会社コロ,,合同会社,石川県,白山市,山島台６丁目７７番地,,17,210,9240836,,,2024-02-13,清算の結了等,,,2021-10-07,1,,,,,コロ,0
2360,9260001004874,登記記録の閉鎖等,0,2024-02-16,2024-02-13,中山下黒住ビル株式会社,,株式会社,岡山県,岡山市北区,中山下１丁目１１番４０号,,33,101,7000821,,,2024-02-13,清算の結了等,,,2015-10-05,1,,,,,ナカサンゲクロズミビル,0
2361,9260001029772,登記記録の閉鎖等,0,2024-02-16,2024-02-13,株式会社和顔施,,株式会社,岡山県,津山市,一方１０２番地１,,33,203,7080883,,,2024-02-13,清算の結了等,,,2016-07-14,1,,,,,ワガンセ,0
2364,9280002010614,登記記録の閉鎖等,0,2024-02-16,2024-02-14,有限会社吉村工務店,,有限会社,島根県,益田市,匹見町澄川イ２２５１番地２,,32,204,6981221,,,2024-02-14,清算の結了等,,,2015-10-05,1,,,,,ヨシムラコウムテン,0
2394,9410001006780,登記記録の閉鎖等,0,2024-02-16,2024-02-07,ＣＳＥ株式会社,,株式会社,秋田県,鹿角市,八幡平字大里下モ川原２００番地１,,05,209,0185141,,,2024-02-07,清算の結了等,,,2015-10-05,1,,,,,シーエスイー,0
2397,9430001038302,登記記録の閉鎖等,0,2024-02-16,2024-02-13,株式会社リーベンホーム,,株式会社,北海道,札幌市北区,篠路町拓北２番地２７,,01,102,0028054,,,2024-02-13,清算の結了等,,,2015-10-05,1,,,,,リーベンホーム,0
2401,9460302000890,登記記録の閉鎖等,0,2024-02-16,2024-02-15,有限会社十亀硝子建材,,有限会社,北海道,北見市,北上１８番地４０,,01,208,0991583,,,2024-02-15,清算の結了等,,,2015-10-05,1,,,,,,0
