sequenceNumber,corporateNumber,process,correct,updateDate,changeDate,name,nameImageId,kind,prefectureName,cityName,streetNumber,addressImageId,prefectureCode,cityCode,postCode,addressOutside,addressOutsideImageId,closeDate,closeCause,successorCorporateNumber,changeCause,assignmentDate,latest,enName,enPrefectureName,enCityName,enAddressOutside,furigana,hihyoji
9,1010001236632,登記記録の閉鎖等,0,2024-06-27,2024-06-14,株式会社濱田,,株式会社,東京都,千代田区,有楽町１丁目９番１号,,13,101,1000006,,,2024-06-14,清算の結了等,,,2023-07-10,1,,,,,ハマダ,0
21,1010701000940,登記記録の閉鎖等,0,2024-06-27,2024-06-25,株式会社一広社,,株式会社,東京都,品川区,西大井５丁目１７番１３号,,13,109,1400015,,,2024-06-25,清算の結了等,,,2015-10-05,1,,,,,イッコウシャ,0
22,1010701025806,登記記録の閉鎖等,0,2024-06-27,2024-06-17,株式会社繁盛塾,,株式会社,東京都,千代田区,丸の内１丁目１番３号,,13,101,1000005,,,2024-06-17,清算の結了等,,,2015-10-05,1,,,,,ハンジョウジュク,0
29,1011001132920,登記記録の閉鎖等,0,2024-06-27,2024-06-13,株式会社Ｕｒａｂｅ　Ｈｏｌｄｉｎｇｓ,,株式会社,千葉県,流山市,大字中野久木５５－１ＧＬＰＡＬＦＡＬＩＮＫ流山６,,12,220,2700116,,,2024-06-13,清算の結了等,,,2020-03-16,1,,,,,ウラベホールディングス,0
40,1011203000099,登記記録の閉鎖等,0,2024-06-27,2024-06-26,合同会社坂東銘木店,,合同会社,東京都,中野区,大和町４丁目４０番１号,,13,114,1650034,,,2024-06-26,清算の結了等,,,2015-10-05,1,,,,,バンドウメイボクテン,0
52,1011601019526,登記記録の閉鎖等,0,2024-06-27,2024-06-24,ｉＮＡ株式会社,,株式会社,東京都,東久留米市,浅間町２丁目２６番１５号,,13,222,2030012,,,2024-06-24,清算の結了等,,,2015-10-05,1,,,,,,0
68,1021001022773,登記記録の閉鎖等,0,2024-06-27,2024-06-25,広美産業株式会社,,株式会社,神奈川県,秦野市,今泉３２５番地の１,,14,211,2570014,,,2024-06-25,清算の結了等,,,2015-10-05,1,,,,,ヒロミサンギョウ,0
69,1021001056185,登記記録の閉鎖等,0,2024-06-27,2024-06-25,入居保証株式会社,,株式会社,神奈川県,平塚市,老松町４番１３号,,14,203,2540033,,,2024-06-25,清算の結了等,,,2015-10-05,1,,,,,ニュウキョホショウ,0
73,1021005004578,登記記録の閉鎖等,0,2024-06-27,2024-06-25,特定非営利活動法人水無川芝桜の会,,その他の設立登記法人,神奈川県,秦野市,松原町３番３６号,,14,211,2591313,,,2024-06-25,清算の結了等,,,2015-10-05,1,,,,,ミナセシバザクラノカイ,0
80,1040001003880,登記記録の閉鎖等,0,2024-06-27,2024-06-14,総武電機工業株式会社,,株式会社,千葉県,千葉市稲毛区,稲毛台町１７番３号,,12,103,2630032,,,2024-06-14,清算の結了等,,,2015-10-05,1,,,,,ソウブデンキコウギョウ,0
82,1040001097064,登記記録の閉鎖等,0,2024-06-27,2024-06-17,株式会社清風,,株式会社,千葉県,柏市,根戸５０３番地１０４サカエハイツ１１号,,12,217,2770831,,,2024-06-17,清算の結了等,,,2016-09-28,1,,,,,キヨカ,0
91,1050005006053,登記記録の閉鎖等,0,2024-06-27,2024-06-24,協同組合鹿南地区エルピーガス保安センター,,その他の設立登記法人,茨城県,神栖市,神栖２丁目３番地４５号ラフォーレ神栖２０２号室,,08,232,3140143,,,2024-06-24,清算の結了等,,,2015-10-05,1,,,,,カナンチクエルピーガスホアンセンター,0
109,1100002015043,登記記録の閉鎖等,0,2024-06-27,2024-06-12,有限会社ルミナス,,有限会社,長野県,上田市,福田６１番地７,,20,203,3861104,,,2024-06-12,清算の結了等,,,2015-10-05,1,,,,,ルミナス,0
128,1120002002642,登記記録の閉鎖等,0,2024-06-27,2024-06-26,有限会社若草屋本舗,,有限会社,大阪府,大阪市西成区,天神ノ森１丁目９番４号,,27,122,5570013,,,2024-06-26,清算の結了等,,,2015-10-05,1,,,,,ワカクサヤホンポ,0
140,1130002009050,登記記録の閉鎖等,0,2024-06-27,2024-06-25,有限会社ディスクハウスオズ,,有限会社,京都府,京都市西京区,大原野東境谷町２丁目５番地８ラクセーヌ専門店内１１８,,26,111,6101143,,,2024-06-25,清算の結了等,,,2015-10-05,1,,,,,ディスクハウスオズ,0
182,1290001074138,登記記録の閉鎖等,0,2024-06-27,2024-05-31,日本ミライル株式会社,,株式会社,福岡県,福岡市中央区,薬院４丁目１番４－１－３０２号,,40,133,8100022,,,2024-05-31,清算の結了等,,,2016-06-06,1,,,,,ニホンミライル,0
186,1290001102245,登記記録の閉鎖等,0,2024-06-27,2024-05-31,株式会社ＦｌｅｘｉＢｙ,,株式会社,福岡県,福岡市中央区,大名２丁目６番１１号,,40,133,8100041,,,2024-05-31,清算の結了等,,,2023-07-11,1,,,,,フレキシバイ,0
195,1320003001805,登記記録の閉鎖等,0,2024-06-27,2024-06-14,合同会社Ｋ－Ｗｏｒｋｓ,,合同会社,大分県,大分市,大字中判田１５番地の５６,,44,201,8701113,,,2024-06-14,清算の結了等,,,2015-10-05,1,,,,,,0
207,1380002024875,登記記録の閉鎖等,0,2024-06-27,2024-06-20,有限会社鶴の家旅館,,有限会社,福島県,いわき市,平中平窪２丁目１番地の５,,07,204,9708002,,,2024-06-20,清算の結了等,,,2015-10-05,1,,,,,ツルノヤリョカン,0
208,1380002025444,登記記録の閉鎖等,0,2024-06-27,2024-06-19,有限会社ハセガワクリーンガス,,有限会社,福島県,いわき市,四倉町上仁井田字雁又９番地の１,,07,204,9790202,,,2024-06-19,清算の結了等,,,2015-10-05,1,,,,,ハセガワクリーンガス,0
225,1460105002217,登記記録の閉鎖等,0,2024-06-27,2024-06-24,特定非営利活動法人池産池消自然エネ研修所,,その他の設立登記法人,北海道,中川郡池田町,字昭栄２４９番地の６,,01,644,0830047,,,2024-06-24,清算の結了等,,,2021-05-20,1,,,,,チサンチショウシゼンエネケンシュウジョ,0
257,2010801000930,登記記録の閉鎖等,0,2024-06-27,2024-06-21,株式会社石原製作所,,株式会社,東京都,大田区,南六郷２丁目２４番２号,,13,111,1440045,,,2024-06-21,清算の結了等,,,2015-10-05,1,,,,,イシハラセイサクショ,0
266,2011001026015,登記記録の閉鎖等,0,2024-06-27,2024-06-04,株式会社丹後通商,,株式会社,東京都,渋谷区,東２丁目２５－３６、４０８号,,13,113,1500011,,,2024-06-04,清算の結了等,,,2015-10-05,1,,,,,タンゴツウショウ,0
282,2011301023141,登記記録の閉鎖等,0,2024-06-27,2024-06-20,中盛東京株式会社,,株式会社,東京都,杉並区,宮前２丁目２１番６号,,13,115,1680081,,,2024-06-20,清算の結了等,,,2017-05-18,1,,,,,ナカモリトウキョウ,0
301,2013402006297,登記記録の閉鎖等,0,2024-06-27,2024-06-24,有限会社草原舎,,有限会社,東京都,多摩市,和田１５２９番地の１０,,13,224,2060001,,,2024-06-24,清算の結了等,,,2015-10-05,1,,,,,ソウゲンシャ,0
302,2020001024250,登記記録の閉鎖等,0,2024-06-27,2024-06-13,株式会社ビデオストーン,,株式会社,神奈川県,横浜市神奈川区,松本町２丁目１８番３号澤野ビル１階,,14,102,2210841,,,2024-06-13,清算の結了等,,,2015-10-05,1,,,,,ビデオストーン,0
309,2020002068890,登記記録の閉鎖等,0,2024-06-27,2024-06-13,有限会社こだま舎,,有限会社,神奈川県,横浜市南区,宿町２丁目４０番地大和ビル１１７号,,14,105,2320017,,,2024-06-13,清算の結了等,,,2015-10-05,1,,,,,コダマシャ,0
322,2021002031260,登記記録の閉鎖等,0,2024-06-27,2024-06-24,有限会社神田屋,,有限会社,神奈川県,厚木市,厚木町３番３号,,14,212,2430011,,,2024-06-24,清算の結了等,,,2015-10-05,1,,,,,カンダヤ,0
326,2021005008917,登記記録の閉鎖等,0,2024-06-27,2024-06-13,ＮＰＯ法人エッグボール,,その他の設立登記法人,東京都,港区,高輪４丁目２４番５５－３１１号,,13,103,1080074,,,2024-06-13,清算の結了等,,,2015-10-05,1,,,,,エッグボール,0
350,2110001032731,登記記録の閉鎖等,0,2024-06-27,2024-06-20,株式会社栗昭,,株式会社,新潟県,三条市,横町２丁目８番１５号,,15,204,9550064,,,2024-06-20,清算の結了等,,,2017-09-28,1,,,,,クリショウ,0
352,2120001156323,登記記録の閉鎖等,0,2024-06-27,2024-06-26,株式会社東光電子製作所,,株式会社,大阪府,守口市,京阪本通１丁目２番７－７０４号,,27,209,5700083,,,2024-06-26,清算の結了等,,,2015-10-05,1,,,,,トウコウデンシセイサクショ,0
362,2120002046507,登記記録の閉鎖等,0,2024-06-27,2024-06-24,有限会社スタジオピックス,,有限会社,大阪府,大阪市東住吉区,駒川１丁目１５番１号,,27,121,5460043,,,2024-06-24,清算の結了等,,,2015-10-05,1,,,,,スタジオピックス,0
376,2130002032191,登記記録の閉鎖等,0,2024-06-27,2024-06-25,有限会社ケイユー,,有限会社,京都府,与謝郡与謝野町,字三河内６４番地の１,,26,465,6292313,,,2024-06-25,清算の結了等,,,2015-10-05,1,,,,,ケイユー,0
398,2200001012039,登記記録の閉鎖等,0,2024-06-27,2024-06-24,株式会社小原鉄筋,,株式会社,岐阜県,羽島市,堀津町前谷４０番地４,,21,209,5016334,,,2024-06-24,清算の結了等,,,2015-10-05,1,,,,,,0
404,2230001001105,登記記録の閉鎖等,0,2024-06-27,2024-06-25,三和食品株式会社,,株式会社,富山県,富山市,中市１丁目７番１３号,,16,201,9398005,,,2024-06-25,清算の結了等,,,2015-10-05,1,,,,,サンワショクヒン,0
427,2340001006935,登記記録の閉鎖等,0,2024-06-27,2024-06-21,鶴丸不動産株式会社,,株式会社,鹿児島県,鹿児島市,宇宿４丁目３６番３号,,46,201,8900073,,,2024-06-21,清算の結了等,,,2015-10-05,1,,,,,ツルマルフドウサン,0
436,2370001039255,登記記録の閉鎖等,0,2024-06-27,2024-06-17,ケイズゴルフ株式会社,,株式会社,宮城県,仙台市青葉区,一番町３丁目１０番１４号,,04,101,9800811,,,2024-06-17,清算の結了等,,,2016-03-04,1,,,,,,0
457,2460101004546,登記記録の閉鎖等,0,2024-06-27,2024-06-25,株式会社保険のアシスト,,株式会社,北海道,帯広市,西十七条北１丁目３０番４号,,01,207,0800047,,,2024-06-25,清算の結了等,,,2015-10-05,1,,,,,ホケンノアシスト,0
459,2470005002323,登記記録の閉鎖等,0,2024-06-27,2024-06-26,特定非営利活動法人動物愛護かがわ,,その他の設立登記法人,香川県,木田郡三木町,大字井戸１７１４番地２,,37,341,7610823,,,2024-06-26,清算の結了等,,,2015-10-05,1,,,,,ドウブツアイゴカガワ,0
463,2500001015250,登記記録の閉鎖等,0,2024-06-27,2024-06-20,株式会社明成,,株式会社,愛媛県,四国中央市,妻鳥町１７０６番地１,,38,213,7990113,,,2024-06-20,清算の結了等,,,2015-10-05,1,,,,,メイセイ,0
473,3010001199233,登記記録の閉鎖等,0,2024-06-27,2024-06-25,エンデバー・ユナイテッド・パートナーズ・１８株式会社,,株式会社,福岡県,中間市,大字中底井野字砂堀１１６４番地の２９,,40,215,8090002,,,2024-06-25,合併による解散等,1290801011406,令和６年６月２５日福岡県中間市大字中底井野字砂堀１１６４番地の２９株式会社中條工務店（1290801011406）に合併し解散,2019-03-14,1,,,,,エンデバーユナイテッドパートナーズジュウハチ,0
482,3010003031427,登記記録の閉鎖等,0,2024-06-27,2024-06-14,Ｅｖｏｌｖｅ　Ｓｋａｔｅｂｏａｒｄｓ　Ｊａｐａｎ合同会社,,合同会社,東京都,中央区,銀座１丁目１６番７号銀座大栄ビル５階／６階,,13,102,1040061,,,2024-06-14,清算の結了等,,,2020-01-15,1,,,,,エボルブスケートボーズジャパン,0
483,3010005021046,登記記録の閉鎖等,0,2024-06-27,2024-06-20,特定非営利活動法人心創り・智慧創り研究所,,その他の設立登記法人,東京都,中央区,湊３丁目８番１－２００８号,,13,102,1040043,,,2024-06-20,清算の結了等,,,2015-10-05,1,,,,,ココロヅクリチエヅクリケンキュウジョ,0
496,3010405017791,登記記録の閉鎖等,0,2024-06-27,2024-06-14,一般社団法人ＪＣＳＭ,,その他の設立登記法人,東京都,港区,赤坂２丁目１９番８号,,13,103,1070052,,,2024-06-14,清算の結了等,,,2019-06-21,1,,,,,ジェイシイエスエム,0
528,3011101077089,登記記録の閉鎖等,0,2024-06-27,2024-06-12,コインチェックテクノロジーズ株式会社,,株式会社,東京都,港区,赤坂１丁目１２番３２号,,13,103,1070052,,,2024-06-12,清算の結了等,,,2016-05-25,1,,,,,コインチェックテクノロジーズ,0
542,3011502004674,登記記録の閉鎖等,0,2024-06-27,2024-06-26,有限会社白栄舎,,有限会社,東京都,北区,田端３丁目９番６号,,13,117,1140014,,,2024-06-26,清算の結了等,,,2015-10-05,1,,,,,ハクエイシャ,0
551,3012401037872,登記記録の閉鎖等,0,2024-06-27,2024-06-25,株式会社かなしゃ,,株式会社,東京都,三鷹市,下連雀３丁目２８番２１号ＵＲ三鷹駅前第２アパート地下１階Ｂ号室,,13,204,1810013,,,2024-06-25,清算の結了等,,,2021-05-17,1,,,,,カナシャ,0
558,3020001065285,登記記録の閉鎖等,0,2024-06-27,2024-06-14,湘南鉱産トレーディング株式会社,,株式会社,神奈川県,川崎市麻生区,上麻生２丁目７番１号,,14,137,2150021,,,2024-06-14,清算の結了等,,,2015-10-05,1,,,,,ショウナンコウサントレーディング,0
576,3030001138825,登記記録の閉鎖等,0,2024-06-27,2024-06-21,株式会社今井,,株式会社,埼玉県,さいたま市緑区,山崎１丁目２番１７号,,11,109,3360903,,,2024-06-21,清算の結了等,,,2020-10-20,1,,,,,イマイ,0
603,3090002008088,登記記録の閉鎖等,0,2024-06-27,2024-06-21,有限会社あすか,,有限会社,山梨県,笛吹市,一宮町金田１１１４番地,,19,211,4050079,,,2024-06-21,清算の結了等,,,2015-10-05,1,,,,,,0
615,3120101054905,登記記録の閉鎖等,0,2024-06-27,2024-06-25,株式会社メディカルパートナーズｋｍａ,,株式会社,大阪府,茨木市,山手台３丁目２６番４３号,,27,211,5670009,,,2024-06-25,清算の結了等,,,2016-06-13,1,,,,,メディカルパートナーズケーエムエー,0
621,3140001097531,登記記録の閉鎖等,0,2024-06-27,2024-06-17,株式会社焼肉の牛太郎,,株式会社,兵庫県,神戸市中央区,港島中町６丁目２－１,,28,110,6500046,,,2024-06-17,清算の結了等,,,2015-10-05,1,,,,,ヤキニクノギュウタロウ,0
622,3160001005616,登記記録の閉鎖等,0,2024-06-27,2024-06-24,株式会社やすじ,,株式会社,滋賀県,甲賀市,信楽町長野５２２番地,,25,209,5291851,,,2024-06-24,清算の結了等,,,2015-10-05,1,,,,,ヤスジ,0
625,3180005015023,登記記録の閉鎖等,0,2024-06-27,2024-06-17,特定非営利活動法人ひなた,,その他の設立登記法人,愛知県,名古屋市西区,上名古屋２丁目１５番１２号,,23,104,4510025,,,2024-06-17,清算の結了等,,,2015-10-05,1,,,,,ヒナタ,0
633,3230002005310,登記記録の閉鎖等,0,2024-06-27,2024-06-24,有限会社アンビジョン,,有限会社,富山県,富山市,森３丁目１１番４５号,,16,201,9318332,,,2024-06-24,清算の結了等,,,2015-10-05,1,,,,,アンビジョン,0
638,3250002001308,登記記録の閉鎖等,0,2024-06-27,2024-06-26,有限会社福永配管所,,有限会社,山口県,山口市,矢原１２０５番地１,,35,203,7530861,,,2024-06-26,清算の結了等,,,2015-10-05,1,,,,,フクナガハイカンショ,0
642,3290002036977,登記記録の閉鎖等,0,2024-06-27,2024-05-31,有限会社藤木電設,,有限会社,福岡県,糟屋郡粕屋町,内橋東３丁目４番８号,,40,349,8112320,,,2024-05-31,清算の結了等,,,2015-10-05,1,,,,,フジキデンセツ,0
655,3320001005599,登記記録の閉鎖等,0,2024-06-27,2024-06-14,株式会社ゴトウエンジニア電工,,株式会社,大分県,大分市,大字木上９２番地の８,,44,201,8701161,,,2024-06-14,清算の結了等,,,2015-10-05,1,,,,,ゴトウエンジニアデンコウ,0
690,4010001005910,登記記録の閉鎖等,0,2024-06-27,2024-06-19,株式会社日本出版サービス,,株式会社,東京都,文京区,本駒込２丁目１番３号,,13,105,1130021,,,2024-06-19,清算の結了等,,,2015-10-05,1,,,,,ニホンシュッパンサービス,0
698,4010001197789,登記記録の閉鎖等,0,2024-06-27,2024-06-17,サーカス・インターナショナル・アーツ株式会社,,株式会社,東京都,千代田区,西神田３丁目３番６号,,13,101,1010065,,,2024-06-17,清算の結了等,,,2019-01-24,1,,,,,サーカスインターナショナルアーツ,0
699,4010001212622,登記記録の閉鎖等,0,2024-06-27,2024-06-17,株式会社ＣＡＰＵＰ,,株式会社,東京都,中央区,日本橋大伝馬町１３－７日本橋大富ビル,,13,102,1030011,,,2024-06-17,清算の結了等,,,2020-10-01,1,,,,,キャップアップ,0
709,4010401149051,登記記録の閉鎖等,0,2024-06-27,2024-06-17,ビューティーキャピタル株式会社,,株式会社,東京都,中央区,日本橋兜町８番１－２０４号,,13,102,1030026,,,2024-06-17,清算の結了等,,,2019-11-08,1,,,,,ビューティーキャピタル,0
713,4010501033403,登記記録の閉鎖等,0,2024-06-27,2024-06-24,株式会社エッセンコーポレーション,,株式会社,東京都,台東区,寿４丁目１番２号,,13,106,1110042,,,2024-06-24,清算の結了等,,,2015-10-05,1,,,,,エッセンコーポレーション,0
716,4010602000979,登記記録の閉鎖等,0,2024-06-27,2024-06-24,有限会社共和印刷所,,有限会社,東京都,江東区,門前仲町１丁目１０番１０号,,13,108,1350048,,,2024-06-24,清算の結了等,,,2015-10-05,1,,,,,キョウワインサツジョ,0
731,4011103007241,登記記録の閉鎖等,0,2024-06-27,2024-06-24,ファーストベスト合同会社,,合同会社,東京都,新宿区,新宿５丁目１８番２０号,,13,104,1600022,,,2024-06-24,合併による解散等,3010401121011,令和６年６月１７日東京都台東区駒形二丁目１番８号フィール株式会社（3010401121011）に合併し解散,2017-08-02,1,,,,,ファーストベスト,0
740,4011602010332,登記記録の閉鎖等,0,2024-06-27,2024-06-24,有限会社やよい寿司,,有限会社,東京都,練馬区,下石神井４丁目２２番１３号,,13,120,1770042,,,2024-06-24,清算の結了等,,,2015-10-05,1,,,,,ヤヨイズシ,0
758,4021001036234,登記記録の閉鎖等,0,2024-06-27,2024-06-18,榎本企業株式会社,,株式会社,神奈川県,平塚市,中堂９番４号,,14,203,2540026,,,2024-06-18,清算の結了等,,,2015-10-05,1,,,,,エノモトキギョウ,0
760,4021002004553,登記記録の閉鎖等,0,2024-06-27,2024-06-25,有限会社本間,,有限会社,神奈川県,藤沢市,遠藤９３９番地の５,,14,205,2520816,,,2024-06-25,清算の結了等,,,2015-10-05,1,,,,,ホンマ,0
772,4040001014090,登記記録の閉鎖等,0,2024-06-27,2024-06-14,総武地所株式会社,,株式会社,千葉県,千葉市中央区,都町３丁目７番１７号ＳＳビル１０２,,12,101,2600001,,,2024-06-14,清算の結了等,,,2015-10-05,1,,,,,ソウブジショ,0
773,4040001039848,登記記録の閉鎖等,0,2024-06-27,2024-06-17,株式会社ＳＭＫ,,株式会社,千葉県,松戸市,紙敷１２４４番地の９,,12,207,2702221,,,2024-06-17,清算の結了等,,,2015-10-05,1,,,,,,0
774,4040001054525,登記記録の閉鎖等,0,2024-06-27,2024-06-14,株式会社プリントハウスパチパチ,,株式会社,千葉県,市原市,五井４８３０番地２,,12,219,2900056,,,2024-06-14,清算の結了等,,,2015-10-05,1,,,,,プリントハウスパチパチ,0
783,4040005019680,登記記録の閉鎖等,0,2024-06-27,2024-06-14,一般社団法人日本パラサーフィン協会,,その他の設立登記法人,千葉県,いすみ市,岬町椎木８１４番地２,,12,238,2994501,,,2024-06-14,清算の結了等,,,2017-09-29,1,,,,,ニホンパラサーフィンキョウカイ,0
823,4130001072261,登記記録の閉鎖等,0,2024-06-27,2024-06-25,株式会社ｅｃｏｓｙｓｔｅｍ,,株式会社,京都府,京都市中京区,富小路通三条下る朝倉町５２８番地,,26,104,6048074,,,2024-06-25,清算の結了等,,,2022-07-27,1,,,,,エコシステム,0
828,4170001000202,登記記録の閉鎖等,0,2024-06-27,2024-06-26,株式会社井崎不動産鑑定事務所,,株式会社,和歌山県,和歌山市,紀三井寺１番地７０,,30,201,6410012,,,2024-06-26,清算の結了等,,,2015-10-05,1,,,,,イザキフドウサンカンテイジムショ,0
842,4200002015955,登記記録の閉鎖等,0,2024-06-27,2024-06-25,有限会社石原商店,,有限会社,岐阜県,美濃加茂市,蜂屋町上蜂屋３４７９番地の２,,21,211,5050004,,,2024-06-25,清算の結了等,,,2015-10-05,1,,,,,イシハラショウテン,0
862,4290801002674,登記記録の閉鎖等,0,2024-06-27,2024-06-17,永尾ゴム株式会社,,株式会社,福岡県,北九州市門司区,松原３丁目３番１４号,,40,101,8000064,,,2024-06-17,清算の結了等,,,2015-10-05,1,,,,,,0
865,4320003002107,登記記録の閉鎖等,0,2024-06-27,2024-06-14,合同会社コウセイ,,合同会社,大分県,別府市,大字鶴見４０７２番３６－３０１,,44,202,8740840,,,2024-06-14,清算の結了等,,,2015-10-05,1,,,,,コウセイ,0
869,4350002011568,登記記録の閉鎖等,0,2024-06-27,2024-06-19,有限会社エコ・グリーン開発,,有限会社,宮崎県,東臼杵郡門川町,東栄町２丁目５番２１号,,45,421,8890621,,,2024-06-19,清算の結了等,,,2015-10-05,1,,,,,エコグリーンカイハツ,0
876,4380001004768,登記記録の閉鎖等,0,2024-06-27,2024-06-19,大和田木材工業株式会社,,株式会社,福島県,郡山市,富久山町久保田字久保田１６１番地,,07,203,9638071,,,2024-06-19,清算の結了等,,,2015-10-05,1,,,,,オオワダモクザイコウギョウ,0
900,5010001177278,登記記録の閉鎖等,0,2024-06-27,2024-06-17,株式会社ａｓＤｅｓｉｇｎ,,株式会社,東京都,中央区,日本橋人形町２丁目１３番１１号人形町ＭＳビルｆｌａｔ５内,,13,102,1030013,,,2024-06-17,清算の結了等,,,2016-07-28,1,,,,,アズデザイン,0
921,5010501033807,登記記録の閉鎖等,0,2024-06-27,2024-06-25,アンジュ株式会社,,株式会社,静岡県,熱海市,水口町２丁目２０番５号,,22,205,4130016,,,2024-06-25,清算の結了等,,,2015-10-05,1,,,,,アンジュ,0
922,5010501047781,登記記録の閉鎖等,0,2024-06-27,2024-06-21,株式会社毛毛,,株式会社,東京都,台東区,池之端３丁目３番９号花園アレイ１０５,,13,106,1100008,,,2024-06-21,清算の結了等,,,2021-09-02,1,,,,,ケケ,0
929,5010605002402,登記記録の閉鎖等,0,2024-06-27,2024-06-24,特定非営利活動法人スーパーサイエンスキッズ,,その他の設立登記法人,東京都,世田谷区,奥沢８丁目９番４号,,13,112,1580083,,,2024-06-24,清算の結了等,,,2015-10-05,1,,,,,スーパーサイエンスキッズ,0
958,5011301014939,登記記録の閉鎖等,0,2024-06-27,2024-06-24,株式会社ソシオ,,株式会社,東京都,八王子市,別所１丁目４３番地２８,,13,201,1920363,,,2024-06-24,清算の結了等,,,2015-10-05,1,,,,,ソシオ,0
973,5012701009025,登記記録の閉鎖等,0,2024-06-27,2024-06-24,株式会社木造ドミノ研究会,,株式会社,東京都,東村山市,本町２丁目２２番地１１,,13,213,1890014,,,2024-06-24,清算の結了等,,,2015-10-05,1,,,,,モクゾウドミノケンキュウカイ,0
982,5021002026547,登記記録の閉鎖等,0,2024-06-27,2024-06-14,有限会社季節家,,有限会社,神奈川県,横浜市都筑区,東山田３丁目８番地５号グリーンコートＣ２,,14,118,2240023,,,2024-06-14,清算の結了等,,,2015-10-05,1,,,,,キセツヤ,0
998,5040002079495,登記記録の閉鎖等,0,2024-06-27,2024-06-14,有限会社小西企業建設,,有限会社,千葉県,山武市,埴谷５３７番地,,12,237,2891223,,,2024-06-14,清算の結了等,,,2015-10-05,1,,,,,,0
999,5040003019153,登記記録の閉鎖等,0,2024-06-27,2024-06-14,合同会社さとまちづくり,,合同会社,千葉県,館山市,北条１８３４－１ＷＥＥＫＥＮＤｒｏｏｍＢ,,12,205,2940045,,,2024-06-14,清算の結了等,,,2021-12-17,1,,,,,サトマチヅクリ,0
1007,5070002033409,登記記録の閉鎖等,0,2024-06-27,2024-06-24,有限会社斎藤材木店,,有限会社,群馬県,館林市,上赤生田町４１４７番地,,10,207,3740015,,,2024-06-24,清算の結了等,,,2015-10-05,1,,,,,サイトウザイモクテン,0
1010,5080105002499,登記記録の閉鎖等,0,2024-06-27,2024-06-26,一般社団法人ファルマバレープロジェクト支援機構,,その他の設立登記法人,静岡県,駿東郡長泉町,下長窪１００２番地の１,,22,342,4110934,,,2024-06-26,清算の結了等,,,2015-10-05,1,,,,,ファルマバレープロジェクトシエンキコウ,0
1014,5100001010974,登記記録の閉鎖等,0,2024-06-27,2024-06-10,コバヤシ綿株式会社,,株式会社,長野県,上田市,上丸子１０９１番地,,20,203,3860404,,,2024-06-10,清算の結了等,,,2015-10-05,1,,,,,コバヤシメン,0
1018,5110001025501,登記記録の閉鎖等,0,2024-06-27,2024-06-21,ミヤ商事株式会社,,株式会社,新潟県,新潟市中央区,幸西４丁目５番８号ライズ万代タワー１９０２号,,15,103,9500908,,,2024-06-21,清算の結了等,,,2015-10-05,1,,,,,ミヤショウジ,0
1048,5120901018900,登記記録の閉鎖等,0,2024-06-27,2024-06-24,ハイムーン株式会社,,株式会社,大阪府,高槻市,藤の里町３６番１７号,,27,207,5690025,,,2024-06-24,清算の結了等,,,2015-10-05,1,,,,,ハイムーン,0
1058,5140002015886,登記記録の閉鎖等,0,2024-06-27,2024-06-24,有限会社ホープ,,有限会社,兵庫県,神戸市中央区,北長狭通２丁目３１番４４号,,28,110,6500012,,,2024-06-24,清算の結了等,,,2015-10-05,1,,,,,ホープ,0
1094,5240002051021,登記記録の閉鎖等,0,2024-06-27,2024-06-24,有限会社電工社,,有限会社,広島県,尾道市,十四日元町１番１７号,,34,205,7220034,,,2024-06-24,清算の結了等,,,2015-10-05,1,,,,,デンコウシャ,0
1102,5290001090370,登記記録の閉鎖等,0,2024-06-27,2024-05-31,アドフィット株式会社,,株式会社,福岡県,福岡市中央区,薬院１丁目８番２０号,,40,133,8100022,,,2024-05-31,清算の結了等,,,2020-10-02,1,,,,,アドフィット,0
1105,5290802016508,登記記録の閉鎖等,0,2024-06-27,2024-06-17,有限会社フラップ,,有限会社,福岡県,遠賀郡芦屋町,大字山鹿１０６番地１,,40,381,8070141,,,2024-06-17,清算の結了等,,,2015-10-05,1,,,,,フラップ,0
1109,5360001020304,登記記録の閉鎖等,0,2024-06-27,2024-06-24,ＵｅｈａｒａＬａｂｏ株式会社,,株式会社,沖縄県,那覇市,前島３丁目２５番２号泊ポートビル１階,,47,201,9000016,,,2024-06-24,清算の結了等,,,2016-01-08,1,,,,,ウエハララボ,0
1122,5410002002031,登記記録の閉鎖等,0,2024-06-27,2024-06-17,有限会社庄司畳店,,有限会社,秋田県,秋田市,外旭川字堂ノ前４６番地１５,,05,201,0100802,,,2024-06-17,清算の結了等,,,2015-10-05,1,,,,,,0
1142,6010001101410,登記記録の閉鎖等,0,2024-06-27,2024-06-14,株式会社トーテクコスギ,,株式会社,千葉県,市川市,新田４丁目６番７号ハシモトビル３０１号室,,12,203,2720035,,,2024-06-14,清算の結了等,,,2015-10-05,1,,,,,トーテクコスギ,0
1157,6010401144752,登記記録の閉鎖等,0,2024-06-27,2024-06-12,ＶＩＤＡＬ　ＪＡＰＡＮ株式会社,,株式会社,東京都,港区,東麻布３丁目４番１８号ＶＯＲＴ麻布十番５Ｆ,,13,103,1060044,,,2024-06-12,清算の結了等,,,2019-04-03,1,,,,,ヴィダルジャパン,0
1166,6010502012189,登記記録の閉鎖等,0,2024-06-27,2024-06-17,有限会社米山薬局,,有限会社,東京都,台東区,下谷３丁目８番９号,,13,106,1100004,,,2024-06-17,清算の結了等,,,2015-10-05,1,,,,,ヨネヤマヤッキョク,0
1170,6010602020645,登記記録の閉鎖等,0,2024-06-27,2024-06-24,有限会社武蔵電工社,,有限会社,東京都,江東区,亀戸３丁目８番４号,,13,108,1360071,,,2024-06-24,清算の結了等,,,2015-10-05,1,,,,,ムサシデンコウシャ,0
1181,6011001112050,登記記録の閉鎖等,0,2024-06-27,2024-06-24,株式会社コブラ・ジャパン,,株式会社,東京都,目黒区,目黒本町３丁目２番１６号,,13,110,1520002,,,2024-06-24,清算の結了等,,,2016-07-27,1,,,,,コブラジャパン,0
1192,6011302003592,登記記録の閉鎖等,0,2024-06-27,2024-06-19,有限会社ごくう井草,,有限会社,東京都,杉並区,井草４丁目２１番６号,,13,115,1670021,,,2024-06-19,清算の結了等,,,2015-10-05,1,,,,,,0
1205,6012401000893,登記記録の閉鎖等,0,2024-06-27,2024-06-24,多摩開発株式会社,,株式会社,東京都,府中市,片町２丁目２０番地１３,,13,206,1830021,,,2024-06-24,清算の結了等,,,2015-10-05,1,,,,,タマカイハツ,0
1229,6020002052899,登記記録の閉鎖等,0,2024-06-27,2024-06-14,有限会社ドド企画,,有限会社,神奈川県,横浜市都筑区,茅ケ崎中央１５番３号レシェンテ茅ヶ崎３－Ａ,,14,118,2240032,,,2024-06-14,清算の結了等,,,2015-10-05,1,,,,,ドドキカク,0
1276,6110002016878,登記記録の閉鎖等,0,2024-06-27,2024-06-21,有限会社ウィル,,有限会社,新潟県,三条市,直江町２丁目５番４５－１０号,,15,204,9550832,,,2024-06-21,清算の結了等,,,2015-10-05,1,,,,,ウィル,0
1292,6120901029483,登記記録の閉鎖等,0,2024-06-27,2024-06-24,株式会社ナレッジ，ヒューマン＆テクノロジーズ,,株式会社,大阪府,豊中市,柴原町３丁目６番２５号,,27,203,5600055,,,2024-06-24,清算の結了等,,,2015-10-05,1,,,,,ナレッジヒューマンアンドテクノロジーズ,0
1302,6140001067093,登記記録の閉鎖等,0,2024-06-27,2024-06-19,株式会社共栄,,株式会社,兵庫県,三田市,大原１番地９,,28,219,6691515,,,2024-06-19,清算の結了等,,,2015-10-05,1,,,,,キョウエイ,0
1304,6140001116057,登記記録の閉鎖等,0,2024-06-27,2024-06-24,株式会社ウォームソイル,,株式会社,兵庫県,神戸市中央区,御幸通８丁目１番６号２２階,,28,110,6510087,,,2024-06-24,清算の結了等,,,2020-01-09,1,,,,,ウォームソイル,0
1313,6180002036820,登記記録の閉鎖等,0,2024-06-27,2024-06-21,有限会社設計センター,,有限会社,愛知県,名古屋市西区,名駅２丁目２３番１４号ＶＩＡ１４１－２１５号,,23,104,4510045,,,2024-06-21,清算の結了等,,,2015-10-05,1,,,,,セッケイセンター,0
1321,6220005005735,登記記録の閉鎖等,0,2024-06-27,2024-06-13,特定非営利活動法人野の花,,その他の設立登記法人,石川県,七尾市,町屋町に部２４番地,,17,202,9260836,,,2024-06-13,清算の結了等,,,2015-10-05,1,,,,,ノノハナ,0
1322,6230002011859,登記記録の閉鎖等,0,2024-06-27,2024-06-25,有限会社弘昌自動車工業所,,有限会社,富山県,高岡市,野村１６１１番地,,16,202,9330014,,,2024-06-25,清算の結了等,,,2015-10-05,1,,,,,ヒロマサジドウシャコウギョウショ,0
1334,6290002049877,登記記録の閉鎖等,0,2024-06-27,2024-05-31,有限会社ひら川,,有限会社,福岡県,久留米市,東町上天神田３１６番地の２,,40,203,8300032,,,2024-05-31,清算の結了等,,,2015-10-05,1,,,,,ヒラカワ,0
1378,6430002065471,登記記録の閉鎖等,0,2024-06-27,2024-06-20,有限会社登栄家具建具製作所,,有限会社,北海道,登別市,栄町２丁目１８番地３,,01,230,0590033,,,2024-06-20,清算の結了等,,,2015-10-05,1,,,,,トウエイカグタテグセイサクショ,0
1387,6500001017128,登記記録の閉鎖等,0,2024-06-27,2024-06-20,西日本トライ株式会社,,株式会社,愛媛県,新居浜市,西の土居町１丁目６番２２号,,38,205,7920035,,,2024-06-20,清算の結了等,,,2015-10-05,1,,,,,ニシニホントライ,0
1414,7010005023286,登記記録の閉鎖等,0,2024-06-27,2024-06-19,一般社団法人福禄寿キャピタル,,その他の設立登記法人,東京都,千代田区,大手町１丁目５番５号,,13,101,1000004,,,2024-06-19,清算の結了等,,,2015-10-05,1,,,,,フクロクジュキャピタル,0
1416,7010401132681,登記記録の閉鎖等,0,2024-06-27,2024-06-14,升彩株式会社,,株式会社,東京都,港区,三田１丁目２番１８号ＴＴＤビル,,13,103,1080073,,,2024-06-14,清算の結了等,,,2017-07-24,1,,,,,マスアヤ,0
1426,7010801002740,登記記録の閉鎖等,0,2024-06-27,2024-06-21,蒲田自動車株式会社,,株式会社,東京都,大田区,南蒲田３丁目１番６号,,13,111,1440035,,,2024-06-21,清算の結了等,,,2015-10-05,1,,,,,カマタジドウシャ,0
1450,7012802004022,登記記録の閉鎖等,0,2024-06-27,2024-06-11,有限会社アーザス,,有限会社,東京都,武蔵村山市,中原２丁目１４番地の１,,13,223,2080035,,,2024-06-11,清算の結了等,,,2015-10-05,1,,,,,アーザス,0
1463,7020002031662,登記記録の閉鎖等,0,2024-06-27,2024-06-14,有限会社南太田,,有限会社,神奈川県,横浜市南区,南太田１丁目３４番７号,,14,105,2320006,,,2024-06-14,清算の結了等,,,2015-10-05,1,,,,,ミナミオオタ,0
1464,7020003014914,登記記録の閉鎖等,0,2024-06-27,2024-06-13,タキオンエンターテイメント合同会社,,合同会社,神奈川県,横浜市中区,本牧満坂１８７番１４,,14,104,2310833,,,2024-06-13,合併による解散等,4020003016707,令和６年５月２５日神奈川県横浜市中区扇町三丁目８番１１号ヤマザキ・シー・エービル２階勝ちドリ合同会社（4020003016707）に合併し解散,2018-09-18,1,,,,,タキオンエンターテイメント,0
1465,7020003017677,登記記録の閉鎖等,0,2024-06-27,2024-06-13,合同会社ベール,,合同会社,神奈川県,横浜市青葉区,市ケ尾町１１７１番地２,,14,117,2250024,,,2024-06-13,清算の結了等,,,2020-04-08,1,,,,,ベール,0
1485,7040002003247,登記記録の閉鎖等,0,2024-06-27,2024-06-12,有限会社北田商店,,有限会社,千葉県,千葉市中央区,栄町３６番６号,,12,101,2600016,,,2024-06-12,清算の結了等,,,2015-10-05,1,,,,,キタダショウテン,0
1488,7050001037484,登記記録の閉鎖等,0,2024-06-27,2024-06-21,株式会社アイ・ケイサービス,,株式会社,茨城県,坂東市,沓掛５２４番地,,08,228,3060515,,,2024-06-21,清算の結了等,,,2015-10-05,1,,,,,アイケイサービス,0
1489,7050002000103,登記記録の閉鎖等,0,2024-06-27,2024-06-24,アスクウオーク有限会社,,有限会社,茨城県,水戸市,米沢町３２５番地１,,08,201,3100847,,,2024-06-24,清算の結了等,,,2015-10-05,1,,,,,アスクウオーク,0
1496,7080101004084,登記記録の閉鎖等,0,2024-06-27,2024-06-24,三勝興産株式会社,,株式会社,静岡県,御殿場市,萩原２５番地の３,,22,215,4120042,,,2024-06-24,清算の結了等,,,2015-10-05,1,,,,,,0
1498,7080102004604,登記記録の閉鎖等,0,2024-06-27,2024-06-26,有限会社渡辺プロダクツ,,有限会社,静岡県,裾野市,深良１９１２番地,,22,220,4101102,,,2024-06-26,清算の結了等,,,2015-10-05,1,,,,,ワタナベプロダクツ,0
1518,7120002060081,登記記録の閉鎖等,0,2024-06-27,2024-06-26,有限会社川根数理設計,,有限会社,大阪府,大阪市都島区,友渕町１丁目３番１８－５０４号,,27,102,5340016,,,2024-06-26,清算の結了等,,,2015-10-05,1,,,,,カワネスウリセッケイ,0
1520,7120005021428,登記記録の閉鎖等,0,2024-06-27,2024-06-24,一般社団法人日本熱中症協会,,その他の設立登記法人,大阪府,大阪市港区,磯路２丁目１９番２６号,,27,107,5520003,,,2024-06-24,清算の結了等,,,2020-02-10,1,,,,,ニホンネッチュウショウキョウカイ,0
1523,7120902006349,登記記録の閉鎖等,0,2024-06-27,2024-06-24,有限会社三福商事,,有限会社,大阪府,吹田市,元町６番２号,,27,205,5640031,,,2024-06-24,清算の結了等,,,2015-10-05,1,,,,,サンプクショウジ,0
1526,7130002014466,登記記録の閉鎖等,0,2024-06-27,2024-06-20,有限会社トラスト,,有限会社,京都府,京都市伏見区,醍醐古道町２１番地の３,,26,109,6011316,,,2024-06-20,清算の結了等,,,2015-10-05,1,,,,,トラスト,0
1555,7230001017170,登記記録の閉鎖等,0,2024-06-27,2024-06-25,株式会社ＴＭＣ,,株式会社,富山県,富山市,桜町１丁目４番１０－４０３号,,16,201,9300003,,,2024-06-25,清算の結了等,,,2017-10-24,1,,,,,ティーエムシー,0
1559,7250001017482,登記記録の閉鎖等,0,2024-06-27,2024-06-26,新下関観光バス株式会社,,株式会社,山口県,下関市,菊川町大字楢崎９４４番地,00115289,35,201,7500322,,,2024-06-26,清算の結了等,,,2018-12-21,1,,,,,シンシモノセキカンコウバス,0
1565,7300001004137,登記記録の閉鎖等,0,2024-06-27,2024-06-25,ＭＫオフィス株式会社,,株式会社,佐賀県,佐賀市,大財６丁目１番６号,,41,201,8400811,,,2024-06-25,清算の結了等,,,2015-10-05,1,,,,,エムケイオフイス,0
1571,7340001001386,登記記録の閉鎖等,0,2024-06-27,2024-06-24,株式会社霧島台,,株式会社,鹿児島県,鹿児島市,照国町１７番２１号,,46,201,8920841,,,2024-06-24,清算の結了等,,,2015-10-05,1,,,,,キリシマダイ,0
1572,7340001002426,登記記録の閉鎖等,0,2024-06-27,2024-06-18,株式会社創和,,株式会社,鹿児島県,鹿児島市,荒田２丁目３３番２号,,46,201,8900054,,,2024-06-18,清算の結了等,,,2015-10-05,1,,,,,ソウワ,0
1579,7370002012462,登記記録の閉鎖等,0,2024-06-27,2024-06-17,有限会社トコヨ建築設計事務所,,有限会社,宮城県,仙台市青葉区,支倉町１番２３号,,04,101,9800824,,,2024-06-17,清算の結了等,,,2015-10-05,1,,,,,トコヨケンチクセッケイジムショ,0
1591,7390005007706,登記記録の閉鎖等,0,2024-06-27,2024-06-12,西川町管工事協同組合,,その他の設立登記法人,山形県,西村山郡西川町,大字海味字山ギシ４７５番地８,,06,322,9900702,,,2024-06-12,清算の結了等,,,2015-10-05,1,,,,,ニシカワマチカンコウジ,0
1594,7430001027851,登記記録の閉鎖等,0,2024-06-27,2024-06-21,株式会社恵和アイ・ティ・エス,,株式会社,北海道,札幌市中央区,南二条西１２丁目３２４番地１,,01,101,0600062,,,2024-06-21,清算の結了等,,,2015-10-05,1,,,,,ケイワアイティエス,0
1595,7430002063086,登記記録の閉鎖等,0,2024-06-27,2024-06-19,有限会社藤田牧場,,有限会社,北海道,浦河郡浦河町,字野深１１１番地,,01,607,0593454,,,2024-06-19,清算の結了等,,,2015-10-05,1,,,,,フジタボクジョウ,0
1603,7480002007658,登記記録の閉鎖等,0,2024-06-27,2024-06-24,有限会社梯建具製作所,,有限会社,徳島県,勝浦郡勝浦町,大字三溪字上川原１４番地の２,,36,301,7714307,,,2024-06-24,清算の結了等,,,2015-10-05,1,,,,,,0
1637,8011001148893,登記記録の閉鎖等,0,2024-06-27,2024-06-13,株式会社Ａｉｇｉｓ,,株式会社,東京都,目黒区,自由が丘３丁目５番３号,,13,110,1520035,,,2024-06-13,清算の結了等,,,2022-08-04,1,,,,,アイギス,0
1668,8012402021152,登記記録の閉鎖等,0,2024-06-27,2024-06-10,有限会社ケイ・エム・ネットワーク,,有限会社,東京都,目黒区,駒場１丁目１番１６号駒場パークホームズ６０４,,13,110,1530041,,,2024-06-10,清算の結了等,,,2015-10-05,1,,,,,ケイエムネットワーク,0
1684,8021003014226,登記記録の閉鎖等,0,2024-06-27,2024-06-18,Ｎｅｘｔ　Ｆｕｔｕｒｅ合同会社,,合同会社,神奈川県,藤沢市,大鋸１２１１番地の７,,14,205,2510002,,,2024-06-18,清算の結了等,,,2024-03-05,1,,,,,ネクストフューチャー,0
1734,8120902000020,登記記録の閉鎖等,0,2024-06-27,2024-06-26,有限会社リバティースポーツ,,有限会社,大阪府,吹田市,樫切山２１番Ｓ－１号,,27,205,5650806,,,2024-06-26,清算の結了等,,,2015-10-05,1,,,,,リバティースポーツ,0
1741,8130001054644,登記記録の閉鎖等,0,2024-06-27,2024-06-25,Ｗｉｔ＆Ｃｏｍｐａｎｙ株式会社,,株式会社,京都府,京田辺市,花住坂３丁目２２－２０,,26,211,6100352,,,2024-06-25,清算の結了等,,,2015-10-05,1,,,,,ウィットアンドカンパニー,0
1779,8240002050086,登記記録の閉鎖等,0,2024-06-27,2024-06-24,有限会社営繕,,有限会社,広島県,尾道市,東則末町１４番１４号,,34,205,7220023,,,2024-06-24,清算の結了等,,,2015-10-05,1,,,,,エイゼン,0
1802,8310001002568,登記記録の閉鎖等,0,2024-06-27,2024-06-25,株式会社ケイズプロパティー,,株式会社,長崎県,長崎市,住吉町１番５号,,42,201,8528154,,,2024-06-25,合併による解散等,3310001011383,令和６年６月２１日長崎市住吉町１番５号王蔵株式会社（3310001011383）に合併し解散,2015-10-05,1,,,,,ケイズプロパティー,0
1804,8330005009228,登記記録の閉鎖等,0,2024-06-27,2024-06-17,ＮＰＯ法人子ども支援塾ステップ,,その他の設立登記法人,熊本県,熊本市東区,戸島西１丁目１０番１号,,43,102,8618043,,,2024-06-17,清算の結了等,,,2015-10-05,1,,,,,コドモシエンジュクステップ,0
1806,8350002000955,登記記録の閉鎖等,0,2024-06-27,2024-06-21,有限会社おの,,有限会社,宮崎県,宮崎市,大塚町天神後２６５９番地５,,45,201,8800951,,,2024-06-21,清算の結了等,,,2015-10-05,1,,,,,オノ,0
1807,8350005000523,登記記録の閉鎖等,0,2024-06-27,2024-06-24,医療法人細川レディスクリニック,,その他の設立登記法人,宮崎県,宮崎市,霧島４丁目１３番地１,,45,201,8800032,,,2024-06-24,清算の結了等,,,2015-10-05,1,,,,,ホソカワレディスクリニック,0
1812,8370101000301,登記記録の閉鎖等,0,2024-06-27,2024-06-17,株式会社グロウス,,株式会社,宮城県,柴田郡川崎町,大字今宿字スド１５番地３,,04,324,9891502,,,2024-06-17,清算の結了等,,,2015-10-05,1,,,,,,0
1855,9010401172817,登記記録の閉鎖等,0,2024-06-27,2024-06-07,株式会社Ｅｒｉｓ,,株式会社,東京都,港区,六本木３丁目１８番２－６０４号,,13,103,1060032,,,2024-06-07,清算の結了等,,,2023-03-03,1,,,,,エリス,0
1870,9010802007480,登記記録の閉鎖等,0,2024-06-27,2024-06-24,有限会社ジラフ,,有限会社,東京都,大田区,東六郷３丁目１番１号,,13,111,1440046,,,2024-06-24,清算の結了等,,,2015-10-05,1,,,,,ジラフ,0
1876,9010903007462,登記記録の閉鎖等,0,2024-06-27,2024-06-13,松澤ホールディング合同会社,,合同会社,東京都,世田谷区,野毛２丁目２２－２１,,13,112,1580092,,,2024-06-13,清算の結了等,,,2022-06-15,1,,,,,マツサワホールディング,0
1884,9011101084823,登記記録の閉鎖等,0,2024-06-27,2024-06-20,株式会社ＩＤＯＢＡＴＡ,,株式会社,東京都,新宿区,富久町１５－１富久クロスコンフォートタワー７１０号室,,13,104,1620067,,,2024-06-20,清算の結了等,,,2018-07-23,1,,,,,イドバタ,0
1887,9011105003250,登記記録の閉鎖等,0,2024-06-27,2024-06-19,特定非営利活動法人国際安心安全協会,,その他の設立登記法人,東京都,新宿区,西新宿３丁目１７番７号,,13,104,1600023,,,2024-06-19,清算の結了等,,,2015-10-05,1,,,,,コクサイアンシンアンゼンキョウカイ,0
1890,9011303003003,登記記録の閉鎖等,0,2024-06-27,2024-06-20,合同会社Ｐａｓｓｉｏｎａｔｏ,,合同会社,東京都,杉並区,浜田山４丁目１６番４－５０９号ライオンズ浜田山セントマークス,,13,115,1680065,,,2024-06-20,清算の結了等,,,2018-05-16,1,,,,,パッショナート,0
1895,9011701023305,登記記録の閉鎖等,0,2024-06-27,2024-06-24,株式会社共伸測量設計,,株式会社,東京都,江戸川区,大杉５丁目１１番１２号ＥＳＰＯＩＲ１０６,,13,123,1320022,,,2024-06-24,清算の結了等,,,2020-02-13,1,,,,,キョウシンソクリョウセッケイ,0
1901,9013201012507,登記記録の閉鎖等,0,2024-06-27,2024-06-04,山王フォレスト株式会社,,株式会社,東京都,目黒区,青葉台１丁目７番１４－４０１号,,13,110,1530042,,,2024-06-04,清算の結了等,,,2015-10-05,1,,,,,サンノウフォレスト,0
1905,9020001004584,登記記録の閉鎖等,0,2024-06-27,2024-06-14,横浜港南商事株式会社,,株式会社,神奈川県,横浜市港南区,港南４丁目１０番１号,,14,111,2330003,,,2024-06-14,清算の結了等,,,2015-10-05,1,,,,,ヨコハマコウナンショウジ,0
1918,9021005011113,登記記録の閉鎖等,0,2024-06-27,2024-06-25,一般社団法人サクライフ,,その他の設立登記法人,神奈川県,平塚市,明石町１３－１柏木明石町ビル２階,,14,203,2540042,,,2024-06-25,清算の結了等,,,2017-10-11,1,,,,,サクライフ,0
1922,9030001067878,登記記録の閉鎖等,0,2024-06-27,2024-06-11,イーアシスト株式会社,,株式会社,千葉県,流山市,流山２丁目２９７番地１キャッスルマンション流山１０４,,12,220,2700164,,,2024-06-11,清算の結了等,,,2015-10-05,1,,,,,イーアシスト,0
1923,9030001069932,登記記録の閉鎖等,0,2024-06-27,2024-06-25,株式会社想石,,株式会社,埼玉県,坂戸市,大字北峰１９６番地１,,11,239,3500258,,,2024-06-25,清算の結了等,,,2015-10-05,1,,,,,ソウセキ,0
1934,9040002013104,登記記録の閉鎖等,0,2024-06-27,2024-06-14,有限会社オーシャンエンタープライズ,,有限会社,千葉県,千葉市中央区,中央３丁目１３番５号,,12,101,2600013,,,2024-06-14,清算の結了等,,,2015-10-05,1,,,,,オーシャンエンタープライズ,0
1936,9040005017176,登記記録の閉鎖等,0,2024-06-27,2024-06-14,特定非営利活動法人さくら会,,その他の設立登記法人,千葉県,習志野市,本大久保５丁目７番２２号,,12,216,2750012,,,2024-06-14,清算の結了等,,,2015-10-05,1,,,,,サクラカイ,0
1942,9050005012333,登記記録の閉鎖等,0,2024-06-27,2024-06-19,一般社団法人地域資源活用協議会,,その他の設立登記法人,福島県,耶麻郡猪苗代町,字葉山７１０５番地３３３,,07,408,9693102,,,2024-06-19,清算の結了等,,,2018-06-19,1,,,,,,0
1970,9120001208852,登記記録の閉鎖等,0,2024-06-27,2024-06-25,株式会社ビジネスドライビングスクール大阪,,株式会社,大阪府,寝屋川市,下木田町１３番１－７０８号,,27,215,5720823,,,2024-06-25,清算の結了等,,,2017-10-20,1,,,,,,0
1971,9120001214669,登記記録の閉鎖等,0,2024-06-27,2024-06-26,株式会社サバ６製麺所,,株式会社,大阪府,大阪市北区,菅原町２番１６号,,27,127,5300046,,,2024-06-26,清算の結了等,,,2018-07-19,1,,,,,サバロクセイメンショ,0
1990,9140001107524,登記記録の閉鎖等,0,2024-06-27,2024-06-24,株式会社ａｒｔｏ　Ｗｅｓｔ,,株式会社,兵庫県,神戸市北区,山田町小部６９番地１,,28,109,6511101,,,2024-06-24,清算の結了等,,,2017-09-08,1,,,,,アラットウエスト,0
1992,9140002060227,登記記録の閉鎖等,0,2024-06-27,2024-06-24,有限会社寿光,,有限会社,兵庫県,西宮市,石在町１９番３－１０９号,,28,204,6620928,,,2024-06-24,清算の結了等,,,2015-10-05,1,,,,,ジュコウ,0
2005,9190002013592,登記記録の閉鎖等,0,2024-06-27,2024-06-25,有限会社池田防災,,有限会社,三重県,松阪市,駅部田町１９６８番地の５,,24,204,5150045,,,2024-06-25,清算の結了等,,,2015-10-05,1,,,,,イケダボウサイ,0
2015,9230001016591,登記記録の閉鎖等,0,2024-06-27,2024-06-24,株式会社ひかり,,株式会社,富山県,小矢部市,岡１３１番地１,,16,209,9320031,,,2024-06-24,清算の結了等,,,2016-08-10,1,,,,,ヒカリ,0
2035,9290003009381,登記記録の閉鎖等,0,2024-06-27,2024-06-04,合名会社Ｔ’ｓ　Ｓｍｉｌｅ,,合名会社,福岡県,久留米市,小頭町１３６番地１,,40,203,8300045,,,2024-06-04,清算の結了等,,,2019-09-27,1,,,,,ティーズスマイル,0
2042,9320002021292,登記記録の閉鎖等,0,2024-06-27,2024-06-14,有限会社耶馬渓製茶,,有限会社,大分県,中津市,耶馬溪町大字山移３６４８番地の２,,44,203,8710421,,,2024-06-14,清算の結了等,,,2015-10-05,1,,,,,,0
2050,9360003005555,登記記録の閉鎖等,0,2024-06-27,2024-06-24,合同会社琉韓,,合同会社,沖縄県,沖縄市,山内１丁目６番２７号,,47,211,9040034,,,2024-06-24,清算の結了等,,,2015-10-05,1,,,,,リュウカン,0
