sequenceNumber,corporateNumber,process,correct,updateDate,changeDate,name,nameImageId,kind,prefectureName,cityName,streetNumber,addressImageId,prefectureCode,cityCode,postCode,addressOutside,addressOutsideImageId,closeDate,closeCause,successorCorporateNumber,changeCause,assignmentDate,latest,enName,enPrefectureName,enCityName,enAddressOutside,furigana,hihyoji
41,1010801032223,登記記録の閉鎖等,0,2025-11-12,2025-11-06,インテグラルコード株式会社,,株式会社,東京都,品川区,東五反田１丁目１０－７アイオス五反田８０６,,13,109,1410022,,,2025-11-06,清算の結了等,,,2021-08-10,1,,,,,インテグラルコード,0
45,1011001014078,登記記録の閉鎖等,0,2025-11-12,2025-11-05,株式会社千葉企画,,株式会社,静岡県,静岡市葵区,北安東３丁目７番３０－３０２号,,22,101,4200881,,,2025-11-05,清算の結了等,,,2015-10-05,1,,,,,チバキカク,0
67,1011102006321,登記記録の閉鎖等,0,2025-11-12,2025-11-07,有限会社字游工房,,有限会社,東京都,新宿区,下宮比町２番２７号,,13,104,1620822,,,2025-11-07,合併による解散等,7120001040217,令和７年１１月１日大阪市浪速区敷津東二丁目６番２５号株式会社モリサワ（7120001040217）に合併し解散,2015-10-05,1,,,,,ジユウコウボウ,0
71,1011301016369,登記記録の閉鎖等,0,2025-11-12,2025-11-04,株式会社トラクション,,株式会社,東京都,杉並区,上井草３丁目１５番８号,,13,115,1670023,,,2025-11-04,清算の結了等,,,2015-10-05,1,,,,,トラクション,0
76,1011801031958,登記記録の閉鎖等,0,2025-11-12,2025-11-06,株式会社ゴールドジャパン,,株式会社,東京都,葛飾区,小菅２丁目３７番６号ゴールドハウス綾瀬１Ｆ,,13,122,1240001,,,2025-11-06,清算の結了等,,,2016-06-20,1,,,,,ゴールドジャパン,0
81,1012802006882,登記記録の閉鎖等,0,2025-11-12,2025-11-04,有限会社エムテク,,有限会社,東京都,東大和市,仲原１丁目２番地の１,,13,220,2070016,,,2025-11-04,清算の結了等,,,2015-10-05,1,,,,,エムテク,0
82,1013102001863,登記記録の閉鎖等,0,2025-11-12,2025-11-10,共和工業有限会社,,有限会社,東京都,あきる野市,小和田１５０番地,,13,228,1900151,,,2025-11-10,清算の結了等,,,2015-10-05,1,,,,,キョウワコウギョウ,0
88,1020002044356,登記記録の閉鎖等,0,2025-11-12,2025-11-05,有限会社長谷生花店,,有限会社,神奈川県,横浜市中区,伊勢佐木町７丁目１５２番地,,14,104,2310045,,,2025-11-05,清算の結了等,,,2015-10-05,1,,,,,ハセセイカテン,0
93,1020002088989,登記記録の閉鎖等,0,2025-11-12,2025-11-04,有限会社光永建設,,有限会社,神奈川県,横浜市都筑区,東山田町１５８２番地２４,,14,118,2240024,,,2025-11-04,清算の結了等,,,2015-10-05,1,,,,,コウエイケンセツ,0
101,1021001056482,登記記録の閉鎖等,0,2025-11-12,2025-10-15,株式会社研発,,株式会社,神奈川県,大和市,西鶴間１丁目１０番１３号ライオンズプラザ鶴間９０１号室,,14,213,2420005,,,2025-10-15,合併による解散等,3012302004229,令和７年１０月１日東京都町田市高ヶ坂二丁目３６番３５号第一清風荘２Ｂ号株式会社芙蓉（3012302004229）に合併して解散,2015-10-05,1,,,,,ケンパツ,0
103,1021001066853,登記記録の閉鎖等,0,2025-11-12,2025-10-21,秀ビジネスソリューションズ株式会社,,株式会社,神奈川県,藤沢市,藤沢１０５２番地の３サンヴェール藤沢６１１号,,14,205,2510052,,,2025-10-21,清算の結了等,,,2019-03-19,1,,,,,ヒデビジネスソリューションズ,0
105,1021002036665,登記記録の閉鎖等,0,2025-11-12,2025-10-24,有限会社カワチホームズ,,有限会社,神奈川県,愛甲郡愛川町,半原４６３３番地２,,14,401,2430307,,,2025-10-24,清算の結了等,,,2015-10-05,1,,,,,カワチホームズ,0
122,1040001016057,登記記録の閉鎖等,0,2025-11-12,2025-11-06,ＭＢＳビジネスソリューション株式会社,,株式会社,北海道,恵庭市,柏木町２丁目３番７号,,01,231,0611423,,,2025-11-06,清算の結了等,,,2015-10-05,1,,,,,エムビーエスビジネスソリューション,0
126,1040001116245,登記記録の閉鎖等,0,2025-11-12,2025-10-14,株式会社ＧＬＡＲＥ　ＣＯＭＰＡＮＹ,,株式会社,千葉県,千葉市美浜区,幕張西１丁目１３番２５－１号,,12,106,2610026,,,2025-10-14,清算の結了等,,,2020-12-15,1,,,,,グレアカンパニー,0
136,1060001009505,登記記録の閉鎖等,0,2025-11-12,2025-11-07,和田長建設株式会社,,株式会社,栃木県,真岡市,荒町５１９３番地,,09,209,3214305,,,2025-11-07,合併による解散等,2050001031384,令和７年９月２６日茨城県筑西市下川島６３５番地関東道路株式会社（2050001031384）に合併し解散,2015-10-05,1,,,,,ワダチョウケンセツ,0
138,1060002037827,登記記録の閉鎖等,0,2025-11-12,2025-11-07,株式会社ローランド,,株式会社,栃木県,足利市,小俣南町２７番地５,,09,202,3260142,,,2025-11-07,清算の結了等,,,2015-10-05,1,,,,,ローランド,0
210,1130005005996,登記記録の閉鎖等,0,2025-11-12,2025-11-05,特定非営利活動法人すまいる京都,,その他の設立登記法人,京都府,京都市山科区,大宅神納町１６０番地,,26,110,6078185,,,2025-11-05,清算の結了等,,,2015-10-05,1,,,,,スマイルキョウト,0
213,1140001081669,登記記録の閉鎖等,0,2025-11-12,2025-11-05,株式会社宝塚キムラヤ,,株式会社,兵庫県,宝塚市,武庫川町２番１号,,28,214,6650844,,,2025-11-05,清算の結了等,,,2015-10-05,1,,,,,タカラヅカキムラヤ,0
234,1180001147904,登記記録の閉鎖等,0,2025-11-12,2025-11-04,株式会社ＨＨＰ,,株式会社,愛知県,大府市,江端町３丁目１４３番地,,23,223,4740035,,,2025-11-04,合併による解散等,9180001139159,令和７年１１月１日愛知県大府市江端町三丁目１４３番地株式会社ＡＨＰ（9180001139159）に合併し解散,2021-09-22,1,,,,,エイチエイチピー,0
249,1200002016774,登記記録の閉鎖等,0,2025-11-12,2025-11-05,有限会社中島木工所,,有限会社,岐阜県,加茂郡七宗町,神渕５６３５番地の１,,21,504,5090511,,,2025-11-05,清算の結了等,,,2015-10-05,1,,,,,ナカシマモッコウジョ,0
253,1220005004691,登記記録の閉鎖等,0,2025-11-12,2025-10-08,日吉神社,00078676,その他の設立登記法人,石川県,七尾市,柑子町ネ部１３番地,,17,202,9260375,,,2025-10-08,合併による解散等,7220005004694,令和７年１０月８日石川県七尾市江泊町イ部３１番地日吉神社（7220005004694）に合併し解散,2015-10-05,1,,,,,ヒヨシジンジャ,0
256,1240002029938,登記記録の閉鎖等,0,2025-11-12,2025-11-04,有限会社エルシーセガワ,,有限会社,広島県,三次市,畠敷町１７１０番地の１５,,34,209,7280006,,,2025-11-04,清算の結了等,,,2015-10-05,1,,,,,エルシーセガワ,0
257,1250002009022,登記記録の閉鎖等,0,2025-11-12,2025-11-07,有限会社コワフユール・マチダ,,有限会社,山口県,下関市,山の田本町４番１４号,,35,201,7510838,,,2025-11-07,清算の結了等,,,2015-10-05,1,,,,,コワフユールマチダ,0
259,1270001003610,登記記録の閉鎖等,0,2025-11-12,2025-11-10,株式会社木建,,株式会社,鳥取県,米子市,旗ヶ崎２３１０番地,,31,202,6830845,,,2025-11-10,清算の結了等,,,2015-10-05,1,,,,,モッケン,0
277,1360001016586,登記記録の閉鎖等,0,2025-11-12,2025-11-06,株式会社ＢｏｗＬ,,株式会社,沖縄県,浦添市,伊祖１丁目５番２号,,47,208,9012132,,,2025-11-06,清算の結了等,,,2015-10-05,1,,,,,ボウル,0
289,1380002019470,登記記録の閉鎖等,0,2025-11-12,2025-10-17,有限会社堀田農園,,有限会社,福島県,白河市,東大沼４９番地３,,07,205,9610813,,,2025-10-17,清算の結了等,,,2015-10-05,1,,,,,ホッタノウエン,0
291,1380005012142,登記記録の閉鎖等,0,2025-11-12,2025-11-04,一般社団法人いわきコミュニティ振興センター,,その他の設立登記法人,福島県,いわき市,平豊間字榎町９２番地,,07,204,9700224,,,2025-11-04,清算の結了等,,,2019-04-12,1,,,,,イワキコミュニティシンコウセンター,0
292,1390001000901,登記記録の閉鎖等,0,2025-11-12,2025-11-10,株式会社新山印青果卸売市場,,株式会社,山形県,山形市,上町４丁目６番２５号,,06,201,9902483,,,2025-11-10,清算の結了等,,,2015-10-05,1,,,,,シンヤマジルシセイカオロシウリイチバ,0
296,1400601000381,登記記録の閉鎖等,0,2025-11-12,2025-10-31,サンシステム株式会社,,株式会社,岩手県,奥州市,江刺愛宕字三治川原５１番地の５,,03,215,0231131,,,2025-10-31,清算の結了等,,,2025-08-01,1,,,,,サンシステム,0
299,1420001018808,登記記録の閉鎖等,0,2025-11-12,2025-10-29,龍騰産業株式会社,,株式会社,青森県,十和田市,大字三本木字西金崎４５１番地６,,02,206,0340001,,,2025-10-29,清算の結了等,,,2024-07-24,1,,,,,リュウトウサンギョウ,0
306,1430002003840,登記記録の閉鎖等,0,2025-11-12,2025-11-06,有限会社オートショップ三雄,,有限会社,北海道,札幌市白石区,川北２２９８番地,,01,104,0030859,,,2025-11-06,清算の結了等,,,2015-10-05,1,,,,,オートショップサンユウ,0
309,1450002012492,登記記録の閉鎖等,0,2025-11-12,2025-11-05,有限会社アーバン,,有限会社,北海道,留萌市,錦町２丁目２番５号,,01,212,0770044,,,2025-11-05,清算の結了等,,,2015-10-05,1,,,,,アーバン,0
311,1470001009026,登記記録の閉鎖等,0,2025-11-12,2025-11-07,株式会社四国不動産総合研究所,,株式会社,香川県,坂出市,久米町１丁目２２番４５号,,37,203,7620003,,,2025-11-07,清算の結了等,,,2015-10-05,1,,,,,シコクフドウサンソウゴウケンキュウショ,0
324,2010401107028,登記記録の閉鎖等,0,2025-11-12,2025-10-14,株式会社Ｓｎｏｗ　Ｃｒｅａｔｅ　Ｉｎｄｕｓｔｒｙ　Ｊａｐａｎ,,株式会社,東京都,港区,赤坂７丁目３－３７,,13,103,1070052,,,2025-10-14,清算の結了等,,,2015-10-05,1,,,,,スノークリエイトインダストリージャパン,0
325,2010401177112,登記記録の閉鎖等,0,2025-11-12,2025-10-14,株式会社富士エーアイプレシジョン,,株式会社,東京都,港区,西新橋１丁目２番９号日比谷セントラルビル１４階,,13,103,1050003,,,2025-10-14,清算の結了等,,,2023-09-13,1,,,,,フジエーアイプレシジョン,0
350,2011003019784,登記記録の閉鎖等,0,2025-11-12,2025-10-09,合同会社ＫｌｅｉｎＢａｕ,,合同会社,東京都,渋谷区,道玄坂１丁目１６－６二葉ビル８ｂ,,13,113,1500043,,,2025-10-09,清算の結了等,,,2024-08-06,1,,,,,クラインバウ,0
354,2011101075317,登記記録の閉鎖等,0,2025-11-12,2025-10-20,株式会社リード・パートナーズ,,株式会社,東京都,新宿区,西新宿６丁目２１－１－２０２,,13,104,1600023,,,2025-10-20,合併による解散等,9010901034525,令和７年１０月２０日東京都新宿区西新宿６－１２－７株式会社不動産投資ユニバーシティ（9010901034525）に合併し解散,2015-12-08,1,,,,,リードパートナーズ,0
360,2011302004594,登記記録の閉鎖等,0,2025-11-12,2025-11-04,有限会社芝甲園,,有限会社,東京都,杉並区,上高井戸１丁目１１番１９号,,13,115,1680074,,,2025-11-04,清算の結了等,,,2015-10-05,1,,,,,シバコウエン,0
361,2011401004818,登記記録の閉鎖等,0,2025-11-12,2025-11-07,株式会社永江鉄工所,,株式会社,東京都,板橋区,向原２丁目６番１３号,,13,119,1730036,,,2025-11-07,清算の結了等,,,2015-10-05,1,,,,,ナガエテッコウショ,0
371,2011802017229,登記記録の閉鎖等,0,2025-11-12,2025-11-06,有限会社博愛興業,,有限会社,東京都,足立区,保木間５丁目１８番１０号,,13,121,1210064,,,2025-11-06,清算の結了等,,,2015-10-05,1,,,,,ハクアイコウギョウ,0
385,2020002054461,登記記録の閉鎖等,0,2025-11-12,2025-11-04,有限会社日置事務所,,有限会社,神奈川県,横浜市青葉区,たちばな台１丁目５番地６４,,14,117,2270046,,,2025-11-04,清算の結了等,,,2015-10-05,1,,,,,ヒオキジムショ,0
393,2030001016239,登記記録の閉鎖等,0,2025-11-12,2025-11-06,株式会社優心葬祭,,株式会社,埼玉県,さいたま市桜区,田島５丁目４番１２－２０５号,,11,106,3380837,,,2025-11-06,清算の結了等,,,2015-10-05,1,,,,,ユウシンソウサイ,0
394,2030001026592,登記記録の閉鎖等,0,2025-11-12,2025-11-07,フレコード株式会社,,株式会社,埼玉県,朝霞市,大字上内間木２９１番地１,,11,227,3510001,,,2025-11-07,合併による解散等,9013201016227,令和７年１０月１日東京都目黒区青葉台三丁目１７番８号株式会社スター・レジン（9013201016227）に合併し解散,2015-10-05,1,,,,,フレコード,0
397,2030001099234,登記記録の閉鎖等,0,2025-11-12,2025-10-14,株式会社Ｍ伝サービス,,株式会社,福岡県,糟屋郡粕屋町,大字上大隈２０２番地１福岡機材ビル３階,,40,349,8112301,,,2025-10-14,清算の結了等,,,2015-10-05,1,,,,,エムデンサービス,0
409,2030002074707,登記記録の閉鎖等,0,2025-11-12,2025-11-04,有限会社柊店,,有限会社,埼玉県,川越市,大字古谷上３８１９番地,,11,201,3500001,,,2025-11-04,清算の結了等,,,2015-10-05,1,,,,,ヒイラギテン,0
414,2040001038067,登記記録の閉鎖等,0,2025-11-12,2025-10-09,三栄設備工業株式会社,,株式会社,千葉県,流山市,おおたかの森南２丁目２７番地の３,,12,220,2700139,,,2025-10-09,清算の結了等,,,2015-10-05,1,,,,,サンエイセツビコウギョウ,0
428,2050002025294,登記記録の閉鎖等,0,2025-11-12,2025-11-04,有限会社原宿台名倉堂整骨院,,有限会社,茨城県,猿島郡五霞町,原宿台４丁目４番地２,,08,542,3060306,,,2025-11-04,清算の結了等,,,2015-10-05,1,,,,,ハラジュクダイナグラドウセイコツイン,0
444,2080402009002,登記記録の閉鎖等,0,2025-11-12,2025-11-04,有限会社リモ,,有限会社,静岡県,浜松市浜名区,新堀４４７番地の１,,22,139,4340022,,,2025-11-04,合併による解散等,1080401010102,令和７年１１月１日静岡県浜松市浜名区新堀４４７番地の１株式会社イリノ精工（1080401010102）に合併し解散,2015-10-05,1,,,,,リモ,0
447,2100001006298,登記記録の閉鎖等,0,2025-11-12,2025-11-10,小山工業株式会社,,株式会社,長野県,千曲市,大字内川２５０番地４７,,20,218,3890802,,,2025-11-10,清算の結了等,,,2015-10-05,1,,,,,コヤマコウギョウ,0
450,2100001032625,登記記録の閉鎖等,0,2025-11-12,2025-11-07,株式会社ベジタブルファーム,,株式会社,長野県,東筑摩郡筑北村,大沢新田９４７番地,,20,452,3997503,,,2025-11-07,清算の結了等,,,2019-10-11,1,,,,,ベジタブルファーム,0
451,2100001033086,登記記録の閉鎖等,0,2025-11-12,2025-11-10,株式会社エンタープライズ,,株式会社,長野県,諏訪市,大字四賀１５４９番地６,,20,206,3920012,,,2025-11-10,清算の結了等,,,2020-04-09,1,,,,,エンタープライズ,0
459,2120001122597,登記記録の閉鎖等,0,2025-11-12,2025-11-04,株式会社明紀エンジニアリング,,株式会社,兵庫県,尼崎市,尾浜町２丁目２１番２５号,,28,202,6610022,,,2025-11-04,清算の結了等,,,2015-10-05,1,,,,,メイキエンジニアリング,0
463,2120001230433,登記記録の閉鎖等,0,2025-11-12,2025-11-05,株式会社ＡＺ,,株式会社,兵庫県,尼崎市,七松町１丁目１０番１４号,,28,202,6600052,,,2025-11-05,清算の結了等,,,2020-07-16,1,,,,,アズ,0
483,2120101040757,登記記録の閉鎖等,0,2025-11-12,2025-10-30,株式会社富士商事,,株式会社,大阪府,泉佐野市,上瓦屋５２４番地,,27,213,5980001,,,2025-10-30,清算の結了等,,,2015-10-05,1,,,,,フジショウジ,0
502,2140001133997,登記記録の閉鎖等,0,2025-11-12,2025-11-04,株式会社ピグモ,,株式会社,兵庫県,姫路市,飾磨区英賀保駅前町６７番地－１１０２,,28,201,6728091,,,2025-11-04,清算の結了等,,,2024-04-11,1,,,,,ピグモ,0
504,2140003010022,登記記録の閉鎖等,0,2025-11-12,2025-11-05,合同会社ＵＲＳ８号,,合同会社,兵庫県,神戸市中央区,雲井通１丁目１番１－２１１号,,28,110,6510096,,,2025-11-05,清算の結了等,,,2015-10-05,1,,,,,ユーアールエスハチゴウ,0
511,2170005002535,登記記録の閉鎖等,0,2025-11-12,2025-11-10,湯浅小売酒販組合,,その他の設立登記法人,和歌山県,有田郡湯浅町,大字湯浅３１８５番地,,30,361,6430004,,,2025-11-10,清算の結了等,,,2015-10-05,1,,,,,ユアサコウリ,0
524,2180303004926,登記記録の閉鎖等,0,2025-11-12,2025-11-07,小豆坂システムズ合同会社,,合同会社,愛知県,岡崎市,不吹町１４番地６４ガーデンヒルズ不吹３０５,,23,202,4440817,,,2025-11-07,清算の結了等,,,2021-03-19,1,,,,,アズキザカシステムズ,0
528,2190002020422,登記記録の閉鎖等,0,2025-11-12,2025-11-05,有限会社サンリョウ,,有限会社,三重県,四日市市,大字茂福５６２番地の１,,24,202,5108027,,,2025-11-05,清算の結了等,,,2015-10-05,1,,,,,サンリョウ,0
530,2200002020759,登記記録の閉鎖等,0,2025-11-12,2025-11-10,有限会社ミズノ興産,,有限会社,岐阜県,多治見市,山下町５１番地,,21,204,5070845,,,2025-11-10,清算の結了等,,,2015-10-05,1,,,,,ミズノコウサン,0
533,2210002003853,登記記録の閉鎖等,0,2025-11-12,2025-11-04,株式会社ヤマザキ,,株式会社,福井県,福井市,真木町第１０６号１３番地,,18,201,9188184,,,2025-11-04,合併による解散等,1210001004309,令和７年１１月１日福井市米松二丁目２４番２７号吉野産業株式会社（1210001004309）に合併し解散,2015-10-05,1,,,,,ヤマザキ,0
539,2240002030168,登記記録の閉鎖等,0,2025-11-12,2025-11-10,高橋運輸有限会社,,有限会社,広島県,三次市,粟屋町１５９番地,,34,209,7280025,,,2025-11-10,清算の結了等,,,2015-10-05,1,,,,,,0
545,2290001025370,登記記録の閉鎖等,0,2025-11-12,2025-10-28,株式会社福岡三誠,,株式会社,福岡県,福岡市東区,原田４丁目２２番１１号,,40,131,8120063,,,2025-10-28,清算の結了等,,,2015-10-05,1,,,,,フクオカサンセイ,0
548,2290001061102,登記記録の閉鎖等,0,2025-11-12,2025-10-24,株式会社チームふらっと,,株式会社,福岡県,福岡市中央区,天神３丁目９－１０－３０３,,40,133,8100001,,,2025-10-24,清算の結了等,,,2015-10-05,1,,,,,チームフラット,0
558,2290801001001,登記記録の閉鎖等,0,2025-11-12,2025-11-07,協和興産株式会社,,株式会社,福岡県,北九州市小倉南区,徳力２丁目３番６号,,40,107,8020974,,,2025-11-07,合併による解散等,4290001005916,令和７年１０月１日福岡市中央区渡辺通三丁目１番１０号相光石油株式会社（4290001005916）に合併し解散,2015-10-05,1,,,,,,0
567,2330002025183,登記記録の閉鎖等,0,2025-11-12,2025-11-05,有限会社仲米屋,,有限会社,熊本県,宇城市,三角町三角浦１１６０番地の４８,,43,213,8693207,,,2025-11-05,清算の結了等,,,2015-10-05,1,,,,,,0
592,2460001000281,登記記録の閉鎖等,0,2025-11-12,2025-11-07,株式会社神山商店,,株式会社,北海道,釧路市,星が浦南２丁目６番１０号,,01,206,0840913,,,2025-11-07,清算の結了等,,,2025-03-11,1,,,,,カミヤマショウテン,0
593,2470001003440,登記記録の閉鎖等,0,2025-11-12,2025-11-07,株式会社美建,,株式会社,香川県,高松市,春日町９７８番地,,37,201,7610101,,,2025-11-07,清算の結了等,,,2015-10-05,1,,,,,ビケン,0
594,2470002009528,登記記録の閉鎖等,0,2025-11-12,2025-11-07,有限会社ノーソ,,有限会社,香川県,高松市,香川町川東上１３０８番地１,,37,201,7611706,,,2025-11-07,清算の結了等,,,2015-10-05,1,,,,,,0
598,2470002011608,登記記録の閉鎖等,0,2025-11-12,2025-11-06,有限会社クレオ,,有限会社,香川県,丸亀市,塩屋町５丁目４番３－１１０号,,37,202,7630065,,,2025-11-06,清算の結了等,,,2015-10-05,1,,,,,クレオ,0
600,2500001023831,登記記録の閉鎖等,0,2025-11-12,2025-11-04,株式会社ＫＡＩＴ,,株式会社,愛媛県,今治市,南宝来町１丁目８番地１８,,38,202,7940043,,,2025-11-04,合併による解散等,6500001020222,令和７年１１月１日愛媛県今治市常盤町四丁目５番地４株式会社蓮海（6500001020222）に合併し解散,2021-11-24,1,,,,,カイト,0
616,3010002038398,登記記録の閉鎖等,0,2025-11-12,2025-10-31,有限会社日比谷ＳＰＣ,,有限会社,東京都,千代田区,有楽町１丁目５番１号,,13,101,1000006,,,2025-10-31,清算の結了等,,,2015-10-05,1,,,,,ヒビヤエスピーシー,0
617,3010002051632,登記記録の閉鎖等,0,2025-11-12,2025-10-31,有限会社高津事務所,,有限会社,東京都,中央区,勝どき６丁目３番１－１５１５号,,13,102,1040054,,,2025-10-31,清算の結了等,,,2015-10-05,1,,,,,タカツジムショ,0
619,3010003033456,登記記録の閉鎖等,0,2025-11-12,2025-11-04,合同会社クローバー２０２１,,合同会社,東京都,千代田区,丸の内１丁目４番１号東京共同会計事務所内,,13,101,1000005,,,2025-11-04,清算の結了等,,,2020-11-06,1,,,,,クローバーニセンニジュウイチ,0
629,3010501012580,登記記録の閉鎖等,0,2025-11-12,2025-11-05,株式会社豊栄ビニール工業,,株式会社,東京都,台東区,谷中２丁目３番１４号,,13,106,1100001,,,2025-11-05,清算の結了等,,,2015-10-05,1,,,,,ホウエイビニールコウギョウ,0
637,3010702014434,登記記録の閉鎖等,0,2025-11-12,2025-11-06,有限会社総合会計社,,有限会社,東京都,品川区,東五反田５丁目１１番１２号,,13,109,1410022,,,2025-11-06,清算の結了等,,,2015-10-05,1,,,,,,0
642,3010901031049,登記記録の閉鎖等,0,2025-11-12,2025-11-06,ＴＭＣ　ＪＡＰＡＮ株式会社,,株式会社,東京都,世田谷区,奥沢６丁目２７番２号,,13,112,1580083,,,2025-11-06,清算の結了等,,,2015-10-05,1,,,,,ティーエムシージャパン,0
655,3011002003367,登記記録の閉鎖等,0,2025-11-12,2025-10-14,有限会社木引プロダクション,,有限会社,東京都,渋谷区,猿楽町９番５－９０５号,,13,113,1500033,,,2025-10-14,清算の結了等,,,2015-10-05,1,,,,,キビキプロダクション,0
656,3011003007004,登記記録の閉鎖等,0,2025-11-12,2025-11-10,合同会社ロイヤルブルー,,合同会社,東京都,目黒区,目黒１丁目４番１６号,,13,110,1530063,,,2025-11-10,合併による解散等,2010903003170,令和７年１０月３１日東京都世田谷区瀬田四丁目３５番６号合同会社ルビーランド（2010903003170）に合併し解散,2016-08-12,1,,,,,,0
659,3011101017739,登記記録の閉鎖等,0,2025-11-12,2025-10-10,株式会社ビーアールディ,,株式会社,東京都,新宿区,西新宿８丁目７番２号,,13,104,1600023,,,2025-10-10,清算の結了等,,,2015-10-05,1,,,,,ビーアールディ,0
665,3011201001601,登記記録の閉鎖等,0,2025-11-12,2025-11-06,株式会社建築設計エスカルゴ,,株式会社,東京都,中野区,東中野１丁目２２番２１号,,13,114,1640003,,,2025-11-06,清算の結了等,,,2015-10-05,1,,,,,ケンチクセッケイエスカルゴ,0
672,3011701011075,登記記録の閉鎖等,0,2025-11-12,2025-11-04,株式会社中和,,株式会社,東京都,江戸川区,東小岩６丁目３０番１８号,,13,123,1330052,,,2025-11-04,清算の結了等,,,2015-10-05,1,,,,,チュウワ,0
677,3011802008185,登記記録の閉鎖等,0,2025-11-12,2025-11-04,有限会社弥生商事,,有限会社,東京都,葛飾区,立石８丁目４５番１４号,,13,122,1240012,,,2025-11-04,清算の結了等,,,2015-10-05,1,,,,,ヤヨイショウジ,0
679,3012403003162,登記記録の閉鎖等,0,2025-11-12,2025-11-05,ポパイマネジメント合同会社,,合同会社,東京都,小金井市,貫井北町３丁目３７番３－３０９号コーポラス小金井,,13,210,1840015,,,2025-11-05,清算の結了等,,,2017-07-28,1,,,,,ポパイマネジメント,0
694,3020002089705,登記記録の閉鎖等,0,2025-11-12,2025-11-05,有限会社翼工業,,有限会社,神奈川県,川崎市高津区,久末２０４６番地１,,14,134,2130026,,,2025-11-05,清算の結了等,,,2015-10-05,1,,,,,ツバサコウギョウ,0
698,3020005007531,登記記録の閉鎖等,0,2025-11-12,2025-10-09,社会福祉法人枡形鳳翔会,,その他の設立登記法人,神奈川県,川崎市多摩区,枡形６丁目４番２５号,,14,135,2140032,,,2025-10-09,合併による解散等,3240005003616,令和７年１０月１日広島県東広島市八本松町原１１１７１番地の１社会福祉法人葵新生会（3240005003616）に合併し解散,2015-10-05,1,,,,,マスガタホウショウカイ,0
704,3021001063948,登記記録の閉鎖等,0,2025-11-12,2025-10-22,株式会社オクト,,株式会社,神奈川県,藤沢市,片瀬３丁目８番２０号片瀬マツモトビル３０２,,14,205,2510032,,,2025-10-22,清算の結了等,,,2018-01-17,1,,,,,,0
706,3021002016260,登記記録の閉鎖等,0,2025-11-12,2025-10-24,有限会社カメヤマ,,有限会社,神奈川県,鎌倉市,笛田２丁目１６番１号,,14,204,2480027,,,2025-10-24,清算の結了等,,,2015-10-05,1,,,,,カメヤマ,0
712,3030001051284,登記記録の閉鎖等,0,2025-11-12,2025-11-05,株式会社トムズ,,株式会社,埼玉県,春日部市,中央１丁目４番地１６,,11,214,3440067,,,2025-11-05,清算の結了等,,,2015-10-05,1,,,,,トムズ,0
725,3040001070993,登記記録の閉鎖等,0,2025-11-12,2025-10-10,株式会社ＲＩＡＮ,,株式会社,千葉県,柏市,豊四季９７３番地３,,12,217,2770863,,,2025-10-10,清算の結了等,,,2015-10-05,1,,,,,リアン,0
731,3050002020063,登記記録の閉鎖等,0,2025-11-12,2025-10-28,有限会社中島工務店,,有限会社,茨城県,坂東市,弓田３０６７番地２,,08,228,3060607,,,2025-10-28,清算の結了等,,,2015-10-05,1,,,,,ナカジマコウムテン,0
745,3080105005223,登記記録の閉鎖等,0,2025-11-12,2025-10-29,ふじのくに静岡家電協同組合,,その他の設立登記法人,静岡県,沼津市,三枚橋町６番２４号,,22,203,4100037,,,2025-10-29,清算の結了等,,,2015-10-05,1,,,,,フジノクニシズオカカデン,0
746,3080401018168,登記記録の閉鎖等,0,2025-11-12,2025-11-04,株式会社たから,,株式会社,静岡県,浜松市中央区,西山町２１６９番地の１,,22,138,4328001,,,2025-11-04,清算の結了等,,,2015-10-05,1,,,,,タカラ,0
753,3090002001290,登記記録の閉鎖等,0,2025-11-12,2025-11-04,有限会社サン工芸,,有限会社,山梨県,甲府市,高畑１丁目１２番１３号,,19,201,4000042,,,2025-11-04,清算の結了等,,,2015-10-05,1,,,,,サンコウゲイ,0
754,3090002010564,登記記録の閉鎖等,0,2025-11-12,2025-11-06,有限会社由木木工所,,有限会社,山梨県,都留市,井倉７７５番地４,,19,204,4020011,,,2025-11-06,清算の結了等,,,2015-10-05,1,,,,,ユギモッコウショ,0
758,3100002031443,登記記録の閉鎖等,0,2025-11-12,2025-11-10,有限会社大丸,,有限会社,長野県,岡谷市,中央町１丁目１１番１号,,20,204,3940027,,,2025-11-10,清算の結了等,,,2015-10-05,1,,,,,ダイマル,0
768,3120001200823,登記記録の閉鎖等,0,2025-11-12,2025-11-04,株式会社Ａｇ,,株式会社,大阪府,大阪市生野区,巽南１丁目１３番２２号,00107910,27,116,5440015,,,2025-11-04,合併による解散等,6120001124581,令和７年１１月１日大阪市生野区巽南一丁目１３番２２号株式会社ステップス（6120001124581）に合併し解散,2016-09-27,1,,,,,エージー,0
787,3120005006143,登記記録の閉鎖等,0,2025-11-12,2025-10-30,西日本ドラム缶協同組合,,その他の設立登記法人,大阪府,大阪市北区,中之島３丁目３番２３号中之島ダイビル６０１ｃ号室,,27,127,5300005,,,2025-10-30,清算の結了等,,,2015-10-05,1,,,,,ニシニホンドラムカン,0
790,3120901020478,登記記録の閉鎖等,0,2025-11-12,2025-10-31,株式会社ＣＯＭＯＮ館,,株式会社,大阪府,箕面市,今宮２丁目３番１７号,,27,220,5620033,,,2025-10-31,清算の結了等,,,2015-10-05,1,,,,,,0
791,3120901032770,登記記録の閉鎖等,0,2025-11-12,2025-10-31,株式会社ゼフォール,,株式会社,大阪府,高槻市,京口町１０－１７,,27,207,5690072,,,2025-10-31,清算の結了等,,,2015-10-05,1,,,,,ゼフォール,0
794,3120905006028,登記記録の閉鎖等,0,2025-11-12,2025-10-27,一般社団法人できわかクリエイターズ,,その他の設立登記法人,大阪府,茨木市,東太田２丁目９番２２号,,27,211,5670012,,,2025-10-27,清算の結了等,,,2020-06-15,1,,,,,デキワカクリエーターズ,0
795,3122001002167,登記記録の閉鎖等,0,2025-11-12,2025-11-06,株式会社コーテック,,株式会社,大阪府,東大阪市,高井田中３丁目１２番９号,,27,227,5770065,,,2025-11-06,清算の結了等,,,2015-10-05,1,,,,,コーテック,0
821,3180001006018,登記記録の閉鎖等,0,2025-11-12,2025-11-07,株式会社アンテーラー,,株式会社,愛知県,名古屋市港区,多加良浦町３丁目２４番地の１,,23,111,4550825,,,2025-11-07,清算の結了等,,,2015-10-05,1,,,,,アンテーラー,0
848,3210002000726,登記記録の閉鎖等,0,2025-11-12,2025-11-07,有限会社大河原木工,,有限会社,福井県,福井市,浄教寺町第３号７２番地,,18,201,9102155,,,2025-11-07,清算の結了等,,,2015-10-05,1,,,,,オオカワラモッコウ,0
864,3280001006189,登記記録の閉鎖等,0,2025-11-12,2025-11-07,株式会社ＡＲＡＴＡ,,株式会社,島根県,大田市,大田町大田イ３８０－１,,32,205,6940064,,,2025-11-07,合併による解散等,1270002005275,令和７年１０月３１日鳥取県米子市新開七丁目１１－１７株式会社静間（1270002005275）に合併し解散,2015-10-05,1,,,,,,0
874,3290002016434,登記記録の閉鎖等,0,2025-11-12,2025-10-24,有限会社東食,,有限会社,福岡県,福岡市東区,松島４丁目１１番２０号,,40,131,8130062,,,2025-10-24,清算の結了等,,,2015-10-05,1,,,,,トウショク,0
882,3330001010301,登記記録の閉鎖等,0,2025-11-12,2025-11-05,西日本特殊工業株式会社,,株式会社,熊本県,山鹿市,津留３０１３番地の１,,43,208,8610551,,,2025-11-05,合併による解散等,3011101016047,令和７年１０月１日東京都新宿区内藤町１番地株式会社カンドー（3011101016047）に合併し解散,2015-10-05,1,,,,,ニシニホントクシュコウギョウ,0
886,3330001025605,登記記録の閉鎖等,0,2025-11-12,2025-11-04,株式会社本郷,,株式会社,熊本県,上益城郡甲佐町,大字糸田１４０５番地,,43,444,8613242,,,2025-11-04,清算の結了等,,,2018-08-21,1,,,,,ホンゴウ,0
899,3370001041648,登記記録の閉鎖等,0,2025-11-12,2025-10-31,株式会社寿宝堂,,株式会社,宮城県,仙台市若林区,古城３丁目１３番２５号,,04,103,9840825,,,2025-10-31,清算の結了等,,,2017-06-12,1,,,,,ジュホウドウ,0
917,3430001022864,登記記録の閉鎖等,0,2025-11-12,2025-11-06,丸エム南建設株式会社,,株式会社,北海道,札幌市清田区,美しが丘四条８丁目１番２０号,,01,110,0040814,,,2025-11-06,清算の結了等,,,2015-10-05,1,,,,,マルエムミナミケンセツ,0
924,3450002010429,登記記録の閉鎖等,0,2025-11-12,2025-11-07,有限会社オートクラフト,,有限会社,北海道,上川郡剣淵町,東町２２４７番地,,01,465,0980341,,,2025-11-07,清算の結了等,,,2015-10-05,1,,,,,,0
934,4010001056185,登記記録の閉鎖等,0,2025-11-12,2025-10-31,株式会社ブランズハッチ,,株式会社,東京都,中央区,入船１丁目７番７号会田ビル２Ｆ,,13,102,1040042,,,2025-10-31,清算の結了等,,,2015-10-05,1,,,,,ブランズハッチ,0
945,4010005018314,登記記録の閉鎖等,0,2025-11-12,2025-11-07,特定非営利活動法人聞こえいきいき,,その他の設立登記法人,東京都,中央区,日本橋本町３丁目１番地６号日本橋永谷ビル９０４１号室,,13,102,1030023,,,2025-11-07,清算の結了等,,,2015-10-05,1,,,,,キコエイキイキ,0
971,4011001127389,登記記録の閉鎖等,0,2025-11-12,2025-10-15,シダックス・スターフェスティバル株式会社,,株式会社,東京都,港区,北青山２丁目１４番４号,,13,103,1070061,,,2025-10-15,清算の結了等,,,2019-04-08,1,,,,,シダックススターフェスティバル,0
975,4011001163863,登記記録の閉鎖等,0,2025-11-12,2025-10-10,ｓｗｅｅｔ　ｓｐｏｔ株式会社,,株式会社,東京都,渋谷区,道玄坂１丁目１０番８号渋谷道玄坂東急ビル２Ｆ－Ｃ,,13,113,1500043,,,2025-10-10,清算の結了等,,,2024-08-08,1,,,,,スウィートスポット,0
999,4011601024589,登記記録の閉鎖等,0,2025-11-12,2025-11-04,株式会社ニュートラル,,株式会社,埼玉県,さいたま市南区,別所５丁目１５番２号,,11,108,3360021,,,2025-11-04,合併による解散等,4120001179207,令和７年１１月１日埼玉県さいたま市浦和区岸町４－１７－１株式会社エレファント（4120001179207）に合併し解散,2020-10-28,1,,,,,ニュートラル,0
1005,4012702005916,登記記録の閉鎖等,0,2025-11-12,2025-11-05,有限会社古川建設,,有限会社,東京都,西東京市,住吉町４丁目３番１３号,,13,229,2020005,,,2025-11-05,清算の結了等,,,2015-10-05,1,,,,,フルカワケンセツ,0
1011,4020001030577,登記記録の閉鎖等,0,2025-11-12,2025-11-04,大晃産業株式会社,,株式会社,神奈川県,横浜市神奈川区,新子安１丁目３２番５号,,14,102,2210013,,,2025-11-04,清算の結了等,,,2015-10-05,1,,,,,タイコウサンギョウ,0
1015,4020001118001,登記記録の閉鎖等,0,2025-11-12,2025-11-04,株式会社横浜寿工業,,株式会社,神奈川県,横浜市泉区,中田西４丁目７番１８号,,14,116,2450015,,,2025-11-04,清算の結了等,,,2016-09-28,1,,,,,,0
1023,4020003013976,登記記録の閉鎖等,0,2025-11-12,2025-10-31,合同会社エムケイコーポレーション,,合同会社,神奈川県,川崎市宮前区,宮崎１２１番地１５,,14,136,2160033,,,2025-10-31,清算の結了等,,,2018-02-20,1,,,,,エムケイコーポレーション,0
1026,4021001057833,登記記録の閉鎖等,0,2025-11-12,2025-10-23,株式会社ＭＴＳ,,株式会社,神奈川県,平塚市,入野２４４番地の９,,14,203,2591216,,,2025-10-23,清算の結了等,,,2015-11-19,1,,,,,エムティーエス,0
1028,4021002039896,登記記録の閉鎖等,0,2025-11-12,2025-10-01,有限会社アドヴァン・コスモ,,有限会社,神奈川県,藤沢市,長後１３４３番地の３,,14,205,2520801,,,2025-10-01,合併による解散等,1021001009341,令和７年１０月１日神奈川県藤沢市長後１３４３番地の３東湘印版株式会社（1021001009341）に合併し解散,2015-10-05,1,,,,,アドヴァンコスモ,0
1036,4030001129798,登記記録の閉鎖等,0,2025-11-12,2025-10-10,株式会社Ｒｉｓｏ,,株式会社,東京都,渋谷区,恵比寿２丁目２８番１０号,,13,113,1500013,,,2025-10-10,清算の結了等,,,2019-03-06,1,,,,,リーゾ,0
1043,4030002047669,登記記録の閉鎖等,0,2025-11-12,2025-11-06,有限会社原製作所,,有限会社,埼玉県,八潮市,大字南後谷７１４番地７,,11,234,3400831,,,2025-11-06,清算の結了等,,,2015-10-05,1,,,,,ハラセイサクジョ,0
1044,4030002119096,登記記録の閉鎖等,0,2025-11-12,2025-11-06,有限会社南興産,,有限会社,埼玉県,熊谷市,久下４丁目２１番地,,11,202,3600026,,,2025-11-06,清算の結了等,,,2015-10-05,1,,,,,ミナミコウサン,0
1050,4040003024699,登記記録の閉鎖等,0,2025-11-12,2025-10-08,合同会社タビ高等学院,,合同会社,千葉県,浦安市,明海１丁目３番９号夢海の街３０６号室,,12,227,2790014,,,2025-10-08,清算の結了等,,,2024-04-10,1,,,,,タビコウトウガクイン,0
1055,4050001028040,登記記録の閉鎖等,0,2025-11-12,2025-11-04,株式会社計算センター・パスコム,,株式会社,東京都,江戸川区,平井６丁目４０番３号,,13,123,1320035,,,2025-11-04,清算の結了等,,,2015-10-05,1,,,,,ケイサンセンターパスコム,0
1060,4050002040003,登記記録の閉鎖等,0,2025-11-12,2025-11-04,有限会社明文堂書店,,有限会社,茨城県,常総市,水海道宝町３３８５番地,,08,211,3030023,,,2025-11-04,清算の結了等,,,2015-10-05,1,,,,,メイブンドウショテン,0
1067,4080402002335,登記記録の閉鎖等,0,2025-11-12,2025-11-05,有限会社きくち自動車鈑金塗装,,有限会社,静岡県,浜松市中央区,高丘北３丁目３３番１６号,,22,138,4338119,,,2025-11-05,清算の結了等,,,2015-10-05,1,,,,,キクチジドウシャバンキントソウ,0
1074,4110002000495,登記記録の閉鎖等,0,2025-11-12,2025-11-06,有限会社朝日建機サービス,,有限会社,新潟県,新潟市西区,寺尾北１丁目４番１９号,,15,107,9502061,,,2025-11-06,清算の結了等,,,2015-10-05,1,,,,,アサヒケンキサービス,0
1095,4120901037389,登記記録の閉鎖等,0,2025-11-12,2025-11-06,株式会社エンブフォー,,株式会社,東京都,品川区,北品川１丁目１２－１０ジャコムビル,,13,109,1400001,,,2025-11-06,清算の結了等,,,2016-09-20,1,,,,,エンブフォー,0
1096,4120901050994,登記記録の閉鎖等,0,2025-11-12,2025-10-29,ボーダレスウィル株式会社,,株式会社,大阪府,豊中市,野田町１－１,,27,203,5610855,,,2025-10-29,清算の結了等,,,2025-06-10,1,,,,,ボーダレスウィル,0
1103,4140001072186,登記記録の閉鎖等,0,2025-11-12,2025-11-10,株式会社ＪＯＹＸ,,株式会社,大阪府,大阪市西区,江戸堀２丁目８番２５号,,27,106,5500002,,,2025-11-10,合併による解散等,1140001039428,令和７年１０月３１日兵庫県佐用郡佐用町上秋里１０６１番地の４株式会社ＪＯＹＸ（1140001039428）に合併し解散,2015-10-05,1,,,,,ジョイックス,0
1109,4140002044820,登記記録の閉鎖等,0,2025-11-12,2025-11-05,有限会社ウララ,,有限会社,兵庫県,尼崎市,水堂町２丁目１５番６号,,28,202,6610026,,,2025-11-05,清算の結了等,,,2015-10-05,1,,,,,ウララ,0
1119,4180001115379,登記記録の閉鎖等,0,2025-11-12,2025-10-29,株式会社さちのはな,,株式会社,愛知県,名古屋市東区,相生町８０番地２０１,,23,102,4610012,,,2025-10-29,合併による解散等,4180001072389,令和７年１０月２９日名古屋市東区相生町７９番地１第２足立ビル１Ｆ株式会社天仁（4180001072389）に合併し解散,2015-10-05,1,,,,,サチノハナ,0
1129,4180002020058,登記記録の閉鎖等,0,2025-11-12,2025-11-07,有限会社梅治ベーカリー,,有限会社,愛知県,名古屋市熱田区,白鳥２丁目１０番３０号,,23,109,4560035,,,2025-11-07,清算の結了等,,,2015-10-05,1,,,,,ウメハルベーカリー,0
1133,4180005008315,登記記録の閉鎖等,0,2025-11-12,2025-11-10,医療法人吉栄会,,その他の設立登記法人,愛知県,春日井市,春見町５２番地の１,,23,206,4860837,,,2025-11-10,清算の結了等,,,2015-10-05,1,,,,,キチエイカイ,0
1146,4200002013513,登記記録の閉鎖等,0,2025-11-12,2025-11-04,有限会社三榮,,有限会社,神奈川県,横浜市港北区,新横浜２丁目１５番１２号,,14,109,2220033,,,2025-11-04,合併による解散等,9010001098066,令和７年１１月１日神奈川県横浜市港北区新横浜二丁目１５番１２号ルナ調剤株式会社（9010001098066）に合併し解散,2015-10-05,1,,,,,サンエイ,0
1148,4210002004429,登記記録の閉鎖等,0,2025-11-12,2025-11-07,有限会社ネットウィン,,有限会社,福井県,福井市,文京３丁目１４番１号明春コーポ１０３号,,18,201,9100017,,,2025-11-07,清算の結了等,,,2015-10-05,1,,,,,ネットウィン,0
1153,4230001017586,登記記録の閉鎖等,0,2025-11-12,2025-11-04,広貫堂Ｈ＆Ｆ株式会社,,株式会社,富山県,富山市,梅沢町２丁目９番１号,,16,201,9300055,,,2025-11-04,合併による解散等,4230001000864,令和７年１１月１日富山市梅沢町二丁目９番１号株式会社廣貫堂（4230001000864）に合併し解散,2018-09-11,1,,,,,コウカンドウエイチアンドエフ,0
1154,4240001004195,登記記録の閉鎖等,0,2025-11-12,2025-11-10,サンパック株式会社,,株式会社,島根県,益田市,高津６丁目１９－１４,,32,204,6980041,,,2025-11-10,清算の結了等,,,2015-10-05,1,,,,,サンパック,0
1162,4250001000771,登記記録の閉鎖等,0,2025-11-12,2025-11-10,株式会社村橋産業,,株式会社,山口県,山口市,仁保中郷６５３番地,,35,203,7530302,,,2025-11-10,清算の結了等,,,2015-10-05,1,,,,,ムラハシサンギョウ,0
1169,4290001038271,登記記録の閉鎖等,0,2025-11-12,2025-10-30,三光モーター株式会社,,株式会社,福岡県,糟屋郡志免町,桜丘１丁目３３番１３号,,40,343,8112201,,,2025-10-30,清算の結了等,,,2015-10-05,1,,,,,サンコウモーター,0
1174,4290801020544,登記記録の閉鎖等,0,2025-11-12,2025-11-06,株式会社加藤組,,株式会社,福岡県,北九州市小倉北区,砂津２丁目６番６号,,40,106,8020014,,,2025-11-06,清算の結了等,,,2015-10-05,1,,,,,カトウグミ,0
1184,4360001013572,登記記録の閉鎖等,0,2025-11-12,2025-11-05,株式会社南十字星エフエム,,株式会社,沖縄県,石垣市,字石垣５２４番地の４６,,47,207,9070023,,,2025-11-05,清算の結了等,,,2015-10-05,1,,,,,ミナミジュウジセイエフエム,0
1192,4370001011831,登記記録の閉鎖等,0,2025-11-12,2025-11-04,時空化学株式会社,,株式会社,宮城県,仙台市泉区,南光台南１丁目１番５号,,04,105,9818002,,,2025-11-04,合併による解散等,4370001000834,令和７年１１月１日仙台市泉区南光台南一丁目１番５号株式会社関兵（4370001000834）に合併し解散,2015-10-05,1,,,,,ジクウカガク,0
1200,4380005007833,登記記録の閉鎖等,0,2025-11-12,2025-10-15,医療法人徒之町クリニック,,その他の設立登記法人,福島県,会津若松市,徒之町４番２５号,,07,202,9650802,,,2025-10-15,合併による解散等,8350005002833,令和７年１０月１日宮崎県延岡市出北一丁目３番２０号医療法人社団永和舎（8350005002833）に合併し解散,2015-10-05,1,,,,,カチノマチクリニック,0
1202,4400602000262,登記記録の閉鎖等,0,2025-11-12,2025-11-04,有限会社コタケヤ,,有限会社,岩手県,奥州市,水沢字吉小路５３番地,,03,215,0230054,,,2025-11-04,清算の結了等,,,2015-10-05,1,,,,,コタケヤ,0
1209,4430002044361,登記記録の閉鎖等,0,2025-11-12,2025-11-10,有限会社さいとうサービス,,有限会社,北海道,札幌市白石区,北郷二条１４丁目４番１－３号,,01,104,0030832,,,2025-11-10,清算の結了等,,,2015-10-05,1,,,,,サイトウサービス,0
1212,4470001011648,登記記録の閉鎖等,0,2025-11-12,2025-11-06,株式会社Ｔ＆Ｓ工房,,株式会社,香川県,東かがわ市,松原４７７番地,,37,207,7692702,,,2025-11-06,清算の結了等,,,2015-10-05,1,,,,,ティーアンドエスコウボウ,0
1215,4470002018411,登記記録の閉鎖等,0,2025-11-12,2025-11-07,有限会社佐々木手袋,,有限会社,香川県,東かがわ市,湊１６５７番地,,37,207,7692701,,,2025-11-07,清算の結了等,,,2015-10-05,1,,,,,,0
1246,5010401004206,登記記録の閉鎖等,0,2025-11-12,2025-10-14,株式会社エイピーインターナショナル,,株式会社,東京都,港区,六本木５丁目１７番１号,,13,103,1060032,,,2025-10-14,清算の結了等,,,2015-10-05,1,,,,,,0
1276,5010801011495,登記記録の閉鎖等,0,2025-11-12,2025-11-04,ミサワエンジニアリング株式会社,,株式会社,東京都,大田区,中央８丁目１４番９号,,13,111,1430024,,,2025-11-04,清算の結了等,,,2015-10-05,1,,,,,ミサワエンジニアリング,0
1285,5010902001255,登記記録の閉鎖等,0,2025-11-12,2025-11-10,有限会社飯田内装表具店,,有限会社,東京都,世田谷区,船橋１丁目１１番２号,,13,112,1560055,,,2025-11-10,清算の結了等,,,2015-10-05,1,,,,,イイダナイソウヒョウグテン,0
1310,5011805002480,登記記録の閉鎖等,0,2025-11-12,2025-10-30,特定非営利活動法人徳芯道,,その他の設立登記法人,東京都,足立区,竹の塚１丁目１８番１０号,,13,121,1210813,,,2025-10-30,清算の結了等,,,2015-10-05,1,,,,,トクシンドウ,0
1314,5012405004256,登記記録の閉鎖等,0,2025-11-12,2025-11-07,特定非営利活動法人ＲＥＢＯＲＮ,,その他の設立登記法人,東京都,三鷹市,下連雀３丁目４３番３号欅ビル５階,,13,204,1810013,,,2025-11-07,清算の結了等,,,2018-11-15,1,,,,,リボーン,0
1318,5013301040485,登記記録の閉鎖等,0,2025-11-12,2025-11-04,株式会社イノケン,,株式会社,東京都,杉並区,松庵１丁目６番１７号テラスサンリーフＣ号室,,13,115,1670054,,,2025-11-04,清算の結了等,,,2017-05-09,1,,,,,イノケン,0
1319,5013401001395,登記記録の閉鎖等,0,2025-11-12,2025-11-06,東京ミニッグ株式会社,,株式会社,東京都,多摩市,和田１７３１番地,,13,224,2060001,,,2025-11-06,清算の結了等,,,2015-10-05,1,,,,,トウキョウミニッグ,0
1326,5020001139715,登記記録の閉鎖等,0,2025-11-12,2025-10-31,株式会社仲介手数料相談所ネクストステージ,,株式会社,神奈川県,横浜市磯子区,久木町１３番１号,,14,107,2350015,,,2025-10-31,清算の結了等,,,2021-01-29,1,,,,,チュウカイテスウリョウソウダンジョネクストステージ,0
1327,5020001153146,登記記録の閉鎖等,0,2025-11-12,2025-10-31,株式会社Ｄｉｓｈ　Ｂｅｌｌ,,株式会社,神奈川県,横浜市港北区,高田東１丁目４２番１０号,,14,109,2230065,,,2025-10-31,清算の結了等,,,2023-08-22,1,,,,,ディッシュベル,0
1335,5021005004120,登記記録の閉鎖等,0,2025-11-12,2025-10-21,企業組合Ｆｕ－Ｌｉｍｅ,,その他の設立登記法人,神奈川県,厚木市,愛名１３４５番地,,14,212,2430038,,,2025-10-21,清算の結了等,,,2015-10-05,1,,,,,フーライム,0
1339,5030001094083,登記記録の閉鎖等,0,2025-11-12,2025-11-04,株式会社及川企画,,株式会社,埼玉県,草加市,長栄３丁目２２番地２,,11,221,3400051,,,2025-11-04,清算の結了等,,,2015-10-05,1,,,,,オイカワキカク,0
1343,5030002011005,登記記録の閉鎖等,0,2025-11-12,2025-11-07,有限会社ぱどる,,有限会社,埼玉県,さいたま市西区,三橋５丁目２５８番地,,11,101,3310052,,,2025-11-07,清算の結了等,,,2015-10-05,1,,,,,パドル,0
1346,5030002061586,登記記録の閉鎖等,0,2025-11-12,2025-11-05,有限会社寿和産業,,有限会社,埼玉県,新座市,栗原１丁目４番１８号,,11,230,3520035,,,2025-11-05,清算の結了等,,,2015-10-05,1,,,,,スワサンギョウ,0
1367,5060002034531,登記記録の閉鎖等,0,2025-11-12,2025-11-07,有限会社樋山商店,,有限会社,栃木県,下都賀郡壬生町,寿町６番２号,,09,361,3210212,,,2025-11-07,清算の結了等,,,2015-10-05,1,,,,,ヒヤマショウテン,0
1369,5060005009423,登記記録の閉鎖等,0,2025-11-12,2025-11-10,一般社団法人中央創生,,その他の設立登記法人,栃木県,宇都宮市,中戸祭１丁目９番１２号,,09,201,3200057,,,2025-11-10,清算の結了等,,,2018-02-26,1,,,,,チュウオウソウセイ,0
1373,5070002012635,登記記録の閉鎖等,0,2025-11-12,2025-11-06,有限会社横山ファミリー,,有限会社,群馬県,高崎市,竜見町１９９番地,,10,202,3700835,,,2025-11-06,清算の結了等,,,2015-10-05,1,,,,,ヨコヤマファミリー,0
1376,5070003004524,登記記録の閉鎖等,0,2025-11-12,2025-10-29,合同会社クアドリ,,合同会社,群馬県,館林市,美園町２５番３６号,,10,207,3740039,,,2025-10-29,清算の結了等,,,2022-06-23,1,,,,,クアドリ,0
1379,5080401005164,登記記録の閉鎖等,0,2025-11-12,2025-11-04,丸忠村木織物株式会社,,株式会社,静岡県,浜松市中央区,積志町５０５番地,,22,138,4313114,,,2025-11-04,清算の結了等,,,2015-10-05,1,,,,,マルチュウムラキオリモノ,0
1414,5120102028071,登記記録の閉鎖等,0,2025-11-12,2025-10-30,有限会社ファイナンシャルプロスタッフ,,有限会社,大阪府,阪南市,下出７１９番地の１サンウェルビル２－３０１,,27,232,5990202,,,2025-10-30,清算の結了等,,,2015-10-05,1,,,,,ファイナンシャルプロスタッフ,0
1416,5120901008967,登記記録の閉鎖等,0,2025-11-12,2025-10-29,アルファ技建株式会社,,株式会社,大阪府,摂津市,東一津屋５番１４号,,27,224,5660074,,,2025-10-29,清算の結了等,,,2015-10-05,1,,,,,アルファギケン,0
1433,5140001041842,登記記録の閉鎖等,0,2025-11-12,2025-10-15,フジフレッシュフーズ株式会社,,株式会社,兵庫県,丹波篠山市,味間新５番地１,,28,221,6692214,,,2025-10-15,合併による解散等,9120901026420,令和７年１０月１日大阪府豊中市利倉三丁目１２番１２号株式会社フジサニーフーズ（9120901026420）に合併し解散,2015-10-05,1,,,,,,0
1448,5140002046725,登記記録の閉鎖等,0,2025-11-12,2025-11-04,有限会社ＯＺＡＫＩ,,有限会社,兵庫県,豊岡市,下陰３９７番地の８,,28,209,6680012,,,2025-11-04,合併による解散等,7140001056946,令和７年１１月１日兵庫県豊岡市宮井１３６７番地の１兵庫エクスプレス株式会社（7140001056946）に合併し解散,2015-10-05,1,,,,,オザキ,0
1450,5140005001628,登記記録の閉鎖等,0,2025-11-12,2025-11-06,一般財団法人下谷上農村歌舞伎舞台保存会,,その他の設立登記法人,兵庫県,神戸市北区,山田町下谷上字宮の前７番地,,28,109,6511243,,,2025-11-06,清算の結了等,,,2015-10-05,1,,,,,シモタニガミノウソンカブキブタイホゾンカイ,0
1453,5140005005703,登記記録の閉鎖等,0,2025-11-12,2025-10-07,天理教魚住分教会,00042097,その他の設立登記法人,兵庫県,明石市,大久保町西島５２３番地,,28,203,6740065,,,2025-10-07,合併による解散等,9140005001335,令和７年１０月７日神戸市兵庫区東出町二丁目１１番１号天理教兵庫分教会（9140005001335）に合併し解散,2015-10-05,1,,,,,テンリキョウウオズミブンキョウカイ,0
1456,5180001056151,登記記録の閉鎖等,0,2025-11-12,2025-11-04,株式会社ＨＡＮＤ　ＹＯＵ,,株式会社,愛知県,名古屋市西区,大野木４丁目７０,,23,104,4520803,,,2025-11-04,清算の結了等,,,2015-10-05,1,,,,,ハンドユー,0
1462,5180001101543,登記記録の閉鎖等,0,2025-11-12,2025-11-04,株式会社寿蓮,,株式会社,愛知県,名古屋市中村区,沖田町３１７番地,,23,105,4530825,,,2025-11-04,清算の結了等,,,2015-10-05,1,,,,,ジュレン,0
1463,5180001102599,登記記録の閉鎖等,0,2025-11-12,2025-11-04,トーコー株式会社,,株式会社,愛知県,名古屋市天白区,植田１丁目６０６番地シティコーポ第２植田１０７号,,23,116,4680051,,,2025-11-04,清算の結了等,,,2015-10-05,1,,,,,トーコー,0
1466,5180001152165,登記記録の閉鎖等,0,2025-11-12,2025-11-04,株式会社ＫＧ,,株式会社,愛知県,一宮市,森本３丁目１７－２４－２０２,,23,203,4910831,,,2025-11-04,清算の結了等,,,2022-07-13,1,,,,,ケージー,0
1472,5200001026804,登記記録の閉鎖等,0,2025-11-12,2025-11-10,株式会社ＷｏｏＣｏｍｍｅｒｃｅ,,株式会社,岐阜県,岐阜市,薮田南１丁目４番１６号,,21,201,5008384,,,2025-11-10,清算の結了等,,,2015-10-05,1,,,,,ウーコマース,0
1475,5200002013504,登記記録の閉鎖等,0,2025-11-12,2025-11-05,有限会社研造製作,,有限会社,岐阜県,安八郡神戸町,大字和泉２０番地の９,,21,381,5032327,,,2025-11-05,清算の結了等,,,2015-10-05,1,,,,,ケンゾウセイサク,0
1479,5210002000071,登記記録の閉鎖等,0,2025-11-12,2025-11-07,愛コンタクト有限会社,,有限会社,福井県,福井市,学園１丁目１番１８号,,18,201,9100028,,,2025-11-07,清算の結了等,,,2015-10-05,1,,,,,アイコンタクト,0
1482,5220005004787,登記記録の閉鎖等,0,2025-11-12,2025-10-08,八幡神社,,その他の設立登記法人,石川県,七尾市,中島町大平参部１７６番地,,17,202,9292207,,,2025-10-08,合併による解散等,6220005004803,令和７年１０月８日石川県七尾市中島町藤瀬参部１２８番地藤津比古神社（6220005004803）に合併し解散,2015-10-05,1,,,,,ヤハタジンジャ,0
1484,5240001035314,登記記録の閉鎖等,0,2025-11-12,2025-11-06,株式会社優創,,株式会社,広島県,福山市,加茂町字粟根２０５番地３,,34,207,7202416,,,2025-11-06,清算の結了等,,,2015-10-05,1,,,,,ユウソウ,0
1496,5280001003936,登記記録の閉鎖等,0,2025-11-12,2025-11-11,島根石膏工業株式会社,,株式会社,島根県,大田市,久手町刺鹿５９２番地２,,32,205,6940052,,,2025-11-11,清算の結了等,,,2015-10-05,1,,,,,,0
1498,5280001007862,登記記録の閉鎖等,0,2025-11-12,2025-11-10,株式会社ＩＺＵＭＯＡＩ,,株式会社,島根県,出雲市,多伎町口田儀９０番地４,,32,203,6990904,,,2025-11-10,清算の結了等,,,2018-11-27,1,,,,,,0
1502,5290001080900,登記記録の閉鎖等,0,2025-11-12,2025-10-24,株式会社アカツキ福岡,,株式会社,福岡県,福岡市中央区,天神２丁目２番１２号Ｔ＆Ｊビルディング７Ｆ,,40,133,8100001,,,2025-10-24,清算の結了等,,,2018-03-28,1,,,,,アカツキフクオカ,0
1507,5290002039540,登記記録の閉鎖等,0,2025-11-12,2025-10-28,有限会社高塚タイル,00093363,有限会社,福岡県,太宰府市,三条２丁目２０番２２号,,40,221,8180111,,,2025-10-28,清算の結了等,,,2015-10-05,1,,,,,タカツカタイル,0
1520,5330002028803,登記記録の閉鎖等,0,2025-11-12,2025-11-04,有限会社鳥羽瀬商会,,有限会社,熊本県,天草市,今釜町１２番２８号,,43,215,8630012,,,2025-11-04,清算の結了等,,,2015-10-05,1,,,,,トバセショウカイ,0
1523,5350001017516,登記記録の閉鎖等,0,2025-11-12,2025-11-05,株式会社ライズ,,株式会社,宮崎県,宮崎市,橘通西１丁目５番２７号アーバン高塚８０２号室,,45,201,8800001,,,2025-11-05,清算の結了等,,,2022-01-12,1,,,,,ライズ,0
1525,5350002013729,登記記録の閉鎖等,0,2025-11-12,2025-11-06,有限会社アルプス工芸,,有限会社,宮崎県,都城市,郡元町２６３９番地,,45,202,8850013,,,2025-11-06,清算の結了等,,,2015-10-05,1,,,,,アルプスコウゲイ,0
1527,5360002019808,登記記録の閉鎖等,0,2025-11-12,2025-11-06,有限会社山一建設,,有限会社,沖縄県,名護市,字屋部８０７番地の１,,47,209,9050007,,,2025-11-06,清算の結了等,,,2015-10-05,1,,,,,ヤマイチケンセツ,0
1533,5370002020681,登記記録の閉鎖等,0,2025-11-12,2025-11-04,Ａｋ有住工業有限会社,,有限会社,宮城県,黒川郡大和町,もみじケ丘１丁目３４番地の７,,04,421,9813622,,,2025-11-04,清算の結了等,,,2015-10-05,1,,,,,エーケーアリズミコウギョウ,0
1537,5390005007336,登記記録の閉鎖等,0,2025-11-12,2025-11-07,農事組合法人白い森のめぐみ,,その他の設立登記法人,山形県,西置賜郡小国町,大字町原９３番地１,,06,401,9991332,,,2025-11-07,清算の結了等,,,2015-10-05,1,,,,,シロイモリノメグミ,0
1541,5420001004911,登記記録の閉鎖等,0,2025-11-12,2025-11-04,ケイ・アール株式会社,,株式会社,青森県,青森市,勝田１丁目１番１５号,,02,201,0300821,,,2025-11-04,清算の結了等,,,2015-10-05,1,,,,,ケイアール,0
1543,5430001036152,登記記録の閉鎖等,0,2025-11-12,2025-11-05,株式会社明光電建,,株式会社,北海道,札幌市西区,発寒六条１４丁目１７番７号,,01,107,0630826,,,2025-11-05,清算の結了等,,,2015-10-05,1,,,,,メイコウデンケン,0
1561,6010001005108,登記記録の閉鎖等,0,2025-11-12,2025-10-31,電子商事株式会社,,株式会社,東京都,文京区,本郷１丁目１３番７号ＫＧハイツ４０２,,13,105,1130033,,,2025-10-31,清算の結了等,,,2015-10-05,1,,,,,デンシショウジ,0
1580,6010101007549,登記記録の閉鎖等,0,2025-11-12,2025-11-10,株式会社Ｒ２サポート,,株式会社,東京都,八王子市,小宮町１１９４番地１６,,13,201,1920031,,,2025-11-10,清算の結了等,,,2015-10-05,1,,,,,アールトゥーサポート,0
1581,6010401034367,登記記録の閉鎖等,0,2025-11-12,2025-11-04,株式会社ニューデイ,,株式会社,東京都,杉並区,堀ノ内１丁目１５番１９号,,13,115,1660013,,,2025-11-04,清算の結了等,,,2015-10-05,1,,,,,ニューデイ,0
1615,6011001136157,登記記録の閉鎖等,0,2025-11-12,2025-10-08,株式会社ｍｙｃｒｅｗ,,株式会社,東京都,目黒区,上目黒３丁目２３番３号,,13,110,1530051,,,2025-10-08,合併による解散等,6011003006837,令和７年１０月１日東京都目黒区上目黒三丁目２３番３号合同会社カシミール（6011003006837）に合併し解散,2020-10-05,1,,,,,マイクルー,0
1639,6012803001309,登記記録の閉鎖等,0,2025-11-12,2025-11-04,イーファミリア合同会社,,合同会社,東京都,国立市,富士見台１丁目４８番地の２８,,13,215,1860003,,,2025-11-04,合併による解散等,6012803001275,令和７年１１月１日東京都国立市富士見台一丁目４８番地の２８合同会社さんすまいる（6012803001275）に合併し解散,2015-10-05,1,,,,,イーファミリア,0
1659,6021001074570,登記記録の閉鎖等,0,2025-11-12,2025-10-23,株式会社ＪＵＤＧＥＳ,,株式会社,神奈川県,座間市,相模が丘４丁目６６番１２号,,14,216,2520001,,,2025-10-23,清算の結了等,,,2021-11-24,1,,,,,ジャッジズ,0
1668,6030001090924,登記記録の閉鎖等,0,2025-11-12,2025-11-06,不動技研株式会社,,株式会社,埼玉県,秩父市,堀切６１番地,,11,207,3680066,,,2025-11-06,清算の結了等,,,2015-10-05,1,,,,,フドウギケン,0
1669,6030001102448,登記記録の閉鎖等,0,2025-11-12,2025-11-06,株式会社ライブステーション,,株式会社,埼玉県,狭山市,富士見１丁目５－１３ヴィラ富士見１０１号,,11,215,3501306,,,2025-11-06,清算の結了等,,,2015-10-05,1,,,,,ライブステーション,0
1675,6030002091871,登記記録の閉鎖等,0,2025-11-12,2025-11-06,有限会社ソフラル,,有限会社,埼玉県,越谷市,大字南荻島１７７番地１,,11,222,3430804,,,2025-11-06,清算の結了等,,,2015-10-05,1,,,,,ソフラル,0
1691,6040002035415,登記記録の閉鎖等,0,2025-11-12,2025-10-10,有限会社寺本金属,,有限会社,千葉県,白井市,平塚２６３２番地７,,12,232,2701402,,,2025-10-10,清算の結了等,,,2015-10-05,1,,,,,テラモトキンゾク,0
1697,6060001004030,登記記録の閉鎖等,0,2025-11-12,2025-11-10,株式会社豊明工業,,株式会社,栃木県,宇都宮市,御幸ケ原町４２番地２,,09,201,3210982,,,2025-11-10,清算の結了等,,,2015-10-05,1,,,,,ホウメイコウギョウ,0
1698,6060003002040,登記記録の閉鎖等,0,2025-11-12,2025-11-07,デジタルデータシステムズ合同会社,,合同会社,東京都,八王子市,狭間町１７５８番地ワコーレ高尾３０２号室,,13,201,1930941,,,2025-11-07,清算の結了等,,,2015-10-05,1,,,,,デジタルデータシステムズ,0
1704,6080402017793,登記記録の閉鎖等,0,2025-11-12,2025-11-04,有限会社山下造園,,有限会社,静岡県,掛川市,本郷８５９番地の２,,22,213,4360111,,,2025-11-04,清算の結了等,,,2015-10-05,1,,,,,ヤマシタゾウエン,0
1716,6110002030276,登記記録の閉鎖等,0,2025-11-12,2025-10-30,有限会社共和工業,,有限会社,新潟県,長岡市,高見町１００９番地,,15,202,9400004,,,2025-10-30,清算の結了等,,,2015-10-05,1,,,,,キョウワコウギョウ,0
1752,6122001026411,登記記録の閉鎖等,0,2025-11-12,2025-11-04,株式会社三栄ＭＧ,,株式会社,大阪府,東大阪市,足代３丁目６番１５号,,27,227,5770841,,,2025-11-04,清算の結了等,,,2015-10-05,1,,,,,サンエイエムジー,0
1756,6130002014698,登記記録の閉鎖等,0,2025-11-12,2025-11-10,有限会社ヒイラギ精機,,有限会社,京都府,京都市伏見区,深草鞍ケ谷１３番地の３９,,26,109,6120822,,,2025-11-10,清算の結了等,,,2015-10-05,1,,,,,ヒイラギセイキ,0
1774,6180001124700,登記記録の閉鎖等,0,2025-11-12,2025-11-06,株式会社ブレインフォー,,株式会社,東京都,品川区,北品川１丁目１２番１０号ジャコムビル,,13,109,1400001,,,2025-11-06,清算の結了等,,,2016-09-15,1,,,,,ブレインフォー,0
1781,6180003004198,登記記録の閉鎖等,0,2025-11-12,2025-11-05,合資会社浅野製菓,,合資会社,愛知県,名古屋市中村区,太閤５丁目１６番１８号,,23,105,4530801,,,2025-11-05,清算の結了等,,,2015-10-05,1,,,,,アサノセイカ,0
1785,6180301008487,登記記録の閉鎖等,0,2025-11-12,2025-11-07,株式会社ムーブ,,株式会社,愛知県,豊橋市,絹田町６８番地５,,23,201,4400078,,,2025-11-07,清算の結了等,,,2015-10-05,1,,,,,ムーブ,0
1791,6200001027124,登記記録の閉鎖等,0,2025-11-12,2025-11-04,株式会社マエカワ,,株式会社,岐阜県,大垣市,荒尾町３８１番地３,,21,202,5030034,,,2025-11-04,清算の結了等,,,2015-10-05,1,,,,,マエカワ,0
1798,6250002009637,登記記録の閉鎖等,0,2025-11-12,2025-11-07,正和輪業有限会社,,有限会社,山口県,下関市,小月茶屋２丁目１番３号,,35,201,7501144,,,2025-11-07,清算の結了等,,,2015-10-05,1,,,,,ショウワリンギョウ,0
1808,6290002020747,登記記録の閉鎖等,0,2025-11-12,2025-10-27,有限会社ユニテック,,有限会社,福岡県,福岡市東区,二又瀬３番１５,,40,131,8120066,,,2025-10-27,清算の結了等,,,2015-10-05,1,,,,,ユニテック,0
1814,6290005019530,登記記録の閉鎖等,0,2025-11-12,2025-10-09,特定非営利活動法人照,,その他の設立登記法人,福岡県,福岡市早良区,賀茂２丁目２０番２６－１１１号ＡＲＫ－１,,40,137,8140164,,,2025-10-09,清算の結了等,,,2024-10-09,1,,,,,テラス,0
1819,6330001010439,登記記録の閉鎖等,0,2025-11-12,2025-11-04,株式会社城嶋,,株式会社,熊本県,山鹿市,鹿央町合里５９８８番地,,43,208,8610565,,,2025-11-04,合併による解散等,3330001029374,令和７年１１月１日熊本県山鹿市鹿央町梅木谷６５７番地１Ｓｈｉｒｏ　Ｐｌａｎｎｉｎｇ株式会社（3330001029374）に合併し解散,2015-10-05,1,,,,,ジョウジマ,0
1821,6330001021535,登記記録の閉鎖等,0,2025-11-12,2025-11-05,吏相株式会社,,株式会社,熊本県,熊本市北区,高平３丁目２８番１７号,,43,105,8600085,,,2025-11-05,清算の結了等,,,2015-10-05,1,,,,,リソウ,0
1832,6360002010055,登記記録の閉鎖等,0,2025-11-12,2025-11-05,有限会社ライズ,,有限会社,沖縄県,那覇市,字小禄１２８０番地コーポドリーム３－Ａ,,47,201,9010152,,,2025-11-05,清算の結了等,,,2015-10-05,1,,,,,ライズ,0
1846,6400003003441,登記記録の閉鎖等,0,2025-11-12,2025-11-10,合同会社ＴｒａｎｓＰａｃ　Ｔｒａｄｅ　Ｓｏｌｕｔｉｏｎｓ,,合同会社,岩手県,八幡平市,平舘第２８地割１－２－１０６,,03,214,0287405,,,2025-11-10,清算の結了等,,,2025-04-23,1,,,,,トランスパックトレードソリューションズ,0
1861,6440003000930,登記記録の閉鎖等,0,2025-11-12,2025-11-10,合同会社三洋ファーム,,合同会社,北海道,函館市,西桔梗町５８９番地２０８,,01,202,0410824,,,2025-11-10,清算の結了等,,,2015-10-05,1,,,,,サンヨウファーム,0
1869,6700150132491,削除,,2025-11-12,,,,,,,,,,,,,,,,,,,,,,,,,
1899,7010401140635,登記記録の閉鎖等,0,2025-11-12,2025-11-04,ロボコム・アンド・エフエイコム株式会社,,株式会社,福島県,南相馬市,原町区萱浜字北谷地３１１番地,,07,212,9750036,,,2025-11-04,清算の結了等,,,2018-09-05,1,,,,,ロボコムアンドエフエイコム,0
1905,7010403025941,登記記録の閉鎖等,0,2025-11-12,2025-10-23,リベラルクリエイト合同会社,,合同会社,神奈川県,横浜市鶴見区,東寺尾３丁目２番３４－４号,,14,101,2300077,,,2025-10-23,清算の結了等,,,2021-08-23,1,,,,,リベラルクリエイト,0
1918,7010805000708,登記記録の閉鎖等,0,2025-11-12,2025-11-04,医療法人社団羽田医院,,その他の設立登記法人,東京都,大田区,久が原４丁目２９番９号１階,,13,111,1460085,,,2025-11-04,清算の結了等,,,2015-10-05,1,,,,,ハネダイイン,0
1921,7010902008538,登記記録の閉鎖等,0,2025-11-12,2025-11-04,盛徳商事有限会社,,有限会社,神奈川県,横浜市港北区,新横浜２丁目１５番１２号,,14,109,2220033,,,2025-11-04,合併による解散等,9010001098066,令和７年１１月１日神奈川県横浜市港北区新横浜二丁目１５番１２号ルナ調剤株式会社（9010001098066）に合併し解散,2015-10-05,1,,,,,セイトクショウジ,0
1942,7011301004343,登記記録の閉鎖等,0,2025-11-12,2025-11-04,太陽電子株式会社,,株式会社,東京都,杉並区,浜田山３丁目２６番２号,,13,115,1680065,,,2025-11-04,清算の結了等,,,2015-10-05,1,,,,,タイヨウデンシ,0
1957,7011801026291,登記記録の閉鎖等,0,2025-11-12,2025-11-10,株式会社シフト,,株式会社,東京都,足立区,千住龍田町２２番２号,,13,121,1200042,,,2025-11-10,清算の結了等,,,2015-10-05,1,,,,,シフト,0
1960,7011802013033,登記記録の閉鎖等,0,2025-11-12,2025-11-06,有限会社逆井製作所,,有限会社,東京都,足立区,本木北町１７番１５号,,13,121,1230857,,,2025-11-06,清算の結了等,,,2015-10-05,1,,,,,サカサイセイサクショ,0
1965,7012401036268,登記記録の閉鎖等,0,2025-11-12,2025-10-08,アーバンエココンサルティング株式会社,,株式会社,東京都,多摩市,関戸５丁目２５番地の２０,,13,224,2060011,,,2025-10-08,合併による解散等,6010701030925,令和７年１０月１日東京都品川区南品川二丁目２番１３号株式会社ファーストブレイン（6010701030925）に合併し解散,2020-02-19,1,,,,,アーバンエココンサルティング,0
1974,7020002078828,登記記録の閉鎖等,0,2025-11-12,2025-10-31,有限会社時空創造,,有限会社,神奈川県,横浜市都筑区,佐江戸町１７２２番地藤和ライブタウン中山２－２０２,,14,118,2240054,,,2025-10-31,清算の結了等,,,2015-10-05,1,,,,,ジクウソウゾウ,0
1976,7021001012562,登記記録の閉鎖等,0,2025-11-12,2025-10-24,嶋崎工業株式会社,,株式会社,神奈川県,相模原市中央区,矢部２丁目１３番２２号,,14,152,2520232,,,2025-10-24,清算の結了等,,,2015-10-05,1,,,,,シマザキコウギョウ,0
1978,7021002044679,登記記録の閉鎖等,0,2025-11-12,2025-10-24,有限会社エヌアンドジェイ,,有限会社,神奈川県,海老名市,河原口１丁目２３番１４号,,14,215,2430433,,,2025-10-24,清算の結了等,,,2015-10-05,1,,,,,エヌアンドジェイ,0
1985,7030001126347,登記記録の閉鎖等,0,2025-11-12,2025-11-06,株式会社フィールドオート,,株式会社,埼玉県,深谷市,普済寺１６９０番地,,11,218,3690203,,,2025-11-06,清算の結了等,,,2018-06-27,1,,,,,フィールドオート,0
1996,7030005006074,登記記録の閉鎖等,0,2025-11-12,2025-10-14,社会福祉法人草加福祉会,,その他の設立登記法人,埼玉県,草加市,長栄２丁目１番地８,,11,221,3400051,,,2025-10-14,合併による解散等,4010605001784,令和７年１０月１日東京都江東区亀戸三丁目３６番５号社会福祉法人カメリア会（4010605001784）に合併し解散,2015-10-05,1,,,,,ソウカフクシカイ,0
2000,7040001099286,登記記録の閉鎖等,0,2025-11-12,2025-10-21,株式会社Ｒｈｅｉａ,,株式会社,千葉県,千葉市中央区,富士見１丁目１３番１１号紅谷ビル７０２,,12,101,2600015,,,2025-10-21,清算の結了等,,,2017-03-13,1,,,,,レイア,0
2012,7050001009723,登記記録の閉鎖等,0,2025-11-12,2025-10-31,福島建築工業株式会社,,株式会社,茨城県,土浦市,上高津１７１５番地,,08,203,3000811,,,2025-10-31,清算の結了等,,,2015-10-05,1,,,,,フクシマケンチクコウギョウ,0
2017,7050002030901,登記記録の閉鎖等,0,2025-11-12,2025-11-04,有限会社メリーコーポレーション,,有限会社,神奈川県,横浜市港北区,新横浜２丁目１５番１２号,,14,109,2220033,,,2025-11-04,合併による解散等,9010001098066,令和７年１１月１日神奈川県横浜市港北区新横浜二丁目１５番１２号ルナ調剤株式会社（9010001098066）に合併し解散,2015-10-05,1,,,,,メリーコーポレーション,0
2067,7120102001638,登記記録の閉鎖等,0,2025-11-12,2025-11-04,ケイパーサービス有限会社,,有限会社,大阪府,堺市西区,上野芝町７丁２番４０号,,27,144,5938301,,,2025-11-04,清算の結了等,,,2015-10-05,1,,,,,ケイパーサービス,0
2069,7120102023938,登記記録の閉鎖等,0,2025-11-12,2025-10-29,有限会社ペパーミント,,有限会社,大阪府,高石市,羽衣４丁目１番３４号,,27,225,5920002,,,2025-10-29,清算の結了等,,,2015-10-05,1,,,,,ペパーミント,0
2071,7120901034722,登記記録の閉鎖等,0,2025-11-12,2025-11-04,バレーヌ株式会社,,株式会社,大阪府,箕面市,西小路３丁目１６番１１号,,27,220,5620003,,,2025-11-04,清算の結了等,,,2015-10-05,1,,,,,,0
2077,7122001020909,登記記録の閉鎖等,0,2025-11-12,2025-11-05,光紀商事株式会社,,株式会社,大阪府,柏原市,大県１丁目２番３６号,,27,221,5820018,,,2025-11-05,清算の結了等,,,2015-10-05,1,,,,,コウキショウジ,0
2086,7140001036114,登記記録の閉鎖等,0,2025-11-12,2025-11-04,エージー産業株式会社,,株式会社,兵庫県,三木市,志染町四合谷伊賀ノ垣３１０番地の３,,28,215,6730506,,,2025-11-04,清算の結了等,,,2015-10-05,1,,,,,エージーサンギョウ,0
2090,7140001077736,登記記録の閉鎖等,0,2025-11-12,2025-11-05,株式会社隆智代,,株式会社,兵庫県,西宮市,甲子園口３丁目３番２３号,,28,204,6638113,,,2025-11-05,清算の結了等,,,2015-10-05,1,,,,,タカチヨ,0
2093,7140002009886,登記記録の閉鎖等,0,2025-11-12,2025-11-05,グリーンコンタクト有限会社,,有限会社,兵庫県,神戸市北区,有野町有野１２４０番地の２,,28,109,6511312,,,2025-11-05,清算の結了等,,,2015-10-05,1,,,,,グリーンコンタクト,0
2101,7150001022435,登記記録の閉鎖等,0,2025-11-12,2025-11-10,株式会社パワーライフコーポレーション,,株式会社,奈良県,奈良市,三碓６丁目１０番４５号,,29,201,6310061,,,2025-11-10,清算の結了等,,,2018-08-07,1,,,,,パワーライフコーポレーション,0
2145,7290002043722,登記記録の閉鎖等,0,2025-11-12,2025-10-27,砥綿建設有限会社,,有限会社,福岡県,朝倉郡筑前町,下高場３５２０番地の１,,40,447,8380211,,,2025-10-27,清算の結了等,,,2015-10-05,1,,,,,,0
2147,7290802011465,登記記録の閉鎖等,0,2025-11-12,2025-10-31,有限会社林技建,,有限会社,福岡県,北九州市門司区,泉ケ丘６番２２号,,40,101,8000041,,,2025-10-31,清算の結了等,,,2015-10-05,1,,,,,,0
2148,7290802025630,登記記録の閉鎖等,0,2025-11-12,2025-11-10,有限会社若福,,有限会社,福岡県,田川郡福智町,神崎１１８４番地２,,40,610,8221202,,,2025-11-10,清算の結了等,,,2015-10-05,1,,,,,ワカフク,0
2153,7300002009432,登記記録の閉鎖等,0,2025-11-12,2025-11-10,有限会社宮原ボデー,,有限会社,佐賀県,三養基郡みやき町,大字中津隈４０８２番地の１０,,41,346,8490114,,,2025-11-10,清算の結了等,,,2015-10-05,1,,,,,ミヤハラボデー,0
2157,7320005001319,登記記録の閉鎖等,0,2025-11-12,2025-11-11,大分県漬物工業協同組合,,その他の設立登記法人,大分県,大分市,豊海３丁目６番５号,,44,201,8700018,,,2025-11-11,清算の結了等,,,2015-10-05,1,,,,,オオイタケンツケモノコウギョウ,0
2158,7330001008333,登記記録の閉鎖等,0,2025-11-12,2025-11-05,株式会社Ａ－ＯＮＥ,,株式会社,熊本県,熊本市東区,八反田２丁目１２番１５号,,43,102,8618034,,,2025-11-05,清算の結了等,,,2015-10-05,1,,,,,エーワン,0
2181,7370102002586,登記記録の閉鎖等,0,2025-11-12,2025-10-30,有限会社森合建設造園,,有限会社,宮城県,白石市,大平森合字上神明前２２番地の１,,04,206,9890217,,,2025-10-30,清算の結了等,,,2015-10-05,1,,,,,モリアイケンセツゾウエン,0
2187,7410002000660,登記記録の閉鎖等,0,2025-11-12,2025-11-07,伊藤システム有限会社,,有限会社,秋田県,秋田市,川尻総社町１０番１１号,,05,201,0100946,,,2025-11-07,清算の結了等,,,2015-10-05,1,,,,,イトウシステム,0
2191,7430001055183,登記記録の閉鎖等,0,2025-11-12,2025-11-05,株式会社スマイルネット,,株式会社,北海道,苫小牧市,日吉町４丁目３番７号,,01,213,0530816,,,2025-11-05,清算の結了等,,,2015-10-05,1,,,,,スマイルネット,0
2201,7470002017369,登記記録の閉鎖等,0,2025-11-12,2025-11-06,有限会社Ｔ’ｓ　ｏｆｆｉｃｅ,,有限会社,香川県,観音寺市,豊浜町姫浜１１７番地３,,37,205,7691601,,,2025-11-06,清算の結了等,,,2015-10-05,1,,,,,ティーズオフィス,0
2204,7490001010356,登記記録の閉鎖等,0,2025-11-12,2025-10-29,株式会社ランタン不動産,,株式会社,高知県,高知市,西秦泉寺３９２番地１１,,39,201,7800033,,,2025-10-29,清算の結了等,,,2022-12-14,1,,,,,ランタンフドウサン,0
2221,8010005035074,登記記録の閉鎖等,0,2025-11-12,2025-11-07,エルオージェイ１特定目的会社,,その他の設立登記法人,東京都,千代田区,飯田橋４丁目７番１号結和税理士法人内,,13,101,1020072,,,2025-11-07,清算の結了等,,,2022-06-02,1,,,,,エルオージェイワン,0
2222,8010101015277,登記記録の閉鎖等,0,2025-11-12,2025-11-10,Ｍ’ｓトータル家賃保証株式会社,,株式会社,大阪府,大阪市平野区,平野西４丁目６番６号プレアール平野西１階１－Ａ号室,,27,126,5470033,,,2025-11-10,合併による解散等,9011301013540,令和７年１１月４日東京都北区赤羽一丁目５２番７号株式会社きたむら（9011301013540）に合併し解散,2022-08-03,1,,,,,エムズトータルヤチンホショウ,0
2224,8010401168832,登記記録の閉鎖等,0,2025-11-12,2025-10-14,株式会社ＳＲ‐ＢＡＳＥ,,株式会社,東京都,港区,東麻布１丁目６番８－３０２号,,13,103,1060044,,,2025-10-14,清算の結了等,,,2022-08-03,1,,,,,エスアールベース,0
2240,8010805000368,登記記録の閉鎖等,0,2025-11-12,2025-10-15,天理教本殿分教会,,その他の設立登記法人,東京都,大田区,北千束３丁目２番１２号,,13,111,1450062,,,2025-10-15,合併による解散等,4010605000448,令和７年１０月２日東京都墨田区本所一丁目１３番１７号天理教東本大教会（4010605000448）に合併し解散,2015-10-05,1,,,,,,0
2241,8010805002819,登記記録の閉鎖等,0,2025-11-12,2025-10-31,一般社団法人日本空港協力事業者連合会,,その他の設立登記法人,東京都,大田区,羽田６丁目３４番５号３Ｆ,,13,111,1440043,,,2025-10-31,清算の結了等,,,2021-03-19,1,,,,,ニホンクウコウキョウリョクジギョウシャレンゴウカイ,0
2272,8011401004382,登記記録の閉鎖等,0,2025-11-12,2025-11-06,トーア工業株式会社,,株式会社,埼玉県,ふじみ野市,大井５１４番地５コスモふじみ野Ｓ－５０９,,11,245,3560053,,,2025-11-06,清算の結了等,,,2015-10-05,1,,,,,トーアコウギョウ,0
2275,8011405000502,登記記録の閉鎖等,0,2025-11-12,2025-10-15,天理教本大山分教会,,その他の設立登記法人,東京都,板橋区,大山金井町３６番８号,,13,119,1730024,,,2025-10-15,合併による解散等,4010605000448,令和７年１０月２日東京都墨田区本所一丁目１３番１７号天理教東本大教会（4010605000448）に合併し解散,2015-10-05,1,,,,,,0
2280,8011802003470,登記記録の閉鎖等,0,2025-11-12,2025-11-06,有限会社三陽ゴム工業,,有限会社,東京都,葛飾区,東四つ木３丁目６番２６号,,13,122,1240014,,,2025-11-06,清算の結了等,,,2015-10-05,1,,,,,サンヨウゴムコウギョウ,0
2284,8011805003113,登記記録の閉鎖等,0,2025-11-12,2025-11-04,日本労働調査組合,,その他の設立登記法人,茨城県,つくば市,小野崎２６０番地１ヒロサワつくばビル１階,,08,220,3050034,,,2025-11-04,清算の結了等,,,2021-10-07,1,,,,,ニホンロウドウチョウサクミアイ,0
2286,8012402002152,登記記録の閉鎖等,0,2025-11-12,2025-11-10,有限会社花よし,,有限会社,東京都,府中市,晴見町１丁目１６番地の１５,,13,206,1830057,,,2025-11-10,合併による解散等,4010901010761,令和７年１１月１日東京都世田谷区大蔵一丁目４番１号株式会社フローレツエンティワン（4010901010761）に合併し解散,2015-10-05,1,,,,,,0
2290,8013402004329,登記記録の閉鎖等,0,2025-11-12,2025-11-04,有限会社ヤマホン,,有限会社,東京都,日野市,大字上田４１５番地の１,,13,212,1910014,,,2025-11-04,清算の結了等,,,2015-10-05,1,,,,,ヤマホン,0
2297,8020001098850,登記記録の閉鎖等,0,2025-11-12,2025-11-04,株式会社新聞鹿野,,株式会社,神奈川県,横浜市緑区,長津田３丁目５番２３号,,14,113,2260027,,,2025-11-04,清算の結了等,,,2015-10-05,1,,,,,シンブンシカノ,0
2302,8020001140653,登記記録の閉鎖等,0,2025-11-12,2025-11-04,Ａ＆Ｔロボティクス株式会社,,株式会社,神奈川県,川崎市川崎区,池田１丁目１０番２号,,14,131,2100022,,,2025-11-04,清算の結了等,,,2021-04-05,1,,,,,エーアンドティロボティクス,0
2310,8021001009946,登記記録の閉鎖等,0,2025-11-12,2025-10-24,シーシーエージャパン株式会社,,株式会社,神奈川県,鎌倉市,材木座５丁目４番３６号,,14,204,2480013,,,2025-10-24,清算の結了等,,,2015-10-05,1,,,,,シーシーエージャパン,0
2311,8021001031826,登記記録の閉鎖等,0,2025-11-12,2025-11-04,新光ホールディングス株式会社,,株式会社,神奈川県,茅ヶ崎市,萩園２６２２番地,,14,207,2530071,,,2025-11-04,合併による解散等,5021001006946,令和７年１１月１日神奈川県茅ヶ崎市萩園２６２２番地新光機械株式会社（5021001006946）に合併し解散,2015-10-05,1,,,,,シンコウホールディングス,0
2317,8021002008261,登記記録の閉鎖等,0,2025-11-12,2025-10-15,有限会社じゅげむ,,有限会社,神奈川県,大和市,西鶴間１丁目１０番１３号ライオンズプラザ鶴間９０１号室,,14,213,2420005,,,2025-10-15,合併による解散等,3012302004229,令和７年１０月１日東京都町田市高ヶ坂二丁目３６番３５号第一清風荘２Ｂ号株式会社芙蓉（3012302004229）に合併して解散,2015-10-05,1,,,,,ジュゲム,0
2338,8040002037946,登記記録の閉鎖等,0,2025-11-12,2025-10-14,有限会社サワイ工業所,,有限会社,千葉県,鎌ケ谷市,東道野辺３丁目１７番５０号,,12,224,2730115,,,2025-10-14,清算の結了等,,,2015-10-05,1,,,,,サワイコウギョウショ,0
2340,8040002065906,登記記録の閉鎖等,0,2025-11-12,2025-10-14,安藤住宅有限会社,,有限会社,千葉県,木更津市,本郷２丁目３番１３号,,12,206,2920015,,,2025-10-14,清算の結了等,,,2015-10-05,1,,,,,アンドウジュウタク,0
2351,8060002039916,登記記録の閉鎖等,0,2025-11-12,2025-11-07,根岸産業有限会社,,有限会社,栃木県,佐野市,吉水町８４３番地の１,,09,204,3270313,,,2025-11-07,清算の結了等,,,2015-10-05,1,,,,,ネギシサンギョウ,0
2358,8080402004170,登記記録の閉鎖等,0,2025-11-12,2025-10-31,墨岡テープ有限会社,00068378,有限会社,静岡県,浜松市中央区,茄子町１１９番地,,22,138,4300912,,,2025-10-31,清算の結了等,,,2015-10-05,1,,,,,スミオカテープ,0
2366,8120001172736,登記記録の閉鎖等,0,2025-11-12,2025-11-04,株式会社Ｋ＆Ａ,,株式会社,大阪府,四條畷市,田原台８丁目１１番２３号,,27,229,5750013,,,2025-11-04,清算の結了等,,,2015-10-05,1,,,,,ケーアンドエー,0
2380,8120002082174,登記記録の閉鎖等,0,2025-11-12,2025-11-06,株式会社釧路ホテルマネジメント,,株式会社,北海道,釧路市,錦町３丁目７番地,,01,206,0850016,,,2025-11-06,合併による解散等,1011001009136,令和７年１０月１日東京都渋谷区神宮前四丁目３番１５号ＨＩＥ株式会社（1011001009136）に合併し解散,2015-10-05,1,,,,,クシロホテルマネジメント,0
2386,8120101068124,登記記録の閉鎖等,0,2025-11-12,2025-10-31,株式会社ＭＴ急配,,株式会社,大阪府,堺市西区,鳳中町１０丁１３番地３,,27,144,5938327,,,2025-10-31,清算の結了等,,,2023-09-04,1,,,,,エムティーキュウハイ,0
2390,8122001002889,登記記録の閉鎖等,0,2025-11-12,2025-11-05,株式会社真田プラスチック工業所,,株式会社,大阪府,東大阪市,友井５丁目４番４１号,,27,227,5770816,,,2025-11-05,清算の結了等,,,2015-10-05,1,,,,,サナダプラスチックコウギョウショ,0
2391,8122001004092,登記記録の閉鎖等,0,2025-11-12,2025-11-06,千里工業株式会社,,株式会社,大阪府,東大阪市,加納８丁目３４番２１号,,27,227,5780901,,,2025-11-06,清算の結了等,,,2015-10-05,1,,,,,センリコウギョウ,0
2406,8140002040873,登記記録の閉鎖等,0,2025-11-12,2025-11-05,有限会社小林鉄工所,,有限会社,兵庫県,尼崎市,名神町３丁目２番１０号,,28,202,6610021,,,2025-11-05,清算の結了等,,,2015-10-05,1,,,,,コバヤシテッコウショ,0
2407,8140003010017,登記記録の閉鎖等,0,2025-11-12,2025-11-05,合同会社ＵＲＳ２号,,合同会社,兵庫県,神戸市中央区,雲井通１丁目１番１－２１１号,,28,110,6510096,,,2025-11-05,清算の結了等,,,2015-10-05,1,,,,,ユーアールエスニゴウ,0
2413,8160001002154,登記記録の閉鎖等,0,2025-11-12,2025-11-10,株式会社キンキホーム,,株式会社,滋賀県,大津市,馬場２丁目１０番２１号,,25,201,5200802,,,2025-11-10,清算の結了等,,,2015-10-05,1,,,,,キンキホーム,0
2417,8180001044104,登記記録の閉鎖等,0,2025-11-12,2025-11-05,株式会社エイト設計事務所,,株式会社,愛知県,名古屋市中川区,荒子１丁目９７番地,,23,110,4540869,,,2025-11-05,清算の結了等,,,2015-10-05,1,,,,,エイトセッケイジムショ,0
2443,8190005004053,登記記録の閉鎖等,0,2025-11-12,2025-11-06,医療法人松尾会,,その他の設立登記法人,三重県,鈴鹿市,平田新町２番２号,,24,207,5130845,,,2025-11-06,清算の結了等,,,2015-10-05,1,,,,,マツオカイ,0
2445,8210001018483,登記記録の閉鎖等,0,2025-11-12,2025-11-07,株式会社わかさ総合調査事務所,,株式会社,福井県,坂井市,坂井町東荒井第４３号２８番地,,18,210,9190545,,,2025-11-07,清算の結了等,,,2021-06-11,1,,,,,ワカサソウゴウチョウサジムショ,0
2454,8240001047604,登記記録の閉鎖等,0,2025-11-12,2025-11-04,株式会社峰栄,,株式会社,広島県,庄原市,山内町９５３番地８,,34,210,7296131,,,2025-11-04,清算の結了等,,,2015-10-05,1,,,,,ホウエイ,0
2459,8240002039385,登記記録の閉鎖等,0,2025-11-12,2025-11-04,有限会社稲葉産業,,有限会社,広島県,福山市,曙町５丁目１番１号,00001220,34,207,7210952,,,2025-11-04,清算の結了等,,,2015-10-05,1,,,,,イナバサンギョウ,0
2461,8240005009633,登記記録の閉鎖等,0,2025-11-12,2025-10-06,聖イエス会府中教会,,その他の設立登記法人,広島県,府中市,中須町１２４２番地の３,,34,208,7260012,,,2025-10-06,合併による解散等,4240005008333,令和７年１０月６日広島県福山市久松台三丁目１５番２号宗教法人聖イエス会福山教会（4240005008333）に合併し解散,2015-10-05,1,,,,,,0
2465,8260002024303,登記記録の閉鎖等,0,2025-11-12,2025-11-07,有限会社備南設計,,有限会社,岡山県,倉敷市,玉島３丁目９番２８号,,33,202,7138102,,,2025-11-07,清算の結了等,,,2015-10-05,1,,,,,ビナンセッケイ,0
2476,8290801017859,登記記録の閉鎖等,0,2025-11-12,2025-11-04,株式会社アプロ,,株式会社,福岡県,北九州市小倉北区,宇佐町２丁目９番３０号,,40,106,8020016,,,2025-11-04,合併による解散等,8290801000121,令和７年１１月１日北九州市小倉北区宇佐町二丁目１０番５９号株式会社アサヒプロジェクト（8290801000121）に合併し解散,2015-10-05,1,,,,,アプロ,0
2480,8310002013218,登記記録の閉鎖等,0,2025-11-12,2025-11-10,有限会社クレスト,,有限会社,長崎県,佐世保市,吉井町立石３１番地５,,42,202,8596326,,,2025-11-10,清算の結了等,,,2015-10-05,1,,,,,クレスト,0
2495,8350005003229,登記記録の閉鎖等,0,2025-11-12,2025-11-04,特定非営利活動法人延岡市ボランティア協会,,その他の設立登記法人,宮崎県,延岡市,東本小路１３１番地５延岡市民協働まちづくりセンター内,,45,203,8820813,,,2025-11-04,清算の結了等,,,2015-10-05,1,,,,,ノベオカシボランティアキョウカイ,0
2500,8370402001485,登記記録の閉鎖等,0,2025-11-12,2025-10-31,有限会社飯野川紙業,,有限会社,宮城県,登米市,米山町字桜岡今泉２６９番地,,04,212,9870311,,,2025-10-31,清算の結了等,,,2015-10-05,1,,,,,イイノガワシギョウ,0
2507,8380003005892,登記記録の閉鎖等,0,2025-11-12,2025-11-05,合同会社Ｓエーテック,,合同会社,福島県,郡山市,久留米６丁目１０１番地,,07,203,9638846,,,2025-11-05,清算の結了等,,,2024-11-15,1,,,,,エスエーテック,0
2513,8420002002622,登記記録の閉鎖等,0,2025-11-12,2025-10-27,有限会社宝生産業,,有限会社,青森県,青森市,金沢２丁目１５番２号,,02,201,0300853,,,2025-10-27,清算の結了等,,,2015-10-05,1,,,,,ホウセイサンギョウ,0
2572,9010701012482,登記記録の閉鎖等,0,2025-11-12,2025-11-05,株式会社アセットプランニング,,株式会社,東京都,品川区,東五反田５丁目１０番１号,,13,109,1410022,,,2025-11-05,清算の結了等,,,2015-10-05,1,,,,,アセットプランニング,0
2604,9011803001712,登記記録の閉鎖等,0,2025-11-12,2025-11-06,合同会社シーファイブ,,合同会社,東京都,足立区,新田３丁目３５番２１号,,13,121,1230865,,,2025-11-06,清算の結了等,,,2015-10-05,1,,,,,シーファイブ,0
2613,9013301047436,登記記録の閉鎖等,0,2025-11-12,2025-11-07,エムスクエア株式会社,,株式会社,千葉県,八千代市,勝田台南３丁目１５－６,,12,221,2760025,,,2025-11-07,合併による解散等,5010701037087,令和７年１０月１４日神奈川県相模原市中央区星が丘３－５－２３株式会社サークルエム（5010701037087）に合併し解散,2021-05-14,1,,,,,エムスクエア,0
2614,9020001017925,登記記録の閉鎖等,0,2025-11-12,2025-11-04,株式会社竹内ビル・プランニング,,株式会社,神奈川県,横浜市鶴見区,豊岡町３番２８号,,14,101,2300062,,,2025-11-04,清算の結了等,,,2015-10-05,1,,,,,タケウチビルプランニング,0
2649,9030002073207,登記記録の閉鎖等,0,2025-11-12,2025-11-04,有限会社甲信舎クリーニング,,有限会社,埼玉県,川越市,大字的場９８０番地６,,11,201,3501101,,,2025-11-04,清算の結了等,,,2015-10-05,1,,,,,コウシンシャクリーニング,0
2663,9050001033481,登記記録の閉鎖等,0,2025-11-12,2025-11-06,株式会社福宝堂印刷,,株式会社,茨城県,土浦市,中央２丁目４番２７号,,08,203,3000043,,,2025-11-06,清算の結了等,,,2015-10-05,1,,,,,フクホウドウインサツ,0
2665,9050002029116,登記記録の閉鎖等,0,2025-11-12,2025-11-04,株式会社中村工務店,,株式会社,茨城県,行方市,手賀２７５８番地１,,08,233,3113513,,,2025-11-04,清算の結了等,,,2015-10-05,1,,,,,ナカムラコウムテン,0
2670,9080401002001,登記記録の閉鎖等,0,2025-11-12,2025-11-04,株式会社サンピー,,株式会社,静岡県,浜松市中央区,大蒲町９２番地の１０,,22,138,4350014,,,2025-11-04,清算の結了等,,,2015-10-05,1,,,,,サンピー,0
2709,9120101061219,登記記録の閉鎖等,0,2025-11-12,2025-11-04,ブルームハウジング株式会社,,株式会社,大阪府,堺市南区,城山台２丁２番４号,,27,145,5900137,,,2025-11-04,清算の結了等,,,2020-02-04,1,,,,,ブルームハウジング,0
2720,9122002006756,登記記録の閉鎖等,0,2025-11-12,2025-11-05,有限会社ユキナリ,,有限会社,大阪府,東大阪市,池島町６丁目６番３２号,,27,227,5798064,,,2025-11-05,清算の結了等,,,2015-10-05,1,,,,,ユキナリ,0
2725,9130001070921,登記記録の閉鎖等,0,2025-11-12,2025-11-07,ＢＲシーポイントネクスト株式会社,,株式会社,静岡県,浜松市中央区,舞阪町舞阪２７０１番地の９舞阪協働センター４階事務室３,,22,138,4310211,,,2025-11-07,合併による解散等,5130001056726,令和７年１０月３１日北九州市小倉北区室町１－１－１ＢＲラボ株式会社（5130001056726）に合併し解散,2022-01-14,1,,,,,ビーアールシーポイントネクスト,0
2727,9130002007006,登記記録の閉鎖等,0,2025-11-12,2025-11-10,有限会社金時,,有限会社,京都府,京都市下京区,猪熊通五条上る柿本町５９３番地の２,,26,106,6008357,,,2025-11-10,清算の結了等,,,2015-10-05,1,,,,,キントキ,0
2730,9140001032193,登記記録の閉鎖等,0,2025-11-12,2025-11-04,株式会社天晴,,株式会社,兵庫県,神戸市西区,伊川谷町有瀬６３８－２,,28,111,6512113,,,2025-11-04,清算の結了等,,,2015-10-05,1,,,,,アッパレ,0
2740,9140002015998,登記記録の閉鎖等,0,2025-11-12,2025-11-06,有限会社松原屋二葉電気商会,,有限会社,兵庫県,神戸市中央区,花隈町５番４号生田電設会館内,,28,110,6500013,,,2025-11-06,清算の結了等,,,2015-10-05,1,,,,,マツバラヤフタバデンキショウカイ,0
2744,9140002062611,登記記録の閉鎖等,0,2025-11-12,2025-11-04,有限会社渡辺燃料店,,有限会社,兵庫県,加西市,北条町横尾３５８番地,,28,220,6752311,,,2025-11-04,清算の結了等,,,2015-10-05,1,,,,,ワタナベネンリョウテン,0
2748,9160001024032,登記記録の閉鎖等,0,2025-11-12,2025-11-10,株式会社キンキホーム建物管理,,株式会社,滋賀県,大津市,一里山２丁目１８番１３号,,25,201,5202153,,,2025-11-10,清算の結了等,,,2022-03-04,1,,,,,,0
2761,9180003008650,登記記録の閉鎖等,0,2025-11-12,2025-11-04,合資会社ジャンウェルディング,,合資会社,愛知県,名古屋市天白区,久方１丁目１２１番地の１,,23,116,4680034,,,2025-11-04,清算の結了等,,,2015-10-05,1,,,,,ジャンウェルディング,0
2762,9180003017949,登記記録の閉鎖等,0,2025-11-12,2025-11-11,合同会社シスターズベア,,合同会社,愛知県,日進市,岩崎町石兼５番地の２０,,23,230,4700131,,,2025-11-11,清算の結了等,,,2017-05-17,1,,,,,シスターズベア,0
2770,9200001020910,登記記録の閉鎖等,0,2025-11-12,2025-11-04,株式会社日本能力開発センター,,株式会社,岐阜県,多治見市,旭ケ丘３丁目５３番地,,21,204,5070071,,,2025-11-04,清算の結了等,,,2015-10-05,1,,,,,ニホンノウリョクカイハツセンター,0
2771,9200002014795,登記記録の閉鎖等,0,2025-11-12,2025-11-05,有限会社おたり,,有限会社,岐阜県,海津市,平田町仏師川字五間縄５７８番地の１,,21,221,5030311,,,2025-11-05,清算の結了等,,,2015-10-05,1,,,,,オタリ,0
2775,9240001027679,登記記録の閉鎖等,0,2025-11-12,2025-11-04,山本倶楽部株式会社,,株式会社,広島県,呉市,音戸町田原３丁目１５番１０号,,34,202,7371216,,,2025-11-04,合併による解散等,1240001062898,令和７年１１月１日広島県呉市中央一丁目４番２４号（リベラビル）リベラグループ株式会社（1240001062898）に合併し解散,2015-10-05,1,,,,,ヤマモトクラブ,0
2776,9240001048725,登記記録の閉鎖等,0,2025-11-12,2025-11-10,株式会社奥浪組,,株式会社,広島県,呉市,安浦町安登東６丁目４番１８号,,34,202,7372513,,,2025-11-10,清算の結了等,,,2016-01-07,1,,,,,,0
2779,9240002016219,登記記録の閉鎖等,0,2025-11-12,2025-11-06,有限会社みどり工業,,有限会社,広島県,広島市南区,翠４丁目１６番１５号,00000923,34,103,7340005,,,2025-11-06,清算の結了等,,,2015-10-05,1,,,,,ミドリコウギョウ,0
2781,9270001005070,登記記録の閉鎖等,0,2025-11-12,2025-11-07,株式会社土井スポーツ,,株式会社,鳥取県,倉吉市,上井２１３番地,,31,203,6820021,,,2025-11-07,清算の結了等,,,2015-10-05,1,,,,,ドイスポーツ,0
2786,9290001062143,登記記録の閉鎖等,0,2025-11-12,2025-10-28,株式会社Ｆｕｊｉｙｏｓｈｉ,,株式会社,福岡県,久留米市,荒木町荒木１９８１番地２,,40,203,8300063,,,2025-10-28,清算の結了等,,,2015-10-05,1,,,,,フジヨシ,0
2791,9290001094673,登記記録の閉鎖等,0,2025-11-12,2025-11-10,Ｎｉｒｖａｎａ株式会社,,株式会社,岡山県,美作市,林野２５８番地,,33,215,7070041,,,2025-11-10,清算の結了等,,,2021-09-17,1,,,,,ニルヴァーナ,0
2802,9330001031382,登記記録の閉鎖等,0,2025-11-12,2025-11-04,株式会社濱自動車,,株式会社,熊本県,熊本市東区,八反田１丁目２番１７号丸伊ビル３０３号,,43,102,8618034,,,2025-11-04,清算の結了等,,,2023-10-24,1,,,,,ハマジドウシャ,0
2811,9380002008441,登記記録の閉鎖等,0,2025-11-12,2025-11-05,奥川商事有限会社,,有限会社,福島県,郡山市,字名倉６７番地の２,,07,203,9638845,,,2025-11-05,清算の結了等,,,2015-10-05,1,,,,,,0
2813,9390002009793,登記記録の閉鎖等,0,2025-11-12,2025-11-06,有限会社みうら,,有限会社,山形県,鶴岡市,本町１丁目９番１６号,,06,203,9970034,,,2025-11-06,清算の結了等,,,2015-10-05,1,,,,,ミウラ,0
2816,9390002014050,登記記録の閉鎖等,0,2025-11-12,2025-11-05,有限会社高橋製作所,,有限会社,山形県,東置賜郡高畠町,大字三条目４１３番地の１３,,06,381,9920331,,,2025-11-05,清算の結了等,,,2015-10-05,1,,,,,タカハシセイサクショ,0
