sequenceNumber,corporateNumber,process,correct,updateDate,changeDate,name,nameImageId,kind,prefectureName,cityName,streetNumber,addressImageId,prefectureCode,cityCode,postCode,addressOutside,addressOutsideImageId,closeDate,closeCause,successorCorporateNumber,changeCause,assignmentDate,latest,enName,enPrefectureName,enCityName,enAddressOutside,furigana,hihyoji
4,1010001228910,新規,0,2022-08-19,2022-08-19,株式会社８１１,,株式会社,東京都,文京区,本郷３丁目２５番１号山崎ビル２階,,13,105,1130033,,,,,,,2022-08-19,1,,,,,ハチイチイチ,0
5,1010001228935,新規,0,2022-08-19,2022-08-19,スタートアップアドバイザリー株式会社,,株式会社,東京都,千代田区,神田猿楽町２丁目１番１６号シエルブルー猿楽町３階,,13,101,1010064,,,,,,,2022-08-19,1,,,,,スタートアップアドバイザリー,0
8,1010003038432,新規,0,2022-08-19,2022-08-19,合同会社ＨＮＯ,,合同会社,東京都,千代田区,丸の内３丁目１番１号東京共同会計事務所内,,13,101,1000005,,,,,,,2022-08-19,1,,,,,エイチエヌオー,0
9,1010003038440,新規,0,2022-08-19,2022-08-19,永目合同会社,,合同会社,東京都,中央区,銀座４丁目１３番８号岩藤ビル５階,,13,102,1040061,,,,,,,2022-08-19,1,,,,,ナガモク,0
10,1010005035452,新規,0,2022-08-19,2022-08-19,一般社団法人フォーピース,,その他の設立登記法人,東京都,千代田区,丸の内３丁目１番１号東京共同会計事務所内,,13,101,1000005,,,,,,,2022-08-19,1,,,,,フォーピース,0
17,1010401168715,新規,0,2022-08-19,2022-08-19,株式会社オバマオーバーシーズ,,株式会社,東京都,港区,白金３丁目１番７号Ｋ＆Ｇ５１０ハウス５０２,,13,103,1080072,,,,,,,2022-08-19,1,,,,,オバマオーバーシーズ,0
33,1010805002965,新規,0,2022-08-19,2022-08-19,一般社団法人大田区カヌー協会,,その他の設立登記法人,東京都,大田区,大森東２丁目１３番７号,,13,111,1430012,,,,,,,2022-08-19,1,,,,,オオタクカヌーキョウカイ,0
46,1011001149270,新規,0,2022-08-19,2022-08-19,アーツ・アンド・クラフツ株式会社,,株式会社,東京都,渋谷区,神宮前６丁目３２－７近藤ビル１Ｂ,,13,113,1500001,,,,,,,2022-08-19,1,,,,,アーツアンドクラフツ,0
47,1011001149287,新規,0,2022-08-19,2022-08-19,株式会社Ｂｌｕｅ　Ｇｅｎｅ,,株式会社,東京都,渋谷区,千駄ヶ谷３丁目２６番８号,,13,113,1510051,,,,,,,2022-08-19,1,,,,,ブルージーン,0
48,1011001149320,新規,0,2022-08-19,2022-08-19,株式会社クロス,,株式会社,東京都,渋谷区,恵比寿２丁目２５番１９号ザ・サンメゾン広尾エルド４０４,,13,113,1500013,,,,,,,2022-08-19,1,,,,,クロス,0
58,1011101099928,新規,0,2022-08-19,2022-08-19,株式会社Ｗａｌｄ,,株式会社,東京都,新宿区,北新宿３丁目３５番１０号,,13,104,1690074,,,,,,,2022-08-19,1,,,,,ヴァルト,0
86,1020001147762,新規,0,2022-08-19,2022-08-19,ビダテック株式会社,,株式会社,神奈川県,横浜市鶴見区,仲通３丁目７６番地３鶴見ＮＳビル５０１,,14,101,2300042,,,,,,,2022-08-19,1,,,,,ビダテック,0
87,1020001147845,新規,0,2022-08-19,2022-08-19,株式会社Ｙｓｔｅｅｌ,,株式会社,神奈川県,横浜市保土ケ谷区,今井町５０９番地エミネンス二俣川２－４０２号,,14,106,2400035,,,,,,,2022-08-19,1,,,,,ワイスチール,0
91,1020003022229,新規,0,2022-08-19,2022-08-19,合同会社クラウトメ,,合同会社,神奈川県,横浜市保土ケ谷区,境木本町６２－６,,14,106,2400033,,,,,,,2022-08-19,1,,,,,クラウトメ,0
92,1020003022237,新規,0,2022-08-19,2022-08-19,みるきくかく合同会社,,合同会社,神奈川県,横浜市磯子区,森が丘２丁目３０番１９号,,14,107,2350024,,,,,,,2022-08-19,1,,,,,ミルキクカク,0
110,1030001149683,新規,0,2022-08-19,2022-08-19,株式会社Ｇｒａｎ　ｃｉｅｌｏ,,株式会社,埼玉県,さいたま市浦和区,北浦和４丁目１番８号Ｔビル３階,,11,107,3300074,,,,,,,2022-08-19,1,,,,,グランシエロ,0
111,1030001149733,新規,0,2022-08-19,2022-08-19,フューネラル・ネクスト株式会社,,株式会社,埼玉県,川口市,大字安行領根岸２１２番３号,,11,203,3330834,,,,,,,2022-08-19,1,,,,,フューネラルネクスト,0
112,1030001149741,新規,0,2022-08-19,2022-08-19,株式会社ＤＡＩＴＯコンサル,,株式会社,埼玉県,入間市,宮寺２８０８番地１ベルハイム２０１,,11,225,3580014,,,,,,,2022-08-19,1,,,,,ダイトコンサル,0
123,1030005020972,新規,0,2022-08-19,2022-08-19,社会福祉法人愛心会,,その他の設立登記法人,埼玉県,さいたま市大宮区,浅間町２丁目２６２番地４,,11,103,3300842,,,,,,,2022-08-19,1,,,,,アイシンカイ,0
132,1040001124735,新規,0,2022-08-19,2022-08-19,株式会社ＭＲ,,株式会社,千葉県,成田市,山之作２７７番地１,,12,211,2860135,,,,,,,2022-08-19,1,,,,,エムアール,0
137,1040005021706,新規,0,2022-08-19,2022-08-19,サーフサイド鴨川管理組合法人,,その他の設立登記法人,千葉県,鴨川市,東町１１２０番地２,,12,223,2960041,,,,,,,2022-08-19,1,,,,,サーフサイドカモガワ,0
145,1070005010029,新規,0,2022-08-19,2022-08-19,農事組合法人かんらんＡｇｒｉ,,その他の設立登記法人,群馬県,吾妻郡嬬恋村,大字田代９８４番地４,,10,425,3771614,,,,,,,2022-08-19,1,,,,,カンランアグリ,0
149,1080103002637,新規,0,2022-08-19,2022-08-19,ＳＪＲ合同会社,,合同会社,静岡県,富士宮市,大岩３５８番地の１,,22,207,4180013,,,,,,,2022-08-19,1,,,,,エスジェイアール,0
159,1120001248071,新規,0,2022-08-19,2022-08-19,中田株式会社,,株式会社,大阪府,大阪市東成区,深江北３丁目４番２１号エクラ深江橋２１３Ａ,,27,115,5370001,,,,,,,2022-08-19,1,,,,,ナカタ,0
160,1120001248195,新規,0,2022-08-19,2022-08-19,株式会社Ｄ＆Ｙ　ＩＮＴＥＲＮＡＴＩＯＮＡＬ　ＴＲＡＤＥ,,株式会社,大阪府,大阪市中央区,島町２丁目２番３－４０３号,,27,128,5400034,,,,,,,2022-08-19,1,,,,,ディーアンドワイインターナショナルトレード,0
161,1120001248261,新規,0,2022-08-19,2022-08-19,達飛株式会社,,株式会社,大阪府,大阪市中央区,日本橋１丁目３番６－４０４号,,27,128,5420073,,,,,,,2022-08-19,1,,,,,タッピ,0
162,1120001248286,新規,0,2022-08-19,2022-08-19,株式会社ＨｅａｖｅｎＤｈｏｍｅ,,株式会社,大阪府,大阪市阿倍野区,阿倍野筋５丁目９－２１－３Ｆ,,27,119,5450052,,,,,,,2022-08-19,1,,,,,ヘブンディーホーム,0
163,1120001248303,新規,0,2022-08-19,2022-08-19,株式会社津村組,,株式会社,大阪府,大阪市旭区,清水４丁目１１番１０号,,27,117,5350021,,,,,,,2022-08-19,1,,,,,ツムラグミ,0
164,1120003022318,新規,0,2022-08-19,2022-08-19,合同会社新民堂,,合同会社,大阪府,大阪市淀川区,西中島５丁目８番２９号チサンマンション第３新大阪６０６号室,,27,123,5320011,,,,,,,2022-08-19,1,,,,,シンミンドウ,0
169,1120901046376,新規,0,2022-08-19,2022-08-19,株式会社喜三郎,00127565,株式会社,大阪府,豊能郡能勢町,野間西山１２９番地,,27,322,5630135,,,,,,,2022-08-19,1,,,,,キサブロウ,0
170,1120903004274,新規,0,2022-08-19,2022-08-19,仁ベストカンパニー合同会社,,合同会社,大阪府,吹田市,日の出町９番３３号,,27,205,5640023,,,,,,,2022-08-19,1,,,,,ジンベストカンパニー,0
180,1140001126911,新規,0,2022-08-19,2022-08-19,株式会社西舟,,株式会社,兵庫県,尼崎市,東難波町５丁目１５－２７－１０４,,28,202,6600892,,,,,,,2022-08-19,1,,,,,ニシフネ,0
181,1140001127133,新規,0,2022-08-19,2022-08-19,株式会社ＳＨＩＮ総合美装,,株式会社,兵庫県,神戸市中央区,相生町４丁目６番１３号幸福ビル６０１号,,28,110,6500025,,,,,,,2022-08-19,1,,,,,シンソウゴウビソウ,0
185,1150001025773,新規,0,2022-08-19,2022-08-19,ＰＩＥＣＥ株式会社,,株式会社,奈良県,大和高田市,大字吉井４８番地１３,,29,202,6350059,,,,,,,2022-08-19,1,,,,,ピース,0
186,1150003002762,新規,0,2022-08-19,2022-08-19,合同会社ネオクリエイト,,合同会社,奈良県,桜井市,朝倉台東２丁目５３８番地の１０,,29,206,6330003,,,,,,,2022-08-19,1,,,,,ネオクリエイト,0
199,1180003024176,新規,0,2022-08-19,2022-08-19,カザオト合同会社,,合同会社,愛知県,名古屋市南区,内田橋１丁目１１番５号メゾン恵１０１号,,23,112,4570862,,,,,,,2022-08-19,1,,,,,カザオト,0
203,1180305009379,新規,0,2022-08-19,2022-08-19,一般社団法人ガイア国際交流教育研究所,,その他の設立登記法人,愛知県,豊橋市,小向町字下野１１番地,,23,201,4418003,,,,,,,2022-08-19,1,,,,,ガイアコクサイコウリュウキョウイクケンキュウジョ,0
211,1230005009252,新規,0,2022-08-19,2022-08-19,一般社団法人地域活力促進事業,,その他の設立登記法人,富山県,富山市,上冨居２丁目９番６７号,,16,201,9300835,,,,,,,2022-08-19,1,,,,,チイキカツリョクソクシンジギョウ,0
212,1240001060241,新規,0,2022-08-19,2022-08-19,株式会社ＭＩＫＩＨＯＭＥ,,株式会社,広島県,東広島市,西条朝日町５番１号,,34,212,7390012,,,,,,,2022-08-19,1,,,,,ミキホーム,0
214,1250005008764,新規,0,2022-08-19,2022-08-19,一般社団法人福祉輸送生活支援協会,,その他の設立登記法人,山口県,岩国市,車町３丁目９番２０号,,35,208,7400026,,,,,,,2022-08-19,1,,,,,フクシユソウセイカツシエンキョウカイ,0
217,1280005007499,新規,0,2022-08-19,2022-08-19,特定非営利活動法人オリンポカーサ,,その他の設立登記法人,島根県,浜田市,日脚町１８５番地１２（３）,,32,202,6971322,,,,,,,2022-08-19,1,,,,,オリンポカーサ,0
242,1420001017974,新規,0,2022-08-19,2022-08-19,株式会社ＳＴＵＤＩＯ　ＧＲＡＮＤＥ,,株式会社,青森県,青森市,佃２丁目３－７グランデ佃Ａ,,02,201,0300962,,,,,,,2022-08-19,1,,,,,スタジオグランデ,0
243,1430001087265,新規,0,2022-08-19,2022-08-19,銀河計画株式会社,,株式会社,北海道,虻田郡喜茂別町,字相川１５７,,01,398,0440215,,,,,,,2022-08-19,1,,,,,ギンガケイカク,0
244,1430001087323,新規,0,2022-08-19,2022-08-19,株式会社ノルダ,,株式会社,北海道,札幌市中央区,北四条西１７丁目１番地ＶＥＲＩＴＡＳ美術館通１０６号,,01,101,0600004,,,,,,,2022-08-19,1,,,,,ノルダ,0
252,1460103001476,新規,0,2022-08-19,2022-08-19,ｍａｎｍａ　ｖｉｌｌａｇｅ合同会社,,合同会社,北海道,河西郡芽室町,東四条１丁目８番地２,,01,637,0820014,,,,,,,2022-08-19,1,,,,,マンマヴィレッジ,0
264,2010001228703,新規,0,2022-08-19,2022-08-19,高槻商事株式会社,,株式会社,東京都,中央区,日本橋人形町２丁目２３番１号,,13,102,1030013,,,,,,,2022-08-19,1,,,,,,0
265,2010001228827,新規,0,2022-08-19,2022-08-19,ＴＯＫＵＧＡＷＡ株式会社,,株式会社,東京都,中央区,銀座６丁目６番１号銀座風月堂ビル５Ｆ,,13,102,1040061,,,,,,,2022-08-19,1,,,,,トクガワ,0
274,2010401168714,新規,0,2022-08-19,2022-08-19,株式会社アベグローバルジャパン,,株式会社,東京都,港区,白金３丁目１番７号Ｋ＆Ｇ５１０ハウス５０２,,13,103,1080072,,,,,,,2022-08-19,1,,,,,アベグローバルジャパン,0
275,2010401169126,新規,0,2022-08-19,2022-08-19,株式会社ＷＡ‐ＢＵＮ,,株式会社,東京都,港区,南青山２丁目２番１５号,,13,103,1070062,,,,,,,2022-08-19,1,,,,,ワブン,0
276,2010501049129,新規,0,2022-08-19,2022-08-19,株式会社ジャパンテクニカ,,株式会社,東京都,台東区,浅草橋５丁目８番１１号大富ビル２階,,13,106,1110053,,,,,,,2022-08-19,1,,,,,ジャパンテクニカ,0
291,2011001149344,新規,0,2022-08-19,2022-08-19,株式会社Ｇ４Ｍ３ＲＺ,,株式会社,東京都,渋谷区,道玄坂１丁目１０番８号渋谷道玄坂東急ビル２Ｆ－Ｃ,,13,113,1500043,,,,,,,2022-08-19,1,,,,,ゲーマーズ,0
303,2011101099910,新規,0,2022-08-19,2022-08-19,Ｄａｉｌｙ　Ｕｐｄａｔｅ株式会社,,株式会社,東京都,新宿区,西新宿３丁目５番１２－２０４号,,13,104,1600023,,,,,,,2022-08-19,1,,,,,デイリーアップデート,0
304,2011101099927,新規,0,2022-08-19,2022-08-19,株式会社エースクライム,,株式会社,東京都,新宿区,高田馬場３丁目１番５号サンパティオ高田馬場３０９号室,,13,104,1690075,,,,,,,2022-08-19,1,,,,,エースクライム,0
316,2011603003683,新規,0,2022-08-19,2022-08-19,Ｅｘｐｅｒａｎｚａ合同会社,,合同会社,東京都,練馬区,土支田２丁目２９番１９号,,13,120,1790076,,,,,,,2022-08-19,1,,,,,エクスペランサ,0
318,2011801041163,新規,0,2022-08-19,2022-08-19,株式会社ＡＳＸＥＥＤ,,株式会社,東京都,葛飾区,堀切５丁目４番３－２０１号,,13,122,1240006,,,,,,,2022-08-19,1,,,,,アスシード,0
320,2013105001810,新規,0,2022-08-19,2022-08-19,特定非営利活動法人Ｇｒｅｅｎ　Ｅｌｅｐｈａｎｔ,,その他の設立登記法人,東京都,あきる野市,五日市２２３－２,,13,228,1900164,,,,,,,2022-08-19,1,,,,,グリーンエレファント,0
330,2020001147803,新規,0,2022-08-19,2022-08-19,アクト株式会社,,株式会社,神奈川県,横浜市中区,初音町１丁目２－８－３０４,,14,104,2310053,,,,,,,2022-08-19,1,,,,,アクト,0
331,2020001147836,新規,0,2022-08-19,2022-08-19,株式会社ＮＩＮＥ　ＲＥＸＸ,,株式会社,神奈川県,横浜市鶴見区,東寺尾北台１番１５－７０４号,,14,101,2300016,,,,,,,2022-08-19,1,,,,,ナインレックス,0
334,2020003022236,新規,0,2022-08-19,2022-08-19,合同会社エイトコーポレーション,,合同会社,神奈川県,横浜市中区,初音町３丁目４９番地１クリオ黄金町６０７号室,,14,104,2310053,,,,,,,2022-08-19,1,,,,,エイトコーポレーション,0
335,2020003022260,新規,0,2022-08-19,2022-08-19,合同会社建明,,合同会社,神奈川県,横浜市旭区,鶴ケ峰１丁目４４－２６,,14,112,2410022,,,,,,,2022-08-19,1,,,,,ケンメイ,0
342,2030001149435,新規,0,2022-08-19,2022-08-19,金神株式会社,,株式会社,埼玉県,さいたま市岩槻区,城南４丁目４番８５号ソファレ岩槻１０２号,,11,110,3390043,,,,,,,2022-08-19,1,,,,,,0
343,2030001149749,新規,0,2022-08-19,2022-08-19,株式会社エンピ,,株式会社,埼玉県,戸田市,大字新曽２２２０番地の１（北戸田ファーストゲートタワー３０１号室）,,11,224,3350021,,,,,,,2022-08-19,1,,,,,エンピ,0
346,2030005020971,新規,0,2022-08-19,2022-08-19,一般社団法人オンラインビジネス促進機構,,その他の設立登記法人,埼玉県,さいたま市浦和区,東仲町２１番１１号,,11,107,3300056,,,,,,,2022-08-19,1,,,,,オンラインビジネスソクシンキコウ,0
351,2040003020650,新規,0,2022-08-19,2022-08-19,合同会社Ｍ’ｓ　ｃｏｍｐａｎｙ,,合同会社,千葉県,柏市,名戸ケ谷１丁目１番１５号,,12,217,2770032,,,,,,,2022-08-19,1,,,,,エムズカンパニー,0
364,2080101023485,新規,0,2022-08-19,2022-08-19,ＳＨＩＮＳＨＯ株式会社,,株式会社,静岡県,田方郡函南町,大土肥１９４‐５,,22,325,4190113,,,,,,,2022-08-19,1,,,,,シンショウ,0
366,2080103002636,新規,0,2022-08-19,2022-08-19,合同会社ＬｔＧキャピタルパートナーズ,,合同会社,静岡県,三島市,大社町１８番５２号,,22,206,4110853,,,,,,,2022-08-19,1,,,,,エルティージーキャピタルパートナーズ,0
371,2100005012904,新規,0,2022-08-19,2022-08-19,弁護士法人中山法律事務所,,その他の設立登記法人,長野県,長野市,長門町１０９６番地,,20,201,3810000,,,,,,,2022-08-19,1,,,,,ナカヤマホウリツジムショ,0
387,2120001248070,新規,0,2022-08-19,2022-08-19,株式会社ランニング,,株式会社,大阪府,大阪市東成区,深江北３丁目４番２１号エクラ深江橋７０６Ｂ,,27,115,5370001,,,,,,,2022-08-19,1,,,,,ランニング,0
388,2120001248260,新規,0,2022-08-19,2022-08-19,英創株式会社,,株式会社,大阪府,大阪市中央区,島之内２丁目４－１６ケイアンドティ道頓堀２０６室,,27,128,5420082,,,,,,,2022-08-19,1,,,,,エイソウ,0
389,2120001248310,新規,0,2022-08-19,2022-08-19,株式会社ＥＦＬａｂｏ,,株式会社,大阪府,門真市,大橋町２８番１５－１０９号,,27,223,5710077,,,,,,,2022-08-19,1,,,,,エフラボ,0
390,2120001248335,新規,0,2022-08-19,2022-08-19,株式会社リボーン,,株式会社,大阪府,大阪市大正区,南恩加島３丁目２番２号,,27,108,5510021,,,,,,,2022-08-19,1,,,,,リボーン,0
400,2120901046383,新規,0,2022-08-19,2022-08-19,株式会社エコテクワークス,,株式会社,大阪府,高槻市,寿町１丁目６番１８号,,27,207,5690826,,,,,,,2022-08-19,1,,,,,エコテクワークス,0
412,2140001127116,新規,0,2022-08-19,2022-08-19,株式会社ＴＨＥ４３,,株式会社,兵庫県,宝塚市,山手台西４丁目２７番１号,,28,214,6650886,,,,,,,2022-08-19,1,,,,,ザフォーティースリー,0
415,2140003018049,新規,0,2022-08-19,2022-08-19,合同会社リッシュ,,合同会社,兵庫県,尼崎市,南武庫之荘３丁目２２番７号,,28,202,6610033,,,,,,,2022-08-19,1,,,,,リッシュ,0
418,2150003002761,新規,0,2022-08-19,2022-08-19,合同会社ＡｋａｌａＴｏｐ,,合同会社,奈良県,吉野郡下市町,大字広橋４１９番地の１,,29,443,6380015,,,,,,,2022-08-19,1,,,,,アカラトップ,0
432,2190001029704,新規,0,2022-08-19,2022-08-19,株式会社あすのファーム,,株式会社,三重県,津市,半田１１１３番地２,,24,201,5140823,,,,,,,2022-08-19,1,,,,,アスノファーム,0
434,2190005011732,新規,0,2022-08-19,2022-08-19,一般社団法人麻産業創造開発機構,,その他の設立登記法人,三重県,伊勢市,神田久志本町１７０４番地,,24,203,5160016,,,,,,,2022-08-19,1,,,,,アササンギョウソウゾウカイハツキコウ,0
438,2220001024998,新規,0,2022-08-19,2022-08-19,株式会社さいだ,,株式会社,石川県,七尾市,藤橋町未部４２番地２,,17,202,9260816,,,,,,,2022-08-19,1,,,,,サイダ,0
440,2230003001904,新規,0,2022-08-19,2022-08-19,ひまわり合同会社,,合同会社,富山県,富山市,五番町５番６号,,16,201,9300052,,,,,,,2022-08-19,1,,,,,ヒマワリ,0
444,2260001037162,新規,0,2022-08-19,2022-08-19,株式会社ＷＩＮＳＯＭＥ,,株式会社,岡山県,岡山市北区,大和町１丁目５番５号ネクステージヤマト３００,,33,101,7000808,,,,,,,2022-08-19,1,,,,,ウィンサム,0
449,2290001098656,新規,0,2022-08-19,2022-08-19,株式会社ＧＡＬＥＮＤ,,株式会社,福岡県,福岡市博多区,冷泉町１０－２４博多冷泉町ビル２階,,40,132,8120039,,,,,,,2022-08-19,1,,,,,ガレンド,0
452,2290003012862,新規,0,2022-08-19,2022-08-19,ジャンルレス合同会社,,合同会社,福岡県,福岡市中央区,平尾５丁目１９番４０－３号,,40,133,8100014,,,,,,,2022-08-19,1,,,,,ジャンルレス,0
453,2290005018783,新規,0,2022-08-19,2022-08-19,一般社団法人国際音楽文化協会,,その他の設立登記法人,福岡県,福岡市南区,高宮３丁目１２番２５号,,40,134,8150083,,,,,,,2022-08-19,1,,,,,コクサイオンガクブンカキョウカイ,0
455,2310001018000,新規,0,2022-08-19,2022-08-19,株式会社Ｌｉｎｋ　Ｓｅａ,,株式会社,長崎県,長崎市,古川町５－２１,,42,201,8500851,,,,,,,2022-08-19,1,,,,,リンクシー,0
471,2430003014200,新規,0,2022-08-19,2022-08-19,合同会社ＫＡＮＯＡ,,合同会社,北海道,札幌市清田区,北野六条１丁目１６番８号,,01,110,0040866,,,,,,,2022-08-19,1,,,,,カノア,0
475,2450003002236,新規,0,2022-08-19,2022-08-19,合同会社Ｃｏｌｏｒ’ｓ,,合同会社,北海道,旭川市,東七条２丁目１番７－５０３号アーバンライフ東７条５０３,,01,204,0700027,,,,,,,2022-08-19,1,,,,,,0
479,2480001011830,新規,0,2022-08-19,2022-08-19,株式会社ＨＡＮＡＴＡＳ,,株式会社,徳島県,徳島市,川内町平石若松１００番地の６,,36,201,7710135,,,,,,,2022-08-19,1,,,,,ハナタス,0
482,2700150111326,新規,0,2022-08-19,2022-08-19,ＬＩＦＥ　ＨＯＰＥ　ＩＮＴＥＲＮＡＴＩＯＮＡＬ　ＰＶＴ　ＬＴＤ,,外国会社等,千葉県,佐倉市,大篠塚１３５０番地１Ｂ,,12,212,2850806,スリランカ民主社会主義共和国、コロンボ０９、デマタゴダ、ベルワナロード、１５,,,,,,2022-08-19,1,,,,,ライフホープインターナシヨナルプライベートリミテツド,0
483,2700150111367,新規,0,2022-08-19,2022-08-19,ＳＡＭＩＴＨＡ　ＭＯＴＯＲＳ,,外国会社等,千葉県,山武郡九十九里町,藤下９５６番地５オフィスＣ号,,12,403,2830112,スリランカ民主社会主義共和国、キャンディ、カトゥガストタ、クルネガラロード、１８２－Ａ,,,,,,2022-08-19,1,,,,,サミタモータース,0
489,3010001228909,新規,0,2022-08-19,2022-08-19,株式会社Ｂｕｄｄｓ　Ｃｏｍｐａｎｙ,,株式会社,東京都,中央区,銀座１丁目２２番１１号銀座大竹ビジデンス２階,,13,102,1040061,,,,,,,2022-08-19,1,,,,,,0
490,3010001228917,新規,0,2022-08-19,2022-08-19,株式会社オフィスポラリス,,株式会社,東京都,千代田区,二番町９番３号,,13,101,1020084,,,,,,,2022-08-19,1,,,,,,0
491,3010001228958,新規,0,2022-08-19,2022-08-19,株式会社リーセント,,株式会社,東京都,千代田区,神田神保町１丁目６２番２リブクオーレ神保町１３０６号,,13,101,1010051,,,,,,,2022-08-19,1,,,,,リーセント,0
493,3010003038298,新規,0,2022-08-19,2022-08-19,合同会社マナビ,,合同会社,東京都,中央区,湊２丁目１５番１４号,,13,102,1040043,,,,,,,2022-08-19,1,,,,,マナビ,0
503,3010401169240,新規,0,2022-08-19,2022-08-19,虎ノ門パートナーズ株式会社,,株式会社,東京都,港区,虎ノ門４丁目１番３４号,,13,103,1050001,,,,,,,2022-08-19,1,,,,,トラノモンパートナーズ,0
506,3010603009698,新規,0,2022-08-19,2022-08-19,合同会社ウズマキソフト,,合同会社,東京都,江東区,豊洲５丁目５番１号,,13,108,1350061,,,,,,,2022-08-19,1,,,,,ウズマキソフト,0
524,3011001149244,新規,0,2022-08-19,2022-08-19,株式会社Ｘ‐Ａ,,株式会社,東京都,渋谷区,神宮前５丁目２１－４玉沢ハウスＡ,,13,113,1500001,,,,,,,2022-08-19,1,,,,,,0
525,3011001149269,新規,0,2022-08-19,2022-08-19,株式会社Ｐｅａｃｅｎｕｔｓ,,株式会社,東京都,渋谷区,道玄坂１丁目１０番８号渋谷道玄坂東急ビル２Ｆ－Ｃ,,13,113,1500043,,,,,,,2022-08-19,1,,,,,ピースナッツ,0
526,3011001149285,新規,0,2022-08-19,2022-08-19,株式会社鈴木事務所,,株式会社,東京都,渋谷区,恵比寿１丁目８番６号共同ビル７階,,13,113,1500013,,,,,,,2022-08-19,1,,,,,スズキジムショ,0
528,3011003015254,新規,0,2022-08-19,2022-08-19,合同会社ｒｏｖａｌｅｕｒ,,合同会社,東京都,渋谷区,東２丁目２７番２－２０４号,,13,113,1500011,,,,,,,2022-08-19,1,,,,,ルバルール,0
536,3011401024492,新規,0,2022-08-19,2022-08-19,Ｓ．Ｏ．Ｇ株式会社,,株式会社,東京都,板橋区,大山町１９番７－１３０４号,,13,119,1730023,,,,,,,2022-08-19,1,,,,,エスオージー,0
538,3011503005259,新規,0,2022-08-19,2022-08-19,合同会社ＵＳＨＩＤＡ,,合同会社,東京都,荒川区,西日暮里６丁目１０番１４号プエルト西日暮里１０２,,13,118,1160013,,,,,,,2022-08-19,1,,,,,ウシダ,0
545,3012803002862,新規,0,2022-08-19,2022-08-19,合同会社クロシェット,,合同会社,東京都,武蔵村山市,神明３丁目２１番地,,13,223,2080002,,,,,,,2022-08-19,1,,,,,クロシェット,0
550,3013301049529,新規,0,2022-08-19,2022-08-19,株式会社晋,,株式会社,東京都,豊島区,巣鴨４丁目３５－５池田ビル１０１号室,,13,116,1700002,,,,,,,2022-08-19,1,,,,,シン,0
559,3020005015633,新規,0,2022-08-19,2022-08-19,一般社団法人日本シニアライフ相談協会,,その他の設立登記法人,神奈川県,川崎市中原区,新丸子町９１５番地２０、６Ｆ,,14,133,2110005,,,,,,,2022-08-19,1,,,,,ニホンシニアライフソウダンキョウカイ,0
575,3030001149715,新規,0,2022-08-19,2022-08-19,三川国際株式会社,,株式会社,埼玉県,川口市,東領家２丁目３５－９－１０３,,11,203,3320003,,,,,,,2022-08-19,1,,,,,ミカワコクサイ,0
576,3030001149731,新規,0,2022-08-19,2022-08-19,株式会社豆心フーズ,,株式会社,埼玉県,越谷市,大字船渡８１番地１,,11,222,3430003,,,,,,,2022-08-19,1,,,,,トウシンフーズ,0
580,3030003020023,新規,0,2022-08-19,2022-08-19,合同会社Ｔ・Ｒ商事,,合同会社,埼玉県,幸手市,大字惣新田７１１番地,,11,240,3400133,,,,,,,2022-08-19,1,,,,,ティーアールショウジ,0
581,3030003020031,新規,0,2022-08-19,2022-08-19,喜刷刷合同会社,,合同会社,埼玉県,川口市,西川口１丁目３０番２０号４Ｆ,,11,203,3320021,,,,,,,2022-08-19,1,,,,,キーサーサー,0
588,3040003020666,新規,0,2022-08-19,2022-08-19,パシフィックアパート合同会社,,合同会社,千葉県,山武市,森２７９番地１４９号,,12,237,2891214,,,,,,,2022-08-19,1,,,,,パシフィックアパート,0
619,3120001248210,新規,0,2022-08-19,2022-08-19,株式会社関西不動産,,株式会社,大阪府,大阪市淀川区,十三東３丁目２５番２－３０３号,,27,123,5320023,,,,,,,2022-08-19,1,,,,,カンサイフドウサン,0
620,3120001248227,新規,0,2022-08-19,2022-08-19,ＭＩＲＡＩ株式会社,,株式会社,大阪府,大阪市西成区,天下茶屋３丁目１２番１７号,,27,122,5570014,,,,,,,2022-08-19,1,,,,,ミライ,0
621,3120001248276,新規,0,2022-08-19,2022-08-19,ＨＯＳＨＩＮＯ　ＰＥＴ株式会社,,株式会社,大阪府,大阪市浪速区,戎本町２丁目９番１４号,,27,111,5560013,,,,,,,2022-08-19,1,,,,,ホシノペット,0
622,3120003022316,新規,0,2022-08-19,2022-08-19,ＮＨＴ合同会社,,合同会社,大阪府,大阪市西成区,橘２丁目８番１７号,,27,122,5570051,,,,,,,2022-08-19,1,,,,,エヌエイチティー,0
625,3120101066116,新規,0,2022-08-19,2022-08-19,株式会社ミスター,,株式会社,大阪府,藤井寺市,川北１丁目３６－１,,27,226,5830001,,,,,,,2022-08-19,1,,,,,ミスター,0
629,3120901046382,新規,0,2022-08-19,2022-08-19,ＬａｎｄＰ株式会社,,株式会社,大阪府,高槻市,月見町３２番１６号,,27,207,5691122,,,,,,,2022-08-19,1,,,,,エルアンドピー,0
635,3130001072485,新規,0,2022-08-19,2022-08-19,永井サービス商会株式会社,,株式会社,京都府,京都市山科区,東野北井ノ上町１－７大翔第一ビル８０１号,,26,110,6078141,,,,,,,2022-08-19,1,,,,,ナガイサービスショウカイ,0
640,3140001127148,新規,0,2022-08-19,2022-08-19,株式会社Ｌｉｖｉａ　ＨｏｍｅＡｓｓｉｓｔ,,株式会社,兵庫県,神戸市兵庫区,下沢通１丁目１番１７号朝日プラザ湊川２０３,,28,105,6520047,,,,,,,2022-08-19,1,,,,,リビアホームアシスト,0
641,3140001127156,新規,0,2022-08-19,2022-08-19,株式会社ＴＲＧ,,株式会社,兵庫県,尼崎市,常光寺１丁目２６番２６－４０３号,,28,202,6600811,,,,,,,2022-08-19,1,,,,,ティーアールジー,0
667,3250001019730,新規,0,2022-08-19,2022-08-19,株式会社アイテクノス,,株式会社,山口県,周南市,千代田町９番６号,,35,215,7450044,,,,,,,2022-08-19,1,,,,,アイテクノス,0
671,3260001037161,新規,0,2022-08-19,2022-08-19,株式会社アドバンス,,株式会社,岡山県,岡山市南区,内尾３６９番地２５,,33,104,7010212,,,,,,,2022-08-19,1,,,,,アドバンス,0
672,3280005007497,新規,0,2022-08-19,2022-08-19,特定非営利活動法人フードバンクしまねあったか元気便,,その他の設立登記法人,島根県,松江市,西津田３丁目５－１６ＪＡしまね津田支店２Ｆ地域つながりセンター内,,32,201,6900017,,,,,,,2022-08-19,1,,,,,フードバンクシマネアッタカゲンキビン,0
687,3320001019277,新規,0,2022-08-19,2022-08-19,株式会社ぐーてらすコミュニケーション,,株式会社,大分県,大分市,大字国分７０９番地の１,,44,201,8700864,,,,,,,2022-08-19,1,,,,,グーテラスコミュニケーション,0
691,3340001024977,新規,0,2022-08-19,2022-08-19,株式会社Ｌｉｂｅｒｔａ,,株式会社,鹿児島県,西之表市,国上１７４－３,,46,213,8913222,,,,,,,2022-08-19,1,,,,,リベルタ,0
692,3350001017914,新規,0,2022-08-19,2022-08-19,株式会社服部,,株式会社,宮崎県,児湯郡高鍋町,大字持田６２４９番地１,,45,401,8840005,,,,,,,2022-08-19,1,,,,,ハットリ,0
693,3360001030841,新規,0,2022-08-19,2022-08-19,株式会社太陽開発,,株式会社,沖縄県,豊見城市,字豊見城３４番地,,47,212,9010241,,,,,,,2022-08-19,1,,,,,タイヨウカイハツ,0
695,3360003012235,新規,0,2022-08-19,2022-08-19,合同会社Ｃｌｉｆｆ,,合同会社,沖縄県,浦添市,字沢岻５６番地２,,47,208,9012112,,,,,,,2022-08-19,1,,,,,クリフ,0
697,3370001048940,新規,0,2022-08-19,2022-08-19,株式会社ＡＦｉＤ,,株式会社,宮城県,塩竈市,赤坂１２－３,,04,203,9850055,,,,,,,2022-08-19,1,,,,,アフィッド,0
700,3370003005799,新規,0,2022-08-19,2022-08-19,カントリーコンサルティング合同会社,,合同会社,宮城県,仙台市青葉区,国分町１丁目４番９号,,04,101,9800803,,,,,,,2022-08-19,1,,,,,カントリーコンサルティング,0
708,3420001017972,新規,0,2022-08-19,2022-08-19,福の倉株式会社,,株式会社,青森県,五所川原市,十三羽黒崎１３３番地１８,,02,205,0370403,,,,,,,2022-08-19,1,,,,,フクノクラ,0
733,4010001228882,新規,0,2022-08-19,2022-08-19,株式会社３１５０,,株式会社,東京都,千代田区,神田紺屋町３７番地６,,13,101,1010035,,,,,,,2022-08-19,1,,,,,サイコー,0
734,4010001228916,新規,0,2022-08-19,2022-08-19,Ｔ２株式会社,,株式会社,東京都,中央区,晴海１丁目６番１－２１１０号,,13,102,1040053,,,,,,,2022-08-19,1,,,,,ティーツー,0
736,4010003038421,新規,0,2022-08-19,2022-08-19,合同会社ＴＯＰ　ＳＰＡＲＫ,,合同会社,東京都,中央区,銀座１丁目２２番１１号銀座大竹ビジデンス２階,,13,102,1040061,,,,,,,2022-08-19,1,,,,,トップスパーク,0
737,4010003038446,新規,0,2022-08-19,2022-08-19,合同会社アグリ総合研究所,,合同会社,東京都,中央区,銀座１丁目２２番１１号銀座大竹ビジデンス２階,,13,102,1040061,,,,,,,2022-08-19,1,,,,,アグリソウゴウケンキュウジョ,0
742,4010005035425,新規,0,2022-08-19,2022-08-19,代々木プロパティー特定目的会社,,その他の設立登記法人,東京都,千代田区,丸の内１丁目１１番１号,,13,101,1000005,,,,,,,2022-08-19,1,,,,,ヨヨギプロパティー,0
750,4010401169124,新規,0,2022-08-19,2022-08-19,株式会社ＭＯＶＥＤ,,株式会社,東京都,港区,北青山２丁目１２番３５号タートルストーン青山ビル２Ｆ,,13,103,1070061,,,,,,,2022-08-19,1,,,,,ムーブド,0
751,4010401169132,新規,0,2022-08-19,2022-08-19,株式会社ＫＮＣ　Ｐｌａｎｎｉｎｇ,,株式会社,東京都,港区,芝５丁目２６番２４号田町スクエア２Ｆ,,13,103,1080014,,,,,,,2022-08-19,1,,,,,ケイエヌシープランニング,0
753,4010405021297,新規,0,2022-08-19,2022-08-19,特定目的会社ミッドキャッスルホールディングス,,その他の設立登記法人,東京都,港区,六本木６丁目１０番１号六本木ヒルズ森タワー,,13,103,1060032,,,,,,,2022-08-19,1,,,,,ミッドキャッスルホールディングス,0
754,4010501049259,新規,0,2022-08-19,2022-08-19,株式会社ＫＣＫ　Ｂｕｓｉｎｅｓｓ　Ｓｕｐｐｏｒｔ,,株式会社,東京都,台東区,上野６丁目１番６号御徒町グリーンハイツ１００５号,,13,106,1100005,,,,,,,2022-08-19,1,,,,,ケイシーケイビジネスサポート,0
760,4010703006363,新規,0,2022-08-19,2022-08-19,合同会社ニューレカ,,合同会社,東京都,品川区,大崎２丁目５番２５号,,13,109,1410032,,,,,,,2022-08-19,1,,,,,ニューレカ,0
775,4011001149292,新規,0,2022-08-19,2022-08-19,株式会社ＳｏＬ‐ＣｏＲＥ,,株式会社,東京都,目黒区,中目黒４丁目８－２５プライムメゾン中目黒２０６号,,13,110,1530061,,,,,,,2022-08-19,1,,,,,ソールコア,0
777,4011101099909,新規,0,2022-08-19,2022-08-19,株式会社陽葵サービス,,株式会社,東京都,新宿区,下落合１丁目１番１－４１４号,,13,104,1610033,,,,,,,2022-08-19,1,,,,,ヒマリサービス,0
779,4011201024048,新規,0,2022-08-19,2022-08-19,安信株式会社,,株式会社,東京都,中野区,鷺宮３丁目１５－１２,,13,114,1650032,,,,,,,2022-08-19,1,,,,,アンシン,0
792,4013301049528,新規,0,2022-08-19,2022-08-19,株式会社ギークニア,,株式会社,東京都,豊島区,南池袋１丁目１６－２０ぬかりやビル６階,,13,116,1710022,,,,,,,2022-08-19,1,,,,,ギークニア,0
797,4020001147818,新規,0,2022-08-19,2022-08-19,株式会社いろは,,株式会社,神奈川県,川崎市高津区,溝口２丁目４番３号,,14,134,2130001,,,,,,,2022-08-19,1,,,,,イロハ,0
798,4020001147826,新規,0,2022-08-19,2022-08-19,株式会社ＭＫ,,株式会社,神奈川県,横浜市神奈川区,羽沢町９２６－１６５,,14,102,2210863,,,,,,,2022-08-19,1,,,,,エムケー,0
801,4020005015632,新規,0,2022-08-19,2022-08-19,一般社団法人サクラ,,その他の設立登記法人,神奈川県,横浜市西区,北幸１丁目５番１０号ＪＰＲ横浜ビル地下１階,,14,103,2200004,,,,,,,2022-08-19,1,,,,,サクラ,0
805,4021001076809,新規,0,2022-08-19,2022-08-19,Ａｄｖａｎ株式会社,,株式会社,神奈川県,相模原市南区,大野台５丁目７番７号,,14,153,2520331,,,,,,,2022-08-19,1,,,,,アドゥヴァン,0
836,4040003020649,新規,0,2022-08-19,2022-08-19,協和合同会社,,合同会社,千葉県,八千代市,緑が丘２丁目２０番１２号ベルウッド弐番館３０１,,12,221,2760049,,,,,,,2022-08-19,1,,,,,キョウワ,0
837,4040003020665,新規,0,2022-08-19,2022-08-19,ティフラップ合同会社,,合同会社,千葉県,船橋市,習志野２丁目８番１７号,,12,204,2740071,,,,,,,2022-08-19,1,,,,,ティフラップ,0
847,4070005010026,新規,0,2022-08-19,2022-08-19,税理士法人あがつま会計,,その他の設立登記法人,群馬県,吾妻郡中之条町,大字中之条町４４１番地２０,,10,421,3770424,,,,,,,2022-08-19,1,,,,,アガツマカイケイ,0
851,4090003002155,新規,0,2022-08-19,2022-08-19,ＬＩＦＡＣＴ合同会社,,合同会社,山梨県,韮崎市,龍岡町下條東割９９２‐１７,,19,207,4070032,,,,,,,2022-08-19,1,,,,,リファクト,0
867,4120001248069,新規,0,2022-08-19,2022-08-19,合力株式会社,,株式会社,大阪府,大阪市中央区,松屋町９番２０号ローレルステート松屋町４０７Ａ,,27,128,5420067,,,,,,,2022-08-19,1,,,,,ゴウリキ,0
868,4120001248283,新規,0,2022-08-19,2022-08-19,株式会社ユニバーサルワークス,,株式会社,大阪府,大阪市西淀川区,歌島２丁目９番２９号,,27,113,5550021,,,,,,,2022-08-19,1,,,,,ユニバーサルワークス,0
869,4120001248291,新規,0,2022-08-19,2022-08-19,ブラウンマネジメント株式会社,,株式会社,大阪府,大阪市中央区,今橋２丁目１番１４－１００６号,,27,128,5410042,,,,,,,2022-08-19,1,,,,,ブラウンマネジメント,0
873,4120003022315,新規,0,2022-08-19,2022-08-19,合同会社ＲＩＺＥ,,合同会社,大阪府,大阪市西成区,松３丁目１番１９号,,27,122,5570034,,,,,,,2022-08-19,1,,,,,ライズ,0
878,4120901046381,新規,0,2022-08-19,2022-08-19,株式会社ＲＯＵＧＨ,,株式会社,大阪府,茨木市,春日１丁目８番２号２階,,27,211,5670031,,,,,,,2022-08-19,1,,,,,ラフ,0
879,4130001072419,新規,0,2022-08-19,2022-08-19,株式会社ティージー・オフィス,,株式会社,京都府,綾部市,西町１丁目５３番地,,26,203,6230016,,,,,,,2022-08-19,1,,,,,ティージーオフィス,0
884,4140001126925,新規,0,2022-08-19,2022-08-19,株式会社有馬ロイヤル,,株式会社,兵庫県,神戸市北区,有馬町９８７番地,,28,109,6511401,,,,,,,2022-08-19,1,,,,,アリマロイヤル,0
885,4140001127139,新規,0,2022-08-19,2022-08-19,株式会社ＩアンドＣ,,株式会社,兵庫県,姫路市,広畑区蒲田４丁目１２６５番地,,28,201,6711102,,,,,,,2022-08-19,1,,,,,アイアンドシー,0
886,4140001127147,新規,0,2022-08-19,2022-08-19,株式会社ＹＭＳ,,株式会社,兵庫県,西宮市,上ケ原九番町２番５１－３号,,28,204,6620883,,,,,,,2022-08-19,1,,,,,ワイエムエス,0
895,4180001152661,新規,0,2022-08-19,2022-08-19,株式会社７ＤＡＹＳ,,株式会社,愛知県,名古屋市中区,栄２丁目２－１広小路伏見中駒ビル２Ｆワンストップビジネスセンター名古屋栄店,,23,106,4600008,,,,,,,2022-08-19,1,,,,,セブンデイズ,0
896,4180001152711,新規,0,2022-08-19,2022-08-19,ヴィーヴォワークス株式会社,,株式会社,愛知県,一宮市,今伊勢町宮後字郷東４５番地８ベルトピア一宮ＩＩＩ４０２号,00127578,23,203,4910057,,,,,,,2022-08-19,1,,,,,ヴィーヴォワークス,0
901,4180005019898,新規,0,2022-08-19,2022-08-19,社会保険労務士法人めいほく,,その他の設立登記法人,愛知県,清須市,西枇杷島町古城１丁目６番地１６,,23,233,4520001,,,,,,,2022-08-19,1,,,,,メイホク,0
910,4190003004067,新規,0,2022-08-19,2022-08-19,合同会社こはる,,合同会社,三重県,多気郡明和町,大字明星２５３９番地３１,,24,442,5150313,,,,,,,2022-08-19,1,,,,,コハル,0
912,4200001040376,新規,0,2022-08-19,2022-08-19,株式会社ＧＲ８,,株式会社,岐阜県,可児市,中恵土２３６０番地７ヨシキビル１階,,21,214,5090202,,,,,,,2022-08-19,1,,,,,ジーアールエイト,0
925,4260001037152,新規,0,2022-08-19,2022-08-19,ＳＩＰＩ株式会社,,株式会社,岡山県,倉敷市,広江５丁目３番２８号,,33,202,7128043,,,,,,,2022-08-19,1,,,,,エスアイピーアイ,0
926,4260001037160,新規,0,2022-08-19,2022-08-19,株式会社アレキ,,株式会社,岡山県,岡山市北区,柳町２丁目４番２３号６Ｆ東１,,33,101,7000904,,,,,,,2022-08-19,1,,,,,アレキ,0
943,4350001017913,新規,0,2022-08-19,2022-08-19,株式会社時任電機,,株式会社,宮崎県,小林市,細野１４８０番地４,,45,205,8860004,,,,,,,2022-08-19,1,,,,,トキトウデンキ,0
946,4360001030832,新規,0,2022-08-19,2022-08-19,株式会社Ｔｈｉｎｋ　Ｏｋｉｎａｗａ,,株式会社,沖縄県,南城市,知念字具志堅３６番地,,47,215,9011514,,,,,,,2022-08-19,1,,,,,シンクオキナワ,0
947,4360001030840,新規,0,2022-08-19,2022-08-19,株式会社ＨＥＡＶＥＮＧＲＡＳＳ,,株式会社,沖縄県,沖縄市,照屋３丁目１６番１７号,,47,211,9040011,,,,,,,2022-08-19,1,,,,,ヘブングラス,0
956,4430003014198,新規,0,2022-08-19,2022-08-19,合同会社ＹＡ,,合同会社,北海道,札幌市北区,屯田七条１１丁目１２番１７号,,01,102,0020857,,,,,,,2022-08-19,1,,,,,ワイエー,0
957,4460301005094,新規,0,2022-08-19,2022-08-19,ｅ‐ＣＯＮ株式会社,,株式会社,北海道,北見市,北光６３３番地１７,,01,208,0900824,,,,,,,2022-08-19,1,,,,,イーコン,0
959,4480001011829,新規,0,2022-08-19,2022-08-19,やまだ家株式会社,,株式会社,徳島県,海部郡海陽町,奥浦字一宇谷１番地２６,,36,388,7750302,,,,,,,2022-08-19,1,,,,,ヤマダケ,0
964,4700150111381,新規,0,2022-08-19,2022-08-19,マウント・エベレスト・エクイプメンツ・ストー・プライベート・リミテッド,,外国会社等,東京都,八王子市,台町４丁目３３－８月ビル２０８号室,,13,201,1930931,ネパール連邦民主共和国カトマンズ市第２９区カトマンズ,,,,,,2022-08-19,1,,,,,マウントエベレストエクイプメンツストープライベートリミテツド,0
971,5010001228799,新規,0,2022-08-19,2022-08-19,株式会社八起,,株式会社,東京都,千代田区,神田北乗物町２番地和田ビル２Ｆ,,13,101,1010036,,,,,,,2022-08-19,1,,,,,ハッキ,0
972,5010001228898,新規,0,2022-08-19,2022-08-19,華貿国際物流日本株式会社,,株式会社,東京都,千代田区,神田神保町２丁目１４番地４朝日神保町プラザ５０２号,,13,101,1010051,,,,,,,2022-08-19,1,,,,,カボウコクサイブツリュウニホン,0
973,5010001228915,新規,0,2022-08-19,2022-08-19,株式会社龍前商事,,株式会社,東京都,文京区,千駄木３丁目２２番１号,,13,105,1130022,,,,,,,2022-08-19,1,,,,,リュウマエショウジ,0
974,5010001228972,新規,0,2022-08-19,2022-08-19,株式会社ＭＴベンチャーズ,,株式会社,東京都,千代田区,大手町１丁目４番２号,,13,101,1000004,,,,,,,2022-08-19,1,,,,,エムティベンチャーズ,0
986,5010401169123,新規,0,2022-08-19,2022-08-19,ＡＣＬＥＡＮ株式会社,,株式会社,東京都,港区,西麻布１丁目１２番９－４０１号,,13,103,1060031,,,,,,,2022-08-19,1,,,,,アクリーン,0
987,5010401169156,新規,0,2022-08-19,2022-08-19,株式会社ｔｏｃｒｅ,,株式会社,東京都,港区,南青山２丁目２番１５号,,13,103,1070062,,,,,,,2022-08-19,1,,,,,トクリ,0
988,5010401169239,新規,0,2022-08-19,2022-08-19,神谷町パートナーズ株式会社,,株式会社,東京都,港区,虎ノ門４丁目１番３４号,,13,103,1050001,,,,,,,2022-08-19,1,,,,,カミヤチョウパートナーズ,0
989,5010405021313,新規,0,2022-08-19,2022-08-19,ＡＬＰジャパンワン特定目的会社,,その他の設立登記法人,東京都,港区,元赤坂１丁目１番８号株式会社赤坂国際会計内,,13,103,1070051,,,,,,,2022-08-19,1,,,,,エーエルピージャパンワン,0
1011,5011101099866,新規,0,2022-08-19,2022-08-19,株式会社スクールソング,,株式会社,東京都,新宿区,西新宿３丁目２０番２号東京オペラシティタワー３９階,,13,104,1600023,,,,,,,2022-08-19,1,,,,,スクールソング,0
1017,5011301028039,新規,0,2022-08-19,2022-08-19,株式会社Ｎｏｏｐｙ,,株式会社,東京都,杉並区,阿佐谷北４丁目７番１０号,,13,115,1660001,,,,,,,2022-08-19,1,,,,,ヌーピー,0
1018,5011303004500,新規,0,2022-08-19,2022-08-19,合同会社ｉＲｅｇｏ,,合同会社,東京都,杉並区,荻窪５丁目２９番３号初鹿野ビル２階,,13,115,1670051,,,,,,,2022-08-19,1,,,,,アイレゴ,0
1039,5020001147841,新規,0,2022-08-19,2022-08-19,シルバーバックス株式会社,,株式会社,神奈川県,横浜市泉区,岡津町２７９８番地２３,,14,116,2450003,,,,,,,2022-08-19,1,,,,,シルバーバックス,0
1040,5020001147866,新規,0,2022-08-19,2022-08-19,株式会社ＩＮＮＯＶＡＴＩＯＮ,,株式会社,神奈川県,横浜市旭区,本宿町４４番地１テラモーネ二俣川２０７,,14,112,2410023,,,,,,,2022-08-19,1,,,,,イノベーション,0
1052,5030001149738,新規,0,2022-08-19,2022-08-19,ＳＫ　ＪＡＰＡＮ株式会社,,株式会社,埼玉県,八潮市,大字木曽根６９９番６号,,11,234,3400813,,,,,,,2022-08-19,1,,,,,エスケージャパン,0
1053,5030001149762,新規,0,2022-08-19,2022-08-19,株式会社ムサシ工業,,株式会社,埼玉県,さいたま市緑区,大字間宮９７３番地１,,11,109,3360965,,,,,,,2022-08-19,1,,,,,ムサシコウギョウ,0
1093,5120001248027,新規,0,2022-08-19,2022-08-19,雋霖株式会社,00127567,株式会社,大阪府,大阪市東成区,深江北３丁目４番２１号エクラ深江橋１０６Ａ,,27,115,5370001,,,,,,,2022-08-19,1,,,,,シュンリン,0
1094,5120001248183,新規,0,2022-08-19,2022-08-19,Ｏ．Ａ．インターナショナル株式会社,,株式会社,大阪府,大阪市浪速区,大国１丁目１２番２１号サンプラザ浪速１番館８０３号,,27,111,5560014,,,,,,,2022-08-19,1,,,,,,0
1095,5120001248290,新規,0,2022-08-19,2022-08-19,向陽株式会社,,株式会社,大阪府,大阪市阿倍野区,昭和町２丁目１０番６号ＥＳＴ－１・４０２号室,,27,119,5450011,,,,,,,2022-08-19,1,,,,,コウヨウ,0
1097,5120003022314,新規,0,2022-08-19,2022-08-19,合同会社ＺＥＲＯ,,合同会社,大阪府,大阪市東成区,東中本２丁目１－２１ナカムラビル１Ｆ,,27,115,5370021,,,,,,,2022-08-19,1,,,,,ゼロ,0
1102,5120105009614,新規,0,2022-08-19,2022-08-19,一般社団法人くらしのサポート研究所,,その他の設立登記法人,大阪府,藤井寺市,春日丘１丁目８番１５号,,27,226,5830026,,,,,,,2022-08-19,1,,,,,クラシノサポートケンキュウジョ,0
1104,5122001036163,新規,0,2022-08-19,2022-08-19,ＴＯＦＦＬＯＮジャパン株式会社,,株式会社,大阪府,八尾市,美園町２丁目１０番３号,,27,212,5810818,,,,,,,2022-08-19,1,,,,,トフロンジャパン,0
1106,5130001072483,新規,0,2022-08-19,2022-08-19,株式会社北川建築板金所,,株式会社,京都府,京都市右京区,太秦多藪町１４番地７２,,26,108,6168167,,,,,,,2022-08-19,1,,,,,キタガワケンチクバンキンショ,0
1108,5130005016552,新規,0,2022-08-19,2022-08-19,一般財団法人プロフェクト大谷司法支援基金,,その他の設立登記法人,京都府,京都市下京区,四条通烏丸西入函谷鉾町１０１番地,,26,106,6008009,,,,,,,2022-08-19,1,,,,,プロフェクトオオタニシホウシエンキキン,0
1111,5140001127154,新規,0,2022-08-19,2022-08-19,株式会社ＺＥＮ,,株式会社,兵庫県,神戸市北区,東有野台１丁目６番地の７,,28,109,6511322,,,,,,,2022-08-19,1,,,,,ゼン,0
1113,5150003002759,新規,0,2022-08-19,2022-08-19,合同会社Ｇ　ｕｐ,,合同会社,奈良県,奈良市,六条西３丁目２２番１５－Ｂ１０２号,,29,201,6308044,,,,,,,2022-08-19,1,,,,,ジーアップ,0
1116,5170001017245,新規,0,2022-08-19,2022-08-19,株式会社テンフィールド,,株式会社,和歌山県,和歌山市,砂山南４丁目２番１７号,,30,201,6408272,,,,,,,2022-08-19,1,,,,,テンフィールド,0
1125,5190003004066,新規,0,2022-08-19,2022-08-19,合同会社ｔａｋｅ　Ｒｏｏｔ,,合同会社,三重県,伊賀市,市部１５１２番地,,24,216,5180102,,,,,,,2022-08-19,1,,,,,テイクルート,0
1129,5220001024995,新規,0,2022-08-19,2022-08-19,株式会社ウニック,,株式会社,石川県,白山市,福留町４１３番地１,,17,210,9240051,,,,,,,2022-08-19,1,,,,,ウニック,0
1133,5240001060238,新規,0,2022-08-19,2022-08-19,株式会社補聴器専門館,,株式会社,広島県,福山市,御幸町上岩成５０４番地１,,34,207,7210000,,,,,,,2022-08-19,1,,,,,ホチョウキセンモンカン,0
1147,5290005018780,新規,0,2022-08-19,2022-08-19,一般社団法人ラボアシスタンツ,,その他の設立登記法人,福岡県,福岡市西区,横浜１丁目４７号Ａ－３号,,40,135,8190166,,,,,,,2022-08-19,1,,,,,ラボアシスタンツ,0
1157,5310001017998,新規,0,2022-08-19,2022-08-19,株式会社Ｏｎｅ‐ｓｔｅｐ,,株式会社,長崎県,大村市,植松３丁目８５６番地５,,42,205,8560027,,,,,,,2022-08-19,1,,,,,ワンステップ,0
1161,5370001048963,新規,0,2022-08-19,2022-08-19,株式会社ＴＣ,,株式会社,宮城県,黒川郡大和町,鶴巣大平字谷津沢一３４番地の１,,04,421,9813411,,,,,,,2022-08-19,1,,,,,ティーシー,0
1179,5430003014197,新規,0,2022-08-19,2022-08-19,合同会社木村企画,,合同会社,北海道,江別市,いずみ野１９番地の７,,01,217,0670034,,,,,,,2022-08-19,1,,,,,キムラキカク,0
1182,5460301005093,新規,0,2022-08-19,2022-08-19,株式会社てもみー,,株式会社,北海道,北見市,東相内町２３番地３,,01,208,0990878,,,,,,,2022-08-19,1,,,,,テモミー,0
1184,5700150111356,新規,0,2022-08-19,2022-08-19,ＨＩＲＯＳＨＩＭＡ　ＡＵＴＯ　ＴＲＡＤＩＮＧ　ＰＶＴ　ＬＴＤ,,外国会社等,千葉県,山武市,上横地２９９５番地３,,12,237,2891313,スリランカ民主社会主義共和国、カンダナ、マワサ、ヴィーディ、Ｎｏ．６,,,,,,2022-08-19,1,,,,,ヒロシマオートトレーデイングピーヴイテイエルテイデイ,0
1185,5700150111372,新規,0,2022-08-19,2022-08-19,Ｂｉｎｕｌｉ　Ｅｎｔｅｒｐｒｉｓｅｓ,,外国会社等,茨城県,下妻市,高道祖１３２８－１ナカジマハイツ６,,08,210,3040031,スリランカ民主社会主義共和国ギリウッラ、パルカダ、ナガハムッラワッタ、７４,,,,,,2022-08-19,1,,,,,ビヌリエンタープライセス,0
1186,5700150111380,新規,0,2022-08-19,2022-08-19,ＡＣＴＩＶＥ　ＩＮＴＥＲＮＡＴＩＯＮＡＬ　ＢＵＳＩＮＥＳＳ　ＨＯＵＳＥ　ＰＶＴ．ＬＴＤ．,,外国会社等,神奈川県,横浜市保土ケ谷区,峰岡町２丁目２４４番地ハイムカツマタ１Ｆ,,14,106,2400064,ネパール国、バグマティ州、カトマンズ郡、サマクシ、カトマンズ大都市、２９番,,,,,,2022-08-19,1,,,,,アクテイブインターナシヨナルビジネスハウスプライベートリミテツド,0
1199,6010001228906,新規,0,2022-08-19,2022-08-19,株式会社Ｄｅｎｉｓ　ｔｅｃｈ,,株式会社,東京都,中央区,銀座１丁目２２－１１銀座大竹ビジデンス２階,,13,102,1040061,,,,,,,2022-08-19,1,,,,,デニステック,0
1202,6010003038394,新規,0,2022-08-19,2022-08-19,Ｓｅｒｉａｌ合同会社,,合同会社,東京都,中央区,銀座７丁目１３番２１号銀座新六洲ビル２Ｆ,,13,102,1040061,,,,,,,2022-08-19,1,,,,,シリアル,0
1203,6010003038436,新規,0,2022-08-19,2022-08-19,合同会社ＡＬＥＲＯ７０,,合同会社,東京都,千代田区,神田錦町１丁目２１番１号,,13,101,1010054,,,,,,,2022-08-19,1,,,,,アレーロセブンティー,0
1204,6010003038460,新規,0,2022-08-19,2022-08-19,三＿合同会社,00127577,合同会社,東京都,文京区,根津２丁目１０番９号,,13,105,1130031,,,,,,,2022-08-19,1,,,,,,0
1212,6010401169155,新規,0,2022-08-19,2022-08-19,Ｐａｙｓｅｎｄ　Ｊａｐａｎ株式会社,,株式会社,東京都,港区,南青山２丁目２番１５号ウィン青山９４２,,13,103,1070062,,,,,,,2022-08-19,1,,,,,ペイセンドジャパン,0
1213,6010405021287,新規,0,2022-08-19,2022-08-19,一般社団法人玄海インドインベストメント１,,その他の設立登記法人,東京都,港区,虎ノ門５丁目１番４号,,13,103,1050001,,,,,,,2022-08-19,1,,,,,インドインベストメントイチ,0
1230,6011001149316,新規,0,2022-08-19,2022-08-19,株式会社フェイス,,株式会社,東京都,渋谷区,道玄坂１丁目１７－９ヴェラハイツ道玄坂６０１,,13,113,1500043,,,,,,,2022-08-19,1,,,,,フェイス,0
1232,6011005009680,新規,0,2022-08-19,2022-08-19,一般財団法人福井耀育英財団,,その他の設立登記法人,東京都,渋谷区,西原１丁目２１番３－４０５号,,13,113,1510066,,,,,,,2022-08-19,1,,,,,フクイアキライクエイザイダン,0
1239,6011105010365,新規,0,2022-08-19,2022-08-19,一般社団法人地域医療・介護福祉研究会,,その他の設立登記法人,東京都,新宿区,西新宿２丁目２－１京王プラザホテル南館２階,,13,104,1600023,,,,,,,2022-08-19,1,,,,,チイキイリョウカイゴフクシケンキュウカイ,0
1243,6011303004499,新規,0,2022-08-19,2022-08-19,合同会社ＭＹＦＧ,,合同会社,東京都,杉並区,浜田山４丁目１６番４－３３１号ライオンズ浜田山セントマークス,,13,115,1680065,,,,,,,2022-08-19,1,,,,,エムワイエフジー,0
1254,6011801041168,新規,0,2022-08-19,2022-08-19,東和ビルテック株式会社,,株式会社,東京都,足立区,辰沼２丁目２番１号,,13,121,1210054,,,,,,,2022-08-19,1,,,,,トウワビルテック,0
1271,6020001147758,新規,0,2022-08-19,2022-08-19,株式会社ファニーワークス,,株式会社,神奈川県,横浜市鶴見区,市場上町７番４４号,,14,101,2300021,,,,,,,2022-08-19,1,,,,,ファニーワークス,0
1272,6020001147824,新規,0,2022-08-19,2022-08-19,株式会社インフォノーツ,,株式会社,神奈川県,横浜市神奈川区,片倉１丁目１７番３５－２０３号,,14,102,2210865,,,,,,,2022-08-19,1,,,,,インフォノーツ,0
1273,6020001147849,新規,0,2022-08-19,2022-08-19,株式会社エントラーダ,,株式会社,神奈川県,横浜市神奈川区,羽沢町１７６５番地２－４０４,,14,102,2210863,,,,,,,2022-08-19,1,,,,,エントラーダ,0
1279,6021001076781,新規,0,2022-08-19,2022-08-19,株式会社アクセスネクスト,,株式会社,神奈川県,相模原市緑区,東橋本２丁目９番１５号,,14,151,2520144,,,,,,,2022-08-19,1,,,,,アクセスネクスト,0
1280,6021001076815,新規,0,2022-08-19,2022-08-19,ＮＫ環境サービス株式会社,,株式会社,神奈川県,南足柄市,壗下３５０番地,,14,217,2500103,,,,,,,2022-08-19,1,,,,,エヌケイカンキョウサービス,0
1295,6030001149737,新規,0,2022-08-19,2022-08-19,さいたま義肢装具サービス株式会社,,株式会社,埼玉県,さいたま市見沼区,東大宮４丁目５９番地１１,,11,104,3370051,,,,,,,2022-08-19,1,,,,,サイタマギシソウグサービス,0
1326,6070003004589,新規,0,2022-08-19,2022-08-19,ＶｅｒｙＢｅｒｒｙ合同会社,,合同会社,群馬県,渋川市,中郷４４１番地２８号,,10,208,3770202,,,,,,,2022-08-19,1,,,,,ベリーベリー,0
1348,6120001248257,新規,0,2022-08-19,2022-08-19,株式会社丸和,,株式会社,大阪府,大阪市西成区,梅南２丁目２－２６―２０４号,,27,122,5570033,,,,,,,2022-08-19,1,,,,,マルワ,0
1349,6120001248265,新規,0,2022-08-19,2022-08-19,株式会社アトリエＭａｙ　Ｉ,,株式会社,大阪府,枚方市,津田山手１丁目１３番３号,,27,210,5730128,,,,,,,2022-08-19,1,,,,,アトリエメイアイ,0
1350,6120001248273,新規,0,2022-08-19,2022-08-19,株式会社ＯＮＥ,,株式会社,大阪府,大阪市旭区,生江３丁目９番１６号シャーメゾン城北２０１,,27,117,5350004,,,,,,,2022-08-19,1,,,,,ワン,0
1351,6120001248298,新規,0,2022-08-19,2022-08-19,株式会社ＳＭ,,株式会社,大阪府,大阪市中央区,島之内２丁目１１番１９－７０５号,,27,128,5420082,,,,,,,2022-08-19,1,,,,,エスエム,0
1354,6120003022313,新規,0,2022-08-19,2022-08-19,合同会社ＭＩＴＵＷＡＹＡ,,合同会社,大阪府,大阪市中央区,瓦屋町３丁目８番８号,,27,128,5420066,,,,,,,2022-08-19,1,,,,,ミツワヤ,0
1355,6120003022321,新規,0,2022-08-19,2022-08-19,合同会社ＲＡＮＧＥ,,合同会社,大阪府,大阪市淀川区,十三本町２丁目９番３―７０３号,,27,123,5320024,,,,,,,2022-08-19,1,,,,,レンジ,0
1362,6130003008096,新規,0,2022-08-19,2022-08-19,合同会社こぶたん,,合同会社,京都府,城陽市,寺田林ノ口１１－３６５,,26,207,6100121,,,,,,,2022-08-19,1,,,,,コブタン,0
1369,6140001127095,新規,0,2022-08-19,2022-08-19,株式会社ゼロワンイノベーション,,株式会社,兵庫県,神戸市中央区,雲井通３丁目７番３号,,28,110,6510096,,,,,,,2022-08-19,1,,,,,ゼロワンイノベーション,0
1371,6140003018037,新規,0,2022-08-19,2022-08-19,合同会社サンクス,,合同会社,兵庫県,伊丹市,平松１丁目４番２９号,,28,207,6640853,,,,,,,2022-08-19,1,,,,,サンクス,0
1372,6140005026293,新規,0,2022-08-19,2022-08-19,一般社団法人喜びの種,,その他の設立登記法人,兵庫県,伊丹市,中野北２丁目１番５号,,28,207,6640029,,,,,,,2022-08-19,1,,,,,ヨロコビノタネ,0
1375,6150003002758,新規,0,2022-08-19,2022-08-19,合同会社ライフケア・アポロ,,合同会社,奈良県,大和高田市,東三倉堂町１０番２号－２０５,,29,202,6350034,,,,,,,2022-08-19,1,,,,,ライフケアアポロ,0
1380,6180301036554,新規,0,2022-08-19,2022-08-19,株式会社松下硝子,,株式会社,愛知県,豊川市,東曙町５４番地,00127569,23,207,4420011,,,,,,,2022-08-19,1,,,,,マツシタガラス,0
1393,6230003001900,新規,0,2022-08-19,2022-08-19,合同会社ＰＩＹＯＫＯ,,合同会社,富山県,高岡市,野村１５３３番地１０,,16,202,9330014,,,,,,,2022-08-19,1,,,,,ピヨコ,0
1406,6290001098652,新規,0,2022-08-19,2022-08-19,株式会社イシケン,,株式会社,福岡県,福岡市早良区,早良６丁目１２番１０号,,40,137,8111122,,,,,,,2022-08-19,1,,,,,イシケン,0
1409,6290003012768,新規,0,2022-08-19,2022-08-19,合同会社ＨＭ　Ｈｏｌｄｉｎｇｓ,,合同会社,福岡県,福岡市南区,清水３丁目１１番２０号,,40,134,8150031,,,,,,,2022-08-19,1,,,,,エイチエムホールディングス,0
1412,6360003012249,新規,0,2022-08-19,2022-08-19,合同会社アソボーテ,,合同会社,沖縄県,那覇市,松尾２丁目８番１６号,,47,201,9000014,,,,,,,2022-08-19,1,,,,,アソボーテ,0
1416,6370001048962,新規,0,2022-08-19,2022-08-19,株式会社ウォームスト,,株式会社,宮城県,仙台市泉区,松陵４丁目３６番地の１０,,04,105,9813108,,,,,,,2022-08-19,1,,,,,ウォームスト,0
1423,6430001087260,新規,0,2022-08-19,2022-08-19,株式会社ＴｒｙＦｏｒｃｅ,,株式会社,北海道,札幌市中央区,南一条西１０丁目４番地１６３スペチアーレプリーモ１１０２号,,01,101,0600061,,,,,,,2022-08-19,1,,,,,トライフォース,0
1424,6430001087327,新規,0,2022-08-19,2022-08-19,株式会社Ｓｔｒａｗ　Ｈａｔ,,株式会社,北海道,札幌市中央区,南六条西７丁目５番２号第８２松井ビル１階,,01,101,0640806,,,,,,,2022-08-19,1,,,,,ストローハット,0
1428,6430005014533,新規,0,2022-08-19,2022-08-19,特定非営利活動法人ラストスタンド,,その他の設立登記法人,北海道,札幌市豊平区,西岡五条１５丁目５－２３,,01,105,0620035,,,,,,,2022-08-19,1,,,,,ラストスタンド,0
1434,6500001024405,新規,0,2022-08-19,2022-08-19,株式会社建美,,株式会社,愛媛県,八幡浜市,保内町川之石１番耕地２３７番地１３７,,38,204,7960201,,,,,,,2022-08-19,1,,,,,ケンビ,0
1438,6700150111371,新規,0,2022-08-19,2022-08-19,ＳＡＤＥＭＡ　ＥＮＴＥＲＰＲＩＳＥＳ,,外国会社等,茨城県,筑西市,女方１５０－８,,08,227,3080854,スリランカ民主社会主義共和国ニガンボ、アーチビジョップニコラスマーカスマーワタ、ミラージュハウジングスキーム、１０７－６,,,,,,2022-08-19,1,,,,,サデマエンタープライセス,0
1446,7010001228863,新規,0,2022-08-19,2022-08-19,Ａｘｉｏｎ　Ｊａｐａｎ　Ｉｎｖｅｓｔｍｅｎｔ株式会社,,株式会社,東京都,中央区,日本橋室町１丁目２－６日本橋大栄ビル７階,,13,102,1030022,,,,,,,2022-08-19,1,,,,,アクシオンジャパンインベストメント,0
1447,7010001228913,新規,0,2022-08-19,2022-08-19,株式会社スマトク不動産,,株式会社,東京都,中央区,銀座１丁目１３番８号ハビウル銀座９Ｆ,,13,102,1040061,,,,,,,2022-08-19,1,,,,,スマトクフドウサン,0
1453,7010003038352,新規,0,2022-08-19,2022-08-19,合同会社ＫＲＦ１０３,,合同会社,東京都,千代田区,内幸町２丁目１番６号,,13,101,1000011,,,,,,,2022-08-19,1,,,,,ケイアールエフヒャクサン,0
1454,7010003038427,新規,0,2022-08-19,2022-08-19,氷季合同会社,,合同会社,東京都,文京区,水道２丁目９番８号,,13,105,1120005,,,,,,,2022-08-19,1,,,,,ヒョウキ,0
1455,7010003038435,新規,0,2022-08-19,2022-08-19,合同会社ＡＬＥＲＯ６９,,合同会社,東京都,千代田区,神田錦町１丁目２１番１号,,13,101,1010054,,,,,,,2022-08-19,1,,,,,アレーロシックスティーナイン,0
1463,7010401169121,新規,0,2022-08-19,2022-08-19,フォトホリック株式会社,,株式会社,東京都,港区,台場１丁目５番７－４１０号,,13,103,1350091,,,,,,,2022-08-19,1,,,,,フォトホリック,0
1468,7010403028283,新規,0,2022-08-19,2022-08-19,合同会社クルシュコフ,,合同会社,東京都,港区,白金３丁目１２番８号シルフィード白金４０２,,13,103,1080072,,,,,,,2022-08-19,1,,,,,クルシュコフ,0
1478,7010701043059,新規,0,2022-08-19,2022-08-19,ｎｕｐｌｉ　ｃａｐｉｔａｌ株式会社,,株式会社,東京都,品川区,南大井５丁目１０番２５－１００４号,,13,109,1400013,,,,,,,2022-08-19,1,,,,,ヌプリキャピタル,0
1480,7010801033216,新規,0,2022-08-19,2022-08-19,株式会社明日香ハウジング,,株式会社,東京都,大田区,下丸子２丁目１３番５－８０５号,,13,111,1460092,,,,,,,2022-08-19,1,,,,,アスカハウジング,0
1489,7011001149315,新規,0,2022-08-19,2022-08-19,株式会社ＤＥＳ,,株式会社,東京都,渋谷区,神宮前６丁目２３番４号桑野ビル２階,,13,113,1500001,,,,,,,2022-08-19,1,,,,,ディーイーエス,0
1491,7011005009688,新規,0,2022-08-19,2022-08-19,一般社団法人日本ウェルリビング推進機構,,その他の設立登記法人,東京都,渋谷区,千駄ヶ谷４丁目２３番５号ＪＰＲ千駄ヶ谷ビル,,13,113,1510051,,,,,,,2022-08-19,1,,,,,ニホンウェルリビングスイシンキコウ,0
1494,7011401024489,新規,0,2022-08-19,2022-08-19,株式会社コンスタンス,,株式会社,東京都,板橋区,板橋２丁目６３番９－８０５号,,13,119,1730004,,,,,,,2022-08-19,1,,,,,コンスタンス,0
1495,7011601026186,新規,0,2022-08-19,2022-08-19,株式会社ＶＯＬＭＥＮＴ,,株式会社,東京都,練馬区,南大泉５丁目２番１０号大泉クラフトハウス２０２,,13,120,1780064,,,,,,,2022-08-19,1,,,,,ヴォルメント,0
1499,7012401039551,新規,0,2022-08-19,2022-08-19,株式会社シャープナイン,,株式会社,東京都,三鷹市,牟礼４丁目３番３８－２０１号ランサＣ号棟,,13,204,1810002,,,,,,,2022-08-19,1,,,,,シャープナイン,0
1509,7020001147765,新規,0,2022-08-19,2022-08-19,株式会社シージェイ,,株式会社,神奈川県,川崎市幸区,古市場１丁目４３番地,,14,132,2120052,,,,,,,2022-08-19,1,,,,,シージェイ,0
1510,7020001147807,新規,0,2022-08-19,2022-08-19,株式会社ＪＴＷ,,株式会社,神奈川県,横浜市磯子区,杉田６丁目２番３－５０６号,,14,107,2350033,,,,,,,2022-08-19,1,,,,,ジェイティーダブリュー,0
1511,7020003022248,新規,0,2022-08-19,2022-08-19,合同会社鳥山会計,,合同会社,神奈川県,横浜市保土ケ谷区,月見台２３番２３号,,14,106,2400012,,,,,,,2022-08-19,1,,,,,トリヤマカイケイ,0
1512,7020003022272,新規,0,2022-08-19,2022-08-19,合同会社アミコ・コンサルティング,,合同会社,神奈川県,横浜市西区,花咲町７丁目１５８番地３サンクタス横浜ｍｉｄ２０４号,,14,103,2200022,,,,,,,2022-08-19,1,,,,,アミココンサルティング,0
1521,7030001149694,新規,0,2022-08-19,2022-08-19,ＮＥＴＷＡＹ株式会社,,株式会社,埼玉県,朝霞市,本町２丁目６番１１号－３０３号室,,11,227,3510011,,,,,,,2022-08-19,1,,,,,ネットウェイ,0
1522,7030001149752,新規,0,2022-08-19,2022-08-19,株式会社ＫｏｒｅＣｏｌｏｒエージェント,,株式会社,埼玉県,八潮市,中央１丁目３番地１３（１階）,,11,234,3400816,,,,,,,2022-08-19,1,,,,,コレカラーエージェント,0
1530,7030003020028,新規,0,2022-08-19,2022-08-19,ＤＣＹ合同会社,,合同会社,埼玉県,さいたま市中央区,鈴谷７丁目１０番１０号,,11,105,3380013,,,,,,,2022-08-19,1,,,,,ディーシーワイ,0
1531,7030003020044,新規,0,2022-08-19,2022-08-19,合同会社戸張組,,合同会社,埼玉県,八潮市,大字二丁目３６８－１－Ｅ,,11,234,3400811,,,,,,,2022-08-19,1,,,,,トバリグミ,0
1534,7040001124663,新規,0,2022-08-19,2022-08-19,大喜屋株式会社,,株式会社,千葉県,八千代市,高津東４丁目１４番地１３,,12,221,2760037,,,,,,,2022-08-19,1,,,,,オオギヤ,0
1535,7040001124746,新規,0,2022-08-19,2022-08-19,Ｔ‐ＳＴＹＬＥ株式会社,,株式会社,千葉県,柏市,柏６丁目１０番２３号,,12,217,2770005,,,,,,,2022-08-19,1,,,,,ティースタイル,0
1539,7040003020654,新規,0,2022-08-19,2022-08-19,合同会社ＫＵＲＳ　ＤＥＳＩＧＮ,,合同会社,千葉県,松戸市,本町１７番地１１芹澤ビル６Ｆ,,12,207,2710091,,,,,,,2022-08-19,1,,,,,カーズデザイン,0
1568,7120001248256,新規,0,2022-08-19,2022-08-19,香本株式会社,,株式会社,大阪府,大阪市住吉区,清水丘３丁目１２番２１号,,27,120,5580033,,,,,,,2022-08-19,1,,,,,コウホン,0
1569,7120001248289,新規,0,2022-08-19,2022-08-19,株式会社スリーナイン,,株式会社,大阪府,大阪市中央区,島之内２丁目１７番２５－４０１号,,27,128,5420082,,,,,,,2022-08-19,1,,,,,スリーナイン,0
1570,7120001248297,新規,0,2022-08-19,2022-08-19,株式会社ＳＦＢＣ,,株式会社,大阪府,大阪市浪速区,難波中１丁目１３番５号,,27,111,5560011,,,,,,,2022-08-19,1,,,,,エスエフビーシー,0
1573,7120003022304,新規,0,2022-08-19,2022-08-19,合同会社ｒｉｓｅ　ｃｏｍｐａｎｙ,,合同会社,大阪府,大阪市浪速区,難波中２丁目５番１５－５０２号,,27,111,5560011,,,,,,,2022-08-19,1,,,,,ライズカンパニー,0
1579,7130001072481,新規,0,2022-08-19,2022-08-19,ＣＨＯＣＯ＆Ｄ株式会社,,株式会社,京都府,京都市左京区,田中南大久保町２３番地,,26,103,6068214,,,,,,,2022-08-19,1,,,,,チョコアンドディ,0
1585,7140003018044,新規,0,2022-08-19,2022-08-19,合同会社グラスＳＨＯＰ２４,,合同会社,兵庫県,神戸市長田区,房王寺町６丁目１番２１号,,28,106,6530801,,,,,,,2022-08-19,1,,,,,グラスショップニジュウヨン,0
1596,7180001152683,新規,0,2022-08-19,2022-08-19,株式会社ＳＮＳブランディング研究所,,株式会社,愛知県,名古屋市中区,大須４丁目２番２１号グリーンハイツ南久屋１１０１号室,,23,106,4600011,,,,,,,2022-08-19,1,,,,,エスエヌエスブランディングケンキュウジョ,0
1597,7180001152700,新規,0,2022-08-19,2022-08-19,株式会社本丸ビル,,株式会社,愛知県,名古屋市中区,三の丸１丁目１４番７号,,23,106,4600001,,,,,,,2022-08-19,1,,,,,ホンマルビル,0
1603,7180301036553,新規,0,2022-08-19,2022-08-19,株式会社Ｍａｉｓｏｎ　Ｌｉａｒａ,,株式会社,愛知県,西尾市,城崎町３丁目１５番地１,,23,213,4450065,,,,,,,2022-08-19,1,,,,,メゾンリアラ,0
1613,7240001060244,新規,0,2022-08-19,2022-08-19,株式会社ルプレ,,株式会社,広島県,広島市東区,牛田本町２丁目１０番１６－２０５号,,34,102,7320066,,,,,,,2022-08-19,1,,,,,ルプレ,0
1618,7260005011126,新規,0,2022-08-19,2022-08-19,特定非営利活動法人子ども未来連合会,,その他の設立登記法人,岡山県,岡山市北区,富田町１丁目５番１２号２０１号,,33,101,7000816,,,,,,,2022-08-19,1,,,,,,0
1624,7290001098569,新規,0,2022-08-19,2022-08-19,株式会社ワットシー,,株式会社,福岡県,福岡市博多区,博多駅前３丁目７番３５号,,40,132,8120011,,,,,,,2022-08-19,1,,,,,ワットシー,0
1628,7300001013039,新規,0,2022-08-19,2022-08-19,株式会社ヤマフマリーナ唐津,,株式会社,佐賀県,唐津市,海岸通７１８２番地１６２,,41,202,8470873,,,,,,,2022-08-19,1,,,,,ヤマフマリーナカラツ,0
1635,7330003009478,新規,0,2022-08-19,2022-08-19,Ｊ＆Ｍ合同会社,,合同会社,熊本県,山鹿市,鹿北町岩野字陣内２４２番地２,,43,208,8610603,,,,,,,2022-08-19,1,,,,,ジェーアンドエム,0
1641,7360001030813,新規,0,2022-08-19,2022-08-19,株式会社Ｐｕｒｉｆｙ,,株式会社,沖縄県,国頭郡恩納村,字名嘉真２２８８番地２９１,,47,311,9040401,,,,,,,2022-08-19,1,,,,,ピューリファイ,0
1643,7360003012248,新規,0,2022-08-19,2022-08-19,合同会社沖縄農福連携協議会,,合同会社,沖縄県,国頭郡国頭村,字宜名真２１９番地,,47,301,9051422,,,,,,,2022-08-19,1,,,,,オキナワノウフクレンケイキョウギカイ,0
1644,7360005006702,新規,0,2022-08-19,2022-08-19,一般社団法人明徳,,その他の設立登記法人,沖縄県,浦添市,当山２丁目３２番５号２０１,,47,208,9012104,,,,,,,2022-08-19,1,,,,,メイトク,0
1668,7700150111362,新規,0,2022-08-19,2022-08-19,ＫＡＮＤＹ　ＮＩＰＰＯＮ　ＥＮＴＥＲＰＲＩＳＥＳ,,外国会社等,千葉県,山武市,上横地２９９５番地６,,12,237,2891313,スリランカ民主社会主義共和国、キャンディ、テンナクンブラ、テアカワッテ、Ｎｏ．４３／５,,,,,,2022-08-19,1,,,,,キヤンデイニツポンエンタープライズ,0
1669,7700150111379,新規,0,2022-08-19,2022-08-19,ＫＡＮＤＹ　ＮＩＰＰＯＮ　ＥＮＴＥＲＰＲＩＳＥＳ　ＰＲＩＶＡＴＥ　ＬＩＭＩＴＥＤ,,外国会社等,千葉県,山武市,上横地２９９５番地５,,12,237,2891313,スリランカ民主社会主義共和国、キャンディ、テンナクンブラ、テアカワッテロード、Ｎｏ．４９／２,,,,,,2022-08-19,1,,,,,キヤンデイニツポンエンタープライズプライベートリミテツド,0
1678,8010001228870,新規,0,2022-08-19,2022-08-19,株式会社アミザ,,株式会社,東京都,千代田区,三番町１番地１３,,13,101,1020075,,,,,,,2022-08-19,1,,,,,アミザ,0
1679,8010001228937,新規,0,2022-08-19,2022-08-19,Ｄｉｓｃｉｐｌｉｎａ　Ｊａｐａｎ株式会社,,株式会社,東京都,千代田区,永田町２丁目１１番１号山王パークタワー３階,,13,101,1000014,,,,,,,2022-08-19,1,,,,,ディシプリーナジャパン,0
1680,8010001228953,新規,0,2022-08-19,2022-08-19,長岡パワージェネレーション株式会社,,株式会社,東京都,千代田区,麹町４丁目５番地２１,,13,101,1020083,,,,,,,2022-08-19,1,,,,,ナガオカパワージェネレーション,0
1681,8010001228961,新規,0,2022-08-19,2022-08-19,Ｂｅｓｔ　Ｏａｓｉｓ株式会社,,株式会社,東京都,千代田区,平河町１丁目９番１号メゾン平河町３０１号,,13,101,1020093,,,,,,,2022-08-19,1,,,,,,0
1683,8010003038351,新規,0,2022-08-19,2022-08-19,合同会社ＫＲＦ１０２,,合同会社,東京都,千代田区,内幸町２丁目１番６号,,13,101,1000011,,,,,,,2022-08-19,1,,,,,ケイアールエフヒャクニ,0
1684,8010003038426,新規,0,2022-08-19,2022-08-19,連樹合同会社,,合同会社,東京都,中央区,勝どき６丁目３番１号,,13,102,1040054,,,,,,,2022-08-19,1,,,,,レンジュ,0
1685,8010003038434,新規,0,2022-08-19,2022-08-19,合同会社ＡＬＥＲＯ６８,,合同会社,東京都,千代田区,神田錦町１丁目２１番１号,,13,101,1010054,,,,,,,2022-08-19,1,,,,,アレーロシックスティーエイト,0
1689,8010401169087,新規,0,2022-08-19,2022-08-19,株式会社ドクターマッチング,,株式会社,東京都,港区,南青山４丁目１３番１号プレジデント南青山１０２,,13,103,1070062,,,,,,,2022-08-19,1,,,,,ドクターマッチング,0
1709,8010803004263,新規,0,2022-08-19,2022-08-19,合同会社玉浦ラボ,,合同会社,東京都,大田区,山王３丁目１７番７号,,13,111,1430023,,,,,,,2022-08-19,1,,,,,タマウララボ,0
1710,8010901051463,新規,0,2022-08-19,2022-08-19,ニフジ株式会社,,株式会社,東京都,世田谷区,松原５丁目５番７号サンライズマンションＩＩ１０５,00127570,13,112,1560043,,,,,,,2022-08-19,1,,,,,ニフジ,0
1718,8011005009687,新規,0,2022-08-19,2022-08-19,一般社団法人全日本こどもの歌教育協会,,その他の設立登記法人,東京都,目黒区,原町２丁目９番６号,,13,110,1520011,,,,,,,2022-08-19,1,,,,,ゼンニホンコドモノウタキョウイクキョウカイ,0
1719,8011101099905,新規,0,2022-08-19,2022-08-19,ＪＵＮＯＳ株式会社,,株式会社,東京都,新宿区,新宿１丁目３６番２号新宿第七葉山ビル３階,,13,104,1600022,,,,,,,2022-08-19,1,,,,,ジュノス,0
1720,8011101099921,新規,0,2022-08-19,2022-08-19,株式会社ｂｒｉｌｌｉａｎｔ,,株式会社,東京都,新宿区,北新宿１丁目７番２１－６０５号,,13,104,1690074,,,,,,,2022-08-19,1,,,,,ブリリアント,0
1726,8011801041174,新規,0,2022-08-19,2022-08-19,株式会社エパタ,,株式会社,東京都,足立区,千住寿町３２番地９,,13,121,1200033,,,,,,,2022-08-19,1,,,,,エパタ,0
1729,8012405004773,新規,0,2022-08-19,2022-08-19,一般社団法人ほぼ半分,,その他の設立登記法人,東京都,小金井市,貫井南町１丁目７番２２－２０７号ネオハイツ武蔵小金井,,13,210,1840014,,,,,,,2022-08-19,1,,,,,ホボハンブン,0
1739,8020001147748,新規,0,2022-08-19,2022-08-19,株式会社岩崎教育サービス,,株式会社,神奈川県,横浜市神奈川区,鶴屋町２丁目１７番地,,14,102,2210835,,,,,,,2022-08-19,1,,,,,イワサキキョウイクサービス,0
1740,8020001147772,新規,0,2022-08-19,2022-08-19,株式会社フィールズ,,株式会社,神奈川県,横浜市南区,新川町１丁目１番２号－１００１,,14,105,2320027,,,,,,,2022-08-19,1,,,,,フィールズ,0
1741,8020001147822,新規,0,2022-08-19,2022-08-19,株式会社ＷｅｌｌｅＷ,,株式会社,神奈川県,川崎市多摩区,三田１丁目２６番地１２アルシオン生田サンクロールヒルズ５０９,,14,135,2140034,,,,,,,2022-08-19,1,,,,,,0
1742,8020001147830,新規,0,2022-08-19,2022-08-19,株式会社フォーフラッグス,,株式会社,神奈川県,川崎市高津区,下作延４丁目１８番９－４０２号,,14,134,2130033,,,,,,,2022-08-19,1,,,,,フォーフラッグス,0
1743,8020001147847,新規,0,2022-08-19,2022-08-19,株式会社酔巧舎,,株式会社,神奈川県,横浜市泉区,上飯田町４９９番地１,,14,116,2450018,,,,,,,2022-08-19,1,,,,,スイコウシャ,0
1746,8020003022255,新規,0,2022-08-19,2022-08-19,合同会社クラウドジャパン,,合同会社,神奈川県,川崎市中原区,井田中ノ町６番３８－４３２号,,14,133,2110034,,,,,,,2022-08-19,1,,,,,クラウドジャパン,0
1747,8020005015629,新規,0,2022-08-19,2022-08-19,一般社団法人日本特殊詐欺防犯機構,,その他の設立登記法人,神奈川県,横浜市中区,山下町１９４外丸ビル３階,,14,104,2310023,,,,,,,2022-08-19,1,,,,,ニホントクシュサギボウハンキコウ,0
1757,8030001149751,新規,0,2022-08-19,2022-08-19,株式会社Ｕｓｅａ,,株式会社,埼玉県,新座市,畑中２丁目１６番６７号,,11,230,3520012,,,,,,,2022-08-19,1,,,,,ウシ,0
1758,8030001149768,新規,0,2022-08-19,2022-08-19,晶瑞立新株式会社,,株式会社,埼玉県,本庄市,寿３丁目２－１,,11,211,3670023,,,,,,,2022-08-19,1,,,,,ショウズイリツシン,0
1763,8030003019977,新規,0,2022-08-19,2022-08-19,合同会社シャリーブル,,合同会社,埼玉県,さいたま市北区,植竹町１丁目１４２番地１－Ｂ１０２,,11,102,3310813,,,,,,,2022-08-19,1,,,,,シャリーブル,0
1764,8030003020002,新規,0,2022-08-19,2022-08-19,ＰＬ合同会社,,合同会社,埼玉県,坂戸市,薬師町１０番地２１アネックス北坂戸１階,,11,239,3500229,,,,,,,2022-08-19,1,,,,,,0
1766,8040001124737,新規,0,2022-08-19,2022-08-19,千頌科技株式会社,,株式会社,千葉県,印旛郡酒々井町,上岩橋１３０７番地１,,12,322,2850905,,,,,,,2022-08-19,1,,,,,センショウカギ,0
1767,8040001124745,新規,0,2022-08-19,2022-08-19,株式会社リーフ,,株式会社,千葉県,八街市,富山１３１４番地３３５２,,12,230,2891141,,,,,,,2022-08-19,1,,,,,リーフ,0
1768,8040001124753,新規,0,2022-08-19,2022-08-19,大江商事株式会社,,株式会社,千葉県,千葉市緑区,高田町１６５８番地２,,12,105,2660003,,,,,,,2022-08-19,1,,,,,オオエショウジ,0
1789,8080003002854,新規,0,2022-08-19,2022-08-19,合同会社結,,合同会社,静岡県,榛原郡川根本町,徳山１２２２－１,,22,429,4280301,,,,,,,2022-08-19,1,,,,,ユイ,0
1803,8120001248065,新規,0,2022-08-19,2022-08-19,ＢＥＯＮ　Ｊａｐａｎ株式会社,,株式会社,大阪府,大阪市東成区,深江北３丁目４番２１号エクラ深江橋７０３Ａ,,27,115,5370001,,,,,,,2022-08-19,1,,,,,ベオンジャパン,0
1804,8120001248263,新規,0,2022-08-19,2022-08-19,株式会社Ｎ２Ｏ,,株式会社,大阪府,寝屋川市,大利町２１番２号,,27,215,5720048,,,,,,,2022-08-19,1,,,,,エヌツーオー,0
1805,8120001248288,新規,0,2022-08-19,2022-08-19,株式会社東欧インターナショナル大阪,,株式会社,大阪府,大阪市中央区,北久宝寺町３丁目６番１号,,27,128,5410057,,,,,,,2022-08-19,1,,,,,トウオウインターナショナルオオサカ,0
1808,8120005023142,新規,0,2022-08-19,2022-08-19,社会保険労務士法人飯田労務事務所,,その他の設立登記法人,大阪府,大阪市中央区,南船場１丁目３－１７,,27,128,5420081,,,,,,,2022-08-19,1,,,,,イイダロウムジムショ,0
1810,8120101066103,新規,0,2022-08-19,2022-08-19,株式会社アカウンティングパートナーズ,,株式会社,大阪府,松原市,三宅中６丁目９番２２号,,27,217,5800046,,,,,,,2022-08-19,1,,,,,アカウンティングパートナーズ,0
1811,8120101066111,新規,0,2022-08-19,2022-08-19,カワル管理株式会社,,株式会社,大阪府,藤井寺市,春日丘１丁目８番１５号,,27,226,5830026,,,,,,,2022-08-19,1,,,,,カワルカンリ,0
1813,8120901046378,新規,0,2022-08-19,2022-08-19,ＦＲＡＴ株式会社,,株式会社,大阪府,高槻市,別所本町１７番５－５３３号,,27,207,5691112,,,,,,,2022-08-19,1,,,,,フラット,0
1814,8122001036177,新規,0,2022-08-19,2022-08-19,株式会社城元工務店,,株式会社,大阪府,大東市,大字龍間１３１７番地１,,27,218,5740012,,,,,,,2022-08-19,1,,,,,シロモトコウムテン,0
1824,8130003008136,新規,0,2022-08-19,2022-08-19,合同会社ケアコミット縁,,合同会社,京都府,京都市伏見区,二ノ丸町６８－１８２,,26,109,6120000,,,,,,,2022-08-19,1,,,,,ケアコミットユカリ,0
1825,8130005016541,新規,0,2022-08-19,2022-08-19,一般社団法人ＮＥＸＴＥ福知山,,その他の設立登記法人,京都府,福知山市,字長田１２８９番地の１,,26,201,6200000,,,,,,,2022-08-19,1,,,,,ネクステフクチヤマ,0
1836,8140003018051,新規,0,2022-08-19,2022-08-19,チームレスキュー合同会社,,合同会社,兵庫県,三木市,与呂木６８３番地の３７４,,28,215,6730422,,,,,,,2022-08-19,1,,,,,チームレスキュー,0
1842,8170001017242,新規,0,2022-08-19,2022-08-19,株式会社ジャリールヘルスケア,,株式会社,和歌山県,和歌山市,新在家４７番地２０,,30,201,6408345,,,,,,,2022-08-19,1,,,,,ジャリールヘルスケア,0
1843,8170005006968,新規,0,2022-08-19,2022-08-19,一般社団法人Ｆｌｏｗ,,その他の設立登記法人,和歌山県,和歌山市,井戸２７５番地１９,,30,201,6400352,,,,,,,2022-08-19,1,,,,,フロー,0
1850,8180003024178,新規,0,2022-08-19,2022-08-19,合同会社マイアミ,,合同会社,愛知県,名古屋市中区,錦３丁目１３番４号錦成ビル地下１階Ｂ１号室,,23,106,4600003,,,,,,,2022-08-19,1,,,,,マイアミ,0
1851,8180005019894,新規,0,2022-08-19,2022-08-19,税理士法人室賀山田会計,,その他の設立登記法人,愛知県,名古屋市天白区,井口１丁目１１１１番地室賀ビル１階,,23,116,4680052,,,,,,,2022-08-19,1,,,,,ムロガヤマダカイケイ,0
1857,8200001040380,新規,0,2022-08-19,2022-08-19,株式会社ｋｅｙｄｅｘ,,株式会社,岐阜県,岐阜市,高森町４丁目２番地１（Ｄ－ｒｏｏｍサシエ３０２号室）,,21,201,5008171,,,,,,,2022-08-19,1,,,,,キーデックス,0
1862,8240001060243,新規,0,2022-08-19,2022-08-19,株式会社上村工務店,,株式会社,広島県,三次市,畠敷町１６１６番地７,,34,209,7280006,,,,,,,2022-08-19,1,,,,,ウエムラコウムテン,0
1864,8240003005758,新規,0,2022-08-19,2022-08-19,合同会社ｓｍａｇａｉ,,合同会社,広島県,尾道市,長江１丁目２８番２４号,,34,205,7220046,,,,,,,2022-08-19,1,,,,,スマガイ,0
1875,8290005018786,新規,0,2022-08-19,2022-08-19,一般社団法人みらなび,,その他の設立登記法人,福岡県,福岡市博多区,祗園町４番３号チサンマンション祇園３１４号,,40,132,8120000,,,,,,,2022-08-19,1,,,,,ミラナビ,0
1879,8300001013038,新規,0,2022-08-19,2022-08-19,株式会社Ｓｍａｒｔ　Ｉｎｖｅｓｔｏｒ,,株式会社,佐賀県,多久市,東多久町大字納所６４１８番地１ノースコートＢ－１,,41,204,8460014,,,,,,,2022-08-19,1,,,,,スマートインベスター,0
1881,8320001019280,新規,0,2022-08-19,2022-08-19,株式会社大電,,株式会社,大分県,大分市,大字中戸次５１９１番地の５,,44,201,8797761,,,,,,,2022-08-19,1,,,,,ダイデン,0
1884,8340005009490,新規,0,2022-08-19,2022-08-19,税理士法人ライトハウス,,その他の設立登記法人,鹿児島県,霧島市,国分中央３丁目１６番３４号,,46,218,8994332,,,,,,,2022-08-19,1,,,,,ライトハウス,0
1889,8370001048960,新規,0,2022-08-19,2022-08-19,株式会社黒澤農産,,株式会社,宮城県,栗原市,一迫柳目字竹の内６３番地１,,04,213,9872309,,,,,,,2022-08-19,1,,,,,クロサワノウサン,0
1891,8390001016998,新規,0,2022-08-19,2022-08-19,株式会社ａｎｄＭａｍａ,,株式会社,山形県,山形市,成沢西４丁目８番５５号,,06,201,9902339,,,,,,,2022-08-19,1,,,,,アンドママ,0
1894,8420001017968,新規,0,2022-08-19,2022-08-19,ハチカラツクル株式会社,,株式会社,青森県,八戸市,新湊１丁目１２番１０号,,02,203,0310811,,,,,,,2022-08-19,1,,,,,ハチカラツクル,0
1899,8430001087325,新規,0,2022-08-19,2022-08-19,株式会社ウェルスタート,,株式会社,北海道,札幌市中央区,北四条西１７丁目１番地ＶＥＲＩＴＡＳ美術館通１０６号,,01,101,0600004,,,,,,,2022-08-19,1,,,,,ウェルスタート,0
1902,8430003014161,新規,0,2022-08-19,2022-08-19,合同会社ＴＫＳ,,合同会社,北海道,札幌市手稲区,曙三条２丁目９番２４号,,01,109,0060833,,,,,,,2022-08-19,1,,,,,ティーケーエス,0
1912,8700150111378,新規,0,2022-08-19,2022-08-19,Ｍ．Ｓ．ＴＲＡＤＩＮＧ　ＣＯＭＰＡＮＹ　ＬＡＮＫＡ　ＰＲＩＶＡＴＥ　ＬＩＭＩＴＥＤ,,外国会社等,千葉県,山武市,上横地２９９５番地２,,12,237,2891313,スリランカ民主社会主義共和国、カドゥルウェラ、ガレラ、バチィカロアロード、Ｎｏ．２０４,,,,,,2022-08-19,1,,,,,エムエストレーデイングカンパニーランカプライベートリミテツド,0
1925,9010003038350,新規,0,2022-08-19,2022-08-19,合同会社ＫＲＦ１０１,,合同会社,東京都,千代田区,内幸町２丁目１番６号,,13,101,1000011,,,,,,,2022-08-19,1,,,,,ケイアールエフヒャクイチ,0
1926,9010003038425,新規,0,2022-08-19,2022-08-19,合同会社Ｉｎｃｅｐｔｉｏｎ,,合同会社,東京都,中央区,入船１丁目１番２６号永井ビル６階７０２,,13,102,1040042,,,,,,,2022-08-19,1,,,,,インセプション,0
1927,9010003038433,新規,0,2022-08-19,2022-08-19,合同会社ＡＬＥＲＯ６７,,合同会社,東京都,千代田区,神田錦町１丁目２１番１号,,13,101,1010054,,,,,,,2022-08-19,1,,,,,アレーロシックスティーセブン,0
1928,9010003038441,新規,0,2022-08-19,2022-08-19,合同会社ＹＳＣ２０２２,,合同会社,東京都,千代田区,麹町１丁目６番地９,,13,101,1020083,,,,,,,2022-08-19,1,,,,,ワイエスシーニゼロニニ,0
1931,9010005035338,新規,0,2022-08-19,2022-08-19,一般社団法人地球環境整備機構,,その他の設立登記法人,東京都,千代田区,永田町２丁目１７番３号,,13,101,1000014,,,,,,,2022-08-19,1,,,,,チキュウカンキョウセイビキコウ,0
1932,9010005035429,新規,0,2022-08-19,2022-08-19,境古河特定目的会社,,その他の設立登記法人,東京都,千代田区,飯田橋４丁目７番１号結和税理士法人内,,13,101,1020072,,,,,,,2022-08-19,1,,,,,サカイコガ,0
1940,9010401169243,新規,0,2022-08-19,2022-08-19,株式会社ＫＭＳＰ,,株式会社,東京都,港区,西麻布３丁目１７番１４号,,13,103,1060031,,,,,,,2022-08-19,1,,,,,ケーエムエスピー,0
1941,9010403028224,新規,0,2022-08-19,2022-08-19,Ｋ’ｓ　ｌｉｎｋ合同会社,,合同会社,東京都,港区,六本木７丁目６番２号,,13,103,1060032,,,,,,,2022-08-19,1,,,,,ケイズリンク,0
1947,9010603009692,新規,0,2022-08-19,2022-08-19,合同会社ＨＡＫＯ‐ＴＥＣＨ,,合同会社,東京都,江東区,東雲１丁目１０－１４,,13,108,1350062,,,,,,,2022-08-19,1,,,,,ハコテック,0
1955,9011001149313,新規,0,2022-08-19,2022-08-19,株式会社ＡＳＥＮＥＳ,,株式会社,東京都,渋谷区,恵比寿２丁目１３番１２－７０１号,,13,113,1500013,,,,,,,2022-08-19,1,,,,,エーセネス,0
1956,9011003015232,新規,0,2022-08-19,2022-08-19,合同会社よつば,,合同会社,東京都,目黒区,原町１丁目３番２３号メゾンフィールドＵ３０１,,13,110,1520011,,,,,,,2022-08-19,1,,,,,ヨツバ,0
1961,9011101099912,新規,0,2022-08-19,2022-08-19,日本バングラ株式会社,,株式会社,東京都,新宿区,百人町２丁目１０－９新大久保イニシャルハウス５０２,,13,104,1690073,,,,,,,2022-08-19,1,,,,,ニホンバングラ,0
1971,9011801041157,新規,0,2022-08-19,2022-08-19,株式会社リンクス,,株式会社,東京都,葛飾区,堀切６丁目２８番９号,,13,122,1240006,,,,,,,2022-08-19,1,,,,,リンクス,0
1972,9011801041173,新規,0,2022-08-19,2022-08-19,株式会社アンドーＰＭ,,株式会社,東京都,足立区,西新井１丁目３４番１５号,,13,121,1230841,,,,,,,2022-08-19,1,,,,,アンドーピーエム,0
1974,9013301049473,新規,0,2022-08-19,2022-08-19,株式会社サンライズ,,株式会社,東京都,豊島区,千早４丁目４５－７プラトウ武蔵野１０１,,13,116,1710044,,,,,,,2022-08-19,1,,,,,サンライズ,0
1978,9020001147763,新規,0,2022-08-19,2022-08-19,株式会社Ｊスタイル,,株式会社,神奈川県,横浜市磯子区,磯子６丁目１０番１９号,,14,107,2350016,,,,,,,2022-08-19,1,,,,,ジェースタイル,0
1981,9020003022238,新規,0,2022-08-19,2022-08-19,ｍ‐ＳＡＲＰ合同会社,,合同会社,神奈川県,川崎市中原区,新丸子東３丁目１２０４番地ブリリア武蔵小杉４０４,,14,133,2110004,,,,,,,2022-08-19,1,,,,,エムサープ,0
1982,9020003022270,新規,0,2022-08-19,2022-08-19,合同会社グランツアンドオンリー,,合同会社,神奈川県,横浜市青葉区,あざみ野１丁目１７番地８０,,14,117,2250011,,,,,,,2022-08-19,1,,,,,グランツアンドオンリー,0
1984,9021001076795,新規,0,2022-08-19,2022-08-19,誠興金属株式会社,,株式会社,神奈川県,相模原市南区,麻溝台１０７３番地,,14,153,2520328,,,,,,,2022-08-19,1,,,,,セイコウキンゾク,0
1989,9030001149627,新規,0,2022-08-19,2022-08-19,株式会社エテルノリンク,,株式会社,埼玉県,さいたま市西区,西大宮４丁目１９番地１８,,11,101,3310078,,,,,,,2022-08-19,1,,,,,エテルノリンク,0
1990,9030001149734,新規,0,2022-08-19,2022-08-19,株式会社ＢｌａｃｋｉｓｈＧｅａｒ,,株式会社,埼玉県,川越市,大字天沼新田２２１－１０プランドールＢ１０５,,11,201,3500806,,,,,,,2022-08-19,1,,,,,ブラキッシュギア,0
1991,9030001149750,新規,0,2022-08-19,2022-08-19,株式会社ＡＳＴＥＰ,,株式会社,埼玉県,さいたま市中央区,上落合９丁目８番８号,,11,105,3380001,,,,,,,2022-08-19,1,,,,,アステップ,0
1992,9030001149759,新規,0,2022-08-19,2022-08-19,株式会社アルバ,,株式会社,埼玉県,深谷市,西大沼３７３番地６,,11,218,3660829,,,,,,,2022-08-19,1,,,,,アルバ,0
2002,9030003020026,新規,0,2022-08-19,2022-08-19,日本再生開発合同会社,,合同会社,埼玉県,八潮市,大字南川崎１５４１番地１,,11,234,3400814,,,,,,,2022-08-19,1,,,,,ニホンサイセイカイハツ,0
2003,9030003020034,新規,0,2022-08-19,2022-08-19,ハウスサポート合同会社,,合同会社,埼玉県,春日部市,大枝８６番地１マルイビル１０３,,11,214,3440023,,,,,,,2022-08-19,1,,,,,ハウスサポート,0
2010,9040003020660,新規,0,2022-08-19,2022-08-19,ＭＩＮ　ＭＩＮ合同会社,,合同会社,千葉県,千葉市花見川区,幕張町５丁目４１７番地１５４第１３花園ビル４０３,,12,102,2620032,,,,,,,2022-08-19,1,,,,,ミンミン,0
2011,9050001051566,新規,0,2022-08-19,2022-08-19,株式会社ＦＡＹＮＴＥＣＫ,,株式会社,茨城県,笠間市,安居２８９１番地１,,08,216,3190206,,,,,,,2022-08-19,1,,,,,ファインテック,0
2014,9060001035196,新規,0,2022-08-19,2022-08-19,株式会社ペレラエクスプレス,,株式会社,栃木県,下都賀郡壬生町,大字助谷１１５番地,,09,361,3210233,,,,,,,2022-08-19,1,,,,,ペレラエクスプレス,0
2021,9080101023487,新規,0,2022-08-19,2022-08-19,株式会社プリンセチア,,株式会社,静岡県,沼津市,泉町１６番２６号サンセゾン泉１０１,,22,203,4100045,,,,,,,2022-08-19,1,,,,,プリンセチア,0
2022,9080401026009,新規,0,2022-08-19,2022-08-19,ジョイ企画株式会社,,株式会社,静岡県,浜松市浜北区,中瀬７１３６番地の９６,,22,136,4340012,,,,,,,2022-08-19,1,,,,,ジョイキカク,0
2025,9100003006661,新規,0,2022-08-19,2022-08-19,合同会社ｃｏｃｏｎ,,合同会社,長野県,北佐久郡軽井沢町,大字長倉２８４９－１３,,20,321,3890111,,,,,,,2022-08-19,1,,,,,ココン,0
2026,9100005012906,新規,0,2022-08-19,2022-08-19,一般社団法人あっぷるぼういず,,その他の設立登記法人,長野県,北安曇郡松川村,５６５１番地２１８,,20,482,3998501,,,,,,,2022-08-19,1,,,,,アップルボウイズ,0
2039,9120001248287,新規,0,2022-08-19,2022-08-19,株式会社ＣＩＴＹ　ＳＯＵＴＨ,,株式会社,大阪府,大阪市住吉区,千躰２丁目４番３３号１階,,27,120,5580047,,,,,,,2022-08-19,1,,,,,シティサウス,0
2040,9120001248295,新規,0,2022-08-19,2022-08-19,久二株式会社,,株式会社,大阪府,大阪市阿倍野区,西田辺町２丁目１０番３号,,27,119,5450014,,,,,,,2022-08-19,1,,,,,クニ,0
2041,9120001248304,新規,0,2022-08-19,2022-08-19,ノルン株式会社,,株式会社,大阪府,大阪市西淀川区,柏里２丁目７番２６号ラ・ピース塚本３０５号室,,27,113,5550022,,,,,,,2022-08-19,1,,,,,ノルン,0
2046,9120003022228,新規,0,2022-08-19,2022-08-19,堂島コネクト・リーガルサービス合同会社,,合同会社,大阪府,大阪市北区,西天満２丁目６番８号,,27,127,5300047,,,,,,,2022-08-19,1,,,,,ドウジマコネクトリーガルサービス,0
2051,9120903004275,新規,0,2022-08-19,2022-08-19,Ｇｎａｒｌｙ　Ｗａｖｅｓ合同会社,,合同会社,大阪府,三島郡島本町,高浜１丁目６番８号,,27,301,6180012,,,,,,,2022-08-19,1,,,,,ナーリーウェイブス,0
2056,9130003008143,新規,0,2022-08-19,2022-08-19,合同会社ねこハウス,,合同会社,京都府,京都市南区,東九条西札辻町４５,00127568,26,107,6018043,,,,,,,2022-08-19,1,,,,,,0
2062,9140005026290,新規,0,2022-08-19,2022-08-19,一般社団法人ＪＡＧ協会,,その他の設立登記法人,兵庫県,神戸市中央区,中町通３丁目１番１６号サンビル５０２,,28,110,6500027,,,,,,,2022-08-19,1,,,,,ジェイエージーキョウカイ,0
2074,9180001152707,新規,0,2022-08-19,2022-08-19,株式会社クロスイート,,株式会社,愛知県,名古屋市中区,錦３丁目１１番１６号,,23,106,4600003,,,,,,,2022-08-19,1,,,,,クロスイート,0
2084,9230001019487,新規,0,2022-08-19,2022-08-19,株式会社ＢＯＵｃｏｌｌｅｃｔｉｏｎ,,株式会社,富山県,富山市,呉羽町６２８２番地２５,,16,201,9300138,,,,,,,2022-08-19,1,,,,,ボウコレクション,0
2087,9240001060242,新規,0,2022-08-19,2022-08-19,株式会社ＣｏｄｅＦｏｘ,,株式会社,広島県,広島市中区,東千田町１丁目１番６６号ｈｉｔｏｔｏ広島ナレッジスクエア１Ｆ,,34,101,7300053,,,,,,,2022-08-19,1,,,,,コードフォックス,0
2107,9300003001873,新規,0,2022-08-19,2022-08-19,合同会社さくら,,合同会社,佐賀県,嬉野市,嬉野町大字下宿丙２２４５番地２,,41,209,8430301,,,,,,,2022-08-19,1,,,,,サクラ,0
2111,9360003012238,新規,0,2022-08-19,2022-08-19,合同会社ＮＥＷ県産品,,合同会社,沖縄県,那覇市,牧志３丁目５番１９号,,47,201,9000013,,,,,,,2022-08-19,1,,,,,ニューケンサンピン,0
2112,9370001048927,新規,0,2022-08-19,2022-08-19,株式会社ＢＩＧ　ＳＵＮ　ＰＬＡＮＮＩＮＧ,,株式会社,宮城県,仙台市宮城野区,田子２丁目３３番１７－３０７号,,04,102,9830021,,,,,,,2022-08-19,1,,,,,ビッグサンプランニング,0
2117,9380001033060,新規,0,2022-08-19,2022-08-19,株式会社福島郡山ＬＬタウン,,株式会社,福島県,郡山市,大槻町字中ノ平９１番地の１,,07,203,9630201,,,,,,,2022-08-19,1,,,,,フクシマコオリヤマエルエルタウン,0
2120,9400005008262,新規,0,2022-08-19,2022-08-19,一般社団法人アイオー精密ものづくり教育振興会,,その他の設立登記法人,岩手県,花巻市,東十二丁目第１７地割１番地１,,03,205,0250015,,,,,,,2022-08-19,1,,,,,アイオーセイミツモノヅクリキョウイクシンコウカイ,0
2122,9420001017975,新規,0,2022-08-19,2022-08-19,株式会社ワイズエアサービス,,株式会社,青森県,八戸市,大字妙字花生８－８９,,02,203,0310814,,,,,,,2022-08-19,1,,,,,ワイズエアサービス,0
2125,9430001087266,新規,0,2022-08-19,2022-08-19,カワセミ香港株式会社,,株式会社,北海道,札幌市北区,北七条西２丁目６番地　３７山京ビル６１２号,,01,102,0600807,,,,,,,2022-08-19,1,,,,,カワセミホンコン,0
2126,9430001087324,新規,0,2022-08-19,2022-08-19,株式会社イノベイトファーマ,,株式会社,北海道,札幌市清田区,平岡一条４丁目２番８－１号,,01,110,0040871,,,,,,,2022-08-19,1,,,,,イノベイトファーマ,0
2127,9430001087332,新規,0,2022-08-19,2022-08-19,株式会社石狩産業,,株式会社,北海道,札幌市東区,北十九条東５丁目２番２号,,01,103,0650019,,,,,,,2022-08-19,1,,,,,イシカリサンギョウ,0
2128,9430003014202,新規,0,2022-08-19,2022-08-19,合同会社びよんどわーくす北海道,,合同会社,北海道,苫小牧市,北栄町２丁目５番２５号サンハイツ１０１,,01,213,0591304,,,,,,,2022-08-19,1,,,,,ビヨンドワークスホッカイドウ,0
2135,9700150111369,新規,0,2022-08-19,2022-08-19,Ｓａｓｍｉ　Ｄｉｓｔｒｉｂｕｔｅｒｓ,,外国会社等,茨城県,筑西市,藤ケ谷１３５５－１マイシティライフ１０番館２０３,,08,227,3080112,スリランカ民主社会主義共和国マーダンペ、ニュータウン,,,,,,2022-08-19,1,,,,,サスミデイストリビユーター,0
2136,9700150111377,新規,0,2022-08-19,2022-08-19,株式会社ホテルロッテ日本支店,,外国会社等,東京都,千代田区,神田東松下町１８番地高正ビル,,13,101,1010042,大韓民国ソウル特別市中区乙支路３０（小公洞）,,,,,,2022-08-19,1,,,,,カブシキガイシヤホテルロツテニホンンシテン,0
