sequenceNumber,corporateNumber,process,correct,updateDate,changeDate,name,nameImageId,kind,prefectureName,cityName,streetNumber,addressImageId,prefectureCode,cityCode,postCode,addressOutside,addressOutsideImageId,closeDate,closeCause,successorCorporateNumber,changeCause,assignmentDate,latest,enName,enPrefectureName,enCityName,enAddressOutside,furigana,hihyoji
6,1010001224430,新規,0,2022-02-21,2022-02-21,株式会社キャンビ,,株式会社,東京都,千代田区,外神田４丁目９番２号,,13,101,1010021,,,,,,,2022-02-21,1,,,,,キャンビ,0
7,1010001224744,新規,0,2022-02-21,2022-02-21,株式会社マルハンキャピタルマネジメント,,株式会社,東京都,千代田区,丸の内１丁目１１番１号,,13,101,1000005,,,,,,,2022-02-21,1,,,,,マルハンキャピタルマネジメント,0
22,1010403027118,新規,0,2022-02-21,2022-02-21,合同会社アップスタート・コンサルティング,,合同会社,東京都,港区,南青山２丁目２番１５号ＷｉｎＡｏｙａｍａビルＵＣＦ６３５,,13,103,1070062,,,,,,,2022-02-21,1,,,,,アップスタートコンサルティング,0
27,1010601060696,新規,0,2022-02-21,2022-02-21,ＰＡＬＬＥＴＢＲＯＳ　ＪＡＰＡＮ株式会社,,株式会社,東京都,江東区,東陽５丁目２９番４１号８階,,13,108,1350016,,,,,,,2022-02-21,1,,,,,パレットブロスジャパン,0
31,1010901050397,新規,0,2022-02-21,2022-02-21,株式会社ＤＭＬ,,株式会社,東京都,世田谷区,松原６丁目２９番７号,,13,112,1560043,,,,,,,2022-02-21,1,,,,,ディーエムエル,0
38,1011001145749,新規,0,2022-02-21,2022-02-21,株式会社ＬＵＴＺ,,株式会社,東京都,渋谷区,神宮前６丁目２３番４号桑野ビル２階,,13,113,1500001,,,,,,,2022-02-21,1,,,,,ルッツ,0
43,1011003014191,新規,0,2022-02-21,2022-02-21,合同会社ＲＥＡＤＹ,,合同会社,東京都,渋谷区,神宮前６丁目２３番４号桑野ビル２階,,13,113,1500001,,,,,,,2022-02-21,1,,,,,レディー,0
44,1011003014225,新規,0,2022-02-21,2022-02-21,Ｏｕｒ　Ｔｈｏｕｓａｎｄ合同会社,,合同会社,東京都,渋谷区,円山町５番５号Ｎａｖｉ渋谷Ｖ３階,,13,113,1500044,,,,,,,2022-02-21,1,,,,,アワサウザンド,0
46,1011105010147,新規,0,2022-02-21,2022-02-21,一般社団法人ジェイ・エイチ・ジー,,その他の設立登記法人,東京都,新宿区,下宮比町１番４号,,13,104,1620822,,,,,,,2022-02-21,1,,,,,ジェイエイチジー,0
48,1011301027572,新規,0,2022-02-21,2022-02-21,株式会社いち居,,株式会社,東京都,杉並区,梅里２丁目６番７号ＨＥＢＥＬＭＡＩＳＯＮＫＧ１０２,,13,115,1660011,,,,,,,2022-02-21,1,,,,,イチイ,0
50,1011401024040,新規,0,2022-02-21,2022-02-21,株式会社ＯＴＥＡＧＥ,,株式会社,東京都,板橋区,徳丸４丁目２１番４号,,13,119,1750083,,,,,,,2022-02-21,1,,,,,オテアゲ,0
51,1011501027769,新規,0,2022-02-21,2022-02-21,株式会社ＭＩＫＯＴＯ,,株式会社,東京都,荒川区,東日暮里６丁目４２番１号壮光舎日暮里ビル２階,,13,118,1160014,,,,,,,2022-02-21,1,,,,,ミコト,0
52,1011503005079,新規,0,2022-02-21,2022-02-21,ＡＫＢ合同会社,,合同会社,東京都,北区,赤羽西１丁目１６番１２号赤羽ＴＰビルＡ棟１０５号,,13,117,1150055,,,,,,,2022-02-21,1,,,,,エーケービー,0
53,1011703003072,新規,0,2022-02-21,2022-02-21,合同会社Ｋｏｍｏｒｅｂｉ,,合同会社,東京都,江戸川区,西一之江３丁目３５番７号,,13,123,1320023,,,,,,,2022-02-21,1,,,,,コモレビ,0
58,1012701016941,新規,0,2022-02-21,2022-02-21,株式会社栄新,,株式会社,東京都,東久留米市,南沢３丁目８番２号,,13,222,2030023,,,,,,,2022-02-21,1,,,,,エイシン,0
59,1012801021404,新規,0,2022-02-21,2022-02-21,株式会社アプロコーポレーション,,株式会社,東京都,立川市,錦町２丁目１番３２号,,13,202,1900022,,,,,,,2022-02-21,1,,,,,アプロコーポレーション,0
65,1020001145295,新規,0,2022-02-21,2022-02-21,株式会社ワイズ,,株式会社,神奈川県,横浜市西区,戸部本町３９番８号ストークビル高島１０１号,,14,103,2200041,,,,,,,2022-02-21,1,,,,,ワイズ,0
66,1020001145304,新規,0,2022-02-21,2022-02-21,株式会社シーズ,,株式会社,神奈川県,横浜市金沢区,富岡東１丁目４８番９号,,14,108,2360051,,,,,,,2022-02-21,1,,,,,シーズ,0
67,1020001145312,新規,0,2022-02-21,2022-02-21,株式会社Ｒｅａｌｉｚｅ,,株式会社,神奈川県,横浜市港南区,港南台３丁目１６番２号－１０１,,14,111,2340054,,,,,,,2022-02-21,1,,,,,リアライズ,0
70,1020003021338,新規,0,2022-02-21,2022-02-21,合同会社Ｋカンパニー,,合同会社,神奈川県,横浜市鶴見区,尻手１丁目１番１６－７０５号,,14,101,2300003,,,,,,,2022-02-21,1,,,,,ケーカンパニー,0
75,1021001075219,新規,0,2022-02-21,2022-02-21,株式会社ｄｏエステートサービス,,株式会社,神奈川県,南足柄市,狩野８２番地４クワアプリーコ１Ａ,,14,217,2500126,,,,,,,2022-02-21,1,,,,,ドゥエステートサービス,0
76,1021001075227,新規,0,2022-02-21,2022-02-21,レユール株式会社,,株式会社,神奈川県,相模原市緑区,向原１丁目２番１０,,14,151,2520104,,,,,,,2022-02-21,1,,,,,レユール,0
82,1030001146854,新規,0,2022-02-21,2022-02-21,株式会社Ｓｔｒｉｘｅｓ,,株式会社,埼玉県,川口市,西川口３丁目３３番１７号木村ハイツ３０１号,,11,203,3320021,,,,,,,2022-02-21,1,,,,,ストリクシーズ,0
83,1030001146862,新規,0,2022-02-21,2022-02-21,株式会社Ｈｏｐｅ　ｆｏｒ　Ｐｅａｃｅ,,株式会社,埼玉県,さいたま市北区,土呂町１丁目１７番地６丸八ビル１Ｆ,,11,102,3310804,,,,,,,2022-02-21,1,,,,,ホープフォーピース,0
84,1030001146870,新規,0,2022-02-21,2022-02-21,株式会社ととみち,,株式会社,埼玉県,さいたま市中央区,鈴谷４丁目６番３１－５０６号,,11,105,3380013,,,,,,,2022-02-21,1,,,,,トトミチ,0
87,1030003018878,新規,0,2022-02-21,2022-02-21,ＧＡＲＤＥＮＥＸＴ合同会社,,合同会社,埼玉県,久喜市,吉羽４丁目２番地３１,,11,232,3460014,,,,,,,2022-02-21,1,,,,,ガーデネクスト,0
93,1040001122301,新規,0,2022-02-21,2022-02-21,株式会社ＳＫ・カンパニー,,株式会社,千葉県,千葉市稲毛区,萩台町４５番地,,12,103,2630012,,,,,,,2022-02-21,1,,,,,エスケーカンパニー,0
99,1050005013017,新規,0,2022-02-21,2022-02-21,一般社団法人レーザセンシング学会,,その他の設立登記法人,茨城県,つくば市,長峰１番１気象庁気象研究所台風・災害気象研究部内,,08,220,3050052,,,,,,,2022-02-21,1,,,,,レーザセンシングガッカイ,0
102,1070001038965,新規,0,2022-02-21,2022-02-21,株式会社Ｒｉｓａ　Ｌｉｆｅ,,株式会社,群馬県,みどり市,笠懸町西鹿田７０９番地２０号,,10,212,3792314,,,,,,,2022-02-21,1,,,,,,0
107,1080003002737,新規,0,2022-02-21,2022-02-21,合同会社カトゥーラ,,合同会社,静岡県,静岡市葵区,上足洗２丁目８番４７－６号,,22,101,4200841,,,,,,,2022-02-21,1,,,,,カトゥーラ,0
108,1080101023107,新規,0,2022-02-21,2022-02-21,株式会社フジデーリィシステム,,株式会社,静岡県,富士宮市,外神１８９１番地の２,,22,207,4180006,,,,,,,2022-02-21,1,,,,,フジデーリィシステム,0
127,1120001243923,新規,0,2022-02-21,2022-02-21,株式会社ＭａｃｋｅｎＧ,,株式会社,大阪府,大阪市北区,万歳町３番１２号萬栄ビル３０５号室,,27,127,5300028,,,,,,,2022-02-21,1,,,,,マッケンジー,0
128,1120001243956,新規,0,2022-02-21,2022-02-21,株式会社ｉ－ｈｏｕｓｅ,,株式会社,大阪府,大阪市都島区,高倉町１丁目４番３１号５０３,,27,102,5340011,,,,,,,2022-02-21,1,,,,,アイハウス,0
132,1120005022803,新規,0,2022-02-21,2022-02-21,一般社団法人ＦＣ　ＲＥＹＳ,,その他の設立登記法人,大阪府,大阪市鶴見区,浜５丁目１番４２号,,27,124,5380035,,,,,,,2022-02-21,1,,,,,エフシーレイズ,0
134,1120101065111,新規,0,2022-02-21,2022-02-21,株式会社恵愛開発,,株式会社,大阪府,泉佐野市,市場南１丁目６番１８号,,27,213,5980004,,,,,,,2022-02-21,1,,,,,ケイアイカイハツ,0
137,1120901045618,新規,0,2022-02-21,2022-02-21,ＳＳ作業株式会社,,株式会社,大阪府,摂津市,東一津屋１５番１４－２０５号,,27,224,5660074,,,,,,,2022-02-21,1,,,,,エスエスサギョウ,0
141,1130001071167,新規,0,2022-02-21,2022-02-21,株式会社京茅,,株式会社,京都府,亀岡市,北古世町２丁目１８番２号,,26,206,6210811,,,,,,,2022-02-21,1,,,,,キョウカヤ,0
142,1130001071175,新規,0,2022-02-21,2022-02-21,株式会社Ｉｎｆｉｎｉｔｙ,,株式会社,京都府,京都市左京区,下鴨東高木町２１番地,,26,103,6060865,,,,,,,2022-02-21,1,,,,,インフィニティ,0
143,1130001071183,新規,0,2022-02-21,2022-02-21,栄正恒株式会社,,株式会社,京都府,京都市東山区,本町６丁目１４コーポセブン４０２号室,,26,105,6050981,,,,,,,2022-02-21,1,,,,,エイセイコウ,0
146,1130003007771,新規,0,2022-02-21,2022-02-21,合同会社ＴＳＩ,,合同会社,京都府,亀岡市,南つつじケ丘大葉台２丁目３１番７号,,26,206,6210846,,,,,,,2022-02-21,1,,,,,ティーエスアイ,0
150,1140001124931,新規,0,2022-02-21,2022-02-21,株式会社Ｄｏｔ,,株式会社,兵庫県,加古川市,平岡町高畑１５１－５エルエスビル３０３,,28,210,6750103,,,,,,,2022-02-21,1,,,,,ドット,0
151,1140001124948,新規,0,2022-02-21,2022-02-21,株式会社ストロベリーフィールズ,,株式会社,兵庫県,西宮市,鳴尾町１丁目１９番１３号,,28,204,6638184,,,,,,,2022-02-21,1,,,,,ストロベリーフィールズ,0
152,1140001124964,新規,0,2022-02-21,2022-02-21,株式会社ＭＹ,,株式会社,兵庫県,姫路市,北平野台町５番１０号,,28,201,6700895,,,,,,,2022-02-21,1,,,,,エムワイ,0
154,1140003017373,新規,0,2022-02-21,2022-02-21,コネクトスマイル合同会社,,合同会社,兵庫県,西宮市,鳴尾浜２丁目１番２９号,,28,204,6638142,,,,,,,2022-02-21,1,,,,,コネクトスマイル,0
155,1140003017381,新規,0,2022-02-21,2022-02-21,合同会社イデアモール,,合同会社,兵庫県,神戸市垂水区,仲田１丁目８番２４－３０８号,,28,108,6550034,,,,,,,2022-02-21,1,,,,,イデアモール,0
157,1150001025352,新規,0,2022-02-21,2022-02-21,五栄物流倉庫株式会社,,株式会社,奈良県,五條市,須恵１丁目６番２１号,,29,207,6370005,,,,,,,2022-02-21,1,,,,,ゴエイブツリュウソウコ,0
158,1160001023999,新規,0,2022-02-21,2022-02-21,株式会社ＤＡ－Ｎ－ＲＯ,,株式会社,滋賀県,守山市,守山５丁目５番３７号,,25,207,5240022,,,,,,,2022-02-21,1,,,,,ダンロ,0
159,1160003002497,新規,0,2022-02-21,2022-02-21,ＷＫＡ合同会社,,合同会社,滋賀県,大津市,伊香立南庄町１４１４番地,,25,201,5200354,,,,,,,2022-02-21,1,,,,,ダブルケイエー,0
160,1160005011042,新規,0,2022-02-21,2022-02-21,農事組合法人上安曇８１営農組合,,その他の設立登記法人,滋賀県,高島市,安曇川町田中３１０９番地,,25,212,5201217,,,,,,,2022-02-21,1,,,,,カミアドハチイチエイノウクミアイ,0
171,1180001150024,新規,0,2022-02-21,2022-02-21,株式会社ＴＲＩＮＩＴＹ,,株式会社,愛知県,小牧市,小木２丁目８６番地,,23,219,4850058,,,,,,,2022-02-21,1,,,,,トリニティー,0
175,1190001029135,新規,0,2022-02-21,2022-02-21,株式会社栄技建,,株式会社,三重県,いなべ市,北勢町北中津原５３４番地４,,24,214,5110422,,,,,,,2022-02-21,1,,,,,サカエギケン,0
176,1190001029143,新規,0,2022-02-21,2022-02-21,株式会社ＴＵＮＥ,,株式会社,三重県,四日市市,新町７番２号,,24,202,5100092,,,,,,,2022-02-21,1,,,,,チューン,0
177,1190001029151,新規,0,2022-02-21,2022-02-21,奏匠舎株式会社,,株式会社,三重県,四日市市,笹川７丁目５１番地１２,,24,202,5100944,,,,,,,2022-02-21,1,,,,,ソウショウシャ,0
180,1200001039768,新規,0,2022-02-21,2022-02-21,株式会社Ｙ・Ｎ・Ｈ,,株式会社,岐阜県,各務原市,つつじが丘５丁目６１番地,,21,213,5090131,,,,,,,2022-02-21,1,,,,,ワイエヌエイチ,0
182,1200003005462,新規,0,2022-02-21,2022-02-21,Ｓａｋａｎａｓｈ合同会社,,合同会社,岐阜県,各務原市,那加日新町６丁目３番,,21,213,5040945,,,,,,,2022-02-21,1,,,,,サカナッシュ,0
183,1220001024702,新規,0,2022-02-21,2022-02-21,株式会社ＬＦＯＲ,,株式会社,石川県,金沢市,角間町金沢大学ベンチャービジネスラボラトリー５０１号室,,17,201,9201164,,,,,,,2022-02-21,1,,,,,エルフォー,0
184,1230001019239,新規,0,2022-02-21,2022-02-21,株式会社ＴＳＢＣ,,株式会社,富山県,富山市,安住町２番１４号,,16,201,9300094,,,,,,,2022-02-21,1,,,,,ティエスビーシー,0
193,1240003005509,新規,0,2022-02-21,2022-02-21,クルーズデザイン合同会社,,合同会社,広島県,広島市中区,基町１２番５号－７号,,34,101,7300011,,,,,,,2022-02-21,1,,,,,クルーズデザイン,0
197,1260001036529,新規,0,2022-02-21,2022-02-21,株式会社桃太郎,,株式会社,岡山県,倉敷市,田ノ上１００８番地２階,,33,202,7100831,,,,,,,2022-02-21,1,,,,,モモタロウ,0
198,1260001036537,新規,0,2022-02-21,2022-02-21,ｎｅｘｔ　ｆｕｎ　ｉｎｎｏｖａｔｉｏｎ株式会社,,株式会社,岡山県,総社市,新本３４１９番地,,33,208,7101203,,,,,,,2022-02-21,1,,,,,ネクストファンイノベーション,0
199,1260001036553,新規,0,2022-02-21,2022-02-21,株式会社ｃｈｍ,,株式会社,岡山県,倉敷市,児島味野３丁目７番４０号,,33,202,7110913,,,,,,,2022-02-21,1,,,,,シーエイチエム,0
200,1260003003808,新規,0,2022-02-21,2022-02-21,グレイス合同会社,,合同会社,岡山県,岡山市北区,中仙道６０番地１１９,,33,101,7000964,,,,,,,2022-02-21,1,,,,,グレイス,0
207,1290001096479,新規,0,2022-02-21,2022-02-21,株式会社Ｒｅｂｅａｕｔ,,株式会社,福岡県,福岡市博多区,博多駅東２丁目１８番２８号,,40,132,8120013,,,,,,,2022-02-21,1,,,,,リビュート,0
208,1290001096495,新規,0,2022-02-21,2022-02-21,株式会社オオデン,,株式会社,福岡県,福岡市西区,横浜２丁目４番２７号,,40,135,8190166,,,,,,,2022-02-21,1,,,,,オオデン,0
212,1290801028276,新規,0,2022-02-21,2022-02-21,株式会社翡翠Ｇｒｏｕｐ,,株式会社,福岡県,北九州市八幡西区,光明２丁目３番１－６１１号,,40,109,8070824,,,,,,,2022-02-21,1,,,,,ヒスイグループ,0
215,1300001012814,新規,0,2022-02-21,2022-02-21,株式会社フィオーレ,,株式会社,佐賀県,唐津市,二タ子１丁目３番１９－３号,,41,202,8470861,,,,,,,2022-02-21,1,,,,,フィオーレ,0
223,1330001029459,新規,0,2022-02-21,2022-02-21,株式会社ＳＥＩＫＡ,,株式会社,熊本県,熊本市北区,植木町岩野７９５番地１,,43,105,8610136,,,,,,,2022-02-21,1,,,,,セイカ,0
228,1340001024509,新規,0,2022-02-21,2022-02-21,ジーエムプロパティ株式会社,,株式会社,鹿児島県,鹿児島市,紫原２丁目３３番１２号,,46,201,8900082,,,,,,,2022-02-21,1,,,,,ジーエムプロパティ,0
229,1350001017585,新規,0,2022-02-21,2022-02-21,株式会社ＨＲＣホールディングス,,株式会社,宮崎県,延岡市,稲葉崎町４丁目１０７７番地１,,45,203,8820003,,,,,,,2022-02-21,1,,,,,エイチアールシーホールディングス,0
230,1350001017593,新規,0,2022-02-21,2022-02-21,株式会社コダマ,,株式会社,宮崎県,宮崎市,佐土原町下那珂４５１８番地２９５,,45,201,8800212,,,,,,,2022-02-21,1,,,,,コダマ,0
233,1360001030018,新規,0,2022-02-21,2022-02-21,株式会社ＲＬＣ　Ｏｋｉｎａｗａ　Ｒｅｓｉｄｅｎｔｉａｌ　Ｌｉｍｉｔｅｄ,,株式会社,沖縄県,中頭郡北谷町,北谷２丁目５番地２、８０２,,47,326,9040116,,,,,,,2022-02-21,1,,,,,アールエルシーオキナワレジデンシャルリミテッド,0
242,1400003002902,新規,0,2022-02-21,2022-02-21,合同会社佐藤板金,,合同会社,岩手県,奥州市,江刺米里字下谷地１５７番地,,03,215,0231551,,,,,,,2022-02-21,1,,,,,サトウバンキン,0
245,1420003002462,新規,0,2022-02-21,2022-02-21,ＶＩＳＵＡＬＷＥＢ合同会社,,合同会社,青森県,三沢市,幸町３丁目２０番３３号,,02,207,0330011,,,,,,,2022-02-21,1,,,,,ヴィジュアルウェブ,0
248,1430001086028,新規,0,2022-02-21,2022-02-21,株式会社ユースフルサービス,,株式会社,北海道,札幌市北区,屯田八条１丁目３番１３号,,01,102,0020858,,,,,,,2022-02-21,1,,,,,ユースフルサービス,0
249,1430001086036,新規,0,2022-02-21,2022-02-21,株式会社ノースグランド,,株式会社,北海道,札幌市中央区,南四条西６丁目８番地３晴ばれビル５０１号室,,01,101,0640804,,,,,,,2022-02-21,1,,,,,ノースグランド,0
257,1450003002179,新規,0,2022-02-21,2022-02-21,士別ケアステップ合同会社,,合同会社,北海道,士別市,東一条北７丁目１番地７,,01,220,0950001,,,,,,,2022-02-21,1,,,,,シベツケアステップ,0
264,1480003001789,新規,0,2022-02-21,2022-02-21,合同会社フォークアイ,,合同会社,徳島県,徳島市,中島田町４丁目９９番地１０,,36,201,7700052,,,,,,,2022-02-21,1,,,,,フォークアイ,0
278,2010005034627,新規,0,2022-02-21,2022-02-21,京浜島二丁目開発一般社団法人,,その他の設立登記法人,東京都,千代田区,平河町１丁目６番１５号シルスフィア会計事務所内,,13,101,1020093,,,,,,,2022-02-21,1,,,,,ケイヒンジマニチョウメカイハツ,0
295,2010501048477,新規,0,2022-02-21,2022-02-21,株式会社京祐,,株式会社,東京都,台東区,東上野３丁目２２番２－８０１号クレアツィオーネ上野,,13,106,1100015,,,,,,,2022-02-21,1,,,,,ケイスケ,0
300,2010903007163,新規,0,2022-02-21,2022-02-21,サイード合同会社,,合同会社,東京都,世田谷区,深沢７丁目１１－５グレースメゾンＡ,,13,112,1580081,,,,,,,2022-02-21,1,,,,,サイード,0
306,2011001145698,新規,0,2022-02-21,2022-02-21,株式会社バロン,,株式会社,東京都,渋谷区,松濤１丁目４－８松濤ＥＡＳＴ２０１,,13,113,1500046,,,,,,,2022-02-21,1,,,,,バロン,0
307,2011001145772,新規,0,2022-02-21,2022-02-21,株式会社ドラセナスクエア,,株式会社,東京都,目黒区,大橋１丁目８番７号,,13,110,1530044,,,,,,,2022-02-21,1,,,,,ドラセナスクエア,0
309,2011003014190,新規,0,2022-02-21,2022-02-21,ＭＮコラボレーション合同会社,,合同会社,東京都,渋谷区,神宮前６丁目２３番４号桑野ビル２階,,13,113,1500001,,,,,,,2022-02-21,1,,,,,エムエヌコラボレーション,0
314,2011103011476,新規,0,2022-02-21,2022-02-21,合同会社コラソン,,合同会社,東京都,新宿区,西新宿３丁目３番１３号西新宿水間ビル６階,,13,104,1600023,,,,,,,2022-02-21,1,,,,,,0
315,2011105010146,新規,0,2022-02-21,2022-02-21,一般社団法人ＥＯ　Ｈｏｋｋａｉｄｏ,,その他の設立登記法人,東京都,新宿区,新宿４丁目３番１７号,,13,104,1600022,,,,,,,2022-02-21,1,,,,,イーオーホッカイドウ,0
318,2011403003578,新規,0,2022-02-21,2022-02-21,合同会社ツチカ,,合同会社,東京都,板橋区,前野町２丁目１６番１－７１５号,,13,119,1740063,,,,,,,2022-02-21,1,,,,,ツチカ,0
320,2011501027768,新規,0,2022-02-21,2022-02-21,ｒｕｓｈ株式会社,,株式会社,東京都,荒川区,町屋７丁目１３番１６－４０２号,,13,118,1160001,,,,,,,2022-02-21,1,,,,,ラッシュ,0
321,2011503005078,新規,0,2022-02-21,2022-02-21,フォーレストトレーディング合同会社,,合同会社,東京都,荒川区,町屋５丁目１９番３号富島ビル４Ｆ,,13,118,1160001,,,,,,,2022-02-21,1,,,,,フォーレストトレーディング,0
322,2011601025754,新規,0,2022-02-21,2022-02-21,株式会社Ｌｉｂ　Ｗｏｒｋｓ,,株式会社,東京都,練馬区,中村北３丁目１０番１４号,,13,120,1760023,,,,,,,2022-02-21,1,,,,,リブワークス,0
324,2011701025068,新規,0,2022-02-21,2022-02-21,里奥株式会社,,株式会社,東京都,江戸川区,北小岩６丁目４８番６号,,13,123,1330051,,,,,,,2022-02-21,1,,,,,,0
327,2012301012893,新規,0,2022-02-21,2022-02-21,株式会社佑圭,,株式会社,東京都,町田市,原町田３丁目２番８号アトラスタワー町田２００６,,13,209,1940013,,,,,,,2022-02-21,1,,,,,ユウケイ,0
329,2012403005242,新規,0,2022-02-21,2022-02-21,合同会社ｃｏｃｏｒｏ,,合同会社,東京都,小金井市,梶野町２丁目１５番９号,,13,210,1840002,,,,,,,2022-02-21,1,,,,,ココロ,0
331,2012701016940,新規,0,2022-02-21,2022-02-21,タクティーク株式会社,,株式会社,東京都,西東京市,北町５丁目１２番１５号,,13,229,2020003,,,,,,,2022-02-21,1,,,,,タクティーク,0
333,2012801021403,新規,0,2022-02-21,2022-02-21,株式会社田上会計事務所,,株式会社,東京都,立川市,錦町２丁目５番２号Ｋ・Ｉビル３０１号室,,13,202,1900022,,,,,,,2022-02-21,1,,,,,タガミカイケイジムショ,0
334,2012801021411,新規,0,2022-02-21,2022-02-21,株式会社ＤＡＩＫＩ　ＦＩＴＮＥＳＳ,,株式会社,東京都,東大和市,上北台３丁目３７６－２パラシオンウイラニ１０５,,13,220,2070023,,,,,,,2022-02-21,1,,,,,ダイキフィットネス,0
344,2020001145328,新規,0,2022-02-21,2022-02-21,株式会社Ｂｏａｄ　Ｒａｉｌ,,株式会社,神奈川県,横浜市西区,北幸１丁目１１番１号水信ビル７階,,14,103,2200004,,,,,,,2022-02-21,1,,,,,ボードレイル,0
345,2020002029876,新規,0,2022-02-21,2022-02-21,有限会社コウキ商会,,有限会社,神奈川県,横浜市南区,東蒔田町３番地の１３,,14,105,2320045,,,,,,,2022-02-21,1,,,,,コウキショウカイ,0
351,2021003011419,新規,0,2022-02-21,2022-02-21,合同会社ＫＫＪ,,合同会社,神奈川県,鎌倉市,雪ノ下３丁目４番２号,,14,204,2480005,,,,,,,2022-02-21,1,,,,,ケイケイジェイ,0
359,2030001146894,新規,0,2022-02-21,2022-02-21,株式会社共栄,,株式会社,埼玉県,日高市,大字田波目６３８番地５,,11,242,3501201,,,,,,,2022-02-21,1,,,,,キョウエイ,0
374,2040001122300,新規,0,2022-02-21,2022-02-21,株式会社坂宮建工,,株式会社,千葉県,柏市,高田５０２番地２,,12,217,2770861,,,,,,,2022-02-21,1,,,,,サカミヤケンコウ,0
377,2040003019528,新規,0,2022-02-21,2022-02-21,合同会社ＳＴＡＴＵＳ,,合同会社,千葉県,八千代市,高津５７７番地３,,12,221,2760036,,,,,,,2022-02-21,1,,,,,ステータス,0
378,2040003019536,新規,0,2022-02-21,2022-02-21,合同会社ｉｎｒｉｃｈ,,合同会社,千葉県,いすみ市,岬町椎木４６２番地１ステラハイムＢ棟,,12,238,2994501,,,,,,,2022-02-21,1,,,,,インリッチ,0
380,2060001034592,新規,0,2022-02-21,2022-02-21,株式会社Ｔｈｏｕｓａｎｄ　Ｌｉｇｈｔ,,株式会社,栃木県,宇都宮市,西１丁目３番３７号,,09,201,3200861,,,,,,,2022-02-21,1,,,,,サウザンドライト,0
388,2100001035082,新規,0,2022-02-21,2022-02-21,株式会社英組,,株式会社,長野県,松本市,大手１丁目１番２２－２０２号,,20,202,3900874,,,,,,,2022-02-21,1,,,,,ヒデグミ,0
393,2110001036443,新規,0,2022-02-21,2022-02-21,株式会社スタイルアーツ,,株式会社,新潟県,長岡市,大手通２丁目２番地６,,15,202,9400062,,,,,,,2022-02-21,1,,,,,スタイルアーツ,0
394,2110001036451,新規,0,2022-02-21,2022-02-21,株式会社ライフサービス,,株式会社,新潟県,新潟市中央区,鐙２丁目９番１８号ラ・スールＩ１０２号,00125756,15,103,9500913,,,,,,,2022-02-21,1,,,,,ライフサービス,0
403,2120001243922,新規,0,2022-02-21,2022-02-21,株式会社ＡＧＵＳ,,株式会社,大阪府,大阪市東淀川区,小松１丁目９番１２号中村ビル２階,,27,114,5330004,,,,,,,2022-02-21,1,,,,,エイガス,0
404,2120001243939,新規,0,2022-02-21,2022-02-21,株式会社Ｆｏｒｃｅ,,株式会社,大阪府,大阪市浪速区,幸町３丁目５番２４－５０６号,,27,111,5560021,,,,,,,2022-02-21,1,,,,,フォース,0
405,2120001243963,新規,0,2022-02-21,2022-02-21,株式会社メディカルアソシエイツラボ,,株式会社,大阪府,大阪市中央区,南本町２丁目２番３号本町ＵＮＩＣＯビル２階,,27,128,5410054,,,,,,,2022-02-21,1,,,,,メディカルアソシエイツラボ,0
410,2120901045583,新規,0,2022-02-21,2022-02-21,株式会社Ｅｍｏｔｉｏｎａｌ,,株式会社,大阪府,池田市,槻木町２番７－１－５１９号,,27,204,5630057,,,,,,,2022-02-21,1,,,,,エモーショナル,0
411,2120901045617,新規,0,2022-02-21,2022-02-21,ＭＭ作業株式会社,,株式会社,大阪府,摂津市,東一津屋１５番１４－２０６号,,27,224,5660074,,,,,,,2022-02-21,1,,,,,エムエムサギョウ,0
415,2130001071158,新規,0,2022-02-21,2022-02-21,株式会社京都レジン,,株式会社,京都府,宇治市,伊勢田町浮面３２番地の３,,26,204,6110043,,,,,,,2022-02-21,1,,,,,キョウトレジン,0
418,2130003007770,新規,0,2022-02-21,2022-02-21,合同会社ＴＯＥＫＯＭＳＴ,,合同会社,京都府,京都市東山区,上馬町５３５番地,,26,105,6050927,,,,,,,2022-02-21,1,,,,,トゥッコムスト,0
422,2140001124947,新規,0,2022-02-21,2022-02-21,株式会社ＯＷＮＡＸＩＳＳ,,株式会社,兵庫県,神戸市中央区,江戸町１０４江戸町１０４ビル５Ｆ５０２号,,28,110,6500033,,,,,,,2022-02-21,1,,,,,オウンアクシス,0
423,2150001025351,新規,0,2022-02-21,2022-02-21,株式会社Ｒｈサポート,,株式会社,奈良県,奈良市,朱雀１丁目３番地の２,,29,201,6310806,,,,,,,2022-02-21,1,,,,,アールエイチサポート,0
425,2160001023998,新規,0,2022-02-21,2022-02-21,株式会社ＴＳＫ,,株式会社,滋賀県,彦根市,古沢町４９４番地,,25,202,5220007,,,,,,,2022-02-21,1,,,,,ティエスケー,0
431,2180001150031,新規,0,2022-02-21,2022-02-21,宮崎コンサルタント株式会社,,株式会社,愛知県,名古屋市中区,栄５丁目２６番３９号ＧＳ栄ビル３Ｆ,,23,106,4600008,,,,,,,2022-02-21,1,,,,,ミヤザキコンサルタント,0
432,2180001150080,新規,0,2022-02-21,2022-02-21,株式会社ドリーム,,株式会社,愛知県,名古屋市中川区,西伏屋３丁目２０１番地,,23,110,4540982,,,,,,,2022-02-21,1,,,,,ドリーム,0
435,2180003023508,新規,0,2022-02-21,2022-02-21,合同会社ＫＡＲＮＡＳ,,合同会社,愛知県,春日井市,八田町７丁目１番地２９,,23,206,4860849,,,,,,,2022-02-21,1,,,,,カルナス,0
445,2200001039759,新規,0,2022-02-21,2022-02-21,株式会社メディカルタスカル,,株式会社,岐阜県,多治見市,赤坂町３丁目１１７－１ブランメゾン赤坂２０５,,21,204,5070057,,,,,,,2022-02-21,1,,,,,メディカルタスカル,0
447,2200003005461,新規,0,2022-02-21,2022-02-21,合同会社Ｂｉａｎｃｏ　ｅ　ｎｅｒｏ,,合同会社,岐阜県,加茂郡坂祝町,勝山２０９番地３,,21,501,5050076,,,,,,,2022-02-21,1,,,,,ビアンコネロ,0
449,2220001024701,新規,0,2022-02-21,2022-02-21,株式会社ＷＳ,,株式会社,石川県,金沢市,八日市５丁目５４６番地,,17,201,9218064,,,,,,,2022-02-21,1,,,,,ダブルエス,0
453,2230001019238,新規,0,2022-02-21,2022-02-21,みけねこ運送株式会社,,株式会社,富山県,富山市,高木南６０番地１１９,,16,201,9300106,,,,,,,2022-02-21,1,,,,,ミケネコウンソウ,0
454,2230003001805,新規,0,2022-02-21,2022-02-21,ＢＲｔｙｒｅ合同会社,,合同会社,富山県,射水市,津幡江１１８番地,,16,211,9340038,,,,,,,2022-02-21,1,,,,,ビーアールタイヤ,0
461,2260003003807,新規,0,2022-02-21,2022-02-21,合同会社Ｔｃｏｎｎｅｃｔ,,合同会社,岡山県,倉敷市,笹沖４７７番地２７,,33,202,7100834,,,,,,,2022-02-21,1,,,,,ティーコネクト,0
463,2280001008640,新規,0,2022-02-21,2022-02-21,おおなんきらりエネルギー株式会社,,株式会社,島根県,邑智郡邑南町,矢上６０００番地,,32,449,6960103,,,,,,,2022-02-21,1,,,,,オオナンキラリエネルギー,0
468,2290001096503,新規,0,2022-02-21,2022-02-21,株式会社ＫＡＣＨＩ,,株式会社,福岡県,福岡市博多区,千代４丁目２９－４９－５０５,,40,132,8120044,,,,,,,2022-02-21,1,,,,,カチ,0
469,2290003012152,新規,0,2022-02-21,2022-02-21,合同会社ＧＯＬＤ,,合同会社,福岡県,福岡市中央区,大名１丁目１２－６６ＢＭナカムラビル３Ｆ,,40,133,8100041,,,,,,,2022-02-21,1,,,,,ゴールド,0
470,2290003012177,新規,0,2022-02-21,2022-02-21,合同会社Ｅｖｅｒｙｏｎｅ,,合同会社,福岡県,福岡市中央区,地行２丁目１２番３４－４０９号,,40,133,8100064,,,,,,,2022-02-21,1,,,,,エブリワン,0
471,2290801028267,新規,0,2022-02-21,2022-02-21,株式会社ネクスト総合企画,,株式会社,福岡県,直方市,大字永満寺２４７７番地８,,40,204,8220005,,,,,,,2022-02-21,1,,,,,ネクストソウゴウキカク,0
473,2300001012813,新規,0,2022-02-21,2022-02-21,株式会社ｉＣｌｏｖｅｒ,,株式会社,佐賀県,武雄市,北方町大字大崎１６２９番地３４,,41,206,8492204,,,,,,,2022-02-21,1,,,,,アイクローバー,0
474,2310003004279,新規,0,2022-02-21,2022-02-21,合同会社くすのき,,合同会社,長崎県,大村市,玖島２丁目６６８番地４,,42,205,8560834,,,,,,,2022-02-21,1,,,,,クスノキ,0
476,2320001018908,新規,0,2022-02-21,2022-02-21,オーエムアール・ライジング株式会社,,株式会社,大分県,大分市,城崎町３丁目２番３３－１２０４号アルファステイツ城崎,,44,201,8700045,,,,,,,2022-02-21,1,,,,,オーエムアールライジング,0
477,2320003003734,新規,0,2022-02-21,2022-02-21,合同会社ｕｎｄｒｏｉｄ,,合同会社,大分県,大分市,大道町２丁目７番３０号アンバサダー豊栄２０７,,44,201,8700822,,,,,,,2022-02-21,1,,,,,アンドロイド,0
478,2320005009969,新規,0,2022-02-21,2022-02-21,一般社団法人くすここのえ産直ネット,,その他の設立登記法人,大分県,玖珠郡玖珠町,大字山田２０４８番地の２,,44,462,8794412,,,,,,,2022-02-21,1,,,,,クスココノエサンチョクネット,0
486,2350001017592,新規,0,2022-02-21,2022-02-21,ＩＮＶＥＧＧ株式会社,,株式会社,宮崎県,児湯郡都農町,大字川北２０２４６番地３,,45,406,8891201,,,,,,,2022-02-21,1,,,,,インヴェッグ,0
487,2350003004028,新規,0,2022-02-21,2022-02-21,合同会社ｇｒｏｏｖｅ,,合同会社,宮崎県,宮崎市,橘通東３丁目７　１５ＴＲストーンビル４Ｆ,,45,201,8800805,,,,,,,2022-02-21,1,,,,,グルーヴ,0
493,2400003002901,新規,0,2022-02-21,2022-02-21,合同会社ストルーチェ,,合同会社,岩手県,盛岡市,津志田南３丁目８番８号,,03,201,0200839,,,,,,,2022-02-21,1,,,,,ストルーチェ,0
495,2410005006453,新規,0,2022-02-21,2022-02-21,農事組合法人ハシモトファーム,,その他の設立登記法人,秋田県,秋田市,仁井田字横山１２１番地,,05,201,0101423,,,,,,,2022-02-21,1,,,,,ハシモトファーム,0
502,2430001086019,新規,0,2022-02-21,2022-02-21,株式会社ＯＮＥ,,株式会社,北海道,札幌市南区,南沢六条３丁目４番３号,,01,106,0050826,,,,,,,2022-02-21,1,,,,,ワン,0
503,2430001086035,新規,0,2022-02-21,2022-02-21,株式会社幸真興業,,株式会社,北海道,石狩市,樽川三条２丁目４４番地スターヴィレッジＡ１０１号,,01,235,0613253,,,,,,,2022-02-21,1,,,,,コウシンコウギョウ,0
510,2470001018975,新規,0,2022-02-21,2022-02-21,株式会社柏原設備,,株式会社,香川県,丸亀市,川西町南１４１８番地５,,37,202,7630092,,,,,,,2022-02-21,1,,,,,カシハラセツビ,0
525,3010001224387,新規,0,2022-02-21,2022-02-21,株式会社Ｐｉｋａｗａｋａ,,株式会社,東京都,千代田区,九段南１丁目５－６りそな九段ビル５ＦＫＳフロア,,13,101,1020074,,,,,,,2022-02-21,1,,,,,ピカワカ,0
529,3010003037052,新規,0,2022-02-21,2022-02-21,Ｇｒｅｅｎｗｉｃｈ　Ｆｉｎａｎｃｉａｌ合同会社,,合同会社,東京都,文京区,小石川１丁目１１－１０,,13,105,1120002,,,,,,,2022-02-21,1,,,,,グリニッジファイナンシャル,0
536,3010401165660,新規,0,2022-02-21,2022-02-21,シンクエージェント株式会社,,株式会社,東京都,港区,赤坂４丁目８－１４赤坂坂東ビル６階,,13,103,1070052,,,,,,,2022-02-21,1,,,,,シンクエージェント,0
537,3010401165669,新規,0,2022-02-21,2022-02-21,Ｇｉｖｉｎ’Ｂａｃｋ株式会社,,株式会社,東京都,港区,北青山２丁目７－１３プラセオ青山ビル３階,,13,103,1070061,,,,,,,2022-02-21,1,,,,,ギビンバック,0
542,3010501048484,新規,0,2022-02-21,2022-02-21,株式会社イニシャルアール,,株式会社,東京都,台東区,西浅草３丁目７番９号１Ｆ,,13,106,1110035,,,,,,,2022-02-21,1,,,,,イニシャルアール,0
552,3010903007162,新規,0,2022-02-21,2022-02-21,テッドマーケティング合同会社,,合同会社,東京都,世田谷区,弦巻１丁目４番５号,,13,112,1540016,,,,,,,2022-02-21,1,,,,,テッドマーケティング,0
553,3010903007170,新規,0,2022-02-21,2022-02-21,Ｔｏｋｙｏ　Ｃｈａｉ　Ｐａｒｔｙ合同会社,,合同会社,東京都,世田谷区,上馬１丁目３２番１号ソウ三軒茶屋１３０２,,13,112,1540011,,,,,,,2022-02-21,1,,,,,トーキョーチャイパーティー,0
554,3010905004265,新規,0,2022-02-21,2022-02-21,尼田太陽光発電所一般社団法人,,その他の設立登記法人,東京都,世田谷区,経堂５丁目２０番７号,,13,112,1560052,,,,,,,2022-02-21,1,,,,,アマダタイヨウコウハツデンショ,0
565,3011001145680,新規,0,2022-02-21,2022-02-21,サーチ＆マッチ株式会社,,株式会社,東京都,渋谷区,神宮前４丁目９番１５号,,13,113,1500001,,,,,,,2022-02-21,1,,,,,サーチアンドマッチ,0
566,3011001145689,新規,0,2022-02-21,2022-02-21,株式会社Ｓｕｎｎｙ　Ｓｙｓｔｅｍ,,株式会社,東京都,渋谷区,渋谷２丁目１９－１５宮益坂ビルディング６０９,,13,113,1500002,,,,,,,2022-02-21,1,,,,,サニーシステム,0
567,3011001145788,新規,0,2022-02-21,2022-02-21,株式会社ＱＵＥＥＮＣＩＡ,,株式会社,東京都,渋谷区,神宮前６丁目２９番４号原宿ｋｏｍｉｙａビル,,13,113,1500001,,,,,,,2022-02-21,1,,,,,クイーンシア,0
568,3011001145838,新規,0,2022-02-21,2022-02-21,ＣＬＡｇｅｎｔ株式会社,,株式会社,東京都,渋谷区,道玄坂１丁目１０番８号渋谷道玄坂東急ビル２Ｆ－Ｃ,,13,113,1500043,,,,,,,2022-02-21,1,,,,,シーエルエージェント,0
574,3011401024030,新規,0,2022-02-21,2022-02-21,ＨＩＰ株式会社,,株式会社,東京都,板橋区,赤塚新町３丁目２６番８号トップ成増３１８,,13,119,1750093,,,,,,,2022-02-21,1,,,,,エイチアイピー,0
575,3011401024047,新規,0,2022-02-21,2022-02-21,株式会社ジョイライフ,,株式会社,東京都,板橋区,高島平５丁目３１番１５号,,13,119,1750082,,,,,,,2022-02-21,1,,,,,ジョイライフ,0
577,3011501027759,新規,0,2022-02-21,2022-02-21,株式会社ＳＨＩＯＮ,,株式会社,東京都,北区,上十条４丁目１０番７－３０２号,,13,117,1140034,,,,,,,2022-02-21,1,,,,,シオン,0
578,3011501027775,新規,0,2022-02-21,2022-02-21,株式会社ＧＴＲ,,株式会社,東京都,北区,中十条４丁目１４番７－６０１号秀和第２東十条レジデンス,,13,117,1140032,,,,,,,2022-02-21,1,,,,,ジーティーアール,0
584,3011701025067,新規,0,2022-02-21,2022-02-21,メノルカ株式会社,,株式会社,東京都,江戸川区,東葛西５丁目１０番１８号,,13,123,1340084,,,,,,,2022-02-21,1,,,,,メノルカ,0
588,3011801040354,新規,0,2022-02-21,2022-02-21,六水工業株式会社,,株式会社,東京都,足立区,西新井４丁目２６番３７号,,13,121,1230841,,,,,,,2022-02-21,1,,,,,ロクスイコウギョウ,0
600,3013301048687,新規,0,2022-02-21,2022-02-21,株式会社うさみＩＰラボ,,株式会社,東京都,豊島区,東池袋１丁目１７番１１号パークハイツ池袋１１０５号,,13,116,1700013,,,,,,,2022-02-21,1,,,,,ウサミアイピーラボ,0
608,3020001145277,新規,0,2022-02-21,2022-02-21,株式会社優清,,株式会社,神奈川県,横浜市戸塚区,原宿５丁目１１番１７号,,14,110,2450063,,,,,,,2022-02-21,1,,,,,ユウセイ,0
611,3020003021328,新規,0,2022-02-21,2022-02-21,合同会社Ｎｏｖａ－ｅｒａ,,合同会社,神奈川県,横浜市都筑区,北山田４丁目１５番１７号,,14,118,2240021,,,,,,,2022-02-21,1,,,,,ノヴァエラ,0
612,3020003021336,新規,0,2022-02-21,2022-02-21,合同会社Ｒｅａｌｌｙ　ｃｏｕｎｔｓ,,合同会社,神奈川県,横浜市磯子区,杉田１丁目２２番６号,,14,107,2350033,,,,,,,2022-02-21,1,,,,,リアリーカウンツ,0
613,3020005015393,新規,0,2022-02-21,2022-02-21,希望が丘あおば社会保険労務士法人,,その他の設立登記法人,神奈川県,横浜市旭区,東希望が丘２２３－１４,,14,112,2410826,,,,,,,2022-02-21,1,,,,,,0
616,3021001075217,新規,0,2022-02-21,2022-02-21,株式会社ｍａｋｉｎｏ商店,,株式会社,神奈川県,茅ヶ崎市,萩園１７３９番地４,,14,207,2530071,,,,,,,2022-02-21,1,,,,,マキノショウテン,0
617,3021001075225,新規,0,2022-02-21,2022-02-21,株式会社ＳＴＥＬＬＡ　ＦＩＯＲＥ,,株式会社,神奈川県,藤沢市,鵠沼桜が岡１丁目６番５号,00125757,14,205,2510027,,,,,,,2022-02-21,1,,,,,ステラフィオーレ,0
634,3030001146737,新規,0,2022-02-21,2022-02-21,バンソウ株式会社,,株式会社,埼玉県,入間郡三芳町,大字竹間沢４５１番地１－２１２,,11,324,3540043,,,,,,,2022-02-21,1,,,,,バンソウ,0
635,3030001146869,新規,0,2022-02-21,2022-02-21,株式会社ヤマタ,,株式会社,埼玉県,川口市,大字赤井１０９４番地,,11,203,3340073,,,,,,,2022-02-21,1,,,,,ヤマタ,0
636,3030001146877,新規,0,2022-02-21,2022-02-21,株式会社ＪＰ,,株式会社,埼玉県,さいたま市緑区,道祖土１丁目１９番２０号サイドガーデン東館１０１,,11,109,3360907,,,,,,,2022-02-21,1,,,,,ジェイピー,0
637,3030001146893,新規,0,2022-02-21,2022-02-21,株式会社ＢＯＷ,,株式会社,埼玉県,さいたま市浦和区,前地３丁目４－１２,,11,107,3300053,,,,,,,2022-02-21,1,,,,,バウ,0
638,3030001146910,新規,0,2022-02-21,2022-02-21,株式会社ＫＩＣＳ,,株式会社,埼玉県,さいたま市南区,白幡３丁目４番１４－６０１号,,11,108,3360022,,,,,,,2022-02-21,1,,,,,キックス,0
643,3030003018876,新規,0,2022-02-21,2022-02-21,Ｍ．Ｓ．Ｔ合同会社,,合同会社,埼玉県,北本市,石戸９丁目５７番地１,,11,233,3640024,,,,,,,2022-02-21,1,,,,,エムエスティー,0
649,3040001122274,新規,0,2022-02-21,2022-02-21,株式会社Ｗｏｎｒｅｖｏ,,株式会社,千葉県,柏市,若柴１７８番地４柏の葉キャンパス１４８街区１パークシティ柏の葉キャンパスザ・ゲートタワーウェスト３階,,12,217,2770871,,,,,,,2022-02-21,1,,,,,ワンレボ,0
650,3040001122282,新規,0,2022-02-21,2022-02-21,株式会社ひとやすみ,,株式会社,千葉県,船橋市,湊町１丁目２０番４号,,12,204,2730011,,,,,,,2022-02-21,1,,,,,ヒトヤスミ,0
655,3040003019519,新規,0,2022-02-21,2022-02-21,合同会社ＢＵＬＡ　Ｅａｒｔｈ,,合同会社,千葉県,船橋市,前原西１丁目２５番１５－１０３号,,12,204,2740825,,,,,,,2022-02-21,1,,,,,ブラアース,0
656,3050001050664,新規,0,2022-02-21,2022-02-21,株式会社ノーリー,,株式会社,茨城県,古河市,東牛谷１５５番地３,,08,204,3060232,,,,,,,2022-02-21,1,,,,,ノーリー,0
657,3050003006391,新規,0,2022-02-21,2022-02-21,合同会社シーケンス,,合同会社,茨城県,つくば市,上横場２３３２番１スマイランスＡＰ２０３号室,,08,220,3050854,,,,,,,2022-02-21,1,,,,,シーケンス,0
660,3060001034583,新規,0,2022-02-21,2022-02-21,株式会社ウインテック,,株式会社,栃木県,足利市,本城１丁目１４４７番地１３,,09,202,3260808,,,,,,,2022-02-21,1,,,,,ウインテック,0
661,3060001034591,新規,0,2022-02-21,2022-02-21,株式会社ＴＴカンパニー,,株式会社,栃木県,宇都宮市,竹下町１１０１番地２４,,09,201,3213236,,,,,,,2022-02-21,1,,,,,ティティカンパニー,0
663,3070001038963,新規,0,2022-02-21,2022-02-21,株式会社エクセレント・ワン,,株式会社,群馬県,前橋市,下川町４３番地９,,10,201,3792144,,,,,,,2022-02-21,1,,,,,エクセレントワン,0
666,3080001024772,新規,0,2022-02-21,2022-02-21,Ｓ‐Ｂｒｉｄｇｅ株式会社,,株式会社,静岡県,静岡市葵区,吉津５９０番地,,22,101,4211223,,,,,,,2022-02-21,1,,,,,エスブリッジ,0
670,3080003002735,新規,0,2022-02-21,2022-02-21,合同会社マルハナ設備,,合同会社,静岡県,榛原郡吉田町,神戸１６４５番地の１５,,22,424,4210304,,,,,,,2022-02-21,1,,,,,マルハナセツビ,0
672,3080405007431,新規,0,2022-02-21,2022-02-21,税理士法人からし種,,その他の設立登記法人,静岡県,浜松市中区,西浅田２丁目２番１８号,,22,131,4328045,,,,,,,2022-02-21,1,,,,,カラシタネ,0
673,3100001035081,新規,0,2022-02-21,2022-02-21,樹家株式会社,,株式会社,長野県,佐久市,原３９０番地２１,,20,217,3850052,,,,,,,2022-02-21,1,,,,,タツキヤ,0
690,3110005016762,新規,0,2022-02-21,2022-02-21,農事組合法人新農生産組合,,その他の設立登記法人,新潟県,胎内市,苔実１８番地,,15,227,9592721,,,,,,,2022-02-21,1,,,,,シンノウセイサンクミアイ,0
705,3120001243896,新規,0,2022-02-21,2022-02-21,Ｈｉｂｉ　Ｈｉｒｏａｋｉ株式会社,,株式会社,大阪府,大阪市北区,樋之口町１番２０－６０９号,,27,127,5300032,,,,,,,2022-02-21,1,,,,,ヒビヒロアキ,0
706,3120001243913,新規,0,2022-02-21,2022-02-21,株式会社ｃｌｏｖｅｒ,,株式会社,大阪府,大阪市平野区,平野宮町１丁目６番２－７０１号,,27,126,5470046,,,,,,,2022-02-21,1,,,,,クローバー,0
707,3120001243946,新規,0,2022-02-21,2022-02-21,株式会社自在空間,,株式会社,大阪府,大阪市住吉区,万代４丁目４番１８号,,27,120,5580055,,,,,,,2022-02-21,1,,,,,ジザイクウカン,0
708,3120001243970,新規,0,2022-02-21,2022-02-21,株式会社ハーパーズ,,株式会社,大阪府,大阪市浪速区,桜川２丁目２番２５－６０５号,,27,111,5560022,,,,,,,2022-02-21,1,,,,,ハーパーズ,0
709,3120003021144,新規,0,2022-02-21,2022-02-21,和歌山太陽光合同会社,,合同会社,大阪府,大阪市北区,中之島３丁目６番１６号,,27,127,5300005,,,,,,,2022-02-21,1,,,,,ワカヤマタイヨウコウ,0
713,3120901045590,新規,0,2022-02-21,2022-02-21,株式会社千里丘ＦＣアカデミー,,株式会社,大阪府,吹田市,青葉丘北一丁目４番,,27,205,5650801,,,,,,,2022-02-21,1,,,,,センリオカエフシーアカデミー,0
714,3120901045616,新規,0,2022-02-21,2022-02-21,株式会社ｙｕｓｅｉ,,株式会社,大阪府,高槻市,氷室町１丁目３番６号の１,,27,207,5691141,,,,,,,2022-02-21,1,,,,,ユウセイ,0
715,3120901045624,新規,0,2022-02-21,2022-02-21,株式会社中日カＣＪＣ商会,,株式会社,大阪府,豊中市,庄内西町２丁目２６番９号（２Ｆ）,,27,203,5610832,,,,,,,2022-02-21,1,,,,,チュウニチカシージェイシーショウカイ,0
717,3120903004041,新規,0,2022-02-21,2022-02-21,合同会社サライ,,合同会社,大阪府,池田市,呉服町２番２０号クレハ２２０－６０２号,,27,204,5630048,,,,,,,2022-02-21,1,,,,,サライ,0
729,3140001124979,新規,0,2022-02-21,2022-02-21,株式会社ハナイチ,,株式会社,兵庫県,尼崎市,潮江１丁目２０番１－８０４,,28,202,6610976,,,,,,,2022-02-21,1,,,,,ハナイチ,0
730,3140001124987,新規,0,2022-02-21,2022-02-21,株式会社Ｆｏｒ　Ｅｔｅｒｎａｌ,,株式会社,兵庫県,西宮市,今津水波町８番５－４０４号,,28,204,6638215,,,,,,,2022-02-21,1,,,,,フォーエターナル,0
735,3150001025342,新規,0,2022-02-21,2022-02-21,株式会社創建,,株式会社,奈良県,生駒市,有里町１７番地９フラワリータウンＡ－４０３,,29,209,6300233,,,,,,,2022-02-21,1,,,,,ソウケン,0
745,3180001150030,新規,0,2022-02-21,2022-02-21,名陽株式会社,,株式会社,愛知県,名古屋市中川区,大畑町１丁目４８番地,,23,110,4540843,,,,,,,2022-02-21,1,,,,,メイヨウ,0
746,3180001150039,新規,0,2022-02-21,2022-02-21,株式会社ノスタルジア,,株式会社,愛知県,名古屋市中区,丸の内３丁目７番２６号,,23,106,4600002,,,,,,,2022-02-21,1,,,,,ノスタルジア,0
747,3180001150055,新規,0,2022-02-21,2022-02-21,Ｍ＆Ｍ株式会社,,株式会社,愛知県,名古屋市千種区,千種３丁目３５番１０号,,23,101,4640858,,,,,,,2022-02-21,1,,,,,エムアンドエム,0
750,3180005019643,新規,0,2022-02-21,2022-02-21,特定非営利活動法人愛知福祉事業支援友の会,,その他の設立登記法人,愛知県,名古屋市中区,丸の内２丁目１７－１３ＮＫ丸の内ビル２Ｆ,,23,106,4600002,,,,,,,2022-02-21,1,,,,,アイチフクシジギョウシエントモノカイ,0
751,3180301035939,新規,0,2022-02-21,2022-02-21,アックスホーム株式会社,,株式会社,愛知県,みよし市,三好町弥栄１４番地１６,,23,236,4700224,,,,,,,2022-02-21,1,,,,,アックスホーム,0
753,3190001029141,新規,0,2022-02-21,2022-02-21,株式会社道輝工業,,株式会社,三重県,鈴鹿市,東庄内町３６１番地の１,,24,207,5190272,,,,,,,2022-02-21,1,,,,,ドウキコウギョウ,0
754,3200001039758,新規,0,2022-02-21,2022-02-21,株式会社安齋組,,株式会社,岐阜県,各務原市,三井北町１丁目３１６番地３,,21,213,5040956,,,,,,,2022-02-21,1,,,,,アンザイグミ,0
755,3200005013313,新規,0,2022-02-21,2022-02-21,特定非営利活動法人ホットスクエア,,その他の設立登記法人,岐阜県,岐阜市,茜部菱野４丁目９３番地,,21,201,5008268,,,,,,,2022-02-21,1,,,,,ホットスクエア,0
768,3240001059348,新規,0,2022-02-21,2022-02-21,株式会社Ｌｕｃｅ,,株式会社,広島県,広島市中区,新天地６番１号グランポルトビル６Ｆ,,34,101,7300034,,,,,,,2022-02-21,1,,,,,ルーチェ,0
770,3240003005507,新規,0,2022-02-21,2022-02-21,ラルゴ合同会社,,合同会社,広島県,広島市西区,庚午南１丁目２番２８－２１４号,,34,104,7330823,,,,,,,2022-02-21,1,,,,,ラルゴ,0
774,3290001096469,新規,0,2022-02-21,2022-02-21,株式会社ＳＰＤ,,株式会社,福岡県,太宰府市,大佐野２丁目１５番１号,,40,221,8180134,,,,,,,2022-02-21,1,,,,,エスピーディー,0
775,3290001096493,新規,0,2022-02-21,2022-02-21,ＫＷロジ株式会社,,株式会社,福岡県,福岡市東区,多の津４丁目１５番３４号,,40,131,8130034,,,,,,,2022-02-21,1,,,,,ケイダブリュロジ,0
776,3290001096502,新規,0,2022-02-21,2022-02-21,株式会社ウィリング・グループ,,株式会社,福岡県,久留米市,国分町１４９２番地１０,,40,203,8390863,,,,,,,2022-02-21,1,,,,,ウィリンググループ,0
777,3290001096510,新規,0,2022-02-21,2022-02-21,ララクルジャパン株式会社,,株式会社,福岡県,福岡市南区,大橋３丁目２４番１号,,40,134,8150033,,,,,,,2022-02-21,1,,,,,ララクルジャパン,0
780,3290005018568,新規,0,2022-02-21,2022-02-21,一般社団法人ＣＦＴいとしま,,その他の設立登記法人,福岡県,糸島市,前原中央２丁目１３番３号,,40,230,8191116,,,,,,,2022-02-21,1,,,,,シーエフティーイトシマ,0
782,3290801028266,新規,0,2022-02-21,2022-02-21,株式会社明光,,株式会社,福岡県,北九州市八幡西区,西川頭町７番２６号,,40,109,8060017,,,,,,,2022-02-21,1,,,,,メイコウ,0
783,3290803004067,新規,0,2022-02-21,2022-02-21,くりぷろスタジオ合同会社,,合同会社,福岡県,北九州市小倉南区,徳力新町１丁目１７番２４号,,40,107,8020979,,,,,,,2022-02-21,1,,,,,クリプロスタジオ,0
785,3300001012812,新規,0,2022-02-21,2022-02-21,ＥＮＥＧＧＯ株式会社,,株式会社,佐賀県,佐賀市,鍋島町大字蛎久１５３９番地１,,41,201,8490931,,,,,,,2022-02-21,1,,,,,エネゴ,0
787,3330001029457,新規,0,2022-02-21,2022-02-21,株式会社Ｈａｐｐｉｎｅｓｓ　Ｔｒａｄｅ,,株式会社,熊本県,熊本市中央区,上水前寺１丁目５番２１ー１３０２号,,43,101,8620951,,,,,,,2022-02-21,1,,,,,ハピネストレード,0
789,3330003009250,新規,0,2022-02-21,2022-02-21,合同会社ＥＧＳ,,合同会社,熊本県,阿蘇郡南阿蘇村,大字河陽５９５３番地１,,43,433,8691404,,,,,,,2022-02-21,1,,,,,イージーエス,0
790,3330005010470,新規,0,2022-02-21,2022-02-21,一般社団法人ウラニワ,,その他の設立登記法人,熊本県,阿蘇郡南小国町,大字赤馬場１８７４番地,,43,423,8692401,,,,,,,2022-02-21,1,,,,,ウラニワ,0
795,3360003011815,新規,0,2022-02-21,2022-02-21,合同会社沖縄産業,,合同会社,沖縄県,宜野湾市,我如古３丁目２２番８号丸廣アパート２０３号室,,47,205,9012214,,,,,,,2022-02-21,1,,,,,オキナワサンギョウ,0
799,3370003005592,新規,0,2022-02-21,2022-02-21,合同会社イビスコ,,合同会社,宮城県,仙台市青葉区,山手町１１番５０－４０１号,,04,101,9810967,,,,,,,2022-02-21,1,,,,,イビスコ,0
804,3400003002900,新規,0,2022-02-21,2022-02-21,合同会社こむぎのぱん,,合同会社,岩手県,八幡平市,大更第２１地割９０番地１Ｒ川村１４,,03,214,0287111,,,,,,,2022-02-21,1,,,,,コムギノパン,0
806,3410003003617,新規,0,2022-02-21,2022-02-21,虎ノ口ウェルスマネジメント合同会社,,合同会社,秋田県,秋田市,楢山登町３番１２－２号,,05,201,0100021,,,,,,,2022-02-21,1,,,,,トラノクチウェルスマネジメント,0
809,3430001086034,新規,0,2022-02-21,2022-02-21,株式会社Ｏｃｅａｎ’ｓＣｏｎｓｕｌｔｉｎｇ　Ｆｉｒｍ,,株式会社,北海道,札幌市中央区,伏見２丁目４番１号,,01,101,0640942,,,,,,,2022-02-21,1,,,,,オーシャンズコンサルティングファーム,0
813,3460103001425,新規,0,2022-02-21,2022-02-21,合同会社フィッシュ・ボーン,,合同会社,北海道,帯広市,自由が丘２丁目１１番地１６,,01,207,0800848,,,,,,,2022-02-21,1,,,,,フィッシュボーン,0
816,3470001018974,新規,0,2022-02-21,2022-02-21,株式会社ロバスト,,株式会社,香川県,高松市,伏石町２０９０番地１７,,37,201,7618071,,,,,,,2022-02-21,1,,,,,ロバスト,0
820,3490005006825,新規,0,2022-02-21,2022-02-21,農事組合法人黒尊川営農組合,,その他の設立登記法人,高知県,四万十市,西土佐奥屋内２０６番地２,,39,210,7871326,,,,,,,2022-02-21,1,,,,,クロソンガワエイノウクミアイ,0
821,3500001024011,新規,0,2022-02-21,2022-02-21,株式会社東予アンカーサービス,,株式会社,愛媛県,新居浜市,庄内町６丁目１１番３１号,,38,205,7920811,,,,,,,2022-02-21,1,,,,,トウヨアンカーサービス,0
826,3700150107042,新規,0,2022-02-21,2022-02-15,栃木県立県央産業技術専門校　技術研究部会,,その他,栃木県,宇都宮市,平出工業団地４８－４,,09,201,3210905,,,,,,,2022-02-15,1,,,,,トチギケンリツケンオウサンギヨウギジユツセンモンコウギジユツケンキユウブカイ,0
831,4010001224460,新規,0,2022-02-21,2022-02-21,株式会社ＧｏＭｅＴｏ,,株式会社,東京都,千代田区,九段南１丁目５番６号りそな九段ビル５Ｆ・ＫＳフロア,,13,101,1020074,,,,,,,2022-02-21,1,,,,,ゴメイトウ,0
832,4010001224601,新規,0,2022-02-21,2022-02-21,株式会社Ｆｉｌｉｘ,,株式会社,東京都,中央区,銀座１丁目１２－４Ｎ＆Ｅ・ＢＬＤ．７階,,13,102,1040061,,,,,,,2022-02-21,1,,,,,フィリックス,0
833,4010001224683,新規,0,2022-02-21,2022-02-21,株式会社集英社ゲームズ,,株式会社,東京都,千代田区,神田神保町３丁目１７番１号,,13,101,1010051,,,,,,,2022-02-21,1,,,,,シュウエイシャゲームズ,0
834,4010001224700,新規,0,2022-02-21,2022-02-21,株式会社ＲｉｓｋＴａｋｅｒ　Ｖｅｎｔｕｒｅｓ,,株式会社,東京都,中央区,銀座６丁目１０番１号,,13,102,1040061,,,,,,,2022-02-21,1,,,,,リスクテイカーベンチャーズ,0
835,4010001224725,新規,0,2022-02-21,2022-02-21,アモス光機株式会社,,株式会社,東京都,中央区,日本橋２丁目１番１７号丹生ビル２階,,13,102,1030027,,,,,,,2022-02-21,1,,,,,アモスコウキ,0
836,4010003037043,新規,0,2022-02-21,2022-02-21,Ｍ－ＳＭＹインベストメント合同会社,,合同会社,東京都,中央区,日本橋１丁目４番１号,,13,102,1030027,,,,,,,2022-02-21,1,,,,,エムエスエムワイインベストメント,0
839,4010005034600,新規,0,2022-02-21,2022-02-21,一般社団法人ライソゾーム病早期診断コンソーシアム,,その他の設立登記法人,東京都,中央区,日本橋人形町１丁目６番１０号,,13,102,1030013,,,,,,,2022-02-21,1,,,,,ライソゾームビョウソウキシンダンコンソーシアム,0
840,4010005034625,新規,0,2022-02-21,2022-02-21,一般社団法人補助人工心臓治療関連学会協議会,,その他の設立登記法人,東京都,文京区,後楽２丁目３番２７号テラル後楽ビル１階,,13,105,1120004,,,,,,,2022-02-21,1,,,,,ホジョジンコウシンゾウチリョウカンレンガッカイキョウギカイ,0
844,4010401165668,新規,0,2022-02-21,2022-02-21,株式会社サマント,,株式会社,東京都,港区,南青山２丁目２番１５号,,13,103,1070062,,,,,,,2022-02-21,1,,,,,サマント,0
849,4010501048483,新規,0,2022-02-21,2022-02-21,株式会社デジタルブリッジ,,株式会社,東京都,台東区,上野３丁目１４番２号,,13,106,1100005,,,,,,,2022-02-21,1,,,,,デジタルブリッジ,0
851,4010601060677,新規,0,2022-02-21,2022-02-21,株式会社ピコディ,,株式会社,東京都,墨田区,太平３丁目１１番２号,,13,107,1300012,,,,,,,2022-02-21,1,,,,,ピコディ,0
861,4011001145622,新規,0,2022-02-21,2022-02-21,株式会社Ｐｒｏｃｌａｓｉｓ,,株式会社,東京都,渋谷区,恵比寿２丁目２８－１０秀ビル,,13,113,1500013,,,,,,,2022-02-21,1,,,,,プロクレーシス,0
862,4011001145639,新規,0,2022-02-21,2022-02-21,株式会社ＢＹＳ,,株式会社,東京都,渋谷区,道玄坂１丁目１０番８号渋谷道玄坂東急ビル２Ｆ－Ｃ,,13,113,1500043,,,,,,,2022-02-21,1,,,,,ビーワイエス,0
863,4011001145705,新規,0,2022-02-21,2022-02-21,株式会社ｉｔｏｈａ,,株式会社,東京都,渋谷区,神宮前６丁目２３－４桑野ビル２階,,13,113,1500001,,,,,,,2022-02-21,1,,,,,イトハ,0
864,4011001145746,新規,0,2022-02-21,2022-02-21,Ｔｅｒｒａ　Ｇｌｏｂａｌ株式会社,,株式会社,東京都,渋谷区,道玄坂１丁目１９番９号第一暁ビル５階,,13,113,1500043,,,,,,,2022-02-21,1,,,,,テラグローバル,0
865,4011001145754,新規,0,2022-02-21,2022-02-21,ＡＭＡＮＴＥ株式会社,,株式会社,東京都,渋谷区,宇田川町３６番２号ノア渋谷１３０１,,13,113,1500042,,,,,,,2022-02-21,1,,,,,アマンテ,0
866,4011001145795,新規,0,2022-02-21,2022-02-21,株式会社メタビューティー,,株式会社,東京都,渋谷区,神宮前６丁目２９番４号原宿ｋｏｍｉｙａビル,,13,113,1500001,,,,,,,2022-02-21,1,,,,,メタビューティー,0
867,4011001145812,新規,0,2022-02-21,2022-02-21,ＴＷＨ株式会社,,株式会社,東京都,渋谷区,恵比寿４丁目２０番４号恵比寿ガーデンプレイスグラススクエアＢ１Ｆ．ＰＯＲＴＡＬ．ＰＯＩＮＴ．Ｅｂｉｓｕ．ＬＢ－１２,,13,113,1500013,,,,,,,2022-02-21,1,,,,,ティーダブリューエイチ,0
868,4011003014189,新規,0,2022-02-21,2022-02-21,Ｊ．Ｎ　Ｂｅａｕｔｙ合同会社,,合同会社,東京都,渋谷区,神宮前６丁目２３番４号桑野ビル２階,,13,113,1500001,,,,,,,2022-02-21,1,,,,,ジェイエヌビューティー,0
871,4011201023660,新規,0,2022-02-21,2022-02-21,株式会社コッペパン,,株式会社,東京都,中野区,白鷺２丁目１３白鷺ハイム３－３０７,,13,114,1650035,,,,,,,2022-02-21,1,,,,,コッペパン,0
876,4011601025752,新規,0,2022-02-21,2022-02-21,株式会社アイディールノ,,株式会社,東京都,練馬区,石神井台６丁目８番２号,,13,120,1770045,,,,,,,2022-02-21,1,,,,,アイディールノ,0
881,4011801040361,新規,0,2022-02-21,2022-02-21,株式会社絆心,,株式会社,東京都,足立区,加賀２丁目２６番１７号,,13,121,1230861,,,,,,,2022-02-21,1,,,,,キズナ,0
883,4011803004975,新規,0,2022-02-21,2022-02-21,ウィウトコーポレーション合同会社,,合同会社,東京都,葛飾区,東水元４丁目６番１０号,,13,122,1250033,,,,,,,2022-02-21,1,,,,,ウィウトコーポレーション,0
887,4012701016939,新規,0,2022-02-21,2022-02-21,株式会社サンライズネクスト,,株式会社,東京都,西東京市,田無町３丁目５番５－６０１号,,13,229,1880011,,,,,,,2022-02-21,1,,,,,サンライズネクスト,0
894,4020001145318,新規,0,2022-02-21,2022-02-21,株式会社Ｌｕｓｔａｒ,,株式会社,神奈川県,横浜市泉区,緑園４丁目２番地の１サンステージ緑園都市６番館８０６号,,14,116,2450002,,,,,,,2022-02-21,1,,,,,ラスター,0
912,4030001146827,新規,0,2022-02-21,2022-02-21,株式会社ＴＯＭＩ,,株式会社,埼玉県,蕨市,南町４丁目１８番１５－７０８号,,11,223,3350003,,,,,,,2022-02-21,1,,,,,トミ,0
913,4030001146851,新規,0,2022-02-21,2022-02-21,株式会社海洋ＲＫ,,株式会社,埼玉県,春日部市,藤塚３８３番地３,,11,214,3440011,,,,,,,2022-02-21,1,,,,,カイヨウアールケイ,0
914,4030001146884,新規,0,2022-02-21,2022-02-21,株式会社ムツミモーダル,,株式会社,埼玉県,坂戸市,関間４丁目４番３１号,,11,239,3500215,,,,,,,2022-02-21,1,,,,,ムツミモーダル,0
915,4030001146892,新規,0,2022-02-21,2022-02-21,株式会社ＯＬＡＳ・ＨＡＮＤ,,株式会社,埼玉県,三郷市,戸ケ崎３０９０番地１９９,,11,237,3410044,,,,,,,2022-02-21,1,,,,,オラスハンド,0
920,4030003018883,新規,0,2022-02-21,2022-02-21,合同会社Ｇｏｌｄ　Ｍｉｎｅ　Ｓｔｒｉｋｅｒ,,合同会社,埼玉県,志木市,本町４丁目１１番６号,,11,228,3530004,,,,,,,2022-02-21,1,,,,,ゴールドマインストライカー,0
922,4040001122199,新規,0,2022-02-21,2022-02-21,株式会社市原土木設計,,株式会社,千葉県,市原市,五井中央東２丁目２３番地１２,,12,219,2900054,,,,,,,2022-02-21,1,,,,,イチハラドボクセッケイ,0
932,4040003019534,新規,0,2022-02-21,2022-02-21,合同会社後藤工業,,合同会社,千葉県,松戸市,松戸新田４１４番地の１レオパレスワールド松戸新田２０２号,,12,207,2702241,,,,,,,2022-02-21,1,,,,,,0
933,4050001050663,新規,0,2022-02-21,2022-02-21,株式会社常州,,株式会社,茨城県,ひたちなか市,阿字ケ浦町字西永山１９７９番地１,,08,221,3111201,,,,,,,2022-02-21,1,,,,,ジョウシュウ,0
938,4060001034590,新規,0,2022-02-21,2022-02-21,ＹＨＦ株式会社,,株式会社,栃木県,小山市,東城南５丁目３５番地３３,,09,208,3230829,,,,,,,2022-02-21,1,,,,,ワイエイチエフ,0
940,4070003004392,新規,0,2022-02-21,2022-02-21,合同会社オフィスサミー,,合同会社,群馬県,太田市,高林東町１２５６番地６,,10,205,3730825,,,,,,,2022-02-21,1,,,,,オフィスサミー,0
943,4080401025634,新規,0,2022-02-21,2022-02-21,ＡＬＢＡ株式会社,,株式会社,静岡県,浜松市浜北区,寺島２５６０番地,,22,136,4340035,,,,,,,2022-02-21,1,,,,,アルバ,0
945,4100001035080,新規,0,2022-02-21,2022-02-21,マッシュウェル株式会社,,株式会社,長野県,長野市,篠ノ井小松原２０２１番地１,,20,201,3812235,,,,,,,2022-02-21,1,,,,,マッシュウェル,0
946,4100003006419,新規,0,2022-02-21,2022-02-21,合同会社ＳＨＡＣＨＩ,,合同会社,長野県,上田市,中央２丁目８－１,,20,203,3860012,,,,,,,2022-02-21,1,,,,,シャチ,0
959,4120001243862,新規,0,2022-02-21,2022-02-21,大成産業株式会社,,株式会社,大阪府,大阪市生野区,鶴橋５丁目１２番５号,,27,116,5440031,,,,,,,2022-02-21,1,,,,,タイセイサンギョウ,0
960,4120001243912,新規,0,2022-02-21,2022-02-21,恒鼎株式会社,,株式会社,大阪府,大阪市西区,立売堀１丁目４番１２号,,27,106,5500012,,,,,,,2022-02-21,1,,,,,コウテイ,0
961,4120005022809,新規,0,2022-02-21,2022-02-21,一般社団法人ウェブマーケティング協会,,その他の設立登記法人,大阪府,大阪市東成区,神路１丁目１番３号ディアコート・Ｆ２０１号,,27,115,5370003,,,,,,,2022-02-21,1,,,,,ウェブマーケティングキョウカイ,0
964,4120101065100,新規,0,2022-02-21,2022-02-21,片山工業株式会社,,株式会社,大阪府,泉南市,岡田６丁目３１－１９,,27,228,5900531,,,,,,,2022-02-21,1,,,,,カタヤマコウギョウ,0
968,4120903004040,新規,0,2022-02-21,2022-02-21,合同会社サン・サン,,合同会社,大阪府,高槻市,真上町１丁目１番１４号,,27,207,5691121,,,,,,,2022-02-21,1,,,,,サンサン,0
969,4122001035595,新規,0,2022-02-21,2022-02-21,株式会社ヒルノ,,株式会社,大阪府,八尾市,明美町１丁目５番１２号,,27,212,5810087,,,,,,,2022-02-21,1,,,,,ヒルノ,0
971,4130001071164,新規,0,2022-02-21,2022-02-21,ＳＷＯＲＤ株式会社,,株式会社,京都府,京都市伏見区,深草西川原町２３番地２１,,26,109,6120009,,,,,,,2022-02-21,1,,,,,ソード,0
975,4140001124945,新規,0,2022-02-21,2022-02-21,株式会社ゴールドリゾート,,株式会社,兵庫県,芦屋市,奥池南町３２番２０号,,28,206,6590004,,,,,,,2022-02-21,1,,,,,ゴールドリゾート,0
976,4140001124978,新規,0,2022-02-21,2022-02-21,株式会社Ｎｏａｈｒ,,株式会社,兵庫県,たつの市,誉田町内山４３番地３,,28,229,6794131,,,,,,,2022-02-21,1,,,,,ノアール,0
977,4140001124994,新規,0,2022-02-21,2022-02-21,株式会社ラクリアル,,株式会社,兵庫県,神戸市須磨区,外浜町２丁目５番８－２０３号,,28,107,6540043,,,,,,,2022-02-21,1,,,,,ラクリアル,0
979,4140003017362,新規,0,2022-02-21,2022-02-21,合同会社ハナサイエンス,,合同会社,兵庫県,西宮市,松原町７－８,,28,204,6620912,,,,,,,2022-02-21,1,,,,,ハナサイエンス,0
985,4170001016982,新規,0,2022-02-21,2022-02-21,ＭＫ板金株式会社,,株式会社,和歌山県,和歌山市,毛見４３０－１２,,30,201,6410014,,,,,,,2022-02-21,1,,,,,エムケイバンキン,0
988,4180001150054,新規,0,2022-02-21,2022-02-21,株式会社ＮＡ総合経営,,株式会社,愛知県,東海市,富木島町新藤棚７７番地の１,,23,222,4760011,,,,,,,2022-02-21,1,,,,,エヌエーソウゴウケイエイ,0
990,4180005019642,新規,0,2022-02-21,2022-02-21,ＩＢＳ国際支援事業協同組合,,その他の設立登記法人,愛知県,一宮市,小信中島字仁井北２６１２番地の５,,23,203,4940007,,,,,,,2022-02-21,1,,,,,アイビーエスコクサイシエンギョウ,0
992,4180301035946,新規,0,2022-02-21,2022-02-21,株式会社ＶＩＳＡＬＡ,,株式会社,愛知県,碧南市,栄町４丁目２７番地第二むつみ荘１階１‐Ｃ号,,23,209,4470877,,,,,,,2022-02-21,1,,,,,,0
998,4200001039757,新規,0,2022-02-21,2022-02-21,株式会社ＫＩＮＧ　ＩＮＴＥＲＮＡＴＩＯＮＡＬ,,株式会社,岐阜県,不破郡関ケ原町,大字今須３３７５番地,,21,362,5031543,,,,,,,2022-02-21,1,,,,,キングインターナショナル,0
999,4200001039765,新規,0,2022-02-21,2022-02-21,ＷｏｏｄｙＲｉｃｈ株式会社,,株式会社,岐阜県,山県市,神崎１１８番地１,,21,215,5012301,,,,,,,2022-02-21,1,,,,,ウッディリッチ,0
1000,4220001024699,新規,0,2022-02-21,2022-02-21,金沢スターハイツ株式会社,,株式会社,石川県,金沢市,長土塀１丁目２番８号,,17,201,9200867,,,,,,,2022-02-21,1,,,,,カナザワスターハイツ,0
1003,4230001019244,新規,0,2022-02-21,2022-02-21,ＡＣＴ株式会社,,株式会社,富山県,富山市,下新本町３番３号２,,16,201,9300803,,,,,,,2022-02-21,1,,,,,アクト,0
1008,4240001059355,新規,0,2022-02-21,2022-02-21,株式会社オー・エー・ユー,,株式会社,広島県,広島市中区,東千田町１丁目１番１０４－３－１４０７号,,34,101,7300053,,,,,,,2022-02-21,1,,,,,オーエーユー,0
1016,4290801028273,新規,0,2022-02-21,2022-02-21,株式会社ｏｈａｎａ,,株式会社,福岡県,北九州市小倉南区,沼本町２丁目１番１８－７号,,40,107,8000208,,,,,,,2022-02-21,1,,,,,オハナ,0
1017,4290803004066,新規,0,2022-02-21,2022-02-21,合同会社マルガット,,合同会社,福岡県,築上郡上毛町,大字土佐井２０７番地１,,40,646,8710921,,,,,,,2022-02-21,1,,,,,マルガット,0
1018,4310001017719,新規,0,2022-02-21,2022-02-21,Ｍ＆Ａグッドサービス株式会社,,株式会社,長崎県,佐世保市,白岳町７７４－１２レジデンスビブレ５０２,,42,202,8571164,,,,,,,2022-02-21,1,,,,,エムアンドエーグッドサービス,0
1019,4320001018906,新規,0,2022-02-21,2022-02-21,株式会社ＮｅｘｔＶａｌｕｅ,,株式会社,大分県,大分市,大字角子原１００５,,44,201,8700271,,,,,,,2022-02-21,1,,,,,ネクストバリュー,0
1023,4350001017590,新規,0,2022-02-21,2022-02-21,株式会社太陽,,株式会社,宮崎県,宮崎市,神宮西２丁目４７番地,,45,201,8800033,,,,,,,2022-02-21,1,,,,,タイヨウ,0
1025,4360001030023,新規,0,2022-02-21,2022-02-21,株式会社おきのこ不動産,,株式会社,沖縄県,浦添市,宮城３丁目１４番２号コーポ与那覇１Ｆ,,47,208,9012126,,,,,,,2022-02-21,1,,,,,オキノコフドウサン,0
1026,4370001048213,新規,0,2022-02-21,2022-02-21,株式会社ａｒｖｏｗｏｒｋｓ,,株式会社,宮城県,仙台市青葉区,本町１丁目９番２号,,04,101,9800014,,,,,,,2022-02-21,1,,,,,アルヴォワークス,0
1027,4370001048221,新規,0,2022-02-21,2022-02-21,ココカラーフーズ株式会社,,株式会社,宮城県,登米市,迫町森字平柳６７番地２,,04,212,9870512,,,,,,,2022-02-21,1,,,,,ココカラーフーズ,0
1028,4370003005591,新規,0,2022-02-21,2022-02-21,合同会社Ｌｉｆｅ＆Ｂоｎｄ,,合同会社,宮城県,宮城郡七ヶ浜町,東宮浜字小畑９番地の１,,04,404,9850804,,,,,,,2022-02-21,1,,,,,ライフアンドボンド,0
1038,4430003013638,新規,0,2022-02-21,2022-02-21,合同会社壱莉,,合同会社,北海道,札幌市豊平区,平岸二条３丁目１番１７－２０５号,,01,105,0620932,,,,,,,2022-02-21,1,,,,,イチリ,0
1041,4460003000880,新規,0,2022-02-21,2022-02-21,合同会社ぽんてりか,,合同会社,北海道,釧路市,武佐３丁目１１番４号,,01,206,0850806,,,,,,,2022-02-21,1,,,,,ポンテリカ,0
1044,4460301005045,新規,0,2022-02-21,2022-02-21,株式会社一心ファーム,,株式会社,北海道,斜里郡清里町,字上斜里２４４番地２,,01,546,0994401,,,,,,,2022-02-21,1,,,,,イッシンファーム,0
1049,4700150106877,新規,0,2022-02-21,2022-02-01,新義成実宗　東松山　龍千寺,,その他,東京都,北区,赤羽南１丁目２２－４島田ビル１Ｆ,,13,117,1150044,,,,,,,2022-02-01,1,,,,,シンギジョウジツシュウトウショウザンリュウセンジ,0
1057,5010001224600,新規,0,2022-02-21,2022-02-21,株式会社ＧＬＯＢＡＬ　ＡＮＧＬＥ,,株式会社,東京都,千代田区,神田小川町３丁目２４番地１４,,13,101,1010052,,,,,,,2022-02-21,1,,,,,グローバルアングル,0
1058,5010001224699,新規,0,2022-02-21,2022-02-21,ＥｖｅｒＲｉｃｈ株式会社,,株式会社,東京都,千代田区,外神田６丁目１０番３号,,13,101,1010021,,,,,,,2022-02-21,1,,,,,エバーリッチ,0
1059,5010001224749,新規,0,2022-02-21,2022-02-21,セミネット＆トレーディング株式会社,,株式会社,東京都,千代田区,九段南１丁目５番６号りそな九段ビル５階ＫＳフロア,,13,101,1020074,,,,,,,2022-02-21,1,,,,,セミネットアンドトレーディング,0
1063,5010403027122,新規,0,2022-02-21,2022-02-21,合同会社ＭＤ　ｔｅｃｈ,,合同会社,東京都,港区,浜松町２丁目２番１５号浜松町ダイヤビル２Ｆ,,13,103,1050013,,,,,,,2022-02-21,1,,,,,エムディーテック,0
1066,5010501048482,新規,0,2022-02-21,2022-02-21,株式会社ＮＨＳグローバル,,株式会社,東京都,台東区,上野２丁目１４番３０号ライオンズマンション上野山下６０６,,13,106,1100005,,,,,,,2022-02-21,1,,,,,エヌエイチエスグローバル,0
1067,5010503006513,新規,0,2022-02-21,2022-02-21,合同会社アート・カルチャー・カンパニー,,合同会社,東京都,台東区,谷中２丁目６番４７号２０１,,13,106,1100001,,,,,,,2022-02-21,1,,,,,アートカルチャーカンパニー,0
1077,5010901050385,新規,0,2022-02-21,2022-02-21,株式会社スリージェイトラベル,,株式会社,東京都,世田谷区,三軒茶屋２丁目１９番３－２０２号,,13,112,1540024,,,,,,,2022-02-21,1,,,,,スリージェイトラベル,0
1078,5010901050402,新規,0,2022-02-21,2022-02-21,株式会社ファインド,,株式会社,東京都,世田谷区,奥沢５丁目１番１１号メゾンドジョワ２０２,,13,112,1580083,,,,,,,2022-02-21,1,,,,,ファインド,0
1092,5011001145596,新規,0,2022-02-21,2022-02-21,株式会社ハワーズ,,株式会社,東京都,目黒区,大橋２丁目２２－９－３０３,,13,110,1530044,,,,,,,2022-02-21,1,,,,,ハワーズ,0
1093,5011001145737,新規,0,2022-02-21,2022-02-21,株式会社アスエル,,株式会社,東京都,渋谷区,幡ヶ谷３丁目５０番２号,,13,113,1510072,,,,,,,2022-02-21,1,,,,,アスエル,0
1094,5011001145745,新規,0,2022-02-21,2022-02-21,株式会社ｈｂｕ,,株式会社,東京都,渋谷区,恵比寿３丁目９番３１号,,13,113,1500013,,,,,,,2022-02-21,1,,,,,エイチビーユー,0
1095,5011001145794,新規,0,2022-02-21,2022-02-21,ＣＪＷ　ＣＯＮＮＥＣＴＩＯＮ株式会社,,株式会社,東京都,渋谷区,恵比寿１丁目１５番９号日宝恵比寿ビル４０３,,13,113,1500013,,,,,,,2022-02-21,1,,,,,シージェーダブリューコネクション,0
1097,5011003014188,新規,0,2022-02-21,2022-02-21,Ｏｎｅ－ｃ合同会社,,合同会社,東京都,渋谷区,道玄坂１丁目１０番８号渋谷道玄坂東急ビル２Ｆ－Ｃ,,13,113,1500043,,,,,,,2022-02-21,1,,,,,ワンシー,0
1106,5011401024037,新規,0,2022-02-21,2022-02-21,株式会社テックアール,,株式会社,東京都,板橋区,南常盤台２丁目３番１０号リヨンドール南常盤台４０２,,13,119,1740072,,,,,,,2022-02-21,1,,,,,テックアール,0
1107,5011401024045,新規,0,2022-02-21,2022-02-21,渡辺音楽制作株式会社,,株式会社,東京都,板橋区,上板橋２丁目３２番５号,,13,119,1740076,,,,,,,2022-02-21,1,,,,,ワタナベオンガクセイサク,0
1109,5011601025751,新規,0,2022-02-21,2022-02-21,澤友商事株式会社,,株式会社,東京都,練馬区,上石神井３丁目２８－１０－２０１号,,13,120,1770044,,,,,,,2022-02-21,1,,,,,サワトモショウジ,0
1110,5011603003532,新規,0,2022-02-21,2022-02-21,合同会社ＨＭＴｅｃｈｎｉｃａ,,合同会社,東京都,練馬区,中村南１丁目２４番９－３０３号,,13,120,1760025,,,,,,,2022-02-21,1,,,,,エムエイチテクニカ,0
1120,5013301048685,新規,0,2022-02-21,2022-02-21,ＣＡＴＳ株式会社,,株式会社,東京都,豊島区,西池袋５丁目１４番８号東海池袋ビル２階,,13,116,1710021,,,,,,,2022-02-21,1,,,,,キャッツ,0
1122,5020001145291,新規,0,2022-02-21,2022-02-21,株式会社スワヤコーポレーション,,株式会社,神奈川県,川崎市高津区,二子２丁目８番１０号,,14,134,2130002,,,,,,,2022-02-21,1,,,,,スワヤコーポレーション,0
1125,5020003021326,新規,0,2022-02-21,2022-02-21,あんず合同会社,,合同会社,神奈川県,横浜市西区,浅間町１丁目４番地９,,14,103,2200072,,,,,,,2022-02-21,1,,,,,アンズ,0
1127,5020005015383,新規,0,2022-02-21,2022-02-21,特定非営利活動法人ずんご,,その他の設立登記法人,神奈川県,横浜市港南区,最戸２丁目３－１,,14,111,2330008,,,,,,,2022-02-21,1,,,,,ズンゴ,0
1131,5021001075215,新規,0,2022-02-21,2022-02-21,株式会社ＳＬＣ,,株式会社,神奈川県,綾瀬市,小園１０２６番地１カインドステージかしわ台７０６,,14,218,2521121,,,,,,,2022-02-21,1,,,,,エスエルシー,0
1140,5030001146826,新規,0,2022-02-21,2022-02-21,株式会社ＨＹＪ,,株式会社,埼玉県,さいたま市桜区,山久保２丁目１６番１－３０５号下川方,,11,106,3380821,,,,,,,2022-02-21,1,,,,,エイチワイジェイ,0
1141,5030001146859,新規,0,2022-02-21,2022-02-21,株式会社ＬＣＭアプリケーションズ,,株式会社,埼玉県,さいたま市大宮区,上小町７８７番地９蓮見第三マンション２０３号室,,11,103,3300855,,,,,,,2022-02-21,1,,,,,エルシーエムアプリケーションズ,0
1142,5030001146867,新規,0,2022-02-21,2022-02-21,株式会社成造,,株式会社,埼玉県,川口市,大字芝４８８２番地の３,,11,203,3330866,,,,,,,2022-02-21,1,,,,,ナリゾウ,0
1143,5030001146875,新規,0,2022-02-21,2022-02-21,株式会社Ｔｅｒｒａ　Ｈｏｍｅ’ｓ,,株式会社,埼玉県,川口市,並木１丁目８番３２号,,11,203,3320034,,,,,,,2022-02-21,1,,,,,テラホームズ,0
1144,5030001146909,新規,0,2022-02-21,2022-02-21,株式会社レインボークレヨン,,株式会社,埼玉県,和光市,白子２丁目１５番１８－６０１号滝坂レジデンス,,11,229,3510101,,,,,,,2022-02-21,1,,,,,レインボークレヨン,0
1147,5030003018882,新規,0,2022-02-21,2022-02-21,リフィル合同会社,,合同会社,埼玉県,さいたま市大宮区,高鼻町１丁目４０１番地,,11,103,3300803,,,,,,,2022-02-21,1,,,,,リフィル,0
1150,5040001122297,新規,0,2022-02-21,2022-02-21,株式会社アウラ・ワン,,株式会社,千葉県,市原市,大厩９３０番地,,12,219,2900002,,,,,,,2022-02-21,1,,,,,アウラワン,0
1151,5040001122306,新規,0,2022-02-21,2022-02-21,株式会社ライフアンドフィックス,,株式会社,千葉県,白井市,冨士３３番地の２２,,12,232,2701432,,,,,,,2022-02-21,1,,,,,ライフアンドフィックス,0
1154,5040003019533,新規,0,2022-02-21,2022-02-21,シエルブルーラボ合同会社,,合同会社,千葉県,船橋市,本町７丁目２５－１タカナミビル１Ｆ,,12,204,2730005,,,,,,,2022-02-21,1,,,,,シエルブルーラボ,0
1160,5070003004391,新規,0,2022-02-21,2022-02-21,合同会社北千木パートナーズ,,合同会社,群馬県,伊勢崎市,北千木町９３１番地１,,10,204,3720032,,,,,,,2022-02-21,1,,,,,キタセンギパートナーズ,0
1162,5080101023103,新規,0,2022-02-21,2022-02-21,株式会社東亜セキュア,,株式会社,静岡県,富士市,厚原１３１番地の１,,22,210,4190201,,,,,,,2022-02-21,1,,,,,トウアセキュア,0
1164,5090001017419,新規,0,2022-02-21,2022-02-21,想い出工房諏訪株式会社,,株式会社,山梨県,北杜市,高根町清里３５４５番地３４４５,,19,209,4070301,,,,,,,2022-02-21,1,,,,,オモイデコウボウスワ,0
1165,5090001017427,新規,0,2022-02-21,2022-02-21,株式会社ミノル商事,,株式会社,山梨県,甲斐市,長塚１８２番地２ラ・クレール１０１,,19,210,4000125,,,,,,,2022-02-21,1,,,,,ミノルショウジ,0
1170,5100003006418,新規,0,2022-02-21,2022-02-21,合同会社ＧＨ,,合同会社,長野県,長野市,大字高田１１１２番地４メゾン・ド・ブーケ２０１号,,20,201,3810034,,,,,,,2022-02-21,1,,,,,ジーエイチ,0
1188,5120001243861,新規,0,2022-02-21,2022-02-21,株式会社Ｍａｔｅ,,株式会社,大阪府,大阪市北区,中津３丁目１２番８号,,27,127,5310071,,,,,,,2022-02-21,1,,,,,メイト,0
1189,5120001243952,新規,0,2022-02-21,2022-02-21,株式会社ニューテックス,,株式会社,大阪府,大阪市大正区,北村３丁目６番２－６０４号,,27,108,5510032,,,,,,,2022-02-21,1,,,,,ニューテックス,0
1191,5120101065108,新規,0,2022-02-21,2022-02-21,ヤマカワ工業株式会社,,株式会社,大阪府,岸和田市,額原町５７５番地の２５,,27,202,5960822,,,,,,,2022-02-21,1,,,,,ヤマカワコウギョウ,0
1193,5120901045622,新規,0,2022-02-21,2022-02-21,株式会社ｃｏｎｔｒｉｂｕｔｉｏｎ,,株式会社,大阪府,吹田市,千里山東４丁目４０番４６－１１１号,,27,205,5650842,,,,,,,2022-02-21,1,,,,,コントリビューション,0
1197,5130001071163,新規,0,2022-02-21,2022-02-21,株式会社ぱれっと,,株式会社,京都府,宇治市,宇治壱番７７番地,,26,204,6110021,,,,,,,2022-02-21,1,,,,,パレット,0
1201,5140001124944,新規,0,2022-02-21,2022-02-21,株式会社ボスワン,,株式会社,兵庫県,神戸市中央区,港島９丁目１１－１,,28,110,6500045,,,,,,,2022-02-21,1,,,,,ボスワン,0
1202,5140001124969,新規,0,2022-02-21,2022-02-21,株式会社イズヤペイント,,株式会社,兵庫県,高砂市,米田町米田９２５番地の２高砂アーバンコンフォート２２７号,,28,216,6760805,,,,,,,2022-02-21,1,,,,,イズヤペイント,0
1203,5140001124977,新規,0,2022-02-21,2022-02-21,はりま潜水工業株式会社,,株式会社,兵庫県,加古郡稲美町,国安５３０番地,,28,381,6751114,,,,,,,2022-02-21,1,,,,,ハリマセンスイコウギョウ,0
1204,5140001125001,新規,0,2022-02-21,2022-02-21,株式会社ＢＵＺＺ　ＳＴＹＬＥ,,株式会社,兵庫県,神戸市東灘区,御影中町８丁目４－１３,,28,101,6580054,,,,,,,2022-02-21,1,,,,,バズスタイル,0
1208,5150001025349,新規,0,2022-02-21,2022-02-21,株式会社アスカ,,株式会社,奈良県,生駒市,北新町１７番４８号,,29,209,6300245,,,,,,,2022-02-21,1,,,,,アスカ,0
1209,5160001024003,新規,0,2022-02-21,2022-02-21,株式会社ＥＮＳＯ,,株式会社,滋賀県,草津市,若竹町８番３０号若竹ビル北１階,,25,206,5250031,,,,,,,2022-02-21,1,,,,,エンソウ,0
1224,5180001150053,新規,0,2022-02-21,2022-02-21,株式会社ＥＮｎｅｃｔ,,株式会社,愛知県,名古屋市名東区,勢子坊３丁目１３１７番地,,23,115,4650055,,,,,,,2022-02-21,1,,,,,エネクト,0
1226,5180301035937,新規,0,2022-02-21,2022-02-21,株式会社フレーズカンパニー,,株式会社,愛知県,蒲郡市,坂本町中屋敷３８番，３９番合筆地,,23,214,4430001,,,,,,,2022-02-21,1,,,,,フレーズカンパニー,0
1230,5200001039764,新規,0,2022-02-21,2022-02-21,株式会社灯－あかり,,株式会社,岐阜県,羽島市,福寿町平方３５０番地６,,21,209,5016257,,,,,,,2022-02-21,1,,,,,アカリハイフンアカリ,0
1233,5230001008171,新規,0,2022-02-21,2022-02-21,大栄興産株式会社,,株式会社,富山県,魚津市,本江４６４３番地,,16,204,9370805,,,,,,,2022-02-21,1,,,,,ダイエイコウサン,0
1235,5240001059346,新規,0,2022-02-21,2022-02-21,ＢＡＳＥ株式会社,,株式会社,広島県,広島市東区,牛田本町２丁目１番２－１００２号,,34,102,7320066,,,,,,,2022-02-21,1,,,,,ベース,0
1236,5240001059354,新規,0,2022-02-21,2022-02-21,株式会社サムライセブン,,株式会社,広島県,世羅郡世羅町,大字本郷６３５番地１,,34,462,7221112,,,,,,,2022-02-21,1,,,,,サムライセブン,0
1239,5250001019415,新規,0,2022-02-21,2022-02-21,株式会社七海,,株式会社,山口県,下関市,吉見竜王町２番地１,,35,201,7596522,,,,,,,2022-02-21,1,,,,,ナナミ,0
1242,5280003001582,新規,0,2022-02-21,2022-02-21,愛されるまち江津をつくる合同会社,,合同会社,島根県,江津市,和木町６００番地２０Ｄ－１０２,,32,207,6950017,,,,,,,2022-02-21,1,,,,,アイサレルマチゴウツヲツクル,0
1245,5290001096491,新規,0,2022-02-21,2022-02-21,株式会社Ｆｕｋｕｒｕ,,株式会社,福岡県,福岡市城南区,別府３丁目６番１４－１００３号,,40,136,8140104,,,,,,,2022-02-21,1,,,,,フクル,0
1246,5290001096500,新規,0,2022-02-21,2022-02-21,株式会社ヒジリアセット,,株式会社,福岡県,久留米市,東町５－３－１００２,,40,203,8300032,,,,,,,2022-02-21,1,,,,,ヒジリアセット,0
1249,5290801028272,新規,0,2022-02-21,2022-02-21,ＧＯＮ’ｓ　Ｓｙｓｔｅｍ株式会社,,株式会社,福岡県,中間市,朝霧２丁目１１番１５号メゾンＴＯＥＩ１０２,,40,215,8090021,,,,,,,2022-02-21,1,,,,,ゴンズシステム,0
1253,5320001018905,新規,0,2022-02-21,2022-02-21,株式会社ｈ＆ｓｈｅｌｌｓ,,株式会社,大分県,中津市,大字上如水１０５５番地２,,44,203,8710004,,,,,,,2022-02-21,1,,,,,エイチアンドシェルズ,0
1258,5370001048220,新規,0,2022-02-21,2022-02-21,ａｒｒｏｗ’ｓ株式会社,,株式会社,宮城県,宮城郡七ヶ浜町,吉田浜字台２３番地の５,,04,404,9850802,,,,,,,2022-02-21,1,,,,,アローズ,0
1259,5370001048229,新規,0,2022-02-21,2022-02-21,リリアソリューション株式会社,,株式会社,宮城県,仙台市青葉区,本町１丁目１４番１８号,,04,101,9800014,,,,,,,2022-02-21,1,,,,,リリアソリューション,0
1261,5370003005590,新規,0,2022-02-21,2022-02-21,合同会社モジュール軽貨物,,合同会社,宮城県,仙台市泉区,松森字新田１９２エクセレントコーポ１０２,,04,105,9813111,,,,,,,2022-02-21,1,,,,,モジュールケイカモツ,0
1265,5380001032594,新規,0,2022-02-21,2022-02-21,株式会社奉縁,,株式会社,福島県,福島市,佐原字竹ノ森２３番地の１,,07,201,9602158,,,,,,,2022-02-21,1,,,,,ホウエン,0
1272,5420003002459,新規,0,2022-02-21,2022-02-21,合同会社大和温泉,,合同会社,青森県,平川市,中佐渡南田１番地２,,02,210,0360221,,,,,,,2022-02-21,1,,,,,ヤマトオンセン,0
1274,5430001086016,新規,0,2022-02-21,2022-02-21,株式会社ＳＰ土地建物,,株式会社,北海道,札幌市東区,北二十二条東３丁目１番３５号ハイテクビルさっぽろ３階,,01,103,0650022,,,,,,,2022-02-21,1,,,,,エスピートチタテモノ,0
1278,5450001013620,新規,0,2022-02-21,2022-02-21,株式会社アークラボ,,株式会社,北海道,旭川市,永山一条５丁目４番５号タウンズ永山Ａ,,01,204,0798411,,,,,,,2022-02-21,1,,,,,アークラボ,0
1283,5500005008462,新規,0,2022-02-21,2022-02-21,特定非営利活動法人未来バリー,,その他の設立登記法人,愛媛県,今治市,桜井４丁目１５番１号,,38,202,7991522,,,,,,,2022-02-21,1,,,,,ミライバリー,0
1286,5700150106678,新規,0,2022-02-21,2022-01-17,袋原コミュニティ市民委員会,,その他,宮城県,仙台市太白区,東中田５丁目１３－１１,,04,104,9811107,,,,,,,2022-01-17,1,,,,,フクロバラコミユニテイシミンイインカイ,0
1303,6010401165484,新規,0,2022-02-21,2022-02-21,株式会社クレアス,,株式会社,東京都,港区,浜松町１丁目１６－７,,13,103,1050013,,,,,,,2022-02-21,1,,,,,クレアス,0
1304,6010401165658,新規,0,2022-02-21,2022-02-21,株式会社ＭＲ１,,株式会社,東京都,港区,南青山２丁目２番１５号ウィン青山１２１４号,,13,103,1070062,,,,,,,2022-02-21,1,,,,,エムアールイチ,0
1305,6010401165666,新規,0,2022-02-21,2022-02-21,ＣＯＷＩＮ株式会社,,株式会社,東京都,港区,西新橋１丁目１８番６号,,13,103,1050003,,,,,,,2022-02-21,1,,,,,コーウィン,0
1306,6010401165699,新規,0,2022-02-21,2022-02-21,株式会社フェリーチェ,,株式会社,東京都,港区,西新橋１丁目１８番１１号ル・グラシエルＢＬＤＧ１６－８Ｆ,,13,103,1050003,,,,,,,2022-02-21,1,,,,,フェリーチェ,0
1309,6010501048473,新規,0,2022-02-21,2022-02-21,ｅｎｔｉｇｈｔ　Ｐａｒｔｎｅｒｓ株式会社,,株式会社,東京都,台東区,浅草橋５丁目１番３１号,,13,106,1110053,,,,,,,2022-02-21,1,,,,,エンタイトパートナーズ,0
1310,6010503006512,新規,0,2022-02-21,2022-02-21,合同会社ＩＫＢ,,合同会社,東京都,台東区,根岸４丁目２番９号中根岸レジデンス３Ｆ,,13,106,1100003,,,,,,,2022-02-21,1,,,,,アイケービー,0
1313,6010701042268,新規,0,2022-02-21,2022-02-21,株式会社Ｎ,,株式会社,東京都,品川区,大崎２丁目９番１－２０５号,,13,109,1410032,,,,,,,2022-02-21,1,,,,,エヌ,0
1320,6011001145637,新規,0,2022-02-21,2022-02-21,株式会社ＬＵＸＯ,,株式会社,東京都,渋谷区,渋谷２丁目１９番１５号宮益坂ビルディング６０９,,13,113,1500002,,,,,,,2022-02-21,1,,,,,ルクソー,0
1321,6011001145752,新規,0,2022-02-21,2022-02-21,株式会社Ａｇｌｉｎ,,株式会社,東京都,渋谷区,渋谷２丁目１９－１５宮益坂ビルディング６０９,,13,113,1500002,,,,,,,2022-02-21,1,,,,,アグリン,0
1332,6011401024036,新規,0,2022-02-21,2022-02-21,ＦＡＮＧ株式会社,,株式会社,東京都,板橋区,蓮根３丁目９番７号,,13,119,1740046,,,,,,,2022-02-21,1,,,,,ファング,0
1334,6011603003531,新規,0,2022-02-21,2022-02-21,エスティーエム合同会社,,合同会社,東京都,練馬区,豊玉南２丁目２０番１２野方ダイヤモンドマンション４０４,,13,120,1760014,,,,,,,2022-02-21,1,,,,,エスティーエム,0
1338,6011803004973,新規,0,2022-02-21,2022-02-21,合同会社ミライズ,,合同会社,東京都,葛飾区,東四つ木４丁目１６番３号,,13,122,1240014,,,,,,,2022-02-21,1,,,,,ミライズ,0
1343,6012401038876,新規,0,2022-02-21,2022-02-21,ミザンプラス株式会社,,株式会社,東京都,多摩市,乞田６２４番地ライオンズマンション多摩永山ヒルズ１０３,,13,224,2060014,,,,,,,2022-02-21,1,,,,,ミザンプラス,0
1344,6012403005247,新規,0,2022-02-21,2022-02-21,ルドルフ合同会社,,合同会社,東京都,武蔵野市,境１丁目１５番５－１００１号グランシャルール武蔵境,,13,203,1800022,,,,,,,2022-02-21,1,,,,,ルドルフ,0
1359,6020001145274,新規,0,2022-02-21,2022-02-21,株式会社ＱＵＥＥＮＳＥ,,株式会社,神奈川県,横浜市神奈川区,鶴屋町２丁目２２番４号第７浅川ビル２階,,14,102,2210835,,,,,,,2022-02-21,1,,,,,クイーンス,0
1360,6020001145282,新規,0,2022-02-21,2022-02-21,株式会社ＣｏｎＦｏｌｄ,,株式会社,神奈川県,川崎市中原区,木月２丁目７番２３号プランドール元住吉５０２,,14,133,2110025,,,,,,,2022-02-21,1,,,,,コンフォールド,0
1361,6020001145299,新規,0,2022-02-21,2022-02-21,スターテル株式会社,,株式会社,神奈川県,横浜市緑区,鴨居１丁目１４番１－１１０５号,,14,113,2260003,,,,,,,2022-02-21,1,,,,,スターテル,0
1365,6020003021333,新規,0,2022-02-21,2022-02-21,ジャストモーゲージサービス合同会社,,合同会社,神奈川県,横浜市鶴見区,鶴見中央５丁目７番２号プラーズ鶴見中央ＩＩＩ２Ｆ,00125754,14,101,2300051,,,,,,,2022-02-21,1,,,,,ジャストモーゲージサービス,0
1368,6021001075206,新規,0,2022-02-21,2022-02-21,ノーマライズファインド株式会社,,株式会社,神奈川県,平塚市,中原３丁目１７番７号,,14,203,2540075,,,,,,,2022-02-21,1,,,,,ノーマライズファインド,0
1376,6030001146858,新規,0,2022-02-21,2022-02-21,株式会社オータムメモリーズ,,株式会社,埼玉県,さいたま市岩槻区,大字柏崎４６番地１,,11,110,3390045,,,,,,,2022-02-21,1,,,,,オータムメモリーズ,0
1377,6030001146866,新規,0,2022-02-21,2022-02-21,株式会社ＬＩＦＩＸ,,株式会社,埼玉県,加須市,南町５番５０号２階,,11,210,3470031,,,,,,,2022-02-21,1,,,,,リフィックス,0
1378,6030001146874,新規,0,2022-02-21,2022-02-21,株式会社ｇｕｔ,,株式会社,埼玉県,上尾市,緑丘３丁目３番４５号,,11,219,3620015,,,,,,,2022-02-21,1,,,,,ガット,0
1379,6030001146882,新規,0,2022-02-21,2022-02-21,株式会社パンダ物流,,株式会社,埼玉県,戸田市,早瀬１丁目７番地２０号,,11,224,3350036,,,,,,,2022-02-21,1,,,,,パンダブツリュウ,0
1380,6030001146899,新規,0,2022-02-21,2022-02-21,株式会社栞玄,,株式会社,埼玉県,富士見市,貝塚２丁目１５番地１５,,11,235,3540012,,,,,,,2022-02-21,1,,,,,カンゲン,0
1381,6030001146908,新規,0,2022-02-21,2022-02-21,株式会社ルノエ,,株式会社,埼玉県,さいたま市浦和区,高砂４丁目４番７号１０５,,11,107,3300063,,,,,,,2022-02-21,1,,,,,ルノエ,0
1382,6030003018881,新規,0,2022-02-21,2022-02-21,ネキサン合同会社,,合同会社,埼玉県,熊谷市,見晴町１９１－２,,11,202,3600824,,,,,,,2022-02-21,1,,,,,ネキサン,0
1387,6040001122288,新規,0,2022-02-21,2022-02-21,株式会社アメジスト,,株式会社,千葉県,市川市,東大和田１丁目１７番６号,,12,203,2720026,,,,,,,2022-02-21,1,,,,,アメジスト,0
1388,6040001122296,新規,0,2022-02-21,2022-02-21,株式会社ＬＩＦＥＢＡＳＥ,,株式会社,千葉県,我孫子市,新木野４丁目１番１号,,12,222,2701114,,,,,,,2022-02-21,1,,,,,ライフベース,0
1389,6040001122305,新規,0,2022-02-21,2022-02-21,株式会社楽々広場,,株式会社,千葉県,市原市,辰巳台西２丁目３番,,12,219,2900004,,,,,,,2022-02-21,1,,,,,ラクラクヒロバ,0
1394,6040003019532,新規,0,2022-02-21,2022-02-21,合同会社ＭＦＣ,,合同会社,千葉県,船橋市,前原東５丁目１３番３号,,12,204,2740824,,,,,,,2022-02-21,1,,,,,エムエフシー,0
1396,6060001034589,新規,0,2022-02-21,2022-02-21,株式会社青柳,,株式会社,栃木県,鹿沼市,千渡４７８番地,,09,205,3220002,,,,,,,2022-02-21,1,,,,,アオヤギ,0
1401,6090001017426,新規,0,2022-02-21,2022-02-21,株式会社モビー,,株式会社,山梨県,甲府市,右左口町１５３６番地２,,19,201,4001504,,,,,,,2022-02-21,1,,,,,モビー,0
1402,6100001035079,新規,0,2022-02-21,2022-02-21,株式会社みみずや,,株式会社,長野県,上水内郡飯綱町,大字川上１５３５番地,,20,590,3891226,,,,,,,2022-02-21,1,,,,,ミミズヤ,0
1403,6100001035087,新規,0,2022-02-21,2022-02-21,株式会社ＵＭＥ　Ｉｎｔｅｒｎａｔｉｏｎａｌ,,株式会社,長野県,北佐久郡軽井沢町,大字長倉４４７２番地３１,,20,321,3890111,,,,,,,2022-02-21,1,,,,,ユーエムイーインターナショナル,0
1404,6100003006417,新規,0,2022-02-21,2022-02-21,ＳＲカンパニー合同会社,,合同会社,長野県,北佐久郡軽井沢町,軽井沢東７５番地２レーベンリゾシア１０１号,,20,321,3890104,,,,,,,2022-02-21,1,,,,,エスアールカンパニー,0
1422,6120001243877,新規,0,2022-02-21,2022-02-21,株式会社恵光商事,,株式会社,大阪府,大阪市福島区,吉野５丁目１２番２３号,,27,103,5530006,,,,,,,2022-02-21,1,,,,,エコウショウジ,0
1423,6120001243935,新規,0,2022-02-21,2022-02-21,株式会社ＫＡＭＩ,,株式会社,大阪府,大阪市生野区,鶴橋２丁目１５番９号,,27,116,5440031,,,,,,,2022-02-21,1,,,,,カミ,0
1424,6120101065098,新規,0,2022-02-21,2022-02-21,株式会社Ｈａｐｐｉｎｅｓｓ,,株式会社,大阪府,松原市,柴垣１丁目２３番８号,,27,217,5800017,,,,,,,2022-02-21,1,,,,,ハピネス,0
1425,6120101065107,新規,0,2022-02-21,2022-02-21,不可思議株式会社,,株式会社,大阪府,堺市中区,毛穴町７７番地１南大阪ハウス３Ｆ,,27,142,5998266,,,,,,,2022-02-21,1,,,,,フカシギ,0
1436,6130001071162,新規,0,2022-02-21,2022-02-21,株式会社ｒｏｏｍ,,株式会社,京都府,京都市右京区,嵯峨朝日町２２番地６６,,26,108,6168343,,,,,,,2022-02-21,1,,,,,ルーム,0
1437,6130001071170,新規,0,2022-02-21,2022-02-21,株式会社クリテックＪａｐａｎ,,株式会社,京都府,城陽市,富野乾垣内７番地４,,26,207,6100111,,,,,,,2022-02-21,1,,,,,クリテックジャパン,0
1438,6130001071179,新規,0,2022-02-21,2022-02-21,株式会社ＰｒｏＳｐｏｒｉｔｙ,,株式会社,京都府,京都市南区,久世上久世町９０,,26,107,6018212,,,,,,,2022-02-21,1,,,,,プロスポリティ,0
1440,6130003007767,新規,0,2022-02-21,2022-02-21,ソラムクスマイル合同会社,,合同会社,京都府,京都市右京区,山ノ内養老町５番地１山ノ内パーク・ホームズ１１８号,,26,108,6150081,,,,,,,2022-02-21,1,,,,,ソラムクスマイル,0
1441,6130005016386,新規,0,2022-02-21,2022-02-21,西日本住宅地盤事業協同組合,,その他の設立登記法人,京都府,京都市山科区,大塚元屋敷町６２番地４６,,26,110,6078126,,,,,,,2022-02-21,1,,,,,ニシニホンジュウタクジバン,0
1443,6140001124935,新規,0,2022-02-21,2022-02-21,バッテリーイノベーション株式会社,,株式会社,兵庫県,尼崎市,道意町７丁目１番３,,28,202,6600083,,,,,,,2022-02-21,1,,,,,バッテリーイノベーション,0
1444,6140001124976,新規,0,2022-02-21,2022-02-21,株式会社扶桑,,株式会社,兵庫県,姫路市,飾磨区大浜１８番地,,28,201,6728062,,,,,,,2022-02-21,1,,,,,フソウ,0
1445,6140001124984,新規,0,2022-02-21,2022-02-21,株式会社Ｂｅｙｏｎｄ　ｗｏｒｄｓ　Ｃｏ－Ｃｒｅａｔｉｏｎ　Ｐａｒｔｎｅｒｓ,,株式会社,兵庫県,伊丹市,昆陽東３丁目４番２３号,,28,207,6640886,,,,,,,2022-02-21,1,,,,,ビヨンドワーズコクリエイションパートナーズ,0
1446,6140001124992,新規,0,2022-02-21,2022-02-21,株式会社ＫＡＲＡ,,株式会社,兵庫県,神戸市垂水区,学が丘４丁目７－３,,28,108,6550004,,,,,,,2022-02-21,1,,,,,カラ,0
1453,6160001024002,新規,0,2022-02-21,2022-02-21,株式会社ＨＭＹホーム,,株式会社,滋賀県,野洲市,冨波甲１１８０番地４２,,25,210,5202351,,,,,,,2022-02-21,1,,,,,エイチエムワイホーム,0
1468,6200001039763,新規,0,2022-02-21,2022-02-21,ギフト株式会社,,株式会社,岐阜県,岐阜市,神田町９丁目１４番地前田ビル２階,,21,201,5008833,,,,,,,2022-02-21,1,,,,,ギフト,0
1475,6220001024697,新規,0,2022-02-21,2022-02-21,エンシエイト株式会社,,株式会社,石川県,金沢市,泉が丘２丁目１２番３５号,,17,201,9218035,,,,,,,2022-02-21,1,,,,,エンシエイト,0
1478,6260005011036,新規,0,2022-02-21,2022-02-21,農福事業協同組合,,その他の設立登記法人,岡山県,美作市,中谷１１７４－１,,33,215,7070402,,,,,,,2022-02-21,1,,,,,ノウフク,0
1482,6290001096482,新規,0,2022-02-21,2022-02-21,株式会社ｍｙｈｏｕｓｅ,,株式会社,福岡県,福岡市中央区,荒戸１丁目１５番１１号グランパーク西公園４０２号,,40,133,8100062,,,,,,,2022-02-21,1,,,,,マイハウス,0
1483,6290001096499,新規,0,2022-02-21,2022-02-21,株式会社あしたの窓口,,株式会社,福岡県,福岡市中央区,平和３丁目７番２２号吉里ビル２０３号,,40,133,8100016,,,,,,,2022-02-21,1,,,,,アシタノマドグチ,0
1484,6290001096508,新規,0,2022-02-21,2022-02-21,株式会社山商トレーディング,,株式会社,福岡県,福岡市東区,多々良１丁目５４－１５－３０１,,40,131,8130033,,,,,,,2022-02-21,1,,,,,ヤマショウトレーディング,0
1487,6290801028271,新規,0,2022-02-21,2022-02-21,株式会社めぐみ,,株式会社,福岡県,築上郡築上町,大字椎田１７０３番地１,,40,647,8290301,,,,,,,2022-02-21,1,,,,,メグミ,0
1491,6310001017717,新規,0,2022-02-21,2022-02-21,ＫＹＵＳＨＵリゾーツジャパン株式会社,,株式会社,長崎県,佐世保市,ハウステンボス町４番地３,,42,202,8593243,,,,,,,2022-02-21,1,,,,,キュウシュウリゾーツジャパン,0
1501,6350001017589,新規,0,2022-02-21,2022-02-21,株式会社オゾンみやざき,,株式会社,宮崎県,宮崎市,祇園３丁目１７６番地２,,45,201,8800024,,,,,,,2022-02-21,1,,,,,オゾンミヤザキ,0
1502,6350001017597,新規,0,2022-02-21,2022-02-21,ＩＴ株式会社,,株式会社,宮崎県,宮崎市,清武町木原１２０番地１３スモールワールドＬ棟,,45,201,8891601,,,,,,,2022-02-21,1,,,,,アイティ,0
1505,6360003011820,新規,0,2022-02-21,2022-02-21,合同会社ＭＧ　ｃｏｍｐａｎｙ,,合同会社,沖縄県,那覇市,銘苅３丁目９番２２号キャンディービル２階,,47,201,9000004,,,,,,,2022-02-21,1,,,,,エムジィカンパニー,0
1507,6370001048228,新規,0,2022-02-21,2022-02-21,株式会社ジオ・フィールド,,株式会社,宮城県,黒川郡大和町,吉岡南３丁目１０番地の２エコープラザＸＩ１０２,00125755,04,421,9813626,,,,,,,2022-02-21,1,,,,,ジオフィールド,0
1509,6390001016793,新規,0,2022-02-21,2022-02-21,株式会社佐藤工業,,株式会社,山形県,鶴岡市,羽黒町赤川字地蔵俣２９６番地２６,,06,203,9970167,,,,,,,2022-02-21,1,,,,,サトウコウギョウ,0
1511,6400001015785,新規,0,2022-02-21,2022-02-21,クローバーライフ株式会社,,株式会社,岩手県,盛岡市,梨木町５番４７号ジュネス梨木１０５,,03,201,0200064,,,,,,,2022-02-21,1,,,,,クローバーライフ,0
1514,6420003002458,新規,0,2022-02-21,2022-02-21,合同会社丸哲,,合同会社,青森県,十和田市,西二十一番町１８番１号,,02,206,0340095,,,,,,,2022-02-21,1,,,,,マルテツ,0
1517,6430001086031,新規,0,2022-02-21,2022-02-21,株式会社ＤＧＲＥＧＯ,,株式会社,北海道,札幌市西区,山の手一条３丁目１－２２,,01,107,0630001,,,,,,,2022-02-21,1,,,,,デジリゴ,0
1522,6430003013644,新規,0,2022-02-21,2022-02-21,合同会社企業防衛研究所,,合同会社,北海道,札幌市豊平区,水車町２丁目４番２１号,,01,105,0620912,,,,,,,2022-02-21,1,,,,,キギョウボウエイケンキュウジョ,0
1534,6700150106958,新規,0,2022-02-21,2022-02-08,日本共産党和歌山市会議員団,,その他,和歌山県,和歌山市,七番丁２３番地,,30,201,6408156,,,,,,,2022-02-08,1,,,,,ニホンキヨウサントウワカヤマシカイギインダン,0
1539,7010001224706,新規,0,2022-02-21,2022-02-21,株式会社Ｒｅｐｏｓｅ,,株式会社,東京都,中央区,日本橋室町１丁目７番２号５階,,13,102,1030022,,,,,,,2022-02-21,1,,,,,レポゼ,0
1540,7010001224722,新規,0,2022-02-21,2022-02-21,ＹＭＣｏｎｎｅｃｔｉｏｎ株式会社,,株式会社,東京都,千代田区,東神田１丁目２－８赤塚ビル２Ｆ,,13,101,1010031,,,,,,,2022-02-21,1,,,,,ワイエムコネクション,0
1541,7010001224730,新規,0,2022-02-21,2022-02-21,株式会社東京クリプト,,株式会社,東京都,中央区,銀座１丁目２２番１１銀座大竹ビジデンス２階,,13,102,1040061,,,,,,,2022-02-21,1,,,,,トウキョウクリプト,0
1542,7010003037040,新規,0,2022-02-21,2022-02-21,合同会社やまもとコンサルティング,,合同会社,東京都,千代田区,神田佐久間町１丁目８番４号アルテール秋葉原７０８,,13,101,1010025,,,,,,,2022-02-21,1,,,,,ヤマモトコンサルティング,0
1546,7010405020726,新規,0,2022-02-21,2022-02-21,一般社団法人虎ノ門ツー,,その他の設立登記法人,東京都,港区,虎ノ門３丁目２２番１０－２０１号,,13,103,1050001,,,,,,,2022-02-21,1,,,,,トラノモンツー,0
1547,7010501048472,新規,0,2022-02-21,2022-02-21,株式会社ＩＨＳ,,株式会社,東京都,台東区,台東２丁目５番９号ライトテラス秋葉原９０４,,13,106,1100016,,,,,,,2022-02-21,1,,,,,アイエイチエス,0
1549,7010601060690,新規,0,2022-02-21,2022-02-21,株式会社求人サイトナビ,,株式会社,東京都,墨田区,両国１丁目３番１１号アオヤギ両国ビル３階,,13,107,1300026,,,,,,,2022-02-21,1,,,,,キュウジンサイトナビ,0
1550,7010601060708,新規,0,2022-02-21,2022-02-21,株式会社Ｔ＆Ｔストーン,,株式会社,東京都,江東区,東陽２丁目４番３９新東陽ビル４３３号,,13,108,1350016,,,,,,,2022-02-21,1,,,,,ティーアンドティーストーン,0
1551,7010601060716,新規,0,2022-02-21,2022-02-21,岡本リニューアル株式会社,,株式会社,東京都,墨田区,吾妻橋１丁目４番４号６階,,13,107,1300001,,,,,,,2022-02-21,1,,,,,オカモトリニューアル,0
1555,7010901050409,新規,0,2022-02-21,2022-02-21,株式会社Ｎ２・ＨＯＬＤＩＮＧＳ,,株式会社,東京都,世田谷区,下馬６丁目２５番５号,,13,112,1540002,,,,,,,2022-02-21,1,,,,,エヌツーホールディングス,0
1556,7010903007159,新規,0,2022-02-21,2022-02-21,サビアン合同会社,,合同会社,東京都,世田谷区,成城６丁目２５番２２号,,13,112,1570066,,,,,,,2022-02-21,1,,,,,サビアン,0
1561,7011001145685,新規,0,2022-02-21,2022-02-21,株式会社ネクストプレジャーズ,,株式会社,東京都,渋谷区,神宮前６丁目２３番４号桑野ビル２階,,13,113,1500001,,,,,,,2022-02-21,1,,,,,ネクストプレジャーズ,0
1562,7011001145826,新規,0,2022-02-21,2022-02-21,レクシエス株式会社,,株式会社,東京都,渋谷区,恵比寿１丁目１９番１９号恵比寿ビジネスタワー,,13,113,1500013,,,,,,,2022-02-21,1,,,,,レクシエス,0
1563,7011001145842,新規,0,2022-02-21,2022-02-21,株式会社Ｃｒｅａｔｉｏｎｓ　Ｊａｐａｎ,,株式会社,東京都,目黒区,南２丁目８番３号,,13,110,1520013,,,,,,,2022-02-21,1,,,,,クリエイションズジャパン,0
1566,7011003014203,新規,0,2022-02-21,2022-02-21,ＵＬＴＮＩＡ合同会社,,合同会社,東京都,渋谷区,笹塚２丁目２－３エヴァーグリーン笹塚２０３,,13,113,1510073,,,,,,,2022-02-21,1,,,,,ウルトニア,0
1569,7011401024043,新規,0,2022-02-21,2022-02-21,宏源株式会社,,株式会社,東京都,板橋区,東坂下２丁目１０－１０－２０３,,13,119,1740042,,,,,,,2022-02-21,1,,,,,コウゲン,0
1573,7011801040350,新規,0,2022-02-21,2022-02-21,株式会社千代商事,,株式会社,東京都,足立区,梅田１丁目１３番１２号梅田ビル３０２号室,,13,121,1230851,,,,,,,2022-02-21,1,,,,,チヨショウジ,0
1574,7011801040359,新規,0,2022-02-21,2022-02-21,株式会社木村恭爾事務所,,株式会社,東京都,葛飾区,柴又６丁目１９－７,,13,122,1250052,,,,,,,2022-02-21,1,,,,,キムラキョウジジムショ,0
1577,7012401038875,新規,0,2022-02-21,2022-02-21,株式会社ＢＩＧＨＯＰＥ,,株式会社,東京都,調布市,下石原１丁目１０番地６ケイ・エス・ハイム２０１,,13,208,1820034,,,,,,,2022-02-21,1,,,,,ビッグホープ,0
1580,7012801021407,新規,0,2022-02-21,2022-02-21,株式会社梅元屋,,株式会社,東京都,国立市,谷保５１０８番地の１,,13,215,1860011,,,,,,,2022-02-21,1,,,,,ウメモトヤ,0
1585,7020001145298,新規,0,2022-02-21,2022-02-21,株式会社ＹＯＫＯＨＡＭＡ　ＳＭＩＬＥ,,株式会社,神奈川県,横浜市神奈川区,神奈川２丁目４番地１プラウド東神奈川３０６号,,14,102,2210045,,,,,,,2022-02-21,1,,,,,ヨコハマスマイル,0
1586,7020003021316,新規,0,2022-02-21,2022-02-21,合同会社ちむ,,合同会社,神奈川県,川崎市多摩区,生田６丁目３番５－２０２号,,14,135,2140038,,,,,,,2022-02-21,1,,,,,チム,0
1597,7030001146873,新規,0,2022-02-21,2022-02-21,太陽工業ホールディングス株式会社,,株式会社,埼玉県,川越市,芳野台１丁目１０３番地１４,,11,201,3500833,,,,,,,2022-02-21,1,,,,,タイヨウコウギョウホールディングス,0
1598,7030001146898,新規,0,2022-02-21,2022-02-21,株式会社ｍｉｎａｔｏ,,株式会社,埼玉県,比企郡嵐山町,大字千手堂４２１番地２,,11,342,3550227,,,,,,,2022-02-21,1,,,,,ミナト,0
1604,7030003018872,新規,0,2022-02-21,2022-02-21,ダイバーシティ合同会社,,合同会社,埼玉県,入間郡三芳町,大字上富２０６０番地１,,11,324,3540045,,,,,,,2022-02-21,1,,,,,ダイバーシティ,0
1605,7030003018880,新規,0,2022-02-21,2022-02-21,合同会社結い商店,,合同会社,埼玉県,所沢市,大字中富１２８４番地の１０,,11,208,3590002,,,,,,,2022-02-21,1,,,,,ユイショウテン,0
1609,7040001122287,新規,0,2022-02-21,2022-02-21,スキル・コア株式会社,,株式会社,千葉県,印西市,滝野４丁目１番３－１０１,,12,231,2702329,,,,,,,2022-02-21,1,,,,,スキルコア,0
1611,7040003019531,新規,0,2022-02-21,2022-02-21,ＭＫ　Ｃｏｒｐｏｒａｔｉｏｎ合同会社,,合同会社,千葉県,東金市,家徳７２番地３,,12,213,2830062,,,,,,,2022-02-21,1,,,,,エムケイコーポレーション,0
1613,7050001050652,新規,0,2022-02-21,2022-02-21,株式会社ライフプロテクト,,株式会社,茨城県,水戸市,青柳町６５６番地１,,08,201,3100004,,,,,,,2022-02-21,1,,,,,ライフプロテクト,0
1620,7080001024769,新規,0,2022-02-21,2022-02-21,北村鈑金自動車株式会社,,株式会社,静岡県,静岡市葵区,岳美１２番２７号,,22,101,4200934,,,,,,,2022-02-21,1,,,,,キタムラバンキンジドウシャ,0
1627,7090001017425,新規,0,2022-02-21,2022-02-21,茶乃樹株式会社,,株式会社,山梨県,富士吉田市,下吉田６丁目１８番３３号,,19,202,4030004,,,,,,,2022-02-21,1,,,,,チャノキ,0
1631,7100001035078,新規,0,2022-02-21,2022-02-21,株式会社Ｉ’ｍ,,株式会社,長野県,松本市,大字神林２５４７番地の３,,20,202,3901243,,,,,,,2022-02-21,1,,,,,アイム,0
1644,7120001243819,新規,0,2022-02-21,2022-02-21,株式会社ジュエルメディア,,株式会社,大阪府,大阪市生野区,生野西４丁目１０番７号,,27,116,5440024,,,,,,,2022-02-21,1,,,,,ジュエルメディア,0
1645,7120001243934,新規,0,2022-02-21,2022-02-21,株式会社グート,,株式会社,大阪府,大阪市北区,天神橋６丁目７番２４号,,27,127,5300041,,,,,,,2022-02-21,1,,,,,グート,0
1646,7120001243950,新規,0,2022-02-21,2022-02-21,株式会社ＳＴＡＲＧＡＴＥ,,株式会社,大阪府,大阪市北区,梅田１丁目２番２－２００号大阪駅前第２ビル２階３の１の２,,27,127,5300001,,,,,,,2022-02-21,1,,,,,スターゲート,0
1647,7120001243959,新規,0,2022-02-21,2022-02-21,株式会社市左衛門,,株式会社,大阪府,大阪市中央区,瓦町１丁目６番１－７０８号,,27,128,5410048,,,,,,,2022-02-21,1,,,,,イチザエモン,0
1648,7120001243967,新規,0,2022-02-21,2022-02-21,株式会社Ｌｉｎｋ,,株式会社,大阪府,大阪市西区,北堀江２丁目１７番１６号,,27,106,5500014,,,,,,,2022-02-21,1,,,,,リンク,0
1649,7120001243975,新規,0,2022-02-21,2022-02-21,株式会社ＨＩＹテクノサービス,,株式会社,大阪府,大阪市西区,新町２丁目３番１３－３０８号,,27,106,5500013,,,,,,,2022-02-21,1,,,,,エイチアイワイテクノサービス,0
1655,7120003021149,新規,0,2022-02-21,2022-02-21,Ｍｅｔ５２合同会社,,合同会社,大阪府,大阪市西成区,天下茶屋１丁目１６番２２号２０３号室,,27,122,5570014,,,,,,,2022-02-21,1,,,,,メットゴーニー,0
1656,7120003021165,新規,0,2022-02-21,2022-02-21,合同会社しいか,,合同会社,大阪府,大阪市北区,芝田１丁目４番１４号芝田町ビル９階,,27,127,5300012,,,,,,,2022-02-21,1,,,,,シイカ,0
1657,7120003021173,新規,0,2022-02-21,2022-02-21,合同会社ＲＥＧＡＴＥ,,合同会社,大阪府,大阪市平野区,長吉出戸８丁目２－８,,27,126,5470011,,,,,,,2022-02-21,1,,,,,リゲート,0
1663,7120901045620,新規,0,2022-02-21,2022-02-21,株式会社ヤマナカポール,,株式会社,大阪府,三島郡島本町,桜井１丁目１０番８号,,27,301,6180022,,,,,,,2022-02-21,1,,,,,ヤマナカポール,0
1664,7120903004046,新規,0,2022-02-21,2022-02-21,合同会社ＮＴＳＹ,,合同会社,大阪府,池田市,鉢塚２丁目７番２－Ａ号,,27,204,5630024,,,,,,,2022-02-21,1,,,,,エヌティスワイ,0
1665,7122003002277,新規,0,2022-02-21,2022-02-21,合同会社オフィス山本,,合同会社,大阪府,東大阪市,吉田下島６番９号,,27,227,5780983,,,,,,,2022-02-21,1,,,,,オフィスヤマモト,0
1670,7130001071137,新規,0,2022-02-21,2022-02-21,株式会社本庄観光,,株式会社,京都府,与謝郡伊根町,字本庄浜１１１－１,,26,463,6260403,,,,,,,2022-02-21,1,,,,,ホンジョウカンコウ,0
1671,7130001071161,新規,0,2022-02-21,2022-02-21,株式会社メディセルフ,,株式会社,京都府,京都市左京区,下鴨森本町１５番地生産開発科学研究所内,,26,103,6060805,,,,,,,2022-02-21,1,,,,,メディセルフ,0
1672,7130001071178,新規,0,2022-02-21,2022-02-21,ｃｌａｓｓｂｏｘ株式会社,,株式会社,京都府,京都市上京区,宮垣町９１－１０２,,26,102,6020853,,,,,,,2022-02-21,1,,,,,クラスボックス,0
1673,7130003007766,新規,0,2022-02-21,2022-02-21,合同会社Ｅｔｅｒｎｉｔｙ,,合同会社,京都府,京都市北区,紫竹西高縄町１１５番地,,26,101,6038205,,,,,,,2022-02-21,1,,,,,エタニティ,0
1680,7140001124950,新規,0,2022-02-21,2022-02-21,株式会社アートワーク,,株式会社,兵庫県,神戸市兵庫区,里山町１番地の１９２,,28,105,6520051,,,,,,,2022-02-21,1,,,,,アートワーク,0
1681,7140001124967,新規,0,2022-02-21,2022-02-21,株式会社明輝,,株式会社,兵庫県,神戸市中央区,相生町４丁目１－２７,,28,110,6500025,,,,,,,2022-02-21,1,,,,,メイキ,0
1682,7140001124975,新規,0,2022-02-21,2022-02-21,エイチケーワン株式会社,,株式会社,兵庫県,西宮市,剣谷町７番７号,,28,204,6620099,,,,,,,2022-02-21,1,,,,,エイチケーワン,0
1692,7180001150035,新規,0,2022-02-21,2022-02-21,ＵＫ　ＣＬＥＡＮ株式会社,,株式会社,愛知県,あま市,本郷四反田３６,,23,237,4901116,,,,,,,2022-02-21,1,,,,,ユーケークリーン,0
1693,7180001150051,新規,0,2022-02-21,2022-02-21,株式会社ＫＮＴ,,株式会社,愛知県,名古屋市中区,栄１丁目２４番１１号,,23,106,4600008,,,,,,,2022-02-21,1,,,,,ケイエヌティ,0
1694,7180001150092,新規,0,2022-02-21,2022-02-21,株式会社翔電,,株式会社,愛知県,名古屋市西区,長先町３４３番地の１,,23,104,4520838,,,,,,,2022-02-21,1,,,,,ショウデン,0
1695,7180005019648,新規,0,2022-02-21,2022-02-21,特定非営利活動法人こころざし,,その他の設立登記法人,愛知県,名古屋市中村区,上米野町４丁目３８番地,,23,105,4530809,,,,,,,2022-02-21,1,,,,,ココロザシ,0
1696,7180301035935,新規,0,2022-02-21,2022-02-21,株式会社ムサシバ,,株式会社,愛知県,岡崎市,羽根町字池脇３番地６,,23,202,4440813,,,,,,,2022-02-21,1,,,,,ムサシバ,0
1700,7200001039754,新規,0,2022-02-21,2022-02-21,株式会社マツバラワーク,,株式会社,岐阜県,安八郡神戸町,大字更屋敷６８５番地,,21,381,5032322,,,,,,,2022-02-21,1,,,,,マツバラワーク,0
1701,7200001039762,新規,0,2022-02-21,2022-02-21,株式会社Ｋ－ｓｍｉｌｅ,,株式会社,岐阜県,岐阜市,市橋５丁目１３番地６,,21,201,5008381,,,,,,,2022-02-21,1,,,,,ケースマイル,0
1705,7220001024696,新規,0,2022-02-21,2022-02-21,株式会社町家不動産,,株式会社,石川県,野々市市,野代３丁目１２８番地２ラフォーレＦ１２階２０２号室,,17,212,9218804,,,,,,,2022-02-21,1,,,,,マチヤフドウサン,0
1707,7230001019241,新規,0,2022-02-21,2022-02-21,ゼンワ総業株式会社,,株式会社,富山県,富山市,婦中町浜子１４７２番地,,16,201,9392746,,,,,,,2022-02-21,1,,,,,ゼンワソウギョウ,0
1710,7240001059344,新規,0,2022-02-21,2022-02-21,株式会社祐栄塗装,,株式会社,広島県,呉市,阿賀北５丁目５番８号,,34,202,7370001,,,,,,,2022-02-21,1,,,,,ユウエイトソウ,0
1711,7240001059360,新規,0,2022-02-21,2022-02-21,株式会社アール・アンド・エイチ,,株式会社,広島県,広島市中区,田中町４番１４号,,34,101,7300026,,,,,,,2022-02-21,1,,,,,アールアンドエイチ,0
1713,7240005015335,新規,0,2022-02-21,2022-02-21,医療法人ツインズ会,,その他の設立登記法人,広島県,広島市佐伯区,楽々園３丁目２番１６号,,34,108,7315136,,,,,,,2022-02-21,1,,,,,ツインズカイ,0
1714,7250001019413,新規,0,2022-02-21,2022-02-21,株式会社ユリクス,,株式会社,山口県,山口市,吉敷下東２丁目５番２２号,,35,203,7530814,,,,,,,2022-02-21,1,,,,,ユリクス,0
1715,7250005000179,新規,0,2022-02-21,2022-02-21,財団法人山口県農林開発公社,,その他の設立登記法人,山口県,山口市,後河原１５０番地の１,,35,203,7530083,,,,,,,2022-02-21,1,,,,,,0
1718,7260003003810,新規,0,2022-02-21,2022-02-21,合同会社ＧＲＯＷＴＨ,,合同会社,岡山県,岡山市北区,中仙道５８番地１２７,,33,101,7000964,,,,,,,2022-02-21,1,,,,,グロース,0
1719,7260005011035,新規,0,2022-02-21,2022-02-21,新庄村地域人事業協同組合,,その他の設立登記法人,岡山県,真庭郡新庄村,１１４９番地,,33,586,7170201,,,,,,,2022-02-21,1,,,,,シンジョウソンチイキジン,0
1726,7290001096498,新規,0,2022-02-21,2022-02-21,ジャパン・ナノテック株式会社,,株式会社,福岡県,福岡市西区,周船寺１丁目１９番１９号,,40,135,8190373,,,,,,,2022-02-21,1,,,,,ジャパンナノテック,0
1727,7290001096507,新規,0,2022-02-21,2022-02-21,株式会社Ｎｏｄｅ,,株式会社,福岡県,福岡市中央区,白金１丁目１７番１－１２０１号ウィルミック薬院,,40,133,8100012,,,,,,,2022-02-21,1,,,,,ノード,0
1731,7290003012164,新規,0,2022-02-21,2022-02-21,リアライズ・ケア・カレッジ合同会社,,合同会社,福岡県,福岡市博多区,博多駅南６丁目８番３０号,,40,132,8120016,,,,,,,2022-02-21,1,,,,,リアライズケアカレッジ,0
1732,7290801028270,新規,0,2022-02-21,2022-02-21,株式会社プランチャ,,株式会社,福岡県,北九州市小倉北区,京町２丁目２番１９号,,40,106,8020002,,,,,,,2022-02-21,1,,,,,プランチャ,0
1735,7320001018903,新規,0,2022-02-21,2022-02-21,森林開発機構株式会社,,株式会社,大分県,大分市,大字三芳１３１１番地の１,,44,201,8700030,,,,,,,2022-02-21,1,,,,,シンリンカイハツキコウ,0
1736,7330003009247,新規,0,2022-02-21,2022-02-21,ＯＴＭ合同会社,,合同会社,熊本県,人吉市,中青井町３５７番地６－１Ｆ,,43,203,8680008,,,,,,,2022-02-21,1,,,,,オーティーエム,0
1739,7350001017596,新規,0,2022-02-21,2022-02-21,株式会社はる,,株式会社,宮崎県,西都市,聖陵町１丁目７７番,,45,208,8810015,,,,,,,2022-02-21,1,,,,,ハル,0
1742,7370001048219,新規,0,2022-02-21,2022-02-21,きくや総合保険株式会社,,株式会社,宮城県,岩沼市,恵み野２丁目５番地の７,,04,211,9892429,,,,,,,2022-02-21,1,,,,,キクヤソウゴウホケン,0
1743,7370001048227,新規,0,2022-02-21,2022-02-21,株式会社東谷商会,,株式会社,宮城県,柴田郡川崎町,支倉台１丁目２１番２０,,04,324,9891506,,,,,,,2022-02-21,1,,,,,アズマヤショウカイ,0
1744,7390001016792,新規,0,2022-02-21,2022-02-21,株式会社ＮｏｖａＥｒａ,,株式会社,山形県,長井市,大町８番１２号,,06,209,9930083,,,,,,,2022-02-21,1,,,,,ノヴァエラ,0
1745,7400001015784,新規,0,2022-02-21,2022-02-21,株式会社パークランド,,株式会社,岩手県,北上市,立花１地割４３番地４,,03,206,0240043,,,,,,,2022-02-21,1,,,,,パークランド,0
1750,7430003013635,新規,0,2022-02-21,2022-02-21,Ｆｕｒｑａｎ　Ｔｒａｄｉｎｇ合同会社,,合同会社,北海道,石狩郡当別町,川下２６８０番２８,,01,303,0610206,,,,,,,2022-02-21,1,,,,,フルカントレディング,0
1751,7430003013643,新規,0,2022-02-21,2022-02-21,みずなら合同会社,,合同会社,北海道,札幌市手稲区,手稲本町二条３丁目９番７号,,01,109,0060022,,,,,,,2022-02-21,1,,,,,ミズナラ,0
1757,7500001024008,新規,0,2022-02-21,2022-02-21,株式会社フォレストケア,,株式会社,愛媛県,喜多郡内子町,内子７１６番地,,38,422,7913301,,,,,,,2022-02-21,1,,,,,フォレストケア,0
1764,8010001224705,新規,0,2022-02-21,2022-02-21,株式会社エクシード東京,,株式会社,東京都,中央区,日本橋茅場町２丁目６番１号日経茅場町別館３Ｆ,,13,102,1030025,,,,,,,2022-02-21,1,,,,,エクシードトウキョウ,0
1765,8010001224713,新規,0,2022-02-21,2022-02-21,ＣＥホールディングス株式会社,,株式会社,東京都,千代田区,永田町２丁目１１番１号,,13,101,1000014,,,,,,,2022-02-21,1,,,,,シーイーホールディングス,0
1767,8010005034621,新規,0,2022-02-21,2022-02-21,弁護士法人フェニックスＺｅｒｏ,,その他の設立登記法人,東京都,千代田区,永田町２丁目９番６号十全ビル新館５０２号,,13,101,1000014,,,,,,,2022-02-21,1,,,,,フェニックスゼロ,0
1779,8010703006120,新規,0,2022-02-21,2022-02-21,合同会社ＨＭメディカル,,合同会社,東京都,品川区,西五反田２丁目９番７号ドルミ五反田４０７号,,13,109,1410031,,,,,,,2022-02-21,1,,,,,エイチエムメディカル,0
1781,8010801032737,新規,0,2022-02-21,2022-02-21,株式会社ＴＳＨ,,株式会社,東京都,大田区,城南島４丁目８番１号,,13,111,1430002,,,,,,,2022-02-21,1,,,,,ティーエスエイチ,0
1782,8010801032745,新規,0,2022-02-21,2022-02-21,ＷｉｌｌＭａｐ株式会社,,株式会社,東京都,大田区,上池台２丁目３３－４－４０１,,13,111,1450064,,,,,,,2022-02-21,1,,,,,ウィルマップ,0
1790,8011001145684,新規,0,2022-02-21,2022-02-21,株式会社ＴＡＤＤＬＥ,,株式会社,東京都,目黒区,碑文谷５丁目２－５Ｔ＆Ａビルディング５階,,13,110,1520003,,,,,,,2022-02-21,1,,,,,タドル,0
1791,8011001145775,新規,0,2022-02-21,2022-02-21,株式会社キャストプライズ,,株式会社,東京都,渋谷区,道玄坂１丁目１０番８号渋谷道玄坂東急ビル２Ｆ－Ｃ,,13,113,1500043,,,,,,,2022-02-21,1,,,,,キャストプライズ,0
1792,8011001145791,新規,0,2022-02-21,2022-02-21,株式会社ＨｉＤ,,株式会社,東京都,渋谷区,桜丘町２６番１号セルリアンタワー１５階,,13,113,1500031,,,,,,,2022-02-21,1,,,,,エイチアイディー,0
1793,8011001145841,新規,0,2022-02-21,2022-02-21,株式会社ＮＡＹＳ,,株式会社,東京都,目黒区,上目黒１丁目２６番１号中目黒アトラスタワー３３０６号室,,13,110,1530051,,,,,,,2022-02-21,1,,,,,ナイス,0
1799,8011403003580,新規,0,2022-02-21,2022-02-21,合同会社新生建設,,合同会社,東京都,板橋区,坂下２丁目７番１３号テラスたなか１階,,13,119,1740043,,,,,,,2022-02-21,1,,,,,シンセイケンセツ,0
1800,8011503005072,新規,0,2022-02-21,2022-02-21,吉国商事合同会社,,合同会社,東京都,荒川区,東日暮里５丁目５４－５－１Ｆ,,13,118,1160014,,,,,,,2022-02-21,1,,,,,ヨシクニショウジ,0
1801,8011601025749,新規,0,2022-02-21,2022-02-21,株式会社ＹＯＤアシスト,,株式会社,東京都,練馬区,中村北１丁目２番８－６０３号,,13,120,1760023,,,,,,,2022-02-21,1,,,,,ワイオーディーアシスト,0
1803,8011701025062,新規,0,2022-02-21,2022-02-21,株式会社よしでん,,株式会社,東京都,江戸川区,鹿骨１丁目５０番６号,,13,123,1330073,,,,,,,2022-02-21,1,,,,,ヨシデン,0
1808,8012301012888,新規,0,2022-02-21,2022-02-21,株式会社ゆずりは,,株式会社,東京都,町田市,小川１丁目２１７番地２,,13,209,1940003,,,,,,,2022-02-21,1,,,,,ユズリハ,0
1813,8012401038874,新規,0,2022-02-21,2022-02-21,株式会社ＢＲＡＶＥ,,株式会社,東京都,武蔵野市,境２丁目２番地２５号すきっぷプラザビル４階,,13,203,1800022,,,,,,,2022-02-21,1,,,,,ブレイブ,0
1816,8012801021406,新規,0,2022-02-21,2022-02-21,株式会社トリイ,,株式会社,東京都,東大和市,南街２丁目２５番地の９,,13,220,2070014,,,,,,,2022-02-21,1,,,,,トリイ,0
1817,8012801021414,新規,0,2022-02-21,2022-02-21,株式会社ＲＦソフトウェア,,株式会社,東京都,立川市,柏町５丁目１番地の１８エルシオ玉川上水５１３,,13,202,1900004,,,,,,,2022-02-21,1,,,,,アールエフソフトウェア,0
1822,8020001145330,新規,0,2022-02-21,2022-02-21,ＫＴＡＩＺ株式会社,,株式会社,神奈川県,横浜市磯子区,汐見台３丁目５番地１，３５０３棟３１２号,,14,107,2350022,,,,,,,2022-02-21,1,,,,,ケイティーアイズ,0
1826,8021001075237,新規,0,2022-02-21,2022-02-21,株式会社ｋｌｅｅ,,株式会社,神奈川県,三浦市,初声町三戸２１－２１,,14,210,2380112,,,,,,,2022-02-21,1,,,,,クリー,0
1836,8030001146856,新規,0,2022-02-21,2022-02-21,株式会社ゼネラルデリバリーラボラトリー,,株式会社,埼玉県,坂戸市,にっさい花みず木１丁目６番地１,,11,239,3500269,,,,,,,2022-02-21,1,,,,,ゼネラルデリバリーラボラトリー,0
1837,8030001146864,新規,0,2022-02-21,2022-02-21,株式会社ｋｕｒａ－ｆａｒｍ,,株式会社,埼玉県,本庄市,児玉町児玉南４丁目２４番２０号,,11,211,3670218,,,,,,,2022-02-21,1,,,,,クラファーム,0
1838,8030001146880,新規,0,2022-02-21,2022-02-21,株式会社和,,株式会社,埼玉県,熊谷市,下川上１１２６番地１,,11,202,3600003,,,,,,,2022-02-21,1,,,,,ナゴミ,0
1839,8030001146897,新規,0,2022-02-21,2022-02-21,株式会社ＭｅｄｉＧｌａｎｚ,,株式会社,埼玉県,さいたま市緑区,美園６丁目１８番地７,,11,109,3360967,,,,,,,2022-02-21,1,,,,,メディグランツ,0
1840,8030003018847,新規,0,2022-02-21,2022-02-21,飛鳥合同会社,,合同会社,埼玉県,川口市,金山町１０－１－４０１号室,,11,203,3320014,,,,,,,2022-02-21,1,,,,,アスカ,0
1848,8040001122253,新規,0,2022-02-21,2022-02-21,株式会社ｋｉｎａｋｏ,,株式会社,千葉県,木更津市,羽鳥野２丁目３番地３,,12,206,2920819,,,,,,,2022-02-21,1,,,,,キナコ,0
1849,8040001122311,新規,0,2022-02-21,2022-02-21,株式会社優心,,株式会社,千葉県,市原市,山田橋１丁目１４番地１７,,12,219,2900021,,,,,,,2022-02-21,1,,,,,ユウシン,0
1858,8050003006387,新規,0,2022-02-21,2022-02-21,合同会社ＭＩＴＨＳＵＫＩＦＡＳＨＩＯＮ光希,,合同会社,茨城県,神栖市,知手中央９丁目１２番７号須沢荘Ｃ棟,,08,232,3140112,,,,,,,2022-02-21,1,,,,,ミツキファッションミツキ,0
1859,8060001034579,新規,0,2022-02-21,2022-02-21,ＰＯＲＴＥＲ株式会社,,株式会社,栃木県,足利市,朝倉町２６３－１プラザビル２０２,,09,202,3260823,,,,,,,2022-02-21,1,,,,,ポーター,0
1860,8060003003961,新規,0,2022-02-21,2022-02-21,しまだ薬局合同会社,,合同会社,栃木県,宇都宮市,宿郷３丁目２０－１２薄井ビル１階,,09,201,3210945,,,,,,,2022-02-21,1,,,,,シマダヤッキョク,0
1864,8080001024768,新規,0,2022-02-21,2022-02-21,株式会社グリーンＳＤＧｓアグリファーム,,株式会社,静岡県,静岡市駿河区,高松２丁目１５番２６号,,22,102,4228034,,,,,,,2022-02-21,1,,,,,グリーンエスディージーズアグリファーム,0
1867,8080003002739,新規,0,2022-02-21,2022-02-21,合同会社ｕｃｈｉｃｃｈｉ,,合同会社,静岡県,静岡市葵区,春日３丁目６番１２号,,22,101,4200823,,,,,,,2022-02-21,1,,,,,ウチッチ,0
1868,8080005007430,新規,0,2022-02-21,2022-02-21,特定非営利活動法人ふじえだ寺子屋,,その他の設立登記法人,静岡県,藤枝市,時ケ谷３７４番地の３２,,22,214,4260204,,,,,,,2022-02-21,1,,,,,フジエダテラコヤ,0
1872,8080403004475,新規,0,2022-02-21,2022-02-21,合同会社アリエス,,合同会社,静岡県,浜松市中区,元城町２１６番地の４,,22,131,4300946,,,,,,,2022-02-21,1,,,,,アリエス,0
1873,8090001017424,新規,0,2022-02-21,2022-02-21,株式会社ＫＳＰＲＳ,,株式会社,山梨県,中巨摩郡昭和町,西条５２９０番地,,19,384,4093866,,,,,,,2022-02-21,1,,,,,ケーエスピーアールエス,0
1876,8100001035077,新規,0,2022-02-21,2022-02-21,スカイ株式会社,,株式会社,長野県,上田市,常磐城６６８番地,,20,203,3860027,,,,,,,2022-02-21,1,,,,,スカイ,0
1884,8110001036446,新規,0,2022-02-21,2022-02-21,株式会社ＭＥＣＯＮＮＥＣＴ,,株式会社,新潟県,新潟市西区,寺地２０１８番地１,,15,107,9501104,,,,,,,2022-02-21,1,,,,,ミコネクト,0
1885,8110001036454,新規,0,2022-02-21,2022-02-21,日総株式会社,,株式会社,新潟県,村上市,切田１１２１番地３,,15,212,9593106,,,,,,,2022-02-21,1,,,,,ニッソウ,0
1897,8120001243875,新規,0,2022-02-21,2022-02-21,シンフォニー株式会社,,株式会社,大阪府,大阪市北区,本庄東１丁目４番１７号５階,,27,127,5310074,,,,,,,2022-02-21,1,,,,,シンフォニー,0
1898,8120001243941,新規,0,2022-02-21,2022-02-21,株式会社Ｇａｉａ,,株式会社,大阪府,大阪市中央区,農人橋３丁目２番７号,,27,128,5400011,,,,,,,2022-02-21,1,,,,,ガイア,0
1899,8120001243958,新規,0,2022-02-21,2022-02-21,株式会社Ａ．,,株式会社,大阪府,大阪市西区,北堀江１丁目１７番１０－７０１号,,27,106,5500014,,,,,,,2022-02-21,1,,,,,エードット,0
1900,8120001243966,新規,0,2022-02-21,2022-02-21,株式会社Ｒ－Ｔｒｕｓｔ,,株式会社,大阪府,大阪市阿倍野区,松崎町２丁目３番８－６０４号,,27,119,5450053,,,,,,,2022-02-21,1,,,,,アールトラスト,0
1906,8120003021172,新規,0,2022-02-21,2022-02-21,合同会社ＲｅＭＹＲ,,合同会社,大阪府,守口市,大日東町２番１３－１０１７号,,27,209,5700016,,,,,,,2022-02-21,1,,,,,リマイアー,0
1916,8120901045594,新規,0,2022-02-21,2022-02-21,株式会社コモス,,株式会社,大阪府,茨木市,沢良宜西１丁目１６番１１号の２,,27,211,5670868,,,,,,,2022-02-21,1,,,,,コモス,0
1918,8120903004045,新規,0,2022-02-21,2022-02-21,合同会社ＦＲＯＮＴＩＥＲ,,合同会社,大阪府,三島郡島本町,高浜３丁目３番１号,,27,301,6180012,,,,,,,2022-02-21,1,,,,,フロンティア,0
1920,8122001035600,新規,0,2022-02-21,2022-02-21,株式会社ＳＤイリス,,株式会社,大阪府,東大阪市,吉松２丁目５番１９－３１８号,,27,227,5770821,,,,,,,2022-02-21,1,,,,,エスディイリス,0
1934,8130003007765,新規,0,2022-02-21,2022-02-21,合同会社ウミアック,,合同会社,京都府,京都市山科区,川田御出町３番地５ノアーズ京都東１Ｆ,,26,110,6078326,,,,,,,2022-02-21,1,,,,,ウミアック,0
1940,8140001124974,新規,0,2022-02-21,2022-02-21,エンワエンタープライズ株式会社,,株式会社,兵庫県,西宮市,弓場町９番３０－６０２号,,28,204,6620964,,,,,,,2022-02-21,1,,,,,エンワエンタープライズ,0
1943,8160001024000,新規,0,2022-02-21,2022-02-21,株式会社レヴォニック,,株式会社,滋賀県,大津市,堅田１丁目１７番１号,,25,201,5200243,,,,,,,2022-02-21,1,,,,,レヴォニック,0
1952,8180005019639,新規,0,2022-02-21,2022-02-21,一般社団法人心誠会,,その他の設立登記法人,愛知県,海部郡大治町,大字八ツ屋字堤添７５番地８,,23,424,4901133,,,,,,,2022-02-21,1,,,,,シンセイカイ,0
1953,8180005019647,新規,0,2022-02-21,2022-02-21,社会保険労務士法人オフィスＥＢＡ,,その他の設立登記法人,愛知県,名古屋市天白区,元八事５丁目１３７番地の４,,23,116,4680066,,,,,,,2022-02-21,1,,,,,オフィスエバ,0
1957,8180301035934,新規,0,2022-02-21,2022-02-21,株式会社田中電機製作所,,株式会社,愛知県,豊田市,荒井町能田原４４１番地,,23,211,4700333,,,,,,,2022-02-21,1,,,,,タナカデンキセイサクショ,0
1958,8180301035942,新規,0,2022-02-21,2022-02-21,株式会社ｗ．ｅ,,株式会社,愛知県,西尾市,西幡豆町中村郷１番地２,,23,213,4440703,,,,,,,2022-02-21,1,,,,,ウィ,0
1963,8190001029137,新規,0,2022-02-21,2022-02-21,株式会社Ｓサポート,,株式会社,三重県,松阪市,阿形町２００番地１６２,,24,204,5150823,,,,,,,2022-02-21,1,,,,,エスサポート,0
1970,8230001019240,新規,0,2022-02-21,2022-02-21,株式会社ＴＪ－Ｓｔｙｌｅ,,株式会社,富山県,富山市,婦中町萩島３６１番地２,,16,201,9392723,,,,,,,2022-02-21,1,,,,,ティージェイスタイル,0
1973,8240003005510,新規,0,2022-02-21,2022-02-21,合同会社大植緑工,,合同会社,広島県,東広島市,八本松東３丁目１８番１０－２０３号沖ノ原マンション,,34,212,7390142,,,,,,,2022-02-21,1,,,,,ダイショクリョクコウ,0
1974,8260001036547,新規,0,2022-02-21,2022-02-21,ＧＬ　ｐｌｕｓ株式会社,,株式会社,岡山県,倉敷市,児島宇野津１８８０番地１３,,33,202,7110935,,,,,,,2022-02-21,1,,,,,ジーエルプラス,0
1980,8290001096497,新規,0,2022-02-21,2022-02-21,ＦＹＰｎｅｘｔ株式会社,,株式会社,福岡県,福岡市博多区,博多駅前３丁目２３番１７号６Ｆ,,40,132,8120011,,,,,,,2022-02-21,1,,,,,エフワイピーネクスト,0
1981,8290001096506,新規,0,2022-02-21,2022-02-21,大家好不動産株式会社,,株式会社,福岡県,福岡市早良区,西新２丁目７番８－１２０１号ラクレイス西新,,40,137,8140002,,,,,,,2022-02-21,1,,,,,オオヤズキフドウサン,0
1983,8320001018902,新規,0,2022-02-21,2022-02-21,株式会社アペックス,,株式会社,大分県,宇佐市,大字江須賀４０４９番地の３,,44,211,8720032,,,,,,,2022-02-21,1,,,,,アペックス,0
1984,8330001029460,新規,0,2022-02-21,2022-02-21,株式会社ＨＵＭＯＲ,,株式会社,熊本県,熊本市東区,月出５丁目４番５号,,43,102,8620920,,,,,,,2022-02-21,1,,,,,ユーモア,0
1985,8350001017595,新規,0,2022-02-21,2022-02-21,株式会社サン・マルコ宮崎,,株式会社,宮崎県,延岡市,牧町４７０７番地３,,45,203,8820023,,,,,,,2022-02-21,1,,,,,サンマルコミヤザキ,0
1986,8350003004030,新規,0,2022-02-21,2022-02-21,合同会社カンカンヤＬａｂ,,合同会社,宮崎県,日向市,江良町４丁目１２３番地,,45,206,8830012,,,,,,,2022-02-21,1,,,,,カンカンヤラボ,0
1987,8360001030011,新規,0,2022-02-21,2022-02-21,國仲農園株式会社,,株式会社,沖縄県,島尻郡南風原町,字津嘉山１８１３－７,,47,350,9011117,,,,,,,2022-02-21,1,,,,,クニナカノウエン,0
1988,8360003011810,新規,0,2022-02-21,2022-02-21,合同会社ＯＫＩＮＡＷＡ　ＰＡＩＮＴ　ＮＩＣＥＧＵＹ,,合同会社,沖縄県,沖縄市,上地４丁目２番８号,,47,211,9040031,,,,,,,2022-02-21,1,,,,,オキナワペイントナイスガイ,0
1991,8370003005588,新規,0,2022-02-21,2022-02-21,合同会社ＴＡＫＵＭＩ　ＴＲＡＤＩＮＧＳ,,合同会社,宮城県,黒川郡大和町,吉田字根古南２４ー１,,04,421,9813625,,,,,,,2022-02-21,1,,,,,タクミトレーディングス,0
1993,8400001015783,新規,0,2022-02-21,2022-02-21,小野寺商事株式会社,,株式会社,岩手県,九戸郡九戸村,大字長興寺第８地割４７番地１,,03,506,0286504,,,,,,,2022-02-21,1,,,,,オノデラショウジ,0
1995,8420001017745,新規,0,2022-02-21,2022-02-21,ＢＬＵＥ　ＴＯＰ株式会社,,株式会社,青森県,十和田市,元町東２丁目１０番２５号,,02,206,0340003,,,,,,,2022-02-21,1,,,,,ブルートップ,0
1996,8420003002456,新規,0,2022-02-21,2022-02-21,合同会社えむ,,合同会社,青森県,むつ市,小川町１丁目１番１２号,,02,208,0350071,,,,,,,2022-02-21,1,,,,,エム,0
1999,8430001086021,新規,0,2022-02-21,2022-02-21,株式会社神建設,,株式会社,北海道,札幌市東区,東苗穂八条２丁目１６番１２号フローラ１０２号,,01,103,0070808,,,,,,,2022-02-21,1,,,,,ジンケンセツ,0
2000,8440005002717,新規,0,2022-02-21,2022-02-21,一般社団法人北海道の広領域考古学研究舎,,その他の設立登記法人,北海道,函館市,滝沢町４番３号,,01,202,0420957,,,,,,,2022-02-21,1,,,,,ホッカイドウノコウリョウイキコウコガクケンキュウシャ,0
2002,8470001018978,新規,0,2022-02-21,2022-02-21,エム・アイ・コンサルティング株式会社,,株式会社,香川県,高松市,寿町２丁目２－１０高松寿町プライムビル４階,,37,201,7600023,,,,,,,2022-02-21,1,,,,,エムアイコンサルティング,0
2006,8500001024007,新規,0,2022-02-21,2022-02-21,株式会社赤松舶用,,株式会社,愛媛県,宇和島市,坂下津甲４０７番地６７,,38,203,7980087,,,,,,,2022-02-21,1,,,,,アカマツハクヨウ,0
2007,8500001024015,新規,0,2022-02-21,2022-02-21,バーチャルハウンズ株式会社,,株式会社,愛媛県,松山市,久米窪田町３３７－１テクノプラザ愛媛本館内,,38,201,7911101,,,,,,,2022-02-21,1,,,,,バーチャルハウンズ,0
2020,9010005034620,新規,0,2022-02-21,2022-02-21,一般社団法人知財金融協会,,その他の設立登記法人,東京都,千代田区,大手町２丁目６番２号,,13,101,1000004,,,,,,,2022-02-21,1,,,,,チザイキンユウキョウカイ,0
2021,9010005034629,新規,0,2022-02-21,2022-02-21,一般社団法人クレール,,その他の設立登記法人,東京都,中央区,日本橋１丁目４番１号,,13,102,1030027,,,,,,,2022-02-21,1,,,,,クレール,0
2032,9010501048479,新規,0,2022-02-21,2022-02-21,慶裕株式会社,,株式会社,東京都,台東区,竜泉１丁目１８番１０－５０１号竜泉野口マンション,,13,106,1100012,,,,,,,2022-02-21,1,,,,,ケイユウ,0
2033,9010603009395,新規,0,2022-02-21,2022-02-21,ＰＪウェルスマネジメント合同会社,,合同会社,東京都,江東区,永代２丁目３１番１３号ヴィラオークラビル２階,,13,108,1350034,,,,,,,2022-02-21,1,,,,,ピージェイウェルスマネジメント,0
2038,9010805002917,新規,0,2022-02-21,2022-02-21,一般社団法人ＫＭＴ,,その他の設立登記法人,東京都,大田区,蒲田５丁目４番１号グランイーグル蒲田１１０３号室,,13,111,1440052,,,,,,,2022-02-21,1,,,,,ケーエムティー,0
2050,9011001145691,新規,0,2022-02-21,2022-02-21,株式会社Ｓａｎｔａ,,株式会社,東京都,渋谷区,広尾５丁目１４番２号,,13,113,1500012,,,,,,,2022-02-21,1,,,,,サンタ,0
2051,9011001145782,新規,0,2022-02-21,2022-02-21,株式会社ＡＩＧＲＡＭ,,株式会社,東京都,渋谷区,神宮前６丁目２３番４号桑野ビル２階,,13,113,1500001,,,,,,,2022-02-21,1,,,,,アイグラム,0
2052,9011001145832,新規,0,2022-02-21,2022-02-21,アニカナジャパン株式会社,,株式会社,東京都,渋谷区,道玄坂１丁目１０番８号渋谷道玄坂東急ビル２Ｆ－Ｃ,,13,113,1500043,,,,,,,2022-02-21,1,,,,,アニカナジャパン,0
2053,9011003014176,新規,0,2022-02-21,2022-02-21,シェルソーラージャパン合同会社,,合同会社,東京都,渋谷区,神宮前６丁目２３番４号桑野ビル２階,,13,113,1500001,,,,,,,2022-02-21,1,,,,,シェルソーラージャパン,0
2054,9011003014201,新規,0,2022-02-21,2022-02-21,合同会社Ｏｆｆｉｃｅ３２,,合同会社,東京都,渋谷区,道玄坂１丁目１０番８号渋谷道玄坂東急ビル２Ｆ－Ｃ,,13,113,1500043,,,,,,,2022-02-21,1,,,,,オフィスサーティーツー,0
2059,9011201023656,新規,0,2022-02-21,2022-02-21,株式会社Ｒｅ‐ｃｏｌｌｅ,,株式会社,東京都,中野区,東中野１丁目４６番１０号近松第３ビル３階,,13,114,1640003,,,,,,,2022-02-21,1,,,,,リコレ,0
2064,9011801040349,新規,0,2022-02-21,2022-02-21,株式会社カトマ,,株式会社,東京都,葛飾区,金町３丁目２７番９号,,13,122,1250042,,,,,,,2022-02-21,1,,,,,カトマ,0
2065,9011801040357,新規,0,2022-02-21,2022-02-21,ｅｏインシュアランス株式会社,,株式会社,東京都,葛飾区,小菅１丁目１５番２１号,,13,122,1240001,,,,,,,2022-02-21,1,,,,,エオインシュアランス,0
2067,9012401038865,新規,0,2022-02-21,2022-02-21,株式会社ネクサス,,株式会社,東京都,府中市,宮西町５丁目１１番地１号－８０３,,13,206,1830022,,,,,,,2022-02-21,1,,,,,ネクサス,0
2076,9020001145296,新規,0,2022-02-21,2022-02-21,株式会社ヴェール,,株式会社,神奈川県,川崎市高津区,下作延２丁目３６番２６号ヴィヴレ梶ヶ谷２０１,,14,134,2130033,,,,,,,2022-02-21,1,,,,,ヴェール,0
2077,9020001145305,新規,0,2022-02-21,2022-02-21,ＭＨＫ　ＳＴＵＤＩＯＳ株式会社,,株式会社,神奈川県,横浜市神奈川区,鶴屋町３丁目３２番１４号新港ビル２階,,14,102,2210835,,,,,,,2022-02-21,1,,,,,エムエイチケイストゥーディオス,0
2078,9020001145313,新規,0,2022-02-21,2022-02-21,株式会社ＮＥＸＴ　ＡＤＶＡＮＣＥ,,株式会社,神奈川県,横浜市泉区,上飯田町４７００番地２,,14,116,2450018,,,,,,,2022-02-21,1,,,,,ネクストアドバンス,0
2091,9030001146863,新規,0,2022-02-21,2022-02-21,マロン株式会社,,株式会社,埼玉県,さいたま市大宮区,大成町１丁目８６番地,,11,103,3300852,,,,,,,2022-02-21,1,,,,,マロン,0
2098,9030003018879,新規,0,2022-02-21,2022-02-21,ＡＩ楽道合同会社,,合同会社,埼玉県,戸田市,下前１丁目１１番２０－９０４号,,11,224,3350016,,,,,,,2022-02-21,1,,,,,エイアイラクド,0
2100,9040001122302,新規,0,2022-02-21,2022-02-21,株式会社京成リフォーム,,株式会社,千葉県,千葉市中央区,新宿１丁目２０－８－６１０,,12,101,2600021,,,,,,,2022-02-21,1,,,,,ケイセイリフォーム,0
2104,9040003019538,新規,0,2022-02-21,2022-02-21,合同会社テンダイ,,合同会社,千葉県,千葉市稲毛区,天台１丁目９番１－５２０号,,12,103,2630016,,,,,,,2022-02-21,1,,,,,テンダイ,0
2108,9050005013018,新規,0,2022-02-21,2022-02-21,特定非営利活動法人みらいケア,,その他の設立登記法人,茨城県,つくばみらい市,福岡１６２６番地１,,08,235,3002406,,,,,,,2022-02-21,1,,,,,ミライケア,0
2109,9060001034578,新規,0,2022-02-21,2022-02-21,ふらわ－ふぁ－夢おおしま株式会社,,株式会社,栃木県,日光市,轟４２０番地,,09,206,3212404,,,,,,,2022-02-21,1,,,,,フラワーファーユメオオシマ,0
2110,9060001034586,新規,0,2022-02-21,2022-02-21,株式会社ＭＯＭ’Ｓ,,株式会社,栃木県,鹿沼市,千渡１８２８番地７,,09,205,3220002,,,,,,,2022-02-21,1,,,,,マムズ,0
2115,9080001024767,新規,0,2022-02-21,2022-02-21,貴建設株式会社,,株式会社,静岡県,静岡市葵区,上土１丁目５番２６号,,22,101,4200810,,,,,,,2022-02-21,1,,,,,タカケンセツ,0
2118,9080403004474,新規,0,2022-02-21,2022-02-21,合同会社Ｌｉ’ｌ　ｆａｉｒｙ,,合同会社,静岡県,浜松市東区,天王町６１４番地の１,,22,132,4350052,,,,,,,2022-02-21,1,,,,,リルフェアリー,0
2120,9090001017415,新規,0,2022-02-21,2022-02-21,ＭＵ農園株式会社,,株式会社,山梨県,南アルプス市,落合３４８番地１,,19,208,4000423,,,,,,,2022-02-21,1,,,,,エムユーノウエン,0
2121,9090001017423,新規,0,2022-02-21,2022-02-21,中田自動車株式会社,,株式会社,山梨県,富士吉田市,富士見６丁目１５番１号,,19,202,4030009,,,,,,,2022-02-21,1,,,,,ナカダジドウシャ,0
2125,9100001035076,新規,0,2022-02-21,2022-02-21,株式会社クワンセウ,,株式会社,長野県,上田市,中央２丁目８番１０号,,20,203,3860012,,,,,,,2022-02-21,1,,,,,クワンセウ,0
2126,9110001036445,新規,0,2022-02-21,2022-02-21,株式会社南雲プラスター,,株式会社,新潟県,南魚沼市,長森新田３番地９,,15,226,9497117,,,,,,,2022-02-21,1,,,,,ナグモプラスター,0
2140,9120001243866,新規,0,2022-02-21,2022-02-21,光ホールディングス株式会社,,株式会社,大阪府,門真市,脇田町３番４号,,27,223,5710011,,,,,,,2022-02-21,1,,,,,ヒカルホールディングス,0
2141,9120001243949,新規,0,2022-02-21,2022-02-21,株式会社エムアセット,,株式会社,大阪府,大阪市東淀川区,小松２丁目１０番２３号,,27,114,5330004,,,,,,,2022-02-21,1,,,,,エムアセット,0
2142,9120003021163,新規,0,2022-02-21,2022-02-21,合同会社Ａｉｎ,,合同会社,大阪府,大阪市淀川区,塚本４丁目３番１５号１０Ａ,,27,123,5320026,,,,,,,2022-02-21,1,,,,,アイン,0
2145,9120101065095,新規,0,2022-02-21,2022-02-21,エムセキュリティ株式会社,,株式会社,大阪府,和泉市,阪本町２４６番地１,,27,219,5940052,,,,,,,2022-02-21,1,,,,,エムセキュリティ,0
2146,9120101065112,新規,0,2022-02-21,2022-02-21,株式会社Ｒａｉｓｅ工房,,株式会社,大阪府,堺市美原区,菅生９２番地１,,27,147,5870041,,,,,,,2022-02-21,1,,,,,ライズコウボウ,0
2150,9122003002275,新規,0,2022-02-21,2022-02-21,合同会社Ｅ－Ｃｒｅａｔｅ,,合同会社,大阪府,大東市,緑が丘１丁目３番２８号,,27,218,5740073,,,,,,,2022-02-21,1,,,,,イークリエイト,0
2151,9130001071168,新規,0,2022-02-21,2022-02-21,株式会社ぱふら,,株式会社,京都府,宇治市,五ケ庄折坂５番地１１８,,26,204,6110011,,,,,,,2022-02-21,1,,,,,パフラ,0
2152,9130003007772,新規,0,2022-02-21,2022-02-21,Ｓｑｕａｌｌ　ＩＰ合同会社,,合同会社,京都府,相楽郡精華町,光台１丁目７番地けいはんなプラザラボ棟,,26,366,6190237,,,,,,,2022-02-21,1,,,,,スコールアイピー,0
2156,9140001124949,新規,0,2022-02-21,2022-02-21,株式会社フリーステージ,,株式会社,兵庫県,神戸市北区,星和台１丁目１８番地の２,,28,109,6511121,,,,,,,2022-02-21,1,,,,,フリーステージ,0
2157,9140003017366,新規,0,2022-02-21,2022-02-21,Ｌｕｘｏｎａｔｅ合同会社,,合同会社,兵庫県,神戸市灘区,桜ケ丘町１５番５５－４２５号,,28,102,6570021,,,,,,,2022-02-21,1,,,,,ラクソネイト,0
2162,9180001149991,新規,0,2022-02-21,2022-02-21,株式会社ＨａｔｏＴｅｃｈ,,株式会社,愛知県,豊明市,前後町大代１６０５番地１１５,,23,229,4701151,,,,,,,2022-02-21,1,,,,,ハトテック,0
2170,9180301035933,新規,0,2022-02-21,2022-02-21,株式会社ＭＩＲＡＩ１８,,株式会社,愛知県,豊橋市,神ノ輪町２０番地の２,,23,201,4418068,,,,,,,2022-02-21,1,,,,,ミライイチハチ,0
2171,9180301035941,新規,0,2022-02-21,2022-02-21,株式会社ＣｏｏＮｙａｎ,,株式会社,愛知県,豊田市,志賀町箕平８１番地４４,,23,211,4710802,,,,,,,2022-02-21,1,,,,,クーニャン,0
2173,9190001029128,新規,0,2022-02-21,2022-02-21,エアフォルク株式会社,,株式会社,三重県,桑名市,多度町小山２６３０番地１（６街区５）,,24,205,5110105,,,,,,,2022-02-21,1,,,,,エアフォルク,0
2174,9190001029144,新規,0,2022-02-21,2022-02-21,株式会社ＳＨＩＢＡＫＡＮ,,株式会社,三重県,名張市,青蓮寺１２５８番地７,,24,208,5180443,,,,,,,2022-02-21,1,,,,,シバカン,0
2175,9190001029152,新規,0,2022-02-21,2022-02-21,株式会社Ｍ’ｓリアルティ,,株式会社,三重県,松阪市,大口町２５９番地１,,24,204,5150001,,,,,,,2022-02-21,1,,,,,エムズリアルティ,0
2177,9200003005463,新規,0,2022-02-21,2022-02-21,和香Ｊａｐａｎ合同会社,,合同会社,岐阜県,関市,迫間３３４８番地１,,21,205,5013924,,,,,,,2022-02-21,1,,,,,ワコウジャパン,0
2183,9240001059350,新規,0,2022-02-21,2022-02-21,株式会社ＨＩ‐ＴＯ,,株式会社,広島県,呉市,郷原町笹原１９４５番地,,34,202,7370161,,,,,,,2022-02-21,1,,,,,ヒート,0
2185,9240005015333,新規,0,2022-02-21,2022-02-21,医療法人社団恒星会高見内科,,その他の設立登記法人,広島県,広島市西区,草津本町２５番１号,,34,104,7330865,,,,,,,2022-02-21,1,,,,,コウセイカイタカミナイカ,0
2193,9290001096505,新規,0,2022-02-21,2022-02-21,株式会社ＮＩＫ　ＫＯＧＹＯ,,株式会社,福岡県,福岡市博多区,東月隈５丁目９番９号,,40,132,8120854,,,,,,,2022-02-21,1,,,,,ニックコウギョウ,0
2201,9290003012162,新規,0,2022-02-21,2022-02-21,合同会社内田,,合同会社,福岡県,久留米市,大善寺町宮本７６６‐２,,40,203,8300073,,,,,,,2022-02-21,1,,,,,ウチダ,0
2210,9310003004280,新規,0,2022-02-21,2022-02-21,合同会社円香,,合同会社,長崎県,長崎市,新地町８番２号,,42,201,8500842,,,,,,,2022-02-21,1,,,,,マドカ,0
2214,9330003009245,新規,0,2022-02-21,2022-02-21,合同会社宮村トランスポート,,合同会社,熊本県,熊本市東区,上南部３丁目４－２上南部倉庫Ｃ,,43,102,8618010,,,,,,,2022-02-21,1,,,,,ミヤムラトランスポート,0
2215,9330003009253,新規,0,2022-02-21,2022-02-21,ララマネージュ合同会社,,合同会社,熊本県,熊本市中央区,南千反畑町二丁目６番５０７号,,43,101,8600842,,,,,,,2022-02-21,1,,,,,ララマネージュ,0
2219,9350001017594,新規,0,2022-02-21,2022-02-21,宮崎県教育印刷株式会社,,株式会社,宮崎県,宮崎市,清武町木原３７８１番地１０,,45,201,8891601,,,,,,,2022-02-21,1,,,,,ミヤザキケンキョウイクインサツ,0
2221,9360003011818,新規,0,2022-02-21,2022-02-21,ハイホープス合同会社,,合同会社,沖縄県,浦添市,宮城１丁目１３番１号,,47,208,9012126,,,,,,,2022-02-21,1,,,,,ハイホープス,0
2222,9360005006592,新規,0,2022-02-21,2022-02-21,一般社団法人Ｆ５Ｐｒｏｄｕｃｔｉｏｎ,,その他の設立登記法人,沖縄県,那覇市,首里金城町４丁目３８番地５宇根氏貸間２階,,47,201,9030815,,,,,,,2022-02-21,1,,,,,エフファイブプロダクション,0
2223,9370001048233,新規,0,2022-02-21,2022-02-21,橋喜工業株式会社,,株式会社,宮城県,大崎市,古川二ノ構３番１６号,,04,215,9896152,,,,,,,2022-02-21,1,,,,,ハシヨシコウギョウ,0
2238,9470001018977,新規,0,2022-02-21,2022-02-21,株式会社アトレ,,株式会社,香川県,高松市,香川町大野５１８番地２,,37,201,7611701,,,,,,,2022-02-21,1,,,,,アトレ,0
2239,9470003002137,新規,0,2022-02-21,2022-02-21,ＳｍｉｌｅＳｍｉｌｅ合同会社,,合同会社,香川県,高松市,木太町５３０番地１,,37,201,7600080,,,,,,,2022-02-21,1,,,,,スマイルスマイル,0
2243,9500001024014,新規,0,2022-02-21,2022-02-21,株式会社ＫＯＥＩエンジニアリング,,株式会社,愛媛県,松山市,来住町１０７４番地９,,38,201,7911102,,,,,,,2022-02-21,1,,,,,コウエイエンジニアリング,0
2244,9700150106154,新規,0,2022-02-21,2021-12-09,一般社団法人　日本造園組合連合会沖縄県支部,,その他,沖縄県,浦添市,字沢岻１２５４番地,,47,208,9012112,,,,,,,2021-12-09,1,,,,,イツパンシヤダンホウジンニホンゾウエンクミアイレンゴウカイオキナワケンシブ,0
