sequenceNumber,corporateNumber,process,correct,updateDate,changeDate,name,nameImageId,kind,prefectureName,cityName,streetNumber,addressImageId,prefectureCode,cityCode,postCode,addressOutside,addressOutsideImageId,closeDate,closeCause,successorCorporateNumber,changeCause,assignmentDate,latest,enName,enPrefectureName,enCityName,enAddressOutside,furigana,hihyoji
7,1010001240849,新規,0,2023-12-18,2023-12-18,株式会社Ｎａｋａｍｕｒａ　Ｐｒｏｐｅｒｔｙ　Ｍａｎａｇｅｍｅｎｔ,,株式会社,東京都,中央区,日本橋人形町２丁目２６番８－８０３号,,13,102,1030013,,,,,,,2023-12-18,1,,,,,ナカムラプロパティマネジメント,0
8,1010001240923,新規,0,2023-12-18,2023-12-18,ＪＰｉＸ２号株式会社,,株式会社,東京都,千代田区,丸の内１丁目９番２号グラントウキョウサウスタワー８階,,13,101,1000005,,,,,,,2023-12-18,1,,,,,ジェイピーアイエックスニゴウ,0
19,1010401179126,新規,0,2023-12-18,2023-12-18,株式会社Ｌｅｇａｃｙ,,株式会社,東京都,港区,麻布十番２丁目１３番１号コレット麻布６０２,,13,103,1060045,,,,,,,2023-12-18,1,,,,,レガシー,0
20,1010401179233,新規,0,2023-12-18,2023-12-18,ＧＡＬＭＡ株式会社,,株式会社,東京都,港区,浜松町１丁目１２番６号,,13,103,1050013,,,,,,,2023-12-18,1,,,,,ガルマ,0
31,1010603010534,新規,0,2023-12-18,2023-12-18,合同会社武昌,,合同会社,東京都,江東区,扇橋３丁目８番５号,,13,108,1350011,,,,,,,2023-12-18,1,,,,,タケショウ,0
34,1010801034616,新規,0,2023-12-18,2023-12-18,Ａｔｔｏｓｅｋ株式会社,,株式会社,東京都,大田区,大森北６丁目２６番６号クレドール２０２,,13,111,1430016,,,,,,,2023-12-18,1,,,,,アトセク,0
37,1010901054365,新規,0,2023-12-18,2023-12-18,ＮＳコーポレーション株式会社,,株式会社,東京都,世田谷区,成城４丁目１２番１０号,,13,112,1570066,,,,,,,2023-12-18,1,,,,,エヌエスコーポレーション,0
43,1011001158908,新規,0,2023-12-18,2023-12-18,株式会社ＡＶＡ,,株式会社,東京都,渋谷区,神南１丁目１０番５号,,13,113,1500041,,,,,,,2023-12-18,1,,,,,アヴァ,0
45,1011003018093,新規,0,2023-12-18,2023-12-18,合同会社ブンシン,,合同会社,東京都,渋谷区,道玄坂１丁目１０番８号渋谷道玄坂東急ビル２Ｆ－Ｃ,,13,113,1500043,,,,,,,2023-12-18,1,,,,,ブンシン,0
46,1011003018102,新規,0,2023-12-18,2023-12-18,合同会社ヒートウェーブ,,合同会社,東京都,渋谷区,神泉町１１－５メゾンドヴィレ渋谷８０３号,,13,113,1500045,,,,,,,2023-12-18,1,,,,,ヒートウェーブ,0
47,1011003018119,新規,0,2023-12-18,2023-12-18,合同会社ＨＹＤ,,合同会社,東京都,目黒区,駒場１丁目３０－１４ゴールドプラザ駒場東大前１０３,,13,110,1530041,,,,,,,2023-12-18,1,,,,,エイチワイディ,0
73,1020001154957,新規,0,2023-12-18,2023-12-18,株式会社ＦＯＡＴＯ　ＧＬＯＢＡＬ,,株式会社,神奈川県,川崎市中原区,上小田中３丁目２９番２－２７８号,,14,133,2110053,,,,,,,2023-12-18,1,,,,,フアトグローバル,0
74,1021001080994,新規,0,2023-12-18,2023-12-18,株式会社ワンダフルエステート,,株式会社,神奈川県,茅ヶ崎市,萩園１２７０番地２７４号,,14,207,2530071,,,,,,,2023-12-18,1,,,,,ワンダフルエステート,0
79,1030001157736,新規,0,2023-12-18,2023-12-18,株式会社ＧＲＡＶＥＬ,,株式会社,埼玉県,飯能市,大字川寺５８８番地１４,,11,209,3570044,,,,,,,2023-12-18,1,,,,,グラベル,0
80,1030001157760,新規,0,2023-12-18,2023-12-18,株式会社カプシーヌ,,株式会社,埼玉県,朝霞市,三原１丁目６番１９－５０５号,,11,227,3510025,,,,,,,2023-12-18,1,,,,,カプシーヌ,0
83,1030003023234,新規,0,2023-12-18,2023-12-18,合同会社パソコン生活助け隊,,合同会社,埼玉県,さいたま市南区,白幡４丁目１２番２４号,,11,108,3360022,,,,,,,2023-12-18,1,,,,,パソコンセイカツタスケタイ,0
84,1030003023242,新規,0,2023-12-18,2023-12-18,ＴＮＲＳ合同会社,,合同会社,埼玉県,春日部市,六軒町１４４番地,,11,214,3440012,,,,,,,2023-12-18,1,,,,,ティーエヌアールエス,0
86,1040001131392,新規,0,2023-12-18,2023-12-18,Ｍ株式会社,,株式会社,千葉県,松戸市,古ケ崎１９２番地の６,,12,207,2710068,,,,,,,2023-12-18,1,,,,,エム,0
90,1040003023927,新規,0,2023-12-18,2023-12-18,合同会社ＲＩＮＡ,,合同会社,千葉県,成田市,土屋２０２番地６（ハイム長谷川Ａ１０３）,,12,211,2860021,,,,,,,2023-12-18,1,,,,,リナ,0
91,1040003023935,新規,0,2023-12-18,2023-12-18,合同会社内橋不動産,,合同会社,千葉県,我孫子市,布佐８９６,,12,222,2701101,,,,,,,2023-12-18,1,,,,,ウチハシフドウサン,0
92,1050001053982,新規,0,2023-12-18,2023-12-18,株式会社トキワ金属,,株式会社,茨城県,かすみがうら市,下稲吉２６４４番地４,,08,230,3150052,,,,,,,2023-12-18,1,,,,,トキワキンゾク,0
99,1060003004842,新規,0,2023-12-18,2023-12-18,合同会社令和産業,,合同会社,栃木県,栃木市,藤岡町西前原１３９番地２,,09,203,3290318,,,,,,,2023-12-18,1,,,,,レイワサンギョウ,0
100,1070001041201,新規,0,2023-12-18,2023-12-18,ＭＥＧＡ株式会社,,株式会社,群馬県,太田市,浜町６３番２５号Ｃ,,10,205,3730853,,,,,,,2023-12-18,1,,,,,メガ,0
101,1070003005204,新規,0,2023-12-18,2023-12-18,合同会社栄伸工業,,合同会社,群馬県,富岡市,上高瀬７８６－３,,10,210,3702334,,,,,,,2023-12-18,1,,,,,エイシンコウギョウ,0
102,1080001026036,新規,0,2023-12-18,2023-12-18,日本ｅＣｏｎｎｅｃｔ貿易株式会社,,株式会社,静岡県,焼津市,中新田１３０番地の２,,22,212,4250068,,,,,,,2023-12-18,1,,,,,ニホンイーコネクトボウエキ,0
107,1080103002942,新規,0,2023-12-18,2023-12-18,合同会社Ｓｈｉｎｐｈｏｒｉａ,,合同会社,静岡県,伊東市,八幡野１０３１－１５,,22,208,4130232,,,,,,,2023-12-18,1,,,,,シンフォリア,0
109,1080401026899,新規,0,2023-12-18,2023-12-18,株式会社ティフブルー,,株式会社,静岡県,浜松市中区,鴨江２丁目７番３０号,,22,131,4328023,,,,,,,2023-12-18,1,,,,,ティフブルー,0
118,1100001037047,新規,0,2023-12-18,2023-12-18,オーエス管理株式会社,,株式会社,長野県,北佐久郡軽井沢町,大字長倉９番地１０８,,20,321,3890111,,,,,,,2023-12-18,1,,,,,オーエスカンリ,0
121,1110003005240,新規,0,2023-12-18,2023-12-18,合同会社ＢＡＢＹ　ＳＴＥＰ,,合同会社,新潟県,見附市,今町２丁目１０番２０号信賀コーポ１、１０７,,15,211,9540111,,,,,,,2023-12-18,1,,,,,ベイビーステップ,0
126,1120001260654,新規,0,2023-12-18,2023-12-18,裕崇興業株式会社,,株式会社,大阪府,大阪市東淀川区,豊新１丁目４番３１号ＷＯＲＫＰＬＡＣＥ上新庄Ａ４,,27,114,5330014,,,,,,,2023-12-18,1,,,,,ユタカコウギョウ,0
127,1120001260712,新規,0,2023-12-18,2023-12-18,株式会社ゴールデンカンパニー,,株式会社,大阪府,大阪市東淀川区,菅原５丁目７番１５－１４０１号,,27,114,5330022,,,,,,,2023-12-18,1,,,,,ゴールデンカンパニー,0
128,1120001260729,新規,0,2023-12-18,2023-12-18,株式会社糸,,株式会社,大阪府,大阪市淀川区,西中島６丁目２番３－９１９号,,27,123,5320011,,,,,,,2023-12-18,1,,,,,イト,0
129,1120001260745,新規,0,2023-12-18,2023-12-18,株式会社ＹＳＴＡ,,株式会社,大阪府,枚方市,津田駅前１丁目２４番１－２０２号,,27,210,5730125,,,,,,,2023-12-18,1,,,,,ワイエスティーエー,0
138,1120101068717,新規,0,2023-12-18,2023-12-18,株式会社Ｌｉｂｅｌｔｅ,,株式会社,大阪府,堺市中区,平井７０１－１,,27,142,5998251,,,,,,,2023-12-18,1,,,,,リベルテ,0
143,1130001075903,新規,0,2023-12-18,2023-12-18,株式会社大西建設,,株式会社,京都府,宇治市,宇治東山７８番地１,,26,204,6110021,,,,,,,2023-12-18,1,,,,,オオニシケンセツ,0
144,1130001075952,新規,0,2023-12-18,2023-12-18,株式会社ＲｅＯＮ　Ｔｅｃ,,株式会社,京都府,京都市伏見区,桃山最上町２番地,,26,109,6120054,,,,,,,2023-12-18,1,,,,,レオンテック,0
145,1130001075960,新規,0,2023-12-18,2023-12-18,株式会社Ｒｅライフ,,株式会社,京都府,京都市伏見区,中島外山町４７番地,,26,109,6128455,,,,,,,2023-12-18,1,,,,,リライフ,0
147,1130003009198,新規,0,2023-12-18,2023-12-18,合同会社季珀,,合同会社,京都府,京都市北区,等持院中町４８番地,,26,101,6038347,,,,,,,2023-12-18,1,,,,,キハク,0
152,1140001132678,新規,0,2023-12-18,2023-12-18,株式会社さくら,,株式会社,兵庫県,神戸市兵庫区,浜崎通５番３０号,,28,105,6520807,,,,,,,2023-12-18,1,,,,,サクラ,0
153,1140001132686,新規,0,2023-12-18,2023-12-18,株式会社リズムプラス,,株式会社,兵庫県,神戸市中央区,磯上通８丁目１番２９号カサベラビルＣ＆Ｍ４０３号,,28,110,6510086,,,,,,,2023-12-18,1,,,,,リズムプラス,0
154,1140001132711,新規,0,2023-12-18,2023-12-18,ＦｕＦｕ株式会社,,株式会社,兵庫県,神戸市中央区,北長狭通４丁目２－１２ＧＷ元町ビル２Ｆ,,28,110,6500012,,,,,,,2023-12-18,1,,,,,フフ,0
156,1140003019923,新規,0,2023-12-18,2023-12-18,合同会社Ｒｅｐａｉｎｔ,,合同会社,兵庫県,西宮市,津門大箇町８－２１キャプテン大箇１Ｆ,,28,204,6638243,,,,,,,2023-12-18,1,,,,,リペイント,0
157,1140003019948,新規,0,2023-12-18,2023-12-18,ＨＯＬＡ合同会社,,合同会社,兵庫県,神戸市中央区,磯辺通１丁目１番１８号カサベラ国際プラザビル７０７号室,,28,110,6510084,,,,,,,2023-12-18,1,,,,,ホラ,0
159,1140005026843,新規,0,2023-12-18,2023-12-18,医療法人社団てらす,,その他の設立登記法人,兵庫県,姫路市,南条５２８,,28,201,6700952,,,,,,,2023-12-18,1,,,,,テラス,0
161,1160003003066,新規,0,2023-12-18,2023-12-18,合同会社ＭＫ８Ｗｏｒｋｓ,,合同会社,滋賀県,長浜市,湖北町小倉６７３番地,,25,203,5290343,,,,,,,2023-12-18,1,,,,,エムケイエイトワークス,0
174,1180001159247,新規,0,2023-12-18,2023-12-18,ＦＯＸ５１９株式会社,,株式会社,愛知県,名古屋市中村区,平池町４丁目６０番１２号,,23,105,4530872,,,,,,,2023-12-18,1,,,,,フォックスゴーイチキュー,0
175,1180001159305,新規,0,2023-12-18,2023-12-18,株式会社Ｒｅｌｉｖｅｌｙ,,株式会社,愛知県,名古屋市東区,東桜１丁目３番２号さくらビル３階,,23,102,4610005,,,,,,,2023-12-18,1,,,,,リライブリー,0
176,1180001159387,新規,0,2023-12-18,2023-12-18,株式会社ＯＮＥ　ｈａｉｒ,,株式会社,愛知県,名古屋市西区,浮野町１６２番地の１,,23,104,4520846,,,,,,,2023-12-18,1,,,,,ワンヘアー,0
177,1180001159395,新規,0,2023-12-18,2023-12-18,イージーパス株式会社,,株式会社,愛知県,名古屋市中区,丸の内３丁目２１番２３号,,23,106,4600002,,,,,,,2023-12-18,1,,,,,イージーパス,0
178,1180001159412,新規,0,2023-12-18,2023-12-18,株式会社ｓｕｎｎｙ　ｓｉｄｅ　ｐａｒｔｉｅｓ,,株式会社,愛知県,名古屋市緑区,白土７０３番地,,23,114,4580836,,,,,,,2023-12-18,1,,,,,サニーサイドパーティーズ,0
179,1180001159445,新規,0,2023-12-18,2023-12-18,株式会社ｍａｋｅ　ｉｔ,,株式会社,愛知県,北名古屋市,熊之庄江川６９番地サンファミリア１０１,,23,234,4810006,,,,,,,2023-12-18,1,,,,,メイクイット,0
181,1180003026131,新規,0,2023-12-18,2023-12-18,合同会社チェックレイズ,,合同会社,愛知県,名古屋市中区,正木４丁目１番１０号パルティール金山５０５,,23,106,4600024,,,,,,,2023-12-18,1,,,,,チェックレイズ,0
186,1220001025733,新規,0,2023-12-18,2023-12-18,株式会社ｅ‐ｗｏｒｋｓ,,株式会社,石川県,野々市市,二日市２丁目４７番地,,17,212,9218809,,,,,,,2023-12-18,1,,,,,イーワークス,0
189,1240003006457,新規,0,2023-12-18,2023-12-18,合同会社ＨＡＮＯＳＯＲＡ,,合同会社,広島県,尾道市,古浜町４番５号,,34,205,7220002,,,,,,,2023-12-18,1,,,,,ハノソラ,0
191,1250001020434,新規,0,2023-12-18,2023-12-18,株式会社フュージョン,,株式会社,山口県,宇部市,小松原二丁目５番５号,,35,202,7550000,,,,,,,2023-12-18,1,,,,,フュージョン,0
193,1260001038574,新規,0,2023-12-18,2023-12-18,株式会社未来通信,,株式会社,岡山県,玉野市,長尾３８０番地４,,33,204,7060151,,,,,,,2023-12-18,1,,,,,ミライツウシン,0
205,1290001104076,新規,0,2023-12-18,2023-12-18,株式会社ヒマワリ,,株式会社,福岡県,福岡市博多区,麦野２丁目５番１１号,,40,132,8120882,,,,,,,2023-12-18,1,,,,,ヒマワリ,0
206,1290001104092,新規,0,2023-12-18,2023-12-18,ＴＡＭＡＮＧ株式会社,,株式会社,福岡県,福岡市南区,玉川町１８番１２－６０７号サンハイツ玉川,,40,134,8150037,,,,,,,2023-12-18,1,,,,,タマン,0
208,1290003014752,新規,0,2023-12-18,2023-12-18,合同会社ライズトップ,,合同会社,福岡県,太宰府市,水城４丁目２番７号,,40,221,8180131,,,,,,,2023-12-18,1,,,,,ライズトップ,0
212,1300001013556,新規,0,2023-12-18,2023-12-18,株式会社ＫＡＫＥＲＵ,,株式会社,佐賀県,唐津市,相知町中山４０２６番地２１,,41,202,8493218,,,,,,,2023-12-18,1,,,,,カケル,0
214,1310001018752,新規,0,2023-12-18,2023-12-18,Ｇ＆Ｃ株式会社,,株式会社,長崎県,長崎市,柳谷町７－２３ハピーロード赤迫一番館１０１,,42,201,8528046,,,,,,,2023-12-18,1,,,,,ジーアンドシー,0
222,1330001031571,新規,0,2023-12-18,2023-12-18,株式会社オートランドウイングレンタカー,,株式会社,熊本県,熊本市東区,小山４丁目８番１２７号,,43,102,8618045,,,,,,,2023-12-18,1,,,,,オートランドウイングレンタカー,0
223,1330003010128,新規,0,2023-12-18,2023-12-18,合同会社ＣＬＯＵＤ９Ｂｌｄｇ．,,合同会社,熊本県,熊本市東区,長嶺東５丁目１２番２２号,,43,102,8618038,,,,,,,2023-12-18,1,,,,,クラウドナインビルディング,0
224,1350001018716,新規,0,2023-12-18,2023-12-18,株式会社ＡＳＯＮＡＬ,,株式会社,宮崎県,宮崎市,千草町３番１１号コスモドローム５０６号室,,45,201,8800006,,,,,,,2023-12-18,1,,,,,アソナル,0
225,1360001032947,新規,0,2023-12-18,2023-12-18,株式会社琉海,,株式会社,沖縄県,那覇市,字安里４１１番地１サンハイツ比嘉安里６０３,,47,201,9020067,,,,,,,2023-12-18,1,,,,,リュウカイ,0
229,1360003013549,新規,0,2023-12-18,2023-12-18,合同会社沖縄ワーク１,,合同会社,沖縄県,宜野湾市,大謝名５丁目１４番２３号,,47,205,9012225,,,,,,,2023-12-18,1,,,,,オキナワワークワン,0
234,1380001034198,新規,0,2023-12-18,2023-12-18,株式会社祐喜,,株式会社,福島県,いわき市,平赤井字諸荷１７０番地,,07,204,9793131,,,,,,,2023-12-18,1,,,,,ユウキ,0
238,1410001013669,新規,0,2023-12-18,2023-12-18,株式会社ミルサンティエ,,株式会社,秋田県,秋田市,川尻総社町５番２６号,,05,201,0100946,,,,,,,2023-12-18,1,,,,,ミルサンティエ,0
246,1430001090640,新規,0,2023-12-18,2023-12-18,株式会社アカウンタンツ・ハイ,,株式会社,北海道,札幌市北区,北八条西６丁目２番２０号,,01,102,0600808,,,,,,,2023-12-18,1,,,,,アカウンタンツハイ,0
247,1430001090673,新規,0,2023-12-18,2023-12-18,株式会社ケイズプランニング,,株式会社,北海道,小樽市,住吉町６－４,,01,203,0470015,,,,,,,2023-12-18,1,,,,,ケイズプランニング,0
250,1430003015744,新規,0,2023-12-18,2023-12-18,ＷＯＲＬＤ企画合同会社,,合同会社,北海道,札幌市中央区,大通西１５丁目３－５,,01,101,0600042,,,,,,,2023-12-18,1,,,,,ワールドキカク,0
254,1700150122778,新規,0,2023-12-18,2023-12-18,ｚｈｏｎｇｗｕｘｉｎｇ（ｘｉａｍｅｎ）Ｓｕｐｐｌｙ　ｃｈａｉｎ　Ｃｏ，．ＬＴＤ,,外国会社等,,,,,,,,ＸｉａＭｅｎＳｈｉＳｉＭｉｎｇＱｕＱｉａｎＰｕＤｏｎｇＹｉＬｉ５Ｈａｏ２０１Ｓｈｉ（ＦａＬｖＷｅｎＳｈｕＳｏｎｇＤａＤｉＺｈｉ）,,,,,,2023-12-18,1,,,,,ジョンウーシンシャーメンゴンインリエンヨウシエンゴンスー,0
265,2010001240823,新規,0,2023-12-18,2023-12-18,株式会社ｄｅｊｕ,,株式会社,東京都,中央区,銀座１丁目１２番４号Ｎ＆ＥＢＬＤ．６Ｆ,,13,102,1040061,,,,,,,2023-12-18,1,,,,,デジュ,0
266,2010001240848,新規,0,2023-12-18,2023-12-18,株式会社Ｓｕｐｅｒｂ,,株式会社,東京都,中央区,銀座１丁目１２－４Ｎ＆ＥＢＬＤ６Ｆ,,13,102,1040061,,,,,,,2023-12-18,1,,,,,スパーブ,0
267,2010001240906,新規,0,2023-12-18,2023-12-18,株式会社サザンカ,,株式会社,東京都,中央区,銀座６丁目１３番１６号銀座ｗａｌｌビルＵＣＦ５０１,,13,102,1040061,,,,,,,2023-12-18,1,,,,,サザンカ,0
268,2010001240914,新規,0,2023-12-18,2023-12-18,マテンロウ株式会社,,株式会社,東京都,中央区,銀座１丁目３番３号Ｇ１ビル７階,,13,102,1040061,,,,,,,2023-12-18,1,,,,,マテンロウ,0
271,2010003042482,新規,0,2023-12-18,2023-12-18,合同会社麹町サードリース,,合同会社,東京都,千代田区,麹町１丁目４番地半蔵門ファーストビル５階株式会社ファンドクリエーション内,,13,101,1020083,,,,,,,2023-12-18,1,,,,,コウジマチサードリース,0
274,2010005037646,新規,0,2023-12-18,2023-12-18,一般社団法人白井データセンター,,その他の設立登記法人,東京都,中央区,八丁堀４丁目２番１０号ＡＯＪ税理士法人内,,13,102,1040032,,,,,,,2023-12-18,1,,,,,シライデータセンター,0
282,2010401179224,新規,0,2023-12-18,2023-12-18,ＪＷＨ　Ｃａｐｉｔａｌ株式会社,,株式会社,東京都,港区,虎ノ門５丁目３番２０号仙石山アネックス２１４川田法律事務所内,,13,103,1050001,,,,,,,2023-12-18,1,,,,,ジェイダブリューエイチキャピタル,0
284,2010405022776,新規,0,2023-12-18,2023-12-18,一般社団法人みんなの金融教育協会,,その他の設立登記法人,東京都,港区,浜松町２丁目２番１５号,,13,103,1050013,,,,,,,2023-12-18,1,,,,,ミンナノキンユウキョウイクキョウカイ,0
294,2010901054356,新規,0,2023-12-18,2023-12-18,Ｂｒｉｄｇｅｗａｖｅ株式会社,,株式会社,東京都,世田谷区,粕谷２丁目２４番１－３２２号,,13,112,1570063,,,,,,,2023-12-18,1,,,,,ブリッジウエーブ,0
297,2011001158790,新規,0,2023-12-18,2023-12-18,株式会社ＩＢＲＯ　ＤＥＳＩＧＮ,,株式会社,東京都,目黒区,碑文谷２丁目２１番９号ＣＡＳＡ碑文谷２０２,,13,110,1520003,,,,,,,2023-12-18,1,,,,,アイブロデザイン,0
298,2011001158832,新規,0,2023-12-18,2023-12-18,株式会社サステナブルー,,株式会社,東京都,渋谷区,円山町５番５号Ｎａｖｉ渋谷Ｖ３階,,13,113,1500044,,,,,,,2023-12-18,1,,,,,サステナブルー,0
302,2011101105511,新規,0,2023-12-18,2023-12-18,鋒勝資本株式会社,,株式会社,東京都,新宿区,西新宿８丁目１１－１０星野ビル３Ｆ,,13,104,1600023,,,,,,,2023-12-18,1,,,,,ホウショウシホン,0
307,2011303005006,新規,0,2023-12-18,2023-12-18,エッレ・ジャパン合同会社,,合同会社,東京都,杉並区,浜田山３丁目３５－３４－３０１,,13,115,1680065,,,,,,,2023-12-18,1,,,,,エッレジャパン,0
313,2011503005879,新規,0,2023-12-18,2023-12-18,合同会社ラビット,,合同会社,東京都,北区,豊島７丁目１１番１２号,,13,117,1140003,,,,,,,2023-12-18,1,,,,,ラビット,0
314,2011503005887,新規,0,2023-12-18,2023-12-18,合同会社桃源,,合同会社,東京都,荒川区,東日暮里６丁目１番１号アトラスブランズタワー三河島３３０９号室,,13,118,1160014,,,,,,,2023-12-18,1,,,,,トウゲン,0
316,2011603004161,新規,0,2023-12-18,2023-12-18,合同会社タックスラボ,,合同会社,東京都,練馬区,早宮４丁目５番３号,,13,120,1790085,,,,,,,2023-12-18,1,,,,,タックスラボ,0
320,2012401041330,新規,0,2023-12-18,2023-12-18,華芸集団ＪＡＰＡＮ株式会社,,株式会社,東京都,小金井市,桜町１丁目５番２０号,,13,210,1840005,,,,,,,2023-12-18,1,,,,,カゲイシュウダンジャパン,0
328,2013301051774,新規,0,2023-12-18,2023-12-18,三哲株式会社,,株式会社,東京都,豊島区,東池袋３丁目２０番６号,,13,116,1700013,,,,,,,2023-12-18,1,,,,,サンテツ,0
333,2020001154923,新規,0,2023-12-18,2023-12-18,株式会社日進,,株式会社,神奈川県,川崎市川崎区,日進町９番地１川崎センチュリープラザ１２０６,,14,131,2100024,,,,,,,2023-12-18,1,,,,,ニッシン,0
334,2020001154948,新規,0,2023-12-18,2023-12-18,株式会社アシスト,,株式会社,神奈川県,横浜市神奈川区,金港町５番１４号,,14,102,2210056,,,,,,,2023-12-18,1,,,,,アシスト,0
335,2020001154972,新規,0,2023-12-18,2023-12-18,株式会社ｆａｍｉｌｙ３５,,株式会社,神奈川県,横浜市鶴見区,鶴見中央１丁目５番５号－４０１号室,,14,101,2300051,,,,,,,2023-12-18,1,,,,,ファミリーサンジュウゴ,0
338,2020003025206,新規,0,2023-12-18,2023-12-18,合同会社ＳＢＲ,,合同会社,神奈川県,川崎市宮前区,小台１丁目１７番地５サンマンション鷺沼３０７,,14,136,2160007,,,,,,,2023-12-18,1,,,,,エスビーアール,0
348,2030001157727,新規,0,2023-12-18,2023-12-18,あゆと株式会社,,株式会社,埼玉県,八潮市,大字鶴ケ曽根１７２２－１８,,11,234,3400802,,,,,,,2023-12-18,1,,,,,アユト,0
349,2030001157735,新規,0,2023-12-18,2023-12-18,株式会社勇敢,,株式会社,埼玉県,草加市,氷川町２１５４番地９ノースウエスト１０２,,11,221,3400034,,,,,,,2023-12-18,1,,,,,ユウカン,0
350,2030001157751,新規,0,2023-12-18,2023-12-18,株式会社三晃建築設計事務所,,株式会社,埼玉県,春日部市,南１丁目１９番２０号,,11,214,3440064,,,,,,,2023-12-18,1,,,,,サンコウケンチクセッケイジムショ,0
355,2040001131400,新規,0,2023-12-18,2023-12-18,ＪＬ国際貿易株式会社,,株式会社,千葉県,印旛郡栄町,安食台２丁目２７番２０号,,12,329,2701515,,,,,,,2023-12-18,1,,,,,ジェイエルコクサイボウエキ,0
358,2040003023942,新規,0,2023-12-18,2023-12-18,ＳＡＫＵＲＡ　ＷＩＮＧＳ合同会社,,合同会社,千葉県,山武市,上横地８８７番地２８オフィスＡ,,12,237,2891313,,,,,,,2023-12-18,1,,,,,サクラウイングス,0
361,2050001053973,新規,0,2023-12-18,2023-12-18,ＡＨＭＡＤ　ＪＡＮ　ＴＲＡＤＩＮＧ株式会社,,株式会社,茨城県,坂東市,上出島２７－２２,,08,228,3060654,,,,,,,2023-12-18,1,,,,,アフマドジャントレーディング,0
368,2070001041200,新規,0,2023-12-18,2023-12-18,株式会社ビジョン,,株式会社,群馬県,高崎市,剣崎町１３８番地３,,10,202,3700883,,,,,,,2023-12-18,1,,,,,ビジョン,0
370,2070003005203,新規,0,2023-12-18,2023-12-18,ＤＡＩＭＯ　ＪＡＰＡＮ合同会社,,合同会社,群馬県,前橋市,柏倉町１６３４番地,,10,201,3710246,,,,,,,2023-12-18,1,,,,,ダイモジャパン,0
372,2080403004927,新規,0,2023-12-18,2023-12-18,合同会社ゆるたみ,,合同会社,静岡県,浜松市西区,桜台３丁目２４番１号,,22,133,4311104,,,,,,,2023-12-18,1,,,,,ユルタミ,0
374,2100001037062,新規,0,2023-12-18,2023-12-18,株式会社Ｍｅｌｉａ,,株式会社,長野県,上伊那郡南箕輪村,田畑１０３８５番地,,20,385,3994511,,,,,,,2023-12-18,1,,,,,メリア,0
384,2130001075935,新規,0,2023-12-18,2023-12-18,株式会社清太郎,,株式会社,京都府,京都市中京区,三条通新町西入釜座町１８番地２,,26,104,6048241,,,,,,,2023-12-18,1,,,,,セイタロウ,0
385,2130001075951,新規,0,2023-12-18,2023-12-18,Ｔ・ケテルエステート株式会社,,株式会社,京都府,京都市西京区,川島粟田町３７番地,,26,111,6158194,,,,,,,2023-12-18,1,,,,,ティーケテルエステート,0
391,2140001132611,新規,0,2023-12-18,2023-12-18,キープカンパニー株式会社,,株式会社,兵庫県,芦屋市,宮塚町５番１４－２号,,28,206,6590062,,,,,,,2023-12-18,1,,,,,キープカンパニー,0
392,2140001132677,新規,0,2023-12-18,2023-12-18,株式会社丸一ホールディングス,,株式会社,兵庫県,尼崎市,杭瀬北新町３丁目２番２８号,,28,202,6600815,,,,,,,2023-12-18,1,,,,,マルイチホールディングス,0
393,2140001132710,新規,0,2023-12-18,2023-12-18,株式会社Ｓ＆Ｎ,,株式会社,兵庫県,神戸市西区,押部谷町高和６７０番地,,28,111,6512204,,,,,,,2023-12-18,1,,,,,エスアンドエヌ,0
394,2140001132719,新規,0,2023-12-18,2023-12-18,株式会社ＭＫ,,株式会社,兵庫県,西宮市,今津曙町９番２４号１階,,28,204,6638214,,,,,,,2023-12-18,1,,,,,エムケイ,0
395,2140003019930,新規,0,2023-12-18,2023-12-18,合同会社オビ,,合同会社,兵庫県,西宮市,清水町７番１２号,,28,204,6620033,,,,,,,2023-12-18,1,,,,,オビ,0
406,2180001159114,新規,0,2023-12-18,2023-12-18,株式会社なゆたグループ,,株式会社,愛知県,半田市,平井町６丁目３３番地,,23,205,4750964,,,,,,,2023-12-18,1,,,,,ナユタグループ,0
407,2180001159394,新規,0,2023-12-18,2023-12-18,株式会社サンレインソイル,,株式会社,愛知県,一宮市,浅野上土地２７－１階南,,23,203,4910871,,,,,,,2023-12-18,1,,,,,サンレインソイル,0
408,2180001159411,新規,0,2023-12-18,2023-12-18,株式会社Ｗ‐ＲＥＸ,,株式会社,愛知県,名古屋市中区,丸の内２丁目１８番２２号三博ビル１Ｆ,,23,106,4600002,,,,,,,2023-12-18,1,,,,,ダブルレックス,0
409,2180001159428,新規,0,2023-12-18,2023-12-18,株式会社ＭＳ関山,,株式会社,愛知県,名古屋市名東区,社口１丁目１０１４番地,,23,115,4650013,,,,,,,2023-12-18,1,,,,,エムエスセキヤマ,0
421,2250003003403,新規,0,2023-12-18,2023-12-18,ＫＨＣ合同会社,,合同会社,山口県,宇部市,岬町２丁目１０番２０号,,35,202,7550006,,,,,,,2023-12-18,1,,,,,ケイエイチシー,0
431,2310001018751,新規,0,2023-12-18,2023-12-18,株式会社魚屋ＨＩＢＩＫＩ,,株式会社,長崎県,長崎市,さくらの里１丁目２８番１号,,42,201,8512207,,,,,,,2023-12-18,1,,,,,ウオヤヒビキ,0
433,2330001031570,新規,0,2023-12-18,2023-12-18,酒味処おか田株式会社,,株式会社,熊本県,熊本市中央区,下通１丁目１１番２１号ロフティ西銀座館１階,,43,101,8600807,,,,,,,2023-12-18,1,,,,,シュミドコロオカダ,0
436,2350001018715,新規,0,2023-12-18,2023-12-18,株式会社インテリア内村,,株式会社,宮崎県,日南市,中平野１丁目１３番地１,,45,204,8870016,,,,,,,2023-12-18,1,,,,,インテリアウチムラ,0
441,2360003013556,新規,0,2023-12-18,2023-12-18,合同会社エース,,合同会社,沖縄県,浦添市,西原４丁目３９番７号ＴＴルネッサンス６０６号,,47,208,9012101,,,,,,,2023-12-18,1,,,,,エース,0
445,2370001050740,新規,0,2023-12-18,2023-12-18,株式会社雫工業,,株式会社,宮城県,東松島市,矢本字町浦１０８番地熊谷住宅３,,04,214,9810503,,,,,,,2023-12-18,1,,,,,シズクコウギョウ,0
446,2370003006419,新規,0,2023-12-18,2023-12-18,合同会社Ｄ２,,合同会社,宮城県,仙台市泉区,長命ケ丘３丁目１２番地の１６－２０２,,04,105,9813212,,,,,,,2023-12-18,1,,,,,ディーツー,0
449,2380001034197,新規,0,2023-12-18,2023-12-18,グランユズリハ株式会社,,株式会社,福島県,須賀川市,狸森字下竹ノ内９番地５,,07,207,9620723,,,,,,,2023-12-18,1,,,,,グランユズリハ,0
451,2380003005642,新規,0,2023-12-18,2023-12-18,海越合同会社,,合同会社,福島県,郡山市,富田町字前川原１７番地ジュネス１０３号,,07,203,9638041,,,,,,,2023-12-18,1,,,,,ウミゴエ,0
465,2430005014842,新規,0,2023-12-18,2023-12-18,特定非営利活動法人ＹＯＵＴＥＩ　ＮＳＲ　Ｆ．Ｃ．,,その他の設立登記法人,北海道,虻田郡倶知安町,字琴平１５２番地１８有限会社ナカタ・ステーションリュウツー事務所内,,01,400,0440066,,,,,,,2023-12-18,1,,,,,ヨウテイエヌエスアールエフシー,0
470,2700150122777,新規,0,2023-12-18,2023-12-18,ｓｈｅｎ　ｚｈｅｎ　ｓｈｉ　ｂａｉ　ｌｅ　ｓｉ　ｄｅｎｇ　ｓｈｉ　ｙｏｕ　ｘｉａｎ　ｇｏｎｇ　ｓｉ,,外国会社等,,,,,,,,ｓｈｅｎ　ｚｈｅｎ　ｓｈｉ　ｆｕ　ｔｉａｎ　ｑｕ　ｆｕ　ｔｉａｎ　ｊｉｅ　ｄａｏ　ｆｕ　ｎａｎ　ｓｈｅ　ｑｕ　ｓｈｅｎ　ｎａｎ　ｚｈｏｎｇ　ｌｕ　３００９ｈａｏ　ｆｕ　ｔｉａｎ　ｄａ　ｓｈａ　２３１１　ｓｈｅｎｚｈｅｎ　ｇｕａｎｇｄｏｎ　５１８０３３　ＣＮ,,,,,,2023-12-18,1,,,,,シェンジェンシーボーラースードンシーヨウシエンゴンスー,0
478,3010001240855,新規,0,2023-12-18,2023-12-18,株式会社ＳＨＩＯＫＡＷＡ　ＣＨＩＲＯＰＲＡＣＴＩＣ,,株式会社,東京都,中央区,銀座８丁目３番１０号,,13,102,1040061,,,,,,,2023-12-18,1,,,,,シオカワカイロプラクティック,0
479,3010001240863,新規,0,2023-12-18,2023-12-18,株式会社のり,,株式会社,東京都,文京区,関口２丁目５番１４号４０６,,13,105,1120014,,,,,,,2023-12-18,1,,,,,ノリ,0
483,3010003042481,新規,0,2023-12-18,2023-12-18,合同会社サリュテール,,合同会社,東京都,中央区,銀座１丁目２２番１１号銀座大竹ビジデンス２Ｆ,,13,102,1040061,,,,,,,2023-12-18,1,,,,,サリュテール,0
485,3010005037645,新規,0,2023-12-18,2023-12-18,一般社団法人日本美容内科学会,,その他の設立登記法人,東京都,中央区,銀座１丁目１２番４号Ｎ＆ＥＢＬＤ．７階,,13,102,1040061,,,,,,,2023-12-18,1,,,,,ニホンビヨウナイカガッカイ,0
491,3010403031588,新規,0,2023-12-18,2023-12-18,ＺｅｔｔａＪｏｕｌｅ合同会社,,合同会社,東京都,港区,虎ノ門１丁目１７番１号虎ノ門ヒルズビジネスタワー１５階,,13,103,1050001,,,,,,,2023-12-18,1,,,,,ゼタジュール,0
499,3010701045273,新規,0,2023-12-18,2023-12-18,ミヤマ塗装株式会社,,株式会社,東京都,品川区,大崎３丁目１７番１０号,,13,109,1410032,,,,,,,2023-12-18,1,,,,,ミヤマトソウ,0
504,3010803004788,新規,0,2023-12-18,2023-12-18,合同会社鶴,,合同会社,東京都,大田区,東糀谷４丁目１１番２１号サザンコートスズキ６０５,,13,111,1440033,,,,,,,2023-12-18,1,,,,,ツル,0
508,3010903008672,新規,0,2023-12-18,2023-12-18,合同会社ステディ,,合同会社,東京都,世田谷区,赤堤４丁目３番１４号,,13,112,1560044,,,,,,,2023-12-18,1,,,,,ステディ,0
513,3011001158674,新規,0,2023-12-18,2023-12-18,株式会社ヴィーゴ・ジャパン・インターナショナル,,株式会社,東京都,目黒区,三田１丁目４－４－２２０７,,13,110,1530062,,,,,,,2023-12-18,1,,,,,ヴィーゴジャパンインターナショナル,0
514,3011001158856,新規,0,2023-12-18,2023-12-18,株式会社ｓｔｕｄｉｏ　ＡＬＢＬＥ,,株式会社,東京都,渋谷区,神宮前６丁目２３番４号桑野ビル２階,,13,113,1500001,,,,,,,2023-12-18,1,,,,,スタジオオーブル,0
515,3011003018109,新規,0,2023-12-18,2023-12-18,伊藤商事合同会社,,合同会社,東京都,渋谷区,元代々木町２４番４号ＴＯＰ代々木公園第２の２０２,,13,113,1510062,,,,,,,2023-12-18,1,,,,,,0
516,3011101105519,新規,0,2023-12-18,2023-12-18,株式会社ＴＭＹ,,株式会社,東京都,新宿区,歌舞伎町２丁目９－３,,13,104,1600021,,,,,,,2023-12-18,1,,,,,ティーエムワイ,0
518,3011301029261,新規,0,2023-12-18,2023-12-18,小さなおかし工場株式会社,,株式会社,東京都,杉並区,西荻北４丁目４番１４号,,13,115,1670042,,,,,,,2023-12-18,1,,,,,チイサナオカシコウジョウ,0
529,3011601027386,新規,0,2023-12-18,2023-12-18,株式会社ＡＲＳコンサルティング,,株式会社,東京都,練馬区,南大泉３丁目２２番６号ベルコーポ１０２号,,13,120,1780064,,,,,,,2023-12-18,1,,,,,アルスコンサルティング,0
531,3011801043497,新規,0,2023-12-18,2023-12-18,イエロースター株式会社,,株式会社,東京都,葛飾区,高砂８丁目６番１１号野口ハイツ３０１号,,13,122,1250054,,,,,,,2023-12-18,1,,,,,イエロースター,0
536,3012401041305,新規,0,2023-12-18,2023-12-18,株式会社ウィレイズ,,株式会社,東京都,稲城市,東長沼３１０７番地の５－４０３号,,13,225,2060802,,,,,,,2023-12-18,1,,,,,ウィレイズ,0
542,3013301051773,新規,0,2023-12-18,2023-12-18,株式会社シェアリング・サポート,,株式会社,東京都,豊島区,南長崎２丁目２１番３号,,13,116,1710052,,,,,,,2023-12-18,1,,,,,シェアリングサポート,0
557,3020003025188,新規,0,2023-12-18,2023-12-18,リパワー合同会社,,合同会社,神奈川県,川崎市多摩区,菅馬場３丁目３４番地７号ペアロング１０２号,,14,135,2140004,,,,,,,2023-12-18,1,,,,,リパワー,0
563,3021001080984,新規,0,2023-12-18,2023-12-18,株式会社カタリス,,株式会社,神奈川県,相模原市中央区,相模原３丁目９番１号,,14,152,2520231,,,,,,,2023-12-18,1,,,,,カタリス,0
571,3030001157692,新規,0,2023-12-18,2023-12-18,株式会社レント,,株式会社,埼玉県,所沢市,北野２丁目２２番地の１２－１０３,,11,208,3591152,,,,,,,2023-12-18,1,,,,,レント,0
572,3030001157734,新規,0,2023-12-18,2023-12-18,株式会社フィガロアーツ,,株式会社,埼玉県,日高市,横手１丁目２０番地１１,,11,242,3501257,,,,,,,2023-12-18,1,,,,,フィガロアーツ,0
573,3030001157750,新規,0,2023-12-18,2023-12-18,株式会社Ｇｒｅｅｎ＆Ｃｈｅｃｋ,,株式会社,埼玉県,狭山市,中央１丁目２５番４号,,11,215,3501308,,,,,,,2023-12-18,1,,,,,グリーンアンドチェック,0
574,3030001157759,新規,0,2023-12-18,2023-12-18,株式会社レトリティ,,株式会社,埼玉県,北足立郡伊奈町,栄３丁目１５９－１,,11,301,3620805,,,,,,,2023-12-18,1,,,,,レトリティ,0
576,3030003023240,新規,0,2023-12-18,2023-12-18,合同会社ＢＩＰＵ　Ｃｏｒｐｏｒａｔｉｏｎ,,合同会社,埼玉県,川越市,大字的場２８５１番地７－Ａ１０１,,11,201,3501101,,,,,,,2023-12-18,1,,,,,ビプコーポレーション,0
583,3050001053972,新規,0,2023-12-18,2023-12-18,株式会社藤総建,,株式会社,茨城県,高萩市,東本町４丁目５０番地９,,08,214,3180014,,,,,,,2023-12-18,1,,,,,フジソウケン,0
589,3070003005202,新規,0,2023-12-18,2023-12-18,Ｒｉｎｇｓ合同会社,,合同会社,群馬県,伊勢崎市,新栄町３８４３番地１５,,10,204,3720038,,,,,,,2023-12-18,1,,,,,リングス,0
590,3070005010209,新規,0,2023-12-18,2023-12-18,一般社団法人ハッピーヘブン,,その他の設立登記法人,群馬県,伊勢崎市,日乃出町３３７番地１２,,10,204,3720022,,,,,,,2023-12-18,1,,,,,ハッピーヘブン,0
596,3100001037061,新規,0,2023-12-18,2023-12-18,株式会社新,,株式会社,長野県,飯田市,長野原３９５番地２１,,20,205,3992562,,,,,,,2023-12-18,1,,,,,アラタ,0
607,3120001260693,新規,0,2023-12-18,2023-12-18,株式会社Ｅｘｉｍｏ,,株式会社,大阪府,大阪市北区,梅田１丁目２番２号大阪駅前第２ビル１２,,27,127,5300001,,,,,,,2023-12-18,1,,,,,エキシモ,0
608,3120001260719,新規,0,2023-12-18,2023-12-18,株式会社Ｋ‐ＳＴＯＮＥ,,株式会社,大阪府,大阪市天王寺区,上汐３丁目８番１１－１１０２号,,27,109,5430002,,,,,,,2023-12-18,1,,,,,ケーストーン,0
609,3120001260727,新規,0,2023-12-18,2023-12-18,株式会社ＭＹＳ,,株式会社,大阪府,大阪市中央区,瓦町４丁目６番８－１６０１号,,27,128,5410048,,,,,,,2023-12-18,1,,,,,マイス,0
614,3120903004966,新規,0,2023-12-18,2023-12-18,合同会社ＢｅｌｌＴｒｅｅ,,合同会社,大阪府,高槻市,桜ケ丘北町６番１０号,,27,207,5690817,,,,,,,2023-12-18,1,,,,,ベルツリー,0
616,3122001037667,新規,0,2023-12-18,2023-12-18,株式会社ホームヘルパーサービス・トンビ,,株式会社,大阪府,東大阪市,西堤本通東２丁目４番２０－１０１号,,27,227,5770045,,,,,,,2023-12-18,1,,,,,ホームヘルパーサービストンビ,0
619,3140001132718,新規,0,2023-12-18,2023-12-18,株式会社ＭＩＬＩＹＡＨ,,株式会社,兵庫県,神戸市兵庫区,下沢通８丁目４番２６号,,28,105,6520047,,,,,,,2023-12-18,1,,,,,ミリヤ,0
622,3150001026951,新規,0,2023-12-18,2023-12-18,株式会社アルク,,株式会社,奈良県,生駒市,生駒台南１０２,,29,209,6300202,,,,,,,2023-12-18,1,,,,,アルク,0
625,3160005011255,新規,0,2023-12-18,2023-12-18,一般社団法人でこぼこさうんど,,その他の設立登記法人,滋賀県,大津市,伊香立向在地町７５２番地,,25,201,5200353,,,,,,,2023-12-18,1,,,,,デコボコサウンド,0
632,3180001159377,新規,0,2023-12-18,2023-12-18,株式会社ジオワークス,,株式会社,愛知県,小牧市,大字間々原新田字宮前５２９番地１,,23,219,4850016,,,,,,,2023-12-18,1,,,,,ジオワークス,0
633,3180001159402,新規,0,2023-12-18,2023-12-18,ＫＨＡＮ株式会社,,株式会社,愛知県,名古屋市千種区,橋本町３丁目２６番地の１グランドール本山２Ｅ,,23,101,4640035,,,,,,,2023-12-18,1,,,,,カン,0
634,3180001159419,新規,0,2023-12-18,2023-12-18,株式会社ＪＯＡＨ,,株式会社,愛知県,名古屋市中区,大須１丁目２３－５３大須アパートメント１００１号室,,23,106,4600011,,,,,,,2023-12-18,1,,,,,ジョア,0
638,3180003026121,新規,0,2023-12-18,2023-12-18,合同会社Ｔｉｏ,,合同会社,愛知県,名古屋市瑞穂区,村上町３丁目２８番地の１,,23,108,4670008,,,,,,,2023-12-18,1,,,,,ティオ,0
649,3240001062541,新規,0,2023-12-18,2023-12-18,広縁商事株式会社,,株式会社,広島県,広島市東区,光町２丁目１４番１６号乃木坂ビル３Ｆ,,34,102,7320052,,,,,,,2023-12-18,1,,,,,ヒロエンショウジ,0
651,3250003003402,新規,0,2023-12-18,2023-12-18,合同会社リプロメディエ,,合同会社,山口県,宇部市,大字東岐波４６５９番地５,,35,202,7550241,,,,,,,2023-12-18,1,,,,,リプロメディエ,0
652,3260001038572,新規,0,2023-12-18,2023-12-18,株式会社矢吹ホールディングス,,株式会社,岡山県,岡山市南区,妹尾４２０９番地,,33,104,7010205,,,,,,,2023-12-18,1,,,,,ヤブキホールディングス,0
665,3330003010126,新規,0,2023-12-18,2023-12-18,合同会社ＣＲＥＳＴ,,合同会社,熊本県,熊本市中央区,草葉町１－２１－９１３,,43,101,8600843,,,,,,,2023-12-18,1,,,,,,0
667,3350001018714,新規,0,2023-12-18,2023-12-18,株式会社鳶匠,,株式会社,宮崎県,日向市,大字平岩１２３９６番地８,,45,206,8830022,,,,,,,2023-12-18,1,,,,,トビショウ,0
668,3350003004530,新規,0,2023-12-18,2023-12-18,合同会社イノベイト,,合同会社,宮崎県,宮崎市,大字田吉８３９－８,,45,201,8800911,,,,,,,2023-12-18,1,,,,,イノベイト,0
674,3370005010715,新規,0,2023-12-18,2023-12-18,一般財団法人日本刀剣歴史研究機構,,その他の設立登記法人,宮城県,大崎市,岩出山字上川原町７番地６,,04,215,9896433,,,,,,,2023-12-18,1,,,,,ニホントウケンレキシケンキュウキコウ,0
675,3370005010731,新規,0,2023-12-18,2023-12-18,社会福祉法人つばめっこ,,その他の設立登記法人,宮城県,仙台市泉区,七北田字日野１２３番地９,,04,105,9813131,,,,,,,2023-12-18,1,,,,,ツバメッコ,0
691,3430003015759,新規,0,2023-12-18,2023-12-18,合同会社ＳＭＡＬＬＥＳＴ,,合同会社,北海道,札幌市中央区,宮の森四条１２丁目８番１１号,,01,101,0640954,,,,,,,2023-12-18,1,,,,,スモーレスト,0
695,3480003002059,新規,0,2023-12-18,2023-12-18,クレド合同会社,,合同会社,徳島県,徳島市,吉野本町６丁目２０番地の１３,,36,201,7700802,,,,,,,2023-12-18,1,,,,,クレド,0
698,3490003001844,新規,0,2023-12-18,2023-12-18,あいあーる合同会社,,合同会社,高知県,安芸市,本町２丁目４番９号,,39,203,7840004,,,,,,,2023-12-18,1,,,,,アイアール,0
701,3700150122776,新規,0,2023-12-18,2023-12-18,Ｃｈｅｎｇｄｕ　Ｍｅｎｇａｏ　Ｔｅｃｈｎｏｌｏｇｙ　Ｃｏ．，Ｌｔｄ,,外国会社等,,,,,,,,Ｒｏｏｍ，２－２７，Ｎｏ．２４７，Ｗｅｉ　ｊｉａ　ｎｉａｎ　３ｒｄ　ｒｏａｄ，Ｊｉｎｎｉｕ　ｄｉｓｔｒｉｃｔＣｈｅｎｇｄｕ　ｃｉｔｙ，Ｓｉｃｈｕａｎ　Ｐｒｏｖｉｎｃｅ,,,,,,2023-12-18,1,,,,,チョンドウモンアオコージーヨウシエンゴンスー,0
702,3700150122784,新規,0,2023-12-18,2023-12-18,ＴＨＲＥＡＤ　ＧＡＲＭＥＮＴＳ,,外国会社等,東京都,板橋区,板橋４丁目１１番１０号,,13,119,1730004,ネパール国ラリトプル郡マハラクシュミ市イマドール－３,,,,,,2023-12-18,1,,,,,スレツドガーメンツ,0
708,4010001240870,新規,0,2023-12-18,2023-12-18,株式会社ＬＵＮＤＡＴＴＥ,,株式会社,東京都,中央区,日本橋兜町１７番２号４Ｆ兜町第６葉山ビル,,13,102,1030026,,,,,,,2023-12-18,1,,,,,ルンダッテ,0
709,4010001240895,新規,0,2023-12-18,2023-12-18,株式会社インデックス,,株式会社,東京都,中央区,銀座１丁目１２番４号Ｎ＆ＥＢＬＤ．７階,,13,102,1040061,,,,,,,2023-12-18,1,,,,,インデックス,0
710,4010005037644,新規,0,2023-12-18,2023-12-18,一般社団法人Ｄ１号ファンド管理,,その他の設立登記法人,東京都,千代田区,丸の内３丁目１番１号,,13,101,1000005,,,,,,,2023-12-18,1,,,,,ディーイチゴウファンドカンリ,0
728,4010803004779,新規,0,2023-12-18,2023-12-18,合同会社月と森,,合同会社,東京都,大田区,山王４丁目７番９号ニュー木原山ロッヂ３０６,,13,111,1430023,,,,,,,2023-12-18,1,,,,,ツキトモリ,0
729,4010803004787,新規,0,2023-12-18,2023-12-18,合同会社ナントナーク,,合同会社,東京都,大田区,北馬込２丁目１０番５－１１号,,13,111,1430021,,,,,,,2023-12-18,1,,,,,ナントナーク,0
730,4010903008614,新規,0,2023-12-18,2023-12-18,ｂｕｌｌｅｔ合同会社,,合同会社,東京都,世田谷区,用賀４丁目１８－７－３０５,,13,112,1580097,,,,,,,2023-12-18,1,,,,,バレット,0
731,4010905004553,新規,0,2023-12-18,2023-12-18,税理士法人ＴＡＰＳ,,その他の設立登記法人,東京都,世田谷区,北沢２丁目２７番９号,,13,112,1550031,,,,,,,2023-12-18,1,,,,,タップス,0
734,4011201025095,新規,0,2023-12-18,2023-12-18,株式会社ＳＦＬ,,株式会社,東京都,中野区,新井４丁目２２番１０号－Ａ１０５,,13,114,1650026,,,,,,,2023-12-18,1,,,,,エスエフエル,0
735,4011203004254,新規,0,2023-12-18,2023-12-18,ｆｕｌ合同会社,,合同会社,東京都,中野区,弥生町２丁目３２番１０号アイザワビル３０１,,13,114,1640013,,,,,,,2023-12-18,1,,,,,フル,0
741,4011303005004,新規,0,2023-12-18,2023-12-18,Ｍａｒｓ　Ｃｒｅａｔｅ合同会社,,合同会社,東京都,杉並区,下井草５丁目１８番１７－４０３号サニーハイツ,,13,115,1670022,,,,,,,2023-12-18,1,,,,,マースクリエイト,0
746,4011501030118,新規,0,2023-12-18,2023-12-18,小仙女株式会社,,株式会社,東京都,荒川区,荒川３丁目３２－９二階,,13,118,1160002,,,,,,,2023-12-18,1,,,,,コセンジョ,0
752,4011803005981,新規,0,2023-12-18,2023-12-18,Ａｌｐｈａ　Ｖｅｃｔｏｒｓ合同会社,,合同会社,東京都,足立区,新田３丁目３６番１３－４０３号,,13,121,1230865,,,,,,,2023-12-18,1,,,,,アルファベクトルズ,0
753,4012301013700,新規,0,2023-12-18,2023-12-18,ｉｌＣｕｏｒｅ株式会社,,株式会社,東京都,町田市,成瀬台４丁目５番地４,,13,209,1940043,,,,,,,2023-12-18,1,,,,,イルクオーレ,0
754,4012403006321,新規,0,2023-12-18,2023-12-18,ＳａｅＳａ合同会社,,合同会社,東京都,武蔵野市,吉祥寺本町１丁目２０番１号吉祥寺永谷シティプラザ１００２,,13,203,1800004,,,,,,,2023-12-18,1,,,,,サエサ,0
757,4013301051764,新規,0,2023-12-18,2023-12-18,知行株式会社,,株式会社,東京都,豊島区,東池袋４丁目８－１エイチエックスビルＢ１０２号室,,13,116,1700013,,,,,,,2023-12-18,1,,,,,チコウ,0
758,4013303006923,新規,0,2023-12-18,2023-12-18,合同会社ＹＵＴＡ,,合同会社,東京都,豊島区,南池袋２丁目４７番６号パレス南池袋１００４号,,13,116,1710022,,,,,,,2023-12-18,1,,,,,ユウタ,0
764,4020001154954,新規,0,2023-12-18,2023-12-18,株式会社ｅライフホーム,,株式会社,神奈川県,横浜市都筑区,池辺町２５０９番地６,,14,118,2240053,,,,,,,2023-12-18,1,,,,,イーライフホーム,0
768,4021001080991,新規,0,2023-12-18,2023-12-18,ヒューマンライン物流株式会社,,株式会社,神奈川県,平塚市,大神９丁目１０番２号,,14,203,2540012,,,,,,,2023-12-18,1,,,,,ヒューマンラインブツリュウ,0
770,4021003013909,新規,0,2023-12-18,2023-12-18,ＡＭＭＡＡＲ　ＴＲＡＤＩＮＧ合同会社,,合同会社,神奈川県,茅ヶ崎市,芹沢１００４－１５,,14,207,2530008,,,,,,,2023-12-18,1,,,,,アッマールトレーディング,0
779,4030001157709,新規,0,2023-12-18,2023-12-18,株式会社ＹＡＮ　ＴＲＡＤＩＮＧ,,株式会社,埼玉県,越谷市,大字大泊７１０番地１シンパシーフロント１０１,,11,222,3430044,,,,,,,2023-12-18,1,,,,,ヤントレーディング,0
780,4030001157766,新規,0,2023-12-18,2023-12-18,株式会社ＴＯＫＩＭＥ,,株式会社,埼玉県,所沢市,緑町２丁目１番５号新所沢ウエストビル３Ｆ,,11,208,3591111,,,,,,,2023-12-18,1,,,,,トキメ,0
781,4030001157774,新規,0,2023-12-18,2023-12-18,株式会社ニットー冷熱アドバンス,,株式会社,埼玉県,飯能市,大字双柳１２６４番地,,11,209,3570021,,,,,,,2023-12-18,1,,,,,ニットーレイネツアドバンス,0
785,4030005021497,新規,0,2023-12-18,2023-12-18,一般社団法人雅信会,,その他の設立登記法人,埼玉県,越谷市,大字西方２９７５番地１（４１２）,,11,222,3430822,,,,,,,2023-12-18,1,,,,,ガシンカイ,0
788,4040001131398,新規,0,2023-12-18,2023-12-18,株式会社グローバル保険サービス,,株式会社,千葉県,佐倉市,山王２丁目３３番４,,12,212,2850807,,,,,,,2023-12-18,1,,,,,グローバルホケンサービス,0
800,4050001053955,新規,0,2023-12-18,2023-12-18,沼尻産業株式会社,,株式会社,茨城県,つくば市,榎戸７８３番地の１２,,08,220,3050853,,,,,,,2023-12-18,1,,,,,ヌマジリサンギョウ,0
805,4070001041181,新規,0,2023-12-18,2023-12-18,株式会社ヒルズＢ,,株式会社,群馬県,高崎市,上大類町１１５６番地１,,10,202,3700031,,,,,,,2023-12-18,1,,,,,ヒルズビー,0
808,4070003005201,新規,0,2023-12-18,2023-12-18,ＴＨＩＹＡＮＡ　ＩＮＴＥＲＮＡＴＩＯＮＡＬ合同会社,,合同会社,群馬県,桐生市,浜松町２丁目９番１２号,,10,203,3760007,,,,,,,2023-12-18,1,,,,,ティヤーナインターナショナル,0
811,4070005010208,新規,0,2023-12-18,2023-12-18,一般社団法人日本ティンバースポーツ協会,,その他の設立登記法人,群馬県,吾妻郡長野原町,大字北軽井沢１９２４番地,,10,424,3771412,,,,,,,2023-12-18,1,,,,,ニホンティンバースポーツキョウカイ,0
836,4120001260684,新規,0,2023-12-18,2023-12-18,株式会社Ｒｅ．ＡＣＴ,,株式会社,大阪府,大阪市住之江区,住之江３丁目７番３号,,27,125,5590004,,,,,,,2023-12-18,1,,,,,リアクト,0
837,4120001260718,新規,0,2023-12-18,2023-12-18,株式会社Ｂｅｌｌｅｚｅｌｌ,,株式会社,大阪府,大阪市旭区,生江３丁目５－２３,,27,117,5350004,,,,,,,2023-12-18,1,,,,,ベルゼル,0
838,4120001260726,新規,0,2023-12-18,2023-12-18,株式会社メルシィ,,株式会社,大阪府,大阪市中央区,久太郎町４丁目２番１号本町イシカワビル,,27,128,5410056,,,,,,,2023-12-18,1,,,,,メルシィ,0
839,4120001260742,新規,0,2023-12-18,2023-12-18,Ｋｉｎａｃｏ株式会社,,株式会社,大阪府,大阪市住之江区,粉浜３丁目８番２０－５０３号,,27,125,5590001,,,,,,,2023-12-18,1,,,,,キナコ,0
841,4120003025540,新規,0,2023-12-18,2023-12-18,Ｔｉｅｒ１合同会社,,合同会社,大阪府,大阪市北区,梅田１丁目１－３大阪駅前第３ビル２９階１－１－１号室,,27,127,5300001,,,,,,,2023-12-18,1,,,,,ティアワン,0
844,4120101068714,新規,0,2023-12-18,2023-12-18,株式会社鋼栄,,株式会社,大阪府,羽曳野市,広瀬６６番地の３,,27,222,5830845,,,,,,,2023-12-18,1,,,,,コウエイ,0
845,4120903004965,新規,0,2023-12-18,2023-12-18,合同会社マイトリー,,合同会社,大阪府,箕面市,如意谷４丁目６番１２－９０２号,,27,220,5620011,,,,,,,2023-12-18,1,,,,,マイトリー,0
846,4130001075909,新規,0,2023-12-18,2023-12-18,株式会社大原建装,,株式会社,京都府,京都市南区,久世上久世町４７７番地１１,,26,107,6018212,,,,,,,2023-12-18,1,,,,,オオハラケンソウ,0
847,4130001075941,新規,0,2023-12-18,2023-12-18,襲園生活株式会社,,株式会社,京都府,京都市東山区,泉涌寺門前町１１－３,,26,105,6050973,,,,,,,2023-12-18,1,,,,,シーエンセイカツ,0
848,4130001075958,新規,0,2023-12-18,2023-12-18,株式会社Ｗａｎｓ,,株式会社,京都府,京都市伏見区,鑓屋町１０６９番地１シャーメゾン墨染２０３,,26,109,6120084,,,,,,,2023-12-18,1,,,,,ワンズ,0
858,4140001132659,新規,0,2023-12-18,2023-12-18,ひいらぎ株式会社,,株式会社,兵庫県,西宮市,越水町１２番３号,,28,204,6620864,,,,,,,2023-12-18,1,,,,,ヒイラギ,0
859,4140001132709,新規,0,2023-12-18,2023-12-18,株式会社大貫建築,,株式会社,兵庫県,姫路市,兼田８１３番地１５６,,28,201,6728001,,,,,,,2023-12-18,1,,,,,オオヌキケンチク,0
860,4140003019929,新規,0,2023-12-18,2023-12-18,瑞智合同会社,,合同会社,兵庫県,神戸市中央区,花隈町２２番３号朱ビル３０４号室,,28,110,6500013,,,,,,,2023-12-18,1,,,,,ズイチ,0
861,4140005026832,新規,0,2023-12-18,2023-12-18,兵庫農業協同組合,,その他の設立登記法人,兵庫県,加東市,牧野１８７１番地の９,,28,228,6731474,,,,,,,2023-12-18,1,,,,,ヒョウゴ,0
863,4150001026934,新規,0,2023-12-18,2023-12-18,Ｂ‐ｍｓ株式会社,,株式会社,奈良県,香芝市,上中２００２番地２,,29,210,6390265,,,,,,,2023-12-18,1,,,,,ビーエムエス,0
865,4160001025571,新規,0,2023-12-18,2023-12-18,株式会社Ａｓｓｅｔ　ｂａｎｄ,,株式会社,滋賀県,彦根市,東沼波町１０１６－１２,,25,202,5220027,,,,,,,2023-12-18,1,,,,,アセットバンド,0
874,4180001159368,新規,0,2023-12-18,2023-12-18,株式会社ｂｏｎａ．,,株式会社,愛知県,長久手市,桜作１２０１番地,,23,238,4801157,,,,,,,2023-12-18,1,,,,,ボナ,0
875,4180001159384,新規,0,2023-12-18,2023-12-18,株式会社ＧＭＴ,,株式会社,愛知県,名古屋市緑区,乗鞍２丁目５０１番地の２,,23,114,4580004,,,,,,,2023-12-18,1,,,,,ジーエムティ,0
876,4180001159392,新規,0,2023-12-18,2023-12-18,株式会社バディスリー,,株式会社,愛知県,長久手市,仏が根９０２番地,,23,238,4801177,,,,,,,2023-12-18,1,,,,,バディスリー,0
879,4180003026120,新規,0,2023-12-18,2023-12-18,Ｈ２アソシエーション合同会社,,合同会社,愛知県,瀬戸市,やまて坂２丁目５９番地,,23,204,4890980,,,,,,,2023-12-18,1,,,,,エイチトゥーアソシエーション,0
882,4180301038131,新規,0,2023-12-18,2023-12-18,１０ＡＬＬ株式会社,,株式会社,愛知県,豊川市,中部町１丁目３３番地,,23,207,4420876,,,,,,,2023-12-18,1,,,,,テンオール,0
887,4240001062565,新規,0,2023-12-18,2023-12-18,ふたみ設計株式会社,,株式会社,広島県,東広島市,西条町田口８番地,,34,212,7390036,,,,,,,2023-12-18,1,,,,,フタミセッケイ,0
890,4260003004522,新規,0,2023-12-18,2023-12-18,勇輝不動産合同会社,,合同会社,岡山県,岡山市中区,原尾島２丁目２－１８－２０２,,33,102,7038235,,,,,,,2023-12-18,1,,,,,ユウキフドウサン,0
899,4290801030139,新規,0,2023-12-18,2023-12-18,株式会社アール・エム,,株式会社,福岡県,田川郡大任町,大字大行事１８７７番地,,40,608,8240512,,,,,,,2023-12-18,1,,,,,アールエム,0
901,4290805009690,新規,0,2023-12-18,2023-12-18,北九州監査法人,,その他の設立登記法人,福岡県,北九州市八幡東区,中央２丁目２４番５号芳賀ビル本館３階,,40,108,8050019,,,,,,,2023-12-18,1,,,,,キタキュウシュウ,0
907,4330001031577,新規,0,2023-12-18,2023-12-18,株式会社招福産業,,株式会社,熊本県,熊本市東区,小山町２０１３番地５,,43,102,8618030,,,,,,,2023-12-18,1,,,,,ショウフクサンギョウ,0
912,4350001018713,新規,0,2023-12-18,2023-12-18,株式会社ＳＥＩＧＩ,,株式会社,宮崎県,都城市,都原町３０６２番地９,,45,202,8850094,,,,,,,2023-12-18,1,,,,,セイギ,0
915,4350003004521,新規,0,2023-12-18,2023-12-18,美峰動物病院合同会社,,合同会社,宮崎県,小林市,細野１３１７番地１,,45,205,8860004,,,,,,,2023-12-18,1,,,,,ミホドウブツビョウイン,0
918,4360001032944,新規,0,2023-12-18,2023-12-18,ＩＮＶＥＳＴＯＲＳ株式会社,,株式会社,沖縄県,浦添市,西原４丁目１７番１２号,,47,208,9012101,,,,,,,2023-12-18,1,,,,,インベスターズ,0
920,4370001050739,新規,0,2023-12-18,2023-12-18,株式会社アイワーク,,株式会社,宮城県,仙台市青葉区,荒巻神明町２５番３０－５１０号,,04,101,9810965,,,,,,,2023-12-18,1,,,,,アイワーク,0
925,4430001090670,新規,0,2023-12-18,2023-12-18,株式会社エムズラボラトリー,,株式会社,北海道,札幌市南区,澄川四条４丁目１０番５１号,,01,106,0050004,,,,,,,2023-12-18,1,,,,,エムズラボラトリー,0
926,4430001090679,新規,0,2023-12-18,2023-12-18,株式会社Ｋ’ｓ,,株式会社,北海道,石狩市,花川南四条２丁目１０１番地,,01,235,0613204,,,,,,,2023-12-18,1,,,,,ケーズ,0
931,4440001009364,新規,0,2023-12-18,2023-12-18,株式会社大正工業,,株式会社,北海道,茅部郡森町,字白川５９番地６８,,01,345,0492307,,,,,,,2023-12-18,1,,,,,タイショウコウギョウ,0
939,4700150122767,新規,0,2023-12-18,2023-12-18,福浦地区自治会,,その他,島根県,松江市,美保関町福浦１５１５番地１,,32,201,6901504,,,,,,,2023-12-18,1,,,,,フクウラチクジチカイ,0
940,4700150122775,新規,0,2023-12-18,2023-12-18,深セン市小安智能設備有限公司,,外国会社等,,,,,,,,中国広東省深セン市龍華区観湖街道樟溪社区安瀾大道２６８号３１３,,,,,,2023-12-18,1,,,,,シンセンシショウアンチノウセツビユウゲンコウシ,0
941,4700150122783,新規,0,2023-12-18,2023-12-18,ＡＳＨＯＫＡ　ＦＯＯＤ　ＣＩＴＹ,,外国会社等,千葉県,千葉市若葉区,若松町２１６２番地３９コートヴィレッジ２０２,,12,104,2640021,スリランカ民主社会主義共和国南部州ゴール地区、アルトゥワラ、アルトゥワラジャンクション,,,,,,2023-12-18,1,,,,,アシヨカフードシテイ,0
945,5010001240845,新規,0,2023-12-18,2023-12-18,株式会社フェムライフ,,株式会社,東京都,中央区,銀座６丁目１０番１号ＧＩＮＺＡＳＩＸ１３階,,13,102,1040061,,,,,,,2023-12-18,1,,,,,フェムライフ,0
946,5010001240903,新規,0,2023-12-18,2023-12-18,ＷＰホールディングス株式会社,,株式会社,東京都,千代田区,大手町１丁目１番１号,,13,101,1000004,,,,,,,2023-12-18,1,,,,,ダブリューピーホールディングス,0
953,5010003042471,新規,0,2023-12-18,2023-12-18,合同会社ＳＯＮＯ．,,合同会社,東京都,中央区,新川２丁目１番地,,13,102,1040033,,,,,,,2023-12-18,1,,,,,ソノ,0
955,5010005037643,新規,0,2023-12-18,2023-12-18,特定非営利活動法人グリーン・ファンタジー,,その他の設立登記法人,東京都,千代田区,北の丸公園２番１号科学技術館２階（株式会社エヌ・ティー・エス内）,,13,101,1020091,,,,,,,2023-12-18,1,,,,,グリーンファンタジー,0
956,5010103002276,新規,0,2023-12-18,2023-12-18,合同会社３６９デザイン,,合同会社,東京都,八王子市,三崎町４－１１トーネンビル５Ｆ,,13,201,1920084,,,,,,,2023-12-18,1,,,,,ミロクデザイン,0
970,5010401179246,新規,0,2023-12-18,2023-12-18,株式会社南青山商事,,株式会社,東京都,港区,三田２丁目１４番７号ローレル三田９０３号,,13,103,1080073,,,,,,,2023-12-18,1,,,,,ミナミアオヤマショウジ,0
982,5010905004552,新規,0,2023-12-18,2023-12-18,一般社団法人ＴＥＴＳＵ,,その他の設立登記法人,東京都,世田谷区,尾山台２丁目２７番７号,,13,112,1580086,,,,,,,2023-12-18,1,,,,,テツ,0
987,5011001158904,新規,0,2023-12-18,2023-12-18,株式会社ＳＳソリューションズ,,株式会社,東京都,渋谷区,代々木２丁目２３番１号,,13,113,1510053,,,,,,,2023-12-18,1,,,,,エスエスソリューションズ,0
991,5011003018107,新規,0,2023-12-18,2023-12-18,シモタカ合同会社,,合同会社,東京都,渋谷区,神宮前６丁目２３番４号,,13,113,1500001,,,,,,,2023-12-18,1,,,,,シモタカ,0
992,5011003018123,新規,0,2023-12-18,2023-12-18,合同会社ＭＧギフト,,合同会社,東京都,目黒区,碑文谷５丁目１２番２０号ライオンズマンション学芸大学第三１０９号室,,13,110,1520003,,,,,,,2023-12-18,1,,,,,エムジーギフト,0
999,5011101105517,新規,0,2023-12-18,2023-12-18,株式会社ＡＵＸ,,株式会社,東京都,新宿区,新宿１丁目３６－２,,13,104,1600022,,,,,,,2023-12-18,1,,,,,オークス,0
1002,5011403004202,新規,0,2023-12-18,2023-12-18,合同会社新木,,合同会社,東京都,板橋区,本町３７番５－３０４号,,13,119,1730001,,,,,,,2023-12-18,1,,,,,シンキ,0
1003,5011501030117,新規,0,2023-12-18,2023-12-18,株式会社ＹＮＧ,,株式会社,東京都,北区,東十条３丁目５番１５号,,13,117,1140001,,,,,,,2023-12-18,1,,,,,ワイエヌジー,0
1005,5011603004167,新規,0,2023-12-18,2023-12-18,合同会社Ｗ‐ＢＲＩＤＧＥ,,合同会社,東京都,練馬区,西大泉４丁目１０番１４号,,13,120,1780065,,,,,,,2023-12-18,1,,,,,ダブルブリッヂ,0
1007,5011801043512,新規,0,2023-12-18,2023-12-18,株式会社アルファ,,株式会社,東京都,足立区,伊興１丁目１６－３０センシズヴィラ竹ノ塚１０５,00133028,13,121,1210823,,,,,,,2023-12-18,1,,,,,アルファ,0
1013,5013303006922,新規,0,2023-12-18,2023-12-18,合同会社Ｌａ　ｆａｍｉｇｌｉａ,,合同会社,東京都,豊島区,南池袋２丁目４番１号ＡＭＥＳビル３０１号,,13,116,1710022,,,,,,,2023-12-18,1,,,,,ラファミリア,0
1014,5013305003554,新規,0,2023-12-18,2023-12-18,一般社団法人日本美容品質保証機構,,その他の設立登記法人,東京都,豊島区,高田２丁目１２番２０－５０４号,,13,116,1710033,,,,,,,2023-12-18,1,,,,,ニホンビヨウヒンシツホショウキコウ,0
1017,5020001154953,新規,0,2023-12-18,2023-12-18,株式会社ワイティーズ,,株式会社,神奈川県,川崎市多摩区,宿河原４丁目２０番７号,,14,135,2140021,,,,,,,2023-12-18,1,,,,,ワイティーズ,0
1018,5020001154961,新規,0,2023-12-18,2023-12-18,株式会社大岡,,株式会社,神奈川県,横浜市都筑区,川和台７番２号,,14,118,2240056,,,,,,,2023-12-18,1,,,,,オオオカ,0
1020,5021001080982,新規,0,2023-12-18,2023-12-18,株式会社Ｒｅｓｏｕｒｃｅ　Ｆｉｒｍ,,株式会社,神奈川県,相模原市中央区,小町通１丁目５番１７号,,14,152,2520217,,,,,,,2023-12-18,1,,,,,リソースファーム,0
1024,5030001157740,新規,0,2023-12-18,2023-12-18,株式会社ＦＯＲＷＡＲＤ,,株式会社,埼玉県,川口市,大字新井宿１１１２番地の１６,,11,203,3330826,,,,,,,2023-12-18,1,,,,,フォワード,0
1025,5030001157757,新規,0,2023-12-18,2023-12-18,盛和株式会社,,株式会社,埼玉県,蕨市,南町２丁目６番１７号,,11,223,3350003,,,,,,,2023-12-18,1,,,,,セイワ,0
1026,5030001157765,新規,0,2023-12-18,2023-12-18,アクティビスト株式会社,,株式会社,埼玉県,加須市,馬内７２番地１,,11,210,3470043,,,,,,,2023-12-18,1,,,,,アクティビスト,0
1027,5030001157773,新規,0,2023-12-18,2023-12-18,株式会社ＤＣアライフ,,株式会社,埼玉県,さいたま市大宮区,桜木町２丁目３番地大宮マルイ７階,,11,103,3300854,,,,,,,2023-12-18,1,,,,,ディーシーアライフ,0
1030,5030003023239,新規,0,2023-12-18,2023-12-18,合同会社ＮＡＧ,,合同会社,埼玉県,さいたま市南区,別所７丁目２１番１－２８１１号,,11,108,3360021,,,,,,,2023-12-18,1,,,,,ナグ,0
1031,5030003023247,新規,0,2023-12-18,2023-12-18,合同会社ファイブプラス,,合同会社,埼玉県,さいたま市見沼区,春野１丁目５－１－８０４,,11,104,3370002,,,,,,,2023-12-18,1,,,,,ファイブプラス,0
1038,5040001131397,新規,0,2023-12-18,2023-12-18,株式会社丸正人材サービス,,株式会社,千葉県,鴨川市,東町１５５８番地４,,12,223,2960041,,,,,,,2023-12-18,1,,,,,マルショウジンザイサービス,0
1042,5050001053970,新規,0,2023-12-18,2023-12-18,文株式会社,,株式会社,茨城県,水戸市,笠原町１１５５番地の２,,08,201,3100852,,,,,,,2023-12-18,1,,,,,ブン,0
1043,5050001053987,新規,0,2023-12-18,2023-12-18,株式会社ファミリア,,株式会社,茨城県,水戸市,吉沢町７６４番地の５,,08,201,3100845,,,,,,,2023-12-18,1,,,,,ファミリア,0
1078,5120001260535,新規,0,2023-12-18,2023-12-18,Ｗｅｌｌ　ｄｏｎｅ株式会社,,株式会社,大阪府,大阪市北区,梅田１丁目３番１号大阪駅前第一ビル５階ＲＯＹＡＬＯＦＦＩＣＥ内,,27,127,5300001,,,,,,,2023-12-18,1,,,,,ウェルダン,0
1079,5120001260700,新規,0,2023-12-18,2023-12-18,セレクト株式会社,,株式会社,大阪府,門真市,東田町１番４号,,27,223,5710034,,,,,,,2023-12-18,1,,,,,セレクト,0
1086,5120901048484,新規,0,2023-12-18,2023-12-18,株式会社あまつかぜ,,株式会社,大阪府,吹田市,岸部中３丁目２４番２－１０５号,,27,205,5640002,,,,,,,2023-12-18,1,,,,,アマツカゼ,0
1089,5130001075940,新規,0,2023-12-18,2023-12-18,株式会社Ｈａｐｐｉｎｅｓｓ　ＥＣ,,株式会社,京都府,京都市山科区,勧修寺東堂田町２４３番地１,,26,110,6078222,,,,,,,2023-12-18,1,,,,,ハピネスイーシー,0
1090,5130001075957,新規,0,2023-12-18,2023-12-18,株式会社アマネ,,株式会社,京都府,京都市下京区,上柳町３３１タカノハスクエア４階,,26,106,6008099,,,,,,,2023-12-18,1,,,,,アマネ,0
1096,5140001132591,新規,0,2023-12-18,2023-12-18,株式会社ＬＥＧＡＬＩＡ,,株式会社,兵庫県,尼崎市,大西町１丁目４－１８,,28,202,6610023,,,,,,,2023-12-18,1,,,,,レガリア,0
1097,5140001132690,新規,0,2023-12-18,2023-12-18,株式会社ＭＪ電設,,株式会社,兵庫県,伊丹市,西野２丁目３８５番地３,,28,207,6640028,,,,,,,2023-12-18,1,,,,,エムジェイデンセツ,0
1098,5140001132708,新規,0,2023-12-18,2023-12-18,Ｍ＆Ｉケミカル株式会社,,株式会社,兵庫県,神戸市中央区,海岸通２８番地ＢＥＬＩＳＴＡ神戸旧居留地２１０２号,,28,110,6500024,,,,,,,2023-12-18,1,,,,,エムアンドアイケミカル,0
1113,5180001159301,新規,0,2023-12-18,2023-12-18,銀邦金属複合材料日本株式会社,,株式会社,愛知県,名古屋市西区,牛島町６－１名古屋ルーセントタワー４０階１４号,,23,104,4510046,,,,,,,2023-12-18,1,,,,,ギンホウキンゾクフクゴウザイリョウニホン,0
1114,5180001159367,新規,0,2023-12-18,2023-12-18,美しい映像株式会社,,株式会社,愛知県,名古屋市天白区,原２丁目３０１番地,,23,116,4680015,,,,,,,2023-12-18,1,,,,,ウツクシイエイゾウ,0
1115,5180001159383,新規,0,2023-12-18,2023-12-18,株式会社ＩＲＫＯ,,株式会社,愛知県,津島市,百島町字祢宜４３番地１,,23,208,4960019,,,,,,,2023-12-18,1,,,,,イリコ,0
1116,5180001159400,新規,0,2023-12-18,2023-12-18,Ｎｅｘｕｓ株式会社,,株式会社,愛知県,名古屋市中川区,八田本町１１番地の２,,23,110,4540904,,,,,,,2023-12-18,1,,,,,ネクサス,0
1117,5180001159409,新規,0,2023-12-18,2023-12-18,株式会社今田工業,,株式会社,愛知県,名古屋市名東区,八前２丁目２１９番地の１,,23,115,4650018,,,,,,,2023-12-18,1,,,,,イマダコウギョウ,0
1118,5180001159425,新規,0,2023-12-18,2023-12-18,株式会社ｋｏｔｏＮＯＨＡ,,株式会社,愛知県,名古屋市中区,栄２丁目２番１号広小路伏見中駒ビル２Ｆ－９,,23,106,4600008,,,,,,,2023-12-18,1,,,,,コトノハ,0
1123,5180003026128,新規,0,2023-12-18,2023-12-18,楽々合同会社,,合同会社,愛知県,岩倉市,東新町南江向釜之口１－１岩倉団地６３号棟３号,,23,228,4820001,,,,,,,2023-12-18,1,,,,,ラクラク,0
1126,5180301038130,新規,0,2023-12-18,2023-12-18,株式会社ＩＫプロジェクト,,株式会社,愛知県,碧南市,沢渡町２１８番地,,23,209,4470879,,,,,,,2023-12-18,1,,,,,アイケイプロジェクト,0
1138,5240001062564,新規,0,2023-12-18,2023-12-18,株式会社Ｏｆｆｉｃｉａｌ　Ｋｒａｆｔ,,株式会社,広島県,福山市,箕島町５２６８番地２８,,34,207,7210957,,,,,,,2023-12-18,1,,,,,オフィシャルクラフト,0
1149,5290001104048,新規,0,2023-12-18,2023-12-18,株式会社ＲＩＧＨＴホールディングス,,株式会社,福岡県,福岡市博多区,中洲４丁目７番７号中州リッチビル４階,,40,132,8100801,,,,,,,2023-12-18,1,,,,,ライトホールディングス,0
1150,5290001104080,新規,0,2023-12-18,2023-12-18,株式会社堤・エンジニアリング,,株式会社,福岡県,那珂川市,中原５丁目９９番地６,,40,231,8111213,,,,,,,2023-12-18,1,,,,,ツツミエンジニアリング,0
1155,5310001018749,新規,0,2023-12-18,2023-12-18,株式会社ｅ’ホールディングス,,株式会社,長崎県,松浦市,御厨町北平免２１１番地２,,42,208,8594754,,,,,,,2023-12-18,1,,,,,イーホールディングス,0
1156,5320003004250,新規,0,2023-12-18,2023-12-18,合同会社Ｓａｌｌｏｓ,,合同会社,大分県,大分市,大字小池原５９番地の１デュープレックス小池原Ｃ２０１,,44,201,8700147,,,,,,,2023-12-18,1,,,,,サロス,0
1161,5330005010733,新規,0,2023-12-18,2023-12-18,医療法人誠心会ありむら歯科医院,,その他の設立登記法人,熊本県,上益城郡嘉島町,大字鯰１８３６番地２,,43,442,8613101,,,,,,,2023-12-18,1,,,,,セイシンカイアリムラシカイイン,0
1164,5340003004331,新規,0,2023-12-18,2023-12-18,合同会社友希,,合同会社,鹿児島県,鹿児島市,西伊敷６丁目１０番４号,,46,201,8911202,,,,,,,2023-12-18,1,,,,,ユウミ,0
1166,5350001018712,新規,0,2023-12-18,2023-12-18,株式会社かえる,,株式会社,宮崎県,宮崎市,大字赤江９７４番地２８マリベール赤江２０５号,,45,201,8800912,,,,,,,2023-12-18,1,,,,,カエル,0
1167,5350003004529,新規,0,2023-12-18,2023-12-18,合同会社エンボルド,,合同会社,宮崎県,宮崎市,大字田吉８３９－８,,45,201,8800911,,,,,,,2023-12-18,1,,,,,エンボルド,0
1170,5360003013553,新規,0,2023-12-18,2023-12-18,合同会社アンダーワークス,,合同会社,沖縄県,豊見城市,字真玉橋２４５番地６－Ｆステージとよみ３０３号,,47,212,9010201,,,,,,,2023-12-18,1,,,,,アンダーワークス,0
1178,5430001090604,新規,0,2023-12-18,2023-12-18,くわその株式会社,,株式会社,北海道,札幌市西区,山の手二条１丁目２番１号,,01,107,0630002,,,,,,,2023-12-18,1,,,,,クワソノ,0
1179,5430001090678,新規,0,2023-12-18,2023-12-18,株式会社暁ＳＴＹＬＥ,,株式会社,北海道,夕張郡長沼町,東町南２丁目１－１,,01,428,0691342,,,,,,,2023-12-18,1,,,,,アカツキスタイル,0
1181,5430003015757,新規,0,2023-12-18,2023-12-18,ビシッと夕張合同会社,,合同会社,北海道,夕張市,沼ノ沢３５番地,,01,209,0680751,,,,,,,2023-12-18,1,,,,,ビシットユウバリ,0
1182,5440001009363,新規,0,2023-12-18,2023-12-18,グランパレット函館株式会社,,株式会社,北海道,函館市,大手町１番１号,,01,202,0400064,,,,,,,2023-12-18,1,,,,,グランパレットハコダテ,0
1191,5700150122766,新規,0,2023-12-18,2023-12-18,馥麗工業股フン有限公司,,外国会社等,,,,,,,,台北市大安区仁愛路４段３７６号１３階,,,,,,2023-12-18,1,,,,,フリコウキヨウコフンユウゲンコウシ,0
1192,5700150122774,新規,0,2023-12-18,2023-12-18,深セン市魔方創新技術有限公司,,外国会社等,,,,,,,,中国深セン市龍崗区坂田街道崗頭社区清湖工業区宝能科技園（南区）一期Ａ区Ａ７棟（Ｄ棟）３００５,,,,,,2023-12-18,1,,,,,シンセンシマホウソウシンギジュツユウゲンコウシ,0
1193,5700150122782,新規,0,2023-12-18,2023-12-18,Ｓｈｅｎｚｈｅｎ　Ｓｈｕｌａｎｆａｎｇ　Ｔｒａｄｉｎｇ　Ｃｏ．，Ｌｔｄ．,,外国会社等,,,,,,,,Ｒｏｏｍ　１６１９，Ｂｕｉｌｄｉｎｇ　９，Ｗａｎｍｅｉ　Ｇａｒｄｅｎ，Ｈａｏｙｅ　ｃｏｍｍｕｎｉｔｙ，Ｘｉｘｉａｎｇ　Ｓｔｒｅｅｔ，Ｂａｏａｎ　Ｄｉｓｔｒｉｃｔ，Ｓｈｅｎｚｈｅｎ,,,,,,2023-12-18,1,,,,,シェンジェンシューランファンマオイーヨウシエンゴンスー,0
1198,6010001240844,新規,0,2023-12-18,2023-12-18,株式会社ハオハオ,,株式会社,東京都,千代田区,外神田１丁目８番５号,,13,101,1010021,,,,,,,2023-12-18,1,,,,,ハオハオ,0
1199,6010001240935,新規,0,2023-12-18,2023-12-18,ＺＩＮ　Ｈｏｌｄｉｎｇｓ株式会社,,株式会社,東京都,千代田区,神田神保町３丁目１２番３号,,13,101,1010051,,,,,,,2023-12-18,1,,,,,ジンホールディングス,0
1201,6010103002275,新規,0,2023-12-18,2023-12-18,合同会社アネット,,合同会社,東京都,八王子市,大和田町７丁目１０番１５号,,13,201,1920045,,,,,,,2023-12-18,1,,,,,アネット,0
1205,6010401179187,新規,0,2023-12-18,2023-12-18,株式会社ＪＡＤＥｅＨＯＵＳＥ,,株式会社,東京都,港区,南麻布２丁目１２番５号,,13,103,1060047,,,,,,,2023-12-18,1,,,,,ジェイディハウス,0
1207,6010403031585,新規,0,2023-12-18,2023-12-18,合同会社ポケパーク・カントー,,合同会社,東京都,港区,六本木６丁目１０番１号,,13,103,1060032,,,,,,,2023-12-18,1,,,,,ポケパークカントー,0
1208,6010405022780,新規,0,2023-12-18,2023-12-18,一般社団法人ＰｒｉｍｅＳｅｅｄ,,その他の設立登記法人,東京都,港区,麻布十番１丁目５－２６麻布十番シティマンション３０３,,13,103,1060045,,,,,,,2023-12-18,1,,,,,プライムシード,0
1215,6010601064354,新規,0,2023-12-18,2023-12-18,ティーエスティー株式会社,,株式会社,東京都,墨田区,立花４丁目４番８－２０２号,,13,107,1310043,,,,,,,2023-12-18,1,,,,,ティーエスティー,0
1224,6010901054328,新規,0,2023-12-18,2023-12-18,株式会社チーム医療研究所,,株式会社,東京都,世田谷区,宮坂３丁目２７番１２号,,13,112,1560051,,,,,,,2023-12-18,1,,,,,チームイリョウケンキュウショ,0
1233,6011001158853,新規,0,2023-12-18,2023-12-18,株式会社事業構造計画機構,,株式会社,東京都,渋谷区,道玄坂１丁目１０番８号渋谷道玄坂東急ビル２Ｆ,,13,113,1500043,,,,,,,2023-12-18,1,,,,,ジギョウコウゾウケイカクキコウ,0
1234,6011001158861,新規,0,2023-12-18,2023-12-18,株式会社エンフィスト,,株式会社,東京都,渋谷区,神宮前３丁目６番２号,,13,113,1500001,,,,,,,2023-12-18,1,,,,,エンフィスト,0
1236,6011003018097,新規,0,2023-12-18,2023-12-18,ＮＥＣＥＳＳＡＲＹ　ＰＡＲＴＮＥＲＳ合同会社,,合同会社,東京都,渋谷区,道玄坂１丁目１０－８渋谷道玄坂東急ビル２階,,13,113,1500043,,,,,,,2023-12-18,1,,,,,ネセサリーパートナーズ,0
1237,6011003018122,新規,0,2023-12-18,2023-12-18,ＳＢ　Ａｓｓｏｃｉａｔｅｓ合同会社,,合同会社,東京都,渋谷区,上原３丁目３２番９－１０２号リーフィアレジデンス上原,,13,113,1510064,,,,,,,2023-12-18,1,,,,,エスビーアソシエイツ,0
1238,6011003018130,新規,0,2023-12-18,2023-12-18,ＨＹＨ合同会社,,合同会社,東京都,目黒区,平町１丁目１０番２３号,,13,110,1520032,,,,,,,2023-12-18,1,,,,,エイチワイエイチ,0
1248,6011501030116,新規,0,2023-12-18,2023-12-18,株式会社ＴＯＫＹＯＧＯＧＯＬＯＯＫ,,株式会社,東京都,北区,田端新町１丁目７－１４ビズフィールド西日暮里２０２,,13,117,1140012,,,,,,,2023-12-18,1,,,,,トウキョウゴウゴウルック,0
1249,6011501030124,新規,0,2023-12-18,2023-12-18,株式会社Ｋ　ａｎｄ　Ｙ,,株式会社,東京都,北区,滝野川５丁目１４番１０号,,13,117,1140023,,,,,,,2023-12-18,1,,,,,ケーアンドワイ,0
1250,6011603004166,新規,0,2023-12-18,2023-12-18,合同会社Ｂｕｄｄｙ,,合同会社,東京都,練馬区,春日町５丁目３５番２６－３０１号,,13,120,1790074,,,,,,,2023-12-18,1,,,,,バディ,0
1251,6011801043511,新規,0,2023-12-18,2023-12-18,株式会社大昌,,株式会社,東京都,足立区,千住関屋町３番５－３０１号,,13,121,1200024,,,,,,,2023-12-18,1,,,,,ダイショウ,0
1259,6013301051762,新規,0,2023-12-18,2023-12-18,株式会社ｃｏｄｅ,,株式会社,東京都,豊島区,南池袋３丁目１５番１０号,,13,116,1710022,,,,,,,2023-12-18,1,,,,,コード,0
1260,6013301051770,新規,0,2023-12-18,2023-12-18,株式会社ｗｏｏｆ,,株式会社,東京都,豊島区,東池袋１丁目３４番５号いちご東池袋ビル６階,,13,116,1700013,,,,,,,2023-12-18,1,,,,,ウーフ,0
1261,6013301051779,新規,0,2023-12-18,2023-12-18,株式会社Ｔｒｉａｎｇｌｅ,,株式会社,東京都,豊島区,南池袋１丁目１番６－６０１号,,13,116,1710022,,,,,,,2023-12-18,1,,,,,トライアングル,0
1262,6013303006921,新規,0,2023-12-18,2023-12-18,ＲＰＪ合同会社,,合同会社,東京都,豊島区,南大塚２丁目１１－１０ミモザビル３階,,13,116,1700005,,,,,,,2023-12-18,1,,,,,アールピージェー,0
1269,6020001154960,新規,0,2023-12-18,2023-12-18,株式会社イプシロン,,株式会社,神奈川県,横浜市栄区,桂町１８０番地１４,,14,115,2470005,,,,,,,2023-12-18,1,,,,,イプシロン,0
1270,6020003025185,新規,0,2023-12-18,2023-12-18,ＡＩ　Ｔｒａｄｅ　Ｉｎｎｏｖａｔｉｏｎｓ　Ｊａｐａｎ合同会社,,合同会社,神奈川県,横浜市神奈川区,金港町５－１４クアドリフォリオ８階,,14,102,2210056,,,,,,,2023-12-18,1,,,,,エーアイトレードイノベーションズジャパン,0
1275,6021001080957,新規,0,2023-12-18,2023-12-18,株式会社二乃型技術,,株式会社,神奈川県,横須賀市,野比２丁目１１番１２－４０４号,,14,201,2390841,,,,,,,2023-12-18,1,,,,,ニノカタギジュツ,0
1276,6021001080981,新規,0,2023-12-18,2023-12-18,株式会社Ａｕｄｉｏ　Ｏａｓｉｓ,,株式会社,神奈川県,逗子市,小坪１丁目２７番２３号,,14,208,2490008,,,,,,,2023-12-18,1,,,,,オーディオオアシス,0
1277,6021001080998,新規,0,2023-12-18,2023-12-18,株式会社シロクマニア,,株式会社,神奈川県,藤沢市,片瀬海岸２丁目１４番１５号,,14,205,2510035,,,,,,,2023-12-18,1,,,,,シロクマニア,0
1289,6030001157673,新規,0,2023-12-18,2023-12-18,株式会社幸友興業,,株式会社,埼玉県,吉川市,大字上内川２８３番地１,,11,243,3420001,,,,,,,2023-12-18,1,,,,,コウユウコウギョウ,0
1290,6030001157731,新規,0,2023-12-18,2023-12-18,株式会社ループ,,株式会社,埼玉県,川口市,本町２丁目１０番２３号,,11,203,3320012,,,,,,,2023-12-18,1,,,,,ループ,0
1291,6030001157756,新規,0,2023-12-18,2023-12-18,株式会社サンネクスト,,株式会社,埼玉県,さいたま市見沼区,大字東新井４４番地,,11,104,3370032,,,,,,,2023-12-18,1,,,,,サンネクスト,0
1294,6030003023246,新規,0,2023-12-18,2023-12-18,合同会社アイオリア,,合同会社,埼玉県,八潮市,大字木曽根１０７１－１ベル・オーブ１０１,,11,234,3400813,,,,,,,2023-12-18,1,,,,,アイオリア,0
1298,6040001131396,新規,0,2023-12-18,2023-12-18,ＳＹＲ　ｂｅｌｉｅｆ株式会社,,株式会社,千葉県,市川市,稲荷木１丁目１３番１１－１０１号（エクレールＩＩ）,00133030,12,203,2720024,,,,,,,2023-12-18,1,,,,,エスワイアールビリーフ,0
1299,6040001131405,新規,0,2023-12-18,2023-12-18,株式会社龍和,,株式会社,千葉県,鎌ケ谷市,東中沢１丁目１３番４８号,,12,224,2730112,,,,,,,2023-12-18,1,,,,,リュウワ,0
1300,6040003023930,新規,0,2023-12-18,2023-12-18,ＦＦエステート合同会社,,合同会社,千葉県,千葉市若葉区,加曽利町１４７５番地１８５,,12,104,2640017,,,,,,,2023-12-18,1,,,,,エフエフエステート,0
1305,6060001036627,新規,0,2023-12-18,2023-12-18,株式会社大雄,,株式会社,栃木県,宇都宮市,鶴田町２９０８番地１ＺＥＮ―ＦＯＲＥＳＴ―Ｃ２,,09,201,3200851,,,,,,,2023-12-18,1,,,,,ダイユウ,0
1307,6070001041205,新規,0,2023-12-18,2023-12-18,秀俊アセットマネジメント株式会社,,株式会社,群馬県,桐生市,広沢町２丁目３０２１番地１７,,10,203,3760013,,,,,,,2023-12-18,1,,,,,シュウシュンアセットマネジメント,0
1310,6080101024406,新規,0,2023-12-18,2023-12-18,株式会社ＣＫ,,株式会社,静岡県,御殿場市,川島田８０８番地きのえねハイツ１０３,,22,215,4120045,,,,,,,2023-12-18,1,,,,,シーケー,0
1327,6120001260716,新規,0,2023-12-18,2023-12-18,株式会社ＭＩＤＯＬＩＮＯ,,株式会社,大阪府,大阪市住吉区,清水丘２丁目２８番１０号,,27,120,5580033,,,,,,,2023-12-18,1,,,,,ミドリノ,0
1328,6120001260724,新規,0,2023-12-18,2023-12-18,株式会社ライオンズゲート,,株式会社,大阪府,大阪市北区,梅田１丁目３番１号大阪駅前第１ビル８階５号,,27,127,5300001,,,,,,,2023-12-18,1,,,,,ライオンズゲート,0
1329,6120001260749,新規,0,2023-12-18,2023-12-18,株式会社ＬＦＰ　Ｒｉｃｈ,,株式会社,大阪府,大阪市北区,梅田２丁目５番１３号桜橋第一ビル３０４号,,27,127,5300001,,,,,,,2023-12-18,1,,,,,エルエフピーリッチ,0
1332,6120003025539,新規,0,2023-12-18,2023-12-18,合同会社ｓｌｏｗ,,合同会社,大阪府,大阪市中央区,博労町３丁目３番１３号,,27,128,5410059,,,,,,,2023-12-18,1,,,,,スロー,0
1338,6120903004963,新規,0,2023-12-18,2023-12-18,マイク合同会社,,合同会社,大阪府,池田市,城南３丁目１番１５－Ｊ－１１０２号,,27,204,5630025,,,,,,,2023-12-18,1,,,,,マイク,0
1339,6122001037656,新規,0,2023-12-18,2023-12-18,株式会社ゆるり,,株式会社,大阪府,大東市,住道２丁目４番５０１号ＣＡＳＳＩＡ住道,,27,218,5740026,,,,,,,2023-12-18,1,,,,,ユルリ,0
1342,6130001075898,新規,0,2023-12-18,2023-12-18,ＦＬＡＧ株式会社,,株式会社,京都府,京都市中京区,三条通新町西入釜座町２２番地ストークビル三条烏丸２０３,,26,104,6048241,,,,,,,2023-12-18,1,,,,,フラッグ,0
1343,6130001075948,新規,0,2023-12-18,2023-12-18,株式会社Ｋ‐Ｆｉｖｅ,,株式会社,京都府,京都市西京区,大枝北沓掛町２丁目１２番地３サンシティ桂坂参番館５１３号,,26,111,6101101,,,,,,,2023-12-18,1,,,,,ケーファイブ,0
1362,6180001159333,新規,0,2023-12-18,2023-12-18,株式会社ａｏ,,株式会社,愛知県,名古屋市天白区,向が丘２丁目１３１０番地,,23,116,4680012,,,,,,,2023-12-18,1,,,,,アオ,0
1363,6180001159399,新規,0,2023-12-18,2023-12-18,株式会社ＫＢ,,株式会社,愛知県,名古屋市中区,丸の内３丁目２１番２１号,,23,106,4600002,,,,,,,2023-12-18,1,,,,,ケービー,0
1364,6180001159408,新規,0,2023-12-18,2023-12-18,ＢＯＮＤ　ＦＭ株式会社,,株式会社,愛知県,江南市,高屋町大松原１５９番地５１,,23,217,4838086,,,,,,,2023-12-18,1,,,,,ボンドエフエム,0
1365,6180001159416,新規,0,2023-12-18,2023-12-18,株式会社アールアンドディー,,株式会社,愛知県,豊明市,西川町笹原２番地１８,,23,229,4701123,,,,,,,2023-12-18,1,,,,,アールアンドディー,0
1368,6180003026119,新規,0,2023-12-18,2023-12-18,合同会社ＤＣＴ,,合同会社,愛知県,あま市,篠田森後２２番地１,,23,237,4901211,,,,,,,2023-12-18,1,,,,,ディーシーティー,0
1370,6180301038138,新規,0,2023-12-18,2023-12-18,株式会社寺田建築,,株式会社,愛知県,田原市,大草町志田原３８番地４,,23,231,4413425,,,,,,,2023-12-18,1,,,,,テラダケンチク,0
1373,6230001020142,新規,0,2023-12-18,2023-12-18,株式会社Ｌｕｍｉｎａｒｅ,,株式会社,富山県,富山市,八川１３５番地６,,16,201,9398124,,,,,,,2023-12-18,1,,,,,ルミナーレ,0
1401,6290003014731,新規,0,2023-12-18,2023-12-18,合同会社Ａ,,合同会社,福岡県,福岡市博多区,博多駅前２丁目１２－１６ＭｏｏｎＲｉｖｅｒ博多駅前２Ｆ,,40,132,8120011,,,,,,,2023-12-18,1,,,,,エース,0
1402,6290003014748,新規,0,2023-12-18,2023-12-18,正太合同会社,,合同会社,福岡県,福岡市早良区,飯倉３丁目４５－１７ファミールハピネス原１階１０７号室,,40,137,8140161,,,,,,,2023-12-18,1,,,,,,0
1407,6310003004696,新規,0,2023-12-18,2023-12-18,合同会社ＯＹＬ,,合同会社,長崎県,長崎市,西山２丁目３２番２１－４０３号,,42,201,8500001,,,,,,,2023-12-18,1,,,,,オーワイエル,0
1408,6320003004258,新規,0,2023-12-18,2023-12-18,合同会社豊後の森,,合同会社,大分県,玖珠郡九重町,大字右田３１５９番地の１,,44,461,8794601,,,,,,,2023-12-18,1,,,,,ブンゴノモリ,0
1415,6330003010123,新規,0,2023-12-18,2023-12-18,Ｍｏｖｅｍｅｎｔ合同会社,,合同会社,熊本県,宇土市,松山町２０７１番地１,,43,211,8690416,,,,,,,2023-12-18,1,,,,,ムーブメント,0
1417,6340003004330,新規,0,2023-12-18,2023-12-18,合同会社ＫＳ,,合同会社,鹿児島県,鹿児島市,吉野町２３１６番地１藤元ビル２Ｆ,,46,201,8920871,,,,,,,2023-12-18,1,,,,,ケーエス,0
1419,6350001018711,新規,0,2023-12-18,2023-12-18,株式会社原田,,株式会社,宮崎県,東諸県郡国富町,大字八代北俣２７１１番地１,,45,382,8801222,,,,,,,2023-12-18,1,,,,,ハラダ,0
1420,6350003004528,新規,0,2023-12-18,2023-12-18,合同会社ビジョンコア,,合同会社,宮崎県,宮崎市,大字田吉８３９－８,,45,201,8800911,,,,,,,2023-12-18,1,,,,,ビジョンコア,0
1422,6370001050745,新規,0,2023-12-18,2023-12-18,株式会社ＧＬ,,株式会社,宮城県,仙台市太白区,長町６丁目１３－２,,04,104,9820011,,,,,,,2023-12-18,1,,,,,ジーエル,0
1426,6380005012781,新規,0,2023-12-18,2023-12-18,医療法人ＡＨＳＡＫ,,その他の設立登記法人,福島県,福島市,田沢字木曽内入２４番地の５,,07,201,9608156,,,,,,,2023-12-18,1,,,,,アーサク,0
1429,6420001018514,新規,0,2023-12-18,2023-12-18,株式会社テイセイ,,株式会社,青森県,弘前市,大字独狐字石田３８番地１,,02,202,0368381,,,,,,,2023-12-18,1,,,,,テイセイ,0
1433,6430001090677,新規,0,2023-12-18,2023-12-18,株式会社ＢＲＩＧＨＴ,,株式会社,北海道,札幌市西区,発寒三条１丁目１番１３号サンプレイス琴似２Ｄ,,01,107,0630823,,,,,,,2023-12-18,1,,,,,ブライト,0
1441,6430003015756,新規,0,2023-12-18,2023-12-18,合同会社ポンイコロ,,合同会社,北海道,札幌市東区,東苗穂十三条１丁目１０番４号,,01,103,0070813,,,,,,,2023-12-18,1,,,,,ポンイコロ,0
1442,6430003015764,新規,0,2023-12-18,2023-12-18,合同会社Ｓｏｌｅｉｌ,,合同会社,北海道,札幌市中央区,南五条西９丁目１０１６番地２１テラスフィーノ１０２号,,01,101,0640805,,,,,,,2023-12-18,1,,,,,ソレイユ,0
1452,6700150122765,新規,0,2023-12-18,2023-12-18,Ｒａｐｙｕｔａ　Ｒｏｂｏｔｉｃｓ　Ｐｒｉｖａｔｅ　Ｌｉｍｉｔｅｄ,,外国会社等,,,,,,,,１０８２，１２ｔｈ　Ｍａｉｎ　Ｒｄ，ＨＡＬ　２ｎｄ　Ｓｔａｇｅ，Ｄｏｏｐａｎａｈａｌｌｉ，Ｉｎｄｉｒａｎａｇａｒ，Ｂｅｎｇａｌｕｒｕ，Ｋａｒｎａｔａｋａ　５６００３８　Ｉｎｄｉａ,,,,,,2023-12-18,1,,,,,ラピユタロボテイクスプライベートリミテツド,0
1453,6700150122781,新規,0,2023-12-18,2023-12-18,ＳＨＥＮＺＨＥＮＧＳＨＩ　ＡＩＳＥＮＴＥ　ＫＥＪＩ　ＹＯＵＸＩＡＮＧＯＮＧＳＩ,,外国会社等,,,,,,,,Ｎａｎｓｈａｎｑｕ　Ｔａｏｙｕａｎｊｉｅｄａｏ　Ｐｉｎｇｓｈａｎｙｉｌｕ　Ｎａｎｓｈａｎｙｕｎｇｕ　２　Ｑｉ　６　Ｄｏｎｇ　２０２　Ｓｈｅｎｚｈｅｎ　ｇｕａｎｇｄｏｎｇ,,,,,,2023-12-18,1,,,,,シェンジェンシーアイセンターコージーヨウシエンゴンスー,0
1456,7010001240835,新規,0,2023-12-18,2023-12-18,ＲａｎｄＫＭ株式会社,,株式会社,東京都,中央区,湊３丁目８番１－２００７号,,13,102,1040043,,,,,,,2023-12-18,1,,,,,アールアンドケーエム,0
1457,7010001240934,新規,0,2023-12-18,2023-12-18,ＺＩＮ　Ｇｒｏｕｐ株式会社,,株式会社,東京都,千代田区,神田神保町３丁目１２番３号,,13,101,1010051,,,,,,,2023-12-18,1,,,,,ジングループ,0
1458,7010003042478,新規,0,2023-12-18,2023-12-18,合同会社雨’ｓ,,合同会社,東京都,中央区,銀座１丁目２２番１１号銀座大竹ビジデンス２階,,13,102,1040061,,,,,,,2023-12-18,1,,,,,アメズ,0
1459,7010005037641,新規,0,2023-12-18,2023-12-18,一般社団法人国際商業会議所日本委員会,,その他の設立登記法人,東京都,千代田区,丸の内３丁目２番２号丸の内二重橋ビル,,13,101,1000005,,,,,,,2023-12-18,1,,,,,コクサイショウギョウカイギショニホンイインカイ,0
1460,7010103002274,新規,0,2023-12-18,2023-12-18,東京＿＿合同会社,00133031,合同会社,東京都,八王子市,長沼町１３４－３３４,,13,201,1920907,,,,,,,2023-12-18,1,,,,,トウキョウビョウビョウ,0
1466,7010401179178,新規,0,2023-12-18,2023-12-18,株式会社ＭＳ準備会社,,株式会社,東京都,港区,西麻布４丁目１４番２０号,,13,103,1060031,,,,,,,2023-12-18,1,,,,,エムエスジュンビガイシャ,0
1467,7010401179236,新規,0,2023-12-18,2023-12-18,株式会社ビーブル,,株式会社,東京都,港区,赤坂９丁目１－７,,13,103,1070052,,,,,,,2023-12-18,1,,,,,ビーブル,0
1468,7010401179260,新規,0,2023-12-18,2023-12-18,Ｃａｒｅｅｒ　Ｆｌｙ　Ｊａｐａｎ株式会社,,株式会社,東京都,港区,六本木７丁目１４－２３ラウンドクロス六本木４Ｆ,,13,103,1060032,,,,,,,2023-12-18,1,,,,,キャリアフライジャパン,0
1473,7010601064345,新規,0,2023-12-18,2023-12-18,賽昂株式会社,,株式会社,東京都,江東区,亀戸５丁目２５－９金沐莊１０１号,,13,108,1360071,,,,,,,2023-12-18,1,,,,,サイコウ,0
1474,7010601064361,新規,0,2023-12-18,2023-12-18,ＰＵＳＰＡ株式会社,,株式会社,東京都,墨田区,両国２丁目１６番５号１Ｆ,,13,107,1300026,,,,,,,2023-12-18,1,,,,,プスパ,0
1476,7010801034619,新規,0,2023-12-18,2023-12-18,株式会社璃将フロアー,,株式会社,東京都,大田区,西蒲田４丁目１６番１６号,,13,111,1440051,,,,,,,2023-12-18,1,,,,,リショウフロアー,0
1478,7010803004784,新規,0,2023-12-18,2023-12-18,フレイズ合同会社,,合同会社,東京都,大田区,西六郷１丁目２４番１号須山ハイツ１階Ａ号室,,13,111,1440056,,,,,,,2023-12-18,1,,,,,フレイズ,0
1479,7010805003082,新規,0,2023-12-18,2023-12-18,一般社団法人Ｕｒｔｈサポート,,その他の設立登記法人,東京都,大田区,西嶺町２９番５－３０２号,,13,111,1450075,,,,,,,2023-12-18,1,,,,,アースサポート,0
1481,7010901054327,新規,0,2023-12-18,2023-12-18,株式会社美晃ＣＯＡＴＩＮＧ,,株式会社,東京都,世田谷区,弦巻３丁目１７－６－３０２,,13,112,1540016,,,,,,,2023-12-18,1,,,,,ビコウコーティング,0
1482,7010901054335,新規,0,2023-12-18,2023-12-18,株式会社エスティー,,株式会社,東京都,世田谷区,世田谷４丁目４番２７号,,13,112,1540017,,,,,,,2023-12-18,1,,,,,エスティー,0
1487,7011001158828,新規,0,2023-12-18,2023-12-18,株式会社ホワイトキャンバス,,株式会社,東京都,渋谷区,道玄坂１丁目１０番８号渋谷道玄坂東急ビル２Ｆ－Ｃ,,13,113,1500043,,,,,,,2023-12-18,1,,,,,ホワイトキャンバス,0
1488,7011001158885,新規,0,2023-12-18,2023-12-18,株式会社ＡＩ‐Ａｃｔｓ,,株式会社,東京都,渋谷区,渋谷２丁目１９番１５号宮益坂ビルディング６０９,,13,113,1500002,,,,,,,2023-12-18,1,,,,,エーアイアクツ,0
1489,7011001158893,新規,0,2023-12-18,2023-12-18,株式会社ＫＥＮ　Ｒｅｓｅａｒｃｈ,,株式会社,東京都,目黒区,碑文谷６丁目３番２０号エクセルシヤガーデン１０２号室,,13,110,1520003,,,,,,,2023-12-18,1,,,,,ケンリサーチ,0
1494,7011103013864,新規,0,2023-12-18,2023-12-18,合同会社ホワイトセージ,,合同会社,東京都,新宿区,歌舞伎町１丁目１２番４号ＷＩＤＷＩＮビル,,13,104,1600021,,,,,,,2023-12-18,1,,,,,ホワイトセージ,0
1505,7012401041334,新規,0,2023-12-18,2023-12-18,株式会社クレイン,,株式会社,東京都,多摩市,中沢２丁目３－１ライオンズマンション多摩センター３０２号,,13,224,2060036,,,,,,,2023-12-18,1,,,,,クレイン,0
1507,7012803003262,新規,0,2023-12-18,2023-12-18,合同会社ＩＴＡＢＡＳＨＩ,,合同会社,東京都,国立市,東３丁目８番地の２１,,13,215,1860002,,,,,,,2023-12-18,1,,,,,イタバシ,0
1512,7013301051761,新規,0,2023-12-18,2023-12-18,株式会社ＮＯＺＡＫＵ,,株式会社,東京都,豊島区,南池袋２丁目８－１８コーポ高砂３０８,,13,116,1710022,,,,,,,2023-12-18,1,,,,,ノザク,0
1513,7013301051778,新規,0,2023-12-18,2023-12-18,三軒株式会社,,株式会社,東京都,豊島区,西池袋４丁目８番２－４０６号,,13,116,1710021,,,,,,,2023-12-18,1,,,,,サンゲン,0
1522,7020001154902,新規,0,2023-12-18,2023-12-18,株式会社ＥＮＩＳＨＩＮＯ,,株式会社,神奈川県,横浜市西区,西戸部町１丁目１番３,,14,103,2200046,,,,,,,2023-12-18,1,,,,,エニシノ,0
1523,7020001154951,新規,0,2023-12-18,2023-12-18,株式会社雅商会,,株式会社,神奈川県,横浜市中区,山下町１１２番地４ポートヴィラ元町６０４号室,,14,104,2310023,,,,,,,2023-12-18,1,,,,,ミヤビショウカイ,0
1524,7020001154968,新規,0,2023-12-18,2023-12-18,株式会社ＦＵＶＥ,,株式会社,神奈川県,川崎市多摩区,登戸３３７９番地アヴニール登戸南武町２０１号室,,14,135,2140014,,,,,,,2023-12-18,1,,,,,フューブ,0
1528,7021001081013,新規,0,2023-12-18,2023-12-18,サードプレイス江の島株式会社,,株式会社,神奈川県,藤沢市,片瀬海岸１丁目１３番１８号２階,,14,205,2510035,,,,,,,2023-12-18,1,,,,,サードプレイスエノシマ,0
1540,7030001157755,新規,0,2023-12-18,2023-12-18,株式会社アークスクリエイト,,株式会社,埼玉県,草加市,手代１丁目１番２２号,,11,221,3400021,,,,,,,2023-12-18,1,,,,,アークスクリエイト,0
1544,7030003023047,新規,0,2023-12-18,2023-12-18,ＨＱ合同会社,,合同会社,埼玉県,川口市,西川口１丁目３０－２０－１０５号,,11,203,3320021,,,,,,,2023-12-18,1,,,,,エイチキュー,0
1545,7040001131404,新規,0,2023-12-18,2023-12-18,大俊建設株式会社,,株式会社,千葉県,鎌ケ谷市,西佐津間１丁目１３番３２号－１０１,,12,224,2730134,,,,,,,2023-12-18,1,,,,,ダイシュンケンセツ,0
1556,7080003003110,新規,0,2023-12-18,2023-12-18,空間創造まるみ合同会社,,合同会社,静岡県,榛原郡川根本町,徳山１４５２番地,,22,429,4280301,,,,,,,2023-12-18,1,,,,,クウカンソウゾウマルミ,0
1559,7090001018464,新規,0,2023-12-18,2023-12-18,株式会社絢菜,,株式会社,山梨県,韮崎市,龍岡町下條南割１１７２番地１ステラーハウス１０５号,,19,207,4070033,,,,,,,2023-12-18,1,,,,,アヤナ,0
1574,7120001260657,新規,0,2023-12-18,2023-12-18,日景株式会社,,株式会社,大阪府,大阪市東住吉区,鷹合４丁目２１番１６号１Ｆ－Ｄ,,27,121,5460014,,,,,,,2023-12-18,1,,,,,ニッケイ,0
1575,7120001260715,新規,0,2023-12-18,2023-12-18,株式会社フォーマルハウト,,株式会社,大阪府,枚方市,香里ケ丘６丁目１３番地の８７,,27,210,5730084,,,,,,,2023-12-18,1,,,,,フォーマルハウト,0
1576,7120001260731,新規,0,2023-12-18,2023-12-18,株式会社ネクストデザイン,,株式会社,大阪府,大阪市中央区,久太郎町４丁目１番３号大阪センタービル６Ｆ－２７７,,27,128,5410056,,,,,,,2023-12-18,1,,,,,ネクストデザイン,0
1582,7120003025538,新規,0,2023-12-18,2023-12-18,１９９８合同会社,,合同会社,大阪府,大阪市生野区,鶴橋２丁目１０番２５号,,27,116,5440031,,,,,,,2023-12-18,1,,,,,ナインティーンナインティエイト,0
1584,7120101068703,新規,0,2023-12-18,2023-12-18,株式会社らむね,,株式会社,大阪府,堺市南区,原山台１丁５番７－６０６号,,27,145,5900132,,,,,,,2023-12-18,1,,,,,ラムネ,0
1585,7120101068711,新規,0,2023-12-18,2023-12-18,Ｓａｄａｔ　Ｔｒａｄｉｎｇ株式会社,,株式会社,大阪府,和泉市,大野町７６３番地,,27,219,5941134,,,,,,,2023-12-18,1,,,,,サダットトレーディング,0
1588,7120901048499,新規,0,2023-12-18,2023-12-18,株式会社誠地所,,株式会社,大阪府,豊中市,長興寺南１丁目２番１４号,,27,203,5610874,,,,,,,2023-12-18,1,,,,,マコトジショ,0
1606,7130001075906,新規,0,2023-12-18,2023-12-18,株式会社山笑,,株式会社,京都府,宇治市,伊勢田町中荒２２番地１０,,26,204,6110043,,,,,,,2023-12-18,1,,,,,ヤマショウ,0
1607,7130001075947,新規,0,2023-12-18,2023-12-18,株式会社ハートアップサイエンス,,株式会社,京都府,京都市下京区,松原通烏丸西入ル玉津島町２９４,,26,106,6000000,,,,,,,2023-12-18,1,,,,,ハートアップサイエンス,0
1617,7140003019926,新規,0,2023-12-18,2023-12-18,合同会社ソノクル,,合同会社,兵庫県,神戸市垂水区,五色山２丁目３番５０－４号,,28,108,6550035,,,,,,,2023-12-18,1,,,,,ソノクル,0
1622,7160001025569,新規,0,2023-12-18,2023-12-18,株式会社ｅ‐ｐｒｏｊｅｃｔ,,株式会社,滋賀県,東近江市,山路町２５０－１１,,25,213,5211225,,,,,,,2023-12-18,1,,,,,イープロジェクト,0
1623,7170001017929,新規,0,2023-12-18,2023-12-18,北野パネル株式会社,,株式会社,和歌山県,和歌山市,西浜１６６０番地５５０,,30,201,6410036,,,,,,,2023-12-18,1,,,,,キタノパネル,0
1624,7170001017937,新規,0,2023-12-18,2023-12-18,おもしゃい株式会社,,株式会社,和歌山県,和歌山市,松江北２丁目２０－１,,30,201,6408425,,,,,,,2023-12-18,1,,,,,オモシャイ,0
1635,7180001159332,新規,0,2023-12-18,2023-12-18,愛知中央不動産株式会社,,株式会社,愛知県,名古屋市中区,大須２丁目１０番４５号,,23,106,4600011,,,,,,,2023-12-18,1,,,,,アイチチュウオウフドウサン,0
1636,7180001159357,新規,0,2023-12-18,2023-12-18,株式会社光陽ホールディングス,,株式会社,愛知県,犬山市,大字前原字向屋敷９５番地９３,,23,215,4840061,,,,,,,2023-12-18,1,,,,,コウヨウホールディングス,0
1643,7180301038137,新規,0,2023-12-18,2023-12-18,株式会社ＦＩＸＡ,,株式会社,愛知県,安城市,昭和町１９番３９号アンジュール波ビル１Ａ,,23,212,4460063,,,,,,,2023-12-18,1,,,,,フィクサ,0
1647,7200001041982,新規,0,2023-12-18,2023-12-18,株式会社Ｏｎｅ　Ａｃｔｉｏｎ,,株式会社,岐阜県,各務原市,那加信長町３丁目５５番地,,21,213,5040909,,,,,,,2023-12-18,1,,,,,ワンアクション,0
1648,7200001041990,新規,0,2023-12-18,2023-12-18,ＧＳＤ株式会社,,株式会社,岐阜県,郡上市,高鷲町西洞３１７４番地３,,21,219,5015305,,,,,,,2023-12-18,1,,,,,ジーエスディー,0
1653,7250005008882,新規,0,2023-12-18,2023-12-18,医療法人ひろかね歯科クリニック,,その他の設立登記法人,山口県,岩国市,元町３丁目１０番１６号,,35,208,7400012,,,,,,,2023-12-18,1,,,,,ヒロカネシカクリニック,0
1662,7290003014730,新規,0,2023-12-18,2023-12-18,合同会社エール,,合同会社,福岡県,朝倉市,杷木林田４３０,,40,228,8381506,,,,,,,2023-12-18,1,,,,,エール,0
1665,7290005019224,新規,0,2023-12-18,2023-12-18,一般社団法人九州韓人会,,その他の設立登記法人,福岡県,福岡市博多区,博多駅前３丁目７－３－４１０,,40,132,8120011,,,,,,,2023-12-18,1,,,,,キュウシュウカンジンカイ,0
1667,7330001031566,新規,0,2023-12-18,2023-12-18,ダイセンＨＤ株式会社,,株式会社,熊本県,熊本市東区,若葉１丁目３６番１９号山中ビル２階,,43,102,8620903,,,,,,,2023-12-18,1,,,,,ダイセンホールディングス,0
1675,7350003004527,新規,0,2023-12-18,2023-12-18,合同会社プロパルス,,合同会社,宮崎県,宮崎市,大字田吉８３９－８,,45,201,8800911,,,,,,,2023-12-18,1,,,,,プロパルス,0
1678,7370001050736,新規,0,2023-12-18,2023-12-18,株式会社サンライズ,,株式会社,宮城県,多賀城市,留ケ谷１丁目２１番６号,,04,209,9850871,,,,,,,2023-12-18,1,,,,,サンライズ,0
1681,7380005012780,新規,0,2023-12-18,2023-12-18,宮福集荷協同組合,,その他の設立登記法人,福島県,伊達市,梁川町広瀬町４０番地,,07,213,9600759,,,,,,,2023-12-18,1,,,,,ミヤフクシュウカ,0
1692,7430001090619,新規,0,2023-12-18,2023-12-18,株式会社やぎ工房,,株式会社,北海道,恵庭市,桜町２丁目２番８号,,01,231,0611416,,,,,,,2023-12-18,1,,,,,ヤギコウボウ,0
1693,7430001090668,新規,0,2023-12-18,2023-12-18,株式会社時建工業,,株式会社,北海道,石狩郡新篠津村,第３７線南１番地,,01,304,0681100,,,,,,,2023-12-18,1,,,,,ジケンコウギョウ,0
1694,7430003015755,新規,0,2023-12-18,2023-12-18,合同会社イベルティ,,合同会社,北海道,札幌市中央区,南二十条西６丁目５番１－４０１号,,01,101,0640920,,,,,,,2023-12-18,1,,,,,イベルティ,0
1695,7430005014846,新規,0,2023-12-18,2023-12-18,北海道リート投資法人,,その他の設立登記法人,北海道,札幌市中央区,北一条西５丁目２番地９,,01,101,0600001,,,,,,,2023-12-18,1,,,,,ホッカイドウリート,0
1702,7700150122764,新規,0,2023-12-18,2023-12-18,ＡＤＶＥＮＴＵＲＥ　ＩＮＤＩＡ　ＪＯＵＲＮＥＹ　ＰＲＩＶＡＴＥ　ＬＩＭＩＴＥＤ,,外国会社等,,,,,,,,ＬｏｗｅｒＧｒｏｕｎｄＦｌｏｏｒ，Ｓｕｉｔｅ　Ｎｏ．４，Ｗｏｒｌｄｍａｒｋ２，ＩＧＩ　ＡｉｒｐｏｒｔＨｏｓｐｉｔａｌｉｔｙ，ＤｅｌｈｉＡｅｒｏｃｉｔｙ，Ｎｅｗ　Ｄｅｌｈｉ１１００３７,,,,,,2023-12-18,1,,,,,アドベンチヤーインデイアジヤーニープライベートリミテツド,0
1703,7700150122772,新規,0,2023-12-18,2023-12-18,田代自治会,,その他,島根県,出雲市,乙立町１１４２番地６,,32,203,6930216,,,,,,,2023-12-18,1,,,,,タシロジチカイ,0
1704,7700150122780,新規,0,2023-12-18,2023-12-18,Ｄｏｎｇｇｕａｎｓｈｉ　ｌｉａｎｘｉ　ｄｉａｎｚｉｋｅｊｉ　ｙｏｕｘｉａｎｇｏｎｇｓｉ,,外国会社等,,,,,,,,ｑｉｎｇｘｉｚｈｅｎ　ｑｉｎｇｘｉｋｅｊｉｌｕ　ｄｏｎｇｑｉｊｉｅ　４０ｈａｏ　１ｈａｏｌｏｕ　Ｄｏｎｇｇｕａｎ　Ｇｕａｎｇｄｏｎｇ　５２３０００　ＣＮ,,,,,,2023-12-18,1,,,,,ドングワンシーリエンシーディエンズーコージーヨウシエンゴンスー,0
1710,8010001240719,新規,0,2023-12-18,2023-12-18,株式会社健和メディカル,,株式会社,東京都,中央区,銀座１丁目１２番４号Ｎ＆Ｅ－ＢＬＤ．６Ｆ,,13,102,1040061,,,,,,,2023-12-18,1,,,,,ケンワメディカル,0
1711,8010001240826,新規,0,2023-12-18,2023-12-18,株式会社小上馬,,株式会社,東京都,中央区,築地４丁目１４番１号モンテベルデ築地６０５号,,13,102,1040045,,,,,,,2023-12-18,1,,,,,コジョウマ,0
1714,8010003042452,新規,0,2023-12-18,2023-12-18,合同会社ＪＰ‐ＦＯＲＣＥ,,合同会社,東京都,千代田区,丸の内３丁目２番３号丸の内二重橋ビル２２階,,13,101,1000005,,,,,,,2023-12-18,1,,,,,ジェイピーフォース,0
1716,8010005037632,新規,0,2023-12-18,2023-12-18,ＪＦＥケミカル労働組合,,その他の設立登記法人,東京都,千代田区,内幸町２丁目２番３号日比谷国際ビルＢ１,,13,101,1000011,,,,,,,2023-12-18,1,,,,,ジェイエフイーケミカル,0
1720,8010401179169,新規,0,2023-12-18,2023-12-18,株式会社ＢＥＣ　ＬＡＢ,,株式会社,東京都,港区,虎ノ門１丁目１７番１号虎ノ門ヒルズビジネスタワー１５階,,13,103,1050001,,,,,,,2023-12-18,1,,,,,ベックラボ,0
1721,8010401179235,新規,0,2023-12-18,2023-12-18,株式会社スピードスター,,株式会社,東京都,港区,南青山３丁目１番３６号青山丸竹ビル６Ｆ,,13,103,1070062,,,,,,,2023-12-18,1,,,,,スピードスター,0
1723,8010403031583,新規,0,2023-12-18,2023-12-18,Ａｃｔｉｖｅ　ＨｅＲＯ合同会社,,合同会社,東京都,港区,芝５丁目３２番地１２号６階,,13,103,1080014,,,,,,,2023-12-18,1,,,,,アクティブヒーロー,0
1724,8010403031591,新規,0,2023-12-18,2023-12-18,Ｔｏｇｕｃｈｉ　Ｅｓｔａｔｅ合同会社,,合同会社,東京都,港区,麻布十番１丁目９番３号第２フジヨシビル３階,,13,103,1060045,,,,,,,2023-12-18,1,,,,,トグチエステイト,0
1726,8010405022779,新規,0,2023-12-18,2023-12-18,一般社団法人日本宝石学教育研究所,,その他の設立登記法人,東京都,港区,南青山２丁目２番１５号ウィン青山９４２,,13,103,1070062,,,,,,,2023-12-18,1,,,,,ニホンホウセキガクキョウイクケンキュウジョ,0
1728,8010501051517,新規,0,2023-12-18,2023-12-18,Ｌｉｆｅｓｈｉｆｔ株式会社,,株式会社,東京都,台東区,東上野１丁目２０番８号,,13,106,1100015,,,,,,,2023-12-18,1,,,,,ライフシフト,0
1731,8010603010536,新規,0,2023-12-18,2023-12-18,合同会社ＡＲコネクト,,合同会社,東京都,江東区,有明１丁目４番１１－６２４号,,13,108,1350063,,,,,,,2023-12-18,1,,,,,エイアールコネクト,0
1733,8010801034618,新規,0,2023-12-18,2023-12-18,株式会社エンゲル部,,株式会社,東京都,大田区,東蒲田１丁目１番１号見留方３０１,,13,111,1440031,,,,,,,2023-12-18,1,,,,,エンゲルブ,0
1736,8010901054350,新規,0,2023-12-18,2023-12-18,Ｔｈｅ　ＲＥＯＮ株式会社,,株式会社,東京都,世田谷区,宮坂１丁目１８番１０号,,13,112,1560051,,,,,,,2023-12-18,1,,,,,ザレオン,0
1738,8010903008668,新規,0,2023-12-18,2023-12-18,合同会社ＮＹＵ,,合同会社,東京都,世田谷区,代田３丁目３４番３号ウリッセ梅が丘２０３,,13,112,1550033,,,,,,,2023-12-18,1,,,,,ニュウ,0
1750,8011001158819,新規,0,2023-12-18,2023-12-18,株式会社スウィムインユニバース,,株式会社,東京都,渋谷区,代々木５丁目６４－５パークサイド白鳳代々木公園２０２,,13,113,1510053,,,,,,,2023-12-18,1,,,,,スウィムインユニバース,0
1751,8011001158835,新規,0,2023-12-18,2023-12-18,株式会社Ｃ　Ａｎｄ,,株式会社,東京都,渋谷区,道玄坂１丁目１０番８号渋谷道玄坂東急ビル２Ｆ－Ｃ,,13,113,1500043,,,,,,,2023-12-18,1,,,,,シーアンド,0
1752,8011001158843,新規,0,2023-12-18,2023-12-18,株式会社アイプラス,,株式会社,東京都,渋谷区,渋谷２丁目１９－１５宮益坂ビルディング６０９,,13,113,1500002,,,,,,,2023-12-18,1,,,,,アイプラス,0
1753,8011003018095,新規,0,2023-12-18,2023-12-18,合同会社Ｒ＆Ｋ,,合同会社,東京都,渋谷区,恵比寿西２丁目８番４号ＥＸ恵比寿西ビル５階,,13,113,1500021,,,,,,,2023-12-18,1,,,,,アールアンドケー,0
1763,8011101105480,新規,0,2023-12-18,2023-12-18,株式会社Ｓｈａｒｅ‐Ｆｉｔ,,株式会社,東京都,新宿区,西新宿８丁目１番１１－２０８号,,13,104,1600023,,,,,,,2023-12-18,1,,,,,シェアーフィット,0
1764,8011101105497,新規,0,2023-12-18,2023-12-18,株式会社ＯｓＲｏｃｋ,,株式会社,東京都,新宿区,西新宿３丁目３番１３号西新宿水間ビル２Ｆ,,13,104,1600023,,,,,,,2023-12-18,1,,,,,オスロック,0
1766,8011201025117,新規,0,2023-12-18,2023-12-18,株式会社ｔａｙｏｒｉ,,株式会社,東京都,中野区,新井２丁目７－１２エントピア中野２１号,,13,114,1650026,,,,,,,2023-12-18,1,,,,,タヨリ,0
1774,8012703002875,新規,0,2023-12-18,2023-12-18,Ｌｏｋｔａｒ　Ｅｎｔｅｒｔａｉｎｍｅｎｔ合同会社,,合同会社,東京都,東村山市,諏訪町１丁目１３番地８（１０２号室）,,13,213,1890021,,,,,,,2023-12-18,1,,,,,ロクターエンターテインメント,0
1775,8012801022841,新規,0,2023-12-18,2023-12-18,株式会社Ｌ．Ｂ．Ｐ,,株式会社,東京都,立川市,富士見町７丁目３２番４４号レガリア１２２,,13,202,1900013,,,,,,,2023-12-18,1,,,,,エルビーピー,0
1776,8012803003261,新規,0,2023-12-18,2023-12-18,ＬＩＦＡＣＴ合同会社,,合同会社,東京都,昭島市,朝日町２丁目４番１９－３０１号,,13,207,1960025,,,,,,,2023-12-18,1,,,,,リフアクト,0
1778,8013301051760,新規,0,2023-12-18,2023-12-18,株式会社リジョイスパートナーズ,,株式会社,東京都,豊島区,東池袋４丁目５番２号１１階,,13,116,1700013,,,,,,,2023-12-18,1,,,,,リジョイスパートナーズ,0
1784,8020003025209,新規,0,2023-12-18,2023-12-18,ＤＳＡ　ＳＣＩＥＮＴＩＦＩＣ合同会社,,合同会社,神奈川県,横浜市西区,北幸１丁目１１番１号水信ビル７階,,14,103,2200004,,,,,,,2023-12-18,1,,,,,ディーエスエーサイエンティフィック,0
1786,8021001080963,新規,0,2023-12-18,2023-12-18,ａｌｉｃｅ　ｔｏｋｙｏ株式会社,,株式会社,神奈川県,藤沢市,葛原１３３８番地の１０,,14,205,2520822,,,,,,,2023-12-18,1,,,,,アリストウキョウ,0
1791,8030001157762,新規,0,2023-12-18,2023-12-18,株式会社ＯＰＡＳＳ,,株式会社,埼玉県,さいたま市南区,大字大谷口２５０５番地１９,,11,108,3360042,,,,,,,2023-12-18,1,,,,,オーパス,0
1792,8030001157770,新規,0,2023-12-18,2023-12-18,株式会社ＳＳＫ,,株式会社,埼玉県,川口市,上青木６丁目３８番８号,,11,203,3330844,,,,,,,2023-12-18,1,,,,,エスエスケー,0
1798,8030003023145,新規,0,2023-12-18,2023-12-18,合同会社ショウエイ,,合同会社,埼玉県,さいたま市浦和区,領家２丁目１番１０号アネックス北浦和２０３,,11,107,3300072,,,,,,,2023-12-18,1,,,,,ショウエイ,0
1799,8030003023252,新規,0,2023-12-18,2023-12-18,太陽合同会社,,合同会社,埼玉県,坂戸市,溝端町２番地４亀戸ビル３０６号室,,11,239,3500274,,,,,,,2023-12-18,1,,,,,タイヨウ,0
1803,8040001131403,新規,0,2023-12-18,2023-12-18,株式会社アクトグリーン,,株式会社,千葉県,茂原市,立木２９３番地,,12,210,2970043,,,,,,,2023-12-18,1,,,,,アクトグリーン,0
1811,8070001041203,新規,0,2023-12-18,2023-12-18,株式会社翼建工,,株式会社,群馬県,藤岡市,小林１３３番地５,,10,209,3750021,,,,,,,2023-12-18,1,,,,,ツバサケンコウ,0
1814,8080001026038,新規,0,2023-12-18,2023-12-18,株式会社神明サービス,,株式会社,静岡県,静岡市葵区,井宮町１１２番地の６,,22,101,4200001,,,,,,,2023-12-18,1,,,,,シンメイサービス,0
1815,8080101024404,新規,0,2023-12-18,2023-12-18,株式会社トラストテック,,株式会社,静岡県,富士宮市,大岩８１番地の１１,,22,207,4180013,,,,,,,2023-12-18,1,,,,,トラストテック,0
1816,8080103002944,新規,0,2023-12-18,2023-12-18,合同会社ＴＨＲＥＥ　ＨＯＰＥ,,合同会社,静岡県,駿東郡長泉町,下土狩４４４－５弘栄ビルＡ－１,,22,342,4110943,,,,,,,2023-12-18,1,,,,,スリーホープ,0
1832,8120001260557,新規,0,2023-12-18,2023-12-18,ＵＰ　Ｆｏｏｄ’ｓ株式会社,,株式会社,大阪府,大阪市阿倍野区,阪南町１丁目４６番１９号,,27,119,5450021,,,,,,,2023-12-18,1,,,,,アップフーズ,0
1833,8120001260656,新規,0,2023-12-18,2023-12-18,株式会社Ｇ録,,株式会社,大阪府,大阪市西区,西本町１丁目１４－３本町コスモビル４Ｆ,,27,106,5500005,,,,,,,2023-12-18,1,,,,,ジーロク,0
1834,8120001260714,新規,0,2023-12-18,2023-12-18,株式会社ＴＦＭ,,株式会社,大阪府,大阪市生野区,巽中３丁目２０－３－８０１,00133035,27,116,5440013,,,,,,,2023-12-18,1,,,,,ティーエフエム,0
1835,8120001260722,新規,0,2023-12-18,2023-12-18,株式会社川島商店,,株式会社,大阪府,大阪市東淀川区,東中島６丁目８番１９号,,27,114,5330033,,,,,,,2023-12-18,1,,,,,カワシマショウテン,0
1836,8120001260730,新規,0,2023-12-18,2023-12-18,株式会社ＯＬＩＶＥ,,株式会社,大阪府,大阪市中央区,南船場３丁目７番２７号ＮＬＣ心斎橋３Ｌ,,27,128,5420081,,,,,,,2023-12-18,1,,,,,オリーブ,0
1837,8120001260739,新規,0,2023-12-18,2023-12-18,アストリア株式会社,,株式会社,大阪府,大阪市中央区,谷町１丁目７番３号,,27,128,5400012,,,,,,,2023-12-18,1,,,,,アストリア,0
1838,8120001260755,新規,0,2023-12-18,2023-12-18,Ｅ・ＦＡＮ実業株式会社,,株式会社,大阪府,大阪市中央区,安土町１丁目６番２２号,,27,128,5410052,,,,,,,2023-12-18,1,,,,,イーファンジツギョウ,0
1842,8120901048498,新規,0,2023-12-18,2023-12-18,株式会社ＡＬＬ　ＦＯＲ　ＯＮＥ,,株式会社,大阪府,豊中市,豊南町東２丁目１１番２号,,27,203,5610814,,,,,,,2023-12-18,1,,,,,オールフォーワン,0
1844,8120905006543,新規,0,2023-12-18,2023-12-18,ＮＰＯ法人ＳＯＲＡ,,その他の設立登記法人,大阪府,茨木市,大同町７番１９号,,27,211,5670844,,,,,,,2023-12-18,1,,,,,ソラ,0
1846,8122003002755,新規,0,2023-12-18,2023-12-18,百城合同会社,,合同会社,大阪府,東大阪市,三ノ瀬１丁目９番１７号ハイツ富士パートＩＩ１０５号室,00133032,27,227,5770849,,,,,,,2023-12-18,1,,,,,ヒャクジョウ,0
1848,8130001075938,新規,0,2023-12-18,2023-12-18,株式会社アップグローリー,,株式会社,京都府,京都市伏見区,深草大亀谷大山町４５番地４,,26,109,6120847,,,,,,,2023-12-18,1,,,,,アップグローリー,0
1855,8140001132713,新規,0,2023-12-18,2023-12-18,株式会社ＬＯＶＥＧＲＥＥＮ,,株式会社,兵庫県,神戸市東灘区,向洋町中６丁目９,,28,101,6580032,,,,,,,2023-12-18,1,,,,,ラブグリーン,0
1856,8140001132721,新規,0,2023-12-18,2023-12-18,株式会社ＪＮＴ,,株式会社,兵庫県,神戸市中央区,熊内町１丁目６番２号,,28,110,6510056,,,,,,,2023-12-18,1,,,,,ジェーエヌティー,0
1857,8140001132738,新規,0,2023-12-18,2023-12-18,株式会社ソエル,,株式会社,兵庫県,神戸市須磨区,北落合５丁目１１番２３号,,28,107,6540151,,,,,,,2023-12-18,1,,,,,ソエル,0
1868,8180001159380,新規,0,2023-12-18,2023-12-18,ＴｒａｍｓｙｓｔｅｍＤ＆Ｓ株式会社,,株式会社,愛知県,名古屋市名東区,新宿２丁目２５番地４階,,23,115,4650063,,,,,,,2023-12-18,1,,,,,トラムシステムディーアンドエス,0
1869,8180001159389,新規,0,2023-12-18,2023-12-18,株式会社ｄｏｔ．Ｏ,,株式会社,愛知県,名古屋市中区,大須３丁目３０番２５号合点承知ビルＢ１,,23,106,4600011,,,,,,,2023-12-18,1,,,,,ドットオー,0
1870,8180001159397,新規,0,2023-12-18,2023-12-18,株式会社Ｆ８,,株式会社,愛知県,名古屋市中区,錦２丁目６番１９号長者町通ビル３Ｆ,,23,106,4600003,,,,,,,2023-12-18,1,,,,,エフエイト,0
1873,8180003026083,新規,0,2023-12-18,2023-12-18,合同会社ｋｍｅａｔ,,合同会社,愛知県,清須市,桃栄４丁目３４番地,,23,233,4520918,,,,,,,2023-12-18,1,,,,,ケーミート,0
1877,8230003002120,新規,0,2023-12-18,2023-12-18,合同会社Ｋｓａｌｅｓ,,合同会社,富山県,富山市,水橋専光寺８５番地１,,16,201,9390554,,,,,,,2023-12-18,1,,,,,ケイセールス,0
1882,8240005015689,新規,0,2023-12-18,2023-12-18,一般社団法人Ｆｏｒｅｖｅｒ　Ｌｏｙａｌ,,その他の設立登記法人,広島県,福山市,山手町２６３５番地,,34,207,7200092,,,,,,,2023-12-18,1,,,,,フォーエバーロイヤル,0
1884,8260003004527,新規,0,2023-12-18,2023-12-18,合同会社Ｔ,,合同会社,岡山県,岡山市北区,横井上３６番地１,,33,101,7011145,,,,,,,2023-12-18,1,,,,,ティー,0
1885,8270001008891,新規,0,2023-12-18,2023-12-18,ＳＵＮーＩＮ　ＴＲＥＥ　ＷＯＲＫＳ株式会社,,株式会社,鳥取県,西伯郡伯耆町,坂長１６７８番地,,31,390,6894122,,,,,,,2023-12-18,1,,,,,サンインツリーワークス,0
1897,8310003004694,新規,0,2023-12-18,2023-12-18,対馬久兵衛商店合同会社,,合同会社,長崎県,対馬市,上対馬町比田勝９５５番地,,42,209,8171701,,,,,,,2023-12-18,1,,,,,ツシマキュウベエショウテン,0
1900,8320001020189,新規,0,2023-12-18,2023-12-18,株式会社マルニ,,株式会社,大分県,豊後大野市,緒方町下自在３２９番地１,,44,212,8796643,,,,,,,2023-12-18,1,,,,,マルニ,0
1907,8340003004329,新規,0,2023-12-18,2023-12-18,合同会社チーム鹿児島,,合同会社,鹿児島県,鹿児島市,武岡２丁目２６番地１市住２７４１号,,46,201,8900031,,,,,,,2023-12-18,1,,,,,チームカゴシマ,0
1912,8380003005645,新規,0,2023-12-18,2023-12-18,合同会社はまふど,,合同会社,福島県,いわき市,平字新田前６番地の５,,07,204,9708026,,,,,,,2023-12-18,1,,,,,ハマフド,0
1915,8400001016492,新規,0,2023-12-18,2023-12-18,株式会社高橋荷役,,株式会社,岩手県,花巻市,大迫町大迫第１地割１５番地２,,03,205,0283203,,,,,,,2023-12-18,1,,,,,タカハシニヤク,0
1920,8420001018512,新規,0,2023-12-18,2023-12-18,株式会社大秀,,株式会社,青森県,黒石市,竹田町１０３番地,,02,204,0360322,,,,,,,2023-12-18,1,,,,,オオシュウ,0
1928,8490001010660,新規,0,2023-12-18,2023-12-18,株式会社イノベーシック,,株式会社,高知県,高知市,朝倉本町２丁目１５－１９－２,,39,201,7808073,,,,,,,2023-12-18,1,,,,,イノベーシック,0
1933,8500003003157,新規,0,2023-12-18,2023-12-18,合同会社ＮｅｃｏＮｏｔｅ,,合同会社,愛媛県,四国中央市,川之江町４０６９番地,,38,213,7990101,,,,,,,2023-12-18,1,,,,,ネコノート,0
1935,8700150114926,新規,0,2023-12-18,2023-12-18,湖南科ハオ智能科技有限公司,,外国会社等,,,,,,,,Ｈｕｎａｎｓｈｅｎｇ　ｈｅｎｇｙａｎｇｓｈｉ　ｙａｎｆｅｎｇｑｕ　ｙｕｅｐｉｎｇｚｈｅｎｄｏｎｇｈｕｃｕｎｓｈｉｅｒｚｕ　ｈｅｎｇｓｈａｎｋｅｘｕｅｃｈｅｎｇ　ｈｏｎｇｓｈｕｌｉｎｙａｎｆａｃｈｕａｎｇｘｉｎｑｕＡ２ｄｏｎｇｓａｎｌｏｕ,,,,,,2023-12-18,1,,,,,コナンカハオチノウカギユウゲンコウシ,0
1936,8700150122763,新規,0,2023-12-18,2023-12-18,Ｈｏｋｋａｉｄｏ　Ｃｅｙｌｏｎ　Ｔｒａｄｉｎｇ,,外国会社等,千葉県,千葉市緑区,土気町１４８２番地２,,12,105,2670061,スリランカ民主社会主義共和国、ハサラカ、プーンダルガスヤヤ、２４,,,,,,2023-12-18,1,,,,,ホツカイドウセイロントレーデイング,0
1937,8700150122771,新規,0,2023-12-18,2023-12-18,山田町自治会,,その他,兵庫県,小野市,山田町４６６－２,,28,218,6751321,,,,,,,2023-12-18,1,,,,,ヤマダチヨウジチカイ,0
1946,9010001240825,新規,0,2023-12-18,2023-12-18,ＳＩＮＴＯＤＡ株式会社,,株式会社,東京都,文京区,小石川２丁目２２番５－３０２,,13,105,1120002,,,,,,,2023-12-18,1,,,,,シントダ,0
1948,9010003042484,新規,0,2023-12-18,2023-12-18,合同会社りばあす,,合同会社,東京都,中央区,日本橋室町１丁目１１番１２号日本橋水野ビル７階,,13,102,1030022,,,,,,,2023-12-18,1,,,,,リバアス,0
1957,9010401179234,新規,0,2023-12-18,2023-12-18,株式会社ＲＥＮ,,株式会社,東京都,港区,赤坂９丁目６－２８アルベルゴ乃木坂,,13,103,1070052,,,,,,,2023-12-18,1,,,,,レン,0
1959,9010501051508,新規,0,2023-12-18,2023-12-18,株式会社双水工業ホールディングス,,株式会社,東京都,台東区,東上野１丁目２０番８号,,13,106,1100015,,,,,,,2023-12-18,1,,,,,ソウスイコウギョウホールディングス,0
1960,9010501051516,新規,0,2023-12-18,2023-12-18,株式会社東昇産業,,株式会社,東京都,台東区,上野３丁目２８番６号大島ビル６階,,13,106,1100005,,,,,,,2023-12-18,1,,,,,トウショウサンギョウ,0
1967,9010901054333,新規,0,2023-12-18,2023-12-18,ａｐｐ‐ｕ株式会社,,株式会社,東京都,世田谷区,三軒茶屋２丁目２０番１７号,,13,112,1540024,,,,,,,2023-12-18,1,,,,,アップ,0
1968,9010903008667,新規,0,2023-12-18,2023-12-18,合同会社ＳＯＬＡ,,合同会社,東京都,世田谷区,玉川３丁目１２番１１号スイッチビル２０２,,13,112,1580094,,,,,,,2023-12-18,1,,,,,ソラ,0
1974,9011001158792,新規,0,2023-12-18,2023-12-18,株式会社ブラッシュ,,株式会社,東京都,渋谷区,宇田川町６－２０,,13,113,1500042,,,,,,,2023-12-18,1,,,,,ブラッシュ,0
1975,9011001158859,新規,0,2023-12-18,2023-12-18,株式会社Ｇａｇ　Ｌｉｆｅ,,株式会社,東京都,渋谷区,千駄ヶ谷３丁目５番８号,,13,113,1510051,,,,,,,2023-12-18,1,,,,,ギャグライフ,0
1987,9011101105422,新規,0,2023-12-18,2023-12-18,株式会社ＷＡＫＡ,,株式会社,東京都,新宿区,西新宿３丁目３－１３西新宿水間ビル２Ｆ,,13,104,1600023,,,,,,,2023-12-18,1,,,,,ワカ,0
1988,9011101105513,新規,0,2023-12-18,2023-12-18,株式会社ＳＡＫＡＫＩ,,株式会社,東京都,新宿区,新宿２丁目１２番１３号新宿アントレサロンビル２階,,13,104,1600022,,,,,,,2023-12-18,1,,,,,サカキ,0
1994,9011601027389,新規,0,2023-12-18,2023-12-18,株式会社Ａｇａｉｎ,,株式会社,東京都,練馬区,南大泉５丁目２５番地３９号アンシャンテ２０１号室,,13,120,1780064,,,,,,,2023-12-18,1,,,,,アゲイン,0
1995,9011701026860,新規,0,2023-12-18,2023-12-18,里奥株式会社,,株式会社,東京都,江戸川区,北小岩６丁目４８番６号,,13,123,1330051,,,,,,,2023-12-18,1,,,,,リオウ,0
2000,9012401041332,新規,0,2023-12-18,2023-12-18,令和土木株式会社,,株式会社,東京都,三鷹市,中原１丁目２８番１０号,,13,204,1810005,,,,,,,2023-12-18,1,,,,,レイワドボク,0
2002,9012801022832,新規,0,2023-12-18,2023-12-18,株式会社ｔｔ．Ｃｏｍｐａｎｙ,,株式会社,東京都,立川市,錦町３丁目１０番２３号,,13,202,1900022,,,,,,,2023-12-18,1,,,,,ティティドットカンパニー,0
2003,9012801022840,新規,0,2023-12-18,2023-12-18,株式会社ｒｅｂｕｉｌｄ,,株式会社,東京都,立川市,若葉町２丁目１番地８,,13,202,1900001,,,,,,,2023-12-18,1,,,,,リビルド,0
2005,9013101009314,新規,0,2023-12-18,2023-12-18,株式会社オヌマ,,株式会社,東京都,福生市,牛浜１４８番地１,,13,218,1970024,,,,,,,2023-12-18,1,,,,,オヌマ,0
2009,9013301051776,新規,0,2023-12-18,2023-12-18,株式会社ＥＮＴＡＭＥ　ＧＩＧ　ＰＬＵＳ,,株式会社,東京都,豊島区,東池袋３丁目１番１号,,13,116,1700013,,,,,,,2023-12-18,1,,,,,エンタメギグプラス,0
2011,9020001154958,新規,0,2023-12-18,2023-12-18,株式会社サラウンド,,株式会社,神奈川県,川崎市中原区,市ノ坪４１０番地３１パークスクエア武蔵小杉３０４,,14,133,2110016,,,,,,,2023-12-18,1,,,,,サラウンド,0
2013,9021001080995,新規,0,2023-12-18,2023-12-18,株式会社ＵＺ,,株式会社,神奈川県,鎌倉市,今泉１丁目４番７号,,14,204,2470052,,,,,,,2023-12-18,1,,,,,ユージ,0
2014,9021001081011,新規,0,2023-12-18,2023-12-18,株式会社フォワード,,株式会社,神奈川県,相模原市緑区,橋本４丁目１番３号,,14,151,2520143,,,,,,,2023-12-18,1,,,,,フォワード,0
2021,9030001157753,新規,0,2023-12-18,2023-12-18,ＰＨＡＮ　ＶＵ株式会社,,株式会社,埼玉県,熊谷市,桜木町１丁目１４８番地コーエービール１Ｂ号室,,11,202,3600036,,,,,,,2023-12-18,1,,,,,ファンヴー,0
2022,9030001157761,新規,0,2023-12-18,2023-12-18,株式会社あゆみ,,株式会社,埼玉県,行田市,桜町２丁目１１番２５号,,11,206,3610022,,,,,,,2023-12-18,1,,,,,アユミ,0
2023,9030003023243,新規,0,2023-12-18,2023-12-18,合同会社ひもゆめ,,合同会社,埼玉県,越谷市,宮本町５丁目１３２番地７号,,11,222,3430806,,,,,,,2023-12-18,1,,,,,ヒモユメ,0
2027,9040001131393,新規,0,2023-12-18,2023-12-18,株式会社ｆｉｎｏ　ａｌｌａ　ｆｉｎｅ,,株式会社,千葉県,千葉市中央区,東千葉２丁目９番５号,,12,101,2600041,,,,,,,2023-12-18,1,,,,,フィーノアッラフィーネ,0
2033,9040003023936,新規,0,2023-12-18,2023-12-18,ＬＹＣＨＩＴＡＫＯ合同会社,,合同会社,千葉県,千葉市花見川区,幕張本郷２丁目５番１号,,12,102,2620033,,,,,,,2023-12-18,1,,,,,リチタコ,0
2037,9070001041202,新規,0,2023-12-18,2023-12-18,株式会社ＫＳコンサルティング,,株式会社,群馬県,邑楽郡邑楽町,大字中野２３９番地１,,10,525,3700603,,,,,,,2023-12-18,1,,,,,ケーエスコンサルティング,0
2041,9080103002943,新規,0,2023-12-18,2023-12-18,合同会社日本総合住建,,合同会社,静岡県,御殿場市,東山４４６番地の１,,22,215,4120024,,,,,,,2023-12-18,1,,,,,ニホンソウゴウジュウケン,0
2047,9110001038045,新規,0,2023-12-18,2023-12-18,株式会社ＬＩＶＥＳ,,株式会社,新潟県,新潟市北区,新崎１丁目２－１２,,15,101,9503134,,,,,,,2023-12-18,1,,,,,ライブス,0
2055,9120001260655,新規,0,2023-12-18,2023-12-18,青竹株式会社,,株式会社,大阪府,大阪市東住吉区,鷹合４丁目２１番１６号１Ｆ－Ａ,,27,121,5460014,,,,,,,2023-12-18,1,,,,,アオタケ,0
2056,9120001260696,新規,0,2023-12-18,2023-12-18,株式会社ＬＵＹＯＵＮＧ,,株式会社,大阪府,大阪市東住吉区,西今川４丁目３４番１３号,,27,121,5460042,,,,,,,2023-12-18,1,,,,,ロクヨウ,0
2060,9120003025511,新規,0,2023-12-18,2023-12-18,オードリー国際合同会社,,合同会社,大阪府,大阪市生野区,舎利寺２丁目１番１１号,,27,116,5440022,,,,,,,2023-12-18,1,,,,,オードリーコクサイ,0
2061,9120003025544,新規,0,2023-12-18,2023-12-18,合同会社ＫＥプロパティ,,合同会社,大阪府,大阪市北区,大淀中３丁目４番１４号,,27,127,5310076,,,,,,,2023-12-18,1,,,,,ケーイープロパティ,0
2062,9120101068718,新規,0,2023-12-18,2023-12-18,株式会社ＳＨ　ＴＲＡＤＩＮＧ,,株式会社,大阪府,堺市美原区,菅生７８３,,27,147,5870041,,,,,,,2023-12-18,1,,,,,エスエッチトレーディング,0
2069,9130001075945,新規,0,2023-12-18,2023-12-18,株式会社栄爾,,株式会社,京都府,京都市南区,上鳥羽南中ノ坪町２５番地３,,26,107,6018188,,,,,,,2023-12-18,1,,,,,エイジ,0
2070,9130001075953,新規,0,2023-12-18,2023-12-18,株式会社エヌアセット,,株式会社,京都府,京都市北区,紫野西泉堂町４番地２,,26,101,6038246,,,,,,,2023-12-18,1,,,,,エヌアセット,0
2071,9130003009190,新規,0,2023-12-18,2023-12-18,合同会社ＷＩＳＨ,,合同会社,京都府,舞鶴市,字上福井１６７３番地５,,26,202,6240951,,,,,,,2023-12-18,1,,,,,ウイッシュ,0
2079,9140001132720,新規,0,2023-12-18,2023-12-18,株式会社ミモソル,,株式会社,兵庫県,神戸市中央区,中山手通２丁目１番３－８０１号,,28,110,6500004,,,,,,,2023-12-18,1,,,,,ミモソル,0
2083,9140003019932,新規,0,2023-12-18,2023-12-18,合同会社ＶＩＥＴＮＡＭＥＳＥ　ＲＥＳＴＡＵＲＡＮＴ　ＧＡＯ,,合同会社,兵庫県,西宮市,甲子園八番町２－５プロシード甲子園２階,,28,204,6638178,,,,,,,2023-12-18,1,,,,,ベトナミーズレストランガオ,0
2084,9140005026836,新規,0,2023-12-18,2023-12-18,一般社団法人Ｗｉｎｃｕｌｕｍ未来,,その他の設立登記法人,兵庫県,尼崎市,杭瀬北新町３丁目１－１７,,28,202,6600815,,,,,,,2023-12-18,1,,,,,,0
2085,9150001026946,新規,0,2023-12-18,2023-12-18,ＡＳＭＯ株式会社,,株式会社,奈良県,橿原市,雲梯町９０７番地の１０,,29,205,6340834,,,,,,,2023-12-18,1,,,,,アスモ,0
2095,9180001159396,新規,0,2023-12-18,2023-12-18,株式会社Ｙ．Ｃ．Ｐ,,株式会社,愛知県,一宮市,奥町字七丁３２番地グランレイム一宮５０４,,23,203,4910201,,,,,,,2023-12-18,1,,,,,ワイシーピー,0
2096,9180001159405,新規,0,2023-12-18,2023-12-18,株式会社ｍｉｔｅ,,株式会社,愛知県,北名古屋市,鹿田栄１５３番地２,,23,234,4810004,,,,,,,2023-12-18,1,,,,,ミテ,0
2101,9180301038135,新規,0,2023-12-18,2023-12-18,株式会社ｍｔｃ,,株式会社,愛知県,豊橋市,東脇１丁目６番地８,,23,201,4418083,,,,,,,2023-12-18,1,,,,,エムティシー,0
2107,9200001041997,新規,0,2023-12-18,2023-12-18,株式会社エクラン,,株式会社,岐阜県,関市,肥田瀬１５３５番地１,,21,205,5013911,,,,,,,2023-12-18,1,,,,,エクラン,0
2114,9240001062552,新規,0,2023-12-18,2023-12-18,株式会社ＡＴＴＡＩＮ‐Ｚ,,株式会社,広島県,福山市,神島町２－５,,34,207,7200091,,,,,,,2023-12-18,1,,,,,アテインゼット,0
2145,9350001018717,新規,0,2023-12-18,2023-12-18,株式会社朝倉塗装,,株式会社,宮崎県,宮崎市,神宮１丁目２１７番地,,45,201,8800053,,,,,,,2023-12-18,1,,,,,アサクラトソウ,0
2148,9360005006956,新規,0,2023-12-18,2023-12-18,結ぐくる協同組合,,その他の設立登記法人,沖縄県,宜野湾市,大謝名１丁目２番２２号１Ｆ,,47,205,9012225,,,,,,,2023-12-18,1,,,,,ユイグクル,0
2149,9370001050742,新規,0,2023-12-18,2023-12-18,株式会社ＣＩＥＮ,,株式会社,宮城県,仙台市宮城野区,苦竹２丁目３番１４号モンテフィオーレ１０２,,04,102,9830036,,,,,,,2023-12-18,1,,,,,シエン,0
2150,9380001034199,新規,0,2023-12-18,2023-12-18,株式会社小松土建,,株式会社,福島県,郡山市,八山田５丁目１３番地,,07,203,9638052,,,,,,,2023-12-18,1,,,,,コマツドケン,0
2156,9430001090674,新規,0,2023-12-18,2023-12-18,株式会社ＳｉｒｉｕｓＡ,,株式会社,北海道,札幌市中央区,南九条西３丁目１番６号,,01,101,0640809,,,,,,,2023-12-18,1,,,,,シリウスエー,0
2159,9460101007476,新規,0,2023-12-18,2023-12-18,株式会社ＭａｔｔｏＧａｒａｇｅ,,株式会社,北海道,中川郡幕別町,字千住３９７－５０,,01,643,0890563,,,,,,,2023-12-18,1,,,,,マットガレージ,0
2163,9700150122770,新規,0,2023-12-18,2023-12-18,ＰＴ．ＫＡＲＹＡ　ＧＬＯＢＡＬＩＮＤＯ　ＩＮＴＥＲＮＡＳＩＯＮＡＬ,,外国会社等,千葉県,流山市,大字東深井４０９番地の１０－１０１,,12,220,2700101,インドネシア共和国ジャカルタ州西ジャカルタ市カリドラスク区西ペタストリート７番,,,,,,2023-12-18,1,,,,,カラヤグローバリンドインターナシヨナル,0
2164,9700150122779,新規,0,2023-12-18,2023-12-18,ＲｕｉＡｎｓｈｉＱｉａｎＢａｉＧｕｉｆｕｓｈｉｙｏｕｘｉａｎｇｏｎｇｓｉ,,外国会社等,,,,,,,,ｆｅｉｙｕｎｘｉｎｇｏｎｇｙｅｑｕｙｏｎｇｎｉｎｇｄａｄａｏＢ－８８８ｈａｏ　ｒｕｉａｎｓｈｉｊｉｎｇｊｉｋａｉｆａｑｕ　ｒｕｉａｎ　ｚｈｅｊｉａｎｇ　３２５２００　ＣＮ,,,,,,2023-12-18,1,,,,,ルイアンシーチエンバイグイフーシーヨウシエンゴンスー,0
