sequenceNumber,corporateNumber,process,correct,updateDate,changeDate,name,nameImageId,kind,prefectureName,cityName,streetNumber,addressImageId,prefectureCode,cityCode,postCode,addressOutside,addressOutsideImageId,closeDate,closeCause,successorCorporateNumber,changeCause,assignmentDate,latest,enName,enPrefectureName,enCityName,enAddressOutside,furigana,hihyoji
5,1010001241962,登記記録の閉鎖等,0,2024-06-20,2024-06-17,株式会社デジタルブラストコンサルティング,,株式会社,東京都,千代田区,神田神保町１丁目１０５番地,,13,101,1010051,,,2024-06-17,合併による解散等,7010401178618,令和６年６月１日東京都港区赤坂九丁目７番１号ミッドタウン・タワー３７階株式会社デジタルブラストコンサルティング（7010401178618）に合併し解散,2024-02-05,1,,,,,デジタルブラストコンサルティング,0
11,1010003028904,登記記録の閉鎖等,0,2024-06-20,2024-06-05,合同会社ＺｅＮＩＳＴ,,合同会社,東京都,中央区,東日本橋２丁目１１番５号,,13,102,1030004,,,2024-06-05,清算の結了等,,,2018-12-17,1,,,,,ゼニスト,0
17,1010401179539,登記記録の閉鎖等,0,2024-06-20,2024-06-07,ＡＢＣ株式会社,,株式会社,東京都,港区,六本木６丁目１０番１号,,13,103,1060032,,,2024-06-07,清算の結了等,,,2024-01-04,1,,,,,エービーシー,0
65,1013301001350,登記記録の閉鎖等,0,2024-06-20,2024-06-10,株式会社イーケイディー,,株式会社,東京都,豊島区,東池袋２丁目４３番２号,,13,116,1700013,,,2024-06-10,清算の結了等,,,2015-10-05,1,,,,,イーケイディー,0
68,1020001108269,登記記録の閉鎖等,0,2024-06-20,2024-06-10,株式会社ビタミンハウス,,株式会社,神奈川県,川崎市多摩区,中野島２丁目６番１３号,,14,135,2140012,,,2024-06-10,清算の結了等,,,2015-10-05,1,,,,,ビタミンハウス,0
78,1030001008518,登記記録の閉鎖等,0,2024-06-20,2024-06-17,株式会社山本光秀堂,,株式会社,埼玉県,さいたま市岩槻区,仲町１丁目２番２１号,,11,110,3390054,,,2024-06-17,清算の結了等,,,2015-10-05,1,,,,,ヤマモトコウシュウドウ,0
120,1100002038374,登記記録の閉鎖等,0,2024-06-20,2024-06-07,有限会社北部石油,,有限会社,長野県,下伊那郡松川町,元大島１６４８番地,,20,402,3993303,,,2024-06-07,清算の結了等,,,2015-10-05,1,,,,,ホクブセキユ,0
125,1120001088690,登記記録の閉鎖等,0,2024-06-20,2024-06-17,株式会社プティプランス,,株式会社,大阪府,大阪市中央区,南船場３丁目５－２５－５Ｆ,,27,128,5420081,,,2024-06-17,清算の結了等,,,2015-10-05,1,,,,,プティプランス,0
131,1120001212267,登記記録の閉鎖等,0,2024-06-20,2024-06-17,株式会社グローバルアキラ,,株式会社,大阪府,大阪市中央区,淡路町１丁目３番２号,,27,128,5410047,,,2024-06-17,清算の結了等,,,2018-03-28,1,,,,,グローバルアキラ,0
133,1120001225574,登記記録の閉鎖等,0,2024-06-20,2024-06-17,株式会社ＴＫＳ　ｓａｌｏｎ,,株式会社,大阪府,大阪市平野区,平野西５丁目９番１０号サニーピア平野,,27,126,5470033,,,2024-06-17,清算の結了等,,,2019-12-05,1,,,,,ティーケイエスサロン,0
143,1120003023588,登記記録の閉鎖等,0,2024-06-20,2024-06-12,合同会社アムールＰ．Ｔ．,,合同会社,大阪府,大阪市東成区,大今里西３丁目１１－１２番地１階,,27,115,5370014,,,2024-06-12,清算の結了等,,,2023-03-13,1,,,,,アムールピィティ,0
158,1130002012005,登記記録の閉鎖等,0,2024-06-20,2024-06-18,有限会社オクダ空調,,有限会社,京都府,京都市山科区,竹鼻西ノ口町３２番地の５,,26,110,6078089,,,2024-06-18,清算の結了等,,,2015-10-05,1,,,,,オクダクウチョウ,0
160,1150003001285,登記記録の閉鎖等,0,2024-06-20,2024-06-12,合同会社Ｋ＆Ｒ　ＢＳＯ,,合同会社,奈良県,高市郡明日香村,大字檜前２００番地の６,,29,402,6340135,,,2024-06-12,清算の結了等,,,2015-10-05,1,,,,,ケーアンドアールビーエスオー,0
162,1170003001944,登記記録の閉鎖等,0,2024-06-20,2024-06-12,大勝合名会社,,合名会社,和歌山県,和歌山市,北町２０番地,,30,201,6408038,,,2024-06-12,清算の結了等,,,2023-11-13,1,,,,,ダイショウ,0
193,1300005004106,登記記録の閉鎖等,0,2024-06-20,2024-06-19,伊万里小売酒販組合,,その他の設立登記法人,佐賀県,伊万里市,東山代町里３５８番地１９,,41,205,8494282,,,2024-06-19,清算の結了等,,,2015-10-05,1,,,,,イマリコウリ,0
206,1370303000246,登記記録の閉鎖等,0,2024-06-20,2024-06-07,復幸まちづくり女川合同会社,,合同会社,宮城県,牡鹿郡女川町,女川２丁目１６番地４,,04,581,9862265,,,2024-06-07,清算の結了等,,,2015-10-05,1,,,,,フッコウマチヅクリオナガワ,0
210,1410002008412,登記記録の閉鎖等,0,2024-06-20,2024-06-12,三栄産業有限会社,,有限会社,秋田県,大館市,有浦３丁目４番３０号,,05,204,0170043,,,2024-06-12,清算の結了等,,,2015-10-05,1,,,,,サンエイサンギョウ,0
211,1410003001151,登記記録の閉鎖等,0,2024-06-20,2024-06-11,合資会社やまりん商店,,合資会社,秋田県,湯沢市,川連町字大舘屋布前１３番地,,05,207,0120105,,,2024-06-11,清算の結了等,,,2015-10-05,1,,,,,ヤマリンショウテン,0
307,2013101009361,登記記録の閉鎖等,0,2024-06-20,2024-06-18,株式会社ＭＩＫＡＤＯ祈念ホールディングス,,株式会社,東京都,あきる野市,小川１０１番地,,13,228,1970821,,,2024-06-18,清算の結了等,,,2024-03-06,1,,,,,,0
310,2013301010656,登記記録の閉鎖等,0,2024-06-20,2024-06-10,株式会社冨士屋洋服店,,株式会社,東京都,豊島区,南長崎５丁目２７番５号,,13,116,1710052,,,2024-06-10,清算の結了等,,,2015-10-05,1,,,,,フジヤヨウフクテン,0
314,2020001114720,登記記録の閉鎖等,0,2024-06-20,2024-06-10,株式会社踊場,,株式会社,神奈川県,横浜市泉区,中田南１丁目２４番８号,,14,116,2450014,,,2024-06-10,清算の結了等,,,2016-02-05,1,,,,,オドリバ,0
323,2020003006049,登記記録の閉鎖等,0,2024-06-20,2024-06-07,合資会社ふみソフト,,合資会社,神奈川県,川崎市多摩区,登戸新町３１９番地セジュールイシイ１０２,,14,135,2140013,,,2024-06-07,清算の結了等,,,2015-10-05,1,,,,,フミソフト,0
335,2030002020990,登記記録の閉鎖等,0,2024-06-20,2024-06-18,有限会社サードキャビン,,有限会社,埼玉県,さいたま市岩槻区,大字小溝１０７番地の１６,,11,110,3390003,,,2024-06-18,清算の結了等,,,2015-10-05,1,,,,,サードキャビン,0
354,2050001009050,登記記録の閉鎖等,0,2024-06-20,2024-06-17,川田産業株式会社,,株式会社,茨城県,土浦市,中荒川沖町３番４号,,08,203,3000875,,,2024-06-17,清算の結了等,,,2015-10-05,1,,,,,,0
366,2080003002397,登記記録の閉鎖等,0,2024-06-20,2024-06-12,ナノキシー合同会社,,合同会社,静岡県,静岡市清水区,月見町１９－５,,22,103,4240853,,,2024-06-12,清算の結了等,,,2020-03-12,1,,,,,ナノキシー,0
404,2180001011828,登記記録の閉鎖等,0,2024-06-20,2024-06-10,株式会社家具のムラセ,,株式会社,愛知県,名古屋市北区,東味鋺１丁目１３０３番地,,23,103,4620013,,,2024-06-10,清算の結了等,,,2015-10-05,1,,,,,カグノムラセ,0
449,2370002005735,登記記録の閉鎖等,0,2024-06-20,2024-06-04,有限会社二郷屋,,有限会社,宮城県,仙台市若林区,河原町２丁目５番２５号,,04,103,9840816,,,2024-06-04,清算の結了等,,,2015-10-05,1,,,,,ニゴウヤ,0
454,2380002015592,登記記録の閉鎖等,0,2024-06-20,2024-06-13,有限会社山崎製作所,,有限会社,福島県,田村郡三春町,大字貝山字馬場４７番地,,07,521,9637719,,,2024-06-13,清算の結了等,,,2015-10-05,1,,,,,ヤマザキセイサクジョ,0
496,3010001205420,登記記録の閉鎖等,0,2024-06-20,2024-06-07,株式会社ＡＰプレイス,,株式会社,東京都,港区,東新橋１丁目１番１９号,,13,103,1050021,,,2024-06-07,清算の結了等,,,2019-11-18,1,,,,,エーピープレイス,0
497,3010001230617,登記記録の閉鎖等,0,2024-06-20,2024-06-12,株式会社アール＆キャリア,,株式会社,東京都,千代田区,麹町２丁目１４番地,,13,101,1020083,,,2024-06-12,合併による解散等,6010001023019,令和６年６月１２日東京都千代田区麹町二丁目１４番地アイング株式会社（6010001023019）に合併し解散,2022-11-18,1,,,,,アールアンドキャリア,0
555,3011502003965,登記記録の閉鎖等,0,2024-06-20,2024-06-17,有限会社テー・ケー・シー富士計算センター,,有限会社,東京都,北区,田端５丁目２番１６号,,13,117,1140014,,,2024-06-17,清算の結了等,,,2015-10-05,1,,,,,テーケーシーフジケイサンセンター,0
569,3012402003238,登記記録の閉鎖等,0,2024-06-20,2024-06-10,有限会社永裕,,有限会社,東京都,国分寺市,本多４丁目８番７号,,13,214,1850011,,,2024-06-10,清算の結了等,,,2015-10-05,1,,,,,,0
577,3020001045163,登記記録の閉鎖等,0,2024-06-20,2024-06-17,株式会社バリュープランニング,,株式会社,東京都,渋谷区,神宮前６丁目１７番１５号落合原宿ビル３階,,13,113,1500001,,,2024-06-17,合併による解散等,2010001072184,令和６年６月４日東京都千代田区一番町１３番地１メトロシティ半蔵門デロイトトーマツアクト株式会社（2010001072184）に合併し解散,2015-10-05,1,,,,,バリュープランニング,0
599,3030002056183,登記記録の閉鎖等,0,2024-06-20,2024-06-17,有限会社ヤナセコーポレーション,,有限会社,埼玉県,桶川市,坂田東２丁目７番地１４,,11,231,3630009,,,2024-06-17,清算の結了等,,,2015-10-05,1,,,,,ヤナセコーポレーション,0
600,3030002056679,登記記録の閉鎖等,0,2024-06-20,2024-06-17,有限会社ティ・エヌ・ワイ・インターナショナル,,有限会社,埼玉県,桶川市,坂田東２丁目７番地１４,,11,231,3630009,,,2024-06-17,清算の結了等,,,2015-10-05,1,,,,,ティエヌワイインターナショナル,0
601,3030002108439,登記記録の閉鎖等,0,2024-06-20,2024-06-17,有限会社ラプンツェル,,有限会社,埼玉県,川口市,柳根町１５－３－３０５,,11,203,3330864,,,2024-06-17,清算の結了等,,,2015-10-05,1,,,,,ラプンツェル,0
602,3030003005239,登記記録の閉鎖等,0,2024-06-20,2024-06-17,合同会社ＪＯＦ,,合同会社,埼玉県,入間市,大字南峯１９８番地１,,11,225,3580046,,,2024-06-17,清算の結了等,,,2015-10-05,1,,,,,ジェイオーエフ,0
636,3120001142504,登記記録の閉鎖等,0,2024-06-20,2024-06-14,プラント技研株式会社,,株式会社,大阪府,大阪市中央区,瓦町４丁目５番９号,,27,128,5410048,,,2024-06-14,合併による解散等,2010401062537,令和６年６月１日東京都港区西新橋三丁目２番１号ジェイパワー・エンテック株式会社（2010401062537）に合併し解散,2015-10-05,1,,,,,プラントギケン,0
638,3120001228897,登記記録の閉鎖等,0,2024-06-20,2024-06-19,株式会社ＪＨコネクト,,株式会社,大阪府,大阪市東淀川区,東中島１丁目１７番５－１０１４号,,27,114,5330033,,,2024-06-19,清算の結了等,,,2020-05-08,1,,,,,ジェイエイチコネクト,0
666,3140002011499,登記記録の閉鎖等,0,2024-06-20,2024-06-18,有限会社酒房味沢,,有限会社,兵庫県,神戸市兵庫区,和田宮通５丁目１番１０号,,28,105,6520863,,,2024-06-18,清算の結了等,,,2015-10-05,1,,,,,シュボウミサワ,0
686,3180301012376,登記記録の閉鎖等,0,2024-06-20,2024-06-18,株式会社ＳＮＫ,,株式会社,愛知県,岡崎市,野畑町字亀井１９番地４,,23,202,4440211,,,2024-06-18,清算の結了等,,,2015-10-05,1,,,,,,0
693,3180303001253,登記記録の閉鎖等,0,2024-06-20,2024-06-12,大昌合資会社,,合資会社,愛知県,豊橋市,羽根井本町８番地,,23,201,4418029,,,2024-06-12,清算の結了等,,,2015-10-05,1,,,,,ダイショウ,0
697,3190002006817,登記記録の閉鎖等,0,2024-06-20,2024-06-18,有限会社ナダノ精機,,有限会社,三重県,鈴鹿市,西条３丁目２２番１号,,24,207,5130809,,,2024-06-18,清算の結了等,,,2015-10-05,1,,,,,ナダノセイキ,0
700,3200001011568,登記記録の閉鎖等,0,2024-06-20,2024-06-17,ミノ重工株式会社,,株式会社,岐阜県,羽島市,竹鼻町蜂尻４８９番地,,21,209,5016235,,,2024-06-17,清算の結了等,,,2015-10-05,1,,,,,ミノジュウコウ,0
707,3230002005129,登記記録の閉鎖等,0,2024-06-20,2024-06-18,有限会社中国雑技アトラクション,,有限会社,富山県,富山市,奥田双葉町３番２０号,,16,201,9300851,,,2024-06-18,清算の結了等,,,2015-10-05,1,,,,,チュウゴクザツギアトラクション,0
708,3230002007232,登記記録の閉鎖等,0,2024-06-20,2024-06-17,有限会社高田ボーリング,,有限会社,富山県,中新川郡立山町,泊新５５番地,,16,323,9300265,,,2024-06-17,清算の結了等,,,2015-10-05,1,,,,,タカダボーリング,0
711,3240002039811,登記記録の閉鎖等,0,2024-06-20,2024-06-18,有限会社岡崎工作所,00001244,有限会社,広島県,福山市,新涯町２丁目２７番８号,,34,207,7210955,,,2024-06-18,清算の結了等,,,2015-10-05,1,,,,,オカザキコウサクショ,0
714,3270001008021,登記記録の閉鎖等,0,2024-06-20,2024-06-17,株式会社アクトノバ,,株式会社,鳥取県,米子市,両三柳２１４番地,,31,202,6830853,,,2024-06-17,清算の結了等,,,2020-06-08,1,,,,,アクトノバ,0
717,3280002007401,登記記録の閉鎖等,0,2024-06-20,2024-06-13,有限会社中央商事,,有限会社,島根県,出雲市,今市町北本町３丁目２番地６,,32,203,6930002,,,2024-06-13,清算の結了等,,,2015-10-05,1,,,,,チュウオウショウジ,0
719,3290001023357,登記記録の閉鎖等,0,2024-06-20,2024-05-29,東亜防水リメーク株式会社,,株式会社,福岡県,福岡市南区,柳瀬１丁目７番２０号,,40,134,8111321,,,2024-05-29,清算の結了等,,,2015-10-05,1,,,,,トウアボウスイリメーク,0
739,3340002014077,登記記録の閉鎖等,0,2024-06-20,2024-06-13,有限会社プロショップマエダ,,有限会社,鹿児島県,霧島市,国分中央５丁目７番２号,,46,218,8994332,,,2024-06-13,清算の結了等,,,2015-10-05,1,,,,,プロショップマエダ,0
747,3370002014495,登記記録の閉鎖等,0,2024-06-20,2024-06-05,有限会社仙台キリスト教書店,,有限会社,宮城県,仙台市青葉区,錦町１丁目１３番６号,,04,101,9800012,,,2024-06-05,清算の結了等,,,2015-10-05,1,,,,,センダイキリストキョウショテン,0
774,3500003001875,登記記録の閉鎖等,0,2024-06-20,2024-06-14,ステップスクール合同会社,,合同会社,愛媛県,松山市,古川北１丁目１８番１８号,,38,201,7900942,,,2024-06-14,清算の結了等,,,2016-12-28,1,,,,,ステップスクール,0
782,4010001199471,登記記録の閉鎖等,0,2024-06-20,2024-06-18,ミニター株式会社,,株式会社,東京都,墨田区,両国３丁目２１番１号,,13,107,1300026,,,2024-06-18,合併による解散等,1020001153752,令和６年６月１日神奈川県横浜市西区南幸二丁目１５番２０号ミニター株式会社（1020001153752）に合併し解散,2019-03-25,1,,,,,ミニター,0
810,4010702012016,登記記録の閉鎖等,0,2024-06-20,2024-06-17,有限会社エム・エイチ・エス,,有限会社,東京都,品川区,南品川５丁目２番１７号,,13,109,1400004,,,2024-06-17,清算の結了等,,,2015-10-05,1,,,,,エムエイチエス,0
830,4011601027237,登記記録の閉鎖等,0,2024-06-20,2024-06-17,株式会社ＲＩＮＣ,,株式会社,東京都,練馬区,北町２丁目２６番１３号ル・コンフォール２０２,,13,120,1790081,,,2024-06-17,清算の結了等,,,2023-11-01,1,,,,,リンク,0
832,4011701019019,登記記録の閉鎖等,0,2024-06-20,2024-06-18,株式会社イシキフーズ,,株式会社,埼玉県,八潮市,大字浮塚１０３８－１,,11,234,3400835,,,2024-06-18,合併による解散等,4011401003306,令和６年６月１日東京都板橋区板橋一丁目３５番９号株式会社スーパーみらべる（4011401003306）に合併し解散,2015-10-05,1,,,,,イシキフーズ,0
833,4011701024316,登記記録の閉鎖等,0,2024-06-20,2024-06-11,株式会社根菜倶楽部,00122804,株式会社,東京都,江戸川区,船堀１丁目４番１０－１００２号第２乙女屋マンション,,13,123,1340091,,,2024-06-11,清算の結了等,,,2021-04-20,1,,,,,コンサイクラブ,0
856,4020002071059,登記記録の閉鎖等,0,2024-06-20,2024-06-10,有限会社橋本倉庫,,有限会社,神奈川県,横浜市神奈川区,栄町１０番地３５ザ・ヨコハマタワーズタワーイーストサウスコート１０２－５号室,,14,102,2210052,,,2024-06-10,清算の結了等,,,2015-10-05,1,,,,,ハシモトソウコ,0
863,4021005002835,登記記録の閉鎖等,0,2024-06-20,2024-06-17,協同組合三友環境保全センター,,その他の設立登記法人,神奈川県,相模原市緑区,橋本台１丁目１０番３３号サンクレイドル橋本台４１１号室,,14,151,2520132,,,2024-06-17,清算の結了等,,,2015-10-05,1,,,,,サンユウカンキョウホゼンセンター,0
869,4030002019081,登記記録の閉鎖等,0,2024-06-20,2024-06-17,有限会社プラス・ワン,,有限会社,埼玉県,さいたま市北区,日進町３丁目６３７番地９,,11,102,3310823,,,2024-06-17,清算の結了等,,,2015-10-05,1,,,,,プラスワン,0
874,4030005015350,登記記録の閉鎖等,0,2024-06-20,2024-06-14,特定非営利活動法人地域あんしんネット,,その他の設立登記法人,埼玉県,秩父市,荒川上田野７８５番地１,,11,207,3691802,,,2024-06-14,清算の結了等,,,2015-10-05,1,,,,,チイキアンシンネット,0
877,4040002033800,登記記録の閉鎖等,0,2024-06-20,2024-06-10,有限会社啓太郎せんべい,,有限会社,千葉県,市川市,八幡２丁目５番４号,,12,203,2720021,,,2024-06-10,清算の結了等,,,2015-10-05,1,,,,,ケイタイロウセンベイ,0
899,4120001246849,登記記録の閉鎖等,0,2024-06-20,2024-06-18,星和株式会社,,株式会社,大阪府,大阪市中央区,松屋町９番２０号ローレルステート松屋町４０４Ｂ,,27,128,5420067,,,2024-06-18,清算の結了等,,,2022-06-27,1,,,,,セイワ,0
915,4130001002813,登記記録の閉鎖等,0,2024-06-20,2024-06-14,株式会社きぬ和商事,,株式会社,京都府,京都市上京区,中筋通浄福寺西入中宮町３２６番地,,26,102,6028469,,,2024-06-14,清算の結了等,,,2015-10-05,1,,,,,キヌワショウジ,0
923,4140003016645,登記記録の閉鎖等,0,2024-06-20,2024-06-17,播但社中合同会社,,合同会社,兵庫県,姫路市,下手野４丁目１３番７３号ルポアーネット１０２,,28,201,6700063,,,2024-06-17,清算の結了等,,,2021-08-19,1,,,,,バンタンシャチュウ,0
924,4140005020736,登記記録の閉鎖等,0,2024-06-20,2024-06-17,一般社団法人自立生活センター三田,,その他の設立登記法人,兵庫県,三田市,加茂１０８６番地１,,28,219,6691311,,,2024-06-17,清算の結了等,,,2015-10-05,1,,,,,ジリツセイカツセンターサンダ,0
939,4200001034758,登記記録の閉鎖等,0,2024-06-20,2024-06-13,株式会社日本花物流,,株式会社,岐阜県,瑞穂市,田之上３９５番地の１,,21,216,5010304,,,2024-06-13,清算の結了等,,,2017-12-28,1,,,,,ニホンハナブツリュウ,0
945,4220005004350,登記記録の閉鎖等,0,2024-06-20,2024-06-12,特定非営利活動法人福祉の会かが,,その他の設立登記法人,石川県,加賀市,動橋町ネ３０・３１番地,,17,206,9220331,,,2024-06-12,清算の結了等,,,2015-10-05,1,,,,,フクシノカイカガ,0
950,4240001057680,登記記録の閉鎖等,0,2024-06-20,2024-06-17,株式会社一桜建設,,株式会社,広島県,東広島市,西条町寺家４９７１番地１,,34,212,7390041,,,2024-06-17,清算の結了等,,,2021-04-05,1,,,,,イッサケンセツ,0
957,4260002030775,登記記録の閉鎖等,0,2024-06-20,2024-06-05,有限会社ヨシダ電機,,有限会社,岡山県,勝田郡勝央町,東吉田２４２番地１,,33,622,7094314,,,2024-06-05,清算の結了等,,,2015-10-05,1,,,,,ヨシダデンキ,0
959,4270005003216,登記記録の閉鎖等,0,2024-06-20,2024-06-06,清山生産森林組合,,その他の設立登記法人,鳥取県,西伯郡伯耆町,清原７８０番地,,31,390,6894111,,,2024-06-06,清算の結了等,,,2015-10-05,1,,,,,セイヤマ,0
969,4290002002623,登記記録の閉鎖等,0,2024-06-20,2024-05-29,大宝ビル有限会社,,有限会社,福岡県,福岡市南区,柳瀬１丁目７番２０号,,40,134,8111321,,,2024-05-29,清算の結了等,,,2015-10-05,1,,,,,タイホウビル,0
980,4330001030224,登記記録の閉鎖等,0,2024-06-20,2024-06-17,エス・ケイラインコーポレーション株式会社,,株式会社,熊本県,八代市,千丁町太牟田１９０８番地２,,43,202,8694701,,,2024-06-17,清算の結了等,,,2022-11-01,1,,,,,エスケイラインコーポレーション,0
1016,4430001086834,登記記録の閉鎖等,0,2024-06-20,2024-06-14,ランザード株式会社,,株式会社,北海道,小樽市,新光２丁目１番２０－２０１号,,01,203,0470152,,,2024-06-14,清算の結了等,,,2022-06-07,1,,,,,ランザード,0
1032,5010001129072,登記記録の閉鎖等,0,2024-06-20,2024-06-18,ＴＰ　ＩＣＡＰ株式会社,,株式会社,東京都,港区,赤坂２丁目１７番７号,,13,103,1070052,,,2024-06-18,清算の結了等,,,2015-10-05,1,,,,,ティーピーアイキャップ,0
1068,5010703003483,登記記録の閉鎖等,0,2024-06-20,2024-06-18,ＴＳ管理合同会社,,合同会社,東京都,品川区,北品川１丁目９－７トップルーム品川１０１５,,13,109,1400001,,,2024-06-18,合併による解散等,6010701027310,令和６年６月１日東京都目黒区目黒一丁目４番１６号目黒Ｇビル７階Ｅマネージ株式会社（6010701027310）に合併し解散,2017-02-15,1,,,,,,0
1084,5011601026139,登記記録の閉鎖等,0,2024-06-20,2024-06-12,株式会社ＯＣＴオクト,,株式会社,東京都,練馬区,中村南３丁目２６番７－２０３号,,13,120,1760025,,,2024-06-12,清算の結了等,,,2022-08-01,1,,,,,オクト,0
1090,5011801020560,登記記録の閉鎖等,0,2024-06-20,2024-06-13,株式会社フローラルデコール,,株式会社,東京都,葛飾区,東金町１丁目３７番２号,,13,122,1250041,,,2024-06-13,清算の結了等,,,2015-10-05,1,,,,,フローラルデコール,0
1097,5013101005399,登記記録の閉鎖等,0,2024-06-20,2024-06-19,株式会社ＯＦＦＩＣＥ　ＯＮＥ,,株式会社,東京都,あきる野市,秋川１丁目１番地１０,,13,228,1970804,,,2024-06-19,清算の結了等,,,2015-10-05,1,,,,,オフィスワン,0
1098,5013301021832,登記記録の閉鎖等,0,2024-06-20,2024-06-11,東京産業株式会社,,株式会社,東京都,豊島区,駒込２丁目６番３号,,13,116,1700003,,,2024-06-11,清算の結了等,,,2015-10-05,1,,,,,トウキョウサンギョウ,0
1100,5020001114305,登記記録の閉鎖等,0,2024-06-20,2024-06-07,株式会社翔栄建設,,株式会社,神奈川県,横浜市中区,打越８０番地１０,,14,104,2310867,,,2024-06-07,清算の結了等,,,2016-01-08,1,,,,,,0
1104,5020002065761,登記記録の閉鎖等,0,2024-06-20,2024-06-10,有限会社ケイオー・エコ,,有限会社,神奈川県,横浜市青葉区,あかね台１丁目１番２７,,14,117,2270066,,,2024-06-10,清算の結了等,,,2015-10-05,1,,,,,ケイオーエコ,0
1106,5020002103983,登記記録の閉鎖等,0,2024-06-20,2024-06-10,有限会社アオキトラスト,,有限会社,神奈川県,川崎市宮前区,有馬３丁目１番１７号,,14,136,2160003,,,2024-06-10,清算の結了等,,,2015-10-05,1,,,,,アオキトラスト,0
1112,5030001080026,登記記録の閉鎖等,0,2024-06-20,2024-06-17,株式会社ビアケアライン,,株式会社,埼玉県,蕨市,南町２丁目９番１２号,,11,223,3350003,,,2024-06-17,清算の結了等,,,2015-10-05,1,,,,,ビアケアライン,0
1119,5030002017621,登記記録の閉鎖等,0,2024-06-20,2024-06-14,有限会社ハウスクリエイティブ,,有限会社,埼玉県,さいたま市見沼区,東大宮３丁目２番４２号東大宮ベルレイ２０２号,,11,104,3370051,,,2024-06-14,清算の結了等,,,2015-10-05,1,,,,,ハウスクリエイティブ,0
1120,5030002062122,登記記録の閉鎖等,0,2024-06-20,2024-06-14,有限会社比田井工業,,有限会社,埼玉県,新座市,片山３丁目１６番１号,,11,230,3520025,,,2024-06-14,清算の結了等,,,2015-10-05,1,,,,,ヒダイコウギョウ,0
1125,5040002031241,登記記録の閉鎖等,0,2024-06-20,2024-06-07,株式会社日清ハウス,,株式会社,千葉県,市川市,八幡２丁目７番２０号,,12,203,2720021,,,2024-06-07,清算の結了等,,,2015-10-05,1,,,,,ニッシンハウス,0
1150,5080401021979,登記記録の閉鎖等,0,2024-06-20,2024-06-17,あいす株式会社,,株式会社,静岡県,磐田市,大立野４５０番地,,22,211,4380036,,,2024-06-17,清算の結了等,,,2017-02-02,1,,,,,アイス,0
1154,5110002026911,登記記録の閉鎖等,0,2024-06-20,2024-06-13,有限会社内山ダンススクール,,有限会社,新潟県,長岡市,城内町３丁目３番地４Ｍ＆Ｍビル２Ｆ,,15,202,9400061,,,2024-06-13,清算の結了等,,,2015-10-05,1,,,,,ウチヤマダンススクール,0
1216,5290001061611,登記記録の閉鎖等,0,2024-06-20,2024-06-03,株式会社ピーオーピー,,株式会社,福岡県,福岡市博多区,美野島１丁目１１番１１号,,40,132,8120017,,,2024-06-03,合併による解散等,6120001173001,令和６年６月１日福岡市博多区美野島一丁目１１番１１号株式会社５６フーズ・コーポレーション（6120001173001）に合併し解散,2015-10-05,1,,,,,ピーオーピー,0
1221,5290005010911,登記記録の閉鎖等,0,2024-06-20,2024-05-30,ＮＰＯ法人石けん愛好会,,その他の設立登記法人,福岡県,久留米市,南１丁目１５番地１１－８,,40,203,8300051,,,2024-05-30,清算の結了等,,,2015-10-05,1,,,,,セッケンアイコウカイ,0
1227,5330001016858,登記記録の閉鎖等,0,2024-06-20,2024-06-14,株式会社クローバー,,株式会社,熊本県,菊池郡菊陽町,武蔵ヶ丘北３丁目９－２４,,43,404,8691112,,,2024-06-14,清算の結了等,,,2015-10-05,1,,,,,,0
1229,5330002017509,登記記録の閉鎖等,0,2024-06-20,2024-06-17,有限会社二司建築事務所,,有限会社,熊本県,菊池郡菊陽町,大字原水７４９番地,,43,404,8691102,,,2024-06-17,清算の結了等,,,2015-10-05,1,,,,,ニシケンチクジムショ,0
1235,5350002004447,登記記録の閉鎖等,0,2024-06-20,2024-06-13,有限会社マルトシ,,有限会社,宮崎県,宮崎市,下北方町牟タ田１１８６番地１,,45,201,8800035,,,2024-06-13,清算の結了等,,,2015-10-05,1,,,,,マルトシ,0
1236,5350002009124,登記記録の閉鎖等,0,2024-06-20,2024-06-11,有限会社ミートショップ・コバヤシ,,有限会社,宮崎県,児湯郡川南町,大字川南１３１３５番地１３,,45,405,8891301,,,2024-06-11,清算の結了等,,,2015-10-05,1,,,,,ミートショップコバヤシ,0
1240,5370002014691,登記記録の閉鎖等,0,2024-06-20,2024-06-11,有限会社欅フローリスト,00082025,有限会社,宮城県,仙台市泉区,南光台３丁目１８番２２号,,04,105,9818003,,,2024-06-11,清算の結了等,,,2015-10-05,1,,,,,ケヤキフローリスト,0
1242,5370401000846,登記記録の閉鎖等,0,2024-06-20,2024-06-11,株式会社社会福祉施設嵯峨美の里,,株式会社,宮城県,登米市,迫町佐沼字小金丁３１番地４,,04,212,9870511,,,2024-06-11,清算の結了等,,,2015-10-05,1,,,,,シャカイフクシシセツサガミノサト,0
1256,5470001010624,登記記録の閉鎖等,0,2024-06-20,2024-06-17,新光商会株式会社,,株式会社,香川県,観音寺市,坂本町５丁目１７番１７号,,37,205,7680067,,,2024-06-17,清算の結了等,,,2015-10-05,1,,,,,シンコウショウカイ,0
1280,6010401163620,登記記録の閉鎖等,0,2024-06-20,2024-06-03,株式会社Ｄトーク,,株式会社,東京都,港区,浜松町２丁目２番１５号浜松町ダイヤビル２階,,13,103,1050013,,,2024-06-03,合併による解散等,3010401134194,令和６年６月１日東京都港区浜松町二丁目２番１５号浜松町ダイヤビル２階株式会社だいご（3010401134194）に合併し解散,2021-11-04,1,,,,,ディートーク,0
1296,6010703003482,登記記録の閉鎖等,0,2024-06-20,2024-06-18,タナプラン管理合同会社,,合同会社,東京都,品川区,北品川１丁目９－７トップルーム品川１０１５,,13,109,1400001,,,2024-06-18,合併による解散等,6010701027310,令和６年６月１日東京都目黒区目黒一丁目４番１６号目黒Ｇビル７階Ｅマネージ株式会社（6010701027310）に合併し解散,2017-02-15,1,,,,,,0
1298,6010802018076,登記記録の閉鎖等,0,2024-06-20,2024-06-14,有限会社アイル,,有限会社,東京都,大田区,大森北６丁目５番４号,,13,111,1430016,,,2024-06-14,清算の結了等,,,2015-10-05,1,,,,,アイル,0
1301,6011001100030,登記記録の閉鎖等,0,2024-06-20,2024-06-07,株式会社プライム原宿,,株式会社,東京都,港区,六本木７丁目２１番９号,,13,103,1060032,,,2024-06-07,清算の結了等,,,2015-10-05,1,,,,,プライムハラジュク,0
1311,6011105007320,登記記録の閉鎖等,0,2024-06-20,2024-06-13,一般社団法人アジア婦人科腫瘍研究機構,,その他の設立登記法人,東京都,新宿区,神楽坂６丁目２２番地小松ビル４階,,13,104,1620825,,,2024-06-13,清算の結了等,,,2016-07-12,1,,,,,アジアフジンカシュヨウケンキュウキコウ,0
1321,6011503000281,登記記録の閉鎖等,0,2024-06-20,2024-06-19,合資会社小形商店,,合資会社,東京都,北区,滝野川６丁目１５番５号,,13,117,1140023,,,2024-06-19,清算の結了等,,,2015-10-05,1,,,,,,0
1326,6012401024587,登記記録の閉鎖等,0,2024-06-20,2024-06-18,株式会社エムファクトリー,,株式会社,東京都,狛江市,猪方３丁目３６番３号,,13,219,2010015,,,2024-06-18,清算の結了等,,,2015-10-05,1,,,,,エムファクトリー,0
1327,6012401035543,登記記録の閉鎖等,0,2024-06-20,2024-06-17,株式会社アイソナ,,株式会社,東京都,調布市,布田５丁目２４番地１,,13,208,1820024,,,2024-06-17,清算の結了等,,,2019-07-12,1,,,,,アイソナ,0
1333,6020001000751,登記記録の閉鎖等,0,2024-06-20,2024-06-10,株式会社スタック,,株式会社,神奈川県,横浜市泉区,新橋町１３４７番地,,14,116,2450009,,,2024-06-10,清算の結了等,,,2015-10-05,1,,,,,スタック,0
1337,6020001085306,登記記録の閉鎖等,0,2024-06-20,2024-06-03,株式会社キュティア,,株式会社,神奈川県,横浜市青葉区,美しが丘４丁目７番地２８,,14,117,2250002,,,2024-06-03,合併による解散等,3020001083989,令和６年５月３１日横浜市青葉区美しが丘西三丁目５２番地１４株式会社スキーマ（3020001083989）に合併し解散,2015-10-05,1,,,,,キュティア,0
1363,6050001013032,登記記録の閉鎖等,0,2024-06-20,2024-06-17,株式会社流通構造研究所,,株式会社,茨城県,小美玉市,野田３０７番地２,,08,236,3113411,,,2024-06-17,清算の結了等,,,2015-10-05,1,,,,,リュウツウコウゾウケンキュウジョ,0
1372,6090001013111,登記記録の閉鎖等,0,2024-06-20,2024-06-06,株式会社南アルプスプロデュース,,株式会社,山梨県,南アルプス市,寺部２３２３番地２,,19,208,4000337,,,2024-06-06,清算の結了等,,,2015-10-05,1,,,,,,0
1389,6120001243555,登記記録の閉鎖等,0,2024-06-20,2024-06-17,株式会社Ｓｕｓｔａｉｎａｂｉｌｉｔｙ,,株式会社,大阪府,守口市,大久保町５丁目７１番４－２０１号,,27,209,5700012,,,2024-06-17,清算の結了等,,,2022-02-03,1,,,,,サステナビリティ,0
1407,6122002016964,登記記録の閉鎖等,0,2024-06-20,2024-06-19,有限会社サイトー急便,,有限会社,大阪府,八尾市,刑部４丁目３２０番地,,27,212,5810015,,,2024-06-19,清算の結了等,,,2015-10-05,1,,,,,サイトーキュウビン,0
1414,6150001022683,登記記録の閉鎖等,0,2024-06-20,2024-06-17,株式会社ヤマナカ介護相談,,株式会社,奈良県,生駒郡安堵町,大字東安堵１番地の１５,,29,345,6391061,,,2024-06-17,清算の結了等,,,2018-12-06,1,,,,,ヤマナカカイゴソウダン,0
1425,6180302010772,登記記録の閉鎖等,0,2024-06-20,2024-06-10,ソーラー・マリン有限会社,,有限会社,愛知県,田原市,田原町山口１２番地２,,23,231,4413421,,,2024-06-10,清算の結了等,,,2015-10-05,1,,,,,ソーラーマリン,0
1426,6180302017529,登記記録の閉鎖等,0,2024-06-20,2024-06-10,有限会社角友建設,,有限会社,愛知県,安城市,大山町１丁目２番地１１,,23,212,4460042,,,2024-06-10,清算の結了等,,,2015-10-05,1,,,,,スミトモケンセツ,0
1432,6210001001417,登記記録の閉鎖等,0,2024-06-20,2024-06-17,三江繊維工業株式会社,,株式会社,福井県,坂井市,春江町江留中第２４号１３番地,,18,210,9190412,,,2024-06-17,清算の結了等,,,2015-10-05,1,,,,,サンコウセンイコウギョウ,0
1435,6220001012058,登記記録の閉鎖等,0,2024-06-20,2024-06-17,株式会社諏訪会館,,株式会社,石川県,小松市,浜田町イ２３３番甲地１号,,17,203,9230907,,,2024-06-17,清算の結了等,,,2015-10-05,1,,,,,スワカイカン,0
1439,6220002006678,登記記録の閉鎖等,0,2024-06-20,2024-06-17,有限会社アイティーネットワークス,,有限会社,石川県,金沢市,芳斉２丁目５番３５号丸坂ビル１Ｆ,,17,201,9200862,,,2024-06-17,清算の結了等,,,2015-10-05,1,,,,,,0
1453,6280001003720,登記記録の閉鎖等,0,2024-06-20,2024-06-18,株式会社ＰＦＩいずも,,株式会社,島根県,出雲市,姫原町２８０番地５,,32,203,6930061,,,2024-06-18,清算の結了等,,,2015-10-05,1,,,,,ピーエフアイイズモ,0
1463,6320001016973,登記記録の閉鎖等,0,2024-06-20,2024-06-07,株式会社インベスターズエージェンシー,,株式会社,大分県,大分市,下郡北２丁目３番８号,,44,201,8700952,,,2024-06-07,清算の結了等,,,2019-04-04,1,,,,,インベスターズエージェンシー,0
1470,6370201002645,登記記録の閉鎖等,0,2024-06-20,2024-06-07,株式会社エムズコーポレーション,,株式会社,宮城県,大崎市,古川千手寺町１丁目９番１０号,,04,215,9896174,,,2024-06-07,清算の結了等,,,2015-10-05,1,,,,,エムズコーポレーション,0
1478,6380001019517,登記記録の閉鎖等,0,2024-06-20,2024-06-14,株式会社イーストプロジェクト,,株式会社,福島県,福島市,笹木野字大金谷南２番地の１グリットＶ１号,00127474,07,201,9608057,,,2024-06-14,清算の結了等,,,2015-10-05,1,,,,,,0
1480,6380002002216,登記記録の閉鎖等,0,2024-06-20,2024-06-12,有限会社田中商事,,有限会社,福島県,福島市,御山字中屋敷４番地の８,,07,201,9608252,,,2024-06-12,清算の結了等,,,2015-10-05,1,,,,,タナカショウジ,0
1496,6430002028593,登記記録の閉鎖等,0,2024-06-20,2024-06-17,アルテット株式会社,,株式会社,北海道,札幌市東区,北十八条東１８丁目１番２号,,01,103,0650018,,,2024-06-17,合併による解散等,6430001008035,令和６年６月１日札幌市東区北十八条東十八丁目１番２号株式会社食品資材（6430001008035）に合併し解散,2015-10-05,1,,,,,アルテット,0
1499,6460301000473,登記記録の閉鎖等,0,2024-06-20,2024-06-19,株式会社三和サービス北海道,,株式会社,北海道,北見市,豊地１２番地７,,01,208,0991587,,,2024-06-19,清算の結了等,,,2015-10-05,1,,,,,サンワサービスホッカイドウ,0
1541,7010803001682,登記記録の閉鎖等,0,2024-06-20,2024-06-19,合同会社マイルストーン,,合同会社,東京都,大田区,仲池上２丁目１０番６－１０３号,,13,111,1460081,,,2024-06-19,清算の結了等,,,2015-10-05,1,,,,,マイルストーン,0
1566,7013405000631,登記記録の閉鎖等,0,2024-06-20,2024-06-12,特定非営利活動法人ＹＴＫスポーツコミュニケーション,,その他の設立登記法人,東京都,多摩市,諏訪１丁目２８番地の５５,,13,224,2060024,,,2024-06-12,清算の結了等,,,2015-10-05,1,,,,,ワイティーケースポーツコミュニケーション,0
1567,7020001010320,登記記録の閉鎖等,0,2024-06-20,2024-06-10,東伯電機株式会社,,株式会社,神奈川県,横浜市保土ケ谷区,境木本町３３番４号,,14,106,2400033,,,2024-06-10,清算の結了等,,,2015-10-05,1,,,,,トウハクデンキ,0
1568,7020001091278,登記記録の閉鎖等,0,2024-06-20,2024-06-10,株式会社ＮＵＵＭＡ　ＩＮＣ．,,株式会社,神奈川県,横浜市緑区,三保町１２６７番地２,,14,113,2260015,,,2024-06-10,清算の結了等,,,2015-10-05,1,,,,,ヌマインク,0
1574,7020002041307,登記記録の閉鎖等,0,2024-06-20,2024-06-10,有限会社安道創建,,有限会社,神奈川県,横浜市中区,本牧満坂１８７番地の２２２,,14,104,2310833,,,2024-06-10,清算の結了等,,,2015-10-05,1,,,,,アンドウソウケン,0
1579,7021002052161,登記記録の閉鎖等,0,2024-06-20,2024-06-17,有限会社杉山食料品店,,有限会社,神奈川県,小田原市,栄町２丁目１０番４号,,14,206,2500011,,,2024-06-17,清算の結了等,,,2015-10-05,1,,,,,スギヤマショクリョウヒンテン,0
1581,7030001003868,登記記録の閉鎖等,0,2024-06-20,2024-06-18,株式会社シンスイ設備工業,,株式会社,埼玉県,さいたま市浦和区,大東１丁目１４番１１号,,11,107,3300043,,,2024-06-18,清算の結了等,,,2015-10-05,1,,,,,シンスイセツビコウギョウ,0
1593,7030003010508,登記記録の閉鎖等,0,2024-06-20,2024-06-17,合同会社ｅｍｕ,,合同会社,埼玉県,川越市,新富町２丁目１２番地５－２階,,11,201,3500043,,,2024-06-17,清算の結了等,,,2017-07-11,1,,,,,エミュ,0
1601,7040001097447,登記記録の閉鎖等,0,2024-06-20,2024-06-07,小川企画株式会社,,株式会社,千葉県,松戸市,新松戸３丁目３番地の２新松戸アゼリアパークハウスＢ－８０２,,12,207,2700034,,,2024-06-07,清算の結了等,,,2016-10-27,1,,,,,オガワキカク,0
1623,7080402002761,登記記録の閉鎖等,0,2024-06-20,2024-06-17,有限会社ケン森川,,有限会社,静岡県,浜松市中央区,三方原町４０３番地の３,,22,138,4338105,,,2024-06-17,清算の結了等,,,2015-10-05,1,,,,,ケンモリカワ,0
1628,7120001189962,登記記録の閉鎖等,0,2024-06-20,2024-06-07,株式会社ビーアシスト,,株式会社,東京都,港区,東新橋１丁目１番１９号,,13,103,1050021,,,2024-06-07,清算の結了等,,,2015-10-05,1,,,,,ビーアシスト,0
1641,7120101023732,登記記録の閉鎖等,0,2024-06-20,2024-06-14,株式会社グローバルオンリーワン,,株式会社,大阪府,大阪市中央区,難波千日前５番１９号河原センタービル３階,,27,128,5420075,,,2024-06-14,合併による解散等,7120101002050,令和６年６月１日大阪府堺市中区田園９６９番地１ケイ・エイチ工業株式会社（7120101002050）に合併し解散,2015-10-05,1,,,,,グローバルオンリーワン,0
1657,7140001005449,登記記録の閉鎖等,0,2024-06-20,2024-06-14,株式会社矢田,,株式会社,兵庫県,神戸市西区,伊川谷町有瀬１２５８番地の５,,28,111,6512113,,,2024-06-14,清算の結了等,,,2015-10-05,1,,,,,ヤダ,0
1700,7260003004222,登記記録の閉鎖等,0,2024-06-20,2024-06-18,蓮寧合同会社,,合同会社,岡山県,赤磐市,桜が丘東６丁目６番地１２０,,33,213,7090721,,,2024-06-18,清算の結了等,,,2023-03-07,1,,,,,レンネ,0
1701,7270002002713,登記記録の閉鎖等,0,2024-06-20,2024-06-18,有限会社マルハタ,,有限会社,鳥取県,鳥取市,古海３０５番地２,,31,201,6800921,,,2024-06-18,清算の結了等,,,2015-10-05,1,,,,,マルハタ,0
1704,7280003001218,登記記録の閉鎖等,0,2024-06-20,2024-06-19,合同会社弁当のたからや,,合同会社,島根県,浜田市,杉戸町２６０８番地２,,32,202,6970035,,,2024-06-19,清算の結了等,,,2018-05-10,1,,,,,ベントウノタカラヤ,0
1715,7320003002946,登記記録の閉鎖等,0,2024-06-20,2024-06-07,合同会社Ｉｎｔｅｒｃｅｐｔ,,合同会社,大分県,大分市,南津留２１番４－２０１号（ｖｉｌｌａｆｏｒｔｕｎａ）,,44,201,8700937,,,2024-06-07,清算の結了等,,,2019-01-21,1,,,,,インターセプト,0
1728,7360001000691,登記記録の閉鎖等,0,2024-06-20,2024-06-18,株式会社東翔興産,,株式会社,沖縄県,豊見城市,字高安５９４番地,,47,212,9010242,,,2024-06-18,清算の結了等,,,2015-10-05,1,,,,,トウショウコウサン,0
1752,7700150014202,登記記録の閉鎖等,0,2024-06-20,2023-08-21,アイピー・アーク・インコーポレイテッド,,外国会社等,神奈川県,中郡二宮町,百合が丘３丁目８番５号３６,,14,342,2590133,アメリカ合衆国ハワイ州ホノルル市ワイマヌストリート１２３２番Ａ－２号室,,2023-08-21,その他の清算の結了等,,,2015-10-09,1,,,,,アイピーアークインコーポレイテツド,0
1767,8010002036876,登記記録の閉鎖等,0,2024-06-20,2024-06-17,ココロとカラダ有限会社,,有限会社,東京都,台東区,元浅草１丁目６番１２－８１９号,,13,106,1110041,,,2024-06-17,清算の結了等,,,2015-10-05,1,,,,,ココロトカラダ,0
1788,8011001097026,登記記録の閉鎖等,0,2024-06-20,2024-06-03,株式会社ＰＳＹ,,株式会社,東京都,港区,南青山２丁目２番１５号ウィン青山９４２,,13,103,1070062,,,2024-06-03,合併による解散等,3010401134194,令和６年６月１日東京都港区浜松町二丁目２番１５号浜松町ダイヤビル２階株式会社だいご（3010401134194）に合併し解散,2015-10-05,1,,,,,サイ,0
1798,8011102009177,登記記録の閉鎖等,0,2024-06-20,2024-06-18,有限会社トラストエンジニヤリング,,有限会社,東京都,練馬区,練馬４丁目２９番７号,,13,120,1760001,,,2024-06-18,清算の結了等,,,2015-10-05,1,,,,,トラストエンジニヤリング,0
1815,8012301008358,登記記録の閉鎖等,0,2024-06-20,2024-06-18,株式会社ＸＹＰ　ＪＡＰＡＮ,,株式会社,大阪府,大阪市城東区,今福西１丁目１番５３号,,27,118,5360004,,,2024-06-18,清算の結了等,,,2015-10-05,1,,,,,エックスワイピージャパン,0
1816,8012301009851,登記記録の閉鎖等,0,2024-06-20,2024-06-17,株式会社ウェンブリー,,株式会社,東京都,町田市,原町田３丁目１０番１号グランテム町田４０３,,13,209,1940013,,,2024-06-17,清算の結了等,,,2015-10-05,1,,,,,,0
1820,8012702003825,登記記録の閉鎖等,0,2024-06-20,2024-06-18,有限会社ルネプラン設計,,有限会社,神奈川県,座間市,相武台３丁目３５番４－１０２号,,14,216,2520011,,,2024-06-18,清算の結了等,,,2015-10-05,1,,,,,ルネプランセッケイ,0
1874,8050001041394,登記記録の閉鎖等,0,2024-06-20,2024-06-14,パンタシア株式会社,,株式会社,茨城県,つくば市,竹園２丁目１３番地３０,,08,220,3050032,,,2024-06-14,清算の結了等,,,2016-07-29,1,,,,,パンタシア,0
1875,8050002009663,登記記録の閉鎖等,0,2024-06-20,2024-06-17,有限会社エムディエス,,有限会社,茨城県,ひたちなか市,大字津田２０３１番地１９３,,08,221,3120032,,,2024-06-17,清算の結了等,,,2015-10-05,1,,,,,エムディエス,0
1887,8090002015451,登記記録の閉鎖等,0,2024-06-20,2024-06-10,有限会社若林商店,,有限会社,山梨県,南巨摩郡南部町,南部８３２７番地,,19,366,4092212,,,2024-06-10,清算の結了等,,,2015-10-05,1,,,,,,0
1891,8110002027576,登記記録の閉鎖等,0,2024-06-20,2024-06-13,有限会社寿商会,,有限会社,新潟県,長岡市,下柳３丁目５番３６号,,15,202,9402013,,,2024-06-13,清算の結了等,,,2015-10-05,1,,,,,コトブキショウカイ,0
1895,8120001256927,登記記録の閉鎖等,0,2024-06-20,2024-06-19,和光株式会社,,株式会社,大阪府,大阪市中央区,平野町１丁目６－８メロディハイム平野町５０８号室,,27,128,5410046,,,2024-06-19,清算の結了等,,,2023-08-02,1,,,,,ワコウ,0
1934,8280001008271,登記記録の閉鎖等,0,2024-06-20,2024-06-03,株式会社クレール,,株式会社,島根県,出雲市,平田町２２４８番地９,,32,203,6910001,,,2024-06-03,合併による解散等,1280001005829,令和６年５月１日島根県出雲市平田町２３０７番地１株式会社住いる建築工房（1280001005829）に合併し解散,2020-09-25,1,,,,,クレール,0
1957,8330005009814,登記記録の閉鎖等,0,2024-06-20,2024-06-14,一般社団法人熊本物産連盟,,その他の設立登記法人,熊本県,阿蘇市,黒川１１７８番地２,,43,214,8692225,,,2024-06-14,清算の結了等,,,2018-02-02,1,,,,,クマモトブッサンレンメイ,0
1959,8350002009336,登記記録の閉鎖等,0,2024-06-20,2024-06-13,有限会社西都製材所,,有限会社,宮崎県,西都市,大字右松１９４９番地１,,45,208,8810003,,,2024-06-13,清算の結了等,,,2015-10-05,1,,,,,サイトセイザイショ,0
1967,8390001000606,登記記録の閉鎖等,0,2024-06-20,2024-06-06,株式会社ゴーイチ,,株式会社,山形県,山形市,幸町５番１号,,06,201,9900038,,,2024-06-06,清算の結了等,,,2015-10-05,1,,,,,ゴーイチ,0
1969,8410001003622,登記記録の閉鎖等,0,2024-06-20,2024-06-14,株式会社Ｇａｌａｘｙ　Ｐｈａｒｍａ,,株式会社,東京都,練馬区,豊玉北５丁目１２番２０号,,13,120,1760012,,,2024-06-14,清算の結了等,,,2015-10-05,1,,,,,ギャラクシーファーマ,0
2000,9010401103565,登記記録の閉鎖等,0,2024-06-20,2024-06-06,株式会社鈴木光機製作所,,株式会社,東京都,港区,南青山５丁目１５番１３号,,13,103,1070062,,,2024-06-06,清算の結了等,,,2015-10-05,1,,,,,スズキコウキセイサクショ,0
2010,9010602025344,登記記録の閉鎖等,0,2024-06-20,2024-06-18,睦紙工有限会社,,有限会社,東京都,墨田区,向島３丁目３１番６号,,13,107,1310033,,,2024-06-18,清算の結了等,,,2015-10-05,1,,,,,ムツミシコウ,0
2032,9011601024485,登記記録の閉鎖等,0,2024-06-20,2024-06-12,株式会社クラウドポスト,,株式会社,東京都,練馬区,貫井２丁目２８番８号,,13,120,1760021,,,2024-06-12,清算の結了等,,,2020-09-07,1,,,,,クラウドポスト,0
2042,9020001132773,登記記録の閉鎖等,0,2024-06-20,2024-06-07,千尋国際旅行株式会社,,株式会社,千葉県,千葉市花見川区,武石町１丁目１１０１番地１,,12,102,2620031,,,2024-06-07,清算の結了等,,,2019-09-12,1,,,,,チヒロコクサイリョコウ,0
2060,9030001064867,登記記録の閉鎖等,0,2024-06-20,2024-06-17,株式会社ミワテック,,株式会社,埼玉県,越谷市,大字大房１００６番地３,,11,222,3430027,,,2024-06-17,清算の結了等,,,2015-10-05,1,,,,,ミワテック,0
2067,9030003020918,登記記録の閉鎖等,0,2024-06-20,2024-06-17,合同会社鴻信,,合同会社,埼玉県,蓮田市,大字根金１８７７番地１,,11,238,3490131,,,2024-06-17,清算の結了等,,,2023-01-12,1,,,,,コウシン,0
2077,9050002033407,登記記録の閉鎖等,0,2024-06-20,2024-06-14,有限会社長谷川タイル工業,,有限会社,茨城県,龍ケ崎市,馴馬町４７１番地の２,,08,208,3010004,,,2024-06-14,清算の結了等,,,2015-10-05,1,,,,,ハセガワタイルコウギョウ,0
2101,9120001032690,登記記録の閉鎖等,0,2024-06-20,2024-06-18,三愛事務機株式会社,,株式会社,大阪府,大阪市住吉区,南住吉２丁目１７番１１号,,27,120,5580041,,,2024-06-18,清算の結了等,,,2015-10-05,1,,,,,サンアイジムキ,0
2127,9140003015824,登記記録の閉鎖等,0,2024-06-20,2024-06-13,合同会社倉長,,合同会社,兵庫県,三田市,富士が丘４丁目８番地８,,28,219,6691547,,,2024-06-13,清算の結了等,,,2021-01-20,1,,,,,クラナガ,0
2132,9180002044218,登記記録の閉鎖等,0,2024-06-20,2024-06-10,有限会社福源,,有限会社,愛知県,名古屋市守山区,大字中志段味字南原２６８６番地の３６７,,23,113,4630002,,,2024-06-10,清算の結了等,,,2015-10-05,1,,,,,フクゲン,0
2133,9180003013097,登記記録の閉鎖等,0,2024-06-20,2024-06-04,合資会社陶美園,,合資会社,愛知県,常滑市,原松町１丁目５２番地,,23,216,4790832,,,2024-06-04,清算の結了等,,,2015-10-05,1,,,,,トウビエン,0
2134,9180003016892,登記記録の閉鎖等,0,2024-06-20,2024-06-11,合同会社長坂居宅介護支援事業所,,合同会社,愛知県,半田市,新宮町４丁目９０番地の３０,,23,205,4750931,,,2024-06-11,清算の結了等,,,2016-02-05,1,,,,,ナガサカキョタクカイゴシエンジギョウショ,0
2135,9180302026865,登記記録の閉鎖等,0,2024-06-20,2024-06-10,有限会社榊原フレーム,00075247,有限会社,愛知県,西尾市,吉良町木田前田４４番地,,23,213,4440534,,,2024-06-10,清算の結了等,,,2015-10-05,1,,,,,サカキバラフレーム,0
2157,9260002030093,登記記録の閉鎖等,0,2024-06-20,2024-06-10,有限会社祐城,,有限会社,岡山県,津山市,高野本郷１２６６番２２,,33,203,7081125,,,2024-06-10,清算の結了等,,,2015-10-05,1,,,,,ユウキ,0
2168,9300003000314,登記記録の閉鎖等,0,2024-06-20,2024-06-18,合同会社野田建材店,,合同会社,佐賀県,神埼市,神埼町本堀３２６０－１０,,41,210,8420003,,,2024-06-18,清算の結了等,,,2015-10-05,1,,,,,ノダケンザイテン,0
2171,9330002027545,登記記録の閉鎖等,0,2024-06-20,2024-06-13,有限会社島田通信システム,,有限会社,熊本県,葦北郡芦北町,大字花岡１４６４番地４,,43,482,8695442,,,2024-06-13,清算の結了等,,,2015-10-05,1,,,,,シマダツウシンシステム,0
2177,9350002003775,登記記録の閉鎖等,0,2024-06-20,2024-06-07,有限会社久高商事,,有限会社,宮崎県,宮崎市,吉村町平塚甲１８９３番地１１,,45,201,8800841,,,2024-06-07,清算の結了等,,,2015-10-05,1,,,,,ヒサタカショウジ,0
2178,9350002011638,登記記録の閉鎖等,0,2024-06-20,2024-06-11,有限会社前田保険サービス,,有限会社,宮崎県,日向市,大字富高６３２３番地３４,,45,206,8830034,,,2024-06-11,清算の結了等,,,2015-10-05,1,,,,,マエダホケンサービス,0
2183,9370001022626,登記記録の閉鎖等,0,2024-06-20,2024-06-10,ヒューマンライフケアサポート株式会社,,株式会社,宮城県,仙台市若林区,大和町２丁目３番８－１０１号,,04,103,9840042,,,2024-06-10,清算の結了等,,,2015-10-05,1,,,,,ヒューマンライフケアサポート,0
