sequenceNumber,corporateNumber,process,correct,updateDate,changeDate,name,nameImageId,kind,prefectureName,cityName,streetNumber,addressImageId,prefectureCode,cityCode,postCode,addressOutside,addressOutsideImageId,closeDate,closeCause,successorCorporateNumber,changeCause,assignmentDate,latest,enName,enPrefectureName,enCityName,enAddressOutside,furigana,hihyoji
7,1010003039422,新規,0,2022-12-26,2022-12-26,ノヴァ・ソーラー２合同会社,,合同会社,東京都,中央区,日本橋茅場町３丁目５番２号大和屋ビル６階,,13,102,1030025,,,,,,,2022-12-26,1,,,,,ノヴァソーラーニ,0
10,1010005036021,新規,0,2022-12-26,2022-12-26,山佐ＫＬＭ２一般社団法人,,その他の設立登記法人,東京都,千代田区,丸の内３丁目１番１号東京共同会計事務所内,,13,101,1000005,,,,,,,2022-12-26,1,,,,,ヤマサケイエルエムツー,0
18,1010401171537,新規,0,2022-12-26,2022-12-26,株式会社クラブリオ新橋,,株式会社,東京都,港区,新橋２丁目９番４号,,13,103,1050004,,,,,,,2022-12-26,1,,,,,クラブリオシンバシ,0
34,1010701043650,新規,0,2022-12-26,2022-12-26,メディカルライフ株式会社,,株式会社,東京都,品川区,上大崎３丁目１番２－３６０９号,,13,109,1410021,,,,,,,2022-12-26,1,,,,,メディカルライフ,0
35,1010703006515,新規,0,2022-12-26,2022-12-26,合同会社ＲＫ,,合同会社,東京都,品川区,西品川１丁目１６番１号,,13,109,1410033,,,,,,,2022-12-26,1,,,,,アールケー,0
36,1010801033543,新規,0,2022-12-26,2022-12-26,株式会社オオタ水産,,株式会社,東京都,大田区,大森北６丁目１５番８号,,13,111,1430016,,,,,,,2022-12-26,1,,,,,オオタスイサン,0
42,1010901052204,新規,0,2022-12-26,2022-12-26,株式会社スペースバー,,株式会社,東京都,世田谷区,中町５丁目３４番１号,,13,112,1580091,,,,,,,2022-12-26,1,,,,,スペースバー,0
46,1011001151623,新規,0,2022-12-26,2022-12-26,株式会社ＰＥＡＫ　ＳＴＹＬＥ,,株式会社,東京都,目黒区,目黒本町４丁目２５－２８コスモ目黒パルティエ１０１,,13,110,1520002,,,,,,,2022-12-26,1,,,,,ピークスタイル,0
47,1011003015982,新規,0,2022-12-26,2022-12-26,ギルドクラフト合同会社,,合同会社,東京都,渋谷区,神泉町１番１０号渡辺荘１０１,,13,113,1500045,,,,,,,2022-12-26,1,,,,,ギルドクラフト,0
51,1011101101263,新規,0,2022-12-26,2022-12-26,株式会社シャトレイヤー,,株式会社,東京都,新宿区,高田馬場２丁目１９番７号タックイレブン高田馬場１０１０号室,,13,104,1690075,,,,,,,2022-12-26,1,,,,,シャトレイヤー,0
52,1011101101305,新規,0,2022-12-26,2022-12-26,株式会社Ｒｉｋｕ,,株式会社,東京都,新宿区,高田馬場３丁目１番４号袖山ビル１Ｆ,,13,104,1690075,,,,,,,2022-12-26,1,,,,,リク,0
53,1011101101313,新規,0,2022-12-26,2022-12-26,株式会社コウセ,,株式会社,東京都,新宿区,戸山１丁目１番５号エールプラザ戸山台８０６号室,,13,104,1620052,,,,,,,2022-12-26,1,,,,,コウセ,0
54,1011103012525,新規,0,2022-12-26,2022-12-26,合同会社ＭＡＲＳ　Ｃｏｍｐａｎｙ,,合同会社,東京都,新宿区,西新宿３丁目３番１３号西新宿水間ビル２Ｆ,,13,104,1600023,,,,,,,2022-12-26,1,,,,,マーズカンパニー,0
55,1011103012533,新規,0,2022-12-26,2022-12-26,ＳＲＣＲ合同会社,,合同会社,東京都,新宿区,赤城下町４５番地ＫＢＣ－Ｆ－２,,13,104,1620803,,,,,,,2022-12-26,1,,,,,エスアールシーアール,0
72,1011801041726,新規,0,2022-12-26,2022-12-26,東港商事株式会社,,株式会社,東京都,足立区,竹の塚１丁目１３－１３－３０１,,13,121,1210813,,,,,,,2022-12-26,1,,,,,トウコウショウジ,0
80,1020001149544,新規,0,2022-12-26,2022-12-26,株式会社ＨＡＲＡ,,株式会社,神奈川県,川崎市中原区,新城１丁目１４番５号,,14,133,2110044,,,,,,,2022-12-26,1,,,,,ハラ,0
85,1021003012541,新規,0,2022-12-26,2022-12-26,合同会社卓ゲらぼ,,合同会社,神奈川県,海老名市,泉１丁目６番３－９０６号,,14,215,2430437,,,,,,,2022-12-26,1,,,,,タクゲラボ,0
87,1021005012696,新規,0,2022-12-26,2022-12-26,社会保険労務士法人湘南経営パートナーズ,,その他の設立登記法人,神奈川県,平塚市,紅谷町８番１６号サニープラザ３Ｆ９号室,,14,203,2540043,,,,,,,2022-12-26,1,,,,,ショウナンケイエイパートナーズ,0
91,1030001151598,新規,0,2022-12-26,2022-12-26,株式会社ｍｅＲｕＴｏ,,株式会社,埼玉県,さいたま市大宮区,桜木町１丁目２６６－３シンワＫＩビル２Ｆ,,11,103,3300854,,,,,,,2022-12-26,1,,,,,メルト,0
92,1030001151631,新規,0,2022-12-26,2022-12-26,株式会社永矢,,株式会社,埼玉県,北葛飾郡松伏町,大字松伏２７８７番地１,,11,465,3430111,,,,,,,2022-12-26,1,,,,,ナガヤ,0
95,1030003020818,新規,0,2022-12-26,2022-12-26,合同会社ＲＳ　ＪＡＰＡＮ,,合同会社,埼玉県,さいたま市浦和区,駒場１丁目２７番２２,,11,107,3300051,,,,,,,2022-12-26,1,,,,,アールエスジャバン,0
96,1030003020826,新規,0,2022-12-26,2022-12-26,エナジーインキュベーション合同会社,,合同会社,埼玉県,川越市,六軒町２丁目７番地５,,11,201,3500041,,,,,,,2022-12-26,1,,,,,エナジーインキュベーション,0
98,1040001126376,新規,0,2022-12-26,2022-12-26,株式会社たくみーと,,株式会社,千葉県,野田市,花井２６６番地の１５,,12,208,2780026,,,,,,,2022-12-26,1,,,,,タクミート,0
100,1040003021567,新規,0,2022-12-26,2022-12-26,ＭＩＨＩＳＡＮＤＡ　ＩＮＴＥＲＮＡＴＩＯＮＡＬ合同会社,,合同会社,千葉県,野田市,堤根５９番地の２７－１階,,12,208,2780021,,,,,,,2022-12-26,1,,,,,ミヒサンダインターナショナル,0
101,1040003021575,新規,0,2022-12-26,2022-12-26,合同会社ＭＪＳカンパニー,,合同会社,千葉県,市川市,幸１丁目１６－２２メゾンさくら１０３号室,,12,203,2720123,,,,,,,2022-12-26,1,,,,,エムジェーエスカンパニー,0
102,1040003021583,新規,0,2022-12-26,2022-12-26,合同会社豊かさ研究所,,合同会社,千葉県,習志野市,鷺沼台３丁目６－１６,,12,216,2750015,,,,,,,2022-12-26,1,,,,,ユタカサケンキュウショ,0
106,1060001035559,新規,0,2022-12-26,2022-12-26,株式会社スターダム,,株式会社,栃木県,宇都宮市,今泉町２５４３番地６１,,09,201,3210962,,,,,,,2022-12-26,1,,,,,スターダム,0
116,1120001251249,新規,0,2022-12-26,2022-12-26,水木株式会社,,株式会社,大阪府,大阪市生野区,新今里３丁目４番１７号ＯＧビル６０７Ｂ,,27,116,5440001,,,,,,,2022-12-26,1,,,,,スイボク,0
117,1120001251257,新規,0,2022-12-26,2022-12-26,益徳実業株式会社,00128896,株式会社,大阪府,大阪市生野区,小路東６丁目８番１７号昭和エクセルビュー東大阪１０３－Ｇ１８,,27,116,5440003,,,,,,,2022-12-26,1,,,,,エキトクジツギョウ,0
118,1120003023150,新規,0,2022-12-26,2022-12-26,ＳＡＲＯＪ　ＧＬＯＢＡＬ合同会社,,合同会社,大阪府,大阪市西淀川区,野里２丁目２２番８－３０６号,,27,113,5550024,,,,,,,2022-12-26,1,,,,,サロジグローバル,0
119,1120101066729,新規,0,2022-12-26,2022-12-26,株式会社ＴＮＫ,,株式会社,大阪府,堺市南区,庭代台３丁５番２号,,27,145,5900133,,,,,,,2022-12-26,1,,,,,ティーエヌケー,0
128,1130001073353,新規,0,2022-12-26,2022-12-26,株式会社ＹＵＲＡ,,株式会社,京都府,京田辺市,大住平谷２番地４１,,26,211,6100343,,,,,,,2022-12-26,1,,,,,ユラ,0
132,1150001026045,新規,0,2022-12-26,2022-12-26,ワイ・イー・ワイ株式会社,,株式会社,奈良県,生駒市,山崎町３番７－Ｂ５０５号,,29,209,6300252,,,,,,,2022-12-26,1,,,,,ワイイーワイ,0
133,1150003002845,新規,0,2022-12-26,2022-12-26,Ｔｈｉｅｎ　Ｓｉｎｈ　Ｆａｒｍ合同会社,,合同会社,奈良県,奈良市,学園朝日町１３番３号,,29,201,6310016,,,,,,,2022-12-26,1,,,,,ティエンシンファーム,0
138,1180001154289,新規,0,2022-12-26,2022-12-26,空見シナジーソリューション株式会社,,株式会社,愛知県,名古屋市中村区,名駅南１丁目１７番２９号,,23,105,4500003,,,,,,,2022-12-26,1,,,,,ソラミシナジーソリューション,0
139,1180001154306,新規,0,2022-12-26,2022-12-26,株式会社Ｏｕｔ　ｄｏｏｒ,,株式会社,愛知県,名古屋市熱田区,白鳥１丁目４－２４－２０５,,23,109,4560035,,,,,,,2022-12-26,1,,,,,アウトドア,0
140,1180001154339,新規,0,2022-12-26,2022-12-26,株式会社ＷＡＫＵＷＡＫＵ,,株式会社,愛知県,名古屋市中区,栄４丁目２番１０号ＫＵＲＩビル５階,,23,106,4600008,,,,,,,2022-12-26,1,,,,,ワクワク,0
145,1180301036939,新規,0,2022-12-26,2022-12-26,株式会社白井造園,,株式会社,愛知県,田原市,大久保町仲原１番地,,23,231,4413426,,,,,,,2022-12-26,1,,,,,シライゾウエン,0
148,1200001040800,新規,0,2022-12-26,2022-12-26,株式会社解王,,株式会社,岐阜県,可児市,今渡１６１８番地３３,,21,214,5090207,,,,,,,2022-12-26,1,,,,,カイオウ,0
153,1200005013430,新規,0,2022-12-26,2022-12-26,一般社団法人魚一,,その他の設立登記法人,岐阜県,高山市,総和町１丁目３番地,,21,203,5060007,,,,,,,2022-12-26,1,,,,,ウオイチ,0
157,1240001060844,新規,0,2022-12-26,2022-12-26,株式会社美栄工業,,株式会社,広島県,東広島市,高屋町中島７４６番地５,,34,212,7392125,,,,,,,2022-12-26,1,,,,,ビエイコウギョウ,0
158,1240001060852,新規,0,2022-12-26,2022-12-26,株式会社ｐｏｎｙ　ｈｏｕｓｅ,,株式会社,広島県,江田島市,大柿町大原１２５０番地３,,34,215,7372213,,,,,,,2022-12-26,1,,,,,ポニーハウス,0
159,1240003005946,新規,0,2022-12-26,2022-12-26,合同会社ナンバーエイト,,合同会社,広島県,広島市東区,光町２丁目１３番１３号,,34,102,7320052,,,,,,,2022-12-26,1,,,,,ナンバーエイト,0
161,1250003003197,新規,0,2022-12-26,2022-12-26,合同会社すみいえ,,合同会社,山口県,山口市,仁保下郷１５１１,,35,203,7530303,,,,,,,2022-12-26,1,,,,,スミイエ,0
162,1260001037510,新規,0,2022-12-26,2022-12-26,株式会社ほねぬき,,株式会社,岡山県,玉野市,長尾５９１番地１２,,33,204,7060151,,,,,,,2022-12-26,1,,,,,ホネヌキ,0
167,1290001100018,新規,0,2022-12-26,2022-12-26,株式会社ひかりのたね,,株式会社,福岡県,朝倉郡筑前町,依井１０５４番地１,,40,447,8380813,,,,,,,2022-12-26,1,,,,,ヒカリノタネ,0
170,1290005018883,新規,0,2022-12-26,2022-12-26,医療法人むらおか歯科医院,,その他の設立登記法人,福岡県,福岡市博多区,豊１丁目２番１５号,,40,132,8120042,,,,,,,2022-12-26,1,,,,,ムラオカシカイイン,0
173,1290801029150,新規,0,2022-12-26,2022-12-26,株式会社ＴＯＳＥＩ,,株式会社,福岡県,北九州市八幡東区,日の出３丁目５番３１号,,40,108,8050004,,,,,,,2022-12-26,1,,,,,トウセイ,0
185,1360001031362,新規,0,2022-12-26,2022-12-26,株式会社ＳＡＬＴ　ＷＡＴＥＲ　ＳＴＵＤＩＯ,,株式会社,沖縄県,国頭郡恩納村,字瀬良垣７０６－１７,,47,311,9040404,,,,,,,2022-12-26,1,,,,,ソルトウォータースタジオ,0
187,1370001049395,新規,0,2022-12-26,2022-12-26,株式会社アールアイ設備,,株式会社,宮城県,栗原市,若柳有賀字倉沢６番地,,04,213,9895507,,,,,,,2022-12-26,1,,,,,アールアイセツビ,0
189,1380003005354,新規,0,2022-12-26,2022-12-26,合同会社らくらく,,合同会社,福島県,郡山市,並木１丁目２番地１２相楽ビル３０１,,07,203,9638026,,,,,,,2022-12-26,1,,,,,ラクラク,0
196,1430003014580,新規,0,2022-12-26,2022-12-26,合同会社スニギヤ,,合同会社,北海道,札幌市中央区,南九条西４丁目３－１・５０３,,01,101,0640809,,,,,,,2022-12-26,1,,,,,スニギヤ,0
202,1480001011955,新規,0,2022-12-26,2022-12-26,株式会社ワイベスト,,株式会社,徳島県,勝浦郡上勝町,大字生実字下野８１番地１,,36,302,7714503,,,,,,,2022-12-26,1,,,,,ワイベスト,0
210,2010001231681,新規,0,2022-12-26,2022-12-26,株式会社Ａｓ,,株式会社,東京都,中央区,銀座１丁目２２番１１号銀座大竹ビジデンス２階,,13,102,1040061,,,,,,,2022-12-26,1,,,,,アズ,0
211,2010001231780,新規,0,2022-12-26,2022-12-26,ハートフル株式会社,,株式会社,東京都,千代田区,丸の内１丁目１番３号,,13,101,1000005,,,,,,,2022-12-26,1,,,,,ハートフル,0
213,2010003039421,新規,0,2022-12-26,2022-12-26,ノヴァ・ソーラー１合同会社,,合同会社,東京都,中央区,日本橋茅場町３丁目５番２号大和屋ビル６階,,13,102,1030025,,,,,,,2022-12-26,1,,,,,ノヴァソーラーイチ,0
217,2010401171511,新規,0,2022-12-26,2022-12-26,株式会社ＧＡＵＺＥ,,株式会社,東京都,港区,赤坂２丁目１３番１７号グリーンランドビル地下１階,,13,103,1070052,,,,,,,2022-12-26,1,,,,,ガーゼ,0
218,2010401171528,新規,0,2022-12-26,2022-12-26,Ａｌｅｇｒｉａ株式会社,,株式会社,東京都,港区,南青山２丁目２番１５号ウィン青山９４２,,13,103,1070062,,,,,,,2022-12-26,1,,,,,アレグリア,0
219,2010401171536,新規,0,2022-12-26,2022-12-26,株式会社ヨツイロデザイン,,株式会社,東京都,港区,南青山２丁目２番１５号ウィン青山９４２,,13,103,1070062,,,,,,,2022-12-26,1,,,,,ヨツイロデザイン,0
228,2010405021679,新規,0,2022-12-26,2022-12-26,一般社団法人ブルーオーシャン・イニシアチブ,,その他の設立登記法人,東京都,港区,虎ノ門１丁目１７番１号虎ノ門ヒルズビジネスタワー１５階,,13,103,1050001,,,,,,,2022-12-26,1,,,,,ブルーオーシャンイニシアチブ,0
229,2010501049780,新規,0,2022-12-26,2022-12-26,新栄株式会社,,株式会社,東京都,台東区,竜泉２丁目１９番１０号林ビル２０２,,13,106,1100012,,,,,,,2022-12-26,1,,,,,シンエイ,0
231,2010701043658,新規,0,2022-12-26,2022-12-26,株式会社鼓,,株式会社,東京都,品川区,小山４丁目２番３号３階,,13,109,1420062,,,,,,,2022-12-26,1,,,,,ツヅミ,0
234,2010905004407,新規,0,2022-12-26,2022-12-26,一般社団法人アジア未来研究機構,,その他の設立登記法人,東京都,世田谷区,下馬６丁目４７番１５号,,13,112,1540002,,,,,,,2022-12-26,1,,,,,アジアミライケンキュウキコウ,0
238,2011001151663,新規,0,2022-12-26,2022-12-26,株式会社ｂｒａｖｉｓｓｉｍａ,,株式会社,東京都,渋谷区,恵比寿西１丁目３３番１８号１０２,,13,113,1500021,,,,,,,2022-12-26,1,,,,,ブラビッシマ,0
239,2011001151671,新規,0,2022-12-26,2022-12-26,株式会社太陽堂,,株式会社,東京都,目黒区,大岡山２丁目８番１－４０４号シーアイマンション大岡山,,13,110,1520033,,,,,,,2022-12-26,1,,,,,タイヨウドウ,0
240,2011003015973,新規,0,2022-12-26,2022-12-26,合同会社マルフーシャ,,合同会社,東京都,渋谷区,道玄坂１丁目１０番８号渋谷道玄坂東急ビル２Ｆ－Ｃ,,13,113,1500043,,,,,,,2022-12-26,1,,,,,マルフーシャ,0
241,2011103012532,新規,0,2022-12-26,2022-12-26,合同会社ＭＥ,,合同会社,東京都,新宿区,西新宿３丁目３番１３号西新宿水間ビル２Ｆ,,13,104,1600023,,,,,,,2022-12-26,1,,,,,メ,0
246,2011501028790,新規,0,2022-12-26,2022-12-26,セフテイレビュー株式会社,,株式会社,東京都,北区,東田端１丁目１２番３号稲垣ビル５階,,13,117,1140013,,,,,,,2022-12-26,1,,,,,セフテイレビュー,0
248,2012801022046,新規,0,2022-12-26,2022-12-26,株式会社クラフトマン,,株式会社,東京都,東大和市,中央２丁目１１０１番地の１７,,13,220,2070015,,,,,,,2022-12-26,1,,,,,クラフトマン,0
249,2012803002962,新規,0,2022-12-26,2022-12-26,合同会社さんぽ道,,合同会社,東京都,東大和市,中央１丁目８番地の１２,,13,220,2070015,,,,,,,2022-12-26,1,,,,,サンポミチ,0
257,2020005015790,新規,0,2022-12-26,2022-12-26,一般財団法人岩崎国際財団,00128894,その他の設立登記法人,神奈川県,横浜市中区,山手町２５番地３,,14,104,2310862,,,,,,,2022-12-26,1,,,,,イワサキコクサイザイダン,0
266,2030001151614,新規,0,2022-12-26,2022-12-26,株式会社タイズメタル,,株式会社,埼玉県,春日部市,梅田１丁目８－１２,,11,214,3440052,,,,,,,2022-12-26,1,,,,,タイズメタル,0
267,2030001151630,新規,0,2022-12-26,2022-12-26,Ｊａｐａｎ　Ｅｄｕｃａｔｉｏｎ　Ｃａｒｅ株式会社,,株式会社,埼玉県,深谷市,長在家８２３番地１,,11,218,3691101,,,,,,,2022-12-26,1,,,,,ジャパンエデュケーションケア,0
268,2030001151639,新規,0,2022-12-26,2022-12-26,宮地フロント株式会社,,株式会社,埼玉県,川口市,西青木１丁目１３番１６号大地ビル２０１号,,11,203,3320035,,,,,,,2022-12-26,1,,,,,ミヤジフロント,0
269,2030001151647,新規,0,2022-12-26,2022-12-26,ＧｅｎｔｌｅｍａｎＦｉｔｎｅｓｓＣｌｕｂ株式会社,,株式会社,埼玉県,所沢市,大字下富１１３０－１２,,11,208,3590001,,,,,,,2022-12-26,1,,,,,ジェントルマンフィットネスクラブ,0
271,2030003020833,新規,0,2022-12-26,2022-12-26,合同会社ａｎｄｕｐ,,合同会社,埼玉県,戸田市,新曽南２丁目１２番３－６０９号,,11,224,3350026,,,,,,,2022-12-26,1,,,,,アンドアップ,0
272,2030003020841,新規,0,2022-12-26,2022-12-26,合同会社Ｌｕｍｉｅｒｅ,,合同会社,埼玉県,蕨市,中央７丁目２１－８ツインズわらび１０１号室,,11,223,3350004,,,,,,,2022-12-26,1,,,,,ルミエール,0
281,2040001126375,新規,0,2022-12-26,2022-12-26,小堀商運株式会社,,株式会社,千葉県,成田市,名古屋４３０番地２,,12,211,2890116,,,,,,,2022-12-26,1,,,,,コボリショウウン,0
283,2040003021566,新規,0,2022-12-26,2022-12-26,ＮＡＴＳＵ合同会社,,合同会社,千葉県,柏市,豊町２丁目４番１８号,,12,217,2770854,,,,,,,2022-12-26,1,,,,,ナツ,0
286,2060005010037,新規,0,2022-12-26,2022-12-26,一般社団法人遠心分離アフェレーシス技術フォーラム,,その他の設立登記法人,栃木県,下野市,薬師寺３３１１番地１自治医科大学附属病院内,,09,216,3290431,,,,,,,2022-12-26,1,,,,,エンシンブンリアフェレーシスギジュツフォーラム,0
288,2070001039954,新規,0,2022-12-26,2022-12-26,株式会社ビッグウェル,,株式会社,群馬県,高崎市,上里見町１３９番地２,,10,202,3703345,,,,,,,2022-12-26,1,,,,,ビッグウェル,0
289,2070003004766,新規,0,2022-12-26,2022-12-26,ケイエムコネクト合同会社,,合同会社,群馬県,太田市,東長岡町１５６４番地１－２０２号,,10,205,3730812,,,,,,,2022-12-26,1,,,,,ケイエムコネクト,0
293,2080403004679,新規,0,2022-12-26,2022-12-26,合同会社サンアップ,,合同会社,静岡県,浜松市中区,富塚町７７９―１ヴォートル富塚Ｅ,,22,131,4328002,,,,,,,2022-12-26,1,,,,,サンアップ,0
310,2120102029106,新規,0,2022-12-26,2022-12-26,有限会社羽倉崎工作所,,有限会社,大阪府,泉佐野市,羽倉崎３丁目３番３６号,,27,213,5980046,,,,,,,2022-12-26,1,,,,,ハグラザキコウサクショ,0
313,2130001073352,新規,0,2022-12-26,2022-12-26,株式会社ＳＨＩＲＵＳＵ,,株式会社,京都府,福知山市,末広町１丁目１０番地スタジオーネ福知山２０２号,,26,201,6200054,,,,,,,2022-12-26,1,,,,,シルス,0
321,2150001026044,新規,0,2022-12-26,2022-12-26,ａｎｄｌｏｇｉｃ株式会社,,株式会社,奈良県,奈良市,二名東町３７４４－１－１１３号,,29,201,6310073,,,,,,,2022-12-26,1,,,,,アンドロジック,0
331,2180003024646,新規,0,2022-12-26,2022-12-26,合同会社さくら,,合同会社,愛知県,大府市,横根町羽根山８５番地の１,,23,223,4740011,,,,,,,2022-12-26,1,,,,,サクラ,0
332,2180301036938,新規,0,2022-12-26,2022-12-26,株式会社リアスタイル,,株式会社,愛知県,田原市,神戸町新大坪７７番地,,23,231,4413415,,,,,,,2022-12-26,1,,,,,リアスタイル,0
342,2200001040799,新規,0,2022-12-26,2022-12-26,株式会社ｎｅｘｔ　ｗｏｒｌｄ,,株式会社,岐阜県,大垣市,墨俣町上宿２０７番地１,,21,202,5030103,,,,,,,2022-12-26,1,,,,,ネクストワールド,0
348,2220001025187,新規,0,2022-12-26,2022-12-26,海詩株式会社,,株式会社,石川県,小松市,那谷町サ４２番地１,,17,203,9230336,,,,,,,2022-12-26,1,,,,,ウタ,0
351,2240001060843,新規,0,2022-12-26,2022-12-26,株式会社ストレート,,株式会社,広島県,東広島市,高屋町中島１５２番地３７,,34,212,7392125,,,,,,,2022-12-26,1,,,,,ストレート,0
364,2330001030424,新規,0,2022-12-26,2022-12-26,カラル熊本株式会社,,株式会社,熊本県,熊本市中央区,坪井４丁目１０番１号,,43,101,8600863,,,,,,,2022-12-26,1,,,,,カラルクマモト,0
368,2340001025258,新規,0,2022-12-26,2022-12-26,株式会社ＣＯＭＰＡＳＳ,,株式会社,鹿児島県,鹿児島市,南新町７番４６号,,46,201,8900085,,,,,,,2022-12-26,1,,,,,コンパス,0
373,2380003005353,新規,0,2022-12-26,2022-12-26,合同会社天味,,合同会社,福島県,大沼郡会津美里町,字布才地５４２－４,,07,447,9696266,,,,,,,2022-12-26,1,,,,,,0
381,2430001088097,新規,0,2022-12-26,2022-12-26,株式会社ＯＲＧ,,株式会社,北海道,札幌市中央区,南一条西７丁目２１－１第一サントービル６階,,01,101,0600061,,,,,,,2022-12-26,1,,,,,オーアールジー,0
387,2460003000932,新規,0,2022-12-26,2022-12-26,ＫＮＭマーケティングオフィス合同会社,,合同会社,北海道,釧路郡釧路町,曙４丁目６番地６,,01,661,0880616,,,,,,,2022-12-26,1,,,,,ケーエヌエムマーケティングオフィス,0
388,2470001019395,新規,0,2022-12-26,2022-12-26,株式会社アルテック,,株式会社,香川県,綾歌郡宇多津町,大字東分１０４番地４,,37,386,7690213,,,,,,,2022-12-26,1,,,,,アルテック,0
396,3010001231400,新規,0,2022-12-26,2022-12-26,株式会社ＶＡＭ,,株式会社,東京都,中央区,日本橋人形町２丁目３５－３カラットビル３Ｆ,,13,102,1030013,,,,,,,2022-12-26,1,,,,,ヴァム,0
397,3010001231805,新規,0,2022-12-26,2022-12-26,神農生活株式会社,,株式会社,東京都,千代田区,丸の内２丁目２番１号岸本ビルヂング６階,,13,101,1000005,,,,,,,2022-12-26,1,,,,,シンノウセイカツ,0
399,3010005036036,新規,0,2022-12-26,2022-12-26,一般社団法人Ａｍａｌｇａｍ　Ａｒｔ　Ｆｏｕｎｄａｔｉｏｎ,,その他の設立登記法人,東京都,中央区,銀座２丁目９番１３号ＧＩＮＺＡ－２・９階,,13,102,1040061,,,,,,,2022-12-26,1,,,,,アマルガムアートファウンデイション,0
401,3010401171527,新規,0,2022-12-26,2022-12-26,株式会社ビッグオーバー,,株式会社,東京都,港区,新橋５丁目１３－８,,13,103,1050004,,,,,,,2022-12-26,1,,,,,ビッグオーバー,0
405,3010403029194,新規,0,2022-12-26,2022-12-26,ふくくぎ合同会社,,合同会社,東京都,港区,南青山２丁目２番１５号ウィン青山９４２,,13,103,1070062,,,,,,,2022-12-26,1,,,,,フククギ,0
410,3010501049796,新規,0,2022-12-26,2022-12-26,株式会社Ｃｌｏｖｅｒ　Ｊａｐａｎ,,株式会社,東京都,台東区,千束４丁目３３－１４ケルン浅草１０１,,13,106,1110031,,,,,,,2022-12-26,1,,,,,クローバージャパン,0
414,3010701043657,新規,0,2022-12-26,2022-12-26,株式会社Ｙ’ｓ,,株式会社,東京都,品川区,南大井１丁目１７番７－９０１号,,13,109,1400013,,,,,,,2022-12-26,1,,,,,ワイズ,0
416,3010903007864,新規,0,2022-12-26,2022-12-26,ＥＹパートナーズ合同会社,,合同会社,東京都,世田谷区,等々力７丁目２４番２１号リムテラス世田谷等々力１０４,,13,112,1580082,,,,,,,2022-12-26,1,,,,,イーワイパートナーズ,0
418,3011001151456,新規,0,2022-12-26,2022-12-26,株式会社ＭＡＴＰマネジメント,,株式会社,東京都,渋谷区,神宮前１丁目１０番３４－４１０号,,13,113,1500001,,,,,,,2022-12-26,1,,,,,エムエーティーピーマネジメント,0
419,3011001151679,新規,0,2022-12-26,2022-12-26,下川プランニング株式会社,,株式会社,東京都,渋谷区,道玄坂１丁目１０番８号渋谷道玄坂東急ビル２Ｆ－Ｃ,,13,113,1500043,,,,,,,2022-12-26,1,,,,,シモカワプランニング,0
422,3011101101278,新規,0,2022-12-26,2022-12-26,株式会社Ｘ＆ＦＤ,,株式会社,東京都,新宿区,山吹町２９７番地６ザ・パークハウス山吹神楽坂８０７,,13,104,1620801,,,,,,,2022-12-26,1,,,,,クロスアンドエフディー,0
423,3011101101294,新規,0,2022-12-26,2022-12-26,株式会社業,,株式会社,東京都,新宿区,西早稲田１丁目１－６バトンドルージュ早稲田３Ｆ,,13,104,1690051,,,,,,,2022-12-26,1,,,,,ギョウ,0
424,3011101101303,新規,0,2022-12-26,2022-12-26,株式会社ｕｍｂｒｅｌｌａ,,株式会社,東京都,新宿区,余丁町１１番１号枝ビルＢ１,,13,104,1620055,,,,,,,2022-12-26,1,,,,,アンブレラ,0
426,3011103012531,新規,0,2022-12-26,2022-12-26,合同会社高木企画,00128901,合同会社,東京都,新宿区,西新宿５丁目５番１－６００９号,,13,104,1600023,,,,,,,2022-12-26,1,,,,,タカギキカク,0
427,3011401010575,新規,0,2022-12-26,2022-12-26,日産チェリー板橋販売株式会社,,株式会社,東京都,板橋区,坂下３丁目２７番３０号,,13,119,1740043,,,,,,,2022-12-26,1,,,,,ニッサンチェリーイタバシハンバイ,0
428,3011403003858,新規,0,2022-12-26,2022-12-26,合同会社Ｓｉｄｅ　ｆｉｅｌｄ,,合同会社,東京都,板橋区,大山町４７番１号ミナミハイツ３０２,,13,119,1730023,,,,,,,2022-12-26,1,,,,,サイドフィールド,0
429,3011501028757,新規,0,2022-12-26,2022-12-26,ＳＤＤ商事株式会社,,株式会社,東京都,荒川区,南千住３丁目２７－２浅草ビル,,13,118,1160003,,,,,,,2022-12-26,1,,,,,エスディーディーショウジ,0
431,3011803005446,新規,0,2022-12-26,2022-12-26,合同会社東陽商事,,合同会社,東京都,足立区,大谷田２丁目３－３５ボナハイツ中川４号棟１０２,,13,121,1200001,,,,,,,2022-12-26,1,,,,,トウヨウショウジ,0
433,3012703002608,新規,0,2022-12-26,2022-12-26,合同会社ａｔ　ｌａｘｙ,,合同会社,東京都,東久留米市,下里１丁目７番９号パレ・アージュ３０４,,13,222,2030043,,,,,,,2022-12-26,1,,,,,アットラクシー,0
434,3012801022045,新規,0,2022-12-26,2022-12-26,株式会社ネオライン電工,,株式会社,東京都,東大和市,芋窪５丁目１２６５－１ヒルサイドテラス２１０７,,13,220,2070033,,,,,,,2022-12-26,1,,,,,ネオラインデンコウ,0
435,3012803002961,新規,0,2022-12-26,2022-12-26,合同会社家のＷＡ,,合同会社,東京都,武蔵村山市,三ツ木２丁目３３－２１,,13,223,2080032,,,,,,,2022-12-26,1,,,,,イエノワ,0
440,3013301050107,新規,0,2022-12-26,2022-12-26,株式会社ＭＡＳＴ,,株式会社,東京都,豊島区,高松１丁目１番８号,,13,116,1710042,,,,,,,2022-12-26,1,,,,,マスト,0
446,3020003022961,新規,0,2022-12-26,2022-12-26,ＴＲ合同会社,,合同会社,神奈川県,横浜市瀬谷区,阿久和東４丁目１９番地１メゾン・ド・ヴェールＩＩ１０１,00128898,14,114,2460023,,,,,,,2022-12-26,1,,,,,ティーアール,0
449,3021001077758,新規,0,2022-12-26,2022-12-26,株式会社ＩＳ　ｍｏｒｅ,,株式会社,神奈川県,相模原市中央区,田名３２５３番地４,,14,152,2520244,,,,,,,2022-12-26,1,,,,,イズモア,0
450,3021001077799,新規,0,2022-12-26,2022-12-26,株式会社ウィンプランニング,,株式会社,神奈川県,大和市,林間１丁目１８番２６号,,14,213,2420003,,,,,,,2022-12-26,1,,,,,ウィンプランニング,0
456,3030001151596,新規,0,2022-12-26,2022-12-26,株式会社ＭＵＧ,,株式会社,埼玉県,久喜市,間鎌２６５番地７,,11,232,3491123,,,,,,,2022-12-26,1,,,,,マグ,0
457,3030001151638,新規,0,2022-12-26,2022-12-26,株式会社ＴＲＵＳＴ　ＴＥＣ,,株式会社,埼玉県,越谷市,千間台西４丁目９番地１４,,11,222,3430041,,,,,,,2022-12-26,1,,,,,トラストテック,0
458,3030003020824,新規,0,2022-12-26,2022-12-26,合同会社Ｄｅｕｘ,,合同会社,埼玉県,熊谷市,万平町１丁目２６番地,,11,202,3600034,,,,,,,2022-12-26,1,,,,,ドゥ,0
467,3040001126358,新規,0,2022-12-26,2022-12-26,岩立建築事務所株式会社,,株式会社,千葉県,柏市,戸張１１２７番地,,12,217,2770008,,,,,,,2022-12-26,1,,,,,イワダテケンチクジムショ,0
468,3040001126374,新規,0,2022-12-26,2022-12-26,森宇工業株式会社,,株式会社,千葉県,印西市,草深３９７番地１８,,12,231,2701337,,,,,,,2022-12-26,1,,,,,シンウコウギョウ,0
474,3050001052157,新規,0,2022-12-26,2022-12-26,株式会社黒田りんご園,,株式会社,茨城県,久慈郡大子町,大字小生瀬４４４５番地,,08,364,3193512,,,,,,,2022-12-26,1,,,,,クロダリンゴエン,0
476,3050003007118,新規,0,2022-12-26,2022-12-26,合同会社Ｈ．Ｙ．Ｏエンタープライズ,,合同会社,茨城県,石岡市,東田中６８４番地,,08,205,3150034,,,,,,,2022-12-26,1,,,,,エイチワイオーエンタープライズ,0
477,3060001035557,新規,0,2022-12-26,2022-12-26,株式会社ライトメッセージ,,株式会社,栃木県,宇都宮市,駅前通り３丁目６番９－１４０３号,,09,201,3210964,,,,,,,2022-12-26,1,,,,,ライトメッセージ,0
484,3080101023708,新規,0,2022-12-26,2022-12-26,株式会社ＭｉｎＭｉｎ,,株式会社,静岡県,富士宮市,猫沢２３８番地の１,,22,207,4190302,,,,,,,2022-12-26,1,,,,,ミンミン,0
491,3120001251288,新規,0,2022-12-26,2022-12-26,中日本華商株式会社,,株式会社,大阪府,大阪市天王寺区,堀越町１６番７号４階,,27,109,5430056,,,,,,,2022-12-26,1,,,,,チュウニッポンカショウ,0
492,3120001251321,新規,0,2022-12-26,2022-12-26,黒石株式会社,,株式会社,大阪府,大阪市大正区,小林東２丁目９－５－４０６,,27,108,5510011,,,,,,,2022-12-26,1,,,,,ブラックストーン,0
493,3120001251362,新規,0,2022-12-26,2022-12-26,株式会社ＥＤＤＹＳ　ＦＡＣＴＯＲＹ,,株式会社,大阪府,大阪市北区,梅田１丁目１－３大阪駅前第３ビル２９Ｆ１－１－１号室,,27,127,5300001,,,,,,,2022-12-26,1,,,,,エディーズファクトリー,0
497,3120101066702,新規,0,2022-12-26,2022-12-26,株式会社ラインテック,,株式会社,大阪府,松原市,松ケ丘４丁目９番１３号,,27,217,5800042,,,,,,,2022-12-26,1,,,,,ラインテック,0
498,3120101066727,新規,0,2022-12-26,2022-12-26,株式会社桃,,株式会社,大阪府,和泉市,府中町３丁目７番１１号,,27,219,5940071,,,,,,,2022-12-26,1,,,,,モモ,0
505,3122001036529,新規,0,2022-12-26,2022-12-26,株式会社リコネクト,,株式会社,大阪府,八尾市,若林町１丁目７６－３,,27,212,5810038,,,,,,,2022-12-26,1,,,,,リコネクト,0
512,3140001128518,新規,0,2022-12-26,2022-12-26,株式会社ハルコーポレーション,,株式会社,兵庫県,神戸市東灘区,御影塚町２丁目２番１４号,,28,101,6580044,,,,,,,2022-12-26,1,,,,,ハルコーポレーション,0
513,3140001128526,新規,0,2022-12-26,2022-12-26,株式会社ＡＳＫ,,株式会社,兵庫県,伊丹市,昆陽４丁目１５６番１号,,28,207,6640881,,,,,,,2022-12-26,1,,,,,エーエスケー,0
531,3180001154312,新規,0,2022-12-26,2022-12-26,株式会社ＫｅｅｐＳ,,株式会社,愛知県,尾張旭市,旭台１丁目１５番地４,,23,226,4880001,,,,,,,2022-12-26,1,,,,,キープス,0
532,3180001154329,新規,0,2022-12-26,2022-12-26,株式会社アズール,,株式会社,愛知県,名古屋市東区,東桜１丁目８番１６号ロータス東桜ビル,,23,102,4610005,,,,,,,2022-12-26,1,,,,,アズール,0
533,3180005020048,新規,0,2022-12-26,2022-12-26,一般社団法人育学舎こころん,,その他の設立登記法人,愛知県,瀬戸市,上之山町２丁目１７１番地の２６２,,23,204,4890964,,,,,,,2022-12-26,1,,,,,イクガクシャココロン,0
535,3180303005543,新規,0,2022-12-26,2022-12-26,合同会社善良警備保障,,合同会社,愛知県,額田郡幸田町,大字大草字丸山１番地ベルパーク丸山Ｇ２０２,,23,501,4440103,,,,,,,2022-12-26,1,,,,,ゼンリョウケイビホショウ,0
542,3200005013429,新規,0,2022-12-26,2022-12-26,一般社団法人ＩＣＨＩ,,その他の設立登記法人,岐阜県,高山市,総和町１丁目３番地,,21,203,5060007,,,,,,,2022-12-26,1,,,,,イチ,0
550,3240001060850,新規,0,2022-12-26,2022-12-26,株式会社ムース,,株式会社,広島県,安芸高田市,甲田町下甲立３６０番地３６,,34,214,7391105,,,,,,,2022-12-26,1,,,,,ムース,0
551,3250001019895,新規,0,2022-12-26,2022-12-26,株式会社昇和建設,,株式会社,山口県,防府市,高倉２丁目７番５号,,35,206,7470045,,,,,,,2022-12-26,1,,,,,ショウワケンセツ,0
556,3280001008854,新規,0,2022-12-26,2022-12-26,株式会社至誠堂,,株式会社,島根県,松江市,西津田２丁目１番４４号,,32,201,6900017,,,,,,,2022-12-26,1,,,,,シセイドウ,0
560,3290001099991,新規,0,2022-12-26,2022-12-26,株式会社Ｃｈｅｚ　Ｍｏｉ,,株式会社,福岡県,筑後市,大字下妻５０７番地５,,40,211,8330021,,,,,,,2022-12-26,1,,,,,シェモワ,0
561,3290001100016,新規,0,2022-12-26,2022-12-26,株式会社ｅｌｍ,,株式会社,福岡県,福岡市南区,大楠２丁目２２番９号１Ｆ,,40,134,8150082,,,,,,,2022-12-26,1,,,,,エルム,0
562,3290001100024,新規,0,2022-12-26,2022-12-26,株式会社マルエステート,,株式会社,福岡県,福岡市城南区,鳥飼６丁目２３番３２－１０１号ライオンズ鳥飼イーストフォート,,40,136,8140103,,,,,,,2022-12-26,1,,,,,マルエステート,0
563,3290801029149,新規,0,2022-12-26,2022-12-26,株式会社ハルライ,,株式会社,福岡県,北九州市八幡西区,町上津役西１丁目２０番１０－４号,,40,109,8070074,,,,,,,2022-12-26,1,,,,,ハルライ,0
568,3320002022858,新規,0,2022-12-26,2022-12-26,有限会社ムラモト組,,有限会社,大分県,中津市,大字上宮永９７２番地の３,,44,203,8710027,,,,,,,2022-12-26,1,,,,,ムラモトグミ,0
571,3330001030431,新規,0,2022-12-26,2022-12-26,株式会社ｓｏ　ｃｏｍｐａｎｙ,,株式会社,熊本県,熊本市西区,田崎町４８４番地店舗９－３、９－６,,43,103,8600058,,,,,,,2022-12-26,1,,,,,ソーカンパニー,0
594,3380003005352,新規,0,2022-12-26,2022-12-26,合同会社須田果樹園,,合同会社,福島県,伊達市,梁川町粟野字前塚原９３番地１,,07,213,9600711,,,,,,,2022-12-26,1,,,,,スダカジュエン,0
598,3430001088096,新規,0,2022-12-26,2022-12-26,株式会社ＨＯＫＫＡＩＤＯ　ＰＲＯＰＥＲＴＹ,,株式会社,北海道,札幌市白石区,川北一条３丁目１４番１５号,,01,104,0030851,,,,,,,2022-12-26,1,,,,,ホッカイドウプロパティ,0
600,3460401001250,新規,0,2022-12-26,2022-12-26,株式会社山十前川商店,,株式会社,北海道,根室市,西浜町１０丁目１７７番地,,01,223,0870025,,,,,,,2022-12-26,1,,,,,ヤマジュウマエカワショウテン,0
608,4010001231779,新規,0,2022-12-26,2022-12-26,エコロジージャパン株式会社,,株式会社,東京都,文京区,本駒込５丁目５２番１２号ライオンズマンション本駒込第２－２０１号,,13,105,1130021,,,,,,,2022-12-26,1,,,,,エコロジージャパン,0
609,4010001231804,新規,0,2022-12-26,2022-12-26,株式会社ＴＳメディカル,,株式会社,東京都,文京区,本郷５丁目２５番１６－２０３号,,13,105,1130033,,,,,,,2022-12-26,1,,,,,ティーエスメディカル,0
610,4010001231829,新規,0,2022-12-26,2022-12-26,株式会社ＴＨＥ　ＷＯＲＬＤ　ＤＩＮＥＲ,,株式会社,東京都,中央区,銀座１丁目２８番１１号,,13,102,1040061,,,,,,,2022-12-26,1,,,,,ザワールドダイナー,0
621,4010401171526,新規,0,2022-12-26,2022-12-26,株式会社Ａｋａ,,株式会社,東京都,港区,白金６丁目１６番２４号バルビゾン１００―１Ｆ,,13,103,1080072,,,,,,,2022-12-26,1,,,,,エーケーエー,0
622,4010401171534,新規,0,2022-12-26,2022-12-26,Ｅｓｐｅｒａｎｚａ　Ｃｏｎｓｕｌｔｉｎｇ株式会社,,株式会社,東京都,港区,南青山３丁目１番３６号青山丸竹ビル６Ｆ,,13,103,1070062,,,,,,,2022-12-26,1,,,,,エスペランサコンサルティング,0
626,4010403029193,新規,0,2022-12-26,2022-12-26,合同会社ＨＣＰ,,合同会社,東京都,港区,西麻布１丁目４－２０,,13,103,1060031,,,,,,,2022-12-26,1,,,,,エイチシーピー,0
627,4010501049762,新規,0,2022-12-26,2022-12-26,Ｓａｍａｍｕｓｅ株式会社,,株式会社,東京都,台東区,上野６丁目７番１６川久保ビル４０７号,,13,106,1100005,,,,,,,2022-12-26,1,,,,,サマムセ,0
641,4010903007863,新規,0,2022-12-26,2022-12-26,合同会社クリスピー,,合同会社,東京都,世田谷区,岡本１丁目１６番７号,,13,112,1570076,,,,,,,2022-12-26,1,,,,,クリスピー,0
647,4011001151455,新規,0,2022-12-26,2022-12-26,株式会社瀬川弥右衛門商店,,株式会社,東京都,渋谷区,神宮前１丁目１０番３４－４１０号,,13,113,1500001,,,,,,,2022-12-26,1,,,,,セガワヤエモンショウテン,0
648,4011001151678,新規,0,2022-12-26,2022-12-26,株式会社タカキ,,株式会社,東京都,渋谷区,道玄坂２丁目８番１号,,13,113,1500043,,,,,,,2022-12-26,1,,,,,タカキ,0
652,4011101101285,新規,0,2022-12-26,2022-12-26,株式会社コンフォータブルノイズ,,株式会社,東京都,新宿区,西新宿３丁目３番１３号西新宿水間ビル６階,,13,104,1600023,,,,,,,2022-12-26,1,,,,,コンフォータブルノイズ,0
653,4011101101293,新規,0,2022-12-26,2022-12-26,正興アセットマネジメント株式会社,,株式会社,東京都,新宿区,大久保３丁目８番１－１１０３号,,13,104,1690072,,,,,,,2022-12-26,1,,,,,セイコウアセットマネジメント,0
654,4011101101302,新規,0,2022-12-26,2022-12-26,株式会社加賀谷電材,,株式会社,東京都,新宿区,西新宿７丁目１５番２号,,13,104,1600023,,,,,,,2022-12-26,1,,,,,カガヤデンザイ,0
655,4011103012506,新規,0,2022-12-26,2022-12-26,ウエストパックロジスティックス合同会社,,合同会社,東京都,新宿区,西新宿３丁目３番１３号西新宿水間ビル６階,,13,104,1600023,,,,,,,2022-12-26,1,,,,,ウエストパックロジスティックス,0
656,4011103012530,新規,0,2022-12-26,2022-12-26,合同会社Ｆｕｓｉｏｎ,,合同会社,東京都,新宿区,中落合３丁目１６番１２号,,13,104,1610032,,,,,,,2022-12-26,1,,,,,フュージョン,0
659,4011301028337,新規,0,2022-12-26,2022-12-26,有方株式会社,,株式会社,東京都,杉並区,梅里２丁目２５番１３号高円寺プラザ,,13,115,1660011,,,,,,,2022-12-26,1,,,,,ユウホウ,0
667,4011803005445,新規,0,2022-12-26,2022-12-26,合同会社ＳＨＩＭＡＴＡＮＩ,,合同会社,東京都,足立区,関原２丁目１９－１１,,13,121,1230852,,,,,,,2022-12-26,1,,,,,シマタニ,0
675,4012801022044,新規,0,2022-12-26,2022-12-26,株式会社夜桜,,株式会社,東京都,国分寺市,泉町３丁目３７番１号Ｂ１,,13,214,1850024,,,,,,,2022-12-26,1,,,,,ヨザクラ,0
679,4013301050106,新規,0,2022-12-26,2022-12-26,株式会社Ｌｉｂｅｒｔｙ,,株式会社,東京都,豊島区,南池袋１丁目２７番８号サンパレスビル９Ｆ,,13,116,1710022,,,,,,,2022-12-26,1,,,,,リバティー,0
680,4013303006428,新規,0,2022-12-26,2022-12-26,ＰＲＡＺＥＲ合同会社,,合同会社,東京都,豊島区,南長崎３丁目２２番２号遠藤荘２０５号,,13,116,1710052,,,,,,,2022-12-26,1,,,,,プラゼール,0
687,4020005015789,新規,0,2022-12-26,2022-12-26,医療法人桃和会,,その他の設立登記法人,神奈川県,横浜市緑区,鴨居２丁目６番２号柳下テラスＤ号室,,14,113,2260003,,,,,,,2022-12-26,1,,,,,トウワカイ,0
690,4021001077781,新規,0,2022-12-26,2022-12-26,株式会社アンカー,,株式会社,神奈川県,相模原市緑区,下九沢１８５２番地１０,,14,151,2520134,,,,,,,2022-12-26,1,,,,,アンカー,0
691,4021003012539,新規,0,2022-12-26,2022-12-26,ＨＩＧＨＢＲＯＷ　ＪＡＰＡＮ合同会社,,合同会社,神奈川県,海老名市,本郷１３６８番地,,14,215,2430417,,,,,,,2022-12-26,1,,,,,ハイブロウジャパン,0
694,4030001151645,新規,0,2022-12-26,2022-12-26,Ｋ．ｖｅｒ株式会社,,株式会社,埼玉県,吉川市,高富１丁目１－１２,,11,243,3420036,,,,,,,2022-12-26,1,,,,,ケイバー,0
710,4050001052156,新規,0,2022-12-26,2022-12-26,ＳＨＩＲＯ　ＮＥＫＯ株式会社,,株式会社,茨城県,下妻市,黒駒１０７５番地２ビレッジハウス上妻２号棟２０１号室,,08,210,3040007,,,,,,,2022-12-26,1,,,,,シロネコ,0
720,4080101023707,新規,0,2022-12-26,2022-12-26,株式会社Ｗｉｎ堂,,株式会社,静岡県,富士市,石坂３９１番地の２２,,22,210,4170862,,,,,,,2022-12-26,1,,,,,ウィンドウ,0
724,4100001035997,新規,0,2022-12-26,2022-12-26,株式会社ウイング,,株式会社,長野県,茅野市,仲町１６番３０号,,20,214,3910005,,,,,,,2022-12-26,1,,,,,ウイング,0
734,4120001251254,新規,0,2022-12-26,2022-12-26,久上株式会社,,株式会社,大阪府,大阪市生野区,小路東６丁目８番１７号昭和エクセルビュー東大阪１０３－Ｇ０３,,27,116,5440003,,,,,,,2022-12-26,1,,,,,キュウジョウ,0
735,4120001251304,新規,0,2022-12-26,2022-12-26,幣辰株式会社,,株式会社,大阪府,大阪市東住吉区,住道矢田３丁目３番３１ー４０６号,,27,121,5460022,,,,,,,2022-12-26,1,,,,,ヘイタツ,0
736,4120001251361,新規,0,2022-12-26,2022-12-26,株式会社Ｌｉｖｅ　Ｓｔｅｅｄ,,株式会社,大阪府,大阪市中央区,北久宝寺町２丁目６番１号,,27,128,5410057,,,,,,,2022-12-26,1,,,,,リブスティード,0
738,4120003023123,新規,0,2022-12-26,2022-12-26,合同会社ＳＴＥＰ　ＵＰ,,合同会社,大阪府,大阪市淀川区,加島３丁目中８番１９－９０７号,,27,123,5320031,,,,,,,2022-12-26,1,,,,,ステップアップ,0
739,4120003023148,新規,0,2022-12-26,2022-12-26,管子学院合同会社,,合同会社,大阪府,大阪市住之江区,南港北２丁目１－１０，ＡＴＣビルＩＴＭ棟４Ｆ，Ｎ２，ＲｏｏｍＧ,,27,125,5590034,,,,,,,2022-12-26,1,,,,,グァンゴガクイン,0
742,4120101066701,新規,0,2022-12-26,2022-12-26,たちばな建設株式会社,,株式会社,大阪府,藤井寺市,藤ケ丘４丁目１９番６号,,27,226,5830017,,,,,,,2022-12-26,1,,,,,タチバナケンセツ,0
746,4140001128509,新規,0,2022-12-26,2022-12-26,株式会社田窪事務所,,株式会社,兵庫県,宝塚市,南口１丁目１５番１号宝塚南口ハイム１０１,,28,214,6650011,,,,,,,2022-12-26,1,,,,,タクボジムショ,0
747,4140001128517,新規,0,2022-12-26,2022-12-26,株式会社レーベン,,株式会社,兵庫県,加西市,佐谷町１８４番地,,28,220,6752461,,,,,,,2022-12-26,1,,,,,レーベン,0
748,4140001128533,新規,0,2022-12-26,2022-12-26,株式会社おうら海運,,株式会社,兵庫県,神戸市東灘区,御影石町１丁目１番２５－７０８号,,28,101,6580045,,,,,,,2022-12-26,1,,,,,オウラカイウン,0
751,4150001026042,新規,0,2022-12-26,2022-12-26,株式会社Ｓｕｎｎｙ　ｐｌａｃｅ,,株式会社,奈良県,奈良市,学園新田町３０３４番地の２,,29,201,6310025,,,,,,,2022-12-26,1,,,,,サニープレイス,0
752,4150003002842,新規,0,2022-12-26,2022-12-26,合同会社ウォム,,合同会社,奈良県,奈良市,あやめ池南１丁目５番１６－２０４号,,29,201,6310033,,,,,,,2022-12-26,1,,,,,ウォム,0
756,4180001154303,新規,0,2022-12-26,2022-12-26,ＨＦＣ株式会社,,株式会社,愛知県,名古屋市千種区,稲舟通１丁目３３番地,,23,101,4640824,,,,,,,2022-12-26,1,,,,,エイチエフシー,0
763,4180005020047,新規,0,2022-12-26,2022-12-26,一般社団法人あいち足と歩行の会,,その他の設立登記法人,愛知県,名古屋市千種区,井上町７４番地,,23,101,4640026,,,,,,,2022-12-26,1,,,,,アイチアシトホコウノカイ,0
764,4180301036936,新規,0,2022-12-26,2022-12-26,株式会社スズキョウ,,株式会社,愛知県,豊橋市,賀茂町字宗末１７番地３,,23,201,4411101,,,,,,,2022-12-26,1,,,,,スズキョウ,0
766,4190003004174,新規,0,2022-12-26,2022-12-26,ＯＴＡ合同会社,,合同会社,三重県,桑名市,長島町殿名７１９番地,,24,205,5111127,,,,,,,2022-12-26,1,,,,,オタ,0
771,4200003005781,新規,0,2022-12-26,2022-12-26,合同会社神風,,合同会社,岐阜県,美濃加茂市,山之上町９９９番地４６,,21,211,5050003,,,,,,,2022-12-26,1,,,,,カミカゼ,0
788,4290001100015,新規,0,2022-12-26,2022-12-26,株式会社ポラリス,,株式会社,福岡県,福岡市西区,戸切２丁目６番１７号,,40,135,8190032,,,,,,,2022-12-26,1,,,,,ポラリス,0
789,4290001100023,新規,0,2022-12-26,2022-12-26,株式会社ふくおか法務局前オフィス,,株式会社,福岡県,福岡市中央区,舞鶴３丁目６番２３号サンハイツ舞鶴２階,,40,133,8100073,,,,,,,2022-12-26,1,,,,,フクオカホウムキョクマエオフィス,0
791,4290805009617,新規,0,2022-12-26,2022-12-26,特定非営利活動法人じねん舎,,その他の設立登記法人,福岡県,北九州市小倉南区,徳吉西１丁目８番６号,,40,107,8030278,,,,,,,2022-12-26,1,,,,,ジネンシャ,0
796,4340001025248,新規,0,2022-12-26,2022-12-26,Ｃｏｃｏｏｎホーム株式会社,,株式会社,鹿児島県,曽於市,末吉町諏訪方８２６４番地２,,46,217,8998604,,,,,,,2022-12-26,1,,,,,コクーンホーム,0
797,4340003004002,新規,0,2022-12-26,2022-12-26,合同会社アビエス,,合同会社,鹿児島県,鹿児島市,星ヶ峯２丁目３３番８号フォルクス６（１０１号）,,46,201,8910102,,,,,,,2022-12-26,1,,,,,アビエス,0
799,4360003012589,新規,0,2022-12-26,2022-12-26,合同会社Ｔａ‐ｋｕ,,合同会社,沖縄県,沖縄市,美里４丁目６番１６号,,47,211,9042153,,,,,,,2022-12-26,1,,,,,タク,0
800,4370003005930,新規,0,2022-12-26,2022-12-26,結企画合同会社,,合同会社,宮城県,仙台市宮城野区,二十人町３０９番地の５クレアホームズ榴ヶ岡公園パークゲート１１０１,,04,102,9830862,,,,,,,2022-12-26,1,,,,,ユイキカク,0
805,4380003005351,新規,0,2022-12-26,2022-12-26,合同会社設計事務所Ｓｕｒｐａｓｓ,,合同会社,福島県,いわき市,泉ケ丘２丁目５番地６,,07,204,9718171,,,,,,,2022-12-26,1,,,,,セッケイジムショサーパス,0
814,4430001088095,新規,0,2022-12-26,2022-12-26,ブルーライン株式会社,,株式会社,北海道,札幌市中央区,北四条西２４丁目２番１－６０２号,,01,101,0640824,,,,,,,2022-12-26,1,,,,,ブルーライン,0
826,5010001231869,新規,0,2022-12-26,2022-12-26,株式会社セカンドライフ,,株式会社,東京都,千代田区,神田和泉町１番地６の１６ヤマトビル４０５,,13,101,1010024,,,,,,,2022-12-26,1,,,,,セカンドライフ,0
828,5010003039435,新規,0,2022-12-26,2022-12-26,ベイリンク合同会社,,合同会社,東京都,千代田区,神田佐久間町１丁目８番４号アルテール秋葉原７０８,,13,101,1010025,,,,,,,2022-12-26,1,,,,,ベイリンク,0
842,5010401171533,新規,0,2022-12-26,2022-12-26,株式会社Ｃｈｉ‐Ｆｕｌｌ,,株式会社,東京都,港区,南青山２丁目２番１５号,,13,103,1070062,,,,,,,2022-12-26,1,,,,,チフル,0
860,5010703006511,新規,0,2022-12-26,2022-12-26,Ｔｉｍｅ　Ｇａｔｅ合同会社,,合同会社,東京都,品川区,東五反田２丁目５－２・３０６号室,,13,109,1410022,,,,,,,2022-12-26,1,,,,,タイムゲート,0
863,5010903007862,新規,0,2022-12-26,2022-12-26,合同会社ユートク,,合同会社,東京都,世田谷区,代田４丁目１０番９号セドル新代田２０３,,13,112,1550033,,,,,,,2022-12-26,1,,,,,ユートク,0
865,5011001151628,新規,0,2022-12-26,2022-12-26,株式会社ＳＮＧインターナショナル,,株式会社,東京都,渋谷区,広尾４丁目１－９－２０３,,13,113,1500012,,,,,,,2022-12-26,1,,,,,エスエヌジーインターナショナル,0
866,5011003015987,新規,0,2022-12-26,2022-12-26,合同会社ＹＵＴＨＡＮＡＮ,,合同会社,東京都,目黒区,青葉台１丁目２３番５－３０２号第３０宮庭マンション,,13,110,1530042,,,,,,,2022-12-26,1,,,,,ユタナン,0
867,5011003015995,新規,0,2022-12-26,2022-12-26,栄光合同会社,,合同会社,東京都,目黒区,目黒１丁目４番８号ニュー目黒ビル３Ｆ,,13,110,1530063,,,,,,,2022-12-26,1,,,,,エイコウ,0
869,5011101101301,新規,0,2022-12-26,2022-12-26,ＲＹＳ株式会社,,株式会社,東京都,新宿区,高田馬場３丁目４０番２２号,,13,104,1690075,,,,,,,2022-12-26,1,,,,,リズ,0
879,5011301028344,新規,0,2022-12-26,2022-12-26,Ｓｈｉｎｉｎｇ　Ｐｌａｎｎｅｒ株式会社,,株式会社,東京都,杉並区,阿佐谷南１丁目９－２０,,13,115,1660004,,,,,,,2022-12-26,1,,,,,シャイニングプランナー,0
882,5011303004624,新規,0,2022-12-26,2022-12-26,合同会社あきもと企画,,合同会社,東京都,杉並区,堀ノ内２丁目３２番５号ロアールハイツ１０８,,13,115,1660013,,,,,,,2022-12-26,1,,,,,アキモトキカク,0
889,5012703002606,新規,0,2022-12-26,2022-12-26,合同会社ブランコ,,合同会社,東京都,西東京市,南町５丁目３番５号サウスタウン２０１,,13,229,1880012,,,,,,,2022-12-26,1,,,,,ブランコ,0
890,5012801022043,新規,0,2022-12-26,2022-12-26,株式会社ＫＳＣ　Ｉｎｄｕｓｔｒｙ,,株式会社,東京都,立川市,一番町５丁目１番２号Ｃ０５,,13,202,1900033,,,,,,,2022-12-26,1,,,,,ケーエスシーインダストリー,0
891,5013301050121,新規,0,2022-12-26,2022-12-26,智明投資株式会社,,株式会社,東京都,豊島区,南大塚３丁目３９番１５号サンドリエ花房３０２号,,13,116,1700005,,,,,,,2022-12-26,1,,,,,トモアキトウシ,0
900,5020001149557,新規,0,2022-12-26,2022-12-26,株式会社マルキ,,株式会社,神奈川県,横浜市中区,伊勢佐木町６丁目１３２番地１－３０１号室,,14,104,2310045,,,,,,,2022-12-26,1,,,,,マルキ,0
903,5020003022968,新規,0,2022-12-26,2022-12-26,光栄合同会社,,合同会社,神奈川県,横浜市中区,若葉町３丁目４３番１－６０２号室,,14,104,2310056,,,,,,,2022-12-26,1,,,,,コウエイ,0
904,5020005015788,新規,0,2022-12-26,2022-12-26,一般社団法人遺言執行センター,,その他の設立登記法人,神奈川県,横浜市中区,常盤町１丁目１番１号,,14,104,2310014,,,,,,,2022-12-26,1,,,,,イゴンシッコウセンター,0
907,5021001077789,新規,0,2022-12-26,2022-12-26,株式会社サンコーボディ,,株式会社,神奈川県,小田原市,扇町５丁目１８番６号レオパレス扇町５－１０５号室,,14,206,2500001,,,,,,,2022-12-26,1,,,,,サンコーボディ,0
913,5030001151628,新規,0,2022-12-26,2022-12-26,株式会社ＮＥＸＵＳ,,株式会社,埼玉県,所沢市,大字南永井４０１番地の２,,11,208,3590011,,,,,,,2022-12-26,1,,,,,ネクサス,0
918,5030003020806,新規,0,2022-12-26,2022-12-26,いろは合同会社,,合同会社,埼玉県,志木市,本町２丁目２番３１－１号,,11,228,3530004,,,,,,,2022-12-26,1,,,,,イロハ,0
921,5040001126364,新規,0,2022-12-26,2022-12-26,株式会社友理,,株式会社,千葉県,木更津市,港南台４丁目２番地７,,12,206,2920827,,,,,,,2022-12-26,1,,,,,ユリ,0
929,5040005021850,新規,0,2022-12-26,2022-12-26,特定非営利活動法人八千代ブランサ,,その他の設立登記法人,千葉県,市川市,中国分４丁目１２番１８号,,12,203,2720835,,,,,,,2022-12-26,1,,,,,ヤチヨブランサ,0
931,5050001052155,新規,0,2022-12-26,2022-12-26,株式会社平澤建設工業,,株式会社,茨城県,取手市,市之代５２７番地,,08,217,3020037,,,,,,,2022-12-26,1,,,,,ヒラサワケンセツコウギョウ,0
938,5070005010066,新規,0,2022-12-26,2022-12-26,医療法人明優会,,その他の設立登記法人,群馬県,高崎市,吉井町本郷字硯町８５２番地６－Ａ,,10,202,3702128,,,,,,,2022-12-26,1,,,,,メイユウカイ,0
945,5090001017906,新規,0,2022-12-26,2022-12-26,株式会社Ｏｈ‐ＴＥＣ,,株式会社,山梨県,甲府市,住吉４丁目１４番１４号,,19,201,4000851,,,,,,,2022-12-26,1,,,,,,0
961,5120003023147,新規,0,2022-12-26,2022-12-26,合同会社ＳｕｎＮｉｎｅ,,合同会社,大阪府,大阪市北区,大淀北１丁目１番１３－９０４号,,27,127,5310077,,,,,,,2022-12-26,1,,,,,サンナイン,0
963,5120103004988,新規,0,2022-12-26,2022-12-26,合同会社ＭＦＴ,,合同会社,大阪府,岸和田市,三田町１７２９番地,,27,202,5960808,,,,,,,2022-12-26,1,,,,,エムエフティー,0
965,5122003002477,新規,0,2022-12-26,2022-12-26,合同会社ＨＲＭ,,合同会社,大阪府,四條畷市,大字清瀧２７番地の１,,27,229,5750063,,,,,,,2022-12-26,1,,,,,エッチアールエム,0
969,5140001128524,新規,0,2022-12-26,2022-12-26,株式会社アステップ,,株式会社,兵庫県,丹波市,柏原町柏原２８４４－３,,28,223,6693309,,,,,,,2022-12-26,1,,,,,アステップ,0
973,5140003018509,新規,0,2022-12-26,2022-12-26,スプリング合同会社,,合同会社,兵庫県,西宮市,津門大塚町２番３０－１８０６号,,28,204,6638241,,,,,,,2022-12-26,1,,,,,スプリング,0
976,5150001026041,新規,0,2022-12-26,2022-12-26,株式会社春川,,株式会社,奈良県,奈良市,富雄元町４丁目１番２６号,,29,201,6310078,,,,,,,2022-12-26,1,,,,,ハルカワ,0
987,5180001154302,新規,0,2022-12-26,2022-12-26,株式会社三昧堂,,株式会社,愛知県,海部郡大治町,大字中島字大門先１４０番地の１,,23,424,4901145,,,,,,,2022-12-26,1,,,,,サンマイドウ,0
988,5180001154319,新規,0,2022-12-26,2022-12-26,ＳＨＡＲＡ．Ｉｎｔｅｒｎａｔｉｏｎａｌ株式会社,,株式会社,愛知県,名古屋市東区,東桜２丁目１７番２５号レジディア東桜ＩＩ１００５,00128902,23,102,4610005,,,,,,,2022-12-26,1,,,,,シャラインターナショナル,0
997,5180301036935,新規,0,2022-12-26,2022-12-26,株式会社Ｓｌｅｅｐ　Ｃｌｕｂ,,株式会社,愛知県,安城市,花ノ木町１２番１８号ＴＨＥ・ＮＯＯＫ　Ｎ－０１,,23,212,4460039,,,,,,,2022-12-26,1,,,,,スリープクラブ,0
999,5190001030048,新規,0,2022-12-26,2022-12-26,株式会社ＪＯＨ,,株式会社,三重県,伊賀市,白樫笹広５４５０番地,,24,216,5181151,,,,,,,2022-12-26,1,,,,,ジェイオーエイチ,0
1002,5200001040805,新規,0,2022-12-26,2022-12-26,株式会社エムイズム,,株式会社,岐阜県,岐阜市,金町８丁目２６番地アズモンド２０３号室,,21,201,5008842,,,,,,,2022-12-26,1,,,,,エムイズム,0
1004,5200003005780,新規,0,2022-12-26,2022-12-26,合同会社Ｙ＆Ｙ,,合同会社,岐阜県,多治見市,幸町１丁目３１番地の８,,21,204,5070077,,,,,,,2022-12-26,1,,,,,ワイアンドワイ,0
1007,5220001025192,新規,0,2022-12-26,2022-12-26,株式会社ＡＭＪ,,株式会社,石川県,輪島市,鳳至町下町１６６番地,,17,204,9280075,,,,,,,2022-12-26,1,,,,,エイエムジェイ,0
1012,5230001019648,新規,0,2022-12-26,2022-12-26,株式会社ＦＬＣ,,株式会社,富山県,富山市,根塚町２丁目２番地１３,00128895,16,201,9398204,,,,,,,2022-12-26,1,,,,,エフエルシー,0
1015,5240001060840,新規,0,2022-12-26,2022-12-26,株式会社広島横川ブルワリー,,株式会社,広島県,広島市西区,竜王町１２番１－１３０７号,,34,104,7330803,,,,,,,2022-12-26,1,,,,,ヒロシマヨコガワブルワリー,0
1016,5240001060849,新規,0,2022-12-26,2022-12-26,Ｂｏｕｑｕｅｔ株式会社,,株式会社,広島県,広島市西区,大宮２丁目１２番７号和広ビル５０１号室,,34,104,7330007,,,,,,,2022-12-26,1,,,,,ブーケ,0
1025,5290003013346,新規,0,2022-12-26,2022-12-26,合同会社キャリアスパイス,,合同会社,福岡県,福岡市博多区,吉塚７丁目１１番８－６０５号Ｆステージ吉塚,00128899,40,132,8120041,,,,,,,2022-12-26,1,,,,,キャリアスパイス,0
1028,5300001013172,新規,0,2022-12-26,2022-12-26,株式会社アースマネジメント,,株式会社,佐賀県,唐津市,橋本１０４４番地２－４４５号,,41,202,8470003,,,,,,,2022-12-26,1,,,,,アースマネジメント,0
1029,5300003001919,新規,0,2022-12-26,2022-12-26,アール・ジェイ合同会社,,合同会社,佐賀県,唐津市,菜畑３４４５番地９,,41,202,8470844,,,,,,,2022-12-26,1,,,,,アールジェイ,0
1033,5340001025255,新規,0,2022-12-26,2022-12-26,Ｓａｌパートナーズ株式会社,,株式会社,鹿児島県,曽於郡大崎町,野方字迫谷５９５６番地１６,,46,468,8998313,,,,,,,2022-12-26,1,,,,,セールパートナーズ,0
1040,5380001033353,新規,0,2022-12-26,2022-12-26,株式会社スリーＦジャパン,,株式会社,福島県,郡山市,富田町字稲川原７７番地の１,,07,203,9638041,,,,,,,2022-12-26,1,,,,,,0
1043,5380003005350,新規,0,2022-12-26,2022-12-26,合同会社きぼう,,合同会社,福島県,会津若松市,門田町大字飯寺字村東１７１番地,,07,202,9650846,,,,,,,2022-12-26,1,,,,,キボウ,0
1049,5400003003013,新規,0,2022-12-26,2022-12-26,エフアンドケイ合同会社,,合同会社,岩手県,盛岡市,上田３丁目８番２６号,,03,201,0200066,,,,,,,2022-12-26,1,,,,,,0
1051,5410001013351,新規,0,2022-12-26,2022-12-26,株式会社ＬＦＨ,,株式会社,秋田県,北秋田市,李岱字李岱２９３番地,,05,213,0184282,,,,,,,2022-12-26,1,,,,,エルエフエイチ,0
1058,5430003014577,新規,0,2022-12-26,2022-12-26,合同会社ラセン,,合同会社,北海道,札幌市北区,新琴似五条５丁目５番１４号,,01,102,0010905,,,,,,,2022-12-26,1,,,,,ラセン,0
1075,6010001231793,新規,0,2022-12-26,2022-12-26,スマはっちゅう株式会社,,株式会社,東京都,千代田区,神田須田町１丁目２３番地１,,13,101,1010041,,,,,,,2022-12-26,1,,,,,スマハッチュウ,0
1087,6010401171524,新規,0,2022-12-26,2022-12-26,株式会社リエゾンサービス,,株式会社,東京都,港区,浜松町２丁目２番１５号浜松町ダイヤビル２Ｆ,,13,103,1050013,,,,,,,2022-12-26,1,,,,,リエゾンサービス,0
1088,6010401171532,新規,0,2022-12-26,2022-12-26,株式会社Ｍｏｎｌｏｅ,,株式会社,東京都,港区,赤坂２丁目１４番１１－６０９号,,13,103,1070052,,,,,,,2022-12-26,1,,,,,モンロー,0
1094,6010501049793,新規,0,2022-12-26,2022-12-26,Ｍシステム株式会社,,株式会社,東京都,台東区,千束３丁目１６番１－６０１号グランドメゾン入谷,,13,106,1110031,,,,,,,2022-12-26,1,,,,,エムシステム,0
1099,6010701043662,新規,0,2022-12-26,2022-12-26,株式会社ＢＲＯＵ,,株式会社,東京都,品川区,荏原４丁目４番１２－８０２号,,13,109,1420063,,,,,,,2022-12-26,1,,,,,ブロウ,0
1108,6011001151635,新規,0,2022-12-26,2022-12-26,株式会社ＹＭ,,株式会社,東京都,渋谷区,松濤２丁目２０番１０号,,13,113,1500046,,,,,,,2022-12-26,1,,,,,ワイエム,0
1109,6011001151676,新規,0,2022-12-26,2022-12-26,株式会社ｔｏｎｅｌ．,,株式会社,東京都,渋谷区,千駄ヶ谷５丁目２番２号サンテリア千駄ヶ谷１Ｄ号室,,13,113,1510051,,,,,,,2022-12-26,1,,,,,トネル,0
1112,6011101101184,新規,0,2022-12-26,2022-12-26,ＳＭＴ商事株式会社,,株式会社,東京都,新宿区,西新宿６丁目１２番４号,,13,104,1600023,,,,,,,2022-12-26,1,,,,,エスエムティー,0
1113,6011103012529,新規,0,2022-12-26,2022-12-26,メディマージュ合同会社,,合同会社,東京都,新宿区,北新宿３丁目４０番１４－４０３号,,13,104,1690074,,,,,,,2022-12-26,1,,,,,メディマージュ,0
1117,6011501028787,新規,0,2022-12-26,2022-12-26,ＳｕｍＦｌａｔ株式会社,,株式会社,東京都,荒川区,東日暮里３丁目１２番２号,,13,118,1160014,,,,,,,2022-12-26,1,,,,,サムフラット,0
1118,6011505002524,新規,0,2022-12-26,2022-12-26,レジェンド東尾久管理組合法人,,その他の設立登記法人,東京都,荒川区,東尾久６丁目３８番９号レジェンド東尾久管理室内,,13,118,1160012,,,,,,,2022-12-26,1,,,,,レジェンドヒガシオグ,0
1131,6020001149548,新規,0,2022-12-26,2022-12-26,株式会社ｂｌｅｓｓｉｎｇ,,株式会社,神奈川県,川崎市幸区,新小倉２番１－１００６号,,14,132,2120031,,,,,,,2022-12-26,1,,,,,ブレッシング,0
1139,6020003022967,新規,0,2022-12-26,2022-12-26,合同会社ＭＫ,,合同会社,神奈川県,横浜市緑区,台村町２４５番地,,14,113,2260014,,,,,,,2022-12-26,1,,,,,エムケイ,0
1140,6020003022975,新規,0,2022-12-26,2022-12-26,合同会社スポーツ会計ラボ,,合同会社,神奈川県,横浜市西区,北幸２丁目１０番地２８むつみビル３Ｆ,,14,103,2200004,,,,,,,2022-12-26,1,,,,,スポーツカイケイラボ,0
1143,6021003012529,新規,0,2022-12-26,2022-12-26,Ｌａｍｐｏ合同会社,,合同会社,神奈川県,大和市,上草柳２丁目８番５号,,14,213,2420029,,,,,,,2022-12-26,1,,,,,ランポ,0
1146,6030001151610,新規,0,2022-12-26,2022-12-26,株式会社当間コーポレーション,,株式会社,埼玉県,川口市,大字安行領根岸２５４９番地の１サンハイツ小林１０７号,,11,203,3330834,,,,,,,2022-12-26,1,,,,,トウマコーポレーション,0
1147,6030001151643,新規,0,2022-12-26,2022-12-26,株式会社Ｗｉｔｃｈ　Ｈａｎｄ,,株式会社,埼玉県,越谷市,大沢１丁目１９番２３－２号,,11,222,3430025,,,,,,,2022-12-26,1,,,,,ウィッチハンド,0
1154,6030003020805,新規,0,2022-12-26,2022-12-26,合同会社７５,,合同会社,埼玉県,さいたま市浦和区,常盤２丁目１０番７－４号,,11,107,3300061,,,,,,,2022-12-26,1,,,,,ナナコ,0
1157,6040001126371,新規,0,2022-12-26,2022-12-26,ロックス株式会社,,株式会社,千葉県,四街道市,鹿放ケ丘２番地１,,12,228,2840008,,,,,,,2022-12-26,1,,,,,ロックス,0
1159,6040003021570,新規,0,2022-12-26,2022-12-26,合同会社ＢｏＯ　ＳＴＥＲ,,合同会社,千葉県,松戸市,西馬橋蔵元町９８サンラインフジ１０２,,12,207,2710046,,,,,,,2022-12-26,1,,,,,ボースター,0
1161,6050001052138,新規,0,2022-12-26,2022-12-26,株式会社ライクジャントレーディング,,株式会社,茨城県,古河市,柳橋６１４番地４,,08,204,3060203,,,,,,,2022-12-26,1,,,,,ライクジャントレーディング,0
1162,6060001035554,新規,0,2022-12-26,2022-12-26,株式会社オウンライフ,,株式会社,栃木県,栃木市,平井町４８２番地２エクセルパレス１０１,,09,203,3280054,,,,,,,2022-12-26,1,,,,,オウンライフ,0
1167,6080101023705,新規,0,2022-12-26,2022-12-26,株式会社沼津ベース,,株式会社,静岡県,沼津市,五月町７番３号,,22,203,4100044,,,,,,,2022-12-26,1,,,,,ヌマヅベース,0
1168,6090001017905,新規,0,2022-12-26,2022-12-26,光輝建設株式会社,,株式会社,山梨県,南アルプス市,百々１６８１番地８１,,19,208,4000214,,,,,,,2022-12-26,1,,,,,コウキケンセツ,0
1169,6100001035979,新規,0,2022-12-26,2022-12-26,株式会社小松建設,,株式会社,長野県,塩尻市,大門二番町７番１０号,,20,215,3990735,,,,,,,2022-12-26,1,,,,,コマツケンセツ,0
1174,6120001251260,新規,0,2022-12-26,2022-12-26,華傑株式会社,,株式会社,大阪府,大阪市東淀川区,豊新５丁目６番３－２０３号,,27,114,5330014,,,,,,,2022-12-26,1,,,,,カケツ,0
1175,6120001251293,新規,0,2022-12-26,2022-12-26,桃葵株式会社,,株式会社,大阪府,大阪市住吉区,長居東３丁目７－１８－１Ｆ西,,27,120,5580004,,,,,,,2022-12-26,1,,,,,トウキ,0
1176,6120001251327,新規,0,2022-12-26,2022-12-26,株式会社長谷川建運,,株式会社,大阪府,門真市,宮野町１６番６号,,27,223,5710062,,,,,,,2022-12-26,1,,,,,ハセガワケンウン,0
1177,6120001251351,新規,0,2022-12-26,2022-12-26,株式会社ＡＳＡＫＵＲＡ,,株式会社,大阪府,大阪市中央区,淡路町３丁目４番８－３００１号,,27,128,5410047,,,,,,,2022-12-26,1,,,,,アサクラ,0
1181,6120003023154,新規,0,2022-12-26,2022-12-26,合同会社ＫＹＡＲＡ,,合同会社,大阪府,守口市,菊水通３丁目３番１３号,,27,209,5700032,,,,,,,2022-12-26,1,,,,,キャラ,0
1183,6120101066690,新規,0,2022-12-26,2022-12-26,株式会社ＭＲＧ　ｂａｎａｎａｓｈｏｋｕ堂,,株式会社,大阪府,泉佐野市,東羽倉崎町５番７－１１号,,27,213,5980031,,,,,,,2022-12-26,1,,,,,エムアールジーバナナショクドウ,0
1184,6120105009654,新規,0,2022-12-26,2022-12-26,一般社団法人七海会,,その他の設立登記法人,大阪府,貝塚市,東山１丁目２４番３号,,27,208,5970046,,,,,,,2022-12-26,1,,,,,ナナミカイ,0
1185,6120901046909,新規,0,2022-12-26,2022-12-26,株式会社ＯＭＫビル,,株式会社,大阪府,豊中市,上野西３丁目１３番３８号,,27,203,5600011,,,,,,,2022-12-26,1,,,,,オーエムケービル,0
1190,6130003008393,新規,0,2022-12-26,2022-12-26,合同会社あめだま,,合同会社,京都府,京都市伏見区,深草西伊達町８７－９２,,26,109,6120876,,,,,,,2022-12-26,1,,,,,アメダマ,0
1193,6140001128523,新規,0,2022-12-26,2022-12-26,Ｒｅ　Ｓｍｉｌｅ株式会社,,株式会社,兵庫県,高砂市,米田町米田８８番地の２ウッディプレイスＲ２階Ｂ号室,,28,216,6760805,,,,,,,2022-12-26,1,,,,,リスマイル,0
1198,6150001026040,新規,0,2022-12-26,2022-12-26,Ｄｅｌｉｇｈｔｆｕｌ株式会社,,株式会社,奈良県,天理市,櫟本町９７０番地,,29,204,6320004,,,,,,,2022-12-26,1,,,,,ディライトフル,0
1209,6180001154235,新規,0,2022-12-26,2022-12-26,株式会社りあんホーム,,株式会社,愛知県,春日井市,朝宮町１丁目３番地５,,23,206,4860846,,,,,,,2022-12-26,1,,,,,リアンホーム,0
1216,6220001025191,新規,0,2022-12-26,2022-12-26,株式会社ＫＤＳ,,株式会社,石川県,かほく市,高松ム２７番地１,,17,209,9291215,,,,,,,2022-12-26,1,,,,,ケイディエス,0
1225,6240001060848,新規,0,2022-12-26,2022-12-26,株式会社いとま,,株式会社,広島県,東広島市,高屋町中島１６２番地１りんごはうす青２０５号,,34,212,7392125,,,,,,,2022-12-26,1,,,,,イトマ,0
1231,6260001037514,新規,0,2022-12-26,2022-12-26,株式会社ＨＩＮＩＣＨＩＪＯＵ,,株式会社,岡山県,倉敷市,中島２６４３－１０,,33,202,7100803,,,,,,,2022-12-26,1,,,,,ヒニチジョウ,0
1234,6290001099989,新規,0,2022-12-26,2022-12-26,株式会社ファイブストランドジャパン,,株式会社,福岡県,福岡市東区,香住ヶ丘２丁目９番１５号,,40,131,8130003,,,,,,,2022-12-26,1,,,,,ファイブストランドジャパン,0
1235,6290001100005,新規,0,2022-12-26,2022-12-26,ハッピーグループ株式会社,,株式会社,福岡県,福岡市中央区,大名１丁目９番４５号,,40,133,8100041,,,,,,,2022-12-26,1,,,,,ハッピーグループ,0
1236,6290003013345,新規,0,2022-12-26,2022-12-26,朝映合同会社,,合同会社,福岡県,福岡市東区,水谷３丁目２８番１５号,,40,131,8130041,,,,,,,2022-12-26,1,,,,,アサエ,0
1238,6290805009615,新規,0,2022-12-26,2022-12-26,医療法人ＫＨＴ,,その他の設立登記法人,福岡県,北九州市若松区,白山１丁目１番５号,,40,103,8080035,,,,,,,2022-12-26,1,,,,,ケーエイチティー,0
1243,6310001018178,新規,0,2022-12-26,2022-12-26,株式会社Ｆｕｌｌｙ,,株式会社,長崎県,佐世保市,大和町５３８番地２,,42,202,8571165,,,,,,,2022-12-26,1,,,,,フリー,0
1245,6330001030429,新規,0,2022-12-26,2022-12-26,株式会社Ｎｏ　ｎａｍｅ,,株式会社,熊本県,熊本市東区,長嶺東６丁目１０番９７－２０２号,,43,102,8618038,,,,,,,2022-12-26,1,,,,,ノーネーム,0
1247,6330003009644,新規,0,2022-12-26,2022-12-26,合同会社Ｒプランニング,,合同会社,熊本県,熊本市中央区,出水１丁目７番５７－６０２号,,43,101,8620941,,,,,,,2022-12-26,1,,,,,アールプランニング,0
1251,6350003004239,新規,0,2022-12-26,2022-12-26,合同会社ｃｈａｏｓ,,合同会社,宮崎県,宮崎市,千草町５－１８エ・パングルビル３０１,,45,201,8800006,,,,,,,2022-12-26,1,,,,,カオス,0
1252,6360003012587,新規,0,2022-12-26,2022-12-26,合同会社さくら,,合同会社,沖縄県,中頭郡読谷村,字楚辺１２７９番地４５,,47,324,9040304,,,,,,,2022-12-26,1,,,,,サクラ,0
1255,6370003005929,新規,0,2022-12-26,2022-12-26,あずましい合同会社,,合同会社,宮城県,仙台市青葉区,国分町３丁目１１番３０－８０６号,,04,101,9800803,,,,,,,2022-12-26,1,,,,,アズマシイ,0
1256,6380001033352,新規,0,2022-12-26,2022-12-26,株式会社ナベカタ,,株式会社,福島県,郡山市,大町１丁目６番地１３号武田ビル１Ｆ,,07,203,9638001,,,,,,,2022-12-26,1,,,,,ナベカタ,0
1265,6430001088085,新規,0,2022-12-26,2022-12-26,株式会社鮮一澤田商店,,株式会社,北海道,札幌市中央区,南六条西３丁目６番地１８おふく会館２階,,01,101,0640806,,,,,,,2022-12-26,1,,,,,センイチサワダショウテン,0
1266,6430001088093,新規,0,2022-12-26,2022-12-26,株式会社アドバンテージ,,株式会社,北海道,室蘭市,絵鞆町２丁目２１番２５号,,01,205,0510035,,,,,,,2022-12-26,1,,,,,アドバンテージ,0
1267,6430003014576,新規,0,2022-12-26,2022-12-26,エヌボナー合同会社,,合同会社,北海道,札幌市南区,藤野六条４丁目２２番６号,,01,106,0612286,,,,,,,2022-12-26,1,,,,,エヌボナー,0
1273,6490001010365,新規,0,2022-12-26,2022-12-26,バレーベア株式会社,,株式会社,高知県,高知市,役知町１６番１８号,,39,201,7818002,,,,,,,2022-12-26,1,,,,,バレーベア,0
1276,6500003002937,新規,0,2022-12-26,2022-12-26,合同会社松村,,合同会社,愛媛県,松山市,大手町１丁目１０番６号,,38,201,7900067,,,,,,,2022-12-26,1,,,,,マツムラ,0
1283,7010001231826,新規,0,2022-12-26,2022-12-26,株式会社ｏｆｆｉｃｅ．ｎ,,株式会社,東京都,千代田区,鍛冶町２丁目９番５号,,13,101,1010044,,,,,,,2022-12-26,1,,,,,オフィスエヌ,0
1289,7010003039417,新規,0,2022-12-26,2022-12-26,合同会社爽研,,合同会社,東京都,中央区,銀座６丁目１３番１６号銀座ＷａｌｌビルＵＣＦ５階,,13,102,1040061,,,,,,,2022-12-26,1,,,,,ソウケン,0
1298,7010401171515,新規,0,2022-12-26,2022-12-26,株式会社リバーサイド・ワークス,,株式会社,東京都,港区,南青山４丁目５番２５号シンクレア南青山３０１号,,13,103,1070062,,,,,,,2022-12-26,1,,,,,リバーサイドワークス,0
1299,7010401171531,新規,0,2022-12-26,2022-12-26,株式会社ライフサポート・トランスポート,,株式会社,東京都,港区,芝浦３丁目２０番６号,,13,103,1080023,,,,,,,2022-12-26,1,,,,,ライフサポートトランスポート,0
1300,7010401171556,新規,0,2022-12-26,2022-12-26,ＡＫクロスボーダーズ株式会社,,株式会社,東京都,港区,赤坂８丁目２番１６号,,13,103,1070052,,,,,,,2022-12-26,1,,,,,エーケークロスボーダーズ,0
1301,7010401171580,新規,0,2022-12-26,2022-12-26,株式会社レール社,,株式会社,東京都,港区,南青山３丁目１番３６号青山丸竹ビル６Ｆ,,13,103,1070062,,,,,,,2022-12-26,1,,,,,レールシャ,0
1302,7010401171589,新規,0,2022-12-26,2022-12-26,株式会社Ｄ・Ｉエンジニアリング,,株式会社,東京都,港区,南青山２丁目２番１５号,,13,103,1070062,,,,,,,2022-12-26,1,,,,,ディーアイエンジニアリング,0
1305,7010403029190,新規,0,2022-12-26,2022-12-26,ＨＬＩＯＮ合同会社,,合同会社,東京都,港区,芝浦１丁目８番３号パレスデュオ芝浦ＴＯＫＹＯＢＡＹ６０９,,13,103,1050023,,,,,,,2022-12-26,1,,,,,ハリオン,0
1309,7010603009884,新規,0,2022-12-26,2022-12-26,合同会社ＪＵＮＥ２２,,合同会社,東京都,江東区,亀戸６丁目３５番１６－４０１号,,13,108,1360071,,,,,,,2022-12-26,1,,,,,ジュントゥウェンティーツー,0
1312,7010701043645,新規,0,2022-12-26,2022-12-26,株式会社ニューラルスポーツ,,株式会社,東京都,品川区,上大崎２丁目１５番９号,,13,109,1410021,,,,,,,2022-12-26,1,,,,,ニューラルスポーツ,0
1313,7010701043653,新規,0,2022-12-26,2022-12-26,新社会研究株式会社,,株式会社,東京都,品川区,西五反田３丁目９－１８クレヴィアタワー目黒不動前８０１,,13,109,1410031,,,,,,,2022-12-26,1,,,,,シンシャカイケンキュウ,0
1318,7010803004405,新規,0,2022-12-26,2022-12-26,ＦＫＩ合同会社,,合同会社,東京都,大田区,西六郷４丁目９－１１、３０１,,13,111,1440056,,,,,,,2022-12-26,1,,,,,エフケーアイ,0
1319,7010901052223,新規,0,2022-12-26,2022-12-26,株式会社グリーンステージ,,株式会社,東京都,世田谷区,野毛１丁目９－１２,,13,112,1580092,,,,,,,2022-12-26,1,,,,,グリーンステージ,0
1325,7011001151626,新規,0,2022-12-26,2022-12-26,株式会社Ａｍｂｅｒ,,株式会社,東京都,目黒区,青葉台１丁目１１－１４Ｒｅｃｏｒｄ．ＮＡＫＡＭＥＧＵＲＯ１０２,,13,110,1530042,,,,,,,2022-12-26,1,,,,,アンバー,0
1326,7011001151642,新規,0,2022-12-26,2022-12-26,株式会社Ｄ‐ＣＡＬ,,株式会社,東京都,渋谷区,千駄ヶ谷２丁目３７－５エクレールコート千駄ヶ谷４０４,,13,113,1510051,,,,,,,2022-12-26,1,,,,,ディカル,0
1327,7011001151659,新規,0,2022-12-26,2022-12-26,ヒグチキャピタル株式会社,,株式会社,東京都,渋谷区,道玄坂１丁目１０番８号渋谷道玄坂東急ビル２Ｆ－Ｃ,,13,113,1500043,,,,,,,2022-12-26,1,,,,,ヒグチキャピタル,0
1328,7011001151675,新規,0,2022-12-26,2022-12-26,株式会社ＣＧＧ,,株式会社,東京都,渋谷区,東２丁目１２番５号ＡｔｅｌｉｅｒＥｓｔ７,,13,113,1500011,,,,,,,2022-12-26,1,,,,,シージージー,0
1330,7011005009886,新規,0,2022-12-26,2022-12-26,一般社団法人日本フィットネス医学協会,,その他の設立登記法人,東京都,渋谷区,神宮前４丁目９番１７－３１２号パークアクシスプレミア表参道,,13,113,1500001,,,,,,,2022-12-26,1,,,,,ニホンフィットネスイガクキョウカイ,0
1339,7011101101290,新規,0,2022-12-26,2022-12-26,株式会社ＳＡＲＡＹ３７,,株式会社,東京都,新宿区,高田馬場４丁目８番８号,,13,104,1690075,,,,,,,2022-12-26,1,,,,,サライサンナナ,0
1340,7011105010505,新規,0,2022-12-26,2022-12-26,一般社団法人未来を考える少子化研究会,,その他の設立登記法人,東京都,新宿区,歌舞伎町２丁目２番１５号,,13,104,1600021,,,,,,,2022-12-26,1,,,,,ミライヲカンガエルショウシカケンキュウカイ,0
1342,7011301028350,新規,0,2022-12-26,2022-12-26,株式会社ラフィーネプロモーション,,株式会社,東京都,杉並区,梅里２丁目２０番１５号プラネックスＨＯＺＯ２０６,,13,115,1660011,,,,,,,2022-12-26,1,,,,,ラフィーネプロモーション,0
1344,7011601026459,新規,0,2022-12-26,2022-12-26,ＭＯＭＯ株式会社,,株式会社,東京都,練馬区,桜台１丁目７番７－４１９号,,13,120,1760002,,,,,,,2022-12-26,1,,,,,モモ,0
1349,7012701017414,新規,0,2022-12-26,2022-12-26,株式会社Ｂａｍｉｙａｎ　ｔｒａｄｉｎｇ,,株式会社,東京都,小平市,小川町１丁目１０７１－１５,,13,211,1870032,,,,,,,2022-12-26,1,,,,,バーミヤントレーディング,0
1357,7020001149555,新規,0,2022-12-26,2022-12-26,エムレック株式会社,,株式会社,神奈川県,横浜市西区,中央１丁目４３番９,,14,103,2200051,,,,,,,2022-12-26,1,,,,,エムレック,0
1364,7020003022966,新規,0,2022-12-26,2022-12-26,Ｔｏｋｙｏ　Ｄｅｐｏｔ合同会社,,合同会社,神奈川県,川崎市麻生区,王禅寺東３丁目５番１６号,,14,137,2150018,,,,,,,2022-12-26,1,,,,,トーキョーデポ,0
1367,7021003012544,新規,0,2022-12-26,2022-12-26,合同会社ｎｏｏｋ,,合同会社,神奈川県,藤沢市,藤沢９９１番地の２０,,14,205,2510052,,,,,,,2022-12-26,1,,,,,ヌーク,0
1376,7030001151601,新規,0,2022-12-26,2022-12-26,ＳＡＩＫＡＴＵ企画株式会社,,株式会社,埼玉県,川口市,芝４丁目２６番２７号,,11,203,3330866,,,,,,,2022-12-26,1,,,,,サイカツキカク,0
1377,7030001151650,新規,0,2022-12-26,2022-12-26,株式会社ＧｏｏｄＦｌｏｗＭａｒｋｅｔ,,株式会社,埼玉県,三郷市,戸ケ崎５丁目１５６－４,,11,237,3410044,,,,,,,2022-12-26,1,,,,,グッドフローマーケット,0
1387,7030003020770,新規,0,2022-12-26,2022-12-26,ＡＳＭＩＴＡ合同会社,,合同会社,埼玉県,坂戸市,八幡１丁目３－２２アルファウイングス４０６号,,11,239,3500223,,,,,,,2022-12-26,1,,,,,アスミタ,0
1398,7040003021561,新規,0,2022-12-26,2022-12-26,合同会社東京警備,,合同会社,千葉県,松戸市,南花島４丁目６１番３号,,12,207,2710065,,,,,,,2022-12-26,1,,,,,トウキョウケイビ,0
1400,7050001052137,新規,0,2022-12-26,2022-12-26,株式会社ＧＨＡＳＡＺ　ＥＮＴＥＲＰＲＩＳＥＳ,,株式会社,茨城県,坂東市,上出島１２１６番地１２９,,08,228,3060654,,,,,,,2022-12-26,1,,,,,ガサスエンタープライセス,0
1401,7050001052153,新規,0,2022-12-26,2022-12-26,株式会社Ｗｉｎｇｒｉｎ,,株式会社,茨城県,牛久市,中央４丁目５－１,,08,219,3001234,,,,,,,2022-12-26,1,,,,,ウィングリン,0
1404,7050003007122,新規,0,2022-12-26,2022-12-26,合同会社ＪＳＩＡ,,合同会社,茨城県,那珂市,額田北郷１１１番地７,,08,226,3110108,,,,,,,2022-12-26,1,,,,,ジェイエスアイエイ,0
1409,7070001039958,新規,0,2022-12-26,2022-12-26,株式会社エムズ,,株式会社,群馬県,高崎市,栄町３番２３－２２０２号高崎タワー２１,,10,202,3700841,,,,,,,2022-12-26,1,,,,,エムズ,0
1423,7120001251342,新規,0,2022-12-26,2022-12-26,Ｆａｒ　Ｃｌｏｕｄ株式会社,,株式会社,大阪府,大阪市生野区,小路東６丁目８番１７号昭和エクセルビュー東大阪１０３－Ｇ１３,,27,116,5440003,,,,,,,2022-12-26,1,,,,,ファークラウド,0
1424,7120001251350,新規,0,2022-12-26,2022-12-26,株式会社セブングレイス,,株式会社,大阪府,大阪市中央区,淡路町３丁目４番８－３００１号,,27,128,5410047,,,,,,,2022-12-26,1,,,,,セブングレイス,0
1428,7120103004994,新規,0,2022-12-26,2022-12-26,合同会社オカテック,,合同会社,大阪府,堺市北区,長曽根町６６３番地１９,,27,146,5918025,,,,,,,2022-12-26,1,,,,,,0
1439,7150001026048,新規,0,2022-12-26,2022-12-26,株式会社ＫＹホーム,,株式会社,奈良県,天理市,富堂町２１１－１,,29,204,6320072,,,,,,,2022-12-26,1,,,,,ケイワイホーム,0
1450,7180301036933,新規,0,2022-12-26,2022-12-26,株式会社ＫＲホールディングス,,株式会社,愛知県,安城市,上条町根崎３９番地３,,23,212,4460023,,,,,,,2022-12-26,1,,,,,ケイアールホールディングス,0
1451,7180303005548,新規,0,2022-12-26,2022-12-26,ＴＡＫＥ　ＴＨＥ　ＤＲＥＡＭ合同会社,,合同会社,愛知県,刈谷市,桜町１丁目２０番地,,23,210,4480028,,,,,,,2022-12-26,1,,,,,テイクザドリーム,0
1460,7240001060847,新規,0,2022-12-26,2022-12-26,サンライズアソシエイト株式会社,,株式会社,広島県,広島市東区,牛田中２丁目３番２５号,,34,102,7320065,,,,,,,2022-12-26,1,,,,,サンライズアソシエイト,0
1473,7290005018878,新規,0,2022-12-26,2022-12-26,医療法人優敬会,,その他の設立登記法人,福岡県,那珂川市,片縄８丁目１２２番地,,40,231,8111201,,,,,,,2022-12-26,1,,,,,ユタカカイ,0
1476,7290805009614,新規,0,2022-12-26,2022-12-26,医療法人池上医院,,その他の設立登記法人,福岡県,北九州市八幡東区,祝町２丁目１３番１２号,,40,108,8050041,,,,,,,2022-12-26,1,,,,,イケガミイイン,0
1479,7300003001917,新規,0,2022-12-26,2022-12-26,合同会社ＦＯＯＤ　ＦＡＣＴＯＲＹ,,合同会社,佐賀県,唐津市,呼子町呼子４１８５番地９,,41,202,8470303,,,,,,,2022-12-26,1,,,,,フードファクトリー,0
1485,7320003003977,新規,0,2022-12-26,2022-12-26,合同会社わんとっぷ,,合同会社,大分県,別府市,大字鶴見３２６０番地の７,,44,202,8740840,,,,,,,2022-12-26,1,,,,,ワントップ,0
1488,7330001030428,新規,0,2022-12-26,2022-12-26,ＳＭＤ株式会社,,株式会社,熊本県,宇城市,松橋町西下郷６９１番地１,,43,213,8690534,,,,,,,2022-12-26,1,,,,,エスエムディ,0
1490,7330003009643,新規,0,2022-12-26,2022-12-26,合同会社ＲＥＬＡＩＲ,,合同会社,熊本県,熊本市南区,御幸木部３丁目７番８８－２号,,43,104,8614173,,,,,,,2022-12-26,1,,,,,リレア,0
1491,7330005010599,新規,0,2022-12-26,2022-12-26,ＮＰＯ法人寺子屋カフェくまもと,,その他の設立登記法人,熊本県,熊本市東区,江津４丁目５番１９号コーポ江津１Ｆ－２号,,43,102,8620942,,,,,,,2022-12-26,1,,,,,テラコヤカフェクマモト,0
1503,7370001049398,新規,0,2022-12-26,2022-12-26,株式会社サニー,,株式会社,宮城県,多賀城市,東田中１丁目５番１号,,04,209,9850863,,,,,,,2022-12-26,1,,,,,サニー,0
1504,7370003005928,新規,0,2022-12-26,2022-12-26,丸住建装合同会社,,合同会社,宮城県,仙台市宮城野区,大梶１６番２５－２０３号,,04,102,9830835,,,,,,,2022-12-26,1,,,,,マルジュウケンソウ,0
1509,7380001033351,新規,0,2022-12-26,2022-12-26,タムライーシーペレット株式会社,,株式会社,福島県,田村市,常葉町常葉字古御門１６番地１０１号室,,07,211,9634602,,,,,,,2022-12-26,1,,,,,タムライーシーペレット,0
1515,7400003003011,新規,0,2022-12-26,2022-12-26,合同会社方八丁,,合同会社,岩手県,盛岡市,乙部３２地割３３番地,,03,201,0200403,,,,,,,2022-12-26,1,,,,,ホウハッチョウ,0
1545,8010001231759,新規,0,2022-12-26,2022-12-26,株式会社ＪＹＵＫＥＮ,,株式会社,東京都,千代田区,内神田１丁目１２番１３号第一内神田ビル２０１,,13,101,1010047,,,,,,,2022-12-26,1,,,,,ジュウケン,0
1546,8010001231809,新規,0,2022-12-26,2022-12-26,株式会社建築家コミュニティ,,株式会社,東京都,千代田区,永田町２丁目１１番１号山王パークタワー,,13,101,1000014,,,,,,,2022-12-26,1,,,,,ケンチクカコミュニティ,0
1547,8010003039382,新規,0,2022-12-26,2022-12-26,モックス・デザイン合同会社,,合同会社,東京都,中央区,日本橋室町１丁目２－６日本橋大栄ビル７階,,13,102,1030022,,,,,,,2022-12-26,1,,,,,モックスデザイン,0
1548,8010003039424,新規,0,2022-12-26,2022-12-26,合同会社代々木一丁目プロジェクト,,合同会社,東京都,千代田区,神田和泉町１番地２の７,,13,101,1010024,,,,,,,2022-12-26,1,,,,,ヨヨギイッチョウメプロジェクト,0
1562,8010401171539,新規,0,2022-12-26,2022-12-26,株式会社ＮＵＸＥ,,株式会社,東京都,港区,赤坂３丁目１番地１６号ＢＩビル６Ｆ,,13,103,1070052,,,,,,,2022-12-26,1,,,,,ニュクス,0
1563,8010401171555,新規,0,2022-12-26,2022-12-26,株式会社はるみか,,株式会社,東京都,港区,海岸１丁目１番１－３８０３号,,13,103,1050022,,,,,,,2022-12-26,1,,,,,ハルミカ,0
1566,8010405021681,新規,0,2022-12-26,2022-12-26,一般社団法人夢を叶える話し方協会,,その他の設立登記法人,東京都,港区,北青山２丁目７番１３号,,13,103,1070061,,,,,,,2022-12-26,1,,,,,ユメヲカナエルハナシカタキョウカイ,0
1570,8010703006517,新規,0,2022-12-26,2022-12-26,合同会社３０２,,合同会社,東京都,品川区,西五反田２丁目１４番１１号ゼコウレジデンス３０２,,13,109,1410031,,,,,,,2022-12-26,1,,,,,サンマルニ,0
1576,8011001151641,新規,0,2022-12-26,2022-12-26,株式会社Ｐｒｏｊｅｃｔ　Ａｓｔｅｒ,,株式会社,東京都,渋谷区,渋谷２丁目８番２号荻津ビル２階,,13,113,1500002,,,,,,,2022-12-26,1,,,,,プロジェクトアスター,0
1578,8011101101281,新規,0,2022-12-26,2022-12-26,株式会社イレストプラスホールディングス,,株式会社,東京都,新宿区,新宿２丁目１番９号,,13,104,1600022,,,,,,,2022-12-26,1,,,,,イレストプラスホールディングス,0
1579,8011101101307,新規,0,2022-12-26,2022-12-26,株式会社ＡＮＯＫＯ,,株式会社,東京都,新宿区,西新宿３丁目３番１３号西新宿水間ビル２Ｆ,,13,104,1600023,,,,,,,2022-12-26,1,,,,,アノコ,0
1580,8011103012535,新規,0,2022-12-26,2022-12-26,興遠合同会社,,合同会社,東京都,新宿区,百人町２丁目２０－２金子ハイツ４０３,,13,104,1690073,,,,,,,2022-12-26,1,,,,,キョウエン,0
1581,8011503005411,新規,0,2022-12-26,2022-12-26,安岡建装合同会社,,合同会社,東京都,荒川区,南千住５丁目６番１３－５０２号,,13,118,1160003,,,,,,,2022-12-26,1,,,,,ヤスオカケンソウ,0
1589,8012701017413,新規,0,2022-12-26,2022-12-26,リスペ・コンサル株式会社,,株式会社,東京都,東村山市,富士見町４丁目６番地１９,,13,213,1890024,,,,,,,2022-12-26,1,,,,,リスペコンサル,0
1603,8020003022965,新規,0,2022-12-26,2022-12-26,合同会社ウォームハンズ,,合同会社,神奈川県,横浜市栄区,鍛冶ケ谷２丁目２３番１２号,,14,115,2470009,,,,,,,2022-12-26,1,,,,,ウォームハンズ,0
1604,8020005015793,新規,0,2022-12-26,2022-12-26,特定非営利活動法人多様な学びプロジェクト,,その他の設立登記法人,神奈川県,川崎市高津区,新作１丁目２２番１３号１０４号室,,14,134,2130014,,,,,,,2022-12-26,1,,,,,タヨウナマナビプロジェクト,0
1606,8021001077778,新規,0,2022-12-26,2022-12-26,株式会社ＹＳ　Ｇｒｏｕｐ,,株式会社,神奈川県,横須賀市,岩戸３丁目１７番６－７号,,14,201,2390844,,,,,,,2022-12-26,1,,,,,ワイエスグループ,0
1607,8021001077794,新規,0,2022-12-26,2022-12-26,株式会社湘南マシンテック,,株式会社,神奈川県,小田原市,羽根尾５１０番地の１３,,14,206,2560804,,,,,,,2022-12-26,1,,,,,ショウナンマシンテック,0
1608,8021001077803,新規,0,2022-12-26,2022-12-26,パパママキッチン株式会社,,株式会社,神奈川県,大和市,大和東３丁目１２番２１－２０２号,,14,213,2420017,,,,,,,2022-12-26,1,,,,,パパママキッチン,0
1616,8030001151591,新規,0,2022-12-26,2022-12-26,株式会社ＳＡＭＴＥＣ,,株式会社,埼玉県,深谷市,東大沼３６番地１,,11,218,3660828,,,,,,,2022-12-26,1,,,,,サムテック,0
1617,8030001151625,新規,0,2022-12-26,2022-12-26,ＣＭＴ株式会社,,株式会社,埼玉県,川口市,大字安行北谷５４５番地の１,,11,203,3340054,,,,,,,2022-12-26,1,,,,,シーエムテー,0
1624,8040001126378,新規,0,2022-12-26,2022-12-26,株式会社フラフィー,,株式会社,千葉県,千葉市中央区,院内１丁目１１番４号ラ・モンターニュエット３０１号室,,12,101,2600018,,,,,,,2022-12-26,1,,,,,フラフィー,0
1626,8040003021544,新規,0,2022-12-26,2022-12-26,ポール，ボール＆ホール合同会社,,合同会社,千葉県,鴨川市,花房１２８２番地８,,12,223,2960032,,,,,,,2022-12-26,1,,,,,ポールボールアンドホール,0
1627,8040003021569,新規,0,2022-12-26,2022-12-26,合同会社ぞうさん農園,,合同会社,千葉県,南房総市,白浜町乙浜４８２番地６アベイル白浜１２０７,,12,234,2950101,,,,,,,2022-12-26,1,,,,,ゾウサンノウエン,0
1630,8050001052152,新規,0,2022-12-26,2022-12-26,株式会社ＦＶ　ＪＡＰＡＮ,,株式会社,茨城県,土浦市,神立町３７３９番地７号,,08,203,3000013,,,,,,,2022-12-26,1,,,,,エフブイジャパン,0
1632,8060001035552,新規,0,2022-12-26,2022-12-26,ＳＨＡＨＢＡＺ　ＴＲＡＤＩＮＧ株式会社,,株式会社,栃木県,栃木市,岩舟町曲ケ島４７０番地３,,09,203,3294306,,,,,,,2022-12-26,1,,,,,シャバズトレーディング,0
1637,8070001039949,新規,0,2022-12-26,2022-12-26,株式会社ＮＥＬＵＭＢＡ,,株式会社,群馬県,太田市,下浜田町９８３番地１モノリス１０８号,,10,205,3730821,,,,,,,2022-12-26,1,,,,,ネルンバ,0
1638,8070001039957,新規,0,2022-12-26,2022-12-26,株式会社ＩＤＥＡＬ,,株式会社,群馬県,伊勢崎市,中町６９６番地２,,10,204,3720822,,,,,,,2022-12-26,1,,,,,アイデアル,0
1644,8090003002218,新規,0,2022-12-26,2022-12-26,合同会社わらしべや,,合同会社,山梨県,笛吹市,境川町大窪９３７番地,,19,211,4060855,,,,,,,2022-12-26,1,,,,,ワラシベヤ,0
1646,8100001035993,新規,0,2022-12-26,2022-12-26,株式会社ＢＡＢＹ‐ＳＣＯＲＰＩＯＮ,,株式会社,長野県,千曲市,大字内川１１６番地,,20,218,3890802,,,,,,,2022-12-26,1,,,,,ベイビースコーピオン,0
1648,8110001037196,新規,0,2022-12-26,2022-12-26,株式会社カルチベイト,,株式会社,新潟県,燕市,中央通２丁目３番４３‐１号,,15,213,9591244,,,,,,,2022-12-26,1,,,,,カルチベイト,0
1659,8120001251250,新規,0,2022-12-26,2022-12-26,ＭＩＫＩ株式会社,,株式会社,大阪府,大阪市生野区,小路東６丁目８番１７号昭和エクセルビュー東大阪１０３－Ｇ１４,,27,116,5440003,,,,,,,2022-12-26,1,,,,,ミキ,0
1660,8120001251259,新規,0,2022-12-26,2022-12-26,乾豊株式会社,,株式会社,大阪府,大阪市生野区,小路東６丁目８番１７号昭和エクセルビュー東大阪１０３－Ｇ１２,,27,116,5440003,,,,,,,2022-12-26,1,,,,,カンホウ,0
1661,8120001251275,新規,0,2022-12-26,2022-12-26,ＮＴサポート株式会社,,株式会社,大阪府,大阪市浪速区,恵美須西２丁目１番１９号,,27,111,5560003,,,,,,,2022-12-26,1,,,,,エヌティーサポート,0
1664,8120005023365,新規,0,2022-12-26,2022-12-26,一般財団法人スマイルハート基金,,その他の設立登記法人,大阪府,大阪市淀川区,西中島４丁目２－２６天神第一ビル１００５号室,,27,123,5320011,,,,,,,2022-12-26,1,,,,,スマイルハートキキン,0
1665,8120101066714,新規,0,2022-12-26,2022-12-26,株式会社東山電設,,株式会社,大阪府,堺市中区,大野芝町３１４番地９,,27,142,5998233,,,,,,,2022-12-26,1,,,,,ヒガシヤマデンセツ,0
1666,8120103004993,新規,0,2022-12-26,2022-12-26,ＰＲＩＳＭ　ＤＥＳＩＧＮ合同会社,,合同会社,大阪府,堺市西区,浜寺諏訪森町中１丁５１番地１５,,27,144,5928348,,,,,,,2022-12-26,1,,,,,プリズムデザイン,0
1677,8140001128538,新規,0,2022-12-26,2022-12-26,株式会社ｎＸｓ,,株式会社,兵庫県,尼崎市,常吉２丁目５－１６,,28,202,6610042,,,,,,,2022-12-26,1,,,,,ノス,0
1680,8150001026047,新規,0,2022-12-26,2022-12-26,株式会社Ｔｈｕｍｂｅｌｉｎａ,,株式会社,奈良県,奈良市,七条町９５番地１メディカルプラザ薬師西の京４Ｆ,,29,201,6308051,,,,,,,2022-12-26,1,,,,,サンベリーナ,0
1685,8180001154308,新規,0,2022-12-26,2022-12-26,ＴＴＪＡＰＡＮ株式会社,,株式会社,愛知県,名古屋市中区,丸の内１丁目９番２７号,,23,106,4600002,,,,,,,2022-12-26,1,,,,,ティーティージャパン,0
1686,8180001154332,新規,0,2022-12-26,2022-12-26,４ｓｅａｓｏｎｓ株式会社,,株式会社,愛知県,名古屋市東区,葵３丁目２４番２号,,23,102,4610004,,,,,,,2022-12-26,1,,,,,フォーシーズンズ,0
1687,8180001154340,新規,0,2022-12-26,2022-12-26,株式会社ＫＡＴＯ企画,,株式会社,愛知県,名古屋市中区,千代田２丁目１９番２０号トーカンマンション鶴舞３０７号,,23,106,4600012,,,,,,,2022-12-26,1,,,,,カトウキカク,0
1706,8240001060805,新規,0,2022-12-26,2022-12-26,株式会社岡虎,,株式会社,広島県,福山市,幕山台３丁目１９番２８号,,34,207,7210913,,,,,,,2022-12-26,1,,,,,オカトラ,0
1710,8260003004130,新規,0,2022-12-26,2022-12-26,合同会社ＷＩＳＤＯＭ,,合同会社,岡山県,岡山市北区,東花尻７３番地１,,33,101,7010135,,,,,,,2022-12-26,1,,,,,ウィズダム,0
1717,8290001100011,新規,0,2022-12-26,2022-12-26,株式会社アバンフード,,株式会社,福岡県,大牟田市,大字甘木５０７番地１,,40,202,8370905,,,,,,,2022-12-26,1,,,,,アバンフード,0
1719,8290005018877,新規,0,2022-12-26,2022-12-26,特定非営利活動法人かしいヤングラガーズ,,その他の設立登記法人,福岡県,福岡市東区,下原１丁目１４番４号,,40,131,8130002,,,,,,,2022-12-26,1,,,,,,0
1720,8290005018885,新規,0,2022-12-26,2022-12-26,医療法人ＴＥＲＥＳＡ,,その他の設立登記法人,福岡県,福岡市中央区,大名１丁目２番５号イル・カセット６階,,40,133,8100041,,,,,,,2022-12-26,1,,,,,テレサ,0
1723,8290803004293,新規,0,2022-12-26,2022-12-26,合同会社ＴＫＭＳ,,合同会社,福岡県,遠賀郡水巻町,梅ノ木団地１番６０号,,40,382,8070006,,,,,,,2022-12-26,1,,,,,ティケーエムエス,0
1725,8290805009613,新規,0,2022-12-26,2022-12-26,医療法人ますだ歯科クリニック,,その他の設立登記法人,福岡県,北九州市小倉北区,高坊２丁目１０番９号リッツ霧ヶ丘１階,,40,106,8020053,,,,,,,2022-12-26,1,,,,,マスダシカクリニック,0
1731,8360001031356,新規,0,2022-12-26,2022-12-26,株式会社Ｖｉｔａ　Ｏｎｉｇｉｒｉ,,株式会社,沖縄県,豊見城市,字瀬長６８番地６,,47,212,9010233,,,,,,,2022-12-26,1,,,,,ヴィータオニギリ,0
1737,8370001049406,新規,0,2022-12-26,2022-12-26,株式会社Ｒｅｓｕｌｔ,,株式会社,宮城県,仙台市宮城野区,岩切字三所北１１７番地の１－Ｆ,,04,102,9830821,,,,,,,2022-12-26,1,,,,,リザルト,0
1742,8380001033350,新規,0,2022-12-26,2022-12-26,株式会社クロスボックス,,株式会社,福島県,白河市,旭町２丁目８９－１,,07,205,9610912,,,,,,,2022-12-26,1,,,,,クロスボックス,0
1763,8430001088091,新規,0,2022-12-26,2022-12-26,株式会社ＦＰｗｏｒｌｄ,,株式会社,北海道,札幌市中央区,南六条西１丁目５番地,,01,101,0640806,,,,,,,2022-12-26,1,,,,,エフピーワールド,0
1764,8430001088100,新規,0,2022-12-26,2022-12-26,日本通機株式会社,,株式会社,北海道,札幌市南区,澄川二条３丁目６－８,,01,106,0050002,,,,,,,2022-12-26,1,,,,,ニホンツウキ,0
1767,8430003014582,新規,0,2022-12-26,2022-12-26,合同会社Ｗｅｌｌ‐ｄｏｎｅ,,合同会社,北海道,伊達市,竹原町１７番地４８,,01,233,0520011,,,,,,,2022-12-26,1,,,,,ウェルダーン,0
1783,9010001231808,新規,0,2022-12-26,2022-12-26,ＳＢリード株式会社,,株式会社,東京都,中央区,八丁堀２丁目２１番６号,,13,102,1040032,,,,,,,2022-12-26,1,,,,,エスビーリード,0
1787,9010005035973,新規,0,2022-12-26,2022-12-26,一般社団法人新自民党をつくる会,,その他の設立登記法人,東京都,千代田区,永田町２丁目１１番１号山王パークタワー３階,,13,101,1000014,,,,,,,2022-12-26,1,,,,,シンジミントウヲツクルカイ,0
1788,9010005036022,新規,0,2022-12-26,2022-12-26,一般社団法人ＯＣＴＯＰＵＳ,,その他の設立登記法人,東京都,千代田区,三番町１番地８グラーサ三番町６０２号,,13,101,1020075,,,,,,,2022-12-26,1,,,,,オクトパス,0
1793,9010401171488,新規,0,2022-12-26,2022-12-26,株式会社ｓｉａｔｒｙ,,株式会社,東京都,港区,東麻布２丁目３５－１ＫＣビル６Ｆ,,13,103,1060044,,,,,,,2022-12-26,1,,,,,シアトリー,0
1794,9010401171579,新規,0,2022-12-26,2022-12-26,株式会社リンクス,,株式会社,東京都,港区,新橋３丁目１６番１２号横山第一ビル３階Ａ号室,,13,103,1050004,,,,,,,2022-12-26,1,,,,,リンクス,0
1801,9010801033544,新規,0,2022-12-26,2022-12-26,ソアリンコンサルティング株式会社,,株式会社,東京都,大田区,田園調布３丁目２２番１３号,,13,111,1450071,,,,,,,2022-12-26,1,,,,,ソアリンコンサルティング,0
1804,9010901052213,新規,0,2022-12-26,2022-12-26,株式会社ワイズヘルスケア,,株式会社,東京都,世田谷区,玉川１丁目１５番２号,,13,112,1580094,,,,,,,2022-12-26,1,,,,,ワイズヘルスケア,0
1805,9010905004409,新規,0,2022-12-26,2022-12-26,一般社団法人多摩川スポーツカルチャークラブ,,その他の設立登記法人,東京都,世田谷区,鎌田２丁目１２番１０－２０５号,,13,112,1570077,,,,,,,2022-12-26,1,,,,,タマガワスポーツカルチャークラブ,0
1810,9011001151582,新規,0,2022-12-26,2022-12-26,シュテルネコンサルティング株式会社,,株式会社,東京都,渋谷区,円山町５番５号Ｎａｖｉ渋谷Ｖ３階,,13,113,1500044,,,,,,,2022-12-26,1,,,,,シュテルネコンサルティング,0
1811,9011001151649,新規,0,2022-12-26,2022-12-26,株式会社Ｖ‐Ｂｏｏｋエデュテインメント,,株式会社,東京都,渋谷区,代々木２丁目３７－１５－４１８,,13,113,1510053,,,,,,,2022-12-26,1,,,,,ヴイブックエデュテインメント,0
1812,9011001151657,新規,0,2022-12-26,2022-12-26,株式会社うぷ,,株式会社,東京都,渋谷区,道玄坂１丁目１０番８号渋谷道玄坂東急ビル２Ｆ－Ｃ,,13,113,1500043,,,,,,,2022-12-26,1,,,,,ウプ,0
1814,9011003015983,新規,0,2022-12-26,2022-12-26,卯の花パン合同会社,,合同会社,東京都,目黒区,大岡山１丁目３１番１２号,,13,110,1520033,,,,,,,2022-12-26,1,,,,,ウノハナパン,0
1815,9011005009884,新規,0,2022-12-26,2022-12-26,一般社団法人メディカルフィット,,その他の設立登記法人,東京都,渋谷区,笹塚１丁目３０番３号ビラージュ笹塚ＩＩＩ５０１号室,00128900,13,113,1510073,,,,,,,2022-12-26,1,,,,,メディカルフィット,0
1819,9011103012526,新規,0,2022-12-26,2022-12-26,ＷａｙＦｉｎｄｅｒ合同会社,,合同会社,東京都,新宿区,内藤町１番地５３号ザパークハウス御苑内藤町５０７号室,,13,104,1600014,,,,,,,2022-12-26,1,,,,,ウェイファインダー,0
1829,9011803005449,新規,0,2022-12-26,2022-12-26,Ｓｏｎｕ＆Ｓｈｅｈｚａｄｉ　Ｃｏｒｐｏｒａｔｉｏｎ合同会社,,合同会社,東京都,足立区,栗原３丁目２６番１号２Ｆ,,13,121,1230842,,,,,,,2022-12-26,1,,,,,ソヌアンドセヘザディコーポレーション,0
1836,9013303006431,新規,0,2022-12-26,2022-12-26,長安合同会社,,合同会社,東京都,豊島区,池袋本町１丁目１５ー４パインズハウス１０２,,13,116,1700011,,,,,,,2022-12-26,1,,,,,チョウアン,0
1837,9013305003402,新規,0,2022-12-26,2022-12-26,一般社団法人ワタシタチのトキワ荘,,その他の設立登記法人,東京都,豊島区,西池袋３丁目３０－１１泰共フラットビル２０８号,,13,116,1710021,,,,,,,2022-12-26,1,,,,,ワタシタチノトキワソウ,0
1843,9020001149066,新規,0,2022-12-26,2022-12-26,ＣＯＣＯＲＯＮＯ株式会社,,株式会社,神奈川県,横浜市中区,相生町４丁目６７番地レジディア横濱馬車道８０６,,14,104,2310012,,,,,,,2022-12-26,1,,,,,ココロノ,0
1844,9020001149545,新規,0,2022-12-26,2022-12-26,株式会社ＬＡＮＤ．Ｎ,,株式会社,神奈川県,横浜市西区,北幸２丁目１０番２８号むつみビル３Ｆ,,14,103,2200004,,,,,,,2022-12-26,1,,,,,ランドエヌ,0
1845,9020001149553,新規,0,2022-12-26,2022-12-26,株式会社アイランドクエスト,,株式会社,神奈川県,川崎市中原区,木月４丁目４６番１８号,,14,133,2110025,,,,,,,2022-12-26,1,,,,,アイランドクエスト,0
1847,9020003022964,新規,0,2022-12-26,2022-12-26,合同会社ａｆｆｅｃｔ上大岡,,合同会社,神奈川県,横浜市中区,本牧町２丁目３１２番地１４ロサブリーズ本牧５０４号室,,14,104,2310806,,,,,,,2022-12-26,1,,,,,アフェクトカミオオオカ,0
1850,9021001077793,新規,0,2022-12-26,2022-12-26,株式会社トゥースマイル,,株式会社,神奈川県,厚木市,水引２丁目６番２３号コーポ水引１０３,,14,212,2430004,,,,,,,2022-12-26,1,,,,,トゥースマイル,0
1851,9021001077802,新規,0,2022-12-26,2022-12-26,諏訪冷機株式会社,,株式会社,神奈川県,厚木市,下川入３８９番地８,,14,212,2430206,,,,,,,2022-12-26,1,,,,,スワレイキ,0
1854,9021005012706,新規,0,2022-12-26,2022-12-26,一般社団法人逗子健康医療コンソーシアム,,その他の設立登記法人,神奈川県,逗子市,小坪４丁目８番９号,,14,208,2490008,,,,,,,2022-12-26,1,,,,,ズシケンコウイリョウコンソーシアム,0
1857,9030001151616,新規,0,2022-12-26,2022-12-26,株式会社エヌパッケージ,,株式会社,埼玉県,久喜市,高柳２４５８番地１,,11,232,3491125,,,,,,,2022-12-26,1,,,,,エヌパッケージ,0
1858,9030001151632,新規,0,2022-12-26,2022-12-26,ＹＨライン株式会社,,株式会社,埼玉県,川口市,大字東内野３４６番地の６,,11,203,3330821,,,,,,,2022-12-26,1,,,,,ワイエイチライン,0
1859,9030001151657,新規,0,2022-12-26,2022-12-26,東京友好国際株式会社,,株式会社,埼玉県,川口市,並木２丁目４１番９号九龍ビル２０１号室,,11,203,3320034,,,,,,,2022-12-26,1,,,,,トウキョウユウコウコクサイ,0
1865,9030003020819,新規,0,2022-12-26,2022-12-26,ＧＢパートナーズ合同会社,,合同会社,埼玉県,さいたま市大宮区,桜木町２丁目３番地大宮マルイ７階,,11,103,3300854,,,,,,,2022-12-26,1,,,,,ジービーパートナーズ,0
1873,9040001126360,新規,0,2022-12-26,2022-12-26,マザーライクホールディングス株式会社,,株式会社,千葉県,松戸市,栄町西３丁目１０４５番地,,12,207,2710061,,,,,,,2022-12-26,1,,,,,マザーライクホールディングス,0
1875,9040003021568,新規,0,2022-12-26,2022-12-26,ＡＬ‐ＤＨＡＲＡ　ＭＯＴＯＲＳ合同会社,,合同会社,千葉県,山武市,川崎１４８番地１０,,12,237,2891331,,,,,,,2022-12-26,1,,,,,アルダーラモータース,0
1876,9050001052151,新規,0,2022-12-26,2022-12-26,株式会社雅興業,,株式会社,茨城県,筑西市,小川１３９１番地３８６,,08,227,3080857,,,,,,,2022-12-26,1,,,,,ミヤビコウギョウ,0
1889,9080403004680,新規,0,2022-12-26,2022-12-26,合同会社ＤＸカスタムガレージ,,合同会社,静岡県,袋井市,湊３２８８－１,,22,216,4371115,,,,,,,2022-12-26,1,,,,,ディーエックスカスタムガレージ,0
1890,9080405007509,新規,0,2022-12-26,2022-12-26,一般社団法人学生支援起業マインド醸成推進会,,その他の設立登記法人,静岡県,浜松市中区,元浜町２２０番地,,22,131,4300942,,,,,,,2022-12-26,1,,,,,ガクセイシエンキギョウマインドジョウセイスイシンカイ,0
1897,9120001107559,新規,0,2022-12-26,2022-12-26,株式会社ジロー,,株式会社,大阪府,大阪市中央区,瓦屋町１丁目８番１６号,,27,128,5420066,,,,,,,2022-12-26,1,,,,,ジロー,0
1905,9120001251349,新規,0,2022-12-26,2022-12-26,株式会社イグレック,,株式会社,大阪府,大阪市中央区,淡路町３丁目４番８－３００１号,,27,128,5410047,,,,,,,2022-12-26,1,,,,,イグレック,0
1906,9120001251357,新規,0,2022-12-26,2022-12-26,東川商事株式会社,,株式会社,大阪府,大阪市平野区,平野本町１丁目１番６号ツインコート平野１番館Ａ７０２号室,,27,126,5470044,,,,,,,2022-12-26,1,,,,,ヒガシガワショウジ,0
1911,9120101066713,新規,0,2022-12-26,2022-12-26,株式会社Ｗｉｔｈ,,株式会社,大阪府,堺市北区,百舌鳥陵南町３丁４３１番地,,27,146,5918034,,,,,,,2022-12-26,1,,,,,ウィズ,0
1913,9120103004992,新規,0,2022-12-26,2022-12-26,合同会社トライジャパン,,合同会社,大阪府,堺市堺区,新在家町西３丁２番６－２０４号,,27,141,5900969,,,,,,,2022-12-26,1,,,,,トライジャパン,0
1914,9120901046906,新規,0,2022-12-26,2022-12-26,株式会社ＧＡＲＡＧＥ３２１,,株式会社,大阪府,茨木市,西福井１丁目１番８号,,27,211,5670067,,,,,,,2022-12-26,1,,,,,ガレージサニー,0
1916,9122001036523,新規,0,2022-12-26,2022-12-26,株式会社臼杵技研工業,,株式会社,大阪府,東大阪市,西堤本通東２丁目２番２２号,,27,227,5770045,,,,,,,2022-12-26,1,,,,,ウスキギケンコウギョウ,0
1924,9140001128512,新規,0,2022-12-26,2022-12-26,株式会社ＫＡＷＡＢＥ,,株式会社,兵庫県,加古川市,新神野３丁目１番１３号,,28,210,6750008,,,,,,,2022-12-26,1,,,,,カワベ,0
1925,9140001128520,新規,0,2022-12-26,2022-12-26,ＡＩＲＩ株式会社,,株式会社,兵庫県,三田市,弥生が丘６丁目２－３－２０１,,28,219,6691546,,,,,,,2022-12-26,1,,,,,アイリ,0
1926,9140001128529,新規,0,2022-12-26,2022-12-26,株式会社Ｎｅｘｔ　ｉｎｎｏｖａｔｉｏｎ,,株式会社,兵庫県,姫路市,南町６５番地大手前ビル２階,,28,201,6700912,,,,,,,2022-12-26,1,,,,,ネクストイノベーション,0
1927,9140001128537,新規,0,2022-12-26,2022-12-26,株式会社ゆめたく工房,,株式会社,兵庫県,尼崎市,武庫町２丁目１９番２５号Ｃ棟１０１号,,28,202,6610044,,,,,,,2022-12-26,1,,,,,ユメタクコウボウ,0
1938,9180003024648,新規,0,2022-12-26,2022-12-26,茜トラスト合同会社,,合同会社,愛知県,常滑市,北条２丁目１１６番地２,,23,216,4790833,,,,,,,2022-12-26,1,,,,,アカネトラスト,0
1947,9200005013431,新規,0,2022-12-26,2022-12-26,一般社団法人ＳＧＳ,,その他の設立登記法人,岐阜県,大垣市,早苗町１丁目１番地,,21,202,5030821,,,,,,,2022-12-26,1,,,,,エスジーエス,0
1949,9240001060853,新規,0,2022-12-26,2022-12-26,彩のそよ風株式会社,,株式会社,広島県,福山市,本郷町上立石１９３５－１,,34,207,7290252,,,,,,,2022-12-26,1,,,,,サイノソヨカゼ,0
1953,9290001100019,新規,0,2022-12-26,2022-12-26,株式会社川口イベント企画,,株式会社,福岡県,福岡市東区,多々良２丁目２５番１２号,,40,131,8130033,,,,,,,2022-12-26,1,,,,,カワグチイベントキカク,0
1956,9290003013326,新規,0,2022-12-26,2022-12-26,ゼネラルシティリサーチ合同会社,,合同会社,福岡県,福岡市南区,曰佐２丁目９－１２セントポーリア２－１０２,,40,134,8111313,,,,,,,2022-12-26,1,,,,,ゼネラルシティリサーチ,0
1957,9290801029143,新規,0,2022-12-26,2022-12-26,株式会社アロンジェ,,株式会社,福岡県,北九州市小倉北区,中津口１丁目９番４号,,40,106,8020018,,,,,,,2022-12-26,1,,,,,アロンジェ,0
1958,9290805009612,新規,0,2022-12-26,2022-12-26,一般社団法人九州脱炭素都市創出ユニット,,その他の設立登記法人,福岡県,行橋市,大字下津熊８６４番地１１,,40,213,8240062,,,,,,,2022-12-26,1,,,,,キュウシュウダツタンソトシソウシュツユニット,0
1962,9320003003975,新規,0,2022-12-26,2022-12-26,合同会社ＳＵＲＡＲＩ,,合同会社,大分県,大分市,大字駄原２０８７番地の５５,,44,201,8700100,,,,,,,2022-12-26,1,,,,,スラリ,0
1964,9330003009641,新規,0,2022-12-26,2022-12-26,合同会社脇岬事務所,,合同会社,熊本県,熊本市中央区,新町１丁目２番３－４０４号,,43,101,8600004,,,,,,,2022-12-26,1,,,,,ワキミサキジムショ,0
1969,9360003012592,新規,0,2022-12-26,2022-12-26,合同会社ＷＡＴＥＲ　ＣＹＣＬＥ,,合同会社,沖縄県,中頭郡北谷町,字宮城１番地２６９前里アパートＡ２Ｆ,,47,326,9040113,,,,,,,2022-12-26,1,,,,,ウォーターサイクル,0
1984,9400001016104,新規,0,2022-12-26,2022-12-26,アドマネジメント株式会社,,株式会社,岩手県,盛岡市,中央通１丁目７－３５コアフィールドモリオカ１Ｆ,,03,201,0200021,,,,,,,2022-12-26,1,,,,,アドマネジメント,0
1985,9430001088099,新規,0,2022-12-26,2022-12-26,株式会社ＰＩＴ　ＲＡＣＩＮＧ　ＦＡＲＭ,,株式会社,北海道,新冠郡新冠町,字西泊津１３番地の１０,,01,604,0592418,,,,,,,2022-12-26,1,,,,,ピットレーシングファーム,0
1989,9450003002279,新規,0,2022-12-26,2022-12-26,合同会社川西工業,,合同会社,北海道,名寄市,字徳田２６０番地１１,,01,221,0960071,,,,,,,2022-12-26,1,,,,,カワニシコウギョウ,0
1995,9500001024674,新規,0,2022-12-26,2022-12-26,株式会社幸大商店,,株式会社,愛媛県,北宇和郡松野町,大字延野々１０１４番地１,,38,484,7982102,,,,,,,2022-12-26,1,,,,,コウダイショウテン,0
