sequenceNumber,corporateNumber,process,correct,updateDate,changeDate,name,nameImageId,kind,prefectureName,cityName,streetNumber,addressImageId,prefectureCode,cityCode,postCode,addressOutside,addressOutsideImageId,closeDate,closeCause,successorCorporateNumber,changeCause,assignmentDate,latest,enName,enPrefectureName,enCityName,enAddressOutside,furigana,hihyoji
2,1010001089493,登記記録の閉鎖等,0,2023-07-18,2023-07-05,株式会社秀建築設計,,株式会社,東京都,文京区,弥生２丁目１５番１３号,,13,105,1130032,,,2023-07-05,清算の結了等,,,2015-10-05,1,,,,,シュウケンチクセッケイ,0
5,1010001140339,登記記録の閉鎖等,0,2023-07-18,2023-07-04,リーダーシップ・コンサルティング株式会社,,株式会社,東京都,中央区,東日本橋２丁目２８番４号日本橋ＣＥＴビル２階,,13,102,1030004,,,2023-07-04,清算の結了等,,,2015-10-05,1,,,,,リーダーシップコンサルティング,0
16,1010401165415,登記記録の閉鎖等,0,2023-07-18,2023-06-30,株式会社エーラーワン,,株式会社,東京都,港区,南青山１丁目２０－２乃木坂ビジネスコート１階,,13,103,1070062,,,2023-06-30,清算の結了等,,,2022-02-04,1,,,,,エーラーワン,0
27,1010502015221,登記記録の閉鎖等,0,2023-07-18,2023-07-12,鯨井貿易有限会社,,有限会社,東京都,台東区,竜泉３丁目１４番９－１００２号,,13,106,1100012,,,2023-07-12,清算の結了等,,,2015-10-05,1,,,,,,0
43,1010802001301,登記記録の閉鎖等,0,2023-07-18,2023-07-12,有限会社伊藤精機製作所,,有限会社,東京都,大田区,西糀谷３丁目２３番２号,,13,111,1440034,,,2023-07-12,清算の結了等,,,2015-10-05,1,,,,,イトウセイキセイサクショ,0
64,1011201006214,登記記録の閉鎖等,0,2023-07-18,2023-07-11,株式会社エムエステック,,株式会社,東京都,豊島区,南池袋２丁目２３番２号,,13,116,1710022,,,2023-07-11,合併による解散等,3011301007762,令和５年７月１日東京都杉並区下高井戸三丁目３番６号ロイヤル・ビル管理株式会社（3011301007762）に合併し解散,2015-10-05,1,,,,,エムエステック,0
73,1011601020426,登記記録の閉鎖等,0,2023-07-18,2023-07-05,株式会社アプリス,,株式会社,東京都,渋谷区,神泉町１１－９－５０１,,13,113,1500045,,,2023-07-05,清算の結了等,,,2015-10-19,1,,,,,アプリス,0
77,1011801011092,登記記録の閉鎖等,0,2023-07-18,2023-07-11,株式会社ノービー印刷,,株式会社,東京都,足立区,千住緑町３丁目６番９号,,13,121,1200044,,,2023-07-11,清算の結了等,,,2015-10-05,1,,,,,ノービーインサツ,0
115,1030001107600,登記記録の閉鎖等,0,2023-07-18,2023-06-21,株式会社クレストプランニング,,株式会社,埼玉県,上尾市,緑丘５丁目９番６号,,11,219,3620015,,,2023-06-21,清算の結了等,,,2015-10-05,1,,,,,クレストプランニング,0
117,1030002022740,登記記録の閉鎖等,0,2023-07-18,2023-07-04,拓トラスト株式会社,,株式会社,東京都,中央区,日本橋人形町３丁目８番１号ＴＴ－２ビル９階,,13,102,1030013,,,2023-07-04,清算の結了等,,,2015-10-05,1,,,,,ヒラキトラスト,0
119,1030003006296,登記記録の閉鎖等,0,2023-07-18,2023-06-28,太陽商店合同会社,,合同会社,埼玉県,さいたま市大宮区,大成町３丁目３９６番地２大宮パークホームズ５０１,,11,103,3300852,,,2023-06-28,清算の結了等,,,2015-10-05,1,,,,,タイヨウショウテン,0
137,1080405006773,登記記録の閉鎖等,0,2023-07-18,2023-07-11,一般社団法人きりやま針灸整骨院,,その他の設立登記法人,静岡県,菊川市,嶺田２２４５番地の６,,22,224,4371522,,,2023-07-11,清算の結了等,,,2015-10-05,1,,,,,キリヤマシンキュウセイコツイン,0
146,1120001006982,登記記録の閉鎖等,0,2023-07-18,2023-07-13,株式会社植屋工務店,,株式会社,大阪府,大阪市都島区,都島中通２丁目１８番２号,,27,102,5340022,,,2023-07-13,清算の結了等,,,2015-10-05,1,,,,,ウエヤコウムテン,0
153,1120001163691,登記記録の閉鎖等,0,2023-07-18,2023-07-11,リジエルイノベーション株式会社,,株式会社,大阪府,大阪市西区,立売堀１丁目２番１２号,,27,106,5500012,,,2023-07-11,清算の結了等,,,2015-10-05,1,,,,,リジエルイノベーション,0
180,1122001022811,登記記録の閉鎖等,0,2023-07-18,2023-07-11,株式会社スマイル金属工業所,,株式会社,大阪府,八尾市,南本町７丁目１番３５号,,27,212,5810081,,,2023-07-11,清算の結了等,,,2015-10-05,1,,,,,スマイルキンゾクコウギョウショ,0
181,1130001018069,登記記録の閉鎖等,0,2023-07-18,2023-07-03,中信興産株式会社,,株式会社,京都府,京都市南区,東九条南石田町４１番地,,26,107,6018033,,,2023-07-03,合併による解散等,2130001015065,令和５年７月１日京都市伏見区中島外山町８番地中信ビジネスサービス株式会社（2130001015065）に合併し解散,2015-10-05,1,,,,,チュウシンコウサン,0
186,1130002029701,登記記録の閉鎖等,0,2023-07-18,2023-07-03,有限会社ティ・ワイ,,有限会社,京都府,相楽郡精華町,大字柘榴小字垣内３５番地,,26,366,6190234,,,2023-07-03,清算の結了等,,,2015-10-05,1,,,,,ティワイ,0
218,1180302007939,登記記録の閉鎖等,0,2023-07-18,2023-07-05,有限会社伸和電子,,有限会社,愛知県,豊橋市,上野町字新上野１２番地の３４,,23,201,4418157,,,2023-07-05,清算の結了等,,,2015-10-05,1,,,,,シンワデンシ,0
220,1190002011281,登記記録の閉鎖等,0,2023-07-18,2023-07-04,有限会社尾間設備工業,,有限会社,三重県,志摩市,阿児町鵜方２１２４番地１,,24,215,5170501,,,2023-07-04,清算の結了等,,,2015-10-05,1,,,,,オマセツビコウギョウ,0
233,1260001017784,登記記録の閉鎖等,0,2023-07-18,2023-07-03,株式会社スタンドワン,,株式会社,岡山県,笠岡市,笠岡４３０５番地２,,33,205,7140081,,,2023-07-03,合併による解散等,3260001017832,令和５年７月１日岡山県笠岡市笠岡４２９５番地の６株式会社トピア（3260001017832）に合併し解散,2015-10-05,1,,,,,スタンドワン,0
240,1290001006545,登記記録の閉鎖等,0,2023-07-18,2023-07-03,株式会社エフシーエス,,株式会社,福岡県,福岡市中央区,渡辺通５丁目２３番８号（サンライトビル内）,,40,133,8100004,,,2023-07-03,合併による解散等,9290001002108,令和５年７月１日福岡市南区大橋四丁目２５番３０号ベルエール大橋２階株式会社ＦＣＣテクノ（9290001002108）に合併し解散,2015-10-05,1,,,,,エフシーエス,0
242,1290002010298,登記記録の閉鎖等,0,2023-07-18,2023-07-03,有限会社かわはら,,有限会社,福岡県,福岡市中央区,桜坂２丁目４番９号,,40,133,8100024,,,2023-07-03,合併による解散等,4290002021771,令和５年７月１日福岡市中央区桜坂二丁目４番９号株式会社リバーズ（4290002021771）に合併し解散,2015-10-05,1,,,,,カワハラ,0
245,1290801011694,登記記録の閉鎖等,0,2023-07-18,2023-07-04,株式会社明菱物流,,株式会社,福岡県,北九州市八幡西区,黒崎城石１番２号,,40,109,8060004,,,2023-07-04,合併による解散等,8290801009732,令和５年７月１日北九州市八幡西区黒崎城石１番２号オリオ精機株式会社（8290801009732）に合併し解散,2015-10-05,1,,,,,メイリョウブツリュウ,0
250,1290805005528,登記記録の閉鎖等,0,2023-07-18,2023-07-07,筑豊地区資源リサイクル事業協同組合,,その他の設立登記法人,福岡県,直方市,大字頓野３１３６番地の１,,40,204,8220002,,,2023-07-07,清算の結了等,,,2015-10-05,1,,,,,チクホウチクシゲンリサイクル,0
251,1310002014478,登記記録の閉鎖等,0,2023-07-18,2023-07-06,有限会社ふるさと製麺,,有限会社,長崎県,南松浦郡新上五島町,奈良尾郷８２２番地１,,42,411,8533101,,,2023-07-06,清算の結了等,,,2015-10-05,1,,,,,フルサトセイメン,0
273,1380002026954,登記記録の閉鎖等,0,2023-07-18,2023-07-07,有限会社丸智運送,,有限会社,福島県,いわき市,中央台鹿島１丁目２７番地の１２,,07,204,9708043,,,2023-07-07,清算の結了等,,,2015-10-05,1,,,,,マルトモウンソウ,0
274,1380002032696,登記記録の閉鎖等,0,2023-07-18,2023-06-29,有限会社新田製材所,,有限会社,福島県,会津若松市,湊町大字赤井字四ツ谷３０２番地,,07,202,9650201,,,2023-06-29,清算の結了等,,,2015-10-05,1,,,,,ニッタセイザイショ,0
293,1450001008310,登記記録の閉鎖等,0,2023-07-18,2023-07-10,株式会社丸ヱ寺江商店,,株式会社,北海道,稚内市,宝来５丁目３番３８－１０２号市営住宅宝来団地１５－１,,01,214,0970024,,,2023-07-10,清算の結了等,,,2015-10-05,1,,,,,マルエテラエショウテン,0
298,1500002007041,登記記録の閉鎖等,0,2023-07-18,2023-07-13,有限会社山崎工業,00007811,有限会社,愛媛県,松山市,古三津１丁目２３番１号,,38,201,7918067,,,2023-07-13,清算の結了等,,,2015-10-05,1,,,,,ヤマザキコウギョウ,0
301,2010001037633,登記記録の閉鎖等,0,2023-07-18,2023-07-12,株式会社ウィトンズ,,株式会社,東京都,新宿区,赤城下町３０番地パールモア一交３Ｆ,,13,104,1620803,,,2023-07-12,清算の結了等,,,2015-10-05,1,,,,,ウィトンズ,0
304,2010001168478,登記記録の閉鎖等,0,2023-07-18,2023-07-10,シンセラ・テクノロジーズ株式会社,,株式会社,東京都,千代田区,九段南１丁目５番１０号,,13,101,1020074,,,2023-07-10,合併による解散等,6320001007584,令和５年７月１日大分県宇佐市大字上田１７７０番地の１アドテック株式会社（6320001007584）に合併し解散,2015-10-05,1,,,,,,0
337,2010601029179,登記記録の閉鎖等,0,2023-07-18,2023-07-10,ライオンコーディアルサポート株式会社,,株式会社,東京都,台東区,蔵前１丁目３番２８号,,13,106,1110051,,,2023-07-10,合併による解散等,3010601016878,令和５年７月１日東京都台東区蔵前一丁目３番２８号ライオンビジネスサービス株式会社（3010601016878）に合併し解散,2015-10-05,1,,,,,ライオンコーディアルサポート,0
384,2021001022979,登記記録の閉鎖等,0,2023-07-18,2023-07-07,株式会社パブリック,,株式会社,神奈川県,秦野市,渋沢２丁目２４番２２号,,14,211,2591322,,,2023-07-07,清算の結了等,,,2015-10-05,1,,,,,パブリック,0
395,2030002062777,登記記録の閉鎖等,0,2023-07-18,2023-06-12,有限会社猪又工務店,,有限会社,埼玉県,富士見市,山室２丁目２３番３２号,,11,235,3540022,,,2023-06-12,清算の結了等,,,2015-10-05,1,,,,,,0
406,2050002010180,登記記録の閉鎖等,0,2023-07-18,2023-07-07,有限会社写真のさくらい,,有限会社,茨城県,笠間市,石井１１０７番地,,08,216,3091613,,,2023-07-07,清算の結了等,,,2015-10-05,1,,,,,シャシンノサクライ,0
412,2080101004089,登記記録の閉鎖等,0,2023-07-18,2023-07-12,株式会社サンハイム,,株式会社,静岡県,御殿場市,東田中３丁目２番２５号,,22,215,4120026,,,2023-07-12,清算の結了等,,,2015-10-05,1,,,,,,0
414,2080402001256,登記記録の閉鎖等,0,2023-07-18,2023-07-11,有限会社エスエー工業,,有限会社,静岡県,浜松市北区,都田町９５７１番地の４,,22,135,4312102,,,2023-07-11,清算の結了等,,,2015-10-05,1,,,,,エスエーコウギョウ,0
427,2120001014126,登記記録の閉鎖等,0,2023-07-18,2023-07-14,青山産業印刷株式会社,,株式会社,大阪府,大阪市城東区,蒲生１丁目１番１０号,,27,118,5360016,,,2023-07-14,清算の結了等,,,2015-10-05,1,,,,,アオヤマサンギョウインサツ,0
430,2120001044924,登記記録の閉鎖等,0,2023-07-18,2023-07-06,大泉商事株式会社,,株式会社,大阪府,大阪市西区,西本町２丁目２番４号,,27,106,5500005,,,2023-07-06,合併による解散等,5120001043163,令和５年７月１日大阪市西区西本町二丁目２番４号コウトク商事株式会社（5120001043163）に合併し解散,2015-10-05,1,,,,,オオイズミショウジ,0
437,2120001233535,登記記録の閉鎖等,0,2023-07-18,2023-07-11,株式会社ファッションＮＣ,,株式会社,大阪府,大阪市中央区,農人橋２丁目１番３５号,,27,128,5400011,,,2023-07-11,清算の結了等,,,2020-12-04,1,,,,,ファッションエヌシー,0
474,2140002013042,登記記録の閉鎖等,0,2023-07-18,2023-07-11,エーアンドシー・エンタープライズ有限会社,,有限会社,兵庫県,神戸市兵庫区,塚本通５丁目１番２１－１１０８,,28,105,6520804,,,2023-07-11,清算の結了等,,,2015-10-05,1,,,,,エーアンドシーエンタープライズ,0
476,2140002061561,登記記録の閉鎖等,0,2023-07-18,2023-07-10,有限会社さんたん通信設備,,有限会社,兵庫県,丹波市,氷上町新郷７２３番地,,28,223,6693571,,,2023-07-10,清算の結了等,,,2015-10-05,1,,,,,サンタンツウシンセツビ,0
485,2180001001721,登記記録の閉鎖等,0,2023-07-18,2023-07-13,株式会社エーディ・マテリアル,,株式会社,愛知県,名古屋市名東区,八前２丁目６０８番地,,23,115,4650018,,,2023-07-13,清算の結了等,,,2015-10-05,1,,,,,エーディマテリアル,0
512,2210001011642,登記記録の閉鎖等,0,2023-07-18,2023-07-04,株式会社サユリ洋装店,,株式会社,福井県,越前市,蓬莱町５番１８号,00081196,18,209,9150074,,,2023-07-04,清算の結了等,,,2015-10-05,1,,,,,サユリヨウソウテン,0
515,2230001007762,登記記録の閉鎖等,0,2023-07-18,2023-07-12,株式会社イー・エス・イー,,株式会社,富山県,滑川市,法花寺２３３番地,,16,206,9360885,,,2023-07-12,合併による解散等,6230001007882,令和５年７月１日富山県滑川市法花寺２３３番地北陸電機製造株式会社（6230001007882）に合併し解散,2015-10-05,1,,,,,イーエスイー,0
532,2290801013021,登記記録の閉鎖等,0,2023-07-18,2023-07-10,株式会社Ｓ．Ｒ．Ｓ,,株式会社,福岡県,北九州市若松区,青葉台南２丁目５番８号,,40,103,8080142,,,2023-07-10,清算の結了等,,,2015-10-05,1,,,,,エスアールエス,0
538,2310001014668,登記記録の閉鎖等,0,2023-07-18,2023-07-05,雲仙みらいかたる株式会社,,株式会社,長崎県,雲仙市,小浜町北野７３９番地,,42,213,8540515,,,2023-07-05,清算の結了等,,,2017-01-12,1,,,,,ウンゼンミライカタル,0
540,2320202000739,登記記録の閉鎖等,0,2023-07-18,2023-07-11,有限会社松岡水道工業,,有限会社,大分県,津久見市,大字津久見２５５９番地の１,,44,207,8792421,,,2023-07-11,清算の結了等,,,2015-10-05,1,,,,,,0
543,2330001009542,登記記録の閉鎖等,0,2023-07-18,2023-07-12,富士フイルム九州株式会社,,株式会社,熊本県,菊池郡菊陽町,大字津久礼２９００番地,,43,404,8691101,,,2023-07-12,合併による解散等,6021001033816,令和５年７月１日神奈川県南足柄市中沼２１０番地富士フイルムマテリアルマニュファクチャリング株式会社（6021001033816）に合併し解散,2015-10-05,1,,,,,フジフイルムキュウシュウ,0
546,2330005008532,登記記録の閉鎖等,0,2023-07-18,2023-06-30,医療法人藤木会,,その他の設立登記法人,熊本県,熊本市東区,戸島西３丁目２番４５号,,43,102,8618043,,,2023-06-30,清算の結了等,,,2015-10-05,1,,,,,フジキカイ,0
552,2350002012915,登記記録の閉鎖等,0,2023-07-18,2023-07-05,樋口造林有限会社,00100851,有限会社,宮崎県,延岡市,北方町上鹿川申６９６番地,,45,203,8820231,,,2023-07-05,清算の結了等,,,2015-10-05,1,,,,,ヒグチゾウリン,0
583,2430002006248,登記記録の閉鎖等,0,2023-07-18,2023-06-29,有限会社旭西商事,,有限会社,北海道,札幌市東区,北二十四条東１７丁目２番２８号,,01,103,0650024,,,2023-06-29,清算の結了等,,,2015-10-05,1,,,,,キョクセイショウジ,0
614,3010005018380,登記記録の閉鎖等,0,2023-07-18,2023-07-07,特定非営利活動法人患者安全・質協会,,その他の設立登記法人,東京都,千代田区,丸の内１丁目１１番１号パシフィックセンチュリープレイス８階,,13,101,1000005,,,2023-07-07,清算の結了等,,,2015-10-05,1,,,,,カンジャアンゼンシツキョウカイ,0
624,3010401157402,登記記録の閉鎖等,0,2023-07-18,2023-06-30,Ｓｐｅｅｄｙ株式会社,,株式会社,東京都,港区,港南１丁目８番２３－２３０５号,,13,103,1080075,,,2023-06-30,清算の結了等,,,2021-01-05,1,,,,,スピーディー,0
653,3011005003422,登記記録の閉鎖等,0,2023-07-18,2023-07-05,特定非営利活動法人経営能力開発センター,,その他の設立登記法人,東京都,渋谷区,千駄ヶ谷３丁目１１番８号,,13,113,1510051,,,2023-07-05,清算の結了等,,,2015-10-05,1,,,,,ケイエイノウリョクカイハツセンター,0
673,3012403005167,登記記録の閉鎖等,0,2023-07-18,2023-07-12,ナパストリートプランニング合同会社,,合同会社,東京都,武蔵野市,吉祥寺本町１丁目２５－１０ＫＳ－２ビル３Ｆ,,13,203,1800004,,,2023-07-12,清算の結了等,,,2021-12-23,1,,,,,ナパストリートプランニング,0
714,3040005005005,登記記録の閉鎖等,0,2023-07-18,2023-06-26,松戸タクシー事業協同組合,,その他の設立登記法人,千葉県,松戸市,千駄堀１５４７番地,,12,207,2702252,,,2023-06-26,清算の結了等,,,2015-10-05,1,,,,,マツドタクシー,0
741,3120001037852,登記記録の閉鎖等,0,2023-07-18,2023-07-13,株式会社木本鉄工所,,株式会社,大阪府,大阪市浪速区,塩草３丁目６番１７号,,27,111,5560024,,,2023-07-13,清算の結了等,,,2015-10-05,1,,,,,キモトテッコウショ,0
744,3120001148229,登記記録の閉鎖等,0,2023-07-18,2023-07-13,中和興産株式会社,,株式会社,大阪府,寝屋川市,清水町４３番１８号,,27,215,5720044,,,2023-07-13,清算の結了等,,,2015-10-05,1,,,,,チュウワコウサン,0
752,3120001246817,登記記録の閉鎖等,0,2023-07-18,2023-07-13,花園ＩＮＮ株式会社,,株式会社,大阪府,大阪市西区,江戸堀１丁目２５番３０号,,27,106,5500002,,,2023-07-13,清算の結了等,,,2022-06-22,1,,,,,ハナゾノイン,0
768,3120102017464,登記記録の閉鎖等,0,2023-07-18,2023-07-14,有限会社新和霊柩,,有限会社,大阪府,富田林市,山中田町１丁目１７番２号,,27,214,5840045,,,2023-07-14,清算の結了等,,,2015-10-05,1,,,,,シンワレイキュウ,0
778,3140001045713,登記記録の閉鎖等,0,2023-07-18,2023-07-10,株式会社宮野精肉店,,株式会社,兵庫県,加古川市,加古川町篠原町２１番地の８,,28,210,6750065,,,2023-07-10,清算の結了等,,,2015-10-05,1,,,,,,0
779,3140001047602,登記記録の閉鎖等,0,2023-07-18,2023-07-10,株式会社阿波屋,,株式会社,兵庫県,尼崎市,南七松町１丁目５番１号,,28,202,6600053,,,2023-07-10,清算の結了等,,,2015-10-05,1,,,,,アワヤ,0
784,3140002066808,登記記録の閉鎖等,0,2023-07-18,2023-07-11,有限会社ケイ・エイチ・エス,,有限会社,兵庫県,宝塚市,中山五月台７丁目２番１０１３号,,28,214,6650871,,,2023-07-11,清算の結了等,,,2015-10-05,1,,,,,ケイエイチエス,0
797,3180001089780,登記記録の閉鎖等,0,2023-07-18,2023-07-10,株式会社ホスピタリティ宮システムズ,,株式会社,愛知県,稲沢市,西町３丁目２２４番地,,23,220,4928218,,,2023-07-10,清算の結了等,,,2015-10-05,1,,,,,ホスピタリティミヤシステムズ,0
809,3180302000396,登記記録の閉鎖等,0,2023-07-18,2023-07-10,有限会社岩本金型,,有限会社,愛知県,岡崎市,福岡町字毘沙門４０番地,,23,202,4440825,,,2023-07-10,清算の結了等,,,2015-10-05,1,,,,,イワモトカナガタ,0
810,3200001015817,登記記録の閉鎖等,0,2023-07-18,2023-07-04,株式会社コスモテック,,株式会社,岐阜県,大垣市,東前３丁目３０番地の８,,21,202,5030835,,,2023-07-04,清算の結了等,,,2015-10-05,1,,,,,コスモテック,0
863,3460302000616,登記記録の閉鎖等,0,2023-07-18,2023-07-14,有限会社ゴウダ,,有限会社,北海道,北見市,南町１丁目５番１号,,01,208,0900806,,,2023-07-14,清算の結了等,,,2015-10-05,1,,,,,ゴウダ,0
873,4010001137646,登記記録の閉鎖等,0,2023-07-18,2023-07-12,オーエムワンキャピタル株式会社,,株式会社,東京都,品川区,上大崎２丁目５番２号,,13,109,1410021,,,2023-07-12,合併による解散等,8010001039707,令和５年７月１日東京都中央区日本橋富沢町１３番３号株式会社オリンピア（8010001039707）に合併し解散,2015-10-05,1,,,,,オーエムワンキャピタル,0
884,4010401090536,登記記録の閉鎖等,0,2023-07-18,2023-07-12,築キャピタル株式会社,,株式会社,東京都,世田谷区,瀬田１丁目２９番１５－５０６号,,13,112,1580095,,,2023-07-12,清算の結了等,,,2015-10-05,1,,,,,キズキキャピタル,0
910,4011101060300,登記記録の閉鎖等,0,2023-07-18,2023-07-03,関東セーフティ警備株式会社,,株式会社,神奈川県,横浜市神奈川区,金港町２番地６,,14,102,2210056,,,2023-07-03,合併による解散等,9020001114202,令和５年７月１日横浜市神奈川区金港町２番地６日本特殊車輌サービス株式会社（9020001114202）に合併し解散,2015-10-05,1,,,,,カントウセーフティケイビ,0
916,4011105007537,登記記録の閉鎖等,0,2023-07-18,2023-07-11,一般社団法人ルナロジー協会,,その他の設立登記法人,東京都,新宿区,矢来町１１１番地,,13,104,1620805,,,2023-07-11,清算の結了等,,,2016-12-13,1,,,,,ルナロジーキョウカイ,0
931,4012801008381,登記記録の閉鎖等,0,2023-07-18,2023-07-07,株式会社岡田電気,,株式会社,東京都,東大和市,仲原４丁目１８番地の１２,,13,220,2070016,,,2023-07-07,清算の結了等,,,2015-10-05,1,,,,,オカダデンキ,0
967,4050003002836,登記記録の閉鎖等,0,2023-07-18,2023-07-10,キャンシステム茨城合同会社,,合同会社,茨城県,土浦市,川口１丁目６番２号マーブルコート土浦テナント１－Ｃ,,08,203,3000033,,,2023-07-10,清算の結了等,,,2015-10-05,1,,,,,キャンシステムイバラキ,0
974,4070005008094,登記記録の閉鎖等,0,2023-07-18,2023-07-10,特定非営利活動法人ＮＰＯ月夜野,,その他の設立登記法人,群馬県,利根郡みなかみ町,月夜野２０４４番地１２,,10,449,3791313,,,2023-07-10,清算の結了等,,,2015-10-05,1,,,,,エヌピーオーツキヨノ,0
976,4080002017626,登記記録の閉鎖等,0,2023-07-18,2023-07-11,有限会社志太葬祭,,有限会社,静岡県,藤枝市,青葉町２丁目２番１号,,22,214,4260066,,,2023-07-11,清算の結了等,,,2015-10-05,1,,,,,シダソウサイ,0
982,4090001003196,登記記録の閉鎖等,0,2023-07-18,2023-07-12,山梨三和物流株式会社,,株式会社,山梨県,中巨摩郡昭和町,築地新居１５９８－１,,19,384,4093853,,,2023-07-12,合併による解散等,2010001016959,令和５年７月１日東京都千代田区東神田一丁目１７番６号三和運送事業株式会社（2010001016959）に合併し解散,2015-10-05,1,,,,,ヤマナシサンワブツリュウ,0
983,4100001028448,登記記録の閉鎖等,0,2023-07-18,2023-07-06,株式会社イースト不動産,,株式会社,長野県,松本市,笹部２丁目２番１５号,,20,202,3900847,,,2023-07-06,清算の結了等,,,2015-10-05,1,,,,,イーストフドウサン,0
995,4120001142949,登記記録の閉鎖等,0,2023-07-18,2023-07-13,株式会社ストーク,,株式会社,大阪府,大阪市城東区,中央１丁目１０番３４号,,27,118,5360005,,,2023-07-13,清算の結了等,,,2015-10-05,1,,,,,ストーク,0
998,4120001180338,登記記録の閉鎖等,0,2023-07-18,2023-07-10,株式会社万福屋,00029792,株式会社,大阪府,大阪市平野区,加美正覚寺２丁目３番６号,,27,126,5470006,,,2023-07-10,合併による解散等,1120001173253,令和５年７月１日大阪市平野区加美正覚寺二丁目３番６号株式会社万福家（1120001173253）に合併し解散,2015-10-05,1,,,,,マンプクヤ,0
1002,4120001245198,登記記録の閉鎖等,0,2023-07-18,2023-07-13,永亮株式会社,,株式会社,大阪府,大阪市浪速区,日本橋東３丁目６番１３号,,27,111,5560006,,,2023-07-13,清算の結了等,,,2022-04-14,1,,,,,エイリョウ,0
1008,4120005008964,登記記録の閉鎖等,0,2023-07-18,2023-07-06,サンコーヴァンテアン大正館管理組合法人,,その他の設立登記法人,大阪府,大阪市大正区,三軒家東１丁目１０番１５号,,27,108,5510002,,,2023-07-06,清算の結了等,,,2015-10-05,1,,,,,サンコーヴァンテアンタイショウカン,0
1029,4140001108527,登記記録の閉鎖等,0,2023-07-18,2023-07-07,株式会社ＡＳＬＯＮＥ,,株式会社,兵庫県,神戸市中央区,中山手通２丁目１０番５号８ＦＢ,,28,110,6500004,,,2023-07-07,清算の結了等,,,2017-12-20,1,,,,,エーエスエルワン,0
1038,4170001010548,登記記録の閉鎖等,0,2023-07-18,2023-07-12,株式会社イーホッシュ,,株式会社,和歌山県,和歌山市,板屋町２２番地,,30,201,6408044,,,2023-07-12,合併による解散等,7120001040927,令和５年７月１日大阪市中央区南本町三丁目６番１４号株式会社日本インシーク（7120001040927）に合併し解散,2015-10-05,1,,,,,イーホッシュ,0
1045,4180001130015,登記記録の閉鎖等,0,2023-07-18,2023-07-07,Ｍ＆Ｉエンジニアリング株式会社,,株式会社,愛知県,半田市,栄町２丁目７９番地の２,,23,205,4750846,,,2023-07-07,清算の結了等,,,2017-11-08,1,,,,,エムアンドアイエンジニアリング,0
1057,4190003002995,登記記録の閉鎖等,0,2023-07-18,2023-06-26,合同会社Ｔ＆Ｔ．Ｂｒ,,合同会社,三重県,四日市市,西浦１丁目１０番２４号,,24,202,5100071,,,2023-06-26,清算の結了等,,,2018-10-12,1,,,,,ティーアンドティービーアール,0
1071,4260001027946,登記記録の閉鎖等,0,2023-07-18,2023-07-06,株式会社ベネッセインフォシェル,,株式会社,岡山県,岡山市北区,高柳東町１０番１号,,33,101,7000034,,,2023-07-06,合併による解散等,1260001011820,令和５年７月１日岡山市北区南方三丁目７番１７号株式会社ベネッセコーポレーション（1260001011820）に合併し解散,2015-10-05,1,,,,,ベネッセインフォシェル,0
1074,4290001082872,登記記録の閉鎖等,0,2023-07-18,2023-07-04,株式会社アルファプラス,,株式会社,福岡県,糟屋郡新宮町,下府７丁目９番３号,,40,345,8110112,,,2023-07-04,清算の結了等,,,2018-10-01,1,,,,,アルファプラス,0
1083,4290005015283,登記記録の閉鎖等,0,2023-07-18,2023-06-30,ＮＰＯ法人やまぼうし,,その他の設立登記法人,福岡県,糟屋郡久山町,大字久原２６２２番地８,,40,348,8112501,,,2023-06-30,清算の結了等,,,2015-10-05,1,,,,,ヤマボウシ,0
1116,4470001005154,登記記録の閉鎖等,0,2023-07-18,2023-07-07,株式会社ウエルネス,,株式会社,香川県,高松市,田村町３６０番地,,37,201,7618057,,,2023-07-07,清算の結了等,,,2015-10-05,1,,,,,ウエルネス,0
1124,4500001020067,登記記録の閉鎖等,0,2023-07-18,2023-07-14,株式会社プラットホーム,,株式会社,愛媛県,西予市,宇和町卯之町４丁目６６８番地７,,38,214,7970015,,,2023-07-14,清算の結了等,,,2016-09-09,1,,,,,,0
1141,5010005032058,登記記録の閉鎖等,0,2023-07-18,2023-07-07,ＫＩＣ川口特定目的会社,,その他の設立登記法人,東京都,千代田区,神田錦町３丁目１９番楠本第３ビル４階,,13,101,1010054,,,2023-07-07,清算の結了等,,,2020-07-15,1,,,,,ケーアイシーカワグチ,0
1142,5010005033064,登記記録の閉鎖等,0,2023-07-18,2023-07-07,Ｔｏｋｙｏ　Ｆｉｖｅ特定目的会社,,その他の設立登記法人,東京都,千代田区,丸の内１丁目８番２号鉄鋼ビルディング４階,,13,101,1000005,,,2023-07-07,清算の結了等,,,2021-03-12,1,,,,,トウキョウファイブ,0
1149,5010401170782,登記記録の閉鎖等,0,2023-07-18,2023-06-30,株式会社プラットＳＰＣ,,株式会社,東京都,港区,浜松町１丁目７番３号第一ビル５階,,13,103,1050013,,,2023-06-30,合併による解散等,6011001036357,令和５年６月３０日東京都港区浜松町一丁目７番３号第一ビル５階株式会社プラットイーズ（6011001036357）に合併し解散,2022-11-11,1,,,,,プラットエスピーシー,0
1167,5010703006040,登記記録の閉鎖等,0,2023-07-18,2023-07-07,アクシス合同会社,,合同会社,東京都,品川区,西五反田５丁目５－１１ＡＲＫＭＡＲＫ目黒不動前３０６,,13,109,1410031,,,2023-07-07,清算の結了等,,,2021-12-22,1,,,,,アクシス,0
1175,5011001139648,登記記録の閉鎖等,0,2023-07-18,2023-06-13,株式会社ＳｏＧｕｕ,,株式会社,東京都,目黒区,八雲３丁目２０番８号,,13,110,1520023,,,2023-06-13,合併による解散等,5011101079356,令和５年５月３１日東京都目黒区駒場四丁目３番６号グロービング株式会社（5011101079356）に合併し解散,2021-04-08,1,,,,,ソウグウ,0
1198,5012301007180,登記記録の閉鎖等,0,2023-07-18,2023-07-10,株式会社中村電気工事,,株式会社,東京都,町田市,金森４丁目８番２－３０５号,,13,209,1940012,,,2023-07-10,清算の結了等,,,2015-10-05,1,,,,,ナカムラデンキコウジ,0
1218,5021002004437,登記記録の閉鎖等,0,2023-07-18,2023-07-06,有限会社フジサワ質店,,有限会社,神奈川県,藤沢市,南藤沢５番３号,,14,205,2510055,,,2023-07-06,清算の結了等,,,2015-10-05,1,,,,,フジサワシチテン,0
1232,5050001031522,登記記録の閉鎖等,0,2023-07-18,2023-07-06,タカダ株式会社,,株式会社,茨城県,筑西市,山崎１７９７番地４,,08,227,3080865,,,2023-07-06,清算の結了等,,,2015-10-05,1,,,,,タカダ,0
1257,5120001026341,登記記録の閉鎖等,0,2023-07-18,2023-07-05,株式会社此花洋装店,,株式会社,大阪府,大阪市此花区,梅香３丁目２９番５号,,27,104,5540013,,,2023-07-05,清算の結了等,,,2015-10-05,1,,,,,コノハナヨウソウテン,0
1258,5120001042693,登記記録の閉鎖等,0,2023-07-18,2023-07-06,京町ビル株式会社,,株式会社,大阪府,大阪市西区,西本町２丁目２番４号,,27,106,5500005,,,2023-07-06,合併による解散等,5120001043163,令和５年７月１日大阪市西区西本町二丁目２番４号コウトク商事株式会社（5120001043163）に合併し解散,2015-10-05,1,,,,,キョウマチビル,0
1259,5120001117792,登記記録の閉鎖等,0,2023-07-18,2023-07-11,プライベートサーブ株式会社,,株式会社,大阪府,大阪市中央区,谷町３丁目４番５－３０７号,,27,128,5400012,,,2023-07-11,清算の結了等,,,2015-10-05,1,,,,,,0
1278,5120101053632,登記記録の閉鎖等,0,2023-07-18,2023-07-13,株式会社有莉,,株式会社,大阪府,藤井寺市,道明寺５丁目４番１号,,27,226,5830012,,,2023-07-13,清算の結了等,,,2015-10-05,1,,,,,ユウリ,0
1316,5180002013135,登記記録の閉鎖等,0,2023-07-18,2023-07-07,有限会社有田商会,,有限会社,愛知県,名古屋市南区,東又兵ヱ町４丁目２９番地の１,,23,112,4570833,,,2023-07-07,清算の結了等,,,2015-10-05,1,,,,,アリタショウカイ,0
1317,5180002018613,登記記録の閉鎖等,0,2023-07-18,2023-07-06,有限会社中日クラウン旅行,,有限会社,愛知県,名古屋市中川区,二女子町２丁目１１番地,,23,110,4540036,,,2023-07-06,清算の結了等,,,2015-10-05,1,,,,,チュウニチクラウンリョコウ,0
1332,5210002003396,登記記録の閉鎖等,0,2023-07-18,2023-07-05,有限会社ポプラ空研,,有限会社,福井県,福井市,江守の里１丁目５０４番地,,18,201,9188035,,,2023-07-05,清算の結了等,,,2015-10-05,1,,,,,ポプラクウケン,0
1346,5270002010461,登記記録の閉鎖等,0,2023-07-18,2023-07-05,有限会社鳥取測機,,有限会社,鳥取県,倉吉市,清谷町１丁目２７２番地,,31,203,6820017,,,2023-07-05,清算の結了等,,,2015-10-05,1,,,,,トットリソッキ,0
1353,5290002020509,登記記録の閉鎖等,0,2023-07-18,2023-07-04,株式会社西日本スマイル,,株式会社,福岡県,福岡市中央区,谷２丁目１０番２０号,,40,133,8100031,,,2023-07-04,清算の結了等,,,2015-10-05,1,,,,,ニシニホンスマイル,0
1355,5290003009617,登記記録の閉鎖等,0,2023-07-18,2023-07-04,合同会社ＴＫ商会,,合同会社,福岡県,福岡市中央区,春吉３丁目２５番２５号１階,,40,133,8100003,,,2023-07-04,清算の結了等,,,2019-12-25,1,,,,,ティケィショウカイ,0
1383,5380005002437,登記記録の閉鎖等,0,2023-07-18,2023-07-07,特定非営利活動法人ふくしまバリアフリーツアーセンター,,その他の設立登記法人,福島県,福島市,栄町１番１号,,07,201,9608031,,,2023-07-07,清算の結了等,,,2015-10-05,1,,,,,フクシマバリアフリーツアーセンター,0
1391,5420002014538,登記記録の閉鎖等,0,2023-07-18,2023-06-30,有限会社和仁製作所,,有限会社,青森県,弘前市,大字原ケ平字山中２５番３５,,02,202,0368144,,,2023-06-30,清算の結了等,,,2015-10-05,1,,,,,ワニセイサクショ,0
1401,5450001008422,登記記録の閉鎖等,0,2023-07-18,2023-07-10,株式会社稚内薬局,,株式会社,北海道,稚内市,中央４丁目１４番３６号,,01,214,0970022,,,2023-07-10,清算の結了等,,,2015-10-05,1,,,,,ワッカナイヤッキョク,0
1406,5470002018591,登記記録の閉鎖等,0,2023-07-18,2023-07-07,有限会社ファッションルームナカタニ,,有限会社,香川県,東かがわ市,三本松６８０番地の６２,,37,207,7692601,,,2023-07-07,清算の結了等,,,2015-10-05,1,,,,,ファッションルームナカタニ,0
1409,5500005001814,登記記録の閉鎖等,0,2023-07-18,2023-07-14,特定非営利活動法人日本カイロプラクティック同盟,,その他の設立登記法人,愛媛県,松山市,衣山５丁目１５３５番地,,38,201,7918025,,,2023-07-14,清算の結了等,,,2015-10-05,1,,,,,ニホンカイロプラクティックドウメイ,0
1438,6010701019836,登記記録の閉鎖等,0,2023-07-18,2023-07-06,株式会社おはよう塾,,株式会社,東京都,品川区,東大井５丁目７番１０号,,13,109,1400011,,,2023-07-06,清算の結了等,,,2015-10-05,1,,,,,オハヨウジュク,0
1453,6011001001039,登記記録の閉鎖等,0,2023-07-18,2023-07-03,東工業株式会社,,株式会社,東京都,渋谷区,幡ヶ谷２丁目４２番１６号,,13,113,1510072,,,2023-07-03,合併による解散等,1011001001043,令和５年７月１日東京都渋谷区幡ケ谷二丁目４２番１６号東工業株式会社（1011001001043）に合併し解散,2015-10-05,1,,,,,アズマコウギョウ,0
1492,6020001121077,登記記録の閉鎖等,0,2023-07-18,2023-06-27,株式会社シャベル,,株式会社,神奈川県,横浜市青葉区,新石川２丁目１３番地１７ＰＲＡＤＯたまプラーザ１０１,,14,117,2250003,,,2023-06-27,清算の結了等,,,2017-05-01,1,,,,,シャベル,0
1501,6021002028286,登記記録の閉鎖等,0,2023-07-18,2023-07-06,有限会社ウィズＭ,,有限会社,神奈川県,相模原市中央区,南橋本２丁目３番１５号アーバンヒルズ南橋本１０２,,14,152,2520253,,,2023-07-06,清算の結了等,,,2015-10-05,1,,,,,ウィズエム,0
1507,6030001102646,登記記録の閉鎖等,0,2023-07-18,2023-07-03,セブンプレジャーズ株式会社,,株式会社,福岡県,福岡市早良区,西新５丁目１５番３０－２０２号,,40,137,8140002,,,2023-07-03,清算の結了等,,,2015-10-05,1,,,,,セブンプレジャーズ,0
1512,6030002040630,登記記録の閉鎖等,0,2023-07-18,2023-06-27,有限会社ドリーム・イン,,有限会社,埼玉県,久喜市,青毛１丁目１３番地１６,,11,232,3460011,,,2023-06-27,清算の結了等,,,2015-10-05,1,,,,,ドリームイン,0
1514,6030005006918,登記記録の閉鎖等,0,2023-07-18,2023-06-27,鶴瀬商業協同組合,,その他の設立登記法人,埼玉県,富士見市,ふじみ野東３丁目８番地１,,11,235,3540036,,,2023-06-27,清算の結了等,,,2015-10-05,1,,,,,ツルセショウギョウ,0
1524,6050005011593,登記記録の閉鎖等,0,2023-07-18,2023-07-12,特定非営利活動法人茨城空き家・空き地管理センター,,その他の設立登記法人,茨城県,つくば市,松代２丁目１０番２,,08,220,3050035,,,2023-07-12,清算の結了等,,,2015-10-05,1,,,,,イバラキアキヤアキチカンリセンター,0
1528,6060005005116,登記記録の閉鎖等,0,2023-07-18,2023-07-04,学校法人沼部学園,,その他の設立登記法人,栃木県,小山市,大字粟宮字東道上８４１番,,09,208,3290201,,,2023-07-04,清算の結了等,,,2015-10-05,1,,,,,ヌマベガクエン,0
1538,6100001005676,登記記録の閉鎖等,0,2023-07-18,2023-07-10,株式会社ナグモ,,株式会社,長野県,須坂市,大字米持１５６番地１,,20,207,3820000,,,2023-07-10,清算の結了等,,,2015-10-05,1,,,,,ナグモ,0
1541,6100002036893,登記記録の閉鎖等,0,2023-07-18,2023-07-06,有限会社ドリームビークルズ,,有限会社,長野県,飯田市,竹佐３２７番地,,20,205,3950242,,,2023-07-06,清算の結了等,,,2015-10-05,1,,,,,ドリームビークルズ,0
1560,6120002078694,登記記録の閉鎖等,0,2023-07-18,2023-07-11,有限会社東郷商会,,有限会社,大阪府,守口市,寺方錦通３丁目１番２５号,,27,209,5700042,,,2023-07-11,清算の結了等,,,2015-10-05,1,,,,,トウゴウショウカイ,0
1575,6122001021429,登記記録の閉鎖等,0,2023-07-18,2023-07-05,システム建設株式会社,,株式会社,大阪府,八尾市,東本町４丁目３番６号,,27,212,5810004,,,2023-07-05,清算の結了等,,,2015-10-05,1,,,,,システムケンセツ,0
1593,6140002024614,登記記録の閉鎖等,0,2023-07-18,2023-07-11,有限会社ケアライフすま菅の台,,有限会社,兵庫県,神戸市須磨区,菅の台７丁目１番地の１２,,28,107,6540143,,,2023-07-11,清算の結了等,,,2015-10-05,1,,,,,ケアライフスマスガノダイ,0
1603,6180001038891,登記記録の閉鎖等,0,2023-07-18,2023-07-11,株式会社都市造形研究所,,株式会社,愛知県,名古屋市中区,丸の内３丁目６番２７号,,23,106,4600002,,,2023-07-11,合併による解散等,9010001031943,令和５年７月１日東京都千代田区平河町一丁目２番１０号ランドブレイン株式会社（9010001031943）に合併し解散,2015-10-05,1,,,,,トシゾウケイケンキュウジョ,0
1605,6180001077650,登記記録の閉鎖等,0,2023-07-18,2023-07-11,株式会社ウィル,,株式会社,愛知県,春日井市,西本町２丁目１５番地１４,,23,206,4860958,,,2023-07-11,清算の結了等,,,2015-10-05,1,,,,,ウィル,0
1621,6180302006507,登記記録の閉鎖等,0,2023-07-18,2023-07-06,有限会社イワタフーズ,,有限会社,愛知県,豊橋市,平川本町１丁目３番地の９,,23,201,4400038,,,2023-07-06,清算の結了等,,,2015-10-05,1,,,,,イワタフーズ,0
1626,6190002018207,登記記録の閉鎖等,0,2023-07-18,2023-07-04,盛心工業有限会社,,有限会社,三重県,いなべ市,藤原町石川９６４番地,,24,214,5110514,,,2023-07-04,清算の結了等,,,2015-10-05,1,,,,,セイシンコウギョウ,0
1628,6200001012241,登記記録の閉鎖等,0,2023-07-18,2023-07-03,株式会社アピコ,,株式会社,岐阜県,羽島郡岐南町,野中６丁目９９番地,,21,302,5016004,,,2023-07-03,合併による解散等,2200001006841,令和５年７月１日岐阜県羽島郡岐南町野中六丁目９９番地株式会社アピア（2200001006841）に合併し解散,2015-10-05,1,,,,,アピコ,0
1630,6200002015251,登記記録の閉鎖等,0,2023-07-18,2023-07-07,有限会社アイティエム,,有限会社,岐阜県,揖斐郡大野町,大字西方１１０９番地の２,,21,403,5010514,,,2023-07-07,清算の結了等,,,2015-10-05,1,,,,,アイティエム,0
1631,6200002022066,登記記録の閉鎖等,0,2023-07-18,2023-07-06,有限会社中日新聞瑞浪西部専売所,,有限会社,岐阜県,瑞浪市,薬師町４丁目３番地,,21,208,5096135,,,2023-07-06,清算の結了等,,,2015-10-05,1,,,,,チュウニチシンブンミズナミセイブセンバイショ,0
1633,6210002014277,登記記録の閉鎖等,0,2023-07-18,2023-07-04,清水創建有限会社,,有限会社,福井県,小浜市,駅前町１４番１５号島長ビル２階,,18,204,9170077,,,2023-07-04,清算の結了等,,,2015-10-05,1,,,,,シミズソウケン,0
1636,6220002003659,登記記録の閉鎖等,0,2023-07-18,2023-07-12,有限会社竹端商店,,有限会社,石川県,金沢市,西念４丁目３番１４号,,17,201,9200024,,,2023-07-12,清算の結了等,,,2015-10-05,1,,,,,タケハナショウテン,0
1651,6260002019412,登記記録の閉鎖等,0,2023-07-18,2023-07-06,有限会社高田自動車,,有限会社,岡山県,倉敷市,連島５丁目２番５２号,,33,202,7128012,,,2023-07-06,清算の結了等,,,2015-10-05,1,,,,,タカタジドウシャ,0
1666,6330001000588,登記記録の閉鎖等,0,2023-07-18,2023-06-30,株式会社エムアイディー建築事務所,,株式会社,熊本県,熊本市南区,近見６丁目４番１－２０１号,,43,104,8614101,,,2023-06-30,清算の結了等,,,2015-10-05,1,,,,,エムアイディーケンチクジムショ,0
1674,6360001010171,登記記録の閉鎖等,0,2023-07-18,2023-07-05,株式会社沖縄未来館,,株式会社,沖縄県,那覇市,鏡原町１番４１号,,47,201,9010151,,,2023-07-05,清算の結了等,,,2015-10-05,1,,,,,オキナワミライカン,0
1678,6360002019781,登記記録の閉鎖等,0,2023-07-18,2023-07-06,有限会社宮里組,,有限会社,沖縄県,名護市,字真喜屋５１１番地の１,,47,209,9051143,,,2023-07-06,清算の結了等,,,2015-10-05,1,,,,,ミヤザトグミ,0
1700,6430001012202,登記記録の閉鎖等,0,2023-07-18,2023-07-11,株式会社中本土木設計,,株式会社,北海道,札幌市北区,あいの里二条２丁目７番２号,,01,102,0028072,,,2023-07-11,清算の結了等,,,2015-10-05,1,,,,,ナカモトドボクセッケイ,0
1749,7010801030048,登記記録の閉鎖等,0,2023-07-18,2023-07-11,株式会社Ｔａｍｍｙ’ｓ　Ｆａｃｔｏｒｙ,,株式会社,東京都,大田区,蒲田５丁目２１番１３号ペガサスステーションプラザ蒲田Ｂ２Ｆ－４１,,13,111,1440052,,,2023-07-11,清算の結了等,,,2019-07-22,1,,,,,タミーズファクトリー,0
1752,7011001103692,登記記録の閉鎖等,0,2023-07-18,2023-07-07,株式会社ワンボイス,,株式会社,東京都,墨田区,向島２丁目１２番１２－９０１号,,13,107,1310033,,,2023-07-07,清算の結了等,,,2015-10-05,1,,,,,,0
1763,7011301025570,登記記録の閉鎖等,0,2023-07-18,2023-07-10,多味屋株式会社,,株式会社,東京都,杉並区,南荻窪４丁目２９番１０号田丸ビル１０１,,13,115,1670052,,,2023-07-10,清算の結了等,,,2019-12-20,1,,,,,タミヤ,0
1765,7011503004694,登記記録の閉鎖等,0,2023-07-18,2023-07-11,ユツ合同会社,,合同会社,東京都,荒川区,東日暮里５丁目５０番９号もみじばしビル４０２,,13,118,1160014,,,2023-07-11,清算の結了等,,,2021-03-10,1,,,,,ユツ,0
1772,7011802021135,登記記録の閉鎖等,0,2023-07-18,2023-07-13,有限会社ホクト建設,,有限会社,東京都,足立区,舎人５丁目１６番１０号,,13,121,1210831,,,2023-07-13,清算の結了等,,,2015-10-05,1,,,,,ホクトケンセツ,0
1775,7012402018109,登記記録の閉鎖等,0,2023-07-18,2023-07-12,有限会社レオ,,有限会社,東京都,武蔵野市,御殿山１丁目６番１号,,13,203,1800005,,,2023-07-12,清算の結了等,,,2015-10-05,1,,,,,,0
1776,7012801020045,登記記録の閉鎖等,0,2023-07-18,2023-07-06,株式会社Ｎｅｘｉｌ,,株式会社,東京都,立川市,柴崎町２丁目２番１６号ＭＡビル６０３号,,13,202,1900023,,,2023-07-06,清算の結了等,,,2020-03-23,1,,,,,ネクシル,0
1783,7020001117421,登記記録の閉鎖等,0,2023-07-18,2023-07-05,株式会社久米工業,,株式会社,神奈川県,横浜市鶴見区,小野町１０番地,,14,101,2300046,,,2023-07-05,清算の結了等,,,2016-08-09,1,,,,,クメコウギョウ,0
1796,7021002021372,登記記録の閉鎖等,0,2023-07-18,2023-07-07,有限会社菅製作所,,有限会社,神奈川県,相模原市中央区,田名２２８３番地の５,,14,152,2520244,,,2023-07-07,清算の結了等,,,2015-10-05,1,,,,,スガセイサクショ,0
1804,7040001080808,登記記録の閉鎖等,0,2023-07-18,2023-07-13,株式会社ＭＣＣホールセール,,株式会社,千葉県,松戸市,新松戸東９番地１,,12,207,2700033,,,2023-07-13,合併による解散等,6010001216002,令和５年７月１日東京都千代田区神田駿河台四丁目３番地株式会社ＭＣＣマネジメント（6010001216002）に合併し解散,2015-10-05,1,,,,,エムシーシーホールセール,0
1808,7040002056022,登記記録の閉鎖等,0,2023-07-18,2023-06-27,有限会社遠藤商店,,有限会社,千葉県,富里市,久能２８５番地の１６,,12,233,2860203,,,2023-06-27,清算の結了等,,,2015-10-05,1,,,,,エンドウショウテン,0
1817,7080002013556,登記記録の閉鎖等,0,2023-07-18,2023-07-11,協立建具有限会社,,有限会社,静岡県,島田市,向谷元町５９８番地の１,,22,209,4270035,,,2023-07-11,清算の結了等,,,2015-10-05,1,,,,,キョウリツタテグ,0
1823,7080402019748,登記記録の閉鎖等,0,2023-07-18,2023-07-12,中央ガレージ有限会社,,有限会社,静岡県,磐田市,見付２５９１番地の１,,22,211,4380086,,,2023-07-12,清算の結了等,,,2015-10-05,1,,,,,チュウオウガレージ,0
1825,7100001006013,登記記録の閉鎖等,0,2023-07-18,2023-07-07,株式会社ザ・シンシュー,,株式会社,長野県,長野市,大字柳原２４８５番地２,,20,201,3810012,,,2023-07-07,清算の結了等,,,2015-10-05,1,,,,,ザシンシュー,0
1832,7100003001193,登記記録の閉鎖等,0,2023-07-18,2023-07-06,合資会社トランサクト,,合資会社,長野県,上田市,住吉２９８４番地４,,20,203,3860002,,,2023-07-06,清算の結了等,,,2015-10-05,1,,,,,トランサクト,0
1838,7110003001878,登記記録の閉鎖等,0,2023-07-18,2023-07-04,合資会社山口米穀店,,合資会社,新潟県,長岡市,関原町３丁目乙９１番地,,15,202,9402035,,,2023-07-04,清算の結了等,,,2015-10-05,1,,,,,ヤマグチベイコクテン,0
1839,7120001035241,登記記録の閉鎖等,0,2023-07-18,2023-07-11,株式会社ジョー・ステージ・マサヤ,,株式会社,大阪府,大阪市福島区,吉野５丁目６番３号,,27,103,5530006,,,2023-07-11,清算の結了等,,,2015-10-05,1,,,,,ジョーステージマサヤ,0
1858,7120002052970,登記記録の閉鎖等,0,2023-07-18,2023-07-11,有限会社アース・コンシャス,,有限会社,大阪府,大阪市東淀川区,東中島１丁目１７番５号,,27,114,5330033,,,2023-07-11,清算の結了等,,,2015-10-05,1,,,,,アースコンシャス,0
1871,7130001032766,登記記録の閉鎖等,0,2023-07-18,2023-06-30,大開産業株式会社,,株式会社,京都府,宇治市,羽拍子町７６番地の１９,,26,204,6110027,,,2023-06-30,清算の結了等,,,2015-10-05,1,,,,,ダイカイサンギョウ,0
1874,7130001063670,登記記録の閉鎖等,0,2023-07-18,2023-07-03,株式会社ＹＵＭＥ－ＭＥ　ｐｒｏｊｅｃｔ,,株式会社,京都府,京都市東山区,大和大路弁財天町１２番地シャトービル３Ｆ,,26,105,6050000,,,2023-07-03,清算の結了等,,,2019-01-10,1,,,,,ユメーメプロジェクト,0
1884,7140001072175,登記記録の閉鎖等,0,2023-07-18,2023-07-07,ロイヴィス・ジャパン株式会社,,株式会社,兵庫県,西宮市,小松北町２丁目６番１５号,,28,204,6638126,,,2023-07-07,清算の結了等,,,2015-10-05,1,,,,,ロイヴィスジャパン,0
1899,7180001036944,登記記録の閉鎖等,0,2023-07-18,2023-07-10,株式会社ジュエル奈加島,,株式会社,愛知県,名古屋市熱田区,新尾頭１丁目２番２２号,,23,109,4560018,,,2023-07-10,清算の結了等,,,2015-10-05,1,,,,,,0
1919,7180302019425,登記記録の閉鎖等,0,2023-07-18,2023-07-10,有限会社シバタ,,有限会社,愛知県,知立市,内幸町加藤９２番地,,23,225,4720042,,,2023-07-10,清算の結了等,,,2015-10-05,1,,,,,シバタ,0
1925,7190005011166,登記記録の閉鎖等,0,2023-07-18,2023-07-18,特定非営利活動法人Ｋｉｎｏｋｏ　Ｊａｐａｎ,,その他の設立登記法人,宮崎県,東臼杵郡美郷町,西郷田代３４３番地イ,,45,431,8831101,,,2023-07-18,清算の結了等,,,2018-04-06,1,,,,,キノコジャパン,0
1929,7220002012089,登記記録の閉鎖等,0,2023-07-18,2023-07-12,有限会社網谷鉄工,,有限会社,石川県,加賀市,塩屋町宮前１番地５,,17,206,9220673,,,2023-07-12,清算の結了等,,,2015-10-05,1,,,,,アミヤテッコウ,0
1942,7270001006211,登記記録の閉鎖等,0,2023-07-18,2023-07-04,ｋｉｎｏｍａｍａ　ｈｏｕｓｅ株式会社,,株式会社,鳥取県,倉吉市,下大江２４４番地１３,,31,203,6820837,,,2023-07-04,清算の結了等,,,2015-10-05,1,,,,,キノママハウス,0
1950,7290801013487,登記記録の閉鎖等,0,2023-07-18,2023-07-06,ｅほけんサービス株式会社,,株式会社,福岡県,遠賀郡遠賀町,遠賀川２丁目３番３４号,,40,384,8114307,,,2023-07-06,清算の結了等,,,2015-10-05,1,,,,,イーホケンサービス,0
1959,7340002020930,登記記録の閉鎖等,0,2023-07-18,2023-07-07,有限会社信進ビル,,有限会社,鹿児島県,奄美市,名瀬末広町１０番１号,,46,222,8940027,,,2023-07-07,清算の結了等,,,2015-10-05,1,,,,,シンシンビル,0
1961,7350001005881,登記記録の閉鎖等,0,2023-07-18,2023-07-06,株式会社ぴいすたいむ,,株式会社,宮崎県,西都市,大字三宅３０４０番地,,45,208,8810005,,,2023-07-06,清算の結了等,,,2015-10-05,1,,,,,ピイスタイム,0
2024,8010801005164,登記記録の閉鎖等,0,2023-07-18,2023-07-10,株式会社ジェイプロ,,株式会社,東京都,大田区,平和島６丁目１番１号,,13,111,1430006,,,2023-07-10,清算の結了等,,,2015-10-05,1,,,,,ジェイプロ,0
2036,8011101056559,登記記録の閉鎖等,0,2023-07-18,2023-07-12,株式会社ライク,,株式会社,東京都,新宿区,百人町２丁目１番７号,,13,104,1690073,,,2023-07-12,清算の結了等,,,2015-10-05,1,,,,,ライク,0
2043,8011501007376,登記記録の閉鎖等,0,2023-07-18,2023-07-10,大丸紙業株式会社,,株式会社,東京都,荒川区,東日暮里６丁目３８番７号,,13,118,1160014,,,2023-07-10,清算の結了等,,,2015-10-05,1,,,,,ダイマルシギョウ,0
2085,8080002012672,登記記録の閉鎖等,0,2023-07-18,2023-07-11,有限会社ＲＯＳＳＯ,,有限会社,静岡県,静岡市葵区,山崎２丁目３５番地の１７,,22,101,4211213,,,2023-07-11,清算の結了等,,,2015-10-05,1,,,,,ロッソ,0
2086,8080101000421,登記記録の閉鎖等,0,2023-07-18,2023-07-10,カネキ水産株式会社,,株式会社,静岡県,沼津市,千本中町３番地,,22,203,4100847,,,2023-07-10,清算の結了等,,,2015-10-05,1,,,,,カネキスイサン,0
2096,8080402006159,登記記録の閉鎖等,0,2023-07-18,2023-07-11,有限会社浜松中央建物,,有限会社,静岡県,浜松市中区,鍛冶町１４０番地,,22,131,4300933,,,2023-07-11,清算の結了等,,,2015-10-05,1,,,,,ハママツチュウオウタテモノ,0
2103,8110003002181,登記記録の閉鎖等,0,2023-07-18,2023-07-04,中之島農産合同会社,,合同会社,新潟県,長岡市,与板町東与板２０９番地,,15,202,9402401,,,2023-07-04,清算の結了等,,,2015-10-05,1,,,,,ナカノシマノウサン,0
2111,8120001171341,登記記録の閉鎖等,0,2023-07-18,2023-07-03,明和総務代行サービス株式会社,,株式会社,愛知県,名古屋市中村区,名駅１丁目１番４号,,23,105,4500002,,,2023-07-03,合併による解散等,3180301025816,令和５年７月１日名古屋市中村区名駅一丁目１番４号かがやきコンサルティング株式会社（3180301025816）に合併し解散,2015-10-05,1,,,,,メイワソウムダイコウサービス,0
2127,8120102003170,登記記録の閉鎖等,0,2023-07-18,2023-07-13,有限会社ティーティー,,有限会社,大阪府,堺市北区,中百舌鳥町６丁９１７番地の２,,27,146,5918023,,,2023-07-13,清算の結了等,,,2015-10-05,1,,,,,ティーティー,0
2159,8160003002441,登記記録の閉鎖等,0,2023-07-18,2023-07-05,ソリッドオフィス合同会社,,合同会社,滋賀県,彦根市,蓮台寺町５０－６７,,25,202,5220232,,,2023-07-05,清算の結了等,,,2021-12-07,1,,,,,ソリッドオフィス,0
2164,8180001031762,登記記録の閉鎖等,0,2023-07-18,2023-07-12,トランスメディア株式会社,,株式会社,愛知県,名古屋市西区,那古野１丁目１５番１８号,,23,104,4510042,,,2023-07-12,清算の結了等,,,2015-10-05,1,,,,,トランスメディア,0
2175,8180002016226,登記記録の閉鎖等,0,2023-07-18,2023-07-10,有限会社大幸サービス工業所,,有限会社,愛知県,名古屋市千種区,豊年町１番１０号グレース千種５０４,,23,101,4640076,,,2023-07-10,清算の結了等,,,2015-10-05,1,,,,,ダイコウサービスコウギョウショ,0
2181,8180002088843,登記記録の閉鎖等,0,2023-07-18,2023-07-13,有限会社ＢＡＮＳＯ,,有限会社,愛知県,東海市,富木島町外面６番地１,,23,222,4760011,,,2023-07-13,清算の結了等,,,2015-10-05,1,,,,,バンソ,0
2184,8180302009359,登記記録の閉鎖等,0,2023-07-18,2023-07-10,有限会社ビューティサロン・ナカ,,有限会社,愛知県,豊橋市,向山西町２番地の１,,23,201,4400861,,,2023-07-10,清算の結了等,,,2015-10-05,1,,,,,ビューティサロンナカ,0
2226,8320001016947,登記記録の閉鎖等,0,2023-07-18,2023-07-10,株式会社筋湯観光ホテル分割準備会社,,株式会社,大分県,玖珠郡九重町,大字湯坪６６２番地,,44,461,8794912,,,2023-07-10,清算の結了等,,,2019-03-14,1,,,,,スジユカンコウホテルブンカツジュンビガイシャ,0
2228,8320002000875,登記記録の閉鎖等,0,2023-07-18,2023-07-11,池松青果有限会社,,有限会社,大分県,大分市,豊海４丁目１番１号,,44,201,8700018,,,2023-07-11,清算の結了等,,,2015-10-05,1,,,,,イケマツセイカ,0
2243,8360002007875,登記記録の閉鎖等,0,2023-07-18,2023-06-30,有限会社平良ベンドサービス,,有限会社,沖縄県,那覇市,銘苅２丁目４番５１号,,47,201,9000004,,,2023-06-30,清算の結了等,,,2015-10-05,1,,,,,,0
2248,8380001008889,登記記録の閉鎖等,0,2023-07-18,2023-07-06,株式会社大拓,,株式会社,福島県,郡山市,堤２丁目７２番地,,07,203,9630205,,,2023-07-06,清算の結了等,,,2015-10-05,1,,,,,ダイタク,0
2273,8500005006793,登記記録の閉鎖等,0,2023-07-18,2023-07-14,特定非営利活動法人松野まちづくり青年会議,,その他の設立登記法人,愛媛県,北宇和郡松野町,大字松丸３５４番地１,,38,484,7982101,,,2023-07-14,清算の結了等,,,2015-10-05,1,,,,,マツノマチヅクリセイネンカイギ,0
2288,9010005028003,登記記録の閉鎖等,0,2023-07-18,2023-07-07,一般社団法人石崎財産管理,,その他の設立登記法人,東京都,文京区,本駒込３丁目２９番６－８０２号,,13,105,1130021,,,2023-07-07,清算の結了等,,,2018-01-24,1,,,,,イシザキザイサンカンリ,0
2359,9030001070849,登記記録の閉鎖等,0,2023-07-18,2023-06-28,株式会社柴生田工務店,,株式会社,埼玉県,東松山市,大字下押垂２０２番地,,11,212,3550041,,,2023-06-28,清算の結了等,,,2015-10-05,1,,,,,シボウタコウムテン,0
2372,9050002041756,登記記録の閉鎖等,0,2023-07-18,2023-07-07,有限会社あらたにや酒店,,有限会社,茨城県,筑西市,下川島７６１番地の１,,08,227,3080855,,,2023-07-07,清算の結了等,,,2015-10-05,1,,,,,アラタニヤサケテン,0
2395,9120001041304,登記記録の閉鎖等,0,2023-07-18,2023-07-06,株式会社泉商会,,株式会社,大阪府,大阪市西区,西本町１丁目７番８号,,27,106,5500005,,,2023-07-06,合併による解散等,5120001043163,令和５年７月１日大阪市西区西本町二丁目２番４号コウトク商事株式会社（5120001043163）に合併し解散,2015-10-05,1,,,,,イズミショウカイ,0
2396,9120001048613,登記記録の閉鎖等,0,2023-07-18,2023-07-11,ワールド・ワイド貿易株式会社,,株式会社,大阪府,大阪市住吉区,東粉浜１丁目４番２７号,,27,120,5580051,,,2023-07-11,清算の結了等,,,2015-10-05,1,,,,,ワールドワイドボウエキ,0
2404,9120001212532,登記記録の閉鎖等,0,2023-07-18,2023-07-11,Ｂｌｏｗｓサポート株式会社,,株式会社,大阪府,大阪市阿倍野区,昭和町１丁目９番５号,,27,119,5450011,,,2023-07-11,清算の結了等,,,2018-04-06,1,,,,,ブロウズサポート,0
2439,9150001007203,登記記録の閉鎖等,0,2023-07-18,2023-07-10,株式会社山下設備,,株式会社,奈良県,生駒郡斑鳩町,法隆寺南１丁目１番２６号,00048884,29,344,6360113,,,2023-07-10,清算の結了等,,,2015-10-05,1,,,,,,0
2466,9180301012577,登記記録の閉鎖等,0,2023-07-18,2023-07-07,アイチポンプ興業株式会社,,株式会社,愛知県,安城市,今本町石田３５番地２,,23,212,4460008,,,2023-07-07,清算の結了等,,,2015-10-05,1,,,,,アイチポンプコウギョウ,0
2473,9190001020524,登記記録の閉鎖等,0,2023-07-18,2023-07-06,株式会社ダレット,,株式会社,三重県,津市,河芸町上野８７２番地２,,24,201,5100304,,,2023-07-06,清算の結了等,,,2015-10-05,1,,,,,ダレット,0
2490,9260002009443,登記記録の閉鎖等,0,2023-07-18,2023-07-07,有限会社マルエーあづまや,,有限会社,岡山県,岡山市北区,西山内１１０番地,,33,101,7011612,,,2023-07-07,清算の結了等,,,2015-10-05,1,,,,,マルエーアヅマヤ,0
2499,9290005014058,登記記録の閉鎖等,0,2023-07-18,2023-06-30,ＮＰＯ法人つよく美しいふるさとづくり機構,,その他の設立登記法人,福岡県,福岡市中央区,薬院１丁目６－１６百田ビル３０２,,40,133,8100022,,,2023-06-30,清算の結了等,,,2015-10-05,1,,,,,ツヨクウツクシイフルサトヅクリキコウ,0
2510,9320005003882,登記記録の閉鎖等,0,2023-07-18,2023-06-30,豊後高田市土地開発公社,,その他の設立登記法人,大分県,豊後高田市,是永町３９番地３,,44,209,8790621,,,2023-06-30,清算の結了等,,,2015-10-05,1,,,,,ブンゴタカダシ,0
2517,9350005001017,登記記録の閉鎖等,0,2023-07-18,2023-07-03,特定非営利活動法人ＭＣＬボランティア,,その他の設立登記法人,宮崎県,宮崎市,花山手東３丁目２５番地３,,45,201,8800930,,,2023-07-03,清算の結了等,,,2015-10-05,1,,,,,エムシーエルボランティア,0
2524,9360003006058,登記記録の閉鎖等,0,2023-07-18,2023-07-06,合同会社ブラザーサポート,,合同会社,沖縄県,豊見城市,字高嶺３７０番地１４,,47,212,9010213,,,2023-07-06,清算の結了等,,,2015-10-05,1,,,,,ブラザーサポート,0
2528,9370003005629,登記記録の閉鎖等,0,2023-07-18,2023-07-10,合同会社ハシメ,,合同会社,宮城県,仙台市若林区,若林３丁目３番３５号,,04,103,9840826,,,2023-07-10,清算の結了等,,,2022-03-29,1,,,,,ハシメ,0
2539,9410005005176,登記記録の閉鎖等,0,2023-07-18,2023-06-30,医療法人渓水会,,その他の設立登記法人,秋田県,横手市,条里３丁目１番２５号,,05,203,0130060,,,2023-06-30,清算の結了等,,,2015-10-05,1,,,,,ケイスイカイ,0
2543,9420002012083,登記記録の閉鎖等,0,2023-07-18,2023-06-30,有限会社建築のそのだ,,有限会社,青森県,五所川原市,金木町川倉宇田野１１３番地１,,02,205,0370201,,,2023-06-30,清算の結了等,,,2015-10-05,1,,,,,ケンチクノソノダ,0
2555,9470002019644,登記記録の閉鎖等,0,2023-07-18,2023-07-07,有限会社大西会計事務所,,有限会社,香川県,高松市,百間町６番地１１,,37,201,7600041,,,2023-07-07,清算の結了等,,,2019-02-19,1,,,,,オオニシカイケイジムショ,0
2558,9500001010146,登記記録の閉鎖等,0,2023-07-18,2023-07-14,株式会社中萩電機,,株式会社,愛媛県,新居浜市,萩生字河ノ北４１番地１,,38,205,7920050,,,2023-07-14,清算の結了等,,,2015-10-05,1,,,,,ナカハギデンキ,0
