sequenceNumber,corporateNumber,process,correct,updateDate,changeDate,name,nameImageId,kind,prefectureName,cityName,streetNumber,addressImageId,prefectureCode,cityCode,postCode,addressOutside,addressOutsideImageId,closeDate,closeCause,successorCorporateNumber,changeCause,assignmentDate,latest,enName,enPrefectureName,enCityName,enAddressOutside,furigana,hihyoji
5,1010001224496,新規,0,2022-02-09,2022-02-09,ＸＣＨＡＮＧＥ株式会社,,株式会社,東京都,中央区,銀座１丁目２２番１１号銀座大竹ビジデンス２階,,13,102,1040061,,,,,,,2022-02-09,1,,,,,エクスチェンジ,0
7,1010003036931,新規,0,2022-02-09,2022-02-09,合同会社花咲大福,,合同会社,東京都,八丈島八丈町,三根１４２４番地１,,13,401,1001511,,,,,,,2022-02-09,1,,,,,ハナサキダイフク,0
8,1010003036956,新規,0,2022-02-09,2022-02-09,レクサスリニューワブル合同会社,,合同会社,東京都,千代田区,内神田２丁目２番６号５階あすな会計事務所内,,13,101,1010047,,,,,,,2022-02-09,1,,,,,レクサスリニューワブル,0
9,1010003036980,新規,0,2022-02-09,2022-02-09,Ｅａｓｔ　Ａｓｉａ　Ｓｕｐｅｒ　Ｌｅａｇｕｅ　Ｊａｐａｎ合同会社,,合同会社,東京都,千代田区,麹町４丁目１番地,,13,101,1020083,,,,,,,2022-02-09,1,,,,,イーストアジアスパーリーグジャパン,0
20,1010401165472,新規,0,2022-02-09,2022-02-09,株式会社ＧＲＡＶＩＸ　ＪＡＰＡＮ,,株式会社,東京都,港区,西麻布３丁目３－２３フィルドア西麻布Ｂ１,,13,103,1060031,,,,,,,2022-02-09,1,,,,,グラビックスジャパン,0
21,1010401165480,新規,0,2022-02-09,2022-02-09,株式会社ＳＨＩＲＯ,,株式会社,東京都,港区,南青山２丁目２番１５号ＷｉｎＡｏｙａｍａビルＵＣＦ６３５,,13,103,1070062,,,,,,,2022-02-09,1,,,,,シロ,0
23,1010403027068,新規,0,2022-02-09,2022-02-09,ＳＣＧ７１合同会社,,合同会社,東京都,港区,虎ノ門４丁目１番２８号,,13,103,1050001,,,,,,,2022-02-09,1,,,,,エスシージーセブンティワン,0
26,1010405020657,新規,0,2022-02-09,2022-02-09,一般社団法人日本ダイヤモンド鑑定士協会,,その他の設立登記法人,東京都,港区,芝２丁目８番１３－５０５号,,13,103,1050014,,,,,,,2022-02-09,1,,,,,ニホンダイヤモンドカンテイシキョウカイ,0
27,1010405020665,新規,0,2022-02-09,2022-02-09,一般社団法人ワークＤＸ推進機構,,その他の設立登記法人,東京都,港区,新橋２丁目１６番１号ニュー新橋ビル９０３,,13,103,1050004,,,,,,,2022-02-09,1,,,,,ワークディーエックススイシンキコウ,0
48,1011001145591,新規,0,2022-02-09,2022-02-09,株式会社アシストＭＦ,,株式会社,東京都,目黒区,下目黒５丁目２６番１１号,,13,110,1530064,,,,,,,2022-02-09,1,,,,,アシストエムエフ,0
51,1011003014159,新規,0,2022-02-09,2022-02-09,合同会社スタジオリトルウイング,,合同会社,東京都,渋谷区,千駄ヶ谷５丁目２１番５号ミサワビル３Ｆ、ＰＥＲＣＨ,,13,113,1510051,,,,,,,2022-02-09,1,,,,,スタジオリトルウイング,0
54,1011101097700,新規,0,2022-02-09,2022-02-09,株式会社ふぞろい,,株式会社,東京都,新宿区,西新宿３丁目３番１３号西新宿水間ビル６階,,13,104,1600023,,,,,,,2022-02-09,1,,,,,フゾロイ,0
55,1011103011452,新規,0,2022-02-09,2022-02-09,合同会社ウィスティリア,,合同会社,東京都,新宿区,四谷４丁目６－１四谷サンハイツ３０８,,13,104,1600004,,,,,,,2022-02-09,1,,,,,ウィスティリア,0
62,1011503005062,新規,0,2022-02-09,2022-02-09,合同会社ウィングファイナンス,,合同会社,東京都,北区,滝野川７丁目４３番１号菱和パレス滝野川ＣＤＩ・１０２号室,,13,117,1140023,,,,,,,2022-02-09,1,,,,,ウィングファイナンス,0
69,1012403005235,新規,0,2022-02-09,2022-02-09,合同会社Ｕｒｂａｎ　ｐｅｔｓ　ｐｒｏｊｅｃｔ,,合同会社,東京都,稲城市,坂浜１２９２番地の２凛樹ｌａｃｏｌｌｉｎｅＢ号室,,13,225,2060822,,,,,,,2022-02-09,1,,,,,アーバンペッツプロジェクト,0
85,1020001144966,新規,0,2022-02-09,2022-02-09,株式会社アイカ鋼業,,株式会社,神奈川県,横浜市都筑区,東山田町１３１６番地１コーポ道中坂ＩＩ２０５,00125675,14,118,2240024,,,,,,,2022-02-09,1,,,,,アイカコウギョウ,0
86,1020001145171,新規,0,2022-02-09,2022-02-09,株式会社つなしま,,株式会社,神奈川県,横浜市神奈川区,金港町１番地１１、３００５号,,14,102,2210056,,,,,,,2022-02-09,1,,,,,ツナシマ,0
89,1020003021263,新規,0,2022-02-09,2022-02-09,Ｍｏｖｅｒ合同会社,,合同会社,神奈川県,横浜市港北区,新横浜２丁目５番地２２エクセレントプラザ新横浜６０２号,,14,109,2220033,,,,,,,2022-02-09,1,,,,,ムーヴァー,0
95,1021003011378,新規,0,2022-02-09,2022-02-09,リベルタ合同会社,,合同会社,神奈川県,綾瀬市,寺尾本町１丁目１０番１６号アポロン２０１,,14,218,2521133,,,,,,,2022-02-09,1,,,,,リベルタ,0
102,1030001146747,新規,0,2022-02-09,2022-02-09,ＯＮＳＹ株式会社,,株式会社,埼玉県,飯能市,大字笠縫１３５番地７,,11,209,3570045,,,,,,,2022-02-09,1,,,,,オーエヌエスワイ,0
103,1030001146763,新規,0,2022-02-09,2022-02-09,株式会社シザジー,,株式会社,埼玉県,川越市,大字的場２１６４番地２２レジェンドハイムナカノ１０１号室,,11,201,3501101,,,,,,,2022-02-09,1,,,,,シザジー,0
108,1030003018812,新規,0,2022-02-09,2022-02-09,合同会社ＤＯＭＥＥ,,合同会社,埼玉県,草加市,原町２丁目３番５－５号,,11,221,3400048,,,,,,,2022-02-09,1,,,,,ドメイイ,0
110,1040001122144,新規,0,2022-02-09,2022-02-09,株式会社ライフスタイルデザイン,,株式会社,千葉県,船橋市,飯山満町２丁目５０２番地６９,,12,204,2740822,,,,,,,2022-02-09,1,,,,,ライフスタイルデザイン,0
115,1050001050600,新規,0,2022-02-09,2022-02-09,ＢＬＵＥＳＴ株式会社,,株式会社,茨城県,結城市,大字結城６３３番地１,,08,207,3070001,,,,,,,2022-02-09,1,,,,,ブルースト,0
122,1080401025620,新規,0,2022-02-09,2022-02-09,株式会社ＰａｎＡｃｅａ,,株式会社,静岡県,浜松市中区,東伊場１丁目３１番７号,,22,131,4328036,,,,,,,2022-02-09,1,,,,,パナシーア,0
139,1120003021088,新規,0,2022-02-09,2022-02-09,合同会社ＳＡＬＵＴ,,合同会社,大阪府,大阪市西区,新町３丁目１２番２２－５０３号,,27,106,5500013,,,,,,,2022-02-09,1,,,,,サリュ,0
152,1130003007747,新規,0,2022-02-09,2022-02-09,合同会社Ｒｉｓｕｓ,,合同会社,京都府,京都市左京区,北白川久保田町６０番地２１,,26,103,6068266,,,,,,,2022-02-09,1,,,,,リーゾス,0
154,1140001124832,新規,0,2022-02-09,2022-02-09,株式会社まえ畑,,株式会社,兵庫県,姫路市,魚町１２４,,28,201,6700905,,,,,,,2022-02-09,1,,,,,マエハタ,0
155,1140001124865,新規,0,2022-02-09,2022-02-09,株式会社ディレクト,,株式会社,兵庫県,神戸市北区,南五葉２丁目１番２９号,,28,109,6511132,,,,,,,2022-02-09,1,,,,,ディレクト,0
156,1140001124873,新規,0,2022-02-09,2022-02-09,株式会社ＳＥＣＯＮＤ　ＢＡＳＥ　ＫＯＢＥ,,株式会社,兵庫県,神戸市兵庫区,永沢町４丁目４番５号,,28,105,6520816,,,,,,,2022-02-09,1,,,,,セカンドベースコウベ,0
157,1140003017340,新規,0,2022-02-09,2022-02-09,ノルデザイン合同会社,,合同会社,兵庫県,西宮市,東鳴尾町１丁目２－２８,,28,204,6638132,,,,,,,2022-02-09,1,,,,,ノルデザイン,0
178,1200005013307,新規,0,2022-02-09,2022-02-09,一般社団法人世界劇場,,その他の設立登記法人,岐阜県,美濃加茂市,西町４丁目５０番地,,21,211,5050046,,,,,,,2022-02-09,1,,,,,セカイゲキジョウ,0
180,1220001024685,新規,0,2022-02-09,2022-02-09,株式会社２ｋｏ,,株式会社,石川県,金沢市,寺町４丁目２番８号,,17,201,9218033,,,,,,,2022-02-09,1,,,,,ニコ,0
182,1220003003209,新規,0,2022-02-09,2022-02-09,合同会社リバース,,合同会社,石川県,金沢市,八日市２丁目２４３番地,,17,201,9218064,,,,,,,2022-02-09,1,,,,,リバース,0
192,1250001019402,新規,0,2022-02-09,2022-02-09,株式会社ハウスクリーニング・シマノ,,株式会社,山口県,下関市,上新地町１丁目７番１６号,,35,201,7500061,,,,,,,2022-02-09,1,,,,,ハウスクリーニングシマノ,0
193,1260003003799,新規,0,2022-02-09,2022-02-09,合同会社岡山事務管理,,合同会社,岡山県,岡山市東区,瀬戸町万富１８７０番地,,33,103,7090841,,,,,,,2022-02-09,1,,,,,オカヤマジムカンリ,0
196,1290001096388,新規,0,2022-02-09,2022-02-09,幸せ太郎株式会社,,株式会社,福岡県,福岡市中央区,六本松４丁目９番３１号,,40,133,8100044,,,,,,,2022-02-09,1,,,,,シアワセタロウ,0
197,1290001096396,新規,0,2022-02-09,2022-02-09,株式会社ゼロワン,,株式会社,福岡県,筑紫野市,杉塚７丁目１４番３０号,,40,217,8180054,,,,,,,2022-02-09,1,,,,,ゼロワン,0
198,1290801028251,新規,0,2022-02-09,2022-02-09,うみのいえ企画株式会社,,株式会社,福岡県,北九州市八幡東区,春の町５丁目１番１５－１１０１号,,40,108,8050050,,,,,,,2022-02-09,1,,,,,ウミノイエキカク,0
199,1300001012806,新規,0,2022-02-09,2022-02-09,株式会社オートプラス九州,,株式会社,佐賀県,佐賀市,大和町大字久池井２９１２番地５,,41,201,8400202,,,,,,,2022-02-09,1,,,,,オートプラスキュウシュウ,0
205,1330005010464,新規,0,2022-02-09,2022-02-09,一般社団法人起立性調節障害改善協会,,その他の設立登記法人,熊本県,熊本市中央区,神水１丁目２４番６号建神ビル８階,,43,101,8620954,,,,,,,2022-02-09,1,,,,,キリツセイキョウチョウセツショウガイカイゼンキョウカイ,0
226,1430001085970,新規,0,2022-02-09,2022-02-09,株式会社北広ワークス,,株式会社,北海道,北広島市,大曲末広５丁目８番地１,,01,234,0611272,,,,,,,2022-02-09,1,,,,,キタヒロワークス,0
229,1430003013616,新規,0,2022-02-09,2022-02-09,合同会社Ａ．Ｔ,,合同会社,北海道,札幌市中央区,南六条西２丁目８－７－１２０１,,01,101,0640806,,,,,,,2022-02-09,1,,,,,エイティー,0
234,1490001010114,新規,0,2022-02-09,2022-02-09,株式会社アイマー四国パワーギルド,,株式会社,高知県,高知市,一宮中町１丁目９番５１－２号　ファミールＫＩＹＯＴＯ・Ｂ２０１,,39,201,7818134,,,,,,,2022-02-09,1,,,,,アイマーシコクパワーギルド,0
254,2010001224413,新規,0,2022-02-09,2022-02-09,株式会社ホワイトバレー,,株式会社,東京都,千代田区,神田佐久間町１丁目８番４号アルテール秋葉原７０８,,13,101,1010025,,,,,,,2022-02-09,1,,,,,ホワイトバレー,0
255,2010001224462,新規,0,2022-02-09,2022-02-09,株式会社エトワール,,株式会社,東京都,文京区,目白台１丁目８番６号メゾンド目白台１０２号,,13,105,1120015,,,,,,,2022-02-09,1,,,,,エトワール,0
257,2010003036955,新規,0,2022-02-09,2022-02-09,合同会社ＷＨＩＴＥ,,合同会社,東京都,千代田区,霞が関３丁目２番５号,,13,101,1000013,,,,,,,2022-02-09,1,,,,,ホワイト,0
258,2010003036988,新規,0,2022-02-09,2022-02-09,Ｅｎｚｏ　Ｉｎｔｅｒｎａｔｉｏｎａｌ合同会社,,合同会社,東京都,中央区,銀座１丁目２２番１１号銀座大竹ビジデンス２階,,13,102,1040061,,,,,,,2022-02-09,1,,,,,エンゾインターナショナル,0
267,2010401165463,新規,0,2022-02-09,2022-02-09,株式会社Ｆｉｖｅｗａｒｅ,,株式会社,東京都,港区,南青山２丁目２番１５号,,13,103,1070062,,,,,,,2022-02-09,1,,,,,ファイブウェア,0
271,2010403027059,新規,0,2022-02-09,2022-02-09,合同会社ＫＩＺＵＮＡ,,合同会社,東京都,港区,西新橋１丁目５番９号,,13,103,1050003,,,,,,,2022-02-09,1,,,,,キズナ,0
272,2010403027067,新規,0,2022-02-09,2022-02-09,ＳＣＧ７０合同会社,,合同会社,東京都,港区,虎ノ門４丁目１番２８号,,13,103,1050001,,,,,,,2022-02-09,1,,,,,エスシージーセブンティ,0
275,2010503006499,新規,0,2022-02-09,2022-02-09,大和住信合同会社,,合同会社,東京都,台東区,下谷１丁目１３－２,,13,106,1100004,,,,,,,2022-02-09,1,,,,,ダイワジュウシン,0
276,2010601060613,新規,0,2022-02-09,2022-02-09,株式会社バーンルアイ,,株式会社,東京都,江東区,三好２丁目５番１号,,13,108,1350022,,,,,,,2022-02-09,1,,,,,バーンルアイ,0
277,2010601060654,新規,0,2022-02-09,2022-02-09,株式会社ウエルストン,,株式会社,東京都,墨田区,両国４丁目３番９号,,13,107,1300026,,,,,,,2022-02-09,1,,,,,ウエルストン,0
289,2010903007139,新規,0,2022-02-09,2022-02-09,合同会社ｆｕｊｉｍｏｔｏ,,合同会社,東京都,世田谷区,駒沢４丁目２０番１３号,,13,112,1540012,,,,,,,2022-02-09,1,,,,,フジモト,0
300,2011103011451,新規,0,2022-02-09,2022-02-09,合同会社ＯＡジャパン,,合同会社,東京都,新宿区,上落合３丁目８－２２落合シティタワー９０２,,13,104,1610034,,,,,,,2022-02-09,1,,,,,オーエージャパン,0
303,2011403003561,新規,0,2022-02-09,2022-02-09,合同会社ＳＫＹ,,合同会社,東京都,板橋区,中丸町１１番１７－５０８号クレヴィスタ池袋ウエスト,,13,119,1730026,,,,,,,2022-02-09,1,,,,,スカイ,0
304,2011801040314,新規,0,2022-02-09,2022-02-09,大徳貿易株式会社,,株式会社,東京都,足立区,東保木間１丁目２６番３０－１０１号,,13,121,1210063,,,,,,,2022-02-09,1,,,,,ダイトクボウエキ,0
313,2013301048655,新規,0,2022-02-09,2022-02-09,株式会社ＧＯＧＯＬＩＮＫ,,株式会社,東京都,豊島区,北大塚２丁目１２－１,,13,116,1700004,,,,,,,2022-02-09,1,,,,,ゴーゴーリンク,0
322,2020001145179,新規,0,2022-02-09,2022-02-09,横浜機材株式会社,,株式会社,神奈川県,横浜市南区,永楽町２丁目２３－２－１０１,,14,105,2320031,,,,,,,2022-02-09,1,,,,,ヨコハマキザイ,0
323,2020001145195,新規,0,2022-02-09,2022-02-09,株式会社Ｒｅｌｉｇｉｏｎ－Ｓｐｒｔ．,,株式会社,神奈川県,川崎市川崎区,駅前本町１１番地２川崎フロンティアビル４階,,14,131,2100007,,,,,,,2022-02-09,1,,,,,リリジョンサポート,0
334,2030001146746,新規,0,2022-02-09,2022-02-09,株式会社シンセリティ,,株式会社,埼玉県,ふじみ野市,大井５１４番地５コスモふじみ野Ｓ－４１９,,11,245,3560053,,,,,,,2022-02-09,1,,,,,シンセリティ,0
335,2030001146754,新規,0,2022-02-09,2022-02-09,ティール工房株式会社,,株式会社,埼玉県,熊谷市,末広３丁目５番８４号,,11,202,3600031,,,,,,,2022-02-09,1,,,,,ティールコウボウ,0
336,2030001146762,新規,0,2022-02-09,2022-02-09,株式会社四葉オート,,株式会社,埼玉県,吉川市,二ツ沼２丁目５５－３,,11,243,3420032,,,,,,,2022-02-09,1,,,,,ヨツバオート,0
342,2040001122184,新規,0,2022-02-09,2022-02-09,株式会社ＭＳＴコミュニケーション,,株式会社,千葉県,流山市,野々下３丁目７１番地の２０,,12,220,2700135,,,,,,,2022-02-09,1,,,,,エムエスティコミュニケーション,0
349,2050001050608,新規,0,2022-02-09,2022-02-09,株式会社Ｅｌｌｙ’ｓＴｒａｄｉｎｇ,,株式会社,茨城県,小美玉市,堅倉１７５１番地１６,,08,236,3190106,,,,,,,2022-02-09,1,,,,,エリーズトレーディング,0
357,2070003004386,新規,0,2022-02-09,2022-02-09,小春日和合同会社,,合同会社,群馬県,太田市,大原町４６４番地１尾池マンション１０３,,10,205,3792304,,,,,,,2022-02-09,1,,,,,コハルビヨリ,0
362,2100001035058,新規,0,2022-02-09,2022-02-09,株式会社Ｒｅｂｉｒｔｈ　Ｊａｐａｎ,,株式会社,長野県,松本市,開智３丁目１番３７号,,20,202,3900876,,,,,,,2022-02-09,1,,,,,リバースジャパン,0
373,2120001243583,新規,0,2022-02-09,2022-02-09,和泰株式会社,,株式会社,大阪府,大阪市住吉区,長居東４丁目１５－２１－２０５号,,27,120,5580004,,,,,,,2022-02-09,1,,,,,ワタイ,0
374,2120001243674,新規,0,2022-02-09,2022-02-09,心元投資株式会社,,株式会社,大阪府,大阪市北区,天満２丁目９番１７号天満双葉ビル２０３号室,,27,127,5300043,,,,,,,2022-02-09,1,,,,,シンゲントウシ,0
375,2120001243708,新規,0,2022-02-09,2022-02-09,株式会社Ｆｅｌｉｃｅ,,株式会社,大阪府,大阪市中央区,南久宝寺町１丁目５番９－１４１２号室,,27,128,5410058,,,,,,,2022-02-09,1,,,,,フェリーチェ,0
376,2120001243716,新規,0,2022-02-09,2022-02-09,山都エステート株式会社,,株式会社,大阪府,大阪市中央区,谷町４丁目５－１４ＭＩＴＯ谷四フロント西館２０１,,27,128,5400012,,,,,,,2022-02-09,1,,,,,サントエステート,0
377,2120001243749,新規,0,2022-02-09,2022-02-09,富安投資株式会社,,株式会社,大阪府,大阪市福島区,福島７丁目１１番５２号,,27,103,5530003,,,,,,,2022-02-09,1,,,,,フアントウシ,0
378,2120001243757,新規,0,2022-02-09,2022-02-09,株式会社マルエイ工務店,,株式会社,大阪府,門真市,島頭１丁目３番１６号,,27,223,5710016,,,,,,,2022-02-09,1,,,,,マルエイコウムテン,0
379,2120001243765,新規,0,2022-02-09,2022-02-09,株式会社ＵＳＫ　ＣＯＩＮ,,株式会社,大阪府,大阪市西区,南堀江４丁目１１番８－１９０１号,,27,106,5500015,,,,,,,2022-02-09,1,,,,,ユーエスケーコイン,0
383,2120101065060,新規,0,2022-02-09,2022-02-09,株式会社ｍｏｖｅ,,株式会社,大阪府,泉大津市,池浦町３丁目４番２０－１６号,,27,206,5950024,,,,,,,2022-02-09,1,,,,,ムーブ,0
389,2120901045567,新規,0,2022-02-09,2022-02-09,フレスホールディングス株式会社,,株式会社,大阪府,箕面市,船場東２丁目４番１号フレスデザインビル５Ｆ,,27,220,5620035,,,,,,,2022-02-09,1,,,,,フレスホールディングス,0
392,2122001035572,新規,0,2022-02-09,2022-02-09,株式会社ＯＦＦＩＣＥ　Ｋ,,株式会社,大阪府,東大阪市,西堤２丁目３番４５号,,27,227,5770042,,,,,,,2022-02-09,1,,,,,オフィスケー,0
399,2130001071083,新規,0,2022-02-09,2022-02-09,株式会社１１,,株式会社,京都府,京都市中京区,油小路１５６ザ・パークハウス三条油小路５０８号,,26,104,6040000,,,,,,,2022-02-09,1,,,,,イチイチ,0
406,2140001124872,新規,0,2022-02-09,2022-02-09,株式会社ひまわり,,株式会社,兵庫県,西脇市,西脇８８０番地の１,,28,213,6770015,,,,,,,2022-02-09,1,,,,,ヒマワリ,0
412,2150001025319,新規,0,2022-02-09,2022-02-09,株式会社ハウシード,,株式会社,奈良県,大和高田市,三和町４７５番地１,,29,202,6350014,,,,,,,2022-02-09,1,,,,,ハウシード,0
414,2160001023973,新規,0,2022-02-09,2022-02-09,株式会社リカマンプロ,,株式会社,滋賀県,長浜市,五村１９３番地,,25,203,5290141,,,,,,,2022-02-09,1,,,,,リカマンプロ,0
432,2180001149874,新規,0,2022-02-09,2022-02-09,ジョヴィエージェント株式会社,,株式会社,愛知県,名古屋市中区,新栄１丁目１２番３号,,23,106,4600007,,,,,,,2022-02-09,1,,,,,ジョヴィエージェント,0
433,2180001149882,新規,0,2022-02-09,2022-02-09,株式会社Ｌｉｂｅｒｔｙ,,株式会社,愛知県,名古屋市港区,惟信町４丁目３７番地の１,,23,111,4550823,,,,,,,2022-02-09,1,,,,,リバティ,0
434,2180001149899,新規,0,2022-02-09,2022-02-09,株式会社翔,,株式会社,愛知県,日進市,折戸町梨子ノ木４６番地８,,23,230,4700115,,,,,,,2022-02-09,1,,,,,ショウ,0
440,2180305009295,新規,0,2022-02-09,2022-02-09,ＮＰＯ法人東三河ゼロの会,,その他の設立登記法人,愛知県,豊橋市,談合町７６番地,,23,201,4400816,,,,,,,2022-02-09,1,,,,,ヒガシミカワゼロノカイ,0
449,2220003003208,新規,0,2022-02-09,2022-02-09,Ｈｅｒｔｚ合同会社,,合同会社,石川県,金沢市,主計町２番１０号,,17,201,9200908,,,,,,,2022-02-09,1,,,,,ヘルツ,0
453,2240001059308,新規,0,2022-02-09,2022-02-09,株式会社ＴＡＢＥＴＥＹＡ,,株式会社,広島県,広島市西区,草津浜町２４番１４号,,34,104,7330862,,,,,,,2022-02-09,1,,,,,タベテヤ,0
457,2260001036511,新規,0,2022-02-09,2022-02-09,株式会社Ｈｏｌｙ　Ｊａｐａｎ,,株式会社,岡山県,総社市,三須１３番地,,33,208,7191124,,,,,,,2022-02-09,1,,,,,ホーリージャパン,0
461,2290001096379,新規,0,2022-02-09,2022-02-09,株式会社三洋テクノ,,株式会社,福岡県,福岡市博多区,南八幡町１丁目８番６－４０７号アーバンパレス井尻南,,40,132,8120886,,,,,,,2022-02-09,1,,,,,サンヨウテクノ,0
462,2290001096387,新規,0,2022-02-09,2022-02-09,たにやまカンパニー株式会社,,株式会社,福岡県,福岡市早良区,百道浜４丁目３１番１０－９０５号,,40,137,8140001,,,,,,,2022-02-09,1,,,,,タニヤマカンパニー,0
463,2290001096395,新規,0,2022-02-09,2022-02-09,株式会社ＧＬＯＷＳ,,株式会社,福岡県,福岡市城南区,長尾４丁目５番１０－３０２号,,40,136,8140123,,,,,,,2022-02-09,1,,,,,グロウス,0
472,2290801028250,新規,0,2022-02-09,2022-02-09,株式会社Ｔ‐Ｇｒｏｕｐ,,株式会社,福岡県,北九州市小倉北区,熊谷４丁目１３番２２号－２０２,,40,106,8030864,,,,,,,2022-02-09,1,,,,,ティーグループ,0
479,2320003003726,新規,0,2022-02-09,2022-02-09,ＲＫＷｃｏｍｐａｎｙ合同会社,,合同会社,大分県,大分市,大字永興８４０番地の３城南山手台７－１７,,44,201,8700883,,,,,,,2022-02-09,1,,,,,アールケイダブルカンパニー,0
482,2350001017576,新規,0,2022-02-09,2022-02-09,株式会社あらた,,株式会社,宮崎県,宮崎市,高松町２番３０号第二杏国ビル１階,,45,201,8800003,,,,,,,2022-02-09,1,,,,,アラタ,0
485,2360005006590,新規,0,2022-02-09,2022-02-09,一般社団法人宮城大弥基金,,その他の設立登記法人,沖縄県,宜野湾市,真志喜２丁目１１番１号,,47,205,9012224,,,,,,,2022-02-09,1,,,,,ミヤギヒロヤキキン,0
488,2370001048198,新規,0,2022-02-09,2022-02-09,株式会社エーアイテクノロジー,,株式会社,宮城県,仙台市青葉区,高松１丁目１５番１７号３０２号室,,04,101,9810907,,,,,,,2022-02-09,1,,,,,エーアイテクノロジー,0
499,2420001017734,新規,0,2022-02-09,2022-02-09,株式会社ＯＲＡＮＤＯ　ＰＬＵＳ,,株式会社,青森県,弘前市,大字百石町４７番地２,,02,202,0368035,,,,,,,2022-02-09,1,,,,,オランドプラス,0
507,2462501000926,新規,0,2022-02-09,2022-02-09,中林牧場株式会社,,株式会社,北海道,標津郡中標津町,字俵橋八線北８番地３,,01,692,0861137,,,,,,,2022-02-09,1,,,,,ナカバヤシボクジョウ,0
517,2500001023996,新規,0,2022-02-09,2022-02-09,株式会社エー・リアルシステム,,株式会社,愛媛県,松山市,小坂５丁目４番１８号,,38,201,7900963,,,,,,,2022-02-09,1,,,,,エーリアルシステム,0
533,3010001224305,新規,0,2022-02-09,2022-02-09,株式会社緑地開発,,株式会社,東京都,中央区,築地１丁目１２番１３号,,13,102,1040045,,,,,,,2022-02-09,1,,,,,,0
534,3010001224420,新規,0,2022-02-09,2022-02-09,株式会社Ｕｍｕｔ,,株式会社,東京都,中央区,勝どき６丁目３番１－１１２１号,,13,102,1040054,,,,,,,2022-02-09,1,,,,,ウミュート,0
535,3010001224494,新規,0,2022-02-09,2022-02-09,株式会社ナイスビュー,,株式会社,東京都,文京区,小日向３丁目１－６インペリアルハイツアミダ１０６,,13,105,1120006,,,,,,,2022-02-09,1,,,,,ナイスビュー,0
536,3010001224511,新規,0,2022-02-09,2022-02-09,株式会社Ｒｅｙ,,株式会社,東京都,文京区,白山４丁目３７番２６－６０５号,,13,105,1120001,,,,,,,2022-02-09,1,,,,,レイ,0
540,3010003036987,新規,0,2022-02-09,2022-02-09,オフィスＧＴＮ合同会社,,合同会社,東京都,文京区,千駄木２丁目２８－５,,13,105,1130022,,,,,,,2022-02-09,1,,,,,オフィスジーティーエヌ,0
541,3010003036995,新規,0,2022-02-09,2022-02-09,モノグローブイデア合同会社,,合同会社,東京都,中央区,日本橋箱崎町１番２号ＴＨＥＳＨＯＲＥ日本橋茅場町２Ｆオフィス７,,13,102,1030015,,,,,,,2022-02-09,1,,,,,モノグローブイデア,0
550,3010401165495,新規,0,2022-02-09,2022-02-09,株式会社Ｉ’ＦＯＲＳｉＳ,,株式会社,東京都,港区,赤坂６丁目７番７－７０３号,,13,103,1070052,,,,,,,2022-02-09,1,,,,,アイフォーシス,0
552,3010403027066,新規,0,2022-02-09,2022-02-09,Ｅｎｔａｓｕ　Ｃｒｅａｔｉｖｅ合同会社,,合同会社,東京都,港区,浜松町２丁目２番１５号浜松町ダイヤビル２Ｆ,,13,103,1050013,,,,,,,2022-02-09,1,,,,,エンタスクリエイティブ,0
553,3010601060645,新規,0,2022-02-09,2022-02-09,株式会社ライヴ,,株式会社,東京都,江東区,東雲１丁目９番３１－４２０２号,,13,108,1350062,,,,,,,2022-02-09,1,,,,,ライヴ,0
560,3010701042221,新規,0,2022-02-09,2022-02-09,株式会社フルトーク,,株式会社,東京都,品川区,東大井４丁目１１番１０号,,13,109,1400011,,,,,,,2022-02-09,1,,,,,フルトーク,0
566,3010903007138,新規,0,2022-02-09,2022-02-09,合同会社トップビート,,合同会社,東京都,世田谷区,世田谷３丁目１番１号ハウスアウトバーン２０３号室,,13,112,1540017,,,,,,,2022-02-09,1,,,,,トップビート,0
572,3011001145557,新規,0,2022-02-09,2022-02-09,安達ホールディングス株式会社,,株式会社,東京都,渋谷区,千駄ヶ谷３丁目１１番５号,,13,113,1510051,,,,,,,2022-02-09,1,,,,,アダチホールディングス,0
573,3011001145631,新規,0,2022-02-09,2022-02-09,ａｄａｎｓｏｎｉａ株式会社,,株式会社,東京都,渋谷区,富ヶ谷２丁目２９－１０－１２１号,,13,113,1510063,,,,,,,2022-02-09,1,,,,,アダンソニア,0
574,3011003014149,新規,0,2022-02-09,2022-02-09,合同会社神南エステート,,合同会社,東京都,渋谷区,代々木１丁目５８番１０号代々木松井ビル５階,,13,113,1510053,,,,,,,2022-02-09,1,,,,,ジンナンエステート,0
576,3011101097756,新規,0,2022-02-09,2022-02-09,株式会社Ｎｅｕｔｒａｌ　Ｆｏｏｄｓ　Ｔｏｋｙｏ,,株式会社,東京都,新宿区,西新宿３丁目３番１３号西新宿水間ビル６階,,13,104,1600023,,,,,,,2022-02-09,1,,,,,ニュートラルフーズトウキョウ,0
578,3011403003560,新規,0,2022-02-09,2022-02-09,合同会社ＳＡＹＡＰＡＴＲＩ,,合同会社,東京都,板橋区,東新町１丁目１８番１２号,,13,119,1740074,,,,,,,2022-02-09,1,,,,,サヤパトリ,0
589,3012701016923,新規,0,2022-02-09,2022-02-09,株式会社ＫＩＳ,,株式会社,東京都,東村山市,本町３丁目８番地６９,,13,213,1890014,,,,,,,2022-02-09,1,,,,,ケイアイエス,0
591,3012801021385,新規,0,2022-02-09,2022-02-09,株式会社吉澤産業,,株式会社,東京都,立川市,錦町１丁目３番１６号,,13,202,1900022,,,,,,,2022-02-09,1,,,,,ヨシザワサンギョウ,0
606,3020001145186,新規,0,2022-02-09,2022-02-09,株式会社クローバー,,株式会社,神奈川県,横浜市泉区,和泉中央南４丁目４番３６号,,14,116,2450023,,,,,,,2022-02-09,1,,,,,クローバー,0
610,3020003021286,新規,0,2022-02-09,2022-02-09,アミコ合同会社,,合同会社,神奈川県,横浜市鶴見区,栄町通２丁目１２番地２９,,14,101,2300038,,,,,,,2022-02-09,1,,,,,アミコ,0
612,3021001075167,新規,0,2022-02-09,2022-02-09,株式会社ＯｖｅｒＴｅｃｈ,,株式会社,神奈川県,厚木市,妻田東３丁目１０番１８－４０１号,,14,212,2430813,,,,,,,2022-02-09,1,,,,,オーバーテック,0
643,3050003006334,新規,0,2022-02-09,2022-02-09,合同会社Ｇ．Ｋ　Ｍｏｔｏｒｓ,,合同会社,茨城県,かすみがうら市,宍倉５６８６番地２,,08,230,3000121,,,,,,,2022-02-09,1,,,,,ジーケイモータース,0
657,3080001024731,新規,0,2022-02-09,2022-02-09,株式会社用宗建設,,株式会社,静岡県,静岡市駿河区,用宗４丁目１７番１０号２階,,22,102,4210122,,,,,,,2022-02-09,1,,,,,モチムネケンセツ,0
658,3080001024748,新規,0,2022-02-09,2022-02-09,株式会社マプラス,,株式会社,静岡県,焼津市,中港２丁目２番１５号,,22,212,4250021,,,,,,,2022-02-09,1,,,,,マプラス,0
665,3090003002040,新規,0,2022-02-09,2022-02-09,合同会社８８ＰＥＡＫＳ,,合同会社,山梨県,北杜市,高根町清里３５４５－５５２１,,19,209,4070301,,,,,,,2022-02-09,1,,,,,,0
669,3100003006411,新規,0,2022-02-09,2022-02-09,松湖合同会社,,合同会社,長野県,安曇野市,豊科高家４５６７番地,,20,220,3998204,,,,,,,2022-02-09,1,,,,,マツコ,0
693,3120001243764,新規,0,2022-02-09,2022-02-09,Ｓｈｉｎｅ’ｓ株式会社,,株式会社,大阪府,大阪市浪速区,大国１丁目１番３－９０２号,,27,111,5560014,,,,,,,2022-02-09,1,,,,,シャインズ,0
695,3120003021103,新規,0,2022-02-09,2022-02-09,合同会社大映ソアレ,,合同会社,大阪府,枚方市,岡本町７番１号,,27,210,5730031,,,,,,,2022-02-09,1,,,,,タイエイソアレ,0
696,3120003021111,新規,0,2022-02-09,2022-02-09,合同会社ＲＡＫＵＣＨＩＮ,,合同会社,大阪府,枚方市,長尾家具町１丁目１１番地６号,,27,210,5730102,,,,,,,2022-02-09,1,,,,,ラクチン,0
701,3120903004033,新規,0,2022-02-09,2022-02-09,合同会社サボテン,,合同会社,大阪府,豊中市,長興寺南４丁目３番３１号グランベガ緑地公園２０２号室,,27,203,5610874,,,,,,,2022-02-09,1,,,,,サボテン,0
708,3130001071116,新規,0,2022-02-09,2022-02-09,株式会社アルドルｔｏフィデス,,株式会社,京都府,宇治市,明星町２丁目３３番地の４９,,26,204,6110014,,,,,,,2022-02-09,1,,,,,アイドルトゥフィデス,0
713,3140001124863,新規,0,2022-02-09,2022-02-09,株式会社ＴＮＣ,,株式会社,兵庫県,南あわじ市,松帆江尻４７１－１,,28,224,6560303,,,,,,,2022-02-09,1,,,,,ティーエヌシー,0
715,3140003017339,新規,0,2022-02-09,2022-02-09,合同会社和雄商店,,合同会社,兵庫県,神戸市垂水区,本多聞３丁目１番２７－２０４号,,28,108,6550006,,,,,,,2022-02-09,1,,,,,カズオショウテン,0
716,3160001023972,新規,0,2022-02-09,2022-02-09,株式会社リカマンイースト,,株式会社,滋賀県,長浜市,五村１９３番地,,25,203,5290141,,,,,,,2022-02-09,1,,,,,リカマンイースト,0
723,3180001149840,新規,0,2022-02-09,2022-02-09,株式会社節辰ホールディングス,,株式会社,愛知県,名古屋市港区,藤前３丁目５０２番地,,23,111,4550855,,,,,,,2022-02-09,1,,,,,フシタツホールディングス,0
725,3180003023481,新規,0,2022-02-09,2022-02-09,合同会社ウィッシュ総合企画,,合同会社,愛知県,名古屋市名東区,貴船２丁目７０２番地ネオウィスタリア１－３０９号,,23,115,4650058,,,,,,,2022-02-09,1,,,,,ウィッシュソウゴウキカク,0
732,3190001029109,新規,0,2022-02-09,2022-02-09,松阪精工ホールディングス株式会社,,株式会社,三重県,松阪市,広陽町１２番地,,24,204,5150053,,,,,,,2022-02-09,1,,,,,マツザカセイコウホールディングス,0
733,3200001039733,新規,0,2022-02-09,2022-02-09,フィンコンサルティング株式会社,,株式会社,岐阜県,養老郡養老町,船附１１４３－１,,21,341,5031382,,,,,,,2022-02-09,1,,,,,フィンコンサルティング,0
737,3220003003207,新規,0,2022-02-09,2022-02-09,アースワーク合同会社,,合同会社,石川県,金沢市,諸江町上丁４６２番地１,,17,201,9200015,,,,,,,2022-02-09,1,,,,,アースワーク,0
738,3230001019229,新規,0,2022-02-09,2022-02-09,株式会社ＫＡＮＤＡＳ,,株式会社,富山県,富山市,大町１４８番地１,,16,201,9398073,,,,,,,2022-02-09,1,,,,,カンダス,0
739,3230003001795,新規,0,2022-02-09,2022-02-09,合同会社ＴｉＭ,,合同会社,富山県,氷見市,余川３５１５,,16,205,9350061,,,,,,,2022-02-09,1,,,,,ティム,0
746,3250001019409,新規,0,2022-02-09,2022-02-09,株式会社Ｌｉｎｋｓ,,株式会社,山口県,周南市,岡田町３番１９号,,35,215,7450066,,,,,,,2022-02-09,1,,,,,リンクス,0
748,3260003003797,新規,0,2022-02-09,2022-02-09,合同会社ＦＲＡＭＢＯｉＳＥ,,合同会社,岡山県,都窪郡早島町,前潟７１０番５号,,33,423,7010303,,,,,,,2022-02-09,1,,,,,フランボワーズ,0
749,3260005011030,新規,0,2022-02-09,2022-02-09,一般社団法人瀬戸内市女子硬式野球部,,その他の設立登記法人,岡山県,瀬戸内市,長船町東須恵１３７３－５,,33,212,7014262,,,,,,,2022-02-09,1,,,,,セトウチシジョシコウシキヤキュウブ,0
755,3290001096361,新規,0,2022-02-09,2022-02-09,丸菱福岡株式会社,,株式会社,福岡県,福岡市博多区,綱場町８番３１号,,40,132,8120024,,,,,,,2022-02-09,1,,,,,マルビシフクオカ,0
756,3290001096386,新規,0,2022-02-09,2022-02-09,株式会社ＬＥＮＯＢＡＳ,,株式会社,福岡県,福岡市西区,西都２丁目１１番２６号,,40,135,8190367,,,,,,,2022-02-09,1,,,,,レノバス,0
757,3290001096403,新規,0,2022-02-09,2022-02-09,株式会社ＫＬＦ,,株式会社,福岡県,福岡市博多区,東公園１番１８号,,40,132,8120045,,,,,,,2022-02-09,1,,,,,ケイエルエフ,0
762,3290003012119,新規,0,2022-02-09,2022-02-09,合同会社佐助,,合同会社,福岡県,宗像市,泉ヶ丘２丁目３４番地１,,40,220,8114142,,,,,,,2022-02-09,1,,,,,サスケ,0
763,3290005018551,新規,0,2022-02-09,2022-02-09,アンフィニ社会保険労務士法人,,その他の設立登記法人,福岡県,福岡市博多区,対馬小路１１番１４号,,40,132,8120020,,,,,,,2022-02-09,1,,,,,アンフィニ,0
770,3320003003725,新規,0,2022-02-09,2022-02-09,ＱＵＹＮＨ　ＬＡＭ合同会社,,合同会社,大分県,豊後高田市,玉津１３２４番地１,,44,209,8790606,,,,,,,2022-02-09,1,,,,,クインラム,0
778,3340003003707,新規,0,2022-02-09,2022-02-09,合同会社ラウレア,,合同会社,鹿児島県,鹿児島市,新町４番１７号,,46,201,8920832,,,,,,,2022-02-09,1,,,,,ラウレア,0
780,3350001017575,新規,0,2022-02-09,2022-02-09,株式会社サニーファーム,,株式会社,宮崎県,宮崎市,佐土原町下田島４８６３番地の２,,45,201,8800211,,,,,,,2022-02-09,1,,,,,サニーファーム,0
802,3420005007788,新規,0,2022-02-09,2022-02-09,一般社団法人桜ＳＫＹ,,その他の設立登記法人,青森県,黒石市,大字大川原字萢森下３５番地,,02,204,0360401,,,,,,,2022-02-09,1,,,,,サクラスカイ,0
804,3430001085977,新規,0,2022-02-09,2022-02-09,株式会社ＫＡＩ,,株式会社,北海道,札幌市厚別区,厚別西五条４丁目９－５２－１０１,,01,108,0040065,,,,,,,2022-02-09,1,,,,,カイ,0
808,3430003013614,新規,0,2022-02-09,2022-02-09,合同会社ワン,,合同会社,北海道,札幌市白石区,菊水三条１丁目４番１５号,,01,104,0030803,,,,,,,2022-02-09,1,,,,,ワン,0
818,3480001011648,新規,0,2022-02-09,2022-02-09,株式会社ＢＯＮ　ＣＯＦＦＲＥＴ,,株式会社,徳島県,阿波市,吉野町西条字東姥御前２７９番地１,,36,206,7711402,,,,,,,2022-02-09,1,,,,,ボンコフレット,0
829,4010001224403,新規,0,2022-02-09,2022-02-09,Ｓｉｇｎｐｏｓｔ株式会社,,株式会社,東京都,中央区,晴海３丁目１３番１号ＤｅｕｘＴｏｕｒｓＥａｓｔＴｏｗｅｒ４７１７号室,,13,102,1040053,,,,,,,2022-02-09,1,,,,,サインポスト,0
830,4010001224452,新規,0,2022-02-09,2022-02-09,ジャパンボルタ株式会社,,株式会社,東京都,千代田区,岩本町２丁目１番１７号鈴与日本橋ビル５階,,13,101,1010032,,,,,,,2022-02-09,1,,,,,ジャパンボルタ,0
835,4010003036978,新規,0,2022-02-09,2022-02-09,合同会社ＨＤＹＭ,,合同会社,東京都,中央区,銀座１丁目１２－４Ｎ＆Ｅ．ＢＬＤ．７階,,13,102,1040061,,,,,,,2022-02-09,1,,,,,エイチディーワイエム,0
862,4010403027032,新規,0,2022-02-09,2022-02-09,ＳＯＭＥＳ合同会社,,合同会社,東京都,港区,新橋５丁目３１番８号ル・グラシエルＢＬＤＧ．３２－５０３号室,,13,103,1050004,,,,,,,2022-02-09,1,,,,,サムス,0
863,4010403027057,新規,0,2022-02-09,2022-02-09,合同会社Ｂｅｔｔｙ　Ｂｅａｕｔｙ,,合同会社,東京都,港区,南麻布４丁目１４－２ＬＡＺ南麻布ビル２Ｆ,,13,103,1060047,,,,,,,2022-02-09,1,,,,,ベティビューティー,0
864,4010405020654,新規,0,2022-02-09,2022-02-09,一般社団法人アーバンスポーツ＆カルチャーコミュニティー,,その他の設立登記法人,東京都,港区,赤坂７丁目２番３号赤坂ジートルンク３階,,13,103,1070052,,,,,,,2022-02-09,1,,,,,アーバンスポーツカルチャーコミュニティー,0
892,4011001145523,新規,0,2022-02-09,2022-02-09,株式会社アカデミア,,株式会社,東京都,目黒区,柿の木坂１丁目２７番１０号,,13,110,1520022,,,,,,,2022-02-09,1,,,,,アカデミア,0
893,4011001145589,新規,0,2022-02-09,2022-02-09,株式会社ＧＸ　ｆｏｒｃｅ,,株式会社,東京都,目黒区,祐天寺１丁目２７番２－１０１号,,13,110,1530052,,,,,,,2022-02-09,1,,,,,ジーエックスフォース,0
894,4011001145597,新規,0,2022-02-09,2022-02-09,株式会社Ｕ＆Ｉ,,株式会社,東京都,渋谷区,神宮前６丁目２３番４号桑野ビル２階,,13,113,1500001,,,,,,,2022-02-09,1,,,,,ユーアンドアイ,0
895,4011001145606,新規,0,2022-02-09,2022-02-09,株式会社リイマジントウキョウ,,株式会社,東京都,渋谷区,神宮前６丁目２３番４号桑野ビル２階,,13,113,1500001,,,,,,,2022-02-09,1,,,,,リイマジントウキョウ,0
900,4011101097730,新規,0,2022-02-09,2022-02-09,株式会社ＡＣＴ,,株式会社,東京都,新宿区,北新宿３丁目２番１－３１２号レグノセレーノ,,13,104,1690074,,,,,,,2022-02-09,1,,,,,アクト,0
901,4011101097755,新規,0,2022-02-09,2022-02-09,Ｄｅ－Ｌｉｆｅ株式会社,,株式会社,東京都,新宿区,西新宿３丁目３－１３西新宿水間ビル６Ｆ,,13,104,1600023,,,,,,,2022-02-09,1,,,,,ディライフ,0
902,4011101097771,新規,0,2022-02-09,2022-02-09,株式会社ネクスト,,株式会社,東京都,新宿区,新宿１丁目１３番９号,,13,104,1600022,,,,,,,2022-02-09,1,,,,,,0
903,4011103011458,新規,0,2022-02-09,2022-02-09,伊真商事合同会社,,合同会社,東京都,新宿区,新宿２丁目１２－１６,,13,104,1600022,,,,,,,2022-02-09,1,,,,,,0
909,4011401024013,新規,0,2022-02-09,2022-02-09,ちゃおちゃおホーム株式会社,,株式会社,東京都,板橋区,成増２丁目１６番９号,,13,119,1750094,,,,,,,2022-02-09,1,,,,,チャオチャオホーム,0
916,4011803004967,新規,0,2022-02-09,2022-02-09,合同会社ＡＫ‐ＳＴＹＬＥ,,合同会社,東京都,葛飾区,亀有２丁目３３番１３号キティン亀有３０３,,13,122,1250061,,,,,,,2022-02-09,1,,,,,エーケースタイル,0
917,4011805003141,新規,0,2022-02-09,2022-02-09,ＲａＹ　ＭｉｒａｉＺ税理士法人,,その他の設立登記法人,東京都,葛飾区,東四つ木３丁目３５番１２号,,13,122,1240014,,,,,,,2022-02-09,1,,,,,レイミライズ,0
926,4013301048612,新規,0,2022-02-09,2022-02-09,株式会社ＣＲＥＳＣＥＮＤＯ,,株式会社,東京都,豊島区,東池袋１丁目２３番９号,,13,116,1700013,,,,,,,2022-02-09,1,,,,,クレッシェンド,0
933,4020001145177,新規,0,2022-02-09,2022-02-09,株式会社櫻井,,株式会社,神奈川県,横浜市保土ケ谷区,岩井町５３番地稲村ビル１階,,14,106,2400023,,,,,,,2022-02-09,1,,,,,サクライ,0
935,4020003021269,新規,0,2022-02-09,2022-02-09,ミレプロミス合同会社,,合同会社,神奈川県,横浜市中区,山吹町１番地２日神デュオステージ関内大通り公園４０１号室,,14,104,2310038,,,,,,,2022-02-09,1,,,,,ミレプロミス,0
936,4020003021285,新規,0,2022-02-09,2022-02-09,ＧＤＳ合同会社,,合同会社,神奈川県,川崎市幸区,中幸町３丁目２８エースマンション４０２,,14,132,2120012,,,,,,,2022-02-09,1,,,,,ジーディーエス,0
937,4021001075141,新規,0,2022-02-09,2022-02-09,まほろ建設株式会社,,株式会社,神奈川県,中郡二宮町,中里１０１９番地の２,,14,342,2590131,,,,,,,2022-02-09,1,,,,,マホロケンセツ,0
938,4021001075166,新規,0,2022-02-09,2022-02-09,株式会社アプイ,,株式会社,神奈川県,相模原市南区,南台５丁目１２番２－２０７号,,14,153,2520314,,,,,,,2022-02-09,1,,,,,アプイ,0
945,4021003011375,新規,0,2022-02-09,2022-02-09,ＭＯＣ合同会社,,合同会社,神奈川県,相模原市中央区,相模原２丁目２番１６号,,14,152,2520231,,,,,,,2022-02-09,1,,,,,モック,0
946,4021003011383,新規,0,2022-02-09,2022-02-09,テイストヴィラ合同会社,,合同会社,神奈川県,藤沢市,鵠沼海岸３丁目５番１１号,,14,205,2510037,,,,,,,2022-02-09,1,,,,,テイストヴィラ,0
956,4030001146694,新規,0,2022-02-09,2022-02-09,株式会社大成クリエイト,,株式会社,埼玉県,行田市,城西１丁目４番３０号,,11,206,3610057,,,,,,,2022-02-09,1,,,,,タイセイクリエイト,0
957,4030001146728,新規,0,2022-02-09,2022-02-09,Ｈ＆Ｙ株式会社,,株式会社,埼玉県,南埼玉郡宮代町,川端４丁目９番８号,,11,442,3450804,,,,,,,2022-02-09,1,,,,,エイチアンドワイ,0
958,4030001146736,新規,0,2022-02-09,2022-02-09,株式会社ｕｒａｇａｍｉ,,株式会社,埼玉県,東松山市,大字下唐子１５９４番地,,11,212,3550076,,,,,,,2022-02-09,1,,,,,ウラガミ,0
961,4030003018826,新規,0,2022-02-09,2022-02-09,合同会社プロアイ,,合同会社,埼玉県,春日部市,大場３８１番地２,,11,214,3440021,,,,,,,2022-02-09,1,,,,,プロアイ,0
962,4030003018834,新規,0,2022-02-09,2022-02-09,合同会社サード,,合同会社,埼玉県,川口市,東川口２丁目１３番２２号,,11,203,3330801,,,,,,,2022-02-09,1,,,,,サード,0
966,4040001122067,新規,0,2022-02-09,2022-02-09,株式会社ヌカグチ,,株式会社,千葉県,流山市,前平井１５４番地の１フォリアステーションフロント６０３,,12,220,2700152,,,,,,,2022-02-09,1,,,,,ヌカグチ,0
967,4040001122182,新規,0,2022-02-09,2022-02-09,株式会社Ｓａｎ　ａｎｄ　Ｓｕｎ,,株式会社,千葉県,市川市,大和田４丁目４番６－３０４号,,12,203,2720025,,,,,,,2022-02-09,1,,,,,サンアンドサン,0
974,4050005013014,新規,0,2022-02-09,2022-02-09,特定非営利活動法人すマイル,,その他の設立登記法人,茨城県,古河市,諸川６３３番地２,,08,204,3060126,,,,,,,2022-02-09,1,,,,,スマイル,0
979,4070001038938,新規,0,2022-02-09,2022-02-09,株式会社Ｆｅｒｔｅｔ,,株式会社,群馬県,伊勢崎市,宮子町３４３７番地１グランレジデンス１０５,,10,204,3720801,,,,,,,2022-02-09,1,,,,,フォルテット,0
981,4070003004384,新規,0,2022-02-09,2022-02-09,合同会社アリスト,,合同会社,群馬県,前橋市,上小出町１丁目１８－１２サンガーデン３０５号室,,10,201,3710037,,,,,,,2022-02-09,1,,,,,アリスト,0
983,4080001024747,新規,0,2022-02-09,2022-02-09,Ｄｏｔｓａｃｃｏｕｎｔｉｎｇ株式会社,,株式会社,静岡県,島田市,道悦５丁目５番５号,,22,209,4270019,,,,,,,2022-02-09,1,,,,,ドッツアカウンティング,0
994,4110001036425,新規,0,2022-02-09,2022-02-09,株式会社ＴＯＭＯＳＨＩＢＩ,,株式会社,新潟県,新潟市中央区,大島６９－２,,15,103,9500953,,,,,,,2022-02-09,1,,,,,トモシビ,0
1005,4120001243763,新規,0,2022-02-09,2022-02-09,ＳＴＡ株式会社,,株式会社,大阪府,大阪市福島区,福島６丁目２３番３号メイプルガーデン梅田１２０２号,,27,103,5530003,,,,,,,2022-02-09,1,,,,,エスティーエー,0
1006,4120001243805,新規,0,2022-02-09,2022-02-09,株式会社ネクステージ,,株式会社,大阪府,大阪市東住吉区,住道矢田５丁目５番２７号,,27,121,5460022,,,,,,,2022-02-09,1,,,,,ネクステージ,0
1009,4120003021110,新規,0,2022-02-09,2022-02-09,エスジーインベストメント合同会社,,合同会社,大阪府,大阪市福島区,福島３丁目１－６１－２６０３,,27,103,5530003,,,,,,,2022-02-09,1,,,,,エスジーインベストメント,0
1010,4120003021119,新規,0,2022-02-09,2022-02-09,ＴＯＲＥＮＤＯ合同会社,,合同会社,大阪府,大阪市生野区,生野西４丁目２０番２３号,,27,116,5440024,,,,,,,2022-02-09,1,,,,,トレンド,0
1016,4120103004551,新規,0,2022-02-09,2022-02-09,合同会社ＨＡＰ,,合同会社,大阪府,岸和田市,土生町１３丁目９－１７,,27,202,5960825,,,,,,,2022-02-09,1,,,,,エイチエーピー,0
1019,4120903004032,新規,0,2022-02-09,2022-02-09,合同会社ＭＹＲＯ,,合同会社,大阪府,吹田市,五月が丘北８番１３号,,27,205,5650834,,,,,,,2022-02-09,1,,,,,マイロ,0
1020,4122001035570,新規,0,2022-02-09,2022-02-09,Ａ＆Ｔサポート株式会社,,株式会社,大阪府,四條畷市,砂２丁目３番１２号,,27,229,5750001,,,,,,,2022-02-09,1,,,,,エーアンドティーサポート,0
1025,4140001124854,新規,0,2022-02-09,2022-02-09,株式会社ロカ,,株式会社,兵庫県,芦屋市,打出小槌町１０番１４号,,28,206,6590028,,,,,,,2022-02-09,1,,,,,ロカ,0
1026,4140001124862,新規,0,2022-02-09,2022-02-09,株式会社ＲＵＦＦＲＥＥ,,株式会社,兵庫県,芦屋市,大桝町３番５号芦屋カサリナ３０１,00125677,28,206,6590066,,,,,,,2022-02-09,1,,,,,ラフリー,0
1029,4140003017338,新規,0,2022-02-09,2022-02-09,合同会社ＳＴＥＫ,,合同会社,兵庫県,神戸市須磨区,若木町３丁目８番７号,,28,107,6540014,,,,,,,2022-02-09,1,,,,,エスティーイーケー,0
1031,4140005026031,新規,0,2022-02-09,2022-02-09,グローバルビジネス事業協同組合,,その他の設立登記法人,兵庫県,伊丹市,昆陽東６丁目７番３号,,28,207,6640886,,,,,,,2022-02-09,1,,,,,グローバルビジネス,0
1044,4190001029116,新規,0,2022-02-09,2022-02-09,株式会社百と成ル,,株式会社,三重県,鈴鹿市,白子駅前２０番６号,,24,207,5100241,,,,,,,2022-02-09,1,,,,,ヒャクトナル,0
1060,4220001024690,新規,0,2022-02-09,2022-02-09,熊本電機株式会社,,株式会社,石川県,加賀市,熊坂町チ２４番地,,17,206,9220842,,,,,,,2022-02-09,1,,,,,クマモトデンキ,0
1066,4240001059314,新規,0,2022-02-09,2022-02-09,株式会社Ａｉメモリーズ,,株式会社,広島県,広島市東区,光町１丁目１１－５－３１８,,34,102,7320052,,,,,,,2022-02-09,1,,,,,エイアイメモリーズ,0
1070,4250003003005,新規,0,2022-02-09,2022-02-09,クリエイトマスターズ合同会社,,合同会社,山口県,岩国市,旭町１丁目１番４８－１０１号ＹＳハーモニー,,35,208,7400024,,,,,,,2022-02-09,1,,,,,クリエイトマスターズ,0
1080,4290001096410,新規,0,2022-02-09,2022-02-09,株式会社庭道楽,,株式会社,福岡県,福岡市西区,大字金武１８７７番地,,40,135,8190035,,,,,,,2022-02-09,1,,,,,ニワドウラク,0
1081,4290003012126,新規,0,2022-02-09,2022-02-09,合同会社わびさび,,合同会社,福岡県,福岡市南区,多賀１丁目８番２６号,,40,134,8150072,,,,,,,2022-02-09,1,,,,,ワビサビ,0
1082,4290003012134,新規,0,2022-02-09,2022-02-09,アルトルーイスト合同会社,,合同会社,福岡県,福岡市西区,室見が丘２丁目１５番１０号,,40,135,8190030,,,,,,,2022-02-09,1,,,,,アルトルーイスト,0
1085,4290801028240,新規,0,2022-02-09,2022-02-09,ＫＥＹＳ　Ｂｕｎｋｅｒｉｎｇ　Ｗｅｓｔ　Ｊａｐａｎ株式会社,,株式会社,福岡県,北九州市戸畑区,大字中原４６番１１７,,40,105,8040002,,,,,,,2022-02-09,1,,,,,キースバンカリングウエストジャパン,0
1086,4290801028249,新規,0,2022-02-09,2022-02-09,株式会社Ｎｅｅｄｓ,,株式会社,福岡県,北九州市若松区,塩屋３丁目２２番１－２０２号,,40,103,8080131,,,,,,,2022-02-09,1,,,,,ニーズ,0
1091,4310001017710,新規,0,2022-02-09,2022-02-09,タナカ設備株式会社,,株式会社,長崎県,西彼杵郡時津町,久留里郷３７６番地３９,,42,308,8512107,,,,,,,2022-02-09,1,,,,,タナカセツビ,0
1092,4310005008581,新規,0,2022-02-09,2022-02-09,一般社団法人松島よかとこ運輸部,,その他の設立登記法人,長崎県,西海市,大瀬戸町松島内郷１３８４番地１１,,42,212,8572531,,,,,,,2022-02-09,1,,,,,マツシマヨカトコウンユブ,0
1110,4390001016787,新規,0,2022-02-09,2022-02-09,株式会社シンセイ,,株式会社,山形県,最上郡戸沢村,大字蔵岡字出舟１６６７,,06,367,9996402,,,,,,,2022-02-09,1,,,,,シンセイ,0
1120,4430001085935,新規,0,2022-02-09,2022-02-09,株式会社Ｎ．Ｘ．Ａ,,株式会社,北海道,札幌市中央区,南七条西９丁目１０２４番地４２札幌舘ビル６０１号室,,01,101,0640807,,,,,,,2022-02-09,1,,,,,エヌエックスエー,0
1121,4430001085976,新規,0,2022-02-09,2022-02-09,株式会社ＴＭサービス,,株式会社,北海道,札幌市白石区,本郷通６丁目北５番１３号グランヴィレッジ本郷通Ｉ６０４号,00125666,01,104,0030025,,,,,,,2022-02-09,1,,,,,ティーエムサービス,0
1122,4430001085984,新規,0,2022-02-09,2022-02-09,株式会社北広島新聞社,,株式会社,北海道,北広島市,北進町１丁目５－１Ｓ９０７,,01,234,0611132,,,,,,,2022-02-09,1,,,,,キタヒロシマシンブンシャ,0
1124,4430003013613,新規,0,2022-02-09,2022-02-09,合同会社Ｃ’ｅｓｔ　ｌａ　ｖｉｅ,,合同会社,北海道,札幌市白石区,菊水上町三条３丁目５２番地１８みゆきビル１階,,01,104,0030813,,,,,,,2022-02-09,1,,,,,セラヴィー,0
1126,4440001009026,新規,0,2022-02-09,2022-02-09,株式会社エグチリサイクル,,株式会社,北海道,亀田郡七飯町,大川２丁目１２番２号,,01,337,0411122,,,,,,,2022-02-09,1,,,,,エグチリサイクル,0
1128,4460101007142,新規,0,2022-02-09,2022-02-09,株式会社イシケン,,株式会社,北海道,中川郡幕別町,字日新１番地の２３０,,01,643,0890574,,,,,,,2022-02-09,1,,,,,,0
1131,4490005006824,新規,0,2022-02-09,2022-02-09,一般社団法人ＥａｒｔｈＳｈｉｐ,,その他の設立登記法人,高知県,高知市,尾立１２２番地２号,,39,201,7800962,,,,,,,2022-02-09,1,,,,,,0
1141,5010001224468,新規,0,2022-02-09,2022-02-09,株式会社えむけい,,株式会社,東京都,千代田区,神田小川町１丁目６－１宝ビル８Ｆ,,13,101,1010052,,,,,,,2022-02-09,1,,,,,エムケイ,0
1142,5010001224492,新規,0,2022-02-09,2022-02-09,株式会社Ｅ＆Ａ,,株式会社,東京都,中央区,日本橋本町３丁目３番６号ワカ末ビル７階,,13,102,1030023,,,,,,,2022-02-09,1,,,,,イーアンドエー,0
1146,5010003036993,新規,0,2022-02-09,2022-02-09,ｘＭＥＭＳ合同会社,,合同会社,東京都,千代田区,内幸町１丁目１番１号帝国ホテルタワー１５階,,13,101,1000011,,,,,,,2022-02-09,1,,,,,エックスメムズ,0
1152,5010401165469,新規,0,2022-02-09,2022-02-09,株式会社ＲｙｃｏＭ,,株式会社,東京都,港区,南青山６丁目７番８－１１０１号,,13,103,1070062,,,,,,,2022-02-09,1,,,,,ライカム,0
1153,5010401165477,新規,0,2022-02-09,2022-02-09,株式会社Ｆｉｇ,,株式会社,東京都,港区,南麻布３丁目２１－１４ルフォンプログレ南麻布５１３,,13,103,1060047,,,,,,,2022-02-09,1,,,,,フィグ,0
1154,5010403027056,新規,0,2022-02-09,2022-02-09,ルークルム合同会社,,合同会社,東京都,港区,南麻布３丁目２０－１Ｄａｉｗａ麻布テラス５Ｆ,,13,103,1060047,,,,,,,2022-02-09,1,,,,,ルークルム,0
1155,5010405020686,新規,0,2022-02-09,2022-02-09,美祢ソーラーホールディングス一般社団法人,,その他の設立登記法人,東京都,港区,虎ノ門３丁目２２番１０－２０１号,,13,103,1050001,,,,,,,2022-02-09,1,,,,,ミネソーラーホールディングス,0
1162,5010601060651,新規,0,2022-02-09,2022-02-09,株式会社ＺＥＲＯＯＭ,,株式会社,東京都,江東区,白河１丁目３番１３号清州寮二號３４番４１７号室,,13,108,1350021,,,,,,,2022-02-09,1,,,,,ゼルーム,0
1171,5010901050328,新規,0,2022-02-09,2022-02-09,株式会社セグロス,,株式会社,東京都,世田谷区,若林１丁目３０番４号,,13,112,1540023,,,,,,,2022-02-09,1,,,,,,0
1172,5010901050336,新規,0,2022-02-09,2022-02-09,株式会社Ｆｌｙｉｎｇ,,株式会社,東京都,世田谷区,太子堂１丁目１２番２７コンフォートテラス１００５号,,13,112,1540004,,,,,,,2022-02-09,1,,,,,フライング,0
1173,5010903007136,新規,0,2022-02-09,2022-02-09,音楽列藩同盟合同会社,,合同会社,東京都,世田谷区,宮坂１丁目１９－３,,13,112,1560051,,,,,,,2022-02-09,1,,,,,オンガクレッパンドウメイ,0
1174,5010903007144,新規,0,2022-02-09,2022-02-09,合同会社Ｓｅｎｐｌａｎｎｉｎｇ,,合同会社,東京都,世田谷区,代沢４丁目４番３号,,13,112,1550032,,,,,,,2022-02-09,1,,,,,センプランニング,0
1182,5011001145588,新規,0,2022-02-09,2022-02-09,株式会社コミュニティラボ,,株式会社,東京都,渋谷区,渋谷３丁目２６番１６号第５叶ビル５Ｆ,,13,113,1500002,,,,,,,2022-02-09,1,,,,,コミュニティラボ,0
1183,5011001145605,新規,0,2022-02-09,2022-02-09,株式会社ＫＡＤＯＷＳＡＮ,,株式会社,東京都,渋谷区,猿楽町１７番１０号代官山アートビレッジ３階Ｂ代官山ＴＯＫＯ,,13,113,1500033,,,,,,,2022-02-09,1,,,,,カドウサン,0
1186,5011003014163,新規,0,2022-02-09,2022-02-09,合同会社ＹＺ　ＣＡＰＩＴＡＬ,,合同会社,東京都,渋谷区,恵比寿４丁目２０番２－６０６号,,13,113,1500013,,,,,,,2022-02-09,1,,,,,ワイゼットキャピタル,0
1193,5011103011457,新規,0,2022-02-09,2022-02-09,合同会社うつつ堂,,合同会社,東京都,新宿区,西新宿３丁目３番１３号西新宿水間ビル６階,,13,104,1600023,,,,,,,2022-02-09,1,,,,,ウツツドウ,0
1194,5011401024012,新規,0,2022-02-09,2022-02-09,株式会社昇竜,,株式会社,東京都,板橋区,東坂下１丁目１２番９号ハイツ田口１０１,,13,119,1740042,,,,,,,2022-02-09,1,,,,,ショウリュウ,0
1195,5011401024020,新規,0,2022-02-09,2022-02-09,トチハラタカシ株式会社,,株式会社,東京都,板橋区,清水町２１番５号,,13,119,1740053,,,,,,,2022-02-09,1,,,,,トチハラタカシ,0
1215,5012403005231,新規,0,2022-02-09,2022-02-09,合同会社インターメディア,,合同会社,東京都,狛江市,岩戸北４丁目１６番９号キタミセブンハイツ３０１,,13,219,2010004,,,,,,,2022-02-09,1,,,,,インターメディア,0
1216,5012703002399,新規,0,2022-02-09,2022-02-09,合同会社ＲＩＺＥＬ,,合同会社,東京都,清瀬市,中清戸４丁目８４７番地中清戸四丁目アパート８－７０５号,,13,221,2040012,,,,,,,2022-02-09,1,,,,,リゼル,0
1217,5012801021391,新規,0,2022-02-09,2022-02-09,株式会社武田建築設計事務所,,株式会社,東京都,国立市,富士見台１丁目４－１－４０２,,13,215,1860003,,,,,,,2022-02-09,1,,,,,タケダケンチクセッケイジムショ,0
1218,5013101008848,新規,0,2022-02-09,2022-02-09,リルバート株式会社,,株式会社,東京都,あきる野市,野辺１０９８番地１,,13,228,1970823,,,,,,,2022-02-09,1,,,,,リルバート,0
1232,5020003021284,新規,0,2022-02-09,2022-02-09,合同会社角田商店,,合同会社,神奈川県,横浜市港北区,高田西３丁目２２番７号,,14,109,2230066,,,,,,,2022-02-09,1,,,,,ツノダショウテン,0
1246,5030001146735,新規,0,2022-02-09,2022-02-09,株式会社和英,,株式会社,埼玉県,加須市,久下５丁目１２番地７,,11,210,3470063,,,,,,,2022-02-09,1,,,,,カズヒデ,0
1247,5030001146751,新規,0,2022-02-09,2022-02-09,ＳＮＳ　ＴＲＡＤＩＮＧ株式会社,,株式会社,埼玉県,春日部市,八木崎町２番地１２,,11,214,3440055,,,,,,,2022-02-09,1,,,,,エスエヌエストレーディング,0
1248,5030001146768,新規,0,2022-02-09,2022-02-09,株式会社日生ウッドワークス,,株式会社,埼玉県,八潮市,大字八條１５２７－２,,11,234,3400801,,,,,,,2022-02-09,1,,,,,ニッセイウッドワークス,0
1251,5030003018825,新規,0,2022-02-09,2022-02-09,合同会社Ｈｏｏｒｏｍ,,合同会社,埼玉県,越谷市,七左町１丁目２９番１号レクセルガーデン蒲生３０６,,11,222,3430851,,,,,,,2022-02-09,1,,,,,フーロム,0
1252,5030003018833,新規,0,2022-02-09,2022-02-09,合同会社第一建工,,合同会社,埼玉県,草加市,新栄３丁目３番地９,,11,221,3400056,,,,,,,2022-02-09,1,,,,,ダイイチケンコウ,0
1253,5030005020713,新規,0,2022-02-09,2022-02-09,一般社団法人埼玉県スマート事業承継,,その他の設立登記法人,埼玉県,さいたま市大宮区,宮町２丁目７３番地２ＮＫビル,,11,103,3300802,,,,,,,2022-02-09,1,,,,,サイタマケンスマートジギョウショウケイ,0
1259,5040003019450,新規,0,2022-02-09,2022-02-09,合同会社マイルストーンテクノロジーズ,,合同会社,千葉県,佐倉市,宮小路町５２番地２,,12,212,2850016,,,,,,,2022-02-09,1,,,,,マイルストーンテクノロジーズ,0
1264,5050005013013,新規,0,2022-02-09,2022-02-09,一般社団法人Ｓｐａｃｅ　Ｍｅｄｉｃａｌ　Ａｃｃｅｌｅｒａｔｏｒ,,その他の設立登記法人,茨城県,つくば市,吾妻２丁目５番地１つくばスタートアップパーク内,,08,220,3050031,,,,,,,2022-02-09,1,,,,,スペースメディカルアクセラレータ,0
1271,5070003004383,新規,0,2022-02-09,2022-02-09,合同会社４２８,,合同会社,群馬県,高崎市,上並榎町１４８番地９上並榎Ｂ１号室,,10,202,3700801,,,,,,,2022-02-09,1,,,,,,0
1293,5120001243713,新規,0,2022-02-09,2022-02-09,ＳＴ建設株式会社,,株式会社,大阪府,大阪市平野区,喜連西１丁目１９番１９号,,27,126,5470026,,,,,,,2022-02-09,1,,,,,エスティケンセツ,0
1294,5120001243754,新規,0,2022-02-09,2022-02-09,シクロホールディングス株式会社,,株式会社,大阪府,大阪市北区,曾根崎新地１丁目１３番２２号,,27,127,5300002,,,,,,,2022-02-09,1,,,,,シクロホールディングス,0
1295,5120001243787,新規,0,2022-02-09,2022-02-09,美錦エネルギー株式会社,,株式会社,大阪府,大阪市淀川区,宮原１丁目１９番１５の１１０９,,27,123,5320003,,,,,,,2022-02-09,1,,,,,ビニシキエネルギー,0
1299,5120003021118,新規,0,2022-02-09,2022-02-09,合同会社ＮＡＫＯ,,合同会社,大阪府,大阪市西区,北堀江２丁目４－１１サンライズビル４Ｆ,,27,106,5500014,,,,,,,2022-02-09,1,,,,,ナコ,0
1301,5130001071114,新規,0,2022-02-09,2022-02-09,株式会社Ｅ－ＳＥＩＳＯ,,株式会社,京都府,京都市西京区,川島調子町６２－１,,26,111,6158125,,,,,,,2022-02-09,1,,,,,イーセイソー,0
1305,5130005016379,新規,0,2022-02-09,2022-02-09,一般財団法人細辻伊兵衛美術館,00125668,その他の設立登記法人,京都府,京都市中京区,室町通三条上る役行者町３６８番地,,26,104,6048174,,,,,,,2022-02-09,1,,,,,ホソツジイヘエビジュツカン,0
1322,5180003023488,新規,0,2022-02-09,2022-02-09,合同会社三貴,,合同会社,愛知県,名古屋市中区,栄３丁目２７番７号シーアイマンション南大津７０４号,,23,106,4600008,,,,,,,2022-02-09,1,,,,,サンキ,0
1326,5190001029098,新規,0,2022-02-09,2022-02-09,Ｂａｌｌｍａｔｅｓ株式会社,,株式会社,三重県,名張市,美旗町藤が丘２－４８－６,,24,208,5180610,,,,,,,2022-02-09,1,,,,,ボールメイツ,0
1336,5200003005450,新規,0,2022-02-09,2022-02-09,ＫＳＫ合同会社,,合同会社,岐阜県,岐阜市,茜部菱野４丁目８７番地１（コスモグランデ３０３）,,21,201,5008268,,,,,,,2022-02-09,1,,,,,ケーエスケー,0
1338,5210001018809,新規,0,2022-02-09,2022-02-09,株式会社福井環境サービス,,株式会社,福井県,福井市,日之出２丁目１７番１３号,,18,201,9100859,,,,,,,2022-02-09,1,,,,,フクイカンキョウサービス,0
1339,5210005010010,新規,0,2022-02-09,2022-02-09,一般社団法人佐柿国吉１００年プラン推進委員会,,その他の設立登記法人,福井県,三方郡美浜町,佐柿第３０号５番地の１,,18,442,9191132,,,,,,,2022-02-09,1,,,,,サガキクニヨシヒャクネンプランスイシンイインカイ,0
1341,5220003003213,新規,0,2022-02-09,2022-02-09,松吉造建合同会社,,合同会社,石川県,羽咋郡宝達志水町,小川ハ２５８番地,,17,386,9291343,,,,,,,2022-02-09,1,,,,,マツヨシゾウケン,0
1346,5240001059313,新規,0,2022-02-09,2022-02-09,株式会社大和エンジニア,,株式会社,広島県,福山市,駅家町大字倉光８０番地２,,34,207,7201132,,,,,,,2022-02-09,1,,,,,ヤマトエンジニア,0
1354,5250003003004,新規,0,2022-02-09,2022-02-09,合同会社アステルズ,,合同会社,山口県,岩国市,平田６丁目６０番１６－４０２号,,35,208,7410072,,,,,,,2022-02-09,1,,,,,アステルズ,0
1360,5290001096392,新規,0,2022-02-09,2022-02-09,株式会社西日本工芸社,,株式会社,福岡県,福岡市西区,豊浜２丁目７番１０号,,40,135,8190014,,,,,,,2022-02-09,1,,,,,ニシニホンコウゲイシャ,0
1362,5290003012125,新規,0,2022-02-09,2022-02-09,合同会社ゴナージ,,合同会社,福岡県,福岡市中央区,荒戸２丁目２番４２－６０１号,,40,133,8100062,,,,,,,2022-02-09,1,,,,,ゴナージ,0
1363,5290003012133,新規,0,2022-02-09,2022-02-09,合同会社ＢＢｃｏｎｎｅｃｔｉｏｎ,,合同会社,福岡県,福岡市東区,馬出５丁目２番１号,,40,131,8120054,,,,,,,2022-02-09,1,,,,,ビービーコネクション,0
1365,5290801028223,新規,0,2022-02-09,2022-02-09,株式会社ライトハウス,,株式会社,福岡県,北九州市若松区,深町２丁目２番３８号,,40,103,8080012,,,,,,,2022-02-09,1,,,,,ライトハウス,0
1366,5290801028248,新規,0,2022-02-09,2022-02-09,株式会社Ｆａｒｍｅｒ’ｓ　Ｂａｓｅ　Ｆｕｋｕｏｋａ,,株式会社,福岡県,北九州市小倉南区,舞ケ丘３丁目１４番１号,,40,107,8020823,,,,,,,2022-02-09,1,,,,,ファーマーズベースフクオカ,0
1371,5290803004057,新規,0,2022-02-09,2022-02-09,合同会社ｓｍｉｌｅ　ｏｆ　ｓｐｉｒｉｔ,,合同会社,福岡県,北九州市小倉北区,高尾２丁目１２番２号,,40,106,8030853,,,,,,,2022-02-09,1,,,,,スマイルオブスピリット,0
1382,5350003004025,新規,0,2022-02-09,2022-02-09,合同会社ＫＣｏｍｒａｄｅ,,合同会社,宮崎県,児湯郡木城町,大字高城１２５７番地２,,45,404,8840101,,,,,,,2022-02-09,1,,,,,ケイコムレード,0
1403,5390005008937,新規,0,2022-02-09,2022-02-09,農事組合法人沖のカモメ,,その他の設立登記法人,山形県,西置賜郡飯豊町,大字中８３番地,,06,403,9990601,,,,,,,2022-02-09,1,,,,,オキノカモメ,0
1408,5420003002450,新規,0,2022-02-09,2022-02-09,合同会社ジーアンドアイケアサービス,,合同会社,青森県,三戸郡五戸町,大字豊間内字地蔵平１番地３２８,,02,442,0391524,,,,,,,2022-02-09,1,,,,,ジーアンドアイケアサービス,0
1414,5430001085975,新規,0,2022-02-09,2022-02-09,Ｉｗａｎａｉ　Ｅｓｔａｔｅ株式会社,,株式会社,北海道,岩内郡岩内町,字野束５００番地,,01,402,0450024,,,,,,,2022-02-09,1,,,,,イワナイエステート,0
1417,5430003013612,新規,0,2022-02-09,2022-02-09,合同会社Ｈｏｋｕ　Ｌａｎｉ,,合同会社,北海道,札幌市清田区,清田八条３丁目１２番４０号,,01,110,0040848,,,,,,,2022-02-09,1,,,,,ホクラニ,0
1418,5440001009025,新規,0,2022-02-09,2022-02-09,株式会社内藤重機,,株式会社,北海道,寿都郡黒松内町,字黒松内２３番地１３,,01,393,0480101,,,,,,,2022-02-09,1,,,,,ナイトウジュウキ,0
1422,5490005006823,新規,0,2022-02-09,2022-02-09,農事組合法人米奥,,その他の設立登記法人,高知県,高岡郡四万十町,米奥字仲谷６１３番２,,39,412,7860095,,,,,,,2022-02-09,1,,,,,ヨネオク,0
1437,6010001224401,新規,0,2022-02-09,2022-02-09,光の森コンサルティング株式会社,,株式会社,東京都,文京区,本郷４丁目１７番８号,,13,105,1130033,,,,,,,2022-02-09,1,,,,,ヒカリノモリコンサルティング,0
1438,6010001224426,新規,0,2022-02-09,2022-02-09,セザム・ジャパン株式会社,,株式会社,東京都,中央区,日本橋茅場町１丁目１３番１３号七宝ビルディング９階,,13,102,1030025,,,,,,,2022-02-09,1,,,,,セザムジャパン,0
1439,6010001224467,新規,0,2022-02-09,2022-02-09,株式会社ｓａｇａｓｕｍｕ,,株式会社,東京都,中央区,月島４丁目３番１６号２０２,,13,102,1040052,,,,,,,2022-02-09,1,,,,,サガスム,0
1447,6010401165435,新規,0,2022-02-09,2022-02-09,株式会社ＴＮＳＴ,,株式会社,東京都,港区,南青山２丁目２番１５号ＷｉｎＡｏｙａｍａビルＵＣＦ６３５,,13,103,1070062,,,,,,,2022-02-09,1,,,,,ティンスト,0
1448,6010401165476,新規,0,2022-02-09,2022-02-09,株式会社ＲａＶｅｎｏｕｓ,,株式会社,東京都,港区,南青山２丁目１４－１３,,13,103,1070062,,,,,,,2022-02-09,1,,,,,ラビナス,0
1452,6010403027055,新規,0,2022-02-09,2022-02-09,合同会社米糸,,合同会社,東京都,港区,芝浦３丁目６－７板硝子会館６階,,13,103,1080023,,,,,,,2022-02-09,1,,,,,ヨネイト,0
1453,6010403027071,新規,0,2022-02-09,2022-02-09,ＳＣＧ７４合同会社,,合同会社,東京都,港区,虎ノ門４丁目１番２８号,,13,103,1050001,,,,,,,2022-02-09,1,,,,,エスシージーセブンティフォー,0
1455,6010405020685,新規,0,2022-02-09,2022-02-09,五葉山ソーラーホールディングス一般社団法人,,その他の設立登記法人,東京都,港区,虎ノ門３丁目２２番１０－２０１号,,13,103,1050001,,,,,,,2022-02-09,1,,,,,ゴヨウザンソーラーホールディングス,0
1461,6010501048432,新規,0,2022-02-09,2022-02-09,プールジャック株式会社,,株式会社,東京都,台東区,上野２丁目１２番９号,,13,106,1100005,,,,,,,2022-02-09,1,,,,,プールジャック,0
1463,6010601060650,新規,0,2022-02-09,2022-02-09,株式会社ＤＩＡ３．１６,,株式会社,東京都,墨田区,江東橋４丁目２１－６、ハイタウン１１８,,13,107,1300022,,,,,,,2022-02-09,1,,,,,ダイヤサンテンイチロク,0
1473,6010901050327,新規,0,2022-02-09,2022-02-09,株式会社ジーアンドアーク,,株式会社,東京都,世田谷区,池尻３丁目１８番３４号,,13,112,1540001,,,,,,,2022-02-09,1,,,,,ジーアンドアーク,0
1474,6010903007143,新規,0,2022-02-09,2022-02-09,合同会社すやま,,合同会社,東京都,世田谷区,宮坂３丁目４６番３号,,13,112,1560051,,,,,,,2022-02-09,1,,,,,スヤマ,0
1478,6011001145604,新規,0,2022-02-09,2022-02-09,ＲｅＧＡＣＹ　Ｉｎｎｏｖａｔｉｏｎ　Ｇｒｏｕｐ株式会社,,株式会社,東京都,渋谷区,恵比寿３丁目４１番１号,,13,113,1500013,,,,,,,2022-02-09,1,,,,,レガシーイノベーショングループ,0
1481,6011103011456,新規,0,2022-02-09,2022-02-09,合同会社Ｋ,,合同会社,東京都,新宿区,西新宿３丁目３－１３西新宿水間ビル６階,,13,104,1600023,,,,,,,2022-02-09,1,,,,,ケイ,0
1486,6011301027551,新規,0,2022-02-09,2022-02-09,株式会社アノア,,株式会社,東京都,杉並区,浜田山３丁目８番１５号プラウド浜田山三丁目３０９,,13,115,1680065,,,,,,,2022-02-09,1,,,,,,0
1488,6011403003558,新規,0,2022-02-09,2022-02-09,合同会社ＲＩＮ,,合同会社,東京都,板橋区,坂下３丁目９番,,13,119,1740043,,,,,,,2022-02-09,1,,,,,リン,0
1491,6011601025734,新規,0,2022-02-09,2022-02-09,株式会社フローアンド,,株式会社,東京都,練馬区,大泉学園町７丁目１１番１２号,,13,120,1780061,,,,,,,2022-02-09,1,,,,,フローアンド,0
1496,6012801021390,新規,0,2022-02-09,2022-02-09,株式会社エーエル設備,,株式会社,東京都,昭島市,緑町４丁目７番１号,,13,207,1960004,,,,,,,2022-02-09,1,,,,,エーエルセツビ,0
1497,6012803002703,新規,0,2022-02-09,2022-02-09,合同会社ＣＬＯＳＥＲ,,合同会社,東京都,立川市,富士見町２丁目３４－１０田中ビル３０１,,13,202,1900013,,,,,,,2022-02-09,1,,,,,クローサー,0
1500,6013301048494,新規,0,2022-02-09,2022-02-09,三合株式会社,,株式会社,東京都,豊島区,池袋１丁目１－６－１Ｆ,,13,116,1700014,,,,,,,2022-02-09,1,,,,,ミアイ,0
1509,6020001145175,新規,0,2022-02-09,2022-02-09,株式会社中部ロピア,,株式会社,神奈川県,川崎市幸区,南幸町２丁目９番地,,14,132,2120016,,,,,,,2022-02-09,1,,,,,チュウブロピア,0
1512,6020003021283,新規,0,2022-02-09,2022-02-09,大盛魁合同会社,,合同会社,神奈川県,横浜市緑区,白山１丁目９番１－１００７号,,14,113,2260006,,,,,,,2022-02-09,1,,,,,ダイセイカイ,0
1517,6021001075156,新規,0,2022-02-09,2022-02-09,株式会社箱根アースホテル,,株式会社,神奈川県,足柄下郡箱根町,木賀字新田９５２番の４,,14,382,2500402,,,,,,,2022-02-09,1,,,,,ハコネアースホテル,0
1518,6021001075164,新規,0,2022-02-09,2022-02-09,株式会社ＬＡＫＥ　ＮＯＪＩ,,株式会社,神奈川県,鎌倉市,稲村ガ崎３丁目１５番２号,,14,204,2480024,,,,,,,2022-02-09,1,,,,,レイクノジ,0
1521,6021003011373,新規,0,2022-02-09,2022-02-09,形清正長合同会社,,合同会社,神奈川県,逗子市,逗子６丁目５番７号,,14,208,2490006,,,,,,,2022-02-09,1,,,,,ナリキマサナガ,0
1531,6030003018824,新規,0,2022-02-09,2022-02-09,リンク合同会社,,合同会社,埼玉県,さいたま市北区,宮原町３丁目１８６番地１コスモ大宮宮原１０４,,11,102,3310812,,,,,,,2022-02-09,1,,,,,リンク,0
1539,6040005021511,新規,0,2022-02-09,2022-02-09,医療法人社団カナデル会,,その他の設立登記法人,千葉県,香取市,佐原ロ２１２２番地７２,,12,236,2870001,,,,,,,2022-02-09,1,,,,,カナデルカイ,0
1552,6070003004382,新規,0,2022-02-09,2022-02-09,合同会社ｋ’ｓＦａｃｔｏｒｙ,,合同会社,群馬県,沼田市,白沢町平出８７４番地２,,10,206,3780125,,,,,,,2022-02-09,1,,,,,ケーズファクトリー,0
1557,6080401025616,新規,0,2022-02-09,2022-02-09,株式会社ＥＭＩＲＡＩ,,株式会社,静岡県,浜松市中区,幸１丁目５番６号,,22,131,4338123,,,,,,,2022-02-09,1,,,,,エミライ,0
1558,6090003002038,新規,0,2022-02-09,2022-02-09,ファインアート合同会社,,合同会社,山梨県,中央市,藤巻２１６７番地３,,19,214,4093833,,,,,,,2022-02-09,1,,,,,ファインアート,0
1574,6120001243761,新規,0,2022-02-09,2022-02-09,株式会社ＲｅｍｉｘＣｏｄｅ,,株式会社,大阪府,大阪市西区,南堀江２丁目５－３－４０２,,27,106,5500015,,,,,,,2022-02-09,1,,,,,リミックスコード,0
1576,6120003020795,新規,0,2022-02-09,2022-02-09,片桐商会合同会社,,合同会社,大阪府,大阪市北区,松ケ枝町７番６号中世古ビル２Ａ号室,,27,127,5300037,,,,,,,2022-02-09,1,,,,,カタギリショウカイ,0
1577,6120003021067,新規,0,2022-02-09,2022-02-09,合同会社押忍,,合同会社,大阪府,大阪市浪速区,塩草３丁目１１番３－８０４号,,27,111,5560024,,,,,,,2022-02-09,1,,,,,オス,0
1578,6120003021109,新規,0,2022-02-09,2022-02-09,合同会社成田,,合同会社,大阪府,守口市,南寺方東通５丁目１２番４号,,27,209,5700043,,,,,,,2022-02-09,1,,,,,ナリタ,0
1586,6120101065057,新規,0,2022-02-09,2022-02-09,山本工務店株式会社,,株式会社,大阪府,堺市堺区,大仙中町１４番２４号,,27,141,5900801,,,,,,,2022-02-09,1,,,,,ヤマモトコウムテン,0
1588,6120103004566,新規,0,2022-02-09,2022-02-09,合同会社ふくじゅ,,合同会社,大阪府,堺市西区,山田１丁２番地２,,27,144,5938316,,,,,,,2022-02-09,1,,,,,フクジュ,0
1590,6122001035569,新規,0,2022-02-09,2022-02-09,株式会社エムティーエス,,株式会社,大阪府,東大阪市,西堤本通東１丁目１番１号,,27,227,5770045,,,,,,,2022-02-09,1,,,,,エムティーエス,0
1616,6180301035911,新規,0,2022-02-09,2022-02-09,株式会社ＭＡＲＵＭＯＴＯ,,株式会社,愛知県,豊田市,横山町４丁目３番地２,,23,211,4710068,,,,,,,2022-02-09,1,,,,,マルモト,0
1632,6220003003212,新規,0,2022-02-09,2022-02-09,合同会社ヤマカワ,,合同会社,石川県,加賀市,上河崎町カ１２８番地,,17,206,9220013,,,,,,,2022-02-09,1,,,,,ヤマカワ,0
1637,6250001019406,新規,0,2022-02-09,2022-02-09,ＭＬ株式会社,,株式会社,山口県,周南市,大字櫛ヶ浜３８５番地の１,,35,215,7450805,,,,,,,2022-02-09,1,,,,,エムエル,0
1638,6250003003003,新規,0,2022-02-09,2022-02-09,ユーアンドアイ合同会社,,合同会社,山口県,下松市,南花岡２丁目３番７号ヴィクトワール花岡ＩＩＩ－２０１号,00125665,35,207,7440027,,,,,,,2022-02-09,1,,,,,ユーアンドアイ,0
1639,6260001036508,新規,0,2022-02-09,2022-02-09,ライフシステムサポート株式会社,,株式会社,岡山県,岡山市北区,万成西町１３番３号,,33,101,7000073,,,,,,,2022-02-09,1,,,,,ライフシステムサポート,0
1643,6290001096391,新規,0,2022-02-09,2022-02-09,株式会社明和,,株式会社,福岡県,久留米市,荒木町藤田１４６１番地,,40,203,8300064,,,,,,,2022-02-09,1,,,,,メイワ,0
1646,6290003012132,新規,0,2022-02-09,2022-02-09,合同会社ＲＳＡ,,合同会社,福岡県,福岡市東区,香椎台５丁目２３番６号,,40,131,8130014,,,,,,,2022-02-09,1,,,,,アールエスエー,0
1652,6310001017709,新規,0,2022-02-09,2022-02-09,株式会社Ｇｉｆｔ．ｃｏ,,株式会社,長崎県,大村市,東大村２丁目１１１６番地１５,,42,205,8560032,,,,,,,2022-02-09,1,,,,,ギフトコーポレーション,0
1661,6360001029988,新規,0,2022-02-09,2022-02-09,株式会社らぐーん,,株式会社,沖縄県,石垣市,字新川１５８５番地３５－２１３,,47,207,9070024,,,,,,,2022-02-09,1,,,,,,0
1663,6370001048194,新規,0,2022-02-09,2022-02-09,株式会社ＬＥＣ住設ホーム,,株式会社,宮城県,宮城郡七ヶ浜町,汐見台南２丁目１５４番地の４１３,,04,404,9850822,,,,,,,2022-02-09,1,,,,,レックジュウセツホーム,0
1673,6430001085966,新規,0,2022-02-09,2022-02-09,株式会社Ｋｉｔｅ,,株式会社,北海道,札幌市清田区,美しが丘二条６丁目２番,,01,110,0040812,,,,,,,2022-02-09,1,,,,,カイト,0
1674,6430001085974,新規,0,2022-02-09,2022-02-09,株式会社プレリオン,,株式会社,北海道,札幌市東区,北三十三条東７丁目２番３号パルテノスＤ１０４号,,01,103,0650033,,,,,,,2022-02-09,1,,,,,プレリオン,0
1675,6430001085982,新規,0,2022-02-09,2022-02-09,株式会社ワイランド,,株式会社,北海道,札幌市東区,北十条東９丁目３－２１ＫＯＫＯＭＯ１０９　２０１号,,01,103,0650010,,,,,,,2022-02-09,1,,,,,ワイランド,0
1682,6460101007140,新規,0,2022-02-09,2022-02-09,株式会社岡本商事,,株式会社,北海道,中川郡本別町,共栄４３番地２,,01,646,0893305,,,,,,,2022-02-09,1,,,,,オカモトショウジ,0
1684,6480001011645,新規,0,2022-02-09,2022-02-09,株式会社ＳＡＫＡＺＵＫＩ,,株式会社,徳島県,美馬市,美馬町字谷ヨリ西１６１－１,,36,207,7712106,,,,,,,2022-02-09,1,,,,,サカズキ,0
1694,7010001224334,新規,0,2022-02-09,2022-02-09,株式会社ＭＯＳＴ,,株式会社,東京都,千代田区,神田松永町１３番地ＶＯＲＴ秋葉原ＩＩ,00125667,13,101,1010023,,,,,,,2022-02-09,1,,,,,モスト,0
1695,7010001224425,新規,0,2022-02-09,2022-02-09,株式会社プレジスト,,株式会社,東京都,文京区,本郷５丁目１番１１号ＫＩＩＨＯＵＳＥ２０２,,13,105,1130033,,,,,,,2022-02-09,1,,,,,プレジスト,0
1696,7010001224490,新規,0,2022-02-09,2022-02-09,株式会社ＳＡＩ　ＢＡＳＥ,,株式会社,東京都,文京区,本郷２丁目２９番４号,,13,105,1130033,,,,,,,2022-02-09,1,,,,,サイベース,0
1700,7010003036983,新規,0,2022-02-09,2022-02-09,Ｍａｓａｍｉｎｇ合同会社,,合同会社,東京都,千代田区,九段南１丁目５番６号りそな九段ビル５階ＫＳフロア,,13,101,1020074,,,,,,,2022-02-09,1,,,,,マサミング,0
1711,7010401165475,新規,0,2022-02-09,2022-02-09,株式会社Ｓｅｃｏｎｄ,,株式会社,東京都,港区,六本木３丁目１４番１３号ＵＦビル１－４階,,13,103,1060032,,,,,,,2022-02-09,1,,,,,セカンド,0
1712,7010401165483,新規,0,2022-02-09,2022-02-09,株式会社ＳｍａｒｔＥＣ,,株式会社,東京都,港区,麻布十番３丁目１４番３－６０５号,,13,103,1060045,,,,,,,2022-02-09,1,,,,,スマートイーシー,0
1714,7010403027070,新規,0,2022-02-09,2022-02-09,ＳＣＧ７３合同会社,,合同会社,東京都,港区,虎ノ門４丁目１番２８号,,13,103,1050001,,,,,,,2022-02-09,1,,,,,エスシージーセブンティスリー,0
1715,7010501048431,新規,0,2022-02-09,2022-02-09,三豊株式会社,,株式会社,東京都,台東区,台東２丁目３１番１０号第２掛川ビル２Ｆ,,13,106,1100016,,,,,,,2022-02-09,1,,,,,ミトヨ,0
1719,7010601060633,新規,0,2022-02-09,2022-02-09,株式会社ＭＡＨＡＬＯ,,株式会社,東京都,江東区,新砂３丁目４番４３－１６１２号,,13,108,1360075,,,,,,,2022-02-09,1,,,,,マハロ,0
1720,7010601060658,新規,0,2022-02-09,2022-02-09,株式会社サンライズタカチオ,,株式会社,東京都,墨田区,亀沢１丁目２６番２号,,13,107,1300014,,,,,,,2022-02-09,1,,,,,サンライズタカチオ,0
1727,7010803004041,新規,0,2022-02-09,2022-02-09,合同会社Ｅｖｅｒｙ　ｄａｙ　Ｓｍａｉｌｅ７５,,合同会社,東京都,大田区,西蒲田５丁目２７番５号,,13,111,1440051,,,,,,,2022-02-09,1,,,,,エブリデイスマイルナゴ,0
1730,7010901050334,新規,0,2022-02-09,2022-02-09,株式会社Ｃｏａｃｈｅｒｓ,,株式会社,東京都,世田谷区,千歳台３丁目２１番３号,,13,112,1570071,,,,,,,2022-02-09,1,,,,,コーチャーズ,0
1732,7010903007142,新規,0,2022-02-09,2022-02-09,合同会社ハーベスト,,合同会社,東京都,世田谷区,中町２丁目２６番１６号,,13,112,1580091,,,,,,,2022-02-09,1,,,,,ハーベスト,0
1736,7011001145405,新規,0,2022-02-09,2022-02-09,株式会社ＧＡＲＤＹ,,株式会社,東京都,渋谷区,神宮前６丁目２３－４－２Ｆ,,13,113,1500001,,,,,,,2022-02-09,1,,,,,ガーディ,0
1737,7011001145545,新規,0,2022-02-09,2022-02-09,カヤ産業ホールディングス株式会社,,株式会社,東京都,渋谷区,東１丁目１３番３号,,13,113,1500011,,,,,,,2022-02-09,1,,,,,カヤサンギョウホールディングス,0
1738,7011001145603,新規,0,2022-02-09,2022-02-09,株式会社ＳＯＵＮＤ　ＰＡＲＴＹ,,株式会社,東京都,渋谷区,渋谷２丁目１９番１５号宮益坂ビルディング６０９,,13,113,1500002,,,,,,,2022-02-09,1,,,,,サウンドパーティー,0
1742,7011101097760,新規,0,2022-02-09,2022-02-09,株式会社アイフロスト,,株式会社,東京都,新宿区,西新宿３丁目３番１３号西新宿水間ビル６階,,13,104,1600023,,,,,,,2022-02-09,1,,,,,アイフロスト,0
1744,7011103011447,新規,0,2022-02-09,2022-02-09,ＩＺＵＭＩ合同会社,,合同会社,東京都,新宿区,西新宿３丁目３番１３号西新宿水間ビル６階,,13,104,1600023,,,,,,,2022-02-09,1,,,,,イヅミ,0
1745,7011401024010,新規,0,2022-02-09,2022-02-09,株式会社Ａｎｙ・ビレッジ,,株式会社,東京都,板橋区,清水町３６番６号,,13,119,1740053,,,,,,,2022-02-09,1,,,,,エニービレッジ,0
1761,7013303006029,新規,0,2022-02-09,2022-02-09,合同会社きょういち,,合同会社,東京都,豊島区,南大塚２丁目１１－１０ミモザビル３階,,13,116,1700005,,,,,,,2022-02-09,1,,,,,キョウイチ,0
1773,7020001145174,新規,0,2022-02-09,2022-02-09,株式会社開物成務,,株式会社,神奈川県,横浜市金沢区,西柴４丁目１５番２１号,,14,108,2360017,,,,,,,2022-02-09,1,,,,,カイブツセイム,0
1774,7020001145199,新規,0,2022-02-09,2022-02-09,株式会社ＣＥＣＳ,,株式会社,神奈川県,横浜市港南区,芹が谷３丁目２３番２６号,,14,111,2330006,,,,,,,2022-02-09,1,,,,,セクス,0
1777,7020003021282,新規,0,2022-02-09,2022-02-09,Ｈａｉｒ－ｍａｋｅ　ＡＫＡＮＥ合同会社,,合同会社,神奈川県,横浜市神奈川区,三ツ沢下町２８番１２－２０５号,,14,102,2210852,,,,,,,2022-02-09,1,,,,,ヘアーメイクアカネ,0
1778,7020003021290,新規,0,2022-02-09,2022-02-09,合同会社ＹＧＰ－ＦＩＬＭ,,合同会社,神奈川県,川崎市宮前区,けやき平９番１－５０４号,,14,136,2160023,,,,,,,2022-02-09,1,,,,,ワイジーピーフィルム,0
1779,7020005015381,新規,0,2022-02-09,2022-02-09,一般社団法人ＳＩＭＳ,,その他の設立登記法人,神奈川県,横浜市南区,南太田１丁目２６番１４号,,14,105,2320006,,,,,,,2022-02-09,1,,,,,シムズ,0
1783,7021001075089,新規,0,2022-02-09,2022-02-09,株式会社みどり農園,,株式会社,神奈川県,藤沢市,亀井野４丁目１６番１５号,,14,205,2520813,,,,,,,2022-02-09,1,,,,,ミドリノウエン,0
1795,7030001146543,新規,0,2022-02-09,2022-02-09,株式会社エムコア,,株式会社,埼玉県,鶴ヶ島市,大字藤金８５１番地７,,11,241,3502206,,,,,,,2022-02-09,1,,,,,エムコア,0
1796,7030001146733,新規,0,2022-02-09,2022-02-09,株式会社アン・オー,,株式会社,埼玉県,秩父市,中宮地町２４番１９号,,11,207,3680022,,,,,,,2022-02-09,1,,,,,アンオー,0
1797,7030001146741,新規,0,2022-02-09,2022-02-09,株式会社ＹＵＭＥＫＩ,,株式会社,埼玉県,白岡市,小久喜１０２２番地３,,11,246,3490217,,,,,,,2022-02-09,1,,,,,ユメキ,0
1798,7030001146758,新規,0,2022-02-09,2022-02-09,株式会社ヒストリー,,株式会社,埼玉県,熊谷市,銀座５丁目１番１５号ライフプラザ熊谷４１６号室,,11,202,3600032,,,,,,,2022-02-09,1,,,,,ヒストリー,0
1799,7030001146774,新規,0,2022-02-09,2022-02-09,ＣＲＥＣＥＲ株式会社,,株式会社,埼玉県,川口市,川口２丁目７－２－２０３,,11,203,3320015,,,,,,,2022-02-09,1,,,,,クレセール,0
1802,7030003018815,新規,0,2022-02-09,2022-02-09,合同会社デキルヨ,,合同会社,埼玉県,川口市,芝新町４番１７－９０１号ラックヒル蕨,,11,203,3330851,,,,,,,2022-02-09,1,,,,,デキルヨ,0
1803,7030003018831,新規,0,2022-02-09,2022-02-09,合同会社ＥＫＯＨＳ,,合同会社,埼玉県,春日部市,粕壁東４丁目１４番２９号,,11,214,3440062,,,,,,,2022-02-09,1,,,,,エコーズ,0
1814,7040003019465,新規,0,2022-02-09,2022-02-09,Ｇｒａｃｅｆｕｌ合同会社,,合同会社,千葉県,流山市,野々下４丁目８６３－７,,12,220,2700135,,,,,,,2022-02-09,1,,,,,グレイスフル,0
1826,7070003004373,新規,0,2022-02-09,2022-02-09,合同会社ブルースター,,合同会社,群馬県,安中市,松井田町松井田５６４,,10,211,3790222,,,,,,,2022-02-09,1,,,,,ブルースター,0
1829,7080001024744,新規,0,2022-02-09,2022-02-09,株式会社Ｏｎｅ不動産,,株式会社,静岡県,藤枝市,田沼１丁目２４番８号４Ａ,,22,214,4260061,,,,,,,2022-02-09,1,,,,,ワンフドウサン,0
1830,7080101023092,新規,0,2022-02-09,2022-02-09,株式会社Ｃａｌｍ　Ｂａｓｅ,,株式会社,静岡県,沼津市,戸田３６８－２,,22,203,4103402,,,,,,,2022-02-09,1,,,,,カームベース,0
1835,7100001035037,新規,0,2022-02-09,2022-02-09,安栄株式会社,,株式会社,長野県,松本市,波田５７１２番地１５５,,20,202,3901401,,,,,,,2022-02-09,1,,,,,アンエイ,0
1850,7120001243728,新規,0,2022-02-09,2022-02-09,株式会社ナイル,,株式会社,大阪府,大阪市北区,中之島４丁目２番２８号甲南アセット中之島ビル５０７号室,,27,127,5300005,,,,,,,2022-02-09,1,,,,,ナイル,0
1851,7120001243760,新規,0,2022-02-09,2022-02-09,株式会社一誠,,株式会社,大阪府,大阪市中央区,谷町１丁目６番８号,,27,128,5400012,,,,,,,2022-02-09,1,,,,,イッセイ,0
1852,7120003021074,新規,0,2022-02-09,2022-02-09,合同会社Ｃｏｎｎｅｃｔ,,合同会社,大阪府,枚方市,山之上３丁目７番２１－１号,,27,210,5730047,,,,,,,2022-02-09,1,,,,,コネクト,0
1853,7120003021108,新規,0,2022-02-09,2022-02-09,合同会社ＯＨＡＣＯ,,合同会社,大阪府,大阪市北区,天神橋７丁目１４－１０グランコルベール天神橋６０３,,27,127,5310041,,,,,,,2022-02-09,1,,,,,オハコ,0
1860,7120101065056,新規,0,2022-02-09,2022-02-09,株式会社アユナス,,株式会社,大阪府,泉大津市,池浦町１丁目１７番２７－６０７号,,27,206,5950024,,,,,,,2022-02-09,1,,,,,アユナス,0
1862,7120103004565,新規,0,2022-02-09,2022-02-09,合同会社西村,,合同会社,大阪府,和泉市,いぶき野４丁目１番４－５０９号,,27,219,5940041,,,,,,,2022-02-09,1,,,,,ニシムラ,0
1863,7120105009521,新規,0,2022-02-09,2022-02-09,社会保険労務士法人ｉ,,その他の設立登記法人,大阪府,富田林市,甲田５丁目７番６号,,27,214,5840036,,,,,,,2022-02-09,1,,,,,アイ,0
1873,7140001124851,新規,0,2022-02-09,2022-02-09,株式会社ＡＫＩＲＥ,,株式会社,兵庫県,尼崎市,浜田町１丁目２３－１,,28,202,6600062,,,,,,,2022-02-09,1,,,,,アキレ,0
1879,7160003002491,新規,0,2022-02-09,2022-02-09,ＭＮＭ合同会社,,合同会社,滋賀県,大津市,仰木の里７丁目７番７号,,25,201,5200246,,,,,,,2022-02-09,1,,,,,エムエヌエム,0
1893,7180001149960,新規,0,2022-02-09,2022-02-09,株式会社バズるピース,,株式会社,愛知県,江南市,野白町野白１０８番地,,23,217,4838202,,,,,,,2022-02-09,1,,,,,バズルピース,0
1899,7180301035919,新規,0,2022-02-09,2022-02-09,株式会社ＭＪＩコンサルティング,,株式会社,愛知県,みよし市,三好丘４丁目１番地１６,,23,236,4700202,,,,,,,2022-02-09,1,,,,,エムジェイアイコンサルティング,0
1900,7190001029096,新規,0,2022-02-09,2022-02-09,株式会社サンクス,,株式会社,三重県,鈴鹿市,若松東３丁目７番１号,,24,207,5100225,,,,,,,2022-02-09,1,,,,,サンクス,0
1904,7210003001455,新規,0,2022-02-09,2022-02-09,合同会社アルクシーズ,,合同会社,福井県,あわら市,国影第３９号７１番地,,18,208,9104115,,,,,,,2022-02-09,1,,,,,アルクシーズ,0
1907,7220003003211,新規,0,2022-02-09,2022-02-09,合同会社誉,,合同会社,石川県,白山市,明光１丁目４６番地,,17,210,9202152,,,,,,,2022-02-09,1,,,,,ホマレ,0
1914,7250001019405,新規,0,2022-02-09,2022-02-09,株式会社ヒサモト,,株式会社,山口県,岩国市,三笠町１丁目６番２７号,,35,208,7400016,,,,,,,2022-02-09,1,,,,,ヒサモト,0
1922,7290001096408,新規,0,2022-02-09,2022-02-09,株式会社ＣＬＡＳＳＹ　ＰＬＵＳ,,株式会社,福岡県,福岡市中央区,荒戸１丁目７番３号,,40,133,8100062,,,,,,,2022-02-09,1,,,,,クラッシープラス,0
1928,7320001018886,新規,0,2022-02-09,2022-02-09,株式会社来心,,株式会社,大分県,大分市,上野町６番７－１００２号フローレンス上野町グランドアーク,,44,201,8700832,,,,,,,2022-02-09,1,,,,,クルミ,0
1934,7360001029995,新規,0,2022-02-09,2022-02-09,Ｔｒｏｐｉｃａｌ　Ｃｒｏｐｓ　Ｊａｐａｎ株式会社,,株式会社,沖縄県,石垣市,字新川１５８５番地３７,,47,207,9070024,,,,,,,2022-02-09,1,,,,,トロピカルクロップスジャパン,0
1959,7430001085973,新規,0,2022-02-09,2022-02-09,株式会社加賀谷,,株式会社,北海道,札幌市中央区,南十条西１３丁目３番３３－３０３号,,01,101,0640810,,,,,,,2022-02-09,1,,,,,カガヤ,0
1960,7430001085981,新規,0,2022-02-09,2022-02-09,株式会社ＰＬＥＡＳＵＲＥ,,株式会社,北海道,苫小牧市,木場町１丁目６番１号,,01,213,0530033,,,,,,,2022-02-09,1,,,,,プレジャー,0
1962,7430003013619,新規,0,2022-02-09,2022-02-09,合同会社Ｔｉｎｉａｎ,,合同会社,北海道,札幌市中央区,南二十九条西１１丁目５番３３号,,01,101,0640929,,,,,,,2022-02-09,1,,,,,テニアン,0
1968,7500005008460,新規,0,2022-02-09,2022-02-09,一般社団法人生きいきホーム壽会,,その他の設立登記法人,愛媛県,松山市,高砂町３丁目２０６番地２,,38,201,7900822,,,,,,,2022-02-09,1,,,,,イキイキホームコトブキカイ,0
1974,8010001224473,新規,0,2022-02-09,2022-02-09,株式会社Ｄｅｌｐｈａ,,株式会社,東京都,中央区,日本橋茅場町３丁目５番３号,,13,102,1030025,,,,,,,2022-02-09,1,,,,,デルファ,0
1975,8010001224498,新規,0,2022-02-09,2022-02-09,株式会社健康予防医学協会,,株式会社,東京都,中央区,日本橋１丁目２番１０号東洋ビルディング４階,,13,102,1030027,,,,,,,2022-02-09,1,,,,,ケンコウヨボウイガクキョウカイ,0
1977,8010003036925,新規,0,2022-02-09,2022-02-09,合同会社フォリバー,,合同会社,東京都,千代田区,神田佐久間町３丁目２１番５号ヒガシカンダビル３０７号,,13,101,1010025,,,,,,,2022-02-09,1,,,,,フォリバー,0
1978,8010003036982,新規,0,2022-02-09,2022-02-09,Ｇｏｌｄ　ｓｈｉｐ　ｄｅｓｉｇｎ合同会社,,合同会社,東京都,中央区,銀座１丁目２２番１１号銀座大竹ビジデンス２階,,13,102,1040061,,,,,,,2022-02-09,1,,,,,ゴールドシップデザイン,0
1979,8010103001861,新規,0,2022-02-09,2022-02-09,ＨＣＬ合同会社,,合同会社,東京都,八王子市,南町３番１７号ＴＯＷＡビル１Ｆ,,13,201,1920072,,,,,,,2022-02-09,1,,,,,,0
1989,8010401165458,新規,0,2022-02-09,2022-02-09,ＭｅｔａＨｅａｌｔｈ株式会社,,株式会社,東京都,港区,六本木７丁目２１－２４－６０３号室,,13,103,1060032,,,,,,,2022-02-09,1,,,,,メタヘルス,0
1990,8010401165474,新規,0,2022-02-09,2022-02-09,株式会社ハロ・ホーム,,株式会社,東京都,港区,南麻布５丁目１５番２２号,,13,103,1060047,,,,,,,2022-02-09,1,,,,,ハロホーム,0
1991,8010405020683,新規,0,2022-02-09,2022-02-09,一般社団法人Ｐａｙ　Ｉｔ　Ｆｏｒｗａｒｄ,,その他の設立登記法人,東京都,港区,西新橋１丁目７番１３号,,13,103,1050003,,,,,,,2022-02-09,1,,,,,ペイイットフォワード,0
1999,8010601060657,新規,0,2022-02-09,2022-02-09,株式会社ＳＥＥＫ,,株式会社,東京都,江東区,古石場２丁目５番１０－４０９号,,13,108,1350045,,,,,,,2022-02-09,1,,,,,シーク,0
2009,8010901050333,新規,0,2022-02-09,2022-02-09,株式会社Ｍｅｒｒｙ,,株式会社,東京都,世田谷区,上野毛２丁目５番２５－３０８号,,13,112,1580093,,,,,,,2022-02-09,1,,,,,,0
2013,8010903007141,新規,0,2022-02-09,2022-02-09,合同会社カーサ・エテルナ,,合同会社,東京都,世田谷区,岡本１丁目１９番１２号,,13,112,1570076,,,,,,,2022-02-09,1,,,,,カーサエテルナ,0
2023,8011001145585,新規,0,2022-02-09,2022-02-09,株式会社２２２,,株式会社,東京都,渋谷区,松濤１丁目２８番２号,,13,113,1500046,,,,,,,2022-02-09,1,,,,,ニィニィニィ,0
2036,8011601025732,新規,0,2022-02-09,2022-02-09,株式会社ＷＲＡ,,株式会社,東京都,練馬区,東大泉１丁目３２番２号ヨシハヤビル４Ａ号室,,13,120,1780063,,,,,,,2022-02-09,1,,,,,ダブルアールエー,0
2040,8012401038841,新規,0,2022-02-09,2022-02-09,株式会社伍国開発,,株式会社,東京都,狛江市,東野川４丁目１番１３号,,13,219,2010002,,,,,,,2022-02-09,1,,,,,ゴコクカイハツ,0
2041,8012403005237,新規,0,2022-02-09,2022-02-09,合同会社ｗａａａｌｋ,,合同会社,東京都,稲城市,東長沼２４１６番地プラウドシティ南山４４２,,13,225,2060802,,,,,,,2022-02-09,1,,,,,ウォーク,0
2042,8012801021356,新規,0,2022-02-09,2022-02-09,株式会社Ｕｓａｇｉ,,株式会社,東京都,国分寺市,西恋ヶ窪３丁目２番地２１‐１０１,,13,214,1850013,,,,,,,2022-02-09,1,,,,,ウサギ,0
2043,8012803002701,新規,0,2022-02-09,2022-02-09,合同会社アイホームサービス,,合同会社,東京都,立川市,富士見町２丁目２４番１６号,,13,202,1900013,,,,,,,2022-02-09,1,,,,,アイホームサービス,0
2054,8020001145140,新規,0,2022-02-09,2022-02-09,株式会社ＨＣ,,株式会社,神奈川県,横浜市中区,野毛町３丁目１３３－６－３階,,14,104,2310064,,,,,,,2022-02-09,1,,,,,,0
2055,8020001145173,新規,0,2022-02-09,2022-02-09,株式会社ＩＫＫＩ,,株式会社,神奈川県,横浜市泉区,和泉町６５４８,,14,116,2450016,,,,,,,2022-02-09,1,,,,,イッキ,0
2056,8020001145181,新規,0,2022-02-09,2022-02-09,株式会社コネクト,,株式会社,神奈川県,横浜市中区,本町５丁目４９番地,,14,104,2310005,,,,,,,2022-02-09,1,,,,,コネクト,0
2059,8020003021249,新規,0,2022-02-09,2022-02-09,合同会社カピズ,,合同会社,神奈川県,川崎市中原区,苅宿４７番１２‐７０１号,,14,133,2110022,,,,,,,2022-02-09,1,,,,,カピズ,0
2062,8021001075096,新規,0,2022-02-09,2022-02-09,株式会社Ｓｎｏｗ－ｗｅ．Ｉｎｃ,,株式会社,神奈川県,藤沢市,辻堂神台２丁目２番１号アイクロス湘南５階Ｅ号室,,14,205,2510041,,,,,,,2022-02-09,1,,,,,スノーウィインコーポレーション,0
2063,8021001075146,新規,0,2022-02-09,2022-02-09,株式会社華ぐや,,株式会社,神奈川県,高座郡寒川町,岡田１丁目６番地２－２Ｆ,,14,321,2530105,,,,,,,2022-02-09,1,,,,,カグヤ,0
2072,8030001146708,新規,0,2022-02-09,2022-02-09,鈴木機工株式会社,,株式会社,埼玉県,秩父市,大野原６４７番地２８,,11,207,3680005,,,,,,,2022-02-09,1,,,,,スズキキコウ,0
2073,8030001146740,新規,0,2022-02-09,2022-02-09,富士商工ホールディングス株式会社,,株式会社,埼玉県,新座市,野火止２丁目５番３４号,,11,230,3520011,,,,,,,2022-02-09,1,,,,,フジショウコウホールディングス,0
2076,8030003018797,新規,0,2022-02-09,2022-02-09,合同会社空き家問屋,,合同会社,埼玉県,さいたま市岩槻区,大字飯塚１２３６番地１６,,11,110,3390031,,,,,,,2022-02-09,1,,,,,アキヤドンヤ,0
2080,8040001122063,新規,0,2022-02-09,2022-02-09,中西商会株式会社,,株式会社,千葉県,船橋市,印内町６３１番地１,,12,204,2730025,,,,,,,2022-02-09,1,,,,,ナカニシショウカイ,0
2082,8040003019464,新規,0,2022-02-09,2022-02-09,サジタリアス合同会社,,合同会社,千葉県,我孫子市,高野山４６８番地の１３（Ｃ－１０１号）,,12,222,2701145,,,,,,,2022-02-09,1,,,,,サジタリアス,0
2085,8050001050610,新規,0,2022-02-09,2022-02-09,株式会社パスカンパニー,,株式会社,茨城県,水戸市,平須町１９９６番地の２,,08,201,3100853,,,,,,,2022-02-09,1,,,,,パスカンパニー,0
2087,8050003006362,新規,0,2022-02-09,2022-02-09,合同会社クリーンジャンプ,,合同会社,茨城県,坂東市,沓掛１７３４番地３ＣＬＡＩＲ咲Ａ１０１号室,,08,228,3060515,,,,,,,2022-02-09,1,,,,,クリーンジャンプ,0
2096,8070005009948,新規,0,2022-02-09,2022-02-09,一般社団法人前橋市物産振興協会,,その他の設立登記法人,群馬県,前橋市,表町２丁目２９番１６号,,10,201,3710024,,,,,,,2022-02-09,1,,,,,マエバシシブッサンシンコウキョウカイ,0
2102,8080401025622,新規,0,2022-02-09,2022-02-09,株式会社トヨカンパニー,,株式会社,静岡県,浜松市中区,中島２丁目４番３号,,22,131,4300856,,,,,,,2022-02-09,1,,,,,トヨカンパニー,0
2117,8120001243223,新規,0,2022-02-09,2022-02-09,ＦｏｒＩ株式会社,,株式会社,大阪府,大阪市北区,天神橋３丁目６－５ベルニーニ南森町１００２,,27,127,5300041,,,,,,,2022-02-09,1,,,,,フォーアイ,0
2118,8120001243669,新規,0,2022-02-09,2022-02-09,株式会社ＳＨＩＩＫＡ,,株式会社,大阪府,大阪市中央区,東心斎橋１丁目１３番２９－１１０２号,,27,128,5420083,,,,,,,2022-02-09,1,,,,,シイカ,0
2119,8120001243751,新規,0,2022-02-09,2022-02-09,株式会社ＡＢＣ,,株式会社,大阪府,大阪市北区,天神橋７丁目１４番７－１００４号,,27,127,5310041,,,,,,,2022-02-09,1,,,,,エービーシー,0
2123,8120003020760,新規,0,2022-02-09,2022-02-09,合同会社Ａｔｔｉｃｏｎ,,合同会社,大阪府,大阪市此花区,朝日２丁目１８番８号３Ｆ－６１７,,27,104,5540011,,,,,,,2022-02-09,1,,,,,アティコン,0
2124,8120003021107,新規,0,2022-02-09,2022-02-09,合同会社サラスヴァティー,,合同会社,大阪府,大阪市天王寺区,舟橋町９－３ＳＫビル３Ｆ,,27,109,5430024,,,,,,,2022-02-09,1,,,,,サラスヴァティー,0
2125,8120005022788,新規,0,2022-02-09,2022-02-09,医療法人永山会,,その他の設立登記法人,大阪府,大阪市阿倍野区,播磨町１丁目２４番１号グレインスパイン１Ｆ,,27,119,5450022,,,,,,,2022-02-09,1,,,,,ナガヤマカイ,0
2134,8120103004556,新規,0,2022-02-09,2022-02-09,合同会社ｍｉｎｋ,,合同会社,大阪府,泉佐野市,羽倉崎２丁目２番４３号,,27,213,5980046,,,,,,,2022-02-09,1,,,,,ミンク,0
2136,8120901045578,新規,0,2022-02-09,2022-02-09,株式会社ＳＣＳ,,株式会社,大阪府,摂津市,千里丘新町５－２２－１５１６,,27,224,5660002,,,,,,,2022-02-09,1,,,,,エスシーエス,0
2142,8130001071111,新規,0,2022-02-09,2022-02-09,株式会社フューチャーキッズ,,株式会社,京都府,京都市右京区,西院平町２５,,26,108,6160000,,,,,,,2022-02-09,1,,,,,フューチャーキッズ,0
2152,8140001124867,新規,0,2022-02-09,2022-02-09,株式会社Ｍ．Ｙ．Ｄ,,株式会社,兵庫県,加東市,東垂水２８４番地１,,28,228,6731336,,,,,,,2022-02-09,1,,,,,エムワイディ,0
2156,8140003017334,新規,0,2022-02-09,2022-02-09,Ｓｅｉｋｏ合同会社,,合同会社,兵庫県,西宮市,豊楽町３－１９,,28,204,6620072,,,,,,,2022-02-09,1,,,,,セイコ,0
2172,8180001149902,新規,0,2022-02-09,2022-02-09,株式会社リベルテ,,株式会社,愛知県,名古屋市名東区,高社２丁目１６１番地,,23,115,4650095,,,,,,,2022-02-09,1,,,,,リベルテ,0
2176,8190001029112,新規,0,2022-02-09,2022-02-09,株式会社ライズガーデン,,株式会社,三重県,名張市,梅が丘南５番町１２番地,,24,208,5180745,,,,,,,2022-02-09,1,,,,,ライズガーデン,0
2182,8200005013309,新規,0,2022-02-09,2022-02-09,一般社団法人四葉会,,その他の設立登記法人,岐阜県,大垣市,世安町２丁目１０９番地１,,21,202,5030858,,,,,,,2022-02-09,1,,,,,ヨツバカイ,0
2184,8220003003202,新規,0,2022-02-09,2022-02-09,合同会社Ｊコンシャス,,合同会社,石川県,金沢市,神田２丁目２番２９号アミスタービル５Ｆ,,17,201,9218027,,,,,,,2022-02-09,1,,,,,ジェイコンシャス,0
2201,8290001096365,新規,0,2022-02-09,2022-02-09,株式会社もっと人と家,,株式会社,福岡県,筑後市,大字長浜１２５１番地１１,,40,211,8330005,,,,,,,2022-02-09,1,,,,,モットヒトトイエ,0
2203,8290003012130,新規,0,2022-02-09,2022-02-09,合同会社ＴＷＭ,,合同会社,福岡県,糸島市,志摩師吉１６７番地６２,,40,230,8191314,,,,,,,2022-02-09,1,,,,,ティーダブリューエム,0
2205,8290801028253,新規,0,2022-02-09,2022-02-09,Ｇｏｔｔ株式会社,,株式会社,福岡県,北九州市若松区,大字安屋３２０２番地３,,40,103,8080124,,,,,,,2022-02-09,1,,,,,ゴッツ,0
2208,8290805009522,新規,0,2022-02-09,2022-02-09,特定非営利活動法人ソアレ,,その他の設立登記法人,福岡県,鞍手郡鞍手町,大字中山１９７１番地２,,40,402,8071312,,,,,,,2022-02-09,1,,,,,ソアレ,0
2209,8300003001791,新規,0,2022-02-09,2022-02-09,合同会社きはら,,合同会社,佐賀県,神埼市,神埼町神埼９６番地１,,41,210,8420001,,,,,,,2022-02-09,1,,,,,キハラ,0
2210,8310001017707,新規,0,2022-02-09,2022-02-09,株式会社ＭＳＴＡ大空,,株式会社,長崎県,大村市,諏訪１丁目３１番地２,,42,205,8560024,,,,,,,2022-02-09,1,,,,,,0
2215,8310003004273,新規,0,2022-02-09,2022-02-09,合名会社エスティト森田,,合名会社,長崎県,佐世保市,名切町３４０番地１３,,42,202,8570023,,,,,,,2022-02-09,1,,,,,エスティトモリタ,0
2220,8360003011793,新規,0,2022-02-09,2022-02-09,合同会社秀産業,,合同会社,沖縄県,那覇市,金城２丁目６番地７,,47,201,9010155,,,,,,,2022-02-09,1,,,,,ヒデサンギョウ,0
2245,8460303000750,新規,0,2022-02-09,2022-02-09,合同会社圓子水産,,合同会社,北海道,斜里郡斜里町,ウトロ西１３１,,01,545,0994354,,,,,,,2022-02-09,1,,,,,マルコスイサン,0
2247,8480003001790,新規,0,2022-02-09,2022-02-09,合同会社音彩,,合同会社,徳島県,徳島市,応神町吉成字有天９７番地の１,,36,201,7711153,,,,,,,2022-02-09,1,,,,,ネイロ,0
2260,9010001224415,新規,0,2022-02-09,2022-02-09,株式会社ＲＥＣＯＳＹＳ,,株式会社,東京都,中央区,京橋１丁目１番５号,,13,102,1040031,,,,,,,2022-02-09,1,,,,,リコシス,0
2261,9010001224489,新規,0,2022-02-09,2022-02-09,株式会社住まいライフナビ,,株式会社,東京都,千代田区,岩本町２丁目３－１２－１１０５,,13,101,1010032,,,,,,,2022-02-09,1,,,,,スマイライフナビ,0
2262,9010001224497,新規,0,2022-02-09,2022-02-09,株式会社Ｌｏｕｄｅｒ,,株式会社,東京都,千代田区,内幸町２丁目１番１号飯野ビルディング９階,,13,101,1000011,,,,,,,2022-02-09,1,,,,,ラウダー,0
2263,9010001224506,新規,0,2022-02-09,2022-02-09,株式会社ｍａｒｒｏｎ’ｓ,,株式会社,東京都,文京区,湯島３丁目４４番９号湯島要ビル地下１階Ｂ号,,13,105,1130034,,,,,,,2022-02-09,1,,,,,マロンズ,0
2266,9010005034579,新規,0,2022-02-09,2022-02-09,アドバンス・プライベート投資法人,,その他の設立登記法人,東京都,千代田区,神田神保町１丁目１０５番地,,13,101,1010051,,,,,,,2022-02-09,1,,,,,アドバンスプライベート,0
2273,9010403027060,新規,0,2022-02-09,2022-02-09,合同会社ルマルシャン,,合同会社,東京都,港区,南青山６丁目７番１２号７０１,,13,103,1070062,,,,,,,2022-02-09,1,,,,,ルマルシャン,0
2274,9010403027069,新規,0,2022-02-09,2022-02-09,ＳＣＧ７２合同会社,,合同会社,東京都,港区,虎ノ門４丁目１番２８号,,13,103,1050001,,,,,,,2022-02-09,1,,,,,エスシージーセブンティツー,0
2276,9010503006501,新規,0,2022-02-09,2022-02-09,合同会社ＫＵＲＯ,,合同会社,東京都,台東区,東上野１丁目６－２東陽ビル５Ｆ,,13,106,1100015,,,,,,,2022-02-09,1,,,,,,0
2279,9010603009387,新規,0,2022-02-09,2022-02-09,合同会社モノポール,,合同会社,東京都,江東区,東陽５丁目３１－２１,,13,108,1350016,,,,,,,2022-02-09,1,,,,,モノポール,0
2283,9010703006111,新規,0,2022-02-09,2022-02-09,合同会社ＭＲＥ,,合同会社,東京都,品川区,旗の台６丁目１２番１５号サニーアヴェニューＡ棟１０１,,13,109,1420064,,,,,,,2022-02-09,1,,,,,エムアールイー,0
2290,9010901050324,新規,0,2022-02-09,2022-02-09,株式会社ＲＥ　ｌｉｆｅ,,株式会社,東京都,世田谷区,松原３丁目２３番５号ヴィララドゥガ２０１,,13,112,1560043,,,,,,,2022-02-09,1,,,,,リライフ,0
2291,9010901050332,新規,0,2022-02-09,2022-02-09,ＡＳＡＳ管理株式会社,,株式会社,東京都,世田谷区,砧１丁目２９番２７号,,13,112,1570073,,,,,,,2022-02-09,1,,,,,アサスカンリ,0
2299,9011001145576,新規,0,2022-02-09,2022-02-09,Ｄｅａｒ株式会社,,株式会社,東京都,渋谷区,道玄坂１丁目１０番８号渋谷道玄坂東急ビル２Ｆ－Ｃ,,13,113,1500043,,,,,,,2022-02-09,1,,,,,ディア,0
2300,9011001145601,新規,0,2022-02-09,2022-02-09,株式会社ＮＵＴＳ　ＦＩＬＭ,,株式会社,東京都,渋谷区,恵比寿１丁目１５番９号日宝恵比寿ビル４０３,,13,113,1500013,,,,,,,2022-02-09,1,,,,,ナッツフィルム,0
2306,9011101097759,新規,0,2022-02-09,2022-02-09,株式会社Ｍｅｅｒ,,株式会社,東京都,新宿区,歌舞伎町２丁目２２番１号アイトスビル１階,,13,104,1600021,,,,,,,2022-02-09,1,,,,,ミアー,0
2309,9011401024017,新規,0,2022-02-09,2022-02-09,株式会社Ｄｒａｆｔａｉｌ,,株式会社,東京都,板橋区,板橋１丁目４９番８－２０２号,,13,119,1730004,,,,,,,2022-02-09,1,,,,,ドラフテイル,0
2315,9012403005228,新規,0,2022-02-09,2022-02-09,合同会社Ｎスタジオ,,合同会社,東京都,武蔵野市,関前５丁目１４番１０号カサ・ベルディー３０１,,13,203,1800014,,,,,,,2022-02-09,1,,,,,エヌスタジオ,0
2316,9012403005236,新規,0,2022-02-09,2022-02-09,合同会社コヤラボ,,合同会社,東京都,小金井市,前原町５丁目４番１５号,,13,210,1840013,,,,,,,2022-02-09,1,,,,,コヤラボ,0
2319,9012801021388,新規,0,2022-02-09,2022-02-09,株式会社ビジネスデザインワークス,,株式会社,東京都,立川市,柏町４丁目３１番地の２６,,13,202,1900004,,,,,,,2022-02-09,1,,,,,ビジネスデザインワークス,0
2320,9012803002700,新規,0,2022-02-09,2022-02-09,ＮＫ　ｖｉｓｔａ合同会社,,合同会社,東京都,東大和市,南街５丁目９５番地の１,,13,220,2070014,,,,,,,2022-02-09,1,,,,,エヌケイビスタ,0
2321,9013301048624,新規,0,2022-02-09,2022-02-09,株式会社ｓｕｓ２,,株式会社,東京都,豊島区,南長崎２丁目２１番７号,,13,116,1710052,,,,,,,2022-02-09,1,,,,,サスツー,0
2322,9013301048665,新規,0,2022-02-09,2022-02-09,株式会社スタートアップ,,株式会社,東京都,豊島区,西池袋４丁目８番地２号ハーモニーレジデンス池袋ウエスト２０５,,13,116,1710021,,,,,,,2022-02-09,1,,,,,スタートアップ,0
2334,9021001075104,新規,0,2022-02-09,2022-02-09,株式会社クレディー,,株式会社,神奈川県,大和市,上草柳６丁目６番１６号,,14,213,2420029,,,,,,,2022-02-09,1,,,,,クレディー,0
2335,9021001075145,新規,0,2022-02-09,2022-02-09,Ｏｒｇａｎｉｃ　Ｊｕｎｋｉｅ株式会社,,株式会社,神奈川県,茅ヶ崎市,東海岸南６丁目３番２６号東海岸シーサイドビル２０２,,14,207,2530054,,,,,,,2022-02-09,1,,,,,オーガニックジャンキー,0
2339,9021003011379,新規,0,2022-02-09,2022-02-09,合同会社ウエノコーポレーション,,合同会社,神奈川県,大和市,西鶴間７丁目１３番３３号,,14,213,2420005,,,,,,,2022-02-09,1,,,,,ウエノコーポレーション,0
2346,9030001146764,新規,0,2022-02-09,2022-02-09,Ｌプランニング株式会社,,株式会社,埼玉県,新座市,大和田１丁目１８番３号クレイルヴィラ新座２０１号室,,11,230,3520004,,,,,,,2022-02-09,1,,,,,エルプランニング,0
2349,9030003018821,新規,0,2022-02-09,2022-02-09,ＡＲＭ　Ｃｏｍｍｕｎｉｃａｔｉｏｎｓ合同会社,,合同会社,埼玉県,さいたま市南区,辻２丁目１６番８号,00125670,11,108,3360026,,,,,,,2022-02-09,1,,,,,アームコミュニケーションズ,0
2358,9040001122104,新規,0,2022-02-09,2022-02-09,株式会社ＮＥＸＬＩＮＫ,,株式会社,千葉県,船橋市,習志野台８丁目１９番１２号,,12,204,2740063,,,,,,,2022-02-09,1,,,,,ネクスリンク,0
2359,9040001122186,新規,0,2022-02-09,2022-02-09,株式会社宇正,,株式会社,千葉県,松戸市,栄町西３丁目９９２番地の４,,12,207,2710061,,,,,,,2022-02-09,1,,,,,ウセイ,0
2364,9040003019463,新規,0,2022-02-09,2022-02-09,ＡＴＬＡＮＴＩＣ合同会社,,合同会社,千葉県,市川市,真間１丁目２－１４,,12,203,2720826,,,,,,,2022-02-09,1,,,,,アトランティック,0
2365,9040005021509,新規,0,2022-02-09,2022-02-09,医療法人社団緑晴会,,その他の設立登記法人,千葉県,長生郡長生村,本郷７２９３番地,,12,423,2994345,,,,,,,2022-02-09,1,,,,,,0
2377,9070005009947,新規,0,2022-02-09,2022-02-09,一般社団法人エール,,その他の設立登記法人,群馬県,前橋市,箱田町５６５－１,,10,201,3710837,,,,,,,2022-02-09,1,,,,,エール,0
2379,9080101023074,新規,0,2022-02-09,2022-02-09,ＫＡＫＥＲＵ株式会社,,株式会社,静岡県,富士宮市,万野原新田３４３２番地４５,,22,207,4180001,,,,,,,2022-02-09,1,,,,,カケル,0
2382,9080401025621,新規,0,2022-02-09,2022-02-09,Ｂｅ　Ｗｉｔｈ株式会社,,株式会社,静岡県,浜松市西区,大平台１丁目３６番１０号,,22,133,4328068,,,,,,,2022-02-09,1,,,,,ビーウィズ,0
2392,9110001036429,新規,0,2022-02-09,2022-02-09,株式会社ＥＸＴＥＮＤ,,株式会社,新潟県,新潟市秋葉区,市之瀬１９０,,15,105,9560002,,,,,,,2022-02-09,1,,,,,エクステンド,0
2407,9120001243767,新規,0,2022-02-09,2022-02-09,株式会社愛喜,,株式会社,大阪府,大阪市東住吉区,鷹合１丁目７番８号,,27,121,5460014,,,,,,,2022-02-09,1,,,,,アイキ,0
2408,9120001243775,新規,0,2022-02-09,2022-02-09,株式会社ＫＡＺＡＮ,,株式会社,大阪府,大阪市東住吉区,矢田２丁目１７―１０,,27,121,5460023,,,,,,,2022-02-09,1,,,,,カザン,0
2417,9120101065038,新規,0,2022-02-09,2022-02-09,株式会社Ｅｌｅｇａｎｔ,,株式会社,大阪府,松原市,松ケ丘１丁目１２番１６－６０９号,,27,217,5800042,,,,,,,2022-02-09,1,,,,,エレガント,0
2428,9140001124858,新規,0,2022-02-09,2022-02-09,Ｋ３Ｆ企画株式会社,,株式会社,兵庫県,明石市,二見町東二見７９９番地の２,,28,203,6740092,,,,,,,2022-02-09,1,,,,,ケイキュービックエフキカク,0
2431,9150001025320,新規,0,2022-02-09,2022-02-09,Ｔ２コントラクション株式会社,,株式会社,奈良県,奈良市,八条１丁目７８７－３,,29,201,6308145,,,,,,,2022-02-09,1,,,,,ティーツーコントラクション,0
2436,9180001149918,新規,0,2022-02-09,2022-02-09,株式会社Ｃｈｉｌｌ,,株式会社,愛知県,名古屋市中区,錦１丁目１０番１２号－１,,23,106,4600003,,,,,,,2022-02-09,1,,,,,チル,0
2438,9180301035917,新規,0,2022-02-09,2022-02-09,株式会社ＦＵＪＩＭＯＴＯ,,株式会社,愛知県,岡崎市,東蔵前２丁目３番地４,,23,202,4442145,,,,,,,2022-02-09,1,,,,,フジモト,0
2440,9190003003898,新規,0,2022-02-09,2022-02-09,合同会社ｃｈｒｏｎｏｓ,,合同会社,三重県,伊勢市,小俣町本町１２７７番地,,24,203,5190505,,,,,,,2022-02-09,1,,,,,クロノス,0
2443,9200001039728,新規,0,2022-02-09,2022-02-09,株式会社ベルテクス,,株式会社,岐阜県,大垣市,問屋町５番地２,,21,202,5030855,,,,,,,2022-02-09,1,,,,,ベルテクス,0
2451,9240003005492,新規,0,2022-02-09,2022-02-09,Ｐｉｃｎｉｃ合同会社,,合同会社,広島県,廿日市市,大野原２丁目１番１１号,,34,213,7390441,,,,,,,2022-02-09,1,,,,,ピクニック,0
2464,9290001096389,新規,0,2022-02-09,2022-02-09,株式会社エッグカンパニー,,株式会社,福岡県,糟屋郡宇美町,平和２丁目１０－１６２Ｆ,,40,341,8112121,,,,,,,2022-02-09,1,,,,,エッグカンパニー,0
2465,9290001096406,新規,0,2022-02-09,2022-02-09,株式会社吉信商事,,株式会社,福岡県,福岡市東区,唐原５丁目３－１８－２０５,,40,131,8130001,,,,,,,2022-02-09,1,,,,,ヨシノブショウジ,0
2469,9290003012138,新規,0,2022-02-09,2022-02-09,ＥＲＡＫＵ合同会社,,合同会社,福岡県,福岡市東区,香椎照葉３丁目２－４－８１５,,40,131,8130017,,,,,,,2022-02-09,1,,,,,エラク,0
2479,9290803004053,新規,0,2022-02-09,2022-02-09,ＮＨＡＴ　ＭＩＮＨ合同会社,,合同会社,福岡県,北九州市小倉北区,若富士町５－５－２階,,40,106,8020063,,,,,,,2022-02-09,1,,,,,ニャットミン,0
2482,9300001012807,新規,0,2022-02-09,2022-02-09,株式会社フォレストフィールズ,,株式会社,佐賀県,伊万里市,二里町八谷搦１１９８－２－３０３,,41,205,8480031,,,,,,,2022-02-09,1,,,,,フォレストフィールズ,0
2486,9340001024492,新規,0,2022-02-09,2022-02-09,Ａｃｕｍｅｎ株式会社,,株式会社,鹿児島県,鹿児島市,上荒田町２番５号－３０１,,46,201,8900055,,,,,,,2022-02-09,1,,,,,,0
2492,9360001029969,新規,0,2022-02-09,2022-02-09,株式会社Ｆｏｏｄｉｘ,,株式会社,沖縄県,那覇市,おもろまち２丁目５番７―８０２号フリーベル天久新都心,,47,201,9000006,,,,,,,2022-02-09,1,,,,,フーディックス,0
2493,9360003011792,新規,0,2022-02-09,2022-02-09,合同会社うりずん,,合同会社,沖縄県,うるま市,みどり町４丁目２０－１ロイヤルマンション６０２,,47,213,9042215,,,,,,,2022-02-09,1,,,,,ウリズン,0
2503,9420003002447,新規,0,2022-02-09,2022-02-09,星の丘合同会社,,合同会社,青森県,南津軽郡大鰐町,大字大鰐字羽黒館７１－１７,,02,362,0380211,,,,,,,2022-02-09,1,,,,,ホシノオカ,0
2512,9430003013617,新規,0,2022-02-09,2022-02-09,合同会社桜うさぎ,,合同会社,北海道,北広島市,大曲柏葉５丁目５－１０,,01,234,0611273,,,,,,,2022-02-09,1,,,,,サクラウサギ,0
2520,9500001023998,新規,0,2022-02-09,2022-02-09,新丸忠運輸株式会社,,株式会社,愛媛県,西予市,宇和町卯之町５丁目９６７番地８,,38,214,7970015,,,,,,,2022-02-09,1,,,,,シンマルチュウウンユ,0
2521,9700150107004,新規,0,2022-02-09,2022-02-09,境小此木東部土地改良区,,その他,群馬県,伊勢崎市,境６３７番地,,10,204,3700124,,,,,,,2022-02-09,1,,,,,サカイオコノギトウブトチカイリヨウク,0
