sequenceNumber,corporateNumber,process,correct,updateDate,changeDate,name,nameImageId,kind,prefectureName,cityName,streetNumber,addressImageId,prefectureCode,cityCode,postCode,addressOutside,addressOutsideImageId,closeDate,closeCause,successorCorporateNumber,changeCause,assignmentDate,latest,enName,enPrefectureName,enCityName,enAddressOutside,furigana,hihyoji
17,1010001228588,新規,0,2022-08-08,2022-08-08,株式会社しなやか,,株式会社,東京都,中央区,銀座１丁目２７番１０号,,13,102,1040061,,,,,,,2022-08-08,1,,,,,シナヤカ,0
30,1010403028207,新規,0,2022-08-08,2022-08-08,合同会社日本会計センター,,合同会社,東京都,港区,浜松町２丁目２番１５号,,13,103,1050013,,,,,,,2022-08-08,1,,,,,ニホンカイケイセンター,0
34,1010501049195,新規,0,2022-08-08,2022-08-08,株式会社Ｄ‐ＪＡＰＡＮ　ＧＲＯＵＰ,,株式会社,東京都,台東区,台東４丁目２９番１３号明和センチュリー２１－９０２号室,,13,106,1100016,,,,,,,2022-08-08,1,,,,,ディージャパングループ,0
36,1010603009659,新規,0,2022-08-08,2022-08-08,ｓａｆｅｔｙ　ｐｌａｎ合同会社,,合同会社,東京都,墨田区,向島３丁目９－３トラディス向島４０３,,13,107,1310033,,,,,,,2022-08-08,1,,,,,セーフティープラン,0
49,1011001148909,新規,0,2022-08-08,2022-08-08,グロースパートナーズ株式会社,,株式会社,東京都,目黒区,自由が丘２丁目１６－１２ＲＪ３,,13,110,1520035,,,,,,,2022-08-08,1,,,,,グロースパートナーズ,0
52,1011003015140,新規,0,2022-08-08,2022-08-08,ドリームマンバ合同会社,,合同会社,東京都,渋谷区,神泉町３－４－００１,,13,113,1500045,,,,,,,2022-08-08,1,,,,,ドリームマンバ,0
57,1011101099713,新規,0,2022-08-08,2022-08-08,株式会社アーク,,株式会社,東京都,新宿区,新宿１丁目２４番１号大塚ビル２階,,13,104,1600022,,,,,,,2022-08-08,1,,,,,アーク,0
58,1011101099762,新規,0,2022-08-08,2022-08-08,株式会社ＣＲＵＴＥＣＨ,,株式会社,東京都,新宿区,西新宿３丁目３番１３号西新宿水間ビル６階,,13,104,1600023,,,,,,,2022-08-08,1,,,,,クルテック,0
59,1011101099787,新規,0,2022-08-08,2022-08-08,ハチドリソーラー株式会社,,株式会社,東京都,新宿区,市谷田町２丁目１７番地,,13,104,1620843,,,,,,,2022-08-08,1,,,,,ハチドリソーラー,0
62,1011103011989,新規,0,2022-08-08,2022-08-08,合同会社ティーグル,,合同会社,東京都,新宿区,箪笥町３９番地ルネ神楽坂９０２,,13,104,1620833,,,,,,,2022-08-08,1,,,,,ティーグル,0
63,1011105010345,新規,0,2022-08-08,2022-08-08,一般社団法人サマリア,,その他の設立登記法人,東京都,新宿区,大久保１丁目２番１号,,13,104,1690072,,,,,,,2022-08-08,1,,,,,サマリア,0
68,1011301027960,新規,0,2022-08-08,2022-08-08,株式会社ＡＲＣＬＥＡＴ,,株式会社,東京都,杉並区,高井戸東１丁目６番１０号,,13,115,1680072,,,,,,,2022-08-08,1,,,,,アークリート,0
81,1011503005244,新規,0,2022-08-08,2022-08-08,レーブ合同会社,,合同会社,東京都,北区,西ケ原３丁目６４番１７号,,13,117,1140024,,,,,,,2022-08-08,1,,,,,レーブ,0
84,1012403005532,新規,0,2022-08-08,2022-08-08,合同会社トランジェント,,合同会社,東京都,調布市,染地２丁目８番地２３,,13,208,1820023,,,,,,,2022-08-08,1,,,,,トランジェント,0
86,1012801021775,新規,0,2022-08-08,2022-08-08,ｒｅ‐ｐａｉｒ多摩株式会社,,株式会社,東京都,日野市,南平２丁目５９番地の１０３,,13,212,1910041,,,,,,,2022-08-08,1,,,,,リペアタマ,0
87,1013101008991,新規,0,2022-08-08,2022-08-08,株式会社Ｍｉｎｓｅａ,,株式会社,東京都,羽村市,川崎２丁目３番１９－２０３号,,13,227,2050021,,,,,,,2022-08-08,1,,,,,ミンシー,0
102,1021001076695,新規,0,2022-08-08,2022-08-08,株式会社ＯＰＲＥＬ,,株式会社,神奈川県,三浦郡葉山町,堀内１００５番地の３８,,14,301,2400112,,,,,,,2022-08-08,1,,,,,オプレル,0
111,1030001149568,新規,0,2022-08-08,2022-08-08,株式会社タグボート,,株式会社,埼玉県,富士見市,鶴瀬東２丁目１６番１８－３０２号,,11,235,3540024,,,,,,,2022-08-08,1,,,,,タグボート,0
112,1030001149584,新規,0,2022-08-08,2022-08-08,株式会社片岡鋼業,,株式会社,埼玉県,草加市,花栗１丁目６番５－９１７号,,11,221,3400044,,,,,,,2022-08-08,1,,,,,カタオカコウギョウ,0
114,1030003019934,新規,0,2022-08-08,2022-08-08,合同会社飛貴,,合同会社,埼玉県,川口市,大字安行領根岸２２１９番地,,11,203,3330834,,,,,,,2022-08-08,1,,,,,ヒタカ,0
115,1030003019950,新規,0,2022-08-08,2022-08-08,合同会社きたじ経営診断所,,合同会社,埼玉県,さいたま市大宮区,桜木町１丁目３７８番,,11,103,3300854,,,,,,,2022-08-08,1,,,,,キタジケイエイシンダンジョ,0
122,1040001124520,新規,0,2022-08-08,2022-08-08,株式会社トピア,,株式会社,千葉県,印西市,岩戸１５３４番地,,12,231,2701616,,,,,,,2022-08-08,1,,,,,トピア,0
127,1060001035146,新規,0,2022-08-08,2022-08-08,株式会社一縁,,株式会社,栃木県,那須塩原市,三本木３８１番地１３,,09,213,3293143,,,,,,,2022-08-08,1,,,,,イチエン,0
134,1080001025120,新規,0,2022-08-08,2022-08-08,株式会社エム・コネクト,,株式会社,静岡県,静岡市清水区,千歳町４番４９－３号エストレーモ銀河ＩＩＡ,00127451,22,103,4240828,,,,,,,2022-08-08,1,,,,,エムコネクト,0
144,1100001035595,新規,0,2022-08-08,2022-08-08,株式会社エムアイエフ,,株式会社,長野県,北安曇郡池田町,大字池田２７１３番地１１,,20,481,3998601,,,,,,,2022-08-08,1,,,,,エムアイエフ,0
160,1120001248030,新規,0,2022-08-08,2022-08-08,株式会社カワカミペイント,,株式会社,大阪府,大阪市此花区,四貫島２丁目３番５－３０２号,,27,104,5540014,,,,,,,2022-08-08,1,,,,,カワカミペイント,0
162,1120003022185,新規,0,2022-08-08,2022-08-08,合同会社プロデュース,,合同会社,大阪府,大阪市中央区,東心斎橋１丁目１７番１９号ｓｏｉｅ心斎橋３Ｆ,,27,128,5420083,,,,,,,2022-08-08,1,,,,,プロデュース,0
163,1120003022227,新規,0,2022-08-08,2022-08-08,合同会社ハーマー,,合同会社,大阪府,大阪市中央区,上本町西５丁目１番３５号タワーザ上町台１６０１号,,27,128,5420062,,,,,,,2022-08-08,1,,,,,ハーマー,0
171,1122001036134,新規,0,2022-08-08,2022-08-08,株式会社ナッティーアンドカンパニー,,株式会社,大阪府,東大阪市,西堤本通東１丁目１番１号,,27,227,5770045,,,,,,,2022-08-08,1,,,,,ナッティーアンドカンパニー,0
172,1122003002398,新規,0,2022-08-08,2022-08-08,合同会社オオサカエイギョウショ,,合同会社,大阪府,大東市,三箇６丁目１０－１２Ｓｔｅｐ．Ｙ３０２,,27,218,5740077,,,,,,,2022-08-08,1,,,,,オオサカエイギョウショ,0
175,1130001072355,新規,0,2022-08-08,2022-08-08,株式会社由里,,株式会社,京都府,舞鶴市,字浜２７４番地の２クレインズタワー５０２,,26,202,6250036,,,,,,,2022-08-08,1,,,,,ユリ,0
176,1130001072371,新規,0,2022-08-08,2022-08-08,株式会社幸機,,株式会社,京都府,京都市伏見区,下鳥羽南円面田町１２４番地・４０７号,,26,109,6128499,,,,,,,2022-08-08,1,,,,,コウキ,0
178,1130003008118,新規,0,2022-08-08,2022-08-08,Ｍｉｓｏｋａ　Ｃａｐｉｔａｌ合同会社,,合同会社,京都府,京都市東山区,新橋通東大路東入林下町４０３番地,,26,105,6050062,,,,,,,2022-08-08,1,,,,,ミソカキャピタル,0
184,1140001126944,新規,0,2022-08-08,2022-08-08,株式会社一心,,株式会社,兵庫県,姫路市,北新在家２丁目１９番１４－２号,,28,201,6700091,,,,,,,2022-08-08,1,,,,,イッシン,0
185,1140001127001,新規,0,2022-08-08,2022-08-08,株式会社ペイシェンス,,株式会社,兵庫県,宝塚市,千種２丁目３番１０号,,28,214,6650072,,,,,,,2022-08-08,1,,,,,ペイシェンス,0
187,1150001025749,新規,0,2022-08-08,2022-08-08,株式会社リビック,,株式会社,奈良県,桜井市,大字川合２７２番地の４,,29,206,6330063,,,,,,,2022-08-08,1,,,,,リビック,0
188,1150003002746,新規,0,2022-08-08,2022-08-08,ＣＡ　ｗｅｉｄ合同会社,,合同会社,奈良県,奈良市,松陽台２丁目１２番８号,,29,201,6310007,,,,,,,2022-08-08,1,,,,,シーエーウェイド,0
193,1180001152441,新規,0,2022-08-08,2022-08-08,株式会社ＨＩＧＨ‐ＦＩＥＬＤ,,株式会社,愛知県,名古屋市名東区,富が丘１２１番地１,,23,115,4650031,,,,,,,2022-08-08,1,,,,,ハイフィールド,0
194,1180001152499,新規,0,2022-08-08,2022-08-08,株式会社Ｈａｓｈ９,,株式会社,愛知県,弥富市,東末広１丁目９番地１,,23,235,4980063,,,,,,,2022-08-08,1,,,,,ハッシュナイン,0
195,1180001152524,新規,0,2022-08-08,2022-08-08,株式会社Ｌｉ‐Ｇ,,株式会社,愛知県,一宮市,下沼町３丁目２８番地,,23,203,4910032,,,,,,,2022-08-08,1,,,,,リィーグ,0
196,1180001152540,新規,0,2022-08-08,2022-08-08,Ｊ．Ｉ．Ｂ　ＶＥＮＴＵＲＥ株式会社,,株式会社,愛知県,名古屋市中区,東桜２丁目２２番地の２５,,23,106,4600005,,,,,,,2022-08-08,1,,,,,ジェイアイビーベンチャー,0
198,1180003024127,新規,0,2022-08-08,2022-08-08,合同会社黍農園,,合同会社,愛知県,名古屋市熱田区,新尾頭１丁目６番１３号第１９金山フクマルビル９階,,23,109,4560018,,,,,,,2022-08-08,1,,,,,キビノウエン,0
201,1190003004053,新規,0,2022-08-08,2022-08-08,合同会社オフィスりふれくしょん,,合同会社,三重県,伊勢市,上野町３３９５,,24,203,5161104,,,,,,,2022-08-08,1,,,,,オフィスリフレクション,0
203,1210001019034,新規,0,2022-08-08,2022-08-08,株式会社Ｄｉｍ,,株式会社,福井県,越前市,家久町第３０号４番地の７,,18,209,9150801,,,,,,,2022-08-08,1,,,,,ディム,0
216,1260001037122,新規,0,2022-08-08,2022-08-08,株式会社永井,,株式会社,岡山県,瀬戸内市,邑久町山田庄２６８番地７,,33,212,7014246,,,,,,,2022-08-08,1,,,,,ナガイ,0
217,1260001037130,新規,0,2022-08-08,2022-08-08,株式会社ＳＡＴＯ,,株式会社,岡山県,岡山市北区,今４丁目２番１３号,,33,101,7000975,,,,,,,2022-08-08,1,,,,,サトウ,0
218,1260003004005,新規,0,2022-08-08,2022-08-08,ＡＬＰＨＡ合同会社,,合同会社,岡山県,岡山市南区,箕島２７６番地１フローラ箕島１０９号室,,33,104,7010206,,,,,,,2022-08-08,1,,,,,アルファ,0
231,1290003012806,新規,0,2022-08-08,2022-08-08,Ｔａｎｏｓｈｉｎｄａ合同会社,,合同会社,福岡県,福岡市城南区,友丘６丁目２番８－２０５号,,40,136,8140112,,,,,,,2022-08-08,1,,,,,タノシンダ,0
232,1290801028796,新規,0,2022-08-08,2022-08-08,株式会社フロンティア,,株式会社,福岡県,北九州市小倉南区,大字曽根北区二丁目２２番,,40,107,8000212,,,,,,,2022-08-08,1,,,,,フロンティア,0
234,1300001013028,新規,0,2022-08-08,2022-08-08,株式会社フィールドソリューションズ,,株式会社,佐賀県,三養基郡基山町,大字長野１０６０番地,,41,341,8410202,,,,,,,2022-08-08,1,,,,,フィールドソリューションズ,0
248,1360001030777,新規,0,2022-08-08,2022-08-08,株式会社Ｇｌａｎ’ｚ,,株式会社,沖縄県,那覇市,前島２丁目５番１６号シャトレなが嶺３階,,47,201,9000016,,,,,,,2022-08-08,1,,,,,グランツ,0
258,1400001015971,新規,0,2022-08-08,2022-08-08,株式会社祭装,,株式会社,岩手県,紫波郡紫波町,桜町字下川原３５番地１,,03,321,0283307,,,,,,,2022-08-08,1,,,,,,0
264,1430003014168,新規,0,2022-08-08,2022-08-08,合同会社北海道おいしさ研究所,,合同会社,北海道,札幌市中央区,南五条西８丁目８番地２ヒロ５・８コート４０１号,,01,101,0640805,,,,,,,2022-08-08,1,,,,,ホッカイドウオイシサケンキュウジョ,0
265,1440001009128,新規,0,2022-08-08,2022-08-08,ＳＵＺＵＫＥＮ土木工業株式会社,,株式会社,北海道,函館市,瀬戸川町３８番地１９,,01,202,0420951,,,,,,,2022-08-08,1,,,,,スズケンドボクコウギョウ,0
271,1470001019207,新規,0,2022-08-08,2022-08-08,株式会社Ｓ‐ＯＮＥ貿易,,株式会社,香川県,高松市,亀田南町４２９番地３ピアパークＩ１０１,00127460,37,201,7610432,,,,,,,2022-08-08,1,,,,,エスワンボウエキ,0
278,2010001228645,新規,0,2022-08-08,2022-08-08,株式会社ＣｘＷ,,株式会社,東京都,中央区,銀座１丁目２２番１１号銀座大竹ビジデンス２階,,13,102,1040061,,,,,,,2022-08-08,1,,,,,シークロスダブリュー,0
280,2010003038308,新規,0,2022-08-08,2022-08-08,Ｏｎｅ　Ａｃｒｅ　Ｏｇａｓａｗａｒａ合同会社,,合同会社,東京都,小笠原村,父島字西町アマリリス２０２,,13,421,1002101,,,,,,,2022-08-08,1,,,,,ワンエーカーオガサワラ,0
294,2010603009674,新規,0,2022-08-08,2022-08-08,バンドル合同会社,,合同会社,東京都,墨田区,業平５丁目３番６号メインステージ押上４－６０４号,,13,107,1300002,,,,,,,2022-08-08,1,,,,,バンドル,0
297,2010901051221,新規,0,2022-08-08,2022-08-08,株式会社クラウドナイン,,株式会社,東京都,世田谷区,用賀１丁目１３－２３パークホームズ用賀一丁目２１２,,13,112,1580097,,,,,,,2022-08-08,1,,,,,クラウドナイン,0
303,2011001148940,新規,0,2022-08-08,2022-08-08,株式会社ロサアスール,,株式会社,東京都,目黒区,自由が丘２丁目８番２号ラ・ヴィータ自由が丘Ｆ棟,,13,110,1520035,,,,,,,2022-08-08,1,,,,,,0
304,2011001148957,新規,0,2022-08-08,2022-08-08,Ｃｏｍｅｉｎ株式会社,,株式会社,東京都,渋谷区,渋谷２丁目１９番１５号宮益坂ビルディング６０９,,13,113,1500002,,,,,,,2022-08-08,1,,,,,カムイン,0
310,2011101099786,新規,0,2022-08-08,2022-08-08,株式会社ＥＮＰＹ,,株式会社,東京都,新宿区,西新宿７丁目２２番４５号ＫＤＸ西新宿ビル１０２,,13,104,1600023,,,,,,,2022-08-08,1,,,,,エンピー,0
316,2011401024460,新規,0,2022-08-08,2022-08-08,株式会社ＮＫＪ,,株式会社,東京都,板橋区,東新町１丁目４１番１－４０１号,,13,119,1740074,,,,,,,2022-08-08,1,,,,,エヌケイジェイ,0
319,2011501028345,新規,0,2022-08-08,2022-08-08,株式会社Ａｔｈｅｎａ　ｓｏｌｕｔｉｏｎｓ,,株式会社,東京都,荒川区,西日暮里２丁目４７番１号ウェザーコック近野４０３,,13,118,1160013,,,,,,,2022-08-08,1,,,,,アテナソリューションズ,0
330,2012401039507,新規,0,2022-08-08,2022-08-08,ＫＯＡ３株式会社,,株式会社,東京都,三鷹市,上連雀３丁目１２番２号,,13,204,1810012,,,,,,,2022-08-08,1,,,,,コアスリー,0
331,2012403005531,新規,0,2022-08-08,2022-08-08,プッパイ合同会社,,合同会社,東京都,調布市,多摩川１丁目４４番１号ライオンズガーデン調布多摩川５０５,,13,208,1820025,,,,,,,2022-08-08,1,,,,,プッパイ,0
332,2012701017187,新規,0,2022-08-08,2022-08-08,地域産業コンサルタント株式会社,,株式会社,東京都,小平市,上水本町５丁目２３番１－５０８号,,13,211,1870022,,,,,,,2022-08-08,1,,,,,チイキサンギョウコンサルタント,0
337,2013303006256,新規,0,2022-08-08,2022-08-08,合同会社ＡＧＣ,,合同会社,東京都,豊島区,西池袋１丁目２９番１４号オリエント池袋１１０８号室,,13,116,1710021,,,,,,,2022-08-08,1,,,,,エージーシー,0
347,2020003022203,新規,0,2022-08-08,2022-08-08,２４９ｌａｂ合同会社,,合同会社,神奈川県,川崎市多摩区,生田６丁目３６－２９,,14,135,2140038,,,,,,,2022-08-08,1,,,,,ニシキラボ,0
355,2021001076678,新規,0,2022-08-08,2022-08-08,株式会社ベストビルダーズ,,株式会社,神奈川県,座間市,緑ケ丘２丁目１１番３号,,14,216,2520021,,,,,,,2022-08-08,1,,,,,,0
362,2030001149484,新規,0,2022-08-08,2022-08-08,株式会社ｈｉｓｕｉ,,株式会社,埼玉県,川口市,領家２丁目１７番２５号,,11,203,3320004,,,,,,,2022-08-08,1,,,,,ヒスイ,0
363,2030001149542,新規,0,2022-08-08,2022-08-08,株式会社ＭＭＣ,,株式会社,埼玉県,川越市,吉田新町２丁目１２番地２,,11,201,3500808,,,,,,,2022-08-08,1,,,,,エムエムシー,0
376,2040001124610,新規,0,2022-08-08,2022-08-08,株式会社侑和,,株式会社,千葉県,館山市,北条２５４２番地２２,,12,205,2940045,,,,,,,2022-08-08,1,,,,,ユウワ,0
384,2040003020543,新規,0,2022-08-08,2022-08-08,合同会社Ｒｅｄｉｇｉｆｏｒｍ,,合同会社,千葉県,千葉市稲毛区,萩台町６９６―５１,,12,103,2630012,,,,,,,2022-08-08,1,,,,,リジフォーム,0
385,2040003020592,新規,0,2022-08-08,2022-08-08,合同会社リーディング,,合同会社,千葉県,市川市,本行徳１３１８,,12,203,2720103,,,,,,,2022-08-08,1,,,,,リーディング,0
402,2080403004596,新規,0,2022-08-08,2022-08-08,合同会社アイデアル,,合同会社,静岡県,磐田市,上本郷１００２－１０８０７Ｊハイム豊田本郷８０７,,22,211,4380822,,,,,,,2022-08-08,1,,,,,アイデアル,0
418,2110003004836,新規,0,2022-08-08,2022-08-08,合同会社エムアンドエム,,合同会社,新潟県,上越市,北城町１丁目２番３０号,,15,222,9430824,,,,,,,2022-08-08,1,,,,,エムアンドエム,0
425,2120001247907,新規,0,2022-08-08,2022-08-08,株式会社ＩＲＯ,,株式会社,大阪府,大阪市西区,南堀江２丁目７番１７号フルーレ南堀江１０５,,27,106,5500015,,,,,,,2022-08-08,1,,,,,イロ,0
426,2120001247980,新規,0,2022-08-08,2022-08-08,株式会社ツールフォース,,株式会社,大阪府,大阪市港区,波除５丁目１１番１８号,,27,107,5520001,,,,,,,2022-08-08,1,,,,,ツールフォース,0
427,2120001248038,新規,0,2022-08-08,2022-08-08,株式会社Ｃｏｍｐｌｅｔｅ　ｐｕｒｃｈａｓｅ結,,株式会社,大阪府,大阪市中央区,東高麗橋４番３号,,27,128,5400039,,,,,,,2022-08-08,1,,,,,コンプリートパーチェスムスビ,0
428,2120001248054,新規,0,2022-08-08,2022-08-08,株式会社ヒトミファルマ,,株式会社,大阪府,大阪市西淀川区,柏里３丁目１番３８号,,27,113,5550022,,,,,,,2022-08-08,1,,,,,ヒトミファルマ,0
431,2120003022242,新規,0,2022-08-08,2022-08-08,Ｔ＆Ｔ合同会社,,合同会社,大阪府,大阪市西成区,天下茶屋２丁目６番３６－２０９号,,27,122,5570014,,,,,,,2022-08-08,1,,,,,ティーアンドティー,0
434,2122001036133,新規,0,2022-08-08,2022-08-08,株式会社ＫＡＷＡＭＵＲＡ　ＷＯＲＫＳ,,株式会社,大阪府,東大阪市,古箕輪１丁目４番２３号,,27,227,5780915,,,,,,,2022-08-08,1,,,,,カワムラワークス,0
435,2122003002397,新規,0,2022-08-08,2022-08-08,なわてオート合同会社,,合同会社,大阪府,四條畷市,大字上田原７７５－５,,27,229,5750014,,,,,,,2022-08-08,1,,,,,ナワテオート,0
440,2130001041103,新規,0,2022-08-08,2022-08-08,勝榮石材株式会社,,株式会社,京都府,福知山市,和久市町２４６番地の１,,26,201,6200062,,,,,,,2022-08-08,1,,,,,ショウエイセキザイ,0
442,2130001072370,新規,0,2022-08-08,2022-08-08,株式会社Ａｔｅｌｉｅｒ　Ｂｏｘ,,株式会社,京都府,京都市右京区,太秦多藪町１４番６２,,26,108,6168167,,,,,,,2022-08-08,1,,,,,アトリエボックス,0
443,2130001072379,新規,0,2022-08-08,2022-08-08,Ｉｍｐｅｒｉａｌ株式会社,,株式会社,京都府,京都市中京区,聚楽廻中町２７－２０－３２,,26,104,6048403,,,,,,,2022-08-08,1,,,,,アンペリアル,0
444,2130001072387,新規,0,2022-08-08,2022-08-08,株式会社プラスバリュー,,株式会社,京都府,京都市右京区,太秦森ケ東町３０番地２,,26,108,6168102,,,,,,,2022-08-08,1,,,,,プラスバリュー,0
447,2140001127000,新規,0,2022-08-08,2022-08-08,株式会社ＧＡＲＡＧＥ　Ｍｙ,,株式会社,兵庫県,たつの市,神岡町東觜崎５６１番地２４,,28,229,6794109,,,,,,,2022-08-08,1,,,,,ガレージマイ,0
448,2140001127009,新規,0,2022-08-08,2022-08-08,株式会社ＡＳＯＢＯ,,株式会社,兵庫県,伊丹市,西野７丁目８６番地１,,28,207,6640028,,,,,,,2022-08-08,1,,,,,アソボ,0
464,2180001152432,新規,0,2022-08-08,2022-08-08,株式会社ＤＲＲ,,株式会社,愛知県,名古屋市中区,栄３丁目２３番３８号１階,,23,106,4600008,,,,,,,2022-08-08,1,,,,,ディーアールアール,0
469,2180003024126,新規,0,2022-08-08,2022-08-08,Ｔｅｃｈｎｏ　Ｒｅｖｏｌｕｔｉｏｎｓ合同会社,,合同会社,愛知県,名古屋市緑区,鳴海町字有松裏４０番地の２３,,23,114,4580824,,,,,,,2022-08-08,1,,,,,テクノレボリューションズ,0
473,2180301036517,新規,0,2022-08-08,2022-08-08,彦坂設備株式会社,,株式会社,愛知県,豊橋市,大岩町字北山６番地６２２,,23,201,4413141,,,,,,,2022-08-08,1,,,,,ヒコサカセツビ,0
479,2200001040353,新規,0,2022-08-08,2022-08-08,株式会社ヴァルチャーサポート,,株式会社,岐阜県,多治見市,高田町５丁目１４番地の１,,21,204,5070018,,,,,,,2022-08-08,1,,,,,ヴァルチャーサポート,0
500,2250005008763,新規,0,2022-08-08,2022-08-08,やさい広場協同組合,,その他の設立登記法人,山口県,宇部市,大字西岐波上請川６１６９番地１,,35,202,7550151,,,,,,,2022-08-08,1,,,,,ヤサイヒロバ,0
511,2290001098490,新規,0,2022-08-08,2022-08-08,株式会社Ｆｓｕｌ,,株式会社,福岡県,福岡市早良区,次郎丸４丁目３番２６号,,40,137,8140165,,,,,,,2022-08-08,1,,,,,エフサル,0
512,2290001098508,新規,0,2022-08-08,2022-08-08,株式会社ＷＩＳＥ　ＭＩＳＳＩＯＮ,,株式会社,福岡県,福岡市中央区,今川１丁目２５番１８号イトーピア大濠マンション２０６号,,40,133,8100054,,,,,,,2022-08-08,1,,,,,ワイズミッション,0
514,2290003012821,新規,0,2022-08-08,2022-08-08,合同会社やもと,,合同会社,福岡県,福岡市中央区,西中洲１２番１２‐１００４号エンクレスト天神シティ,,40,133,8100002,,,,,,,2022-08-08,1,,,,,ヤモト,0
516,2290803004175,新規,0,2022-08-08,2022-08-08,合同会社ゴーゴーカンパニー,,合同会社,福岡県,北九州市八幡東区,大蔵２丁目４－５,,40,108,8050048,,,,,,,2022-08-08,1,,,,,ゴーゴーカンパニー,0
519,2320003003874,新規,0,2022-08-08,2022-08-08,合同会社晃輝,,合同会社,大分県,大分市,小中島２丁目３番８１号,,44,201,8700114,,,,,,,2022-08-08,1,,,,,コウキ,0
522,2330003009474,新規,0,2022-08-08,2022-08-08,ａｌｔａｉｒ合同会社,,合同会社,熊本県,菊池市,出田２８９１番地２,,43,210,8611313,,,,,,,2022-08-08,1,,,,,アルタイル,0
527,2360001030768,新規,0,2022-08-08,2022-08-08,ＲＡＩＣＨＩＫＵＭＡ株式会社,,株式会社,沖縄県,島尻郡南風原町,字与那覇４８番地３－３０２,,47,350,9011103,,,,,,,2022-08-08,1,,,,,ライチクマ,0
539,2400005008260,新規,0,2022-08-08,2022-08-08,医療法人社団真桜会,,その他の設立登記法人,岩手県,釜石市,鵜住居町１丁目７０３番地,,03,211,0260301,,,,,,,2022-08-08,1,,,,,シンオウカイ,0
540,2420001017965,新規,0,2022-08-08,2022-08-08,株式会社ラーク,,株式会社,青森県,青森市,合浦１丁目９番１８号,,02,201,0300902,,,,,,,2022-08-08,1,,,,,ラーク,0
546,2430001087272,新規,0,2022-08-08,2022-08-08,株式会社Ａｉエステート,,株式会社,北海道,札幌市厚別区,厚別中央四条２丁目３０番１１号,,01,108,0040054,,,,,,,2022-08-08,1,,,,,アイエステート,0
548,2430003014167,新規,0,2022-08-08,2022-08-08,合同会社ｏｌｅｎ,,合同会社,北海道,石狩市,花川南十条３丁目１４９番地９,,01,235,0613210,,,,,,,2022-08-08,1,,,,,オーレン,0
555,2490003001688,新規,0,2022-08-08,2022-08-08,合同会社ＡＵＴＯ　ＦＡＣＴＯＲＹ,,合同会社,高知県,香美市,土佐山田町旭町２丁目１番３号,,39,212,7820033,,,,,,,2022-08-08,1,,,,,オートファクトリー,0
567,3010001228594,新規,0,2022-08-08,2022-08-08,ｔｅａＲｅａｌ株式会社,,株式会社,東京都,千代田区,九段南１丁目５－６りそな九段ビル５Ｆ、ＫＳフロア,,13,101,1020074,,,,,,,2022-08-08,1,,,,,ティーリアル,0
582,3010401168894,新規,0,2022-08-08,2022-08-08,株式会社ケンカツ,,株式会社,東京都,港区,六本木４丁目９番２号俳優座ビル７１３号室,,13,103,1060032,,,,,,,2022-08-08,1,,,,,ケンカツ,0
590,3010601061643,新規,0,2022-08-08,2022-08-08,株式会社エッチアンドシーメディカル,,株式会社,東京都,江東区,有明１丁目４番２０号８１２号室,,13,108,1350063,,,,,,,2022-08-08,1,,,,,エッチアンドシーメディカル,0
597,3010801033186,新規,0,2022-08-08,2022-08-08,株式会社久泰コーポレーション,,株式会社,東京都,大田区,蒲田本町２丁目４番地２号,,13,111,1440053,,,,,,,2022-08-08,1,,,,,ヒサヤスコーポレーション,0
606,3010901051360,新規,0,2022-08-08,2022-08-08,株式会社エイワホールディングス,,株式会社,東京都,世田谷区,経堂１丁目５番４号,,13,112,1560052,,,,,,,2022-08-08,1,,,,,エイワホールディングス,0
607,3010901051377,新規,0,2022-08-08,2022-08-08,株式会社ヒューリンク,,株式会社,東京都,世田谷区,宮坂３丁目１０番７号,,13,112,1560051,,,,,,,2022-08-08,1,,,,,ヒューリンク,0
610,3011001148956,新規,0,2022-08-08,2022-08-08,株式会社１５Ｐｈｏｎｅ,,株式会社,東京都,渋谷区,神宮前２丁目２９番１号ジェントルエア神宮前,,13,113,1500001,,,,,,,2022-08-08,1,,,,,イチゴフォーン,0
611,3011001148980,新規,0,2022-08-08,2022-08-08,株式会社マグネット,,株式会社,東京都,渋谷区,渋谷２丁目７番１３号,,13,113,1500002,,,,,,,2022-08-08,1,,,,,マグネット,0
612,3011001149087,新規,0,2022-08-08,2022-08-08,株式会社ＶＡＣＡＮＣＥ,,株式会社,東京都,渋谷区,桜丘町２６番１号セルリアンタワー１５階,,13,113,1500031,,,,,,,2022-08-08,1,,,,,ヴァカンス,0
613,3011001149129,新規,0,2022-08-08,2022-08-08,株式会社たくちゃんめし,,株式会社,東京都,渋谷区,神宮前６丁目２３番４号桑野ビル２階,,13,113,1500001,,,,,,,2022-08-08,1,,,,,タクチャンメシ,0
614,3011003015122,新規,0,2022-08-08,2022-08-08,エムズ合同会社,,合同会社,東京都,目黒区,上目黒３丁目１－１０ヴェルデナポリ２０３,,13,110,1530051,,,,,,,2022-08-08,1,,,,,エムズ,0
617,3011301028008,新規,0,2022-08-08,2022-08-08,株式会社ギクト,,株式会社,東京都,杉並区,堀ノ内２丁目２５番５号,,13,115,1660013,,,,,,,2022-08-08,1,,,,,ギクト,0
619,3011603003674,新規,0,2022-08-08,2022-08-08,合同会社Ｙ,,合同会社,東京都,練馬区,高野台３丁目１７－１４－１０,,13,120,1770033,,,,,,,2022-08-08,1,,,,,ワイ,0
625,3012401039506,新規,0,2022-08-08,2022-08-08,株式会社最好,,株式会社,東京都,三鷹市,牟礼１丁目５番２７号,,13,204,1810002,,,,,,,2022-08-08,1,,,,,ズイハオ,0
645,3020003022202,新規,0,2022-08-08,2022-08-08,合同会社ＯＭＵＳＵＢＩ,,合同会社,神奈川県,川崎市中原区,小杉御殿町２丁目１７２番地,,14,133,2110068,,,,,,,2022-08-08,1,,,,,オムスビ,0
649,3021001076719,新規,0,2022-08-08,2022-08-08,株式会社エンクリアル,,株式会社,神奈川県,藤沢市,本町３丁目１３番７号,,14,205,2510053,,,,,,,2022-08-08,1,,,,,エンクリアル,0
654,3030001149491,新規,0,2022-08-08,2022-08-08,株式会社ワンズライン,,株式会社,埼玉県,三郷市,高州１丁目４９番地９,,11,237,3410037,,,,,,,2022-08-08,1,,,,,ワンズライン,0
655,3030001149533,新規,0,2022-08-08,2022-08-08,株式会社Ｕｍａ,,株式会社,埼玉県,さいたま市北区,日進町２丁目１５８４番地,,11,102,3310823,,,,,,,2022-08-08,1,,,,,ユーマ,0
660,3030003019924,新規,0,2022-08-08,2022-08-08,ＡＸＩＡ合同会社,,合同会社,埼玉県,越谷市,蒲生東町７番５２号,,11,222,3430841,,,,,,,2022-08-08,1,,,,,アクシア,0
661,3030005020946,新規,0,2022-08-08,2022-08-08,一般社団法人ＨＰＢＧプレート協会,,その他の設立登記法人,埼玉県,さいたま市大宮区,北袋町１丁目８２番地１,,11,103,3300835,,,,,,,2022-08-08,1,,,,,エイチピービージープレートキョウカイ,0
673,3050001051497,新規,0,2022-08-08,2022-08-08,株式会社外山ファーム,,株式会社,茨城県,下妻市,大木７０７番地１,,08,210,3040004,,,,,,,2022-08-08,1,,,,,トヤマファーム,0
687,3080101023468,新規,0,2022-08-08,2022-08-08,ＳＧＩメンテナンス株式会社,,株式会社,静岡県,富士市,津田２６０番地の１２,,22,210,4170034,,,,,,,2022-08-08,1,,,,,エスジーアイメンテナンス,0
705,3120001247947,新規,0,2022-08-08,2022-08-08,株式会社東方亮,,株式会社,大阪府,大阪市淀川区,田川北２丁目５－３４・Ｅ棟２０２号室,,27,123,5320021,,,,,,,2022-08-08,1,,,,,トウホウリョウ,0
706,3120001248004,新規,0,2022-08-08,2022-08-08,株式会社Ｐ＆Ｊ　ＬＩＦＥ,,株式会社,大阪府,大阪市城東区,今福西１丁目９番１２号アッシュコート城東４０２号室,,27,118,5360004,,,,,,,2022-08-08,1,,,,,ピーアンドジェイライフ,0
707,3120001248037,新規,0,2022-08-08,2022-08-08,株式会社パスレル,,株式会社,大阪府,大阪市東住吉区,公園南矢田３丁目１０－９コトブキエステート１０５号室,,27,121,5460024,,,,,,,2022-08-08,1,,,,,パスレル,0
718,3120901046341,新規,0,2022-08-08,2022-08-08,タマキ建装株式会社,,株式会社,大阪府,豊中市,庄内栄町３丁目１２番３０号,,27,203,5610834,,,,,,,2022-08-08,1,,,,,タマキケンソウ,0
719,3120903004264,新規,0,2022-08-08,2022-08-08,合同会社ハイムル,,合同会社,大阪府,豊中市,上野西１丁目１－２５,,27,203,5600011,,,,,,,2022-08-08,1,,,,,ハイムル,0
720,3122001036140,新規,0,2022-08-08,2022-08-08,新日研株式会社,,株式会社,大阪府,東大阪市,荒本北１丁目２番３６－１１０９号,,27,227,5770011,,,,,,,2022-08-08,1,,,,,シンニッケン,0
721,3122001036149,新規,0,2022-08-08,2022-08-08,株式会社暁秀商事,,株式会社,大阪府,東大阪市,水走１丁目３番３４号,,27,227,5780921,,,,,,,2022-08-08,1,,,,,アキヒデショウジ,0
726,3130001072329,新規,0,2022-08-08,2022-08-08,株式会社モジュール,,株式会社,京都府,亀岡市,千代川町小川２丁目２０番１号,,26,206,6210041,,,,,,,2022-08-08,1,,,,,モジュール,0
728,3130005016546,新規,0,2022-08-08,2022-08-08,医療法人だいち会,,その他の設立登記法人,京都府,京都市山科区,上野御所ノ内町４番地２大栄ビル４階,,26,110,6078441,,,,,,,2022-08-08,1,,,,,ダイチカイ,0
734,3150001025747,新規,0,2022-08-08,2022-08-08,株式会社ワイズ,,株式会社,奈良県,香芝市,真美ヶ丘１丁目１２番１１号,,29,210,6390223,,,,,,,2022-08-08,1,,,,,ワイズ,0
741,3180001152472,新規,0,2022-08-08,2022-08-08,株式会社ａｆｔｅｒＧ,,株式会社,愛知県,名古屋市中村区,沖田町１０８番地の１,,23,105,4530825,,,,,,,2022-08-08,1,,,,,アフタージー,0
745,3180003024125,新規,0,2022-08-08,2022-08-08,ｂｏｂｏｌｉｎｋ合同会社,,合同会社,愛知県,名古屋市守山区,大字中志段味字古山田２５９９番地の３８,,23,113,4630002,,,,,,,2022-08-08,1,,,,,ボボリンク,0
752,3180301036516,新規,0,2022-08-08,2022-08-08,株式会社Ｐｌａｓｔｅｒｉｏｒ,,株式会社,愛知県,知立市,山屋敷町富士塚１２番地２１,,23,225,4720022,,,,,,,2022-08-08,1,,,,,プラステリア,0
753,3180303005403,新規,0,2022-08-08,2022-08-08,Ｓ．Ｂｉｒｄ合同会社,,合同会社,愛知県,豊田市,浄水町原山３２０番地２－１２０３,,23,211,4700343,,,,,,,2022-08-08,1,,,,,エスバード,0
755,3190001029678,新規,0,2022-08-08,2022-08-08,株式会社ＩＢＡ,,株式会社,三重県,伊勢市,御薗町長屋２２２９番地３,,24,203,5160804,,,,,,,2022-08-08,1,,,,,アイビーエー,0
772,3240003005738,新規,0,2022-08-08,2022-08-08,つなぐをつくる合同会社,,合同会社,広島県,福山市,北吉津町５丁目３番１７号,,34,207,7200073,,,,,,,2022-08-08,1,,,,,ツナグヲツクル,0
776,3260001037137,新規,0,2022-08-08,2022-08-08,株式会社扇コーポレーション,,株式会社,岡山県,岡山市東区,竹原１１２５番地３８,,33,103,7090614,,,,,,,2022-08-08,1,,,,,オウギコーポレーション,0
778,3290001098465,新規,0,2022-08-08,2022-08-08,株式会社Ｄ＆Ｓ,,株式会社,福岡県,福岡市中央区,天神１丁目７番１５号,,40,133,8100001,,,,,,,2022-08-08,1,,,,,ドリームアンドサクシード,0
779,3290001098498,新規,0,2022-08-08,2022-08-08,ウエルネス・ファミリー株式会社,,株式会社,福岡県,福岡市中央区,大濠公園２番１７－４０１号,,40,133,8100051,,,,,,,2022-08-08,1,,,,,ウエルネスファミリー,0
780,3290001098523,新規,0,2022-08-08,2022-08-08,株式会社ＵＩＫＡ,,株式会社,福岡県,福岡市南区,塩原３丁目７番１７号サンシャイン大橋６階Ｂ－２,,40,134,8150032,,,,,,,2022-08-08,1,,,,,ウイカ,0
797,3340001024944,新規,0,2022-08-08,2022-08-08,株式会社一徳ＣＯＣＯ,,株式会社,鹿児島県,大島郡瀬戸内町,大字諸鈍１９４番地,,46,525,8942141,,,,,,,2022-08-08,1,,,,,イットクココ,0
799,3350001017897,新規,0,2022-08-08,2022-08-08,株式会社新民通商,,株式会社,宮崎県,小林市,堤２００４番地３,,45,205,8860003,,,,,,,2022-08-08,1,,,,,シンミンツウショウ,0
800,3360001030783,新規,0,2022-08-08,2022-08-08,ＪＯＴＯ株式会社,,株式会社,沖縄県,宜野湾市,真志喜１丁目５番５号１Ｆ,,47,205,9012224,,,,,,,2022-08-08,1,,,,,ジョートー,0
803,3380001033041,新規,0,2022-08-08,2022-08-08,株式会社ＲｅＬＩＶＥ,,株式会社,福島県,二本松市,油井字大窪１０３番地６,,07,210,9691404,,,,,,,2022-08-08,1,,,,,リライブ,0
812,3430003014166,新規,0,2022-08-08,2022-08-08,合同会社エージェントサービス,,合同会社,北海道,札幌市中央区,北六条西１９丁目２３番１５号Ａｍｂｉｅｎｔｅ６１９　７０１号室,,01,101,0600006,,,,,,,2022-08-08,1,,,,,エージェントサービス,0
813,3430003014182,新規,0,2022-08-08,2022-08-08,Ｍｉｋｏ合同会社,,合同会社,北海道,札幌市手稲区,富丘三条５丁目１番３３－８０７号,,01,109,0060013,,,,,,,2022-08-08,1,,,,,ミコ,0
820,3500001024382,新規,0,2022-08-08,2022-08-08,株式会社ほのか,,株式会社,愛媛県,東温市,南方１４１番地１,,38,215,7910301,,,,,,,2022-08-08,1,,,,,ホノカ,0
822,3500003002873,新規,0,2022-08-08,2022-08-08,Ｒｅｉ合同会社,,合同会社,愛媛県,大洲市,徳森５１１番地６,,38,207,7950061,,,,,,,2022-08-08,1,,,,,レイ,0
832,4010001228577,新規,0,2022-08-08,2022-08-08,双羽先端半導体株式会社,,株式会社,東京都,千代田区,麹町６丁目２番地６,,13,101,1020083,,,,,,,2022-08-08,1,,,,,フタバセンタンハンドウタイ,0
833,4010001228585,新規,0,2022-08-08,2022-08-08,株式会社イワタ,,株式会社,東京都,千代田区,丸の内２丁目３番２号郵船ビルディング,,13,101,1000005,,,,,,,2022-08-08,1,,,,,イワタ,0
840,4010401168753,新規,0,2022-08-08,2022-08-08,清掃業助成診断株式会社,,株式会社,東京都,港区,南青山２丁目２番１５号ウィン青山１２１４号,,13,103,1070062,,,,,,,2022-08-08,1,,,,,セイソウギョウジョセイシンダン,0
841,4010401168877,新規,0,2022-08-08,2022-08-08,サーカステクノロジーズ株式会社,,株式会社,東京都,港区,新橋２丁目２０番１５号新橋駅前ビル１号館６階ＢＩＳＴＡＴＩＯＮ,,13,103,1050004,,,,,,,2022-08-08,1,,,,,サーカステクノロジーズ,0
842,4010401168951,新規,0,2022-08-08,2022-08-08,株式会社ｔｏ‐ｂｒｉｇｈｔ,,株式会社,東京都,港区,赤坂９丁目２番１３ＴｏｋｙｏＣｈａｐｔｅｒｎｉｎｅｔｙｔｗｏ１３・４０７号,,13,103,1070052,,,,,,,2022-08-08,1,,,,,トゥブライト,0
843,4010401168968,新規,0,2022-08-08,2022-08-08,ＳＥＥＤ株式会社,,株式会社,東京都,港区,六本木４丁目８番１－１００２号,,13,103,1060032,,,,,,,2022-08-08,1,,,,,シード,0
846,4010603009672,新規,0,2022-08-08,2022-08-08,合同会社ｔｓｕｋｉａ　ｌｌｃ,,合同会社,東京都,墨田区,東駒形３丁目１２番９号,,13,107,1300005,,,,,,,2022-08-08,1,,,,,ツキアエルエルシー,0
847,4010603009680,新規,0,2022-08-08,2022-08-08,合同会社Ｃｏｄｒｏｗ　Ｌｉｐｓ,,合同会社,東京都,墨田区,千歳３丁目１１番６号プレスタイル両国弐番館７０２,,13,107,1300025,,,,,,,2022-08-08,1,,,,,コッドロウリップス,0
851,4010801033185,新規,0,2022-08-08,2022-08-08,株式会社Ａｇｅｎｔ　Ｇｒｏｕｐ,,株式会社,東京都,大田区,山王２丁目５番６号ＳＡＮＮＯＢＲＩＤＧＥ,,13,111,1430023,,,,,,,2022-08-08,1,,,,,エージェントグループ,0
855,4010901051376,新規,0,2022-08-08,2022-08-08,株式会社アクロスデザインワークス,,株式会社,東京都,世田谷区,桜上水４丁目１７番４号,,13,112,1560045,,,,,,,2022-08-08,1,,,,,アクロスデザインワークス,0
860,4011001148922,新規,0,2022-08-08,2022-08-08,ＳＩＮＧＣＯＬＯＲ株式会社,,株式会社,東京都,渋谷区,円山町２８－１渋谷道玄坂スカイビル１１Ｆ,,13,113,1500044,,,,,,,2022-08-08,1,,,,,シングカラー,0
861,4011001149094,新規,0,2022-08-08,2022-08-08,Ａｓｔｌｅ株式会社,,株式会社,東京都,渋谷区,恵比寿西１丁目１８番４号ＡＨＭ’ＳＯＮＥ７Ｆ,,13,113,1500021,,,,,,,2022-08-08,1,,,,,アストル,0
867,4011301028007,新規,0,2022-08-08,2022-08-08,株式会社盛和,,株式会社,東京都,杉並区,下高井戸２丁目１０番３－Ｂ１,,13,115,1680073,,,,,,,2022-08-08,1,,,,,セイワ,0
870,4011401024459,新規,0,2022-08-08,2022-08-08,株式会社信和ベルテックス,,株式会社,東京都,板橋区,新河岸１丁目１９－２鎌友ビル,,13,119,1750081,,,,,,,2022-08-08,1,,,,,シンワベルテックス,0
883,4020001147594,新規,0,2022-08-08,2022-08-08,株式会社庭安,,株式会社,神奈川県,横浜市都筑区,南山田町４１７１番地ウイズ２Ａ－２０２,,14,118,2240026,,,,,,,2022-08-08,1,,,,,ニワヤス,0
884,4020001147611,新規,0,2022-08-08,2022-08-08,株式会社アサイン,,株式会社,神奈川県,横浜市緑区,台村町字住環下２９２番地１三経８ビル１Ｆ,,14,113,2260014,,,,,,,2022-08-08,1,,,,,アサイン,0
885,4020001147636,新規,0,2022-08-08,2022-08-08,株式会社コッカ,,株式会社,神奈川県,横浜市港南区,日野中央３丁目２５番２４号,,14,111,2340053,,,,,,,2022-08-08,1,,,,,コッカ,0
889,4020003022192,新規,0,2022-08-08,2022-08-08,ｂｅｌｌｔｒｅｅ合同会社,,合同会社,神奈川県,横浜市南区,永田山王台３９番２７号永田山王台コスモヒルズ９０８号室,,14,105,2320074,,,,,,,2022-08-08,1,,,,,,0
894,4021001076718,新規,0,2022-08-08,2022-08-08,株式会社ＪＹＧ,,株式会社,神奈川県,伊勢原市,岡崎４８００番地の１１,,14,214,2591135,,,,,,,2022-08-08,1,,,,,ジェイワイジー,0
903,4030001149508,新規,0,2022-08-08,2022-08-08,株式会社スタジオＫ,,株式会社,埼玉県,坂戸市,本町１３番１－２０３号レーベンハイム坂戸フューレ,,11,239,3500226,,,,,,,2022-08-08,1,,,,,スタジオケー,0
905,4030003019931,新規,0,2022-08-08,2022-08-08,Ｂｓｕｇａｒコンサルティング合同会社,,合同会社,埼玉県,志木市,幸町１丁目６番６７号,,11,228,3530005,,,,,,,2022-08-08,1,,,,,ビーシュガーコンサルティング,0
908,4040001124501,新規,0,2022-08-08,2022-08-08,株式会社東陽建設,,株式会社,千葉県,千葉市中央区,登戸１丁目１１番２０号,,12,101,2600032,,,,,,,2022-08-08,1,,,,,トウヨウケンセツ,0
940,4080401025989,新規,0,2022-08-08,2022-08-08,株式会社オール・アット・ワンス,,株式会社,静岡県,浜松市浜北区,新原５８１０番地,,22,136,4340003,,,,,,,2022-08-08,1,,,,,オールアットワンス,0
941,4090001017725,新規,0,2022-08-08,2022-08-08,株式会社Ｋｉｎｇ’ｓ,,株式会社,山梨県,富士吉田市,下吉田５丁目２１番１９号,,19,202,4030004,,,,,,,2022-08-08,1,,,,,キングス,0
944,4100001035568,新規,0,2022-08-08,2022-08-08,ＭＹＣＬ　Ｊａｐａｎ株式会社,,株式会社,長野県,小諸市,本町１丁目２番１３号,,20,208,3840026,,,,,,,2022-08-08,1,,,,,マイセルジャパン,0
963,4120001247946,新規,0,2022-08-08,2022-08-08,陸川国際貿易株式会社,,株式会社,大阪府,大阪市淀川区,田川北２丁目５－３４・Ｄ棟２０２号室,,27,123,5320021,,,,,,,2022-08-08,1,,,,,リクカワコクサイボウエキ,0
964,4120001247970,新規,0,2022-08-08,2022-08-08,Ｙｕｉ　Ｃｏｎｎｅｃｔｉｏｎ株式会社,,株式会社,大阪府,大阪市中央区,平野町３丁目１番６号ＢｉｚＭｉｉｘｙｏｄｏｙａｂａｓｈｉ８０２,,27,128,5410046,,,,,,,2022-08-08,1,,,,,,0
965,4120001247979,新規,0,2022-08-08,2022-08-08,ネクストウェーブ株式会社,,株式会社,大阪府,大阪市都島区,内代町１丁目１５－９,,27,102,5340013,,,,,,,2022-08-08,1,,,,,ネクストウェーブ,0
968,4120003022240,新規,0,2022-08-08,2022-08-08,合同会社ミラージュ,,合同会社,大阪府,大阪市中央区,日本橋１丁目８番４号,,27,128,5420073,,,,,,,2022-08-08,1,,,,,ミラージュ,0
974,4120903004263,新規,0,2022-08-08,2022-08-08,合同会社ユニバース,,合同会社,大阪府,箕面市,箕面３丁目８番５４号,,27,220,5620001,,,,,,,2022-08-08,1,,,,,ユニバース,0
978,4122003002395,新規,0,2022-08-08,2022-08-08,合同会社カフ,,合同会社,大阪府,東大阪市,横小路町３丁目１番４３号,,27,227,5798063,,,,,,,2022-08-08,1,,,,,カフ,0
980,4130001072360,新規,0,2022-08-08,2022-08-08,株式会社ＡＲＣ　Ｐｌａｎｎｉｎｇ,,株式会社,京都府,京都市右京区,太秦奥殿町３１番地１０,,26,108,6168127,,,,,,,2022-08-08,1,,,,,エーアールシープランニング,0
981,4130001072369,新規,0,2022-08-08,2022-08-08,ＳＡＢＡＢＡ株式会社,,株式会社,京都府,京都市西京区,御陵大原１－３６,,26,111,6158245,,,,,,,2022-08-08,1,,,,,サババ,0
982,4130003008115,新規,0,2022-08-08,2022-08-08,合同会社アイリンクサポート,,合同会社,京都府,長岡京市,開田１丁目２１番５号,,26,209,6170826,,,,,,,2022-08-08,1,,,,,アイリンクサポート,0
983,4130005016545,新規,0,2022-08-08,2022-08-08,一般社団法人ゆずタウン,,その他の設立登記法人,京都府,京都市南区,吉祥院中島町３０番地１３,,26,107,6018313,,,,,,,2022-08-08,1,,,,,ユズタウン,0
987,4140001127007,新規,0,2022-08-08,2022-08-08,株式会社ａｍａ．,,株式会社,兵庫県,姫路市,土山東の町１５番７号,,28,201,6700995,,,,,,,2022-08-08,1,,,,,エーエムエー,0
995,4150001025746,新規,0,2022-08-08,2022-08-08,株式会社ヘッド・クォーターズ,,株式会社,奈良県,吉野郡吉野町,大字上市２７７番地の１,,29,441,6393111,,,,,,,2022-08-08,1,,,,,ヘッドクォーターズ,0
1006,4180001152488,新規,0,2022-08-08,2022-08-08,株式会社ＢＲＩＣＫ,,株式会社,愛知県,半田市,花園町５丁目５番地の１ハートヒルズ花園３Ｄ号,,23,205,4750833,,,,,,,2022-08-08,1,,,,,ブリック,0
1007,4180001152538,新規,0,2022-08-08,2022-08-08,宮川システムアンドサービス株式会社,,株式会社,愛知県,北名古屋市,二子比良出８４番地２エスポワールツイン２０２,,23,234,4810013,,,,,,,2022-08-08,1,,,,,ミヤガワシステムアンドサービス,0
1010,4180003024116,新規,0,2022-08-08,2022-08-08,合同会社ウェルビーイングサポート,,合同会社,愛知県,一宮市,富士３丁目９番１８号,,23,203,4910024,,,,,,,2022-08-08,1,,,,,ウェルビーイングサポート,0
1011,4180003024124,新規,0,2022-08-08,2022-08-08,合同会社Ｍ‐ＴＥＣ,,合同会社,愛知県,名古屋市中区,錦２丁目１２番３２号,,23,106,4600003,,,,,,,2022-08-08,1,,,,,エムテック,0
1012,4180003024132,新規,0,2022-08-08,2022-08-08,合同会社グレイス,,合同会社,愛知県,名古屋市緑区,大高町字天神１２５番地,,23,114,4598001,,,,,,,2022-08-08,1,,,,,グレイス,0
1014,4180301036523,新規,0,2022-08-08,2022-08-08,株式会社好建,,株式会社,愛知県,豊田市,田中町２丁目５６番地６,,23,211,4710845,,,,,,,2022-08-08,1,,,,,コウケン,0
1016,4190001029677,新規,0,2022-08-08,2022-08-08,株式会社住人十彩,,株式会社,三重県,四日市市,日永西２丁目９番１２号,,24,202,5100891,,,,,,,2022-08-08,1,,,,,ジュウニントイロ,0
1033,4240003005745,新規,0,2022-08-08,2022-08-08,合同会社ジャスティス,,合同会社,広島県,広島市南区,稲荷町１－１１ザパークハウス広島駅前通り１８０２号,,34,103,7320827,,,,,,,2022-08-08,1,,,,,ジャスティス,0
1035,4250001019705,新規,0,2022-08-08,2022-08-08,株式会社ナンヨー,,株式会社,山口県,周南市,大字下上字土井１５００番地１５,,35,215,7460082,,,,,,,2022-08-08,1,,,,,ナンヨー,0
1036,4250003003129,新規,0,2022-08-08,2022-08-08,合同会社カーレスキュー山本,,合同会社,山口県,周南市,大字上村３３８番地の１,,35,215,7450853,,,,,,,2022-08-08,1,,,,,カーレスキュウヤマモト,0
1037,4260001037136,新規,0,2022-08-08,2022-08-08,株式会社ＨＭｓｕｎ,,株式会社,岡山県,岡山市北区,津島南２丁目５番２６号,,33,101,7000085,,,,,,,2022-08-08,1,,,,,エイチエムサン,0
1044,4290001098448,新規,0,2022-08-08,2022-08-08,Ｌｅａｓｈロジスティックス株式会社,,株式会社,福岡県,久留米市,三潴町玉満９２０－１,,40,203,8300112,,,,,,,2022-08-08,1,,,,,リーシュロジスティックス,0
1045,4290001098497,新規,0,2022-08-08,2022-08-08,ｓｔｅｒａ　ｓｔａｒ株式会社,,株式会社,福岡県,久留米市,長門石５丁目８番３２－１０３号,,40,203,8300027,,,,,,,2022-08-08,1,,,,,ステラスター,0
1046,4290001098506,新規,0,2022-08-08,2022-08-08,株式会社フリーランスサポート,,株式会社,福岡県,福岡市中央区,天神２丁目３番３６号,,40,133,8100001,,,,,,,2022-08-08,1,,,,,フリーランスサポート,0
1051,4290805009575,新規,0,2022-08-08,2022-08-08,一般社団法人彩,,その他の設立登記法人,福岡県,行橋市,東大橋３丁目１番１０号,,40,213,8240002,,,,,,,2022-08-08,1,,,,,イロドリ,0
1064,4360001030790,新規,0,2022-08-08,2022-08-08,株式会社Ｅ８ＰＡ,,株式会社,沖縄県,名護市,字瀬嵩４６３番地３,,47,209,9052266,,,,,,,2022-08-08,1,,,,,イーエイトピーエー,0
1065,4360001030799,新規,0,2022-08-08,2022-08-08,株式会社昌工業,,株式会社,沖縄県,うるま市,勝連南風原３１８８番地６,,47,213,9042311,,,,,,,2022-08-08,1,,,,,マサコウギョウ,0
1066,4370003005798,新規,0,2022-08-08,2022-08-08,創利合同会社,,合同会社,宮城県,宮城郡利府町,春日字二ツ石２番地,,04,406,9810102,,,,,,,2022-08-08,1,,,,,ソウリ,0
1070,4400005008259,新規,0,2022-08-08,2022-08-08,医療法人俊華会,,その他の設立登記法人,岩手県,一関市,台町１０番６号,,03,209,0210873,,,,,,,2022-08-08,1,,,,,シュンカカイ,0
1072,4430001087238,新規,0,2022-08-08,2022-08-08,株式会社ペグハック,,株式会社,北海道,札幌市白石区,本郷通３丁目南３－１４２０３,,01,104,0030024,,,,,,,2022-08-08,1,,,,,ペグハック,0
1094,5010001228510,新規,0,2022-08-08,2022-08-08,株式会社ＳＳＫ　Ｇｒｏｕｐ,,株式会社,東京都,中央区,日本橋箱崎町３２番９号猪子ビル３Ｆ,,13,102,1030015,,,,,,,2022-08-08,1,,,,,エスエスケイグループ,0
1095,5010001228667,新規,0,2022-08-08,2022-08-08,株式会社ＰＲＯＳＨＩＭＡ,,株式会社,東京都,中央区,築地３丁目７番１号ＴＳＵＫＩＪＩＧＲＡＮＤＥ５Ｆ,,13,102,1040045,,,,,,,2022-08-08,1,,,,,プロシマ,0
1097,5010003038321,新規,0,2022-08-08,2022-08-08,ＫＨＫ　Ｍｉｓｆｉｔｓ合同会社,,合同会社,東京都,千代田区,神田佐久間町２丁目１３番２７号,,13,101,1010025,,,,,,,2022-08-08,1,,,,,,0
1106,5010401168892,新規,0,2022-08-08,2022-08-08,株式会社神田商事,,株式会社,東京都,港区,南青山５丁目１２番４号泰平南青山ビル８階,,13,103,1070062,,,,,,,2022-08-08,1,,,,,カンダショウジ,0
1108,5010403028203,新規,0,2022-08-08,2022-08-08,合同会社Ｔｒｉｄｅｎｔ　Ｊａｐａｎ,,合同会社,東京都,港区,新橋５丁目１３番５号新橋ＭＣＶビル７階,,13,103,1050004,,,,,,,2022-08-08,1,,,,,,0
1109,5010403028228,新規,0,2022-08-08,2022-08-08,合同会社神谷町インベストメント２６号,,合同会社,東京都,港区,虎ノ門５丁目１番４号,,13,103,1050001,,,,,,,2022-08-08,1,,,,,カミヤチョウインベストメントニジュウロクゴウ,0
1110,5010601061633,新規,0,2022-08-08,2022-08-08,株式会社イエプラス不動産,,株式会社,東京都,墨田区,太平２丁目１３番９号,,13,107,1300012,,,,,,,2022-08-08,1,,,,,イエプラスフドウサン,0
1117,5011001148913,新規,0,2022-08-08,2022-08-08,株式会社ネクスト,,株式会社,東京都,渋谷区,渋谷１丁目１２番１２号,,13,113,1500002,,,,,,,2022-08-08,1,,,,,ネクスト,0
1118,5011001149028,新規,0,2022-08-08,2022-08-08,株式会社Ｃｌｅａｆ,,株式会社,東京都,渋谷区,道玄坂１丁目１０番８号渋谷道玄坂東急ビル２Ｆ－Ｃ,,13,113,1500043,,,,,,,2022-08-08,1,,,,,クリーフ,0
1119,5011001149077,新規,0,2022-08-08,2022-08-08,株式会社ウィズレイジ,,株式会社,東京都,渋谷区,恵比寿西２丁目８番１１号グランベル恵比寿ＩＶ６Ｆ,00127452,13,113,1500021,,,,,,,2022-08-08,1,,,,,ウィズレイジ,0
1121,5011003015120,新規,0,2022-08-08,2022-08-08,睡眠担当顧問合同会社,,合同会社,東京都,渋谷区,代々木５丁目５５－６コンフォール参宮橋２０７,,13,113,1510053,,,,,,,2022-08-08,1,,,,,スイミンタントウコモン,0
1123,5011005009665,新規,0,2022-08-08,2022-08-08,一般社団法人Ｍｅｄｆｅｓｓｉｏｎａｌ,,その他の設立登記法人,東京都,渋谷区,渋谷２丁目１９－１５宮益坂ビルディングザ・渋谷レジデンス１００１,,13,113,1500002,,,,,,,2022-08-08,1,,,,,メドフェッショナル,0
1130,5011301027998,新規,0,2022-08-08,2022-08-08,株式会社Ｔｅａｍ　Ｇｒｉｎ’ｎ　Ｔｏｋｙｏ,,株式会社,東京都,杉並区,成田東２丁目２８番６号,,13,115,1660015,,,,,,,2022-08-08,1,,,,,チームグリントウキョウ,0
1131,5011301028006,新規,0,2022-08-08,2022-08-08,株式会社フウカ,,株式会社,東京都,杉並区,久我山５丁目８－１３,,13,115,1680082,,,,,,,2022-08-08,1,,,,,フウカ,0
1140,5011701025511,新規,0,2022-08-08,2022-08-08,株式会社ＳＴオフィス,,株式会社,東京都,江戸川区,江戸川４丁目３番地１ダイアパレス一之江リバーウインズ３０１,,13,123,1340013,,,,,,,2022-08-08,1,,,,,エスティオフィス,0
1149,5013101008988,新規,0,2022-08-08,2022-08-08,株式会社Ｎｅｏ　Ｄｒｉｖｅ,,株式会社,東京都,あきる野市,雨間４０１番地３０,,13,228,1970825,,,,,,,2022-08-08,1,,,,,ネオドライブ,0
1160,5020001147610,新規,0,2022-08-08,2022-08-08,株式会社Ｌａｕｌｅａ,,株式会社,神奈川県,横浜市南区,永田東３丁目３番２３号,,14,105,2320072,,,,,,,2022-08-08,1,,,,,ラウレア,0
1161,5020001147692,新規,0,2022-08-08,2022-08-08,ラボラトリー・アーセルス株式会社,,株式会社,神奈川県,川崎市麻生区,五力田１丁目４番４号,,14,137,2150025,,,,,,,2022-08-08,1,,,,,ラボラトリーアーセルス,0
1163,5020003022191,新規,0,2022-08-08,2022-08-08,合同会社ワイズクリエイティブ,,合同会社,神奈川県,横浜市都筑区,平台２０番８号,,14,118,2240064,,,,,,,2022-08-08,1,,,,,ワイズクリエイティブ,0
1167,5021001076659,新規,0,2022-08-08,2022-08-08,株式会社ナルケン,,株式会社,神奈川県,愛甲郡愛川町,中津４０７１番地の３８,,14,401,2430303,,,,,,,2022-08-08,1,,,,,ナルケン,0
1168,5021001076675,新規,0,2022-08-08,2022-08-08,質守株式会社,,株式会社,神奈川県,大和市,中央７丁目８番１号コート・アビ大和１０３,,14,213,2420021,,,,,,,2022-08-08,1,,,,,チモリ,0
1169,5021001076717,新規,0,2022-08-08,2022-08-08,株式会社コンパス,,株式会社,神奈川県,相模原市緑区,橋本３丁目２７番６号Ｓ＆Ｙビル４階,,14,151,2520143,,,,,,,2022-08-08,1,,,,,コンパス,0
1175,5030001149580,新規,0,2022-08-08,2022-08-08,Ｋ＆Ｍ株式会社,,株式会社,埼玉県,さいたま市浦和区,仲町２丁目１４番６号ハウス第五仲町３０２号,,11,107,3300062,,,,,,,2022-08-08,1,,,,,ケーアンドエム,0
1181,5040001124616,新規,0,2022-08-08,2022-08-08,Ｓｈａｐｅ‐Ｕｐ　Ｐａｒｔｎｅｒ株式会社,,株式会社,千葉県,八千代市,八千代台北８丁目６番１２号,,12,221,2760031,,,,,,,2022-08-08,1,,,,,シェイプアップパートナー,0
1200,5090003002146,新規,0,2022-08-08,2022-08-08,合同会社ネクストドメイン,,合同会社,山梨県,甲斐市,中下条１０６８番地１１,,19,210,4000124,,,,,,,2022-08-08,1,,,,,ネクストドメイン,0
1201,5100003006649,新規,0,2022-08-08,2022-08-08,合同会社山岸電気,,合同会社,長野県,下水内郡栄村,大字北信６７番地３,,20,602,3892702,,,,,,,2022-08-08,1,,,,,ヤマギシデンキ,0
1211,5120001248043,新規,0,2022-08-08,2022-08-08,博洋産業株式会社,,株式会社,大阪府,大阪市都島区,大東町１丁目９番２７号,,27,102,5340002,,,,,,,2022-08-08,1,,,,,ハクヨウサンギョウ,0
1219,5120903004262,新規,0,2022-08-08,2022-08-08,合同会社ハチドリカンパニー,,合同会社,大阪府,池田市,住吉２丁目１１番４号,,27,204,5630033,,,,,,,2022-08-08,1,,,,,ハチドリカンパニー,0
1222,5130001072368,新規,0,2022-08-08,2022-08-08,株式会社ナカノ産業,,株式会社,京都府,京都市南区,東九条柳下町２１番地,,26,107,6018025,,,,,,,2022-08-08,1,,,,,ナカノサンギョウ,0
1223,5130001072376,新規,0,2022-08-08,2022-08-08,慶豊株式会社,,株式会社,京都府,京都市中京区,麩屋町通夷川上る笹屋町４９５ＹＯビルヂング２階,,26,104,6040983,,,,,,,2022-08-08,1,,,,,ケイホウ,0
1224,5130001072392,新規,0,2022-08-08,2022-08-08,株式会社ｕｎｉｔｅｍｉｎｄ,,株式会社,京都府,京都市伏見区,菱屋町６７１番地の３,,26,109,6128303,,,,,,,2022-08-08,1,,,,,ユナイトマインド,0
1229,5140001126932,新規,0,2022-08-08,2022-08-08,株式会社青楓館,,株式会社,兵庫県,神戸市北区,唐櫃台４丁目７番１５号,,28,109,6511332,,,,,,,2022-08-08,1,,,,,セイフウカン,0
1232,5140003017997,新規,0,2022-08-08,2022-08-08,合同会社西原,,合同会社,兵庫県,川西市,水明台１丁目１番地の９１,,28,217,6660116,,,,,,,2022-08-08,1,,,,,ニシハラ,0
1235,5150005009414,新規,0,2022-08-08,2022-08-08,一般社団法人奥大和の郷,,その他の設立登記法人,奈良県,吉野郡東吉野村,大字狭戸８０－１,,29,453,6332400,,,,,,,2022-08-08,1,,,,,オクヤマトノサト,0
1243,5180001152487,新規,0,2022-08-08,2022-08-08,株式会社Ｖａｍｏｓ,,株式会社,愛知県,名古屋市守山区,小幡５丁目１４番２２号メゾンニック２０３号室,,23,113,4630011,,,,,,,2022-08-08,1,,,,,バモス,0
1244,5180001152495,新規,0,2022-08-08,2022-08-08,株式会社Ｈａｎｚｏ　Ｇｒｏｕｐ,,株式会社,愛知県,愛知郡東郷町,春木台２丁目１１番地２１,,23,302,4700161,,,,,,,2022-08-08,1,,,,,ハンゾーグループ,0
1245,5180001152537,新規,0,2022-08-08,2022-08-08,株式会社中山経営企画,,株式会社,愛知県,名古屋市東区,筒井２丁目１番１９号－４,,23,102,4610003,,,,,,,2022-08-08,1,,,,,ナカヤマケイエイキカク,0
1246,5180001152545,新規,0,2022-08-08,2022-08-08,株式会社ＲＯＵＥＴ,,株式会社,愛知県,名古屋市瑞穂区,田辺通４丁目１５番地の１－４０９号,,23,108,4670027,,,,,,,2022-08-08,1,,,,,ルーエ,0
1247,5180003024107,新規,0,2022-08-08,2022-08-08,Ｂｈｉｍｅｓｈｗｏｒ合同会社,,合同会社,愛知県,江南市,大字今市場町高８３番地,,23,217,,,,,,,,2022-08-08,1,,,,,ビメショル,0
1248,5180003024131,新規,0,2022-08-08,2022-08-08,ホンダ美創合同会社,,合同会社,愛知県,常滑市,西之口７丁目６５番地の１２,,23,216,4790863,,,,,,,2022-08-08,1,,,,,ホンダビソウ,0
1252,5190001029668,新規,0,2022-08-08,2022-08-08,エスケイコーポレーション株式会社,,株式会社,三重県,津市,芸濃町北神山１４７０番地の３,,24,201,5142213,,,,,,,2022-08-08,1,,,,,エスケイコーポレーション,0
1253,5190001029676,新規,0,2022-08-08,2022-08-08,株式会社フリボー,,株式会社,三重県,四日市市,諏訪栄町４番１０号アピカビル３Ｆ,,24,202,5100086,,,,,,,2022-08-08,1,,,,,フリボー,0
1266,5240001060196,新規,0,2022-08-08,2022-08-08,ｅｌｉｘｅｒ　ｆｌｏｗｅｒｔｏｏｌｓ株式会社,,株式会社,広島県,福山市,神辺町川南５５２番地１,,34,207,7210000,,,,,,,2022-08-08,1,,,,,エリクサーフラワーツールズ,0
1268,5250001019704,新規,0,2022-08-08,2022-08-08,ＬＩＮＫ株式会社,,株式会社,山口県,岩国市,室の木町４丁目５番７－１６号,,35,208,7400021,,,,,,,2022-08-08,1,,,,,リンク,0
1269,5260001037135,新規,0,2022-08-08,2022-08-08,株式会社ジィーワン,,株式会社,岡山県,岡山市北区,西古松２丁目２４番２７号,,33,101,7000927,,,,,,,2022-08-08,1,,,,,ジィーワン,0
1278,5290001098430,新規,0,2022-08-08,2022-08-08,株式会社Ｓｔｒｉｎｇ,,株式会社,福岡県,福岡市中央区,舞鶴１丁目２番８号セントラルビル５階Ｃ室,,40,133,8100073,,,,,,,2022-08-08,1,,,,,ストリング,0
1279,5290001098513,新規,0,2022-08-08,2022-08-08,株式会社かもねぎ,,株式会社,福岡県,福岡市博多区,中呉服町５番２２－２０１号,,40,132,8120035,,,,,,,2022-08-08,1,,,,,カモネギ,0
1288,5310005001759,新規,0,2022-08-08,2022-08-08,日本天主公教長崎教区教師社団,,その他の設立登記法人,長崎県,長崎市,南山手町乙１番地,,42,201,8500931,,,,,,,2022-08-08,1,,,,,ニホンテンシュコウキョウナガサキキョウクキョウシシャダン,0
1290,5330001030009,新規,0,2022-08-08,2022-08-08,株式会社ｄｈｗｔｙ,,株式会社,熊本県,山鹿市,鹿央町千田６４５番地,,43,208,8610563,,,,,,,2022-08-08,1,,,,,ジェフティ,0
1294,5360001030773,新規,0,2022-08-08,2022-08-08,連進工業株式会社,,株式会社,沖縄県,糸満市,字糸満７３４番地の１,,47,210,9010361,,,,,,,2022-08-08,1,,,,,レンシンコウギョウ,0
1301,5420001017962,新規,0,2022-08-08,2022-08-08,株式会社アップル・Ｋ,,株式会社,青森県,北津軽郡板柳町,大字横沢字西里見１１７番地１９,,02,381,0383644,,,,,,,2022-08-08,1,,,,,アップルケー,0
1304,5430003014164,新規,0,2022-08-08,2022-08-08,合同会社ＭＭＹ,,合同会社,北海道,室蘭市,水元町６番１６号,,01,205,0500071,,,,,,,2022-08-08,1,,,,,エムエムワイ,0
1323,6010001228666,新規,0,2022-08-08,2022-08-08,株式会社Ｓｍａｒｔ　Ｌｅａｐ,,株式会社,東京都,中央区,銀座１丁目２２番１１号銀座大竹ビジデンス２階,,13,102,1040061,,,,,,,2022-08-08,1,,,,,スマートリープ,0
1327,6010003038337,新規,0,2022-08-08,2022-08-08,青楓合同会社,,合同会社,東京都,千代田区,富士見２丁目７番１－３１０５号,,13,101,1020071,,,,,,,2022-08-08,1,,,,,アオカエデ,0
1328,6010005035357,新規,0,2022-08-08,2022-08-08,一般社団法人大津町古城四番太陽光発電所,,その他の設立登記法人,東京都,千代田区,丸の内３丁目１番１号東京共同会計事務所内,,13,101,1000005,,,,,,,2022-08-08,1,,,,,オオヅマチフルジョウヨンバンタイヨウコウハツデンショ,0
1329,6010005035398,新規,0,2022-08-08,2022-08-08,一般社団法人ＡＹＲ３,,その他の設立登記法人,東京都,中央区,日本橋１丁目４番１号,,13,102,1030027,,,,,,,2022-08-08,1,,,,,エーワイアールスリー,0
1341,6010403028193,新規,0,2022-08-08,2022-08-08,Ａｌｄｅｂａｒａｎ合同会社,,合同会社,東京都,港区,虎ノ門４丁目１－１１,,13,103,1050001,,,,,,,2022-08-08,1,,,,,アルデバラン,0
1342,6010403028227,新規,0,2022-08-08,2022-08-08,合同会社神谷町インベストメント２５号,,合同会社,東京都,港区,虎ノ門５丁目１番４号,,13,103,1050001,,,,,,,2022-08-08,1,,,,,カミヤチョウインベストメントニジュウゴゴウ,0
1349,6010601061640,新規,0,2022-08-08,2022-08-08,株式会社Ｍｕｌｔｉｆｖｅｒｓｅ,,株式会社,東京都,江東区,豊洲５丁目６番２９－３２７号,,13,108,1350061,,,,,,,2022-08-08,1,,,,,マルチフバース,0
1353,6010701043027,新規,0,2022-08-08,2022-08-08,ハコベル株式会社,,株式会社,東京都,品川区,上大崎２丁目２４番９号,,13,109,1410021,,,,,,,2022-08-08,1,,,,,ハコベル,0
1363,6011001148862,新規,0,2022-08-08,2022-08-08,ＦＲＥＥＥＭＥＲ株式会社,,株式会社,東京都,渋谷区,渋谷２丁目１９－１５宮益坂ビルディング６０９,,13,113,1500002,,,,,,,2022-08-08,1,,,,,フリーマー,0
1364,6011001148904,新規,0,2022-08-08,2022-08-08,株式会社工房Ｘ,,株式会社,東京都,渋谷区,渋谷２丁目１９－１５宮益坂ビルディング６０９,,13,113,1500002,,,,,,,2022-08-08,1,,,,,コウボウエックス,0
1365,6011001148961,新規,0,2022-08-08,2022-08-08,株式会社ｔｏｔｔｙ　ｄｅｓｉｇｎ,,株式会社,東京都,渋谷区,神宮前６丁目２３－４桑野ビル２Ｆ,,13,113,1500001,,,,,,,2022-08-08,1,,,,,トッティーデザイン,0
1366,6011001149027,新規,0,2022-08-08,2022-08-08,株式会社ビズヒント,,株式会社,東京都,渋谷区,渋谷２丁目１５番１号,,13,113,1500002,,,,,,,2022-08-08,1,,,,,ビズヒント,0
1367,6011001149134,新規,0,2022-08-08,2022-08-08,株式会社ＹＮＹＫ,,株式会社,東京都,渋谷区,富ヶ谷１丁目１番１－２０１号,,13,113,1510063,,,,,,,2022-08-08,1,,,,,ワイエヌワイケー,0
1369,6011101099782,新規,0,2022-08-08,2022-08-08,一葉株式会社,,株式会社,東京都,新宿区,新宿７丁目３番５５号,,13,104,1600022,,,,,,,2022-08-08,1,,,,,カズハ,0
1370,6011101099808,新規,0,2022-08-08,2022-08-08,ハーバー株式会社,,株式会社,東京都,新宿区,西新宿３丁目３番１３号西新宿水間ビル６階,,13,104,1600023,,,,,,,2022-08-08,1,,,,,ハーバー,0
1376,6011603003671,新規,0,2022-08-08,2022-08-08,合同会社マツイオフィス,,合同会社,東京都,練馬区,豊玉上２丁目２３番７号,,13,120,1760011,,,,,,,2022-08-08,1,,,,,マツイオフィス,0
1379,6012401039494,新規,0,2022-08-08,2022-08-08,株式会社Ｂｏｏ,,株式会社,東京都,調布市,国領町４丁目１５番地３４,,13,208,1820022,,,,,,,2022-08-08,1,,,,,ブー,0
1381,6012403005536,新規,0,2022-08-08,2022-08-08,ＷＥＢコンサルティング合同会社,,合同会社,東京都,調布市,多摩川６丁目２６番地２ミラ・フローレス１０２,,13,208,1820025,,,,,,,2022-08-08,1,,,,,ウェブコンサルティング,0
1382,6012405004767,新規,0,2022-08-08,2022-08-08,一般社団法人啓瑞会,,その他の設立登記法人,東京都,武蔵野市,中町１丁目２４番１５号,,13,203,1800006,,,,,,,2022-08-08,1,,,,,ケイズイカイ,0
1418,6030001149547,新規,0,2022-08-08,2022-08-08,ＡＲＫＹ’Ｓ株式会社,,株式会社,埼玉県,草加市,青柳６丁目１２番９号,,11,221,3400002,,,,,,,2022-08-08,1,,,,,アークワイズ,0
1419,6030001149571,新規,0,2022-08-08,2022-08-08,株式会社ヴェリタス,,株式会社,埼玉県,上尾市,浅間台４丁目１２番１５号,,11,219,3620073,,,,,,,2022-08-08,1,,,,,ヴェリタス,0
1421,6030003019938,新規,0,2022-08-08,2022-08-08,合同会社エレン,,合同会社,埼玉県,朝霞市,泉水２丁目１２番４－５０５,,11,227,3510024,,,,,,,2022-08-08,1,,,,,エレン,0
1426,6040001124573,新規,0,2022-08-08,2022-08-08,株式会社ａｔ　ｆｕｎ,,株式会社,千葉県,大網白里市,季美の森南５丁目１７番地２１,,12,239,2993241,,,,,,,2022-08-08,1,,,,,アットファン,0
1429,6040005021692,新規,0,2022-08-08,2022-08-08,一般社団法人日本オンライン美文字協会,,その他の設立登記法人,千葉県,流山市,江戸川台東３丁目２６１番地の３,,12,220,2700111,,,,,,,2022-08-08,1,,,,,ニホンオンラインビモジキョウカイ,0
1449,6090001017723,新規,0,2022-08-08,2022-08-08,株式会社ＩＺＵＭＩ興業,,株式会社,山梨県,都留市,井倉３８７番地３,,19,204,4020011,,,,,,,2022-08-08,1,,,,,イズミコウギョウ,0
1454,6100001035599,新規,0,2022-08-08,2022-08-08,株式会社Ａ．Ｓ．Ｔ,,株式会社,長野県,塩尻市,大字広丘郷原１７６４番地２４２,,20,215,3990704,,,,,,,2022-08-08,1,,,,,エーエスティー,0
1465,6120001247977,新規,0,2022-08-08,2022-08-08,株式会社テイズセンス,,株式会社,大阪府,大阪市福島区,福島７丁目１７番９号大包ビル２Ｆ,,27,103,5530003,,,,,,,2022-08-08,1,,,,,テイズセンス,0
1466,6120003022239,新規,0,2022-08-08,2022-08-08,ＲＭＳ合同会社,,合同会社,大阪府,大阪市淀川区,西中島１丁目１３番１３号,,27,123,5320011,,,,,,,2022-08-08,1,,,,,アールエムエス,0
1468,6120005023128,新規,0,2022-08-08,2022-08-08,一般社団法人ＰｅｅｒＬｉｎｋ,,その他の設立登記法人,大阪府,大阪市都島区,都島中通２丁目１８番２４－３０４号,,27,102,5340022,,,,,,,2022-08-08,1,,,,,ピアリンク,0
1476,6120101066014,新規,0,2022-08-08,2022-08-08,株式会社ファイブ,,株式会社,大阪府,岸和田市,額原町１０９－５－２０１,,27,202,5960822,,,,,,,2022-08-08,1,,,,,ファイブ,0
1482,6130001072367,新規,0,2022-08-08,2022-08-08,株式会社イーテック,,株式会社,京都府,京都市左京区,岩倉花園町４４０番地の１,,26,103,6060024,,,,,,,2022-08-08,1,,,,,イーテック,0
1483,6130001072383,新規,0,2022-08-08,2022-08-08,株式会社ダブルサーカス,,株式会社,京都府,京都市上京区,上立売通堀川東入堀之上町１１番地ルーシア今出川油小路３０５号,,26,102,6020057,,,,,,,2022-08-08,1,,,,,ダブルサーカス,0
1485,6130003008113,新規,0,2022-08-08,2022-08-08,合同会社ｒｕｔａｓｔｏｎｅ,,合同会社,京都府,京都市伏見区,深草西伊達町８７－９２,,26,109,6120876,,,,,,,2022-08-08,1,,,,,ルタストーン,0
1491,6140001126997,新規,0,2022-08-08,2022-08-08,株式会社瀬戸内商事,,株式会社,兵庫県,姫路市,御立西２丁目６番２０号Ｆ御立ビル２０２号室,,28,201,6700074,,,,,,,2022-08-08,1,,,,,セトウチショウジ,0
1492,6140001127005,新規,0,2022-08-08,2022-08-08,株式会社ＫＯＢＥ　Ｇｉｎｎａｎ屋,,株式会社,兵庫県,神戸市須磨区,外浜町２丁目２番６号,,28,107,6540043,,,,,,,2022-08-08,1,,,,,コウベギンナンヤ,0
1496,6150001025744,新規,0,2022-08-08,2022-08-08,株式会社山田工芸,,株式会社,奈良県,五條市,二見４丁目７番４８号,,29,207,6370071,,,,,,,2022-08-08,1,,,,,ヤマダコウゲイ,0
1502,6180001152453,新規,0,2022-08-08,2022-08-08,株式会社ｐａｓｓｅｒｅｌｌｅ,,株式会社,愛知県,名古屋市西区,大野木２丁目９１番地の３,,23,104,4520803,,,,,,,2022-08-08,1,,,,,パスレル,0
1503,6180001152503,新規,0,2022-08-08,2022-08-08,ＢａｂａＣｏｎｄａ　Ｔｅｃｈ株式会社,,株式会社,愛知県,名古屋市中村区,平池町４丁目６０番１２号グローバルゲート１１Ｆ,,23,105,4530872,,,,,,,2022-08-08,1,,,,,ババコンダテクノロジー,0
1507,6180003024122,新規,0,2022-08-08,2022-08-08,ＫＡＲＴＡＬ工業合同会社,,合同会社,愛知県,津島市,莪原町字菱毛２７番地１,,23,208,4960011,,,,,,,2022-08-08,1,,,,,カルタルコウギョウ,0
1508,6180003024130,新規,0,2022-08-08,2022-08-08,合同会社むすび,,合同会社,愛知県,清須市,朝日天王１５番地２－３０２号,,23,233,4520932,,,,,,,2022-08-08,1,,,,,ムスビ,0
1518,6220001024978,新規,0,2022-08-08,2022-08-08,株式会社わくわく,,株式会社,石川県,金沢市,駅西本町１丁目８‐２２,,17,201,9200025,,,,,,,2022-08-08,1,,,,,ワクワク,0
1524,6240001060195,新規,0,2022-08-08,2022-08-08,株式会社周輪,,株式会社,広島県,広島市中区,光南２丁目７番４号,,34,101,7300825,,,,,,,2022-08-08,1,,,,,シュウワ,0
1528,6250001019703,新規,0,2022-08-08,2022-08-08,株式会社コペン建築設計事務所,,株式会社,山口県,宇部市,南小羽山町１丁目８番１３号,,35,202,7550083,,,,,,,2022-08-08,1,,,,,,0
1542,6290001098504,新規,0,2022-08-08,2022-08-08,株式会社リアルエステートマネジメント,,株式会社,福岡県,福岡市博多区,吉塚５丁目９番１７－２０４号,,40,132,8120041,,,,,,,2022-08-08,1,,,,,リアルエステートマネジメント,0
1544,6290003012801,新規,0,2022-08-08,2022-08-08,Ｈｕｎｔｅｒｓ　Ｐｒｏｄｕｃｔｉｏｎ合同会社,,合同会社,福岡県,福岡市中央区,大名２丁目６番１１号,,40,133,8100041,,,,,,,2022-08-08,1,,,,,ハンターズプロダクション,0
1545,6290003012818,新規,0,2022-08-08,2022-08-08,合同会社インベスト,,合同会社,福岡県,飯塚市,立岩１０４９番地１１,,40,205,8200003,,,,,,,2022-08-08,1,,,,,インベスト,0
1555,6370005010514,新規,0,2022-08-08,2022-08-08,一般社団法人ウイズユー,,その他の設立登記法人,宮城県,仙台市太白区,四郎丸字渡道３１番４号,,04,104,9811101,,,,,,,2022-08-08,1,,,,,ウイズユー,0
1559,6390003001983,新規,0,2022-08-08,2022-08-08,合同会社ＧｒｅｅｎＯａｋ,,合同会社,山形県,酒田市,錦町４丁目１番地の２コーワビル１階,,06,204,9980103,,,,,,,2022-08-08,1,,,,,グリーンオーク,0
1562,6430001087244,新規,0,2022-08-08,2022-08-08,株式会社ＫＫフローラ,,株式会社,北海道,札幌市白石区,東米里２０４７番６０,,01,104,0030876,,,,,,,2022-08-08,1,,,,,ケーケーフローラ,0
1563,6430005014525,新規,0,2022-08-08,2022-08-08,一般社団法人だるま十区,,その他の設立登記法人,北海道,札幌市西区,山の手一条１３丁目１番１１号,,01,107,0630001,,,,,,,2022-08-08,1,,,,,ダルマジュック,0
1588,7010001228525,新規,0,2022-08-08,2022-08-08,株式会社ＬＵＲＲＡ,,株式会社,東京都,中央区,銀座１丁目８番１４号,,13,102,1040061,,,,,,,2022-08-08,1,,,,,ルーラ,0
1589,7010001228624,新規,0,2022-08-08,2022-08-08,株式会社Ｑｕｅｓｔｉｏｎ,,株式会社,東京都,中央区,東日本橋３丁目３番１７号Ｒｅ－Ｋｎｏｗ東日本橋３Ｄ号室,,13,102,1030004,,,,,,,2022-08-08,1,,,,,クエスチョン,0
1590,7010001228632,新規,0,2022-08-08,2022-08-08,株式会社ＭＳＨアセット,,株式会社,東京都,千代田区,東神田２丁目９番８号,,13,101,1010031,,,,,,,2022-08-08,1,,,,,エムエスエイチアセット,0
1591,7010003038113,新規,0,2022-08-08,2022-08-08,合同会社ＤＡＶＩＮＣＩ,,合同会社,東京都,中央区,銀座１丁目２２番１１号銀座大竹ビジデンス２階,,13,102,1040061,,,,,,,2022-08-08,1,,,,,ダヴィンチ,0
1593,7010005035380,新規,0,2022-08-08,2022-08-08,一般社団法人国際先進医療機構,,その他の設立登記法人,東京都,文京区,小石川４丁目４－５,,13,105,1120002,,,,,,,2022-08-08,1,,,,,コクサイセンシンイリョウキコウ,0
1606,7010401168908,新規,0,2022-08-08,2022-08-08,株式会社東京グロース,,株式会社,東京都,港区,白金台５丁目１５番５号トゥワインデール２階,,13,103,1080071,,,,,,,2022-08-08,1,,,,,トウキョウグロース,0
1614,7010503006676,新規,0,2022-08-08,2022-08-08,合同会社援,,合同会社,東京都,台東区,浅草６丁目１３番地９－７０４号ルジェンテ浅草,,13,106,1110032,,,,,,,2022-08-08,1,,,,,エン,0
1616,7010701043050,新規,0,2022-08-08,2022-08-08,株式会社若林工務店,,株式会社,東京都,品川区,小山台１丁目２９番８号横山ビル１０１,,13,109,1420061,,,,,,,2022-08-08,1,,,,,ワカバヤシコウムテン,0
1628,7011001148928,新規,0,2022-08-08,2022-08-08,ゼロスリー株式会社,,株式会社,東京都,渋谷区,恵比寿１丁目４番１号恵比寿アーバンハウス３０１,,13,113,1500013,,,,,,,2022-08-08,1,,,,,ゼロスリー,0
1629,7011001149067,新規,0,2022-08-08,2022-08-08,Ｐｒｏｓｐａｃｅ株式会社,,株式会社,東京都,渋谷区,恵比寿４丁目２０番３号恵比寿ガーデンプレイスタワー１８Ｆ,,13,113,1500013,,,,,,,2022-08-08,1,,,,,プロスペース,0
1630,7011001149083,新規,0,2022-08-08,2022-08-08,株式会社第七機構,,株式会社,東京都,渋谷区,千駄ヶ谷５丁目３２番５－４０３号,,13,113,1510051,,,,,,,2022-08-08,1,,,,,ダイナナキコウ,0
1636,7011101099757,新規,0,2022-08-08,2022-08-08,株式会社ルモンズグループホールディングス,,株式会社,東京都,新宿区,愛住町２２番地,,13,104,1600005,,,,,,,2022-08-08,1,,,,,ルモンズグループホールディングス,0
1637,7011201024020,新規,0,2022-08-08,2022-08-08,株式会社ＣＬＯＶＥＲ,,株式会社,東京都,中野区,中野４丁目１番１号中野サンプラザ９階,,13,114,1640001,,,,,,,2022-08-08,1,,,,,クローバー,0
1646,7012403005527,新規,0,2022-08-08,2022-08-08,合同会社ＳＰＴ,,合同会社,東京都,府中市,是政１丁目２０番地の１０８,,13,206,1830014,,,,,,,2022-08-08,1,,,,,エスピーティー,0
1662,7020001147600,新規,0,2022-08-08,2022-08-08,トータルインテリアスズキ株式会社,,株式会社,神奈川県,横浜市戸塚区,柏尾町１３５２番地５６,,14,110,2440812,,,,,,,2022-08-08,1,,,,,トータルインテリアスズキ,0
1663,7020001147609,新規,0,2022-08-08,2022-08-08,株式会社ヤナシタ工務店,,株式会社,神奈川県,横浜市西区,高島２丁目１１番２号スカイメナー横浜５１９,,14,103,2200011,,,,,,,2022-08-08,1,,,,,ヤナシタコウムテン,0
1668,7020005015621,新規,0,2022-08-08,2022-08-08,特定非営利活動法人アニマルハートレスキュー,,その他の設立登記法人,神奈川県,横浜市都筑区,茅ケ崎中央２８番８号,,14,118,2240032,,,,,,,2022-08-08,1,,,,,アニマルハートレスキュー,0
1672,7021001076698,新規,0,2022-08-08,2022-08-08,株式会社ＯｓｈｙＬａｂｏ,,株式会社,神奈川県,大和市,渋谷２丁目５番地１５,,14,213,2420023,,,,,,,2022-08-08,1,,,,,オッシーラボ,0
1673,7021001076715,新規,0,2022-08-08,2022-08-08,株式会社Ａｌｌ　ｂｅｔ,,株式会社,神奈川県,大和市,つきみ野７丁目１２－２,,14,213,2420002,,,,,,,2022-08-08,1,,,,,オールベット,0
1682,7030001149554,新規,0,2022-08-08,2022-08-08,株式会社Ａ‐ｆｉｒｓｔ,,株式会社,埼玉県,三郷市,中央５丁目２４番地１７,,11,237,3410038,,,,,,,2022-08-08,1,,,,,エーファースト,0
1683,7030001149579,新規,0,2022-08-08,2022-08-08,レオハナ株式会社,,株式会社,埼玉県,所沢市,林２丁目１４０番地の４,,11,208,3591167,,,,,,,2022-08-08,1,,,,,レオハナ,0
1685,7030003019953,新規,0,2022-08-08,2022-08-08,合同会社ビッグ,,合同会社,埼玉県,川口市,大字安行吉蔵２３番地の２５,,11,203,3340053,,,,,,,2022-08-08,1,,,,,ビッグ,0
1686,7040001124614,新規,0,2022-08-08,2022-08-08,千川通商株式会社,,株式会社,千葉県,千葉市美浜区,磯辺１丁目１８番２号,,12,106,2610012,,,,,,,2022-08-08,1,,,,,センカワツウショウ,0
1709,7090001017722,新規,0,2022-08-08,2022-08-08,株式会社エイトヴィジョン,,株式会社,山梨県,甲府市,里吉１丁目１番４４号,,19,201,4000822,,,,,,,2022-08-08,1,,,,,,0
1710,7090003002144,新規,0,2022-08-08,2022-08-08,若荒井合同会社,,合同会社,山梨県,甲府市,中央１丁目１８－７,,19,201,4000032,,,,,,,2022-08-08,1,,,,,ワカアライ,0
1723,7120001247811,新規,0,2022-08-08,2022-08-08,二葉食糧株式会社,,株式会社,大阪府,交野市,倉治２丁目６７番５号,,27,230,5760051,,,,,,,2022-08-08,1,,,,,フタバショクリョウ,0
1724,7120001247910,新規,0,2022-08-08,2022-08-08,株式会社ＴＭＯＮＥ,,株式会社,大阪府,大阪市西区,北堀江１丁目１６番２３号,,27,106,5500014,,,,,,,2022-08-08,1,,,,,ティエムワン,0
1725,7120001247968,新規,0,2022-08-08,2022-08-08,ＦＡＳ株式会社,,株式会社,大阪府,大阪市中央区,東心斎橋１丁目４番１１号大和ビル８号館７０２－１号,,27,128,5420083,,,,,,,2022-08-08,1,,,,,エフエーエス,0
1726,7120001247976,新規,0,2022-08-08,2022-08-08,株式会社クリフプランニング,,株式会社,大阪府,大阪市平野区,長吉六反３丁目２１番１０号,,27,126,5470012,,,,,,,2022-08-08,1,,,,,クリフプランニング,0
1731,7120003022238,新規,0,2022-08-08,2022-08-08,フロムビー合同会社,,合同会社,大阪府,大阪市北区,豊崎３丁目１５－５,,27,127,5310072,,,,,,,2022-08-08,1,,,,,フロムビー,0
1735,7122001036137,新規,0,2022-08-08,2022-08-08,株式会社雅商店,,株式会社,大阪府,東大阪市,徳庵本町３番５号,,27,227,5770001,,,,,,,2022-08-08,1,,,,,ミヤビショウテン,0
1739,7130001072358,新規,0,2022-08-08,2022-08-08,株式会社ＲＡＦＴＥＬ,,株式会社,京都府,京都市下京区,河原町通四条下る順風町３１１番地エスリード四条河原町１４０２,,26,106,6008021,,,,,,,2022-08-08,1,,,,,ラフテル,0
1746,7140001126996,新規,0,2022-08-08,2022-08-08,株式会社リグ,,株式会社,兵庫県,宝塚市,旭町３丁目２０番１９号,,28,214,6650835,,,,,,,2022-08-08,1,,,,,リグ,0
1747,7140001127004,新規,0,2022-08-08,2022-08-08,株式会社ＭＧ設備,,株式会社,兵庫県,尼崎市,額田町１８番１－６１４号,,28,202,6610962,,,,,,,2022-08-08,1,,,,,エムジーセツビ,0
1748,7140001127020,新規,0,2022-08-08,2022-08-08,株式会社まさみ商事,,株式会社,兵庫県,姫路市,西延末２１９番地１,,28,201,6700971,,,,,,,2022-08-08,1,,,,,マサミショウジ,0
1755,7140003018011,新規,0,2022-08-08,2022-08-08,ラブペット合同会社,,合同会社,兵庫県,西宮市,青葉台２丁目１２番８号,,28,204,6691122,,,,,,,2022-08-08,1,,,,,ラブペット,0
1757,7140005026268,新規,0,2022-08-08,2022-08-08,ＮＰＯ法人ＡＳＫ,,その他の設立登記法人,兵庫県,尼崎市,田能４丁目４番７号,,28,202,6610951,,,,,,,2022-08-08,1,,,,,アスク,0
1760,7180001152493,新規,0,2022-08-08,2022-08-08,株式会社ＣＲＡＦＴ,,株式会社,愛知県,一宮市,下田２丁目４番２４－１号,,23,203,4910883,,,,,,,2022-08-08,1,,,,,クラフト,0
1761,7180001152527,新規,0,2022-08-08,2022-08-08,セイリュウＫＭ株式会社,,株式会社,愛知県,名古屋市北区,新堀町１９番地の１,,23,103,4620801,,,,,,,2022-08-08,1,,,,,セイリュウケイエム,0
1762,7180001152535,新規,0,2022-08-08,2022-08-08,株式会社木村工業,,株式会社,愛知県,一宮市,下川町五丁目２２番地１,,23,203,4910000,,,,,,,2022-08-08,1,,,,,キムラコウギョウ,0
1763,7180003024113,新規,0,2022-08-08,2022-08-08,合同会社ＬＣ　ｓｅｒｖｉｃｅ,,合同会社,愛知県,長久手市,蟹原２３０２番地,,23,238,4801142,,,,,,,2022-08-08,1,,,,,エルシーサービス,0
1764,7180003024121,新規,0,2022-08-08,2022-08-08,合同会社大和,,合同会社,愛知県,日進市,赤池町西組１４６番地,,23,230,4700126,,,,,,,2022-08-08,1,,,,,ダイワ,0
1781,7260001037125,新規,0,2022-08-08,2022-08-08,株式会社秀和工業,,株式会社,岡山県,岡山市北区,下石井１丁目１－１７アクロスキューブビル２階,,33,101,7000907,,,,,,,2022-08-08,1,,,,,シュウワコウギョウ,0
1791,7290001098461,新規,0,2022-08-08,2022-08-08,株式会社ＷＡＶＥ,,株式会社,福岡県,福岡市東区,松田３丁目１３番８－２０７号,,40,131,8120064,,,,,,,2022-08-08,1,,,,,ウェーブ,0
1794,7290003012800,新規,0,2022-08-08,2022-08-08,はなまる賃貸合同会社,,合同会社,福岡県,春日市,春日原北町３丁目１１番地の１,,40,218,8160802,,,,,,,2022-08-08,1,,,,,ハナマルチンタイ,0
1795,7290003012817,新規,0,2022-08-08,2022-08-08,合同会社ファミリーエデュケーション,,合同会社,福岡県,糟屋郡志免町,南里２丁目１番１８号,,40,343,8112207,,,,,,,2022-08-08,1,,,,,ファミリーエデュケーション,0
1813,7340001024949,新規,0,2022-08-08,2022-08-08,株式会社ＩＢＵＳＵＫＩ　ＢＯＬＴ　ＳＣＡＬＥ,,株式会社,鹿児島県,指宿市,山川成川５６５９番地,,46,210,8910516,,,,,,,2022-08-08,1,,,,,イブスキボルトスケール,0
1815,7340003003876,新規,0,2022-08-08,2022-08-08,合同会社オールライト,,合同会社,鹿児島県,鹿児島市,西紫原町８番２０号,,46,201,8900083,,,,,,,2022-08-08,1,,,,,オールライト,0
1818,7360001030796,新規,0,2022-08-08,2022-08-08,営家株式会社,,株式会社,沖縄県,那覇市,松尾１丁目１０－２４ホークシティ那覇ビル４階,,47,201,9000014,,,,,,,2022-08-08,1,,,,,エイカ,0
1820,7360003012215,新規,0,2022-08-08,2022-08-08,合同会社コズミックウィル,,合同会社,沖縄県,島尻郡南風原町,字宮平９５０番地５６宮平ハイツＡ－５５,,47,350,9011104,,,,,,,2022-08-08,1,,,,,コズミックウィル,0
1828,7430001087227,新規,0,2022-08-08,2022-08-08,株式会社ひとひともん,,株式会社,北海道,赤平市,幌岡町２２８番地,,01,218,0791102,,,,,,,2022-08-08,1,,,,,ヒトヒトモン,0
1829,7430001087235,新規,0,2022-08-08,2022-08-08,株式会社ＢｅｃｏＣｏｗ,,株式会社,北海道,札幌市手稲区,手稲前田５７５番地１５,,01,109,0060829,,,,,,,2022-08-08,1,,,,,ベコカウ,0
1830,7430001087243,新規,0,2022-08-08,2022-08-08,株式会社ＳＨＩＮＡＤＡ,,株式会社,北海道,札幌市中央区,北三条西１丁目１番１,,01,101,0600003,,,,,,,2022-08-08,1,,,,,シナダ,0
1831,7430003014162,新規,0,2022-08-08,2022-08-08,合同会社キラキラ,,合同会社,北海道,札幌市中央区,南十一条西１丁目４番１８－１１０２号,,01,101,0640811,,,,,,,2022-08-08,1,,,,,キラキラ,0
1832,7430003014187,新規,0,2022-08-08,2022-08-08,合同会社ＭＲＴ,,合同会社,北海道,札幌市西区,西町北７丁目１番１号,,01,107,0630061,,,,,,,2022-08-08,1,,,,,エムアールティー,0
1840,7490001010249,新規,0,2022-08-08,2022-08-08,株式会社ハイジア動物病院,,株式会社,高知県,高知市,朝倉己１３８番地９,,39,201,7808066,,,,,,,2022-08-08,1,,,,,ハイジアドウブツビョウイン,0
1851,8010001228656,新規,0,2022-08-08,2022-08-08,株式会社ＵｎｉＳｏｐｈｙ,,株式会社,東京都,中央区,銀座１丁目２２番１１号銀座大竹ビジデンス２階,,13,102,1040061,,,,,,,2022-08-08,1,,,,,ユニソフィー,0
1864,8010401168915,新規,0,2022-08-08,2022-08-08,株式会社ドリームストーン,,株式会社,東京都,港区,浜松町２丁目２番１５号浜松町ダイヤビル２Ｆ,,13,103,1050013,,,,,,,2022-08-08,1,,,,,ドリームストーン,0
1865,8010403028191,新規,0,2022-08-08,2022-08-08,合同会社ＲＡＹ,,合同会社,東京都,港区,赤坂６丁目１０番６－５０３,,13,103,1070052,,,,,,,2022-08-08,1,,,,,アールエーワイ,0
1866,8010403028200,新規,0,2022-08-08,2022-08-08,合同会社ＴＡＯＭＡＸ,,合同会社,東京都,港区,西麻布４丁目１１番７号,,13,103,1060031,,,,,,,2022-08-08,1,,,,,タオマックス,0
1875,8010703006343,新規,0,2022-08-08,2022-08-08,Ｋ２ａｃｃｏｕｎｔｉｎｇ合同会社,,合同会社,東京都,品川区,西五反田１丁目１７番１号第二東栄ビル６０２,,13,109,1410031,,,,,,,2022-08-08,1,,,,,ケーツーアカウンティング,0
1880,8010901051372,新規,0,2022-08-08,2022-08-08,株式会社歩,,株式会社,東京都,世田谷区,代田６丁目１６番２０号近野荘,,13,112,1550033,,,,,,,2022-08-08,1,,,,,アユム,0
1893,8011001148927,新規,0,2022-08-08,2022-08-08,株式会社ｍｅ‐ｍｏｒｉ,,株式会社,東京都,渋谷区,神宮前６丁目２３番４号桑野ビル２階,,13,113,1500001,,,,,,,2022-08-08,1,,,,,メモリ,0
1894,8011001148951,新規,0,2022-08-08,2022-08-08,株式会社アクアカンパニー,,株式会社,東京都,渋谷区,神宮前６丁目３５番３号,,13,113,1500001,,,,,,,2022-08-08,1,,,,,アクアカンパニー,0
1895,8011003015175,新規,0,2022-08-08,2022-08-08,Ｍａｈａｌｏｈａ　Ｕｐ合同会社,,合同会社,東京都,目黒区,自由が丘１丁目１９番１８号,,13,110,1520035,,,,,,,2022-08-08,1,,,,,マハロハアップ,0
1900,8011101099756,新規,0,2022-08-08,2022-08-08,協陽置産株式会社,,株式会社,東京都,新宿区,百人町２丁目２６－５－８０１,,13,104,1690073,,,,,,,2022-08-08,1,,,,,キョウヨウチサン,0
1901,8011103012048,新規,0,2022-08-08,2022-08-08,ＤＩＫＵＲＡ合同会社,,合同会社,東京都,新宿区,下落合４丁目３番９号コーポ江川１０３,,13,104,1610033,,,,,,,2022-08-08,1,,,,,ディクラ,0
1909,8011803005202,新規,0,2022-08-08,2022-08-08,香取会計センター合同会社,,合同会社,東京都,葛飾区,奥戸７丁目２０番２６号８０２号,,13,122,1240022,,,,,,,2022-08-08,1,,,,,カトリカイケイセンター,0
1910,8012403005534,新規,0,2022-08-08,2022-08-08,グローバルテクニカルブリッジ合同会社,,合同会社,東京都,武蔵野市,吉祥寺本町１丁目１３番２号シラカバビル５Ｆ－２,,13,203,1800004,,,,,,,2022-08-08,1,,,,,グローバルテクニカルブリッジ,0
1912,8013303006259,新規,0,2022-08-08,2022-08-08,ＨＵＮＧ　ＴＨＩＮＨ合同会社,,合同会社,東京都,豊島区,高田３丁目３番１６号東方高田ビル３０９,,13,116,1710033,,,,,,,2022-08-08,1,,,,,フンティン,0
1915,8020001147582,新規,0,2022-08-08,2022-08-08,株式会社ＮＦＢスタジオ横浜,,株式会社,神奈川県,横浜市中区,小港町１丁目１番地２ビューコート小港６号棟１１０４,,14,104,2310802,,,,,,,2022-08-08,1,,,,,エヌエフビースタジオヨコハマ,0
1922,8020003022197,新規,0,2022-08-08,2022-08-08,合同会社Ｎｏｗ　Ｐｌｕｓ,,合同会社,神奈川県,横浜市西区,みなとみらい４丁目４－２横浜ブルーアベニュー１２Ｆ,,14,103,2200012,,,,,,,2022-08-08,1,,,,,ナオプラス,0
1925,8021001076697,新規,0,2022-08-08,2022-08-08,ＮＹビルド株式会社,,株式会社,神奈川県,藤沢市,本町１丁目８番６号,,14,205,2510053,,,,,,,2022-08-08,1,,,,,エヌワイビルド,0
1950,8040003020587,新規,0,2022-08-08,2022-08-08,ルーベ合同会社,,合同会社,千葉県,流山市,西初石２丁目１１番地の１４,,12,220,2700121,,,,,,,2022-08-08,1,,,,,ルーベ,0
1960,8060001035156,新規,0,2022-08-08,2022-08-08,株式会社ミヤエンジ,,株式会社,栃木県,宇都宮市,西川田本町１丁目１１番１号,,09,201,3210158,,,,,,,2022-08-08,1,,,,,ミヤエンジ,0
1965,8070005010022,新規,0,2022-08-08,2022-08-08,医療法人希碧会,,その他の設立登記法人,群馬県,渋川市,行幸田２８番地５,,10,208,3770006,,,,,,,2022-08-08,1,,,,,ノゾミカイ,0
1967,8080001025122,新規,0,2022-08-08,2022-08-08,株式会社ＪＳ企画,,株式会社,静岡県,藤枝市,岡部町内谷９３０番地の１５,,22,214,4211131,,,,,,,2022-08-08,1,,,,,ジェイエスキカク,0
1969,8080101023471,新規,0,2022-08-08,2022-08-08,株式会社フジクラエナジーシステムズ,,株式会社,静岡県,沼津市,双葉町９番１号,,22,203,4100005,,,,,,,2022-08-08,1,,,,,フジクラエナジーシステムズ,0
1973,8090001017721,新規,0,2022-08-08,2022-08-08,株式会社Ｅ‐Ｒ，ｓ　ＰＬＡＮ,,株式会社,山梨県,甲府市,上阿原町３１０番地２,,19,201,4000814,,,,,,,2022-08-08,1,,,,,イーアールズプラン,0
1975,8100001035597,新規,0,2022-08-08,2022-08-08,株式会社あかさ,,株式会社,長野県,松本市,村井町南３丁目１２－２２オカモトタンメン,,20,202,3990036,,,,,,,2022-08-08,1,,,,,アカサ,0
1978,8110001036875,新規,0,2022-08-08,2022-08-08,株式会社新潟セキュリティ,,株式会社,新潟県,新潟市中央区,姥ケ山６丁目４番１６号第２阿部ビル２Ｆ,,15,103,9500923,,,,,,,2022-08-08,1,,,,,ニイガタセキュリティ,0
1991,8120001247827,新規,0,2022-08-08,2022-08-08,株式会社ＴＲＵＳＳＴＡＲ,,株式会社,大阪府,大阪市北区,西天満２丁目６番８号堂島ビルヂング３Ｆ,,27,127,5300047,,,,,,,2022-08-08,1,,,,,トラスター,0
1992,8120001247959,新規,0,2022-08-08,2022-08-08,株式会社Ｙ’ｚ,,株式会社,大阪府,大阪市中央区,南久宝寺町３丁目３番３号,,27,128,5410058,,,,,,,2022-08-08,1,,,,,ワイズ,0
1993,8120001247975,新規,0,2022-08-08,2022-08-08,ララシステムズ株式会社,,株式会社,大阪府,大阪市中央区,南久宝寺町２丁目５番１０－６０２号,,27,128,5410058,,,,,,,2022-08-08,1,,,,,ララシステムズ,0
2001,8120901046329,新規,0,2022-08-08,2022-08-08,株式会社Ｇｌｏｒｙ　Ｒｏａｄ,,株式会社,大阪府,箕面市,船場西２丁目２２番１４号,,27,220,5620036,,,,,,,2022-08-08,1,,,,,グローリーロード,0
2002,8120901046337,新規,0,2022-08-08,2022-08-08,株式会社Ｌｉｆｅ　ｃｈａｒｔ,,株式会社,大阪府,豊能郡能勢町,片山１４１番地の１２,,27,322,5630354,,,,,,,2022-08-08,1,,,,,ライフチャート,0
2004,8122003002400,新規,0,2022-08-08,2022-08-08,合同会社北風と太陽,,合同会社,大阪府,八尾市,龍華町１丁目２番１－１１１０号,,27,212,5810069,,,,,,,2022-08-08,1,,,,,キタカゼトタイヨウ,0
2005,8130001072373,新規,0,2022-08-08,2022-08-08,株式会社Ａｇｅｎｔ　Ｐｌａｎｎｅｒ,,株式会社,京都府,京都市東山区,新橋通大和大路東入二丁目橋本町４０５番地５,,26,105,6050000,,,,,,,2022-08-08,1,,,,,エージェントプランナー,0
2010,8140001126995,新規,0,2022-08-08,2022-08-08,株式会社ＵＮＩＣＯ,,株式会社,兵庫県,姫路市,中地南町８２番地１,,28,201,6700975,,,,,,,2022-08-08,1,,,,,ウニコ,0
2011,8140001127003,新規,0,2022-08-08,2022-08-08,ピーオービー株式会社,,株式会社,兵庫県,神戸市中央区,八幡通１丁目１－１４－６０４号,,28,110,6510085,,,,,,,2022-08-08,1,,,,,ピーオービー,0
2013,8150001025742,新規,0,2022-08-08,2022-08-08,株式会社明晃電機,,株式会社,奈良県,橿原市,菖蒲町１丁目１２番１７号,,29,205,6340042,,,,,,,2022-08-08,1,,,,,メイコウデンキ,0
2019,8180001152468,新規,0,2022-08-08,2022-08-08,ＡＲＭ株式会社,,株式会社,愛知県,清須市,阿原池之表１１６番地,,23,233,4520901,,,,,,,2022-08-08,1,,,,,エーアールエム,0
2020,8180001152484,新規,0,2022-08-08,2022-08-08,Ｂ．Ｗ．Ｐ株式会社,,株式会社,愛知県,名古屋市中区,丸の内２丁目２番５号丸の内ヒビノ・オフィスラインズ６Ｂ,,23,106,4600002,,,,,,,2022-08-08,1,,,,,ビーダブリュピー,0
2021,8180001152492,新規,0,2022-08-08,2022-08-08,株式会社アサノ建装,,株式会社,愛知県,豊明市,栄町武侍７番地１グラン・コート豊明１０７号,,23,229,4701161,,,,,,,2022-08-08,1,,,,,アサノケンソウ,0
2022,8180001152501,新規,0,2022-08-08,2022-08-08,株式会社ワイティー,,株式会社,愛知県,稲沢市,稲葉５丁目４番１３号,,23,220,4928219,,,,,,,2022-08-08,1,,,,,ワイティー,0
2023,8180001152534,新規,0,2022-08-08,2022-08-08,株式会社日総研,,株式会社,愛知県,名古屋市中村区,名駅１丁目１番１号ＪＰタワー名古屋２１階,,23,105,4500002,,,,,,,2022-08-08,1,,,,,ニッソウケン,0
2032,8180003024120,新規,0,2022-08-08,2022-08-08,合同会社ｆｉｃａｔａ,,合同会社,愛知県,一宮市,今伊勢町本神戸字権現１５番地８,,23,203,4910053,,,,,,,2022-08-08,1,,,,,フィカータ,0
2034,8180303005415,新規,0,2022-08-08,2022-08-08,合同会社クレイン,,合同会社,愛知県,安城市,箕輪町唐生５４番地,,23,212,4460051,,,,,,,2022-08-08,1,,,,,クレイン,0
2037,8200001040356,新規,0,2022-08-08,2022-08-08,株式会社ｇｒａｎｔ,,株式会社,岐阜県,羽島市,竹鼻町丸の内１０丁目１５番地,,21,209,5016244,,,,,,,2022-08-08,1,,,,,グラント,0
2038,8210001019036,新規,0,2022-08-08,2022-08-08,株式会社イノベイト,,株式会社,福井県,福井市,灯明寺１丁目６０４番地２,,18,201,9100063,,,,,,,2022-08-08,1,,,,,イノベイト,0
2041,8210003001545,新規,0,2022-08-08,2022-08-08,合同会社クリエイティブオフィスフリー,,合同会社,福井県,福井市,下莇生田町２７－１－１,,18,201,9188134,,,,,,,2022-08-08,1,,,,,クリエイティブオフィスフリー,0
2055,8260001037116,新規,0,2022-08-08,2022-08-08,松岡教材株式会社,,株式会社,岡山県,津山市,勝部１１１２番地２,,33,203,7080804,,,,,,,2022-08-08,1,,,,,マツオカキョウザイ,0
2066,8290001098485,新規,0,2022-08-08,2022-08-08,株式会社崇史,,株式会社,福岡県,宗像市,陵厳寺１丁目１０番２号,,40,220,8114145,,,,,,,2022-08-08,1,,,,,タカシ,0
2067,8290001098510,新規,0,2022-08-08,2022-08-08,株式会社アールイー・コンサルティング,,株式会社,福岡県,福岡市南区,筑紫丘２丁目２０番１６号,,40,134,8150036,,,,,,,2022-08-08,1,,,,,アールイーコンサルティング,0
2069,8290003012816,新規,0,2022-08-08,2022-08-08,合同会社ファミリーマーケティング,,合同会社,福岡県,糟屋郡志免町,南里２丁目１番１８号,,40,343,8112207,,,,,,,2022-08-08,1,,,,,ファミリーマーケティング,0
2077,8310005008628,新規,0,2022-08-08,2022-08-08,ＮＰＯ法人海守くらぶ,,その他の設立登記法人,長崎県,西彼杵郡時津町,西時津郷１０００番地２２２,,42,308,8512101,,,,,,,2022-08-08,1,,,,,ウミモリクラブ,0
2082,8340001024948,新規,0,2022-08-08,2022-08-08,株式会社ＣｌｅａｒＢｌｕｅ,,株式会社,鹿児島県,奄美市,名瀬金久町８番地１５,,46,222,8940031,,,,,,,2022-08-08,1,,,,,クリアブルー,0
2088,8350003004138,新規,0,2022-08-08,2022-08-08,合同会社シュヴァルツ・ヴァルト,,合同会社,宮崎県,都城市,横市町６５５０番地３,,45,202,8850091,,,,,,,2022-08-08,1,,,,,シュヴァルツヴァルト,0
2091,8360001030787,新規,0,2022-08-08,2022-08-08,株式会社アソシエイト,,株式会社,沖縄県,中頭郡中城村,字南上原１０００番地１,,47,328,9012424,,,,,,,2022-08-08,1,,,,,アソシエイト,0
2096,8380003005257,新規,0,2022-08-08,2022-08-08,ファーアンドフィールド合同会社,,合同会社,福島県,いわき市,遠野町上遠野字久保作１０番地の１,,07,204,9720161,,,,,,,2022-08-08,1,,,,,ファーアンドフィールド,0
2098,8430001087226,新規,0,2022-08-08,2022-08-08,株式会社カリス,,株式会社,北海道,登別市,札内町２９９番地７,,01,230,0590461,,,,,,,2022-08-08,1,,,,,カリス,0
2099,8430001087234,新規,0,2022-08-08,2022-08-08,ファーイースト株式会社,,株式会社,北海道,千歳市,文京４丁目６番地の５,,01,224,0660052,,,,,,,2022-08-08,1,,,,,ファーイースト,0
2100,8430001087242,新規,0,2022-08-08,2022-08-08,株式会社ジュピター,,株式会社,北海道,札幌市北区,太平七条７丁目６番８－１０１号,,01,102,0028007,,,,,,,2022-08-08,1,,,,,ジュピター,0
2110,8470001019191,新規,0,2022-08-08,2022-08-08,株式会社西日本コールドサービス,,株式会社,香川県,観音寺市,柞田町乙１６３６番地,,37,205,7680040,,,,,,,2022-08-08,1,,,,,ニシニホンコールドサービス,0
2128,9010001228655,新規,0,2022-08-08,2022-08-08,イーエスピーシーワン株式会社,,株式会社,東京都,千代田区,丸の内１丁目８番１号,,13,101,1000005,,,,,,,2022-08-08,1,,,,,イーエスピーシーワン,0
2129,9010001228663,新規,0,2022-08-08,2022-08-08,株式会社Ｃａｌａｔｈｅａ,,株式会社,東京都,中央区,新川２丁目１０番１－８１３号,,13,102,1040033,,,,,,,2022-08-08,1,,,,,カラテア,0
2139,9010401168872,新規,0,2022-08-08,2022-08-08,コミットメント・ＤＸ株式会社,,株式会社,東京都,港区,六本木６丁目１番２０号六本木電気ビル７Ｆ,,13,103,1060032,,,,,,,2022-08-08,1,,,,,コミットメントディーエックス,0
2140,9010401168897,新規,0,2022-08-08,2022-08-08,ＨＩＮ株式会社,,株式会社,東京都,港区,白金６丁目２１番１２号,,13,103,1080072,,,,,,,2022-08-08,1,,,,,ヒン,0
2146,9010601061638,新規,0,2022-08-08,2022-08-08,株式会社ｍｅｍｏ,,株式会社,東京都,江東区,南砂１丁目１３番地１５号,,13,108,1360076,,,,,,,2022-08-08,1,,,,,メモ,0
2164,9011001148918,新規,0,2022-08-08,2022-08-08,株式会社ツユハライ,,株式会社,東京都,渋谷区,道玄坂１丁目１０番８号渋谷道玄坂東急ビル２Ｆ－Ｃ,,13,113,1500043,,,,,,,2022-08-08,1,,,,,ツユハライ,0
2165,9011001148967,新規,0,2022-08-08,2022-08-08,大地建設株式会社,,株式会社,東京都,渋谷区,幡ヶ谷３丁目３９番１２号渋谷ウェストビル１階,,13,113,1510072,,,,,,,2022-08-08,1,,,,,タイチケンセツ,0
2166,9011001149115,新規,0,2022-08-08,2022-08-08,Ｗｈｉｔｅ株式会社,,株式会社,東京都,渋谷区,渋谷２丁目１０番６号,,13,113,1500002,,,,,,,2022-08-08,1,,,,,ホワイト,0
2170,9011003015125,新規,0,2022-08-08,2022-08-08,合同会社ＦＫコンサルティング,,合同会社,東京都,渋谷区,千駄ヶ谷５丁目３３番１号コープインフィールド４０２号室,,13,113,1510051,,,,,,,2022-08-08,1,,,,,エフケーコンサルティング,0
2171,9011003015133,新規,0,2022-08-08,2022-08-08,ｖａｌｕｅｓ合同会社,,合同会社,東京都,目黒区,中目黒４丁目８番２６－２０１号クリーンホームツルオカ,,13,110,1530061,,,,,,,2022-08-08,1,,,,,バリューズ,0
2172,9011003015141,新規,0,2022-08-08,2022-08-08,虎ノ門商事合同会社,,合同会社,東京都,目黒区,青葉台１丁目３０番１３号サンライズ中目黒８０１,,13,110,1530042,,,,,,,2022-08-08,1,,,,,トラノモンショウジ,0
2173,9011101099706,新規,0,2022-08-08,2022-08-08,ヘッジハウス株式会社,,株式会社,東京都,新宿区,西新宿３丁目１０番７号サンハイツ梅村４０１号,,13,104,1600023,,,,,,,2022-08-08,1,,,,,ヘッジハウス,0
2174,9011101099796,新規,0,2022-08-08,2022-08-08,ＴＴＣホールディングス株式会社,,株式会社,東京都,新宿区,西新宿８丁目１５番１７号,,13,104,1600023,,,,,,,2022-08-08,1,,,,,ティーティーシーホールディングス,0
2175,9011101099805,新規,0,2022-08-08,2022-08-08,株式会社Ｄトレジャー,,株式会社,東京都,新宿区,西新宿３丁目３番１３号,,13,104,1600023,,,,,,,2022-08-08,1,,,,,,0
2176,9011103012047,新規,0,2022-08-08,2022-08-08,合同会社ＥｌｌｅＭａｒｉ,,合同会社,東京都,新宿区,新宿５丁目５－６,,13,104,1600022,,,,,,,2022-08-08,1,,,,,エルマリ,0
2177,9011301028010,新規,0,2022-08-08,2022-08-08,株式会社Ａｐｒｉｃｏｔ,,株式会社,東京都,杉並区,下高井戸１丁目３１番１３－３０４号,,13,115,1680073,,,,,,,2022-08-08,1,,,,,アプリコット,0
2180,9011303004488,新規,0,2022-08-08,2022-08-08,合同会社ストライク・コーポレーション,,合同会社,東京都,杉並区,和泉１丁目８番２－８０２号,,13,115,1680063,,,,,,,2022-08-08,1,,,,,ストライクコーポレーション,0
2185,9011701025516,新規,0,2022-08-08,2022-08-08,グラシャス株式会社,,株式会社,東京都,江戸川区,北小岩２丁目１３－１３,,13,123,1330051,,,,,,,2022-08-08,1,,,,,グラシャス,0
2193,9012701017189,新規,0,2022-08-08,2022-08-08,株式会社そらとたいよう,,株式会社,東京都,清瀬市,中里５丁目１０６０番地４,,13,221,2040003,,,,,,,2022-08-08,1,,,,,ソラトタイヨウ,0
2252,9060001035147,新規,0,2022-08-08,2022-08-08,株式会社リタス,,株式会社,栃木県,足利市,通４丁目３４８７番地１,,09,202,3260814,,,,,,,2022-08-08,1,,,,,リタス,0
2254,9060003004182,新規,0,2022-08-08,2022-08-08,合同会社Ｍ’ｓ　Ｃｌｅａｎ　Ｐａｒｔｎｅｒ,,合同会社,栃木県,栃木市,野中町３７７番地２,,09,203,3280124,,,,,,,2022-08-08,1,,,,,エムズクリーンパートナー,0
2261,9080001025121,新規,0,2022-08-08,2022-08-08,チャイルドファーストなごみ株式会社,,株式会社,静岡県,島田市,若松町２６５３番地の１,,22,209,4270046,,,,,,,2022-08-08,1,,,,,チャイルドファーストナゴミ,0
2264,9080401025992,新規,0,2022-08-08,2022-08-08,株式会社エステックサービス,,株式会社,静岡県,浜松市北区,三方原町５１番地の５,,22,135,4338105,,,,,,,2022-08-08,1,,,,,エステックサービス,0
2265,9090001017720,新規,0,2022-08-08,2022-08-08,株式会社サクラ商店,,株式会社,山梨県,南都留郡富士河口湖町,浅川６０１番地,,19,430,4010303,,,,,,,2022-08-08,1,,,,,サクラショウテン,0
2266,9100001035588,新規,0,2022-08-08,2022-08-08,あづみ野ＩＴ株式会社,,株式会社,長野県,安曇野市,穂高牧２２３０－３０,,20,220,3998305,,,,,,,2022-08-08,1,,,,,アヅミノアイティー,0
2267,9100001035596,新規,0,2022-08-08,2022-08-08,株式会社ＡＺ,,株式会社,長野県,長野市,柳町１－２小池ビル１－Ａ,,20,201,3800805,,,,,,,2022-08-08,1,,,,,アズ,0
2278,9120001247850,新規,0,2022-08-08,2022-08-08,ＴＡＦ株式会社,,株式会社,大阪府,大阪市中央区,谷町７丁目１－２５－６０２,,27,128,5420012,,,,,,,2022-08-08,1,,,,,タフ,0
2279,9120001247974,新規,0,2022-08-08,2022-08-08,株式会社立和名建装,,株式会社,大阪府,大阪市住吉区,万代東２丁目３番１６－６１５号,,27,120,5580056,,,,,,,2022-08-08,1,,,,,タチワナケンソウ,0
2280,9120001248031,新規,0,2022-08-08,2022-08-08,株式会社ボンサイ,,株式会社,大阪府,大阪市中央区,日本橋２丁目８番１５－９０６号,,27,128,5420073,,,,,,,2022-08-08,1,,,,,ボンサイ,0
2282,9120003022244,新規,0,2022-08-08,2022-08-08,合同会社ＰＰＬＩＦＥ,,合同会社,大阪府,大阪市生野区,生野西４丁目１－２９小谷ハイム１５号室,,27,116,5440024,,,,,,,2022-08-08,1,,,,,ピーピーライフ,0
2288,9122001036143,新規,0,2022-08-08,2022-08-08,株式会社ＴＯＬＴＥＣＨ,,株式会社,大阪府,東大阪市,日下町４丁目２番１０－５０３号,,27,227,5798003,,,,,,,2022-08-08,1,,,,,トルテック,0
2289,9122003002399,新規,0,2022-08-08,2022-08-08,合同会社ＫＮＳ,,合同会社,大阪府,東大阪市,西石切町３丁目６番１４号コスモレジデンス３０３号,,27,227,5798013,,,,,,,2022-08-08,1,,,,,ケイエヌエス,0
2292,9130001072364,新規,0,2022-08-08,2022-08-08,株式会社Ｕ,,株式会社,京都府,京都市伏見区,醍醐御陵東裏町６２番地,,26,109,6011313,,,,,,,2022-08-08,1,,,,,ユー,0
2293,9130001072372,新規,0,2022-08-08,2022-08-08,株式会社ＦＥＶＥＳ,,株式会社,京都府,京都市中京区,押小路通御幸町西入ル橘町６１０,,26,104,6040000,,,,,,,2022-08-08,1,,,,,フェーヴ,0
2294,9130001072389,新規,0,2022-08-08,2022-08-08,Ｋｉｎｇｓｅｍｉ　Ｋｙｏｔｏ株式会社,,株式会社,京都府,京都市伏見区,竹田藁屋町１０１番地,,26,109,6128443,,,,,,,2022-08-08,1,,,,,キングセミキョウト,0
2296,9140001127002,新規,0,2022-08-08,2022-08-08,＿隆通商株式会社,00127461,株式会社,兵庫県,神戸市中央区,御幸通３丁目１番２１－１０１号,,28,110,6510087,,,,,,,2022-08-08,1,,,,,キンリュウ,0
2297,9140001127010,新規,0,2022-08-08,2022-08-08,ＬＯＣＡＬ　ＶＩＢＥＳ株式会社,,株式会社,兵庫県,神戸市東灘区,住吉宮町４丁目２番５号エイボンビル１階,,28,101,6580053,,,,,,,2022-08-08,1,,,,,ローカルバイブス,0
2304,9140005026258,新規,0,2022-08-08,2022-08-08,特定非営利活動法人美ｒａｉｓ,,その他の設立登記法人,兵庫県,三田市,ゆりのき台３丁目２５番地１、２棟１０４号,,28,219,6691324,,,,,,,2022-08-08,1,,,,,ミレイズ,0
2305,9150001025741,新規,0,2022-08-08,2022-08-08,株式会社雅樹ち通商,,株式会社,奈良県,奈良市,肘塚町１６番地の５,,29,201,6308142,,,,,,,2022-08-08,1,,,,,マサキチツウショウ,0
2306,9170001017233,新規,0,2022-08-08,2022-08-08,株式会社フジ田産業不動産開発,,株式会社,和歌山県,和歌山市,神前１０９番地１９,,30,201,6408314,,,,,,,2022-08-08,1,,,,,フジタサンギョウフドウサンカイハツ,0
2312,9180001152434,新規,0,2022-08-08,2022-08-08,株式会社ミヤビセキュアネットワーク,,株式会社,愛知県,江南市,高屋町中屋舗９８番地,,23,217,4838083,,,,,,,2022-08-08,1,,,,,ミヤビセキュアネットワーク,0
2313,9180001152459,新規,0,2022-08-08,2022-08-08,株式会社ユニメ工業,,株式会社,愛知県,名古屋市中村区,名駅南１丁目１１番１２号,,23,105,4500003,,,,,,,2022-08-08,1,,,,,ユニメコウギョウ,0
2314,9180001152491,新規,0,2022-08-08,2022-08-08,株式会社ＫＯＤＡ企画,,株式会社,愛知県,半田市,青山７丁目５番地の２,,23,205,4750836,,,,,,,2022-08-08,1,,,,,コウダキカク,0
2315,9180001152500,新規,0,2022-08-08,2022-08-08,インクル株式会社,,株式会社,愛知県,半田市,柊町１丁目７２番地１,,23,205,4750916,,,,,,,2022-08-08,1,,,,,インクル,0
2316,9180001152509,新規,0,2022-08-08,2022-08-08,株式会社サードプレイス,,株式会社,愛知県,名古屋市天白区,高宮町１５０１番地の１４,,23,116,4680031,,,,,,,2022-08-08,1,,,,,サードプレイス,0
2317,9180001152525,新規,0,2022-08-08,2022-08-08,株式会社裕電工,,株式会社,愛知県,名古屋市中村区,元中村町１丁目１００番地,,23,105,4530047,,,,,,,2022-08-08,1,,,,,ユウデンコウ,0
2320,9180003024111,新規,0,2022-08-08,2022-08-08,シェソップ合同会社,,合同会社,愛知県,小牧市,久保一色南２丁目２１９番地,,23,219,4850007,,,,,,,2022-08-08,1,,,,,シェソップ,0
2324,9180301036502,新規,0,2022-08-08,2022-08-08,ｉｎＪ．株式会社,,株式会社,愛知県,蒲郡市,三谷町東３丁目８３番地,,23,214,4430021,,,,,,,2022-08-08,1,,,,,インジェイドット,0
2325,9180301036519,新規,0,2022-08-08,2022-08-08,株式会社はうつー,,株式会社,愛知県,蒲郡市,旭町１６番１６号,,23,214,4430045,,,,,,,2022-08-08,1,,,,,ハウツー,0
2343,9240001060192,新規,0,2022-08-08,2022-08-08,株式会社フリースタイルエンジニア,,株式会社,広島県,福山市,新市町大字下安井３３１番地１,,34,207,7293105,,,,,,,2022-08-08,1,,,,,フリースタイルエンジニア,0
2347,9240005015432,新規,0,2022-08-08,2022-08-08,音戸倉橋環境事業協同組合,,その他の設立登記法人,広島県,呉市,音戸町波多見２丁目１０番１０号,,34,202,7371207,,,,,,,2022-08-08,1,,,,,,0
2353,9260001037123,新規,0,2022-08-08,2022-08-08,東輝株式会社,,株式会社,岡山県,加賀郡吉備中央町,北２７８２‐３２６,,33,681,7161551,,,,,,,2022-08-08,1,,,,,トウキ,0
2356,9290001098518,新規,0,2022-08-08,2022-08-08,株式会社ｄｏｃｈａｋｕ,,株式会社,福岡県,糟屋郡新宮町,上府北４丁目７番１６号,,40,345,8110123,,,,,,,2022-08-08,1,,,,,ドチャク,0
2358,9290003012815,新規,0,2022-08-08,2022-08-08,合同会社ファミリーリクルート,,合同会社,福岡県,糟屋郡志免町,南里２丁目１番１８号,,40,343,8112207,,,,,,,2022-08-08,1,,,,,ファミリーリクルート,0
2359,9290003012823,新規,0,2022-08-08,2022-08-08,久留米絣研究舎合同会社,,合同会社,福岡県,福岡市南区,筑紫丘１丁目１７－３６－６０６,,40,134,8150036,,,,,,,2022-08-08,1,,,,,クルメカスリケンキュウシャ,0
2361,9290801028797,新規,0,2022-08-08,2022-08-08,株式会社ＧＬＯＢＡＬ,,株式会社,福岡県,北九州市八幡西区,千代２丁目５番１０号,,40,109,8071112,,,,,,,2022-08-08,1,,,,,グローバル,0
2366,9320001019255,新規,0,2022-08-08,2022-08-08,株式会社Ｔ＆Ｒ,,株式会社,大分県,日田市,若宮町６番２８号,,44,204,8770037,,,,,,,2022-08-08,1,,,,,ティアンドアール,0
2367,9350001017900,新規,0,2022-08-08,2022-08-08,株式会社ＥＩＧＨＴ　ＦＩＶＥ,,株式会社,宮崎県,宮崎市,大字加江田４４４８番地７,,45,201,8892161,,,,,,,2022-08-08,1,,,,,エイトファイブ,0
2368,9360001030786,新規,0,2022-08-08,2022-08-08,株式会社オキナワ・ゴルフスペース,,株式会社,沖縄県,那覇市,字宇栄原１００９番地２,,47,201,9010153,,,,,,,2022-08-08,1,,,,,オキナワゴルフスペース,0
2370,9360003012213,新規,0,2022-08-08,2022-08-08,合同会社サン,,合同会社,沖縄県,那覇市,辻２丁目１９番１５号,00127450,47,201,9000037,,,,,,,2022-08-08,1,,,,,サン,0
2372,9370001048910,新規,0,2022-08-08,2022-08-08,ａｓａｉメディカル株式会社,,株式会社,宮城県,仙台市太白区,柳生６丁目５番地の１３,,04,104,9811106,,,,,,,2022-08-08,1,,,,,アサイメディカル,0
2382,9400001015972,新規,0,2022-08-08,2022-08-08,株式会社Ｎｉｃｅ　Ｎａｔｕｒｅ,,株式会社,岩手県,盛岡市,西松園４丁目３２番２１号,,03,201,0200103,,,,,,,2022-08-08,1,,,,,ナイスネイチャー,0
2389,9430001087217,新規,0,2022-08-08,2022-08-08,株式会社渡辺,,株式会社,北海道,札幌市白石区,川北三条１丁目９番３２号レッドルーフ川北２号,,01,104,0030853,,,,,,,2022-08-08,1,,,,,ワタナベ,0
2390,9430001087225,新規,0,2022-08-08,2022-08-08,株式会社ワールドキャピタル,,株式会社,北海道,札幌市豊平区,平岸三条７丁目２番１０号,,01,105,0620933,,,,,,,2022-08-08,1,,,,,ワールドキャピタル,0
2399,9430003014160,新規,0,2022-08-08,2022-08-08,合同会社エヌ・マティ,,合同会社,北海道,札幌市白石区,菊水上町一条１丁目４０番地１０－１１０,,01,104,0030811,,,,,,,2022-08-08,1,,,,,エヌマティ,0
2400,9430003014169,新規,0,2022-08-08,2022-08-08,合同会社ＨＡＶＯＣ　ＢＡＳＥ,,合同会社,北海道,札幌市中央区,南九条西４丁目３－１ＡＭＳ　ＴＯＷＥＲ１９０５,,01,101,0640809,,,,,,,2022-08-08,1,,,,,ハボックベース,0
2410,9470001019208,新規,0,2022-08-08,2022-08-08,株式会社藤田摂建築設計事務所,,株式会社,香川県,高松市,春日町１７０６番地春日ビル５階,,37,201,7610101,,,,,,,2022-08-08,1,,,,,フジタオサムケンチクセッケイジムショ,0
