sequenceNumber,corporateNumber,process,correct,updateDate,changeDate,name,nameImageId,kind,prefectureName,cityName,streetNumber,addressImageId,prefectureCode,cityCode,postCode,addressOutside,addressOutsideImageId,closeDate,closeCause,successorCorporateNumber,changeCause,assignmentDate,latest,enName,enPrefectureName,enCityName,enAddressOutside,furigana,hihyoji
9,1010001258180,新規,0,2025-09-16,2025-09-16,株式会社ユーショップデジタルリンク,,株式会社,東京都,千代田区,麹町２丁目１０－３エキスパートオフィス麹町,,13,101,1020083,,,,,,,2025-09-16,1,,,,,,0
10,1010001258461,新規,0,2025-09-16,2025-09-16,白記漢方株式会社,,株式会社,東京都,千代田区,九段北４丁目３番１５号中野ビル２Ｆ,,13,101,1020073,,,,,,,2025-09-16,1,,,,,ハクキカンポウ,0
14,1010005040675,新規,0,2025-09-16,2025-09-16,ジェイ・シー・エイチ・ツー特定目的会社,,その他の設立登記法人,東京都,千代田区,丸の内１丁目４番１号東京共同会計事務所内,,13,101,1000005,,,,,,,2025-09-16,1,,,,,ジェイシーエイチツー,0
24,1010401193102,新規,0,2025-09-16,2025-09-16,株式会社カグラザカキャット,,株式会社,東京都,港区,三田４丁目１７番２６号,,13,103,1080073,,,,,,,2025-09-16,1,,,,,カグラザカキャット,0
25,1010401193151,新規,0,2025-09-16,2025-09-16,Ｓｐｅｒｌｏｎｇａ株式会社,,株式会社,東京都,港区,六本木４丁目５－７スタジオＤ４階３０１号室,,13,103,1060032,,,,,,,2025-09-16,1,,,,,スペルロンガ,0
26,1010403035979,新規,0,2025-09-16,2025-09-16,合同会社スリーデイズ,,合同会社,東京都,港区,白金台３丁目５番１７－４０２号,,13,103,1080071,,,,,,,2025-09-16,1,,,,,スリーデイズ,0
28,1010501054699,新規,0,2025-09-16,2025-09-16,海越株式会社,,株式会社,東京都,台東区,柳橋１丁目２－１２－５階ＡＢＳ－Ａ－１０号,,13,106,1110052,,,,,,,2025-09-16,1,,,,,カイエツ,0
30,1010601067980,新規,0,2025-09-16,2025-09-16,押上リゾート株式会社,,株式会社,東京都,墨田区,緑１丁目２２番６号ストーク両国緑４０１号室,,13,107,1300021,,,,,,,2025-09-16,1,,,,,オシアゲリゾート,0
32,1010701048294,新規,0,2025-09-16,2025-09-16,株式会社ＣｈａｓｅＮｏｖａ,,株式会社,東京都,品川区,西五反田２丁目１８番２号,,13,109,1410031,,,,,,,2025-09-16,1,,,,,チェイスノヴァ,0
35,1010801036595,新規,0,2025-09-16,2025-09-16,株式会社ＧＴＭ商事,,株式会社,東京都,大田区,北糀谷１丁目１０番１２号,,13,111,1440032,,,,,,,2025-09-16,1,,,,,ジーティーエムショウジ,0
43,1011001172066,新規,0,2025-09-16,2025-09-16,株式会社ＹＪＮ,,株式会社,東京都,渋谷区,広尾２丁目１５番１７号,,13,113,1500012,,,,,,,2025-09-16,1,,,,,ワイジェイエヌ,0
44,1011001172090,新規,0,2025-09-16,2025-09-16,Ｒｅｓｅａｒｃｈｉｎ株式会社,,株式会社,東京都,渋谷区,道玄坂１丁目１０番８号渋谷道玄坂東急ビル２Ｆ－Ｃ,,13,113,1500043,,,,,,,2025-09-16,1,,,,,リサーチイン,0
47,1011005011154,新規,0,2025-09-16,2025-09-16,特定非営利活動法人Ｃｏｍｍｕｎｉｔｙ　ｆｏｒ　Ｃｏｍｍｕｎｉｔｉｅｓ　Ｓｈｉｂｕｙａ,,その他の設立登記法人,東京都,渋谷区,宇田川町１４番１３号宇田川町ビルディング３階,,13,113,1500042,,,,,,,2025-09-16,1,,,,,コミュニティフォーコミュニティズ,0
49,1011101113077,新規,0,2025-09-16,2025-09-16,株式会社ＦＵＷＡＳＯＲＥ,,株式会社,東京都,新宿区,中井２丁目１番２８号２Ｆ,,13,104,1610035,,,,,,,2025-09-16,1,,,,,フワソレ,0
52,1011105011574,新規,0,2025-09-16,2025-09-16,ブルーインフラホールディングス２０号一般社団法人,,その他の設立登記法人,東京都,新宿区,四谷２丁目９番地１５東京ユナイテッド綜合事務所内,,13,104,1600004,,,,,,,2025-09-16,1,,,,,ブルーインフラホールディングスニジュウゴウ,0
54,1011301030898,新規,0,2025-09-16,2025-09-16,株式会社ＴＲＶ,,株式会社,東京都,杉並区,清水１丁目４番３号,,13,115,1670033,,,,,,,2025-09-16,1,,,,,ティーアールブイ,0
55,1011303005717,新規,0,2025-09-16,2025-09-16,ＣＯＡＳＴＥＲ　ＲＩＣＡ　ＩＮＶＥＳＴＭＥＮＴＳ合同会社,,合同会社,東京都,杉並区,上荻３丁目４－１２－２０１,,13,115,1670043,,,,,,,2025-09-16,1,,,,,コスタリカインベストメンツ,0
56,1011403004841,新規,0,2025-09-16,2025-09-16,ＮＡ合同会社,,合同会社,東京都,板橋区,高島平２丁目７番４号,,13,119,1750082,,,,,,,2025-09-16,1,,,,,エヌエイ,0
57,1011501032562,新規,0,2025-09-16,2025-09-16,流音株式会社,,株式会社,東京都,荒川区,西日暮里１丁目５９番３号ＳＷＯｆｆｉｃｅＣｅｎｔｅｒ１０３号室,,13,118,1160013,,,,,,,2025-09-16,1,,,,,リュウオン,0
58,1011501032570,新規,0,2025-09-16,2025-09-16,株式会社ＪＩＭＧＥＲ,,株式会社,東京都,北区,東田端２丁目１番１０号１０１号室,,13,117,1140013,,,,,,,2025-09-16,1,,,,,ジンジャー,0
62,1011801046741,新規,0,2025-09-16,2025-09-16,株式会社ｍｉｒａｃｏｌｏ,,株式会社,東京都,足立区,江北１丁目３３番６号,,13,121,1230872,,,,,,,2025-09-16,1,,,,,ミラコロ,0
70,1013301054885,新規,0,2025-09-16,2025-09-16,株式会社ＹＪＫ,,株式会社,東京都,豊島区,池袋２丁目４８－２ザ・バレル池袋ビル１０１,,13,116,1710014,,,,,,,2025-09-16,1,,,,,ワイジェイケー,0
71,1013301054902,新規,0,2025-09-16,2025-09-16,Ｄｒ．インプラント株式会社,,株式会社,東京都,豊島区,目白２丁目３５番５号,,13,116,1710031,,,,,,,2025-09-16,1,,,,,ドクターインプラント,0
76,1020003029331,新規,0,2025-09-16,2025-09-16,合同会社ＫＥＬＯＷＯＲＫＳ,,合同会社,神奈川県,川崎市多摩区,枡形３丁目４番１号シャリエ向ヶ丘６０５号,,14,135,2140032,,,,,,,2025-09-16,1,,,,,ケロワークス,0
77,1020003029364,新規,0,2025-09-16,2025-09-16,ＹＲ合同会社,,合同会社,神奈川県,横浜市都筑区,加賀原２丁目２番１－１２４号,,14,118,2240055,,,,,,,2025-09-16,1,,,,,ワイアール,0
78,1021001086216,新規,0,2025-09-16,2025-09-16,株式会社ＨＬＨ,,株式会社,神奈川県,厚木市,下依知３丁目１７番１３号,,14,212,2430806,,,,,,,2025-09-16,1,,,,,エイチエルエイチ,0
79,1021001086281,新規,0,2025-09-16,2025-09-16,株式会社三世,,株式会社,神奈川県,高座郡寒川町,三丁目１４番１８号,,14,321,2530100,,,,,,,2025-09-16,1,,,,,ミヨ,0
81,1021003016550,新規,0,2025-09-16,2025-09-16,合同会社Ｕｐ　Ｔａｋｅ,,合同会社,神奈川県,小田原市,荻窪１２０３番地の８,,14,206,2500042,,,,,,,2025-09-16,1,,,,,アップテイク,0
96,1040001140443,新規,0,2025-09-16,2025-09-16,株式会社フツーラ,,株式会社,千葉県,松戸市,和名ケ谷８１１番地の２９,,12,207,2702232,,,,,,,2025-09-16,1,,,,,フツーラ,0
97,1040001140492,新規,0,2025-09-16,2025-09-16,株式会社エムデーウマルトレーディング,,株式会社,千葉県,君津市,戸崎２７５０番地１０,,12,225,2920441,,,,,,,2025-09-16,1,,,,,エムデーウマルトレーディング,0
102,1040003028455,新規,0,2025-09-16,2025-09-16,合同会社ＮＡＮＯケア,,合同会社,千葉県,松戸市,馬橋３３３３番地の２小森谷荘１－Ａ,,12,207,2710051,,,,,,,2025-09-16,1,,,,,ナノケア,0
104,1040005022869,新規,0,2025-09-16,2025-09-16,司法書士法人宮野事務所,,その他の設立登記法人,千葉県,市原市,白金町１丁目７７番地,,12,219,2900059,,,,,,,2025-09-16,1,,,,,ミヤノジムショ,0
109,1070001043346,新規,0,2025-09-16,2025-09-16,株式会社一木,,株式会社,群馬県,高崎市,あら町６－１９ＬＢビル３階,,10,202,3700831,,,,,,,2025-09-16,1,,,,,イッキ,0
110,1070003006078,新規,0,2025-09-16,2025-09-16,ＢＡＭ合同会社,,合同会社,群馬県,邑楽郡大泉町,坂田４丁目１６番１７号,,10,524,3700532,,,,,,,2025-09-16,1,,,,,バーム,0
114,1100001038953,新規,0,2025-09-16,2025-09-16,株式会社メッツリスト,,株式会社,長野県,長野市,大字高田五分一５２３番地,,20,201,3810034,,,,,,,2025-09-16,1,,,,,メッツリスト,0
123,1120001279843,新規,0,2025-09-16,2025-09-16,美思株式会社,,株式会社,大阪府,大阪市中央区,松屋町９番２０号ローレルステート松屋町１１０１Ａ,,27,128,5420067,,,,,,,2025-09-16,1,,,,,ビシ,0
124,1120001279868,新規,0,2025-09-16,2025-09-16,半夏株式会社,,株式会社,大阪府,大阪市東成区,大今里３丁目１５番６号ＩｍａｚａｔｏＴｏｗｅｒ５０４Ｃ,,27,115,5370012,,,,,,,2025-09-16,1,,,,,ハンゲ,0
126,1120003030535,新規,0,2025-09-16,2025-09-16,ＡＰＥＸ合同会社,,合同会社,大阪府,枚方市,枚方元町４－３０枚方パークアイランド１２５－４０３号,,27,210,5730052,,,,,,,2025-09-16,1,,,,,エーペックス,0
127,1120003030543,新規,0,2025-09-16,2025-09-16,Ｃａｐ　Ｃｌｏｕｄ合同会社,,合同会社,大阪府,大阪市東成区,大今里２丁目６番１８号昇徳ビル１階Ｋ室,,27,115,5370012,,,,,,,2025-09-16,1,,,,,キャップクラウド,0
128,1120003030551,新規,0,2025-09-16,2025-09-16,合同会社ＭＧＢ,,合同会社,大阪府,大阪市西成区,千本北２丁目５番１６号,,27,122,5570053,,,,,,,2025-09-16,1,,,,,エムジービー,0
133,1120101072405,新規,0,2025-09-16,2025-09-16,株式会社松建,,株式会社,大阪府,貝塚市,澤８４４番地２,,27,208,5970062,,,,,,,2025-09-16,1,,,,,マツケン,0
134,1120101072438,新規,0,2025-09-16,2025-09-16,ベニー株式会社,,株式会社,大阪府,堺市西区,浜寺諏訪森町東２丁２１０番地２０,,27,144,5928349,,,,,,,2025-09-16,1,,,,,ベニー,0
137,1120105010063,新規,0,2025-09-16,2025-09-16,特定非営利活動法人モリノベース,,その他の設立登記法人,大阪府,富田林市,梅の里２丁目３０番１８号,,27,214,5840001,,,,,,,2025-09-16,1,,,,,モリノベース,0
143,1130001080449,新規,0,2025-09-16,2025-09-16,Ｂｌｕｅｐｒｉｎｔ　Ｕｎｉｖｅｒｓｅ株式会社,,株式会社,京都府,京都市左京区,岡崎東天王町３９番地税理士法人森事務所ビル,,26,103,6068332,,,,,,,2025-09-16,1,,,,,ブループリントユニバース,0
144,1130001080548,新規,0,2025-09-16,2025-09-16,株式会社まなポート,,株式会社,京都府,京都市下京区,上柳町２２２番地デ・リード烏丸五条２０３,,26,106,6008099,,,,,,,2025-09-16,1,,,,,マナポート,0
151,1140001139995,新規,0,2025-09-16,2025-09-16,ミントウェル株式会社,,株式会社,兵庫県,神戸市西区,白水２丁目１３－９ジェルベーラ１０１号,,28,111,6512129,,,,,,,2025-09-16,1,,,,,ミントウェル,0
152,1140001140020,新規,0,2025-09-16,2025-09-16,株式会社ＺＩＫＫＥＮ,,株式会社,兵庫県,川西市,東多田２丁目３２番３３号,,28,217,6660122,,,,,,,2025-09-16,1,,,,,ジッケン,0
153,1140001140029,新規,0,2025-09-16,2025-09-16,株式会社Ｌａｎｋａ　Ｌａｎｄｙ　Ｊａｐａｎ,,株式会社,兵庫県,尼崎市,富松町３丁目７番１７号,,28,202,6610003,,,,,,,2025-09-16,1,,,,,ランカランディージャパン,0
156,1140003022555,新規,0,2025-09-16,2025-09-16,合同会社ＮｅｏＶｅｒｓｅ,,合同会社,兵庫県,神戸市中央区,磯辺通１丁目１番１８号カサベラ国際プラザビル,,28,110,6510084,,,,,,,2025-09-16,1,,,,,ネオヴァース,0
157,1150003003703,新規,0,2025-09-16,2025-09-16,合同会社ＳＯＲＡ,,合同会社,奈良県,吉野郡下北山村,大字下池原２９０番地,,29,450,6393806,,,,,,,2025-09-16,1,,,,,ソラ,0
158,1160001027050,新規,0,2025-09-16,2025-09-16,株式会社ＲＩＳＥ,,株式会社,滋賀県,守山市,水保町１１８９番地９,,25,207,5240102,,,,,,,2025-09-16,1,,,,,ライズ,0
159,1160003003603,新規,0,2025-09-16,2025-09-16,合同会社ＲｏｕｎＤ,,合同会社,滋賀県,大津市,弥生町１０番８号,,25,201,5200115,,,,,,,2025-09-16,1,,,,,ラウンド,0
161,1180001168561,新規,0,2025-09-16,2025-09-16,ＧＴＣａｒｅ株式会社,,株式会社,愛知県,名古屋市中区,錦３丁目１４－２５アサヒビル３階,,23,106,4600003,,,,,,,2025-09-16,1,,,,,ジーティーケア,0
162,1180001168660,新規,0,2025-09-16,2025-09-16,株式会社貝沼ホールディングス,,株式会社,愛知県,名古屋市中村区,名駅４丁目１８番１０号,,23,105,4500002,,,,,,,2025-09-16,1,,,,,カイヌマホールディングス,0
164,1180005021213,新規,0,2025-09-16,2025-09-16,医療法人宮永会,,その他の設立登記法人,愛知県,名古屋市北区,川中町１１番８号,,23,103,4620022,,,,,,,2025-09-16,1,,,,,キュウエイカイ,0
165,1180301040197,新規,0,2025-09-16,2025-09-16,株式会社エージェント,,株式会社,愛知県,安城市,三河安城町２丁目７番地２,,23,212,4460056,,,,,,,2025-09-16,1,,,,,エージェント,0
166,1180305009726,新規,0,2025-09-16,2025-09-16,ＮＰＯ法人みんなのいばしょ幸田,,その他の設立登記法人,愛知県,額田郡幸田町,大字高力字熊谷６５番地,,23,501,4440111,,,,,,,2025-09-16,1,,,,,ミンナノイバショコウタ,0
169,1190001032535,新規,0,2025-09-16,2025-09-16,株式会社扇庵ホールディングス,,株式会社,三重県,松阪市,猟師町３４７番地８０,,24,204,5150802,,,,,,,2025-09-16,1,,,,,オウギアンホールディングス,0
171,1200003007038,新規,0,2025-09-16,2025-09-16,合同会社はじまり,,合同会社,岐阜県,各務原市,那加桐野町７丁目４３番地２,,21,213,5040008,,,,,,,2025-09-16,1,,,,,ハジマリ,0
172,1210003001956,新規,0,2025-09-16,2025-09-16,合同会社Ｓｎｏｗｄｒｏｐ,,合同会社,福井県,福井市,灯明寺２丁目１４１２番地,,18,201,9100063,,,,,,,2025-09-16,1,,,,,スノウドロップ,0
173,1230001021079,新規,0,2025-09-16,2025-09-16,株式会社ＳＡＢＩ,,株式会社,富山県,富山市,五福末広町８３４‐４１コットンプラント１Ｆ,,16,201,9300887,,,,,,,2025-09-16,1,,,,,サビ,0
174,1230003002498,新規,0,2025-09-16,2025-09-16,ＶＩＥＴＮＡＭ　ＱＵＡＮ合同会社,,合同会社,富山県,富山市,石坂新２７番地２サクラハウス桜谷２号棟２０２号,,16,201,9300891,,,,,,,2025-09-16,1,,,,,ベトナムクアン,0
178,1250001021333,新規,0,2025-09-16,2025-09-16,山本ソーイング株式会社,,株式会社,山口県,山口市,徳地堀２１１８番地,,35,203,7470231,,,,,,,2025-09-16,1,,,,,ヤマモトソーイング,0
180,1260003005341,新規,0,2025-09-16,2025-09-16,合同会社ＲＯＹＡＬ　ＨＡＷＡＩＩＡＮ　ＪＡＰＡＮ,,合同会社,岡山県,岡山市北区,本町１－１１（１階）,,33,101,7000901,,,,,,,2025-09-16,1,,,,,ロイヤルハワイアンジャパン,0
185,1290001111329,新規,0,2025-09-16,2025-09-16,のるとく株式会社,,株式会社,福岡県,福岡市東区,香椎照葉６丁目２番５２－３４０６号,,40,131,8130017,,,,,,,2025-09-16,1,,,,,ノルトク,0
186,1290001111337,新規,0,2025-09-16,2025-09-16,賀茂エステート株式会社,,株式会社,福岡県,福岡市早良区,賀茂４丁目６番２２－１号,,40,137,8140164,,,,,,,2025-09-16,1,,,,,カモエステート,0
187,1290001111345,新規,0,2025-09-16,2025-09-16,ＦＡＮＣＹ　ＩＤＥＡ株式会社,,株式会社,福岡県,福岡市東区,香住ヶ丘２丁目８番２号１０２－６号室,,40,131,8130003,,,,,,,2025-09-16,1,,,,,ファンシーアイディア,0
188,1290001111510,新規,0,2025-09-16,2025-09-16,株式会社ＲＯＡ,,株式会社,福岡県,福津市,西福間５丁目２４番２５号,,40,224,8113219,,,,,,,2025-09-16,1,,,,,ロア,0
192,1320001021334,新規,0,2025-09-16,2025-09-16,ＨＮＸ　Ｊａｐａｎ株式会社,,株式会社,大分県,大分市,三佐３丁目１２番２４号,,44,201,8700108,,,,,,,2025-09-16,1,,,,,エイチエヌエックスジャパン,0
194,1320003004758,新規,0,2025-09-16,2025-09-16,合同会社ＦＵＫＩＤＡＳＨＩ,,合同会社,大分県,臼杵市,大字臼杵６５２番地陶山ビル１階,,44,206,8750041,,,,,,,2025-09-16,1,,,,,フキダシ,0
195,1330001033592,新規,0,2025-09-16,2025-09-16,泰信商事株式会社,,株式会社,熊本県,宇城市,松橋町松橋８４０－６,,43,213,8690502,,,,,,,2025-09-16,1,,,,,タイシンショウジ,0
199,1350003005027,新規,0,2025-09-16,2025-09-16,合同会社Ｓｅｃｏｎｄ　Ｗａｖｅ,,合同会社,宮崎県,宮崎市,月見ケ丘５丁目４０番１１号,,45,201,8800926,,,,,,,2025-09-16,1,,,,,セカンドウェーブ,0
200,1360001035776,新規,0,2025-09-16,2025-09-16,株式会社ＹＫＢエンタープライズ,,株式会社,沖縄県,国頭郡金武町,字屋嘉２３２番地,,47,314,9041203,,,,,,,2025-09-16,1,,,,,ワイケイビーエンタープライズ,0
206,1370001053059,新規,0,2025-09-16,2025-09-16,株式会社ＡＭ,,株式会社,宮城県,名取市,箱塚一丁目４番１９号,00140659,04,207,9811200,,,,,,,2025-09-16,1,,,,,エーエム,0
209,1380001035576,新規,0,2025-09-16,2025-09-16,株式会社だるまランド,,株式会社,福島県,白河市,横町３０,,07,205,9610907,,,,,,,2025-09-16,1,,,,,,0
212,1420001019260,新規,0,2025-09-16,2025-09-16,株式会社ディーパレッジ,,株式会社,青森県,平川市,南田中村内８４番地２,,02,210,0360203,,,,,,,2025-09-16,1,,,,,ディーパレッジ,0
214,1430001095193,新規,0,2025-09-16,2025-09-16,株式会社ｆｌｏｌ,,株式会社,北海道,札幌市中央区,南一条西７丁目１番地１ビルヂングフクダ５階,,01,101,0600061,,,,,,,2025-09-16,1,,,,,フロル,0
215,1430001095202,新規,0,2025-09-16,2025-09-16,株式会社サントスプライム,,株式会社,北海道,札幌市厚別区,厚別中央三条４丁目５番地,,01,108,0040053,,,,,,,2025-09-16,1,,,,,サントスプライム,0
216,1430001095235,新規,0,2025-09-16,2025-09-16,Ａｌｔｒｉｓｅ株式会社,,株式会社,北海道,札幌市東区,伏古二条３丁目２番１９号,,01,103,0070862,,,,,,,2025-09-16,1,,,,,オルトライズ,0
219,1430003018086,新規,0,2025-09-16,2025-09-16,合同会社ユキノモリ,,合同会社,北海道,札幌市東区,北二十三条東１５丁目３番８号,,01,103,0650023,,,,,,,2025-09-16,1,,,,,ユキノモリ,0
220,1450003002716,新規,0,2025-09-16,2025-09-16,旭合同会社,,合同会社,北海道,旭川市,南七条通２６丁目５７５番地,,01,204,0788337,,,,,,,2025-09-16,1,,,,,アサヒ,0
226,1700150131928,新規,0,2025-09-16,2025-09-16,ＬＳ　Ｍａｒｉｎｅ　Ｓｏｌｕｔｉｏｎ　Ｃｏ．，　Ｌｔｄ．,,外国会社等,,,,,,,,１８４，Ｊｕｎｇａｎｇ－ｄａｅｒｏ，Ｄｏｎｇ－ｇｕ，Ｂｕｓａｎ，Ｒｅｐｕｂｌｉｃ　ｏｆ　Ｋｏｒｅａ,,,,,,2025-09-16,1,,,,,エルエスマリンソリユーシヨンシーオーエルテイーデイー,0
243,2010001258469,新規,0,2025-09-16,2025-09-16,Ｒｉｖｅｒ株式会社,,株式会社,東京都,千代田区,神田多町２丁目４－１６傘長ビル３Ｆ,,13,101,1010046,,,,,,,2025-09-16,1,,,,,リバー,0
246,2010003048703,新規,0,2025-09-16,2025-09-16,ＬＰインベストメンツ２号合同会社,,合同会社,東京都,中央区,銀座１丁目２４－３ＢｉｚＦｅｅｌＧＩＮＺＡＰＡＲＫＳＩＤＥ４Ｆ,,13,102,1040061,,,,,,,2025-09-16,1,,,,,エルピーインベストメンツニゴウ,0
249,2010103002650,新規,0,2025-09-16,2025-09-16,合同会社吉界ＡＲＴ　ＶＯＹＡＧＥ,,合同会社,東京都,八王子市,鑓水２丁目９９－６０,,13,201,1920375,,,,,,,2025-09-16,1,,,,,キチカイアートヴォヤージュ,0
259,2010401192805,新規,0,2025-09-16,2025-09-16,株式会社Ｐａｉｎ,,株式会社,東京都,港区,六本木７丁目１２－３パワーハウスビル六本木５Ｆ－Ｂ,,13,103,1060032,,,,,,,2025-09-16,1,,,,,パン,0
260,2010401192912,新規,0,2025-09-16,2025-09-16,株式会社ダツスカ,,株式会社,東京都,港区,北青山１丁目３番１号アールキューブ青山３階,,13,103,1070061,,,,,,,2025-09-16,1,,,,,ダツスカ,0
261,2010401192978,新規,0,2025-09-16,2025-09-16,株式会社キャリアビューティ,,株式会社,東京都,港区,麻布十番３丁目８番６－１００３号,,13,103,1060045,,,,,,,2025-09-16,1,,,,,キャリアビューティ,0
262,2010401193084,新規,0,2025-09-16,2025-09-16,株式会社ヤヌシテクノロジーズ,,株式会社,東京都,港区,南青山１丁目１番１号新青山ビル東館７Ｆ,,13,103,1070062,,,,,,,2025-09-16,1,,,,,ヤヌシテクノロジーズ,0
263,2010401193118,新規,0,2025-09-16,2025-09-16,株式会社Ｄ２ＮＩＰ,,株式会社,東京都,港区,虎ノ門１丁目１７番１号虎ノ門ヒルズビジネスタワー１５階,,13,103,1050001,,,,,,,2025-09-16,1,,,,,ディーツーエヌアイピー,0
266,2010405024681,新規,0,2025-09-16,2025-09-16,税理士法人ＳＯＬＡＲＩＳ,,その他の設立登記法人,東京都,港区,三田４丁目９番２号,,13,103,1080073,,,,,,,2025-09-16,1,,,,,ソラリス,0
269,2010505003643,新規,0,2025-09-16,2025-09-16,一般社団法人ケア・ダイバーシティ・ラボ,,その他の設立登記法人,東京都,台東区,台東１丁目１４番地１０号,,13,106,1100016,,,,,,,2025-09-16,1,,,,,ケアダイバーシティラボ,0
271,2010603011795,新規,0,2025-09-16,2025-09-16,ルナイースト合同会社,,合同会社,東京都,江東区,有明２丁目１番１－１４０１号,,13,108,1350063,,,,,,,2025-09-16,1,,,,,ルナイースト,0
274,2010801036603,新規,0,2025-09-16,2025-09-16,株式会社柳澤製作所,,株式会社,東京都,大田区,本羽田３丁目１４番１６号,,13,111,1440044,,,,,,,2025-09-16,1,,,,,ヤナギサワセイサクショ,0
275,2011001171983,新規,0,2025-09-16,2025-09-16,株式会社サワリ,,株式会社,東京都,渋谷区,円山町５番３号ＭＩＥＵＸ渋谷ビル８階,,13,113,1500044,,,,,,,2025-09-16,1,,,,,サワリ,0
276,2011001172288,新規,0,2025-09-16,2025-09-16,株式会社Ｓｕｉ　ｈａｉｒ　ｍａｋｅ,,株式会社,東京都,渋谷区,神宮前４丁目１番２０号フォレストビル３階,,13,113,1500001,,,,,,,2025-09-16,1,,,,,スイヘアーメイク,0
277,2011001172305,新規,0,2025-09-16,2025-09-16,株式会社Ｍｏｖａ,,株式会社,東京都,渋谷区,道玄坂１丁目１０番８号渋谷道玄坂東急ビル２Ｆ－Ｃ,,13,113,1500043,,,,,,,2025-09-16,1,,,,,モバ,0
278,2011003022359,新規,0,2025-09-16,2025-09-16,合同会社ミナリラボ,,合同会社,東京都,渋谷区,円山町５番３号ＭＩＥＵＸ渋谷ビル８階,,13,113,1500044,,,,,,,2025-09-16,1,,,,,ミナリラボ,0
281,2011101113068,新規,0,2025-09-16,2025-09-16,株式会社ＳｕＳｕＳｕ,,株式会社,東京都,新宿区,歌舞伎町１丁目１番７号,,13,104,1600021,,,,,,,2025-09-16,1,,,,,スースースー,0
282,2011101113101,新規,0,2025-09-16,2025-09-16,Ａｓｔｒａ　Ｐａｌａｃｅ株式会社,,株式会社,東京都,新宿区,百人町２丁目５－４土屋ビル２Ｆ・ＬｉｎｋＳｐａｃｅ＋Ｎ０５,,13,104,1690073,,,,,,,2025-09-16,1,,,,,アストラパレス,0
283,2011103016277,新規,0,2025-09-16,2025-09-16,合同会社先端在宅医療研究所,,合同会社,東京都,新宿区,西新宿３丁目３番１３号西新宿水間ビル２Ｆ,,13,104,1600023,,,,,,,2025-09-16,1,,,,,センタンザイタクイリョウケンキュウジョ,0
284,2011103016335,新規,0,2025-09-16,2025-09-16,ブルーインフラ２３号合同会社,,合同会社,東京都,新宿区,四谷２丁目９番地１５東京ユナイテッド綜合事務所内,,13,104,1600004,,,,,,,2025-09-16,1,,,,,ブルーインフラニジュウサンゴウ,0
285,2011105011573,新規,0,2025-09-16,2025-09-16,ブルーインフラホールディングス１９号一般社団法人,,その他の設立登記法人,東京都,新宿区,四谷２丁目９番地１５東京ユナイテッド綜合事務所内,,13,104,1600004,,,,,,,2025-09-16,1,,,,,ブルーインフラホールディングスジュウキュウゴウ,0
287,2011301030880,新規,0,2025-09-16,2025-09-16,株式会社ＴＳＵＳＨＩＭＡ　ＯＦＦＩＣＥ,,株式会社,東京都,杉並区,上高井戸２丁目４番９号,,13,115,1680074,,,,,,,2025-09-16,1,,,,,ツシマオフィス,0
288,2011301030889,新規,0,2025-09-16,2025-09-16,株式会社ｄｅｋａｌｂ,,株式会社,東京都,杉並区,堀ノ内１丁目９番５号スターハウス１Ｆ,,13,115,1660013,,,,,,,2025-09-16,1,,,,,ディカルブ,0
289,2011301030897,新規,0,2025-09-16,2025-09-16,株式会社カルレ,,株式会社,東京都,杉並区,松庵２丁目８番１０号横田荘３,,13,115,1670054,,,,,,,2025-09-16,1,,,,,カルレ,0
290,2011303005716,新規,0,2025-09-16,2025-09-16,合同会社幸村研究所,,合同会社,東京都,杉並区,井草３丁目２６番１８号,,13,115,1670021,,,,,,,2025-09-16,1,,,,,コウムラケンキュウジョ,0
294,2011501032537,新規,0,2025-09-16,2025-09-16,株式会社啓新,,株式会社,東京都,荒川区,東日暮里４丁目３６番１４号,,13,118,1160014,,,,,,,2025-09-16,1,,,,,ケイシン,0
295,2011501032561,新規,0,2025-09-16,2025-09-16,ネクソラコンサルティング株式会社,,株式会社,東京都,荒川区,東日暮里５丁目１３番５－１３０３号,,13,118,1160014,,,,,,,2025-09-16,1,,,,,ネクソラコンサルティング,0
297,2011503006679,新規,0,2025-09-16,2025-09-16,合同会社白水,,合同会社,東京都,荒川区,西尾久４丁目２４番９号エスカイア西尾久１０４－３号,,13,118,1160011,,,,,,,2025-09-16,1,,,,,ハクスイ,0
298,2011503006687,新規,0,2025-09-16,2025-09-16,合同会社ＧＯＬＤ‐Ｋａｔａｏｋａ,,合同会社,東京都,北区,赤羽１丁目３番６号詩音堂ビル２階２０１号室,,13,117,1150045,,,,,,,2025-09-16,1,,,,,ゴールドカタオカ,0
301,2011701028707,新規,0,2025-09-16,2025-09-16,瑞＿智創株式会社,00140655,株式会社,東京都,江戸川区,江戸川６丁目４０番１４－１０３号,,13,123,1340013,,,,,,,2025-09-16,1,,,,,ズイケンチソウ,0
303,2011801046724,新規,0,2025-09-16,2025-09-16,ＩＩ．ＭＩＲＡＩ株式会社,,株式会社,東京都,足立区,新田１丁目８－６－８１８号室,,13,121,1230865,,,,,,,2025-09-16,1,,,,,イイミライ,0
304,2011801046732,新規,0,2025-09-16,2025-09-16,株式会社トテミック,,株式会社,東京都,葛飾区,東金町３丁目１７番１０号ＫＢＳＣ－１４号室,,13,122,1250041,,,,,,,2025-09-16,1,,,,,トテミック,0
317,2013301054942,新規,0,2025-09-16,2025-09-16,株式会社ニューロエッジ,,株式会社,東京都,豊島区,東池袋１丁目３４番５号いちご東池袋ビル６階,,13,116,1700013,,,,,,,2025-09-16,1,,,,,ニューロエッジ,0
318,2013301054959,新規,0,2025-09-16,2025-09-16,株式会社プリマ・プラティカ,,株式会社,東京都,豊島区,高松２丁目３４番１４号,,13,116,1710042,,,,,,,2025-09-16,1,,,,,プリマプラティカ,0
322,2020001164781,新規,0,2025-09-16,2025-09-16,ｉ‐Ｂｒａｎｄｉｎｇ株式会社,,株式会社,神奈川県,横浜市神奈川区,金港町５番地１４クアドリフォリオ８階,,14,102,2210056,,,,,,,2025-09-16,1,,,,,アイブランディング,0
323,2020001164856,新規,0,2025-09-16,2025-09-16,株式会社ＪＯＵＲＮＥＹ　ＢＲＩＤＧＥ　ＪＡＰＡＮ,,株式会社,神奈川県,横浜市中区,桜木町１丁目１０１番地１クロスゲート７階,,14,104,2310062,,,,,,,2025-09-16,1,,,,,ジャーニーブリッジジャパン,0
326,2020003029396,新規,0,2025-09-16,2025-09-16,四取五入合同会社,,合同会社,神奈川県,横浜市中区,万代町１丁目２番地８福井ビル１階Ｂ,,14,104,2310031,,,,,,,2025-09-16,1,,,,,シシュゴニュウ,0
330,2021001086215,新規,0,2025-09-16,2025-09-16,株式会社ＨＡＲＵＳＩＧＮ,,株式会社,神奈川県,大和市,深見２２６０番地１５,,14,213,2420011,,,,,,,2025-09-16,1,,,,,ハルサイン,0
332,2021003016509,新規,0,2025-09-16,2025-09-16,サマサトレーディング合同会社,,合同会社,神奈川県,相模原市南区,南台２丁目７番２１号レジデンス南台３０２,,14,153,2520314,,,,,,,2025-09-16,1,,,,,サマサトレーディング,0
336,2030001168600,新規,0,2025-09-16,2025-09-16,株式会社ミライタガ,,株式会社,埼玉県,さいたま市南区,別所２丁目６番４号,,11,108,3360021,,,,,,,2025-09-16,1,,,,,ミライタガ,0
343,2040001140491,新規,0,2025-09-16,2025-09-16,株式会社田中建総,,株式会社,千葉県,市川市,南行徳４丁目９番６－２０９号,,12,203,2720138,,,,,,,2025-09-16,1,,,,,タナカケンソウ,0
347,2070003006085,新規,0,2025-09-16,2025-09-16,合同会社Ｏｒｄｏ　Ｆｏｏｄｓ,,合同会社,群馬県,伊勢崎市,赤堀鹿島町８２７番地３,,10,204,3792202,,,,,,,2025-09-16,1,,,,,オルドフーズ,0
352,2080101025770,新規,0,2025-09-16,2025-09-16,株式会社ＳｔａｒＲｏｕｎｄ,,株式会社,静岡県,駿東郡清水町,伏見５２２番地の２,,22,341,4110907,,,,,,,2025-09-16,1,,,,,スターラウンド,0
364,2120001279529,新規,0,2025-09-16,2025-09-16,北極星日淘株式会社,,株式会社,大阪府,大阪市港区,港晴３丁目７番１５号アワーハウス港晴３０３号室,,27,107,5520023,,,,,,,2025-09-16,1,,,,,ホッキョクセイニットウ,0
365,2120001279611,新規,0,2025-09-16,2025-09-16,株式会社創思,,株式会社,大阪府,大阪市西成区,天下茶屋北１丁目５番１１号２Ｆ７号室,,27,122,5570003,,,,,,,2025-09-16,1,,,,,ソウシ,0
366,2120001279636,新規,0,2025-09-16,2025-09-16,株式会社Ｇｏｏｄ　Ｓｔａｇｅ,,株式会社,大阪府,大阪市西区,立売堀１丁目９番３７－４０５号,,27,106,5500012,,,,,,,2025-09-16,1,,,,,グッドステージ,0
367,2120001279685,新規,0,2025-09-16,2025-09-16,株式会社桜,,株式会社,大阪府,枚方市,山之上５丁目４７番７号,,27,210,5730047,,,,,,,2025-09-16,1,,,,,,0
368,2120001279842,新規,0,2025-09-16,2025-09-16,山乗山飲食管理株式会社,,株式会社,大阪府,大阪市西区,立売堀４丁目３番１６号５１０室,,27,106,5500012,,,,,,,2025-09-16,1,,,,,サンジョウサンインショクカンリ,0
369,2120001279867,新規,0,2025-09-16,2025-09-16,星枢株式会社,,株式会社,大阪府,大阪市生野区,新今里３丁目４番１７号ＯＧビル３０６Ａ,,27,116,5440001,,,,,,,2025-09-16,1,,,,,セイスウ,0
371,2120003030534,新規,0,2025-09-16,2025-09-16,大信商事合同会社,,合同会社,大阪府,大阪市生野区,新今里４丁目８－２２,,27,116,5440001,,,,,,,2025-09-16,1,,,,,ダイシンショウジ,0
372,2120003030559,新規,0,2025-09-16,2025-09-16,ＭＩＴ　ＣＯＭＢＡＣＫ合同会社,,合同会社,大阪府,大阪市西成区,萩之茶屋２丁目６－４ニューかめや２７８号室,,27,122,5570004,,,,,,,2025-09-16,1,,,,,ミットコムバック,0
374,2120005025160,新規,0,2025-09-16,2025-09-16,特定非営利活動法人がもう身元保証協会,,その他の設立登記法人,大阪府,大阪市城東区,今福西３丁目２番２－２０７号,,27,118,5360004,,,,,,,2025-09-16,1,,,,,ガモウミモトホショウキョウカイ,0
376,2120101072404,新規,0,2025-09-16,2025-09-16,株式会社Ｔｏｋｕｉ　Ｄｅｓｉｇｎ,,株式会社,大阪府,松原市,北新町３丁目１７番１３号,,27,217,5800025,,,,,,,2025-09-16,1,,,,,トクイデザイン,0
377,2120101072437,新規,0,2025-09-16,2025-09-16,株式会社ＮＥＸＴＥＲＲＡ,,株式会社,大阪府,泉佐野市,南中樫井３６９番１号,,27,213,5980035,,,,,,,2025-09-16,1,,,,,ネクステラ,0
378,2120101072445,新規,0,2025-09-16,2025-09-16,株式会社ロクワン,,株式会社,大阪府,泉南郡岬町,望海坂１丁目３番６号,,27,366,5990304,,,,,,,2025-09-16,1,,,,,ロクワン,0
379,2120101072453,新規,0,2025-09-16,2025-09-16,株式会社サクシード,,株式会社,大阪府,堺市西区,上野芝向ヶ丘町３丁１６番１号,,27,144,5938303,,,,,,,2025-09-16,1,,,,,サクシード,0
381,2122001039623,新規,0,2025-09-16,2025-09-16,株式会社ティーアイメディカル,,株式会社,大阪府,八尾市,跡部本町１丁目３番６号,,27,212,5810064,,,,,,,2025-09-16,1,,,,,ティーアイメディカル,0
390,2130001080489,新規,0,2025-09-16,2025-09-16,アーキネット京都パル株式会社,,株式会社,京都府,京都市中京区,烏丸通蛸薬師南入る手洗水町６４７番地トキワビル４－Ｃ,,26,104,6040000,,,,,,,2025-09-16,1,,,,,アーキネットキョウトパル,0
391,2130001080514,新規,0,2025-09-16,2025-09-16,ミライノカギ株式会社,,株式会社,京都府,京都市伏見区,小栗栖中山田町８番地ラ・ポール１０２号,,26,109,6011463,,,,,,,2025-09-16,1,,,,,ミライノカギ,0
397,2140001140003,新規,0,2025-09-16,2025-09-16,株式会社Ｇｌｏｗｓ　Ｕｐ,,株式会社,兵庫県,神戸市東灘区,魚崎北町７丁目８番８号,,28,101,6580082,,,,,,,2025-09-16,1,,,,,グロウズアップ,0
398,2140001140044,新規,0,2025-09-16,2025-09-16,株式会社Ｇ・Ｃ,,株式会社,兵庫県,神戸市中央区,山本通２丁目３番５号,,28,110,6500003,,,,,,,2025-09-16,1,,,,,ジーシー,0
400,2140003022562,新規,0,2025-09-16,2025-09-16,Ｎ　ＭＡＲＴＳ合同会社,,合同会社,兵庫県,神戸市東灘区,御影本町１丁目１２番２０－２０１号室,,28,101,6580046,,,,,,,2025-09-16,1,,,,,エヌマーツ,0
401,2140003022579,新規,0,2025-09-16,2025-09-16,夏樹合同会社,,合同会社,兵庫県,神戸市兵庫区,中道通４丁目２－３３ハイツ中道１０３号室,,28,105,6520801,,,,,,,2025-09-16,1,,,,,ナツキ,0
408,2180001168619,新規,0,2025-09-16,2025-09-16,株式会社曽根建運,,株式会社,愛知県,津島市,唐臼町代官田９４番地,,23,208,4960026,,,,,,,2025-09-16,1,,,,,ソネケンウン,0
409,2180001168643,新規,0,2025-09-16,2025-09-16,Ｍ　ＩＢＲＡＨＩＭ　ＴＲＡＤＩＮＧ株式会社,,株式会社,愛知県,名古屋市港区,宝神３丁目３０５番地ガーデンヒルズ宝神４０６号,,23,111,4550832,,,,,,,2025-09-16,1,,,,,エムイブラヒムトレーディング,0
410,2180001168651,新規,0,2025-09-16,2025-09-16,ＪＡＮ・ＣＯＲＰＯＲＡＴＩＯＮ株式会社,,株式会社,愛知県,稲沢市,平和町下起東１０番地,,23,220,4901323,,,,,,,2025-09-16,1,,,,,ジャンコーポレーション,0
421,2210001020313,新規,0,2025-09-16,2025-09-16,株式会社辻清建設,,株式会社,福井県,敦賀市,山９１号３番地の３２,,18,202,9140134,,,,,,,2025-09-16,1,,,,,ツジセイケンセツ,0
425,2230003002489,新規,0,2025-09-16,2025-09-16,Ｋ　Ｓｅｌｅｃｔ合同会社,,合同会社,富山県,魚津市,六郎丸９１０番地５,,16,204,9370042,,,,,,,2025-09-16,1,,,,,ケーセレクト,0
431,2260001040554,新規,0,2025-09-16,2025-09-16,株式会社ツイーク,,株式会社,岡山県,倉敷市,児島味野２丁目２－４７,,33,202,7110913,,,,,,,2025-09-16,1,,,,,ツイーク,0
434,2260005011519,新規,0,2025-09-16,2025-09-16,一般社団法人共創の環,,その他の設立登記法人,岡山県,岡山市北区,大供３丁目２番１２号,,33,101,7000913,,,,,,,2025-09-16,1,,,,,キョウソウノワ,0
442,2290001111328,新規,0,2025-09-16,2025-09-16,ＬＥＧＥＮＤ株式会社,,株式会社,福岡県,福岡市東区,香椎駅前１丁目９－６－４Ｆ,,40,131,8130013,,,,,,,2025-09-16,1,,,,,レジェンド,0
443,2290001111336,新規,0,2025-09-16,2025-09-16,株式会社セレンリヤン,,株式会社,福岡県,福岡市東区,和白丘１丁目２２－８浜崎産業ビル１０８,,40,131,8110213,,,,,,,2025-09-16,1,,,,,セレンリヤン,0
444,2290001111344,新規,0,2025-09-16,2025-09-16,株式会社トモリビ,,株式会社,福岡県,福岡市中央区,清川２丁目６－２０－１１０１,,40,133,8100005,,,,,,,2025-09-16,1,,,,,トモリビ,0
448,2290003017358,新規,0,2025-09-16,2025-09-16,合同会社エアクリ屋,,合同会社,福岡県,筑後市,大字溝口９０５番地４,,40,211,8330012,,,,,,,2025-09-16,1,,,,,エアクリヤ,0
449,2290003017457,新規,0,2025-09-16,2025-09-16,Ｄｅｃｅｎｔ　Ｃａｐｉｔａｌ合同会社,,合同会社,福岡県,福岡市博多区,博多駅前４丁目３１番１－８０１号,,40,132,8120011,,,,,,,2025-09-16,1,,,,,ディセントキャピタル,0
451,2320001021341,新規,0,2025-09-16,2025-09-16,ＣｏＣｏＤｅ株式会社,,株式会社,大分県,大分市,碩田町３丁目１－３５Ｍｉｔｓｕｋｉｎ．ｂｌｄｇ２Ｆ,,44,201,8700048,,,,,,,2025-09-16,1,,,,,ココデ,0
453,2340001027642,新規,0,2025-09-16,2025-09-16,株式会社ＭＹ　ＢＡＳＥ,,株式会社,鹿児島県,薩摩川内市,高城町１０４６番地２,,46,215,8950211,,,,,,,2025-09-16,1,,,,,エムワイベース,0
461,2360003015214,新規,0,2025-09-16,2025-09-16,合同会社リベルタ,,合同会社,沖縄県,那覇市,牧志２丁目１７－３０パークナード那覇美栄橋５０３号,,47,201,9000013,,,,,,,2025-09-16,1,,,,,リベルタ,0
469,2430001095135,新規,0,2025-09-16,2025-09-16,株式会社オールインルスツ,,株式会社,北海道,虻田郡喜茂別町,字相川８４番地の１８,,01,398,0440215,,,,,,,2025-09-16,1,,,,,オールインルスツ,0
470,2430003018077,新規,0,2025-09-16,2025-09-16,合同会社ハートコール,,合同会社,北海道,石狩市,花川南五条４丁目２０３－１０１,,01,235,0613205,,,,,,,2025-09-16,1,,,,,ハートコール,0
490,3010001258492,新規,0,2025-09-16,2025-09-16,株式会社Ｅ,,株式会社,東京都,中央区,銀座１丁目１２番４号Ｎ＆ＥＢＬＤ．６Ｆ,,13,102,1040061,,,,,,,2025-09-16,1,,,,,イー,0
502,3010401192952,新規,0,2025-09-16,2025-09-16,株式会社ＣＡＬＩＢＥＲ,,株式会社,東京都,港区,北青山１丁目３番１号アールキューブ青山３階,,13,103,1070061,,,,,,,2025-09-16,1,,,,,キャリバー,0
503,3010401192977,新規,0,2025-09-16,2025-09-16,株式会社１９７９,,株式会社,東京都,港区,西麻布１丁目２番１３号デュオ・スカーラ西麻布タワーＣＥＮＴＲＡＬ２０１号室,,13,103,1060031,,,,,,,2025-09-16,1,,,,,イチキュウナナキュウ,0
504,3010401193034,新規,0,2025-09-16,2025-09-16,株式会社ＴＨＥ　Ａｍａｎ,,株式会社,東京都,港区,虎ノ門１丁目２１番１０号,,13,103,1050001,,,,,,,2025-09-16,1,,,,,ジアマン,0
505,3010401193050,新規,0,2025-09-16,2025-09-16,華泰証券日本準備株式会社,,株式会社,東京都,港区,赤坂２丁目２３番１号アークヒルズ・フロントタワーＩｎＣｏｎｔｒｏｌ内,,13,103,1070052,,,,,,,2025-09-16,1,,,,,ファタイショウケンニホンジュンビ,0
506,3010401193166,新規,0,2025-09-16,2025-09-16,株式会社緑パシフィック,,株式会社,東京都,港区,赤坂６丁目５番３６号、センチュリー赤坂４０１,,13,103,1070052,,,,,,,2025-09-16,1,,,,,ミドリパシフィック,0
507,3010403036018,新規,0,2025-09-16,2025-09-16,合同会社オフィス・エヌ,,合同会社,東京都,港区,白金６丁目１２番２５－３０４号,,13,103,1080072,,,,,,,2025-09-16,1,,,,,オフィスエヌ,0
508,3010403036026,新規,0,2025-09-16,2025-09-16,ＦＥＬＩＣＥ合同会社,,合同会社,東京都,港区,三田１丁目４番６０－１００５号,,13,103,1080073,,,,,,,2025-09-16,1,,,,,フェリーチェ,0
516,3010501054730,新規,0,2025-09-16,2025-09-16,Ｍｅｏｗｓｔｅｒ　Ｉｎｎｏｖａｔｉｏｎｓ株式会社,,株式会社,東京都,台東区,浅草５丁目３番１号,,13,106,1110032,,,,,,,2025-09-16,1,,,,,ミャウスターイノベーション,0
520,3010505003642,新規,0,2025-09-16,2025-09-16,一般社団法人マルチハザードシェルター推進協議会,,その他の設立登記法人,東京都,台東区,小島２丁目１６番４号三上ビル２階,,13,106,1110056,,,,,,,2025-09-16,1,,,,,マルチハザードシェルタースイシンキョウギカイ,0
522,3010601067979,新規,0,2025-09-16,2025-09-16,株式会社三友商事,,株式会社,東京都,墨田区,石原２丁目８－１４,,13,107,1300011,,,,,,,2025-09-16,1,,,,,サンユウショウジ,0
525,3010701048301,新規,0,2025-09-16,2025-09-16,株式会社ＳＵＧ,,株式会社,東京都,品川区,上大崎３丁目１１番１２号,,13,109,1410021,,,,,,,2025-09-16,1,,,,,エスユージー,0
529,3011001171958,新規,0,2025-09-16,2025-09-16,株式会社ハピネシア,,株式会社,東京都,渋谷区,神宮前２丁目２８番９号エルオフィス神宮前Ｂ１０２,,13,113,1500001,,,,,,,2025-09-16,1,,,,,ハピネシア,0
530,3011001172056,新規,0,2025-09-16,2025-09-16,株式会社Ｎｅｘｉｏｒａ,,株式会社,東京都,渋谷区,広尾１丁目２番地１号ヒカリビル４階,,13,113,1500012,,,,,,,2025-09-16,1,,,,,ネクシオラ,0
531,3011001172205,新規,0,2025-09-16,2025-09-16,株式会社リユースリンクス,,株式会社,東京都,渋谷区,神南１丁目１１番４号ＦＰＧリンクス神南５階,,13,113,1500041,,,,,,,2025-09-16,1,,,,,リユースリンクス,0
533,3011003022382,新規,0,2025-09-16,2025-09-16,Ｆａｍｉｒｕ合同会社,,合同会社,東京都,渋谷区,道玄坂１丁目１０番８号渋谷道玄坂東急ビル２Ｆ－Ｃ,,13,113,1500043,,,,,,,2025-09-16,1,,,,,ファミル,0
534,3011003022399,新規,0,2025-09-16,2025-09-16,合同会社ＴｒｕｓｔＬｉｎｋＰａｒｔｎｅｒｓ,,合同会社,東京都,渋谷区,神宮前６丁目２３番４号桑野ビル２階,,13,113,1500001,,,,,,,2025-09-16,1,,,,,トラストリンクパートナーズ,0
535,3011003022580,新規,0,2025-09-16,2025-09-16,ｋａｌｂｉ合同会社,,合同会社,東京都,渋谷区,渋谷２丁目１９―１５宮益坂ビルディング６０９,,13,113,1500002,,,,,,,2025-09-16,1,,,,,カルビ,0
542,3011101113091,新規,0,2025-09-16,2025-09-16,株式会社アートランド,,株式会社,東京都,新宿区,西新宿３丁目３番１３号西新宿水間ビル６階,,13,104,1600023,,,,,,,2025-09-16,1,,,,,アートランド,0
544,3011103016334,新規,0,2025-09-16,2025-09-16,ブルーインフラ２２号合同会社,,合同会社,東京都,新宿区,四谷２丁目９番地１５東京ユナイテッド綜合事務所内,,13,104,1600004,,,,,,,2025-09-16,1,,,,,ブルーインフラニジュウニゴウ,0
545,3011103016342,新規,0,2025-09-16,2025-09-16,合同会社ｍ‐ｓｔｙｌｅ,,合同会社,東京都,新宿区,大京町１９番地ルート四谷三丁目３２１,,13,104,1600015,,,,,,,2025-09-16,1,,,,,エムスタイル,0
555,3011301030871,新規,0,2025-09-16,2025-09-16,株式会社ｐｏｒａｌｉｚｅｄ,,株式会社,東京都,杉並区,西荻北５丁目２４－８フェリース西荻北２０２,,13,115,1670042,,,,,,,2025-09-16,1,,,,,ポラライズ,0
556,3011301030888,新規,0,2025-09-16,2025-09-16,株式会社ＢＯＬＬＹＱＵＥ,,株式会社,東京都,杉並区,荻窪５丁目８番３－７０１号ヴィークコート荻窪,,13,115,1670051,,,,,,,2025-09-16,1,,,,,ボリーク,0
558,3011303005715,新規,0,2025-09-16,2025-09-16,可優合同会社,,合同会社,東京都,杉並区,梅里２丁目２５番１３号高円寺プラザ２１１号－Ａ室,,13,115,1660011,,,,,,,2025-09-16,1,,,,,,0
571,3011701028706,新規,0,2025-09-16,2025-09-16,株式会社Ｂａｂｅｌｉｓ　Ｅｄｕｃａｔｉｏｎ,,株式会社,東京都,江戸川区,江戸川６丁目４０番１４－２１７号,,13,123,1340013,,,,,,,2025-09-16,1,,,,,バベリスエデュケーション,0
572,3011801046731,新規,0,2025-09-16,2025-09-16,株式会社オフィスホンマ,,株式会社,東京都,足立区,入谷７丁目１５番２号,,13,121,1210836,,,,,,,2025-09-16,1,,,,,オフィスホンマ,0
573,3011801046748,新規,0,2025-09-16,2025-09-16,ケビン株式会社,,株式会社,東京都,葛飾区,水元２丁目１０番７号エリービル１２０３号室,,13,122,1250032,,,,,,,2025-09-16,1,,,,,ケビン,0
578,3012401043581,新規,0,2025-09-16,2025-09-16,株式会社エストゥーイノバンス,,株式会社,東京都,多摩市,鶴牧１丁目３番１０号４０３号室,,13,224,2060034,,,,,,,2025-09-16,1,,,,,エストゥーイノバンス,0
582,3013101009798,新規,0,2025-09-16,2025-09-16,潤和株式会社,,株式会社,東京都,青梅市,東青梅１丁目４－６井村高木ビル４０１号室,,13,205,1980042,,,,,,,2025-09-16,1,,,,,ジュンワ,0
590,3020001164863,新規,0,2025-09-16,2025-09-16,Ｂ．Ｂａｃｋ株式会社,,株式会社,神奈川県,横浜市西区,南幸２丁目１１番１１号グランツ南幸２Ｆ,,14,103,2200005,,,,,,,2025-09-16,1,,,,,ビーバック,0
592,3020003029338,新規,0,2025-09-16,2025-09-16,合同会社ＡＮＤ,,合同会社,神奈川県,横浜市青葉区,美しが丘西２丁目４３－１５２,,14,117,2250001,,,,,,,2025-09-16,1,,,,,アンド,0
593,3020003029362,新規,0,2025-09-16,2025-09-16,安益盛合同会社,,合同会社,神奈川県,横浜市南区,高根町１丁目４－４０ＫＹＳオフイス２ＦＡ０１０,,14,105,2320022,,,,,,,2025-09-16,1,,,,,アンエキセイ,0
594,3020003029387,新規,0,2025-09-16,2025-09-16,合同会社Ｆアセット,,合同会社,神奈川県,横浜市栄区,笠間３丁目２４番５９号,,14,115,2470006,,,,,,,2025-09-16,1,,,,,エフアセット,0
598,3021001086230,新規,0,2025-09-16,2025-09-16,株式会社Ａｓｐｉｒａ,,株式会社,神奈川県,相模原市中央区,淵野辺本町４丁目３３－１０,,14,152,2520202,,,,,,,2025-09-16,1,,,,,アスピラ,0
601,3030001168335,新規,0,2025-09-16,2025-09-16,株式会社ＴＲＩＮＨ　ＶＩＮＨ,,株式会社,埼玉県,久喜市,青葉４丁目２５番地６,,11,232,3460013,,,,,,,2025-09-16,1,,,,,チンビイン,0
609,3040001140441,新規,0,2025-09-16,2025-09-16,株式会社ＩＳＳ,,株式会社,千葉県,柏市,手賀の杜３丁目２４番地１,,12,217,2701447,,,,,,,2025-09-16,1,,,,,アイエスエス,0
610,3040001140474,新規,0,2025-09-16,2025-09-16,ＡＡＫＡ株式会社,,株式会社,千葉県,市川市,大野町３丁目１５１番地１１,,12,203,2720805,,,,,,,2025-09-16,1,,,,,アカ,0
611,3040001140482,新規,0,2025-09-16,2025-09-16,株式会社Ａｆｆｅｃｔｉｏｎ,,株式会社,千葉県,船橋市,夏見３丁目１２番１０号メゾンタチバナ１０３号,,12,204,2730865,,,,,,,2025-09-16,1,,,,,アフェクション,0
612,3040001140490,新規,0,2025-09-16,2025-09-16,株式会社アルマ,,株式会社,千葉県,千葉市中央区,生実町９７３番地１３,,12,101,2600813,,,,,,,2025-09-16,1,,,,,アルマ,0
615,3040003028395,新規,0,2025-09-16,2025-09-16,合同会社グローナ,,合同会社,千葉県,習志野市,香澄３丁目７番１４号,,12,216,2750022,,,,,,,2025-09-16,1,,,,,グローナ,0
619,3050001057288,新規,0,2025-09-16,2025-09-16,株式会社Ｒａｉｓｅ　ＵＰ,,株式会社,茨城県,下妻市,村岡乙１６６番地８４,,08,210,3040824,,,,,,,2025-09-16,1,,,,,レイズアップ,0
621,3050003009535,新規,0,2025-09-16,2025-09-16,合同会社フォルトゥーナ,,合同会社,茨城県,土浦市,霞ケ岡町１９番１１号,,08,203,3000825,,,,,,,2025-09-16,1,,,,,フォルトゥーナ,0
625,3060001038568,新規,0,2025-09-16,2025-09-16,株式会社エルアイシー,,株式会社,栃木県,宇都宮市,吉野２丁目１番５号,,09,201,3200838,,,,,,,2025-09-16,1,,,,,エルアイシー,0
629,3060003005756,新規,0,2025-09-16,2025-09-16,合同会社ゴンダルオート,,合同会社,栃木県,小山市,本郷町２丁目９番地の５,,09,208,3230026,,,,,,,2025-09-16,1,,,,,ゴンダルオート,0
642,3100001038951,新規,0,2025-09-16,2025-09-16,株式会社ビリーフ,,株式会社,長野県,上田市,材木町１丁目６番１３号ＳａｉｎＫ１１０号,,20,203,3860014,,,,,,,2025-09-16,1,,,,,ビリーフ,0
643,3110001039569,新規,0,2025-09-16,2025-09-16,株式会社エクシードプロ,,株式会社,新潟県,新潟市西区,内野町４８番地１コーポ富士２０１,,15,107,9502112,,,,,,,2025-09-16,1,,,,,エクシードプロ,0
654,3120001279569,新規,0,2025-09-16,2025-09-16,株式会社鉄洗,,株式会社,大阪府,大阪市西淀川区,姫島２丁目１６－１２,,27,113,5550033,,,,,,,2025-09-16,1,,,,,テッセン,0
655,3120001279585,新規,0,2025-09-16,2025-09-16,ＦＴＳ株式会社,,株式会社,大阪府,大阪市西淀川区,出来島３丁目１－１８－１Ｆ,,27,113,5550031,,,,,,,2025-09-16,1,,,,,エフティエス,0
656,3120001279635,新規,0,2025-09-16,2025-09-16,開拓者株式会社,,株式会社,大阪府,大阪市住吉区,東粉浜１丁目１２番１２ー２０４号,,27,120,5580051,,,,,,,2025-09-16,1,,,,,カイタクシャ,0
657,3120001279643,新規,0,2025-09-16,2025-09-16,株式会社Ｒ．ｉ,,株式会社,大阪府,大阪市大正区,小林東２丁目１番３－１０５号,,27,108,5510011,,,,,,,2025-09-16,1,,,,,アールアイ,0
658,3120001279651,新規,0,2025-09-16,2025-09-16,東耀商貿株式会社,,株式会社,大阪府,大阪市都島区,善源寺町２丁目２番３－９１４号,,27,102,5340015,,,,,,,2025-09-16,1,,,,,トウヨウショウボウ,0
659,3120001279841,新規,0,2025-09-16,2025-09-16,株式会社Ｏｏｃｈａｎ,,株式会社,大阪府,大阪市浪速区,敷津西２丁目２番８－４０４号,,27,111,5560015,,,,,,,2025-09-16,1,,,,,ウーチャン,0
662,3120003030533,新規,0,2025-09-16,2025-09-16,朝日商事合同会社,,合同会社,大阪府,大阪市西区,新町３丁目１０番２１号,,27,106,5500013,,,,,,,2025-09-16,1,,,,,アサヒショウジ,0
663,3120003030574,新規,0,2025-09-16,2025-09-16,合同会社Ａｒｋ,,合同会社,大阪府,大阪市淀川区,西中島７丁目１－３チサンマンション第８新大阪４０９号室,,27,123,5320011,,,,,,,2025-09-16,1,,,,,アルク,0
665,3120101072428,新規,0,2025-09-16,2025-09-16,株式会社井口不動産,,株式会社,大阪府,堺市堺区,少林寺町東２丁１番２４－２号,,27,141,5900963,,,,,,,2025-09-16,1,,,,,イグチフドウサン,0
666,3120101072436,新規,0,2025-09-16,2025-09-16,ＺＥＮ株式会社,,株式会社,大阪府,和泉市,唐国町１丁目７－４８,,27,219,5941151,,,,,,,2025-09-16,1,,,,,,0
668,3120103006706,新規,0,2025-09-16,2025-09-16,合同会社エアフレーム,,合同会社,大阪府,羽曳野市,高鷲６丁目１４番１４号,,27,222,5830882,,,,,,,2025-09-16,1,,,,,エアフレーム,0
674,3122001039622,新規,0,2025-09-16,2025-09-16,フィックスパーク株式会社,,株式会社,大阪府,東大阪市,大蓮南５丁目６－２４,,27,227,5770825,,,,,,,2025-09-16,1,,,,,フィックスパーク,0
686,3140001140027,新規,0,2025-09-16,2025-09-16,サンライズ株式会社,,株式会社,兵庫県,川西市,下加茂１丁目５番１６号,,28,217,6660022,,,,,,,2025-09-16,1,,,,,サンライズ,0
687,3140001140043,新規,0,2025-09-16,2025-09-16,株式会社ＯＫベース,,株式会社,兵庫県,川西市,笹部１丁目３番地１４号,,28,217,6660104,,,,,,,2025-09-16,1,,,,,オーケーベース,0
691,3140003022520,新規,0,2025-09-16,2025-09-16,ＬＶ合同会社,,合同会社,兵庫県,小野市,粟生町１７２１,,28,218,6751358,,,,,,,2025-09-16,1,,,,,エルヴイ,0
692,3140003022586,新規,0,2025-09-16,2025-09-16,合同会社ＭＩＣＨＩ,,合同会社,兵庫県,神戸市北区,鹿の子台北町５丁目６番８号,,28,109,6511513,,,,,,,2025-09-16,1,,,,,ミチ,0
700,3180001168618,新規,0,2025-09-16,2025-09-16,ＬｉｎｋＢｏｏｋ株式会社,,株式会社,愛知県,春日井市,高蔵寺町北２丁目９１番地グランステイツ高蔵寺３０２号,,23,206,4870016,,,,,,,2025-09-16,1,,,,,リンクブック,0
701,3180001168650,新規,0,2025-09-16,2025-09-16,ＡＬＣトレカ株式会社,,株式会社,愛知県,名古屋市昭和区,向山町１丁目５０番地の５メゾン・ド・スイート３０７号,,23,107,4660829,,,,,,,2025-09-16,1,,,,,エーエルシートレカ,0
702,3180001168667,新規,0,2025-09-16,2025-09-16,ＧＲＡＣＥ　ＡＳＩＡＮ　ＭＡＲＴ株式会社,,株式会社,愛知県,名古屋市港区,小碓２丁目３４５番地,,23,111,4550801,,,,,,,2025-09-16,1,,,,,グレイスアジアンマート,0
710,3210001020312,新規,0,2025-09-16,2025-09-16,Ｂｅｌｕｇａ　Ｊａｐａｎ株式会社,,株式会社,福井県,鯖江市,東鯖江４丁目４番１５号,,18,207,9160041,,,,,,,2025-09-16,1,,,,,ベルーガジャパン,0
728,3260001040553,新規,0,2025-09-16,2025-09-16,株式会社みらいオート,,株式会社,岡山県,倉敷市,茶屋町１７７３番地１エルディムシャルマンＢ２０５号室,,33,202,7101101,,,,,,,2025-09-16,1,,,,,ミライオート,0
735,3290001111509,新規,0,2025-09-16,2025-09-16,株式会社ＦｕｋｎｏＶＡ,,株式会社,福岡県,福岡市南区,那の川２丁目２番９号,00140662,40,134,8150081,,,,,,,2025-09-16,1,,,,,フクノバ,0
737,3290003017266,新規,0,2025-09-16,2025-09-16,合同会社みどり,,合同会社,福岡県,久留米市,宮ノ陣５丁目１３－４１－１０３,,40,203,8390801,,,,,,,2025-09-16,1,,,,,ミドリ,0
738,3290003017448,新規,0,2025-09-16,2025-09-16,啓途未来合同会社,,合同会社,福岡県,福岡市中央区,清川２丁目２番１８号,,40,133,8100005,,,,,,,2025-09-16,1,,,,,ケイトミライ,0
744,3330001033590,新規,0,2025-09-16,2025-09-16,Ｎｅｘａ　Ｅｎｇｉｎｅｅｒｉｎｇ株式会社,,株式会社,熊本県,熊本市北区,楠８丁目４番５９号,,43,105,8618003,,,,,,,2025-09-16,1,,,,,ネクサエンジニアリング,0
755,3400001017165,新規,0,2025-09-16,2025-09-16,株式会社シリウスケアサービス,,株式会社,岩手県,花巻市,南万丁目１１６３番地３,,03,205,0250055,,,,,,,2025-09-16,1,,,,,シリウスケアサービス,0
756,3420001019267,新規,0,2025-09-16,2025-09-16,株式会社ポーノ,,株式会社,青森県,弘前市,大字田町５丁目６番地６,,02,202,0368054,,,,,,,2025-09-16,1,,,,,ポーノ,0
759,3430001095191,新規,0,2025-09-16,2025-09-16,Ｓｎｏｗ　Ｈｏｒｉｚｏｎ株式会社,,株式会社,北海道,小樽市,新光２丁目２７番１号,,01,203,0470152,,,,,,,2025-09-16,1,,,,,スノーホライズン,0
760,3430001095258,新規,0,2025-09-16,2025-09-16,株式会社盛栄実業,,株式会社,北海道,札幌市手稲区,手稲本町二条５丁目７番２１号,,01,109,0060022,,,,,,,2025-09-16,1,,,,,セイエイジツギョウ,0
771,3700150132197,新規,0,2025-09-16,2025-09-16,Ｔ．Ｋ．ＡＵＴＯ　ＭＡＲＴ,,外国会社等,滋賀県,甲賀市,水口町山１３４７番地１５０－１,,25,209,5280067,スリランカ民主社会主義共和国、アンバテンナ、マタレロード、Ｎｏ．９４,,,,,,2025-09-16,1,,,,,テイーケイオートマート,0
800,4010401192794,新規,0,2025-09-16,2025-09-16,ＴＡＮＯＣ株式会社,,株式会社,東京都,港区,浜松町２丁目３番９号ワールドタワーレジデンス３７０６,,13,103,1050013,,,,,,,2025-09-16,1,,,,,タノシイ,0
801,4010401192927,新規,0,2025-09-16,2025-09-16,株式会社ＴＯＫＩ,,株式会社,東京都,港区,南青山２丁目１９番６－２０２号,,13,103,1070062,,,,,,,2025-09-16,1,,,,,トキ,0
802,4010401192943,新規,0,2025-09-16,2025-09-16,ＭＦＯライフデザイン株式会社,,株式会社,東京都,港区,港南２丁目１６－２太陽生命品川ビル２８階,,13,103,1080075,,,,,,,2025-09-16,1,,,,,エムエフオーライフデザイン,0
803,4010401193025,新規,0,2025-09-16,2025-09-16,株式会社ネクシード・コンサルティング,,株式会社,東京都,港区,赤坂２丁目１０番１１号フォーシーズ溜池山王ビル,,13,103,1070052,,,,,,,2025-09-16,1,,,,,ネクシードコンサルティング,0
804,4010401193033,新規,0,2025-09-16,2025-09-16,株式会社ＣＲＥＮＡ,,株式会社,東京都,港区,北青山１丁目３番１号アールキューブ青山３階,,13,103,1070061,,,,,,,2025-09-16,1,,,,,クレナ,0
805,4010401193074,新規,0,2025-09-16,2025-09-16,株式会社Ｃ,,株式会社,東京都,港区,南青山５丁目１５番９号フラット青山３０６,,13,103,1070062,,,,,,,2025-09-16,1,,,,,シー,0
806,4010401193090,新規,0,2025-09-16,2025-09-16,コアナノテクノロジー株式会社,,株式会社,東京都,港区,虎ノ門４丁目３－１城山トラストタワー２７階,,13,103,1050001,,,,,,,2025-09-16,1,,,,,コアナノテクノロジー,0
807,4010403035984,新規,0,2025-09-16,2025-09-16,スタイル・ワークス合同会社,,合同会社,東京都,港区,浜松町２丁目２番１５号浜松町ダイヤビル２Ｆ,,13,103,1050013,,,,,,,2025-09-16,1,,,,,スタイルワークス,0
812,4010503007999,新規,0,2025-09-16,2025-09-16,合同会社８８,,合同会社,東京都,台東区,下谷３丁目１番２４号ＧＯＧＯオフィス上野入谷２１４,,13,106,1100004,,,,,,,2025-09-16,1,,,,,ハチハチ,0
815,4010601067978,新規,0,2025-09-16,2025-09-16,川嵐株式会社,,株式会社,東京都,墨田区,千歳３丁目６－５－５０６号室,,13,107,1300025,,,,,,,2025-09-16,1,,,,,カワアラシ,0
818,4010701048300,新規,0,2025-09-16,2025-09-16,明治安透株式会社,,株式会社,東京都,品川区,西中延２丁目１６番１号,,13,109,1420054,,,,,,,2025-09-16,1,,,,,メイジアントウ,0
819,4010801036592,新規,0,2025-09-16,2025-09-16,ＧＲＡＮＳＴＡＲＴＳ株式会社,,株式会社,東京都,大田区,仲池上１丁目１５－１吉野ビル１Ｆ,,13,111,1460081,,,,,,,2025-09-16,1,,,,,グランスターツ,0
833,4011001171759,新規,0,2025-09-16,2025-09-16,株式会社林の秘書,,株式会社,東京都,目黒区,青葉台１丁目１４番１５号目黒第一コーポ１１０,,13,110,1530042,,,,,,,2025-09-16,1,,,,,ハヤシノヒショ,0
834,4011001171932,新規,0,2025-09-16,2025-09-16,グローリーホールディングス株式会社,,株式会社,東京都,渋谷区,恵比寿４丁目４番８号,,13,113,1500013,,,,,,,2025-09-16,1,,,,,グローリーホールディングス,0
835,4011001172022,新規,0,2025-09-16,2025-09-16,株式会社ａｗｏｒｔｈｚ,,株式会社,東京都,渋谷区,笹塚３丁目４３番９－２０３号ＺＯＯＭ渋谷笹塚Ｓｅｃｏｎｄ,,13,113,1510073,,,,,,,2025-09-16,1,,,,,アワーズ,0
836,4011001172047,新規,0,2025-09-16,2025-09-16,Ｗａｎ　ｄｅ　Ｒｕｅ株式会社,,株式会社,東京都,目黒区,東山１丁目１２－６,,13,110,1530043,,,,,,,2025-09-16,1,,,,,ワンドリュー,0
837,4011001172088,新規,0,2025-09-16,2025-09-16,ＥＡＩ株式会社,,株式会社,東京都,渋谷区,神南１丁目１１－４ＦＰＧリンクス神南５階,,13,113,1500041,,,,,,,2025-09-16,1,,,,,イーエーアイ,0
838,4011001172162,新規,0,2025-09-16,2025-09-16,株式会社ｋｙｏ‐ｉｋｕ,,株式会社,東京都,渋谷区,神泉町１０番１５号アネックス神泉３０１,,13,113,1500045,,,,,,,2025-09-16,1,,,,,キョウイク,0
839,4011001172311,新規,0,2025-09-16,2025-09-16,株式会社ＨＲＣｓ,,株式会社,東京都,目黒区,自由が丘２丁目１６番１２号ＲＪ３,,13,110,1520035,,,,,,,2025-09-16,1,,,,,エイチアールシーズ,0
840,4011001172559,新規,0,2025-09-16,2025-09-16,熊田商店株式会社,,株式会社,東京都,渋谷区,富ヶ谷１丁目４４―１６コーポ金子Ｂ１,,13,113,1510063,,,,,,,2025-09-16,1,,,,,クマダショウテン,0
841,4011003022365,新規,0,2025-09-16,2025-09-16,合同会社ＶＩＮＧＯ,,合同会社,東京都,渋谷区,富ヶ谷２丁目２番２０号ＯＵＶＥＲＴＵＲＥ代々木公園３０３,,13,113,1510063,,,,,,,2025-09-16,1,,,,,ビンゴ,0
842,4011003022530,新規,0,2025-09-16,2025-09-16,合同会社ＦＲＳ,,合同会社,東京都,渋谷区,恵比寿西１丁目３３番６号ＪＰｎｏｉｅ恵比寿西１Ｆ,,13,113,1500021,,,,,,,2025-09-16,1,,,,,エフアールエス,0
844,4011101112869,新規,0,2025-09-16,2025-09-16,フューネラルＤＸ株式会社,,株式会社,東京都,新宿区,四谷２丁目８－８,,13,104,1600004,,,,,,,2025-09-16,1,,,,,フューネラルディーエックス,0
845,4011101113074,新規,0,2025-09-16,2025-09-16,株式会社ＳＳ,,株式会社,東京都,新宿区,西新宿３丁目３番１３号西新宿水間ビル６階,,13,104,1600023,,,,,,,2025-09-16,1,,,,,エスエス,0
846,4011101113090,新規,0,2025-09-16,2025-09-16,株式会社Ｒｅ．ライフケア,,株式会社,東京都,新宿区,高田馬場３丁目２１番１９号クラウドパーク１０４,,13,104,1690075,,,,,,,2025-09-16,1,,,,,リライフケア,0
847,4011103016333,新規,0,2025-09-16,2025-09-16,Ｇインフラ５号合同会社,,合同会社,東京都,新宿区,四谷２丁目９番地１５東京ユナイテッド綜合事務所内,,13,104,1600004,,,,,,,2025-09-16,1,,,,,ジーインフラゴゴウ,0
848,4011201026647,新規,0,2025-09-16,2025-09-16,Ｊ＆Ｔ　Ｐａｒｔｎｅｒｓ株式会社,,株式会社,東京都,中野区,中野５丁目６８番８号ライオンズマンション中野第３・６１１号室,,13,114,1640001,,,,,,,2025-09-16,1,,,,,ジェーアンドティーパートナーズ,0
849,4011303005714,新規,0,2025-09-16,2025-09-16,金沢テック合同会社,,合同会社,東京都,杉並区,梅里２丁目２５番１３号高円寺プラザ２１１号－Ｆ室,,13,115,1660011,,,,,,,2025-09-16,1,,,,,カナザワテック,0
851,4011401027362,新規,0,2025-09-16,2025-09-16,株式会社ＫＵＲＯｎｕｍｂｅｒ,,株式会社,東京都,板橋区,前野町４丁目４０番２５号パラシオンＹＴ３０５号,,13,119,1740063,,,,,,,2025-09-16,1,,,,,クロナンバー,0
852,4011501032568,新規,0,2025-09-16,2025-09-16,株式会社ＭＲＪＳ,,株式会社,東京都,荒川区,西日暮里２丁目７番７－４０５号林ビル,,13,118,1160013,,,,,,,2025-09-16,1,,,,,エムアールジェーエス,0
853,4011503006685,新規,0,2025-09-16,2025-09-16,ＡＮＩＬＡ合同会社,,合同会社,東京都,北区,西ケ原１丁目４３番３－１０１号アシュレ駒込,,13,117,1140024,,,,,,,2025-09-16,1,,,,,アニラ,0
854,4011701028721,新規,0,2025-09-16,2025-09-16,鼎力通株式会社,,株式会社,東京都,江戸川区,北小岩６丁目４７－６－２０１,,13,123,1330051,,,,,,,2025-09-16,1,,,,,テイリキツウ,0
855,4011801046755,新規,0,2025-09-16,2025-09-16,ＬＦ株式会社,,株式会社,東京都,足立区,東伊興１丁目５番２０号,,13,121,1210801,,,,,,,2025-09-16,1,,,,,エルエフ,0
858,4011803007061,新規,0,2025-09-16,2025-09-16,合同会社ＹＶ　ＣＡＰＩＴＡＬ,,合同会社,東京都,足立区,足立３丁目２０番４号,,13,121,1200015,,,,,,,2025-09-16,1,,,,,ワイブイキャピタル,0
863,4013103001488,新規,0,2025-09-16,2025-09-16,合同会社紺屋,,合同会社,東京都,西多摩郡瑞穂町,大字箱根ケ崎２１番地９,,13,303,1901221,,,,,,,2025-09-16,1,,,,,コウヤ,0
869,4020001164763,新規,0,2025-09-16,2025-09-16,ＡＨＥＡＤ株式会社,,株式会社,神奈川県,横浜市港北区,新横浜３丁目１９－１１加瀬ビル８８・４階１９号室,,14,109,2220033,,,,,,,2025-09-16,1,,,,,アヘッド,0
870,4020001164838,新規,0,2025-09-16,2025-09-16,株式会社ＩＭＡＮ,,株式会社,神奈川県,横浜市港北区,樽町２丁目１番６１－４０５号,,14,109,2220001,,,,,,,2025-09-16,1,,,,,イマン,0
871,4020001164887,新規,0,2025-09-16,2025-09-16,株式会社Ｒａｎアシスト,,株式会社,神奈川県,横浜市磯子区,岡村１丁目２０番１－１０６号,,14,107,2350021,,,,,,,2025-09-16,1,,,,,ランアシスト,0
877,4020003029270,新規,0,2025-09-16,2025-09-16,ＢＢ合同会社,,合同会社,神奈川県,横浜市中区,翁町２丁目８番５号関内エメラルドビル３０２,,14,104,2310028,,,,,,,2025-09-16,1,,,,,ビービー,0
878,4021001086238,新規,0,2025-09-16,2025-09-16,株式会社ＥＭファーム,,株式会社,神奈川県,相模原市中央区,相模原５丁目５番１－４０６号,,14,152,2520231,,,,,,,2025-09-16,1,,,,,,0
879,4021001086329,新規,0,2025-09-16,2025-09-16,株式会社長門,,株式会社,神奈川県,相模原市緑区,又野５３１番地７,,14,151,2520158,,,,,,,2025-09-16,1,,,,,ナガト,0
897,4040001140473,新規,0,2025-09-16,2025-09-16,株式会社東大方,,株式会社,千葉県,千葉市中央区,新宿２丁目２番５号藤ビル６階Ｇ号室,,12,101,2600021,,,,,,,2025-09-16,1,,,,,トウダイホウ,0
898,4040001140481,新規,0,2025-09-16,2025-09-16,株式会社ソレイユ,,株式会社,千葉県,千葉市中央区,中央２丁目５－１千葉中央ツインビル２号館７階,,12,101,2600013,,,,,,,2025-09-16,1,,,,,ソレイユ,0
900,4040003028510,新規,0,2025-09-16,2025-09-16,合同会社Ｍ．Ｒ．Ｌ,,合同会社,千葉県,千葉市中央区,弁天１丁目３０－１－２千葉ゴールデンマンション１階美容室内,,12,101,2600045,,,,,,,2025-09-16,1,,,,,エムアールエル,0
907,4060001038567,新規,0,2025-09-16,2025-09-16,株式会社Ｖｏｌｐｅ　ｓａｃｒａ,,株式会社,栃木県,さくら市,氏家２３６３番地５,,09,214,3291311,,,,,,,2025-09-16,1,,,,,ヴォルペサクラ,0
911,4060003005747,新規,0,2025-09-16,2025-09-16,ＡＤＰ合同会社,,合同会社,栃木県,足利市,田中町７９９－９,,09,202,3260822,,,,,,,2025-09-16,1,,,,,エーディーピー,0
912,4070001043327,新規,0,2025-09-16,2025-09-16,株式会社リアルレポート,,株式会社,群馬県,高崎市,台町９番地１２,,10,202,3700805,,,,,,,2025-09-16,1,,,,,リアルレポート,0
913,4070003006091,新規,0,2025-09-16,2025-09-16,クラリス合同会社,,合同会社,群馬県,高崎市,下中居町２４７番地２,,10,202,3700853,,,,,,,2025-09-16,1,,,,,クラリス,0
914,4080001027147,新規,0,2025-09-16,2025-09-16,渡村株式会社,,株式会社,静岡県,静岡市葵区,七間町５番地の１チサンマンション七間町,,22,101,4200035,,,,,,,2025-09-16,1,,,,,トムラ,0
915,4080101025785,新規,0,2025-09-16,2025-09-16,Ｒｅｌｅａｔ株式会社,,株式会社,静岡県,田方郡函南町,平井１７５３番地の１７５４,,22,325,4190107,,,,,,,2025-09-16,1,,,,,リリート,0
922,4090001019507,新規,0,2025-09-16,2025-09-16,株式会社天羅,,株式会社,山梨県,南都留郡忍野村,内野８３４番地,,19,424,4010512,,,,,,,2025-09-16,1,,,,,タカラ,0
924,4100001038950,新規,0,2025-09-16,2025-09-16,株式会社ＢＥ　ＴＨＥＲＥ,,株式会社,長野県,大町市,平７４５６番地３,,20,212,3980001,,,,,,,2025-09-16,1,,,,,ビーゼア,0
925,4100005013388,新規,0,2025-09-16,2025-09-16,一般社団法人Ｈｅａｒｔ　Ｆｕｌｌ　Ｖｉｌｌａｇｅ,,その他の設立登記法人,長野県,諏訪郡原村,１６２６７番地４８９,,20,363,3910100,,,,,,,2025-09-16,1,,,,,ハートフルビレッジ,0
933,4120001279576,新規,0,2025-09-16,2025-09-16,株式会社マジェスタウェーブ,,株式会社,大阪府,大阪市中央区,西心斎橋１丁目８番１号心斎橋アトリアムビル５階,,27,128,5420086,,,,,,,2025-09-16,1,,,,,マジェスタウェーブ,0
934,4120001279592,新規,0,2025-09-16,2025-09-16,龍洋株式会社,,株式会社,大阪府,大阪市城東区,中浜３丁目７番４号,,27,118,5360024,,,,,,,2025-09-16,1,,,,,リュウヨウ,0
935,4120001279601,新規,0,2025-09-16,2025-09-16,金子フォライズン不動産投資株式会社,,株式会社,大阪府,大阪市西成区,松３丁目１１番２２－３０３号,,27,122,5570034,,,,,,,2025-09-16,1,,,,,カネコフォライズンフドウサントウシ,0
936,4120001279659,新規,0,2025-09-16,2025-09-16,万博株式会社,,株式会社,大阪府,大阪市城東区,蒲生３丁目１４番２４号,,27,118,5360016,,,,,,,2025-09-16,1,,,,,バンパク,0
937,4120001279865,新規,0,2025-09-16,2025-09-16,元保慧通株式会社,,株式会社,大阪府,大阪市城東区,関目５丁目１９番９号関目花博公館４１０Ａ,,27,118,5360008,,,,,,,2025-09-16,1,,,,,ゲンホエツウ,0
940,4120003030540,新規,0,2025-09-16,2025-09-16,ＢＴＨ合同会社,,合同会社,大阪府,大阪市福島区,鷺洲１丁目２番８号スピインス５０３号,,27,103,5530002,,,,,,,2025-09-16,1,,,,,ビーティーエイチ,0
941,4120003030549,新規,0,2025-09-16,2025-09-16,ウクライナコンサルティング合同会社,,合同会社,大阪府,大阪市北区,梅田１丁目２番２号大阪駅前第２ビル１２－１２,,27,127,5300001,,,,,,,2025-09-16,1,,,,,ウクライナコンサルティング,0
949,4120101072427,新規,0,2025-09-16,2025-09-16,小楊商事株式会社,,株式会社,大阪府,富田林市,喜志町３丁目１１－２リンゴビル４０１号,,27,214,5840005,,,,,,,2025-09-16,1,,,,,ショウヨウショウジ,0
954,4130001080512,新規,0,2025-09-16,2025-09-16,株式会社Ｎｅｘｇｅａｒ,,株式会社,京都府,京都市中京区,天神山町２８０石勘ビル４Ｆ、ＢＩＺｃｏｍｆｏｒｔ京都四条烏丸,,26,104,6048221,,,,,,,2025-09-16,1,,,,,ネクスギア,0
955,4130001080520,新規,0,2025-09-16,2025-09-16,株式会社ｓｏｐｏ,,株式会社,京都府,城陽市,寺田深谷５７番地の６３,,26,207,6100121,,,,,,,2025-09-16,1,,,,,ソポ,0
958,4130003010764,新規,0,2025-09-16,2025-09-16,合同会社オハナ,,合同会社,京都府,綾部市,綾中町花ノ木２０－２,,26,203,6230013,,,,,,,2025-09-16,1,,,,,オハナ,0
964,4140001140001,新規,0,2025-09-16,2025-09-16,川本ホールディングス株式会社,,株式会社,兵庫県,神戸市灘区,箕岡通１丁目４番９号,,28,102,6570812,,,,,,,2025-09-16,1,,,,,カワモトホールディングス,0
965,4140001140026,新規,0,2025-09-16,2025-09-16,株式会社ＨｉｔｏＰｒｏ,,株式会社,兵庫県,尼崎市,東塚口町１丁目１番２４号２Ｆ,,28,202,6610011,,,,,,,2025-09-16,1,,,,,ヒトプロ,0
966,4140001140042,新規,0,2025-09-16,2025-09-16,株式会社ＮＵＲｐａｒｔｓ,,株式会社,兵庫県,西宮市,堤町２番４９号,,28,204,6638012,,,,,,,2025-09-16,1,,,,,エヌユーアールパーツ,0
968,4140003022585,新規,0,2025-09-16,2025-09-16,合同会社ＭＦＢａｓｅ,,合同会社,兵庫県,神戸市西区,伊川谷町有瀬５５７番地の１,,28,111,6512113,,,,,,,2025-09-16,1,,,,,エムエフベース,0
973,4170005007169,新規,0,2025-09-16,2025-09-16,グローバルフレンズ事業協同組合,,その他の設立登記法人,和歌山県,海南市,岡田７３６番地１,,30,202,6420012,,,,,,,2025-09-16,1,,,,,グローバルフレンズ,0
979,4180001168443,新規,0,2025-09-16,2025-09-16,商羽株式会社,,株式会社,愛知県,名古屋市西区,五才美町６番地メゾンヤスフク５０２号室,,23,104,4520806,,,,,,,2025-09-16,1,,,,,ショウウ,0
980,4180001168567,新規,0,2025-09-16,2025-09-16,株式会社Ｋ‐ｓｔｙｌｅ,,株式会社,愛知県,小牧市,小牧３丁目１６２番地国保ビル３階,,23,219,4850041,,,,,,,2025-09-16,1,,,,,ケースタイル,0
981,4180001168617,新規,0,2025-09-16,2025-09-16,ＯＣＴＡ株式会社,,株式会社,愛知県,名古屋市西区,砂原町１８１番地,,23,104,4520811,,,,,,,2025-09-16,1,,,,,オクタ,0
997,4240003007403,新規,0,2025-09-16,2025-09-16,平也会計合同会社,,合同会社,広島県,広島市安芸区,瀬野３丁目９番１０号,,34,107,7390311,,,,,,,2025-09-16,1,,,,,ヒラナリカイケイ,0
999,4250001021330,新規,0,2025-09-16,2025-09-16,株式会社聖羅,,株式会社,山口県,下松市,潮音町３丁目１８番１号,,35,207,7440074,,,,,,,2025-09-16,1,,,,,キヨラ,0
1008,4260001040544,新規,0,2025-09-16,2025-09-16,株式会社オプティ岡山,,株式会社,岡山県,和気郡和気町,加三方２５１番地１,,33,346,7090522,,,,,,,2025-09-16,1,,,,,オプティオカヤマ,0
1015,4290001111334,新規,0,2025-09-16,2025-09-16,シーワイプロパティマネジメント株式会社,,株式会社,福岡県,福岡市東区,和白丘４丁目３１番１－１０３号,,40,131,8110213,,,,,,,2025-09-16,1,,,,,シーワイプロパティマネジメント,0
1016,4290001111490,新規,0,2025-09-16,2025-09-16,東福商事株式会社,,株式会社,福岡県,福岡市博多区,博多駅中央街５番１１号,,40,132,8120012,,,,,,,2025-09-16,1,,,,,トウフクショウジ,0
1025,4360001035765,新規,0,2025-09-16,2025-09-16,Ｇｒｅｅｎ　Ｇｏｄｄｅｓｓ　Ｏｋｉｎａｗａ株式会社,,株式会社,沖縄県,中頭郡嘉手納町,字嘉手納２９７番地２,,47,325,9040203,,,,,,,2025-09-16,1,,,,,グリーンゴッデスオキナワ,0
1028,4380001035573,新規,0,2025-09-16,2025-09-16,株式会社ハマオエクスプレス,,株式会社,福島県,郡山市,三穂田町駒屋字杉内後５番１,,07,203,9630128,,,,,,,2025-09-16,1,,,,,ハマオエクスプレス,0
1031,4390001018107,新規,0,2025-09-16,2025-09-16,佐藤自動車株式会社,,株式会社,山形県,天童市,乱川３丁目７番３３号,,06,210,9940002,,,,,,,2025-09-16,1,,,,,サトウジドウシャ,0
1039,4430001095190,新規,0,2025-09-16,2025-09-16,株式会社ビビナス,,株式会社,北海道,札幌市厚別区,大谷地東３丁目１－１シンエー大谷地ビル２Ｆ,,01,108,0040041,,,,,,,2025-09-16,1,,,,,ビビナス,0
1040,4430001095216,新規,0,2025-09-16,2025-09-16,株式会社Ａｍｂｉｔｉｏｎ,,株式会社,北海道,札幌市北区,新川西二条７丁目１番１号,,01,102,0010932,,,,,,,2025-09-16,1,,,,,アンビション,0
1041,4430001095240,新規,0,2025-09-16,2025-09-16,株式会社リーチデザイン,,株式会社,北海道,美唄市,東四条北８丁目１番１２号,,01,215,0720005,,,,,,,2025-09-16,1,,,,,リーチデザイン,0
1042,4430003018067,新規,0,2025-09-16,2025-09-16,千晟合同会社,,合同会社,北海道,千歳市,幸福３丁目９番地２１,,01,224,0660082,,,,,,,2025-09-16,1,,,,,センセイ,0
1043,4430003018100,新規,0,2025-09-16,2025-09-16,爬山虎合同会社,,合同会社,北海道,札幌市東区,北十条東１２丁目４番１０号ルミエール北１０条１０６号,,01,103,0650010,,,,,,,2025-09-16,1,,,,,パーシャンフー,0
1044,4450001014735,新規,0,2025-09-16,2025-09-16,株式会社ひまわりの里,,株式会社,北海道,稚内市,中央４丁目７番２５号,,01,214,0970022,,,,,,,2025-09-16,1,,,,,ヒマワリノサト,0
1046,4470003002975,新規,0,2025-09-16,2025-09-16,みどりスタイル合同会社,,合同会社,香川県,高松市,栗林町１丁目１８番３０号,,37,201,7600073,,,,,,,2025-09-16,1,,,,,,0
1051,4700150132196,新規,0,2025-09-16,2025-09-16,ＲＵＢＹ　ＡＵＴＯ　ＴＲＡＤＥＲＳ,,外国会社等,滋賀県,甲賀市,水口町山１３４７番地－１５０－２,,25,209,5280067,スリランカ民主社会主義共和国、カドゥルウェラ、バッティカロアロード、Ｎｏ．１２６,,,,,,2025-09-16,1,,,,,ルビーオートトレーダーズ,0
1065,5010001258490,新規,0,2025-09-16,2025-09-16,布雅株式会社,,株式会社,東京都,千代田区,神田錦町３丁目１５番地錦精社神田ビル天翔オフィス大手町竹橋１階１１１号室,,13,101,1010054,,,,,,,2025-09-16,1,,,,,フガ,0
1068,5010003048675,新規,0,2025-09-16,2025-09-16,合同会社ＡＭ　ａｌｐｈａ　Ｊａｐａｎ,,合同会社,東京都,千代田区,霞が関３丁目２番５号,,13,101,1000013,,,,,,,2025-09-16,1,,,,,エーエムアルファジャパン,0
1071,5010005040622,新規,0,2025-09-16,2025-09-16,一般社団法人ＳＡＣ　Ｐｌｕｓ,,その他の設立登記法人,東京都,千代田区,九段北４丁目３番２６号５階,,13,101,1020073,,,,,,,2025-09-16,1,,,,,エスエーシープラス,0
1075,5010401192942,新規,0,2025-09-16,2025-09-16,株式会社ＰＯＩＮＴ‐Ｐ,,株式会社,東京都,港区,芝３丁目１９番２号ＦＵＳＥＢＬＤＧ．ＩＩ５Ｆ,00140664,13,103,1050014,,,,,,,2025-09-16,1,,,,,ポイントピー,0
1076,5010401193115,新規,0,2025-09-16,2025-09-16,株式会社バレルコネクト,,株式会社,東京都,港区,北青山１丁目３番１号アールキューブ青山３階,,13,103,1070061,,,,,,,2025-09-16,1,,,,,バレルコネクト,0
1077,5010401193131,新規,0,2025-09-16,2025-09-16,株式会社エンドルフィン,,株式会社,東京都,港区,赤坂９丁目２番１３号ｎｉｎｅｔｙｔｗｏ１３－３０５号,,13,103,1070052,,,,,,,2025-09-16,1,,,,,エンドルフィン,0
1078,5010401193156,新規,0,2025-09-16,2025-09-16,株式会社Ｐｒｏｇｒｅｓｓ　ＯＮＥ,,株式会社,東京都,港区,芝２丁目１５－４グリーンハウス芝３Ｆ,,13,103,1050014,,,,,,,2025-09-16,1,,,,,プログレスワン,0
1082,5010503007998,新規,0,2025-09-16,2025-09-16,合同会社Ａｋａｒｉ　Ｇａｍｅｓ,,合同会社,東京都,台東区,上野６丁目７－１６川久保ビル８２３号室,,13,106,1100005,,,,,,,2025-09-16,1,,,,,アカリゲームズ,0
1084,5010603011792,新規,0,2025-09-16,2025-09-16,合同会社ＭＩＢ,,合同会社,東京都,江東区,大島１丁目１３－１,,13,108,1360072,,,,,,,2025-09-16,1,,,,,エムアイビー,0
1088,5010703007906,新規,0,2025-09-16,2025-09-16,Ｂｅ４Ｐ合同会社,,合同会社,東京都,品川区,東五反田２丁目１０番１－１６０３号,,13,109,1410022,,,,,,,2025-09-16,1,,,,,ビーホープ,0
1089,5010801036600,新規,0,2025-09-16,2025-09-16,株式会社Ｒｉｋｉ　Ｃｏｒｐｏｒａｔｉｏｎ,,株式会社,東京都,大田区,北千束１丁目１２番７号,,13,111,1450062,,,,,,,2025-09-16,1,,,,,リキコーポレーション,0
1090,5010803005537,新規,0,2025-09-16,2025-09-16,Ｓｏｒａ　Ｈｏｌｄｉｎｇｓ合同会社,,合同会社,東京都,大田区,大森本町２丁目３２番２号市川ビル１階,,13,111,1430011,,,,,,,2025-09-16,1,,,,,ソラホールディングス,0
1101,5011001172070,新規,0,2025-09-16,2025-09-16,株式会社ｈｉｋｅｎ,,株式会社,東京都,渋谷区,道玄坂１丁目１０番８号渋谷道玄坂東急ビル２Ｆ－Ｃ,,13,113,1500043,,,,,,,2025-09-16,1,,,,,ヒケン,0
1102,5011001172533,新規,0,2025-09-16,2025-09-16,株式会社イツココ,,株式会社,東京都,渋谷区,円山町５番３号ＭＩＥＵＸ渋谷ビル８階,,13,113,1500044,,,,,,,2025-09-16,1,,,,,イツココ,0
1104,5011003022439,新規,0,2025-09-16,2025-09-16,合同会社Ｃｌｏｕｄｕｐ,,合同会社,東京都,渋谷区,神南１丁目１１－４ＦＰＧリンクス神南５階,,13,113,1500041,,,,,,,2025-09-16,1,,,,,クラウドアップ,0
1105,5011003022562,新規,0,2025-09-16,2025-09-16,ＡｉｒＴｒｕｎｋ　Ｊａｐａｎ　Ｈｏｌｄｉｎｇ９合同会社,,合同会社,東京都,渋谷区,円山町３番６号Ｅ・スペースタワー,,13,113,1500044,,,,,,,2025-09-16,1,,,,,エアトランクジャパンホールディングナイン,0
1107,5011103016332,新規,0,2025-09-16,2025-09-16,ブルーインフラ２１号合同会社,,合同会社,東京都,新宿区,四谷２丁目９番地１５東京ユナイテッド綜合事務所内,,13,104,1600004,,,,,,,2025-09-16,1,,,,,ブルーインフラニジュウイチゴウ,0
1112,5011501032567,新規,0,2025-09-16,2025-09-16,和崎株式会社,,株式会社,東京都,荒川区,西日暮里１丁目６２－５,,13,118,1160013,,,,,,,2025-09-16,1,,,,,ワザキ,0
1114,5011701028720,新規,0,2025-09-16,2025-09-16,Ｚｅｌａ　Ｔｅｃｈｎｏｌｏｇｉｅｓ株式会社,,株式会社,東京都,江戸川区,東小岩５丁目３７－１２楽新ビル２０５号室,,13,123,1330052,,,,,,,2025-09-16,1,,,,,ゼラテクノロジーズ,0
1117,5011801046746,新規,0,2025-09-16,2025-09-16,智康リンク株式会社,,株式会社,東京都,葛飾区,東金町４丁目１番２号１０２号室,,13,122,1250041,,,,,,,2025-09-16,1,,,,,チコウリンク,0
1118,5011803007077,新規,0,2025-09-16,2025-09-16,ＳＫ合同会社,,合同会社,東京都,足立区,青井４丁目３番１９号,,13,121,1210012,,,,,,,2025-09-16,1,,,,,エスケー,0
1119,5011805003479,新規,0,2025-09-16,2025-09-16,一般社団法人神猿学園,,その他の設立登記法人,東京都,葛飾区,新小岩３丁目６番１２号松南ビル１Ｆ,,13,122,1240024,,,,,,,2025-09-16,1,,,,,マサルガクエン,0
1122,5012401043588,新規,0,2025-09-16,2025-09-16,株式会社ＩＳＳＥＮＫＡ,,株式会社,東京都,武蔵野市,吉祥寺本町２丁目３２番６号,,13,203,1800004,,,,,,,2025-09-16,1,,,,,イッセンカ,0
1123,5012401043596,新規,0,2025-09-16,2025-09-16,株式会社タイドブランディング,,株式会社,東京都,調布市,仙川町１丁目３３番地３,,13,208,1820002,,,,,,,2025-09-16,1,,,,,タイドブランディング,0
1128,5013301054849,新規,0,2025-09-16,2025-09-16,福源株式会社,,株式会社,東京都,豊島区,池袋２丁目１６－１１小林ビル４０３号室,,13,116,1710014,,,,,,,2025-09-16,1,,,,,フクゲン,0
1129,5013301054948,新規,0,2025-09-16,2025-09-16,株式会社ＦＴＦ,,株式会社,東京都,豊島区,東池袋２丁目６２番８号ＢＩＧオフィスプラザ池袋１２０６,,13,116,1700013,,,,,,,2025-09-16,1,,,,,エフティーエフ,0
1131,5020001164820,新規,0,2025-09-16,2025-09-16,ハッピーホーム株式会社,,株式会社,神奈川県,横浜市青葉区,新石川１丁目２９番地６ガーデンシティあざみ野１０１,,14,117,2250003,,,,,,,2025-09-16,1,,,,,ハッピーホーム,0
1132,5020001164837,新規,0,2025-09-16,2025-09-16,株式会社オゼ・アジール,,株式会社,神奈川県,横浜市中区,元町４丁目１６８番地ＢＩＺｃｏｍｆｏｒｔ元町ビルＢ１Ｆ,,14,104,2310861,,,,,,,2025-09-16,1,,,,,オゼアジール,0
1133,5020001164861,新規,0,2025-09-16,2025-09-16,株式会社Ｔｅｔｏｔｅ,,株式会社,神奈川県,横浜市南区,南太田１丁目２８番３号,,14,105,2320006,,,,,,,2025-09-16,1,,,,,テトテ,0
1137,5020003029328,新規,0,2025-09-16,2025-09-16,合同会社キリーク,,合同会社,神奈川県,横浜市神奈川区,入江２丁目１６番２４－６０８号,,14,102,2210014,,,,,,,2025-09-16,1,,,,,キリーク,0
1140,5021001086237,新規,0,2025-09-16,2025-09-16,株式会社ｎｅｘｔｒａＪＰ,,株式会社,神奈川県,高座郡寒川町,小谷３丁目９－７１－１０１,,14,321,2530103,,,,,,,2025-09-16,1,,,,,ネクストラジャパン,0
1142,5021003016497,新規,0,2025-09-16,2025-09-16,Ｐｏｌｙｂｉｔ合同会社,,合同会社,神奈川県,厚木市,中町４丁目１４番１号,,14,212,2430018,,,,,,,2025-09-16,1,,,,,ポリビット,0
1143,5021003016530,新規,0,2025-09-16,2025-09-16,合同会社ピボットワークス,,合同会社,神奈川県,伊勢原市,石田６０２－１安田屋ビル２階,,14,214,2591116,,,,,,,2025-09-16,1,,,,,ピボットワークス,0
1153,5040001140431,新規,0,2025-09-16,2025-09-16,株式会社アリカ,,株式会社,千葉県,市川市,香取１丁目１０番３号,,12,203,2720141,,,,,,,2025-09-16,1,,,,,アリカ,0
1154,5040001140480,新規,0,2025-09-16,2025-09-16,株式会社ＫＮＯＣＫ,,株式会社,千葉県,千葉市若葉区,貝塚２丁目３番２９号,,12,104,2640020,,,,,,,2025-09-16,1,,,,,ノック,0
1156,5040003028501,新規,0,2025-09-16,2025-09-16,キム合同会社,,合同会社,千葉県,習志野市,東習志野５丁目３１番２０号,,12,216,2750001,,,,,,,2025-09-16,1,,,,,キム,0
1160,5060001038525,新規,0,2025-09-16,2025-09-16,株式会社薬師寺ファーム,,株式会社,栃木県,下野市,薬師寺１５８４番地２,,09,216,3290431,,,,,,,2025-09-16,1,,,,,ヤクシジファーム,0
1161,5060003005746,新規,0,2025-09-16,2025-09-16,ＳＡＭＩ　ＴＲＡＤＩＮＧ合同会社,,合同会社,栃木県,栃木市,岩舟町新里１３０３－２番地３２号室,,09,203,3294316,,,,,,,2025-09-16,1,,,,,サミトレーディング,0
1163,5080001027146,新規,0,2025-09-16,2025-09-16,株式会社ＺＥＮＫＡＩファーム,,株式会社,静岡県,榛原郡吉田町,川尻１３３番地の１,,22,424,4210302,,,,,,,2025-09-16,1,,,,,ゼンカイファーム,0
1166,5080103003425,新規,0,2025-09-16,2025-09-16,合同会社ＧＳＴＲＡＤＩＮＧ,,合同会社,静岡県,富士市,江尾南２９４番地の３,,22,210,4170817,,,,,,,2025-09-16,1,,,,,ジーエストレーディング,0
1168,5090001019506,新規,0,2025-09-16,2025-09-16,株式会社Ｔ．Ｏ．Ｐ,,株式会社,山梨県,南アルプス市,西南湖４２７１番地１,,19,208,4000411,,,,,,,2025-09-16,1,,,,,ティーオーピー,0
1181,5120001279377,新規,0,2025-09-16,2025-09-16,株式会社舶用精機,,株式会社,大阪府,大阪市港区,夕凪１丁目１２番２号,,27,107,5520004,,,,,,,2025-09-16,1,,,,,ハクヨウセイキ,0
1182,5120001279526,新規,0,2025-09-16,2025-09-16,株式会社ＥＬＬＥ　ＥＡＣＨ,,株式会社,大阪府,大阪市北区,梅田２丁目４番９号ブリーゼタワー１ＦＳＹＮＴＨ×ビジネスエアポート,,27,127,5300001,,,,,,,2025-09-16,1,,,,,エルイーチ,0
1183,5120001279591,新規,0,2025-09-16,2025-09-16,株式会社ｐａｌｅｔｔｅ,,株式会社,大阪府,大阪市城東区,新喜多東２丁目２－２３四季彩都いちょう館Ａ棟１００１,,27,118,5360017,,,,,,,2025-09-16,1,,,,,パレット,0
1184,5120001279600,新規,0,2025-09-16,2025-09-16,仙狸株式会社,,株式会社,大阪府,大阪市西成区,松３丁目１１番２２－１０２号,,27,122,5570034,,,,,,,2025-09-16,1,,,,,センリ,0
1185,5120001279609,新規,0,2025-09-16,2025-09-16,恒久株式会社,,株式会社,大阪府,大阪市東成区,大今里２丁目６番１８号昇徳ビル１階Ｈ室,,27,115,5370012,,,,,,,2025-09-16,1,,,,,コウキュウ,0
1186,5120001279617,新規,0,2025-09-16,2025-09-16,令哲コンサルティング株式会社,,株式会社,大阪府,大阪市淀川区,西宮原２丁目６番１６号－１１１１号室,,27,123,5320004,,,,,,,2025-09-16,1,,,,,,0
1187,5120001279749,新規,0,2025-09-16,2025-09-16,宇盛株式会社,,株式会社,大阪府,大阪市生野区,新今里６丁目５－７－３０４,,27,116,5440001,,,,,,,2025-09-16,1,,,,,ウセイ,0
1188,5120001279864,新規,0,2025-09-16,2025-09-16,卓悦株式会社,,株式会社,大阪府,大阪市東成区,大今里３丁目１５番６号ＩｍａｚａｔｏＴｏｗｅｒ５０７Ｂ,,27,115,5370012,,,,,,,2025-09-16,1,,,,,タクエツ,0
1191,5120003030556,新規,0,2025-09-16,2025-09-16,合同会社聖,,合同会社,大阪府,大阪市住之江区,新北島４丁目４番５６号,,27,125,5590024,,,,,,,2025-09-16,1,,,,,ヒジリ,0
1192,5120003030647,新規,0,2025-09-16,2025-09-16,古益会合同会社,,合同会社,大阪府,大阪市都島区,中野町４丁目５番６３号,,27,102,5340027,,,,,,,2025-09-16,1,,,,,コエキカイ,0
1199,5120901051496,新規,0,2025-09-16,2025-09-16,宏和テクノ株式会社,,株式会社,大阪府,高槻市,真上町２丁目１番９号,,27,207,5691121,,,,,,,2025-09-16,1,,,,,コウワテクノ,0
1211,5140001140025,新規,0,2025-09-16,2025-09-16,小野商店株式会社,,株式会社,兵庫県,姫路市,東夢前台３丁目８０番地１０１号,,28,201,6700064,,,,,,,2025-09-16,1,,,,,オノショウテン,0
1218,5180001168657,新規,0,2025-09-16,2025-09-16,株式会社ＰＬＵＳ,,株式会社,愛知県,名古屋市北区,水切町４丁目５１番地の３,,23,103,4620833,,,,,,,2025-09-16,1,,,,,プラス,0
1222,5180301040177,新規,0,2025-09-16,2025-09-16,スタンダーズ株式会社,,株式会社,愛知県,安城市,和泉町南本郷３３３番地１,,23,212,4441221,,,,,,,2025-09-16,1,,,,,スタンダーズ,0
1223,5180301040202,新規,0,2025-09-16,2025-09-16,株式会社楠井組,,株式会社,愛知県,豊橋市,植田町字西ノ谷７７番地１,,23,201,4418134,,,,,,,2025-09-16,1,,,,,クスイグミ,0
1225,5200003007026,新規,0,2025-09-16,2025-09-16,合同会社スリーエス,,合同会社,岐阜県,大垣市,三塚町９６８番地,,21,202,5030808,,,,,,,2025-09-16,1,,,,,スリーエス,0
1226,5200003007034,新規,0,2025-09-16,2025-09-16,Ｍａｌｉｋ　Ｉｎｔｅｒｎａｔｉｏｎａｌ合同会社,,合同会社,岐阜県,安八郡安八町,大森４７２番地２安八大森アパート１０４号室,,21,383,5030116,,,,,,,2025-09-16,1,,,,,マリクインターナショナル,0
1227,5200005013798,新規,0,2025-09-16,2025-09-16,一般社団法人岐阜イノベーションベース,,その他の設立登記法人,岐阜県,岐阜市,金宝町１丁目３番地,,21,201,5008847,,,,,,,2025-09-16,1,,,,,ギフイノベーションベース,0
1229,5210001020310,新規,0,2025-09-16,2025-09-16,株式会社ＡＭＩＣＡＬ,,株式会社,福井県,福井市,高柳３丁目８０３番地２,,18,201,9100837,,,,,,,2025-09-16,1,,,,,アミカル,0
1249,5290001111275,新規,0,2025-09-16,2025-09-16,株式会社ＳＩ,,株式会社,福岡県,福岡市西区,姪の浜４丁目２２番１６号駅北ビル２階,,40,135,8190002,,,,,,,2025-09-16,1,,,,,シー,0
1250,5290001111283,新規,0,2025-09-16,2025-09-16,株式会社ＨＩ,,株式会社,福岡県,福岡市博多区,美野島１丁目８－１,,40,132,8120017,,,,,,,2025-09-16,1,,,,,エイチアイ,0
1251,5290001111300,新規,0,2025-09-16,2025-09-16,株式会社解体のミカタ,,株式会社,福岡県,福岡市中央区,渡辺通２丁目６番１２号５Ｆ,,40,133,8100004,,,,,,,2025-09-16,1,,,,,カイタイノミカタ,0
1252,5290001111382,新規,0,2025-09-16,2025-09-16,株式会社ＡＫＡＲＩ,,株式会社,福岡県,福岡市早良区,城西１丁目８番５－１２０１号,,40,137,8140003,,,,,,,2025-09-16,1,,,,,アカリ,0
1253,5290003017330,新規,0,2025-09-16,2025-09-16,合同会社稲永,,合同会社,福岡県,糟屋郡須惠町,大字植木１７８６番地,,40,344,8112112,,,,,,,2025-09-16,1,,,,,イナナガ,0
1259,5320001021339,新規,0,2025-09-16,2025-09-16,株式会社樹咲葉実,,株式会社,大分県,別府市,東荘園３丁目３番３号,,44,202,8740836,,,,,,,2025-09-16,1,,,,,キザキヨウジツ,0
1260,5320003004770,新規,0,2025-09-16,2025-09-16,合同会社ジョーミネ,,合同会社,大分県,別府市,亀川四の湯町１番１０号,,44,202,8740025,,,,,,,2025-09-16,1,,,,,ジョーミネ,0
1265,5340001027631,新規,0,2025-09-16,2025-09-16,兒玉設備工業株式会社,,株式会社,鹿児島県,鹿児島市,武岡６丁目６番１１号,,46,201,8900031,,,,,,,2025-09-16,1,,,,,コダマセツビコウギョウ,0
1268,5350001019719,新規,0,2025-09-16,2025-09-16,株式会社Ｇｌｏｂａｌ　Ｏｆｆｉｃｅ,,株式会社,宮崎県,北諸県郡三股町,大字蓼池１３８８番地,,45,341,8891914,,,,,,,2025-09-16,1,,,,,グローバルオフィス,0
1271,5370003007281,新規,0,2025-09-16,2025-09-16,合同会社大崎グリーンファーム,,合同会社,宮城県,大崎市,岩出山下野目字南原５４番地,,04,215,9896412,,,,,,,2025-09-16,1,,,,,オオサキグリーンファーム,0
1278,5430001095223,新規,0,2025-09-16,2025-09-16,株式会社アヴァロン,,株式会社,北海道,札幌市厚別区,厚別北一条４丁目１番４－４０１号,,01,108,0040071,,,,,,,2025-09-16,1,,,,,アヴァロン,0
1282,5450001014734,新規,0,2025-09-16,2025-09-16,株式会社天金商事,,株式会社,北海道,旭川市,豊岡六条１０丁目７番１８号,,01,204,0788236,,,,,,,2025-09-16,1,,,,,テンキンショウジ,0
1285,5700150132195,新規,0,2025-09-16,2025-09-16,ＺＡＮＨＡ　ＡＵＴＯ　ＴＲＡＤＥＲＳ,,外国会社等,滋賀県,甲賀市,水口町山１３４７番地１５０－３,,25,209,5280067,スリランカ民主社会主義共和国、ゲリオヤ、ステーションロード、Ｎｏ．６７,,,,,,2025-09-16,1,,,,,ザンハオートトレーダーズ,0
1298,6010003048609,新規,0,2025-09-16,2025-09-16,ＩＳＥＲＹＵ合同会社,,合同会社,東京都,文京区,白山４丁目１４番１７号,,13,105,1120001,,,,,,,2025-09-16,1,,,,,,0
1299,6010003048674,新規,0,2025-09-16,2025-09-16,合同会社ＡＭ　ａｌｐｈａ　Ｆｉｖｅ,,合同会社,東京都,千代田区,霞が関３丁目２番５号,,13,101,1000013,,,,,,,2025-09-16,1,,,,,エーエムアルファファイブ,0
1300,6010003048749,新規,0,2025-09-16,2025-09-16,スリーエスシンク合同会社,,合同会社,東京都,中央区,銀座７丁目１３番２０号銀座ＴＨビル９階,,13,102,1040061,,,,,,,2025-09-16,1,,,,,スリーエスシンク,0
1306,6010401192685,新規,0,2025-09-16,2025-09-16,スサノオ・ヒューマンズ株式会社,,株式会社,東京都,港区,海岸３丁目２１番９号,,13,103,1080022,,,,,,,2025-09-16,1,,,,,スサノオヒューマンズ,0
1307,6010401192834,新規,0,2025-09-16,2025-09-16,ＧＯジョブ株式会社,,株式会社,東京都,港区,虎ノ門４丁目１－１神谷町トラストタワー２３Ｆ,,13,103,1050001,,,,,,,2025-09-16,1,,,,,ゴージョブ,0
1308,6010401192917,新規,0,2025-09-16,2025-09-16,ＡＩＢＲＩＡ株式会社,,株式会社,東京都,港区,港南２丁目３－１大信秋山ビル３Ｆ,,13,103,1080075,,,,,,,2025-09-16,1,,,,,アイブリア,0
1309,6010401193023,新規,0,2025-09-16,2025-09-16,株式会社Ｂｌｕｅ　Ｇｒａｉｎ,,株式会社,東京都,港区,南青山１丁目９番３号廣澤ビル３階,,13,103,1070062,,,,,,,2025-09-16,1,,,,,ブルーグレイン,0
1310,6010401193048,新規,0,2025-09-16,2025-09-16,湛森株式会社,,株式会社,東京都,港区,三田１丁目１－１２－５０６,,13,103,1080073,,,,,,,2025-09-16,1,,,,,タンシン,0
1314,6010501054637,新規,0,2025-09-16,2025-09-16,博元衆合株式会社,,株式会社,東京都,台東区,台東３丁目５－１０,,13,106,1100016,,,,,,,2025-09-16,1,,,,,ヒロゲンシュウゴウ,0
1317,6010503007997,新規,0,2025-09-16,2025-09-16,合同会社マーケティブ,,合同会社,東京都,台東区,台東３丁目９－６－３０２,,13,106,1100016,,,,,,,2025-09-16,1,,,,,マーケティブ,0
1320,6010603011791,新規,0,2025-09-16,2025-09-16,合同会社トラニック,,合同会社,東京都,墨田区,千歳３丁目４番１３号,,13,107,1300025,,,,,,,2025-09-16,1,,,,,トラニック,0
1324,6010605004505,新規,0,2025-09-16,2025-09-16,医療法人社団Ｆ．Ｄ．Ｃ,,その他の設立登記法人,東京都,江東区,枝川２丁目６番９号レクレドール豊洲１階,,13,108,1350051,,,,,,,2025-09-16,1,,,,,エフディーシー,0
1327,6010701048298,新規,0,2025-09-16,2025-09-16,株式会社未来のために,,株式会社,東京都,品川区,北品川１丁目２０－４ライオンズマンション北品川第２、４０４,,13,109,1400001,,,,,,,2025-09-16,1,,,,,ミライノタメニ,0
1337,6011001171352,新規,0,2025-09-16,2025-09-16,株式会社さきがけ,,株式会社,東京都,渋谷区,道玄坂１丁目１０番８号渋谷道玄坂東急ビル２Ｆ－Ｃ,,13,113,1500043,,,,,,,2025-09-16,1,,,,,サキガケ,0
1338,6011001171550,新規,0,2025-09-16,2025-09-16,株式会社ＯＯ　ｐｒａｃｔｉｃｅ,,株式会社,東京都,渋谷区,恵比寿西２丁目２－１サニーハイツ３Ｆ,,13,113,1500021,,,,,,,2025-09-16,1,,,,,オーオープラクティス,0
1339,6011001172004,新規,0,2025-09-16,2025-09-16,株式会社ユニットプロパティ,,株式会社,東京都,渋谷区,円山町５－５Ｎａｖｉ渋谷Ｖ３階,00140661,13,113,1500044,,,,,,,2025-09-16,1,,,,,ユニットプロパティ,0
1340,6011001172532,新規,0,2025-09-16,2025-09-16,ｅｌｅｖｅｎｆｌｏｗ　ｓｔｕｄｉｏ株式会社,,株式会社,東京都,渋谷区,広尾１丁目２番地１号ヒカリビル４階,,13,113,1500012,,,,,,,2025-09-16,1,,,,,イレブンフロースタジオ,0
1342,6011003022561,新規,0,2025-09-16,2025-09-16,ＡｉｒＴｒｕｎｋ　Ｊａｐａｎ　Ａ合同会社,,合同会社,東京都,渋谷区,円山町３番６号Ｅ・スペースタワー,,13,113,1500044,,,,,,,2025-09-16,1,,,,,エアトランクジャパンエー,0
1349,6011103016331,新規,0,2025-09-16,2025-09-16,ブルーインフラ２０号合同会社,,合同会社,東京都,新宿区,四谷２丁目９番地１５東京ユナイテッド綜合事務所内,,13,104,1600004,,,,,,,2025-09-16,1,,,,,ブルーインフラニジュウゴウ,0
1350,6011103016356,新規,0,2025-09-16,2025-09-16,合同会社Ｍａｎａｓ　Ｓｈａｍｂｈａｌａ,,合同会社,東京都,新宿区,荒木町１８番地１,,13,104,1600007,,,,,,,2025-09-16,1,,,,,マナサシャンバラ,0
1351,6011105011578,新規,0,2025-09-16,2025-09-16,ブルーインフラホールディングス２３号一般社団法人,,その他の設立登記法人,東京都,新宿区,四谷２丁目９番地１５東京ユナイテッド綜合事務所内,,13,104,1600004,,,,,,,2025-09-16,1,,,,,ブルーインフラホールディングスニジュウサンゴウ,0
1353,6011201026645,新規,0,2025-09-16,2025-09-16,株式会社ネサンス,,株式会社,東京都,中野区,中央３丁目１番４号,,13,114,1640011,,,,,,,2025-09-16,1,,,,,ネサンス,0
1354,6011303005712,新規,0,2025-09-16,2025-09-16,合同会社ＳＵＫＥＳＡＤＡ,,合同会社,東京都,杉並区,永福３丁目１９番１０号,,13,115,1680064,,,,,,,2025-09-16,1,,,,,スケサダ,0
1359,6011505002706,新規,0,2025-09-16,2025-09-16,医療法人社団教仁会,,その他の設立登記法人,東京都,北区,志茂５丁目４番７号１階,,13,117,1150042,,,,,,,2025-09-16,1,,,,,キョウジンカイ,0
1365,6011801046737,新規,0,2025-09-16,2025-09-16,株式会社アガスタ,,株式会社,東京都,葛飾区,奥戸９丁目３番１２号,,13,122,1240022,,,,,,,2025-09-16,1,,,,,アガスタ,0
1366,6011803007068,新規,0,2025-09-16,2025-09-16,唯晨合同会社,,合同会社,東京都,葛飾区,金町２丁目２１－５プラーズ金町４１１,,13,122,1250042,,,,,,,2025-09-16,1,,,,,イシン,0
1367,6011803007076,新規,0,2025-09-16,2025-09-16,合同会社ＱｌａｚｏＣａｓａ,,合同会社,東京都,葛飾区,亀有３丁目２番８－１２０４号,,13,122,1250061,,,,,,,2025-09-16,1,,,,,クラソカーサ,0
1371,6012701019072,新規,0,2025-09-16,2025-09-16,株式会社千山堂,,株式会社,東京都,西東京市,栄町１丁目１番２２号,,13,229,2020006,,,,,,,2025-09-16,1,,,,,サウザンドウ,0
1376,6013301054947,新規,0,2025-09-16,2025-09-16,株式会社Ｍａｘ,,株式会社,東京都,豊島区,南大塚３丁目４２番２号ザ・グローベル南大塚７０４,,13,116,1700005,,,,,,,2025-09-16,1,,,,,マックス,0
1377,6013303007878,新規,0,2025-09-16,2025-09-16,合同会社イノベーションリンク,,合同会社,東京都,豊島区,西池袋１丁目４２番１１号森下第二ビル地下１階,,13,116,1710021,,,,,,,2025-09-16,1,,,,,イノベーションリンク,0
1379,6020001164786,新規,0,2025-09-16,2025-09-16,株式会社ジョニーグループ,,株式会社,神奈川県,横浜市緑区,中山町８１番地１グリーンパレス中山１０１,,14,113,2260011,,,,,,,2025-09-16,1,,,,,ジョニーグループ,0
1383,6021001086293,新規,0,2025-09-16,2025-09-16,みのりアセット株式会社,,株式会社,神奈川県,藤沢市,片瀬４丁目１７番５～１１０１号,,14,205,2510032,,,,,,,2025-09-16,1,,,,,ミノリアセット,0
1384,6021003016521,新規,0,2025-09-16,2025-09-16,ＡｌｉＳ　ＧＲＯＵＰ合同会社,,合同会社,神奈川県,横須賀市,鴨居３丁目６４番５号,,14,201,2390813,,,,,,,2025-09-16,1,,,,,アリスグループ,0
1394,6040001140389,新規,0,2025-09-16,2025-09-16,株式会社米ＬＡＢＯ,,株式会社,千葉県,市原市,大和田２６３,,12,219,2900553,,,,,,,2025-09-16,1,,,,,コメラボ,0
1395,6040001140439,新規,0,2025-09-16,2025-09-16,株式会社ＨＥＡＲＴ,,株式会社,千葉県,船橋市,みやぎ台３丁目１７番３７号,,12,204,2740804,,,,,,,2025-09-16,1,,,,,ハート,0
1396,6040003028500,新規,0,2025-09-16,2025-09-16,合同会社日成早上,,合同会社,千葉県,千葉市稲毛区,穴川３丁目１３番１１号,,12,103,2630024,,,,,,,2025-09-16,1,,,,,ニッセイソウジョウ,0
1397,6040003028509,新規,0,2025-09-16,2025-09-16,合同会社スリープシフト整体院,,合同会社,千葉県,市川市,福栄２丁目８番４－１０５号（サンクレスト）,,12,203,2720137,,,,,,,2025-09-16,1,,,,,スリープシフトセイタイイン,0
1399,6050001057285,新規,0,2025-09-16,2025-09-16,Ｔｈｅ０２１株式会社,,株式会社,茨城県,つくば市,桜が丘１６番地１５,,08,220,3001271,,,,,,,2025-09-16,1,,,,,ザゼロトゥワン,0
1400,6050001057293,新規,0,2025-09-16,2025-09-16,株式会社滑川緑化,,株式会社,茨城県,日立市,滑川本町４丁目６番６号,,08,202,3170051,,,,,,,2025-09-16,1,,,,,ナメカワリョクカ,0
1402,6050003009557,新規,0,2025-09-16,2025-09-16,ＢＥＮＳＨＯ合同会社,,合同会社,茨城県,結城郡八千代町,大字東蕗田６８４－４－２０８号,,08,521,3003545,,,,,,,2025-09-16,1,,,,,ベンショー,0
1408,6080103003424,新規,0,2025-09-16,2025-09-16,ＭＩＴＴＳＵ凸合同会社,,合同会社,静岡県,三島市,幸原町２丁目１６番４５号,,22,206,4110031,,,,,,,2025-09-16,1,,,,,,0
1417,6110001039574,新規,0,2025-09-16,2025-09-16,株式会社チャオ,,株式会社,新潟県,新潟市東区,長者町１５－２５－２Ｆ－Ａ,,15,102,9500066,,,,,,,2025-09-16,1,,,,,チャオ,0
1419,6120001279558,新規,0,2025-09-16,2025-09-16,株式会社昇龍,,株式会社,大阪府,大阪市東淀川区,豊新２丁目１６番６７－１２１３号,,27,114,5330014,,,,,,,2025-09-16,1,,,,,ショウリュウ,0
1420,6120001279616,新規,0,2025-09-16,2025-09-16,＿輝株式会社,00140665,株式会社,大阪府,大阪市浪速区,敷津西１丁目３番１号ラ・フォンテ難波南７０３室,,27,111,5560015,,,,,,,2025-09-16,1,,,,,ユウキ,0
1421,6120001279632,新規,0,2025-09-16,2025-09-16,Ｃａｎｄｒａｋｉｒｔｉ株式会社,,株式会社,大阪府,大阪市西成区,千本南１丁目１６番１４ー２０２号,,27,122,5570055,,,,,,,2025-09-16,1,,,,,チャンドラキールティ,0
1425,6120003030555,新規,0,2025-09-16,2025-09-16,禾木合同会社,,合同会社,大阪府,大阪市東成区,大今里２丁目６番１８号昇徳ビル１階Ｌ室,,27,115,5370012,,,,,,,2025-09-16,1,,,,,カボク,0
1432,6120101072409,新規,0,2025-09-16,2025-09-16,株式会社ぎんせいメディカル,,株式会社,大阪府,泉大津市,宮町１１番４５－３号,,27,206,5950013,,,,,,,2025-09-16,1,,,,,ギンセイメディカル,0
1433,6120103006703,新規,0,2025-09-16,2025-09-16,合同会社縁,,合同会社,大阪府,堺市中区,深井水池町３４７６番地１エストチェーロ１０３号,,27,142,5998237,,,,,,,2025-09-16,1,,,,,エン,0
1434,6120103006711,新規,0,2025-09-16,2025-09-16,ＤＡＩＬＹＳＵＮ　Ｎｅｗ　Ｙｏｒｋ合同会社,,合同会社,大阪府,堺市南区,桃山台３丁３０番１６号,,27,145,5900141,,,,,,,2025-09-16,1,,,,,デイリーサンニューヨーク,0
1443,6130001080510,新規,0,2025-09-16,2025-09-16,株式会社ＥＲＡＶＡＬ,,株式会社,京都府,京都市下京区,二帖半敷町６４７番地２オンリー烏丸ビル,,26,106,6008412,,,,,,,2025-09-16,1,,,,,エラバル,0
1444,6130001080535,新規,0,2025-09-16,2025-09-16,株式会社ＥＬＥＳＴＩＡＬ,,株式会社,京都府,京都市右京区,花園伊町１２,,26,108,6168042,,,,,,,2025-09-16,1,,,,,エレスティアル,0
1452,6140001139917,新規,0,2025-09-16,2025-09-16,株式会社オグラワークス,,株式会社,兵庫県,明石市,貴崎３丁目２１番２５－８０２号,,28,203,6730037,,,,,,,2025-09-16,1,,,,,オグラワークス,0
1453,6140001139999,新規,0,2025-09-16,2025-09-16,泊悦通商株式会社,,株式会社,兵庫県,神戸市灘区,下河原通３丁目５番１３号ルミナス六甲２階２０１号室,,28,102,6570045,,,,,,,2025-09-16,1,,,,,ボエツツウショウ,0
1454,6140001140008,新規,0,2025-09-16,2025-09-16,株式会社フジフク,,株式会社,兵庫県,揖保郡太子町,太田１９２８番地,,28,464,6711511,,,,,,,2025-09-16,1,,,,,フジフク,0
1455,6140001140016,新規,0,2025-09-16,2025-09-16,ケアネット但馬株式会社,,株式会社,兵庫県,豊岡市,寿町８番２６号,,28,209,6680024,,,,,,,2025-09-16,1,,,,,ケアネットタジマ,0
1458,6140003022559,新規,0,2025-09-16,2025-09-16,合同会社Ｏｒｉｇｉｎ,,合同会社,兵庫県,加東市,山国２０１９番地４６６,,28,228,6731421,,,,,,,2025-09-16,1,,,,,オリジン,0
1459,6150001028400,新規,0,2025-09-16,2025-09-16,株式会社土地建物管理,,株式会社,奈良県,北葛城郡広陵町,馬見三丁目５番７号,,29,426,6350000,,,,,,,2025-09-16,1,,,,,トチタテモノカンリ,0
1464,6180001168499,新規,0,2025-09-16,2025-09-16,株式会社ＫＡＴＯコーポレーション,,株式会社,愛知県,丹羽郡大口町,奈良子２丁目２２番地１,,23,361,4800139,,,,,,,2025-09-16,1,,,,,カトーコーポレーション,0
1466,6180003029022,新規,0,2025-09-16,2025-09-16,合同会社至誠商会,,合同会社,愛知県,瀬戸市,東本地町３丁目４６番地,,23,204,4890973,,,,,,,2025-09-16,1,,,,,シセイショウカイ,0
1470,6200003007033,新規,0,2025-09-16,2025-09-16,ＡＬＹＡＮ　ＡＵＴＯ　ＪＡＰＡＮ合同会社,,合同会社,岐阜県,岐阜市,上西郷３丁目５６番地１,,21,201,5011178,,,,,,,2025-09-16,1,,,,,アルヤンオートジャパン,0
1471,6200005013797,新規,0,2025-09-16,2025-09-16,一般財団法人大里研究所,,その他の設立登記法人,岐阜県,揖斐郡大野町,大字稲富１９５６番地,,21,403,5010501,,,,,,,2025-09-16,1,,,,,オオサトケンキュウショ,0
1474,6210005010224,新規,0,2025-09-16,2025-09-16,税理士法人ネクスト,,その他の設立登記法人,福井県,越前市,塚町第１２号２番地の９,,18,209,9150092,,,,,,,2025-09-16,1,,,,,ネクスト,0
1486,6260003005345,新規,0,2025-09-16,2025-09-16,ＰＵＲＰＯＳＥ合同会社,,合同会社,岡山県,倉敷市,片島町３２３番地８,,33,202,7100805,,,,,,,2025-09-16,1,,,,,パーパス,0
1489,6280001009503,新規,0,2025-09-16,2025-09-16,株式会社貫里自動車商会,,株式会社,島根県,邑智郡邑南町,高見９５６番地３,,32,449,6960406,,,,,,,2025-09-16,1,,,,,ヌイザトジドウシャショウカイ,0
1492,6290001111332,新規,0,2025-09-16,2025-09-16,国際経営実戦文創株式会社,,株式会社,福岡県,宗像市,三郎丸３丁目２番６号,,40,220,8114143,,,,,,,2025-09-16,1,,,,,コクサイケイエイジッセンブンソウ,0
1494,6290003017445,新規,0,2025-09-16,2025-09-16,合同会社Ｐｏｒｔｅ,,合同会社,福岡県,福岡市城南区,友丘４丁目１２番１０号,,40,136,8140112,,,,,,,2025-09-16,1,,,,,ポルテ,0
1498,6310001019787,新規,0,2025-09-16,2025-09-16,株式会社Ｋａｉｒｏｓ,,株式会社,長崎県,長崎市,旭町１－２５－５０４,,42,201,8528003,,,,,,,2025-09-16,1,,,,,カイロス,0
1500,6320001021338,新規,0,2025-09-16,2025-09-16,株式会社Ｎａｔｕｒａ　Ｍｅｄｉｃａ,,株式会社,大分県,別府市,大字別府３３５０番地の６９,,44,202,8740000,,,,,,,2025-09-16,1,,,,,ナチュラメディカ,0
1516,6380001035588,新規,0,2025-09-16,2025-09-16,株式会社アーツ,,株式会社,福島県,郡山市,富田町字稲川原５３番地,,07,203,9638041,,,,,,,2025-09-16,1,,,,,アーツ,0
1517,6390001018105,新規,0,2025-09-16,2025-09-16,株式会社遊府洞,,株式会社,山形県,山形市,城西町１丁目２番１５号,,06,201,9900832,,,,,,,2025-09-16,1,,,,,ユウフドウ,0
1519,6400001017170,新規,0,2025-09-16,2025-09-16,ＳＡＧＥ株式会社,,株式会社,岩手県,北上市,青柳町２丁目２番２３号平和ビル１Ｆ－Ａ,,03,206,0240031,,,,,,,2025-09-16,1,,,,,サージュ,0
1524,6430001095189,新規,0,2025-09-16,2025-09-16,トーコー物産株式会社,,株式会社,北海道,江別市,東光町７番地の６,,01,217,0670023,,,,,,,2025-09-16,1,,,,,トーコーブッサン,0
1525,6430001095206,新規,0,2025-09-16,2025-09-16,株式会社ＡＲＴＥＲＹ,,株式会社,北海道,札幌市中央区,北二条東３丁目２Ｎ２Ｆｕｊｉｉビル４階,,01,101,0600032,,,,,,,2025-09-16,1,,,,,アーテリー,0
1526,6430003018073,新規,0,2025-09-16,2025-09-16,合同会社ベイリーズハッピーレシピ,,合同会社,北海道,札幌市東区,北四十八条東１８丁目２番３４号,,01,103,0070848,,,,,,,2025-09-16,1,,,,,ベイリーズハッピーレシピ,0
1527,6430003018081,新規,0,2025-09-16,2025-09-16,合同会社ＮＡＬＵ,,合同会社,北海道,札幌市中央区,南二条西３丁目１３番地パレードビル４Ｆ,,01,101,0600062,,,,,,,2025-09-16,1,,,,,ナルー,0
1528,6430003018107,新規,0,2025-09-16,2025-09-16,Ｇ．Ｒ．Ｙ．合同会社,,合同会社,北海道,札幌市手稲区,富丘三条３丁目５番２０号,,01,109,0060013,,,,,,,2025-09-16,1,,,,,ジーアールワイ,0
1529,6430003018123,新規,0,2025-09-16,2025-09-16,ちほーむ合同会社,,合同会社,北海道,札幌市中央区,南二条西５丁目３１‐１ＲＭＢｌｄ．７０１,,01,101,0600062,,,,,,,2025-09-16,1,,,,,チホーム,0
1530,6440001009684,新規,0,2025-09-16,2025-09-16,ライズスポーツ株式会社,,株式会社,北海道,函館市,亀田町１７番２０号,,01,202,0400072,,,,,,,2025-09-16,1,,,,,ライズスポーツ,0
1542,6700150131980,新規,0,2025-09-16,2025-09-16,Ａｌａｓｋａ　Ａｉｒｌｉｎｅｓ，Ｉｎｃ．,,外国会社等,東京都,千代田区,霞が関３丁目２－６　東京倶楽部ビルディング５階,,13,101,1000013,アメリカ合衆国ワシントン州シータック，インターナショナルブルーバード１９３００,,,,,,2025-09-16,1,,,,,アラスカエアーラインズインク,0
1543,6700150132194,新規,0,2025-09-16,2025-09-16,ＶＩＳＴＡ　ＬＡＮＫＡ　ＭＯＴＯＲＳ　ＰＶＴ　ＬＴＤ,,外国会社等,栃木県,足利市,葉鹿町１２４８－２,,09,202,3260143,スリランカ民主社会主義共和国、キャンディ、ムルタラワ、デヒガマ、ＮＯ．９９号,,,,,,2025-09-16,1,,,,,ヴイスタランカモーターズピーブイテイーエルテイーデイー,0
1559,7010001258448,新規,0,2025-09-16,2025-09-16,Ｏｖｅｒｓｅａ　Ｗａｌｋｅｒｓ株式会社,,株式会社,東京都,文京区,千石４丁目１４番９号,,13,105,1120011,,,,,,,2025-09-16,1,,,,,オーバーシーウォーカーズ,0
1560,7010001258506,新規,0,2025-09-16,2025-09-16,株式会社長揚,,株式会社,東京都,中央区,日本橋小伝馬町２１－１ＴＨＥＰＯＲＴＡＬＮｉｈｏｍｂａｓｈｉＥａｓｔ９Ｆ,,13,102,1030001,,,,,,,2025-09-16,1,,,,,チョウヨウ,0
1561,7010001258514,新規,0,2025-09-16,2025-09-16,株式会社Ｅｃｌｏｒｉａ,,株式会社,東京都,千代田区,外神田２丁目３番１号,,13,101,1010021,,,,,,,2025-09-16,1,,,,,エクロリア,0
1562,7010001258522,新規,0,2025-09-16,2025-09-16,東京森女草堂株式会社,,株式会社,東京都,千代田区,飯田橋２丁目１６番４号九段下コート２０１,,13,101,1020072,,,,,,,2025-09-16,1,,,,,トウキョウシンジョソウドウ,0
1563,7010002029749,新規,0,2025-09-16,2025-09-16,有限会社ディ・エイ・ビイ,,有限会社,東京都,文京区,本郷５丁目２４番２号,,13,105,1130033,,,,,,,2025-09-16,1,,,,,,0
1565,7010003048715,新規,0,2025-09-16,2025-09-16,ＢＳ亀山２合同会社,,合同会社,東京都,千代田区,大手町２丁目３番２号,,13,101,1000004,,,,,,,2025-09-16,1,,,,,ビーエスカメヤマツー,0
1577,7010401192998,新規,0,2025-09-16,2025-09-16,ＲｅｎｔＥａｓｅ　Ｒｅａｌｔｙ株式会社,,株式会社,東京都,港区,東麻布１丁目１２番５号ＡＣＮ東麻布ビル６階,,13,103,1060044,,,,,,,2025-09-16,1,,,,,レンティーズリアルティ,0
1578,7010401193088,新規,0,2025-09-16,2025-09-16,日本テラピュア株式会社,,株式会社,東京都,港区,北青山１丁目３番１号アールキューブ青山３階,,13,103,1070061,,,,,,,2025-09-16,1,,,,,ニホンテラピュア,0
1579,7010401193096,新規,0,2025-09-16,2025-09-16,隆鈞株式会社,,株式会社,東京都,港区,赤坂２丁目８番１４－４０７号,,13,103,1070052,,,,,,,2025-09-16,1,,,,,リュウキン,0
1580,7010401193113,新規,0,2025-09-16,2025-09-16,株式会社トラッカーズマネージャー,,株式会社,東京都,港区,芝大門２丁目５番５号,,13,103,1050012,,,,,,,2025-09-16,1,,,,,トラッカーズマネージャー,0
1581,7010403036022,新規,0,2025-09-16,2025-09-16,合同会社光華,,合同会社,東京都,港区,芝浦２丁目６番１６－２２０４号,,13,103,1080023,,,,,,,2025-09-16,1,,,,,コウカ,0
1582,7010405024677,新規,0,2025-09-16,2025-09-16,ユイスト特定目的会社,,その他の設立登記法人,東京都,港区,浜松町１丁目２０番１０号ライオネス浜松町５０６号室,,13,103,1050013,,,,,,,2025-09-16,1,,,,,ユイスト,0
1586,7010601067975,新規,0,2025-09-16,2025-09-16,株式会社ｗｉｔｔ,,株式会社,東京都,墨田区,石原３丁目１０番１号,,13,107,1300011,,,,,,,2025-09-16,1,,,,,ウィット,0
1587,7010605004504,新規,0,2025-09-16,2025-09-16,ＮＰＯ法人すたーでぃあむ,,その他の設立登記法人,東京都,江東区,門前仲町１丁目１３番１２号ＨＹＰＥＲＭＩＸ門前仲町３０９号室,,13,108,1350048,,,,,,,2025-09-16,1,,,,,スターディアム,0
1588,7010701006206,新規,0,2025-09-16,2025-09-16,株式会社イツモ,,株式会社,東京都,品川区,西五反田１丁目１４番６号サウシーストビル４０１号室,,13,109,1410031,,,,,,,2025-09-16,1,,,,,,0
1590,7010701048297,新規,0,2025-09-16,2025-09-16,株式会社ＳｔｉｌｌＭｏｖｅ,,株式会社,東京都,品川区,二葉１丁目１３番５号,,13,109,1420043,,,,,,,2025-09-16,1,,,,,スティルムーブ,0
1596,7011001172085,新規,0,2025-09-16,2025-09-16,株式会社ＤＯＴｓ,,株式会社,東京都,渋谷区,宇田川町１０番３号ＶＯＲＴ渋谷ＩＩ,00140663,13,113,1500042,,,,,,,2025-09-16,1,,,,,ドットエス,0
1597,7011001172556,新規,0,2025-09-16,2025-09-16,電子六法株式会社,,株式会社,東京都,渋谷区,道玄坂１丁目１０番８号渋谷道玄坂東急ビル２Ｆ－Ｃ,,13,113,1500043,,,,,,,2025-09-16,1,,,,,デンシロッポウ,0
1601,7011003022395,新規,0,2025-09-16,2025-09-16,ＨＥＲＩＳ合同会社,,合同会社,東京都,渋谷区,代々木４丁目３５番９号ドゥーエ代々木４０１,,13,113,1510053,,,,,,,2025-09-16,1,,,,,ヘリス,0
1602,7011003022544,新規,0,2025-09-16,2025-09-16,合同会社Ｅ．Ａ．ｓｔｕｄｉｏ,,合同会社,東京都,渋谷区,道玄坂１丁目１０番８号渋谷道玄坂東急ビル２Ｆ－Ｃ,,13,113,1500043,,,,,,,2025-09-16,1,,,,,イーエースタジオ,0
1606,7011101113105,新規,0,2025-09-16,2025-09-16,餅志株式会社,,株式会社,東京都,新宿区,百人町１丁目１８番８号大久保カドビル２０４－Ａ０１号室,,13,104,1690073,,,,,,,2025-09-16,1,,,,,ビンシ,0
1607,7011103016330,新規,0,2025-09-16,2025-09-16,ブルーインフラ１９号合同会社,,合同会社,東京都,新宿区,四谷２丁目９番地１５東京ユナイテッド綜合事務所内,,13,104,1600004,,,,,,,2025-09-16,1,,,,,ブルーインフラジュウキュウゴウ,0
1608,7011105011577,新規,0,2025-09-16,2025-09-16,ブルーインフラホールディングス２２号一般社団法人,,その他の設立登記法人,東京都,新宿区,四谷２丁目９番地１５東京ユナイテッド綜合事務所内,,13,104,1600004,,,,,,,2025-09-16,1,,,,,ブルーインフラホールディングスニジュウニゴウ,0
1618,7011601028975,新規,0,2025-09-16,2025-09-16,アクア株式会社,,株式会社,東京都,練馬区,春日町６丁目１６番１１－２７１号,,13,120,1790074,,,,,,,2025-09-16,1,,,,,アクア,0
1619,7011701028710,新規,0,2025-09-16,2025-09-16,晨曦株式会社,,株式会社,東京都,江戸川区,東小岩５丁目３７－１２楽新ビル２０２号室,,13,123,1330052,,,,,,,2025-09-16,1,,,,,シンギ,0
1622,7012401043594,新規,0,2025-09-16,2025-09-16,株式会社アールジェイ,,株式会社,東京都,調布市,調布ケ丘２丁目４番地１－１０１,,13,208,1820021,,,,,,,2025-09-16,1,,,,,アールジェイ,0
1623,7012803003865,新規,0,2025-09-16,2025-09-16,合同会社ｉ‐ｔｅｃｈ,,合同会社,東京都,国分寺市,本町３丁目１６番８号ＡＺＵＭＡＩ２０２,,13,214,1850012,,,,,,,2025-09-16,1,,,,,アイテック,0
1625,7013301054938,新規,0,2025-09-16,2025-09-16,株式会社ＮＯＶＡ　ＶＩＳＩＯＮ,,株式会社,東京都,豊島区,南池袋１丁目１６番２０号ぬかりやビル６Ｆ,,13,116,1710022,,,,,,,2025-09-16,1,,,,,ノバビジョン,0
1626,7013301054954,新規,0,2025-09-16,2025-09-16,根源連合株式会社,,株式会社,東京都,豊島区,上池袋１丁目１７－１０－２Ｆ,,13,116,1700012,,,,,,,2025-09-16,1,,,,,コンゲンレンゴウ,0
1627,7013303007869,新規,0,2025-09-16,2025-09-16,先端テクノロジーズ合同会社,,合同会社,東京都,豊島区,駒込１丁目３５番６－５０２号,,13,116,1700003,,,,,,,2025-09-16,1,,,,,センタンテクノロジーズ,0
1628,7013303007877,新規,0,2025-09-16,2025-09-16,合同会社カンデラ,,合同会社,東京都,豊島区,南池袋１丁目９番１８号,,13,116,1710022,,,,,,,2025-09-16,1,,,,,カンデラ,0
1635,7020003029342,新規,0,2025-09-16,2025-09-16,エクスプラス合同会社,,合同会社,神奈川県,横浜市金沢区,能見台１丁目１番地５,,14,108,2360057,,,,,,,2025-09-16,1,,,,,エクスプラス,0
1637,7020005016974,新規,0,2025-09-16,2025-09-16,一般社団法人地域振興会,,その他の設立登記法人,神奈川県,横浜市青葉区,柿の木台１４番地１０,,14,117,2270048,,,,,,,2025-09-16,1,,,,,,0
1640,7021001086219,新規,0,2025-09-16,2025-09-16,株式会社Ｄｏｕｂｌｅ　Ｎｉｎｅ　Ｅｉｇｈｔ,,株式会社,神奈川県,厚木市,飯山南４丁目６番１２号,,14,212,2430218,,,,,,,2025-09-16,1,,,,,ダブルナインエイト,0
1641,7021001086227,新規,0,2025-09-16,2025-09-16,ホキラオン株式会社,,株式会社,神奈川県,厚木市,中町４丁目１４－１サクセス本厚木ビル６Ｆ,,14,212,2430018,,,,,,,2025-09-16,1,,,,,ホキラオン,0
1643,7021003016504,新規,0,2025-09-16,2025-09-16,ＦＲＪ　Ｈｏｌｄｉｎｇｓ合同会社,,合同会社,神奈川県,大和市,南林間１丁目１３番２１号ＡＰＰＬＥＣＯＵＲＴ南林間４０１号,,14,213,2420006,,,,,,,2025-09-16,1,,,,,エフアールジェーホールディングス,0
1651,7030001168587,新規,0,2025-09-16,2025-09-16,株式会社サントップホールディングス,,株式会社,埼玉県,三郷市,戸ケ崎１丁目１５番地,,11,237,3410044,,,,,,,2025-09-16,1,,,,,サントップホールディングス,0
1661,7040001140495,新規,0,2025-09-16,2025-09-16,株式会社ビービーハブ,,株式会社,千葉県,千葉市中央区,本千葉町１５－１京成千葉中央ビル３Ｆ,,12,101,2600014,,,,,,,2025-09-16,1,,,,,ビービーハブ,0
1662,7040001140512,新規,0,2025-09-16,2025-09-16,株式会社ＴｏＧｏ,,株式会社,千葉県,千葉市若葉区,若松町２０８２番地,,12,104,2640021,,,,,,,2025-09-16,1,,,,,トゥーゴー,0
1664,7050001057276,新規,0,2025-09-16,2025-09-16,株式会社Ｍｉｚｕｈｏ,,株式会社,茨城県,稲敷郡阿見町,よしわら５丁目８番地７　インビクタ１０５,,08,443,3001161,,,,,,,2025-09-16,1,,,,,ミズホ,0
1669,7080103003423,新規,0,2025-09-16,2025-09-16,ＳＡＢＡ‐ＡＵＮ‐ＴＲＡＤＥＲ’ＳＩＮＴＥＲＮＡＴＩＯＮＡＬ合同会社,,合同会社,静岡県,沼津市,石川３７６番地の３,,22,203,4100317,,,,,,,2025-09-16,1,,,,,サバアントレイダーズインターナショナル,0
1671,7080401028114,新規,0,2025-09-16,2025-09-16,株式会社ヒートショックゼロ,,株式会社,静岡県,浜松市中央区,鍛冶町１００－１ザザシティ浜松中央館地下１階,,22,138,4300933,,,,,,,2025-09-16,1,,,,,ヒートショックゼロ,0
1673,7100001038881,新規,0,2025-09-16,2025-09-16,株式会社ＡＩｄｅａ,,株式会社,長野県,松本市,旭３丁目１番１号シェアオフィスＭａｔｓｕｍｏｔｏ,,20,202,3900802,,,,,,,2025-09-16,1,,,,,アイデア,0
1674,7100001038956,新規,0,2025-09-16,2025-09-16,株式会社ベルクブルーメ,,株式会社,長野県,大町市,大町５８３５番地１２０,,20,212,3980002,,,,,,,2025-09-16,1,,,,,ベルクブルーメ,0
1676,7110001039573,新規,0,2025-09-16,2025-09-16,株式会社Ｃａｄｒａｎ　Ｐａｔｉｎｅ,,株式会社,新潟県,佐渡市,松ケ崎１０１７番地１,,15,224,9520821,,,,,,,2025-09-16,1,,,,,カドランパティネ,0
1683,7120001279540,新規,0,2025-09-16,2025-09-16,乙寧貿易株式会社,,株式会社,大阪府,大阪市平野区,加美南４丁目４番２８号５１９号室,,27,126,5470003,,,,,,,2025-09-16,1,,,,,オツネイボウエキ,0
1684,7120001279573,新規,0,2025-09-16,2025-09-16,株式会社シュロー・ノワ,,株式会社,大阪府,大阪市北区,豊崎３丁目５番２号,,27,127,5310072,,,,,,,2025-09-16,1,,,,,シュローノワ,0
1685,7120001279581,新規,0,2025-09-16,2025-09-16,リソウ商事株式会社,,株式会社,大阪府,大阪市西淀川区,中島１丁目３５－１７１－１０,,27,113,5550041,,,,,,,2025-09-16,1,,,,,リソウショウジ,0
1686,7120001279607,新規,0,2025-09-16,2025-09-16,凱業株式会社,,株式会社,大阪府,大阪市東淀川区,大桐３丁目１０番１８号－３０３号,,27,114,5330011,,,,,,,2025-09-16,1,,,,,ガイギョウ,0
1687,7120001279615,新規,0,2025-09-16,2025-09-16,株式会社緑縁,,株式会社,大阪府,枚方市,山之上１丁目２６番１１号,,27,210,5730047,,,,,,,2025-09-16,1,,,,,リョクエン,0
1688,7120001279631,新規,0,2025-09-16,2025-09-16,千百度康株式会社,,株式会社,大阪府,大阪市西成区,萩之茶屋２丁目６番４ー２６２号室,,27,122,5570004,,,,,,,2025-09-16,1,,,,,センバクドコウ,0
1689,7120001279714,新規,0,2025-09-16,2025-09-16,株式会社ｐｉｃａｃｃｏ,,株式会社,大阪府,大阪市城東区,東中浜６丁目１番１１号,,27,118,5360023,,,,,,,2025-09-16,1,,,,,ピカコ,0
1690,7120001279846,新規,0,2025-09-16,2025-09-16,智鵬＿源株式会社,00140656,株式会社,大阪府,大阪市東成区,大今里３丁目１５番６号ＩｍａｚａｔｏＴｏｗｅｒ３０５Ａ,,27,115,5370012,,,,,,,2025-09-16,1,,,,,チホウキンゲン,0
1694,7120003030546,新規,0,2025-09-16,2025-09-16,合同会社金水,,合同会社,大阪府,大阪市生野区,巽北２丁目２４－１３号,,27,116,5440004,,,,,,,2025-09-16,1,,,,,キンスイ,0
1695,7120003030554,新規,0,2025-09-16,2025-09-16,祥石合同会社,,合同会社,大阪府,大阪市西淀川区,姫島２丁目４番１０号パークアベニュー２階Ａ室,,27,113,5550033,,,,,,,2025-09-16,1,,,,,ショウセキ,0
1696,7120003030637,新規,0,2025-09-16,2025-09-16,Ｌｅｇａｌ‐Ｘ合同会社,,合同会社,大阪府,大阪市阿倍野区,阪南町５丁目２３‐１５西田辺林ビル３０２号室,,27,119,5450021,,,,,,,2025-09-16,1,,,,,リーガルエックス,0
1702,7120101072440,新規,0,2025-09-16,2025-09-16,ＨＯＴＡＲＵ株式会社,,株式会社,大阪府,堺市堺区,中瓦町１丁２－９－４０１,,27,141,5900077,,,,,,,2025-09-16,1,,,,,ホタル,0
1703,7120103006710,新規,0,2025-09-16,2025-09-16,明光合同会社,,合同会社,大阪府,堺市堺区,宿院町西３丁２番１４号グランビルド宿院１１０４号室,,27,141,5900958,,,,,,,2025-09-16,1,,,,,メイコウ,0
1713,7130001080518,新規,0,2025-09-16,2025-09-16,株式会社青葉源,,株式会社,京都府,京都市北区,衣笠赤阪町１番地５－２０７号室,,26,101,6038486,,,,,,,2025-09-16,1,,,,,アオバゲン,0
1714,7130001080591,新規,0,2025-09-16,2025-09-16,ファストプランエンジニアリング株式会社,,株式会社,京都府,舞鶴市,字女布２番地６５,,26,202,6240831,,,,,,,2025-09-16,1,,,,,ファストプランエンジニアリング,0
1722,7140001140007,新規,0,2025-09-16,2025-09-16,目堅エステート株式会社,,株式会社,兵庫県,芦屋市,親王塚町１１番２９－３０３号,,28,206,6590016,,,,,,,2025-09-16,1,,,,,メカタエステート,0
1728,7160003003597,新規,0,2025-09-16,2025-09-16,合同会社ＢＩＦａｂｂｉｅ,,合同会社,滋賀県,長浜市,南高田町６番５７号,,25,203,5260032,,,,,,,2025-09-16,1,,,,,ビーアイファビー,0
1736,7180001168622,新規,0,2025-09-16,2025-09-16,株式会社山田建築工房,,株式会社,愛知県,名古屋市中区,新栄３丁目５番１号,,23,106,4600007,,,,,,,2025-09-16,1,,,,,ヤマダケンチクコウボウ,0
1737,7180001168663,新規,0,2025-09-16,2025-09-16,株式会社リゲル,,株式会社,愛知県,名古屋市守山区,金屋２丁目７番地・１号室,,23,113,4630072,,,,,,,2025-09-16,1,,,,,リゲル,0
1740,7180005021216,新規,0,2025-09-16,2025-09-16,医療法人希会,,その他の設立登記法人,愛知県,瀬戸市,松原町１丁目３４番地の１,,23,204,4890985,,,,,,,2025-09-16,1,,,,,ノゾミカイ,0
1741,7180005021224,新規,0,2025-09-16,2025-09-16,医療法人藤慈会,,その他の設立登記法人,愛知県,名古屋市名東区,平和が丘２丁目２１２番地,,23,115,4650097,,,,,,,2025-09-16,1,,,,,トウジカイ,0
1742,7180301040209,新規,0,2025-09-16,2025-09-16,株式会社Ｌｕｃａ,,株式会社,愛知県,豊田市,寿町４丁目５７番地９,,23,211,4710834,,,,,,,2025-09-16,1,,,,,ルカ,0
1746,7200003007032,新規,0,2025-09-16,2025-09-16,ＭＡＬＩＫ　ＴＲＡＤＩＮＧ合同会社,,合同会社,岐阜県,岐阜市,千石町２丁目２１番地４木村ビル２階Ａ－２,,21,201,5008819,,,,,,,2025-09-16,1,,,,,マリクトレーディング,0
1756,7260001040541,新規,0,2025-09-16,2025-09-16,株式会社ＮＳグループ,,株式会社,岡山県,備前市,八木山８４９番地７,,33,211,7050133,,,,,,,2025-09-16,1,,,,,エヌエスグループ,0
1761,7290001111496,新規,0,2025-09-16,2025-09-16,ＳＰＡＲＫ株式会社,,株式会社,福岡県,福岡市南区,多賀１丁目４番２５－２０３号,,40,134,8150072,,,,,,,2025-09-16,1,,,,,スパーク,0
1764,7290801031852,新規,0,2025-09-16,2025-09-16,株式会社友志ランテック,,株式会社,福岡県,中間市,扇ヶ浦２丁目４番３６号,,40,215,8090023,,,,,,,2025-09-16,1,,,,,ユウシランテック,0
1767,7300003002337,新規,0,2025-09-16,2025-09-16,虚実家合同会社,,合同会社,佐賀県,佐賀市,鍋島町大字八戸１６１４－８,,41,201,8400857,,,,,,,2025-09-16,1,,,,,キョジツカ,0
1770,7320001021337,新規,0,2025-09-16,2025-09-16,株式会社ＵＳＡ物流,,株式会社,大分県,宇佐市,大字長洲１７１４番地の４,,44,211,8720001,,,,,,,2025-09-16,1,,,,,ウサブツリュウ,0
1771,7320003004769,新規,0,2025-09-16,2025-09-16,永興合同会社,,合同会社,大分県,大分市,賀来北２丁目９番１０号,,44,201,8700848,,,,,,,2025-09-16,1,,,,,エイコウ,0
1772,7340001027654,新規,0,2025-09-16,2025-09-16,株式会社ＮＩＫＣ,,株式会社,鹿児島県,鹿児島市,中央町２１番５号２階,,46,201,8900053,,,,,,,2025-09-16,1,,,,,ニック,0
1773,7340003004949,新規,0,2025-09-16,2025-09-16,合同会社ＳＹ‐ＫＡＫＲ,,合同会社,鹿児島県,姶良市,宮島町１３番地４－６０４号,,46,225,8995432,,,,,,,2025-09-16,1,,,,,シューカクアール,0
1778,7360005007287,新規,0,2025-09-16,2025-09-16,特定非営利活動法人アイズ,,その他の設立登記法人,沖縄県,中頭郡読谷村,字大湾７２１番地３,,47,324,9040313,,,,,,,2025-09-16,1,,,,,アイズ,0
1781,7370003007288,新規,0,2025-09-16,2025-09-16,合同会社ひなたや,,合同会社,宮城県,岩沼市,下野郷字北谷地２５５－３,,04,211,9892421,,,,,,,2025-09-16,1,,,,,ヒナタヤ,0
1788,7430001095213,新規,0,2025-09-16,2025-09-16,株式会社Ｄ‐Ｐｌａｎｎｉｎｇ,,株式会社,北海道,札幌市中央区,南十四条西７丁目２番１６号,,01,101,0640914,,,,,,,2025-09-16,1,,,,,ディープランニング,0
1789,7430001095254,新規,0,2025-09-16,2025-09-16,株式会社良田商事,,株式会社,北海道,札幌市北区,北二十四条西４丁目１番１２号第一義経ビル２Ｆ,,01,102,0010024,,,,,,,2025-09-16,1,,,,,ヨシダショウジ,0
1793,7430003018080,新規,0,2025-09-16,2025-09-16,合同会社Ｓｎｏｗｍａｎ　Ｃａｐｉｔａｌ　Ｇｒｏｕｐ,,合同会社,北海道,虻田郡ニセコ町,字ニセコ３８７番地７１,,01,395,0481511,,,,,,,2025-09-16,1,,,,,スノーマンキャピタルグループ,0
1794,7430005015299,新規,0,2025-09-16,2025-09-16,特定非営利活動法人シン・サッポロチェスクラブ,,その他の設立登記法人,北海道,札幌市南区,川沿十六条１丁目１番５－４０１号,,01,106,0050816,,,,,,,2025-09-16,1,,,,,シンサッポロチェスクラブ,0
1798,7500001026516,新規,0,2025-09-16,2025-09-16,Ｍｙｓｉｇ株式会社,,株式会社,愛媛県,今治市,南日吉町２丁目１番１３号,,38,202,7940056,,,,,,,2025-09-16,1,,,,,ミューシグ,0
1814,8010001258273,新規,0,2025-09-16,2025-09-16,Ａｇｉｎｏｄｅ　Ｊａｐａｎ株式会社,,株式会社,東京都,千代田区,永田町１丁目１１番２８号,,13,101,1000014,,,,,,,2025-09-16,1,,,,,アジノドジャパン,0
1815,8010001258406,新規,0,2025-09-16,2025-09-16,盛新商事株式会社,,株式会社,東京都,中央区,銀座１丁目１２番４号Ｎ＆ＥＢＬＤ．７階,,13,102,1040061,,,,,,,2025-09-16,1,,,,,セイシンショウジ,0
1816,8010001258447,新規,0,2025-09-16,2025-09-16,ＷＷＦＦ　Ｔｅｃｈ　Ｓｏｌｕｔｉｏｎｓ　ｃｏｒｐｏｒａｔｉｏｎ株式会社,,株式会社,東京都,中央区,日本橋室町１丁目１１番１２号日本橋水野ビル７階,,13,102,1030022,,,,,,,2025-09-16,1,,,,,,0
1817,8010001258513,新規,0,2025-09-16,2025-09-16,ＡＢＢ株式会社,,株式会社,東京都,千代田区,神田須田町２丁目１５番３号　２１５ビル２０６号室,,13,101,1010041,,,,,,,2025-09-16,1,,,,,エービービー,0
1818,8010001258521,新規,0,2025-09-16,2025-09-16,株式会社ドルクス,,株式会社,東京都,中央区,日本橋室町１丁目１１番４号,,13,102,1030022,,,,,,,2025-09-16,1,,,,,ドルクス,0
1822,8010003048557,新規,0,2025-09-16,2025-09-16,合同会社紬,,合同会社,東京都,中央区,銀座１丁目１２番４号Ｎ＆ＥＢＬＤ．６Ｆ,,13,102,1040061,,,,,,,2025-09-16,1,,,,,ツムギ,0
1826,8010401192832,新規,0,2025-09-16,2025-09-16,株式会社グローバルＭ＆Ａパートナーズ,,株式会社,東京都,港区,芝大門２丁目３番６号,,13,103,1050012,,,,,,,2025-09-16,1,,,,,グローバルエムアンドエーパートナーズ,0
1827,8010401192948,新規,0,2025-09-16,2025-09-16,エナジー戦略パートナーズ株式会社,,株式会社,東京都,港区,北青山３丁目３番１号アールキューブ青山３階,,13,103,1070061,,,,,,,2025-09-16,1,,,,,エナジーセンリャクパートナーズ,0
1828,8010401193046,新規,0,2025-09-16,2025-09-16,Ｆｏｕｎｚ株式会社,,株式会社,東京都,港区,六本木３丁目１６番１２号六本木ＫＳビル５Ｆ,,13,103,1060032,,,,,,,2025-09-16,1,,,,,ファウンズ,0
1829,8010401193129,新規,0,2025-09-16,2025-09-16,ＫＣＡＰＢＯ７株式会社,,株式会社,東京都,港区,南青山３丁目１０番４３号,,13,103,1070062,,,,,,,2025-09-16,1,,,,,ケーシーエーピービーオーセブン,0
1831,8010403036038,新規,0,2025-09-16,2025-09-16,ＣＬＡＦＩＳ合同会社,,合同会社,東京都,港区,北青山１丁目３番１号アールキューブ青山３階,,13,103,1070061,,,,,,,2025-09-16,1,,,,,クラフィス,0
1840,8010601067982,新規,0,2025-09-16,2025-09-16,Ｂｉｔｃｏｉｎ　Ｊａｐａｎ株式会社,,株式会社,東京都,墨田区,横網１丁目１０番５号,,13,107,1300015,,,,,,,2025-09-16,1,,,,,ビットコインジャパン,0
1842,8010605004503,新規,0,2025-09-16,2025-09-16,一般社団法人日本国際インフルエンサー協会,,その他の設立登記法人,東京都,江東区,新大橋１丁目８番１１号,,13,108,1350007,,,,,,,2025-09-16,1,,,,,ニホンコクサイインフルエンサーキョウカイ,0
1846,8010701048296,新規,0,2025-09-16,2025-09-16,株式会社ＴＨＥ　ＲＯＷ,,株式会社,東京都,品川区,東品川４丁目１１－３６－２７１３,,13,109,1400002,,,,,,,2025-09-16,1,,,,,ザロウ,0
1848,8010801036589,新規,0,2025-09-16,2025-09-16,ＫＡＫ　Ａｆｆｉｄａ株式会社,,株式会社,東京都,大田区,山王４丁目１５番１４号,,13,111,1430023,,,,,,,2025-09-16,1,,,,,ケーエーケーアッフィーダ,0
1849,8010801036597,新規,0,2025-09-16,2025-09-16,ＴＳホールディングス株式会社,,株式会社,東京都,大田区,田園調布本町６番１６号,,13,111,1450072,,,,,,,2025-09-16,1,,,,,ティーエスホールディングス,0
1852,8010805003206,新規,0,2025-09-16,2025-09-16,一般社団法人くるみの会,,その他の設立登記法人,東京都,大田区,田園調布３丁目３４番２号,,13,111,1450071,,,,,,,2025-09-16,1,,,,,クルミノカイ,0
1859,8011001172010,新規,0,2025-09-16,2025-09-16,株式会社ＣＨＩＬＬＥＲＳ,,株式会社,東京都,目黒区,中央町１丁目４番３２号目黒区中央町ＹＫマンション５０２,,13,110,1520001,,,,,,,2025-09-16,1,,,,,チラーズ,0
1860,8011001172019,新規,0,2025-09-16,2025-09-16,株式会社ＡＩ　Ｒｉｃｈ　Ｓｔｕｄｉｏ,,株式会社,東京都,渋谷区,道玄坂１丁目１０番８号渋谷道玄坂東急ビル２Ｆ－Ｃ,,13,113,1500043,,,,,,,2025-09-16,1,,,,,エーアイリッチスタジオ,0
1861,8011001172035,新規,0,2025-09-16,2025-09-16,株式会社みづは,,株式会社,東京都,渋谷区,恵比寿西２丁目４番８号ウィンド恵比寿ビル８Ｆ,,13,113,1500021,,,,,,,2025-09-16,1,,,,,ミヅハ,0
1862,8011001172381,新規,0,2025-09-16,2025-09-16,エイジーエルジャパン株式会社,,株式会社,東京都,渋谷区,千駄ヶ谷５丁目２７番５号リンクスクエア新宿１６階,,13,113,1510051,,,,,,,2025-09-16,1,,,,,エイジーエルジャパン,0
1863,8011001172555,新規,0,2025-09-16,2025-09-16,株式会社ＳＷＥＥＴ　ＤＲＥＡＭＳ,,株式会社,東京都,渋谷区,千駄ヶ谷４丁目５番１号ニュー外苑ハイツ３０６号,,13,113,1510051,,,,,,,2025-09-16,1,,,,,スウィートドリームス,0
1864,8011003022361,新規,0,2025-09-16,2025-09-16,合同会社ライフエイド,,合同会社,東京都,渋谷区,恵比寿西２丁目８番４号ＥＸ恵比寿西ビル５階,,13,113,1500021,,,,,,,2025-09-16,1,,,,,ライフエイド,0
1865,8011005011164,新規,0,2025-09-16,2025-09-16,医療法人社団三永会,,その他の設立登記法人,東京都,渋谷区,神南１丁目２３番１３号丸大ビル７階,,13,113,1500041,,,,,,,2025-09-16,1,,,,,サンエイカイ,0
1869,8011101113104,新規,0,2025-09-16,2025-09-16,株式会社ｄｂａｏ,,株式会社,東京都,新宿区,西新宿３丁目２番９号,,13,104,1600023,,,,,,,2025-09-16,1,,,,,ディービーエイオー,0
1874,8011105011576,新規,0,2025-09-16,2025-09-16,Ｇインフラホールディングス５号一般社団法人,,その他の設立登記法人,東京都,新宿区,四谷２丁目９番地１５東京ユナイテッド綜合事務所内,,13,104,1600004,,,,,,,2025-09-16,1,,,,,ジーインフラホールディングスゴゴウ,0
1875,8011201026643,新規,0,2025-09-16,2025-09-16,株式会社ＪＡＭ,,株式会社,東京都,中野区,若宮３丁目４０番１号,,13,114,1650033,,,,,,,2025-09-16,1,,,,,ジェイエイエム,0
1876,8011201026651,新規,0,2025-09-16,2025-09-16,ＴｏｋｙｏＳＯＩＬ株式会社,,株式会社,東京都,中野区,若宮３丁目３－２１,,13,114,1650033,,,,,,,2025-09-16,1,,,,,トウキョウソイル,0
1879,8011301030883,新規,0,2025-09-16,2025-09-16,皆行株式会社,,株式会社,東京都,杉並区,上井草１丁目３３番７－３０２号コーポ菱和,,13,115,1670023,,,,,,,2025-09-16,1,,,,,ミナイ,0
1880,8011303005710,新規,0,2025-09-16,2025-09-16,合同会社ＬＥＩ,,合同会社,東京都,杉並区,松庵１丁目１９番３号,,13,115,1670054,,,,,,,2025-09-16,1,,,,,レイ,0
1881,8011303005719,新規,0,2025-09-16,2025-09-16,司紡繊合同会社,,合同会社,東京都,杉並区,高円寺南２丁目３番３号宝昇館３Ｆ,,13,115,1660003,,,,,,,2025-09-16,1,,,,,ツカサボウセン,0
1884,8011403004835,新規,0,2025-09-16,2025-09-16,合同会社Ｔｒｅｅ　Ｔｅｃｈ　Ｈｉｒｅｓ,,合同会社,東京都,板橋区,高島平９丁目１６－１４アールズプレイスアゼスト高島平４０１,,13,119,1750082,,,,,,,2025-09-16,1,,,,,ツリーテックハイヤーズ,0
1885,8011501032556,新規,0,2025-09-16,2025-09-16,株式会社ＥＧＧリフォーム,,株式会社,東京都,北区,岩淵町５番１号,,13,117,1150041,,,,,,,2025-09-16,1,,,,,エッグリフォーム,0
1886,8011601028966,新規,0,2025-09-16,2025-09-16,株式会社三本槍,,株式会社,東京都,練馬区,旭丘１丁目６７番６号インディゴ６６－１階,,13,120,1760005,,,,,,,2025-09-16,1,,,,,サンボンヤリ,0
1887,8011701028726,新規,0,2025-09-16,2025-09-16,Ｉｌｌｕｍｅｄｉａ株式会社,,株式会社,東京都,江戸川区,清新町２丁目２－２０－６１６,,13,123,1340087,,,,,,,2025-09-16,1,,,,,イルメディア,0
1888,8011801046735,新規,0,2025-09-16,2025-09-16,株式会社Ｔ＆Ｋ,,株式会社,東京都,足立区,梅田７丁目２９番１４号ライオンズシティ梅島８０２号室,,13,121,1230851,,,,,,,2025-09-16,1,,,,,ティーアンドケー,0
1889,8011803007066,新規,0,2025-09-16,2025-09-16,合同会社グランティス,,合同会社,東京都,葛飾区,東新小岩７丁目１１番３号スカイピア新小岩ＩＩ１０２号,00140654,13,122,1240023,,,,,,,2025-09-16,1,,,,,グランティス,0
1892,8012301014538,新規,0,2025-09-16,2025-09-16,株式会社アルデバラン,,株式会社,東京都,町田市,金井ヶ丘３丁目７－２７,,13,209,1950076,,,,,,,2025-09-16,1,,,,,アルデバラン,0
1896,8012401043593,新規,0,2025-09-16,2025-09-16,Ｉｓｈｆａｑ　Ｔｒａｄｉｎｇ株式会社,,株式会社,東京都,府中市,是政４丁目２－３－４０２,,13,206,1830014,,,,,,,2025-09-16,1,,,,,イシファクトレーディング,0
1901,8013305003741,新規,0,2025-09-16,2025-09-16,一般社団法人オンセラ健康法普及協会,,その他の設立登記法人,東京都,豊島区,北大塚２丁目１９番２号インプルーブ大塚４０５号,,13,116,1700004,,,,,,,2025-09-16,1,,,,,オンセラケンコウフキュウキョウカイ,0
1902,8013305003766,新規,0,2025-09-16,2025-09-16,行政書士法人ファインド事務所,,その他の設立登記法人,東京都,豊島区,南池袋２丁目８番１８号コーポ高砂３０５号室,,13,116,1710022,,,,,,,2025-09-16,1,,,,,ファインドジムショ,0
1911,8021001086201,新規,0,2025-09-16,2025-09-16,株式会社Ｒｏｃｋ　ｃｉｔｙ,,株式会社,神奈川県,相模原市緑区,橋本６丁目１２番２号Ｓ・Ｇ－ＢＬＤ２０３,,14,151,2520143,,,,,,,2025-09-16,1,,,,,ロックシティ,0
1912,8021001086218,新規,0,2025-09-16,2025-09-16,株式会社タクミ工機,,株式会社,神奈川県,厚木市,旭町５丁目４０番２５－１号,,14,212,2430014,,,,,,,2025-09-16,1,,,,,タクミコウキ,0
1913,8021001086309,新規,0,2025-09-16,2025-09-16,株式会社一幸,,株式会社,神奈川県,藤沢市,円行２丁目１５番地の２,,14,205,2520805,,,,,,,2025-09-16,1,,,,,イッコウ,0
1915,8021003016544,新規,0,2025-09-16,2025-09-16,ｓＡｂｌｉｅＲ合同会社,,合同会社,神奈川県,茅ヶ崎市,東海岸北１丁目６番１７号,,14,207,2530053,,,,,,,2025-09-16,1,,,,,サブリエ,0
1927,8040003028507,新規,0,2025-09-16,2025-09-16,ＫＩＲＡ　ＷＨＩＴＥ合同会社,,合同会社,千葉県,松戸市,松戸１２４０番地の３エクセル松戸６０２号,,12,207,2710092,,,,,,,2025-09-16,1,,,,,キラホワイト,0
1928,8040005022870,新規,0,2025-09-16,2025-09-16,土地家屋調査士法人宮野事務所,,その他の設立登記法人,千葉県,市原市,白金町１丁目７７番地,,12,219,2900059,,,,,,,2025-09-16,1,,,,,ミヤノジムショ,0
1929,8050001057275,新規,0,2025-09-16,2025-09-16,株式会社ギフトマン,,株式会社,茨城県,つくば市,竹園２丁目７番地２７ＩＮＯレジデンス２０９号,,08,220,3050032,,,,,,,2025-09-16,1,,,,,ギフトマン,0
1930,8050001057291,新規,0,2025-09-16,2025-09-16,株式会社ＩＷＡＩ　ＴＲＡＤＩＮＧ,,株式会社,茨城県,坂東市,岩井２２３０番地３,,08,228,3060631,,,,,,,2025-09-16,1,,,,,イワイトレイディング,0
1932,8050003009555,新規,0,2025-09-16,2025-09-16,ＢＩＬＡＬ合同会社,,合同会社,茨城県,結城郡八千代町,大字平塚４８０７－３３８,,08,521,3003561,,,,,,,2025-09-16,1,,,,,ビラル,0
1943,8110001039572,新規,0,2025-09-16,2025-09-16,株式会社Ｌｉｎｏ,,株式会社,新潟県,新潟市西区,五十嵐２の町８３５９－８６,,15,107,9502102,,,,,,,2025-09-16,1,,,,,リノ,0
1954,8120001279572,新規,0,2025-09-16,2025-09-16,吉川株式会社,,株式会社,大阪府,大阪市生野区,中川３丁目４番１７号３０１室,,27,116,5440005,,,,,,,2025-09-16,1,,,,,ヨシカワ,0
1955,8120001279606,新規,0,2025-09-16,2025-09-16,株式会社エムワイビズ,,株式会社,大阪府,大阪市城東区,東中浜２丁目１４番３号,,27,118,5360023,,,,,,,2025-09-16,1,,,,,エムワイビズ,0
1956,8120001279622,新規,0,2025-09-16,2025-09-16,株式会社心泊,,株式会社,大阪府,大阪市浪速区,戎本町１丁目４－１６トゥリオーニＥＢＩＳＵ４０１号室,,27,111,5560013,,,,,,,2025-09-16,1,,,,,シンパク,0
1957,8120001279630,新規,0,2025-09-16,2025-09-16,嘉和株式会社,,株式会社,大阪府,大阪市東住吉区,住道矢田９丁目１４番２ー２０１号,,27,121,5460022,,,,,,,2025-09-16,1,,,,,カワ,0
1958,8120001279639,新規,0,2025-09-16,2025-09-16,株式会社Ｒｉｖａｎｃｅ,,株式会社,大阪府,大阪市中央区,南久宝寺町３丁目２－７第一住建南久宝寺町ビル５０２,,27,128,5410058,,,,,,,2025-09-16,1,,,,,リヴァンス,0
1959,8120001279647,新規,0,2025-09-16,2025-09-16,Ｙｉｄｕ　Ｇｒｏｕｐ　Ｊａｐａｎ株式会社,,株式会社,大阪府,大阪市港区,市岡３丁目１３番９号３０２Ｂ室,,27,107,5520012,,,,,,,2025-09-16,1,,,,,ウィドゥグループジャパン,0
1961,8120003030537,新規,0,2025-09-16,2025-09-16,ヤンジ合同会社,,合同会社,大阪府,大阪市西成区,天神ノ森２丁目１－１９,,27,122,5570013,,,,,,,2025-09-16,1,,,,,ヤンジ,0
1970,8120901051510,新規,0,2025-09-16,2025-09-16,矢本アセットマネジメント株式会社,,株式会社,大阪府,茨木市,上中条１丁目３番２号の２,,27,211,5670881,,,,,,,2025-09-16,1,,,,,ヤモトアセットマネジメント,0
1980,8140001139997,新規,0,2025-09-16,2025-09-16,株式会社ピースエッグ,,株式会社,兵庫県,三田市,天神３丁目３９番３号,,28,219,6691531,,,,,,,2025-09-16,1,,,,,ピースエッグ,0
1981,8140001140006,新規,0,2025-09-16,2025-09-16,株式会社Ｍｉｎｅ,,株式会社,兵庫県,姫路市,元町７５番地１１元町東ビル１階１５号,,28,201,6700049,,,,,,,2025-09-16,1,,,,,マイン,0
1982,8140001140014,新規,0,2025-09-16,2025-09-16,株式会社カーショップルーディー,,株式会社,兵庫県,宍粟市,一宮町能倉７９４番地１,,28,227,6714142,,,,,,,2025-09-16,1,,,,,カーショップルーディー,0
1983,8140001140022,新規,0,2025-09-16,2025-09-16,株式会社８ｗｉｌｌ,,株式会社,兵庫県,姫路市,飾磨区山崎台４２番地２,,28,201,6728096,,,,,,,2025-09-16,1,,,,,エイトウィル,0
1985,8140003022532,新規,0,2025-09-16,2025-09-16,合同会社ＷＡＲＹＡＨ　ＴＲＡＤＩＮＧ　ＣＯＭＰＡＮＹ,,合同会社,兵庫県,神戸市兵庫区,上庄通２丁目４－２９,,28,105,6520862,,,,,,,2025-09-16,1,,,,,ワリヤートレイディングカンパニー,0
1986,8150001028398,新規,0,2025-09-16,2025-09-16,株式会社香美,,株式会社,奈良県,桜井市,大字粟殿８３４番地の２１,,29,206,6330062,,,,,,,2025-09-16,1,,,,,コウミ,0
1990,8180001168646,新規,0,2025-09-16,2025-09-16,株式会社ＳＷ,,株式会社,愛知県,江南市,東野町神田８６番地,,23,217,4838431,,,,,,,2025-09-16,1,,,,,エスダブル,0
1993,8180003029012,新規,0,2025-09-16,2025-09-16,スリジエドール合同会社,,合同会社,愛知県,名古屋市昭和区,福原町３丁目１９－４,,23,107,4660803,,,,,,,2025-09-16,1,,,,,スリジエドール,0
1994,8180003029020,新規,0,2025-09-16,2025-09-16,ミライエ合同会社,,合同会社,愛知県,名古屋市中区,平和１丁目１８番１３号ダイアパレス金山フォレストフロント８０４号,,23,106,4600021,,,,,,,2025-09-16,1,,,,,ミライエ,0
1995,8180003029053,新規,0,2025-09-16,2025-09-16,合同会社なないろカンパニー,,合同会社,愛知県,名古屋市千種区,猫洞通５丁目３０番地,,23,101,4640032,,,,,,,2025-09-16,1,,,,,ナナイロカンパニー,0
1996,8180005021215,新規,0,2025-09-16,2025-09-16,医療法人スペラール,,その他の設立登記法人,愛知県,半田市,新池町２丁目２０１番地の１９,,23,205,4750078,,,,,,,2025-09-16,1,,,,,スペラール,0
2001,8200001044217,新規,0,2025-09-16,2025-09-16,株式会社ＢＡＯ　ＭＯＴＯＲＳ,,株式会社,岐阜県,羽島市,正木町上大浦４丁目８番地,,21,209,5016212,,,,,,,2025-09-16,1,,,,,バオモータース,0
2002,8200003007031,新規,0,2025-09-16,2025-09-16,ＹＣＹＭ合同会社,,合同会社,岐阜県,大垣市,墨俣町墨俣４９９番地１３,,21,202,5030102,,,,,,,2025-09-16,1,,,,,ワイシーワイエム,0
2007,8220003004118,新規,0,2025-09-16,2025-09-16,ｍｅｄｉｏｍ合同会社,,合同会社,石川県,金沢市,間明町２丁目１７番地,,17,201,9218005,,,,,,,2025-09-16,1,,,,,ミディオム,0
2013,8270003001787,新規,0,2025-09-16,2025-09-16,合同会社ニコラボ,,合同会社,鳥取県,米子市,彦名町４１４５番地,,31,202,6830854,,,,,,,2025-09-16,1,,,,,ニコラボ,0
2017,8290001111347,新規,0,2025-09-16,2025-09-16,Ｍ．ＭＡＸ株式会社,,株式会社,福岡県,福岡市中央区,地行浜２丁目２番４－２７０２号ザ・パークハウス福岡タワーズＷＥＳＴ,,40,133,8100065,,,,,,,2025-09-16,1,,,,,エムマックス,0
2023,8320003004768,新規,0,2025-09-16,2025-09-16,クラフトベース合同会社,,合同会社,大分県,大分市,大字片島６６７番地,,44,201,8700943,,,,,,,2025-09-16,1,,,,,クラフトベース,0
2045,8430001095179,新規,0,2025-09-16,2025-09-16,株式会社サンクレール,,株式会社,北海道,札幌市北区,篠路一条９丁目１番７３号,,01,102,0028021,,,,,,,2025-09-16,1,,,,,サンクレール,0
2046,8430001095204,新規,0,2025-09-16,2025-09-16,株式会社ＤＨＤ,,株式会社,北海道,札幌市中央区,南四条西１０丁目１０１０－３サンシャインシティ２１・２２１号室,,01,101,0640804,,,,,,,2025-09-16,1,,,,,ディーエイチディー,0
2047,8430001095212,新規,0,2025-09-16,2025-09-16,帝建工営株式会社,,株式会社,北海道,室蘭市,八丁平３丁目１６番１４号,,01,205,0500061,,,,,,,2025-09-16,1,,,,,テイケンコウエイ,0
2048,8430001095220,新規,0,2025-09-16,2025-09-16,株式会社ウエキ企画,,株式会社,北海道,札幌市白石区,栄通１丁目１０番１５号,,01,104,0030021,,,,,,,2025-09-16,1,,,,,ウエキキカク,0
2050,8430003018071,新規,0,2025-09-16,2025-09-16,合同会社Ｉ　Ｂｌｏｏｍ,,合同会社,北海道,札幌市西区,八軒八条東５丁目６番１号,,01,107,0630868,,,,,,,2025-09-16,1,,,,,アイブルーム,0
2051,8470001020892,新規,0,2025-09-16,2025-09-16,株式会社煌凛,,株式会社,香川県,高松市,太田上町２０６番地１０,,37,201,7618074,,,,,,,2025-09-16,1,,,,,キラリン,0
2052,8490001011163,新規,0,2025-09-16,2025-09-16,株式会社どんぐり勘定,,株式会社,高知県,高知市,はりまや町１丁目２番１２－７０１号,,39,201,7800822,,,,,,,2025-09-16,1,,,,,ドングリカンジョウ,0
2065,9010001258289,新規,0,2025-09-16,2025-09-16,株式会社東京カウンセリングオフィス,,株式会社,東京都,千代田区,九段南１丁目５－６りそな九段ビルＫＳフロア,,13,101,1020074,,,,,,,2025-09-16,1,,,,,トウキョウカウンセリングオフィス,0
2066,9010001258446,新規,0,2025-09-16,2025-09-16,川崎酒造株式会社,,株式会社,東京都,文京区,千石４丁目１４番９号,,13,105,1120011,,,,,,,2025-09-16,1,,,,,カワサキシュゾウ,0
2067,9010001258454,新規,0,2025-09-16,2025-09-16,株式会社ＴＨＲＥＥＰＯＰ,,株式会社,東京都,千代田区,外神田３丁目６番４号第一勧業信用組合秋葉原ビル５階,,13,101,1010021,,,,,,,2025-09-16,1,,,,,スリーポップ,0
2068,9010001258479,新規,0,2025-09-16,2025-09-16,株式会社グランディア,,株式会社,東京都,千代田区,内幸町１丁目２－１日土地内幸町ビル５階,,13,101,1000011,,,,,,,2025-09-16,1,,,,,グランディア,0
2069,9010001258487,新規,0,2025-09-16,2025-09-16,アスシストファーマ株式会社,,株式会社,東京都,文京区,白山１丁目６番４－２０８号,,13,105,1130001,,,,,,,2025-09-16,1,,,,,,0
2070,9010001258504,新規,0,2025-09-16,2025-09-16,株式会社タンチョタン,,株式会社,東京都,中央区,晴海３丁目１３番１－Ｅ２５０３号,,13,102,1040053,,,,,,,2025-09-16,1,,,,,タンチョタン,0
2078,9010003048713,新規,0,2025-09-16,2025-09-16,ホクレア・マネジメント合同会社,,合同会社,東京都,中央区,日本橋小舟町８番１３号天翔日本橋ビル５０１,,13,102,1030024,,,,,,,2025-09-16,1,,,,,ホクレアマネジメント,0
2088,9010401192971,新規,0,2025-09-16,2025-09-16,株式会社ＭＴ,,株式会社,東京都,港区,赤坂５丁目２－３３ＩｓａＩＡｋａｓａｋＡ１２１１,,13,103,1070052,,,,,,,2025-09-16,1,,,,,エムティー,0
2089,9010401193053,新規,0,2025-09-16,2025-09-16,ＧＳＳＧチクデン株式会社,,株式会社,東京都,港区,元麻布３丁目１番６号,,13,103,1060046,,,,,,,2025-09-16,1,,,,,ジーエスエスジーチクデン,0
2090,9010401193061,新規,0,2025-09-16,2025-09-16,株式会社コロレス,,株式会社,東京都,港区,北青山２丁目１２番４号坂本ビル３階,,13,103,1070061,,,,,,,2025-09-16,1,,,,,コロレス,0
2091,9010403036029,新規,0,2025-09-16,2025-09-16,合同会社ＴＵＲＮＩＮＧ　ＯＶＥＲ　Ａ　ＮＥＷ　ＬＥＡＦ,,合同会社,東京都,港区,西新橋３丁目５番２号,,13,103,1050003,,,,,,,2025-09-16,1,,,,,ターニングオーバーアニューリーフ,0
2092,9010403036045,新規,0,2025-09-16,2025-09-16,Ｋ‐ＮＥＸＵＳ　ＭＡＲＫＥＴＩＮＧ合同会社,,合同会社,東京都,港区,北青山１丁目３番１号アールキューブ青山３階,,13,103,1070061,,,,,,,2025-09-16,1,,,,,ケイネクサスマーケティング,0
2097,9010503007994,新規,0,2025-09-16,2025-09-16,Ｍａｃｋｅｙ合同会社,,合同会社,東京都,台東区,浅草橋４丁目９－１０,,13,106,1110053,,,,,,,2025-09-16,1,,,,,マッキー,0
2099,9010603011789,新規,0,2025-09-16,2025-09-16,フェムテック・ワールド合同会社,,合同会社,東京都,江東区,潮見１丁目２９番２２－４０３号,,13,108,1350052,,,,,,,2025-09-16,1,,,,,フェムテックワールド,0
2101,9010701048295,新規,0,2025-09-16,2025-09-16,巧巧水晶株式会社,,株式会社,東京都,品川区,北品川５丁目１２番１５－３０５号,,13,109,1410001,,,,,,,2025-09-16,1,,,,,チャオチャオスイショウ,0
2104,9010803005541,新規,0,2025-09-16,2025-09-16,合同会社Ｔｗｅｎｔｙ,,合同会社,東京都,大田区,東雪谷４丁目２２番１０号,,13,111,1450065,,,,,,,2025-09-16,1,,,,,トゥエンティ,0
2111,9011001171952,新規,0,2025-09-16,2025-09-16,株式会社ＤＥＬＩＮＥ,,株式会社,東京都,渋谷区,神宮前６丁目２９－４原宿Ｋｏｍｉｙａビル６階,,13,113,1500001,,,,,,,2025-09-16,1,,,,,ディライン,0
2112,9011001171993,新規,0,2025-09-16,2025-09-16,株式会社ＴＷＯ　ＣＨＡＮＣＥ,,株式会社,東京都,渋谷区,円山町１５番１４号エルアルカサル渋谷３０５,,13,113,1500044,,,,,,,2025-09-16,1,,,,,ツーチャンス,0
2113,9011001172001,新規,0,2025-09-16,2025-09-16,Ａ．Ｋ．Ｐ株式会社,,株式会社,東京都,渋谷区,道玄坂１丁目２２番１－６０２号,,13,113,1500043,,,,,,,2025-09-16,1,,,,,エーケーピー,0
2114,9011001172026,新規,0,2025-09-16,2025-09-16,株式会社ＪＵＭ,,株式会社,東京都,渋谷区,神宮前６丁目３５番３号コープオリンピア７１１号室,,13,113,1500001,,,,,,,2025-09-16,1,,,,,ジャム,0
2115,9011001172034,新規,0,2025-09-16,2025-09-16,エピュレル株式会社,,株式会社,東京都,渋谷区,千駄ヶ谷４丁目６番８号,,13,113,1510051,,,,,,,2025-09-16,1,,,,,エピュレル,0
2116,9011003022352,新規,0,2025-09-16,2025-09-16,合同会社シュリオール,,合同会社,東京都,目黒区,大橋２丁目４番８－２０２号ＮＫ渋谷コータース,,13,110,1530044,,,,,,,2025-09-16,1,,,,,シュリオール,0
2117,9011003022559,新規,0,2025-09-16,2025-09-16,テラストリ合同会社,,合同会社,東京都,渋谷区,円山町５番３号ＭＥＩＵＸ渋谷ビル８階,,13,113,1500044,,,,,,,2025-09-16,1,,,,,テラストリ,0
2118,9011005011155,新規,0,2025-09-16,2025-09-16,一般社団法人ナイトワーク法倫理向上協議会,,その他の設立登記法人,東京都,渋谷区,円山町１２番２－３１１号,,13,113,1500044,,,,,,,2025-09-16,1,,,,,ナイトワークホウリンリコウジョウキョウギカイ,0
2120,9011101113078,新規,0,2025-09-16,2025-09-16,株式会社ユーシアニコー,,株式会社,東京都,新宿区,中落合４丁目２４番２３号,,13,104,1610032,,,,,,,2025-09-16,1,,,,,ユーシアニコー,0
2122,9011105011575,新規,0,2025-09-16,2025-09-16,ブルーインフラホールディングス２１号一般社団法人,,その他の設立登記法人,東京都,新宿区,四谷２丁目９番地１５東京ユナイテッド綜合事務所内,,13,104,1600004,,,,,,,2025-09-16,1,,,,,ブルーインフラホールディングスニジュウイチゴウ,0
2124,9011201026642,新規,0,2025-09-16,2025-09-16,ｋｏｒｏｍｏ株式会社,,株式会社,東京都,中野区,新井１丁目１番２号中野レーベル１階,,13,114,1650026,,,,,,,2025-09-16,1,,,,,コロモ,0
2125,9011301030882,新規,0,2025-09-16,2025-09-16,株式会社アルファインテリア,,株式会社,東京都,杉並区,和田３丁目５０番９号,,13,115,1660012,,,,,,,2025-09-16,1,,,,,アルファインテリア,0
2130,9011303005718,新規,0,2025-09-16,2025-09-16,合同会社中重,,合同会社,東京都,杉並区,阿佐谷南３丁目２８－７,,13,115,1660004,,,,,,,2025-09-16,1,,,,,ナカシゲ,0
2132,9011403004842,新規,0,2025-09-16,2025-09-16,ＣｏｎｎｅｃｔＮａｖｉ合同会社,,合同会社,東京都,板橋区,蓮根３丁目９番１１－９０５号,,13,119,1740046,,,,,,,2025-09-16,1,,,,,コネクトナビ,0
2135,9011503006689,新規,0,2025-09-16,2025-09-16,合同会社酒井総研,,合同会社,東京都,北区,上十条２丁目１５番１４号フローレンス十条１０１号,,13,117,1140034,,,,,,,2025-09-16,1,,,,,サカイソウケン,0
2140,9011701028700,新規,0,2025-09-16,2025-09-16,株式会社Ｔｈｅ　Ｇｌｏｂａｌ　Ｖｉｓｉｏｎ,,株式会社,東京都,江戸川区,東小岩６丁目６番７号第２文化荘１０２,,13,123,1330052,,,,,,,2025-09-16,1,,,,,ザグローバルビジョン,0
2141,9011701028709,新規,0,2025-09-16,2025-09-16,裏起株式会社,,株式会社,東京都,江戸川区,東小岩６丁目３３番１８－３０３号,,13,123,1330052,,,,,,,2025-09-16,1,,,,,クルキ,0
2147,9011803007065,新規,0,2025-09-16,2025-09-16,合同会社流華,,合同会社,東京都,足立区,西保木間３丁目１６番２７号ＹＭマンション３０２号室,,13,121,1210812,,,,,,,2025-09-16,1,,,,,リュウカ,0
2151,9012401043592,新規,0,2025-09-16,2025-09-16,株式会社結,,株式会社,東京都,武蔵野市,吉祥寺本町１丁目２２番９－１０４号柏栄第一ビル,,13,203,1800004,,,,,,,2025-09-16,1,,,,,ムスブ,0
2154,9012803003863,新規,0,2025-09-16,2025-09-16,ｐａｎｏｒａｍａ合同会社,,合同会社,東京都,国立市,東４丁目１３番地の１８,,13,215,1860002,,,,,,,2025-09-16,1,,,,,パノラマ,0
2159,9013303007875,新規,0,2025-09-16,2025-09-16,プラザＴＯＲＩＹＡＭＡ合同会社,,合同会社,東京都,豊島区,池袋２丁目６５番６号－１階,,13,116,1710014,,,,,,,2025-09-16,1,,,,,プラザトリヤマ,0
2165,9020001164800,新規,0,2025-09-16,2025-09-16,グリーンライト・ソリューションズ株式会社,,株式会社,神奈川県,川崎市麻生区,万福寺１丁目９－７,,14,137,2150004,,,,,,,2025-09-16,1,,,,,グリーンライトソリューションズ,0
2166,9020001164825,新規,0,2025-09-16,2025-09-16,株式会社ヤマキ,,株式会社,神奈川県,横浜市港北区,新羽町３３８番地プラネスーペリア北新横浜７０７,,14,109,2230057,,,,,,,2025-09-16,1,,,,,ヤマキ,0
2170,9021001086217,新規,0,2025-09-16,2025-09-16,株式会社ＶＡＬＯＲ,,株式会社,神奈川県,藤沢市,辻堂６丁目２２番１３号,,14,205,2510047,,,,,,,2025-09-16,1,,,,,ヴァロー,0
2171,9021001086299,新規,0,2025-09-16,2025-09-16,株式会社ハッシュドメディア,,株式会社,神奈川県,伊勢原市,高森４丁目４番６６号グランフォ－レ３０１号,,14,214,2591114,,,,,,,2025-09-16,1,,,,,ハッシュドメディア,0
2173,9021003016510,新規,0,2025-09-16,2025-09-16,合同会社ユナイト,,合同会社,神奈川県,座間市,小松原２丁目３４番１７－１０２号,,14,216,2520002,,,,,,,2025-09-16,1,,,,,ユナイト,0
2185,9040001140436,新規,0,2025-09-16,2025-09-16,ネスト株式会社,,株式会社,千葉県,船橋市,習志野台１丁目２１番２５－３０６号,,12,204,2740063,,,,,,,2025-09-16,1,,,,,ネスト,0
2186,9040001140477,新規,0,2025-09-16,2025-09-16,株式会社ココネ,,株式会社,千葉県,茂原市,町保３番地２１７,,12,210,2970022,,,,,,,2025-09-16,1,,,,,ココネ,0
2189,9040003028489,新規,0,2025-09-16,2025-09-16,合同会社Ｋ．Ｐｌａｎｎｉｎｇ,,合同会社,千葉県,松戸市,古ケ崎３丁目３４０４番地の５,,12,207,2710068,,,,,,,2025-09-16,1,,,,,ケープランニング,0
2195,9080103003421,新規,0,2025-09-16,2025-09-16,ザ・デザイン合同会社,,合同会社,静岡県,熱海市,福道町３－１５ウェルネスビル２０２,,22,205,4130017,,,,,,,2025-09-16,1,,,,,ザデザイン,0
2224,9120001279530,新規,0,2025-09-16,2025-09-16,行遠株式会社,,株式会社,大阪府,大阪市北区,長柄中２丁目５番３０号,,27,127,5310062,,,,,,,2025-09-16,1,,,,,コウエン,0
2225,9120001279571,新規,0,2025-09-16,2025-09-16,株式会社音酒場,,株式会社,大阪府,大阪市大正区,北恩加島１丁目４番５－１４２０号,,27,108,5510033,,,,,,,2025-09-16,1,,,,,オトサカバ,0
2226,9120001279613,新規,0,2025-09-16,2025-09-16,ＧＬＯＲＹ　ＫＩＮＧ株式会社,,株式会社,大阪府,大阪市北区,本庄東２丁目１０番１０－２０１号室,,27,127,5310074,,,,,,,2025-09-16,1,,,,,グローリーキング,0
2227,9120001279753,新規,0,2025-09-16,2025-09-16,一角鯨スポーツ用品株式会社,,株式会社,大阪府,大阪市西区,南堀江２丁目１０番２６号２０１号室,,27,106,5500015,,,,,,,2025-09-16,1,,,,,イッカククジラスポーツヨウヒン,0
2229,9120003030536,新規,0,2025-09-16,2025-09-16,ＳａｎＫｙｕ合同会社,,合同会社,大阪府,大阪市西成区,長橋３丁目６－１９－３０２号,,27,122,5570025,,,,,,,2025-09-16,1,,,,,サンキュ,0
2230,9120003030552,新規,0,2025-09-16,2025-09-16,合同会社ひすなずた,,合同会社,大阪府,大阪市生野区,巽東３丁目１５番４号,00140652,27,116,5440014,,,,,,,2025-09-16,1,,,,,ヒスナズタ,0
2231,9120003030560,新規,0,2025-09-16,2025-09-16,Ｔｈｅ　Ａｌｐｈａ合同会社,,合同会社,大阪府,大阪市西成区,天下茶屋東２丁目７－６－２０６号室,,27,122,5570011,,,,,,,2025-09-16,1,,,,,ザーアルファー,0
2232,9120003030668,新規,0,2025-09-16,2025-09-16,合同会社コンプエイト,,合同会社,大阪府,大阪市中央区,南船場３丁目２番２２号おおきに南船場ビル２０５,,27,128,5420081,,,,,,,2025-09-16,1,,,,,コンプエイト,0
2235,9120101072389,新規,0,2025-09-16,2025-09-16,Ｋ＆Ｄテック株式会社,,株式会社,大阪府,和泉市,阪本町２４５番地,,27,219,5940052,,,,,,,2025-09-16,1,,,,,ケーアンドディーテック,0
2247,9130001080490,新規,0,2025-09-16,2025-09-16,株式会社パテントラボ,,株式会社,京都府,八幡市,八幡安居塚４２番地の２８,00140653,26,210,6148057,,,,,,,2025-09-16,1,,,,,パテントラボ,0
2248,9130001080508,新規,0,2025-09-16,2025-09-16,エースビジネスサポート株式会社,,株式会社,京都府,宇治市,伊勢田町砂田６番地の５１,,26,204,6110043,,,,,,,2025-09-16,1,,,,,エースビジネスサポート,0
2249,9130001080516,新規,0,2025-09-16,2025-09-16,株式会社ｆｒｅｅ　ｂｉｚ　ｌｉｆｅ,,株式会社,京都府,京都市右京区,常盤北裏町７番地２６,,26,108,6168229,,,,,,,2025-09-16,1,,,,,フリービズライフ,0
2257,9140001140013,新規,0,2025-09-16,2025-09-16,株式会社Ｂｅ　ｗａｔｅｒ,,株式会社,兵庫県,西宮市,西宮浜４丁目１０番５－１３０４号,,28,204,6620934,,,,,,,2025-09-16,1,,,,,ビーウォーター,0
2258,9140001140021,新規,0,2025-09-16,2025-09-16,株式会社Ｎコーポレーション,,株式会社,兵庫県,南あわじ市,中条中筋４４２番地１,,28,224,6560143,,,,,,,2025-09-16,1,,,,,エヌコーポレーション,0
2259,9140001140046,新規,0,2025-09-16,2025-09-16,株式会社Ｊ３０,,株式会社,兵庫県,神戸市長田区,真野町２－１１東田ビル３０２,,28,106,6530025,,,,,,,2025-09-16,1,,,,,ジェーサーティ,0
2262,9140003022580,新規,0,2025-09-16,2025-09-16,えむけーりの合同会社,,合同会社,兵庫県,神崎郡市川町,小畑４３１番地の３,,28,442,6792318,,,,,,,2025-09-16,1,,,,,エムケーリノ,0
2268,9180001168455,新規,0,2025-09-16,2025-09-16,日本ゼネラルフード株式会社,,株式会社,愛知県,名古屋市中区,千代田５丁目７番５号,,23,106,4600012,,,,,,,2025-09-16,1,,,,,ニホンゼネラルフード,0
2269,9180001168645,新規,0,2025-09-16,2025-09-16,株式会社新傑,,株式会社,愛知県,名古屋市西区,平中町４０９番地志水ビル東側,,23,104,4520843,,,,,,,2025-09-16,1,,,,,シンケツ,0
2271,9180003029060,新規,0,2025-09-16,2025-09-16,ＳＳＳ　ＡＵＴＯ　ＤＥＡＬＥＲ合同会社,,合同会社,愛知県,名古屋市港区,神宮寺２丁目１０２番地シャトービオレ１０２,,23,111,4550834,,,,,,,2025-09-16,1,,,,,エスエスエスオートディーラー,0
2272,9180005021214,新規,0,2025-09-16,2025-09-16,医療法人みやび会ピア歯科,,その他の設立登記法人,愛知県,名古屋市中村区,名駅２丁目４５－７松岡ビル３Ｆ,,23,105,4500002,,,,,,,2025-09-16,1,,,,,ミヤビカイピアシカ,0
2275,9190001032528,新規,0,2025-09-16,2025-09-16,株式会社ラジプートインターナショナル,,株式会社,三重県,四日市市,智積町８４４番地１ピュールアムール２０１,,24,202,5121212,,,,,,,2025-09-16,1,,,,,ラジプートインターナショナル,0
2276,9190001032544,新規,0,2025-09-16,2025-09-16,株式会社松下工場関西,,株式会社,三重県,亀山市,布気町１６３１番地４,,24,210,5190166,,,,,,,2025-09-16,1,,,,,マツシタコウジョウカンサイ,0
2298,9250001021334,新規,0,2025-09-16,2025-09-16,株式会社３２ｍｉｎｉ　ｎｏｅｕｄ,,株式会社,山口県,下関市,豊前田町２丁目８番１３号大村ビル２階,,35,201,7500018,,,,,,,2025-09-16,1,,,,,ミニミニヌー,0
2303,9260005011520,新規,0,2025-09-16,2025-09-16,ＮＰＯ法人おとしまる,,その他の設立登記法人,岡山県,倉敷市,玉島柏島４９３６番地１,,33,202,7138123,,,,,,,2025-09-16,1,,,,,オトシマル,0
2308,9290001111429,新規,0,2025-09-16,2025-09-16,株式会社水音,,株式会社,福岡県,福岡市東区,若宮３丁目２１番１１号,,40,131,8130036,,,,,,,2025-09-16,1,,,,,ミズネ,0
2323,9330005010952,新規,0,2025-09-16,2025-09-16,一般社団法人熊本人財共育協会,,その他の設立登記法人,熊本県,熊本市中央区,国府本町１番１９号,,43,101,8620948,,,,,,,2025-09-16,1,,,,,クマモトジンザイキョウイクキョウカイ,0
2325,9340001027636,新規,0,2025-09-16,2025-09-16,株式会社カギノワ,,株式会社,鹿児島県,指宿市,山川岡児ケ水２１８－１,,46,210,8910513,,,,,,,2025-09-16,1,,,,,カギノワ,0
2326,9350001019723,新規,0,2025-09-16,2025-09-16,株式会社Ｌｉｔｔｌｅ　Ｐｒｉｎｃｅｓｓ,,株式会社,宮崎県,宮崎市,吉村町今村甲４２０４番地,,45,201,8800841,,,,,,,2025-09-16,1,,,,,リトルプリンセス,0
2327,9350001019731,新規,0,2025-09-16,2025-09-16,ＹＡＣＫデザイン株式会社,,株式会社,宮崎県,都城市,上川東４丁目５９７５番地１都城サンプラザホテル２階,,45,202,8850012,,,,,,,2025-09-16,1,,,,,ヤックデザイン,0
2335,9380001035569,新規,0,2025-09-16,2025-09-16,株式会社松田建設,,株式会社,福島県,本宮市,本宮字石塚４１番地,,07,214,9691139,,,,,,,2025-09-16,1,,,,,マツダケンセツ,0
2337,9390003002442,新規,0,2025-09-16,2025-09-16,陽光合同会社,,合同会社,山形県,米沢市,大字花沢３１６８番地の１２,,06,202,9920021,,,,,,,2025-09-16,1,,,,,ヨウコウ,0
2341,9420005007972,新規,0,2025-09-16,2025-09-16,大村土地家屋調査士法人,,その他の設立登記法人,青森県,八戸市,新井田西１丁目１９番３号,,02,203,0310816,,,,,,,2025-09-16,1,,,,,オオムラ,0
2346,9430001095178,新規,0,2025-09-16,2025-09-16,オーエフホールディングス株式会社,,株式会社,北海道,勇払郡安平町,安平５９７番地７,,01,585,0591511,,,,,,,2025-09-16,1,,,,,オーエフホールディングス,0
2347,9430001095203,新規,0,2025-09-16,2025-09-16,ＥＤＥＮ株式会社,,株式会社,北海道,千歳市,根志越１３９９番６,,01,224,0660008,,,,,,,2025-09-16,1,,,,,エデン,0
2348,9430001095252,新規,0,2025-09-16,2025-09-16,Ｎｏｏｋ　Ｌｉｆｅ株式会社,,株式会社,北海道,札幌市西区,二十四軒二条１丁目２番２７－１００５号,,01,107,0630802,,,,,,,2025-09-16,1,,,,,ヌックライフ,0
2350,9440003001711,新規,0,2025-09-16,2025-09-16,エイトバリュー合同会社,,合同会社,北海道,函館市,柏木町２０番６号,,01,202,0420942,,,,,,,2025-09-16,1,,,,,エイトバリュー,0
2351,9470001020891,新規,0,2025-09-16,2025-09-16,株式会社ＤＵＮＫ,,株式会社,香川県,坂出市,府中町字川西３７５７番地３,,37,203,7620024,,,,,,,2025-09-16,1,,,,,ダンク,0
2355,9700150131929,新規,0,2025-09-16,2025-09-16,ＬＳ　Ｃａｂｌｅ　＆　Ｓｙｓｔｅｍ　Ｌｔｄ．,,外国会社等,,,,,,,,１３～１７　Ｆｌｏｏｒ，ＬＳ　Ｔｏｗｅｒ，１２７，ＬＳ－ｒｏ，Ｄｏｎｇａｎ－ｇｕ，Ａｎｙａｎｇ－ｓｉ，Ｇｙｅｏｎｇｇｉ－ｄｏ，Ｒｅｐｕｂｌｉｃ　ｏｆ　Ｋｏｒｅａ,,,,,,2025-09-16,1,,,,,エルエスケーブルアンドシステムエルテイーデイー,0
2356,9700150131953,新規,0,2025-09-16,2025-09-16,Ｃｈｒｉｓｔｉａｎ　Ｄｉｏｒ　Ｃｏｕｔｕｒｅ,,外国会社等,,,,,,,,３０，ａｖｅｎｕｅ　Ｍｏｎｔａｉｇｎｅ，７５００８　Ｐａｒｉｓ，Ｆｒａｎｃｅ,,,,,,2025-09-16,1,,,,,クリスチヤンデイオールクチユール,0
