sequenceNumber,corporateNumber,process,correct,updateDate,changeDate,name,nameImageId,kind,prefectureName,cityName,streetNumber,addressImageId,prefectureCode,cityCode,postCode,addressOutside,addressOutsideImageId,closeDate,closeCause,successorCorporateNumber,changeCause,assignmentDate,latest,enName,enPrefectureName,enCityName,enAddressOutside,furigana,hihyoji
6,1010001231690,新規,0,2022-12-21,2022-12-21,新領域企画準備株式会社,,株式会社,東京都,千代田区,永田町２丁目１１番１号,,13,101,1000014,,,,,,,2022-12-21,1,,,,,シンリョウイキキカクジュンビ,0
7,1010001231716,新規,0,2022-12-21,2022-12-21,株式会社湘南建具,,株式会社,東京都,中央区,銀座１丁目１２番４号Ｎ＆Ｅ・ＢＬＤ．６Ｆ,,13,102,1040061,,,,,,,2022-12-21,1,,,,,ショウナンタテグ,0
8,1010001231724,新規,0,2022-12-21,2022-12-21,株式会社ジョイントファクトリー,,株式会社,東京都,千代田区,神田須田町２丁目２３番地１天翔秋葉原万世橋ビル５０３,,13,101,1010041,,,,,,,2022-12-21,1,,,,,ジョイントファクトリー,0
9,1010001231798,新規,0,2022-12-21,2022-12-21,株式会社せんり,,株式会社,東京都,中央区,新川１丁目１７番２７号横川ビル１階,,13,102,1040033,,,,,,,2022-12-21,1,,,,,センリ,0
21,1010401171495,新規,0,2022-12-21,2022-12-21,日本採用システム株式会社,,株式会社,東京都,港区,南青山３丁目１番３６号青山丸竹ビル６Ｆ,,13,103,1070062,,,,,,,2022-12-21,1,,,,,ニホンサイヨウシステム,0
30,1010601062338,新規,0,2022-12-21,2022-12-21,株式会社本所設備,,株式会社,東京都,墨田区,本所４丁目２９番１２号チェリーコーポ１Ｆ,,13,107,1300004,,,,,,,2022-12-21,1,,,,,ホンジョセツビ,0
48,1011001151581,新規,0,2022-12-21,2022-12-21,株式会社ＷＡＴＡＲＩ　ＳＴＵＤＩＯ,,株式会社,東京都,渋谷区,渋谷２丁目１９番１５宮益坂ビルディング６０９号,,13,113,1500002,,,,,,,2022-12-21,1,,,,,ワタリスタジオ,0
49,1011001151607,新規,0,2022-12-21,2022-12-21,株式会社ｓｃａｌｅ,,株式会社,東京都,渋谷区,猿楽町２番１３号,,13,113,1500033,,,,,,,2022-12-21,1,,,,,スケール,0
62,1011103012517,新規,0,2022-12-21,2022-12-21,月宝合同会社,,合同会社,東京都,新宿区,榎町３４－３榎町ビル５階－５室,,13,104,1620806,,,,,,,2022-12-21,1,,,,,ゲッポウ,0
64,1011301028323,新規,0,2022-12-21,2022-12-21,株式会社Ｋｒｅｉｓ　ｆｌｏｒｅｎ,,株式会社,東京都,杉並区,阿佐谷南１丁目１３番２７号,,13,115,1660004,,,,,,,2022-12-21,1,,,,,,0
66,1011401024783,新規,0,2022-12-21,2022-12-21,株式会社俊,,株式会社,東京都,板橋区,三園１丁目５０番８－１０５室,,13,119,1750091,,,,,,,2022-12-21,1,,,,,タカシ,0
69,1011603003775,新規,0,2022-12-21,2022-12-21,合同会社スタジオＴｗｉｇ,,合同会社,東京都,練馬区,高松４丁目４－２０、コスモス光が丘Ｂ－２０５,,13,120,1790075,,,,,,,2022-12-21,1,,,,,スタジオツウィッグ,0
70,1011703003320,新規,0,2022-12-21,2022-12-21,合同会社ラフフィルムズ,,合同会社,東京都,江戸川区,中葛西３丁目５番７号,,13,123,1340083,,,,,,,2022-12-21,1,,,,,ラフフィルムズ,0
71,1011703003337,新規,0,2022-12-21,2022-12-21,合同会社ヴィーナス,,合同会社,東京都,江戸川区,西葛西５丁目５番１８号Ｋ・Ｓビル４０１,,13,123,1340088,,,,,,,2022-12-21,1,,,,,ヴィーナス,0
83,1013301050091,新規,0,2022-12-21,2022-12-21,株式会社エヌオーアイ,,株式会社,東京都,豊島区,南池袋２丁目９番９号,,13,116,1710022,,,,,,,2022-12-21,1,,,,,エヌオーアイ,0
85,1020001149478,新規,0,2022-12-21,2022-12-21,株式会社アイ・ワークス,,株式会社,神奈川県,横浜市神奈川区,片倉１丁目２５番３号グランテム片倉１０５号,,14,102,2210865,,,,,,,2022-12-21,1,,,,,アイワークス,0
86,1020001149494,新規,0,2022-12-21,2022-12-21,青雲株式会社,,株式会社,神奈川県,川崎市宮前区,有馬７丁目５番１－２０２号,,14,136,2160003,,,,,,,2022-12-21,1,,,,,セイウン,0
88,1020003022914,新規,0,2022-12-21,2022-12-21,ＣＲＥＷ合同会社,,合同会社,神奈川県,横浜市緑区,三保町１３３０－１６,,14,113,2260015,,,,,,,2022-12-21,1,,,,,クルー,0
89,1020003022922,新規,0,2022-12-21,2022-12-21,合同会社ＴＹ＆Ｄ,,合同会社,神奈川県,横浜市旭区,笹野台１丁目８番１０号,,14,112,2410816,,,,,,,2022-12-21,1,,,,,ティーワイアンドディー,0
90,1020003022930,新規,0,2022-12-21,2022-12-21,Ｒ＆Ｈ商事合同会社,,合同会社,神奈川県,川崎市川崎区,駅前本町１１番地２川崎フロンティアビル４階,,14,131,2100007,,,,,,,2022-12-21,1,,,,,アールアンドエイチショウジ,0
91,1020003022939,新規,0,2022-12-21,2022-12-21,合同会社Ｃｉｅｌ,,合同会社,神奈川県,横浜市西区,北幸２丁目１０番２８号むつみビル３階,,14,103,2200004,,,,,,,2022-12-21,1,,,,,シエル,0
92,1020005015767,新規,0,2022-12-21,2022-12-21,一般社団法人地方公共団体政策支援機構,,その他の設立登記法人,神奈川県,横浜市港北区,大豆戸町９２５－１大倉山第二コーポラスＣ－１３６,,14,109,2220032,,,,,,,2022-12-21,1,,,,,チホウコウキョウダンタイセイサクシエンキコウ,0
93,1020005015783,新規,0,2022-12-21,2022-12-21,一般社団法人Ｃｏｎｔａｃｔ　Ｊａｐａｎ　ＶＩＶ‐ＡＲＴＥ,,その他の設立登記法人,神奈川県,横浜市栄区,飯島町１７４９番地の１エステハイツ大船２０９号室,,14,115,2440842,,,,,,,2022-12-21,1,,,,,コンタクトジャパンヴィヴアルテ,0
105,1030001151557,新規,0,2022-12-21,2022-12-21,ウィンテック株式会社,,株式会社,埼玉県,越谷市,赤山町５丁目７番４７号ペアハイツ越谷２・５０３号,,11,222,3430807,,,,,,,2022-12-21,1,,,,,ウィンテック,0
107,1030003020776,新規,0,2022-12-21,2022-12-21,合同会社ＳＧＺ,,合同会社,埼玉県,越谷市,赤山本町３－２４ライオンズグローベル越谷ステーションプラザ１２０１号,,11,222,3430808,,,,,,,2022-12-21,1,,,,,エスジーゼット,0
108,1030003020801,新規,0,2022-12-21,2022-12-21,合同会社ワクガイ,,合同会社,埼玉県,草加市,吉町４丁目８番地１号,,11,221,3400017,,,,,,,2022-12-21,1,,,,,ワクガイ,0
114,1040001126293,新規,0,2022-12-21,2022-12-21,株式会社ＳＳＫ,,株式会社,千葉県,船橋市,新高根１丁目９番１６号,,12,204,2740814,,,,,,,2022-12-21,1,,,,,エスエスケー,0
115,1040003021518,新規,0,2022-12-21,2022-12-21,合同会社Ａｌｐｈａ１,,合同会社,千葉県,浦安市,富岡２丁目２番,,12,227,2790021,,,,,,,2022-12-21,1,,,,,アルファワン,0
120,1050001052126,新規,0,2022-12-21,2022-12-21,株式会社大越建設,,株式会社,茨城県,龍ケ崎市,塗戸町２６０１番地,,08,208,3010803,,,,,,,2022-12-21,1,,,,,オオコシケンセツ,0
122,1050003007078,新規,0,2022-12-21,2022-12-21,ＢＩＮＨ　ＭＩＮＨ合同会社,,合同会社,茨城県,常総市,豊岡町乙１１０８－２堀越アパート北４号,,08,211,3030041,,,,,,,2022-12-21,1,,,,,ビンミン,0
129,1070003004767,新規,0,2022-12-21,2022-12-21,ＴＡＲＥＫ合同会社,,合同会社,群馬県,利根郡みなかみ町,湯原４５８番地４１－２０５号,,10,449,3791617,,,,,,,2022-12-21,1,,,,,タレク,0
140,1120001251199,新規,0,2022-12-21,2022-12-21,ＲＳビルド株式会社,,株式会社,大阪府,大阪市中央区,玉造２丁目１５番３－５０３号,,27,128,5400004,,,,,,,2022-12-21,1,,,,,アールエスビルド,0
141,1120001251224,新規,0,2022-12-21,2022-12-21,株式会社梵山居,,株式会社,大阪府,大阪市平野区,平野市町１丁目１番９号１０１号室,,27,126,5470042,,,,,,,2022-12-21,1,,,,,ボンサンキョ,0
142,1120001251232,新規,0,2022-12-21,2022-12-21,株式会社ｆ．Ｃｒｅａｔｉｏｎ,,株式会社,大阪府,大阪市北区,角田町１番１７号,,27,127,5300017,,,,,,,2022-12-21,1,,,,,エフクリエイション,0
143,1120001251240,新規,0,2022-12-21,2022-12-21,株式会社ＲｅＳｈ,,株式会社,大阪府,大阪市中央区,本町４丁目２－１２野村不動産御堂筋本町ビル８Ｆ－ｂｉｌｌａｇｅＯＳＡＫＡ,,27,128,5410053,,,,,,,2022-12-21,1,,,,,リッシュ,0
144,1120001251265,新規,0,2022-12-21,2022-12-21,株式会社ひさもん,,株式会社,大阪府,寝屋川市,御幸東町１７番１８号,,27,215,5720055,,,,,,,2022-12-21,1,,,,,ヒサモン,0
146,1120003023126,新規,0,2022-12-21,2022-12-21,蒼咲合同会社,,合同会社,大阪府,大阪市淀川区,西中島４丁目３番５号ＮＬＣセントラルビル７０７,,27,123,5320011,,,,,,,2022-12-21,1,,,,,アオサキ,0
151,1120901046896,新規,0,2022-12-21,2022-12-21,株式会社ファインドレイズインターナショナル,,株式会社,大阪府,吹田市,南吹田２丁目１２番３２号,,27,205,5640043,,,,,,,2022-12-21,1,,,,,ファインドレイズインターナショナル,0
154,1120905006401,新規,0,2022-12-21,2022-12-21,特定非営利活動法人Ｏｃｔ　Ｊａｐａｎ,,その他の設立登記法人,大阪府,池田市,住吉１丁目８番６号,,27,204,5630033,,,,,,,2022-12-21,1,,,,,オクトジャパン,0
157,1130001073320,新規,0,2022-12-21,2022-12-21,株式会社ＴＷＴ,,株式会社,京都府,京都市右京区,西院四条畑町１０－２－１０７,,26,108,6150066,,,,,,,2022-12-21,1,,,,,ティーダブルティー,0
158,1130001073329,新規,0,2022-12-21,2022-12-21,株式会社カンケンテクノホールディングス,,株式会社,京都府,長岡京市,神足太田３０番地２,,26,209,6170833,,,,,,,2022-12-21,1,,,,,カンケンテクノホールディングス,0
163,1140001128494,新規,0,2022-12-21,2022-12-21,株式会社三敬,,株式会社,兵庫県,伊丹市,西野２丁目２５３番地,,28,207,6640028,,,,,,,2022-12-21,1,,,,,サンケイ,0
164,1140003018495,新規,0,2022-12-21,2022-12-21,日新産業合同会社,,合同会社,兵庫県,三木市,別所町下石野１４９１－１,,28,215,6730453,,,,,,,2022-12-21,1,,,,,ニッシンサンギョウ,0
165,1140003018504,新規,0,2022-12-21,2022-12-21,合同会社Ｚ企画,,合同会社,兵庫県,芦屋市,大原町９－１,,28,206,6590092,,,,,,,2022-12-21,1,,,,,ゼットキカク,0
166,1150001026020,新規,0,2022-12-21,2022-12-21,株式会社ｒａｎｇｅｒ，ｗｅｌｄｉｎｇ,,株式会社,奈良県,天理市,中山町７２８番地,,29,204,6320051,,,,,,,2022-12-21,1,,,,,レンジャーウェルディング,0
167,1150001026029,新規,0,2022-12-21,2022-12-21,ＵＤＣ株式会社,,株式会社,奈良県,天理市,福住町５１２６番２,,29,204,6320122,,,,,,,2022-12-21,1,,,,,ユーディーシー,0
174,1180001154223,新規,0,2022-12-21,2022-12-21,株式会社ミライプラス,,株式会社,愛知県,名古屋市東区,泉１丁目１４番３号ＨＡＳＥＧＡＷＡビル４階Ｅ号室,,23,102,4610001,,,,,,,2022-12-21,1,,,,,ミライプラス,0
175,1180001154297,新規,0,2022-12-21,2022-12-21,株式会社ＦＯＯＴ　ＬＵＣＫ,,株式会社,愛知県,清須市,春日宮重町２５７,,23,233,4520961,,,,,,,2022-12-21,1,,,,,フットラック,0
180,1180003024614,新規,0,2022-12-21,2022-12-21,ビッキーアートワークス合同会社,,合同会社,愛知県,名古屋市中村区,名駅３丁目４番１０号アルティメイト名駅１ｓｔ、２階,,23,105,4500002,,,,,,,2022-12-21,1,,,,,ビッキーアートワークス,0
182,1180005020017,新規,0,2022-12-21,2022-12-21,特定非営利活動法人Ｒｅｇｕｌ,,その他の設立登記法人,愛知県,小牧市,城山１丁目５番地１サンハイツ中央台Ｄ棟５０１号,,23,219,4850812,,,,,,,2022-12-21,1,,,,,リグール,0
186,1190001030035,新規,0,2022-12-21,2022-12-21,株式会社プラスアセット,,株式会社,三重県,三重郡菰野町,大字神森９５０番地２,,24,341,5101231,,,,,,,2022-12-21,1,,,,,プラスアセット,0
193,1220003003415,新規,0,2022-12-21,2022-12-21,クリーンフィックス合同会社,,合同会社,石川県,金沢市,円光寺３丁目２番１７号,,17,201,9218173,,,,,,,2022-12-21,1,,,,,クリーンフィックス,0
196,1240001060828,新規,0,2022-12-21,2022-12-21,Ｙ’ｚホールディングス株式会社,,株式会社,広島県,広島市中区,千田町３丁目３番３７－２０１号,,34,101,7300052,,,,,,,2022-12-21,1,,,,,ワイズホールディングス,0
201,1280001008848,新規,0,2022-12-21,2022-12-21,株式会社幸友,,株式会社,島根県,出雲市,平田町１４８０番地,,32,203,6910001,,,,,,,2022-12-21,1,,,,,コウユウ,0
213,1340001025250,新規,0,2022-12-21,2022-12-21,ＧＲＥＥＮ‐Ｐｌｕｓ．株式会社,,株式会社,鹿児島県,志布志市,松山町新橋５５６番地,,46,221,8997601,,,,,,,2022-12-21,1,,,,,グリーンプラス,0
216,1350003004243,新規,0,2022-12-21,2022-12-21,合同会社ＣＡＣＴＵＳ,,合同会社,宮崎県,宮崎市,学園木花台西１丁目２番地１ＫＵビル２Ｆ,,45,201,8892155,,,,,,,2022-12-21,1,,,,,カクタス,0
219,1360001031346,新規,0,2022-12-21,2022-12-21,佐佑と友達株式会社,,株式会社,沖縄県,那覇市,松川３丁目１８－３５ＦＬＡＴＳ松川２０５室,,47,201,9020062,,,,,,,2022-12-21,1,,,,,サユウトトモダチ,0
222,1370003005925,新規,0,2022-12-21,2022-12-21,Ｊｕｎｇｌｅｇｙｍｓ　Ｓｔｕｄｉｏ合同会社,,合同会社,宮城県,仙台市泉区,寺岡１丁目１番地の３,,04,105,9813204,,,,,,,2022-12-21,1,,,,,ジャングルジムズスダジオ,0
235,1430003014564,新規,0,2022-12-21,2022-12-21,合同会社ＣＨＡＣＯ,,合同会社,北海道,岩見沢市,四条西１３丁目２番地,,01,210,0680024,,,,,,,2022-12-21,1,,,,,チャコ,0
237,1450001013863,新規,0,2022-12-21,2022-12-21,株式会社ＬＩＣ,,株式会社,北海道,旭川市,旭町一条１３丁目６８８－１５３,,01,204,0700831,,,,,,,2022-12-21,1,,,,,リック,0
246,1700150113439,新規,0,2022-12-21,2022-12-21,ｇｕａｎｇｚｈｏｕｚｉｑｕｎｗｕｊｉｎｙｏｕｘｉａｎｇｏｎｇｓｉ,,外国会社等,,,,,,,,Ｓｔｏｒｅ　１０５，Ｎｏ．６，Ｘｉｎｇｆｕ　Ｒｏａｄ，Ｐｅｎｇ　Ｓｈａｎｇ，Ｌｉａｎｂｉａｎ，Ｂａｉｙｕｎ　Ｄｉｓｔｒｉｃｔ，Ｇｕａｎｇｚｈｏｕ,,,,,,2022-12-21,1,,,,,コウシュウシグンゴキンユウシィアンゴンスー,0
259,2010001231723,新規,0,2022-12-21,2022-12-21,東日株式会社,,株式会社,東京都,千代田区,四番町４－９ＳＴＫ内,,13,101,1020081,,,,,,,2022-12-21,1,,,,,トウニチ,0
260,2010001231756,新規,0,2022-12-21,2022-12-21,株式会社ドンコイ,,株式会社,東京都,文京区,千石２丁目２０番３号,,13,105,1120011,,,,,,,2022-12-21,1,,,,,ドンコイ,0
262,2010105002194,新規,0,2022-12-21,2022-12-21,一般社団法人めじろ台まちづくり協会,,その他の設立登記法人,東京都,八王子市,めじろ台１丁目９番地１,,13,201,1930833,,,,,,,2022-12-21,1,,,,,メジロダイマチヅクリキョウカイ,0
276,2010601062345,新規,0,2022-12-21,2022-12-21,明達不動産株式会社,,株式会社,東京都,墨田区,石原１丁目２９番１号,,13,107,1300011,,,,,,,2022-12-21,1,,,,,メイタツフドウサン,0
280,2010901052137,新規,0,2022-12-21,2022-12-21,株式会社ニューソン,,株式会社,東京都,世田谷区,世田谷１丁目３番５号,,13,112,1540017,,,,,,,2022-12-21,1,,,,,,0
282,2011001151580,新規,0,2022-12-21,2022-12-21,株式会社ＩＣＨＩｔＯＮＥ,,株式会社,東京都,渋谷区,恵比寿４丁目２０－３恵比寿ガーデンプレイスタワー１８階,,13,113,1500013,,,,,,,2022-12-21,1,,,,,イチトネ,0
284,2011003015957,新規,0,2022-12-21,2022-12-21,ウェルネス合同会社,,合同会社,東京都,渋谷区,本町５丁目２９－５－１０１,,13,113,1510071,,,,,,,2022-12-21,1,,,,,ウェルネス,0
285,2011005009874,新規,0,2022-12-21,2022-12-21,一般社団法人ＡＩＤ当事者支援会,,その他の設立登記法人,東京都,渋谷区,神宮前６丁目２３番４号桑野ビル２Ｆ,,13,113,1500001,,,,,,,2022-12-21,1,,,,,エイアイディトウジシャシエンカイ,0
288,2011101101238,新規,0,2022-12-21,2022-12-21,株式会社ＲｅＤＩｒｅｃｔ,,株式会社,東京都,新宿区,西新宿３丁目３番１３号西新宿水間ビル６階,,13,104,1600023,,,,,,,2022-12-21,1,,,,,リダイレクト,0
289,2011101101254,新規,0,2022-12-21,2022-12-21,智泉株式会社,,株式会社,東京都,新宿区,新宿５丁目１４番１２号,,13,104,1600022,,,,,,,2022-12-21,1,,,,,チセン,0
293,2011301028322,新規,0,2022-12-21,2022-12-21,株式会社カウカホーム,,株式会社,東京都,杉並区,下井草５丁目２２番１２号ドエル中谷２０１号,,13,115,1670022,,,,,,,2022-12-21,1,,,,,カウカホーム,0
303,2011701025893,新規,0,2022-12-21,2022-12-21,ロッシ株式会社,,株式会社,東京都,江戸川区,上篠崎４丁目１６番５号,,13,123,1330054,,,,,,,2022-12-21,1,,,,,ロッシ,0
307,2012705002334,新規,0,2022-12-21,2022-12-21,ＮＰＯ法人ＬＥＡＶＥ　ＮＯ　ＯＮＥ　ＢＥＨＩＮＤ,,その他の設立登記法人,東京都,清瀬市,野塩５丁目２８５番地１メゾンラフォーレ１０６号,,13,221,2040004,,,,,,,2022-12-21,1,,,,,リーブノーワンビハインド,0
308,2013303006421,新規,0,2022-12-21,2022-12-21,合同会社フォルテ・スペース・デザイン,,合同会社,東京都,豊島区,東池袋１丁目３４番５号いちご東池袋ビル６階,,13,116,1700013,,,,,,,2022-12-21,1,,,,,フォルテスペースデザイン,0
312,2020001149411,新規,0,2022-12-21,2022-12-21,株式会社ｍｏｆｕ　ｍｏｆｕ,,株式会社,神奈川県,横浜市港北区,新横浜３丁目９番地５,,14,109,2220033,,,,,,,2022-12-21,1,,,,,モフモフ,0
313,2020001149452,新規,0,2022-12-21,2022-12-21,株式会社松尾工業,,株式会社,神奈川県,横浜市中区,石川町５丁目２１８－３,,14,104,2310868,,,,,,,2022-12-21,1,,,,,マツオコウギョウ,0
314,2020001149477,新規,0,2022-12-21,2022-12-21,川上株式会社,,株式会社,神奈川県,横浜市中区,宮川町３丁目８５－１１ロイヤルフラット野毛山弐番館１０３号,,14,104,2310065,,,,,,,2022-12-21,1,,,,,カワカミ,0
315,2020001149485,新規,0,2022-12-21,2022-12-21,株式会社シリカ・プロス,,株式会社,神奈川県,川崎市中原区,小杉陣屋町１丁目１９－４３,,14,133,2110062,,,,,,,2022-12-21,1,,,,,シリカプロス,0
316,2020001149493,新規,0,2022-12-21,2022-12-21,株式会社Ｄａｔａ　Ｈｉｋｅｒ,,株式会社,神奈川県,横浜市港北区,新横浜３丁目７番地１８,,14,109,2220033,,,,,,,2022-12-21,1,,,,,データハイカー,0
331,2030001151556,新規,0,2022-12-21,2022-12-21,株式会社丸真商事,,株式会社,埼玉県,所沢市,大字松郷２１３－３,,11,208,3590027,,,,,,,2022-12-21,1,,,,,マルシンショウジ,0
332,2030001151589,新規,0,2022-12-21,2022-12-21,株式会社ＣＯＮＦＩＤＥＮＴＩＡＬ,,株式会社,埼玉県,さいたま市浦和区,東仲町６番６－７０４号,,11,107,3300056,,,,,,,2022-12-21,1,,,,,コンフィデンシャル,0
337,2030003020783,新規,0,2022-12-21,2022-12-21,ＰＡＫＩＺＡ合同会社,,合同会社,埼玉県,朝霞市,根岸台３丁目７番８号１Ｆ右,,11,227,3510005,,,,,,,2022-12-21,1,,,,,パキザ,0
344,2040001126318,新規,0,2022-12-21,2022-12-21,千葉建設株式会社,,株式会社,千葉県,千葉市中央区,生実町１９７９番地８,,12,101,2600813,,,,,,,2022-12-21,1,,,,,チバケンセツ,0
350,2040003021525,新規,0,2022-12-21,2022-12-21,合同会社ＴＣＲＰ　ＩＮＴＥＲＮＡＴＩＯＮＡＬ,,合同会社,千葉県,白井市,復１４５７番地の３、１６号ハイツ２０２号室,,12,232,2701422,,,,,,,2022-12-21,1,,,,,ティーシーアールピーインターナショナル,0
351,2040003021533,新規,0,2022-12-21,2022-12-21,新創合同会社,,合同会社,千葉県,千葉市中央区,長洲１丁目１４番１－３１１号,,12,101,2600854,,,,,,,2022-12-21,1,,,,,シンソウ,0
354,2050001052042,新規,0,2022-12-21,2022-12-21,株式会社ワタナベ,,株式会社,茨城県,牛久市,神谷３丁目２４番地５,,08,219,3001216,,,,,,,2022-12-21,1,,,,,ワタナベ,0
356,2060001035541,新規,0,2022-12-21,2022-12-21,株式会社Ｈ＆Ｍ,,株式会社,栃木県,那須郡那須町,大字高久甲４５８５番地５,,09,407,3250001,,,,,,,2022-12-21,1,,,,,エイチアンドエム,0
364,2080101023700,新規,0,2022-12-21,2022-12-21,株式会社Ｌｉｆｅ　Ｓｍｉｌｅ　Ｋｉｄｓ,,株式会社,静岡県,下田市,西本郷２丁目２１番地１１,,22,219,4150036,,,,,,,2022-12-21,1,,,,,ライフスマイルキッズ,0
366,2100001035982,新規,0,2022-12-21,2022-12-21,株式会社ピクシスコンサルティング,,株式会社,長野県,北佐久郡軽井沢町,大字長倉１８２５番地２３,,20,321,3890111,,,,,,,2022-12-21,1,,,,,ピクシスコンサルティング,0
367,2110001037185,新規,0,2022-12-21,2022-12-21,株式会社糸魚川定置網,,株式会社,新潟県,糸魚川市,寺島１丁目１－１６,,15,216,9410066,,,,,,,2022-12-21,1,,,,,イトイガワテイチアミ,0
374,2120001251116,新規,0,2022-12-21,2022-12-21,株式会社マシンＤＸ,,株式会社,大阪府,守口市,大日東町２番１３－１４０７,,27,209,5700016,,,,,,,2022-12-21,1,,,,,マシンディーエックス,0
377,2120003023109,新規,0,2022-12-21,2022-12-21,ＭＩＳＡＫＩ合同会社,,合同会社,大阪府,大阪市西成区,千本北１丁目１１－１４－２,,27,122,5570053,,,,,,,2022-12-21,1,,,,,ミサキ,0
378,2120003023117,新規,0,2022-12-21,2022-12-21,＿源合同会社,00128856,合同会社,大阪府,大阪市東成区,大今里南６丁目９番８号,,27,115,5370013,,,,,,,2022-12-21,1,,,,,キンゲン,0
380,2120005023354,新規,0,2022-12-21,2022-12-21,ＮＰＯ法人地方創生協会,,その他の設立登記法人,大阪府,大阪市北区,中崎３丁目１番２０号,,27,127,5300016,,,,,,,2022-12-21,1,,,,,チホウソウセイキョウカイ,0
383,2120901046879,新規,0,2022-12-21,2022-12-21,株式会社リノベーションファクトリー,,株式会社,大阪府,吹田市,千里山東１丁目７番３３号,,27,205,5650842,,,,,,,2022-12-21,1,,,,,リノベーションファクトリー,0
389,2122001036513,新規,0,2022-12-21,2022-12-21,クレイシステム株式会社,,株式会社,大阪府,四條畷市,大字下田原２２４２番６号,,27,229,5750012,,,,,,,2022-12-21,1,,,,,クレイシステム,0
392,2130001073303,新規,0,2022-12-21,2022-12-21,ＡＳＹＭ株式会社,,株式会社,京都府,京都市下京区,中堂寺南町１３４番地ＡＳＴＥＭビル８階,,26,106,6008813,,,,,,,2022-12-21,1,,,,,エイシム,0
394,2130003008389,新規,0,2022-12-21,2022-12-21,合同会社ＥＮＥソーラー２号,,合同会社,京都府,八幡市,欽明台西８番地３,,26,210,6148297,,,,,,,2022-12-21,1,,,,,エネソーラーニゴウ,0
400,2140001128477,新規,0,2022-12-21,2022-12-21,Ｊトラ商事株式会社,,株式会社,兵庫県,神戸市中央区,相生町５丁目１０番１８号シティビル神戸３０１,,28,110,6500025,,,,,,,2022-12-21,1,,,,,ジェイトラショウジ,0
401,2140001128485,新規,0,2022-12-21,2022-12-21,株式会社ネクストサーベイ,,株式会社,兵庫県,姫路市,夢前町神種５６７番地,,28,201,6712105,,,,,,,2022-12-21,1,,,,,ネクストサーベイ,0
402,2140001128493,新規,0,2022-12-21,2022-12-21,新生工業株式会社,,株式会社,兵庫県,明石市,硯町３丁目６－１７－２－４０７号,,28,203,6730028,,,,,,,2022-12-21,1,,,,,シンセイコウギョウ,0
404,2150001026036,新規,0,2022-12-21,2022-12-21,株式会社はやぶさ,,株式会社,奈良県,北葛城郡広陵町,大字沢１５９番地１ハイツ沢３０１,,29,426,6350804,,,,,,,2022-12-21,1,,,,,ハヤブサ,0
408,2160003002760,新規,0,2022-12-21,2022-12-21,合同会社Ｅａｒｔｈ　Ｂａｃｋ　Ｒｉｄｉｎｇ,,合同会社,滋賀県,栗東市,上鈎１７番地４,,25,208,5203022,,,,,,,2022-12-21,1,,,,,アースバックライディング,0
409,2170001017421,新規,0,2022-12-21,2022-12-21,株式会社ｈａｒｕ,,株式会社,和歌山県,和歌山市,黒田９３番地４－２Ｂ,,30,201,6408341,,,,,,,2022-12-21,1,,,,,ハル,0
413,2180001154239,新規,0,2022-12-21,2022-12-21,株式会社ＵＳＡＭＩ,,株式会社,愛知県,名古屋市中川区,山王３丁目１３番１５号,,23,110,4540011,,,,,,,2022-12-21,1,,,,,ウサミ,0
415,2180003024621,新規,0,2022-12-21,2022-12-21,合同会社ＨＴ,,合同会社,愛知県,名古屋市中川区,万場１丁目５０６,,23,110,4540997,,,,,,,2022-12-21,1,,,,,エイチティー,0
417,2180005020024,新規,0,2022-12-21,2022-12-21,特定非営利活動法人育Ｑひろば,,その他の設立登記法人,愛知県,名古屋市熱田区,切戸町３丁目１１４番地,,23,109,4560076,,,,,,,2022-12-21,1,,,,,イクキュウヒロバ,0
420,2190001030034,新規,0,2022-12-21,2022-12-21,株式会社マナハウス,,株式会社,三重県,四日市市,浮橋２丁目１番地２,,24,202,5120931,,,,,,,2022-12-21,1,,,,,マナハウス,0
425,2200003005775,新規,0,2022-12-21,2022-12-21,合同会社エルサ,,合同会社,岐阜県,高山市,江名子町３０１８番地１ファミリーハウスＣ,,21,203,5060818,,,,,,,2022-12-21,1,,,,,エルサ,0
433,2250001019896,新規,0,2022-12-21,2022-12-21,株式会社サンハーモニー,,株式会社,山口県,下関市,山の口町１番１１号福永ビル２Ｆ,,35,201,7510824,,,,,,,2022-12-21,1,,,,,サンハーモニー,0
442,2290003013332,新規,0,2022-12-21,2022-12-21,合同会社Ｅ・Ｓ・Ｋ,,合同会社,福岡県,福岡市西区,野方２丁目１４番２５号,,40,135,8190043,,,,,,,2022-12-21,1,,,,,イーエスケー,0
443,2290801029133,新規,0,2022-12-21,2022-12-21,株式会社アール・エル,,株式会社,福岡県,田川郡香春町,大字高野１０１７番地３,,40,601,8221403,,,,,,,2022-12-21,1,,,,,アールエル,0
444,2290801029141,新規,0,2022-12-21,2022-12-21,株式会社ガレージＲｅｖｉｓｉｏｎ,,株式会社,福岡県,北九州市小倉南区,沼南町３丁目４１５３‐１,,40,107,8000205,,,,,,,2022-12-21,1,,,,,ガレージリビジョン,0
459,2360003012582,新規,0,2022-12-21,2022-12-21,合同会社丸伊工業,,合同会社,沖縄県,うるま市,字塩屋３５４－２６,,47,213,9042231,,,,,,,2022-12-21,1,,,,,マルイコウギョウ,0
478,2430001088064,新規,0,2022-12-21,2022-12-21,株式会社野原住設,,株式会社,北海道,江別市,文京台南町４５番地の１４ローヤルハイツ文京台２０５号室,,01,217,0690835,,,,,,,2022-12-21,1,,,,,ノハラジュウセツ,0
479,2430001088080,新規,0,2022-12-21,2022-12-21,株式会社カルティス,,株式会社,北海道,江別市,見晴台７３番地の１,,01,217,0670042,,,,,,,2022-12-21,1,,,,,カルティス,0
485,2450001013862,新規,0,2022-12-21,2022-12-21,株式会社道北水道工業,,株式会社,北海道,旭川市,金星町１丁目４番１号,,01,204,0700029,,,,,,,2022-12-21,1,,,,,ドウホクスイドウコウギョウ,0
490,2700150038998,新規,0,2022-12-21,2015-10-09,秋田県自動車整備振興会湯沢雄勝支部,,その他,秋田県,湯沢市,前森３丁目９－１６,,05,207,0120813,,,,,,,2015-10-09,1,,,,,アキタケンジドウシヤセイビシンコウカイユザワオガチシブ,0
491,2700150113438,新規,0,2022-12-21,2022-12-21,Ｅｆｏｒｍａｔｉｏｎ　Ｔｅｃｈｎｏｌｏｇｙ　Ｌｉｍｉｔｅｄ,,外国会社等,,,,,,,,ＦＬＡＴ　Ｃ　９／Ｆ　ＷＩＮＮＩＮＧ　ＨＯＵＳＥ　７２－７６　ＷＩＮＧ　ＬＯＫ　ＳＴＲＥＥＴ　ＳＨＥＵＮＧ　ＷＡＮ　ＨＫ,,,,,,2022-12-21,1,,,,,ジンミケイジユウシィアンゴンスー,0
495,3010001231598,新規,0,2022-12-21,2022-12-21,株式会社Ｄｅｅ　Ｃｏｍｐａｎｙ,,株式会社,東京都,千代田区,神田神保町１丁目１２番地１,,13,101,1010051,,,,,,,2022-12-21,1,,,,,ディーカンパニー,0
496,3010001231763,新規,0,2022-12-21,2022-12-21,株式会社ｋａｓａｎａｒｉ,,株式会社,東京都,千代田区,九段南１丁目５番６号りそな九段ビル５Ｆ・ＫＳフロア,,13,101,1020074,,,,,,,2022-12-21,1,,,,,カサナリ,0
499,3010003039379,新規,0,2022-12-21,2022-12-21,合同会社ＣＲＥＳＳＩＴＡ,,合同会社,東京都,中央区,東日本橋３丁目６－１２東日パークビル８階,,13,102,1030004,,,,,,,2022-12-21,1,,,,,クレシータ,0
517,3010401171386,新規,0,2022-12-21,2022-12-21,ＡＬＦＡＣＴ株式会社,,株式会社,東京都,港区,南青山２丁目２番１５号ＷｉｎＡｏｙａｍａビルＵＣＦ６階,,13,103,1070062,,,,,,,2022-12-21,1,,,,,アルファクト,0
519,3010403029186,新規,0,2022-12-21,2022-12-21,合同会社ソーラーパーク１０号,,合同会社,東京都,港区,六本木３丁目２番１号,,13,103,1060032,,,,,,,2022-12-21,1,,,,,ソーラーパークジュウゴウ,0
523,3010501049763,新規,0,2022-12-21,2022-12-21,ＢＬＵＥ　ＳＫＹ株式会社,,株式会社,東京都,台東区,東上野３丁目２１番２号越前ビル３０２号,,13,106,1100015,,,,,,,2022-12-21,1,,,,,ブルースカイ,0
528,3010903007856,新規,0,2022-12-21,2022-12-21,アニューレジャパン合同会社,,合同会社,東京都,世田谷区,経堂３丁目２番９号,,13,112,1560052,,,,,,,2022-12-21,1,,,,,アニューレジャパン,0
535,3011101101229,新規,0,2022-12-21,2022-12-21,株式会社賢七,,株式会社,東京都,新宿区,東榎町５番地,,13,104,1620807,,,,,,,2022-12-21,1,,,,,ケンナナ,0
537,3011303004618,新規,0,2022-12-21,2022-12-21,合同会社アベ,,合同会社,東京都,杉並区,高井戸東３丁目３３番２７号,,13,115,1680072,,,,,,,2022-12-21,1,,,,,アベ,0
538,3011501028781,新規,0,2022-12-21,2022-12-21,ＩＴ‐ＨＯＵＳＥ株式会社,,株式会社,東京都,荒川区,東日暮里４丁目１３番１５,,13,118,1160014,,,,,,,2022-12-21,1,,,,,アイティーハウス,0
542,3011701025884,新規,0,2022-12-21,2022-12-21,Ｖｉｒｔｕｅ工業株式会社,,株式会社,東京都,江戸川区,篠崎町４丁目２６番１４号,,13,123,1330061,,,,,,,2022-12-21,1,,,,,,0
544,3011801041699,新規,0,2022-12-21,2022-12-21,株式会社Ｏｎｅ　Ｌｉｖｅ,,株式会社,東京都,足立区,西新井本町４丁目２１番１１号エーデルハイム１０８,,13,121,1230845,,,,,,,2022-12-21,1,,,,,ワンライブ,0
550,3012701017392,新規,0,2022-12-21,2022-12-21,株式会社ＳＳＡ,,株式会社,東京都,東村山市,恩多町４丁目３５番地５１,,13,213,1890011,,,,,,,2022-12-21,1,,,,,エスエスエー,0
555,3013301050081,新規,0,2022-12-21,2022-12-21,セブンシーズテクノロジー株式会社,,株式会社,東京都,豊島区,池袋３丁目２２番５号,,13,116,1710014,,,,,,,2022-12-21,1,,,,,セブンシーズテクノロジー,0
559,3020003022937,新規,0,2022-12-21,2022-12-21,ミュゼプラチナシステムズ合同会社,,合同会社,神奈川県,横浜市神奈川区,鶴屋町２丁目１２番１号横浜カリオカビル,,14,102,2210835,,,,,,,2022-12-21,1,,,,,ミュゼプラチナシステムズ,0
570,3030001151539,新規,0,2022-12-21,2022-12-21,株式会社アトリエビースティ,,株式会社,埼玉県,所沢市,上新井５丁目５４番地４９,,11,208,3591142,,,,,,,2022-12-21,1,,,,,アトリエビースティ,0
571,3030001151571,新規,0,2022-12-21,2022-12-21,株式会社８０８,,株式会社,埼玉県,さいたま市岩槻区,城南２丁目６番１０号,,11,110,3390043,,,,,,,2022-12-21,1,,,,,ヤオヤ,0
581,3030003020790,新規,0,2022-12-21,2022-12-21,ＲＯＹＡＬ　ＩＮＴＥＲＮＡＴＩＯＮＡＬ合同会社,,合同会社,埼玉県,越谷市,北越谷３丁目１７番３３号エステートナカムラ２０１,,11,222,3430026,,,,,,,2022-12-21,1,,,,,ロイヤルインターナショナル,0
589,3040001126317,新規,0,2022-12-21,2022-12-21,株式会社ＴＷＭＡ,,株式会社,千葉県,八街市,八街に１８８番地１７,,12,230,2891103,,,,,,,2022-12-21,1,,,,,ティーダブリューエムエー,0
592,3040003021532,新規,0,2022-12-21,2022-12-21,合同会社ＳＨＵ,,合同会社,千葉県,柏市,東中新宿４丁目１番５号ベルドゥムール１１３号室,,12,217,2770061,,,,,,,2022-12-21,1,,,,,エスエイチユー,0
593,3040005021844,新規,0,2022-12-21,2022-12-21,ＨＫＤグローバル事業協同組合,,その他の設立登記法人,千葉県,柏市,増尾台１丁目１番１７号,,12,217,2770052,,,,,,,2022-12-21,1,,,,,エッチケーディーグローバル,0
596,3050003007101,新規,0,2022-12-21,2022-12-21,合同会社ケアプランセンターめぐる,,合同会社,茨城県,稲敷郡阿見町,岡崎１丁目２７番地１６,,08,443,3000335,,,,,,,2022-12-21,1,,,,,ケアプランセンターメグル,0
597,3060001035549,新規,0,2022-12-21,2022-12-21,株式会社ＹＯＵＮＡＳ　ＴＲＡＤＩＮＧ,,株式会社,栃木県,小山市,大字間々田２４２３番地１５愛宕３０３号室,,09,208,3290205,,,,,,,2022-12-21,1,,,,,ユナストレーディング,0
600,3060005010036,新規,0,2022-12-21,2022-12-21,特定非営利活動法人フェムテック支援協議会,,その他の設立登記法人,栃木県,宇都宮市,鶴田町５０７番地８,,09,201,3200851,,,,,,,2022-12-21,1,,,,,フェムテックシエンキョウギカイ,0
603,3070001039945,新規,0,2022-12-21,2022-12-21,林牧場株式会社,,株式会社,群馬県,渋川市,中村４００番地６,,10,208,3770002,,,,,,,2022-12-21,1,,,,,ハヤシボクジョウ,0
611,3080403004678,新規,0,2022-12-21,2022-12-21,ｂｌｏｏｍ合同会社,,合同会社,静岡県,浜松市浜北区,中条１５５７番地,,22,136,4340043,,,,,,,2022-12-21,1,,,,,ブルーム,0
614,3100001035981,新規,0,2022-12-21,2022-12-21,株式会社ＷＥＬＬ　ＦＯＲＥＳＴ　ＢＩＲＣＨ,,株式会社,長野県,上田市,中央北３丁目３番２３号ビレッジハウス上田１－３０２号,,20,203,3860011,,,,,,,2022-12-21,1,,,,,ウェルフォレストバーチ,0
630,3120001251206,新規,0,2022-12-21,2022-12-21,ＣｏｗＯｎ株式会社,,株式会社,大阪府,大阪市中央区,船場中央２丁目１番４号船場センタービル４号館地下一階Ｂ１０８ＲＯＹＡＬＯＦＦＩＣＥ内,,27,128,5410055,,,,,,,2022-12-21,1,,,,,カウオン,0
631,3120001251222,新規,0,2022-12-21,2022-12-21,株式会社ＨＱ　ｌｏｇｉ,,株式会社,大阪府,大阪市中央区,南久宝寺町１丁目９－８ダイキビル４０２号,,27,128,5410058,,,,,,,2022-12-21,1,,,,,エイチキューロジ,0
632,3120001251230,新規,0,2022-12-21,2022-12-21,株式会社ＦＡＢＲＩＣ,,株式会社,大阪府,大阪市西区,靱本町１丁目５－１８－６０２,,27,106,5500004,,,,,,,2022-12-21,1,,,,,ファブリック,0
633,3120001251255,新規,0,2022-12-21,2022-12-21,中意株式会社,,株式会社,大阪府,大阪市西区,新町４丁目１１－１８－３０３室,,27,106,5500013,,,,,,,2022-12-21,1,,,,,チュウイ,0
645,3120901046894,新規,0,2022-12-21,2022-12-21,株式会社ＰＯＭＡＩＫＡＩ,,株式会社,大阪府,高槻市,名神町１４番１５号,,27,207,5691128,,,,,,,2022-12-21,1,,,,,ポマイカイ,0
649,3130001073285,新規,0,2022-12-21,2022-12-21,Ｐｏｚｚｏ株式会社,,株式会社,京都府,京都市東山区,本町６丁目１４コーポセブン１０２号室,,26,105,6050981,,,,,,,2022-12-21,1,,,,,ポッツォ,0
650,3130001073335,新規,0,2022-12-21,2022-12-21,株式会社真誠,,株式会社,京都府,宇治市,小倉町神楽田５番地１１,,26,204,6110042,,,,,,,2022-12-21,1,,,,,シンセイ,0
654,3140001128484,新規,0,2022-12-21,2022-12-21,株式会社スフィーダ,,株式会社,兵庫県,神戸市長田区,長楽町６丁目２番２９号チャレンジビル３階,,28,106,6530054,,,,,,,2022-12-21,1,,,,,スフィーダ,0
656,3140003018493,新規,0,2022-12-21,2022-12-21,合同会社ＲＡＹ,,合同会社,兵庫県,神戸市兵庫区,中道通１丁目３番２１号藤和シティコア神戸中道通９０１号室,,28,105,6520801,,,,,,,2022-12-21,1,,,,,レイ,0
657,3140003018502,新規,0,2022-12-21,2022-12-21,合同会社コツコツ,,合同会社,兵庫県,宝塚市,仁川北２丁目８番８号,,28,214,6650061,,,,,,,2022-12-21,1,,,,,コツコツ,0
659,3150003002843,新規,0,2022-12-21,2022-12-21,Ｏ‐ＬＩＦＥ合同会社,,合同会社,奈良県,五條市,田園３丁目２９番地の１,,29,207,6370093,,,,,,,2022-12-21,1,,,,,オーライフ,0
665,3180001154262,新規,0,2022-12-21,2022-12-21,株式会社サンクステート,,株式会社,愛知県,名古屋市港区,木場町２番の７５,,23,111,4550021,,,,,,,2022-12-21,1,,,,,サンクステート,0
666,3180001154279,新規,0,2022-12-21,2022-12-21,ｅＬｉＭＡ株式会社,,株式会社,愛知県,名古屋市昭和区,南山町４番地の３,,23,107,4660835,,,,,,,2022-12-21,1,,,,,エリマ,0
678,3240001060834,新規,0,2022-12-21,2022-12-21,株式会社内田興業,,株式会社,広島県,広島市安芸区,矢野南１丁目１番１２－２０１号,,34,107,7360086,,,,,,,2022-12-21,1,,,,,ウチダコウギョウ,0
683,3260001037509,新規,0,2022-12-21,2022-12-21,株式会社ＥＬＦＩＥ,,株式会社,岡山県,岡山市南区,西市８０３番地５,,33,104,7000953,,,,,,,2022-12-21,1,,,,,エルフィ,0
685,3280001008846,新規,0,2022-12-21,2022-12-21,隠岐の島ハイトラスト株式会社,,株式会社,島根県,隠岐郡隠岐の島町,岬町飯の山１番地２,,32,528,6850021,,,,,,,2022-12-21,1,,,,,オキノシマハイトラスト,0
693,3290003013331,新規,0,2022-12-21,2022-12-21,ＥＶＣＯＭ合同会社,,合同会社,福岡県,福岡市博多区,博多駅東２丁目５番１号アーバンネット博多ビル４Ｆ,,40,132,8120013,,,,,,,2022-12-21,1,,,,,イブコム,0
695,3290801029140,新規,0,2022-12-21,2022-12-21,株式会社グランドマーク,,株式会社,福岡県,北九州市小倉北区,上到津４丁目１１番９－１０１号,,40,106,8030845,,,,,,,2022-12-21,1,,,,,グランドマーク,0
704,3330003009630,新規,0,2022-12-21,2022-12-21,合同会社勝明,,合同会社,熊本県,八代市,古閑中町７００番地３,,43,202,8660898,,,,,,,2022-12-21,1,,,,,ショウメイ,0
707,3350003004241,新規,0,2022-12-21,2022-12-21,合同会社はれる屋,,合同会社,宮崎県,宮崎市,清武町加納甲３００４番地２０６,,45,201,8891605,,,,,,,2022-12-21,1,,,,,ハレルヤ,0
709,3360003012581,新規,0,2022-12-21,2022-12-21,合同会社プロコネクト,,合同会社,沖縄県,中頭郡西原町,上原２丁目３０番地の２５,,47,329,9030125,,,,,,,2022-12-21,1,,,,,プロコネクト,0
726,3430001088063,新規,0,2022-12-21,2022-12-21,株式会社道和,,株式会社,北海道,札幌市白石区,北郷一条１２丁目８番１７号－１階,,01,104,0030831,,,,,,,2022-12-21,1,,,,,ドウワ,0
728,3450001013861,新規,0,2022-12-21,2022-12-21,株式会社インテリアサワグチ,,株式会社,北海道,旭川市,末広一条１０丁目３番２４号,,01,204,0718131,,,,,,,2022-12-21,1,,,,,インテリアサワグチ,0
732,3700150113255,新規,0,2022-12-21,2022-12-06,信州須坂フルーツエール推進協議会,,その他,長野県,須坂市,大字須坂１２９５－１,,20,207,3820000,,,,,,,2022-12-06,1,,,,,シンシユウスザカフルーツエールスイシンキヨウギカイ,0
739,4010001231738,新規,0,2022-12-21,2022-12-21,株式会社日信インベスト,,株式会社,東京都,中央区,晴海３丁目１３番２－９１６号,,13,102,1040053,,,,,,,2022-12-21,1,,,,,ニッシンインベスト,0
740,4010003039386,新規,0,2022-12-21,2022-12-21,ＩＯＪＩＤＡ合同会社,,合同会社,東京都,千代田区,岩本町３丁目１０番７号東自機ビル７階,,13,101,1010032,,,,,,,2022-12-21,1,,,,,イオジダ,0
742,4010101015462,新規,0,2022-12-21,2022-12-21,高美屋コムネット株式会社,,株式会社,東京都,八王子市,東浅川町３３９番地５－１０１,,13,201,1930834,,,,,,,2022-12-21,1,,,,,タカミヤコムネット,0
752,4010403029177,新規,0,2022-12-21,2022-12-21,合同会社ＩＷｒｉｔｅ,,合同会社,東京都,港区,南青山２丁目２番１５号,,13,103,1070062,,,,,,,2022-12-21,1,,,,,アイライト,0
753,4010403029185,新規,0,2022-12-21,2022-12-21,合同会社ソーラーパーク１１号,,合同会社,東京都,港区,六本木３丁目２番１号,,13,103,1060032,,,,,,,2022-12-21,1,,,,,ソーラーパークジュウイチゴウ,0
772,4011001151604,新規,0,2022-12-21,2022-12-21,株式会社ピボットワークス,,株式会社,東京都,渋谷区,神宮前４丁目６番１２号和合ハイツ１０１号室,,13,113,1500001,,,,,,,2022-12-21,1,,,,,ピボットワークス,0
775,4011003015947,新規,0,2022-12-21,2022-12-21,リリアーレ音楽教室合同会社,,合同会社,東京都,目黒区,洗足１丁目２６－１－２０２,,13,110,1520012,,,,,,,2022-12-21,1,,,,,リリアーレオンガクキョウシツ,0
776,4011003015955,新規,0,2022-12-21,2022-12-21,合同会社Ｔｈｒｅｅ　ｓｔａｒｓ,,合同会社,東京都,渋谷区,恵比寿南３丁目９番８－２０６号プラウド恵比寿,,13,113,1500022,,,,,,,2022-12-21,1,,,,,スリースターズ,0
779,4011101101228,新規,0,2022-12-21,2022-12-21,株式会社Ｃｏｌｏｒｆｕｌ,,株式会社,東京都,新宿区,西新宿３丁目３番１３号西新宿水間ビル６階,,13,104,1600023,,,,,,,2022-12-21,1,,,,,カラフル,0
780,4011101101260,新規,0,2022-12-21,2022-12-21,株式会社ＳＨＩＧＵＲＥ,,株式会社,東京都,新宿区,左門町６番地１０渋谷ビル３階,,13,104,1600017,,,,,,,2022-12-21,1,,,,,シグレ,0
781,4011301028329,新規,0,2022-12-21,2022-12-21,株式会社ＩＴＵ,,株式会社,東京都,杉並区,永福３丁目３２番２３号ＶＩＬＬＡＮＩＳＨＩＥＩＦＵＫＵ２０３,,13,115,1680064,,,,,,,2022-12-21,1,,,,,アイティユー,0
787,4011503005407,新規,0,2022-12-21,2022-12-21,合同会社イネコ,,合同会社,東京都,荒川区,荒川１丁目３８番４号,,13,118,1160002,,,,,,,2022-12-21,1,,,,,イネコ,0
789,4011603003780,新規,0,2022-12-21,2022-12-21,森山商事合同会社,,合同会社,東京都,練馬区,東大泉５丁目４３番１―５０８号,,13,120,1780063,,,,,,,2022-12-21,1,,,,,モリヤマショウジ,0
790,4011701025891,新規,0,2022-12-21,2022-12-21,八郎右衛門管財株式会社,,株式会社,東京都,江戸川区,中葛西５丁目２５番１５号,,13,123,1340083,,,,,,,2022-12-21,1,,,,,ハチロウウエモンカンザイ,0
796,4012801022036,新規,0,2022-12-21,2022-12-21,株式会社ＯＳＣクリンネス,,株式会社,東京都,国分寺市,本町４丁目１２番１号,,13,214,1850012,,,,,,,2022-12-21,1,,,,,オーエスシークリンネス,0
797,4013301050097,新規,0,2022-12-21,2022-12-21,株式会社ピックアップ,,株式会社,東京都,豊島区,東池袋１丁目１７番１１号,,13,116,1700013,,,,,,,2022-12-21,1,,,,,ピックアップ,0
806,4020001149368,新規,0,2022-12-21,2022-12-21,株式会社ＫＫＵ,,株式会社,神奈川県,横浜市旭区,鶴ケ峰本町２丁目２０番９号,,14,112,2410021,,,,,,,2022-12-21,1,,,,,ケーケーユー,0
812,4020003022928,新規,0,2022-12-21,2022-12-21,合同会社Ｔ４,,合同会社,神奈川県,横浜市西区,浅間町１丁目４番３号ウィザードビル４０２,,14,103,2200072,,,,,,,2022-12-21,1,,,,,ティーフォー,0
818,4021001077690,新規,0,2022-12-21,2022-12-21,ＭＩＲＡＩ株式会社,,株式会社,神奈川県,小田原市,成田４４６番地６,,14,206,2500862,,,,,,,2022-12-21,1,,,,,ミライ,0
819,4021001077773,新規,0,2022-12-21,2022-12-21,株式会社クライドスカイ,,株式会社,神奈川県,相模原市緑区,西橋本５丁目４番２１号,,14,151,2520131,,,,,,,2022-12-21,1,,,,,クライドスカイ,0
823,4021003012506,新規,0,2022-12-21,2022-12-21,ＪＰアドネクスト合同会社,,合同会社,神奈川県,茅ヶ崎市,浜之郷３３６番地２,,14,207,2530086,,,,,,,2022-12-21,1,,,,,ジェーピーアドネクスト,0
825,4021005012693,新規,0,2022-12-21,2022-12-21,一般社団法人福は内,,その他の設立登記法人,神奈川県,茅ヶ崎市,本宿町７番１１号新倉貸家本宿町６,,14,207,2530014,,,,,,,2022-12-21,1,,,,,フクハウチ,0
826,4021005012702,新規,0,2022-12-21,2022-12-21,一般社団法人日本皮膚医療美容研究協会,,その他の設立登記法人,神奈川県,三浦郡葉山町,堀内１２５２番地の５,,14,301,2400112,,,,,,,2022-12-21,1,,,,,ニホンヒフイリョウビヨウケンキュウキョウカイ,0
831,4030001151546,新規,0,2022-12-21,2022-12-21,株式会社Ｌｉｇｌａｃｅ,,株式会社,埼玉県,さいたま市大宮区,大成町３丁目４３２－５,,11,103,3300852,,,,,,,2022-12-21,1,,,,,リグレイス,0
832,4030001151562,新規,0,2022-12-21,2022-12-21,株式会社タカハシ商事,,株式会社,埼玉県,蕨市,北町１丁目７－１９,,11,223,3350001,,,,,,,2022-12-21,1,,,,,タカハシショウジ,0
833,4030001151570,新規,0,2022-12-21,2022-12-21,セントラルサンセルフ株式会社,,株式会社,埼玉県,狭山市,大字北入曽３３８番地の５,,11,215,3501315,,,,,,,2022-12-21,1,,,,,セントラルサンセルフ,0
834,4030001151587,新規,0,2022-12-21,2022-12-21,株式会社リリーホース,,株式会社,埼玉県,さいたま市南区,別所５丁目１５番２号,,11,108,3360021,,,,,,,2022-12-21,1,,,,,リリーホース,0
844,4040001126316,新規,0,2022-12-21,2022-12-21,柏商事株式会社,,株式会社,千葉県,柏市,十余二２４９番地３７０,,12,217,2770872,,,,,,,2022-12-21,1,,,,,カシワショウジ,0
849,4040003021531,新規,0,2022-12-21,2022-12-21,ＴＷＰ合同会社,,合同会社,千葉県,船橋市,行田１丁目１０番２号ドミールＳ－５－１０５号,,12,204,2730044,,,,,,,2022-12-21,1,,,,,ティーダブルピー,0
855,4050003007042,新規,0,2022-12-21,2022-12-21,合同会社Ｗａｒｍ　Ｈｅａｒｔ,,合同会社,茨城県,笠間市,鯉淵６２８３番地１２,,08,216,3091703,,,,,,,2022-12-21,1,,,,,ウォームハート,0
857,4060005010035,新規,0,2022-12-21,2022-12-21,特定非営利活動法人ダブルレインボウ,,その他の設立登記法人,栃木県,大田原市,下石上１５２８番地,,09,210,3240036,,,,,,,2022-12-21,1,,,,,ダブルレインボウ,0
860,4070001039944,新規,0,2022-12-21,2022-12-21,株式会社グリーン・Ｄ・ファーム,,株式会社,群馬県,みどり市,笠懸町阿左美２５４３番地１,,10,212,3792311,,,,,,,2022-12-21,1,,,,,グリーンディーファーム,0
861,4080003002916,新規,0,2022-12-21,2022-12-21,合同会社Ｕ‐ｃａｒエンタープライズ,,合同会社,静岡県,静岡市駿河区,東新田１丁目１番５０号,,22,102,4210112,,,,,,,2022-12-21,1,,,,,ユーカーエンタープライズ,0
867,4100001035980,新規,0,2022-12-21,2022-12-21,株式会社飯塚,00128851,株式会社,長野県,長野市,稲里町中氷鉋９３９番地１,,20,201,3812215,,,,,,,2022-12-21,1,,,,,イイヅカ,0
869,4100003006807,新規,0,2022-12-21,2022-12-21,合同会社よはく,,合同会社,長野県,松本市,中央３丁目６－５－５,,20,202,3900811,,,,,,,2022-12-21,1,,,,,ヨハク,0
872,4110003004941,新規,0,2022-12-21,2022-12-21,合同会社卯月,,合同会社,新潟県,妙高市,柳井田町２丁目８－４６,,15,217,9440008,,,,,,,2022-12-21,1,,,,,ウヅキ,0
884,4120001251188,新規,0,2022-12-21,2022-12-21,株式会社Ｄｉｄｕ,,株式会社,大阪府,大阪市中央区,東心斎橋２丁目８番２０号新日本畳町ビル５階５．６号室,,27,128,5420083,,,,,,,2022-12-21,1,,,,,ディドゥ,0
885,4120001251221,新規,0,2022-12-21,2022-12-21,株式会社ヒューマンキュレーション,,株式会社,大阪府,大阪市北区,梅田１丁目３番１号大阪駅前第１ビル１１階,,27,127,5300001,,,,,,,2022-12-21,1,,,,,ヒューマンキュレーション,0
886,4120001251238,新規,0,2022-12-21,2022-12-21,株式会社福海,,株式会社,大阪府,大阪市大正区,平尾３丁目８番２０号,,27,108,5510012,,,,,,,2022-12-21,1,,,,,フクカイ,0
887,4120001251279,新規,0,2022-12-21,2022-12-21,株式会社ハリセ,,株式会社,大阪府,大阪市福島区,野田１丁目１番８６号関連棟１階３７号,,27,103,5530005,,,,,,,2022-12-21,1,,,,,ハリセ,0
891,4120003023107,新規,0,2022-12-21,2022-12-21,合同会社ルリエ,,合同会社,大阪府,大阪市北区,梅田１丁目２番２号大阪駅前第２ビル１２―１２,,27,127,5300001,,,,,,,2022-12-21,1,,,,,ルリエ,0
898,4120901046893,新規,0,2022-12-21,2022-12-21,ＬＥＡＰ．コーポレーション．株式会社,,株式会社,大阪府,吹田市,江坂町２丁目２０番２０－７０５号,,27,205,5640063,,,,,,,2022-12-21,1,,,,,リープコーポレーション,0
908,4130001073326,新規,0,2022-12-21,2022-12-21,株式会社ＴＥＲＲＡ,,株式会社,京都府,京都市北区,紫野下石龍町２３番地２,,26,101,6038213,,,,,,,2022-12-21,1,,,,,テラ,0
915,4140001128483,新規,0,2022-12-21,2022-12-21,株式会社ロックリーヴル,,株式会社,兵庫県,神戸市長田区,長楽町６丁目２番２９号,,28,106,6530054,,,,,,,2022-12-21,1,,,,,ロックリーヴル,0
917,4140003018501,新規,0,2022-12-21,2022-12-21,合同会社あまらく,,合同会社,兵庫県,尼崎市,東七松町１丁目１１番２号ヒルズ立花２０３号,,28,202,6600051,,,,,,,2022-12-21,1,,,,,アマラク,0
921,4150001026034,新規,0,2022-12-21,2022-12-21,麒涵株式会社,,株式会社,奈良県,奈良市,横井３丁目１７５番地２０２号室,,29,201,6308422,,,,,,,2022-12-21,1,,,,,キカン,0
922,4150005009448,新規,0,2022-12-21,2022-12-21,一般社団法人ライフシフト算命学協会,,その他の設立登記法人,奈良県,橿原市,小綱町１５番２２－２２号,,29,205,6340811,,,,,,,2022-12-21,1,,,,,ライフシフトサンメイガクキョウカイ,0
928,4180001154212,新規,0,2022-12-21,2022-12-21,株式会社ＡＬ‐ＢＡＳＨＩＲ　ＩＮＴＥＲＮＡＴＩＯＮＡＬ,,株式会社,愛知県,名古屋市港区,惟信町３丁目２５－１,,23,111,4550823,,,,,,,2022-12-21,1,,,,,アルバシルインターナショナル,0
929,4180001154253,新規,0,2022-12-21,2022-12-21,Ｂａｃｋ　Ｄｏｏｏｒ株式会社,,株式会社,愛知県,名古屋市中村区,平池町４丁目６０－１２グローバルゲート１１階,,23,105,4530872,,,,,,,2022-12-21,1,,,,,バックドア,0
935,4200003005773,新規,0,2022-12-21,2022-12-21,合同会社ｆｏｒｅｓｔ　ｓｅｒｖｉｃｅｓ,,合同会社,岐阜県,加茂郡川辺町,下吉田３０６番地１,00128858,21,503,5090311,,,,,,,2022-12-21,1,,,,,フォレストサービス,0
936,4200005013428,新規,0,2022-12-21,2022-12-21,一般社団法人リライフ,,その他の設立登記法人,岐阜県,各務原市,尾崎南町１丁目７２番地,,21,213,5040003,,,,,,,2022-12-21,1,,,,,リライフ,0
939,4220001025177,新規,0,2022-12-21,2022-12-21,株式会社駒井商店,,株式会社,石川県,羽咋市,鹿島路町１６６５番地,,17,207,9250076,,,,,,,2022-12-21,1,,,,,コマイショウテン,0
947,4250001019894,新規,0,2022-12-21,2022-12-21,株式会社エムエーイ,,株式会社,山口県,大島郡周防大島町,大字小松１５５６番地１,,35,305,7422106,,,,,,,2022-12-21,1,,,,,エムエーイ,0
956,4290001099966,新規,0,2022-12-21,2022-12-21,株式会社ＵＰＨＩＬＬ　ＮＥＯＢＲＩＧＨＴ,,株式会社,福岡県,福岡市博多区,中洲２丁目２番２号－３０２,,40,132,8100801,,,,,,,2022-12-21,1,,,,,アップヒルネオブライト,0
957,4290001099982,新規,0,2022-12-21,2022-12-21,株式会社本田建築板金工業,,株式会社,福岡県,春日市,紅葉ヶ丘西３丁目９２番地,,40,218,8160832,,,,,,,2022-12-21,1,,,,,ホンダケンチクバンキンコウギョウ,0
968,4330003009638,新規,0,2022-12-21,2022-12-21,ＨＯＡＮＧ　ＡＮＨ合同会社,,合同会社,熊本県,宇土市,南段原町４６－３－１０４号,,43,211,8690421,,,,,,,2022-12-21,1,,,,,ホアンアイン,0
972,4360001031335,新規,0,2022-12-21,2022-12-21,Ｓｐｅｃ株式会社,,株式会社,沖縄県,那覇市,寄宮３丁目１２番６号１Ｆ,,47,201,9020064,,,,,,,2022-12-21,1,,,,,スペック,0
1010,5010001231729,新規,0,2022-12-21,2022-12-21,ＭＢＳ準備株式会社,,株式会社,東京都,千代田区,丸の内３丁目２番３号,,13,101,1000005,,,,,,,2022-12-21,1,,,,,エムビーエスジュンビ,0
1016,5010401171491,新規,0,2022-12-21,2022-12-21,ＧｒｅｅｎＴｅｃｈｎｏｌｏｇｙ株式会社,,株式会社,東京都,港区,北青山２丁目７番１３号プラセオ青山ビル３Ｆ,,13,103,1070061,,,,,,,2022-12-21,1,,,,,グリーンテクノロジー,0
1017,5010401171509,新規,0,2022-12-21,2022-12-21,株式会社ブレイン綜合建設,,株式会社,東京都,港区,新橋２丁目１６番１号,,13,103,1050004,,,,,,,2022-12-21,1,,,,,ブレインソウゴウケンセツ,0
1018,5010401171525,新規,0,2022-12-21,2022-12-21,豊田通商マリンフューエル株式会社,,株式会社,東京都,港区,港南２丁目３番１３号,,13,103,1080075,,,,,,,2022-12-21,1,,,,,トヨタツウショウマリンフューエル,0
1027,5010603009911,新規,0,2022-12-21,2022-12-21,Ｋ＆Ｇ　Ｃｏｎｓｕｌｔｉｎｇ合同会社,,合同会社,東京都,墨田区,東駒形１丁目１７番１３－７０２号セジョリ浅草ベルグレード,,13,107,1300005,,,,,,,2022-12-21,1,,,,,ケーアンドジーコンサルティング,0
1035,5010803004398,新規,0,2022-12-21,2022-12-21,合同会社エイト,,合同会社,東京都,大田区,蒲田５丁目１９番１７号第八村上ビル３階,,13,111,1440052,,,,,,,2022-12-21,1,,,,,,0
1042,5011001151594,新規,0,2022-12-21,2022-12-21,株式会社Ｔｈｅｔｉｓ,,株式会社,東京都,渋谷区,神宮前４丁目３１番１１号,,13,113,1500001,,,,,,,2022-12-21,1,,,,,テティス,0
1044,5011003015970,新規,0,2022-12-21,2022-12-21,合同会社ケーディー,,合同会社,東京都,渋谷区,道玄坂１丁目１０番８号渋谷道玄坂東急ビル２Ｆ－Ｃ,,13,113,1500043,,,,,,,2022-12-21,1,,,,,ケーディー,0
1052,5011101101219,新規,0,2022-12-21,2022-12-21,株式会社ウエストマウンテン,,株式会社,東京都,新宿区,西落合２丁目２０番１－９０７号,,13,104,1610031,,,,,,,2022-12-21,1,,,,,ウエストマウンテン,0
1053,5011101101243,新規,0,2022-12-21,2022-12-21,株式会社Ｊ‐ＤＡＹ,,株式会社,東京都,新宿区,新宿２丁目２番１０号,,13,104,1600022,,,,,,,2022-12-21,1,,,,,ジェーデー,0
1061,5011301028328,新規,0,2022-12-21,2022-12-21,ＭＳＭ株式会社,,株式会社,東京都,杉並区,高井戸東４丁目２１番７号,,13,115,1680072,,,,,,,2022-12-21,1,,,,,エムエスエム,0
1063,5011501028788,新規,0,2022-12-21,2022-12-21,株式会社マシウィル・アンド・カンパニー,,株式会社,東京都,荒川区,南千住７丁目２番１－３０３号,,13,118,1160003,,,,,,,2022-12-21,1,,,,,マシウィルアンドカンパニー,0
1087,5020001149490,新規,0,2022-12-21,2022-12-21,エムティーアイコーポレーション株式会社,,株式会社,神奈川県,横浜市鶴見区,駒岡５丁目１７番３－３０５号,,14,101,2300071,,,,,,,2022-12-21,1,,,,,エムティーアイコーポレーション,0
1088,5020001149499,新規,0,2022-12-21,2022-12-21,プロセス機器事業分割準備株式会社,,株式会社,神奈川県,川崎市中原区,中丸子１５０番地,,14,133,2110012,,,,,,,2022-12-21,1,,,,,プロセスキキジギョウブンカツジュンビ,0
1090,5020003022935,新規,0,2022-12-21,2022-12-21,合同会社ｋｏｔｏｉｓａ,,合同会社,神奈川県,横浜市鶴見区,鶴見中央５丁目１番１号３階,,14,101,2300051,,,,,,,2022-12-21,1,,,,,コトイサ,0
1100,5030001151561,新規,0,2022-12-21,2022-12-21,株式会社Ｇｒｅｅｎ　ｓｙｓｔｅｍｓ,,株式会社,埼玉県,川口市,芝１丁目２４番１４号,,11,203,3330866,,,,,,,2022-12-21,1,,,,,グリーンシステム,0
1101,5030001151578,新規,0,2022-12-21,2022-12-21,株式会社ＣＡＭＥＬＹ　ＪＡＰＡＮ,,株式会社,埼玉県,北足立郡伊奈町,内宿台１丁目３番地ＳＫビル,,11,301,3620812,,,,,,,2022-12-21,1,,,,,キャメリージャパン,0
1102,5030001151586,新規,0,2022-12-21,2022-12-21,株式会社黒川工業,,株式会社,埼玉県,さいたま市西区,三橋６丁目１００４番地３アクアビット２０１,,11,101,3310052,,,,,,,2022-12-21,1,,,,,クロカワコウギョウ,0
1111,5040001126298,新規,0,2022-12-21,2022-12-21,株式会社吉岐,00128854,株式会社,千葉県,市川市,東菅野３丁目１０番１６号,,12,203,2720823,,,,,,,2022-12-21,1,,,,,ヨシキ,0
1113,5050001052122,新規,0,2022-12-21,2022-12-21,株式会社未来住建,,株式会社,茨城県,つくば市,吾妻１丁目５番地７,,08,220,3050031,,,,,,,2022-12-21,1,,,,,ミライジュウケン,0
1114,5050003007090,新規,0,2022-12-21,2022-12-21,慶楽合同会社,,合同会社,茨城県,神栖市,大野原１丁目２番２９号レガート大野原Ｂ１０５,,08,232,3140144,,,,,,,2022-12-21,1,,,,,ケイラク,0
1116,5060001035547,新規,0,2022-12-21,2022-12-21,株式会社トチアンホールディングス,,株式会社,栃木県,栃木市,城内町２丁目５３番４号,,09,203,3280033,,,,,,,2022-12-21,1,,,,,トチアンホールディングス,0
1127,5090001017872,新規,0,2022-12-21,2022-12-21,テクスオ株式会社,,株式会社,山梨県,富士吉田市,大明見５丁目２１番２４号,,19,202,4030003,,,,,,,2022-12-21,1,,,,,テクスオ,0
1147,5120001251096,新規,0,2022-12-21,2022-12-21,ザミオ株式会社,,株式会社,大阪府,大阪市住之江区,中加賀屋３丁目４番２１－５０５号,,27,125,5590017,,,,,,,2022-12-21,1,,,,,ザミオ,0
1148,5120001251121,新規,0,2022-12-21,2022-12-21,豪思特株式会社,,株式会社,大阪府,大阪市中央区,南船場１丁目６番１１－１０４号室,,27,128,5420081,,,,,,,2022-12-21,1,,,,,ホウシト,0
1149,5120001251146,新規,0,2022-12-21,2022-12-21,マンソン株式会社,,株式会社,大阪府,大阪市北区,天満４丁目５番３号,,27,127,5300043,,,,,,,2022-12-21,1,,,,,マンソン,0
1150,5120001251162,新規,0,2022-12-21,2022-12-21,Ｍｏｎｉｃａ商事株式会社,,株式会社,大阪府,大阪市北区,天神橋７丁目６番１８－３３号,,27,127,5310041,,,,,,,2022-12-21,1,,,,,モニカショウジ,0
1151,5120001251179,新規,0,2022-12-21,2022-12-21,新陽株式会社,,株式会社,大阪府,大阪市天王寺区,大道１丁目１１番２２号,,27,109,5430052,,,,,,,2022-12-21,1,,,,,シンヨウ,0
1152,5120001251245,新規,0,2022-12-21,2022-12-21,株式会社ＧＭ,,株式会社,大阪府,大阪市中央区,心斎橋筋１丁目５番５号ＥＡＳＴビル４階,,27,128,5420085,,,,,,,2022-12-21,1,,,,,ジーエム,0
1153,5120001251261,新規,0,2022-12-21,2022-12-21,福元株式会社,,株式会社,大阪府,大阪市天王寺区,悲田院町４－３９朝日プラザ天王寺パサージュ５０５号,,27,109,5430055,,,,,,,2022-12-21,1,,,,,フクゲン,0
1160,5120003023122,新規,0,2022-12-21,2022-12-21,合同会社床和テクノ,,合同会社,大阪府,大阪市東淀川区,瑞光３丁目２番２３号,,27,114,5330005,,,,,,,2022-12-21,1,,,,,ショウワテクノ,0
1162,5120101066709,新規,0,2022-12-21,2022-12-21,株式会社希惺興業,,株式会社,大阪府,松原市,立部３丁目４３９番地の１０,,27,217,5800012,,,,,,,2022-12-21,1,,,,,キセコウギョウ,0
1163,5120901046876,新規,0,2022-12-21,2022-12-21,株式会社アシストファーマシー,,株式会社,大阪府,豊中市,庄内西町３丁目１５番２号,,27,203,5610832,,,,,,,2022-12-21,1,,,,,アシストファーマシー,0
1164,5120903004428,新規,0,2022-12-21,2022-12-21,合同会社ＶＵＺＺ,,合同会社,大阪府,吹田市,豊津町５２番２５号,,27,205,5640051,,,,,,,2022-12-21,1,,,,,ヴァズ,0
1166,5122003002469,新規,0,2022-12-21,2022-12-21,ＭＥＡＴ　ＥＸＰＲＥＳＳ合同会社,,合同会社,大阪府,東大阪市,友井２丁目１４番２号,,27,227,5770816,,,,,,,2022-12-21,1,,,,,ミートエクスプレス,0
1169,5130003008386,新規,0,2022-12-21,2022-12-21,合同会社まいまい,,合同会社,京都府,京都市東山区,宮川筋６丁目３７７－１,,26,105,6050801,,,,,,,2022-12-21,1,,,,,マイマイ,0
1170,5130003008394,新規,0,2022-12-21,2022-12-21,合同会社ＴＵＲＮＩＮＧ,,合同会社,京都府,京都市東山区,大和大路通三条下る三丁目弁財天町８祇園一番館ビル４階３０号,,26,105,6050000,,,,,,,2022-12-21,1,,,,,ターニング,0
1171,5140001128474,新規,0,2022-12-21,2022-12-21,株式会社ＹＡＳＡＫＡ,,株式会社,兵庫県,神戸市東灘区,御影郡家１丁目１７番６号グランヴィ御影郡家２０３号,,28,101,6580048,,,,,,,2022-12-21,1,,,,,ヤサカ,0
1172,5140001128490,新規,0,2022-12-21,2022-12-21,株式会社シャムロック,,株式会社,兵庫県,尼崎市,次屋１丁目２５番１２号シャムロック４０１号,,28,202,6610965,,,,,,,2022-12-21,1,,,,,シャムロック,0
1173,5140003018491,新規,0,2022-12-21,2022-12-21,合同会社そら,,合同会社,兵庫県,伊丹市,北本町１丁目２００番地,,28,207,6640836,,,,,,,2022-12-21,1,,,,,ソラ,0
1174,5150001026033,新規,0,2022-12-21,2022-12-21,株式会社東建,,株式会社,奈良県,御所市,大字楢原４２３番地の１８,00128859,29,208,6392313,,,,,,,2022-12-21,1,,,,,トウケン,0
1183,5170001017419,新規,0,2022-12-21,2022-12-21,株式会社トーコー和歌山,,株式会社,和歌山県,田辺市,天神崎６番２６号,,30,206,6460050,,,,,,,2022-12-21,1,,,,,トーコーワカヤマ,0
1188,5180001154228,新規,0,2022-12-21,2022-12-21,中部コンサルティングサービス株式会社,,株式会社,愛知県,名古屋市名東区,梅森坂西２丁目８４７番地の５,,23,115,4650066,,,,,,,2022-12-21,1,,,,,チュウブコンサルティングサービス,0
1189,5180001154269,新規,0,2022-12-21,2022-12-21,株式会社Ｍｔ．ＤＥＳＩＧＮ,,株式会社,愛知県,長久手市,五合池７２０番地,,23,238,4801156,,,,,,,2022-12-21,1,,,,,マウントデザイン,0
1195,5180003024560,新規,0,2022-12-21,2022-12-21,合同会社トータルプランニング,,合同会社,愛知県,あま市,新居屋小舟戸１２３番地メゾンベルジュール２０１号,,23,237,4901105,,,,,,,2022-12-21,1,,,,,トータルプランニング,0
1201,5210001019187,新規,0,2022-12-21,2022-12-21,株式会社ＦＡＬＬ　ＶＡＬＬＥＹ,,株式会社,福井県,坂井市,三国町滝谷２丁目８番１６号,,18,210,9130054,,,,,,,2022-12-21,1,,,,,フォールバレー,0
1220,5290001099981,新規,0,2022-12-21,2022-12-21,九州緑通株式会社,,株式会社,福岡県,福岡市博多区,美野島１丁目８番１号,,40,132,8120017,,,,,,,2022-12-21,1,,,,,キュウシュウリョクツウ,0
1226,5290801029139,新規,0,2022-12-21,2022-12-21,株式会社常機構,,株式会社,福岡県,北九州市八幡西区,船越２丁目３１番１０号,,40,109,8071111,,,,,,,2022-12-21,1,,,,,ジョウキコウ,0
1236,5340003004001,新規,0,2022-12-21,2022-12-21,Ｅ‐ＴＡＣ合同会社,,合同会社,鹿児島県,薩摩川内市,五代町４８５－１,,46,215,8950066,,,,,,,2022-12-21,1,,,,,イータック,0
1238,5350001018092,新規,0,2022-12-21,2022-12-21,株式会社Ｋｉｊｙｏｒｉｎａ　Ｐｌｕｓ,,株式会社,宮崎県,児湯郡木城町,大字椎木５９２０番地３２,,45,404,8840102,,,,,,,2022-12-21,1,,,,,キジョリーナプラス,0
1280,6010001231777,新規,0,2022-12-21,2022-12-21,株式会社ＢＲＡＩＮ,,株式会社,東京都,中央区,日本橋２丁目１番１７号丹生ビル２階,,13,102,1030027,,,,,,,2022-12-21,1,,,,,ブレーン,0
1283,6010003039384,新規,0,2022-12-21,2022-12-21,ＯＣＥＡＮＩＣ　ＰＨＡＲＭＡＣＨＥＭ合同会社,,合同会社,東京都,中央区,京橋２丁目１０番１０号,,13,102,1040031,,,,,,,2022-12-21,1,,,,,オーシャニックファーマケム,0
1289,6010401171433,新規,0,2022-12-21,2022-12-21,ティールバンクアナリティクス株式会社,,株式会社,東京都,港区,白金台５丁目１５番５号ユーネックストゥワインデール２０１号室,,13,103,1080071,,,,,,,2022-12-21,1,,,,,ティールバンクアナリティクス,0
1290,6010401171458,新規,0,2022-12-21,2022-12-21,株式会社ジーオーエイ,,株式会社,東京都,港区,南青山２丁目２番１５号ＷｉｎＡｏｙａｍａビルＵＣＦ６３５,,13,103,1070062,,,,,,,2022-12-21,1,,,,,ジーオーエイ,0
1298,6010405021675,新規,0,2022-12-21,2022-12-21,特定非営利活動法人未来来来,,その他の設立登記法人,東京都,港区,港南４丁目６番４号２９０６号室,,13,103,1080075,,,,,,,2022-12-21,1,,,,,ミライクルクル,0
1302,6010703006460,新規,0,2022-12-21,2022-12-21,ＹＵＩ合同会社,,合同会社,東京都,品川区,大崎３丁目５－２エステージ大崎ビル６階,,13,109,1410032,,,,,,,2022-12-21,1,,,,,ユイ,0
1304,6010803004397,新規,0,2022-12-21,2022-12-21,合同会社ベンジャー,,合同会社,東京都,大田区,萩中２丁目１６－１５,,13,111,1440047,,,,,,,2022-12-21,1,,,,,ベンジャー,0
1318,6011101101242,新規,0,2022-12-21,2022-12-21,株式会社ＳＨＵＵＮＡ,,株式会社,東京都,新宿区,歌舞伎町２丁目１８番６号日光ビル６階Ｃ室,,13,104,1600021,,,,,,,2022-12-21,1,,,,,シューナ,0
1322,6011301028327,新規,0,2022-12-21,2022-12-21,満留株式会社,,株式会社,東京都,杉並区,天沼１丁目２７番６号,,13,115,1670032,,,,,,,2022-12-21,1,,,,,ミツトメ,0
1325,6011401024787,新規,0,2022-12-21,2022-12-21,Ｙｅｌｏ株式会社,,株式会社,東京都,板橋区,大山東町５９番８号ドルメン大山２０１号室,,13,119,1730014,,,,,,,2022-12-21,1,,,,,イエロ,0
1342,6013303006418,新規,0,2022-12-21,2022-12-21,合同会社ＷＥＥＤ,,合同会社,東京都,豊島区,雑司が谷１丁目５番２号,,13,116,1710032,,,,,,,2022-12-21,1,,,,,ウイード,0
1359,6021003012520,新規,0,2022-12-21,2022-12-21,合同会社ａｒｏ,,合同会社,神奈川県,相模原市緑区,下九沢１６３５－２８,,14,151,2520134,,,,,,,2022-12-21,1,,,,,アロ,0
1363,6030001151486,新規,0,2022-12-21,2022-12-21,株式会社ｋａｒｔｅ,,株式会社,埼玉県,さいたま市大宮区,桜木町１丁目９－１８－ＭＩＯ大宮６０３,,11,103,3300854,,,,,,,2022-12-21,1,,,,,カルテ,0
1364,6030001151511,新規,0,2022-12-21,2022-12-21,イワブチ金属株式会社,,株式会社,埼玉県,入間市,宮寺５８２番地５,,11,225,3580014,,,,,,,2022-12-21,1,,,,,イワブチキンゾク,0
1365,6030001151544,新規,0,2022-12-21,2022-12-21,株式会社ａｎｄ　ｗｏｒｌｄ,,株式会社,埼玉県,川口市,大字芝４８５７番地の３,,11,203,3330866,,,,,,,2022-12-21,1,,,,,アンドワールド,0
1366,6030001151552,新規,0,2022-12-21,2022-12-21,株式会社Ｒｏｏｔｓ,,株式会社,埼玉県,所沢市,小手指町１丁目３８番地の１６北斗ビル２０５,,11,208,3591141,,,,,,,2022-12-21,1,,,,,ルーツ,0
1367,6030001151560,新規,0,2022-12-21,2022-12-21,一期一会株式会社,,株式会社,埼玉県,本庄市,寿３丁目２－１,,11,211,3670023,,,,,,,2022-12-21,1,,,,,イチゴイチエ,0
1368,6030001151569,新規,0,2022-12-21,2022-12-21,Ｒｉｓｅ　Ｐｌｕｓ株式会社,,株式会社,埼玉県,飯能市,大字岩沢８８０番地８,,11,209,3570023,,,,,,,2022-12-21,1,,,,,ライズプラス,0
1369,6030001151585,新規,0,2022-12-21,2022-12-21,株式会社和心電工,,株式会社,埼玉県,さいたま市緑区,大字三室１０５９番地１４,,11,109,3360911,,,,,,,2022-12-21,1,,,,,ワシンデンコウ,0
1375,6030005021090,新規,0,2022-12-21,2022-12-21,特定非営利活動法人江南南,,その他の設立登記法人,埼玉県,深谷市,横瀬５３７番地９,,11,218,3660009,,,,,,,2022-12-21,1,,,,,コウナンミナミ,0
1382,6040001126264,新規,0,2022-12-21,2022-12-21,財間企画株式会社,,株式会社,千葉県,千葉市美浜区,中瀬１丁目３番地幕張テクノガーデンＣＢ棟,,12,106,2610023,,,,,,,2022-12-21,1,,,,,ザイマキカク,0
1383,6040001126289,新規,0,2022-12-21,2022-12-21,株式会社ｗｅｌｌ‐ｂｅｉｎｇ,,株式会社,千葉県,佐倉市,王子台１丁目２７番地２８－１階,,12,212,2850837,,,,,,,2022-12-21,1,,,,,ウェルビーイング,0
1385,6040003021538,新規,0,2022-12-21,2022-12-21,賀彦合同会社,,合同会社,千葉県,成田市,本城２４８番地１３,,12,211,2860114,,,,,,,2022-12-21,1,,,,,ヨシヒコ,0
1393,6060001035546,新規,0,2022-12-21,2022-12-21,リ建株式会社,,株式会社,栃木県,宇都宮市,陽東８丁目２２番１７号,,09,201,3210904,,,,,,,2022-12-21,1,,,,,リケン,0
1400,6080003002914,新規,0,2022-12-21,2022-12-21,合同会社ＣＯＮＥＣＴＯ,,合同会社,静岡県,静岡市清水区,蒲原新栄１３６番地の１,,22,103,4213202,,,,,,,2022-12-21,1,,,,,コネクトゥ,0
1410,6120001251178,新規,0,2022-12-21,2022-12-21,佳軒株式会社,,株式会社,大阪府,大阪市中央区,博労町１丁目７番１１号（２０１号室）,,27,128,5410059,,,,,,,2022-12-21,1,,,,,カケン,0
1411,6120001251211,新規,0,2022-12-21,2022-12-21,株式会社七,,株式会社,大阪府,大阪市中央区,東高麗橋４番９号,,27,128,5400039,,,,,,,2022-12-21,1,,,,,ナナ,0
1412,6120001251228,新規,0,2022-12-21,2022-12-21,株式会社クロノスタシス,,株式会社,大阪府,大阪市北区,天神橋３丁目１番１１号,,27,127,5300041,,,,,,,2022-12-21,1,,,,,クロノスタシス,0
1413,6120001251252,新規,0,2022-12-21,2022-12-21,株式会社楽園食品,,株式会社,大阪府,大阪市生野区,鶴橋１丁目２番２０号４Ｆ,,27,116,5440031,,,,,,,2022-12-21,1,,,,,ラクエンショクヒン,0
1416,6120101066699,新規,0,2022-12-21,2022-12-21,株式会社Ｔｏｔａｌｍａｒｋ,,株式会社,大阪府,羽曳野市,白鳥３丁目４番２０号,,27,222,5830856,,,,,,,2022-12-21,1,,,,,トータルマーク,0
1423,6130003008385,新規,0,2022-12-21,2022-12-21,合同会社美浪設備,,合同会社,京都府,乙訓郡大山崎町,字円明寺小字小倉口１－５円明寺が丘南第１９住宅２０１号室,,26,303,6180091,,,,,,,2022-12-21,1,,,,,ミナミセツビ,0
1437,6180003024626,新規,0,2022-12-21,2022-12-21,合同会社プラスファＬＩＮＫ,,合同会社,愛知県,名古屋市南区,本地通３丁目１０番地５バンベール本地通１０１,,23,112,4570074,,,,,,,2022-12-21,1,,,,,プラスファリンク,0
1438,6180003024634,新規,0,2022-12-21,2022-12-21,合同会社ベリンボロ,,合同会社,愛知県,海部郡蟹江町,大字今字市之坪１－１０,,23,425,4970032,,,,,,,2022-12-21,1,,,,,ベリンボロ,0
1440,6180005020029,新規,0,2022-12-21,2022-12-21,一般社団法人日本イタリアンジュエリー協会,,その他の設立登記法人,愛知県,名古屋市中区,栄２丁目１５番１０号,,23,106,4600008,,,,,,,2022-12-21,1,,,,,ニホンイタリアンジュエリーキョウカイ,0
1454,6210003001588,新規,0,2022-12-21,2022-12-21,北ノ庄クラシックス合同会社,,合同会社,福井県,福井市,中央１丁目２１－３６,,18,201,9100006,,,,,,,2022-12-21,1,,,,,キタノショウクラシックス,0
1455,6210003001596,新規,0,2022-12-21,2022-12-21,合同会社ＤＥＭＵ建築設計事務所,,合同会社,福井県,越前市,西樫尾町第７号２４番地２,,18,209,9150244,,,,,,,2022-12-21,1,,,,,デムケンチクセッケイジムショ,0
1463,6240001060831,新規,0,2022-12-21,2022-12-21,広島日野自動車ホールディングス株式会社,,株式会社,広島県,広島市安芸区,船越南２丁目７番４号,,34,107,7360082,,,,,,,2022-12-21,1,,,,,ヒロシマヒノジドウシャホールディングス,0
1466,6250003003201,新規,0,2022-12-21,2022-12-21,合同会社ＦＹＤ,,合同会社,山口県,下関市,向洋町３丁目１３番２６号,,35,201,7500041,,,,,,,2022-12-21,1,,,,,エフワイディ,0
1473,6290001099972,新規,0,2022-12-21,2022-12-21,株式会社ＳＥＮＫＩ,,株式会社,福岡県,福岡市東区,香椎照葉３丁目２番７号アイタワー３００１号室,,40,131,8130017,,,,,,,2022-12-21,1,,,,,センキ,0
1477,6290801029138,新規,0,2022-12-21,2022-12-21,株式会社さらさぽ,,株式会社,福岡県,北九州市門司区,吉志新町３丁目４番７号,,40,101,8000118,,,,,,,2022-12-21,1,,,,,サラサポ,0
1480,6300005007120,新規,0,2022-12-21,2022-12-21,司法書士法人あさみ事務所,,その他の設立登記法人,佐賀県,佐賀市,神野東３丁目２番１０号,,41,201,8400804,,,,,,,2022-12-21,1,,,,,アサミジムショ,0
1488,6350001018091,新規,0,2022-12-21,2022-12-21,株式会社よつば鑑定事務所,,株式会社,宮崎県,都城市,北原町１１０３番地２北原ビルテナント２Ｆ,,45,202,8850024,,,,,,,2022-12-21,1,,,,,ヨツバカンテイジムショ,0
1512,6460001005756,新規,0,2022-12-21,2022-12-21,株式会社Ｒｅｃｋｏｎ　Ｐｌａｎｎｉｎｇ,,株式会社,北海道,釧路市,鳥取北９丁目１０番１４号,,01,206,0840907,,,,,,,2022-12-21,1,,,,,レコンプランニング,0
1516,6470003002313,新規,0,2022-12-21,2022-12-21,合同会社象と太陽社,,合同会社,香川県,高松市,男木町１８９６番地１,,37,201,7600091,,,,,,,2022-12-21,1,,,,,ゾウトタイヨウシャ,0
1522,6480003001900,新規,0,2022-12-21,2022-12-21,合同会社吉本機工,,合同会社,徳島県,美馬市,美馬町字山嫁坂１１６番地１０,,36,207,7712106,,,,,,,2022-12-21,1,,,,,ヨシモトキコウ,0
1525,6700150006365,新規,0,2022-12-21,2015-10-09,日本キューバ経済懇話会,,その他,東京都,港区,赤坂２丁目３－６,,13,103,1070052,,,,,,,2015-10-09,1,,,,,ニホンキユーバケイザイコンワカイ,0
1526,6700150112700,新規,0,2022-12-21,2022-11-10,大阪新想芸会,,その他,大阪府,高槻市,大字田能小字アンタコ１９番地,,27,207,5691002,,,,,,,2022-11-10,1,,,,,オオサカシンソウゲイカイ,0
1527,6700150113442,新規,0,2022-12-21,2022-12-21,仏生寺町自治会,,その他,滋賀県,彦根市,仏生寺町字滝ヶ谷８番地２９０,,25,202,5220018,,,,,,,2022-12-21,1,,,,,ブッショウジチョウジチカイ,0
1528,7010001231594,新規,0,2022-12-21,2022-12-21,かもめ株式会社,,株式会社,東京都,千代田区,九段南１丁目５－６りそな九段ビル５Ｆ,,13,101,1020074,,,,,,,2022-12-21,1,,,,,カモメ,0
1529,7010001231693,新規,0,2022-12-21,2022-12-21,株式会社東京永不動産,,株式会社,東京都,千代田区,神田須田町１丁目１４番地１,,13,101,1010041,,,,,,,2022-12-21,1,,,,,トウキョウエイフドウサン,0
1530,7010001231735,新規,0,2022-12-21,2022-12-21,ウインクルス株式会社,,株式会社,東京都,中央区,日本橋茅場町１丁目２番１２号,,13,102,1030025,,,,,,,2022-12-21,1,,,,,ウインクルス,0
1531,7010001231768,新規,0,2022-12-21,2022-12-21,くま先生株式会社,,株式会社,東京都,千代田区,九段南４丁目６番１１号九段渋木ビル５階,,13,101,1020074,,,,,,,2022-12-21,1,,,,,クマセンセイ,0
1532,7010001231776,新規,0,2022-12-21,2022-12-21,株式会社ＡｔｏＴ,,株式会社,東京都,中央区,銀座１丁目２２番１１号銀座大竹ビジデンス２階,,13,102,1040061,,,,,,,2022-12-21,1,,,,,エートゥティ,0
1538,7010003039409,新規,0,2022-12-21,2022-12-21,サステナブル１号合同会社,,合同会社,東京都,千代田区,一番町９番地８,,13,101,1020082,,,,,,,2022-12-21,1,,,,,サステナブルイチゴウ,0
1539,7010005035934,新規,0,2022-12-21,2022-12-21,行政書士法人アルテミス,,その他の設立登記法人,東京都,千代田区,内神田２丁目１１番６号喜助内神田ビル２３号室,,13,101,1010047,,,,,,,2022-12-21,1,,,,,アルテミス,0
1557,7010501049768,新規,0,2022-12-21,2022-12-21,Ｆｒｅｅｗｅｉｉ株式会社,,株式会社,東京都,台東区,松が谷２丁目９番１－３０４号,,13,106,1110036,,,,,,,2022-12-21,1,,,,,フリーウェイ,0
1567,7011001151592,新規,0,2022-12-21,2022-12-21,株式会社大井工業,,株式会社,東京都,目黒区,駒場１丁目４番８号谷口ビル５０１,,13,110,1530041,,,,,,,2022-12-21,1,,,,,オオイコウギョウ,0
1568,7011005009878,新規,0,2022-12-21,2022-12-21,一般社団法人日本ウェルビーイング推進協会,,その他の設立登記法人,東京都,渋谷区,神宮前６丁目２３番４号,,13,113,1500001,,,,,,,2022-12-21,1,,,,,ニホンウェルビーイングスイシンキョウカイ,0
1577,7011103012494,新規,0,2022-12-21,2022-12-21,合同会社Ｂｅａｕ　Ｌａｐｉ,,合同会社,東京都,新宿区,下落合２丁目９番１５号目白台ビル２０１,,13,104,1610033,,,,,,,2022-12-21,1,,,,,ボーラピ,0
1580,7011301028326,新規,0,2022-12-21,2022-12-21,株式会社ＳＭＡＲＴ,,株式会社,東京都,杉並区,高円寺南２丁目１番１５号ＣｕｂｉｋＯｆｆｉｃｅ東高円寺１０７,,13,115,1660003,,,,,,,2022-12-21,1,,,,,スマート,0
1598,7013303006391,新規,0,2022-12-21,2022-12-21,合同会社ｎｅｘｔ,,合同会社,東京都,豊島区,池袋２丁目３６－１－７Ｆ－０５,,13,116,1710014,,,,,,,2022-12-21,1,,,,,ネクスト,0
1610,7020001149472,新規,0,2022-12-21,2022-12-21,Ｔ＆Ｋインベストメント株式会社,,株式会社,神奈川県,横浜市戸塚区,平戸４丁目１９番１３号,,14,110,2440802,,,,,,,2022-12-21,1,,,,,ティーアンドケーインベストメント,0
1611,7020001149489,新規,0,2022-12-21,2022-12-21,株式会社ＭＴデバイセズ,,株式会社,神奈川県,横浜市都筑区,池辺町４６２８番地１,,14,118,2240053,,,,,,,2022-12-21,1,,,,,エムティーデバイセズ,0
1612,7020001149497,新規,0,2022-12-21,2022-12-21,株式会社アシストプラス,,株式会社,神奈川県,川崎市川崎区,日進町１６番地１６クレセントハイツ２０２号,,14,131,2100024,,,,,,,2022-12-21,1,,,,,アシストプラス,0
1618,7021001077770,新規,0,2022-12-21,2022-12-21,ｍｅｍｏｒｉｅ株式会社,,株式会社,神奈川県,茅ヶ崎市,東海岸北３丁目１１－１４,,14,207,2530053,,,,,,,2022-12-21,1,,,,,,0
1623,7021005012699,新規,0,2022-12-21,2022-12-21,医療法人昭優会,,その他の設立登記法人,神奈川県,藤沢市,湘南台２丁目３１番地１５湘南台メディカルモール２、３階,,14,205,2520804,,,,,,,2022-12-21,1,,,,,ショウユウカイ,0
1628,7030001151543,新規,0,2022-12-21,2022-12-21,株式会社福久商事,,株式会社,埼玉県,蕨市,中央４丁目１１番１８号,,11,223,3350004,,,,,,,2022-12-21,1,,,,,フクヒサショウジ,0
1629,7030001151551,新規,0,2022-12-21,2022-12-21,株式会社ブラッサム,,株式会社,埼玉県,草加市,谷塚２丁目７番９号,00128855,11,221,3400028,,,,,,,2022-12-21,1,,,,,ブラッサム,0
1630,7030001151568,新規,0,2022-12-21,2022-12-21,アメッド株式会社,,株式会社,埼玉県,川口市,芝西２丁目２０番３３号木村ビルディング２０２号,,11,203,3330855,,,,,,,2022-12-21,1,,,,,アメッド,0
1633,7030003020795,新規,0,2022-12-21,2022-12-21,合同会社ラフォルム,,合同会社,埼玉県,川越市,大字藤間１６１番地５,,11,201,3501142,,,,,,,2022-12-21,1,,,,,ラフォルム,0
1638,7040001126296,新規,0,2022-12-21,2022-12-21,株式会社大井設備,,株式会社,千葉県,南房総市,平久里中６４３番地,,12,234,2992204,,,,,,,2022-12-21,1,,,,,オオイセツビ,0
1643,7040003021537,新規,0,2022-12-21,2022-12-21,合同会社ＳＡＳＡＮＫＡ　ＩＮＴＥＲＮＡＴＩＯＮＡＬ,,合同会社,千葉県,八街市,八街は４７番地１,,12,230,2891107,,,,,,,2022-12-21,1,,,,,ササンカインターナショナル,0
1645,7040005021840,新規,0,2022-12-21,2022-12-21,特定非営利活動法人日本パラモーター協会,,その他の設立登記法人,千葉県,富津市,下飯野１３８７番地２,,12,226,2930006,,,,,,,2022-12-21,1,,,,,ニホンパラモーターキョウカイ,0
1647,7050001052112,新規,0,2022-12-21,2022-12-21,株式会社ＰＬＵＳ・ＭＩＮＵＳ,,株式会社,茨城県,守谷市,松ケ丘３丁目３番地１５,,08,224,3020127,,,,,,,2022-12-21,1,,,,,プラスマイナス,0
1649,7060001035545,新規,0,2022-12-21,2022-12-21,株式会社はじめ,,株式会社,栃木県,宇都宮市,大谷町１１５９番地－２階,,09,201,3210345,,,,,,,2022-12-21,1,,,,,ハジメ,0
1657,7070001039941,新規,0,2022-12-21,2022-12-21,株式会社ウインダム,,株式会社,群馬県,太田市,龍舞町５０６６番地１,,10,205,3730806,,,,,,,2022-12-21,1,,,,,ウインダム,0
1662,7080401026209,新規,0,2022-12-21,2022-12-21,株式会社愛ノ宮プラス,,株式会社,静岡県,袋井市,国本２４６３番地の６,,22,216,4370012,,,,,,,2022-12-21,1,,,,,アイノミヤプラス,0
1676,7120001251185,新規,0,2022-12-21,2022-12-21,金源商事株式会社,,株式会社,大阪府,大阪市東住吉区,鷹合４丁目２１番１６号１Ｆ－Ｅ,,27,121,5460014,,,,,,,2022-12-21,1,,,,,キンゲンショウジ,0
1677,7120001251202,新規,0,2022-12-21,2022-12-21,株式会社ＳＵＭ　ＥＱＵＡＬ,,株式会社,大阪府,大阪市中央区,平野町４丁目６番９号,,27,128,5410046,,,,,,,2022-12-21,1,,,,,サムイコール,0
1678,7120001251210,新規,0,2022-12-21,2022-12-21,株式会社衆妙,,株式会社,大阪府,大阪市北区,中崎西２丁目３番２３－１２０１号,,27,127,5300015,,,,,,,2022-12-21,1,,,,,シュウミョウ,0
1679,7120001251227,新規,0,2022-12-21,2022-12-21,株式会社Ｍ　ＪＡＰＡＮ,,株式会社,大阪府,大阪市住吉区,我孫子東１丁目１１番４－５０１号,,27,120,5580013,,,,,,,2022-12-21,1,,,,,エムジャパン,0
1680,7120001251235,新規,0,2022-12-21,2022-12-21,株式会社ＩｎｔｅｒＶｏｙａｇｅ,,株式会社,大阪府,大阪市西区,新町１丁目２４番１４号,,27,106,5500013,,,,,,,2022-12-21,1,,,,,インターボヤージュ,0
1681,7120001251243,新規,0,2022-12-21,2022-12-21,北浜レーベン株式会社,,株式会社,大阪府,大阪市中央区,北浜２丁目２番２１－２３０１号,,27,128,5410041,,,,,,,2022-12-21,1,,,,,キタハマレーベン,0
1685,7120105009653,新規,0,2022-12-21,2022-12-21,ＮＰＯ法人こども夢教室,,その他の設立登記法人,大阪府,高石市,西取石８丁目２番３７号,,27,225,5920012,,,,,,,2022-12-21,1,,,,,コドモユメキョウシツ,0
1688,7120901046890,新規,0,2022-12-21,2022-12-21,株式会社ワンダーバース,,株式会社,大阪府,吹田市,青山台３丁目４０番２号,,27,205,5650875,,,,,,,2022-12-21,1,,,,,ワンダーバース,0
1689,7122001036517,新規,0,2022-12-21,2022-12-21,株式会社ヨシダテック,,株式会社,大阪府,柏原市,旭ケ丘３丁目１番１６号,,27,221,5820026,,,,,,,2022-12-21,1,,,,,ヨシダテック,0
1694,7130001073331,新規,0,2022-12-21,2022-12-21,株式会社バイアス,,株式会社,京都府,京都市西京区,大枝塚原町３番地４,00128860,26,111,6101105,,,,,,,2022-12-21,1,,,,,バイアス,0
1696,7130003008376,新規,0,2022-12-21,2022-12-21,合同会社ＧＲＥＥＮ,,合同会社,京都府,京都市伏見区,深草平田町１８番地５６,,26,109,6120019,,,,,,,2022-12-21,1,,,,,グリーン,0
1700,7140001128407,新規,0,2022-12-21,2022-12-21,株式会社京都小野,,株式会社,兵庫県,神戸市兵庫区,御崎本町１丁目１番５４号,,28,105,6520852,,,,,,,2022-12-21,1,,,,,キョウトオノ,0
1701,7140001128497,新規,0,2022-12-21,2022-12-21,株式会社Ｃｒｏｓｓ　Ｃｏｎｄｉｔｉｏｎ,,株式会社,兵庫県,姫路市,南駅前町７５番地イルソーレ南駅前３０１号室,,28,201,6700962,,,,,,,2022-12-21,1,,,,,クロスコンディション,0
1712,7180001154259,新規,0,2022-12-21,2022-12-21,株式会社ＮＡＮＡヒーリング,,株式会社,愛知県,知多郡東浦町,大字藤江字大坪１８番地の７,,23,442,4702105,,,,,,,2022-12-21,1,,,,,ナナヒーリング,0
1713,7180001154291,新規,0,2022-12-21,2022-12-21,ＥＳＬ　Ｌａｂ株式会社,,株式会社,愛知県,小牧市,大字文津７９０番地１,,23,219,4850827,,,,,,,2022-12-21,1,,,,,イーエスエルラボ,0
1717,7180301036925,新規,0,2022-12-21,2022-12-21,水野物流株式会社,,株式会社,愛知県,刈谷市,松坂町１丁目２０１番地,,23,210,4480822,,,,,,,2022-12-21,1,,,,,ミズノブツリュウ,0
1734,7240001060830,新規,0,2022-12-21,2022-12-21,株式会社ｕｎｍｉｒｒｏｒ,,株式会社,広島県,広島市西区,横川町３丁目１番２３号,,34,104,7330011,,,,,,,2022-12-21,1,,,,,アンミラー,0
1744,7290001099955,新規,0,2022-12-21,2022-12-21,株式会社ＴＦＫ,,株式会社,福岡県,福岡市西区,生の松原１丁目２４－２,,40,135,8190055,,,,,,,2022-12-21,1,,,,,ティーエフケー,0
1748,7290801029137,新規,0,2022-12-21,2022-12-21,株式会社福岡武蔵エンタープライズ,,株式会社,福岡県,北九州市八幡西区,熊手２丁目１番９号,,40,109,8060028,,,,,,,2022-12-21,1,,,,,フクオカムサシエンタープライズ,0
1759,7360003012578,新規,0,2022-12-21,2022-12-21,合同会社Ｂｏｎｄｓ,,合同会社,沖縄県,那覇市,寄宮２丁目５番４５号寄宮ビル２０６号,,47,201,9020064,,,,,,,2022-12-21,1,,,,,ボンズ,0
1781,7470001019390,新規,0,2022-12-21,2022-12-21,岡田工業株式会社,,株式会社,香川県,丸亀市,田村町１２２０番地１０,,37,202,7630071,,,,,,,2022-12-21,1,,,,,オカダコウギョウ,0
1786,7500005008543,新規,0,2022-12-21,2022-12-21,一般社団法人デザイン・コンシャス・ラボ,,その他の設立登記法人,愛媛県,西条市,大町１６６３番地,,38,206,7930030,,,,,,,2022-12-21,1,,,,,デザインコンシャスラボ,0
1787,7700150113441,新規,0,2022-12-21,2022-12-21,九之坪自治会,,その他,愛知県,北名古屋市,九之坪北美田３９番地,,23,234,4810041,,,,,,,2022-12-21,1,,,,,クノツボジチカイ,0
1801,8010003039341,新規,0,2022-12-21,2022-12-21,カラフル合同会社,,合同会社,東京都,千代田区,三番町２２－２１パレステュディオ三番町ＩＩ４０２,00128852,13,101,1020075,,,,,,,2022-12-21,1,,,,,カラフル,0
1802,8010003039374,新規,0,2022-12-21,2022-12-21,合同会社ＡＫ．ＩＮＶＥＳＴＭＥＮＴＳ,,合同会社,東京都,千代田区,霞が関３丁目２番５号,,13,101,1000013,,,,,,,2022-12-21,1,,,,,エーケーインベストメンツ,0
1803,8010005035941,新規,0,2022-12-21,2022-12-21,一般社団法人日本がんバイオマーカー研究ネットワーク,,その他の設立登記法人,東京都,中央区,銀座１丁目１２番４号Ｎ＆ＥＢＬＤ．６Ｆ,,13,102,1040061,,,,,,,2022-12-21,1,,,,,ニホンガンバイオマーカーケンキュウネットワーク,0
1830,8010405021673,新規,0,2022-12-21,2022-12-21,一般社団法人日本サステナビリティ協会,,その他の設立登記法人,東京都,港区,西新橋３丁目１３番７号ＶＯＲＴ虎ノ門ｓｏｕｔｈ１１Ｆ,,13,103,1050003,,,,,,,2022-12-21,1,,,,,ニホンサステナビリティキョウカイ,0
1834,8010601062331,新規,0,2022-12-21,2022-12-21,叡遠株式会社,,株式会社,東京都,江東区,東砂５丁目５番６号Ｋビル３０９,,13,108,1360074,,,,,,,2022-12-21,1,,,,,エイエン,0
1840,8010901052189,新規,0,2022-12-21,2022-12-21,株式会社ＣＯＶＡＮＣＥ,,株式会社,東京都,世田谷区,池尻４丁目１１番１号,,13,112,1540001,,,,,,,2022-12-21,1,,,,,コーヴァンス,0
1841,8010903007851,新規,0,2022-12-21,2022-12-21,合同会社ｐｏｕｃｏ　ａ　ｐｏｕｃｏ,,合同会社,東京都,世田谷区,北沢５丁目１４番１４号カーサローズ１０７号室,,13,112,1550031,,,,,,,2022-12-21,1,,,,,ポコアポコ,0
1851,8011001151550,新規,0,2022-12-21,2022-12-21,株式会社ロアー,,株式会社,東京都,渋谷区,千駄ヶ谷４丁目５番１１号,,13,113,1510051,,,,,,,2022-12-21,1,,,,,,0
1852,8011001151583,新規,0,2022-12-21,2022-12-21,株式会社安藤,,株式会社,東京都,目黒区,自由が丘１丁目８番３号,,13,110,1520035,,,,,,,2022-12-21,1,,,,,アンドウ,0
1853,8011001151600,新規,0,2022-12-21,2022-12-21,ＳＫＥＴＣＨ株式会社,,株式会社,東京都,渋谷区,道玄坂１丁目１０番８号渋谷道玄坂東急ビル２Ｆ－Ｃ,,13,113,1500043,,,,,,,2022-12-21,1,,,,,スケッチ,0
1855,8011003015951,新規,0,2022-12-21,2022-12-21,ＭｓＫ　Ｃａｎｎｙ　Ａｄｖｉｓｏｒｙ合同会社,,合同会社,東京都,渋谷区,恵比寿４丁目２０番３号恵比寿ガーデンプレイスタワー１８階,,13,113,1500013,,,,,,,2022-12-21,1,,,,,マスクキャニーアドバイザリー,0
1858,8011101101257,新規,0,2022-12-21,2022-12-21,株式会社ペンケース,,株式会社,東京都,新宿区,西新宿３丁目３番１３号西新宿水間ビル６階,,13,104,1600023,,,,,,,2022-12-21,1,,,,,ペンケース,0
1859,8011103012519,新規,0,2022-12-21,2022-12-21,合同会社ＭＲＭメディカル,,合同会社,東京都,新宿区,高田馬場１丁目３０番５号千寿ビル５階,,13,104,1690075,,,,,,,2022-12-21,1,,,,,エムアールエムメディカル,0
1861,8011301028325,新規,0,2022-12-21,2022-12-21,株式会社Ｌａｎｇｍｙ,,株式会社,東京都,杉並区,天沼３丁目１１番１３号,,13,115,1670032,,,,,,,2022-12-21,1,,,,,ランミー,0
1868,8011803005433,新規,0,2022-12-21,2022-12-21,合同会社Ｆｕｚｉ,,合同会社,東京都,足立区,入谷２丁目２３－８－６０２,,13,121,1210836,,,,,,,2022-12-21,1,,,,,フジ,0
1870,8012301013259,新規,0,2022-12-21,2022-12-21,株式会社Ｋ・Ｊ・Ｃ,,株式会社,東京都,町田市,森野１丁目１番２１号,,13,209,1940022,,,,,,,2022-12-21,1,,,,,ケイジェイシー,0
1879,8013303006424,新規,0,2022-12-21,2022-12-21,合同会社おこげ,,合同会社,東京都,豊島区,東池袋３丁目８番５－９０３号,,13,116,1700013,,,,,,,2022-12-21,1,,,,,オコゲ,0
1889,8020003022932,新規,0,2022-12-21,2022-12-21,合同会社かも,,合同会社,神奈川県,川崎市麻生区,金程４丁目１４番３号ベリーズ１０１,,14,137,2150006,,,,,,,2022-12-21,1,,,,,カモ,0
1890,8020003022949,新規,0,2022-12-21,2022-12-21,合同会社小倉,,合同会社,神奈川県,川崎市多摩区,宿河原４丁目２８番２号,,14,135,2140021,,,,,,,2022-12-21,1,,,,,オグラ,0
1900,8030003020786,新規,0,2022-12-21,2022-12-21,合同会社Ｗｈｉｔｅ＆Ｃｏｃｏ．,,合同会社,埼玉県,さいたま市浦和区,前地３丁目６－６,,11,107,3300053,,,,,,,2022-12-21,1,,,,,ホワイトココ,0
1908,8040001126279,新規,0,2022-12-21,2022-12-21,ハイホー株式会社,,株式会社,千葉県,柏市,豊四季３５２番地７マイキャッスル柏豊四季７０２号,,12,217,2770863,,,,,,,2022-12-21,1,,,,,ハイホー,0
1909,8040001126287,新規,0,2022-12-21,2022-12-21,ＡＨＭＥＤ　ＴＲＡＤＩＮＧ株式会社,,株式会社,千葉県,野田市,木間ケ瀬字南４２７３番地８,,12,208,2700222,,,,,,,2022-12-21,1,,,,,アーメドトレーディング,0
1915,8040003021461,新規,0,2022-12-21,2022-12-21,合同会社Ｌｙｃｏｌｌｅｃｔｉｏｎ,,合同会社,千葉県,佐倉市,南臼井台７－２０,,12,212,2850865,,,,,,,2022-12-21,1,,,,,リコレクション,0
1919,8050001052128,新規,0,2022-12-21,2022-12-21,株式会社ＫＳ工業,,株式会社,茨城県,稲敷市,上根本７１３番地２,,08,229,3010902,,,,,,,2022-12-21,1,,,,,ケーエスコウギョウ,0
1929,8080103002713,新規,0,2022-12-21,2022-12-21,合同会社アキインターナショナル,,合同会社,静岡県,富士市,中之郷２７６９番地の８,,22,210,4213306,,,,,,,2022-12-21,1,,,,,アキインターナショナル,0
1933,8080401026208,新規,0,2022-12-21,2022-12-21,株式会社ＭＥＬＧＩＮＡ,,株式会社,静岡県,浜松市中区,蜆塚３丁目８番３２号,,22,131,4328018,,,,,,,2022-12-21,1,,,,,メルジーナ,0
1945,8120001251184,新規,0,2022-12-21,2022-12-21,株式会社ＪＯＩＮＴＲＩＳＥ,,株式会社,大阪府,大阪市北区,堂山町８－２３サンヨー会館１階１０３号室,,27,127,5300027,,,,,,,2022-12-21,1,,,,,ジョイントライズ,0
1946,8120001251201,新規,0,2022-12-21,2022-12-21,株式会社ＡＢＲＡＸＡＳ,,株式会社,大阪府,大阪市中央区,南新町２丁目４番１２号インテリンクス南新町２０１号室,,27,128,5400024,,,,,,,2022-12-21,1,,,,,アブラサクス,0
1947,8120001251226,新規,0,2022-12-21,2022-12-21,ＲＯＯＢＯＯＴＯ株式会社,,株式会社,大阪府,大阪市西成区,旭３丁目５番１３号,,27,122,5570032,,,,,,,2022-12-21,1,,,,,ローブート,0
1948,8120001251242,新規,0,2022-12-21,2022-12-21,株式会社三共,,株式会社,大阪府,大阪市西区,立売堀１丁目９番８号,,27,106,5500012,,,,,,,2022-12-21,1,,,,,サンキョウ,0
1952,8120003023078,新規,0,2022-12-21,2022-12-21,合同会社ダリティートラン,,合同会社,大阪府,大阪市西区,靱本町１丁目１４番１１－６０１号,,27,106,5500004,,,,,,,2022-12-21,1,,,,,ダリティートラン,0
1953,8120003023128,新規,0,2022-12-21,2022-12-21,合同会社タコ田訪問事業所,,合同会社,大阪府,枚方市,招提中町１丁目２１番９号Ｓ＆Ｙハイツ２０１,,27,210,5731152,,,,,,,2022-12-21,1,,,,,タコダホウモンジギョウショ,0
1967,8140001128406,新規,0,2022-12-21,2022-12-21,株式会社エリグループ,,株式会社,兵庫県,神戸市兵庫区,御崎本町１丁目１番５４号,,28,105,6520852,,,,,,,2022-12-21,1,,,,,エリグループ,0
1968,8140001128488,新規,0,2022-12-21,2022-12-21,株式会社ＳＣ,,株式会社,兵庫県,尼崎市,塚口本町１丁目２０番５号,,28,202,6610001,,,,,,,2022-12-21,1,,,,,エスシー,0
1979,8160001024719,新規,0,2022-12-21,2022-12-21,株式会社ＲＥＳＴ,,株式会社,滋賀県,栗東市,辻７０３番地Ｂ－１０３号ＷＡＫＡＢＡ,00128857,25,208,5203042,,,,,,,2022-12-21,1,,,,,レスト,0
1982,8160005011151,新規,0,2022-12-21,2022-12-21,一般社団法人ＧＲＩＺＥ,,その他の設立登記法人,滋賀県,栗東市,川辺２２０番地２４,,25,208,5203014,,,,,,,2022-12-21,1,,,,,グライズ,0
1986,8180003024616,新規,0,2022-12-21,2022-12-21,合同会社アビトラ,,合同会社,愛知県,愛知郡東郷町,白鳥１丁目３番地１,,23,302,4700155,,,,,,,2022-12-21,1,,,,,アビトラ,0
1988,8180301036924,新規,0,2022-12-21,2022-12-21,株式会社笑顔と感謝,,株式会社,愛知県,西尾市,つくしが丘４丁目１１番２号,,23,213,4450014,,,,,,,2022-12-21,1,,,,,エガオトカンシャ,0
2013,8290001099979,新規,0,2022-12-21,2022-12-21,ＫＤビル株式会社,,株式会社,福岡県,福岡市博多区,博多駅東１丁目１７番２５号,,40,132,8120013,,,,,,,2022-12-21,1,,,,,ケーディービル,0
2022,8310001018176,新規,0,2022-12-21,2022-12-21,株式会社アンバー,,株式会社,長崎県,長崎市,大浜町４７３番地１ブルーハイツ大浜５０２,,42,201,8500066,,,,,,,2022-12-21,1,,,,,アンバー,0
2023,8310003004496,新規,0,2022-12-21,2022-12-21,ＳＰＸ合同会社,,合同会社,長崎県,長崎市,かき道４丁目５１番２０号,,42,201,8510115,,,,,,,2022-12-21,1,,,,,エスピーエックス,0
2028,8340001025252,新規,0,2022-12-21,2022-12-21,ＳＴＮ開発株式会社,,株式会社,鹿児島県,鹿児島市,西佐多町８４５番地１,,46,201,8911301,,,,,,,2022-12-21,1,,,,,エステーエヌカイハツ,0
2030,8360003012577,新規,0,2022-12-21,2022-12-21,合同会社ちゅらの森,,合同会社,沖縄県,国頭郡大宜味村,字津波４１９番地９,,47,302,9051318,,,,,,,2022-12-21,1,,,,,チュラノモリ,0
2055,8490001010363,新規,0,2022-12-21,2022-12-21,Ｒｏｙａｌ　ｉｎｄｅｘ株式会社,,株式会社,高知県,土佐市,高岡町丁２,,39,205,7811104,,,,,,,2022-12-21,1,,,,,ロイヤルインデックス,0
2058,8700150113440,新規,0,2022-12-21,2022-12-21,ＦＬＹ　ＷＩＮＧ　ＴＥＣＨＮＯＬＯＧＩＥＳ　ＰＴＥ．，ＬＴＤ,,外国会社等,東京都,新宿区,新宿２丁目５番３号ＡＭビル７階,,13,104,1600022,ベンチャードライブ２ビジョンエクスチェンジ＃１１－３０,,,,,,2022-12-21,1,,,,,フライウイングテクノロジーズプライベートリミテツド,0
2067,9010001231758,新規,0,2022-12-21,2022-12-21,利貞株式会社,,株式会社,東京都,千代田区,飯田橋２丁目１６－４九段下コート２Ｆ－２１２号室,,13,101,1020072,,,,,,,2022-12-21,1,,,,,リテイ,0
2068,9010001231774,新規,0,2022-12-21,2022-12-21,株式会社マル・アントラクス,,株式会社,東京都,千代田区,内神田１丁目９番１０号,,13,101,1010047,,,,,,,2022-12-21,1,,,,,マルアントラクス,0
2070,9010003039332,新規,0,2022-12-21,2022-12-21,合同会社ＳＲＳファンタジア,,合同会社,東京都,中央区,銀座１丁目２２－１１銀座大竹ビジデンス２階,,13,102,1040061,,,,,,,2022-12-21,1,,,,,エスアールエスファンタジア,0
2071,9010003039398,新規,0,2022-12-21,2022-12-21,合同会社トライデータ,,合同会社,東京都,文京区,本駒込３丁目６番１号,,13,105,1130021,,,,,,,2022-12-21,1,,,,,トライデータ,0
2086,9010403029172,新規,0,2022-12-21,2022-12-21,合同会社フルートｔｏｋｙｏ,,合同会社,東京都,港区,南青山２丁目２番１５号,,13,103,1070062,,,,,,,2022-12-21,1,,,,,フルートトーキョー,0
2091,9010501049782,新規,0,2022-12-21,2022-12-21,丸美商事株式会社,,株式会社,東京都,台東区,上野６丁目７番１６号川久保ビル４階,,13,106,1100005,,,,,,,2022-12-21,1,,,,,マルミショウジ,0
2095,9010901052147,新規,0,2022-12-21,2022-12-21,株式会社エイエスト,,株式会社,東京都,世田谷区,北沢４丁目１７番５号,,13,112,1550031,,,,,,,2022-12-21,1,,,,,エイエスト,0
2102,9011001151608,新規,0,2022-12-21,2022-12-21,ＲａｉｎＳｃａｌｅｓ　Ｊａｐａｎ株式会社,,株式会社,東京都,渋谷区,道玄坂１丁目１０番８号渋谷道玄坂東急ビル（Ｐｌｕｇ＆ＰｌａｙＳｈｉｂｕｙａ）,,13,113,1500043,,,,,,,2022-12-21,1,,,,,レインスケールズジャパン,0
2103,9011003015975,新規,0,2022-12-21,2022-12-21,合同会社徳兵衛,00128865,合同会社,東京都,目黒区,上目黒５丁目１番１１号,,13,110,1530051,,,,,,,2022-12-21,1,,,,,トクベエ,0
2106,9011101101248,新規,0,2022-12-21,2022-12-21,株式会社Ｌ．Ｔ．Ｌ東北,,株式会社,東京都,新宿区,西新宿８丁目３番２３号ローズガーデンテラス２０１,,13,104,1600023,,,,,,,2022-12-21,1,,,,,エルティーエルトウホク,0
2107,9011101101264,新規,0,2022-12-21,2022-12-21,株式会社Ｉｎｂｏｏｓｔ,,株式会社,東京都,新宿区,西新宿３丁目３番１３号西新宿水間ビル６階,,13,104,1600023,,,,,,,2022-12-21,1,,,,,インブースト,0
2109,9011103012518,新規,0,2022-12-21,2022-12-21,ＥＬＺＡ合同会社,,合同会社,東京都,新宿区,原町３丁目２１番地１プライムアーバン新宿夏目坂タワーレジデンス２８０４,,13,104,1620053,,,,,,,2022-12-21,1,,,,,エルザ,0
2112,9011201024308,新規,0,2022-12-21,2022-12-21,株式会社ＡＲＵＢＡ,,株式会社,東京都,中野区,南台５丁目１５番２３号,,13,114,1640014,,,,,,,2022-12-21,1,,,,,アルバ,0
2116,9011301028324,新規,0,2022-12-21,2022-12-21,株式会社ＭＡＤカンパニー,,株式会社,東京都,杉並区,和泉３丁目５５番５号サン・ガーデン１０１,,13,115,1680063,,,,,,,2022-12-21,1,,,,,,0
2117,9011301028340,新規,0,2022-12-21,2022-12-21,株式会社ＢＡＳＥ　ＣＡＭＰ,,株式会社,東京都,杉並区,和泉３丁目６１番３３号第三正吉マンション２０１,,13,115,1680063,,,,,,,2022-12-21,1,,,,,ベイスキャンプ,0
2122,9011801041710,新規,0,2022-12-21,2022-12-21,株式会社ｋｉｒｏｑｌ,,株式会社,東京都,足立区,梅島３丁目３３－６エンブレム西新井２Ｆ・３Ｆ,,13,121,1210816,,,,,,,2022-12-21,1,,,,,キロクル,0
2130,9013301050068,新規,0,2022-12-21,2022-12-21,株式会社カリプロ,,株式会社,東京都,豊島区,西池袋１丁目２９番２号ホテルサンシティ１Ｆ,,13,116,1710021,,,,,,,2022-12-21,1,,,,,カリプロ,0
2131,9013301050092,新規,0,2022-12-21,2022-12-21,株式会社Ｇｏｌｄ　Ｇｒａｃｅ,,株式会社,東京都,豊島区,東池袋４丁目２１番１－４２０５号,,13,116,1700013,,,,,,,2022-12-21,1,,,,,ゴールドグレイス,0
2134,9020001149396,新規,0,2022-12-21,2022-12-21,株式会社武田建装,,株式会社,神奈川県,横浜市港北区,高田西１丁目３－４３,,14,109,2230066,,,,,,,2022-12-21,1,,,,,タケダケンソウ,0
2135,9020001149479,新規,0,2022-12-21,2022-12-21,株式会社ＪＯＹＧＯＯＤ,,株式会社,神奈川県,横浜市西区,高島２丁目２番７号プレシス横浜１階,,14,103,2200011,,,,,,,2022-12-21,1,,,,,ジョイグッド,0
2138,9020003022923,新規,0,2022-12-21,2022-12-21,合同会社ＹＡＳＵ‐ＹＡＳＵ社,,合同会社,神奈川県,横浜市戸塚区,戸塚町４２１７番地２３,,14,110,2440003,,,,,,,2022-12-21,1,,,,,ヤスヤスシャ,0
2153,9030001151558,新規,0,2022-12-21,2022-12-21,日本冷凍倉庫株式会社,,株式会社,埼玉県,さいたま市北区,吉野町２丁目２３３番地,,11,102,3310811,,,,,,,2022-12-21,1,,,,,ニホンレイトウソウコ,0
2155,9030003020744,新規,0,2022-12-21,2022-12-21,合同会社インビゴ,,合同会社,埼玉県,さいたま市北区,櫛引町２丁目９０５番地,,11,102,3310825,,,,,,,2022-12-21,1,,,,,インビゴ,0
2171,9050001052119,新規,0,2022-12-21,2022-12-21,株式会社櫻義建,,株式会社,茨城県,筑西市,桑山６４０番地３,,08,227,3091127,,,,,,,2022-12-21,1,,,,,サクラギケン,0
2172,9050001052127,新規,0,2022-12-21,2022-12-21,株式会社日翔,,株式会社,茨城県,古河市,雷電町１１番３３号,,08,204,3060004,,,,,,,2022-12-21,1,,,,,ニッショウ,0
2184,9080401026207,新規,0,2022-12-21,2022-12-21,株式会社ＮＥＸＴＯＲＩＡ,,株式会社,静岡県,浜松市東区,有玉西町２３３０番地の４ブレッツァＩ１０１,00128853,22,132,4313123,,,,,,,2022-12-21,1,,,,,ネクストオリア,0
2197,9120001251101,新規,0,2022-12-21,2022-12-21,株式会社ベイビーブレス,,株式会社,大阪府,枚方市,禁野本町１丁目８番２２号,,27,210,5731197,,,,,,,2022-12-21,1,,,,,ベイビーブレス,0
2198,9120001251258,新規,0,2022-12-21,2022-12-21,株式会社森林保全研究所,,株式会社,大阪府,大阪市東淀川区,豊里５丁目２１番３号アローウィング栄光２０５号,,27,114,5330013,,,,,,,2022-12-21,1,,,,,シンリンホゼンケンキュウジョ,0
2203,9120003023127,新規,0,2022-12-21,2022-12-21,合同会社西天満商会,,合同会社,大阪府,大阪市北区,西天満５丁目６番２０－１１０１号,,27,127,5300047,,,,,,,2022-12-21,1,,,,,ニシテンマショウカイ,0
2220,9140001128405,新規,0,2022-12-21,2022-12-21,株式会社ナルキャピタル,,株式会社,兵庫県,神戸市兵庫区,御崎本町１丁目１番５４号,,28,105,6520852,,,,,,,2022-12-21,1,,,,,ナルキャピタル,0
2221,9140001128487,新規,0,2022-12-21,2022-12-21,株式会社ｆｏｒｑｉｔ,,株式会社,兵庫県,尼崎市,御園町５４ローレルタワー尼崎１７０２,,28,202,6600861,,,,,,,2022-12-21,1,,,,,フォーキット,0
2222,9140001128495,新規,0,2022-12-21,2022-12-21,株式会社レコバ,,株式会社,兵庫県,神戸市中央区,江戸町８５－１ベイ・ウィング神戸ビル９階,,28,110,6500033,,,,,,,2022-12-21,1,,,,,レコバ,0
2223,9140001128504,新規,0,2022-12-21,2022-12-21,株式会社塗り人建装,,株式会社,兵庫県,宝塚市,伊孑志３丁目１４番１－５０３号,,28,214,6650033,,,,,,,2022-12-21,1,,,,,ヌリビトケンソウ,0
2228,9140003018496,新規,0,2022-12-21,2022-12-21,合同会社ＹＣ伊川谷,,合同会社,兵庫県,神戸市西区,北別府４丁目２０８４番地の１５,,28,111,6512117,,,,,,,2022-12-21,1,,,,,ワイシーイカワダニ,0
2233,9160001024692,新規,0,2022-12-21,2022-12-21,株式会社藤内工務店,,株式会社,滋賀県,大津市,堅田１丁目１６番２１－３号,,25,201,5200243,,,,,,,2022-12-21,1,,,,,トウナイコウムテン,0
2238,9180001154257,新規,0,2022-12-21,2022-12-21,株式会社お宝不動産,,株式会社,愛知県,名古屋市千種区,今池４丁目１番１１号岩田ビル２階,,23,101,4640850,,,,,,,2022-12-21,1,,,,,オタカラフドウサン,0
2239,9180001154273,新規,0,2022-12-21,2022-12-21,株式会社はぴえすと,,株式会社,愛知県,名古屋市中川区,上脇町１丁目２６番地アクティブ上脇Ｂ号,,23,110,4540833,,,,,,,2022-12-21,1,,,,,ハピエスト,0
2241,9180003024631,新規,0,2022-12-21,2022-12-21,合同会社アクシア,,合同会社,愛知県,一宮市,丹陽町外崎字郷裏４１８番地３メゾン・ド・ソレイユ６０２号,,23,203,4910825,,,,,,,2022-12-21,1,,,,,アクシア,0
2244,9180301036923,新規,0,2022-12-21,2022-12-21,株式会社ワースリンク,,株式会社,愛知県,岡崎市,宇頭町字井ノ上１６－１,,23,202,4440905,,,,,,,2022-12-21,1,,,,,ワースリンク,0
2247,9190001030036,新規,0,2022-12-21,2022-12-21,株式会社ＭＩＴＯ,,株式会社,三重県,四日市市,三ツ谷東町１番１９－２号,,24,202,5100801,,,,,,,2022-12-21,1,,,,,ミート,0
2259,9240001060829,新規,0,2022-12-21,2022-12-21,株式会社ｙｕｔｏｒｉ,,株式会社,広島県,安芸郡府中町,柳ケ丘６７番７号,,34,302,7350014,,,,,,,2022-12-21,1,,,,,ユトリ,0
2261,9240003005939,新規,0,2022-12-21,2022-12-21,合同会社コム,,合同会社,広島県,広島市西区,草津浜町２３番４－２０１号,,34,104,7330862,,,,,,,2022-12-21,1,,,,,コム,0
2269,9270003001472,新規,0,2022-12-21,2022-12-21,合同会社アジサービス,,合同会社,鳥取県,米子市,富益町１１９－５,,31,202,6830103,,,,,,,2022-12-21,1,,,,,アジサービス,0
2278,9290001099961,新規,0,2022-12-21,2022-12-21,株式会社ドリームナノテクノロジー,,株式会社,福岡県,大野城市,川久保１丁目６番２８号,,40,219,8160905,,,,,,,2022-12-21,1,,,,,ドリームナノテクノロジー,0
2287,9290803004292,新規,0,2022-12-21,2022-12-21,合同会社ひまわり,,合同会社,福岡県,直方市,大字永満寺２５５９番地１４,,40,204,8220005,,,,,,,2022-12-21,1,,,,,ヒマワリ,0
2291,9320005010037,新規,0,2022-12-21,2022-12-21,一般社団法人おふくわけ,,その他の設立登記法人,大分県,別府市,石垣西９丁目１番１６号,,44,202,8740910,,,,,,,2022-12-21,1,,,,,オフクワケ,0
2299,9360001031347,新規,0,2022-12-21,2022-12-21,株式会社タイリー,,株式会社,沖縄県,宜野湾市,大山２丁目１２番７号ｂｉｔｈｏｕｓｅ－Ｃ号室,,47,205,9012223,,,,,,,2022-12-21,1,,,,,タイリー,0
2300,9360003012568,新規,0,2022-12-21,2022-12-21,合同会社Ｃ’Ｓ,,合同会社,沖縄県,宜野湾市,野嵩１丁目２５番１号２階,,47,205,9012203,,,,,,,2022-12-21,1,,,,,シーズ,0
2308,9380003005347,新規,0,2022-12-21,2022-12-21,遠藤事務所合同会社,,合同会社,福島県,郡山市,虎丸町２４番１３号渡久ビル４階,,07,203,9638014,,,,,,,2022-12-21,1,,,,,エンドウジムショ,0
2310,9400001016095,新規,0,2022-12-21,2022-12-21,株式会社ウルス,,株式会社,岩手県,盛岡市,新庄字下八木田５９番地２９,,03,201,0200803,,,,,,,2022-12-21,1,,,,,,0
2324,9480005006936,新規,0,2022-12-21,2022-12-21,一般社団法人徳島小児先進医療協議会,,その他の設立登記法人,徳島県,徳島市,蔵本町３丁目１８番地１５（徳島大学大学院医学系研究科小児科学講座内）,,36,201,7700042,,,,,,,2022-12-21,1,,,,,トクシマショウニセンシンイリョウキョウギカイ,0
