sequenceNumber,corporateNumber,process,correct,updateDate,changeDate,name,nameImageId,kind,prefectureName,cityName,streetNumber,addressImageId,prefectureCode,cityCode,postCode,addressOutside,addressOutsideImageId,closeDate,closeCause,successorCorporateNumber,changeCause,assignmentDate,latest,enName,enPrefectureName,enCityName,enAddressOutside,furigana,hihyoji
7,1010001234363,新規,0,2023-04-21,2023-04-21,株式会社ｋａｉ,,株式会社,東京都,中央区,築地４丁目４番１４号,,13,102,1040045,,,,,,,2023-04-21,1,,,,,カイ,0
8,1010001234669,新規,0,2023-04-21,2023-04-21,株式会社ＦＳＭＣ,,株式会社,東京都,文京区,本郷６丁目２５番１４号,,13,105,1130033,,,,,,,2023-04-21,1,,,,,フレキシブルセミコンダクターマニュファクチャリング,0
9,1010001234702,新規,0,2023-04-21,2023-04-21,株式会社ＡＩ　Ｍｅｄｉａ　Ｌａｂ,,株式会社,東京都,中央区,銀座１丁目２２番地１１号銀座大竹ビジデンス２Ｆ,,13,102,1040061,,,,,,,2023-04-21,1,,,,,エーアイメディアラボ,0
10,1010001234710,新規,0,2023-04-21,2023-04-21,リバースジョブビレッジ株式会社,,株式会社,東京都,千代田区,四番町２番地１２,,13,101,1020081,,,,,,,2023-04-21,1,,,,,リバースジョブビレッジ,0
15,1010003040405,新規,0,2023-04-21,2023-04-21,合同会社箕作総研技術士事務所,,合同会社,東京都,中央区,銀座１丁目１２番４号Ｎ＆Ｅ．ＢＬＤ．７階,,13,102,1040061,,,,,,,2023-04-21,1,,,,,ミツクリソウケンギジュツシジムショ,0
24,1010501050327,新規,0,2023-04-21,2023-04-21,オープンイノベーション株式会社,,株式会社,東京都,台東区,東上野１丁目１３番５号,,13,106,1100015,,,,,,,2023-04-21,1,,,,,オープンイノベーション,0
29,1010605004195,新規,0,2023-04-21,2023-04-21,一般社団法人Ｅｎｄｏｓｃｏｐｙ　Ｏｎｅ,,その他の設立登記法人,東京都,江東区,豊洲２丁目５番１－１００４号,,13,108,1350061,,,,,,,2023-04-21,1,,,,,エンドスコピーワン,0
32,1010701044153,新規,0,2023-04-21,2023-04-21,エフスリー株式会社,,株式会社,東京都,品川区,上大崎４丁目１番１－８０５号,,13,109,1410021,,,,,,,2023-04-21,1,,,,,エフスリー,0
44,1011001153958,新規,0,2023-04-21,2023-04-21,株式会社ＰＯＴＯＭＡＣ　ＨＯＵＳＥ　ＣＯＭＰＡＮＹ,,株式会社,東京都,渋谷区,渋谷２丁目１２番８号アートビル５０２,,13,113,1500002,,,,,,,2023-04-21,1,,,,,ポートマックハウスカンパニー,0
45,1011001154007,新規,0,2023-04-21,2023-04-21,株式会社杉浦,,株式会社,東京都,渋谷区,代々木４丁目１１番８号,,13,113,1510053,,,,,,,2023-04-21,1,,,,,スギウラ,0
47,1011003016700,新規,0,2023-04-21,2023-04-21,合同会社ａｎｄ　Ｓｔｅｌｌａ,,合同会社,東京都,渋谷区,渋谷４丁目３番１０－６０３号,,13,113,1500002,,,,,,,2023-04-21,1,,,,,アンドステラ,0
53,1011101102609,新規,0,2023-04-21,2023-04-21,株式会社ＴＲＹ,,株式会社,東京都,新宿区,西新宿８丁目９番１４号２階,,13,104,1600023,,,,,,,2023-04-21,1,,,,,ティーアールワイ,0
54,1011101102617,新規,0,2023-04-21,2023-04-21,株式会社ワイ・アド,,株式会社,東京都,新宿区,新宿１丁目２４番７号,,13,104,1600022,,,,,,,2023-04-21,1,,,,,ワイアド,0
56,1011105010642,新規,0,2023-04-21,2023-04-21,進化一般社団法人,,その他の設立登記法人,東京都,新宿区,西新宿３丁目３番１３号西新宿水間ビル２Ｆ,,13,104,1600023,,,,,,,2023-04-21,1,,,,,シンカ,0
58,1011301028653,新規,0,2023-04-21,2023-04-21,株式会社Ｓｈｉｎｄｏｗｓ,,株式会社,東京都,杉並区,下高井戸３丁目１番２号,,13,115,1680073,,,,,,,2023-04-21,1,,,,,シンドウズ,0
60,1011501029187,新規,0,2023-04-21,2023-04-21,パソナ不動産株式会社,,株式会社,東京都,荒川区,東日暮里５丁目１３番５－５０２号,,13,118,1160014,,,,,,,2023-04-21,1,,,,,パソナフドウサン,0
61,1011503005566,新規,0,2023-04-21,2023-04-21,ＧＡＲＡＧＥ　ＩＮＣ．合同会社,,合同会社,東京都,荒川区,荒川６丁目５２番９号Ｂｅｎｅｌａｔｏ町屋１０１号室,,13,118,1160002,,,,,,,2023-04-21,1,,,,,ガレージインク,0
62,1011601026761,新規,0,2023-04-21,2023-04-21,ＪＰインターナショナル株式会社,,株式会社,東京都,練馬区,羽沢１丁目１番１０号,,13,120,1760003,,,,,,,2023-04-21,1,,,,,ジェイピーインターナショナル,0
67,1011801042278,新規,0,2023-04-21,2023-04-21,株式会社ｂｌｌｅｇｇｔｅｃ,,株式会社,東京都,足立区,千住曙町２５番２号,,13,121,1200023,,,,,,,2023-04-21,1,,,,,,0
68,1011801042286,新規,0,2023-04-21,2023-04-21,Ｍｅｔａｓ株式会社,,株式会社,東京都,足立区,西新井本町５丁目２番４－１０３号,,13,121,1230845,,,,,,,2023-04-21,1,,,,,メタス,0
72,1012401040457,新規,0,2023-04-21,2023-04-21,株式会社トレカリオン,,株式会社,東京都,武蔵野市,吉祥寺本町１丁目２３番１号ＫＳ２３ビル４階８号室,,13,203,1800004,,,,,,,2023-04-21,1,,,,,トレカリオン,0
78,1012701017618,新規,0,2023-04-21,2023-04-21,株式会社ＳｋｙＬａｒｋ　Ｈｏｍｅｓ,,株式会社,東京都,西東京市,ひばりが丘北３丁目５－６シティーコートひばりヶ丘３階,,13,229,2020002,,,,,,,2023-04-21,1,,,,,スカイラークホームズ,0
81,1013301050653,新規,0,2023-04-21,2023-04-21,ハピプラ株式会社,,株式会社,東京都,豊島区,池袋本町４丁目２８番４号ＪＴレジデンス池袋本町１０１号室,,13,116,1700011,,,,,,,2023-04-21,1,,,,,ハピプラ,0
82,1013303006604,新規,0,2023-04-21,2023-04-21,Ｎｅｗ　Ｆｕｎｃｔｉｏｎ合同会社,,合同会社,東京都,豊島区,長崎５丁目２７番８号,,13,116,1710051,,,,,,,2023-04-21,1,,,,,ニューファンクション,0
96,1020001151252,新規,0,2023-04-21,2023-04-21,ＫＩＹＯＬＩ株式会社,,株式会社,神奈川県,横浜市中区,山下町７５－３グランシティ山下公園１００４号室,,14,104,2310023,,,,,,,2023-04-21,1,,,,,キヨリ,0
97,1020001151260,新規,0,2023-04-21,2023-04-21,株式会社神奈川ホーム,,株式会社,神奈川県,横浜市港北区,新羽町１８３９番地５Ｍ・Ｉマンション１０１,,14,109,2230057,,,,,,,2023-04-21,1,,,,,カナガワホーム,0
98,1020001151277,新規,0,2023-04-21,2023-04-21,ＳＤＳ株式会社,,株式会社,神奈川県,川崎市宮前区,犬蔵２丁目３８番１６号,,14,136,2160011,,,,,,,2023-04-21,1,,,,,エスディーエス,0
103,1020003023788,新規,0,2023-04-21,2023-04-21,合同会社マガジン,,合同会社,神奈川県,横浜市都筑区,池辺町３５７３番地２－３０１号,,14,118,2240053,,,,,,,2023-04-21,1,,,,,マガジン,0
105,1020005015957,新規,0,2023-04-21,2023-04-21,一般社団法人介護実践交流協会,,その他の設立登記法人,神奈川県,川崎市川崎区,小川町１６－１７ＭＦプラザ５０７,,14,131,2100023,,,,,,,2023-04-21,1,,,,,カイゴジッセンコウリュウキョウカイ,0
108,1021003012987,新規,0,2023-04-21,2023-04-21,ＪＢＳ合同会社,,合同会社,神奈川県,相模原市中央区,星が丘２丁目１２番２号,,14,152,2520238,,,,,,,2023-04-21,1,,,,,ジェイビイエス,0
109,1021003013011,新規,0,2023-04-21,2023-04-21,合同会社ＨＯＰＥ,,合同会社,神奈川県,相模原市南区,相模大野１丁目１７番７号,,14,153,2520303,,,,,,,2023-04-21,1,,,,,ホープ,0
113,1030001153371,新規,0,2023-04-21,2023-04-21,数狸国際株式会社,,株式会社,埼玉県,川口市,芝新町３番５－４０１号,,11,203,3330851,,,,,,,2023-04-21,1,,,,,スウリコクサイ,0
114,1030001153487,新規,0,2023-04-21,2023-04-21,ＫＪＰ　ＢＲＡＮＤ株式会社,,株式会社,埼玉県,さいたま市浦和区,元町２丁目５番１３号ニューハイツ北浦和２０１号,,11,107,3300073,,,,,,,2023-04-21,1,,,,,ケージェーピーブランド,0
115,1030001153512,新規,0,2023-04-21,2023-04-21,株式会社ねこふる,,株式会社,埼玉県,さいたま市西区,大字二ツ宮５１番地４１,,11,101,3310065,,,,,,,2023-04-21,1,,,,,ネコフル,0
116,1030001153537,新規,0,2023-04-21,2023-04-21,株式会社クリアパフォーマンス,,株式会社,埼玉県,富士見市,大字上南畑８９番地２,,11,235,3540002,,,,,,,2023-04-21,1,,,,,クリアパフォーマンス,0
117,1030001153545,新規,0,2023-04-21,2023-04-21,株式会社美雅,,株式会社,埼玉県,八潮市,大字西袋１２３８,,11,234,3400833,,,,,,,2023-04-21,1,,,,,ミヤビ,0
120,1030003021618,新規,0,2023-04-21,2023-04-21,合同会社トータルソリューション,,合同会社,埼玉県,入間市,豊岡２丁目９番１５号,,11,225,3580003,,,,,,,2023-04-21,1,,,,,トータルソリューション,0
121,1030003021626,新規,0,2023-04-21,2023-04-21,合同会社谷岡,,合同会社,埼玉県,北足立郡伊奈町,西小針５丁目４７番地１０,,11,301,3620811,,,,,,,2023-04-21,1,,,,,タニオカ,0
122,1030003021642,新規,0,2023-04-21,2023-04-21,合同会社ＳＡＴコンサルティング,,合同会社,埼玉県,さいたま市北区,宮原町３丁目６０２番地３０１号,,11,102,3310812,,,,,,,2023-04-21,1,,,,,エスエーティーコンサルティング,0
126,1040001128026,新規,0,2023-04-21,2023-04-21,株式会社エビサワ,,株式会社,千葉県,千葉市花見川区,三角町２１８番地５２,,12,102,2620011,,,,,,,2023-04-21,1,,,,,エビサワ,0
127,1040001128050,新規,0,2023-04-21,2023-04-21,株式会社ＧＯリース,,株式会社,千葉県,木更津市,江川３７４番地１,,12,206,2920063,,,,,,,2023-04-21,1,,,,,ゴーリース,0
128,1040001128059,新規,0,2023-04-21,2023-04-21,株式会社田智建装,,株式会社,千葉県,千葉市緑区,あすみが丘９丁目４７番地１,,12,105,2670066,,,,,,,2023-04-21,1,,,,,タチケンソウ,0
129,1040001128083,新規,0,2023-04-21,2023-04-21,株式会社Ｖ‐Ｄｉｍｅｎｓｉｏｎ,,株式会社,千葉県,松戸市,上本郷４０９０－２,,12,207,2710064,,,,,,,2023-04-21,1,,,,,ヴィーディメンション,0
136,1040003022391,新規,0,2023-04-21,2023-04-21,合同会社スタイル,,合同会社,千葉県,市原市,八幡５３５番地２－２０３号,,12,219,2900062,,,,,,,2023-04-21,1,,,,,スタイル,0
137,1050001052729,新規,0,2023-04-21,2023-04-21,株式会社フェーズＤ,,株式会社,茨城県,龍ケ崎市,松葉２丁目１番地７３,,08,208,3010043,,,,,,,2023-04-21,1,,,,,フェーズディー,0
139,1060001035922,新規,0,2023-04-21,2023-04-21,株式会社Ｆａｍｓｙｓｔｅｍ,,株式会社,栃木県,宇都宮市,吉野１丁目１０番４号サクラトカワト２Ｂ,,09,201,3200838,,,,,,,2023-04-21,1,,,,,ファムシステム,0
140,1060001035930,新規,0,2023-04-21,2023-04-21,株式会社くろーばー,,株式会社,栃木県,宇都宮市,雀の宮６丁目３番６４,,09,201,3210132,,,,,,,2023-04-21,1,,,,,クローバー,0
142,1060005010079,新規,0,2023-04-21,2023-04-21,特定非営利活動法人ＴＳＵＫＵＲＵ　ＭＯＫＡ,,その他の設立登記法人,栃木県,真岡市,台町２４８１番地,,09,209,3214306,,,,,,,2023-04-21,1,,,,,ツクルモオカ,0
148,1080401026445,新規,0,2023-04-21,2023-04-21,株式会社ＴＥＦＦ,,株式会社,静岡県,浜松市西区,雄踏町宇布見９３３１番地の１０,,22,133,4310102,,,,,,,2023-04-21,1,,,,,テフ,0
154,1100001036321,新規,0,2023-04-21,2023-04-21,ＰＤＳホールディングス株式会社,,株式会社,長野県,長野市,大字鶴賀田町２１２０番地１,,20,201,3800815,,,,,,,2023-04-21,1,,,,,ピーディーエスホールディングス,0
157,1100002039348,新規,0,2023-04-21,2023-04-21,有限会社五光興業,,有限会社,長野県,長野市,篠ノ井塩崎５５６６番地１,,20,201,3888014,,,,,,,2023-04-21,1,,,,,ゴコウコウギョウ,0
158,1100005013003,新規,0,2023-04-21,2023-04-21,一般社団法人信州国際芸術区,,その他の設立登記法人,長野県,長野市,大字高田９５１番地４,,20,201,3810034,,,,,,,2023-04-21,1,,,,,シンシュウコクサイゲイジュツク,0
160,1110001037475,新規,0,2023-04-21,2023-04-21,ＭＢ株式会社,,株式会社,新潟県,新潟市東区,牡丹山３丁目２番１６号,,15,102,9500872,,,,,,,2023-04-21,1,,,,,エムビー,0
177,1120001254012,新規,0,2023-04-21,2023-04-21,コキュービューティー株式会社,,株式会社,大阪府,大阪市東住吉区,鷹合２丁目１番２５号駒川エンビィハイツ３２０号,,27,121,5460014,,,,,,,2023-04-21,1,,,,,コキュービューティー,0
178,1120001254268,新規,0,2023-04-21,2023-04-21,株式会社永笑,,株式会社,大阪府,交野市,倉治７丁目１３番１５号,,27,230,5760051,,,,,,,2023-04-21,1,,,,,エイワ,0
179,1120001254292,新規,0,2023-04-21,2023-04-21,株式会社亀水電気,,株式会社,大阪府,大阪市東成区,中本５丁目１８番２号,,27,115,5370022,,,,,,,2023-04-21,1,,,,,カメミズデンキ,0
180,1120001254301,新規,0,2023-04-21,2023-04-21,株式会社ｓｕｍｉｃａ不動産,,株式会社,大阪府,大阪市平野区,長吉長原３丁目１６番１０号スタシオン鴫１０５,,27,126,5470016,,,,,,,2023-04-21,1,,,,,スミカフドウサン,0
181,1120003023860,新規,0,2023-04-21,2023-04-21,貴徳堂合同会社,00130202,合同会社,大阪府,守口市,寺方本通１丁目３－１８,,27,209,5700048,,,,,,,2023-04-21,1,,,,,キトクドウ,0
182,1120003023893,新規,0,2023-04-21,2023-04-21,合同会社ＬＴＬ,,合同会社,大阪府,大阪市中央区,東心斎橋１丁目６番３号ハイツ千年３０６号,,27,128,5420083,,,,,,,2023-04-21,1,,,,,エルティエル,0
185,1120101067421,新規,0,2023-04-21,2023-04-21,株式会社ＶＡＺ,,株式会社,大阪府,泉佐野市,上町２丁目９－１７－１０６,,27,213,5980007,,,,,,,2023-04-21,1,,,,,バズ,0
187,1120103005189,新規,0,2023-04-21,2023-04-21,合同会社エコプランニング,,合同会社,大阪府,和泉市,善正町２５３番５,,27,219,5941125,,,,,,,2023-04-21,1,,,,,エコプランニング,0
207,1140001129906,新規,0,2023-04-21,2023-04-21,株式会社ライズボワ,,株式会社,兵庫県,西宮市,五月ケ丘１０番２１号,,28,204,6620875,,,,,,,2023-04-21,1,,,,,ライズボワ,0
208,1140001129914,新規,0,2023-04-21,2023-04-21,株式会社Ｒａ‐３,,株式会社,兵庫県,西宮市,小松町２丁目１番２９号,,28,204,6638127,,,,,,,2023-04-21,1,,,,,ラスリー,0
210,1140003018958,新規,0,2023-04-21,2023-04-21,エアデザインアンドクラフト合同会社,,合同会社,兵庫県,宝塚市,雲雀丘山手１丁目１４番４号,,28,214,6650804,,,,,,,2023-04-21,1,,,,,エアデザインアンドクラフト,0
211,1140003018990,新規,0,2023-04-21,2023-04-21,合同会社夢発信人倶楽部,,合同会社,兵庫県,神戸市須磨区,神の谷２丁目１４－７,,28,107,6540162,,,,,,,2023-04-21,1,,,,,ユメハッシンニンクラブ,0
212,1150003002944,新規,0,2023-04-21,2023-04-21,ＬＥＳ　ＣＲＥＰＥＳ　ＤＥ　ＲＯＧＥＲ合同会社,,合同会社,奈良県,天理市,柳本町７３９番地２,,29,204,6320052,,,,,,,2023-04-21,1,,,,,レクレープドゥロジェ,0
213,1160001024989,新規,0,2023-04-21,2023-04-21,株式会社小河原工業,,株式会社,滋賀県,東近江市,宮荘町６３１番地１３,,25,213,5291404,,,,,,,2023-04-21,1,,,,,コガワラコウギョウ,0
223,1180001155972,新規,0,2023-04-21,2023-04-21,株式会社たいようコンサルタント,,株式会社,愛知県,名古屋市中区,錦２丁目４番８号,,23,106,4600003,,,,,,,2023-04-21,1,,,,,タイヨウコンサルタント,0
226,1180005020198,新規,0,2023-04-21,2023-04-21,一般社団法人こども未来アカデミー,,その他の設立登記法人,愛知県,春日井市,惣中町２丁目７４番地１,,23,206,4860949,,,,,,,2023-04-21,1,,,,,コドモミライアカデミー,0
241,1210001019281,新規,0,2023-04-21,2023-04-21,株式会社Ｓｕｎ,,株式会社,福井県,福井市,曽万布町第４号１番地,,18,201,9188234,,,,,,,2023-04-21,1,,,,,サン,0
242,1220005008750,新規,0,2023-04-21,2023-04-21,医療法人社団くじらぐも,,その他の設立登記法人,石川県,金沢市,八日市４丁目３７３番地,,17,201,9218064,,,,,,,2023-04-21,1,,,,,クジラグモ,0
246,1240001061413,新規,0,2023-04-21,2023-04-21,株式会社叶,,株式会社,広島県,福山市,今津町５丁目１０番２４号,,34,207,7290111,,,,,,,2023-04-21,1,,,,,カナエ,0
248,1240003006110,新規,0,2023-04-21,2023-04-21,合同会社コダニ,,合同会社,広島県,東広島市,高屋町小谷３６０１番地１,,34,212,7392121,,,,,,,2023-04-21,1,,,,,コダニ,0
255,1280001008922,新規,0,2023-04-21,2023-04-21,ツリーワーク株式会社,,株式会社,島根県,出雲市,多伎町口田儀３８２番地３,,32,203,6990904,,,,,,,2023-04-21,1,,,,,ツリーワーク,0
259,1290001101288,新規,0,2023-04-21,2023-04-21,株式会社三宅左官,,株式会社,福岡県,八女市,本町３６７番地１,,40,210,8340031,,,,,,,2023-04-21,1,,,,,ミヤケサカン,0
262,1290801029489,新規,0,2023-04-21,2023-04-21,神原工業株式会社,,株式会社,福岡県,北九州市小倉北区,高峰町１０番１８号,,40,106,8030826,,,,,,,2023-04-21,1,,,,,カンバラコウギョウ,0
266,1320003004064,新規,0,2023-04-21,2023-04-21,合同会社３５,,合同会社,大分県,大分市,要町１番４－１３０３号,,44,201,8700831,,,,,,,2023-04-21,1,,,,,サーブ,0
269,1330003009814,新規,0,2023-04-21,2023-04-21,合同会社ティーアール,,合同会社,熊本県,熊本市北区,高平１丁目３７番２２号,,43,105,8600085,,,,,,,2023-04-21,1,,,,,ティーアール,0
271,1340001025523,新規,0,2023-04-21,2023-04-21,株式会社ＲＦ,,株式会社,鹿児島県,鹿児島市,伊敷台７丁目２７番１８号,,46,201,8900007,,,,,,,2023-04-21,1,,,,,アールエフ,0
275,1350001018311,新規,0,2023-04-21,2023-04-21,株式会社ＦＰキャピタル,,株式会社,宮崎県,延岡市,桜小路３４９－３０桜小路ビル１階東,,45,203,8820816,,,,,,,2023-04-21,1,,,,,エフピーキャピタル,0
283,1370003006097,新規,0,2023-04-21,2023-04-21,合同会社アライブ,,合同会社,宮城県,仙台市青葉区,芋沢字権現森山９２－１３,,04,101,9893212,,,,,,,2023-04-21,1,,,,,アライブ,0
284,1380003005445,新規,0,2023-04-21,2023-04-21,Ｎａｖｙ　Ｆｉｅｌｄｓ合同会社,,合同会社,福島県,西白河郡西郷村,大字小田倉字大平３３４番地１０,,07,461,9618061,,,,,,,2023-04-21,1,,,,,ネイビーフィールズ,0
285,1390001017235,新規,0,2023-04-21,2023-04-21,株式会社チイキズカン,,株式会社,山形県,鶴岡市,北京田字下鳥ノ巣２３番地１,,06,203,9970053,,,,,,,2023-04-21,1,,,,,チイキズカン,0
299,1430001088908,新規,0,2023-04-21,2023-04-21,高橋建設工業株式会社,00130203,株式会社,北海道,札幌市北区,屯田町５５１番地,,01,102,0020865,,,,,,,2023-04-21,1,,,,,タカハシケンセツコウギョウ,0
300,1430003014952,新規,0,2023-04-21,2023-04-21,合同会社Ｐｌａｔｅａｕ,,合同会社,北海道,札幌市南区,真駒内本町７丁目７番５－１０１号,,01,106,0050021,,,,,,,2023-04-21,1,,,,,プラトー,0
312,1500003003023,新規,0,2023-04-21,2023-04-21,合同会社霜月,,合同会社,愛媛県,松山市,千舟町５丁目３番１７号,,38,201,7900011,,,,,,,2023-04-21,1,,,,,シモツキ,0
313,1700150115617,新規,0,2023-04-21,2023-04-21,ｑｕａｎｚｈｏｕｓｈｉｘｉａｏａｉｌｉｎｍａｏｙｉｙｏｕｘｉａｎｇｏｎｇｓｉ,,外国会社等,,,,,,,,ｆｕｊｉａｎｓｈｅｎｇｑｕａｎｚｈｏｕｓｈｉｊｉｎｊｉａｎｇｓｈｉｙｏｎｇｈｅｚｈｅｎｍａｏｔｉｎｇｃｕｎｄｉｓａｎｐｉａｎｑｕ１１８ｈａｏ,,,,,,2023-04-21,1,,,,,チュエンジョウシーシャオアイリンマオイーヨウシエンゴンスー,0
314,1700150115625,新規,0,2023-04-21,2023-04-21,ＳＯＬＡＲ　ＯＵＴＤＯＯＲＳ　ＩＮＶＥＳＴＭＥＮＴ　ＬＩＭＩＴＥＤ,,外国会社等,,,,,,,,６／Ｆ．，ＭＡＮＵＬＩＦＥ　ＰＬＡＣＥ，３４８　ＫＷＵＮ　ＴＯＮＧ　ＲＯＡＤ，ＫＬＮ，ＨＯＮＧ　ＫＯＮＧ,,,,,,2023-04-21,1,,,,,ヤングワンフーワイトウズーヨウシエンゴンスー,0
315,1700150115666,新規,0,2023-04-21,2023-04-21,ｃｈｅｎｚｈｏｕｓｈｉｑｉａｌｅｇｏｎｇｍａｏｙｏｕｘｉａｎｇｏｎｇｓｉ,,外国会社等,,,,,,,,ｂｅｉｈｕｑｕｙｏｎｇｑｕａｎｊｉｅｄａｏｑｉｌｉｄｏｎｇｃｕｎｚｈａｏｊｉａｚｕ，ｃｈｅｎｚｈｏｕ，ｈｕｎａｎ，４２３０００　ＣＮ,,,,,,2023-04-21,1,,,,,チンシユウシゴウラクコウボウユウゲンコウシ,0
323,2010001234569,新規,0,2023-04-21,2023-04-21,株式会社ＩＴ‐ＡＲＣＨ,,株式会社,東京都,千代田区,九段南１丁目５番６号りそな九段ビル５階ＫＳフロア,,13,101,1020074,,,,,,,2023-04-21,1,,,,,アイティーアーチ,0
324,2010001234701,新規,0,2023-04-21,2023-04-21,株式会社ワイズ,,株式会社,東京都,中央区,日本橋室町１丁目１１番１２号日本橋水野ビル７階,,13,102,1030022,,,,,,,2023-04-21,1,,,,,ワイズ,0
325,2010001234734,新規,0,2023-04-21,2023-04-21,Ｎｅｘｔｒｏｋｅ株式会社,,株式会社,東京都,中央区,銀座７丁目１３番２０号銀座ＴＨビル９階,,13,102,1040061,,,,,,,2023-04-21,1,,,,,ネクストローク,0
328,2010005036540,新規,0,2023-04-21,2023-04-21,一般社団法人霞ヶ関医療法務機構,,その他の設立登記法人,東京都,千代田区,霞が関１丁目４番１号,,13,101,1000013,,,,,,,2023-04-21,1,,,,,カスミガセキイリョウホウムキコウ,0
337,2010401173912,新規,0,2023-04-21,2023-04-21,株式会社Ｄｏ　Ｔｈｅ　Ｒｉｇｈｔ　Ｔｈｉｎｇ,,株式会社,東京都,港区,西麻布３丁目３－３,,13,103,1060031,,,,,,,2023-04-21,1,,,,,ドゥザライトシング,0
338,2010401173920,新規,0,2023-04-21,2023-04-21,株式会社ＦＩＶＥ　ＳＰＡＣＥ　ＪＡＰＡＮ,,株式会社,東京都,港区,北青山２丁目１２番８号,,13,103,1070061,,,,,,,2023-04-21,1,,,,,ファイブスペースジャパン,0
340,2010403029971,新規,0,2023-04-21,2023-04-21,Ｓｈｉｎｉｎｇ　Ｔｒｅｅ合同会社,,合同会社,東京都,港区,南青山３丁目１番３６号青山丸竹ビル６Ｆ,,13,103,1070062,,,,,,,2023-04-21,1,,,,,シャイニングツリー,0
342,2010501050342,新規,0,2023-04-21,2023-04-21,ＳＡＩＬ株式会社,,株式会社,東京都,台東区,松が谷２丁目９番１－Ｂ１０２号,,13,106,1110036,,,,,,,2023-04-21,1,,,,,セイル,0
355,2011001153957,新規,0,2023-04-21,2023-04-21,株式会社Ｎｅｗ　Ａｎｉｍａｌ,,株式会社,東京都,渋谷区,西原１丁目２６番５号セントラル幡ヶ谷４０１,,13,113,1510066,,,,,,,2023-04-21,1,,,,,ニューアニマル,0
356,2011001153981,新規,0,2023-04-21,2023-04-21,株式会社ファブリット,,株式会社,東京都,目黒区,東が丘１丁目６－１７,,13,110,1520021,,,,,,,2023-04-21,1,,,,,ファブリット,0
357,2011003016699,新規,0,2023-04-21,2023-04-21,Ａｌｌ　ｒｉｇｈｔ合同会社,,合同会社,東京都,渋谷区,神宮前６丁目２３番４号桑野ビル２階,,13,113,1500001,,,,,,,2023-04-21,1,,,,,オールライト,0
370,2011101102632,新規,0,2023-04-21,2023-04-21,株式会社ケンズカフェ東京インターナショナル,,株式会社,東京都,新宿区,新宿１丁目２３番３号御苑コーポビアネーズ１Ｆ,,13,104,1600022,,,,,,,2023-04-21,1,,,,,ケンズカフェトウキョウインターナショナル,0
371,2011103012953,新規,0,2023-04-21,2023-04-21,合同会社ケーロード,,合同会社,東京都,新宿区,富久町１２番１－９０８号,,13,104,1620067,,,,,,,2023-04-21,1,,,,,ケーロード,0
374,2011105010641,新規,0,2023-04-21,2023-04-21,医療法人社団ＡＳＹ,,その他の設立登記法人,東京都,新宿区,新宿６丁目２９番１１号新宿イーストクロスタワー５階,,13,104,1600022,,,,,,,2023-04-21,1,,,,,エーエスワイ,0
379,2011501029186,新規,0,2023-04-21,2023-04-21,株式会社十楽,,株式会社,東京都,北区,田端新町３丁目３５番６－７０１号ライオンズマンション田端,,13,117,1140012,,,,,,,2023-04-21,1,,,,,トラク,0
387,2011801042260,新規,0,2023-04-21,2023-04-21,株式会社キーワークス,,株式会社,東京都,葛飾区,西水元２丁目２０番２２号,,13,122,1250031,,,,,,,2023-04-21,1,,,,,キーワークス,0
388,2011801042269,新規,0,2023-04-21,2023-04-21,株式会社大地,,株式会社,東京都,葛飾区,奥戸９丁目９番１３号,,13,122,1240022,,,,,,,2023-04-21,1,,,,,ダイチ,0
389,2011801042277,新規,0,2023-04-21,2023-04-21,ＲＫ　ＪＡＰＡＮ　ＴＲＡＤＩＮＧ株式会社,,株式会社,東京都,足立区,梅島１丁目２５番１３号,,13,121,1210816,,,,,,,2023-04-21,1,,,,,アールケイジャパントレーディング,0
390,2011801042285,新規,0,2023-04-21,2023-04-21,株式会社栄成興業,,株式会社,東京都,足立区,六町４丁目４番１４号－３０１,,13,121,1210073,,,,,,,2023-04-21,1,,,,,エイセイコウギョウ,0
395,2011803005620,新規,0,2023-04-21,2023-04-21,ｓｔａｎｄａｒｄ　ｒｅｓｉｄｅｎｃｅ合同会社,,合同会社,東京都,葛飾区,東金町２丁目１８番１３号ＲＡＹ４０４号,,13,122,1250041,,,,,,,2023-04-21,1,,,,,スタンダードレジデンス,0
401,2013303006586,新規,0,2023-04-21,2023-04-21,合同会社伊楽可,,合同会社,東京都,豊島区,池袋４丁目２９－１１トウセン池袋ビル５０１号室,,13,116,1710014,,,,,,,2023-04-21,1,,,,,イラカ,0
405,2020001151243,新規,0,2023-04-21,2023-04-21,株式会社ＧＳ商事,,株式会社,神奈川県,横浜市泉区,岡津町１５００番地２ルネ戸塚弥生台５２４号,,14,116,2450003,,,,,,,2023-04-21,1,,,,,ジエスショウジ,0
406,2020001151276,新規,0,2023-04-21,2023-04-21,株式会社ＬＩＫＥ　ＷＡＴＥＲ,,株式会社,神奈川県,横浜市西区,浅間町１丁目４番地３－４０２号,,14,103,2200072,,,,,,,2023-04-21,1,,,,,ライクウォーター,0
407,2020003023770,新規,0,2023-04-21,2023-04-21,合同会社Ｇｌｏｂａｌ　Ｉｎｖｅｓｔｏｒ　ＹＩ,,合同会社,神奈川県,横浜市神奈川区,台町７番地２フジタハイツ横浜５０３号,,14,102,2210834,,,,,,,2023-04-21,1,,,,,グローバルインベスターワイアイ,0
408,2020003023779,新規,0,2023-04-21,2023-04-21,合同会社新昭建設,,合同会社,神奈川県,川崎市高津区,北見方２丁目２８番３１号,,14,134,2130005,,,,,,,2023-04-21,1,,,,,シンショウケンセツ,0
411,2021001078807,新規,0,2023-04-21,2023-04-21,ジャパンソートテック株式会社,,株式会社,神奈川県,平塚市,西八幡３丁目９番２６号,,14,203,2540073,,,,,,,2023-04-21,1,,,,,ジャパンソートテック,0
413,2030001153387,新規,0,2023-04-21,2023-04-21,株式会社Ａプラント,,株式会社,埼玉県,新座市,野火止１丁目７番１３号,,11,230,3520011,,,,,,,2023-04-21,1,,,,,エイプラント,0
414,2030001153404,新規,0,2023-04-21,2023-04-21,株式会社エトラボ,,株式会社,埼玉県,さいたま市浦和区,高砂２丁目１４番１７号,,11,107,3300063,,,,,,,2023-04-21,1,,,,,エトラボ,0
415,2030001153494,新規,0,2023-04-21,2023-04-21,未来医薬株式会社,,株式会社,埼玉県,川口市,芝新町１８番－１６号,,11,203,3330851,,,,,,,2023-04-21,1,,,,,ミライイヤク,0
416,2030001153503,新規,0,2023-04-21,2023-04-21,株式会社作楊,,株式会社,埼玉県,さいたま市大宮区,桜木町４丁目３３１番地３－９１７号室,,11,103,3300854,,,,,,,2023-04-21,1,,,,,サクヨウ,0
417,2030001153528,新規,0,2023-04-21,2023-04-21,株式会社アベケン,,株式会社,埼玉県,草加市,草加２丁目３番１５号,,11,221,3400043,,,,,,,2023-04-21,1,,,,,アベケン,0
418,2030001153552,新規,0,2023-04-21,2023-04-21,株式会社捷,,株式会社,埼玉県,蕨市,塚越５丁目３８番１２号,,11,223,3350002,,,,,,,2023-04-21,1,,,,,ショウ,0
419,2030001153560,新規,0,2023-04-21,2023-04-21,株式会社ＫＡＮＡＤＥ,,株式会社,埼玉県,川越市,豊田町２丁目２０番地１４（ベルーノ１０１号室）,,11,201,3501110,,,,,,,2023-04-21,1,,,,,カナデ,0
422,2030003021591,新規,0,2023-04-21,2023-04-21,合同会社ハヤカワ,,合同会社,埼玉県,羽生市,大字小松２８９番地,,11,216,3480037,,,,,,,2023-04-21,1,,,,,ハヤカワ,0
423,2030005021219,新規,0,2023-04-21,2023-04-21,一般社団法人ＳＡＮ,,その他の設立登記法人,埼玉県,越谷市,大字南荻島３４４１番地６,,11,222,3430804,,,,,,,2023-04-21,1,,,,,サン,0
428,2040001128066,新規,0,2023-04-21,2023-04-21,株式会社１０８９工房,,株式会社,千葉県,千葉市若葉区,野呂町１５９１番地,,12,104,2650053,,,,,,,2023-04-21,1,,,,,イレパクコウボウ,0
430,2040003022465,新規,0,2023-04-21,2023-04-21,Ｓｈｏｗｔｙ’ｓ合同会社,,合同会社,千葉県,浦安市,猫実５丁目４－３５ＢＮＴハウス３１０,,12,227,2790004,,,,,,,2023-04-21,1,,,,,ショウティズ,0
438,2050003007440,新規,0,2023-04-21,2023-04-21,ＮＥＷ　ＭＥＨＲＡ　ＩＮＤＯ合同会社,,合同会社,茨城県,取手市,取手３丁目２番１２号,,08,217,3020004,,,,,,,2023-04-21,1,,,,,ニューメーラインド,0
444,2060001035921,新規,0,2023-04-21,2023-04-21,株式会社ＷＤビックラージ,,株式会社,栃木県,小山市,大字乙女１１７６番地１３,,09,208,3290214,,,,,,,2023-04-21,1,,,,,ダブリューディービックラージ,0
445,2070001040367,新規,0,2023-04-21,2023-04-21,株式会社ＣＬＥ,,株式会社,群馬県,前橋市,野中町３９１－３うちでビル,,10,201,3792166,,,,,,,2023-04-21,1,,,,,,0
447,2080005007535,新規,0,2023-04-21,2023-04-21,一般社団法人カトリック清水教会聖堂を活かす会,,その他の設立登記法人,静岡県,静岡市清水区,下野西４番５号,,22,103,4240012,,,,,,,2023-04-21,1,,,,,カトリックシミズキョウカイセイドウヲイカスカイ,0
451,2080103002784,新規,0,2023-04-21,2023-04-21,合同会社観光技術研究所,,合同会社,静岡県,熱海市,梅園町２２番８号１０２,,22,205,4130032,,,,,,,2023-04-21,1,,,,,カンコウギジュツケンキュウジョ,0
467,2120001254250,新規,0,2023-04-21,2023-04-21,株式会社通寶,,株式会社,大阪府,大阪市港区,港晴２丁目９－９－３０４,,27,107,5520023,,,,,,,2023-04-21,1,,,,,ツウホウ,0
468,2120001254267,新規,0,2023-04-21,2023-04-21,ＩＥ株式会社,,株式会社,大阪府,大阪市住吉区,帝塚山中３丁目１番１５号,,27,120,5580053,,,,,,,2023-04-21,1,,,,,アイイー,0
469,2120001254291,新規,0,2023-04-21,2023-04-21,株式会社シマケン,,株式会社,大阪府,大阪市都島区,友渕町３丁目８番９号,,27,102,5340016,,,,,,,2023-04-21,1,,,,,シマケン,0
470,2120001254300,新規,0,2023-04-21,2023-04-21,株式会社福匙,,株式会社,大阪府,大阪市港区,弁天１丁目２番１－２８０９号,,27,107,5520007,,,,,,,2023-04-21,1,,,,,フクシ,0
471,2120001254309,新規,0,2023-04-21,2023-04-21,常青商事株式会社,,株式会社,大阪府,大阪市中央区,内本町２丁目１番１９号内本町松屋ビル１０－１００１,,27,128,5400026,,,,,,,2023-04-21,1,,,,,ジョウセイショウジ,0
476,2120003023901,新規,0,2023-04-21,2023-04-21,合同会社Ｒｉｎｏｒｕｓ,,合同会社,大阪府,大阪市都島区,網島町４番１２号Ｇ－ＦＬＡＴ２０１号室,,27,102,5340026,,,,,,,2023-04-21,1,,,,,リノルス,0
478,2120103005188,新規,0,2023-04-21,2023-04-21,Ｃｒｅａｔｉｖｅ　Ｌｉｎｅ　Ｗｏｒｋｓ．合同会社,,合同会社,大阪府,和泉市,松尾寺町１４６９,,27,219,5941154,,,,,,,2023-04-21,1,,,,,クリエイティブラインワークス,0
483,2130001074169,新規,0,2023-04-21,2023-04-21,株式会社東栄不動産,,株式会社,京都府,京都市右京区,西院西矢掛町１８番地,,26,108,6150025,,,,,,,2023-04-21,1,,,,,トウエイフドウサン,0
485,2130005016753,新規,0,2023-04-21,2023-04-21,医療法人いちまる整形外科クリニック,,その他の設立登記法人,京都府,長岡京市,長岡２丁目４３４番２,,26,209,6170823,,,,,,,2023-04-21,1,,,,,イチマルセイケイゲカクリニック,0
490,2140001129822,新規,0,2023-04-21,2023-04-21,株式会社井二工業,,株式会社,兵庫県,豊岡市,日高町国分寺１０９番地の１,,28,209,6695341,,,,,,,2023-04-21,1,,,,,イブタコウギョウ,0
497,2160003002843,新規,0,2023-04-21,2023-04-21,合同会社Ｔｏｍｍｙｗａｖｅｓ,,合同会社,滋賀県,野洲市,冨波乙８１０－１０,,25,210,5202352,,,,,,,2023-04-21,1,,,,,トミーウェイブス,0
498,2170001017561,新規,0,2023-04-21,2023-04-21,株式会社ＲＩＮＧ,,株式会社,和歌山県,有田郡有田川町,大字下津野６０４番地１,,30,366,6430021,,,,,,,2023-04-21,1,,,,,リング,0
504,2180001155880,新規,0,2023-04-21,2023-04-21,株式会社ＫＯＵＤＹＡＵＴＯ,,株式会社,愛知県,名古屋市緑区,大高町字己新田９４,,23,114,4598001,,,,,,,2023-04-21,1,,,,,コーディーオート,0
505,2180001155955,新規,0,2023-04-21,2023-04-21,株式会社ＫｉｔｔｅｎＢｌｕｅ,,株式会社,愛知県,名古屋市中区,丸の内３丁目１５－１５ダイアパレス丸の内２０１,,23,106,4600002,,,,,,,2023-04-21,1,,,,,キトンブルー,0
506,2180001155963,新規,0,2023-04-21,2023-04-21,株式会社ビルドキャピタル,,株式会社,愛知県,名古屋市千種区,揚羽町２丁目２０番地の１,,23,101,4640019,,,,,,,2023-04-21,1,,,,,ビルドキャピタル,0
507,2180001155971,新規,0,2023-04-21,2023-04-21,マナティ株式会社,,株式会社,愛知県,一宮市,大和町馬引字乾出３３番地１,,23,203,4910931,,,,,,,2023-04-21,1,,,,,マナティ,0
509,2180003025149,新規,0,2023-04-21,2023-04-21,合同会社ムーブフォワード,,合同会社,愛知県,名古屋市中区,千代田１丁目１０番１９号サンクレーア矢場町９０３号,,23,106,4600012,,,,,,,2023-04-21,1,,,,,ムーブフォワード,0
524,2240001061412,新規,0,2023-04-21,2023-04-21,株式会社ホームチェック,,株式会社,広島県,広島市東区,馬木２丁目５０７番地２５,,34,102,7320031,,,,,,,2023-04-21,1,,,,,ホームチェック,0
525,2250003003254,新規,0,2023-04-21,2023-04-21,合同会社ＣｏＣｏカンパニー,,合同会社,山口県,下関市,長府南之町２番１１号,,35,201,7520976,,,,,,,2023-04-21,1,,,,,ココカンパニー,0
530,2260001037880,新規,0,2023-04-21,2023-04-21,株式会社Ｄａｉｃｈｉ,,株式会社,岡山県,津山市,津山口２７５番地９,,33,203,7080884,,,,,,,2023-04-21,1,,,,,ダイチ,0
531,2280001008921,新規,0,2023-04-21,2023-04-21,Ｉｚｕｍｏｗ株式会社,,株式会社,島根県,出雲市,大社町杵築南１３８３－５イデアビル２Ｆ,,32,203,6990711,,,,,,,2023-04-21,1,,,,,イズモウ,0
540,2290001101155,新規,0,2023-04-21,2023-04-21,株式会社キッド,,株式会社,福岡県,福岡市博多区,築港本町５番１９号,,40,132,8120021,,,,,,,2023-04-21,1,,,,,キッド,0
541,2290001101213,新規,0,2023-04-21,2023-04-21,株式会社シュテルンピアノ,,株式会社,福岡県,久留米市,国分町１９５番地１０,,40,203,8390863,,,,,,,2023-04-21,1,,,,,シュテルンピアノ,0
548,2320001019708,新規,0,2023-04-21,2023-04-21,株式会社おかみ丼々和田,,株式会社,大分県,別府市,大字鉄輪７５２番地の２ラセーヌ鉄輪４０３号,,44,202,8740000,,,,,,,2023-04-21,1,,,,,オカミドンドンワダ,0
550,2330003009813,新規,0,2023-04-21,2023-04-21,合同会社中村会,,合同会社,熊本県,上益城郡益城町,大字惣領１１２９番地ラフィーネ益城Ｂ棟３０６号,,43,443,8612233,,,,,,,2023-04-21,1,,,,,ナカムラカイ,0
555,2350001018293,新規,0,2023-04-21,2023-04-21,エムズフレーマー株式会社,,株式会社,宮崎県,都城市,早鈴町２１５０番地１４,,45,202,8850055,,,,,,,2023-04-21,1,,,,,エムズフレーマー,0
557,2360003012913,新規,0,2023-04-21,2023-04-21,合同会社ＤＯＲＩ,,合同会社,沖縄県,那覇市,寄宮１丁目３２番１６号,,47,201,9020064,,,,,,,2023-04-21,1,,,,,ドリ,0
569,2400001016218,新規,0,2023-04-21,2023-04-21,株式会社千葉ガラス,,株式会社,岩手県,一関市,滝沢字日影３６番地１,,03,209,0290132,,,,,,,2023-04-21,1,,,,,チバガラス,0
572,2420001018229,新規,0,2023-04-21,2023-04-21,株式会社星美工業,,株式会社,青森県,青森市,造道３丁目２４番１号,,02,201,0300911,,,,,,,2023-04-21,1,,,,,,0
581,2500001024887,新規,0,2023-04-21,2023-04-21,株式会社愛協生コン,,株式会社,愛媛県,南宇和郡愛南町,御荘平城４２１１番地,,38,506,7984110,,,,,,,2023-04-21,1,,,,,アイキョウナマコン,0
584,2700150115616,新規,0,2023-04-21,2023-04-21,ｈｅｎａｎｋｕａｉｓｈｏｕｙｕｎｋｅｊｉｙｏｕｘｉａｎｇｏｎｇｓｉ,,外国会社等,,,,,,,,ｓｈｉｘｉａｑｕｄａｈｏｎｇｃｈｅｎｇｓｈｉｇｕａｎｇｃｈａｎｇｌｏｆｔｇｏｎｇｙｕ２ｚｕｏ４１８ｈａｏ　ｋａｉｆｅｎｇｓｈｉ　ｈｅｎａｎｓｈｅｎｇ　４７５０００　ＣＮ,,,,,,2023-04-21,1,,,,,ホーナンクワイショウインコージーヨウシエンゴンスー,0
585,2700150115624,新規,0,2023-04-21,2023-04-21,Ｗｅｎｚｈｏｕ　ｍｕｚｈｉｇｅ　ｄｉａｎｚｉｓｈａｎｇｗｕ　ｙｏｕｘｉａｎｇｏｎｇｓｉ,,外国会社等,,,,,,,,Ｒｏｏｍ　１８０１，Ｂｕｉｌｄｉｎｇ　２２，Ｄｕｈｕｉ　Ｊｉａｙｕａｎ，Ｎｏ．２９９　Ｚｈｏｕｙａｎｇ　Ｒｏａｄ，Ｌｏｕｑｉａｏ　Ｓｔｒｅｅｔ，Ｏｕｈａｉ　Ｄｉｓｔｒｉｃｔ，Ｗｅｎｚｈｏｕ　Ｃｉｔｙ，Ｚｈｅｊｉａｎｇ　Ｐｒｏｖｉｎｃｅ（ｆｏｒ　ｏｆｆｉｃｅ　ｕｓｅ　ｏｎｌｙ）３２５０００　ＣＮ,,,,,,2023-04-21,1,,,,,ウェンジョウムージーゴーディエンズーシャンウーヨウシエンゴンスー,0
586,2700150115665,新規,0,2023-04-21,2023-04-21,群馬県立聾学校ＰＴＡ,,その他,群馬県,前橋市,天川原町１丁目４番地,,10,201,3710803,,,,,,,2023-04-21,1,,,,,グンマケンリツロウガッコウピーティーエー,0
594,3010001234675,新規,0,2023-04-21,2023-04-21,Ｓ‐ＴＯＮＥ株式会社,,株式会社,東京都,中央区,銀座７丁目１５－８－７０１,,13,102,1040061,,,,,,,2023-04-21,1,,,,,エストーン,0
595,3010001234725,新規,0,2023-04-21,2023-04-21,株式会社アイドリックス,,株式会社,東京都,中央区,日本橋富沢町１０番１３号ＷＯＲＫＥＤＩＴＩＯＮ日本橋５０１,,13,102,1030006,,,,,,,2023-04-21,1,,,,,アイドリックス,0
596,3010001234790,新規,0,2023-04-21,2023-04-21,エッセンティアアドバイザリー株式会社,,株式会社,東京都,千代田区,二番町５番地２麹町駅プラザ９０１,,13,101,1020084,,,,,,,2023-04-21,1,,,,,エッセンティアアドバイザリー,0
597,3010001234808,新規,0,2023-04-21,2023-04-21,株式会社ウリコス,,株式会社,東京都,中央区,築地４丁目３番１２－３０１号,,13,102,1040045,,,,,,,2023-04-21,1,,,,,ウリコス,0
600,3010005036548,新規,0,2023-04-21,2023-04-21,一般社団法人ＥＶスタンド普及促進協議会,,その他の設立登記法人,東京都,中央区,日本橋小伝馬町１３番４号共同ビル３Ｆ,,13,102,1030001,,,,,,,2023-04-21,1,,,,,イーブイスタンドフキュウソクシンキョウギカイ,0
612,3010403029970,新規,0,2023-04-21,2023-04-21,合同会社Ｆａｍｓｔｙｌｅ,,合同会社,東京都,港区,三田２丁目７番１９－５０３号,,13,103,1080073,,,,,,,2023-04-21,1,,,,,ファムスタイル,0
617,3010601062955,新規,0,2023-04-21,2023-04-21,株式会社ＮＴＮ,,株式会社,東京都,江東区,福住２丁目８番１０－４１０号,,13,108,1350032,,,,,,,2023-04-21,1,,,,,エヌティーエヌ,0
631,3011003016698,新規,0,2023-04-21,2023-04-21,合同会社ＹＳＫ,,合同会社,東京都,渋谷区,道玄坂１丁目１０番８号渋谷道玄坂東急ビル２Ｆ－Ｃ,,13,113,1500043,,,,,,,2023-04-21,1,,,,,ワイエスケー,0
641,3011105010640,新規,0,2023-04-21,2023-04-21,一般社団法人スノードロップ,,その他の設立登記法人,東京都,新宿区,新宿１丁目１５番９号さわだビル５階（東京共同法律事務所内）,,13,104,1600022,,,,,,,2023-04-21,1,,,,,スノードロップ,0
644,3011301028635,新規,0,2023-04-21,2023-04-21,株式会社ＹＡＮＣＨＥＳＴＥＲ,,株式会社,東京都,杉並区,阿佐谷北１丁目２番１号,,13,115,1660001,,,,,,,2023-04-21,1,,,,,ヤンチェスター,0
658,3012401040414,新規,0,2023-04-21,2023-04-21,６７株式会社,,株式会社,東京都,三鷹市,下連雀４丁目１６番３－３０１号,,13,204,1810013,,,,,,,2023-04-21,1,,,,,ロクナナ,0
669,3020001151234,新規,0,2023-04-21,2023-04-21,Ｍ‐ｉｅｒｕｋａ株式会社,,株式会社,神奈川県,横浜市神奈川区,広台太田町５番地３ロワール横濱反町５０３号,,14,102,2210824,,,,,,,2023-04-21,1,,,,,ミエルカ,0
670,3020001151242,新規,0,2023-04-21,2023-04-21,清智株式会社,,株式会社,神奈川県,川崎市中原区,小杉陣屋町１丁目８番２号,,14,133,2110062,,,,,,,2023-04-21,1,,,,,セイチ,0
671,3020001151259,新規,0,2023-04-21,2023-04-21,村下電機株式会社,,株式会社,神奈川県,横浜市港北区,新羽町１８３９番地１５メゾネット新羽１０１,,14,109,2230057,,,,,,,2023-04-21,1,,,,,ムラシタデンキ,0
675,3020005015963,新規,0,2023-04-21,2023-04-21,医療法人社団博雄会,,その他の設立登記法人,神奈川県,横浜市港北区,大倉山３丁目５８番１３号Ｃａｌｉｍｅｒａ１Ｆ,,14,109,2220037,,,,,,,2023-04-21,1,,,,,ハクユウカイ,0
676,3021001078814,新規,0,2023-04-21,2023-04-21,株式会社ＩＴＯ　ｃｏｒｐｏｒａｔｉｏｎ,,株式会社,神奈川県,座間市,座間２丁目２８８６番地－１０５,,14,216,2520027,,,,,,,2023-04-21,1,,,,,イトーコーポレーション,0
681,3030001153394,新規,0,2023-04-21,2023-04-21,ＺＡＭＡＮ　ＴＲＡＤＩＮＧ株式会社,,株式会社,埼玉県,久喜市,菖蒲町新堀２０３４番地５－２－Ｄ－２号,,11,232,3460105,,,,,,,2023-04-21,1,,,,,ザマントレーディング,0
682,3030001153543,新規,0,2023-04-21,2023-04-21,株式会社ＡＲＣ,,株式会社,埼玉県,本庄市,東五十子６６４－６,,11,211,3670024,,,,,,,2023-04-21,1,,,,,アールシー,0
690,3030003021616,新規,0,2023-04-21,2023-04-21,合同会社ゴックチー,,合同会社,埼玉県,戸田市,笹目６丁目１番地の２６,,11,224,3350034,,,,,,,2023-04-21,1,,,,,ゴックチー,0
700,3040001128024,新規,0,2023-04-21,2023-04-21,ハサキ株式会社,,株式会社,千葉県,木更津市,幸町２丁目３番１５号,,12,206,2920803,,,,,,,2023-04-21,1,,,,,ハサキ,0
701,3040001128040,新規,0,2023-04-21,2023-04-21,Ｚ＆ＧＬＯＢＡＬ株式会社,,株式会社,千葉県,印西市,草深１１００－４０,,12,231,2701337,,,,,,,2023-04-21,1,,,,,ゼットアンドグローバル,0
702,3040001128065,新規,0,2023-04-21,2023-04-21,株式会社鳥巣徽章,,株式会社,千葉県,松戸市,岩瀬４３７番地の２ヴェラハイツ松戸岩瀬２０１号,,12,207,2710076,,,,,,,2023-04-21,1,,,,,トリスキショウ,0
703,3040001128073,新規,0,2023-04-21,2023-04-21,株式会社彼迎,,株式会社,千葉県,千葉市中央区,道場北２丁目１２番２０号,,12,101,2600006,,,,,,,2023-04-21,1,,,,,ビイン,0
705,3040005021968,新規,0,2023-04-21,2023-04-21,松戸市造園緑化協同組合,,その他の設立登記法人,千葉県,松戸市,和名ケ谷１２５３番地,,12,207,2702232,,,,,,,2023-04-21,1,,,,,マツドシゾウエンリョッカ,0
708,3060003004519,新規,0,2023-04-21,2023-04-21,合同会社エル・クリエイション,,合同会社,栃木県,宇都宮市,鐺山町５３４番地２５,,09,201,3213235,,,,,,,2023-04-21,1,,,,,エルクリエイション,0
720,3070001040358,新規,0,2023-04-21,2023-04-21,株式会社ＳｕｎＬｉｇｈｔ,,株式会社,群馬県,伊勢崎市,東小保方町２９５０番地１４,,10,204,3792234,,,,,,,2023-04-21,1,,,,,サンライト,0
723,3080005007534,新規,0,2023-04-21,2023-04-21,共笑協同組合,,その他の設立登記法人,静岡県,静岡市葵区,千代１丁目７－１３フラワーヴィレッジ１０３,,22,101,4211212,,,,,,,2023-04-21,1,,,,,トモエ,0
726,3080403004777,新規,0,2023-04-21,2023-04-21,Ｄ‐ｓｔｙｌｅ合同会社,,合同会社,静岡県,掛川市,高田１１０番地の１,,22,213,4360114,,,,,,,2023-04-21,1,,,,,ディースタイル,0
729,3110001037465,新規,0,2023-04-21,2023-04-21,株式会社ＳＫＹ　ＨＩｇＨ,,株式会社,新潟県,魚沼市,堀之内４１１３番地１,,15,225,9497413,,,,,,,2023-04-21,1,,,,,スカイハイ,0
735,3110003005032,新規,0,2023-04-21,2023-04-21,合同会社越後コンサルティング,,合同会社,新潟県,新潟市中央区,天神尾１丁目２０‐７アルシャルム２０２,,15,103,9500905,,,,,,,2023-04-21,1,,,,,エチゴコンサルティング,0
746,3120001254101,新規,0,2023-04-21,2023-04-21,株式会社ＥＣＬＡＩＲ,,株式会社,大阪府,大阪市北区,天神橋２丁目北１－１４ー３０２号,,27,127,5300041,,,,,,,2023-04-21,1,,,,,エキレア,0
747,3120001254233,新規,0,2023-04-21,2023-04-21,株式会社ＴＫＹエンターテイメント,,株式会社,大阪府,大阪市北区,堂山町１番１７号,,27,127,5300027,,,,,,,2023-04-21,1,,,,,ティーケイワイエンターテイメント,0
748,3120001254241,新規,0,2023-04-21,2023-04-21,伊貝株式会社,,株式会社,大阪府,大阪市中央区,谷町７丁目１番３９－３０１号Ｂ,,27,128,5420012,,,,,,,2023-04-21,1,,,,,イカイ,0
749,3120001254266,新規,0,2023-04-21,2023-04-21,株式会社ＦＬ　Ｈｏｌｄｉｎｇｓ,,株式会社,大阪府,大阪市北区,中之島３丁目３番２３号中之島ダイビル,,27,127,5300005,,,,,,,2023-04-21,1,,,,,エフエルホールディングス,0
750,3120001254274,新規,0,2023-04-21,2023-04-21,株式会社ｗｏｌｆ＆ｆａｍｉｌｙ,,株式会社,大阪府,大阪市中央区,西心斎橋２丁目１０番２号４階,,27,128,5420086,,,,,,,2023-04-21,1,,,,,ウルフアンドファミリー,0
751,3120001254282,新規,0,2023-04-21,2023-04-21,株式会社クオス,,株式会社,大阪府,大阪市北区,梅田２丁目５番１３号,,27,127,5300001,,,,,,,2023-04-21,1,,,,,クオス,0
752,3120001254299,新規,0,2023-04-21,2023-04-21,株式会社Ｖｉｒｔｕｅ　Ｗｅａｌｔｈ,,株式会社,大阪府,大阪市淀川区,東三国２丁目７番５号メゾンファミール北大阪４１０号,,27,123,5320002,,,,,,,2023-04-21,1,,,,,バーチューウェルス,0
756,3120003023859,新規,0,2023-04-21,2023-04-21,合同会社マルケイ屋,,合同会社,大阪府,大阪市北区,梅田１丁目２‐２大阪駅前第２ビル１２‐１２,,27,127,5300001,,,,,,,2023-04-21,1,,,,,マルケイヤ,0
771,3140001129747,新規,0,2023-04-21,2023-04-21,Ｒｏｂｏｔｓ　Ｔｅｃｈ株式会社,,株式会社,兵庫県,神戸市西区,岩岡町野中５２８番地の２８,,28,111,6512405,,,,,,,2023-04-21,1,,,,,ロボッツテック,0
772,3140001129920,新規,0,2023-04-21,2023-04-21,げんき株式会社,,株式会社,兵庫県,神戸市中央区,上筒井通７丁目３番１０－６０２号,,28,110,6510061,,,,,,,2023-04-21,1,,,,,ゲンキ,0
773,3140001129937,新規,0,2023-04-21,2023-04-21,株式会社ブリッジクラフト,,株式会社,兵庫県,神戸市垂水区,舞子坂２丁目７番４４号,,28,108,6550044,,,,,,,2023-04-21,1,,,,,ブリッジクラフト,0
776,3140003019005,新規,0,2023-04-21,2023-04-21,ＡｌｍｏｎｄＢｌｏｓｓｏｍ合同会社,,合同会社,兵庫県,加東市,上久米２４５,,28,228,6731414,,,,,,,2023-04-21,1,,,,,アーモンドブロッサム,0
777,3140003019013,新規,0,2023-04-21,2023-04-21,合同会社群生,,合同会社,兵庫県,神戸市長田区,大道通３丁目７番地１０２号,,28,106,6530833,,,,,,,2023-04-21,1,,,,,グンセイ,0
785,3160001024987,新規,0,2023-04-21,2023-04-21,株式会社ファームつばきはら,,株式会社,滋賀県,犬上郡豊郷町,大字三ツ池１３２番地１,,25,441,5291177,,,,,,,2023-04-21,1,,,,,ファームツバキハラ,0
792,3180303005683,新規,0,2023-04-21,2023-04-21,Ｓｕｚｕ　Ｔｒａｄｅ　Ｊａｐａｎ合同会社,,合同会社,愛知県,高浜市,青木町８丁目１番地１８,,23,227,4441325,,,,,,,2023-04-21,1,,,,,スズトレードジャパン,0
801,3200001041219,新規,0,2023-04-21,2023-04-21,拓実電工株式会社,,株式会社,岐阜県,羽島市,桑原町東方８３４番地,,21,209,5016326,,,,,,,2023-04-21,1,,,,,タクミコウギョウ,0
802,3210001019288,新規,0,2023-04-21,2023-04-21,ラッカートレード株式会社,,株式会社,福井県,福井市,中央３丁目５－１２－３Ｆ,,18,201,9100006,,,,,,,2023-04-21,1,,,,,ラッカートレード,0
803,3210003001632,新規,0,2023-04-21,2023-04-21,合同会社森脇,,合同会社,福井県,福井市,馬垣町板垣境５０４番地,,18,201,9188111,,,,,,,2023-04-21,1,,,,,モリワキ,0
806,3220005008749,新規,0,2023-04-21,2023-04-21,医療法人希真,,その他の設立登記法人,石川県,金沢市,大友１丁目１０９番地,,17,201,9208205,,,,,,,2023-04-21,1,,,,,キサナ,0
815,3250003003253,新規,0,2023-04-21,2023-04-21,福田青果合同会社,,合同会社,山口県,周南市,鼓海１丁目３２４番地の１８,,35,215,7450814,,,,,,,2023-04-21,1,,,,,フクダセイカ,0
824,3290001101204,新規,0,2023-04-21,2023-04-21,株式会社ＤＡＮＪＹＯ,,株式会社,福岡県,糸島市,二丈松末１６３９番地５,,40,230,8191613,,,,,,,2023-04-21,1,,,,,ダンジョー,0
828,3290005019013,新規,0,2023-04-21,2023-04-21,一般財団法人ワンヘルス推進支援機構,,その他の設立登記法人,福岡県,福岡市中央区,赤坂１丁目４番２９号,,40,133,8100042,,,,,,,2023-04-21,1,,,,,ワンヘルススイシンシエンキコウ,0
831,3330001030786,新規,0,2023-04-21,2023-04-21,株式会社福永商事,,株式会社,熊本県,球磨郡あさぎり町,免田東１８０９番地１,,43,514,8680408,,,,,,,2023-04-21,1,,,,,フクナガ,0
832,3330001030794,新規,0,2023-04-21,2023-04-21,株式会社シェランジュ,,株式会社,熊本県,菊池郡大津町,大字杉水３５４５番地６,,43,403,8691236,,,,,,,2023-04-21,1,,,,,シェランジュ,0
834,3340001025521,新規,0,2023-04-21,2023-04-21,株式会社エンドルフィン,,株式会社,鹿児島県,奄美市,名瀬春日町２２番５３号,,46,222,8940013,,,,,,,2023-04-21,1,,,,,エンドルフィン,0
839,3350001018292,新規,0,2023-04-21,2023-04-21,ＡＣＴ株式会社,,株式会社,宮崎県,都城市,早鈴町２１５０番地１４,,45,202,8850055,,,,,,,2023-04-21,1,,,,,アクト,0
843,3360003012904,新規,0,2023-04-21,2023-04-21,合同会社はやさか,,合同会社,沖縄県,南城市,大里字稲嶺１８７５－２,,47,215,9011204,,,,,,,2023-04-21,1,,,,,ハヤサカ,0
853,3400001016217,新規,0,2023-04-21,2023-04-21,株式会社和新鋼業,,株式会社,岩手県,花巻市,石鳥谷町新堀第５９地割５８番地１３,,03,205,0283111,,,,,,,2023-04-21,1,,,,,ワシンコウギョウ,0
863,3700150115334,新規,0,2023-04-21,2023-04-12,能登島観光協会,,その他,石川県,七尾市,能登島向田町１２２部１４番地,,17,202,9260211,,,,,,,2023-04-12,1,,,,,ノトジマカンコウキヨウカイ,0
864,3700150115615,新規,0,2023-04-21,2023-04-21,ｓｕｚｈｏｕｊｕｑｉｎｇｘｉｎｘｉｊｉｓｈｕｙｏｕｘｉａｎｇｏｎｇｓｉ,,外国会社等,,,,,,,,ｋｕｎｓｈａｎｋａｉｆａｑｕｂａｉｌｕｎａｎｌｕ９９９ｈａｏ　ｊｉｔｉａｎｇｕｏｊｉｇｕａｎｇｃｈａｎｇ２ｈａｏｌｏｕ２４０８ｓｈｉ　ｓｕｚｈｏｕｓｈｉ　ｊｉａｎｇｓｕｓｈｅｎｇ　２１５３００　ＣＮ,,,,,,2023-04-21,1,,,,,スージョウジーチンシンシージーシューヨウシエンゴンスー,0
865,3700150115623,新規,0,2023-04-21,2023-04-21,Ｍｉｓｔｌｅｔｏｅ,,外国会社等,,,,,,,,Ｂａｏ’ａｎ　ｄｉｓｔｒｉｃｔ　ＸｉＸｉａｎｇ　ｓｔｒｅｅｔ　ＴａｉＨｕａ　ＹａｎｇＧｕａｎｇＨａｉ　３Ｃ　７１１　ＳｈｅｎＺｈｅｎ　ＧｕａｎｇＤｏｎｇ　５１８１００　ＣＮ,,,,,,2023-04-21,1,,,,,シェンジェンシーフーワントンシャンウーヨウシエンゴンスー,0
866,3700150115664,新規,0,2023-04-21,2023-04-21,パシフィックセンチュリープレイス丸の内管理組合,,その他,東京都,千代田区,丸の内１丁目１１番１号,,13,101,1000005,,,,,,,2023-04-21,1,,,,,パシフィックセンチュリープレイスマルノウチカンリクミアイ,0
876,4010001234708,新規,0,2023-04-21,2023-04-21,株式会社ワイエムホールディングス,,株式会社,東京都,千代田区,内神田２丁目６番８号,,13,101,1010047,,,,,,,2023-04-21,1,,,,,ワイエムホールディングス,0
878,4010003040393,新規,0,2023-04-21,2023-04-21,合同会社Ｋ１,,合同会社,東京都,千代田区,丸の内３丁目１番１号東京共同会計事務所内,,13,101,1000005,,,,,,,2023-04-21,1,,,,,ケーワン,0
879,4010003040419,新規,0,2023-04-21,2023-04-21,アストロ・フィフティーン合同会社,,合同会社,東京都,中央区,銀座１丁目６番１１号土志田ビルディング３Ｆ,,13,102,1040061,,,,,,,2023-04-21,1,,,,,アストロフィフティーン,0
889,4010405021999,新規,0,2023-04-21,2023-04-21,一般社団法人森林浴ツーリズム協会,,その他の設立登記法人,東京都,港区,東新橋２丁目１０番１０号東新橋ビル６１５号,,13,103,1050021,,,,,,,2023-04-21,1,,,,,シンリンヨクツーリズムキョウカイ,0
890,4010405022023,新規,0,2023-04-21,2023-04-21,弁護士法人原山法律事務所,,その他の設立登記法人,東京都,港区,愛宕１丁目６番７号愛宕山弁護士ビル６階,,13,103,1050002,,,,,,,2023-04-21,1,,,,,ハラヤマホウリツジムショ,0
892,4010505003402,新規,0,2023-04-21,2023-04-21,一般社団法人浅草清三,,その他の設立登記法人,東京都,台東区,千束４丁目５０番７－２０３号,,13,106,1110031,,,,,,,2023-04-21,1,,,,,アサクサキヨサン,0
894,4010601062954,新規,0,2023-04-21,2023-04-21,ＥＭＡ　Ｃｏｍｐａｎｙ株式会社,,株式会社,東京都,墨田区,八広２丁目５４－１５－１０４,,13,107,1310041,,,,,,,2023-04-21,1,,,,,イーエムエーカンパニー,0
898,4010903008119,新規,0,2023-04-21,2023-04-21,合同会社世田谷厨房,,合同会社,東京都,世田谷区,桜新町２丁目５番１２号,,13,112,1540015,,,,,,,2023-04-21,1,,,,,,0
902,4011001153947,新規,0,2023-04-21,2023-04-21,Ｂｕｚｚ　Ｗｅｌｌｔｈ株式会社,,株式会社,東京都,渋谷区,宇田川町２番１－１１１０号,,13,113,1500042,,,,,,,2023-04-21,1,,,,,バスウェルス,0
903,4011001153955,新規,0,2023-04-21,2023-04-21,長谷川工務店株式会社,,株式会社,東京都,渋谷区,猿楽町４番９号,,13,113,1500033,,,,,,,2023-04-21,1,,,,,ハセガワコウムテン,0
914,4011101102606,新規,0,2023-04-21,2023-04-21,株式会社シエロ,,株式会社,東京都,新宿区,西新宿６丁目２３番１－１８０２号,,13,104,1600023,,,,,,,2023-04-21,1,,,,,シエロ,0
921,4011301028642,新規,0,2023-04-21,2023-04-21,株式会社Ｔ＆Ｅ‐ＷＡｔＷ,,株式会社,東京都,杉並区,天沼３丁目２６番９号,,13,115,1670032,,,,,,,2023-04-21,1,,,,,ティーアンドイーダブリューエーティーダブリュー,0
922,4011303004732,新規,0,2023-04-21,2023-04-21,合同会社オフサポート,,合同会社,東京都,杉並区,南荻窪１丁目４２番８号ライオンズステージ荻窪レジデンス１０４,,13,115,1670052,,,,,,,2023-04-21,1,,,,,オフサポート,0
923,4011401025069,新規,0,2023-04-21,2023-04-21,ＭＡＳＡ株式会社,,株式会社,東京都,板橋区,清水町５５番１０号,,13,119,1740053,,,,,,,2023-04-21,1,,,,,マサ,0
928,4011801042267,新規,0,2023-04-21,2023-04-21,株式会社山口建装,,株式会社,東京都,葛飾区,堀切７丁目１８番４号,,13,122,1240006,,,,,,,2023-04-21,1,,,,,,0
929,4011801042275,新規,0,2023-04-21,2023-04-21,株式会社ＫＩＬＡ,,株式会社,東京都,葛飾区,堀切７丁目２７番７号,,13,122,1240006,,,,,,,2023-04-21,1,,,,,キラ,0
930,4011803005610,新規,0,2023-04-21,2023-04-21,Ｖａｕｌｔ合同会社,,合同会社,東京都,葛飾区,青戸５丁目２８番８号,,13,122,1250062,,,,,,,2023-04-21,1,,,,,ヴァウルト,0
936,4012401040446,新規,0,2023-04-21,2023-04-21,株式会社今を生きる,,株式会社,東京都,調布市,布田４丁目２６番地３１,,13,208,1820024,,,,,,,2023-04-21,1,,,,,イマヲイキル,0
939,4012701017615,新規,0,2023-04-21,2023-04-21,ＷＢＣ株式会社,,株式会社,東京都,東久留米市,前沢３丁目６番７２号,,13,222,2030032,,,,,,,2023-04-21,1,,,,,ダブリュビーシー,0
942,4012703002689,新規,0,2023-04-21,2023-04-21,Ｕｐｄｒａｆｔマネージメント合同会社,,合同会社,東京都,小平市,天神町１丁目７番２０号,,13,211,1870004,,,,,,,2023-04-21,1,,,,,アップドラフトマネージメント,0
951,4020001151241,新規,0,2023-04-21,2023-04-21,株式会社ＨＡＮＡＴＡＢＡ,,株式会社,神奈川県,横浜市西区,浅間町１丁目４番地３ウィザードビル４０２,,14,103,2200072,,,,,,,2023-04-21,1,,,,,ハナタバ,0
952,4020001151258,新規,0,2023-04-21,2023-04-21,株式会社榊コーポレーション,,株式会社,神奈川県,横浜市旭区,二俣川１丁目２番地の１,,14,112,2410821,,,,,,,2023-04-21,1,,,,,サカキコーポレーション,0
953,4020001151274,新規,0,2023-04-21,2023-04-21,株式会社Ｒｅ．ＳＰＡＣＥ,,株式会社,神奈川県,川崎市中原区,小杉陣屋町２丁目１番２号,,14,133,2110062,,,,,,,2023-04-21,1,,,,,リスペース,0
960,4021001078796,新規,0,2023-04-21,2023-04-21,Ｐ２ＧＭ株式会社,,株式会社,神奈川県,三浦郡葉山町,一色１１６番地の４６,,14,301,2400111,,,,,,,2023-04-21,1,,,,,ピーツージーエム,0
965,4030001153393,新規,0,2023-04-21,2023-04-21,ＭＯＨＳＩＮ　ＴＲＡＤＩＮＧ株式会社,,株式会社,埼玉県,久喜市,菖蒲町新堀２０３４番地５－２－Ｄ－３号,,11,232,3460105,,,,,,,2023-04-21,1,,,,,モーシントレーディング,0
966,4030001153518,新規,0,2023-04-21,2023-04-21,株式会社小泉ホーム,,株式会社,埼玉県,春日部市,銚子口５８７－１,,11,214,3440013,,,,,,,2023-04-21,1,,,,,コイズミホーム,0
967,4030001153526,新規,0,2023-04-21,2023-04-21,株式会社ポット,,株式会社,埼玉県,さいたま市中央区,大戸６丁目１９番９号Ｋｏｌｅｔ南与野＃０２,,11,105,3380012,,,,,,,2023-04-21,1,,,,,ポット,0
968,4030001153534,新規,0,2023-04-21,2023-04-21,折川建設株式会社,,株式会社,埼玉県,熊谷市,御正新田１０９６番地２,,11,202,3600113,,,,,,,2023-04-21,1,,,,,オリカワケンセツ,0
969,4030001153542,新規,0,2023-04-21,2023-04-21,株式会社ゴールド・ドラゴン,,株式会社,埼玉県,さいたま市南区,沼影１丁目１０番１号２７０６,,11,108,3360027,,,,,,,2023-04-21,1,,,,,ゴールドドラゴン,0
970,4030001153550,新規,0,2023-04-21,2023-04-21,株式会社ＹＯＬＯ,,株式会社,埼玉県,朝霞市,朝志ケ丘２丁目１３番１６藤和志木タワー１８０２号室,,11,227,3510035,,,,,,,2023-04-21,1,,,,,ヨロ,0
971,4030001153591,新規,0,2023-04-21,2023-04-21,株式会社矢沢興業,,株式会社,埼玉県,川口市,北園町４１－１３,,11,203,3330862,,,,,,,2023-04-21,1,,,,,ヤザワコウギョウ,0
976,4030003021573,新規,0,2023-04-21,2023-04-21,合同会社ｓｈｒｏｕｄ,,合同会社,埼玉県,さいたま市北区,吉野町１丁目３７７番地３０,,11,102,3310811,,,,,,,2023-04-21,1,,,,,シュラウド,0
977,4030003021623,新規,0,2023-04-21,2023-04-21,合同会社内装職人,,合同会社,埼玉県,新座市,石神２丁目２番２４号,,11,230,3520033,,,,,,,2023-04-21,1,,,,,ナイソウショクニン,0
978,4030003021631,新規,0,2023-04-21,2023-04-21,クオーレ合同会社,,合同会社,埼玉県,深谷市,上柴町東５丁目４番地１１,,11,218,3660051,,,,,,,2023-04-21,1,,,,,クオーレ,0
985,4040001127941,新規,0,2023-04-21,2023-04-21,クラージュ株式会社,,株式会社,千葉県,八千代市,勝田台３丁目１７番１５,,12,221,2760023,,,,,,,2023-04-21,1,,,,,クラージュ,0
986,4040001128064,新規,0,2023-04-21,2023-04-21,株式会社富士メディシィエグループ,,株式会社,千葉県,市川市,東菅野２丁目１０番２号,,12,203,2720823,,,,,,,2023-04-21,1,,,,,フジメディシィエグループ,0
987,4040001128080,新規,0,2023-04-21,2023-04-21,鼎盛貿易株式会社,,株式会社,千葉県,千葉市稲毛区,長沼原町４７０番地１３,,12,103,2630001,,,,,,,2023-04-21,1,,,,,テイセイボウエキ,0
993,4040003022455,新規,0,2023-04-21,2023-04-21,合同会社ＴＲＵＳＴ　ＷＯＲＫＳ,,合同会社,千葉県,松戸市,二十世紀が丘萩町３１７番地,,12,207,2710086,,,,,,,2023-04-21,1,,,,,トラストワークス,0
994,4040005021967,新規,0,2023-04-21,2023-04-21,特定非営利活動法人ひかりのこ福祉会,,その他の設立登記法人,千葉県,市川市,押切３番１５－２０２号（フロンティア）東大祐様方,,12,203,2720107,,,,,,,2023-04-21,1,,,,,ヒカリノコフクシカイ,0
1000,4060005010084,新規,0,2023-04-21,2023-04-21,一般社団法人日本俳句協会,,その他の設立登記法人,栃木県,宇都宮市,中央３丁目４番７号ポレスター宇都宮中央９０１,,09,201,3200806,,,,,,,2023-04-21,1,,,,,ニホンハイクキョウカイ,0
1003,4070001040365,新規,0,2023-04-21,2023-04-21,株式会社Ｇ３,,株式会社,群馬県,前橋市,川原町３７６番地１３４,,10,201,3710046,,,,,,,2023-04-21,1,,,,,,0
1014,4110001037464,新規,0,2023-04-21,2023-04-21,株式会社Ｍｉｄｎｉｇｈｔ　Ｍｅｔａｌ　Ｂａｒ　ｖｅｒ．,,株式会社,新潟県,新潟市中央区,笹口１丁目２１番地７ＢＵＥＮＡ笹口ＩＩＩ１０２号,00130201,15,103,9500911,,,,,,,2023-04-21,1,,,,,ミッドナイトメタルバーバージョン,0
1016,4110003005031,新規,0,2023-04-21,2023-04-21,合同会社元気カレッジ,,合同会社,新潟県,新潟市秋葉区,天ヶ沢２５３番地,,15,105,9560114,,,,,,,2023-04-21,1,,,,,ゲンキカレッジ,0
1031,4120001254265,新規,0,2023-04-21,2023-04-21,株式会社ＬＡＳＨＩＦＴ,,株式会社,大阪府,大阪市北区,西天満４丁目７番１３号,,27,127,5300047,,,,,,,2023-04-21,1,,,,,ラシフト,0
1032,4120001254298,新規,0,2023-04-21,2023-04-21,アークテック株式会社,,株式会社,大阪府,大阪市中央区,淡路町３丁目５番１３号創建御堂筋ビル２階,,27,128,5410047,,,,,,,2023-04-21,1,,,,,アークテック,0
1043,4130001074175,新規,0,2023-04-21,2023-04-21,株式会社ＫＬ京都,,株式会社,京都府,宇治市,木幡平尾２８番地の１０３６,,26,204,6110002,,,,,,,2023-04-21,1,,,,,ケイエルキョウト,0
1055,4140003019004,新規,0,2023-04-21,2023-04-21,合同会社サポート・サービス,,合同会社,兵庫県,伊丹市,鴻池６丁目２１－６,,28,207,6640006,,,,,,,2023-04-21,1,,,,,サポートサービス,0
1067,4180005020195,新規,0,2023-04-21,2023-04-21,一般社団法人愛知介護福祉事業者支援連盟,,その他の設立登記法人,愛知県,名古屋市中区,栄２丁目７番２８号栄アインスタワー６０１号,,23,106,4600008,,,,,,,2023-04-21,1,,,,,アイチカイゴフクシジギョウシャシエンレンメイ,0
1068,4180303005690,新規,0,2023-04-21,2023-04-21,ＳＵＮＺ合同会社,,合同会社,愛知県,岡崎市,美合町字生田５７番地１,,23,202,4440804,,,,,,,2023-04-21,1,,,,,サンズ,0
1074,4220005008748,新規,0,2023-04-21,2023-04-21,医療法人なかざわクリニック,,その他の設立登記法人,石川県,野々市市,新庄６丁目４４５番地,,17,212,9218824,,,,,,,2023-04-21,1,,,,,ナカザワクリニック,0
1077,4240001061402,新規,0,2023-04-21,2023-04-21,株式会社ＫＵＳＵＫＥＮ,,株式会社,広島県,広島市安佐北区,口田南９丁目３４番３号,,34,106,7391733,,,,,,,2023-04-21,1,,,,,クスケン,0
1084,4260001037879,新規,0,2023-04-21,2023-04-21,アンバーマリブ株式会社,,株式会社,岡山県,倉敷市,児島塩生１５４番地９,,33,202,7110934,,,,,,,2023-04-21,1,,,,,アンバーマリブ,0
1088,4280003001724,新規,0,2023-04-21,2023-04-21,みろく合同会社,,合同会社,島根県,松江市,西川津町５３２－１９,,32,201,6900823,,,,,,,2023-04-21,1,,,,,ミロク,0
1096,4290005019020,新規,0,2023-04-21,2023-04-21,医療法人合川さかもと内科,,その他の設立登記法人,福岡県,久留米市,合川町４３２番地１,,40,203,8390861,,,,,,,2023-04-21,1,,,,,アイカワサカモトナイカ,0
1105,4340005009593,新規,0,2023-04-21,2023-04-21,一般社団法人慈愛医療組織マネジメント研究所,,その他の設立登記法人,鹿児島県,鹿児島市,鴨池新町６番４号かごしまオハナビル３階,,46,201,8900064,,,,,,,2023-04-21,1,,,,,ジアイイリョウソシキマネジメントケンキュウジョ,0
1110,4360003012886,新規,0,2023-04-21,2023-04-21,合同会社龍,,合同会社,沖縄県,那覇市,泊３丁目４番地１ＮａｋａｇｒｏｕｐＢｌｄｇ．９－７０５,,47,201,9000012,,,,,,,2023-04-21,1,,,,,リュウ,0
1112,4360005006837,新規,0,2023-04-21,2023-04-21,一般社団法人Ａｒｃｈ　ｔｏ　Ｈｏｏｐ沖縄,,その他の設立登記法人,沖縄県,糸満市,西崎２丁目６番３号コーポなかそね１階,,47,210,9010305,,,,,,,2023-04-21,1,,,,,アーチトゥーフープオキナワ,0
1129,4430001088905,新規,0,2023-04-21,2023-04-21,株式会社ＩＮＡ‐Ｎ．Ｋ,,株式会社,北海道,札幌市中央区,南六条西２丁目８番地７,,01,101,0640806,,,,,,,2023-04-21,1,,,,,アイナエヌケー,0
1130,4430001088970,新規,0,2023-04-21,2023-04-21,北海道ブルーアース株式会社,,株式会社,北海道,江別市,元町１１番地５元町アンビシャスプラザ,,01,217,0670031,,,,,,,2023-04-21,1,,,,,ホッカイドウブルーアース,0
1132,4460101007373,新規,0,2023-04-21,2023-04-21,クロア工業株式会社,,株式会社,北海道,帯広市,西十七条北２丁目２２番９号,,01,207,0800047,,,,,,,2023-04-21,1,,,,,クロアコウギョウ,0
1138,4470003002406,新規,0,2023-04-21,2023-04-21,合同会社コトヒラクラスカ,,合同会社,香川県,仲多度郡琴平町,７０８番地８,,37,403,7660001,,,,,,,2023-04-21,1,,,,,コトヒラクラスカ,0
1140,4700150031200,新規,0,2023-04-21,2015-10-09,湖南地区監査委員会,,その他,滋賀県,草津市,草津３丁目１３番３０号草津市監査委員事務局内,,25,206,5250034,,,,,,,2015-10-09,1,,,,,コナンチクカンサイインカイ,0
1141,4700150065999,新規,0,2023-04-21,2015-10-09,漫湖水鳥・湿地センター管理運営協議会,,その他,沖縄県,豊見城市,字豊見城９８２番地,,47,212,9010241,,,,,,,2015-10-09,1,,,,,マンコミズドリシツチセンターカンリウンエイキヨウギカイ,0
1142,4700150115614,新規,0,2023-04-21,2023-04-21,ｆｕｊｉａｎｓｈｅｎｇｌｏｎｇｙａｎｓｈｉｌｕｏｌｉｎｇｍａｏｙｉｙｏｕｘｉａｎｚｅｒｅｎｇｏｎｇｓｉ,,外国会社等,,,,,,,,ｆｕｊｉａｎｓｈｅｎｇｌｏｎｇｙａｎｓｈｉｘｉｎｌｕｏｑｕｄｏｎｇｘｉａｏｚｈｅｎｃａｉｙｕａｎｃｕｎｘｉｎｉｕｔａｎｇｌｕ２ｈａｏ,,,,,,2023-04-21,1,,,,,フージエンションロンイエンシールオリンマオイーヨウシエンゾーレンゴンスー,0
1143,4700150115622,新規,0,2023-04-21,2023-04-21,Ｚｈｅｊｉａｎｇ　Ｔｏｐｓｕｎ　Ｄｉｇｉｔａｌ　Ｔｅｃｈｎｏｌｏｇｙ　Ｃｏ．，Ｌｔｄ,,外国会社等,,,,,,,,Ｒｏｏｍ　１１０１－１，Ｂｕｉｌｄｉｎｇ　１７，Ｎｏ．１００８　Ｘｉａｎｇｘｉａｎｇ　Ｓｔｒｅｅｔ，Ｃａｎｇｑｉａｎ　Ｓｔｒｅｅｔ，Ｈａｎｇｚｈｏｕ　Ｙｕｈａｎｇｑｕ　Ｚｈｅｊｉａｎｇ　３１１１２１　ＣＮ,,,,,,2023-04-21,1,,,,,ジョージャンタイプーセンシューズーコージーヨウシエンゴンスー,0
1144,4700150115663,新規,0,2023-04-21,2023-04-21,シダー取引先持株会,,その他,福岡県,北九州市小倉北区,足立２丁目１番１号,,40,106,8020042,,,,,,,2023-04-21,1,,,,,シダートリヒキサキモチカブカイ,0
1152,5010001234657,新規,0,2023-04-21,2023-04-21,青島泰成株式会社,,株式会社,東京都,中央区,築地７丁目７番２－１１０２号,,13,102,1040045,,,,,,,2023-04-21,1,,,,,チンタオタイセイ,0
1153,5010001234665,新規,0,2023-04-21,2023-04-21,株式会社クオントフロウ,,株式会社,東京都,千代田区,九段南１丁目５番６号りそな九段ビル５階ＫＳフロア３１６２,,13,101,1020074,,,,,,,2023-04-21,1,,,,,クオントフロウ,0
1154,5010001234681,新規,0,2023-04-21,2023-04-21,株式会社ベネフィット・ソリューションズ,,株式会社,東京都,中央区,銀座１丁目１２番４号Ｎ＆ＥＢＬＤ．７階,,13,102,1040061,,,,,,,2023-04-21,1,,,,,ベネフィットソリューションズ,0
1155,5010001234698,新規,0,2023-04-21,2023-04-21,Ｃｉｓｃｏ株式会社,,株式会社,東京都,中央区,銀座１丁目２２番１１号銀座大竹ビジデンス２Ｆ,,13,102,1040061,,,,,,,2023-04-21,1,,,,,シスコ,0
1156,5010001234707,新規,0,2023-04-21,2023-04-21,ＭＳＫ少額短期設立準備株式会社,,株式会社,東京都,千代田区,神田駿河台３丁目９番地,,13,101,1010062,,,,,,,2023-04-21,1,,,,,エムエスケーショウガクタンキセツリツジュンビ,0
1159,5010003040392,新規,0,2023-04-21,2023-04-21,カメリア合同会社,,合同会社,東京都,千代田区,神田三崎町２丁目１０－１１ｐｅｇビル６Ｂ－５,,13,101,1010061,,,,,,,2023-04-21,1,,,,,カメリア,0
1160,5010003040418,新規,0,2023-04-21,2023-04-21,アストロ・フォーティーン合同会社,,合同会社,東京都,中央区,銀座１丁目６番１１号土志田ビルディング３Ｆ,,13,102,1040061,,,,,,,2023-04-21,1,,,,,アストロフォーティーン,0
1167,5010401173827,新規,0,2023-04-21,2023-04-21,ＦＯＲＥＳＴ　ＲＥＣＯＲＤ　ＰＡＲＴＮＥＲ株式会社,,株式会社,東京都,港区,西新橋１丁目１０番１号日美ビル４階,,13,103,1050003,,,,,,,2023-04-21,1,,,,,フォレストレコードパートナー,0
1173,5010405022022,新規,0,2023-04-21,2023-04-21,スマートハイムシティつくば春日団地管理組合法人,,その他の設立登記法人,東京都,港区,虎ノ門２丁目１０－４,,13,103,1050001,,,,,,,2023-04-21,1,,,,,スマートハイムシティツクバカスガ,0
1180,5010501050315,新規,0,2023-04-21,2023-04-21,東勝株式会社,,株式会社,東京都,台東区,上野４丁目２１番８号,,13,106,1100005,,,,,,,2023-04-21,1,,,,,トウショウ,0
1185,5010701044158,新規,0,2023-04-21,2023-04-21,ＥＩＧ株式会社,,株式会社,東京都,品川区,戸越５丁目１７番１６号ＴＲＩＡＳ５１７－１０３号室,,13,109,1420041,,,,,,,2023-04-21,1,,,,,イーアイジー,0
1204,5011001153954,新規,0,2023-04-21,2023-04-21,株式会社ｎｅｉｇｈｂｏｒ,,株式会社,東京都,渋谷区,渋谷３丁目６番２号エクラート渋谷,,13,113,1500002,,,,,,,2023-04-21,1,,,,,ネイバー,0
1205,5011003016705,新規,0,2023-04-21,2023-04-21,合同会社ＬＩＡＮＧ,,合同会社,東京都,渋谷区,桜丘町２５番１７号,,13,113,1500031,,,,,,,2023-04-21,1,,,,,リアン,0
1214,5011101102621,新規,0,2023-04-21,2023-04-21,株式会社ＫＵＵ,,株式会社,東京都,新宿区,西新宿３丁目３番１３号,,13,104,1600023,,,,,,,2023-04-21,1,,,,,クウ,0
1216,5011103012959,新規,0,2023-04-21,2023-04-21,福栄合同会社,,合同会社,東京都,新宿区,富久町１１番５－１０７号,,13,104,1620067,,,,,,,2023-04-21,1,,,,,フクエイ,0
1217,5011103012967,新規,0,2023-04-21,2023-04-21,合同会社ａｃｔｂａｓｅ,,合同会社,東京都,新宿区,西新宿３丁目３番１３号西新宿水間ビル２Ｆ,,13,104,1600023,,,,,,,2023-04-21,1,,,,,アクトベース,0
1222,5011301028641,新規,0,2023-04-21,2023-04-21,株式会社ミモザブックス,,株式会社,東京都,杉並区,西荻北２丁目３－９コメットビル６Ｆ,,13,115,1670042,,,,,,,2023-04-21,1,,,,,ミモザブックス,0
1223,5011303004731,新規,0,2023-04-21,2023-04-21,ＯＴＩＳ　ＡＲＴ　ＩＮＴＥＲＩＯＲ合同会社,,合同会社,東京都,杉並区,和田３丁目５０－９ハマハウス１棟１階,,13,115,1660012,,,,,,,2023-04-21,1,,,,,オーティスアートインテリア,0
1226,5011601026758,新規,0,2023-04-21,2023-04-21,堂領電気株式会社,,株式会社,東京都,練馬区,上石神井３丁目１０番１０号,,13,120,1770044,,,,,,,2023-04-21,1,,,,,ドウリョウデンキ,0
1231,5011801042266,新規,0,2023-04-21,2023-04-21,株式会社エムケー,,株式会社,東京都,足立区,西新井１丁目１番１５－１３０７号,,13,121,1230841,,,,,,,2023-04-21,1,,,,,エムケー,0
1232,5011801042274,新規,0,2023-04-21,2023-04-21,株式会社眞和,,株式会社,東京都,足立区,千住曙町５－２小室荘２０１,,13,121,1200023,,,,,,,2023-04-21,1,,,,,シンワ,0
1240,5013101009152,新規,0,2023-04-21,2023-04-21,株式会社ＳＫＢひまわり保険,,株式会社,東京都,西多摩郡瑞穂町,南平１丁目７番地１６,,13,303,1901224,,,,,,,2023-04-21,1,,,,,エスケービーヒマワリホケン,0
1252,5020001151249,新規,0,2023-04-21,2023-04-21,シニアホームラボ株式会社,,株式会社,神奈川県,横浜市港北区,小机町１７５番地２２,,14,109,2220036,,,,,,,2023-04-21,1,,,,,シニアホームラボ,0
1253,5020001151265,新規,0,2023-04-21,2023-04-21,株式会社ＭＡＮＴＥＥ,,株式会社,神奈川県,横浜市緑区,霧が丘１丁目１７番地１２,,14,113,2260016,,,,,,,2023-04-21,1,,,,,マンティー,0
1254,5020001151273,新規,0,2023-04-21,2023-04-21,株式会社Ｋ＆Ｍ,,株式会社,神奈川県,横浜市中区,元町１丁目２４番地１６ＫＫＲ３０２号室,,14,104,2310861,,,,,,,2023-04-21,1,,,,,ケーアンドエム,0
1262,5030001153392,新規,0,2023-04-21,2023-04-21,ＢＡＨＵ　ＩＮＴＥＲＮＡＴＩＯＮＡＬ株式会社,,株式会社,埼玉県,久喜市,菖蒲町新堀２０３４番地６－４－Ｂ－１号,,11,232,3460105,,,,,,,2023-04-21,1,,,,,バフインターナショナル,0
1263,5030001153491,新規,0,2023-04-21,2023-04-21,株式会社アルバミクス,,株式会社,埼玉県,戸田市,大字新曽２２２０番地の１,,11,224,3350021,,,,,,,2023-04-21,1,,,,,アルバミクス,0
1264,5030001153541,新規,0,2023-04-21,2023-04-21,株式会社クゥーア,,株式会社,埼玉県,春日部市,米島２５６番地３,,11,214,3440115,,,,,,,2023-04-21,1,,,,,クゥーア,0
1268,5030003021572,新規,0,2023-04-21,2023-04-21,ＤＩＳＳＡＮＡＹＡＫＡ合同会社,,合同会社,埼玉県,坂戸市,花影町７番２５号ＫＩＶオフィス花影Ｄ号室,,11,239,3500236,,,,,,,2023-04-21,1,,,,,ディサナヤカ,0
1269,5030003021614,新規,0,2023-04-21,2023-04-21,合同会社ＴｅｃｈＦｉｎｎｅｒ,,合同会社,埼玉県,新座市,栗原１丁目６番１６－４０８号,,11,230,3520035,,,,,,,2023-04-21,1,,,,,テックファイナー,0
1270,5030003021622,新規,0,2023-04-21,2023-04-21,合同会社Ｓ‐ｍｙｓｔｙｌｅ,,合同会社,埼玉県,さいたま市北区,別所町４４番地大宮別所団地６号棟４号室,,11,102,3310821,,,,,,,2023-04-21,1,,,,,エスマイスタイル,0
1271,5030003021630,新規,0,2023-04-21,2023-04-21,ニホンノミライ合同会社,,合同会社,埼玉県,蕨市,南町３丁目２２番１５－２０２号,,11,223,3350003,,,,,,,2023-04-21,1,,,,,ニホンノミライ,0
1272,5030003021647,新規,0,2023-04-21,2023-04-21,合同会社アシスト,,合同会社,埼玉県,草加市,松江１丁目８番４－５０６号,,11,221,3400013,,,,,,,2023-04-21,1,,,,,アシスト,0
1276,5040001128063,新規,0,2023-04-21,2023-04-21,株式会社アシスト,,株式会社,千葉県,市原市,姉崎１０５１番地４,,12,219,2990111,,,,,,,2023-04-21,1,,,,,アシスト,0
1282,5060003004525,新規,0,2023-04-21,2023-04-21,ＬＡＭＡ　ＴＲＡＤＥＲＳ合同会社,,合同会社,栃木県,栃木市,岩舟町新里１３０４番地５０号室,,09,203,3294316,,,,,,,2023-04-21,1,,,,,ラマトレーダーズ,0
1290,5080101023937,新規,0,2023-04-21,2023-04-21,株式会社ＣＡＰＴＡＩＮ　ＧＬＯＢＡＬ　ＰＡＲＴＮＥＲＳ,,株式会社,静岡県,田方郡函南町,平井１７５３番地の４９南箱根ダイヤランド１５－２４０,,22,325,4190107,,,,,,,2023-04-21,1,,,,,キャプテングローバルパートナーズ,0
1291,5080101023945,新規,0,2023-04-21,2023-04-21,株式会社望月林業,,株式会社,静岡県,富士宮市,小泉１８９３番地の１２,,22,207,4180022,,,,,,,2023-04-21,1,,,,,モチヅキリンギョウ,0
1303,5110003005030,新規,0,2023-04-21,2023-04-21,合同会社ナチュラル・グローリー,,合同会社,新潟県,南魚沼市,宮野下２４３番地,,15,226,9496365,,,,,,,2023-04-21,1,,,,,ナチュラルグローリー,0
1304,5110005016934,新規,0,2023-04-21,2023-04-21,医療法人社団聴風歌,,その他の設立登記法人,新潟県,長岡市,旭岡１丁目２９番地３,,15,202,9400840,,,,,,,2023-04-21,1,,,,,チョウフウカ,0
1315,5120001254248,新規,0,2023-04-21,2023-04-21,株式会社ＢＥＬＬＥ,,株式会社,大阪府,大阪市淀川区,西中島３丁目１７番５号,,27,123,5320011,,,,,,,2023-04-21,1,,,,,ベル,0
1316,5120001254280,新規,0,2023-04-21,2023-04-21,株式会社ホームベース,,株式会社,大阪府,大阪市天王寺区,上汐３丁目４番１５－４０１号,,27,109,5430002,,,,,,,2023-04-21,1,,,,,ホームベース,0
1317,5120001254297,新規,0,2023-04-21,2023-04-21,純小鉄株式会社,,株式会社,大阪府,大阪市淀川区,西中島６丁目３－３２第２新大阪ビル１０５号,,27,123,5320011,,,,,,,2023-04-21,1,,,,,ジュンコテツ,0
1318,5120001254314,新規,0,2023-04-21,2023-04-21,智真株式会社,,株式会社,大阪府,大阪市中央区,島之内１丁目４番３０号２階６号室,,27,128,5420082,,,,,,,2023-04-21,1,,,,,チシン,0
1319,5120001254322,新規,0,2023-04-21,2023-04-21,株式会社ウィズ,,株式会社,大阪府,大阪市東淀川区,東中島２丁目８番６号新大阪駅前ビル,,27,114,5330033,,,,,,,2023-04-21,1,,,,,ウィズ,0
1320,5120001254330,新規,0,2023-04-21,2023-04-21,株式会社サイクル・パワー研究所,,株式会社,大阪府,大阪市中央区,西心斎橋１丁目１０番１９号,,27,128,5420086,,,,,,,2023-04-21,1,,,,,サイクルパワーケンキュウショ,0
1321,5120003023907,新規,0,2023-04-21,2023-04-21,合同会社サイズＫ,,合同会社,大阪府,守口市,東郷通３丁目２番２２号,,27,209,5700041,,,,,,,2023-04-21,1,,,,,サイズケイ,0
1324,5120005023558,新規,0,2023-04-21,2023-04-21,一般社団法人ＬＩＴＡ,,その他の設立登記法人,大阪府,大阪市北区,中崎西４丁目２番２５－９０３,,27,127,5300015,,,,,,,2023-04-21,1,,,,,リタ,0
1334,5120903004601,新規,0,2023-04-21,2023-04-21,合同会社Ｋ．ＭＡＳＨＩＲＯ,,合同会社,大阪府,高槻市,城北町２丁目６－１３－３０３,,27,207,5690071,,,,,,,2023-04-21,1,,,,,ケードットマシロ,0
1340,5130001074141,新規,0,2023-04-21,2023-04-21,株式会社古都葉,,株式会社,京都府,京都市左京区,高野玉岡町１番地１３４,,26,103,6068106,,,,,,,2023-04-21,1,,,,,コトハ,0
1341,5130003008675,新規,0,2023-04-21,2023-04-21,島津サステナビリティ合同会社,,合同会社,京都府,京都市左京区,北白川上池田町３８,,26,103,6068287,,,,,,,2023-04-21,1,,,,,シマヅサステナビリティ,0
1345,5140001129893,新規,0,2023-04-21,2023-04-21,株式会社王の工房,,株式会社,兵庫県,神戸市東灘区,御影中町８丁目１番１３号エスハイムＮｏ．３、２０１号,,28,101,6580054,,,,,,,2023-04-21,1,,,,,オウノコウボウ,0
1346,5140001129927,新規,0,2023-04-21,2023-04-21,株式会社天咲ソリューション,,株式会社,兵庫県,尼崎市,神田中通２丁目２７番地の１９,,28,202,6600884,,,,,,,2023-04-21,1,,,,,アマサキソリューション,0
1349,5140003019003,新規,0,2023-04-21,2023-04-21,ＶＲＩＪＨＥＩＤ合同会社,,合同会社,兵庫県,神戸市垂水区,星陵台１丁目２番７号パレス星陵台１Ｆ,,28,108,6550038,,,,,,,2023-04-21,1,,,,,フライハイ,0
1350,5140003019011,新規,0,2023-04-21,2023-04-21,合同会社Ａ　ｐｌｕｓ,,合同会社,兵庫県,西宮市,木津山町１１－１１ＡＸＩＳクォーターバレル木津山２０３,,28,204,6620062,,,,,,,2023-04-21,1,,,,,エープラス,0
1352,5150001026330,新規,0,2023-04-21,2023-04-21,株式会社ＤＡＩＳＨＯＫＵ,,株式会社,奈良県,磯城郡田原本町,大字八田４８５番地の１,,29,363,6360221,,,,,,,2023-04-21,1,,,,,ダイショク,0
1353,5150003002940,新規,0,2023-04-21,2023-04-21,アルフォンソジャパン合同会社,,合同会社,奈良県,大和郡山市,九条町２３７番地２アーバンライフ７０６号,,29,203,6391001,,,,,,,2023-04-21,1,,,,,アルフォンソジャパン,0
1361,5180001155944,新規,0,2023-04-21,2023-04-21,株式会社ＴＫＤ　Ｎａｇｏｙａ,,株式会社,愛知県,名古屋市中区,栄１丁目２３番２９号伏見ポイントビル３階,,23,106,4600008,,,,,,,2023-04-21,1,,,,,ティーケーディーナゴヤ,0
1362,5180001155993,新規,0,2023-04-21,2023-04-21,株式会社ＡＲＣ　ＭＩＲＡＩ,,株式会社,愛知県,名古屋市北区,大曽根３丁目１７番２７号アクロスキューブ大曽根３階,,23,103,4620825,,,,,,,2023-04-21,1,,,,,アークミライ,0
1363,5180001156001,新規,0,2023-04-21,2023-04-21,建築工房杉株式会社,,株式会社,愛知県,小牧市,大字久保一色１６７３番地２,,23,219,4850003,,,,,,,2023-04-21,1,,,,,ケンチクコウボウスギ,0
1379,5220001025374,新規,0,2023-04-21,2023-04-21,株式会社マルユウ,,株式会社,石川県,能美市,緑が丘４丁目２０９番地,,17,211,9231226,,,,,,,2023-04-21,1,,,,,マルユウ,0
1391,5240005015568,新規,0,2023-04-21,2023-04-21,井口台パークヒルズ弐番館管理組合法人,,その他の設立登記法人,広島県,広島市西区,井口台３丁目３５番２号,,34,104,7330844,,,,,,,2023-04-21,1,,,,,イノクチダイパークヒルズニバンカン,0
1393,5260001037878,新規,0,2023-04-21,2023-04-21,三要電熱ホールディングス株式会社,,株式会社,岡山県,岡山市中区,平井６丁目１１番２４号,,33,102,7038282,,,,,,,2023-04-21,1,,,,,サンヨウデンネツホールディングス,0
1407,5320001019713,新規,0,2023-04-21,2023-04-21,株式会社ＭＹ企画,,株式会社,大分県,大分市,大字下原１５８７番地,,44,201,8701213,,,,,,,2023-04-21,1,,,,,エムワイキカク,0
1408,5320003004069,新規,0,2023-04-21,2023-04-21,ＡＱＵＡ合同会社,,合同会社,大分県,竹田市,大字下志土知６番地２の１,,44,208,8780152,,,,,,,2023-04-21,1,,,,,アクア,0
1414,5340001025528,新規,0,2023-04-21,2023-04-21,株式会社エスアイテック,,株式会社,鹿児島県,指宿市,開聞仙田１９１７番地１,,46,210,8910604,,,,,,,2023-04-21,1,,,,,エスアイテック,0
1416,5350001018316,新規,0,2023-04-21,2023-04-21,株式会社クレセール,,株式会社,宮崎県,宮崎市,橘通東３丁目４番３３号,,45,201,8800805,,,,,,,2023-04-21,1,,,,,クレセール,0
1424,5380001033634,新規,0,2023-04-21,2023-04-21,東海測量設計株式会社,,株式会社,福島県,南相馬市,原町区大町２丁目１０６番地,,07,212,9750001,,,,,,,2023-04-21,1,,,,,トウカイソクリョウセッケイ,0
1433,5460105002262,新規,0,2023-04-21,2023-04-21,一般社団法人コスモス森の学舎,,その他の設立登記法人,北海道,帯広市,西十条南１丁目１０番地３,,01,207,0800020,,,,,,,2023-04-21,1,,,,,コスモスモリノガクシャ,0
1439,5700150115613,新規,0,2023-04-21,2023-04-21,ＹＩＣＨＡＮＧＳＨＩＣＯＮＧＴＥＮＧＤＩＡＮＺＩＳＨＡＮＧＷＵＹＯＵＸＩＡＮＧＯＮＧＳＩ,,外国会社等,,,,,,,,Ｄａｎｇｙａｎｇｓｈｉ　ＹｕｙａｎｇｊｉｅｄａｏＤｏｎｇｑｕｎｃｕｎ　Ｓａｎｚｕ３０３ｓｈｉ　Ｙｉｃｈａｎｇｓｈｉ　Ｈｕｂｅｉｓｈｅｎｇ　４４４１００　ＣＮ,,,,,,2023-04-21,1,,,,,イーチャンシーツォントンディエンズーシャンウーヨウシエンゴンスー,0
1440,5700150115621,新規,0,2023-04-21,2023-04-21,ｓｈｅｎｚｈｅｎｓｈｉｂａｉｂｏｌｖｙｏｕｙｏｎｇｐｉｎｙｏｕｘｉａｎｇｏｎｇｓｉ,,外国会社等,,,,,,,,ｓｈｅｎ　ｚｈｅｎ　ｓｈｉ　ｌｏｎｇ　ｇａｎｇ　ｑｕ　ｐｉｎｇ　ｈｕ　ｊｉｅ　ｄａｏ　ｈｅ　ｈｕａ　ｓｈｅ　ｑｕ　ｆｕ　ｋａｎｇ　ｌｕ　６　ｈａｏ　ｓｈｅｎ　ｙｅ　ｗｕ　ｌｉｕ　ｐｉｎｇ　ｈｕ　ｚｈｏｎｇ　ｘｉｎ　ｆａｎｇ　Ｂ（ｂａｏ　ｎｅｎｇ　ｚｈｉ　ｃｈｕａｎｇ　ｇｕ　Ｂ　ｄｏｎｇ）６Ａ０１,,,,,,2023-04-21,1,,,,,シェンジェンシーボーボーリーヨウヨンピンヨウシエンゴンスー,0
1445,6010001234714,新規,0,2023-04-21,2023-04-21,株式会社ＭＹＮＥＳＴ,,株式会社,東京都,千代田区,六番町６番４号,,13,101,1020085,,,,,,,2023-04-21,1,,,,,マイネスト,0
1446,6010003040400,新規,0,2023-04-21,2023-04-21,ワンダーカンマー合同会社,,合同会社,東京都,中央区,銀座１丁目２２番１１号銀座大竹ビジデンス２Ｆ,,13,102,1040061,,,,,,,2023-04-21,1,,,,,ワンダーカンマー,0
1447,6010003040417,新規,0,2023-04-21,2023-04-21,アストロ・サーティーン合同会社,,合同会社,東京都,中央区,銀座１丁目６番１１号土志田ビルディング３Ｆ,,13,102,1040061,,,,,,,2023-04-21,1,,,,,アストロサーティーン,0
1452,6010103002127,新規,0,2023-04-21,2023-04-21,合同会社トレードワークス,,合同会社,東京都,八王子市,大谷町１０４３－番地４３,,13,201,1920034,,,,,,,2023-04-21,1,,,,,トレードワークス,0
1458,6010501050339,新規,0,2023-04-21,2023-04-21,東田株式会社,,株式会社,東京都,台東区,台東１丁目２４番９号ブライト秋葉原２Ｆ,,13,106,1100016,,,,,,,2023-04-21,1,,,,,トウデン,0
1466,6010601062985,新規,0,2023-04-21,2023-04-21,株式会社徳泉,,株式会社,東京都,江東区,豊洲５丁目１番１３－３８０７号,,13,108,1350061,,,,,,,2023-04-21,1,,,,,トクイズミ,0
1475,6011001153961,新規,0,2023-04-21,2023-04-21,株式会社Ｉｎｔｅｒｖｅｎｔｉｏｎ　Ｆｏｒｗａｒｄ,,株式会社,東京都,渋谷区,広尾４丁目２－１４－１０１,,13,113,1500012,,,,,,,2023-04-21,1,,,,,インターベンションフォワード,0
1476,6011003016704,新規,0,2023-04-21,2023-04-21,Ｒａｉｓｅ　Ｌａｂｏ合同会社,,合同会社,東京都,渋谷区,神宮前６丁目２３番４号桑野ビル２階,,13,113,1500001,,,,,,,2023-04-21,1,,,,,レイズラボ,0
1477,6011003016712,新規,0,2023-04-21,2023-04-21,合同会社Ｆｌｏｄｇｅ,,合同会社,東京都,渋谷区,神泉町１０番１５号,,13,113,1500045,,,,,,,2023-04-21,1,,,,,フロッジ,0
1483,6011101102612,新規,0,2023-04-21,2023-04-21,株式会社韓佳,,株式会社,東京都,新宿区,富久町１７番１－４１３号,,13,104,1620067,,,,,,,2023-04-21,1,,,,,カンケイ,0
1484,6011101102645,新規,0,2023-04-21,2023-04-21,株式会社ＰＩＰＯＰＯＮ,,株式会社,東京都,新宿区,百人町２丁目１３－１浜谷ビル２０１,,13,104,1690073,,,,,,,2023-04-21,1,,,,,ピポポン,0
1487,6011103012974,新規,0,2023-04-21,2023-04-21,合同会社ＹＥＬＯ,,合同会社,東京都,新宿区,新宿１丁目３２番３－３０２号,,13,104,1600022,,,,,,,2023-04-21,1,,,,,イエロ,0
1489,6011201024599,新規,0,2023-04-21,2023-04-21,サイキエイアイ株式会社,,株式会社,東京都,中野区,江古田２丁目２１番３号ハイツベルナール,,13,114,1650022,,,,,,,2023-04-21,1,,,,,サイキエイアイ,0
1490,6011205002551,新規,0,2023-04-21,2023-04-21,一般社団法人ＡＧＲＥＮＯ,,その他の設立登記法人,東京都,中野区,新井４丁目１３番２３－３１２号,,13,114,1650026,,,,,,,2023-04-21,1,,,,,アグレノ,0
1491,6011301028640,新規,0,2023-04-21,2023-04-21,泰昌達株式会社,,株式会社,東京都,杉並区,梅里２丁目２５番１３号,,13,115,1660011,,,,,,,2023-04-21,1,,,,,タイショウタツ,0
1492,6011301028649,新規,0,2023-04-21,2023-04-21,鳳和株式会社,,株式会社,東京都,杉並区,今川１丁目１２番２１号,,13,115,1670035,,,,,,,2023-04-21,1,,,,,ホウワ,0
1496,6011601026757,新規,0,2023-04-21,2023-04-21,トレーディングファーム株式会社,,株式会社,東京都,練馬区,大泉町３丁目２番７号,,13,120,1780062,,,,,,,2023-04-21,1,,,,,トレーディングファーム,0
1498,6011801042265,新規,0,2023-04-21,2023-04-21,ＩＱＯＬ株式会社,,株式会社,東京都,足立区,中川３丁目２９番８号,,13,121,1200002,,,,,,,2023-04-21,1,,,,,イコール,0
1499,6011801042281,新規,0,2023-04-21,2023-04-21,株式会社ＡＫＩＲＡＩ,,株式会社,東京都,葛飾区,新小岩３丁目２０番７号,,13,122,1240024,,,,,,,2023-04-21,1,,,,,アキライ,0
1506,6012403005949,新規,0,2023-04-21,2023-04-21,Ａｎｎｉｅ合同会社,,合同会社,東京都,調布市,布田２丁目２１番地７調布シュロス１０７,,13,208,1820024,,,,,,,2023-04-21,1,,,,,アニー,0
1510,6013301050657,新規,0,2023-04-21,2023-04-21,謙信家株式会社,,株式会社,東京都,豊島区,池袋本町２丁目７番１号メゾン池袋４１５,,13,116,1700011,,,,,,,2023-04-21,1,,,,,ケンシンカ,0
1512,6013305003462,新規,0,2023-04-21,2023-04-21,特定非営利活動法人ないｘない,,その他の設立登記法人,東京都,豊島区,西池袋５丁目１番３号メトロシティ２Ｆ,,13,116,1710021,,,,,,,2023-04-21,1,,,,,ナイトナイ,0
1522,6020001151181,新規,0,2023-04-21,2023-04-21,きずな株式会社,,株式会社,神奈川県,横浜市西区,みなとみらい６丁目３－４,,14,103,2200012,,,,,,,2023-04-21,1,,,,,キズナ,0
1523,6020001151207,新規,0,2023-04-21,2023-04-21,株式会社丸吾,,株式会社,神奈川県,川崎市宮前区,宮崎１丁目１２番地１１グリーンヒルズ宮崎台Ｂ１０１,,14,136,2160033,,,,,,,2023-04-21,1,,,,,マルゴ,0
1524,6020001151272,新規,0,2023-04-21,2023-04-21,株式会社ミライ,,株式会社,神奈川県,横浜市泉区,下飯田町６７５番地５,,14,116,2450017,,,,,,,2023-04-21,1,,,,,ミライ,0
1526,6020003023767,新規,0,2023-04-21,2023-04-21,横浜クローバー合同会社,,合同会社,神奈川県,横浜市港北区,篠原台町２４番１５－１号,,14,109,2220024,,,,,,,2023-04-21,1,,,,,ヨコハマクローバー,0
1527,6020003023791,新規,0,2023-04-21,2023-04-21,合同会社ユニ・サース,,合同会社,神奈川県,横浜市西区,北幸２丁目１０番地２８むつみビル３階,,14,103,2200004,,,,,,,2023-04-21,1,,,,,ユニサース,0
1534,6021001078786,新規,0,2023-04-21,2023-04-21,株式会社ＳＡＭＥＥＲＡ,,株式会社,神奈川県,茅ヶ崎市,円蔵２０１７番地４,,14,207,2530084,,,,,,,2023-04-21,1,,,,,サミーラ,0
1535,6021001078794,新規,0,2023-04-21,2023-04-21,株式会社Ｎ・Ｓ・Ｓ・Ｋ,,株式会社,神奈川県,小田原市,蓮正寺５９０番地２２,,14,206,2500865,,,,,,,2023-04-21,1,,,,,エヌエスエスケイ,0
1539,6021005012799,新規,0,2023-04-21,2023-04-21,Ｓ・Ｏ土地家屋調査士法人,,その他の設立登記法人,神奈川県,横須賀市,日の出町１丁目１３番地２８ＳＴＭ横須賀２０４,,14,201,2380006,,,,,,,2023-04-21,1,,,,,エスオー,0
1544,6030001153391,新規,0,2023-04-21,2023-04-21,杜都貿易株式会社,,株式会社,埼玉県,久喜市,菖蒲町新堀２０３４番地６－４－Ａ－１号,,11,232,3460105,,,,,,,2023-04-21,1,,,,,モリトボウエキ,0
1545,6030001153482,新規,0,2023-04-21,2023-04-21,株式会社ＳＥＮＡ,,株式会社,埼玉県,深谷市,上野台１４番地１,,11,218,3660801,,,,,,,2023-04-21,1,,,,,セナ,0
1546,6030001153499,新規,0,2023-04-21,2023-04-21,株式会社Ｓｏｌａｎａ,,株式会社,埼玉県,さいたま市見沼区,大字東新井７１０番地５０号,,11,104,3370032,,,,,,,2023-04-21,1,,,,,ソラナ,0
1547,6030001153508,新規,0,2023-04-21,2023-04-21,株式会社卿,,株式会社,埼玉県,川口市,青木２丁目１１番１－２１０号サニークレスト川口,,11,203,3320031,,,,,,,2023-04-21,1,,,,,キョウ,0
1548,6030001153516,新規,0,2023-04-21,2023-04-21,株式会社フィールド１０,,株式会社,埼玉県,本庄市,小島南３丁目９－１５,,11,211,3670062,,,,,,,2023-04-21,1,,,,,フィールドテン,0
1549,6030001153540,新規,0,2023-04-21,2023-04-21,Ｓｐｒｉｎｇｆｉｅｌｄ株式会社,,株式会社,埼玉県,本庄市,柏１丁目３番４号本庄スカイハイツＢ棟５１２,,11,211,3670045,,,,,,,2023-04-21,1,,,,,スプリングフィールド,0
1550,6030001153549,新規,0,2023-04-21,2023-04-21,株式会社ＦＩＲＳＴ,,株式会社,埼玉県,春日部市,東中野１１８８番地７,,11,214,3440114,,,,,,,2023-04-21,1,,,,,ファースト,0
1552,6030003021621,新規,0,2023-04-21,2023-04-21,合同会社小菅工業,,合同会社,埼玉県,川口市,大字峯８２番地の１５,,11,203,3340056,,,,,,,2023-04-21,1,,,,,コスゲコウギョウ,0
1554,6040001128038,新規,0,2023-04-21,2023-04-21,株式会社Ｓｔｒａｉｇｈｔ,,株式会社,千葉県,千葉市中央区,大森町２５４－１０,,12,101,2600811,,,,,,,2023-04-21,1,,,,,ストレート,0
1555,6040001128062,新規,0,2023-04-21,2023-04-21,株式会社イメージボード,,株式会社,千葉県,千葉市中央区,浜野町１１９９番地４,,12,101,2600824,,,,,,,2023-04-21,1,,,,,イメージボード,0
1556,6040001128079,新規,0,2023-04-21,2023-04-21,ラクファースト株式会社,,株式会社,千葉県,市原市,東国分寺台４丁目７番地２１,,12,219,2900074,,,,,,,2023-04-21,1,,,,,ラクファースト,0
1557,6040001128087,新規,0,2023-04-21,2023-04-21,株式会社スリーポイント,,株式会社,千葉県,船橋市,本町４丁目３９－２グレイスコートアサヒ２０２,,12,204,2730005,,,,,,,2023-04-21,1,,,,,スリーポイント,0
1562,6040003022453,新規,0,2023-04-21,2023-04-21,合同会社Ｄｅｎｕｗａｎ　ｊａｐａｎ　ｅｎｔｅｒｐｒｉｓｅｓ,,合同会社,千葉県,香取郡神崎町,郡１０８３番地１リッチワンズ２０３,,12,342,2890202,,,,,,,2023-04-21,1,,,,,デヌワンジャパンエンタープライゼズ,0
1563,6040003022461,新規,0,2023-04-21,2023-04-21,Ｄ．Ｄ．ＳＡＫＵＲＡ　ＴＲＡＤＩＮＧ合同会社,,合同会社,千葉県,八街市,砂６１８番地,,12,230,2891121,,,,,,,2023-04-21,1,,,,,ディディサクラトレーディング,0
1564,6040005021965,新規,0,2023-04-21,2023-04-21,一般社団法人翠咲会,,その他の設立登記法人,千葉県,浦安市,東野１丁目１０番９号レクセル新浦安第２－３０９号,,12,227,2790042,,,,,,,2023-04-21,1,,,,,スイショウカイ,0
1569,6060001035926,新規,0,2023-04-21,2023-04-21,株式会社ＡＲＡＴＡ,,株式会社,栃木県,宇都宮市,西川田２丁目２番４号,,09,201,3210152,,,,,,,2023-04-21,1,,,,,アラタ,0
1572,6060003004524,新規,0,2023-04-21,2023-04-21,ＧＵＲＵＮＧ合同会社,,合同会社,栃木県,栃木市,岩舟町新里１３０４番地４５号室,,09,203,3294316,,,,,,,2023-04-21,1,,,,,グルング,0
1573,6070001040355,新規,0,2023-04-21,2023-04-21,株式会社サイフル,,株式会社,群馬県,太田市,東本町２２番９号,,10,205,3730026,,,,,,,2023-04-21,1,,,,,サイフル,0
1587,6110001037462,新規,0,2023-04-21,2023-04-21,株式会社ＨＡＳＥ企画,,株式会社,新潟県,三条市,下須頃１７２番地パストラル須頃１０５号,,15,204,9550093,,,,,,,2023-04-21,1,,,,,ハセキカク,0
1589,6110005016933,新規,0,2023-04-21,2023-04-21,一般社団法人村杉温泉,,その他の設立登記法人,新潟県,阿賀野市,村杉３９４６番地６,,15,223,9591928,,,,,,,2023-04-21,1,,,,,ムラスギオンセン,0
1601,6120001254263,新規,0,2023-04-21,2023-04-21,株式会社Ｍ　Ｋｉｎｇ,,株式会社,大阪府,大阪市中央区,松屋町住吉５－１５－７０３,,27,128,5400017,,,,,,,2023-04-21,1,,,,,エムキング,0
1602,6120001254321,新規,0,2023-04-21,2023-04-21,興亜日研株式会社,,株式会社,大阪府,大阪市東住吉区,照ケ丘矢田３丁目１９番１１号,,27,121,5460021,,,,,,,2023-04-21,1,,,,,コウアニッケン,0
1606,6120003023906,新規,0,2023-04-21,2023-04-21,合同会社ネクサス,,合同会社,大阪府,大阪市生野区,桃谷２丁目５番２５号,,27,116,5440034,,,,,,,2023-04-21,1,,,,,ネクサス,0
1610,6120101067417,新規,0,2023-04-21,2023-04-21,鳳林貿易株式会社,,株式会社,大阪府,岸和田市,流木町１２２９番地,,27,202,5960835,,,,,,,2023-04-21,1,,,,,ホウリンボウエキ,0
1621,6130001074173,新規,0,2023-04-21,2023-04-21,株式会社ＩＣＨＩＨＡＲＡ,,株式会社,京都府,京都市山科区,小野鐘付田町２－７－３階,,26,110,6078261,,,,,,,2023-04-21,1,,,,,イチハラ,0
1628,6140001129926,新規,0,2023-04-21,2023-04-21,株式会社ＢＥＷＥＩＳ,,株式会社,兵庫県,神戸市兵庫区,梅元町１６－３９,,28,105,6520003,,,,,,,2023-04-21,1,,,,,ベワイス,0
1629,6140003019010,新規,0,2023-04-21,2023-04-21,合同会社ＭｅｍｏｒｉａＶｉｔａｅ,,合同会社,兵庫県,神戸市須磨区,権現町３丁目８番１号,,28,107,6540031,,,,,,,2023-04-21,1,,,,,メモリアヴィーテ,0
1639,6180001155951,新規,0,2023-04-21,2023-04-21,Ｓプランニング株式会社,,株式会社,愛知県,名古屋市昭和区,檀渓通四丁目３８番地,,23,107,4660000,,,,,,,2023-04-21,1,,,,,エスプランニング,0
1640,6180001155968,新規,0,2023-04-21,2023-04-21,株式会社リアル,,株式会社,愛知県,名古屋市東区,泉３丁目１７番１０号,,23,102,4610001,,,,,,,2023-04-21,1,,,,,リアル,0
1648,6190001030352,新規,0,2023-04-21,2023-04-21,株式会社ａｕｄｉｏ　ａｓｓｉｓｔたきしょう,,株式会社,三重県,四日市市,尾平町２５４９番地,,24,202,5120921,,,,,,,2023-04-21,1,,,,,オーディオアシストタキショウ,0
1651,6200001041224,新規,0,2023-04-21,2023-04-21,株式会社ＳＵＯＬＯ,,株式会社,岐阜県,瑞浪市,稲津町萩原１５２９番地の１,,21,208,5096102,,,,,,,2023-04-21,1,,,,,スオーロ,0
1657,6230005009297,新規,0,2023-04-21,2023-04-21,医療法人舟雅会,,その他の設立登記法人,富山県,富山市,南新町５番１５号,,16,201,9300054,,,,,,,2023-04-21,1,,,,,シュウガカイ,0
1658,6240001061409,新規,0,2023-04-21,2023-04-21,株式会社アップライジング,,株式会社,広島県,広島市安佐北区,可部南１丁目２４番２３号,,34,106,7310223,,,,,,,2023-04-21,1,,,,,アップライジング,0
1672,6290001101201,新規,0,2023-04-21,2023-04-21,フォレスト株式会社,,株式会社,福岡県,福岡市博多区,博多駅南６丁目１２番３０号,,40,132,8120016,,,,,,,2023-04-21,1,,,,,フォレスト,0
1679,6290005019019,新規,0,2023-04-21,2023-04-21,医療法人漣雅会,,その他の設立登記法人,福岡県,筑紫野市,二日市中央２丁目６番１０号,,40,217,8180072,,,,,,,2023-04-21,1,,,,,レンガカイ,0
1687,6330001030791,新規,0,2023-04-21,2023-04-21,株式会社トライシー,,株式会社,熊本県,熊本市南区,江越１丁目１９番６号江越一丁目倉庫１０２,,43,104,8600834,,,,,,,2023-04-21,1,,,,,トライシー,0
1691,6350001018315,新規,0,2023-04-21,2023-04-21,Ｙ・Ａ・Ｇｒｏｗｔｈ株式会社,,株式会社,宮崎県,宮崎市,江南３丁目１２番２号,,45,201,8800944,,,,,,,2023-04-21,1,,,,,ワイエイグロース,0
1698,6370001049878,新規,0,2023-04-21,2023-04-21,スターダムフロウ株式会社,,株式会社,宮城県,仙台市青葉区,荒巻字青葉４６８番地の１東北大学マテリアル・イノベーション・センター青葉山ガレージ内,,04,101,9800845,,,,,,,2023-04-21,1,,,,,スターダムフロウ,0
1699,6370005010621,新規,0,2023-04-21,2023-04-21,一般社団法人ｈｉｒａｋｕ,,その他の設立登記法人,宮城県,宮城郡松島町,松島字間坂１番地の１４,,04,401,9810213,,,,,,,2023-04-21,1,,,,,ヒラク,0
1711,6430003014989,新規,0,2023-04-21,2023-04-21,合同会社和央ソリューション,,合同会社,北海道,札幌市清田区,里塚緑ケ丘１１丁目４番５号,,01,110,0040805,,,,,,,2023-04-21,1,,,,,ワオウソリューション,0
1715,6450001013966,新規,0,2023-04-21,2023-04-21,株式会社ソニコ,,株式会社,北海道,旭川市,忠和四条１丁目３番１９号,,01,204,0708044,,,,,,,2023-04-21,1,,,,,ソニコ,0
1720,6460101007371,新規,0,2023-04-21,2023-04-21,株式会社Ｍｏｎｏｋｕｒｏ‐Ｂｒｏｗｎ,,株式会社,北海道,河東郡士幌町,字士幌幹線１６９番地６３,,01,632,0801228,,,,,,,2023-04-21,1,,,,,モノクロブラウン,0
1725,6700150115612,新規,0,2023-04-21,2023-04-21,Ｓｈｅｎ　Ｚｈｅｎ　Ｄｏｎｇ　Ｔａｏ　Ｙｏｕ　Ｐｉｎ　Ｋｅ　Ｊｉ　Ｙｏｕ　Ｘｉａｎ　Ｇｏｎｇ　Ｓｉ,,外国会社等,,,,,,,,１　Ｌｏｕ，Ｂ　Ｄｏｎｇ，Ｎｏ，３０３，Ｐｉｎｇ　Ｊｉ　Ｄａ　Ｄａｏ　Ｂｅｉ　Ｐｉｎｇ　Ｈｕ　Ｊｉｅ　Ｄａｏ，Ｌｏｎｇ　Ｇａｎｇ　Ｑｕ　Ｓｈｅｎ　Ｚｈｅｎ　Ｇｕａｎｇ　Ｄｏｎｇ　５１８１１１ＣＮ,,,,,,2023-04-21,1,,,,,シェンヂェンドンタオユーピンケジユウゲンコウシ,0
1726,6700150115620,新規,0,2023-04-21,2023-04-21,Ｙａｎｇｊｉａｎｇ　Ｂｉｈｏｎｇ　Ｋｉｔｃｈｅｎｗａｒｅｓ　Ｃｏ　Ｌｔｄ,,外国会社等,,,,,,,,Ｂｅｓｉｄｅ　ｔｈｅ　３２５　Ｎａｔｉｏｎａｌ　Ｒｏａｄ，Ｌｉｚｈｉ　Ｄｕｎ，Ｂｅｉｇｕａｎ　Ｔｏｗｎ　Ｙａｎｇｄｏｎｇ　Ｙａｎｇｊｉａｎｇ　Ｇｕａｎｇｄｏｎｇ　５２９９３２　ＣＮ,,,,,,2023-04-21,1,,,,,ヤンジャンシービーホンチュージージーピンヨウシエンゴンスー,0
1738,7010003040416,新規,0,2023-04-21,2023-04-21,アストロ・トゥエルブ合同会社,,合同会社,東京都,中央区,銀座１丁目６番１１号土志田ビルディング３Ｆ,,13,102,1040061,,,,,,,2023-04-21,1,,,,,アストロトゥエルブ,0
1739,7010005036536,新規,0,2023-04-21,2023-04-21,税理士法人日比谷国際会計事務所,,その他の設立登記法人,東京都,中央区,銀座５丁目６番６号尾張屋銀座ビル４Ｆ,,13,102,1040061,,,,,,,2023-04-21,1,,,,,ヒビヤコクサイカイケイジムショ,0
1740,7010101015575,新規,0,2023-04-21,2023-04-21,株式会社ヒロゾン,,株式会社,東京都,八王子市,中野上町５丁目６番２号,,13,201,1920041,,,,,,,2023-04-21,1,,,,,ヒロゾン,0
1741,7010103002126,新規,0,2023-04-21,2023-04-21,合同会社クリンサービス,,合同会社,東京都,八王子市,椚田町５２１番地６マイキャッスル椚田１０６号室,,13,201,1930942,,,,,,,2023-04-21,1,,,,,クリンサービス,0
1752,7010401173908,新規,0,2023-04-21,2023-04-21,Ｇｏｌｄ　Ｗｉｎｇｓ　Ｊａｐａｎ株式会社,,株式会社,東京都,港区,六本木１丁目９番４－１２０２号,,13,103,1060032,,,,,,,2023-04-21,1,,,,,ゴールドウイングスジャパン,0
1759,7010503006949,新規,0,2023-04-21,2023-04-21,合同会社ライフサポート,,合同会社,東京都,台東区,千束４丁目３３－１４ケルン浅草１０１号室,,13,106,1110031,,,,,,,2023-04-21,1,,,,,ライフサポート,0
1760,7010601062976,新規,0,2023-04-21,2023-04-21,株式会社スマートエージェント,,株式会社,東京都,墨田区,江東橋４丁目１６番５号ＳＫビル７階,,13,107,1300022,,,,,,,2023-04-21,1,,,,,スマートエージェント,0
1761,7010603010108,新規,0,2023-04-21,2023-04-21,合同会社ＶＩＫＴＩＮＩ,,合同会社,東京都,江東区,東雲２丁目７－５,,13,108,1350062,,,,,,,2023-04-21,1,,,,,ヴィクティニ,0
1764,7010901052900,新規,0,2023-04-21,2023-04-21,株式会社エスコネクト,,株式会社,東京都,世田谷区,祖師谷６丁目１９番２３号,,13,112,1570072,,,,,,,2023-04-21,1,,,,,エスコネクト,0
1770,7010903008108,新規,0,2023-04-21,2023-04-21,合同会社ＫＡＺＵＳＡ　ＭＡＴＳＵＹＡＭＡ　ＳＴＵＤＩＯ,,合同会社,東京都,世田谷区,上馬２丁目２番５号一秀ビル４Ｆ,,13,112,1540011,,,,,,,2023-04-21,1,,,,,カズサマツヤマスタジオ,0
1776,7011001153837,新規,0,2023-04-21,2023-04-21,株式会社あなたの広報宣伝部,,株式会社,東京都,渋谷区,神宮前６丁目１０－９原宿董友ビル４階,,13,113,1500001,,,,,,,2023-04-21,1,,,,,アナタノコウホウセンデンブ,0
1777,7011001153977,新規,0,2023-04-21,2023-04-21,株式会社ＺＩＡＩ,,株式会社,東京都,渋谷区,神宮前６丁目２３番４号桑野ビル２階,,13,113,1500001,,,,,,,2023-04-21,1,,,,,ジアイ,0
1778,7011001153985,新規,0,2023-04-21,2023-04-21,株式会社Ｒｅｔａｉｌ　Ｐｒｏｍｏｔｉｏｎ,,株式会社,東京都,渋谷区,神宮前６丁目１番２号３１０表参道ビル７階,,13,113,1500001,,,,,,,2023-04-21,1,,,,,リテイルプロモーション,0
1779,7011001153993,新規,0,2023-04-21,2023-04-21,株式会社プログレ,,株式会社,東京都,渋谷区,東２丁目２０－１３シャトレー渋谷２０６,,13,113,1500011,,,,,,,2023-04-21,1,,,,,プログレ,0
1782,7011003016694,新規,0,2023-04-21,2023-04-21,合同会社ターズケース,,合同会社,東京都,渋谷区,道玄坂１丁目１６番６号二葉ビル８ｂ,,13,113,1500043,,,,,,,2023-04-21,1,,,,,ターズケース,0
1784,7011101102611,新規,0,2023-04-21,2023-04-21,南国音楽株式会社,,株式会社,東京都,新宿区,新宿５丁目１８番２０号ルックハイツ新宿９０１号,,13,104,1600022,,,,,,,2023-04-21,1,,,,,ナンゴクオンガク,0
1785,7011101102644,新規,0,2023-04-21,2023-04-21,株式会社８ＤＯＯＲ’ｓ,,株式会社,東京都,新宿区,新宿５丁目１４番１２号,,13,104,1600022,,,,,,,2023-04-21,1,,,,,エイトドアーズ,0
1791,7011301028648,新規,0,2023-04-21,2023-04-21,株式会社アーキコンサル,,株式会社,東京都,杉並区,清水２丁目８番８号１０４,,13,115,1670033,,,,,,,2023-04-21,1,,,,,アーキコンサル,0
1792,7011403003945,新規,0,2023-04-21,2023-04-21,アンケセナーメン合同会社,,合同会社,東京都,板橋区,蓮沼町７９－１,,13,119,1740052,,,,,,,2023-04-21,1,,,,,,0
1794,7011603003902,新規,0,2023-04-21,2023-04-21,合同会社コレクトワン,,合同会社,東京都,練馬区,早宮１丁目１８番１７－２０８,,13,120,1790085,,,,,,,2023-04-21,1,,,,,コレクトワン,0
1799,7011801042264,新規,0,2023-04-21,2023-04-21,株式会社Ｔ‐ｆｏｒｃｅ,,株式会社,東京都,足立区,中央本町４丁目２４番６－７０４号,,13,121,1210011,,,,,,,2023-04-21,1,,,,,ティーフォース,0
1815,7013303006598,新規,0,2023-04-21,2023-04-21,ＤＲＥＡＭ　ＧＡＴＥ合同会社,,合同会社,東京都,豊島区,東池袋１丁目３４番５号いちご東池袋ビル６階,,13,116,1700013,,,,,,,2023-04-21,1,,,,,ドリームゲート,0
1825,7020001151222,新規,0,2023-04-21,2023-04-21,株式会社バグース,,株式会社,神奈川県,横浜市港南区,笹下４丁目８番３－２０４号,,14,111,2340052,,,,,,,2023-04-21,1,,,,,バグース,0
1826,7020001151263,新規,0,2023-04-21,2023-04-21,株式会社伊加良志,,株式会社,神奈川県,横浜市都筑区,茅ケ崎東３丁目９番１１号,,14,118,2240033,,,,,,,2023-04-21,1,,,,,イカラシ,0
1827,7020001151271,新規,0,2023-04-21,2023-04-21,株式会社坂本商会,,株式会社,神奈川県,横浜市磯子区,岡村４丁目１番１４－２号,,14,107,2350021,,,,,,,2023-04-21,1,,,,,サカモトショウカイ,0
1833,7021001078785,新規,0,2023-04-21,2023-04-21,株式会社ＶＰＣ,,株式会社,神奈川県,座間市,座間２丁目３１０１番地の３,,14,216,2520027,,,,,,,2023-04-21,1,,,,,ブイピーシー,0
1834,7021001078802,新規,0,2023-04-21,2023-04-21,株式会社保育舎,,株式会社,神奈川県,鎌倉市,山ノ内４７９番地,,14,204,2470062,,,,,,,2023-04-21,1,,,,,ホイクシャ,0
1835,7021001078810,新規,0,2023-04-21,2023-04-21,株式会社ＣＫＢ４４,,株式会社,神奈川県,横須賀市,大矢部５丁目１８番１４号,,14,201,2380024,,,,,,,2023-04-21,1,,,,,シーケービーヨンジュウヨン,0
1837,7021003013014,新規,0,2023-04-21,2023-04-21,ＲＨ　ＮＩＨＯＮ　ＴＲＡＤＩＮＧ合同会社,,合同会社,神奈川県,厚木市,七沢４９３番地１５－Ａ,,14,212,2430121,,,,,,,2023-04-21,1,,,,,アールエイチニホントレーディング,0
1846,7030001153390,新規,0,2023-04-21,2023-04-21,株式会社３７１０,,株式会社,埼玉県,春日部市,木崎２３番地,,11,214,3440106,,,,,,,2023-04-21,1,,,,,ミナト,0
1847,7030001153523,新規,0,2023-04-21,2023-04-21,株式会社ＳＴＥＭＩＮＧ,,株式会社,埼玉県,久喜市,南栗橋１丁目１３番地３,,11,232,3491117,,,,,,,2023-04-21,1,,,,,ステミング,0
1848,7030001153531,新規,0,2023-04-21,2023-04-21,彩正工業株式会社,,株式会社,埼玉県,川越市,大字府川１８３番地１,,11,201,3500831,,,,,,,2023-04-21,1,,,,,サイセイコウギョウ,0
1849,7030001153556,新規,0,2023-04-21,2023-04-21,株式会社ゆい動物病院,,株式会社,埼玉県,戸田市,氷川町２丁目１６番２２号,,11,224,3350027,,,,,,,2023-04-21,1,,,,,ユイドウブツビョウイン,0
1850,7030001153564,新規,0,2023-04-21,2023-04-21,株式会社花壽,,株式会社,埼玉県,さいたま市大宮区,高鼻町２丁目２９９番地,,11,103,3300803,,,,,,,2023-04-21,1,,,,,ハナコトブキ,0
1851,7030003021612,新規,0,2023-04-21,2023-04-21,スペランカー合同会社,,合同会社,埼玉県,八潮市,大字伊勢野６１４－２,,11,234,3400821,,,,,,,2023-04-21,1,,,,,スペランカー,0
1855,7040001128061,新規,0,2023-04-21,2023-04-21,株式会社ＣＲＥＥＸ,,株式会社,千葉県,習志野市,実籾４丁目４－１アルフラット２０３,,12,216,2750002,,,,,,,2023-04-21,1,,,,,クリークス,0
1856,7040001128078,新規,0,2023-04-21,2023-04-21,ＯＮ　ＴＨＥ　ＢＡＬＬ株式会社,,株式会社,千葉県,浦安市,北栄３丁目２４番１－３０２号,,12,227,2790002,,,,,,,2023-04-21,1,,,,,オンザボール,0
1861,7040003022452,新規,0,2023-04-21,2023-04-21,ＭＥＮＡＣ　ＥＮＴＥＲＰＲＩＳＥＳ合同会社,,合同会社,千葉県,野田市,船形２０８２番地,,12,208,2700233,,,,,,,2023-04-21,1,,,,,メナックインタープライズィズ,0
1866,7060001035909,新規,0,2023-04-21,2023-04-21,グリーンプランニング株式会社,,株式会社,栃木県,佐野市,馬門町１７４３番地３,,09,204,3270824,,,,,,,2023-04-21,1,,,,,グリーンプランニング,0
1876,7070001040362,新規,0,2023-04-21,2023-04-21,株式会社高松空調,00130205,株式会社,群馬県,桐生市,広沢町７丁目５０９０番地の１－１０１,,10,203,3760013,,,,,,,2023-04-21,1,,,,,タカマツクウチョウ,0
1879,7080001025585,新規,0,2023-04-21,2023-04-21,株式会社ＣＲＥＡＭ,,株式会社,静岡県,静岡市駿河区,高松２丁目２９番２１号,,22,102,4228034,,,,,,,2023-04-21,1,,,,,クリーム,0
1889,7110001037461,新規,0,2023-04-21,2023-04-21,株式会社ショーセンイースト,,株式会社,新潟県,五泉市,熊野堂５０８０番地,,15,218,9591763,,,,,,,2023-04-21,1,,,,,ショーセンイースト,0
1891,7110005016932,新規,0,2023-04-21,2023-04-21,一般社団法人ＮＴＣ,,その他の設立登記法人,新潟県,新潟市西区,小新４丁目７番５号サンフレンズ白鳥Ｄ２０１,,15,107,9502023,,,,,,,2023-04-21,1,,,,,エヌティーシー,0
1905,7120001254205,新規,0,2023-04-21,2023-04-21,株式会社リベ大引越センター,,株式会社,大阪府,大阪市中央区,南久宝寺町３丁目４番１５号３階,,27,128,5410058,,,,,,,2023-04-21,1,,,,,リベダイヒッコシセンター,0
1906,7120001254254,新規,0,2023-04-21,2023-04-21,ナレッジシップホールディングス株式会社,,株式会社,大阪府,枚方市,東香里新町４番３－２０１号,,27,210,5730077,,,,,,,2023-04-21,1,,,,,ナレッジシップホールディングス,0
1907,7120001254270,新規,0,2023-04-21,2023-04-21,東化学工業準備株式会社,,株式会社,大阪府,大阪市平野区,加美正覚寺４丁目７番１３号,,27,126,5470006,,,,,,,2023-04-21,1,,,,,アズマカガクコウギョウジュンビ,0
1914,7120101067416,新規,0,2023-04-21,2023-04-21,株式会社ＡＨ,,株式会社,大阪府,和泉市,山荘町３丁目２番４５号,,27,219,5940021,,,,,,,2023-04-21,1,,,,,エーエイチ,0
1922,7130001074148,新規,0,2023-04-21,2023-04-21,株式会社ＥＩＧＨＴ,,株式会社,京都府,京都市山科区,小野高芝町４９番地８,,26,110,6078254,,,,,,,2023-04-21,1,,,,,エイト,0
1923,7130001074156,新規,0,2023-04-21,2023-04-21,松隠株式会社,,株式会社,京都府,京都市東山区,東大路三条下る南西海子町４３４番地８（５Ｆ）,,26,105,6050013,,,,,,,2023-04-21,1,,,,,ショウイン,0
1929,7140001129900,新規,0,2023-04-21,2023-04-21,株式会社フォアライフ,,株式会社,兵庫県,豊岡市,日高町名色１１６９－１,,28,209,6695379,,,,,,,2023-04-21,1,,,,,フォアライフ,0
1930,7140001129909,新規,0,2023-04-21,2023-04-21,株式会社アスピラート,,株式会社,兵庫県,神戸市東灘区,住吉本町１丁目２４番２８号,,28,101,6580051,,,,,,,2023-04-21,1,,,,,アスピラート,0
1935,7140003019001,新規,0,2023-04-21,2023-04-21,合同会社ＫＣＭ,,合同会社,兵庫県,神戸市須磨区,弥栄台５丁目１９番地の２,,28,107,6540161,,,,,,,2023-04-21,1,,,,,ケーシーエム,0
1941,7170001017557,新規,0,2023-04-21,2023-04-21,株式会社ネクスト,,株式会社,和歌山県,和歌山市,福島２９１番地３０２号,,30,201,6408401,,,,,,,2023-04-21,1,,,,,ネクスト,0
1951,7180005020192,新規,0,2023-04-21,2023-04-21,法人浄土宗西山派藥師教會,,その他の設立登記法人,愛知県,一宮市,南小渕字屋敷１５番地,,23,203,4910014,,,,,,,2023-04-21,1,,,,,ホウジンジョウドシュウセイザンハヤクシキョウカイ,0
1954,7190001030351,新規,0,2023-04-21,2023-04-21,株式会社ネクストワンホールディングス,,株式会社,三重県,名張市,夏見３３０３番地,,24,208,5180441,,,,,,,2023-04-21,1,,,,,ネクストワンホールディングス,0
1959,7210001019284,新規,0,2023-04-21,2023-04-21,ＹＹソーラー株式会社,,株式会社,福井県,福井市,みのり３丁目１７番１１号,,18,201,9188005,,,,,,,2023-04-21,1,,,,,ワイワイソーラー,0
1964,7240001061408,新規,0,2023-04-21,2023-04-21,株式会社ミノアカ,,株式会社,広島県,広島市南区,東雲本町２丁目７番６－４０１号,,34,103,7340023,,,,,,,2023-04-21,1,,,,,ミノアカ,0
1969,7250005008817,新規,0,2023-04-21,2023-04-21,行政書士法人佐藤・上田合同事務所,,その他の設立登記法人,山口県,山口市,小郡大江町３番２号,,35,203,7540015,,,,,,,2023-04-21,1,,,,,サトウウエダゴウドウジムショ,0
1972,7260001037884,新規,0,2023-04-21,2023-04-21,クラモクホームズ株式会社,,株式会社,岡山県,倉敷市,中島９９９番地１,,33,202,7100803,,,,,,,2023-04-21,1,,,,,クラモクホームズ,0
1979,7290001101282,新規,0,2023-04-21,2023-04-21,創世株式会社,,株式会社,福岡県,福岡市東区,多の津４丁目１４番３０号,,40,131,8130034,,,,,,,2023-04-21,1,,,,,ソウセイ,0
1984,7290003013815,新規,0,2023-04-21,2023-04-21,合同会社ＯＰＥＮ　ＹＯＵＲ　ＬＩＦＥ,,合同会社,福岡県,福岡市博多区,住吉４丁目２－１５－３０６,,40,132,8120018,,,,,,,2023-04-21,1,,,,,オープンユアライフ,0
1985,7290003013823,新規,0,2023-04-21,2023-04-21,ＴＡＫＥＹＡＭＡ合同会社,,合同会社,福岡県,福岡市東区,八田３丁目２２－１７,,40,131,8130031,,,,,,,2023-04-21,1,,,,,タケヤマ,0
1986,7290801029483,新規,0,2023-04-21,2023-04-21,株式会社ＵＰ,,株式会社,福岡県,北九州市門司区,小松町１番２－２０８号,,40,101,8000034,,,,,,,2023-04-21,1,,,,,ユーピー,0
1993,7310005008678,新規,0,2023-04-21,2023-04-21,特定非営利活動法人ながさきのうたいろはにほへと,,その他の設立登記法人,長崎県,長崎市,銅座町８番３号,,42,201,8500841,,,,,,,2023-04-21,1,,,,,ナガサキノウタイロハニホヘト,0
2000,7340001025526,新規,0,2023-04-21,2023-04-21,泰鶴株式会社,,株式会社,鹿児島県,鹿児島市,山之口町８番１０号ＳＡＫＵＲＡ　ＢＵＩＬＤ　Ａ館２０２,,46,201,8920844,,,,,,,2023-04-21,1,,,,,タヅル,0
2004,7350001018289,新規,0,2023-04-21,2023-04-21,ＬＩＦＩＸ株式会社,,株式会社,宮崎県,都城市,今町８９２１番地３,,45,202,8850064,,,,,,,2023-04-21,1,,,,,リフィックス,0
2005,7350001018314,新規,0,2023-04-21,2023-04-21,株式会社ＩＷＡＴＡ,,株式会社,宮崎県,東臼杵郡門川町,大字門川尾末８７４１番地２７,,45,421,8890611,,,,,,,2023-04-21,1,,,,,イワタ,0
2007,7350003004345,新規,0,2023-04-21,2023-04-21,合同会社アグリコルティミヤザキ,,合同会社,宮崎県,宮崎市,大字島之内１０２４１番地１,,45,201,8800121,,,,,,,2023-04-21,1,,,,,アグリコルティミヤザキ,0
2009,7360001031902,新規,0,2023-04-21,2023-04-21,ＡｎＳＬ株式会社,,株式会社,沖縄県,中頭郡北谷町,字浜川２１７番地３（１－Ｃ）,,47,326,9040112,,,,,,,2023-04-21,1,,,,,アンスル,0
2010,7360001031919,新規,0,2023-04-21,2023-04-21,株式会社マーリン,,株式会社,沖縄県,宮古島市,平良字久貝８１９番地２０,,47,214,9060015,,,,,,,2023-04-21,1,,,,,マーリン,0
2012,7360003012909,新規,0,2023-04-21,2023-04-21,合同会社雅建設コンサルタント,,合同会社,沖縄県,宜野湾市,真志喜３丁目４番１３号,,47,205,9012224,,,,,,,2023-04-21,1,,,,,ミヤビケンセツコンサルタント,0
2013,7360005006834,新規,0,2023-04-21,2023-04-21,一般社団法人ペネトレイト,,その他の設立登記法人,沖縄県,那覇市,字国場１１６４番地７コーポかかず３０１,,47,201,9020075,,,,,,,2023-04-21,1,,,,,ペネトレイト,0
2017,7370005010620,新規,0,2023-04-21,2023-04-21,一般社団法人ＯＤＹＳＳＥＹ,,その他の設立登記法人,宮城県,東松島市,浜市字新田７５番地,,04,214,9810302,,,,,,,2023-04-21,1,,,,,オデッセイ,0
2033,7430003014971,新規,0,2023-04-21,2023-04-21,合同会社ａｏｉ,,合同会社,北海道,苫小牧市,双葉町１丁目１番５号,,01,213,0530045,,,,,,,2023-04-21,1,,,,,アオイ,0
2035,7450001013965,新規,0,2023-04-21,2023-04-21,株式会社勇愛,,株式会社,北海道,旭川市,東鷹栖東三条６丁目２１４９番地２４,,01,204,0718113,,,,,,,2023-04-21,1,,,,,ユウアイ,0
2040,7490001010463,新規,0,2023-04-21,2023-04-21,リョウマ陸王社株式会社,,株式会社,高知県,南国市,大＿乙２７４番地,00130204,39,204,7830005,,,,,,,2023-04-21,1,,,,,リョウマリクオウシャ,0
2042,7500001024874,新規,0,2023-04-21,2023-04-21,株式会社サンショウ,,株式会社,愛媛県,新居浜市,八幡１丁目２１番２１号,,38,205,7920871,,,,,,,2023-04-21,1,,,,,サンショウ,0
2045,7700150032740,新規,0,2023-04-21,2015-10-09,千歳市母子会,,その他,北海道,千歳市,東雲町２丁目千歳市役所　内,,01,224,0660042,,,,,,,2015-10-09,1,,,,,チトセシボシカイ,0
2047,7700150115611,新規,0,2023-04-21,2023-04-21,ｚｈｏｎｇｓｈａｎｓｈｉｙｅｇｕｏｈｕｗａｉｙｏｎｇｐｉｎｙｏｕｘｉａｎｇｏｎｇｓｉ,,外国会社等,,,,,,,,Ｎｏ．３，３／Ｆ，Ｂｕｉｌｄｉｎｇ　４，Ｎｏ．２　Ｊｉａｎｇｌｉｎｇ　Ｗｅｓｔ　Ｒｏａｄ，Ｔｏｒｃｈ　Ｄｅｖｅｌｏｐｍｅｎｔ　Ｚｏｎｅ，Ｚｈｏｎｇｓｈａｎ,,,,,,2023-04-21,1,,,,,ジョンシャンシーイエグオフーワイヨンピンヨウシエンゴンスー,0
2056,8010001234670,新規,0,2023-04-21,2023-04-21,株式会社フューチャークリエーションジャパン,,株式会社,東京都,千代田区,外神田３丁目６番４号,,13,101,1010021,,,,,,,2023-04-21,1,,,,,フューチャークリエーションジャパン,0
2057,8010001234720,新規,0,2023-04-21,2023-04-21,株式会社Ｐｈｉｌｉａ,,株式会社,東京都,中央区,佃３丁目３－９キャピタルコート１１０７,,13,102,1040051,,,,,,,2023-04-21,1,,,,,フィリア,0
2063,8010005036551,新規,0,2023-04-21,2023-04-21,一般社団法人在日ハノイ工科大学同窓会,,その他の設立登記法人,東京都,文京区,根津２丁目１１番２クレストホーム根津５０２号室,,13,105,1130031,,,,,,,2023-04-21,1,,,,,ザイニチハノイコウカダイガクドウソウカイ,0
2075,8010503006964,新規,0,2023-04-21,2023-04-21,合同会社フリーダム,,合同会社,東京都,台東区,千束４丁目３３－１４ケルン浅草１０１号室,,13,106,1110031,,,,,,,2023-04-21,1,,,,,フリーダム,0
2078,8010601062991,新規,0,2023-04-21,2023-04-21,株式会社シルクリ技研,,株式会社,東京都,江東区,亀戸３丁目５９－１０,,13,108,1360071,,,,,,,2023-04-21,1,,,,,シルクリギケン,0
2079,8010603010115,新規,0,2023-04-21,2023-04-21,合同会社ＬＵＸ,,合同会社,東京都,墨田区,江東橋３丁目５番１号ザ・バレル立田ビル５階,,13,107,1300022,,,,,,,2023-04-21,1,,,,,ルクス,0
2081,8010703006673,新規,0,2023-04-21,2023-04-21,経営サポート合同会社,,合同会社,東京都,品川区,荏原７丁目１９番２号サンシャイン洗足２０２,,13,109,1420063,,,,,,,2023-04-21,1,,,,,ケイエイサポート,0
2084,8010901052924,新規,0,2023-04-21,2023-04-21,Ｌｉｇｈｔｈｏｕｓｅ　Ｃｏｎｓｕｌｔｉｎｇ株式会社,,株式会社,東京都,世田谷区,深沢５丁目１番１５号,,13,112,1580081,,,,,,,2023-04-21,1,,,,,ライトハウスコンサルティング,0
2085,8010903008107,新規,0,2023-04-21,2023-04-21,合同会社きんもくせい,,合同会社,東京都,世田谷区,北沢２丁目１１番１５号ミカン下北Ａ街区４階,,13,112,1550031,,,,,,,2023-04-21,1,,,,,キンモクセイ,0
2088,8011001153919,新規,0,2023-04-21,2023-04-21,株式会社有邑,,株式会社,東京都,目黒区,自由が丘１丁目１６－２ブランシュコリーヌ２Ｆ,,13,110,1520035,,,,,,,2023-04-21,1,,,,,アリサト,0
2089,8011001154000,新規,0,2023-04-21,2023-04-21,株式会社Ｖｉｒｔｕａｌ　Ｃｏｍｐａｎｙ　Ｊａｐａｎ,,株式会社,東京都,渋谷区,神宮前２丁目３０番４号,,13,113,1500001,,,,,,,2023-04-21,1,,,,,バーチャルカンパニージャパン,0
2090,8011003016644,新規,0,2023-04-21,2023-04-21,ＦＢｒａｎｃｈ合同会社,,合同会社,東京都,渋谷区,道玄坂１丁目１０ー８渋谷道玄坂東急ビル２Ｆ－Ｃ,,13,113,1500043,,,,,,,2023-04-21,1,,,,,エフブランチ,0
2097,8011101102602,新規,0,2023-04-21,2023-04-21,株式会社すずめや,,株式会社,東京都,新宿区,新宿２丁目１－３サニーシティ新宿御苑ビル２階,,13,104,1600022,,,,,,,2023-04-21,1,,,,,スズメヤ,0
2098,8011101102610,新規,0,2023-04-21,2023-04-21,ＯＸＬＥＹＡＮ　ＨＯＬＤＩＮＧＳ株式会社,,株式会社,東京都,新宿区,新小川町１番１４号リープレックスビズ２階,,13,104,1620814,,,,,,,2023-04-21,1,,,,,オクスリアンホールディングス,0
2105,8011701026184,新規,0,2023-04-21,2023-04-21,株式会社ＡＫＡＴＳＵＫＩ,,株式会社,東京都,江戸川区,南葛西２丁目１番２０号希望ビル３０１号室,,13,123,1340085,,,,,,,2023-04-21,1,,,,,アカツキ,0
2126,8020001151221,新規,0,2023-04-21,2023-04-21,株式会社ＩＣＴ２,,株式会社,神奈川県,横浜市青葉区,荏田町６６４番地１,,14,117,2250013,,,,,,,2023-04-21,1,,,,,アイシーティーツー,0
2127,8020001151254,新規,0,2023-04-21,2023-04-21,株式会社ほの,,株式会社,神奈川県,横浜市青葉区,新石川２丁目２９番地フォティーニアたまプラーザ３０６,,14,117,2250003,,,,,,,2023-04-21,1,,,,,ホノ,0
2128,8020001151262,新規,0,2023-04-21,2023-04-21,三明医薬株式会社,,株式会社,神奈川県,川崎市中原区,上小田中３丁目２３番３２号ヴァンベール２Ｆ,,14,133,2110053,,,,,,,2023-04-21,1,,,,,サンメイイヤク,0
2134,8020003023773,新規,0,2023-04-21,2023-04-21,合同会社ＣＲＫ,,合同会社,神奈川県,横浜市南区,庚台２５番地１１,,14,105,2320008,,,,,,,2023-04-21,1,,,,,シーアールケー,0
2137,8021001078784,新規,0,2023-04-21,2023-04-21,Ｆｒｅｅｋｙ株式会社,,株式会社,神奈川県,茅ヶ崎市,小桜町８－２３－３,,14,207,2530016,,,,,,,2023-04-21,1,,,,,フリーキー,0
2141,8021003013013,新規,0,2023-04-21,2023-04-21,ＪＲ商会合同会社,,合同会社,神奈川県,愛甲郡愛川町,田代９７３－２,,14,401,2430306,,,,,,,2023-04-21,1,,,,,ジェアルショウカイ,0
2145,8030001153324,新規,0,2023-04-21,2023-04-21,株式会社インテリアフクチ,,株式会社,埼玉県,越谷市,神明町１丁目１４８番地８,,11,222,3430805,,,,,,,2023-04-21,1,,,,,インテリアフクチ,0
2146,8030001153497,新規,0,2023-04-21,2023-04-21,ＢＩＣＳＡＮ株式会社,,株式会社,埼玉県,所沢市,三ケ島１丁目１１５番地,,11,208,3591164,,,,,,,2023-04-21,1,,,,,ビクサン,0
2147,8030001153506,新規,0,2023-04-21,2023-04-21,沃源株式会社,,株式会社,埼玉県,蕨市,南町２丁目２８番３号－１０２号室,,11,223,3350003,,,,,,,2023-04-21,1,,,,,ヨクゲン,0
2150,8030003021578,新規,0,2023-04-21,2023-04-21,合同会社ＢｅａｓｔＷｏｒｋ,,合同会社,埼玉県,坂戸市,大字小沼６２２番地４,,11,239,3500202,,,,,,,2023-04-21,1,,,,,ビーストワーク,0
2151,8030003021611,新規,0,2023-04-21,2023-04-21,リウォールメイク合同会社,,合同会社,埼玉県,児玉郡上里町,大字三町５６４番地２,,11,385,3690314,,,,,,,2023-04-21,1,,,,,リウォールメイク,0
2152,8030003021628,新規,0,2023-04-21,2023-04-21,合同会社東,,合同会社,埼玉県,秩父郡長瀞町,大字野上下郷２９３３番地,,11,363,3691302,,,,,,,2023-04-21,1,,,,,ヒガシ,0
2154,8040001127905,新規,0,2023-04-21,2023-04-21,株式会社ＰＣプロパティ,,株式会社,千葉県,千葉市花見川区,千種町９８番地１１,,12,102,2620012,,,,,,,2023-04-21,1,,,,,ピーシープロパティ,0
2155,8040001127987,新規,0,2023-04-21,2023-04-21,株式会社Ｗｈｅｅｌ　Ａｒｃｈ,,株式会社,千葉県,成田市,中台１丁目１番地１（９棟５０４号）,,12,211,2860015,,,,,,,2023-04-21,1,,,,,ウィルアーチ,0
2156,8040001128077,新規,0,2023-04-21,2023-04-21,株式会社オウテック,,株式会社,千葉県,松戸市,根本１３９－１金沢マンション４０５室,,12,207,2710077,,,,,,,2023-04-21,1,,,,,オウテック,0
2159,8040003022435,新規,0,2023-04-21,2023-04-21,ＣＵＣ合同会社,,合同会社,千葉県,いすみ市,岬町江場土４１９８番地,,12,238,2994612,,,,,,,2023-04-21,1,,,,,シーユーシー,0
2160,8040003022451,新規,0,2023-04-21,2023-04-21,合同会社ｋｉｚｕｋｉ,,合同会社,千葉県,柏市,中原２丁目５番１号フォレストリア増尾１１６号室,,12,217,2770085,,,,,,,2023-04-21,1,,,,,キズキ,0
2165,8070001040361,新規,0,2023-04-21,2023-04-21,株式会社ＭＯＫＵＭＯＫＵ,,株式会社,群馬県,太田市,藪塚町１４０４番地,,10,205,3792301,,,,,,,2023-04-21,1,,,,,モクモク,0
2173,8080401026447,新規,0,2023-04-21,2023-04-21,熊谷ジョブス株式会社,,株式会社,静岡県,浜松市西区,志都呂町３００番地の２６０,,22,133,4328066,,,,,,,2023-04-21,1,,,,,クマガイジョブス,0
2184,8110001037477,新規,0,2023-04-21,2023-04-21,みらい経営コンサルティング株式会社,,株式会社,新潟県,三条市,西裏館３丁目６番６９号,,15,204,9550082,,,,,,,2023-04-21,1,,,,,ミライケイエイコンサルティング,0
2186,8110005016931,新規,0,2023-04-21,2023-04-21,医療法人社団啓悠会,,その他の設立登記法人,新潟県,新潟市中央区,笹口１丁目１番地新潟プラーカ１、２Ｆ,,15,103,9500911,,,,,,,2023-04-21,1,,,,,ケイユウカイ,0
2198,8120001254311,新規,0,2023-04-21,2023-04-21,株式会社ＫＡ　ＫＯＵ,,株式会社,大阪府,大阪市住吉区,長居３丁目３番３号,,27,120,5580003,,,,,,,2023-04-21,1,,,,,カコウ,0
2217,8130001074139,新規,0,2023-04-21,2023-04-21,株式会社はろーすぺしゃる,,株式会社,京都府,京田辺市,薪薊３番地１,,26,211,6100341,,,,,,,2023-04-21,1,,,,,ハロースペシャル,0
2227,8140001129890,新規,0,2023-04-21,2023-04-21,株式会社Ｒ＆Ｒ,,株式会社,兵庫県,西宮市,殿山町２番５－４号,,28,204,6620065,,,,,,,2023-04-21,1,,,,,アールアンドアール,0
2228,8140001129908,新規,0,2023-04-21,2023-04-21,株式会社センジョー,,株式会社,兵庫県,明石市,大久保町高丘１丁目７番地の１８,,28,203,6740057,,,,,,,2023-04-21,1,,,,,センジョー,0
2232,8140003018984,新規,0,2023-04-21,2023-04-21,合同会社Ｗｅｌｌ　Ｐｌａｃｅｄ,,合同会社,兵庫県,神戸市中央区,磯上通８丁目１番２９号カサベラＣ＆Ｍビル内,,28,110,6510086,,,,,,,2023-04-21,1,,,,,ウェルプレイスド,0
2233,8140003019009,新規,0,2023-04-21,2023-04-21,ヅカドリーム合同会社,,合同会社,兵庫県,宝塚市,川面５丁目１６番１１号,,28,214,6650842,,,,,,,2023-04-21,1,,,,,ヅカドリーム,0
2234,8140003019017,新規,0,2023-04-21,2023-04-21,合同会社Ａｓｔｙｌｅ,,合同会社,兵庫県,神戸市垂水区,名谷町１７３４番地４３２号,,28,108,6550852,,,,,,,2023-04-21,1,,,,,エースタイル,0
2243,8160003002854,新規,0,2023-04-21,2023-04-21,合同会社ｄｉｖｅｒｓｉｏｎ,,合同会社,滋賀県,彦根市,中央町３－１２ＣＧビル４Ｆ,,25,202,5220063,,,,,,,2023-04-21,1,,,,,ディバージョン,0
2248,8180001155958,新規,0,2023-04-21,2023-04-21,株式会社ドリーマー,,株式会社,愛知県,名古屋市北区,中味鋺３丁目１１１２番地の６,,23,103,4620015,,,,,,,2023-04-21,1,,,,,ドリーマー,0
2249,8180001155982,新規,0,2023-04-21,2023-04-21,株式会社ＯＲＣＨＩＤ,,株式会社,愛知県,名古屋市中区,丸の内３丁目１９番１４号財形久屋セントラルハイツ８０３,,23,106,4600002,,,,,,,2023-04-21,1,,,,,オーキッド,0
2250,8180001155999,新規,0,2023-04-21,2023-04-21,株式会社ＫＡ＆ＪＡＰＡＮ,,株式会社,愛知県,名古屋市北区,若葉通３丁目１６番地の１大脇ビル１０１号,,23,103,4620854,,,,,,,2023-04-21,1,,,,,ケエアンドジャパン,0
2269,8240003006112,新規,0,2023-04-21,2023-04-21,合同会社協和コーポレーション,,合同会社,広島県,尾道市,高須町５０８４番地６,,34,205,7290141,,,,,,,2023-04-21,1,,,,,キョウワコーポレーション,0
2274,8260001037883,新規,0,2023-04-21,2023-04-21,株式会社チック,,株式会社,岡山県,倉敷市,連島町連島５０５番地６,,33,202,7128011,,,,,,,2023-04-21,1,,,,,チック,0
2280,8290001101281,新規,0,2023-04-21,2023-04-21,海航株式会社,,株式会社,福岡県,福岡市城南区,梅林２丁目１３番２１号,,40,136,8140144,,,,,,,2023-04-21,1,,,,,カイコウ,0
2287,8290801029482,新規,0,2023-04-21,2023-04-21,ＫＯＹＯ株式会社,,株式会社,福岡県,北九州市八幡西区,貴船台２１番３０号,,40,109,8070814,,,,,,,2023-04-21,1,,,,,コーヨー,0
2300,8350001018313,新規,0,2023-04-21,2023-04-21,Ｃｙｂｅｒｄｙｎｅ　Ｓｙｓｔｅｍｓ株式会社,,株式会社,宮崎県,宮崎市,佐土原町松小路１３番地１０,,45,201,8800214,,,,,,,2023-04-21,1,,,,,サイバーダインシステムズ,0
2305,8360003012908,新規,0,2023-04-21,2023-04-21,合同会社フォープレイ,,合同会社,沖縄県,国頭郡恩納村,字前兼久１０６７番地１,,47,311,9040414,,,,,,,2023-04-21,1,,,,,フォープレイ,0
2327,8430003014954,新規,0,2023-04-21,2023-04-21,ケージー札幌合同会社,,合同会社,北海道,札幌市北区,拓北四条３丁目２番１３号,,01,102,0028064,,,,,,,2023-04-21,1,,,,,ケージーサッポロ,0
2329,8450001013964,新規,0,2023-04-21,2023-04-21,総合アシスト株式会社,,株式会社,北海道,名寄市,字徳田９９番地１０,,01,221,0960071,,,,,,,2023-04-21,1,,,,,ソウゴウアシスト,0
2334,8700150115619,新規,0,2023-04-21,2023-04-21,ｓｈｅｎｚｈｅｎ　ｋｕｙｉｄａｋｅｊｉｙｏｕｘｉａｎｇｏｎｇｓｉ,,外国会社等,,,,,,,,Ｒｏｏｍ　２０１，Ｂｕｉｌｄｉｎｇ　Ａ，Ｎｏ１．，Ｑｉａｎｗａｎ　１ｓｔ　Ｒｏａｄ　Ｓｈｅｎｚｈｅｎ　Ｈｏｎｇ　Ｋｏｎｇ　Ｃｏ－ｏｐｅｒａｔｉｏｎ　Ｚｏｎｅ，Ｑｉａｎｈａｉ　Ｓｈｅｎｚｈｅｎ　Ｇｕａｎｇｄｏｎｇ,,,,,,2023-04-21,1,,,,,シェンジェンクーイーダーコージーヨウシエンゴンスー,0
2335,8700150115627,新規,0,2023-04-21,2023-04-21,ｄｏｎｇｇｕａｎｓｈｉｊｉｅｓｈｉｄａｑｉｎｇｊｉｅｙｏｎｇｐｉｎｙｏｕｘｉａｎｇｏｎｇｓｉ,,外国会社等,,,,,,,,ＤＯＮＧＧＵＡＮＳＨＩ　ＬＩＡＯＢＵＺＨＥＮ　ＧＵＡＮＧＤＯＮＧ　ＤＡＴＡＮＧＪＩＥ９０ＨＡＯ,,,,,,2023-04-21,1,,,,,ドングワンシージエシーダーチンジエヨンピンヨウシエンゴンスー,0
2346,9010001234620,新規,0,2023-04-21,2023-04-21,株式会社ＴａｎａＴｅｃｈ,,株式会社,東京都,中央区,銀座１丁目１２番４号Ｎ＆ＥＢＬＤ．６Ｆ,,13,102,1040061,,,,,,,2023-04-21,1,,,,,タナテック,0
2347,9010001234703,新規,0,2023-04-21,2023-04-21,Ｆｌｅｘ　Ｉｎｔｅｒｎａｔｉｏｎａｌ株式会社,,株式会社,東京都,中央区,銀座１丁目１２番４号Ｎ＆ＥＢＬＤ．６階,,13,102,1040061,,,,,,,2023-04-21,1,,,,,フレックスインターナショナル,0
2348,9010001234736,新規,0,2023-04-21,2023-04-21,株式会社ＣＷＭ,,株式会社,東京都,千代田区,麹町１丁目３番５号ダイアン麹町ビル３０３,,13,101,1020083,,,,,,,2023-04-21,1,,,,,シーダブリューエム,0
2349,9010003040380,新規,0,2023-04-21,2023-04-21,ＴＡＣＴＩＣＡＬ　ＷＩＮＥ　ＣＯＮＳＵＬＴＡＮＴ合同会社,,合同会社,東京都,中央区,日本橋兜町１７番２号兜町第６葉山ビル４Ｆ,,13,102,1030026,,,,,,,2023-04-21,1,,,,,タクティカルワインコンサルタント,0
2350,9010003040397,新規,0,2023-04-21,2023-04-21,ＳＣ　ＤＡＢＣＯ　Ｍａｎａｇｅｍｅｎｔ合同会社,,合同会社,東京都,千代田区,大手町２丁目３番２号,,13,101,1000004,,,,,,,2023-04-21,1,,,,,エスシーダブコマネジメント,0
2359,9010401173831,新規,0,2023-04-21,2023-04-21,株式会社ＲＭＣ　ＣＯＮＳＵＬＴＩＮＧ,,株式会社,東京都,港区,虎ノ門５丁目１３番１号虎ノ門４０ＭＴビル７階,,13,103,1050001,,,,,,,2023-04-21,1,,,,,アールエムシーコンサルティング,0
2366,9010701044154,新規,0,2023-04-21,2023-04-21,株式会社ＧＲＯＷ３,,株式会社,東京都,品川区,荏原３丁目８番５号オーパスレジデンス武蔵小山８０７,,13,109,1420063,,,,,,,2023-04-21,1,,,,,グロースリー,0
2370,9010901052931,新規,0,2023-04-21,2023-04-21,Ｍｓｔｙｌｅ株式会社,,株式会社,東京都,世田谷区,弦巻４丁目１１－２ＳＯＵ桜新町１０２,,13,112,1540016,,,,,,,2023-04-21,1,,,,,,0
2372,9010903008106,新規,0,2023-04-21,2023-04-21,カタ合同会社,,合同会社,東京都,世田谷区,北沢３丁目２番地１１号レガーロ東北沢３階１０号室,,13,112,1550031,,,,,,,2023-04-21,1,,,,,,0
2377,9011001153967,新規,0,2023-04-21,2023-04-21,株式会社Ｐｒｉｍｅ　Ｎｅｘｔ,,株式会社,東京都,渋谷区,渋谷２丁目１９番１５号宮益坂ビルディング６０９,,13,113,1500002,,,,,,,2023-04-21,1,,,,,プライムネクスト,0
2386,9011101102601,新規,0,2023-04-21,2023-04-21,エントリーコンサルティング株式会社,,株式会社,東京都,新宿区,百人町１丁目８番２４－１０５号,,13,104,1690073,,,,,,,2023-04-21,1,,,,,エントリーコンサルティング,0
2389,9011103012971,新規,0,2023-04-21,2023-04-21,エイタイ・ラーニング・システムズ合同会社,,合同会社,東京都,新宿区,上落合３丁目５番７号ソレイユほその３０２,,13,104,1610034,,,,,,,2023-04-21,1,,,,,エイタイラーニングシステムズ,0
2394,9011301028638,新規,0,2023-04-21,2023-04-21,株式会社ＵＮｉＣＯ,,株式会社,東京都,杉並区,西荻北２丁目１１番７号浅野ビル１階,,13,115,1670042,,,,,,,2023-04-21,1,,,,,ユニコ,0
2395,9011305002903,新規,0,2023-04-21,2023-04-21,特定非営利活動法人Ｔ＆Ｅ‐Ｈｔｗ,,その他の設立登記法人,東京都,杉並区,天沼３丁目２６番９号,,13,115,1670032,,,,,,,2023-04-21,1,,,,,ティーアンドイーエイチティーダブリュー,0
2398,9011605002512,新規,0,2023-04-21,2023-04-21,一般社団法人幻都,,その他の設立登記法人,東京都,練馬区,石神井町８丁目４１番８号,,13,120,1770041,,,,,,,2023-04-21,1,,,,,ゲント,0
2404,9011803005622,新規,0,2023-04-21,2023-04-21,合同会社Ｚｅｕｓ,,合同会社,東京都,葛飾区,堀切５丁目５番１号２Ｆ,,13,122,1240006,,,,,,,2023-04-21,1,,,,,ゼウス,0
2409,9020001151253,新規,0,2023-04-21,2023-04-21,株式会社ロウスト,,株式会社,神奈川県,横浜市金沢区,富岡西４丁目５５番６号,,14,108,2360052,,,,,,,2023-04-21,1,,,,,ロウスト,0
2410,9020001151261,新規,0,2023-04-21,2023-04-21,７Ｌｅａｖｅｓ株式会社,,株式会社,神奈川県,横浜市都筑区,仲町台１丁目７番１１号ハイライズＩＩ４０２,00130211,14,118,2240041,,,,,,,2023-04-21,1,,,,,セブンリーブス,0
2417,9020003023780,新規,0,2023-04-21,2023-04-21,合同会社ＯＲＥ,,合同会社,神奈川県,横浜市港北区,北新横浜２丁目６番地１０－６０６号,,14,109,2230059,,,,,,,2023-04-21,1,,,,,オーアールイー,0
2420,9020005015958,新規,0,2023-04-21,2023-04-21,医療法人社団あかざ会,,その他の設立登記法人,神奈川県,川崎市多摩区,菅仙谷４丁目１番５号よみうりランドクリニックモール,,14,135,2140006,,,,,,,2023-04-21,1,,,,,アカザカイ,0
2423,9021001078783,新規,0,2023-04-21,2023-04-21,株式会社総進,,株式会社,神奈川県,相模原市中央区,東淵野辺５丁目７番２９号,,14,152,2520203,,,,,,,2023-04-21,1,,,,,ソウシン,0
2424,9021001078791,新規,0,2023-04-21,2023-04-21,株式会社ブレイブ,,株式会社,神奈川県,鎌倉市,浄明寺４丁目３－２４,,14,204,2480003,,,,,,,2023-04-21,1,,,,,ブレイブ,0
2425,9021001078825,新規,0,2023-04-21,2023-04-21,株式会社メディカル・エッジ,,株式会社,神奈川県,鎌倉市,材木座３丁目８番２６－３０３号,,14,204,2480013,,,,,,,2023-04-21,1,,,,,メディカルエッジ,0
2430,9030001153546,新規,0,2023-04-21,2023-04-21,株式会社おおつか,,株式会社,埼玉県,北葛飾郡松伏町,大字松伏３３８２番地２２,,11,465,3430111,,,,,,,2023-04-21,1,,,,,オオツカ,0
2431,9030001153562,新規,0,2023-04-21,2023-04-21,栄伸株式会社,,株式会社,埼玉県,蕨市,南町２丁目４番８号ニシケンハイツ蕨５０２号,,11,223,3350003,,,,,,,2023-04-21,1,,,,,エイシン,0
2434,9030003021593,新規,0,2023-04-21,2023-04-21,合同会社言祝木,,合同会社,埼玉県,戸田市,大字新曽７９９番地の３,,11,224,3350021,,,,,,,2023-04-21,1,,,,,コトホギ,0
2435,9030003021619,新規,0,2023-04-21,2023-04-21,ｉｃｏｉ．Ｌａｂｏ合同会社,,合同会社,埼玉県,桶川市,坂田西３丁目３３番地の１６,,11,231,3630018,,,,,,,2023-04-21,1,,,,,イコイラボ,0
2436,9030003021627,新規,0,2023-04-21,2023-04-21,ＴＭジャパン合同会社,,合同会社,埼玉県,三郷市,彦成３丁目１１番３－５１２号,,11,237,3410003,,,,,,,2023-04-21,1,,,,,ティーエムジャパン,0
2443,9040001127680,新規,0,2023-04-21,2023-04-21,株式会社安田住設,,株式会社,千葉県,木更津市,畔戸１９２６（金田西８街区１－１画地）ラ・カーサ・フェリーチェＢ３０３,,12,206,2920005,,,,,,,2023-04-21,1,,,,,,0
2444,9040001128076,新規,0,2023-04-21,2023-04-21,ニイダエンジニアリング株式会社,,株式会社,千葉県,君津市,中野２丁目５番１２－２号,,12,225,2991151,,,,,,,2023-04-21,1,,,,,ニイダエンジニアリング,0
2445,9040001128084,新規,0,2023-04-21,2023-04-21,株式会社Ｋｉｃｈｉｙａ,,株式会社,千葉県,流山市,大字東深井４５７番地の７,,12,220,2700101,,,,,,,2023-04-21,1,,,,,キチヤ,0
2446,9040001128092,新規,0,2023-04-21,2023-04-21,ｍｉｃａｓａ株式会社,,株式会社,千葉県,船橋市,日の出２丁目２－１３,,12,204,2730015,,,,,,,2023-04-21,1,,,,,ミカサ,0
2449,9040005021970,新規,0,2023-04-21,2023-04-21,医療法人社団厚祐会,,その他の設立登記法人,千葉県,千葉市花見川区,幕張町６丁目９０番地１幕張メディカルスクエア１階,,12,102,2620032,,,,,,,2023-04-21,1,,,,,コウユウカイ,0
2453,9060001035907,新規,0,2023-04-21,2023-04-21,株式会社楽愉,,株式会社,栃木県,佐野市,堀米町５０４番地９,,09,204,3270843,,,,,,,2023-04-21,1,,,,,ラクユ,0
2457,9070001040352,新規,0,2023-04-21,2023-04-21,株式会社轟,,株式会社,群馬県,太田市,岩瀬川町４３７番地,,10,205,3730841,,,,,,,2023-04-21,1,,,,,トドロキ,0
2480,9120001254203,新規,0,2023-04-21,2023-04-21,株式会社ＨＳＤホールディングス,,株式会社,大阪府,大阪市港区,弁天６丁目３番４号,,27,107,5520007,,,,,,,2023-04-21,1,,,,,エイチエスディーホールディングス,0
2481,9120001254269,新規,0,2023-04-21,2023-04-21,株式会社ＲＥＤ　ＭＡＸ,,株式会社,大阪府,大阪市鶴見区,今津北２丁目８番３６号,,27,124,5380041,,,,,,,2023-04-21,1,,,,,レッドマックス,0
2482,9120001254277,新規,0,2023-04-21,2023-04-21,株式会社ＩＴＵＷＡ,,株式会社,大阪府,大阪市北区,梅田１丁目２番２号大阪駅前第２ビル１２－１２,,27,127,5300001,,,,,,,2023-04-21,1,,,,,イツワ,0
2483,9120001254285,新規,0,2023-04-21,2023-04-21,株式会社ＣｏｏＷｉｎ,,株式会社,大阪府,大阪市北区,梅田２丁目２番２号ヒルトンプラザウエストオフィスタワー１９階,,27,127,5300001,,,,,,,2023-04-21,1,,,,,クーウィン,0
2484,9120001254293,新規,0,2023-04-21,2023-04-21,東和開発株式会社,,株式会社,大阪府,大阪市中央区,船場中央３丁目３番９号船場センタービル９号館２階,,27,128,5410055,,,,,,,2023-04-21,1,,,,,トウワカイハツ,0
2489,9120003023911,新規,0,2023-04-21,2023-04-21,共済合同会社,,合同会社,大阪府,大阪市生野区,中川４丁目２－４ホワイトビル４０２室,,27,116,5440005,,,,,,,2023-04-21,1,,,,,キョウサイ,0
2501,9130001074138,新規,0,2023-04-21,2023-04-21,株式会社ＣＡＰ,,株式会社,京都府,京都市右京区,西院西淳和院町３１メゾンノーブル４０２号,,26,108,6150016,,,,,,,2023-04-21,1,,,,,シーエーピー,0
2502,9130001074146,新規,0,2023-04-21,2023-04-21,株式会社みゆき住宅,,株式会社,京都府,京都市右京区,花園寺ノ中町２番地,,26,108,6168036,,,,,,,2023-04-21,1,,,,,ミユキジュウタク,0
2506,9130005016755,新規,0,2023-04-21,2023-04-21,一般社団法人ぼくみん,,その他の設立登記法人,京都府,京都市中京区,新町通六角下る六角町３５７－４,,26,104,6048212,,,,,,,2023-04-21,1,,,,,ボクミン,0
2512,9140001129907,新規,0,2023-04-21,2023-04-21,株式会社Ｍｏｌｃａ,,株式会社,兵庫県,加古川市,尾上町養田１３７２番地の２,,28,210,6750025,,,,,,,2023-04-21,1,,,,,モルカ,0
2513,9140001129915,新規,0,2023-04-21,2023-04-21,株式会社丸祥,,株式会社,兵庫県,神戸市兵庫区,出在家町２丁目２番２８号,,28,105,6520846,,,,,,,2023-04-21,1,,,,,マルショウ,0
2515,9140003019008,新規,0,2023-04-21,2023-04-21,花山薬局合同会社,,合同会社,兵庫県,神戸市中央区,海岸通６丁目１番１３－１８０５号,,28,110,6500024,,,,,,,2023-04-21,1,,,,,ハナヤマヤッキョク,0
2519,9170001017563,新規,0,2023-04-21,2023-04-21,オークアシスト株式会社,,株式会社,和歌山県,田辺市,文里１丁目２１番３０号,,30,206,6460023,,,,,,,2023-04-21,1,,,,,オークアシスト,0
2520,9170003001862,新規,0,2023-04-21,2023-04-21,合同会社ゆうき,,合同会社,和歌山県,和歌山市,森小手穂１２０９番地,,30,201,6408312,,,,,,,2023-04-21,1,,,,,ユウキ,0
2522,9180001155965,新規,0,2023-04-21,2023-04-21,株式会社八真,,株式会社,愛知県,北名古屋市,沖村西ノ郷９８番地１,,23,234,4810043,,,,,,,2023-04-21,1,,,,,ハッシン,0
2525,9180003025150,新規,0,2023-04-21,2023-04-21,ＭＪ‐Ｃｏｎｎｅｃｔ合同会社,,合同会社,愛知県,名古屋市名東区,本郷２丁目２２６西里ビル４Ｆ,,23,115,4650024,,,,,,,2023-04-21,1,,,,,エムジェイコネクト,0
2526,9180005020199,新規,0,2023-04-21,2023-04-21,一般社団法人つむぎ,,その他の設立登記法人,愛知県,名古屋市北区,八代町２丁目１１５番地２リエス黒川１階,,23,103,4620043,,,,,,,2023-04-21,1,,,,,ツムギ,0
2542,9220001025370,新規,0,2023-04-21,2023-04-21,株式会社三興産業,,株式会社,石川県,加賀市,松山町イ７５番地１,,17,206,9220316,,,,,,,2023-04-21,1,,,,,サンコウサンギョウ,0
2548,9240001061397,新規,0,2023-04-21,2023-04-21,株式会社パズルハウス林業,,株式会社,広島県,広島市中区,舟入幸町４番１４号,,34,101,7300844,,,,,,,2023-04-21,1,,,,,パズルハウスリンギョウ,0
2549,9240001061414,新規,0,2023-04-21,2023-04-21,株式会社ｓｕｒｐａｓｓ,,株式会社,広島県,広島市中区,流川町４番８号ＴＡＫＡビル４階,,34,101,7300028,,,,,,,2023-04-21,1,,,,,サーパス,0
2552,9250003003248,新規,0,2023-04-21,2023-04-21,合同会社鹿野未来,,合同会社,山口県,周南市,大字鹿野上３２５９番地の６,,35,215,7450302,,,,,,,2023-04-21,1,,,,,カノミライ,0
2554,9260001037882,新規,0,2023-04-21,2023-04-21,株式会社ＵＳＲＩＳＥ,,株式会社,岡山県,岡山市南区,築港新町２丁目７番９号,,33,104,7028056,,,,,,,2023-04-21,1,,,,,アスライズ,0
2558,9270001008759,新規,0,2023-04-21,2023-04-21,株式会社ｉｒｏｄｏｒｉ,,株式会社,鳥取県,鳥取市,美萩野１丁目１１８番地５,,31,201,6890202,,,,,,,2023-04-21,1,,,,,イロドリ,0
2564,9290001101280,新規,0,2023-04-21,2023-04-21,ライフシフトホーム株式会社,,株式会社,福岡県,福岡市西区,姪の浜２丁目２４－１５ウェルグラン姪浜マリナヒルズ８０２,,40,135,8190002,,,,,,,2023-04-21,1,,,,,ライフシフトホーム,0
2565,9290001101297,新規,0,2023-04-21,2023-04-21,株式会社Ｔ’Ｚ通信,,株式会社,福岡県,福岡市中央区,天神２丁目５番２８号,,40,133,8100001,,,,,,,2023-04-21,1,,,,,,0
2569,9290003013821,新規,0,2023-04-21,2023-04-21,ＬＩＮＱＮＩＬ　ＰＲＯＤＵＣＴＩＯＮ合同会社,,合同会社,福岡県,福岡市博多区,博多駅前１丁目２３番１号ＰａｒｋＦｒｏｎｔ博多駅前１丁目５Ｆ－Ｂ,,40,132,8120011,,,,,,,2023-04-21,1,,,,,リンクニルプロダクション,0
2571,9290005019016,新規,0,2023-04-21,2023-04-21,未来プラス監査法人,,その他の設立登記法人,福岡県,福岡市中央区,渡辺通５丁目１０番１８号ｉｂｂＢｌｏｏｍＴｅｎｊｉｎ１０２,,40,133,8100004,,,,,,,2023-04-21,1,,,,,ミライプラス,0
2572,9290005019024,新規,0,2023-04-21,2023-04-21,医療法人てらにしこどもクリニック,,その他の設立登記法人,福岡県,福岡市西区,拾六町団地１番１８号,,40,135,8190045,,,,,,,2023-04-21,1,,,,,テラニシコドモクリニック,0
2585,9330001030789,新規,0,2023-04-21,2023-04-21,株式会社ダイエー・ホームズ,,株式会社,熊本県,山鹿市,方保田３１４８－４,,43,208,8610382,,,,,,,2023-04-21,1,,,,,ダイエーホームズ,0
2586,9340001025524,新規,0,2023-04-21,2023-04-21,株式会社りそう,,株式会社,鹿児島県,鹿屋市,寿５丁目１２番５号,,46,203,8930014,,,,,,,2023-04-21,1,,,,,リソウ,0
2589,9350001018312,新規,0,2023-04-21,2023-04-21,株式会社春工業,,株式会社,宮崎県,宮崎市,田野町乙９５４７番地２５,,45,201,8891702,,,,,,,2023-04-21,1,,,,,ハルコウギョウ,0
2591,9360001031909,新規,0,2023-04-21,2023-04-21,株式会社大切なこと研究所,,株式会社,沖縄県,うるま市,勝連浜８３,,47,213,9042315,,,,,,,2023-04-21,1,,,,,タイセツナコトケンキュウジョ,0
2596,9370001049875,新規,0,2023-04-21,2023-04-21,株式会社Ｈａｒｕｋａｚｅ,,株式会社,宮城県,登米市,迫町佐沼字新大瀬１４３番地,,04,212,9870511,,,,,,,2023-04-21,1,,,,,ハルカゼ,0
2597,9380001033580,新規,0,2023-04-21,2023-04-21,株式会社いわきテクノ,,株式会社,福島県,いわき市,好間町大利字井田木２２６番地,,07,204,9701147,,,,,,,2023-04-21,1,,,,,,0
2600,9380003005446,新規,0,2023-04-21,2023-04-21,木こり屋七福合同会社,,合同会社,福島県,相馬市,中野字寺前１２６番地の７,,07,209,9760037,,,,,,,2023-04-21,1,,,,,キコリヤシチフク,0
2606,9430001088909,新規,0,2023-04-21,2023-04-21,マイクジャパン株式会社,,株式会社,北海道,札幌市中央区,南一条西８丁目１１番４号日専連ジェミスビル２Ｆ,,01,101,0600061,,,,,,,2023-04-21,1,,,,,マイクジャパン,0
2610,9450001013963,新規,0,2023-04-21,2023-04-21,株式会社ＦＡＲＭＳ　ＬＩＮＫ,,株式会社,北海道,稚内市,大字抜海村字上ユーチ原野１０４２番地２,,01,214,0970000,,,,,,,2023-04-21,1,,,,,ファームスリンク,0
2616,9500001024889,新規,0,2023-04-21,2023-04-21,株式会社ＦＵＪＩＴＡ,,株式会社,愛媛県,松山市,空港通１丁目１０番１３号ドゥエル空港通１１０３号,,38,201,7900054,,,,,,,2023-04-21,1,,,,,フジタ,0
2617,9700150115618,新規,0,2023-04-21,2023-04-21,ｓｈｅｎ　ｚｈｅｎ　ｓｈｉ　ｏｕ　ｒｕｉ　ｄａｉ　ｓｈａｎｇ　ｍａｏ　ｙｏｕ　ｘｉａｎ　ｇｏｎｇ　ｓｉ,,外国会社等,,,,,,,,ｌｏｎｇ　ｇａｎｇ　ｑｕ　ｂａｎ　ｔｉａｎ　ｊｉｅ　ｄａｏ　ｄａ　ｆａ　ｐｕ　ｓｈｅ　ｑｕ　ｃｈａｎｇｆａ　ｘｉ　ｌｕ　３４　ｈａｏ　ｚｈｏｎｇ　ｂａｏ　ｔｏｎｇ　Ａ２　ｄｏｎｇ　４０１　ｓｈｅｎ　ｚｈｅｎ　ｇｕａｎｇ　ｄｏｎｇ　５１８１２９　ＣＮ,,,,,,2023-04-21,1,,,,,シェンジェンシーオウルイダイシャンマオヨウシエンゴンスー,0
2618,9700150115626,新規,0,2023-04-21,2023-04-21,Ｓｈｅｎ　Ｚｈｅｎ　Ｓｈｉ　Ｍｏ　Ｄｅｎｇ　Ｋｅ　Ｊｉ　Ｙｏｕ　Ｘｉａｎ　Ｇｏｎｇ　Ｓｉ,,外国会社等,,,,,,,,４０７，Ｂｌｄｇ　Ｂ，Ｈｕａｎａｎ　Ｔｅｃｈ　Ｐａｒｋ　３０１４　Ｂａｎｘｕｅｇａｎｇ　Ａｖｅｎｕｅ，Ｂａｎｔｉａｎ　Ｓｔｒｅｅｔ，Ｌｏｎｇｇａｎｇ　Ｄｉｓｔｒｉｃｔ　Ｓｈｅｎｚｈｅｎ　Ｇｕａｎｇｄｏｎｇ,,,,,,2023-04-21,1,,,,,シェンジェンシーモードンコージーヨウシエンゴンスー,0
