sequenceNumber,corporateNumber,process,correct,updateDate,changeDate,name,nameImageId,kind,prefectureName,cityName,streetNumber,addressImageId,prefectureCode,cityCode,postCode,addressOutside,addressOutsideImageId,closeDate,closeCause,successorCorporateNumber,changeCause,assignmentDate,latest,enName,enPrefectureName,enCityName,enAddressOutside,furigana,hihyoji
1,1010001020986,登記記録の閉鎖等,0,2021-09-10,2021-09-06,株式会社セレクト,,株式会社,東京都,千代田区,東神田１丁目１１番７号,,13,101,1010031,,,2021-09-06,清算の結了等,,,2015-10-05,1,,,,,セレクト,0
29,1010601051101,登記記録の閉鎖等,0,2021-09-10,2021-08-26,株式会社スミダフーズ,,株式会社,東京都,墨田区,向島４丁目２２番１３号,,13,107,1310033,,,2021-08-26,清算の結了等,,,2017-02-10,1,,,,,スミダフーズ,0
45,1011002036534,登記記録の閉鎖等,0,2021-09-10,2021-09-08,有限会社アルマダ・インターナショナル,,有限会社,東京都,渋谷区,広尾１丁目１６番３号,,13,113,1500012,,,2021-09-08,清算の結了等,,,2015-10-05,1,,,,,アルマダインターナショナル,0
47,1011005007219,登記記録の閉鎖等,0,2021-09-10,2021-08-19,特定非営利活動法人ブルー,,その他の設立登記法人,東京都,渋谷区,神宮前４丁目２６番２８号２階,,13,113,1500001,,,2021-08-19,清算の結了等,,,2017-05-31,1,,,,,ブルー,0
54,1011501026060,登記記録の閉鎖等,0,2021-09-10,2021-09-07,株式会社Ｖｅｇａｓ　Ｈｉｌｌｓ,,株式会社,東京都,北区,西ケ原３丁目２７番１１－１０１号アートヒルズ,,13,117,1140024,,,2021-09-07,清算の結了等,,,2020-07-30,1,,,,,ベガスヒルズ,0
64,1020001041809,登記記録の閉鎖等,0,2021-09-10,2021-09-08,ＤＳフードサービス株式会社,,株式会社,東京都,品川区,西五反田１丁目２７番２号,,13,109,1410031,,,2021-09-08,合併による解散等,1180001001037,令和３年９月１日名古屋市中区千代田五丁目７番５号日本ゼネラルフード株式会社（1180001001037）に合併し解散,2015-10-05,1,,,,,ディーエスフードサービス,0
91,1030001103681,登記記録の閉鎖等,0,2021-09-10,2021-09-01,株式会社トラスティエステート,,株式会社,埼玉県,三郷市,早稲田２丁目１３番地３,,11,237,3410018,,,2021-09-01,清算の結了等,,,2015-10-05,1,,,,,トラスティエステート,0
104,1040001022815,登記記録の閉鎖等,0,2021-09-10,2021-09-03,アライブ４株式会社,,株式会社,千葉県,八千代市,島田１００４番地,,12,221,2760005,,,2021-09-03,清算の結了等,,,2015-10-05,1,,,,,アライブフォー,0
114,1040002094853,登記記録の閉鎖等,0,2021-09-10,2021-09-01,有限会社新生工業,,有限会社,千葉県,柏市,光ケ丘２丁目２５番４号バディハイツ光ヶ丘３０１,,12,217,2770065,,,2021-09-01,清算の結了等,,,2015-10-05,1,,,,,シンセイコウギョウ,0
119,1050002027630,登記記録の閉鎖等,0,2021-09-10,2021-09-03,有限会社飯塚工業,,有限会社,茨城県,神栖市,波崎高野５２５９番地,,08,232,3140408,,,2021-09-03,清算の結了等,,,2015-10-05,1,,,,,イイツカコウギョウ,0
127,1070002020583,登記記録の閉鎖等,0,2021-09-10,2021-09-07,有限会社吉田製作所,,有限会社,群馬県,伊勢崎市,境上矢島８８３番地,,10,204,3700111,,,2021-09-07,清算の結了等,,,2015-10-05,1,,,,,ヨシダセイサクジョ,0
132,1080102000740,登記記録の閉鎖等,0,2021-09-10,2021-09-03,有限会社オオミヤ,,有限会社,静岡県,沼津市,大手町５丁目８番２号,,22,203,4100801,,,2021-09-03,合併による解散等,8020002076896,令和３年８月３０日横浜市戸塚区品濃町５６０番地４株式会社ジャスティス（8020002076896）に合併し解散,2015-10-05,1,,,,,オオミヤ,0
134,1080402021619,登記記録の閉鎖等,0,2021-09-10,2021-09-09,有限会社スズキデンキ,,有限会社,静岡県,袋井市,国本２０９６番地の１,,22,216,4370012,,,2021-09-09,清算の結了等,,,2015-10-05,1,,,,,スズキデンキ,0
136,1090002011630,登記記録の閉鎖等,0,2021-09-10,2021-09-03,有限会社井出染料商店,,有限会社,山梨県,富士吉田市,下吉田４丁目２番２８号,,19,202,4030004,,,2021-09-03,清算の結了等,,,2015-10-05,1,,,,,イデセンリョウショウテン,0
147,1120001004730,登記記録の閉鎖等,0,2021-09-10,2021-09-06,ＵＰゲート株式会社,,株式会社,大阪府,大阪市住吉区,帝塚山中４丁目７番１－１０１号,,27,120,5580053,,,2021-09-06,清算の結了等,,,2015-10-05,1,,,,,アップゲート,0
148,1120001123836,登記記録の閉鎖等,0,2021-09-10,2021-09-06,ＹＭＴプロ株式会社,,株式会社,大阪府,大阪市中央区,内本町２丁目１番１３号,,27,128,5400026,,,2021-09-06,清算の結了等,,,2015-10-05,1,,,,,ワイエムティープロ,0
163,1120003003301,登記記録の閉鎖等,0,2021-09-10,2021-09-03,合資会社明治屋,,合資会社,大阪府,大阪市福島区,野田３丁目１１番３号,,27,103,5530005,,,2021-09-03,清算の結了等,,,2015-10-05,1,,,,,メイジヤ,0
170,1120101032739,登記記録の閉鎖等,0,2021-09-10,2021-09-09,関西綜合保険センター株式会社,,株式会社,大阪府,藤井寺市,北岡１丁目７番１５号,,27,226,5830035,,,2021-09-09,清算の結了等,,,2015-10-05,1,,,,,カンサイソウゴウホケンセンター,0
180,1130001042399,登記記録の閉鎖等,0,2021-09-10,2021-09-06,株式会社テルノ,,株式会社,京都府,京都市伏見区,向島二ノ丸町３３６番地２６,,26,109,6128141,,,2021-09-06,清算の結了等,,,2015-10-05,1,,,,,テルノ,0
182,1130001045451,登記記録の閉鎖等,0,2021-09-10,2021-09-07,ＫＤエレクトロン株式会社,,株式会社,京都府,亀岡市,篠町篠下西裏４３番地,,26,206,6210826,,,2021-09-07,清算の結了等,,,2015-10-05,1,,,,,ケーディーエレクトロン,0
194,1160002000477,登記記録の閉鎖等,0,2021-09-10,2021-09-08,有限会社川梅商店,,有限会社,滋賀県,大津市,逢坂１丁目２１番９号,00044498,25,201,5200054,,,2021-09-08,清算の結了等,,,2015-10-05,1,,,,,カワウメショウテン,0
204,1180002040100,登記記録の閉鎖等,0,2021-09-10,2021-09-06,有限会社サンエフ技建,,有限会社,愛知県,名古屋市南区,豊２丁目５番２０号,,23,112,4570863,,,2021-09-06,清算の結了等,,,2015-10-05,1,,,,,サンエフギケン,0
212,1200001010687,登記記録の閉鎖等,0,2021-09-10,2021-09-08,株式会社アカオ,,株式会社,岐阜県,羽島郡岐南町,徳田７丁目３４番地,,21,302,5016016,,,2021-09-08,清算の結了等,,,2015-10-05,1,,,,,,0
225,1230002008785,登記記録の閉鎖等,0,2021-09-10,2021-09-06,有限会社愛二鉄工所,,有限会社,富山県,滑川市,中村１３２２番地,,16,206,9360002,,,2021-09-06,清算の結了等,,,2015-10-05,1,,,,,アイジテッコウジョ,0
232,1250002002596,登記記録の閉鎖等,0,2021-09-10,2021-09-06,北村新建材有限会社,,有限会社,山口県,山口市,徳地堀１５６４番地の１,,35,203,7470231,,,2021-09-06,清算の結了等,,,2015-10-05,1,,,,,キタムラシンケンザイ,0
237,1250005000102,登記記録の閉鎖等,0,2021-09-10,2021-09-06,一般社団法人山口県病院等特定退職金共済会,,その他の設立登記法人,山口県,山口市,吉敷下東３丁目１番１号,,35,203,7530814,,,2021-09-06,清算の結了等,,,2015-10-05,1,,,,,ヤマグチケンビョウイントウトクテイタイショクキンキョウサイカイ,0
240,1260001024640,登記記録の閉鎖等,0,2021-09-10,2021-09-09,株式会社ちえのわ不動産,,株式会社,岡山県,岡山市中区,中納言町３番２２号壱,,33,102,7038292,,,2021-09-09,清算の結了等,,,2015-10-05,1,,,,,チエノワフドウサン,0
274,1340005006296,登記記録の閉鎖等,0,2021-09-10,2021-09-06,特定非営利活動法人鹿児島県ゼロ・エミッション推進協議会,,その他の設立登記法人,鹿児島県,鹿児島市,皇徳寺台２丁目５番１－４１号,,46,201,8910103,,,2021-09-06,清算の結了等,,,2015-10-05,1,,,,,カゴシマケンゼロエミッションスイシンキョウギカイ,0
307,1470002012730,登記記録の閉鎖等,0,2021-09-10,2021-09-07,有限会社三宅燃料店,,有限会社,香川県,仲多度郡多度津町,仲ノ町８番６号,,37,404,7640004,,,2021-09-07,清算の結了等,,,2015-10-05,1,,,,,ミヤケネンリョウテン,0
311,1480002010312,登記記録の閉鎖等,0,2021-09-10,2021-09-06,有限会社栄信商会,,有限会社,徳島県,阿波市,阿波町医王寺１１３番地６,,36,206,7711705,,,2021-09-06,清算の結了等,,,2015-10-05,1,,,,,エイシンショウカイ,0
312,1480005006225,登記記録の閉鎖等,0,2021-09-10,2021-09-02,特定非営利活動法人日本ペアレント・メンター研究会,,その他の設立登記法人,徳島県,鳴門市,撫養町林崎字南殿町６１番地１フラット古鷹,,36,202,7720016,,,2021-09-02,清算の結了等,,,2015-10-05,1,,,,,ニホンペアレントメンターケンキュウカイ,0
341,2010402015139,登記記録の閉鎖等,0,2021-09-10,2021-09-01,有限会社エム・シー・エー・イヌイ,,有限会社,東京都,港区,白金台５丁目１７番２号,,13,103,1080071,,,2021-09-01,合併による解散等,3011001120097,令和３年９月１日東京都港区白金台五丁目１７番２号株式会社ＣＡＩ（3011001120097）に合併し解散,2015-10-05,1,,,,,エムシーエーイヌイ,0
350,2010605002181,登記記録の閉鎖等,0,2021-09-10,2021-08-27,一般社団法人医療統計情報プラットフォーム研究会,,その他の設立登記法人,東京都,墨田区,千歳１丁目９番１０号,,13,107,1300025,,,2021-08-27,清算の結了等,,,2015-10-05,1,,,,,イリョウトウケイジョウホウプラットフォームケンキュウカイ,0
352,2010701039623,登記記録の閉鎖等,0,2021-09-10,2021-09-07,株式会社ライフサイクルラボ,,株式会社,東京都,品川区,東大井３丁目２２番３－１１３号,,13,109,1400011,,,2021-09-07,清算の結了等,,,2020-07-30,1,,,,,ライフサイクルラボ,0
353,2010901011407,登記記録の閉鎖等,0,2021-09-10,2021-09-06,株式会社マトリクス,,株式会社,東京都,世田谷区,桜丘１丁目３番２０号,,13,112,1560054,,,2021-09-06,清算の結了等,,,2015-10-05,1,,,,,マトリクス,0
369,2011701014764,登記記録の閉鎖等,0,2021-09-10,2021-08-31,株式会社そよかぜ,,株式会社,東京都,江戸川区,上篠崎４丁目２９番２号,,13,123,1330054,,,2021-08-31,清算の結了等,,,2015-10-05,1,,,,,ソヨカゼ,0
375,2012701009944,登記記録の閉鎖等,0,2021-09-10,2021-09-08,サクラ株式会社,,株式会社,東京都,東村山市,栄町２丁目１４番地２,,13,213,1890013,,,2021-09-08,清算の結了等,,,2015-10-05,1,,,,,サクラ,0
376,2012702000175,登記記録の閉鎖等,0,2021-09-10,2021-09-06,有限会社新井管工,,有限会社,東京都,小平市,上水本町４丁目１９番１５号,,13,211,1870022,,,2021-09-06,清算の結了等,,,2015-10-05,1,,,,,アライカンコウ,0
377,2012702013920,登記記録の閉鎖等,0,2021-09-10,2021-09-06,有限会社まほら綜合企画研究所,,有限会社,東京都,東村山市,本町４丁目１７番地１１,,13,213,1890014,,,2021-09-06,清算の結了等,,,2015-10-05,1,,,,,マホラソウゴウキカクケンキュウジョ,0
407,2021003009289,登記記録の閉鎖等,0,2021-09-10,2021-09-06,翔輝総建合同会社,,合同会社,神奈川県,大和市,西鶴間６丁目２４番３号,,14,213,2420005,,,2021-09-06,清算の結了等,,,2020-04-16,1,,,,,トキソウケン,0
412,2030001018292,登記記録の閉鎖等,0,2021-09-10,2021-08-27,株式会社吉輪不動産,,株式会社,埼玉県,さいたま市岩槻区,本町３丁目１番１号ワッツ西館１Ｆ,,11,110,3390057,,,2021-08-27,清算の結了等,,,2015-10-05,1,,,,,ヨシワフドウサン,0
424,2030001140716,登記記録の閉鎖等,0,2021-09-10,2021-09-01,株式会社サンライズ・エージェント,,株式会社,埼玉県,さいたま市西区,三橋６丁目１２３番地１６,,11,101,3310052,,,2021-09-01,清算の結了等,,,2021-02-10,1,,,,,サンライズエージェント,0
436,2040001050105,登記記録の閉鎖等,0,2021-09-10,2021-09-03,ＨＫ２号株式会社,,株式会社,千葉県,千葉市若葉区,高品町１５８８番地１,,12,104,2640024,,,2021-09-03,清算の結了等,,,2015-10-05,1,,,,,エイチケイニゴウ,0
455,2110001032541,登記記録の閉鎖等,0,2021-09-10,2021-09-07,株式会社パスプラン,,株式会社,新潟県,新潟市中央区,関新２丁目１番７３号遊学館,,15,103,9518141,,,2021-09-07,清算の結了等,,,2017-07-13,1,,,,,パスプラン,0
457,2110002010414,登記記録の閉鎖等,0,2021-09-10,2021-09-06,味方総合資材有限会社,,有限会社,新潟県,新潟市南区,味方３６番地,,15,106,9501261,,,2021-09-06,清算の結了等,,,2015-10-05,1,,,,,アジカタソウゴウシザイ,0
458,2110002013508,登記記録の閉鎖等,0,2021-09-10,2021-09-06,有限会社長谷川設計,,有限会社,新潟県,阿賀野市,緑岡２３１番地５７,,15,223,9592113,,,2021-09-06,清算の結了等,,,2015-10-05,1,,,,,ハセガワセッケイ,0
475,2120002015783,登記記録の閉鎖等,0,2021-09-10,2021-09-03,有限会社日乃出,,有限会社,大阪府,大阪市港区,磯路３丁目２５番７－３０４号,,27,107,5520003,,,2021-09-03,清算の結了等,,,2015-10-05,1,,,,,ヒノデ,0
479,2120101056076,登記記録の閉鎖等,0,2021-09-10,2021-09-06,株式会社ＪＪ設備,,株式会社,大阪府,泉佐野市,日根野３４１０番地の８,,27,213,5980021,,,2021-09-06,清算の結了等,,,2017-02-20,1,,,,,ジェイジェイセツビ,0
486,2130001015288,登記記録の閉鎖等,0,2021-09-10,2021-09-06,西岡工業株式会社,,株式会社,京都府,京都市伏見区,桃山町鍋島２番地の１桃山プラザ７０６号,,26,109,6128037,,,2021-09-06,清算の結了等,,,2015-10-05,1,,,,,ニシオカコウギョウ,0
487,2130001021674,登記記録の閉鎖等,0,2021-09-10,2021-09-06,塚崎染工株式会社,,株式会社,京都府,京都市中京区,壬生松原町３２番地,,26,104,6048823,,,2021-09-06,清算の結了等,,,2015-10-05,1,,,,,ツカサキセンコウ,0
498,2170001010104,登記記録の閉鎖等,0,2021-09-10,2021-09-09,中紀酒類株式会社,,株式会社,和歌山県,御坊市,島４６２番地の５,,30,205,6440003,,,2021-09-09,清算の結了等,,,2015-10-05,1,,,,,チ,0
512,2180301000076,登記記録の閉鎖等,0,2021-09-10,2021-09-07,アイチホームサービス株式会社,,株式会社,愛知県,岡崎市,舳越町字神道５３番地１,,23,202,4440902,,,2021-09-07,合併による解散等,7180001054590,令和３年９月１日名古屋市東区武平町五丁目１番地株式会社ＢＲＡＴ（7180001054590）に合併し解散,2015-10-05,1,,,,,アイチホームサービス,0
513,2180301022293,登記記録の閉鎖等,0,2021-09-10,2021-09-07,株式会社伊藤自動車販売,,株式会社,愛知県,西尾市,菱池町大道４２番地,,23,213,4450874,,,2021-09-07,清算の結了等,,,2015-10-05,1,,,,,イトウジドウシャハンバイ,0
516,2180302003796,登記記録の閉鎖等,0,2021-09-10,2021-09-09,有限会社クライム,,有限会社,愛知県,岡崎市,八帖北町４番の１３,,23,202,4440924,,,2021-09-09,清算の結了等,,,2015-10-05,1,,,,,クライム,0
519,2200001034875,登記記録の閉鎖等,0,2021-09-10,2021-09-08,株式会社イマージュ,,株式会社,岐阜県,羽島市,竹鼻町飯柄７８４番地,,21,209,5016233,,,2021-09-08,清算の結了等,,,2018-02-09,1,,,,,イマージュ,0
523,2230002007613,登記記録の閉鎖等,0,2021-09-10,2021-09-06,有限会社沢泉呉服店,,有限会社,富山県,魚津市,真成寺町３番３号,,16,204,9370867,,,2021-09-06,清算の結了等,,,2015-10-05,1,,,,,サワイズミゴフクテン,0
528,2240002017826,登記記録の閉鎖等,0,2021-09-10,2021-09-08,有限会社ヨシユキ電設工業,,有限会社,広島県,広島市東区,牛田東３丁目３０番４号,,34,102,7320063,,,2021-09-08,清算の結了等,,,2015-10-05,1,,,,,ヨシユキデンセツコウギョウ,0
549,2310002017876,登記記録の閉鎖等,0,2021-09-10,2021-09-02,有限会社エガワ電器商会,,有限会社,長崎県,島原市,宇土町乙９６８番地１,,42,203,8550071,,,2021-09-02,合併による解散等,2310002018619,令和３年９月１日長崎県島原市宇土町乙９６８番地１株式会社和幸（2310002018619）に合併し解散,2015-10-05,1,,,,,エガワデンキショウカイ,0
566,2370301003332,登記記録の閉鎖等,0,2021-09-10,2021-09-01,東洋ワーク沿岸特区株式会社,,株式会社,宮城県,石巻市,新境町１丁目１番地７,,04,202,9860864,,,2021-09-01,合併による解散等,7370001009526,令和３年９月１日仙台市青葉区国分町一丁目７番１８号東洋ワーク株式会社（7370001009526）に合併し解散,2015-10-05,1,,,,,トウヨウワークエンガントック,0
573,2380005006812,登記記録の閉鎖等,0,2021-09-10,2021-09-01,医療法人矢野内科胃腸科,,その他の設立登記法人,福島県,いわき市,東田町２丁目２番地の１７,,07,204,9748212,,,2021-09-01,清算の結了等,,,2015-10-05,1,,,,,ヤノナイカイチョウカ,0
575,2390001001675,登記記録の閉鎖等,0,2021-09-10,2021-09-06,株式会社フレッシュフーズ蔵王,,株式会社,山形県,山形市,蔵王温泉字川前９３５番地の８,,06,201,9902301,,,2021-09-06,清算の結了等,,,2015-10-05,1,,,,,フレツシュフーズザオウ,0
583,2430001031651,登記記録の閉鎖等,0,2021-09-10,2021-09-01,株式会社ジェイテック北海道,,株式会社,北海道,札幌市中央区,南一条西５丁目５番地５,,01,101,0600061,,,2021-09-01,清算の結了等,,,2015-10-05,1,,,,,ジェイテックホッカイドウ,0
587,2430003012377,登記記録の閉鎖等,0,2021-09-10,2021-09-02,合同会社イルビーファイン,,合同会社,北海道,札幌市厚別区,厚別東二条２丁目１番１０－２０１号,,01,108,0040002,,,2021-09-02,清算の結了等,,,2021-01-27,1,,,,,イルビーファイン,0
590,2460002003754,登記記録の閉鎖等,0,2021-09-10,2021-09-08,有限会社エラ,,有限会社,北海道,釧路市,新富士町４丁目７番１１号,,01,206,0840904,,,2021-09-08,清算の結了等,,,2015-10-05,1,,,,,エラ,0
593,2470002000775,登記記録の閉鎖等,0,2021-09-10,2021-09-07,有限会社安部防熱,,有限会社,香川県,高松市,西植田町６６４番地１,,37,201,7610445,,,2021-09-07,清算の結了等,,,2015-10-05,1,,,,,アベボウネツ,0
594,2470002015179,登記記録の閉鎖等,0,2021-09-10,2021-09-07,有限会社中村商店,,有限会社,香川県,坂出市,京町１丁目５番２１号,,37,203,7620001,,,2021-09-07,清算の結了等,,,2015-10-05,1,,,,,ナカムラショウテン,0
603,3010001132961,登記記録の閉鎖等,0,2021-09-10,2021-09-01,株式会社ヒルクレーン,,株式会社,東京都,千代田区,内神田３丁目５番５号大同ビル１階,,13,101,1010047,,,2021-09-01,清算の結了等,,,2015-10-05,1,,,,,ヒルクレーン,0
626,3010401026078,登記記録の閉鎖等,0,2021-09-10,2021-09-01,株式会社ブックマネージメント,,株式会社,東京都,港区,南青山１丁目８番１８号,,13,103,1070062,,,2021-09-01,合併による解散等,3010401028594,令和３年９月１日東京都港区南青山一丁目８番１８号株式会社ミスター・ミュージック（3010401028594）に合併し解散,2015-10-05,1,,,,,ブックマネージメント,0
627,3010401026235,登記記録の閉鎖等,0,2021-09-10,2021-09-01,株式会社ブレイントラスト,,株式会社,東京都,港区,三田３丁目１番１０号,,13,103,1080073,,,2021-09-01,清算の結了等,,,2015-10-05,1,,,,,ブレイントラスト,0
642,3010602011003,登記記録の閉鎖等,0,2021-09-10,2021-08-27,有限会社笹野工業所,,有限会社,東京都,墨田区,緑２丁目１０番５号,,13,107,1300021,,,2021-08-27,清算の結了等,,,2015-10-05,1,,,,,ササノコウギョウショ,0
655,3011001066398,登記記録の閉鎖等,0,2021-09-10,2021-09-01,株式会社シンクロシティ,,株式会社,東京都,港区,白金台５丁目１４－１、３０１,,13,103,1080071,,,2021-09-01,合併による解散等,3010402026580,令和３年９月１日東京都港区白金台５－１４－１株式会社スタジオ・テラ（3010402026580）に合併し解散,2015-10-05,1,,,,,シンクロシティ,0
670,3011103010411,登記記録の閉鎖等,0,2021-09-10,2021-09-02,合同会社随神綜完,,合同会社,東京都,新宿区,西落合３丁目８番１号Ｍ＆Ａビル５０２,,13,104,1610031,,,2021-09-02,清算の結了等,,,2021-02-24,1,,,,,カンナガラソウカン,0
677,3011402000856,登記記録の閉鎖等,0,2021-09-10,2021-09-06,有限会社石田工業,,有限会社,東京都,板橋区,徳丸３丁目１３番８号,,13,119,1750083,,,2021-09-06,清算の結了等,,,2015-10-05,1,,,,,イシダコウギョウ,0
686,3011802003005,登記記録の閉鎖等,0,2021-09-10,2021-09-08,有限会社エスアールエス,,有限会社,東京都,葛飾区,宝町１丁目１４番８号,,13,122,1240005,,,2021-09-08,清算の結了等,,,2015-10-05,1,,,,,エスアールエス,0
738,3040001093722,登記記録の閉鎖等,0,2021-09-10,2021-09-01,株式会社Ｐｅｔｉｔａｎｇｅ,,株式会社,千葉県,市川市,香取２丁目９番１２号,,12,203,2720141,,,2021-09-01,合併による解散等,7040001106463,令和３年９月１日千葉県市川市香取二丁目９番１２号ＴＭＴ株式会社（7040001106463）に合併し解散,2016-01-20,1,,,,,プティタンジュ,0
741,3040002072865,登記記録の閉鎖等,0,2021-09-10,2021-09-03,有限会社川上洋品店,,有限会社,千葉県,市原市,八幡１０２３番地,,12,219,2900062,,,2021-09-03,清算の結了等,,,2015-10-05,1,,,,,カワカミヨウヒンテン,0
747,3040005018337,登記記録の閉鎖等,0,2021-09-10,2021-09-01,特定非営利活動法人Ｅｃｏｍｍｕｎｉｔｙ　Ｐｒｏｊｅｃｔ,,その他の設立登記法人,千葉県,千葉市若葉区,高品町１５５番地１,,12,104,2640024,,,2021-09-01,清算の結了等,,,2015-10-05,1,,,,,エコミュニティプロジェクト,0
749,3050001016401,登記記録の閉鎖等,0,2021-09-10,2021-09-01,株式会社コウジョウ,,株式会社,東京都,中央区,日本橋茅場町２丁目３番６号,,13,102,1030025,,,2021-09-01,清算の結了等,,,2015-10-05,1,,,,,コウジョウ,0
761,3070002012703,登記記録の閉鎖等,0,2021-09-10,2021-09-06,有限会社ワイ・エムカンパニー,,有限会社,群馬県,高崎市,柴崎町１０９７番地,,10,202,3700035,,,2021-09-06,清算の結了等,,,2015-10-05,1,,,,,ワイエムカンパニー,0
763,3070002031612,登記記録の閉鎖等,0,2021-09-10,2021-09-03,有限会社ウィズ,,有限会社,群馬県,太田市,龍舞町５０１２番地,,10,205,3730806,,,2021-09-03,清算の結了等,,,2015-10-05,1,,,,,ウィズ,0
767,3080402010000,登記記録の閉鎖等,0,2021-09-10,2021-09-08,有限会社八木田養魚,,有限会社,静岡県,浜松市西区,舞阪町舞阪２６６８番地の２７７,,22,133,4310211,,,2021-09-08,清算の結了等,,,2015-10-05,1,,,,,ヤギタヨウギョ,0
769,3110002008993,登記記録の閉鎖等,0,2021-09-10,2021-09-06,有限会社ケーユーテック,,有限会社,新潟県,新潟市中央区,大島４１番地４９,,15,103,9500953,,,2021-09-06,清算の結了等,,,2015-10-05,1,,,,,ケーユーテック,0
791,3120102019733,登記記録の閉鎖等,0,2021-09-10,2021-09-07,有限会社カナックス,,有限会社,大阪府,河内長野市,向野町７７番地の１４,,27,216,5860013,,,2021-09-07,清算の結了等,,,2015-10-05,1,,,,,カナックス,0
799,3130002027678,登記記録の閉鎖等,0,2021-09-10,2021-09-06,有限会社エムアイシー,,有限会社,京都府,宇治市,槇島町目川６９,,26,204,6110041,,,2021-09-06,清算の結了等,,,2015-10-05,1,,,,,エムアイシー,0
805,3140001121877,登記記録の閉鎖等,0,2021-09-10,2021-09-07,株式会社森商,,株式会社,兵庫県,神戸市須磨区,妙法寺字岩山１０５８－１－６０３,,28,107,6540121,,,2021-09-07,清算の結了等,,,2021-06-07,1,,,,,モリショウ,0
813,3170005000166,登記記録の閉鎖等,0,2021-09-10,2021-08-30,和歌山県建材商協同組合,,その他の設立登記法人,和歌山県,和歌山市,中之島７０６番地,,30,201,6408392,,,2021-08-30,清算の結了等,,,2015-10-05,1,,,,,ワカヤマケンケンザイショウ,0
819,3180001125577,登記記録の閉鎖等,0,2021-09-10,2021-09-01,ＡＳＫ会計塾株式会社,,株式会社,愛知県,名古屋市中区,丸の内３丁目２２番２１号,,23,106,4600002,,,2021-09-01,清算の結了等,,,2016-11-18,1,,,,,アスクカイケイジュク,0
823,3180002060922,登記記録の閉鎖等,0,2021-09-10,2021-09-03,有限会社高橋工業,,有限会社,愛知県,名古屋市北区,東味鋺３丁目１０１９番地,,23,103,4620013,,,2021-09-03,清算の結了等,,,2015-10-05,1,,,,,タカハシコウギョウ,0
828,3200001009273,登記記録の閉鎖等,0,2021-09-10,2021-09-09,株式会社岐阜観光旅行センター,,株式会社,岐阜県,岐阜市,大福町８丁目６４番地,,21,201,5020934,,,2021-09-09,清算の結了等,,,2015-10-05,1,,,,,ギフカンコウリョコウセンター,0
845,3260003001685,登記記録の閉鎖等,0,2021-09-10,2021-09-09,合同会社スミレ,,合同会社,岡山県,岡山市東区,下阿知１２６７番地,,33,103,7048141,,,2021-09-09,清算の結了等,,,2015-10-05,1,,,,,スミレ,0
846,3280005004651,登記記録の閉鎖等,0,2021-09-10,2021-09-09,専稱寺,,その他の設立登記法人,島根県,江津市,桜江町小田３３３番地,,32,207,6994225,,,2021-09-09,清算の結了等,,,2015-10-05,1,,,,,センショウジ,0
858,3290802018464,登記記録の閉鎖等,0,2021-09-10,2021-09-01,有限会社ニイミ薬局,,有限会社,福岡県,北九州市若松区,青葉台南２丁目１７番１号,,40,103,8080142,,,2021-09-01,清算の結了等,,,2015-10-05,1,,,,,ニイミヤッキョク,0
866,3350002012674,登記記録の閉鎖等,0,2021-09-10,2021-09-01,有限会社マリエール松井,,有限会社,宮崎県,延岡市,祇園町２丁目５番地６,,45,203,8820043,,,2021-09-01,合併による解散等,7350001007011,令和３年８月３１日宮崎県延岡市祇園町二丁目５番地６株式会社松井商店（7350001007011）に合併し解散,2015-10-05,1,,,,,マリエールマツイ,0
884,3400501000109,登記記録の閉鎖等,0,2021-09-10,2021-09-08,クレイン株式会社,,株式会社,岩手県,一関市,磐井町５番３２号,,03,209,0210894,,,2021-09-08,清算の結了等,,,2015-10-05,1,,,,,クレイン,0
885,3400601001122,登記記録の閉鎖等,0,2021-09-10,2021-09-01,株式会社ＭＩＣ,,株式会社,宮城県,遠田郡美里町,関根字堤筒７９,,04,505,9870006,,,2021-09-01,合併による解散等,7370001009526,令和３年９月１日仙台市青葉区国分町一丁目７番１８号東洋ワーク株式会社（7370001009526）に合併し解散,2015-10-05,1,,,,,ミック,0
891,3430001001125,登記記録の閉鎖等,0,2021-09-10,2021-09-02,株式会社アルフアビジヨン,,株式会社,北海道,札幌市白石区,菊水上町一条４丁目１番地２１,,01,104,0030811,,,2021-09-02,合併による解散等,4430001083328,令和３年９月１日北海道美唄市字上美唄原野２６０３番地１７株式会社北海道美唄生薬総合研究所（4430001083328）に合併し解散,2015-10-05,1,,,,,アルフアビジヨン,0
892,3430001004912,登記記録の閉鎖等,0,2021-09-10,2021-09-02,株式会社輝隆,,株式会社,北海道,札幌市清田区,平岡十条１丁目４番２３号,,01,110,0040880,,,2021-09-02,清算の結了等,,,2015-10-05,1,,,,,キリュウ,0
913,4010001018367,登記記録の閉鎖等,0,2021-09-10,2021-09-06,株式会社新川代理店,,株式会社,東京都,千代田区,神田淡路町１丁目１３番地日鉱ビル,,13,101,1010063,,,2021-09-06,清算の結了等,,,2015-10-05,1,,,,,シンカワダイリテン,0
927,4010101003954,登記記録の閉鎖等,0,2021-09-10,2021-09-06,森田商事株式会社,,株式会社,東京都,福生市,大字福生１１１３番地,,13,218,1970011,,,2021-09-06,清算の結了等,,,2015-10-05,1,,,,,モリタショウジ,0
928,4010401078283,登記記録の閉鎖等,0,2021-09-10,2021-09-07,株式会社リベロ・プロジェクト,,株式会社,東京都,港区,麻布台２丁目４番５号メソニック３９ＭＴビル,,13,103,1060041,,,2021-09-07,合併による解散等,1011001098377,令和３年８月１日東京都目黒区目黒一丁目２４番１２号ＡＬＨ株式会社（1011001098377）に合併し解散,2015-10-05,1,,,,,リベロプロジェクト,0
934,4010401111804,登記記録の閉鎖等,0,2021-09-10,2021-09-06,Ｈａｐｐｙ　Ｅｌｅｍｅｎｔｓ　Ａｓｉａ　Ｐａｃｉｆｉｃ株式会社,,株式会社,東京都,港区,芝公園１丁目１番１号,,13,103,1050011,,,2021-09-06,合併による解散等,6010401087200,令和３年８月１日京都市下京区立売西町８２Ｈａｐｐｙ　Ｅｌｅｍｅｎｔｓ株式会社（6010401087200）に合併し解散,2015-10-05,1,,,,,ハッピーエレメンツアジアパシフィック,0
938,4010403022396,登記記録の閉鎖等,0,2021-09-10,2021-09-02,合同会社クール,,合同会社,東京都,港区,虎ノ門３丁目１８番１２－５０２号株式会社虎ノ門会計神谷町分室内,,13,103,1050001,,,2021-09-02,清算の結了等,,,2020-02-20,1,,,,,クール,0
946,4010602002174,登記記録の閉鎖等,0,2021-09-10,2021-08-27,有限会社コウダイ,,有限会社,東京都,江東区,常盤１丁目１１番９号,,13,108,1350006,,,2021-08-27,清算の結了等,,,2015-10-05,1,,,,,コウダイ,0
947,4010602021967,登記記録の閉鎖等,0,2021-09-10,2021-08-26,有限会社セキ,,有限会社,東京都,江東区,東砂１丁目２番５号,,13,108,1360074,,,2021-08-26,清算の結了等,,,2015-10-05,1,,,,,セキ,0
953,4010901006231,登記記録の閉鎖等,0,2021-09-10,2021-09-06,株式会社スリーエスサービス,,株式会社,東京都,世田谷区,粕谷３丁目２２番５号,,13,112,1570063,,,2021-09-06,清算の結了等,,,2015-10-05,1,,,,,,0
958,4011001116978,登記記録の閉鎖等,0,2021-09-10,2021-08-25,株式会社ＷＡＶＥ,,株式会社,東京都,渋谷区,恵比寿３丁目４０番７号,,13,113,1500013,,,2021-08-25,清算の結了等,,,2017-06-23,1,,,,,ウェブ,0
960,4011001140004,登記記録の閉鎖等,0,2021-09-10,2021-08-26,Ｃｉｅｌｕｍｉｅｒｅ株式会社,,株式会社,東京都,渋谷区,代々木１丁目３９番１１号,,13,113,1510053,,,2021-08-26,清算の結了等,,,2021-04-28,1,,,,,シエルミエール,0
983,4011803003416,登記記録の閉鎖等,0,2021-09-10,2021-09-07,合同会社さくら,,合同会社,東京都,葛飾区,堀切２丁目１４番１０－２０３号ライオンズマンション堀切菖蒲園,,13,122,1240006,,,2021-09-07,清算の結了等,,,2018-08-20,1,,,,,サクラ,0
986,4012403003839,登記記録の閉鎖等,0,2021-09-10,2021-08-31,ＴＮパートナーズ合同会社,,合同会社,東京都,武蔵野市,吉祥寺本町２丁目１４番２７－３０１号,,13,203,1800004,,,2021-08-31,清算の結了等,,,2019-04-16,1,,,,,ティーエヌパートナーズ,0
1002,4020001136192,登記記録の閉鎖等,0,2021-09-10,2021-09-06,Ｌｉｆｅ　Ｇｏｉｎｇ株式会社,,株式会社,神奈川県,横浜市西区,北幸１丁目１１番１号水信ビル７階,,14,103,2200004,,,2021-09-06,清算の結了等,,,2020-05-21,1,,,,,ライフゴーイング,0
1003,4020002061811,登記記録の閉鎖等,0,2021-09-10,2021-09-06,有限会社ドラゴンワールド,,有限会社,神奈川県,横浜市港南区,上大岡西２丁目９番１５号シャンローゼ上大岡４０５号,,14,111,2330002,,,2021-09-06,清算の結了等,,,2015-10-05,1,,,,,ドラゴンワールド,0
1012,4021001006154,登記記録の閉鎖等,0,2021-09-10,2021-09-06,株式会社吉松企業,,株式会社,神奈川県,大和市,下和田８９８番地ＶＩＬＬＡ４・２０２,,14,213,2420015,,,2021-09-06,清算の結了等,,,2015-10-05,1,,,,,ヨシマツキギョウ,0
1018,4030001054328,登記記録の閉鎖等,0,2021-09-10,2021-09-01,株式会社伊藤興産,,株式会社,埼玉県,川越市,三久保町１２番地５,,11,201,3500054,,,2021-09-01,清算の結了等,,,2015-10-05,1,,,,,イトウコウサン,0
1038,4040003012712,登記記録の閉鎖等,0,2021-09-10,2021-09-02,Ｌｏｏｐ　Ｎｏｗ　Ｔｅｃｈｎｏｌｏｇｉｅｓ合同会社,,合同会社,千葉県,習志野市,奏の杜２丁目７番１４号,,12,216,2750028,,,2021-09-02,清算の結了等,,,2019-01-11,1,,,,,ループナウテクノロジーズ,0
1044,4060002020235,登記記録の閉鎖等,0,2021-09-10,2021-09-03,有限会社篠原塗装,,有限会社,栃木県,鹿沼市,武子１７６５番地１,,09,205,3220007,,,2021-09-03,清算の結了等,,,2015-10-05,1,,,,,シノハラトソウ,0
1048,4070002011828,登記記録の閉鎖等,0,2021-09-10,2021-09-02,有限会社藤プラン,,有限会社,群馬県,高崎市,下豊岡町１１９１番地１,,10,202,3700873,,,2021-09-02,清算の結了等,,,2015-10-05,1,,,,,フジプラン,0
1053,4090002011446,登記記録の閉鎖等,0,2021-09-10,2021-09-03,有限会社ラシス,,有限会社,山梨県,甲州市,勝沼町小佐手１３６２番地４,,19,213,4091303,,,2021-09-03,清算の結了等,,,2015-10-05,1,,,,,ラシス,0
1056,4100001030486,登記記録の閉鎖等,0,2021-09-10,2021-09-07,野村メディカルデバイス株式会社,,株式会社,長野県,茅野市,ちの６５０番地,,20,214,3910001,,,2021-09-07,合併による解散等,8100001019204,令和３年９月１日長野県茅野市ちの６５０番地野村ユニソン株式会社（8100001019204）に合併し解散,2017-07-26,1,,,,,ノムラメディカルデバイス,0
1057,4100002000975,登記記録の閉鎖等,0,2021-09-10,2021-09-09,有限会社岡本内装,,有限会社,長野県,長野市,大字西長野１００番地７,,20,201,3810000,,,2021-09-09,清算の結了等,,,2015-10-05,1,,,,,オカモトナイソウ,0
1079,4120901025237,登記記録の閉鎖等,0,2021-09-10,2021-09-08,株式会社橋徳,,株式会社,大阪府,豊中市,南桜塚２丁目１４番３０－１０６号,,27,203,5610882,,,2021-09-08,清算の結了等,,,2015-10-05,1,,,,,ハシトク,0
1085,4130002003777,登記記録の閉鎖等,0,2021-09-10,2021-09-07,有限会社サン北山,,有限会社,京都府,京都市北区,上賀茂桜井町３２番地,,26,101,6038054,,,2021-09-07,清算の結了等,,,2015-10-05,1,,,,,サンキタヤマ,0
1093,4140002041652,登記記録の閉鎖等,0,2021-09-10,2021-09-06,有限会社タムラテツ協同管工社,,有限会社,兵庫県,尼崎市,尾浜町１丁目２番１６号,,28,202,6610022,,,2021-09-06,清算の結了等,,,2015-10-05,1,,,,,タムラテツキョウドウカンコウシャ,0
1105,4180001081290,登記記録の閉鎖等,0,2021-09-10,2021-09-01,株式会社中央管理センター,,株式会社,愛知県,犬山市,大字五郎丸字森上１番地４３,,23,215,4840066,,,2021-09-01,合併による解散等,8180001080826,令和３年９月１日愛知県犬山市松本町三丁目１番地株式会社中央不動産センター（8180001080826）に合併し解散,2015-10-05,1,,,,,チュウオウカンリセンター,0
1109,4180003004745,登記記録の閉鎖等,0,2021-09-10,2021-09-02,合資会社石塚商店,00073815,合資会社,愛知県,名古屋市守山区,町南２８番２号,,23,113,4630066,,,2021-09-02,清算の結了等,,,2015-10-05,1,,,,,イシヅカショウテン,0
1123,4210005007973,登記記録の閉鎖等,0,2021-09-10,2021-09-03,エス・ビー事業協同組合,,その他の設立登記法人,福井県,鯖江市,御幸町１丁目２番３２号,,18,207,9160015,,,2021-09-03,清算の結了等,,,2015-10-05,1,,,,,エスビー,0
1127,4220002006465,登記記録の閉鎖等,0,2021-09-10,2021-09-03,有限会社カネヨシ製作所,,有限会社,石川県,金沢市,大浦町リ４８番地１,,17,201,9200205,,,2021-09-03,清算の結了等,,,2015-10-05,1,,,,,カネヨシセイサクショ,0
1130,4230001014567,登記記録の閉鎖等,0,2021-09-10,2021-09-06,株式会社桜橋,,株式会社,富山県,富山市,高木３０００番地,,16,201,9300106,,,2021-09-06,清算の結了等,,,2015-10-05,1,,,,,サクラバシ,0
1131,4230002014599,登記記録の閉鎖等,0,2021-09-10,2021-09-06,有限会社有有編集,,有限会社,富山県,富山市,問屋町１丁目１番１６号,,16,201,9300834,,,2021-09-06,清算の結了等,,,2015-10-05,1,,,,,ユウユウヘンシュウ,0
1162,4300002006399,登記記録の閉鎖等,0,2021-09-10,2021-09-07,有限会社三恵重機工業,,有限会社,佐賀県,武雄市,北方町大字志久１２４６番地,,41,206,8492201,,,2021-09-07,清算の結了等,,,2015-10-05,1,,,,,サンケイジュウキコウギョウ,0
1170,4340001003996,登記記録の閉鎖等,0,2021-09-10,2021-09-06,株式会社丸岩商事,,株式会社,鹿児島県,鹿児島市,天保山町５番５号,,46,201,8900061,,,2021-09-06,清算の結了等,,,2015-10-05,1,,,,,マルイワショウジ,0
1171,4350002008713,登記記録の閉鎖等,0,2021-09-10,2021-09-07,有限会社食林フーズ,,有限会社,宮崎県,東諸県郡国富町,大字本庄浄知院１７４３番地９,,45,382,8801101,,,2021-09-07,清算の結了等,,,2015-10-05,1,,,,,ショクリンフーズ,0
1203,5010001055252,登記記録の閉鎖等,0,2021-09-10,2021-09-06,ヒューテックジャパン株式会社,,株式会社,神奈川県,横浜市磯子区,下町１番１６号,,14,107,2350004,,,2021-09-06,清算の結了等,,,2015-10-05,1,,,,,ヒューテックジャパン,0
1208,5010001139682,登記記録の閉鎖等,0,2021-09-10,2021-09-06,株式会社デザインラボ,,株式会社,東京都,文京区,小石川２丁目８番５号,,13,105,1120002,,,2021-09-06,清算の結了等,,,2015-10-05,1,,,,,デザインラボ,0
1211,5010001159078,登記記録の閉鎖等,0,2021-09-10,2021-09-01,株式会社ザクシード,,株式会社,東京都,中央区,日本橋小伝馬町４番２号ＶＯＲＴ日本橋本町２階,,13,102,1030001,,,2021-09-01,合併による解散等,1010001127402,令和３年９月１日東京都中央区日本橋小伝馬町４番２号ＶＯＲＴ日本橋本町２階株式会社ザクティブ（1010001127402）に合併し解散,2015-10-05,1,,,,,ザクシード,0
1212,5010001166727,登記記録の閉鎖等,0,2021-09-10,2021-09-06,株式会社講談社学芸クリエイト,,株式会社,東京都,文京区,音羽１丁目１７番１４号,,13,105,1120013,,,2021-09-06,清算の結了等,,,2015-10-05,1,,,,,コウダンシャガクゲイクリエイト,0
1240,5010403009260,登記記録の閉鎖等,0,2021-09-10,2021-09-02,Ｇｒｕｓ合同会社,,合同会社,東京都,港区,港南２丁目１５番３号,,13,103,1080075,,,2021-09-02,清算の結了等,,,2015-10-05,1,,,,,グルース,0
1290,5013305000980,登記記録の閉鎖等,0,2021-09-10,2021-09-02,特定非営利活動法人Ｐｒｏｆｅｓｓｉｏｎａｌ　Ａｔｈｌｅｔｉｃ　Ｓｕｐｐｏｒｔ　Ｓｙｓｔｅｍ,,その他の設立登記法人,東京都,豊島区,高田１丁目２９番地１２号フラットみよし３０３号室,,13,116,1710033,,,2021-09-02,清算の結了等,,,2015-10-05,1,,,,,プロフェッショナルアスレティックサポートシステム,0
1318,5030002084414,登記記録の閉鎖等,0,2021-09-10,2021-09-01,有限会社マツハシホーム,,有限会社,埼玉県,北本市,古市場２丁目１０６番地６,,11,233,3640003,,,2021-09-01,清算の結了等,,,2015-10-05,1,,,,,マツハシホーム,0
1320,5030005012058,登記記録の閉鎖等,0,2021-09-10,2021-08-31,医療法人社団埼仁会,,その他の設立登記法人,埼玉県,蕨市,中央１丁目１３番７号,,11,223,3350004,,,2021-08-31,清算の結了等,,,2015-10-05,1,,,,,サイジンカイ,0
1373,5120001016086,登記記録の閉鎖等,0,2021-09-10,2021-09-01,株式会社フジ,,株式会社,大阪府,大阪市城東区,成育５丁目２２番９号,,27,118,5360007,,,2021-09-01,合併による解散等,2120001014877,令和３年９月１日大阪市城東区成育五丁目２２番９号株式会社サカエ（2120001014877）に合併し解散,2015-10-05,1,,,,,フジ,0
1375,5120001105707,登記記録の閉鎖等,0,2021-09-10,2021-09-03,株式会社粕田サービス,,株式会社,大阪府,大阪市西成区,岸里２丁目５番１６号,,27,122,5570041,,,2021-09-03,清算の結了等,,,2015-10-05,1,,,,,カスダサービス,0
1376,5120001131331,登記記録の閉鎖等,0,2021-09-10,2021-09-06,株式会社メインマリン,,株式会社,大阪府,大阪市大正区,鶴町４丁目１番２５号,,27,108,5510023,,,2021-09-06,清算の結了等,,,2015-10-05,1,,,,,メインマリン,0
1431,5190005003446,登記記録の閉鎖等,0,2021-09-10,2021-09-09,特定非営利活動法人地域資源循環システム協議会,,その他の設立登記法人,三重県,津市,高茶屋６丁目２番１号,,24,201,5140819,,,2021-09-09,清算の結了等,,,2015-10-05,1,,,,,チイキシゲンジュンカンシステムキョウギカイ,0
1457,5290801001683,登記記録の閉鎖等,0,2021-09-10,2021-08-31,サーブ株式会社,,株式会社,福岡県,北九州市小倉南区,田原新町３丁目３番１号,,40,107,8000226,,,2021-08-31,清算の結了等,,,2015-10-05,1,,,,,サーブ,0
1466,5360001010172,登記記録の閉鎖等,0,2021-09-10,2021-09-01,株式会社ユニット,,株式会社,埼玉県,新座市,馬場４丁目５番１１－４０１号,,11,230,3520016,,,2021-09-01,清算の結了等,,,2015-10-05,1,,,,,ユニット,0
1476,5370001019378,登記記録の閉鎖等,0,2021-09-10,2021-09-06,大建創株式会社,,株式会社,宮城県,黒川郡大和町,もみじケ丘２丁目２６番地の１４,,04,421,9813622,,,2021-09-06,清算の結了等,,,2015-10-05,1,,,,,ダイケンソウ,0
1504,5460101006300,登記記録の閉鎖等,0,2021-09-10,2021-09-01,株式会社浦幌デーリィファーム第二牧場,,株式会社,北海道,十勝郡浦幌町,字統太１０４番地８,,01,649,0895544,,,2021-09-01,合併による解散等,1460101006023,令和３年９月１日北海道十勝郡浦幌町字統太１０４番地８株式会社浦幌デーリィファーム（1460101006023）に合併し解散,2018-01-17,1,,,,,ウラホロデーリィファームダイニボクジョウ,0
1506,5470002013964,登記記録の閉鎖等,0,2021-09-10,2021-09-07,有限会社スマイル産業,,有限会社,香川県,丸亀市,富士見町３丁目３番５０号,,37,202,7630011,,,2021-09-07,清算の結了等,,,2015-10-05,1,,,,,スマイルサンギョウ,0
1514,6010001133288,登記記録の閉鎖等,0,2021-09-10,2021-09-02,株式会社カクタス航空,,株式会社,東京都,千代田区,大手町１丁目６番１号大手町ビル８階８６３区,,13,101,1000004,,,2021-09-02,清算の結了等,,,2015-10-05,1,,,,,カクタスコウクウ,0
1521,6010003023165,登記記録の閉鎖等,0,2021-09-10,2021-09-01,合同会社オフィス・ドゥー,,合同会社,東京都,千代田区,九段北１丁目４番１号,,13,101,1020073,,,2021-09-01,清算の結了等,,,2016-03-09,1,,,,,オフィスドゥー,0
1539,6010405018531,登記記録の閉鎖等,0,2021-09-10,2021-09-02,一般社団法人クール,,その他の設立登記法人,東京都,港区,虎ノ門３丁目１８番１２－５０２号株式会社虎ノ門会計神谷町分室内,,13,103,1050001,,,2021-09-02,清算の結了等,,,2020-02-20,1,,,,,クール,0
1541,6010601005432,登記記録の閉鎖等,0,2021-09-10,2021-08-27,ナカムラ印刷株式会社,,株式会社,東京都,江東区,猿江１丁目２２番２号,,13,108,1350003,,,2021-08-27,清算の結了等,,,2015-10-05,1,,,,,ナカムラインサツ,0
1559,6011105006652,登記記録の閉鎖等,0,2021-09-10,2021-09-01,一般社団法人モルドバジャパン,,その他の設立登記法人,東京都,新宿区,西早稲田３丁目８番１－７０２号パストラルハイム面影橋,,13,104,1690051,,,2021-09-01,清算の結了等,,,2015-10-05,1,,,,,モルドバジャパン,0
1576,6012402001800,登記記録の閉鎖等,0,2021-09-10,2021-09-06,有限会社ティー・エム・エンジニアリング,,有限会社,東京都,府中市,小柳町６丁目１７番地３４,,13,206,1830013,,,2021-09-06,清算の結了等,,,2015-10-05,1,,,,,ティーエムエンジニアリング,0
1583,6020001051976,登記記録の閉鎖等,0,2021-09-10,2021-09-03,株式会社Ｋ,,株式会社,神奈川県,横浜市磯子区,岡村７丁目２５番５号,,14,107,2350021,,,2021-09-03,清算の結了等,,,2015-10-05,1,,,,,ケイ,0
1585,6020001121259,登記記録の閉鎖等,0,2021-09-10,2021-09-08,ＡＮＴ　ＧＲＯＵＰ株式会社,,株式会社,東京都,目黒区,青葉台３丁目２１－１３バルビゾン４５－８Ｆ,,13,110,1530042,,,2021-09-08,清算の結了等,,,2017-05-31,1,,,,,アントグループ,0
1608,6030002033898,登記記録の閉鎖等,0,2021-09-10,2021-09-02,有限会社スリーオー運送,,有限会社,埼玉県,入間市,高倉３丁目４番１６号３０７,,11,225,3580021,,,2021-09-02,清算の結了等,,,2015-10-05,1,,,,,スリーオーウンソウ,0
1609,6030002035168,登記記録の閉鎖等,0,2021-09-10,2021-08-30,有限会社小林園,,有限会社,埼玉県,入間市,黒須２丁目２－１,,11,225,3580007,,,2021-08-30,合併による解散等,5030001027456,令和３年８月３０日埼玉県入間市豊岡一丁目４番７号アイエムイートラスト株式会社（5030001027456）に合併し解散,2015-10-05,1,,,,,コバヤシエン,0
1612,6030002121967,登記記録の閉鎖等,0,2021-09-10,2021-09-01,有限会社星光舎印刷,,有限会社,埼玉県,秩父郡小鹿野町,小鹿野１８８１番地,,11,365,3680105,,,2021-09-01,清算の結了等,,,2015-10-05,1,,,,,セイコウシャインサツ,0
1632,6060002012494,登記記録の閉鎖等,0,2021-09-10,2021-09-03,有限会社氏家化成工業,,有限会社,栃木県,さくら市,蒲須坂６０番地３,,09,214,3291332,,,2021-09-03,清算の結了等,,,2015-10-05,1,,,,,ウジイエカセイコウギョウ,0
1638,6060005007327,登記記録の閉鎖等,0,2021-09-10,2021-08-31,特定非営利活動法人いずみ,,その他の設立登記法人,栃木県,下都賀郡壬生町,いずみ町９番５号,,09,361,3210213,,,2021-08-31,清算の結了等,,,2015-10-05,1,,,,,,0
1659,6100005002190,登記記録の閉鎖等,0,2021-09-10,2021-09-07,長野食肉加工販売事業協同組合,,その他の設立登記法人,長野県,長野市,市場２番地１,,20,201,3812202,,,2021-09-07,清算の結了等,,,2015-10-05,1,,,,,ナガノショクニクカコウハンバイ,0
1660,6120001017884,登記記録の閉鎖等,0,2021-09-10,2021-09-02,宝商事株式会社,,株式会社,大阪府,大阪市生野区,勝山北５丁目１６番２０号,,27,116,5440033,,,2021-09-02,清算の結了等,,,2015-10-05,1,,,,,タカラショウジ,0
1663,6120001125720,登記記録の閉鎖等,0,2021-09-10,2021-09-02,株式会社楽山荘,,株式会社,大阪府,大阪市西区,江戸堀１丁目１９番１０号,,27,106,5500002,,,2021-09-02,合併による解散等,5120101022389,令和３年８月３１日大阪市西区江戸堀一丁目１９番１０号株式会社ミタカ（5120101022389）に合併し解散,2015-10-05,1,,,,,ラクザンソウ,0
1673,6120002043797,登記記録の閉鎖等,0,2021-09-10,2021-09-03,有限会社ナックル,,有限会社,大阪府,大阪市東淀川区,東中島１丁目２０番１２号,,27,114,5330033,,,2021-09-03,清算の結了等,,,2015-10-05,1,,,,,,0
1686,6130001003248,登記記録の閉鎖等,0,2021-09-10,2021-09-07,株式会社大京不動産,,株式会社,京都府,京都市北区,大宮西小野堀町１２番地,,26,101,6038405,,,2021-09-07,清算の結了等,,,2015-10-05,1,,,,,ダイキョウフドウサン,0
1691,6130002006373,登記記録の閉鎖等,0,2021-09-10,2021-09-06,有限会社ユウキメディカルネット,,有限会社,京都府,京都市左京区,一乗寺向畑町４６番地オークサンズ白川１階,,26,103,6068126,,,2021-09-06,清算の結了等,,,2015-10-05,1,,,,,ユウキメディカルネット,0
1694,6140002002371,登記記録の閉鎖等,0,2021-09-10,2021-09-06,有限会社マツモトレンタル,,有限会社,兵庫県,神戸市東灘区,本庄町２丁目１１番１９号,,28,101,6580012,,,2021-09-06,清算の結了等,,,2015-10-05,1,,,,,マツモトレンタル,0
1698,6150001023120,登記記録の閉鎖等,0,2021-09-10,2021-09-07,日源ジャパン株式会社,,株式会社,奈良県,香芝市,畑５丁目１８１８番地１２,,29,210,6390245,,,2021-09-07,清算の結了等,,,2019-07-02,1,,,,,ニチゲンジャパン,0
1703,6180001019082,登記記録の閉鎖等,0,2021-09-10,2021-09-06,株式会社岡平薬局,,株式会社,愛知県,名古屋市中川区,八熊２丁目１番１号,,23,110,4540013,,,2021-09-06,清算の結了等,,,2015-10-05,1,,,,,オカヒラヤッキョク,0
1708,6180001139392,登記記録の閉鎖等,0,2021-09-10,2021-09-01,株式会社ＭＫスタイル,,株式会社,愛知県,名古屋市中区,錦１丁目１３番２６号,,23,106,4600003,,,2021-09-01,合併による解散等,1180001062277,令和３年９月１日名古屋市中区錦一丁目１３番２６号株式会社ＭＫスタイル（1180001062277）に合併し解散,2019-12-27,1,,,,,エムケースタイル,0
1711,6180002029576,登記記録の閉鎖等,0,2021-09-10,2021-09-06,フジマ有限会社,,有限会社,愛知県,名古屋市西区,幅下１丁目１０番３０号,,23,104,4510041,,,2021-09-06,清算の結了等,,,2015-10-05,1,,,,,フジマ,0
1713,6180002068665,登記記録の閉鎖等,0,2021-09-10,2021-09-01,有限会社エーテボリ,,有限会社,愛知県,小牧市,大字西之島３３０番地,,23,219,4850077,,,2021-09-01,合併による解散等,6180001076495,令和３年９月１日愛知県小牧市大字西之島字山屋敷３３０番地松永製菓株式会社（6180001076495）に合併し解散,2015-10-05,1,,,,,エーテボリ,0
1733,6240002039395,登記記録の閉鎖等,0,2021-09-10,2021-09-01,有限会社イナリサービス,,有限会社,広島県,福山市,加茂町大字下加茂４３９番地の２,,34,207,7202412,,,2021-09-01,合併による解散等,7240001029891,令和３年９月１日広島県福山市本庄町中二丁目７番６号イナリ警備情報株式会社（7240001029891）に合併し解散,2015-10-05,1,,,,,イナリサービス,0
1748,6310002005407,登記記録の閉鎖等,0,2021-09-10,2021-09-08,有限会社丸和食品,,有限会社,長崎県,長崎市,梁川町４番４号,,42,201,8528013,,,2021-09-08,清算の結了等,,,2015-10-05,1,,,,,マルワショクヒン,0
1750,6320002011841,登記記録の閉鎖等,0,2021-09-10,2021-09-09,有限会社茶郎本舗,,有限会社,大分県,別府市,石垣西１０丁目６番５号,,44,202,8740910,,,2021-09-09,清算の結了等,,,2015-10-05,1,,,,,チャロウホンポ,0
1753,6330005002003,登記記録の閉鎖等,0,2021-09-10,2021-09-07,全国養鰻漁業協同組合連合会,,その他の設立登記法人,熊本県,熊本市西区,八島町７２８番地３２,,43,103,8600057,,,2021-09-07,清算の結了等,,,2015-10-05,1,,,,,ゼンコクヨウマン,0
1778,6390002005110,登記記録の閉鎖等,0,2021-09-10,2021-09-03,有限会社スズキエクスプレス,,有限会社,山形県,山形市,瀬波３丁目６番３号,,06,201,9900881,,,2021-09-03,清算の結了等,,,2015-10-05,1,,,,,スズキエクスプレス,0
1779,6390005004092,登記記録の閉鎖等,0,2021-09-10,2021-09-03,温海酪農協業組合,,その他の設立登記法人,山形県,鶴岡市,温海己２６５番地の６,,06,203,9997205,,,2021-09-03,清算の結了等,,,2015-10-05,1,,,,,アツミラクノウ,0
1788,6430002054367,登記記録の閉鎖等,0,2021-09-10,2021-09-09,有限会社小本建設,,有限会社,北海道,小樽市,天神２丁目２番５号,,01,203,0470011,,,2021-09-09,清算の結了等,,,2015-10-05,1,,,,,コモトケンセツ,0
1793,6460002005672,登記記録の閉鎖等,0,2021-09-10,2021-09-07,有限会社伍島,,有限会社,北海道,釧路市,芦野５丁目１番５号,00105899,01,206,0850061,,,2021-09-07,合併による解散等,9450002007295,令和３年８月２０日札幌市豊平区美園一条六丁目３番２２号コーポきくち２－Ａ株式会社東洋ジュエリー（9450002007295）に合併し解散,2015-10-05,1,,,,,,0
1796,6460102002529,登記記録の閉鎖等,0,2021-09-10,2021-09-01,有限会社日新牧場,,有限会社,北海道,中川郡幕別町,字日新４番地,,01,643,0890574,,,2021-09-01,合併による解散等,3460101006822,令和３年９月１日北海道中川郡幕別町字日新４番地株式会社ノベルズ肥育センター（3460101006822）に合併し解散,2015-10-05,1,,,,,ニッシンボクジョウ,0
1798,6470001006737,登記記録の閉鎖等,0,2021-09-10,2021-09-06,株式会社アトリヱ香川,,株式会社,香川県,木田郡三木町,大字井戸２８３０番地６,,37,341,7610823,,,2021-09-06,清算の結了等,,,2015-10-05,1,,,,,アトリエカガワ,0
1799,6470001017420,登記記録の閉鎖等,0,2021-09-10,2021-09-01,株式会社カデカリプラス,,株式会社,香川県,高松市,三条町１１３番地１,,37,201,7618072,,,2021-09-01,合併による解散等,9470001006222,令和３年９月１日香川県高松市三条町１１３番地１株式会社家具家（9470001006222）に合併し解散,2019-05-09,1,,,,,カデカリプラス,0
1802,7010001091171,登記記録の閉鎖等,0,2021-09-10,2021-09-06,株式会社コムズ,,株式会社,東京都,新宿区,西新宿６丁目５番１号,,13,104,1600023,,,2021-09-06,合併による解散等,2190001015679,令和３年９月１日三重県四日市市八田二丁目１番３９号株式会社東名（2190001015679）に合併し解散,2015-10-05,1,,,,,コムズ,0
1817,7010501020563,登記記録の閉鎖等,0,2021-09-10,2021-09-02,株式会社スターク,,株式会社,千葉県,船橋市,本町６丁目１７番１０号,,12,204,2730005,,,2021-09-02,清算の結了等,,,2015-10-05,1,,,,,スターク,0
1819,7010502006958,登記記録の閉鎖等,0,2021-09-10,2021-09-08,有限会社大和不動産,,有限会社,東京都,台東区,千束１丁目１番１２号,,13,106,1110031,,,2021-09-08,清算の結了等,,,2015-10-05,1,,,,,ヤマトフドウサン,0
1834,7011001053616,登記記録の閉鎖等,0,2021-09-10,2021-08-26,株式会社Ｏ．Ｓ．Ｂ,,株式会社,東京都,渋谷区,代々木２丁目２０番９－３０７号,,13,113,1510053,,,2021-08-26,清算の結了等,,,2015-10-05,1,,,,,オーエスビー,0
1835,7011001059019,登記記録の閉鎖等,0,2021-09-10,2021-09-08,株式会社Ｍａｘｃｏｍ　Ａｓｉａ,,株式会社,東京都,品川区,東五反田５丁目２５番１９号,,13,109,1410022,,,2021-09-08,清算の結了等,,,2015-10-05,1,,,,,マックスコムエイジア,0
1852,7011201021629,登記記録の閉鎖等,0,2021-09-10,2021-09-06,株式会社ＲＩＡＳ,,株式会社,東京都,品川区,西品川２丁目２４番１号,,13,109,1410033,,,2021-09-06,合併による解散等,9011003004185,令和３年９月１日東京都品川区西品川二丁目２４番１号合同会社アナログ（9011003004185）に合併し解散,2019-09-05,1,,,,,リアス,0
1861,7012402011575,登記記録の閉鎖等,0,2021-09-10,2021-09-06,センヨーサービス西東京有限会社,,有限会社,東京都,調布市,下石原１丁目３２番地１芦川ビル１階,,13,208,1820034,,,2021-09-06,清算の結了等,,,2015-10-05,1,,,,,センヨーサービスニシトウキョウ,0
1865,7013102006080,登記記録の閉鎖等,0,2021-09-10,2021-09-06,有限会社佐々木設備,,有限会社,東京都,青梅市,長淵８丁目８番地の５,,13,205,1980052,,,2021-09-06,清算の結了等,,,2015-10-05,1,,,,,,0
1889,7030001124961,登記記録の閉鎖等,0,2021-09-10,2021-09-01,株式会社メンテナンスファクトリー草加,,株式会社,埼玉県,草加市,金明町１０９８番地１,,11,221,3400052,,,2021-09-01,清算の結了等,,,2018-04-04,1,,,,,メンテナンスファクトリーソウカ,0
1892,7030002105300,登記記録の閉鎖等,0,2021-09-10,2021-09-01,有限会社求礼商事,,有限会社,埼玉県,川口市,中青木２丁目１１番１５－６０１号,,11,203,3320032,,,2021-09-01,清算の結了等,,,2015-10-05,1,,,,,キュウレイショウジ,0
1896,7030003015077,登記記録の閉鎖等,0,2021-09-10,2021-09-01,合同会社Ｔ－ＯＮＥ,,合同会社,埼玉県,越谷市,大字下間久里５３３番地７,,11,222,3430045,,,2021-09-01,清算の結了等,,,2020-04-08,1,,,,,ティーワン,0
1899,7040001001499,登記記録の閉鎖等,0,2021-09-10,2021-09-03,ＨＫ１号株式会社,,株式会社,千葉県,千葉市若葉区,高品町１５８８番地１,,12,104,2640024,,,2021-09-03,清算の結了等,,,2015-10-05,1,,,,,エイチケイイチゴウ,0
1906,7040002067622,登記記録の閉鎖等,0,2021-09-10,2021-09-02,有限会社ブテイックアキ,,有限会社,千葉県,木更津市,大和１丁目３番地の１３,,12,206,2920805,,,2021-09-02,清算の結了等,,,2015-10-05,1,,,,,ブテイックアキ,0
1919,7070001025033,登記記録の閉鎖等,0,2021-09-10,2021-09-06,株式会社ＴＨＴグループ,,株式会社,群馬県,伊勢崎市,連取町３３２３番地４,,10,204,3720812,,,2021-09-06,清算の結了等,,,2015-10-05,1,,,,,ティーエイチティーグループ,0
1927,7080005006722,登記記録の閉鎖等,0,2021-09-10,2021-09-08,特定非営利活動法人医療・福祉実務者団体,,その他の設立登記法人,静岡県,静岡市葵区,材木町８番地１柴山ビル１Ｆ－Ｂ,,22,101,4200002,,,2021-09-08,清算の結了等,,,2015-10-05,1,,,,,イリョウフクシジツムシャダンタイ,0
1938,7110001024600,登記記録の閉鎖等,0,2021-09-10,2021-09-06,株式会社神山,,株式会社,新潟県,長岡市,中島４丁目７番１８号,,15,202,9400094,,,2021-09-06,清算の結了等,,,2015-10-05,1,,,,,カミヤマ,0
1944,7120001028187,登記記録の閉鎖等,0,2021-09-10,2021-09-02,丸藤商事株式会社,,株式会社,大阪府,大阪市大正区,北恩加島２丁目１番１７号,,27,108,5510033,,,2021-09-02,清算の結了等,,,2015-10-05,1,,,,,マルフジショウジ,0
1983,7130005013498,登記記録の閉鎖等,0,2021-09-10,2021-09-06,特定非営利活動法人温故知新あたた会,,その他の設立登記法人,京都府,京都市中京区,寺町通四条上る中之町５５９番地菊水ビル６階三高会館内,,26,104,6048042,,,2021-09-06,清算の結了等,,,2015-10-05,1,,,,,オンコチシンアタタカイ,0
1998,7160001017624,登記記録の閉鎖等,0,2021-09-10,2021-08-31,吉田・総合カンパニー株式会社,,株式会社,滋賀県,大津市,におの浜３丁目５－７－７０１,,25,201,5200801,,,2021-08-31,清算の結了等,,,2015-10-05,1,,,,,ヨシダソウゴウカンパニー,0
2006,7180001068673,登記記録の閉鎖等,0,2021-09-10,2021-09-01,株式会社丸八綜合設計,,株式会社,東京都,中央区,銀座３丁目１０番５号,,13,102,1040061,,,2021-09-01,合併による解散等,3010001057317,令和３年９月１日東京都中央区銀座三丁目１０番５号丸八殖産株式会社（3010001057317）に合併し解散,2015-10-05,1,,,,,マルハチソウゴウセッケイ,0
2010,7180001110567,登記記録の閉鎖等,0,2021-09-10,2021-09-03,株式会社テクトス,,株式会社,愛知県,名古屋市中区,錦２丁目４番３号,,23,106,4600003,,,2021-09-03,清算の結了等,,,2015-10-05,1,,,,,テクトス,0
2014,7180002047916,登記記録の閉鎖等,0,2021-09-10,2021-09-06,有限会社ケーツー,,有限会社,愛知県,名古屋市緑区,境松２丁目５０１番地,,23,114,4580820,,,2021-09-06,清算の結了等,,,2015-10-05,1,,,,,ケーツー,0
2023,7210001010268,登記記録の閉鎖等,0,2021-09-10,2021-09-07,上庄農産加工株式会社,,株式会社,福井県,大野市,稲郷第４２号１０番地,,18,205,9120415,,,2021-09-07,清算の結了等,,,2015-10-05,1,,,,,カミショウノウサンカコウ,0
2045,7290002006571,登記記録の閉鎖等,0,2021-09-10,2021-08-30,大濠商事有限会社,,有限会社,福岡県,福岡市城南区,別府５丁目１６番１４号,,40,136,8140104,,,2021-08-30,清算の結了等,,,2015-10-05,1,,,,,オオホリショウジ,0
2054,7310001002065,登記記録の閉鎖等,0,2021-09-10,2021-09-08,株式会社丸一,,株式会社,長崎県,長崎市,梁川町４番４号,,42,201,8528013,,,2021-09-08,清算の結了等,,,2015-10-05,1,,,,,マルイチ,0
2086,7410002004307,登記記録の閉鎖等,0,2021-09-10,2021-09-09,有限会社ミカサ,,有限会社,秋田県,秋田市,寺内児桜３丁目７番３号,,05,201,0110909,,,2021-09-09,清算の結了等,,,2015-10-05,1,,,,,ミカサ,0
2095,7440002004618,登記記録の閉鎖等,0,2021-09-10,2021-09-08,有限会社丸松井高,,有限会社,北海道,函館市,堀川町２４番２号,,01,202,0400025,,,2021-09-08,清算の結了等,,,2015-10-05,1,,,,,マルマツイタカ,0
2138,8010901027348,登記記録の閉鎖等,0,2021-09-10,2021-09-06,株式会社ビー・クローバー,,株式会社,神奈川県,川崎市中原区,中丸子３９１－６,,14,133,2110012,,,2021-09-06,清算の結了等,,,2015-10-05,1,,,,,ビークローバー,0
2144,8011001011275,登記記録の閉鎖等,0,2021-09-10,2021-09-08,新和産業株式会社,,株式会社,東京都,渋谷区,代々木２丁目２３番１号,,13,113,1510053,,,2021-09-08,清算の結了等,,,2015-10-05,1,,,,,シンワサンギョウ,0
2145,8011001023279,登記記録の閉鎖等,0,2021-09-10,2021-09-08,株式会社メルベイユアッシュ,,株式会社,東京都,渋谷区,元代々木町２７番１４号,,13,113,1510062,,,2021-09-08,清算の結了等,,,2015-10-05,1,,,,,メルベイユアッシュ,0
2161,8011402001908,登記記録の閉鎖等,0,2021-09-10,2021-09-08,有限会社大森商事,,有限会社,東京都,板橋区,常盤台２丁目２２番１４号,,13,119,1740071,,,2021-09-08,清算の結了等,,,2015-10-05,1,,,,,オオモリショウジ,0
2162,8011501004407,登記記録の閉鎖等,0,2021-09-10,2021-09-08,株式会社マヤ建設,,株式会社,東京都,北区,東田端２丁目１番１０号,,13,117,1140013,,,2021-09-08,清算の結了等,,,2015-10-05,1,,,,,,0
2169,8012401012103,登記記録の閉鎖等,0,2021-09-10,2021-09-01,株式会社ロヂャース,,株式会社,埼玉県,さいたま市桜区,山久保１丁目１１番１号,,11,106,3380821,,,2021-09-01,合併による解散等,8012402017729,令和３年９月１日埼玉県さいたま市桜区山久保一丁目１１番１号株式会社北辰興産（8012402017729）に合併し解散,2015-10-05,1,,,,,ロヂャース,0
2178,8013301024122,登記記録の閉鎖等,0,2021-09-10,2021-09-01,株式会社国土環境研究所,,株式会社,東京都,豊島区,東池袋１丁目５番６号,,13,116,1700013,,,2021-09-01,合併による解散等,6013301021897,令和３年９月１日東京都豊島区東池袋一丁目５番６号株式会社ラ・ホールディングス（6013301021897）に合併し解散,2015-10-05,1,,,,,コクドカンキョウケンキュウジョ,0
2182,8020002063903,登記記録の閉鎖等,0,2021-09-10,2021-09-06,有限会社明和,,有限会社,神奈川県,横浜市鶴見区,寛政町１７番５号,,14,101,2300034,,,2021-09-06,清算の結了等,,,2015-10-05,1,,,,,メイワ,0
2190,8021001024854,登記記録の閉鎖等,0,2021-09-10,2021-09-03,株式会社アクティブデザイン,,株式会社,神奈川県,大和市,つきみ野１丁目１番３６号,,14,213,2420002,,,2021-09-03,清算の結了等,,,2015-10-05,1,,,,,アクティブデザイン,0
2205,8030002011588,登記記録の閉鎖等,0,2021-09-10,2021-09-01,有限会社二葉ダイカスト,,有限会社,埼玉県,さいたま市南区,文蔵４丁目２０番１３号,,11,108,3360025,,,2021-09-01,清算の結了等,,,2015-10-05,1,,,,,,0
2217,8040002025538,登記記録の閉鎖等,0,2021-09-10,2021-09-01,有限会社丸舛工務店,00019942,有限会社,千葉県,船橋市,坪井町１６０番地１,,12,204,2740062,,,2021-09-01,清算の結了等,,,2015-10-05,1,,,,,マルマスコウムテン,0
2229,8050002004103,登記記録の閉鎖等,0,2021-09-10,2021-09-03,有限会社井筒屋金物店,,有限会社,茨城県,東茨城郡城里町,大字石塚１４１４番地,,08,310,3114303,,,2021-09-03,清算の結了等,,,2015-10-05,1,,,,,イズツヤカナモノテン,0
2242,8080001013812,登記記録の閉鎖等,0,2021-09-10,2021-09-08,株式会社静岡県スポーツセンター,,株式会社,静岡県,牧之原市,静波３２６８番地の１,,22,226,4210422,,,2021-09-08,清算の結了等,,,2015-10-05,1,,,,,シズオカケンスポーツセンター,0
2245,8080402017354,登記記録の閉鎖等,0,2021-09-10,2021-09-08,有限会社小林設計事務所,,有限会社,静岡県,掛川市,上内田１９５５番地の１,,22,213,4360012,,,2021-09-08,清算の結了等,,,2015-10-05,1,,,,,コバヤシセッケイジムショ,0
2246,8090002003951,登記記録の閉鎖等,0,2021-09-10,2021-09-02,有限会社山梨セキュリティエンジニアリング,,有限会社,山梨県,甲斐市,西八幡４１８８番地の７,,19,210,4000117,,,2021-09-02,清算の結了等,,,2015-10-05,1,,,,,ヤマナシセキュリティエンジニアリング,0
2252,8120001057318,登記記録の閉鎖等,0,2021-09-10,2021-09-01,株式会社なかみつ興産,,株式会社,大阪府,枚方市,春日北町２丁目１０番５号,,27,210,5730137,,,2021-09-01,合併による解散等,3120001145985,令和３年９月１日大阪府枚方市春日北町二丁目１０番５号株式会社ナカムラ興産（3120001145985）に合併し解散,2015-10-05,1,,,,,ナカミツコウサン,0
2262,8120002051451,登記記録の閉鎖等,0,2021-09-10,2021-09-03,有限会社環境エンジニア,,有限会社,大阪府,大阪市西区,本田２丁目１番３０号,,27,106,5500022,,,2021-09-03,清算の結了等,,,2015-10-05,1,,,,,カンキョウエンジニア,0
2272,8120102000580,登記記録の閉鎖等,0,2021-09-10,2021-09-07,有限会社イチコーテツク,,有限会社,大阪府,堺市西区,築港新町２丁６番１８号,,27,144,5928331,,,2021-09-07,清算の結了等,,,2015-10-05,1,,,,,イチコーテツク,0
2281,8130001030100,登記記録の閉鎖等,0,2021-09-10,2021-09-06,株式会社山王住研,,株式会社,京都府,長岡京市,友岡４丁目１７番３号,,26,209,6170843,,,2021-09-06,清算の結了等,,,2015-10-05,1,,,,,サンオウジュウケン,0
2282,8130001038985,登記記録の閉鎖等,0,2021-09-10,2021-09-07,京都日華貿易株式会社,,株式会社,京都府,京田辺市,薪西山２８番地３０,,26,211,6100341,,,2021-09-07,清算の結了等,,,2015-10-05,1,,,,,キョウトニッカボウエキ,0
2296,8170002002474,登記記録の閉鎖等,0,2021-09-10,2021-09-08,有限会社中和商事,,有限会社,和歌山県,和歌山市,網屋町３３番地,,30,201,6408238,,,2021-09-08,清算の結了等,,,2015-10-05,1,,,,,チュウワショウジ,0
2305,8180002010823,登記記録の閉鎖等,0,2021-09-10,2021-09-03,有限会社エイムデザイン,,有限会社,愛知県,名古屋市北区,楠味鋺２丁目７１８番地,,23,103,4620014,,,2021-09-03,清算の結了等,,,2015-10-05,1,,,,,エイムデザイン,0
2319,8220001009696,登記記録の閉鎖等,0,2021-09-10,2021-09-06,株式会社エコ・ライフ,,株式会社,石川県,金沢市,西念４丁目１８番４０号,,17,201,9200024,,,2021-09-06,清算の結了等,,,2015-10-05,1,,,,,エコライフ,0
2320,8230001010785,登記記録の閉鎖等,0,2021-09-10,2021-09-02,株式会社伏木ポートサービス,,株式会社,富山県,高岡市,伏木湊町５番５号,,16,202,9330104,,,2021-09-02,合併による解散等,7230001009762,令和３年９月１日富山県高岡市下関町６番１号ＦＫＫツアーズ株式会社（7230001009762）に合併し解散,2015-10-05,1,,,,,フシキポートサービス,0
2351,8350002014484,登記記録の閉鎖等,0,2021-09-10,2021-09-07,有限会社妻ヶ丘レンタリース,,有限会社,宮崎県,都城市,妻ケ丘町１８６７番地１,,45,202,8850033,,,2021-09-07,清算の結了等,,,2015-10-05,1,,,,,ツマガオカレンタリース,0
2355,8370001003701,登記記録の閉鎖等,0,2021-09-10,2021-09-02,篤建工業株式会社,,株式会社,宮城県,仙台市若林区,新寺３丁目４番１０号,,04,103,9840051,,,2021-09-02,清算の結了等,,,2015-10-05,1,,,,,トクケンコウギョウ,0
2362,8370802001647,登記記録の閉鎖等,0,2021-09-10,2021-09-02,有限会社リニアサーキットデザイン研究所,,有限会社,宮城県,亘理郡山元町,坂元字新城２番地３９,,04,362,9892111,,,2021-09-02,清算の結了等,,,2015-10-05,1,,,,,リニアサーキットデザインケンキュウジョ,0
2364,8380002021271,登記記録の閉鎖等,0,2021-09-10,2021-09-02,有限会社我妻工務店,,有限会社,福島県,石川郡古殿町,大字松川字西渡８２番地,,07,505,9638304,,,2021-09-02,清算の結了等,,,2015-10-05,1,,,,,アヅマコムテン,0
2374,8410002002722,登記記録の閉鎖等,0,2021-09-10,2021-09-06,有限会社東峰,,有限会社,秋田県,秋田市,桜３丁目２番２１号,,05,201,0100042,,,2021-09-06,合併による解散等,2410002006027,令和３年８月２４日秋田市桜三丁目１番４１号株式会社木場スポーツ（2410002006027）に合併し解散,2015-10-05,1,,,,,トウホウ,0
2378,8410005000046,登記記録の閉鎖等,0,2021-09-10,2021-09-03,株式会社秋田商店会,,株式会社,秋田県,秋田市,旭北栄町２番３７号,,05,201,0100922,,,2021-09-03,合併による解散等,3410001000376,令和３年９月１日秋田市旭北栄町２番３７号株式会社秋田商店会クレジット（3410001000376）に合併し解散,2015-10-05,1,,,,,アキタショウテンカイ,0
2379,8420002007489,登記記録の閉鎖等,0,2021-09-10,2021-09-07,有限会社青霞堂写真舘,,有限会社,青森県,八戸市,大字鳥屋部町１２番地,,02,203,0310039,,,2021-09-07,清算の結了等,,,2015-10-05,1,,,,,セイカドウシャシンカン,0
2386,8460001000887,登記記録の閉鎖等,0,2021-09-10,2021-09-08,釧倉運輸株式会社,,株式会社,北海道,釧路市,西港２丁目１０１番地１,,01,206,0840914,,,2021-09-08,清算の結了等,,,2015-10-05,1,,,,,センソウウンユ,0
2390,8500001000247,登記記録の閉鎖等,0,2021-09-10,2021-09-09,株式会社アージュ,,株式会社,愛媛県,松山市,湊町３丁目４番地１９,,38,201,7900012,,,2021-09-09,清算の結了等,,,2015-10-05,1,,,,,アージュ,0
2399,9010001209853,登記記録の閉鎖等,0,2021-09-10,2021-08-26,Ａｓｉａｎ　Ｇａｔｅ　Ｂｒｉｄｇｅ株式会社,,株式会社,東京都,渋谷区,神宮前３丁目７番４号パークプレース神宮前３階,,13,113,1500001,,,2021-08-26,清算の結了等,,,2020-05-29,1,,,,,アジアンゲートブリッジ,0
2409,9010401136846,登記記録の閉鎖等,0,2021-09-10,2021-09-06,株式会社ＰＯＭ　Ｐａｒｔｎｅｒｓ,,株式会社,東京都,台東区,東上野６丁目１番４号イワツキビル２階１号室,,13,106,1100015,,,2021-09-06,清算の結了等,,,2018-02-23,1,,,,,ピーオーエムパートナーズ,0
2447,9012401036282,登記記録の閉鎖等,0,2021-09-10,2021-09-07,ｋｉｉＤａ株式会社,,株式会社,東京都,多摩市,乞田１１５４番地１,,13,224,2060014,,,2021-09-07,清算の結了等,,,2020-02-26,1,,,,,キーダ,0
2452,9013201003332,登記記録の閉鎖等,0,2021-09-10,2021-08-25,大昂建設株式会社,,株式会社,東京都,目黒区,緑が丘２丁目１４番２４号,,13,110,1520034,,,2021-08-25,清算の結了等,,,2015-10-05,1,,,,,タイコウケンセツ,0
2453,9013301037131,登記記録の閉鎖等,0,2021-09-10,2021-08-25,株式会社アドバンス,,株式会社,東京都,渋谷区,桜丘町１１番６号ＤＡＧビル４０２,,13,113,1500031,,,2021-08-25,清算の結了等,,,2015-10-05,1,,,,,アドバンス,0
2479,9021002026460,登記記録の閉鎖等,0,2021-09-10,2021-09-06,有限会社サンシン,,有限会社,神奈川県,相模原市南区,相模大野６丁目２３番１３－１３０３号,,14,153,2520303,,,2021-09-06,清算の結了等,,,2015-10-05,1,,,,,サンシン,0
2501,9040001101025,登記記録の閉鎖等,0,2021-09-10,2021-09-01,株式会社Ｃａｓｅ,,株式会社,千葉県,市川市,塩焼２丁目２番７１号,,12,203,2720114,,,2021-09-01,合併による解散等,8040001085599,令和３年９月１日千葉県船橋市藤原一丁目２１番６号株式会社Ａｓｔａｒｔ（8040001085599）に合併し解散,2017-07-19,1,,,,,ケース,0
2521,9070002013407,登記記録の閉鎖等,0,2021-09-10,2021-09-06,有限会社ユアサアクアインテリア,,有限会社,群馬県,高崎市,浜川町５６７番地,,10,202,3700081,,,2021-09-06,清算の結了等,,,2015-10-05,1,,,,,ユアサアクアインテリア,0
2525,9080102021077,登記記録の閉鎖等,0,2021-09-10,2021-09-03,有限会社フジボシ,,有限会社,静岡県,下田市,西中１８番地４,,22,219,4150018,,,2021-09-03,清算の結了等,,,2015-10-05,1,,,,,フジボシ,0
2529,9090002008826,登記記録の閉鎖等,0,2021-09-10,2021-08-30,有限会社丸安林業,,有限会社,山梨県,笛吹市,石和町河内１０４６番地の２３,,19,211,4060043,,,2021-08-30,清算の結了等,,,2015-10-05,1,,,,,マルヤスリンギョウ,0
2533,9120001039281,登記記録の閉鎖等,0,2021-09-10,2021-09-03,中川商事株式会社,,株式会社,大阪府,大阪市阿倍野区,阪南町２丁目２番２号谷澤マンション４０５号,,27,119,5450021,,,2021-09-03,清算の結了等,,,2015-10-05,1,,,,,ナカガワショウジ,0
2536,9120001131369,登記記録の閉鎖等,0,2021-09-10,2021-09-06,株式会社Ｒｕｓｈ,,株式会社,大阪府,大阪市港区,磯路２丁目１番１号,,27,107,5520003,,,2021-09-06,清算の結了等,,,2015-10-05,1,,,,,ラッシュ,0
2554,9120901010309,登記記録の閉鎖等,0,2021-09-10,2021-09-08,アイ・システム開発株式会社,,株式会社,大阪府,高槻市,奈佐原１丁目１３番３０２－１００２号,,27,207,5691041,,,2021-09-08,清算の結了等,,,2015-10-05,1,,,,,アイシステムカイハツ,0
2560,9130002005174,登記記録の閉鎖等,0,2021-09-10,2021-09-07,有限会社くらま温泉,,有限会社,京都府,京都市左京区,鞍馬本町５２０番地,,26,103,6011111,,,2021-09-07,清算の結了等,,,2015-10-05,1,,,,,クラマオンセン,0
2577,9180001024014,登記記録の閉鎖等,0,2021-09-10,2021-09-06,トヨダ印刷株式会社,,株式会社,愛知県,名古屋市天白区,井の森町１４７番地,,23,116,4680047,,,2021-09-06,清算の結了等,,,2015-10-05,1,,,,,トヨダインサツ,0
2579,9180001051108,登記記録の閉鎖等,0,2021-09-10,2021-09-02,株式会社享福,,株式会社,愛知県,名古屋市瑞穂区,弥富通一丁目３７番地,,23,108,4670000,,,2021-09-02,清算の結了等,,,2015-10-05,1,,,,,キョウフク,0
2592,9190001010244,登記記録の閉鎖等,0,2021-09-10,2021-09-08,三幸電機株式会社,,株式会社,三重県,松阪市,松ヶ島町１９８番地の６,,24,204,5152133,,,2021-09-08,清算の結了等,,,2015-10-05,1,,,,,サンコウデンキ,0
2600,9210001010373,登記記録の閉鎖等,0,2021-09-10,2021-09-07,株式会社さかい動物病院,,株式会社,福井県,福井市,文京１丁目２９番１３号,,18,201,9100017,,,2021-09-07,清算の結了等,,,2015-10-05,1,,,,,サカイドウブツビョウイン,0
2605,9240002053757,登記記録の閉鎖等,0,2021-09-10,2021-09-07,有限会社三原保険サービス,,有限会社,広島県,三原市,明神３丁目１５番１０号,,34,204,7230046,,,2021-09-07,清算の結了等,,,2015-10-05,1,,,,,ミハラホケンサービス,0
2632,9290005006996,登記記録の閉鎖等,0,2021-09-10,2021-09-02,特定非営利活動法人Ａ．Ｆ．Ｅ．Ｏ．,,その他の設立登記法人,福岡県,春日市,塚原台１丁目７４番地２,00102339,40,218,8160841,,,2021-09-02,清算の結了等,,,2015-10-05,1,,,,,エーエフイーオー,0
2633,9290801018088,登記記録の閉鎖等,0,2021-09-10,2021-09-02,株式会社エルディ,,株式会社,福岡県,北九州市若松区,本町２丁目１７番１号ベイサイドプラザ若松２Ｆ,,40,103,8080034,,,2021-09-02,合併による解散等,8290801001706,令和３年９月１日北九州市若松区本町二丁目１７番１号ベイサイドプラザ若松２Ｆ株式会社サンリブ（8290801001706）に合併し解散,2015-10-05,1,,,,,エルディ,0
2653,9350002014137,登記記録の閉鎖等,0,2021-09-10,2021-09-07,有限会社五晃,,有限会社,宮崎県,都城市,栄町２４号１番地,,45,202,8850023,,,2021-09-07,清算の結了等,,,2015-10-05,1,,,,,ゴコウ,0
2655,9370001011629,登記記録の閉鎖等,0,2021-09-10,2021-09-01,ジェイエス株式会社,,株式会社,宮城県,仙台市青葉区,中央２丁目１０番３０号,,04,101,9800021,,,2021-09-01,合併による解散等,7370001009526,令和３年９月１日仙台市青葉区国分町一丁目７番１８号東洋ワーク株式会社（7370001009526）に合併し解散,2015-10-05,1,,,,,ジェイエス,0
2658,9370001041592,登記記録の閉鎖等,0,2021-09-10,2021-09-01,仙台新電力株式会社,,株式会社,宮城県,仙台市青葉区,国分町１丁目７番１８号,,04,101,9800803,,,2021-09-01,合併による解散等,7370001009526,令和３年９月１日仙台市青葉区国分町一丁目７番１８号東洋ワーク株式会社（7370001009526）に合併し解散,2017-06-07,1,,,,,センダイシンデンリョク,0
2663,9370002020505,登記記録の閉鎖等,0,2021-09-10,2021-09-02,有限会社サンクリーン・ブンジ,,有限会社,宮城県,富谷市,富ケ丘４丁目２７番５号,,04,216,9813352,,,2021-09-02,清算の結了等,,,2015-10-05,1,,,,,サンクリーンブンジ,0
2669,9390001010595,登記記録の閉鎖等,0,2021-09-10,2021-09-02,株式会社ハイジアパーク南陽,,株式会社,山形県,南陽市,上野１８５５番地の１０,,06,213,9992233,,,2021-09-02,清算の結了等,,,2015-10-05,1,,,,,ハイジアパークナンヨウ,0
2671,9400001007409,登記記録の閉鎖等,0,2021-09-10,2021-09-08,株式会社フジセイ,,株式会社,岩手県,釜石市,浜町１丁目１番３０号,,03,211,0260013,,,2021-09-08,清算の結了等,,,2015-10-05,1,,,,,フジセイ,0
2686,9440005002294,登記記録の閉鎖等,0,2021-09-10,2021-09-06,特定非営利活動法人寺子屋ｉｎ長万部,,その他の設立登記法人,北海道,山越郡長万部町,字富野２１０番地の１０,,01,347,0493514,,,2021-09-06,清算の結了等,,,2015-10-05,1,,,,,テラコヤインオシャマンベ,0
2691,9470001001371,登記記録の閉鎖等,0,2021-09-10,2021-09-07,株式会社黒松,,株式会社,香川県,高松市,藤塚町２丁目８番２２号,,37,201,7600071,,,2021-09-07,清算の結了等,,,2015-10-05,1,,,,,クロマツ,0
