sequenceNumber,corporateNumber,process,correct,updateDate,changeDate,name,nameImageId,kind,prefectureName,cityName,streetNumber,addressImageId,prefectureCode,cityCode,postCode,addressOutside,addressOutsideImageId,closeDate,closeCause,successorCorporateNumber,changeCause,assignmentDate,latest,enName,enPrefectureName,enCityName,enAddressOutside,furigana,hihyoji
14,1010001221072,新規,0,2021-09-14,2021-09-14,株式会社Ｄｅａｒ　Ｌａｄｙ,,株式会社,東京都,中央区,佃３丁目５番１０号,,13,102,1040051,,,,,,,2021-09-14,1,,,,,ディアレディ,0
15,1010001221155,新規,0,2021-09-14,2021-09-14,ＤＢＪ飲食・宿泊サポート株式会社,,株式会社,東京都,千代田区,大手町１丁目９番６号,,13,101,1000004,,,,,,,2021-09-14,1,,,,,ディービィージェイインショクシュクハクサポート,0
16,1010001221188,新規,0,2021-09-14,2021-09-14,ごり株式会社,,株式会社,東京都,中央区,銀座１丁目２２番１１号銀座大竹ビジデンス２階,,13,102,1040061,,,,,,,2021-09-14,1,,,,,ゴリ,0
19,1010003035826,新規,0,2021-09-14,2021-09-14,合同会社雅游庵,,合同会社,東京都,中央区,日本橋浜町１丁目６－３,,13,102,1030007,,,,,,,2021-09-14,1,,,,,ガユウアン,0
30,1010401162635,新規,0,2021-09-14,2021-09-14,株式会社曾川景介事務所,,株式会社,東京都,港区,芝浦２丁目６－１６－１４０１,,13,103,1080023,,,,,,,2021-09-14,1,,,,,ソガワケイスケジムショ,0
33,1010403026094,新規,0,2021-09-14,2021-09-14,合同会社Ｉｒｏｈａ,,合同会社,東京都,港区,六本木１丁目４番５号アークヒルズサウスタワー１６Ｆ,,13,103,1060032,,,,,,,2021-09-14,1,,,,,イロハ,0
34,1010405020203,新規,0,2021-09-14,2021-09-14,医療法人社団慶絢会,,その他の設立登記法人,東京都,港区,麻布十番２丁目３番１２号５階,,13,103,1060045,,,,,,,2021-09-14,1,,,,,ケイシュンカイ,0
35,1010501047827,新規,0,2021-09-14,2021-09-14,Ｚ＆Ｋトレーディング株式会社,,株式会社,東京都,台東区,浅草６丁目２６番１０－３０１,,13,106,1110032,,,,,,,2021-09-14,1,,,,,ゼットアンドケイ,0
38,1010703005896,新規,0,2021-09-14,2021-09-14,合同会社Ｙｏｎｉｄａｓｕ,,合同会社,東京都,品川区,上大崎２丁目１３－２８,,13,109,1410021,,,,,,,2021-09-14,1,,,,,ヨニダス,0
39,1010703005938,新規,0,2021-09-14,2021-09-14,ＭＩＬＡＭＩ　ＪＡＰＡＮ合同会社,,合同会社,東京都,品川区,戸越１丁目２６番２４号,,13,109,1420041,,,,,,,2021-09-14,1,,,,,ミラミジャパン,0
61,1011001142787,新規,0,2021-09-14,2021-09-14,株式会社Ｇａｉａ　Ｖｉｓｉｏｎ,,株式会社,東京都,渋谷区,神宮前６丁目２３番４号桑野ビル２階,,13,113,1500001,,,,,,,2021-09-14,1,,,,,ガイアビジョン,0
65,1011005009207,新規,0,2021-09-14,2021-09-14,一般社団法人東京都リハビリテーション専門職協会,,その他の設立登記法人,東京都,渋谷区,代々木２丁目２６番５号,,13,113,1510053,,,,,,,2021-09-14,1,,,,,トウキョウトリハビリテーションセンモンショクキョウカイ,0
67,1011101096289,新規,0,2021-09-14,2021-09-14,フロムトゥデイ株式会社,,株式会社,東京都,新宿区,荒木町１１－２,,13,104,1600007,,,,,,,2021-09-14,1,,,,,フロムトゥデイ,0
72,1011201023242,新規,0,2021-09-14,2021-09-14,クスクス株式会社,,株式会社,東京都,中野区,東中野１丁目３８番１４－４０５号,,13,114,1640003,,,,,,,2021-09-14,1,,,,,クスクス,0
80,1011501027307,新規,0,2021-09-14,2021-09-14,株式会社ＭＩＣＨＩＮ,,株式会社,東京都,荒川区,東尾久２丁目４５番１２号,,13,118,1160012,,,,,,,2021-09-14,1,,,,,ミチエヌ,0
88,1011801039695,新規,0,2021-09-14,2021-09-14,株式会社Ｌａｓ　Ｆｌｏｒｅｓ,,株式会社,東京都,葛飾区,立石４丁目１９番１０号,,13,122,1240012,,,,,,,2021-09-14,1,,,,,ラスフローレス,0
94,1012403005020,新規,0,2021-09-14,2021-09-14,クリスフードサービス合同会社,,合同会社,東京都,府中市,天神町３丁目１６番２号パレススメールＡ１,,13,206,1830053,,,,,,,2021-09-14,1,,,,,クリスフードサービス,0
97,1013103001078,新規,0,2021-09-14,2021-09-14,Ｍ＆Ｔ　ＧＲＯＵＰ合同会社,,合同会社,東京都,羽村市,五ノ神４丁目１５番地４小山ビルＤ店舗,,13,227,2050011,,,,,,,2021-09-14,1,,,,,エムアンドティーグループ,0
106,1020001142994,新規,0,2021-09-14,2021-09-14,株式会社文化工藝舎,,株式会社,神奈川県,横浜市金沢区,富岡西２丁目３３番１３号,,14,108,2360052,,,,,,,2021-09-14,1,,,,,ブンカコウゲイシャ,0
107,1020001143027,新規,0,2021-09-14,2021-09-14,新和不動産株式会社,,株式会社,神奈川県,横浜市西区,花咲町４丁目１２３番地２,,14,103,2200022,,,,,,,2021-09-14,1,,,,,シンワフドウサン,0
114,1021001073932,新規,0,2021-09-14,2021-09-14,株式会社キックアス・エンターテインメント,,株式会社,神奈川県,相模原市南区,古淵４丁目３９番５号,,14,153,2520344,,,,,,,2021-09-14,1,,,,,キックアスエンターテインメント,0
115,1021001073949,新規,0,2021-09-14,2021-09-14,株式会社達美,,株式会社,神奈川県,藤沢市,川名６９４番地の７,,14,205,2510015,,,,,,,2021-09-14,1,,,,,タツミ,0
119,1021003010883,新規,0,2021-09-14,2021-09-14,合同会社ライズ,,合同会社,神奈川県,小田原市,扇町２丁目２４番１０号グリーンルーフ２－２０１,,14,206,2500001,,,,,,,2021-09-14,1,,,,,ライズ,0
120,1021003010891,新規,0,2021-09-14,2021-09-14,合同会社ＨＭＩ,,合同会社,神奈川県,大和市,深見３４２３番地４,,14,213,2420011,,,,,,,2021-09-14,1,,,,,エイチエムアイ,0
127,1030001144263,新規,0,2021-09-14,2021-09-14,株式会社Ｎフロンティア,,株式会社,埼玉県,鴻巣市,八幡田６０５番地１食処酒処きまぐれ幹,,11,217,3650073,,,,,,,2021-09-14,1,,,,,エヌフロンティア,0
131,1030002125031,新規,0,2021-09-14,2021-09-14,有限会社木島商店,,有限会社,埼玉県,川越市,神明町１番地４,,11,201,3500823,,,,,,,2021-09-14,1,,,,,キジマショウテン,0
147,1050001049832,新規,0,2021-09-14,2021-09-14,株式会社コクシンネクスト,,株式会社,茨城県,日立市,東多賀町３丁目２番１２号,,08,202,3160004,,,,,,,2021-09-14,1,,,,,コクシンネクスト,0
150,1060001034081,新規,0,2021-09-14,2021-09-14,株式会社エン・コープ,,株式会社,栃木県,那須塩原市,豊町１番２９号,,09,213,3250051,,,,,,,2021-09-14,1,,,,,エンコープ,0
155,1080001024436,新規,0,2021-09-14,2021-09-14,飯田鳶工業株式会社,,株式会社,静岡県,牧之原市,細江３００３番地２,,22,226,4210421,,,,,,,2021-09-14,1,,,,,イイダトビコウギョウ,0
156,1080003002638,新規,0,2021-09-14,2021-09-14,合同会社アイムワークス,,合同会社,静岡県,藤枝市,仮宿１４９０番地の１,,22,214,4260001,,,,,,,2021-09-14,1,,,,,アイムワークス,0
159,1090001017190,新規,0,2021-09-14,2021-09-14,株式会社ボヤージュＣＧスタジオ,,株式会社,山梨県,中巨摩郡昭和町,河西１４１６番地,,19,384,4093851,,,,,,,2021-09-14,1,,,,,ボヤージュシージースタジオ,0
161,1100003006231,新規,0,2021-09-14,2021-09-14,合同会社まるや商店,,合同会社,長野県,北安曇郡白馬村,大字北城７０７８番地,,20,485,3999301,,,,,,,2021-09-14,1,,,,,マルヤショウテン,0
168,1120003020197,新規,0,2021-09-14,2021-09-14,合同会社ふたば,,合同会社,大阪府,門真市,上野口町２番１１号,,27,223,5710070,,,,,,,2021-09-14,1,,,,,フタバ,0
179,1120105009444,新規,0,2021-09-14,2021-09-14,一般社団法人こどもコロナプラットフォーム,,その他の設立登記法人,大阪府,泉大津市,東雲町１３番１１号,,27,206,5950026,,,,,,,2021-09-14,1,,,,,コドモコロナプラットフォーム,0
182,1120901044883,新規,0,2021-09-14,2021-09-14,日本パデル株式会社,,株式会社,大阪府,池田市,五月丘２丁目３－１４－３１７,,27,204,5630029,,,,,,,2021-09-14,1,,,,,ニッポンパデル,0
183,1120903003821,新規,0,2021-09-14,2021-09-14,小西喜兵衛合同会社,,合同会社,大阪府,吹田市,竹谷町二丁目１番吹田コープ７１４号,,27,205,5650835,,,,,,,2021-09-14,1,,,,,コニシキヘイ,0
187,1122001035169,新規,0,2021-09-14,2021-09-14,株式会社カワノトランスポート,,株式会社,大阪府,東大阪市,新鴻池町１０番１６号,,27,227,5780967,,,,,,,2021-09-14,1,,,,,カワノトランスポート,0
189,1130001070111,新規,0,2021-09-14,2021-09-14,株式会社タマルテック,,株式会社,京都府,京都市山科区,大塚大岩４－２８,,26,110,6078123,,,,,,,2021-09-14,1,,,,,タマルテック,0
205,1160003002373,新規,0,2021-09-14,2021-09-14,合同会社Ｋ’ｓ　Ｃｏｍｐａｎｙ,,合同会社,滋賀県,栗東市,小平井３丁目４番６号,,25,208,5203034,,,,,,,2021-09-14,1,,,,,ケーズカンパニー,0
210,1180001147838,新規,0,2021-09-14,2021-09-14,株式会社ＳＵＮＡＯＹＡ,,株式会社,愛知県,名古屋市名東区,よもぎ台２丁目６２３番地,,23,115,4650091,,,,,,,2021-09-14,1,,,,,スナオヤ,0
223,1190001028681,新規,0,2021-09-14,2021-09-14,株式会社ユニバーサルスタッフ,,株式会社,三重県,津市,本町２９番１７号,,24,201,5140831,,,,,,,2021-09-14,1,,,,,ユニバーサルスタッフ,0
228,1200003005314,新規,0,2021-09-14,2021-09-14,合同会社おがわ企画,,合同会社,岐阜県,羽島郡笠松町,田代５１１番地,,21,303,5016062,,,,,,,2021-09-14,1,,,,,オガワキカク,0
229,1210001018606,新規,0,2021-09-14,2021-09-14,株式会社アイブリック,,株式会社,福井県,福井市,深谷町第１１号１２番地３,,18,201,9100049,,,,,,,2021-09-14,1,,,,,アイブリック,0
231,1240001058590,新規,0,2021-09-14,2021-09-14,株式会社ｐｌｕｓＯｎｅ,,株式会社,広島県,広島市東区,矢賀３丁目１１番２４－１０２号,,34,102,7320042,,,,,,,2021-09-14,1,,,,,プラスワン,0
235,1240003005277,新規,0,2021-09-14,2021-09-14,合同会社エムユーカンパニー,,合同会社,広島県,広島市西区,古江上１丁目１７５番地２クレアガーデン高須５０４号,,34,104,7330875,,,,,,,2021-09-14,1,,,,,エムユーカンパニー,0
242,1260003003675,新規,0,2021-09-14,2021-09-14,Ｃ　ＥＩＧＨＴＹ　ＰＥＲＣＥＮＴ合同会社,,合同会社,岡山県,岡山市中区,平井３丁目１０１５番地２３,,33,102,7038282,,,,,,,2021-09-14,1,,,,,シーエイティパーセント,0
246,1290003011618,新規,0,2021-09-14,2021-09-14,問問有漁合同会社,,合同会社,福岡県,福岡市早良区,百道２丁目８番２１号フォーラム藤崎１０２号室,,40,137,8140006,,,,,,,2021-09-14,1,,,,,モンモンユウギョ,0
251,1310001017473,新規,0,2021-09-14,2021-09-14,株式会社ｅｅｌ,,株式会社,長崎県,松浦市,志佐町浦免１３１３番地,,42,208,8594501,,,,,,,2021-09-14,1,,,,,イール,0
252,1310003004164,新規,0,2021-09-14,2021-09-14,合同会社ＮＡＧＡＹＯ,,合同会社,長崎県,長崎市,平和町１４－１－２０３,,42,201,8528116,,,,,,,2021-09-14,1,,,,,ナガヨ,0
256,1320001018594,新規,0,2021-09-14,2021-09-14,株式会社ＡＧＲＩ　ＢＯＹ,,株式会社,大分県,臼杵市,野津町清水原１２８６－１,,44,206,8750000,,,,,,,2021-09-14,1,,,,,アグリボーイ,0
260,1330001028989,新規,0,2021-09-14,2021-09-14,ＫＯＵＫＥＮ２４６建設株式会社,,株式会社,熊本県,熊本市東区,小山１丁目５番１－２０２号,,43,102,8618045,,,,,,,2021-09-14,1,,,,,コウケンニイヨンロクケンセツ,0
261,1330001028997,新規,0,2021-09-14,2021-09-14,株式会社シャイン,,株式会社,熊本県,宇城市,松橋町久具２７５０番地１,,43,213,8690532,,,,,,,2021-09-14,1,,,,,シャイン,0
264,1350001017305,新規,0,2021-09-14,2021-09-14,株式会社光商事,,株式会社,宮崎県,宮崎市,江平中町３番地９レクシアシティ宮崎中央レジデンス１４０２号,,45,201,8800814,,,,,,,2021-09-14,1,,,,,ヒカリショウジ,0
266,1360001029373,新規,0,2021-09-14,2021-09-14,株式会社クリーン・アップ,,株式会社,沖縄県,沖縄市,安慶田１丁目１７番２７号,,47,211,9040012,,,,,,,2021-09-14,1,,,,,クリーンアップ,0
269,1370001047589,新規,0,2021-09-14,2021-09-14,株式会社トラストプラス,,株式会社,宮城県,仙台市泉区,泉中央３丁目２９番７号,,04,105,9813133,,,,,,,2021-09-14,1,,,,,トラストプラス,0
270,1370003005388,新規,0,2021-09-14,2021-09-14,合同会社ｔｗｉｎ　ｐｅａｋｓ,,合同会社,宮城県,富谷市,杜乃橋２丁目１９番地１０,,04,216,9813363,,,,,,,2021-09-14,1,,,,,,0
288,1430001084972,新規,0,2021-09-14,2021-09-14,Ｒｏｓｓｏ　ｉｔａｌｉａ株式会社,,株式会社,北海道,札幌市中央区,南八条西１４丁目２番３４号,,01,101,0640808,,,,,,,2021-09-14,1,,,,,ロッソイタリア,0
290,1430003013145,新規,0,2021-09-14,2021-09-14,合同会社Ｓｐｒａｙ　Ｗｏｒｋ,,合同会社,北海道,札幌市北区,南あいの里７丁目３１番８号,,01,102,0028091,,,,,,,2021-09-14,1,,,,,スプレーワーク,0
294,1450003002121,新規,0,2021-09-14,2021-09-14,合同会社エレクシア,,合同会社,北海道,旭川市,東旭川町豊田６９７番地の１,,01,204,0781272,,,,,,,2021-09-14,1,,,,,エレクシア,0
295,1460001005595,新規,0,2021-09-14,2021-09-14,株式会社マルケイハライチ,,株式会社,北海道,釧路市,興津２丁目４３番３号,,01,206,0850811,,,,,,,2021-09-14,1,,,,,マルケイハライチ,0
306,1700150104719,新規,0,2021-09-14,2021-09-14,ＡＹＡＮＡ　ＡＵＴＯ,,外国会社等,千葉県,東金市,日吉台６丁目１４番地９,,12,213,2830803,スリランカ民主社会主義共和国、マタレ、ウクウェラ、ワッテガマロード、２８,,,,,,2021-09-14,1,,,,,アヤナオート,0
314,2010001221121,新規,0,2021-09-14,2021-09-14,株式会社Ｍ．Ｓ．ＬＡＢ,,株式会社,東京都,千代田区,外神田２丁目９番３号,,13,101,1010021,,,,,,,2021-09-14,1,,,,,エムエスラボ,0
315,2010001221146,新規,0,2021-09-14,2021-09-14,日本ハクジュン実業株式会社,,株式会社,東京都,中央区,東日本橋２丁目２８番５号５０８,,13,102,1030004,,,,,,,2021-09-14,1,,,,,ニホンハクジュンジツギョウ,0
316,2010001221170,新規,0,2021-09-14,2021-09-14,株式会社アールスリーエンタープライズリミテッド,,株式会社,東京都,中央区,日本橋堀留町１丁目３－１６ＪＳＢレジデンス＆オフィス日本橋５０１号,,13,102,1030012,,,,,,,2021-09-14,1,,,,,アールスリーエンタープライズリミテッド,0
318,2010003035833,新規,0,2021-09-14,2021-09-14,合同会社Ｒｅａｌｉｓｅｒ,,合同会社,東京都,中央区,銀座１丁目１４番１３号カスタリア銀座６０６,,13,102,1040061,,,,,,,2021-09-14,1,,,,,レアリゼ,0
331,2010401162650,新規,0,2021-09-14,2021-09-14,森海株式会社,,株式会社,東京都,港区,赤坂２丁目８番１４－５０４号,,13,103,1070052,,,,,,,2021-09-14,1,,,,,センカイ,0
332,2010401162659,新規,0,2021-09-14,2021-09-14,株式会社ｌｅｏｐａｒｄｏ,,株式会社,東京都,港区,芝浦３丁目１７番１１号天翔オフィス田町３０２号室,,13,103,1080023,,,,,,,2021-09-14,1,,,,,レオパルド,0
334,2010403026093,新規,0,2021-09-14,2021-09-14,合同会社ｏｎｅ　ｂｕｉｌｄｉｎｇ　ｓｏｌｕｔｉｏｎ,,合同会社,東京都,港区,海岸１丁目２番２０号汐留ビルディング３Ｆ,,13,103,1050022,,,,,,,2021-09-14,1,,,,,ワンビルディングソリューション,0
335,2010403026110,新規,0,2021-09-14,2021-09-14,新御堂筋インベストメンツ２合同会社,,合同会社,東京都,港区,六本木１丁目６番１号泉ガーデンタワー,,13,103,1060032,,,,,,,2021-09-14,1,,,,,シンミドウスジインベストメンツツー,0
336,2010405020202,新規,0,2021-09-14,2021-09-14,一般社団法人Ｍｉｓｓ　ＳＡＫＥ,,その他の設立登記法人,東京都,港区,港南１丁目９番３６号,,13,103,1080075,,,,,,,2021-09-14,1,,,,,ミスサケ,0
339,2010601059928,新規,0,2021-09-14,2021-09-14,株式会社ＭＣＳ,,株式会社,東京都,江東区,東雲２丁目１０－３８,,13,108,1350062,,,,,,,2021-09-14,1,,,,,エムシーエス,0
358,2011003013341,新規,0,2021-09-14,2021-09-14,合同会社Ｋ．ｂｌａｓｔ,,合同会社,東京都,渋谷区,桜丘町２３番１７号シティコート桜丘４０８,,13,113,1500031,,,,,,,2021-09-14,1,,,,,ケイブラスト,0
359,2011003013358,新規,0,2021-09-14,2021-09-14,合同会社グランドセントラル,,合同会社,東京都,渋谷区,神宮前６丁目２３番４号桑野ビル２階,,13,113,1500001,,,,,,,2021-09-14,1,,,,,グランドセントラル,0
364,2011203003638,新規,0,2021-09-14,2021-09-14,Ｕｔｔａｍ　Ｉｎｔｅｒｎａｔｉｏｎａｌ合同会社,,合同会社,東京都,中野区,中央１丁目２７番２１－２０２号,,13,114,1640011,,,,,,,2021-09-14,1,,,,,ウタマインターナショナル,0
368,2011403003438,新規,0,2021-09-14,2021-09-14,ノアの方舟Ｈ＆Ｍ合同会社,,合同会社,東京都,板橋区,舟渡４丁目１２番１４号,,13,119,1740041,,,,,,,2021-09-14,1,,,,,ノアノハコブネエイチアンドエム,0
374,2011701024706,新規,0,2021-09-14,2021-09-14,株式会社ＴＫｆａｒｍｓ,,株式会社,東京都,江戸川区,江戸川１丁目１４番１０号,,13,123,1320013,,,,,,,2021-09-14,1,,,,,ティーケーファームス,0
377,2011703002940,新規,0,2021-09-14,2021-09-14,ＳＰライフケア舎人合同会社,,合同会社,東京都,江戸川区,西葛西８丁目４番１３－６１８号,,13,123,1340088,,,,,,,2021-09-14,1,,,,,エスピーライフケアトネリ,0
378,2012803002590,新規,0,2021-09-14,2021-09-14,合同会社オレンジポピー,,合同会社,東京都,国立市,東１丁目１８番地の７,,13,215,1860002,,,,,,,2021-09-14,1,,,,,オレンジポピー,0
385,2020001142993,新規,0,2021-09-14,2021-09-14,株式会社ＮＬＫ,,株式会社,神奈川県,横浜市南区,共進町３丁目６３番地,,14,105,2320015,,,,,,,2021-09-14,1,,,,,エヌエルケー,0
389,2020003020487,新規,0,2021-09-14,2021-09-14,ザイアセット合同会社,,合同会社,神奈川県,横浜市鶴見区,江ケ崎町３番１６－１２７号,,14,101,2300002,,,,,,,2021-09-14,1,,,,,ザイアセット,0
397,2021001073898,新規,0,2021-09-14,2021-09-14,株式会社ＲＩＧＨＴ,,株式会社,神奈川県,相模原市中央区,相生３丁目１３－１０－サンハイツ島貫２０３,,14,152,2520235,,,,,,,2021-09-14,1,,,,,ライト,0
398,2021001073923,新規,0,2021-09-14,2021-09-14,株式会社Ｂｅｒｔａ,,株式会社,神奈川県,鎌倉市,小町１丁目３番５号２階,,14,204,2480006,,,,,,,2021-09-14,1,,,,,ベルタ,0
399,2021001073948,新規,0,2021-09-14,2021-09-14,カープラン株式会社,,株式会社,神奈川県,愛甲郡愛川町,中津２０番地の９,,14,401,2430303,,,,,,,2021-09-14,1,,,,,カープラン,0
413,2030003017937,新規,0,2021-09-14,2021-09-14,Ｓ．Ｉ　ＣＡＰＩＴＡＬ合同会社,,合同会社,埼玉県,川越市,霞ケ関東１丁目１０番地１６ラフォレスタ３０２,,11,201,3501103,,,,,,,2021-09-14,1,,,,,エスアイキャピタル,0
420,2050001049831,新規,0,2021-09-14,2021-09-14,株式会社ゆりかごハピネス,,株式会社,茨城県,水戸市,飯富町３４６７番地３,,08,201,3114206,,,,,,,2021-09-14,1,,,,,ユリカゴハピネス,0
421,2050001049848,新規,0,2021-09-14,2021-09-14,株式会社荒佐ＨＤ,,株式会社,茨城県,鉾田市,鉾田２２６７番地,,08,234,3111517,,,,,,,2021-09-14,1,,,,,アラサホールディングス,0
423,2050003006070,新規,0,2021-09-14,2021-09-14,合同会社ＫＹＳ,,合同会社,茨城県,鉾田市,串挽１０１３－２,,08,234,3111523,,,,,,,2021-09-14,1,,,,,ケーワイエス,0
454,2120001240374,新規,0,2021-09-14,2021-09-14,株式会社Ａｒｔ　ｏｆ　Ｌｉｆｅ,,株式会社,大阪府,大阪市浪速区,難波中２丁目１０番７０号なんばパークスタワー１９Ｆ,,27,111,5560011,,,,,,,2021-09-14,1,,,,,アートオブライフ,0
455,2120001240424,新規,0,2021-09-14,2021-09-14,株式会社ステラハウス,,株式会社,大阪府,大阪市生野区,巽中１丁目２４番１０号,00124224,27,116,5440013,,,,,,,2021-09-14,1,,,,,ステラハウス,0
460,2120003020238,新規,0,2021-09-14,2021-09-14,合同会社スタジオかなで,,合同会社,大阪府,大阪市北区,梅田２丁目５番１３号桜橋第一ビル３０４号,,27,127,5300001,,,,,,,2021-09-14,1,,,,,スタジオカナデ,0
464,2120101064293,新規,0,2021-09-14,2021-09-14,株式会社Ｌｉｎｇｚ,,株式会社,大阪府,泉大津市,高津町１４番３２－２号,,27,206,5950042,,,,,,,2021-09-14,1,,,,,リングス,0
467,2120901044899,新規,0,2021-09-14,2021-09-14,株式会社ＳＤファーム,,株式会社,大阪府,摂津市,別府２丁目１３番２２号,,27,224,5660046,,,,,,,2021-09-14,1,,,,,エスディーファーム,0
468,2120903003820,新規,0,2021-09-14,2021-09-14,合同会社ＡＧＵＲＩ－ＰＬＵＳ,,合同会社,大阪府,吹田市,高浜町１０番１５号,,27,205,5640026,,,,,,,2021-09-14,1,,,,,アグリプラス,0
471,2122005003583,新規,0,2021-09-14,2021-09-14,一般社団法人関西福祉農業普及会,,その他の設立登記法人,大阪府,八尾市,志紀町３丁目１９番１号松井志紀駅ビル４０６,,27,212,5810031,,,,,,,2021-09-14,1,,,,,カンサイフクシノウギョウフキュウカイ,0
476,2130001070110,新規,0,2021-09-14,2021-09-14,株式会社ＴＮＧ,,株式会社,京都府,京都市東山区,宮川筋６丁目３５４－２,,26,105,6050801,,,,,,,2021-09-14,1,,,,,ティーエヌジー,0
478,2140001123032,新規,0,2021-09-14,2021-09-14,株式会社和田山コーティングセンター,,株式会社,兵庫県,朝来市,和田山町野村１０１番地,,28,225,6695225,,,,,,,2021-09-14,1,,,,,ワダヤマコーティングセンター,0
480,2140003016738,新規,0,2021-09-14,2021-09-14,合同会社バタコーポレーション,,合同会社,兵庫県,加古川市,尾上町旭２丁目８０番地の３,,28,210,6750026,,,,,,,2021-09-14,1,,,,,バタコーポレーション,0
484,2150003002480,新規,0,2021-09-14,2021-09-14,Ｏｆｆｉｃｅ－Ｙ合同会社,,合同会社,奈良県,生駒郡三郷町,夕陽ケ丘１９－２０,,29,343,6360801,,,,,,,2021-09-14,1,,,,,オフィスワイ,0
486,2160003002372,新規,0,2021-09-14,2021-09-14,合同会社フォース,,合同会社,滋賀県,東近江市,八日市緑町２９番２２号,,25,213,5270023,,,,,,,2021-09-14,1,,,,,フォース,0
500,2180001091639,新規,0,2021-09-14,2021-09-14,北浦織布株式会社,,株式会社,愛知県,半田市,瑞穂町６丁目４番地の３４,,23,205,4750828,,,,,,,2021-09-14,1,,,,,キタウラショクフ,0
527,2200005013248,新規,0,2021-09-14,2021-09-14,農事組合法人土とむぎの青空,,その他の設立登記法人,岐阜県,関市,下之保１１１９番地１,,21,205,5013521,,,,,,,2021-09-14,1,,,,,ツチトムギノアオゾラ,0
528,2210001018605,新規,0,2021-09-14,2021-09-14,株式会社ｉｇｎｉｔｉｏｎ,,株式会社,福井県,越前市,小松１丁目１番２１号,,18,209,9150816,,,,,,,2021-09-14,1,,,,,イグニッション,0
533,2230001018982,新規,0,2021-09-14,2021-09-14,クバル株式会社,,株式会社,富山県,南砺市,田中６０２番地の１,,16,210,9391704,,,,,,,2021-09-14,1,,,,,クバル,0
536,2240001058607,新規,0,2021-09-14,2021-09-14,竹原ガス株式会社,,株式会社,広島県,竹原市,下野町２７９４番地２９,,34,203,7250012,,,,,,,2021-09-14,1,,,,,タケハラガス,0
544,2260003003674,新規,0,2021-09-14,2021-09-14,ＤＲＥＡＭＢＯＸ合同会社,,合同会社,岡山県,岡山市南区,福富東２丁目２９番１３号,,33,104,7028033,,,,,,,2021-09-14,1,,,,,ドリームボックス,0
546,2270005005478,新規,0,2021-09-14,2021-09-14,医療法人紡,,その他の設立登記法人,鳥取県,東伯郡湯梨浜町,はわい長瀬５４９番地１４,,31,370,6820722,,,,,,,2021-09-14,1,,,,,ツムギ,0
551,2290001094580,新規,0,2021-09-14,2021-09-14,株式会社ジコウ,,株式会社,福岡県,糸島市,前原西５丁目１番２０号２０５,,40,230,8191117,,,,,,,2021-09-14,1,,,,,ジコウ,0
552,2290001094606,新規,0,2021-09-14,2021-09-14,株式会社ＡＳＴＲＯ　ＷＯＲＬＤ,,株式会社,福岡県,福岡市博多区,博多駅前２丁目１９番１７号トーカン博多第５ビル３１２号室,,40,132,8120011,,,,,,,2021-09-14,1,,,,,アストロワールド,0
553,2290001094639,新規,0,2021-09-14,2021-09-14,株式会社リファイン九州,,株式会社,福岡県,久留米市,寺町３－２－３０５,,40,203,8300014,,,,,,,2021-09-14,1,,,,,リファインキュウシュウ,0
560,2290003011609,新規,0,2021-09-14,2021-09-14,合同会社ライラック,,合同会社,福岡県,福岡市西区,今宿３丁目３－２０－２０６,,40,135,8190167,,,,,,,2021-09-14,1,,,,,ライラック,0
561,2290003011617,新規,0,2021-09-14,2021-09-14,ミクロリペアサービス合同会社,,合同会社,福岡県,古賀市,薦野１１４１,,40,223,8113122,,,,,,,2021-09-14,1,,,,,ミクロリペアサービス,0
562,2290801027789,新規,0,2021-09-14,2021-09-14,株式会社まほろば,,株式会社,福岡県,北九州市小倉南区,北方１丁目１２番４２－１０１号,,40,107,8020841,,,,,,,2021-09-14,1,,,,,マホロバ,0
563,2290801027797,新規,0,2021-09-14,2021-09-14,株式会社心優樹,,株式会社,福岡県,北九州市八幡西区,上上津役５丁目２１番２０号,,40,109,8070072,,,,,,,2021-09-14,1,,,,,ミユキ,0
565,2310001017472,新規,0,2021-09-14,2021-09-14,株式会社林水産,,株式会社,長崎県,平戸市,岩の上町１３８３番地,,42,207,8595121,,,,,,,2021-09-14,1,,,,,ハヤシスイサン,0
566,2310003004163,新規,0,2021-09-14,2021-09-14,みやびファーム合同会社,,合同会社,長崎県,諫早市,目代町３７１番地,,42,204,8540007,,,,,,,2021-09-14,1,,,,,ミヤビファーム,0
571,2330001028996,新規,0,2021-09-14,2021-09-14,株式会社ＡＳＯ塚本ファーム,,株式会社,熊本県,阿蘇市,三久保６９２番地,,43,214,8692302,,,,,,,2021-09-14,1,,,,,アソツカモトファーム,0
583,2380001032201,新規,0,2021-09-14,2021-09-14,株式会社エスディートラスト,,株式会社,福島県,西白河郡矢吹町,赤沢８５５番地,,07,466,9690206,,,,,,,2021-09-14,1,,,,,エスディートラスト,0
585,2380003005015,新規,0,2021-09-14,2021-09-14,合同会社あいづがるど,,合同会社,福島県,会津若松市,材木町１丁目５番６１号,,07,202,9650853,,,,,,,2021-09-14,1,,,,,アイヅガルド,0
591,2430001084971,新規,0,2021-09-14,2021-09-14,株式会社丘十庭園,,株式会社,北海道,札幌市清田区,美しが丘一条８丁目５－１７,,01,110,0040811,,,,,,,2021-09-14,1,,,,,オカジュウテイエン,0
595,2430003013144,新規,0,2021-09-14,2021-09-14,Ｍａｒ　ｄｅ　Ｎｏｒｔｅ合同会社,,合同会社,北海道,札幌市豊平区,平岸一条９丁目６番３１号,,01,105,0620931,,,,,,,2021-09-14,1,,,,,マルデノルテ,0
598,2450003002120,新規,0,2021-09-14,2021-09-14,合同会社ＫＡＫＥＳＯＮＡ,,合同会社,北海道,旭川市,豊岡五条５丁目３番１２号,,01,204,0788235,,,,,,,2021-09-14,1,,,,,カケソナ,0
605,2500001023682,新規,0,2021-09-14,2021-09-14,有島工業株式会社,,株式会社,愛媛県,今治市,栄町２丁目１番地１３,,38,202,7940023,,,,,,,2021-09-14,1,,,,,ユシマコウギョウ,0
608,2700150104726,新規,0,2021-09-14,2021-09-14,ＲＵＺＡＮ　ＣＯＭ,,外国会社等,千葉県,香取郡多古町,出沼１５６－４７－４,,12,347,2892301,スリランカ民主社会主義共和国、ガンポラ、ナワラピティヤロードマリヤワッテＮｏ．１４０,,,,,,2021-09-14,1,,,,,ルザンコム,0
625,3010001221120,新規,0,2021-09-14,2021-09-14,株式会社ＭＵＳＯＵ,,株式会社,東京都,千代田区,神田佐久間町１丁目８番地４アルテール秋葉原７０８,,13,101,1010025,,,,,,,2021-09-14,1,,,,,ムソウ,0
629,3010003035840,新規,0,2021-09-14,2021-09-14,合同会社Ｙ２,,合同会社,東京都,中央区,晴海５丁目１番９－８１８号,,13,102,1040053,,,,,,,2021-09-14,1,,,,,ワイツー,0
640,3010401162633,新規,0,2021-09-14,2021-09-14,株式会社ＵＮＩＷＡＬＫ,,株式会社,東京都,港区,北青山２丁目７－２０猪瀬ビル２階,,13,103,1070061,,,,,,,2021-09-14,1,,,,,ユニウォーク,0
641,3010401162674,新規,0,2021-09-14,2021-09-14,株式会社Ｊ　Ｐｌｕｓ,,株式会社,東京都,港区,六本木５丁目１６番５０号,,13,103,1060032,,,,,,,2021-09-14,1,,,,,ジェイプラス,0
645,3010403026101,新規,0,2021-09-14,2021-09-14,ＵＳＵ合同会社,,合同会社,東京都,港区,赤坂２丁目１１番７号ＡＴＴ新館１１階Ｍａｚａｒｓ・Ｊａｐａｎ株式会社内,,13,103,1070052,,,,,,,2021-09-14,1,,,,,ユーエスユー,0
659,3010801032304,新規,0,2021-09-14,2021-09-14,株式会社亀田工業,,株式会社,東京都,大田区,羽田４丁目１０－９イソベハイツ２－１０１,,13,111,1440043,,,,,,,2021-09-14,1,,,,,カメダコウギョウ,0
660,3010801032312,新規,0,2021-09-14,2021-09-14,クローバーコミット株式会社,,株式会社,東京都,大田区,東蒲田２丁目１番１５号,,13,111,1440031,,,,,,,2021-09-14,1,,,,,クローバーコミット,0
662,3010903006800,新規,0,2021-09-14,2021-09-14,合同会社隼,,合同会社,東京都,世田谷区,上北沢３丁目２５番１０号,,13,112,1560057,,,,,,,2021-09-14,1,,,,,ハヤブサ,0
668,3011003013357,新規,0,2021-09-14,2021-09-14,合同会社ＡＳＩＯ,,合同会社,東京都,渋谷区,神宮前２丁目２１－２１クラヴィーア神宮前４０３,,13,113,1500001,,,,,,,2021-09-14,1,,,,,アシオ,0
681,3011101096304,新規,0,2021-09-14,2021-09-14,株式会社オレンジフラワー,,株式会社,東京都,新宿区,高田馬場４丁目３７－１０ルーブル高田馬場２１３,,13,104,1690075,,,,,,,2021-09-14,1,,,,,オレンジフラワー,0
682,3011203003637,新規,0,2021-09-14,2021-09-14,ＳｕｐｅｒＣｕｂ合同会社,,合同会社,東京都,中野区,東中野３丁目５－８,,13,114,1640003,,,,,,,2021-09-14,1,,,,,スーパーカブ,0
690,3011701024705,新規,0,2021-09-14,2021-09-14,アクセル貿易株式会社,,株式会社,東京都,江戸川区,東葛西２丁目２２番１７号,,13,123,1340084,,,,,,,2021-09-14,1,,,,,アクセルボウエキ,0
694,3012301012703,新規,0,2021-09-14,2021-09-14,株式会社Ｂｍｏ２７,,株式会社,東京都,町田市,本町田２０２２番地５シティハイムＭ１０１,,13,209,1940032,,,,,,,2021-09-14,1,,,,,ビーモニーナ,0
695,3012303001588,新規,0,2021-09-14,2021-09-14,合同会社Ｖｅｒａｎｏ,,合同会社,東京都,町田市,金森５丁目５番８号,,13,209,1940012,,,,,,,2021-09-14,1,,,,,ベラーノ,0
700,3012801021088,新規,0,2021-09-14,2021-09-14,ｍｍｍｍ株式会社,,株式会社,東京都,日野市,南平１丁目３１番地の１０,,13,212,1910041,,,,,,,2021-09-14,1,,,,,ンー,0
705,3020001143000,新規,0,2021-09-14,2021-09-14,株式会社ジョーネス,,株式会社,神奈川県,横浜市青葉区,恩田町３２６３番地１３,,14,117,2270065,,,,,,,2021-09-14,1,,,,,ジョーネス,0
706,3020001143009,新規,0,2021-09-14,2021-09-14,株式会社Ｈｏｕｓｅ　Ｒｅｂｏｒｎ,,株式会社,神奈川県,川崎市宮前区,有馬３丁目４番１０号,,14,136,2160003,,,,,,,2021-09-14,1,,,,,ハウスリボーン,0
707,3020001143058,新規,0,2021-09-14,2021-09-14,株式会社たにもとホールディングス,,株式会社,神奈川県,横浜市中区,羽衣町２丁目７番１０号,,14,104,2310047,,,,,,,2021-09-14,1,,,,,タニモトホールディングス,0
714,3021001073947,新規,0,2021-09-14,2021-09-14,株式会社Ｍａｈａｌｏ　ｎａｌｕ,,株式会社,神奈川県,茅ヶ崎市,西久保７２５番地２,,14,207,2530083,,,,,,,2021-09-14,1,,,,,マハロナル,0
716,3021003010881,新規,0,2021-09-14,2021-09-14,合同会社ツツイ,,合同会社,神奈川県,座間市,立野台１丁目８番９号,,14,216,2520023,,,,,,,2021-09-14,1,,,,,ツツイ,0
730,3030003017952,新規,0,2021-09-14,2021-09-14,合同会社鍵山情報,,合同会社,埼玉県,入間市,鍵山２丁目４番２０号,,11,225,3580004,,,,,,,2021-09-14,1,,,,,カギヤマジョウホウ,0
735,3040001120212,新規,0,2021-09-14,2021-09-14,株式会社トラスト,,株式会社,千葉県,千葉市中央区,栄町３６番１０号甲南アセット千葉中央ビル７階,,12,101,2600016,,,,,,,2021-09-14,1,,,,,トラスト,0
736,3040001120220,新規,0,2021-09-14,2021-09-14,株式会社徳上,,株式会社,千葉県,千葉市稲毛区,小仲台１丁目５番１２号シャルム稲毛７１０号,,12,103,2630043,,,,,,,2021-09-14,1,,,,,トクジョウ,0
751,3080001024442,新規,0,2021-09-14,2021-09-14,株式会社こすも薬局,,株式会社,静岡県,静岡市駿河区,大谷２７８７番地の６７,,22,102,4228017,,,,,,,2021-09-14,1,,,,,コスモヤッキョク,0
759,3090001017189,新規,0,2021-09-14,2021-09-14,株式会社ｊａｒａ,,株式会社,山梨県,富士吉田市,上吉田１丁目１番１号,,19,202,4030005,,,,,,,2021-09-14,1,,,,,ジャラ,0
775,3120003020204,新規,0,2021-09-14,2021-09-14,ＨＩＲＡ　ＧＬＯＢＡＬ合同会社,,合同会社,大阪府,大阪市淀川区,塚本２丁目２４番１１号,,27,123,5320026,,,,,,,2021-09-14,1,,,,,ヒラグローバル,0
777,3120005022504,新規,0,2021-09-14,2021-09-14,一般社団法人ＵＶ管理,,その他の設立登記法人,大阪府,大阪市北区,西天満２丁目６番８号堂島ビルヂング９階,,27,127,5300047,,,,,,,2021-09-14,1,,,,,ユーブイカンリ,0
784,3120905006226,新規,0,2021-09-14,2021-09-14,特定非営利活動法人のぞみ,,その他の設立登記法人,大阪府,豊中市,曽根西町２丁目１０番２０号,,27,203,5610801,,,,,,,2021-09-14,1,,,,,ノゾミ,0
785,3122001035167,新規,0,2021-09-14,2021-09-14,株式会社＿,00124232,株式会社,大阪府,東大阪市,瓢箪山町２番１６号,,27,227,5798051,,,,,,,2021-09-14,1,,,,,セン,0
792,3130005016265,新規,0,2021-09-14,2021-09-14,一般社団法人美山森林保全協議会,,その他の設立登記法人,京都府,南丹市,美山町福居荒堀１７番地,,26,213,6010765,,,,,,,2021-09-14,1,,,,,ミヤマシンリンホゼンキョウギカイ,0
798,3140001123007,新規,0,2021-09-14,2021-09-14,株式会社スマイルクローバー,,株式会社,兵庫県,加古川市,西神吉町岸５８８番地の５,,28,210,6750045,,,,,,,2021-09-14,1,,,,,スマイルクローバー,0
799,3140001123015,新規,0,2021-09-14,2021-09-14,株式会社インテリアキダプラス,,株式会社,兵庫県,明石市,東野町２０４３－８,,28,203,6730844,,,,,,,2021-09-14,1,,,,,インテリアキダプラス,0
800,3140001123031,新規,0,2021-09-14,2021-09-14,ＫＲＫシステム株式会社,,株式会社,兵庫県,姫路市,飾磨区中島３３３９番地,,28,201,6728035,,,,,,,2021-09-14,1,,,,,ケイアールケイシステム,0
828,3180301035369,新規,0,2021-09-14,2021-09-14,株式会社Ｐｕｌｌ　Ｕｐ,,株式会社,愛知県,豊橋市,石巻本町字重行２２番地３,,23,201,4411115,,,,,,,2021-09-14,1,,,,,プルアップ,0
830,3200001039130,新規,0,2021-09-14,2021-09-14,株式会社安田商会,,株式会社,岐阜県,養老郡養老町,泉町２９２番地２,,21,341,5031311,,,,,,,2021-09-14,1,,,,,ヤスダショウカイ,0
834,3210001018604,新規,0,2021-09-14,2021-09-14,株式会社いろは,,株式会社,福井県,福井市,開発４丁目１０７番地１,,18,201,9100842,,,,,,,2021-09-14,1,,,,,イロハ,0
835,3220003003116,新規,0,2021-09-14,2021-09-14,合同会社南弘,,合同会社,石川県,羽咋郡志賀町,高浜町レの１７０番地,,17,384,9250141,,,,,,,2021-09-14,1,,,,,ナンコウ,0
840,3240001058589,新規,0,2021-09-14,2021-09-14,株式会社ＣＵＥ,,株式会社,広島県,東広島市,西条町森近１１７５番地,,34,212,7390032,,,,,,,2021-09-14,1,,,,,キュー,0
841,3240001058606,新規,0,2021-09-14,2021-09-14,株式会社エステートタクミ,,株式会社,広島県,呉市,広本町１丁目１３番３号,,34,202,7370125,,,,,,,2021-09-14,1,,,,,エステートタクミ,0
843,3240005015272,新規,0,2021-09-14,2021-09-14,医療法人大橋内科医院,,その他の設立登記法人,広島県,広島市中区,白島中町１１番１０号,,34,101,7300002,,,,,,,2021-09-14,1,,,,,オオハシナイカイイン,0
852,3290001094588,新規,0,2021-09-14,2021-09-14,株式会社Ｃｈｉｆｉｔ,,株式会社,福岡県,糟屋郡篠栗町,大字田中１０３－２プロスパー２０－５０１号,,40,342,8112416,,,,,,,2021-09-14,1,,,,,チフィット,0
853,3290001094605,新規,0,2021-09-14,2021-09-14,ａｘｏｎｏｍｅｔｒｉｃ株式会社,,株式会社,福岡県,福岡市中央区,天神４丁目５番１７号,,40,133,8100001,,,,,,,2021-09-14,1,,,,,アクソノメトリック,0
854,3290001094621,新規,0,2021-09-14,2021-09-14,株式会社ぴーす,,株式会社,福岡県,糟屋郡粕屋町,戸原東２丁目９番３号,,40,349,8112318,,,,,,,2021-09-14,1,,,,,ピース,0
863,3310001017471,新規,0,2021-09-14,2021-09-14,株式会社アースファーマシー,,株式会社,長崎県,大村市,桜馬場２丁目４５５番地３,,42,205,8560812,,,,,,,2021-09-14,1,,,,,アースファーマシー,0
864,3310003004162,新規,0,2021-09-14,2021-09-14,ＡＰリューブン合同会社,,合同会社,長崎県,佐世保市,今福町２３３番地１　９０３,,42,202,8570061,,,,,,,2021-09-14,1,,,,,エーピーリューブン,0
865,3320001018601,新規,0,2021-09-14,2021-09-14,株式会社豊建,,株式会社,大分県,大分市,下郡北３丁目４番１２－３０９号サザン・ブライト,,44,201,8700952,,,,,,,2021-09-14,1,,,,,,0
878,3370003005386,新規,0,2021-09-14,2021-09-14,合同会社イースター,,合同会社,宮城県,仙台市青葉区,小田原５丁目３番４０号アルファ仙台３１１,,04,101,9800003,,,,,,,2021-09-14,1,,,,,イースター,0
879,3370005010343,新規,0,2021-09-14,2021-09-14,農事組合法人荻埣ノースファーム,,その他の設立登記法人,宮城県,遠田郡美里町,荻埣字江口裏５番地,,04,505,9870022,,,,,,,2021-09-14,1,,,,,オギゾネノースファーム,0
889,3400001015598,新規,0,2021-09-14,2021-09-14,株式会社及川農園の梅酒,,株式会社,岩手県,気仙郡住田町,世田米字本町３６番地,,03,441,0292311,,,,,,,2021-09-14,1,,,,,オイカワノウエンノウメシュ,0
890,3410001012958,新規,0,2021-09-14,2021-09-14,株式会社オオダテソーイングファクトリー,,株式会社,秋田県,大館市,釈迦内字獅子ケ森１番地２３,00124234,05,204,0170012,,,,,,,2021-09-14,1,,,,,オオダテソーイングファクトリー,0
896,3430001084962,新規,0,2021-09-14,2021-09-14,株式会社カラエゾ,,株式会社,北海道,札幌市白石区,本郷通５丁目北４番６号,,01,104,0030025,,,,,,,2021-09-14,1,,,,,カラエゾ,0
897,3430001084970,新規,0,2021-09-14,2021-09-14,ハウスプロジェクト株式会社,,株式会社,北海道,札幌市北区,北二十五条西８丁目３番２０号,,01,102,0010025,,,,,,,2021-09-14,1,,,,,ハウスプロジェクト,0
898,3430001084979,新規,0,2021-09-14,2021-09-14,株式会社ＣＳＢパートナーズ,,株式会社,北海道,札幌市中央区,南一条西１１丁目３２７番地,,01,101,0600061,,,,,,,2021-09-14,1,,,,,シーエスビーパートナーズ,0
900,3430003013143,新規,0,2021-09-14,2021-09-14,合同会社ＫＥＬ,,合同会社,北海道,札幌市中央区,南十三条西１５丁目３－１サムティレジデンス幌西６０１,,01,101,0640913,,,,,,,2021-09-14,1,,,,,ケーイーエル,0
901,3430005014271,新規,0,2021-09-14,2021-09-14,医療法人社団陽桜会,,その他の設立登記法人,北海道,札幌市東区,北四十二条東１６丁目１番地１Ｎ４２メディカルビル２階,,01,103,0070842,,,,,,,2021-09-14,1,,,,,ヨウオウカイ,0
908,3500001023681,新規,0,2021-09-14,2021-09-14,株式会社アイエネ,,株式会社,愛媛県,松山市,余戸西１丁目５番７号,,38,201,7900046,,,,,,,2021-09-14,1,,,,,アイエネ,0
909,3500003002691,新規,0,2021-09-14,2021-09-14,合同会社サニタリーサポートサービス,,合同会社,愛媛県,松山市,南高井町９５３番地３,,38,201,7911112,,,,,,,2021-09-14,1,,,,,サニタリーサポートサービス,0
921,4010001221111,新規,0,2021-09-14,2021-09-14,株式会社オフィスワンＰＬＵＳ,,株式会社,東京都,文京区,向丘１丁目４番１１号アカデミー向丘１階,,13,105,1130023,,,,,,,2021-09-14,1,,,,,オフィスワンプラス,0
922,4010001221160,新規,0,2021-09-14,2021-09-14,銀座プランニング株式会社,,株式会社,東京都,中央区,京橋３丁目４番４号,,13,102,1040031,,,,,,,2021-09-14,1,,,,,ギンザプラニング,0
927,4010101014852,新規,0,2021-09-14,2021-09-14,株式会社Ｔｒｉｎｉｔｙ　Ｐｌａｎ,,株式会社,東京都,八王子市,片倉町７２１番地の１,,13,201,1920914,,,,,,,2021-09-14,1,,,,,トリニティプラン,0
928,4010101014860,新規,0,2021-09-14,2021-09-14,吉沼株式会社,00124230,株式会社,東京都,八王子市,元横山町１丁目５番３号,,13,201,1920063,,,,,,,2021-09-14,1,,,,,ヨシヌマ,0
932,4010401162632,新規,0,2021-09-14,2021-09-14,株式会社ＮＥＸＶＩＳＩＯＮ,,株式会社,東京都,港区,東麻布２丁目３５－１ＫＣビル６Ｆ,,13,103,1060044,,,,,,,2021-09-14,1,,,,,ネクスビジョン,0
933,4010401162649,新規,0,2021-09-14,2021-09-14,株式会社ドゥーズヴァンキャトル,,株式会社,東京都,港区,南青山２丁目２番１５号ウィン青山９４２,,13,103,1070062,,,,,,,2021-09-14,1,,,,,ドゥーズヴァンキャトル,0
934,4010401162665,新規,0,2021-09-14,2021-09-14,株式会社ＹＭＴ,,株式会社,東京都,港区,港南２丁目５番３号,,13,103,1080075,,,,,,,2021-09-14,1,,,,,ワイエムティー,0
935,4010401162698,新規,0,2021-09-14,2021-09-14,株式会社ＯＨＡＮＡＰＡＮＡ,,株式会社,東京都,港区,港南２丁目１５番３号,,13,103,1080075,,,,,,,2021-09-14,1,,,,,オハナパナ,0
936,4010403026109,新規,0,2021-09-14,2021-09-14,新御堂筋インベストメンツ１合同会社,,合同会社,東京都,港区,六本木１丁目６番１号泉ガーデンタワー,,13,103,1060032,,,,,,,2021-09-14,1,,,,,シンミドウスジインベストメンツワン,0
942,4010503006381,新規,0,2021-09-14,2021-09-14,合同会社ＯＫ　Ｌｉｆｅ,,合同会社,東京都,台東区,浅草橋５丁目２４番１０－８０１号,,13,106,1110053,,,,,,,2021-09-14,1,,,,,オーケーライフ,0
948,4010801032311,新規,0,2021-09-14,2021-09-14,株式会社ＴＦＳ,,株式会社,東京都,大田区,大森南２丁目３番１０号,,13,111,1430013,,,,,,,2021-09-14,1,,,,,ティーエフエス,0
952,4010903006799,新規,0,2021-09-14,2021-09-14,合同会社Ｃｒｅａｔｉｖｉｓｉｏｎ,,合同会社,東京都,世田谷区,駒沢２丁目４０－６－２Ｆ,,13,112,1540012,,,,,,,2021-09-14,1,,,,,クリエイティビジョン,0
960,4011003013356,新規,0,2021-09-14,2021-09-14,合同会社いま,,合同会社,東京都,目黒区,中目黒３丁目６番５号アイエム中目黒８Ｆ,,13,110,1530061,,,,,,,2021-09-14,1,,,,,イマ,0
961,4011003013364,新規,0,2021-09-14,2021-09-14,データシップ合同会社,,合同会社,東京都,渋谷区,神宮前６丁目２３－４桑野ビル２Ｆ,,13,113,1500001,,,,,,,2021-09-14,1,,,,,データシップ,0
963,4011101096278,新規,0,2021-09-14,2021-09-14,株式会社ＬＩＮＫ,,株式会社,東京都,新宿区,馬場下町５番地,,13,104,1620045,,,,,,,2021-09-14,1,,,,,リンク,0
965,4011203003636,新規,0,2021-09-14,2021-09-14,合同会社楓,,合同会社,東京都,中野区,中央１丁目２２番２－３０６号,,13,114,1640011,,,,,,,2021-09-14,1,,,,,フウ,0
967,4011303004154,新規,0,2021-09-14,2021-09-14,合同会社富徳,,合同会社,東京都,杉並区,上高井戸１丁目５番１７－１００５号,,13,115,1680074,,,,,,,2021-09-14,1,,,,,トミトク,0
968,4011303004170,新規,0,2021-09-14,2021-09-14,合同会社クエスト,,合同会社,東京都,杉並区,高円寺南３丁目１０番１７号,,13,115,1660003,,,,,,,2021-09-14,1,,,,,クエスト,0
977,4011801039701,新規,0,2021-09-14,2021-09-14,Ｃｏｓｔａｒ　Ｔｅｃｈ株式会社,,株式会社,東京都,葛飾区,西新小岩４丁目３５番１７－３０４号コスモ新小岩クレスト,,13,122,1240025,,,,,,,2021-09-14,1,,,,,コースターテック,0
978,4012301012702,新規,0,2021-09-14,2021-09-14,エストコルザ株式会社,,株式会社,東京都,町田市,鶴間６丁目５６番３６号,,13,209,1940004,,,,,,,2021-09-14,1,,,,,エストコルザ,0
979,4012301012710,新規,0,2021-09-14,2021-09-14,株式会社Ｈｏｎｅｓｔ　Ｂｕｉｌｄ,,株式会社,東京都,町田市,忠生２丁目２３番地１７,,13,209,1940035,,,,,,,2021-09-14,1,,,,,オネストビルド,0
984,4013305003258,新規,0,2021-09-14,2021-09-14,ＮＰＯ法人しあわせバンク,,その他の設立登記法人,東京都,豊島区,池袋本町３丁目１７番２号,,13,116,1700011,,,,,,,2021-09-14,1,,,,,シアワセバンク,0
989,4020001143024,新規,0,2021-09-14,2021-09-14,株式会社ヴェールモンブラン,,株式会社,神奈川県,横浜市緑区,白山２丁目３４番２０号,,14,113,2260006,,,,,,,2021-09-14,1,,,,,ヴェールモンブラン,0
990,4020002017549,新規,0,2021-09-14,2021-09-14,有限会社丸和商事,,有限会社,神奈川県,横浜市西区,岡野１丁目１番２号,,14,103,2200073,,,,,,,2021-09-14,1,,,,,マルワショウジ,0
991,4020003020485,新規,0,2021-09-14,2021-09-14,合同会社ザ・ガイドランナーズ,,合同会社,神奈川県,川崎市川崎区,駅前本町１１番地２川崎フロンティアビル４階,,14,131,2100007,,,,,,,2021-09-14,1,,,,,ザガイドランナーズ,0
996,4021001073946,新規,0,2021-09-14,2021-09-14,リッチクリエーション株式会社,,株式会社,神奈川県,相模原市中央区,上溝６丁目２０番１９号,,14,152,2520243,,,,,,,2021-09-14,1,,,,,リッチクリエーション,0
999,4021003010889,新規,0,2021-09-14,2021-09-14,合同会社とよもと,,合同会社,神奈川県,藤沢市,遠藤２０１０番地の１８オレーブル湘南２０２,,14,205,2520816,,,,,,,2021-09-14,1,,,,,トヨモト,0
1000,4021005012297,新規,0,2021-09-14,2021-09-14,ＮＰＯ法人湘南国際カランコエ,,その他の設立登記法人,神奈川県,横須賀市,久里浜７丁目２５番７号,,14,201,2390831,,,,,,,2021-09-14,1,,,,,ショウナンコクサイカランコエ,0
1014,4030001144087,新規,0,2021-09-14,2021-09-14,株式会社きぼう堂,,株式会社,埼玉県,越谷市,大字平方２９０１番地３,,11,222,3430002,,,,,,,2021-09-14,1,,,,,キボウドウ,0
1015,4030001144293,新規,0,2021-09-14,2021-09-14,株式会社樹建設,,株式会社,埼玉県,川口市,大字道合９１８番地の３３,,11,203,3330835,,,,,,,2021-09-14,1,,,,,イツキケンセツ,0
1016,4030003017951,新規,0,2021-09-14,2021-09-14,合同会社ＤａｉｋｉＩｎｏｕｅ,,合同会社,埼玉県,川口市,栄町２丁目８の１０シトラス５ビル２０４,,11,203,3320017,,,,,,,2021-09-14,1,,,,,ダイキイノウエ,0
1028,4050003006077,新規,0,2021-09-14,2021-09-14,合同会社ユウアサービス,,合同会社,茨城県,つくば市,野畑６５５番地６,,08,220,3002643,,,,,,,2021-09-14,1,,,,,ユウアサービス,0
1032,4060001034095,新規,0,2021-09-14,2021-09-14,株式会社ランド・アート,,株式会社,栃木県,那須烏山市,興野４９２－８,,09,215,3210611,,,,,,,2021-09-14,1,,,,,ランドアート,0
1037,4080001024441,新規,0,2021-09-14,2021-09-14,株式会社Ｊ．ｗａｌｋ総合設備,,株式会社,静岡県,静岡市駿河区,下島６１５番地の１５４,,22,102,4228037,,,,,,,2021-09-14,1,,,,,ジェイウォークソウゴウセツビ,0
1050,4080403004363,新規,0,2021-09-14,2021-09-14,合同会社ｆｕｏｃｏ,,合同会社,静岡県,浜松市中区,上島３丁目１１番８号,,22,131,4338122,,,,,,,2021-09-14,1,,,,,フォーコ,0
1051,4090001017188,新規,0,2021-09-14,2021-09-14,株式会社ｈａｉｒ　ｒｏｏｍ　ｕｋｉ,,株式会社,山梨県,笛吹市,石和町市部１０９９番地１井上ビル１０５,,19,211,4060031,,,,,,,2021-09-14,1,,,,,ヘアールームウキ,0
1069,4120001240364,新規,0,2021-09-14,2021-09-14,ＳＵＮ　ＤＡＴＡ　ＣＥＮＴＥＲ株式会社,,株式会社,大阪府,大阪市淀川区,西中島７丁目５番２５号,,27,123,5320011,,,,,,,2021-09-14,1,,,,,サンデータセンター,0
1073,4120003020153,新規,0,2021-09-14,2021-09-14,合同会社マインドイノベーション,,合同会社,大阪府,大阪市北区,曾根崎２丁目１６番１９号メッセージ梅田ビル１階ＯｎＴｈｅＵＭＥＤＡ,,27,127,5300057,,,,,,,2021-09-14,1,,,,,マインドイノベーション,0
1076,4120101064309,新規,0,2021-09-14,2021-09-14,株式会社ナルミ,,株式会社,大阪府,堺市北区,金岡町３０１９番地３,,27,146,5918022,,,,,,,2021-09-14,1,,,,,ナルミ,0
1084,4122001035166,新規,0,2021-09-14,2021-09-14,株式会社大輝総建,,株式会社,大阪府,東大阪市,友井２丁目１３番４号イエローマンション２０３号,,27,227,5770816,,,,,,,2021-09-14,1,,,,,ダイキソウケン,0
1086,4130001070109,新規,0,2021-09-14,2021-09-14,株式会社アースソイル,,株式会社,京都府,船井郡京丹波町,下大久保中ノ谷１７番地,,26,407,6220451,,,,,,,2021-09-14,1,,,,,アースソイル,0
1087,4130001070117,新規,0,2021-09-14,2021-09-14,べじたぶるプロ株式会社,,株式会社,京都府,京丹後市,峰山町御旅４９番地,,26,212,6270036,,,,,,,2021-09-14,1,,,,,ベジタブルプロ,0
1090,4140001123022,新規,0,2021-09-14,2021-09-14,神越プロダクツ株式会社,,株式会社,兵庫県,神戸市兵庫区,三川口町３丁目３番３－４０１号,,28,105,6520815,,,,,,,2021-09-14,1,,,,,シンエツプロダクツ,0
1094,4140003016736,新規,0,2021-09-14,2021-09-14,合同会社エクシード,,合同会社,兵庫県,神戸市西区,池上３丁目１番地の５、８０７号,,28,111,6512111,,,,,,,2021-09-14,1,,,,,エクシード,0
1113,4180001147777,新規,0,2021-09-14,2021-09-14,株式会社ＧＡＤＧＥＴ－ＬＡＢＯ,,株式会社,愛知県,あま市,下萱津中道３番地,,23,237,4901114,,,,,,,2021-09-14,1,,,,,ガジェットラボ,0
1116,4180003022953,新規,0,2021-09-14,2021-09-14,合同会社ＦｒｅｅＢｕｚｚ,,合同会社,愛知県,知多市,大興寺字森越８９番地の４,,23,224,4780022,,,,,,,2021-09-14,1,,,,,フリーバズ,0
1136,4250001019127,新規,0,2021-09-14,2021-09-14,株式会社もくれん,,株式会社,山口県,下関市,一の宮住吉３丁目２番１号,,35,201,7510805,,,,,,,2021-09-14,1,,,,,モクレン,0
1142,4280001008507,新規,0,2021-09-14,2021-09-14,１１４ｆｉｌｍｓ株式会社,,株式会社,島根県,邑智郡川本町,大字川本６２３番地８,,32,441,6960001,,,,,,,2021-09-14,1,,,,,イチイチヨンフィルムス,0
1143,4290001011039,新規,0,2021-09-14,2021-09-14,株式会社リブ・イン,,株式会社,福岡県,福岡市博多区,住吉３丁目１３番２号,,40,132,8120018,,,,,,,2021-09-14,1,,,,,リブイン,0
1152,4290001094604,新規,0,2021-09-14,2021-09-14,株式会社ｍｏｎｋｅｙ　ｐａｒｌｉａｍｅｎｔ,,株式会社,福岡県,福岡市南区,鶴田１丁目１８－１０,,40,134,8111352,,,,,,,2021-09-14,1,,,,,モンキーパーラメント,0
1154,4290003011615,新規,0,2021-09-14,2021-09-14,秋山会計合同会社,,合同会社,福岡県,久留米市,東櫛原町１１３７番地１ライオンズマキシム櫛原３０８号,00124225,40,203,8300003,,,,,,,2021-09-14,1,,,,,アキヤマカイケイ,0
1158,4310001017470,新規,0,2021-09-14,2021-09-14,株式会社プレスアート,,株式会社,長崎県,長崎市,白木町３番１４号,,42,201,8500812,,,,,,,2021-09-14,1,,,,,プレスアート,0
1160,4310003004161,新規,0,2021-09-14,2021-09-14,合同会社Ａｒｉｅｎ,,合同会社,長崎県,南島原市,有家町山川３７８番地１,,42,214,8592202,,,,,,,2021-09-14,1,,,,,エイリアン,0
1163,4320001018600,新規,0,2021-09-14,2021-09-14,株式会社パナポートクツカケ,,株式会社,大分県,豊後大野市,大野町田中２３７５番地３,,44,212,8796441,,,,,,,2021-09-14,1,,,,,パナポートクツカケ,0
1166,4330001028994,新規,0,2021-09-14,2021-09-14,株式会社８’Ｒｉｎｇ,,株式会社,熊本県,熊本市東区,若葉５丁目２番１２号,,43,102,8612103,,,,,,,2021-09-14,1,,,,,エイトリング,0
1174,4370003005385,新規,0,2021-09-14,2021-09-14,合同会社ベジプロ,,合同会社,宮城県,石巻市,蛇田字境塚２２番地,,04,202,9860861,,,,,,,2021-09-14,1,,,,,,0
1187,4400003002833,新規,0,2021-09-14,2021-09-14,合同会社おやまケアマネジメント,,合同会社,岩手県,一関市,大手町７－４１,,03,209,0210884,,,,,,,2021-09-14,1,,,,,オヤマケアマネジメント,0
1194,4430001084953,新規,0,2021-09-14,2021-09-14,株式会社ミカサ,,株式会社,北海道,札幌市中央区,南九条西４丁目３番１号ＡＭＳ　ＴＯＷＥＲ１９０６号室,,01,101,0640809,,,,,,,2021-09-14,1,,,,,ミカサ,0
1195,4430001084978,新規,0,2021-09-14,2021-09-14,ＳＴＲ国際人材サービス株式会社,,株式会社,北海道,札幌市西区,西野六条１０丁目２５－７,,01,107,0630036,,,,,,,2021-09-14,1,,,,,エスティーアールコクサイジンザイサービス,0
1199,4430003013142,新規,0,2021-09-14,2021-09-14,ＩＳＬＡＮＤ　ＭＦＧ合同会社,,合同会社,北海道,虻田郡倶知安町,字高砂２６８番地２,,01,400,0440076,,,,,,,2021-09-14,1,,,,,アイランドエムエフジー,0
1204,4470003002034,新規,0,2021-09-14,2021-09-14,合同会社悠花プランニング,,合同会社,香川県,坂出市,横津町１丁目２－１９,,37,203,7620005,,,,,,,2021-09-14,1,,,,,ユウカプランニング,0
1208,4500003002690,新規,0,2021-09-14,2021-09-14,合同会社Ｍ１－ｃａｎ,,合同会社,愛媛県,伊予郡松前町,大字北黒田３９８番地９,,38,401,7913102,,,,,,,2021-09-14,1,,,,,ミカン,0
1218,5010001221036,新規,0,2021-09-14,2021-09-14,ＥａｓｙＧｏ株式会社,,株式会社,東京都,中央区,入船２丁目９番１０号五條ビル２Ａ,,13,102,1040042,,,,,,,2021-09-14,1,,,,,イージーゴー,0
1220,5010003035839,新規,0,2021-09-14,2021-09-14,ｉプロパティ６合同会社,,合同会社,東京都,千代田区,神田小川町３丁目２６番８号神田小川町三丁目ビル６階,,13,101,1010052,,,,,,,2021-09-14,1,,,,,アイプロパティシックス,0
1232,5010401162648,新規,0,2021-09-14,2021-09-14,株式会社Ｗｏｒｌｄ　Ｗｅｌｌｎｅｓｓ　Ｒｅｓｅａｒｃｈ,,株式会社,東京都,港区,南青山２丁目２番１５号ウィン青山１２１４号,,13,103,1070062,,,,,,,2021-09-14,1,,,,,ワールドウェルネスリサーチ,0
1237,5010501047831,新規,0,2021-09-14,2021-09-14,株式会社ＣＨＩＣＫ,,株式会社,東京都,台東区,日本堤２丁目３番２－４０６号ジェノヴィア三ノ輪Ⅱスカイガーデン,00124231,13,106,1110021,,,,,,,2021-09-14,1,,,,,チック,0
1239,5010703005942,新規,0,2021-09-14,2021-09-14,合同会社ログ,,合同会社,東京都,品川区,南大井４丁目１５番４－１３０６号,,13,109,1400013,,,,,,,2021-09-14,1,,,,,ログ,0
1241,5010801032293,新規,0,2021-09-14,2021-09-14,株式会社ＯＺ,,株式会社,東京都,大田区,東雪谷２丁目３３番４号,,13,111,1450065,,,,,,,2021-09-14,1,,,,,オズ,0
1242,5010801032302,新規,0,2021-09-14,2021-09-14,株式会社ＴＧ‐ＢＬＯＯＭ,,株式会社,東京都,大田区,大森北１丁目２１番１－１０４号,,13,111,1430016,,,,,,,2021-09-14,1,,,,,ティージーブルーム,0
1251,5011003013339,新規,0,2021-09-14,2021-09-14,Ｃｕｒｅ　Ｌｉｆｅ探偵合同会社,,合同会社,東京都,渋谷区,本町６丁目１６番２号内海ビル２Ｆ,,13,113,1510071,,,,,,,2021-09-14,1,,,,,キュアライフタンテイ,0
1252,5011003013363,新規,0,2021-09-14,2021-09-14,合同会社エヌジーワイ,,合同会社,東京都,目黒区,青葉台４丁目７番３号１３０２号,,13,110,1530042,,,,,,,2021-09-14,1,,,,,エヌジーワイ,0
1254,5011005009211,新規,0,2021-09-14,2021-09-14,一般社団法人ＪＡＰＡＮ　ＦＯＯＤＳ　ＰＲＯＪＥＣＴ,,その他の設立登記法人,東京都,目黒区,上目黒２丁目９番３５号,,13,110,1530051,,,,,,,2021-09-14,1,,,,,ジャパンフーズプロジェクト,0
1257,5011101096244,新規,0,2021-09-14,2021-09-14,株式会社海翔,,株式会社,東京都,新宿区,百人町２丁目１１番２５号新戸山ビルＢ１,,13,104,1690073,,,,,,,2021-09-14,1,,,,,カイショウ,0
1258,5011101096260,新規,0,2021-09-14,2021-09-14,株式会社ＫＰ,,株式会社,東京都,新宿区,河田町３番５１河田町ガーデンクラブフロア３１０３号,,13,104,1620054,,,,,,,2021-09-14,1,,,,,ケーピー,0
1264,5011401023666,新規,0,2021-09-14,2021-09-14,安達株式会社,,株式会社,東京都,板橋区,成増１丁目１４－９成増グリーンハイツ４０１,,13,119,1750094,,,,,,,2021-09-14,1,,,,,アダチ,0
1266,5011605002400,新規,0,2021-09-14,2021-09-14,医療法人社団ＥＵＲＥＫＡ,,その他の設立登記法人,東京都,練馬区,練馬１丁目６番５号セントラル練馬２階,,13,120,1760001,,,,,,,2021-09-14,1,,,,,エウレカ,0
1272,5011701024703,新規,0,2021-09-14,2021-09-14,株式会社ＷａｓｈＢｏｘ,,株式会社,東京都,江戸川区,南篠崎町４丁目２２番９号,,13,123,1330065,,,,,,,2021-09-14,1,,,,,ウォッシュボックス,0
1274,5011801039700,新規,0,2021-09-14,2021-09-14,株式会社ＢＩＮＤＵ,,株式会社,東京都,足立区,千住仲町１５番２号,,13,121,1200036,,,,,,,2021-09-14,1,,,,,ビンドゥー,0
1275,5012301012701,新規,0,2021-09-14,2021-09-14,株式会社創和会計事務所,,株式会社,東京都,町田市,中町２丁目２１番２３号,,13,209,1940021,,,,,,,2021-09-14,1,,,,,ソウワカイケイジムショ,0
1278,5012403005025,新規,0,2021-09-14,2021-09-14,あいあーる企画合同会社,,合同会社,東京都,多摩市,永山２丁目１９番地の４０,,13,224,2060025,,,,,,,2021-09-14,1,,,,,アイアールキカク,0
1280,5012801021086,新規,0,2021-09-14,2021-09-14,株式会社ＭＵＧＥＮ,,株式会社,東京都,国分寺市,並木町１丁目３２番地３－５０２,,13,214,1850005,,,,,,,2021-09-14,1,,,,,ムゲン,0
1284,5020001143023,新規,0,2021-09-14,2021-09-14,株式会社ココカラ,,株式会社,神奈川県,横浜市中区,根岸旭台３７番地１ヒルトップ横浜山手レジデンスＦ４０３,,14,104,2310854,,,,,,,2021-09-14,1,,,,,ココカラ,0
1285,5020003020484,新規,0,2021-09-14,2021-09-14,合同会社メリーメン,,合同会社,神奈川県,横浜市中区,竹之丸５５グリーンヒル山手Ｃ２０２,,14,104,2310847,,,,,,,2021-09-14,1,,,,,メリーメン,0
1287,5021001073929,新規,0,2021-09-14,2021-09-14,株式会社ＷａｌｔＳｔｅｉｎ,,株式会社,神奈川県,大和市,大和東１丁目５番１号第７７東京ビル,,14,213,2420017,,,,,,,2021-09-14,1,,,,,ウォルトシュタイン,0
1290,5021003010888,新規,0,2021-09-14,2021-09-14,スマートラダー合同会社,,合同会社,神奈川県,藤沢市,辻堂元町２丁目１７番２２号,,14,205,2510043,,,,,,,2021-09-14,1,,,,,スマートラダー,0
1297,5030001144292,新規,0,2021-09-14,2021-09-14,株式会社アトリエ・ル・トレッフル,,株式会社,埼玉県,比企郡鳩山町,鳩ヶ丘２丁目１１番１３号,,11,348,3500312,,,,,,,2021-09-14,1,,,,,アトリエルトレッフル,0
1298,5030001144301,新規,0,2021-09-14,2021-09-14,株式会社デライト,,株式会社,埼玉県,所沢市,御幸町９番９号,,11,208,3591115,,,,,,,2021-09-14,1,,,,,デライト,0
1305,5040001120185,新規,0,2021-09-14,2021-09-14,Ｌｅａｄ　Ａｇｅｎｔ株式会社,,株式会社,千葉県,松戸市,松戸１３０７番地の１松戸ビル１３Ｆ,,12,207,2710092,,,,,,,2021-09-14,1,,,,,リートエージェント,0
1308,5040003018519,新規,0,2021-09-14,2021-09-14,ＭＩＰサポート合同会社,,合同会社,千葉県,市川市,東菅野１丁目１番２５号,,12,203,2720823,,,,,,,2021-09-14,1,,,,,エムアイピーサポート,0
1318,5050005012931,新規,0,2021-09-14,2021-09-14,医療法人社団かしま眼科,,その他の設立登記法人,茨城県,鹿嶋市,大字鉢形１５２６番地３ショッピングセンターサンポートかしま２階,,08,222,3140034,,,,,,,2021-09-14,1,,,,,カシマガンカ,0
1325,5070005009901,新規,0,2021-09-14,2021-09-14,医療法人社団陽光会,,その他の設立登記法人,群馬県,高崎市,貝沢町７４２番地１,,10,202,3700042,,,,,,,2021-09-14,1,,,,,ヨウコウカイ,0
1328,5080003002642,新規,0,2021-09-14,2021-09-14,合同会社ｎｉｃｏ,,合同会社,静岡県,静岡市清水区,駒越中２丁目２番３５号,,22,103,4240904,,,,,,,2021-09-14,1,,,,,ニコ,0
1332,5090001017187,新規,0,2021-09-14,2021-09-14,ジットファーム株式会社,,株式会社,山梨県,南巨摩郡富士川町,大椚３９７番地,,19,368,4000506,,,,,,,2021-09-14,1,,,,,ジットファーム,0
1333,5100001034602,新規,0,2021-09-14,2021-09-14,株式会社Ｓ－ｗｏｒｋｅｒｓ,,株式会社,長野県,上田市,古里８５７番地４,,20,203,3860005,,,,,,,2021-09-14,1,,,,,エスワーカーズ,0
1334,5100001034610,新規,0,2021-09-14,2021-09-14,株式会社澁谷商事,,株式会社,長野県,上伊那郡飯島町,飯島６７４番地２５,,20,384,3993702,,,,,,,2021-09-14,1,,,,,シブヤショウジ,0
1345,5120001240371,新規,0,2021-09-14,2021-09-14,三権産業株式会社,,株式会社,大阪府,大阪市淀川区,西中島６丁目３－２４－Ｋ４２８,,27,123,5320011,,,,,,,2021-09-14,1,,,,,サンケンサンギョウ,0
1347,5120003020210,新規,0,2021-09-14,2021-09-14,はじまりフード合同会社,,合同会社,大阪府,大阪市住吉区,苅田２丁目３－１８,,27,120,5580011,,,,,,,2021-09-14,1,,,,,ハジマリフード,0
1348,5120003020227,新規,0,2021-09-14,2021-09-14,ＥＹＡＰ合同会社,,合同会社,大阪府,大阪市中央区,今橋１丁目７番１９号北浜ビルディング４階,,27,128,5410042,,,,,,,2021-09-14,1,,,,,アヤップ,0
1351,5120101064282,新規,0,2021-09-14,2021-09-14,雄新機工株式会社,,株式会社,大阪府,堺市東区,草尾３６４番地８,,27,143,5998127,,,,,,,2021-09-14,1,,,,,ユウシンキコウ,0
1352,5120101064290,新規,0,2021-09-14,2021-09-14,ツバキ設備株式会社,,株式会社,大阪府,阪南市,自然田２０５６番地の１,,27,232,5990212,,,,,,,2021-09-14,1,,,,,ツバキセツビ,0
1353,5120101064308,新規,0,2021-09-14,2021-09-14,株式会社Ｗａｋａｍａｔｓｕ,,株式会社,大阪府,和泉市,王子町３丁目８－２４,,27,219,5940004,,,,,,,2021-09-14,1,,,,,ワカマツ,0
1361,5130001070108,新規,0,2021-09-14,2021-09-14,株式会社Ｓｈｏ建築設計事務所,,株式会社,京都府,京都市南区,久世上久世町５４２パークテラス桂川３２５,,26,107,6018212,,,,,,,2021-09-14,1,,,,,ショーケンチクセッケイジムショ,0
1362,5130001070116,新規,0,2021-09-14,2021-09-14,株式会社シビット,,株式会社,京都府,京都市中京区,壬生森前町５番地８エミネンス四条７０３号,,26,104,6048831,,,,,,,2021-09-14,1,,,,,シビット,0
1363,5130003007479,新規,0,2021-09-14,2021-09-14,合同会社ｋｅｅｐ　ｇｒｏｗｉｎｇ,,合同会社,京都府,京都市北区,小山上総町１１番地１フェニックス２１ビル３Ｆ,,26,101,6038143,,,,,,,2021-09-14,1,,,,,キープグローイング,0
1372,5140001123038,新規,0,2021-09-14,2021-09-14,Ｗｅｐｅｘ株式会社,,株式会社,兵庫県,神戸市長田区,日吉町４丁目１番４号ヒーモリビル２０２号,,28,106,6530039,,,,,,,2021-09-14,1,,,,,ウェペック,0
1374,5140005025809,新規,0,2021-09-14,2021-09-14,一般社団法人小規模事業者マーケティング推進機構,,その他の設立登記法人,兵庫県,神戸市東灘区,岡本１丁目１１－２１,,28,101,6580072,,,,,,,2021-09-14,1,,,,,ショウキボジギョウシャマーケティングスイシンキコウ,0
1376,5160001023624,新規,0,2021-09-14,2021-09-14,株式会社Ｐｏｗｅｒ　ｗａｖｅ,,株式会社,滋賀県,草津市,木川町１０１９番地１－１０３号,,25,206,5250051,,,,,,,2021-09-14,1,,,,,パワーウェイブ,0
1383,5170001016775,新規,0,2021-09-14,2021-09-14,株式会社平林組,,株式会社,和歌山県,有田郡湯浅町,大字湯浅１５７４番地,,30,361,6430004,,,,,,,2021-09-14,1,,,,,ヒラバヤシグミ,0
1398,5180003022960,新規,0,2021-09-14,2021-09-14,合同会社Ｃｉｖｉｌ　ｅｎｇｉｎｅｅｒ,,合同会社,愛知県,一宮市,上祖父江字北川原１６９番地,,23,203,4940014,,,,,,,2021-09-14,1,,,,,シビルエンジニア,0
1402,5180301035359,新規,0,2021-09-14,2021-09-14,株式会社ＣＬＯＵＤ９,,株式会社,愛知県,碧南市,中町３丁目８番地,,23,209,4470846,,,,,,,2021-09-14,1,,,,,クラウドナイン,0
1404,5190001028678,新規,0,2021-09-14,2021-09-14,株式会社ＭＥＣＣＩ,,株式会社,三重県,亀山市,川合町７７３番地１５,,24,210,5190103,,,,,,,2021-09-14,1,,,,,メッシ,0
1413,5200003005310,新規,0,2021-09-14,2021-09-14,合同会社マクロファーム,,合同会社,岐阜県,揖斐郡池田町,六之井１０７１番地,,21,404,5032425,,,,,,,2021-09-14,1,,,,,マクロファーム,0
1425,5240001058587,新規,0,2021-09-14,2021-09-14,株式会社ヒラタニ工業,,株式会社,広島県,福山市,千田町２丁目１８番２９号,,34,207,7200017,,,,,,,2021-09-14,1,,,,,ヒラタニコウギョウ,0
1426,5240001058595,新規,0,2021-09-14,2021-09-14,株式会社惠,,株式会社,広島県,安芸郡府中町,鶴江２丁目２番５－１０１号,,34,302,7350008,,,,,,,2021-09-14,1,,,,,メグミ,0
1438,5280001008506,新規,0,2021-09-14,2021-09-14,株式会社平誠建設,,株式会社,島根県,出雲市,大津町１７４１番地１,,32,203,6930011,,,,,,,2021-09-14,1,,,,,ヘイセイケンセツ,0
1443,5290001094355,新規,0,2021-09-14,2021-09-14,株式会社叡智な恵み,,株式会社,福岡県,福岡市中央区,大手門３丁目７番１号,,40,133,8100074,,,,,,,2021-09-14,1,,,,,エイチナメグミ,0
1444,5290001094594,新規,0,2021-09-14,2021-09-14,株式会社ｗｉｓｄ,,株式会社,福岡県,福岡市東区,香椎浜４丁目２番５－１５０１号ネクサス香椎セントラルガーデンウエストサイド５号棟,,40,131,8130016,,,,,,,2021-09-14,1,,,,,ウィズド,0
1445,5290001094611,新規,0,2021-09-14,2021-09-14,２４ｓｔｕｄｉｏ株式会社,,株式会社,福岡県,福岡市中央区,笹丘２丁目９番１号,,40,133,8100034,,,,,,,2021-09-14,1,,,,,トゥエンティーフォースタジオ,0
1457,5310001017478,新規,0,2021-09-14,2021-09-14,松本電気株式会社,,株式会社,長崎県,島原市,六ツ木町甲１０４５番地１,,42,203,8550072,,,,,,,2021-09-14,1,,,,,マツモトデンキ,0
1459,5310003004160,新規,0,2021-09-14,2021-09-14,合同会社みずたき,,合同会社,長崎県,佐世保市,矢峰町９７番地６,,42,202,8570133,,,,,,,2021-09-14,1,,,,,ミズタキ,0
1462,5320001018599,新規,0,2021-09-14,2021-09-14,Ｌｏｓｔ　Ｉｔｅｍ　Ｄｅｌｉｖｅｒｙ株式会社,,株式会社,大分県,大分市,高城新町４番２４―６０２号グランドパレス高城新町,,44,201,8700156,,,,,,,2021-09-14,1,,,,,ロストアイテムデリバリー,0
1465,5330001028993,新規,0,2021-09-14,2021-09-14,株式会社ＭＪ,,株式会社,熊本県,上益城郡益城町,大字福富１１０７番地２４,,43,443,8612235,,,,,,,2021-09-14,1,,,,,エムジェイ,0
1468,5340005009337,新規,0,2021-09-14,2021-09-14,医療法人桜,,その他の設立登記法人,鹿児島県,いちき串木野市,上名１３１番地２,,46,219,8960052,,,,,,,2021-09-14,1,,,,,サクラ,0
1479,5430001084952,新規,0,2021-09-14,2021-09-14,ストーンリバー株式会社,,株式会社,北海道,日高郡新ひだか町,静内吉野町３丁目１番１号,,01,610,0560018,,,,,,,2021-09-14,1,,,,,ストーンリバー,0
1482,5430003013141,新規,0,2021-09-14,2021-09-14,合同会社ハイム,,合同会社,北海道,札幌市南区,真駒内本町３丁目２番５号,,01,106,0050021,,,,,,,2021-09-14,1,,,,,ハイム,0
1496,6010001221150,新規,0,2021-09-14,2021-09-14,Ｋ＆Ｊホールディングス株式会社,,株式会社,東京都,千代田区,神田駿河台３丁目１番地８,,13,101,1010062,,,,,,,2021-09-14,1,,,,,ケーアンドジェイホールディングス,0
1497,6010001221159,新規,0,2021-09-14,2021-09-14,ファーストヴィレッジ人材Ｓｅａｒｃｈ株式会社,,株式会社,東京都,千代田区,内幸町１丁目１番１号帝国ホテルタワー１５階,,13,101,1000011,,,,,,,2021-09-14,1,,,,,ファーストヴィレッジジンザイサーチ,0
1499,6010101014859,新規,0,2021-09-14,2021-09-14,株式会社スリーピース,,株式会社,東京都,八王子市,大塚１８０－１,,13,201,1920352,,,,,,,2021-09-14,1,,,,,スリーピース,0
1506,6010401162647,新規,0,2021-09-14,2021-09-14,株式会社ＫＩＳＥＫＩ　ＬＡＢＯ,,株式会社,東京都,港区,浜松町２丁目２番１５号浜松町ダイヤビル２Ｆ,,13,103,1050013,,,,,,,2021-09-14,1,,,,,キセキラボ,0
1507,6010401162655,新規,0,2021-09-14,2021-09-14,Ｗｏｒｋａｔｏ株式会社,,株式会社,東京都,港区,元麻布３丁目１番６号,,13,103,1060046,,,,,,,2021-09-14,1,,,,,ワーカート,0
1509,6010403026073,新規,0,2021-09-14,2021-09-14,ｓｕｍｍｅｒｍｏｏｎ合同会社,,合同会社,東京都,港区,南青山２丁目２番１５号,,13,103,1070062,,,,,,,2021-09-14,1,,,,,サマームーン,0
1510,6010403026131,新規,0,2021-09-14,2021-09-14,セカンド合同会社,,合同会社,東京都,港区,台場２丁目２番２号,,13,103,1350091,,,,,,,2021-09-14,1,,,,,セカンド,0
1511,6010405020198,新規,0,2021-09-14,2021-09-14,ＮＳＹ一般社団法人,,その他の設立登記法人,東京都,港区,虎ノ門４丁目３番１号城山トラストタワー２７階ＳａｎｎｅＧｒｏｕｐＪａｐａｎ株式会社内,,13,103,1050001,,,,,,,2021-09-14,1,,,,,エヌエスワイ,0
1512,6010501047822,新規,0,2021-09-14,2021-09-14,株式会社Ｔ＆Ｋ,,株式会社,東京都,台東区,寿３丁目１９番８号,,13,106,1110042,,,,,,,2021-09-14,1,,,,,ティーアンドケイ,0
1518,6010703005941,新規,0,2021-09-14,2021-09-14,ファーストビルホールディングス合同会社,,合同会社,東京都,品川区,上大崎３丁目１番１号目黒セントラルスクエア１５階,,13,109,1410021,,,,,,,2021-09-14,1,,,,,ファーストビルホールディングス,0
1521,6010901049427,新規,0,2021-09-14,2021-09-14,株式会社大樂総合会計,,株式会社,東京都,世田谷区,用賀４丁目９番５号ＳａｉｔｏＢｌｄ．３０１号室,,13,112,1580097,,,,,,,2021-09-14,1,,,,,ダイラクソウゴウ,0
1523,6010903006797,新規,0,2021-09-14,2021-09-14,エヌ・アールプランニング合同会社,,合同会社,東京都,世田谷区,玉川２丁目４番１－４０１号,,13,112,1580094,,,,,,,2021-09-14,1,,,,,エヌアールプランニング,0
1530,6011005009227,新規,0,2021-09-14,2021-09-14,一般社団法人学びのイノベーション・プラットフォーム,,その他の設立登記法人,東京都,目黒区,駒場４丁目６番１号,,13,110,1530041,,,,,,,2021-09-14,1,,,,,マナビノイノベーションプラットフォーム,0
1535,6011101096177,新規,0,2021-09-14,2021-09-14,峰キャピタル株式会社,,株式会社,東京都,新宿区,百人町１丁目２０－５新六洲第七ビル３階,,13,104,1690073,,,,,,,2021-09-14,1,,,,,ミネキャピタル,0
1536,6011101096284,新規,0,2021-09-14,2021-09-14,株式会社ＬｉｂｅｒｔｙＵＰ,,株式会社,東京都,新宿区,北新宿３丁目３８－１３,,13,104,1690074,,,,,,,2021-09-14,1,,,,,リバティアップ,0
1537,6011103011010,新規,0,2021-09-14,2021-09-14,合同会社アイトム,,合同会社,東京都,新宿区,百人町１丁目６番１２号コートＫ３０４号,,13,104,1690073,,,,,,,2021-09-14,1,,,,,アイトム,0
1541,6011401023665,新規,0,2021-09-14,2021-09-14,松田株式会社,,株式会社,東京都,板橋区,成増１丁目１４－９成増グリーンハイツ４０１,,13,119,1750094,,,,,,,2021-09-14,1,,,,,マツダ,0
1543,6011501027310,新規,0,2021-09-14,2021-09-14,株式会社ＧＦＷ,,株式会社,東京都,北区,中里３丁目１４番２１号,,13,117,1140015,,,,,,,2021-09-14,1,,,,,ジーエフダブリュー,0
1544,6011503004885,新規,0,2021-09-14,2021-09-14,合同会社サバ,,合同会社,東京都,荒川区,東日暮里２丁目３番１号,,13,118,1160014,,,,,,,2021-09-14,1,,,,,サバ,0
1546,6011701024702,新規,0,2021-09-14,2021-09-14,株式会社共進,,株式会社,東京都,江戸川区,松島２丁目３０番１５号,,13,123,1320031,,,,,,,2021-09-14,1,,,,,キョウシン,0
1549,6011801039699,新規,0,2021-09-14,2021-09-14,ＥＣ－マーケティング株式会社,,株式会社,東京都,足立区,鹿浜８丁目２８番１号,,13,121,1230864,,,,,,,2021-09-14,1,,,,,イーシーマーケティング,0
1552,6011803004775,新規,0,2021-09-14,2021-09-14,合同会社Ｐｅｎｅｔｒａｔｅ　Ｓｋｙ,,合同会社,東京都,葛飾区,柴又３丁目２８－１１,,13,122,1250052,,,,,,,2021-09-14,1,,,,,ペネトレートスカイ,0
1570,6020003020483,新規,0,2021-09-14,2021-09-14,飯塚コンサルティング合同会社,,合同会社,神奈川県,横浜市瀬谷区,上瀬谷町１３番地２,,14,114,2460006,,,,,,,2021-09-14,1,,,,,イイヅカコンサルティング,0
1577,6021001073928,新規,0,2021-09-14,2021-09-14,株式会社ＬＡ　ＭＥＲ　ＢＬＥＵＥ,,株式会社,神奈川県,鎌倉市,稲村ガ崎５丁目３６番７号,,14,204,2480024,,,,,,,2021-09-14,1,,,,,ラメールブルー,0
1578,6021001073944,新規,0,2021-09-14,2021-09-14,株式会社小川総業,,株式会社,神奈川県,小田原市,荻窪１８５９番地の１,,14,206,2500042,,,,,,,2021-09-14,1,,,,,オガワソウギョウ,0
1579,6021003010887,新規,0,2021-09-14,2021-09-14,合同会社ケアプランセンターきずな,,合同会社,神奈川県,大和市,桜森３丁目７－４,,14,213,2420028,,,,,,,2021-09-14,1,,,,,ケアプランセンターキズナ,0
1582,6021005008228,新規,0,2021-09-14,2021-09-14,横須賀雪印牛乳販売協同組合,,その他の設立登記法人,神奈川県,横須賀市,安浦町２丁目２２番地,,14,201,2380012,,,,,,,2021-09-14,1,,,,,ヨコスカユキジルシギュウニュウハンバイ,0
1597,6040001120192,新規,0,2021-09-14,2021-09-14,株式会社レヴァンテ,,株式会社,千葉県,野田市,野田３０７番地の１ルビアス野田５１０号室,,12,208,2780037,,,,,,,2021-09-14,1,,,,,レヴァンテ,0
1598,6040001120201,新規,0,2021-09-14,2021-09-14,株式会社すくらむ,,株式会社,千葉県,富里市,日吉台１丁目２７番地１２,,12,233,2860201,,,,,,,2021-09-14,1,,,,,スクラム,0
1602,6040003018518,新規,0,2021-09-14,2021-09-14,合同会社ＨＲＫ,,合同会社,千葉県,千葉市美浜区,高浜６丁目２６番３号,,12,106,2610003,,,,,,,2021-09-14,1,,,,,エイチアールケー,0
1606,6050001049828,新規,0,2021-09-14,2021-09-14,株式会社ジョーナン,,株式会社,茨城県,つくば市,みどりの１丁目４番地１フォンテーヌ１０４号室,,08,220,3050881,,,,,,,2021-09-14,1,,,,,ジョーナン,0
1607,6050001049836,新規,0,2021-09-14,2021-09-14,ＮＥＫＯＳＡホールディングス株式会社,,株式会社,茨城県,水戸市,千波町２８３０番地の５,,08,201,3100851,,,,,,,2021-09-14,1,,,,,ネコサホールディングス,0
1609,6050005012930,新規,0,2021-09-14,2021-09-14,医療法人桜飛会,,その他の設立登記法人,茨城県,水戸市,千波町２５９９番地の１,,08,201,3100851,,,,,,,2021-09-14,1,,,,,オウヒカイ,0
1610,6060001034085,新規,0,2021-09-14,2021-09-14,株式会社ＫＷ電気,,株式会社,栃木県,矢板市,中６０６番地１９２ロビンシティＣ－５５,,09,211,3292135,,,,,,,2021-09-14,1,,,,,ケイダブルデンキ,0
1611,6060001034093,新規,0,2021-09-14,2021-09-14,Ｙ株式会社,,株式会社,栃木県,芳賀郡益子町,大字塙３１２０番地１,,09,342,3214216,,,,,,,2021-09-14,1,,,,,ワイ,0
1617,6060003003798,新規,0,2021-09-14,2021-09-14,里山デベロップメント合同会社,,合同会社,栃木県,那須烏山市,向田１３６９番１,,09,215,3210635,,,,,,,2021-09-14,1,,,,,サトヤマデベロップメント,0
1624,6070005009900,新規,0,2021-09-14,2021-09-14,一般社団法人グリーンケア,,その他の設立登記法人,群馬県,伊勢崎市,福島町２４１番地３,,10,204,3720826,,,,,,,2021-09-14,1,,,,,グリーンケア,0
1626,6080003002641,新規,0,2021-09-14,2021-09-14,インプレスヒューマン合同会社,,合同会社,静岡県,静岡市葵区,鷹匠２丁目１９－２－４Ｃ,,22,101,4200839,,,,,,,2021-09-14,1,,,,,インプレスヒューマン,0
1628,6080101022772,新規,0,2021-09-14,2021-09-14,ＳＡＮ　ＳＡＮ株式会社,,株式会社,静岡県,賀茂郡東伊豆町,稲取１２４５番地の１‐２０１室,,22,301,4130411,,,,,,,2021-09-14,1,,,,,サンサン,0
1636,6100001034601,新規,0,2021-09-14,2021-09-14,株式会社ｅＣ,,株式会社,長野県,松本市,笹部４丁目２６番３７号,,20,202,3900847,,,,,,,2021-09-14,1,,,,,イーシー,0
1644,6110005016710,新規,0,2021-09-14,2021-09-14,一般社団法人観光商社えちご,,その他の設立登記法人,新潟県,上越市,本町５丁目４番５号,,15,222,9430832,,,,,,,2021-09-14,1,,,,,カンコウショウシャエチゴ,0
1649,6120001240379,新規,0,2021-09-14,2021-09-14,株式会社ＮＥＯ新,,株式会社,大阪府,大阪市浪速区,敷津西１丁目９番２６号玄閑堂６Ｄ,,27,111,5560015,,,,,,,2021-09-14,1,,,,,ネオシン,0
1650,6120001240404,新規,0,2021-09-14,2021-09-14,小林漢方株式会社,,株式会社,大阪府,大阪市住吉区,東粉浜３丁目１３番２２号,,27,120,5580051,,,,,,,2021-09-14,1,,,,,コバヤシカンポウ,0
1651,6120001240445,新規,0,2021-09-14,2021-09-14,株式会社ＣＯＣＯスマイル,,株式会社,大阪府,大阪市平野区,加美北８丁目１１番１０－３０６号,,27,126,5470001,,,,,,,2021-09-14,1,,,,,ココスマイル,0
1656,6120003020218,新規,0,2021-09-14,2021-09-14,合同会社ＢＡＮＨ　ＭＩ　ＷＩＮ,,合同会社,大阪府,大阪市都島区,中野町４丁目１７－１２－１０１号,,27,102,5340027,,,,,,,2021-09-14,1,,,,,バインミーウイン,0
1669,6120901044895,新規,0,2021-09-14,2021-09-14,株式会社Ｂｒｉｌｌｉａｎｔ　ｆｕｔｕｒｅ,,株式会社,大阪府,豊中市,上野坂２丁目１番１０号,,27,203,5600012,,,,,,,2021-09-14,1,,,,,ブリリアントフチュール,0
1677,6130001070115,新規,0,2021-09-14,2021-09-14,株式会社ベアーコーポレーション,,株式会社,京都府,京都市右京区,梅津大縄場町６番地５嵐山ロイアルハイツ２号棟２０８,,26,108,6150925,,,,,,,2021-09-14,1,,,,,ベアーコーポレーション,0
1679,6130005016262,新規,0,2021-09-14,2021-09-14,一般社団法人全国小劇場ネットワーク,,その他の設立登記法人,京都府,京都市南区,東九条南河原町９－１,,26,107,6018013,,,,,,,2021-09-14,1,,,,,ゼンコクショウゲキジョウネットワーク,0
1683,6140001123029,新規,0,2021-09-14,2021-09-14,株式会社アイリメイン,,株式会社,兵庫県,川辺郡猪名川町,松尾台４丁目５番地６５,,28,301,6660261,,,,,,,2021-09-14,1,,,,,アイリメイン,0
1692,6170001016774,新規,0,2021-09-14,2021-09-14,株式会社隼,,株式会社,和歌山県,東牟婁郡串本町,大島１５１９番地１１,,30,428,6493633,,,,,,,2021-09-14,1,,,,,ハヤブサ,0
1701,6180001147791,新規,0,2021-09-14,2021-09-14,株式会社アプロ,,株式会社,愛知県,名古屋市中区,新栄１丁目８番３５号,,23,106,4600007,,,,,,,2021-09-14,1,,,,,アプロ,0
1706,6180003022951,新規,0,2021-09-14,2021-09-14,合同会社サーチワールド,,合同会社,愛知県,一宮市,新生２丁目４番１４号コーポ宇奈月３０２号,,23,203,4910912,,,,,,,2021-09-14,1,,,,,サーチワールド,0
1711,6190003003760,新規,0,2021-09-14,2021-09-14,ジー・アンパサンド合同会社,,合同会社,三重県,津市,栄町２丁目３８６番地,,24,201,5140004,,,,,,,2021-09-14,1,,,,,ジーアンパサンド,0
1714,6200001039136,新規,0,2021-09-14,2021-09-14,株式会社アーティカル,,株式会社,岐阜県,多治見市,若松町１丁目１１番地,,21,204,5070053,,,,,,,2021-09-14,1,,,,,アーティカル,0
1720,6210001018601,新規,0,2021-09-14,2021-09-14,株式会社ソウウェル,,株式会社,福井県,鯖江市,神明町５丁目４番３２－３号,,18,207,9160017,,,,,,,2021-09-14,1,,,,,ソウウェル,0
1721,6210005009984,新規,0,2021-09-14,2021-09-14,一般社団法人遠敷高塚環境向上推進会,,その他の設立登記法人,福井県,小浜市,遠敷８９号７番地の１,,18,204,9170241,,,,,,,2021-09-14,1,,,,,オニュウタカツカカンキョウコウジョウスイシンカイ,0
1723,6220001024425,新規,0,2021-09-14,2021-09-14,株式会社ＢＯＮＢＯＮ,,株式会社,石川県,金沢市,長坂３丁目２番３５号,,17,201,9218112,,,,,,,2021-09-14,1,,,,,ボンボン,0
1728,6230003001719,新規,0,2021-09-14,2021-09-14,合同会社ｍｅｇｕｒｉ,,合同会社,富山県,富山市,東田地方町２丁目３番２１号,,16,201,9300017,,,,,,,2021-09-14,1,,,,,メグリ,0
1729,6230003001727,新規,0,2021-09-14,2021-09-14,合同会社空くくる,,合同会社,富山県,氷見市,中央町１４－７,,16,205,9350011,,,,,,,2021-09-14,1,,,,,クウククル,0
1733,6240001058611,新規,0,2021-09-14,2021-09-14,株式会社功和,,株式会社,広島県,三原市,城町３丁目１３番１－１１０３号,,34,204,7230014,,,,,,,2021-09-14,1,,,,,,0
1746,6290001094602,新規,0,2021-09-14,2021-09-14,株式会社カラビナ,,株式会社,福岡県,福岡市中央区,地行浜２丁目２番５－６１１号ザ・パークハウス福岡タワーズＥＡＳＴ,,40,133,8100065,,,,,,,2021-09-14,1,,,,,カラビナ,0
1747,6290001094635,新規,0,2021-09-14,2021-09-14,池本建築株式会社,,株式会社,福岡県,筑紫野市,大字原田２０７３番地１,,40,217,8180024,,,,,,,2021-09-14,1,,,,,イケモトケンチク,0
1748,6290001094668,新規,0,2021-09-14,2021-09-14,株式会社ａｎｄ　ｇｏａｌ,,株式会社,福岡県,福岡市東区,舞松原２丁目１７番３０－２号,,40,131,8130042,,,,,,,2021-09-14,1,,,,,アンドゴール,0
1749,6290001094676,新規,0,2021-09-14,2021-09-14,株式会社ＮＳ５‐１号,,株式会社,福岡県,福岡市博多区,上川端町１２番２０号,,40,132,8120026,,,,,,,2021-09-14,1,,,,,エヌエスファイブイチゴウ,0
1750,6290003011613,新規,0,2021-09-14,2021-09-14,合同会社ＦＬＡＴ,,合同会社,福岡県,久留米市,京町１７１番地１ＭＪＲ久留米ステーションレジデンス４０４号,,40,203,8300028,,,,,,,2021-09-14,1,,,,,フラット,0
1751,6290003011621,新規,0,2021-09-14,2021-09-14,レイズハウス合同会社,,合同会社,福岡県,糸島市,志摩久家１３７５番地８,,40,230,8191331,,,,,,,2021-09-14,1,,,,,レイズハウス,0
1759,6310001017469,新規,0,2021-09-14,2021-09-14,株式会社濵田ファーム,00124222,株式会社,長崎県,諫早市,飯盛町後田６３番地,,42,204,8541105,,,,,,,2021-09-14,1,,,,,ハマダファーム,0
1760,6310001017477,新規,0,2021-09-14,2021-09-14,ＹＡＲＤ株式会社,,株式会社,長崎県,長崎市,麹屋町５番１１号,,42,201,8500871,,,,,,,2021-09-14,1,,,,,ヤード,0
1765,6330001028992,新規,0,2021-09-14,2021-09-14,純創建株式会社,,株式会社,熊本県,熊本市東区,西原２丁目３３番１６号,,43,102,8618029,,,,,,,2021-09-14,1,,,,,ジュンソウケン,0
1769,6340005009336,新規,0,2021-09-14,2021-09-14,医療法人蒼隼会,,その他の設立登記法人,鹿児島県,鹿児島市,吉野町３９０８番地４１,,46,201,8920871,,,,,,,2021-09-14,1,,,,,ソウシュンカイ,0
1778,6390001016595,新規,0,2021-09-14,2021-09-14,株式会社茂木商店,,株式会社,山形県,天童市,大字寺津２０１番地,,06,210,9940073,,,,,,,2021-09-14,1,,,,,モギショウテン,0
1783,6410005006425,新規,0,2021-09-14,2021-09-14,農事組合法人味耒,,その他の設立登記法人,秋田県,仙北市,田沢湖神代字長信田１１番地２,,05,215,0141114,,,,,,,2021-09-14,1,,,,,ミライ,0
1786,6430001084976,新規,0,2021-09-14,2021-09-14,株式会社ナガイ事務所,,株式会社,北海道,札幌市北区,あいの里一条３丁目１１番１号,,01,102,0028071,,,,,,,2021-09-14,1,,,,,ナガイジムショ,0
1790,6430003013149,新規,0,2021-09-14,2021-09-14,エレキテルムーブサッポロ合同会社,,合同会社,北海道,札幌市白石区,北郷二条３丁目７番７号,,01,104,0030832,,,,,,,2021-09-14,1,,,,,エレキテルムーブサッポロ,0
1792,6440003001409,新規,0,2021-09-14,2021-09-14,陽光札幌ＬＳ合同会社,,合同会社,北海道,二海郡八雲町,東雲町５１番地１１,,01,346,0493105,,,,,,,2021-09-14,1,,,,,ヨウコウサッポロエルエス,0
1793,6440005002710,新規,0,2021-09-14,2021-09-14,一般社団法人ＪＯＹ,,その他の設立登記法人,北海道,函館市,湯川町３丁目２４番９号２Ｆ,,01,202,0420932,,,,,,,2021-09-14,1,,,,,ジョイ,0
1798,6470001018708,新規,0,2021-09-14,2021-09-14,株式会社ヒューマンリレーション,,株式会社,香川県,高松市,藤塚町１丁目１６番２９号,,37,201,7600071,,,,,,,2021-09-14,1,,,,,ヒューマンリレーション,0
1803,6700150104706,新規,0,2021-09-14,2021-09-14,ＦＯＯＴ　ＬＯＣＫＥＲ　ＰＶＴ　ＬＴＤ,,外国会社等,千葉県,山武郡芝山町,新井田６４６番地１ビジネスオフィス１３号,,12,409,2891625,スリランカ民主社会主義共和国、キャンディ、アクラナ、マタレロード、３３３,,,,,,2021-09-14,1,,,,,フツトロツカーピーヴイテイエルテイデイ,0
1830,7010401162679,新規,0,2021-09-14,2021-09-14,マイルスミラー株式会社,,株式会社,東京都,港区,南麻布２丁目５番１６グランドメゾン６０４号,,13,103,1060047,,,,,,,2021-09-14,1,,,,,マイルスミラー,0
1854,7011001142625,新規,0,2021-09-14,2021-09-14,株式会社Ｆｕｔｕｒｅｓ　Ｖ‐ｎｅｔ,,株式会社,東京都,渋谷区,神宮前６丁目２３番４号桑野ビル２階,,13,113,1500001,,,,,,,2021-09-14,1,,,,,フューチャーズヴィーネット,0
1855,7011001142765,新規,0,2021-09-14,2021-09-14,株式会社ＣｏｓｍｅＩＳＭ,,株式会社,東京都,渋谷区,東１丁目８－３トキワマツユープレイス４０１,,13,113,1500011,,,,,,,2021-09-14,1,,,,,コスメイズム,0
1856,7011001142864,新規,0,2021-09-14,2021-09-14,Ｊａｐａｎ　Ｃｏｎｓｕｌｔｉｎｇ　Ｓｅｒｖｉｃｅｓ株式会社,,株式会社,東京都,目黒区,五本木１丁目８番８－２０８号,,13,110,1530053,,,,,,,2021-09-14,1,,,,,ジャパンコンサルティングサービス,0
1858,7011003013329,新規,0,2021-09-14,2021-09-14,ＳＴＥＡＰ合同会社,,合同会社,東京都,渋谷区,神宮前６丁目２３番４号桑野ビル２階,,13,113,1500001,,,,,,,2021-09-14,1,,,,,スティープ,0
1859,7011003013337,新規,0,2021-09-14,2021-09-14,Ｗｈｉｔｅ　Ｒｕｎ合同会社,,合同会社,東京都,目黒区,祐天寺２丁目４－２ベルニーニ１０１,,13,110,1530052,,,,,,,2021-09-14,1,,,,,ホワイトラン,0
1860,7011005009218,新規,0,2021-09-14,2021-09-14,一般社団法人防災キャンパー協会,,その他の設立登記法人,東京都,渋谷区,恵比寿西１丁目３３－６ｃｏ－ｂａｅｂｉｓｕ１Ｆ,,13,113,1500021,,,,,,,2021-09-14,1,,,,,ボウサイキャンパーキョウカイ,0
1865,7011201023237,新規,0,2021-09-14,2021-09-14,Ｅｆｆｅｃｔｉｖｅ　Ｃｏｎｓｕｌｔｉｎｇ株式会社,,株式会社,東京都,中野区,中野２丁目２８番１号プロスペアー中野３０３,,13,114,1640001,,,,,,,2021-09-14,1,,,,,イフェクティブコンサルティング,0
1866,7011301027138,新規,0,2021-09-14,2021-09-14,株式会社みかん,,株式会社,東京都,杉並区,上高井戸２丁目９番１７号,,13,115,1680074,,,,,,,2021-09-14,1,,,,,ミカン,0
1867,7011301027179,新規,0,2021-09-14,2021-09-14,株式会社ＪＵＭＰ,,株式会社,東京都,杉並区,阿佐谷南１丁目２６番８号ハナミズキ２０２,,13,115,1660004,,,,,,,2021-09-14,1,,,,,ジャンプ,0
1868,7011401023664,新規,0,2021-09-14,2021-09-14,木下株式会社,,株式会社,東京都,板橋区,成増１丁目１４－９成増グリーンハイツ４０１,,13,119,1750094,,,,,,,2021-09-14,1,,,,,キノシタ,0
1870,7011801039698,新規,0,2021-09-14,2021-09-14,株式会社Ｇ・スタート,,株式会社,東京都,足立区,東和１丁目２６番７号,,13,121,1200003,,,,,,,2021-09-14,1,,,,,ジースタート,0
1872,7011805003106,新規,0,2021-09-14,2021-09-14,医療法人社団いるか会,,その他の設立登記法人,東京都,葛飾区,堀切３丁目７番５号斉藤ビル１階,,13,122,1240006,,,,,,,2021-09-14,1,,,,,イルカカイ,0
1877,7012403005023,新規,0,2021-09-14,2021-09-14,ミツワ商事合同会社,,合同会社,東京都,府中市,南町１丁目２８番地の６６,,13,206,1830026,,,,,,,2021-09-14,1,,,,,ミツワショウジ,0
1880,7012801021051,新規,0,2021-09-14,2021-09-14,株式会社龍谷興行,,株式会社,東京都,国分寺市,本町２丁目２番１１号,,13,214,1850012,,,,,,,2021-09-14,1,,,,,リュウコクコウギョウ,0
1881,7012805003054,新規,0,2021-09-14,2021-09-14,医療法人社団空晴会,,その他の設立登記法人,東京都,東大和市,桜が丘３丁目４４番地の３２コーシャハイム玉川上水１号棟１－１号室,,13,220,2070022,,,,,,,2021-09-14,1,,,,,ソラハレカイ,0
1889,7020001142989,新規,0,2021-09-14,2021-09-14,株式会社ＳＫＨＣ,,株式会社,神奈川県,横浜市港北区,日吉本町１丁目５番２４号,,14,109,2230062,,,,,,,2021-09-14,1,,,,,エスケーエイチシー,0
1890,7020001142997,新規,0,2021-09-14,2021-09-14,ＫＴ　Ｃｏｍｐａｎｙ株式会社,,株式会社,神奈川県,横浜市中区,桜木町１丁目１０１番地１クロスゲート７階,,14,104,2310062,,,,,,,2021-09-14,1,,,,,ケーティーカンパニー,0
1891,7020001143038,新規,0,2021-09-14,2021-09-14,ジーン株式会社,,株式会社,神奈川県,横浜市西区,みなとみらい２丁目２番１号横浜ランドマークタワー２０階,,14,103,2200012,,,,,,,2021-09-14,1,,,,,ジーン,0
1898,7020003020482,新規,0,2021-09-14,2021-09-14,合同会社ウィキッド,,合同会社,神奈川県,川崎市中原区,丸子通１丁目６１２番地２－１２０６,,14,133,2110006,,,,,,,2021-09-14,1,,,,,ウィキッド,0
1902,7021001073943,新規,0,2021-09-14,2021-09-14,株式会社湘南サンバル,,株式会社,神奈川県,茅ヶ崎市,ひばりが丘４番２７－５号,,14,207,2530027,,,,,,,2021-09-14,1,,,,,ショウナンサンバル,0
1907,7030001144349,新規,0,2021-09-14,2021-09-14,株式会社ノイコーポレーション,,株式会社,埼玉県,川越市,連雀町２２番地１,,11,201,3500066,,,,,,,2021-09-14,1,,,,,ノイコーポレーション,0
1927,7050001049835,新規,0,2021-09-14,2021-09-14,株式会社ＲＹＯ－ＺＥＮ,,株式会社,茨城県,水戸市,堀町４５２－１－Ａ,,08,201,3100903,,,,,,,2021-09-14,1,,,,,リョウゼン,0
1933,7050003006074,新規,0,2021-09-14,2021-09-14,栗山管工合同会社,,合同会社,茨城県,牛久市,奥原町３６４０番地,,08,219,3001283,,,,,,,2021-09-14,1,,,,,クリヤマカンコウ,0
1934,7060001034076,新規,0,2021-09-14,2021-09-14,株式会社サンライズ機工,,株式会社,栃木県,宇都宮市,西川田本町２丁目１４番５号カーサ・エスペランサＡ館２０２号,,09,201,3210158,,,,,,,2021-09-14,1,,,,,サンライズキコウ,0
1939,7080001024439,新規,0,2021-09-14,2021-09-14,株式会社空間デザイン一級建築士事務所,,株式会社,静岡県,静岡市葵区,七間町１８番地の１８,,22,101,4200035,,,,,,,2021-09-14,1,,,,,クウカンデザインイッキュウケンチクシジムショ,0
1942,7080401025342,新規,0,2021-09-14,2021-09-14,ふたば建築設計株式会社,,株式会社,静岡県,浜松市中区,南浅田２丁目２番１１号,,22,131,4328044,,,,,,,2021-09-14,1,,,,,フタバケンチクセッケイ,0
1957,7120101064289,新規,0,2021-09-14,2021-09-14,さとかい株式会社,,株式会社,大阪府,泉南郡熊取町,南山の手台２１－１３,,27,361,5900453,,,,,,,2021-09-14,1,,,,,サトカイ,0
1983,7140001123028,新規,0,2021-09-14,2021-09-14,株式会社カーノルエル,,株式会社,兵庫県,丹波市,柏原町柏原２８７１番地６,,28,223,6693309,,,,,,,2021-09-14,1,,,,,カーノルエル,0
1984,7140001123036,新規,0,2021-09-14,2021-09-14,株式会社滝元博文事務所,,株式会社,兵庫県,神戸市須磨区,菅の台２丁目１番地２１号棟３０２号,,28,107,6540143,,,,,,,2021-09-14,1,,,,,タキモトヒロフミジムショ,0
2016,7190001028684,新規,0,2021-09-14,2021-09-14,株式会社ＰＵＲＳＵＥ,,株式会社,三重県,津市,安濃町草生４３７８番地１,,24,201,5142328,,,,,,,2021-09-14,1,,,,,パシュー,0
2022,7200001039135,新規,0,2021-09-14,2021-09-14,株式会社ＲＩＳＥ　ＵＰ,,株式会社,岐阜県,多治見市,根本町１２丁目６１番地,,21,204,5070065,,,,,,,2021-09-14,1,,,,,ライズアップ,0
2027,7210001018609,新規,0,2021-09-14,2021-09-14,株式会社翔重建車輌,,株式会社,福井県,敦賀市,櫛川８２－１－１,,18,202,9140821,,,,,,,2021-09-14,1,,,,,ショウジュウケンシャリョウ,0
2030,7240001058610,新規,0,2021-09-14,2021-09-14,株式会社ＥＡＲＴＨ　ＴＥＣ,,株式会社,広島県,広島市佐伯区,海老山南１丁目１番１－４０３号,,34,108,7315138,,,,,,,2021-09-14,1,,,,,アーステック,0
2046,7290001094601,新規,0,2021-09-14,2021-09-14,株式会社博多人形肌,,株式会社,福岡県,福岡市博多区,吉塚７丁目１番５２号,,40,132,8120041,,,,,,,2021-09-14,1,,,,,ハカタニンギョウハダ,0
2047,7290001094634,新規,0,2021-09-14,2021-09-14,株式会社喜ふく,,株式会社,福岡県,福岡市中央区,渡辺通５丁目１０番３０号,,40,133,8100004,,,,,,,2021-09-14,1,,,,,キフク,0
2053,7310001017476,新規,0,2021-09-14,2021-09-14,株式会社金金寿林,,株式会社,長崎県,西彼杵郡長与町,高田郷２５３番地２１,,42,307,8512127,,,,,,,2021-09-14,1,,,,,キンキンジュリン,0
2055,7330001028991,新規,0,2021-09-14,2021-09-14,株式会社タケダコーポレーション九州,,株式会社,熊本県,熊本市中央区,白山１丁目４番１号,,43,101,8620959,,,,,,,2021-09-14,1,,,,,タケダコーポレーションキュウシュウ,0
2058,7330003009040,新規,0,2021-09-14,2021-09-14,合同会社ＯＮＫ,,合同会社,熊本県,山鹿市,鹿校通２丁目８番９号,,43,208,8610532,,,,,,,2021-09-14,1,,,,,オーエヌケイ,0
2059,7340005009335,新規,0,2021-09-14,2021-09-14,医療法人きずな会,,その他の設立登記法人,鹿児島県,鹿児島市,谷山中央５丁目１０番２号,,46,201,8910141,,,,,,,2021-09-14,1,,,,,キズナカイ,0
2062,7370001047591,新規,0,2021-09-14,2021-09-14,株式会社ちきゅう部,,株式会社,宮城県,仙台市若林区,清水小路６―１東日本不動産仙台ファーストビル１階,,04,103,9840075,,,,,,,2021-09-14,1,,,,,チキュウブ,0
2071,7410001004357,新規,0,2021-09-14,2021-09-14,敦賀興業株式会社,,株式会社,秋田県,秋田市,寺内字蛭根８５番地２３,,05,201,0110901,,,,,,,2021-09-14,1,,,,,ツルガコウギョウ,0
2074,7410005006424,新規,0,2021-09-14,2021-09-14,一般社団法人わらび座,,その他の設立登記法人,秋田県,仙北市,田沢湖卒田字早稲田４３０番地,,05,215,0141113,,,,,,,2021-09-14,1,,,,,ワラビザ,0
2077,7430001084975,新規,0,2021-09-14,2021-09-14,株式会社アルカナ,,株式会社,北海道,札幌市中央区,南五条西８丁目５番地１ダイナスティパレス５８　１０３号,,01,101,0640805,,,,,,,2021-09-14,1,,,,,アルカナ,0
2080,7430003013131,新規,0,2021-09-14,2021-09-14,ＡＴ　Ｈｏｋｋａｉｄｏ合同会社,,合同会社,北海道,小樽市,稲穂町二丁目７番１号,,01,203,0470000,,,,,,,2021-09-14,1,,,,,エーティーホッカイドウ,0
2083,7450005004309,新規,0,2021-09-14,2021-09-14,一般社団法人枝幸町高齢者事業団,,その他の設立登記法人,北海道,枝幸郡枝幸町,北浜町９０６番地４,,01,514,0985826,,,,,,,2021-09-14,1,,,,,エサシチョウコウレイシャジギョウダン,0
2086,7470001018707,新規,0,2021-09-14,2021-09-14,株式会社ｃｏｃｏｈａｎａ,,株式会社,香川県,高松市,松縄町１１０６番地４,,37,201,7600079,,,,,,,2021-09-14,1,,,,,ココハナ,0
2091,7500001023678,新規,0,2021-09-14,2021-09-14,浅野ホールディングス株式会社,,株式会社,愛媛県,西条市,下島山甲１１４０番地,,38,206,7930006,,,,,,,2021-09-14,1,,,,,アサノホールディングス,0
2098,7700150104721,新規,0,2021-09-14,2021-09-14,ＡＹＺＡＨ　ＡＵＴＯ　ＴＲＡＤＩＮＧ,,外国会社等,千葉県,東金市,関内５７７番地１－２,,12,213,2830014,スリランカ民主社会主義共和国、マタレ、ウクウェラ、サマギマウハスタ、１５７－Ａ,,,,,,2021-09-14,1,,,,,アイーザオートトレーデイング,0
2108,8010001221090,新規,0,2021-09-14,2021-09-14,株式会社フロンティアネット,,株式会社,東京都,中央区,銀座１丁目２２－１１銀座大竹ビジデンス２階,,13,102,1040061,,,,,,,2021-09-14,1,,,,,フロンティアネット,0
2109,8010001221124,新規,0,2021-09-14,2021-09-14,株式会社グロースエージェント,,株式会社,東京都,千代田区,丸の内１丁目８番３号丸の内トラストタワー本館２０階,,13,101,1000005,,,,,,,2021-09-14,1,,,,,グロースエージェント,0
2111,8010003035828,新規,0,2021-09-14,2021-09-14,合同会社ＵＭＥＮＯＫＡ,,合同会社,東京都,千代田区,岩本町１丁目５番８号,,13,101,1010032,,,,,,,2021-09-14,1,,,,,ウメノカ,0
2112,8010005033904,新規,0,2021-09-14,2021-09-14,一般社団法人日本スポーツアカウンティング学会,,その他の設立登記法人,東京都,千代田区,九段南２丁目７番６号,,13,101,1020074,,,,,,,2021-09-14,1,,,,,ニホンスポーツアカウンティングガッカイ,0
2122,8010401162645,新規,0,2021-09-14,2021-09-14,プロコンスル株式会社,,株式会社,東京都,港区,港南４丁目６番５－３００５号,,13,103,1080075,,,,,,,2021-09-14,1,,,,,プロコンスル,0
2123,8010401162653,新規,0,2021-09-14,2021-09-14,株式会社Ｂｌａｃｋ　Ｔｒｉｃｋ,,株式会社,東京都,港区,浜松町２丁目４番１号世界貿易センタービルディング南館１７階,,13,103,1050013,,,,,,,2021-09-14,1,,,,,ブラックトリック,0
2126,8010405020196,新規,0,2021-09-14,2021-09-14,一般社団法人捕鯨政策研究所,,その他の設立登記法人,東京都,港区,新橋３丁目２６番３号,,13,103,1050004,,,,,,,2021-09-14,1,,,,,ホゲイセイサクケンキュウショ,0
2127,8010501047829,新規,0,2021-09-14,2021-09-14,株式会社フューチャー,,株式会社,東京都,台東区,東上野１丁目２２番３号片岡ビル４Ｆ,,13,106,1100015,,,,,,,2021-09-14,1,,,,,フューチャー,0
2132,8010601059922,新規,0,2021-09-14,2021-09-14,株式会社ＬＩＯＮＥＬ,,株式会社,東京都,墨田区,京島１丁目６番６号,,13,107,1310046,,,,,,,2021-09-14,1,,,,,リオネル,0
2134,8010701041499,新規,0,2021-09-14,2021-09-14,株式会社ＳＣＵＤＥＲＩＡ,,株式会社,東京都,品川区,大井５丁目５番２４号,,13,109,1400014,,,,,,,2021-09-14,1,,,,,スクーデリア,0
2135,8010801032308,新規,0,2021-09-14,2021-09-14,株式会社クロコ,,株式会社,東京都,大田区,山王２丁目５番６号,,13,111,1430023,,,,,,,2021-09-14,1,,,,,クロコ,0
2136,8010805002876,新規,0,2021-09-14,2021-09-14,医療法人社団足ノ会,,その他の設立登記法人,東京都,大田区,西蒲田８丁目１番７号グランタウンビル９階,,13,111,1440051,,,,,,,2021-09-14,1,,,,,アシノカイ,0
2137,8010901049425,新規,0,2021-09-14,2021-09-14,株式会社もーやんカンパニー,,株式会社,東京都,世田谷区,上北沢５丁目３１番１号,,13,112,1560057,,,,,,,2021-09-14,1,,,,,モーヤンカンパニー,0
2147,8011001142772,新規,0,2021-09-14,2021-09-14,株式会社プレイズ,,株式会社,東京都,渋谷区,恵比寿４丁目２０－３恵比寿ガーデンプレイスタワー１８階,,13,113,1500013,,,,,,,2021-09-14,1,,,,,プレイズ,0
2148,8011003013360,新規,0,2021-09-14,2021-09-14,合同会社ＧＡＳ,,合同会社,東京都,渋谷区,神宮前６丁目２３番４号桑野ビル２階,,13,113,1500001,,,,,,,2021-09-14,1,,,,,ジーエーエス,0
2153,8011101096266,新規,0,2021-09-14,2021-09-14,株式会社ウォーク,,株式会社,東京都,新宿区,大久保１丁目１番１０号,,13,104,1690072,,,,,,,2021-09-14,1,,,,,ウォーク,0
2155,8011105009967,新規,0,2021-09-14,2021-09-14,一般財団法人犬猫生活福祉財団,,その他の設立登記法人,東京都,新宿区,市谷船河原町９番地１ＮＢＣアネックス市谷ビル,,13,104,1620826,,,,,,,2021-09-14,1,,,,,イヌネコセイカツフクシザイダン,0
2161,8011403003440,新規,0,2021-09-14,2021-09-14,合同会社ＨＡ,,合同会社,東京都,板橋区,徳丸２丁目１０番５号,,13,119,1750083,,,,,,,2021-09-14,1,,,,,エイチエー,0
2162,8011501027309,新規,0,2021-09-14,2021-09-14,株式会社Ｖａｌｅｎｔｉａ,,株式会社,東京都,北区,東十条６丁目１１番８－１０２号エルリオ,,13,117,1140001,,,,,,,2021-09-14,1,,,,,ヴァレンティア,0
2166,8011603003389,新規,0,2021-09-14,2021-09-14,合同会社ブライト,,合同会社,東京都,練馬区,西大泉３丁目１８番１８号,,13,120,1780065,,,,,,,2021-09-14,1,,,,,ブライト,0
2169,8011801039697,新規,0,2021-09-14,2021-09-14,株式会社民生商事,,株式会社,東京都,葛飾区,東水元２丁目６番１５号セレッソＵ２０２,,13,122,1250033,,,,,,,2021-09-14,1,,,,,ミンセイショウジ,0
2170,8011805003105,新規,0,2021-09-14,2021-09-14,医療法人社団ＯＰＣ,,その他の設立登記法人,東京都,足立区,東和５丁目１２番１３号小田萬ビル２階,,13,121,1200003,,,,,,,2021-09-14,1,,,,,オーピーシー,0
2171,8012403005022,新規,0,2021-09-14,2021-09-14,合同会社ひまわり,,合同会社,東京都,小金井市,中町３丁目１８番１３号,,13,210,1840012,,,,,,,2021-09-14,1,,,,,ヒマワリ,0
2172,8012801021091,新規,0,2021-09-14,2021-09-14,株式会社クエスト,,株式会社,東京都,立川市,錦町１丁目４番２０号ＴＳＣビル５Ｆ,,13,202,1900022,,,,,,,2021-09-14,1,,,,,クエスト,0
2176,8013301047981,新規,0,2021-09-14,2021-09-14,株式会社ウィズアスリート,,株式会社,東京都,豊島区,高田３丁目３２番３号メイスンビル１階,,13,116,1710033,,,,,,,2021-09-14,1,,,,,ウィズアスリート,0
2177,8013303005822,新規,0,2021-09-14,2021-09-14,合同会社ユーモアテクノロジー,,合同会社,東京都,豊島区,池袋２丁目６０番６－６１０号,,13,116,1710014,,,,,,,2021-09-14,1,,,,,ユーモアテクノロジー,0
2181,8020001143004,新規,0,2021-09-14,2021-09-14,株式会社Ｗｏｒｌｄ　Ｎｅｘｔ　Ｔａｋａｉｚｕｍｉ,,株式会社,神奈川県,横浜市南区,永田北３丁目２５番３５号,,14,105,2320071,,,,,,,2021-09-14,1,,,,,ワールドネクストタカイズミ,0
2182,8020001143029,新規,0,2021-09-14,2021-09-14,株式会社ファイン,,株式会社,神奈川県,横浜市青葉区,荏子田３丁目１番地２,,14,117,2250005,,,,,,,2021-09-14,1,,,,,ファイン,0
2184,8020003020481,新規,0,2021-09-14,2021-09-14,合同会社ｌｉｖｅ,,合同会社,神奈川県,横浜市港南区,日野南２丁目１４番１６号,,14,111,2340055,,,,,,,2021-09-14,1,,,,,リヴ,0
2187,8021001073934,新規,0,2021-09-14,2021-09-14,株式会社プラスハウス,,株式会社,神奈川県,平塚市,河内３７２番地１,,14,203,2540903,,,,,,,2021-09-14,1,,,,,プラスハウス,0
2191,8021003010877,新規,0,2021-09-14,2021-09-14,ｂｌｅｓｓｉｎｇ合同会社,,合同会社,神奈川県,横須賀市,根岸町５丁目３０－２８,,14,201,2390807,,,,,,,2021-09-14,1,,,,,ブレシング,0
2193,8030001144315,新規,0,2021-09-14,2021-09-14,株式会社Ｄｅｎｔａｌ　ａＲｔｓ,,株式会社,埼玉県,久喜市,久喜東１丁目１番１号ミスズ第３ビル３Ｆ,,11,232,3460016,,,,,,,2021-09-14,1,,,,,デンタルアーツ,0
2198,8030005020520,新規,0,2021-09-14,2021-09-14,特定非営利活動法人和楽キッズクラブ,,その他の設立登記法人,埼玉県,さいたま市浦和区,本太１丁目９番５号日清マンション３０５号室,,11,107,3300052,,,,,,,2021-09-14,1,,,,,ワラクキッズクラブ,0
2204,8040001120182,新規,0,2021-09-14,2021-09-14,株式会社Ａｌｌｉｅｓ,,株式会社,千葉県,柏市,柏２６９番地１デュオガーデン柏見晴らしの丘８０２号,,12,217,2770005,,,,,,,2021-09-14,1,,,,,アライズ,0
2206,8040003018524,新規,0,2021-09-14,2021-09-14,合同会社小倉農園,,合同会社,千葉県,成田市,臼作５２０番地１,,12,211,2870235,,,,,,,2021-09-14,1,,,,,オグラノウエン,0
2220,8080001024438,新規,0,2021-09-14,2021-09-14,株式会社本田工業,,株式会社,静岡県,静岡市清水区,平川地２番１４号,,22,103,4240872,,,,,,,2021-09-14,1,,,,,ホンダコウギョウ,0
2221,8080101022770,新規,0,2021-09-14,2021-09-14,株式会社フジタカの森,,株式会社,静岡県,富士宮市,大岩７０５番地の２,,22,207,4180013,,,,,,,2021-09-14,1,,,,,フジタカノモリ,0
2222,8080401025341,新規,0,2021-09-14,2021-09-14,株式会社アロレ,,株式会社,静岡県,浜松市中区,鍛冶町１００－１ザザシティ浜松中央館Ｂ１Ｆ,,22,131,4300933,,,,,,,2021-09-14,1,,,,,アロレ,0
2223,8090001017192,新規,0,2021-09-14,2021-09-14,株式会社やえっこ,,株式会社,山梨県,甲州市,勝沼町藤井４２１,,19,213,4091314,,,,,,,2021-09-14,1,,,,,ヤエッコ,0
2225,8100001034599,新規,0,2021-09-14,2021-09-14,株式会社栄翔興業,,株式会社,長野県,茅野市,玉川１１７６番地１,,20,214,3910011,,,,,,,2021-09-14,1,,,,,エイトコウギョウ,0
2226,8100003006233,新規,0,2021-09-14,2021-09-14,合同会社本田食堂,,合同会社,長野県,諏訪郡下諏訪町,広瀬町５３８２番地２,,20,361,3930056,,,,,,,2021-09-14,1,,,,,ホンダショクドウ,0
2229,8110001036041,新規,0,2021-09-14,2021-09-14,株式会社てとり,,株式会社,新潟県,新発田市,新富町１丁目４番８号,,15,206,9570017,,,,,,,2021-09-14,1,,,,,テトリ,0
2236,8120001240377,新規,0,2021-09-14,2021-09-14,株式会社ＨＡＤＡＫＡ,,株式会社,大阪府,大阪市都島区,都島本通１丁目１３番７－４０８,,27,102,5340021,,,,,,,2021-09-14,1,,,,,ハダカ,0
2243,8120003020199,新規,0,2021-09-14,2021-09-14,淀川企画合同会社,,合同会社,大阪府,大阪市淀川区,西宮原２丁目６－１６新大阪コーポビアネーズ８０２,,27,123,5320004,,,,,,,2021-09-14,1,,,,,ヨドガワキカク,0
2244,8120003020216,新規,0,2021-09-14,2021-09-14,合同会社ミライ,,合同会社,大阪府,大阪市東淀川区,西淡路３丁目５番３１号,,27,114,5330031,,,,,,,2021-09-14,1,,,,,ミライ,0
2245,8120003020224,新規,0,2021-09-14,2021-09-14,ＢＵＮＲＩＮ　ＪＡＰＡＮ合同会社,,合同会社,大阪府,大阪市東住吉区,山坂４丁目８番１０号,,27,121,5460035,,,,,,,2021-09-14,1,,,,,ブンリンジャパン,0
2248,8120101064288,新規,0,2021-09-14,2021-09-14,株式会社ＨＫマネジメント,,株式会社,大阪府,貝塚市,海塚１丁目２０番１－３０１号,,27,208,5970083,,,,,,,2021-09-14,1,,,,,エイチケイマネジメント,0
2249,8120101064305,新規,0,2021-09-14,2021-09-14,株式会社祐志,,株式会社,大阪府,堺市堺区,霞ヶ丘町３丁１番１４号,,27,141,5900812,,,,,,,2021-09-14,1,,,,,ユウシ,0
2250,8120101064313,新規,0,2021-09-14,2021-09-14,株式会社タクミ工業,,株式会社,大阪府,富田林市,美山台７番２－８２０号,,27,214,5840039,,,,,,,2021-09-14,1,,,,,タクミコウギョウ,0
2255,8120901044893,新規,0,2021-09-14,2021-09-14,玻璃と霧株式会社,,株式会社,大阪府,豊中市,蛍池中町４－４－１０沢マンション３０１号室,,27,203,5600000,,,,,,,2021-09-14,1,,,,,ハリトキリ,0
2259,8122001035162,新規,0,2021-09-14,2021-09-14,株式会社ＭＩＲＡＩ,,株式会社,大阪府,東大阪市,本庄１丁目１３番１４号,,27,227,5780953,,,,,,,2021-09-14,1,,,,,ミライ,0
2264,8130001070088,新規,0,2021-09-14,2021-09-14,卓信株式会社,,株式会社,京都府,京都市北区,大北山原谷乾町４７番地１０－２０５室,,26,101,6038487,,,,,,,2021-09-14,1,,,,,タクシン,0
2267,8130003007484,新規,0,2021-09-14,2021-09-14,合同会社レギュレイト,,合同会社,京都府,京都市右京区,太秦藤ケ森町１９番地１３,,26,108,6168131,,,,,,,2021-09-14,1,,,,,レギュレイト,0
2280,8140005025806,新規,0,2021-09-14,2021-09-14,特定非営利活動法人神戸市精神障がい者家族会連合会,,その他の設立登記法人,兵庫県,神戸市中央区,橘通３丁目４番１号神戸市立総合福祉センター内,,28,110,6500016,,,,,,,2021-09-14,1,,,,,コウベシセイシンショウガイシャカゾクカイレンゴウカイ,0
2281,8150003002483,新規,0,2021-09-14,2021-09-14,合同会社行政協働研究,,合同会社,奈良県,大和郡山市,本庄町３３番の８,,29,203,6391136,,,,,,,2021-09-14,1,,,,,ギョウセイキョウドウケンキュウ,0
2286,8170003001632,新規,0,2021-09-14,2021-09-14,合同会社ＢＥＳＴ　ＯＮＥ,,合同会社,和歌山県,和歌山市,内原５８０番地６,,30,201,6410013,,,,,,,2021-09-14,1,,,,,ベストワン,0
2296,8180001147807,新規,0,2021-09-14,2021-09-14,ＳＵＮＲＩＳＥ株式会社,,株式会社,愛知県,あま市,七宝町伊福壱町畑１３４番地,,23,237,4970005,,,,,,,2021-09-14,1,,,,,サンライズ,0
2297,8180001147815,新規,0,2021-09-14,2021-09-14,ほしざき不動産株式会社,,株式会社,愛知県,名古屋市南区,星崎２丁目３１番地丸正第二ビル２階,,23,112,4570064,,,,,,,2021-09-14,1,,,,,ホシザキフドウサン,0
2298,8180001147823,新規,0,2021-09-14,2021-09-14,株式会社ＫＯＴ,,株式会社,愛知県,名古屋市名東区,梅森坂西２丁目８１８番地の２,,23,115,4650066,,,,,,,2021-09-14,1,,,,,ケーオーティー,0
2302,8180003022958,新規,0,2021-09-14,2021-09-14,ｅｓ．ｐ合同会社,,合同会社,愛知県,小牧市,弥生町９６番地,,23,219,4850071,,,,,,,2021-09-14,1,,,,,エスピー,0
2304,8180301035356,新規,0,2021-09-14,2021-09-14,株式会社エヌエスケイ,,株式会社,愛知県,豊田市,貝津町町屋１０５番地,,23,211,4700348,,,,,,,2021-09-14,1,,,,,エヌエスケイ,0
2305,8180301035364,新規,0,2021-09-14,2021-09-14,株式会社果報,,株式会社,愛知県,西尾市,一色町佐久島前田４５番地,,23,213,4440416,,,,,,,2021-09-14,1,,,,,カホウ,0
2312,8190001028683,新規,0,2021-09-14,2021-09-14,沼口幸福祉株式会社,,株式会社,三重県,津市,長岡町８００番地１４４,,24,201,5140064,,,,,,,2021-09-14,1,,,,,ヌマグチシアワセフクシ,0
2321,8200001039126,新規,0,2021-09-14,2021-09-14,シンコーフーズ株式会社,,株式会社,岐阜県,可児市,土田３８３２番地１,,21,214,5090206,,,,,,,2021-09-14,1,,,,,シンコーフーズ,0
2323,8210001018608,新規,0,2021-09-14,2021-09-14,株式会社アトライズ,,株式会社,福井県,丹生郡越前町,気比庄第３号１０番地１,,18,423,9160133,,,,,,,2021-09-14,1,,,,,アトライズ,0
2329,8250001019123,新規,0,2021-09-14,2021-09-14,ｙａｍａ‐ｍоｔо‐ｆａｒｍ株式会社,,株式会社,山口県,岩国市,竹安８４,,35,208,7400325,,,,,,,2021-09-14,1,,,,,ヤマモトノウエン,0
2333,8260001035953,新規,0,2021-09-14,2021-09-14,株式会社Ｈ・Ｋコンサルタント,,株式会社,岡山県,岡山市北区,柳町２丁目１２番５号,,33,101,7000904,,,,,,,2021-09-14,1,,,,,エイチケーコンサルタント,0
2334,8260001035961,新規,0,2021-09-14,2021-09-14,株式会社永進,,株式会社,岡山県,岡山市南区,浦安本町６５番地,,33,104,7028026,,,,,,,2021-09-14,1,,,,,エイシン,0
2336,8270001008355,新規,0,2021-09-14,2021-09-14,株式会社ノイ,,株式会社,鳥取県,鳥取市,栄町４１４番地,,31,201,6800831,,,,,,,2021-09-14,1,,,,,ノイ,0
2348,8290003011603,新規,0,2021-09-14,2021-09-14,合同会社ＭｙＭｕｓ,,合同会社,福岡県,福岡市博多区,吉塚本町３－１９,,40,132,8120046,,,,,,,2021-09-14,1,,,,,マイムス,0
2352,8310001017475,新規,0,2021-09-14,2021-09-14,株式会社ＯＬＤＥＲ,,株式会社,長崎県,長崎市,文教町９番３号松尾ビル１階,,42,201,8528131,,,,,,,2021-09-14,1,,,,,オルダー,0
2356,8320001018596,新規,0,2021-09-14,2021-09-14,株式会社成慶物産,,株式会社,大分県,宇佐市,大字四日市３５９０番地,,44,211,8790471,,,,,,,2021-09-14,1,,,,,ナリケイブッサン,0
2358,8320003003613,新規,0,2021-09-14,2021-09-14,ピュアハート合同会社,,合同会社,大分県,大分市,坂ノ市西１丁目８番１号,,44,201,8700309,,,,,,,2021-09-14,1,,,,,ピュアハート,0
2364,8380001032187,新規,0,2021-09-14,2021-09-14,株式会社ＢＥＳＴ,,株式会社,福島県,郡山市,字賀庄１０３番地の１,,07,203,9638844,,,,,,,2021-09-14,1,,,,,ベスト,0
2366,8380003005018,新規,0,2021-09-14,2021-09-14,合同会社ＳＳＲ,,合同会社,福島県,郡山市,安積町日出山字神明下２０番地の１横山アパート１号,,07,203,9630101,,,,,,,2021-09-14,1,,,,,エスエスアール,0
2367,8380005012474,新規,0,2021-09-14,2021-09-14,一般社団法人福島県サイクルツーリズム推進協会,,その他の設立登記法人,福島県,郡山市,安積町日出山１丁目１４５番地,,07,203,9630101,,,,,,,2021-09-14,1,,,,,フクシマケンサイクルツーリズムスイシンキョウカイ,0
2368,8390001016593,新規,0,2021-09-14,2021-09-14,株式会社庄司不動産情報館,,株式会社,山形県,鶴岡市,美原町２６番４７号,,06,203,9970826,,,,,,,2021-09-14,1,,,,,ショウジフドウサンジョウホウカン,0
2371,8410001012961,新規,0,2021-09-14,2021-09-14,鈴木産業株式会社,,株式会社,秋田県,潟上市,天王字蒲沼１０７－１,,05,211,0100201,,,,,,,2021-09-14,1,,,,,,0
2375,8430001084958,新規,0,2021-09-14,2021-09-14,ＨＴＭ株式会社,,株式会社,北海道,札幌市手稲区,前田十二条１０丁目４番１６号,,01,109,0060822,,,,,,,2021-09-14,1,,,,,エイチティーエム,0
2376,8430001084974,新規,0,2021-09-14,2021-09-14,株式会社ＣＨＡＣＨＡＣＯ,,株式会社,北海道,札幌市中央区,大通東３丁目４番地１,,01,101,0600041,,,,,,,2021-09-14,1,,,,,チャチャコ,0
2378,8430003013147,新規,0,2021-09-14,2021-09-14,合同会社Ｍ’ｓ・ｏｆｆｉｃｅ,,合同会社,北海道,札幌市西区,八軒七条西１０丁目１番６０－９０３号,,01,107,0630847,,,,,,,2021-09-14,1,,,,,エムズオフィス,0
2379,8440005002709,新規,0,2021-09-14,2021-09-14,医療法人社団ここのは歯科,,その他の設立登記法人,北海道,函館市,石川町４５０番地２２,,01,202,0410802,,,,,,,2021-09-14,1,,,,,ココノハシカ,0
2382,8450001013477,新規,0,2021-09-14,2021-09-14,株式会社モンタナ,,株式会社,北海道,旭川市,八条通８丁目４３番地の５　８条ビル２階,,01,204,0700038,,,,,,,2021-09-14,1,,,,,モンタナ,0
2402,9010001221148,新規,0,2021-09-14,2021-09-14,株式会社アドバンス,,株式会社,東京都,千代田区,外神田６丁目６番９号杉山ビル１Ｆ,,13,101,1010021,,,,,,,2021-09-14,1,,,,,アドバンス,0
2407,9010005033952,新規,0,2021-09-14,2021-09-14,一般社団法人青果バリューチェーン協議会,,その他の設立登記法人,東京都,千代田区,三番町３０番８第二生光ビル６階,,13,101,1020075,,,,,,,2021-09-14,1,,,,,セイカバリューチェーンキョウギカイ,0
2408,9010005033960,新規,0,2021-09-14,2021-09-14,医療法人社団心成会,,その他の設立登記法人,東京都,中央区,日本橋人形町１丁目７番７号笠原ビルディング３階,,13,102,1030013,,,,,,,2021-09-14,1,,,,,シンセイカイ,0
2409,9010005033969,新規,0,2021-09-14,2021-09-14,一般社団法人品川甚作エネみらい再エネ発電所,,その他の設立登記法人,東京都,千代田区,一ツ橋２丁目６番３号アクシスインベストメントアドバイザーズ株式会社内,,13,101,1010003,,,,,,,2021-09-14,1,,,,,シナガワジンサクエネミライサイエネハツデンショ,0
2410,9010101014856,新規,0,2021-09-14,2021-09-14,Ｇテック株式会社,,株式会社,東京都,八王子市,滝山町２丁目９３番地１,,13,201,1920011,,,,,,,2021-09-14,1,,,,,ジーテック,0
2416,9010401162644,新規,0,2021-09-14,2021-09-14,株式会社ＶＥＴＩＣＡＬ,,株式会社,東京都,港区,芝３丁目８番１－６０２号,,13,103,1050014,,,,,,,2021-09-14,1,,,,,ヴェティカル,0
2418,9010403026137,新規,0,2021-09-14,2021-09-14,湯布発電合同会社,,合同会社,東京都,港区,虎ノ門３丁目２２番１０－２０１号,,13,103,1050001,,,,,,,2021-09-14,1,,,,,ユフハツデン,0
2427,9010701041498,新規,0,2021-09-14,2021-09-14,株式会社Ｅｒｆｏｌｇ,,株式会社,東京都,品川区,旗の台２丁目８番１２号,,13,109,1420064,,,,,,,2021-09-14,1,,,,,エアフォルク,0
2441,9011001142672,新規,0,2021-09-14,2021-09-14,株式会社よあけまえ,,株式会社,東京都,目黒区,中町２丁目２８番１号,,13,110,1530065,,,,,,,2021-09-14,1,,,,,ヨアケマエ,0
2444,9011103011008,新規,0,2021-09-14,2021-09-14,合同会社マキシマム,,合同会社,東京都,新宿区,大久保２丁目１８番１８号,,13,104,1690072,,,,,,,2021-09-14,1,,,,,マキシマム,0
2451,9011501027308,新規,0,2021-09-14,2021-09-14,誠エンジニアリング株式会社,,株式会社,東京都,北区,志茂４丁目４番１６号トミタック１４－２０１号,,13,117,1150042,,,,,,,2021-09-14,1,,,,,マコトエンジニアリング,0
2453,9011503004890,新規,0,2021-09-14,2021-09-14,合同会社ネセス,,合同会社,東京都,北区,王子本町２丁目９番４グリーンステージ王子１０２号,,13,117,1140022,,,,,,,2021-09-14,1,,,,,ネセス,0
2479,9020001143044,新規,0,2021-09-14,2021-09-14,株式会社Ｍ＆Ｍ,,株式会社,神奈川県,横浜市港南区,港南台５丁目２０番１８号,,14,111,2340054,,,,,,,2021-09-14,1,,,,,エムアンドエム,0
2488,9021001073917,新規,0,2021-09-14,2021-09-14,株式会社ＲＹＵＮＯ’Ｓ,,株式会社,神奈川県,藤沢市,辻堂１丁目１６番２０号,,14,205,2510047,,,,,,,2021-09-14,1,,,,,リュウノズ,0
2489,9021001073941,新規,0,2021-09-14,2021-09-14,株式会社空元設備,,株式会社,神奈川県,逗子市,小坪２丁目１１番４号,,14,208,2490008,,,,,,,2021-09-14,1,,,,,ソラモトセツビ,0
2496,9030001144289,新規,0,2021-09-14,2021-09-14,株式会社勇斗エンジニアリング,,株式会社,埼玉県,所沢市,東狭山ケ丘６丁目８１０番地の２,,11,208,3591106,,,,,,,2021-09-14,1,,,,,ハヤトエンジニアリング,0
2497,9030001144339,新規,0,2021-09-14,2021-09-14,株式会社桐原荷役,,株式会社,埼玉県,熊谷市,箱田６丁目１１番３５号,,11,202,3600014,,,,,,,2021-09-14,1,,,,,キリハラニヤク,0
2521,9080003002639,新規,0,2021-09-14,2021-09-14,合同会社そわか,,合同会社,静岡県,藤枝市,下藪田３１９番地の６９,,22,214,4260201,,,,,,,2021-09-14,1,,,,,ソワカ,0
2522,9080005007396,新規,0,2021-09-14,2021-09-14,一般社団法人栄町ブリッジ,,その他の設立登記法人,静岡県,焼津市,栄町４丁目２番６号ＰＬＡＹＢＡＬＬ！ＢＬＤＧ．２Ｆ,,22,212,4250027,,,,,,,2021-09-14,1,,,,,サカエマチブリッジ,0
2532,9100001034598,新規,0,2021-09-14,2021-09-14,株式会社野村グリーン,,株式会社,長野県,松本市,波田８４７９番地,,20,202,3901401,,,,,,,2021-09-14,1,,,,,ノムラグリーン,0
2535,9100003006232,新規,0,2021-09-14,2021-09-14,カサネル合同会社,,合同会社,長野県,塩尻市,大門八番町１－２８シビックイノベーション拠点スナバ内,,20,215,3990737,,,,,,,2021-09-14,1,,,,,カサネル,0
2536,9110001036032,新規,0,2021-09-14,2021-09-14,チョコナッツ越後屋株式会社,,株式会社,新潟県,長岡市,稲保４丁目７５０番地３,,15,202,9400877,,,,,,,2021-09-14,1,,,,,チョコナッツエチゴヤ,0
2540,9120001240384,新規,0,2021-09-14,2021-09-14,株式会社大福,,株式会社,大阪府,大阪市浪速区,大国３丁目１－２２－３Ｂ号室,,27,111,5560014,,,,,,,2021-09-14,1,,,,,ダイフク,0
2541,9120001240392,新規,0,2021-09-14,2021-09-14,信諾株式会社,,株式会社,大阪府,大阪市住之江区,北加賀屋１丁目９－２コーポ吉野屋４０１号室,,27,125,5590011,,,,,,,2021-09-14,1,,,,,シンダク,0
2542,9120001240401,新規,0,2021-09-14,2021-09-14,株式会社ナカノ,,株式会社,大阪府,門真市,打越町１番１号,,27,223,5710029,,,,,,,2021-09-14,1,,,,,ナカノ,0
2543,9120001240442,新規,0,2021-09-14,2021-09-14,株式会社ろっかー,,株式会社,大阪府,大阪市中央区,安土町２丁目５番５号,,27,128,5410052,,,,,,,2021-09-14,1,,,,,ロッカー,0
2548,9120003020181,新規,0,2021-09-14,2021-09-14,合同会社ＺＩＯＮ,,合同会社,大阪府,交野市,星田７丁目１４－５,,27,230,5760016,,,,,,,2021-09-14,1,,,,,ザイオン,0
2552,9120105009445,新規,0,2021-09-14,2021-09-14,一般社団法人アジア文化芸術連盟,,その他の設立登記法人,大阪府,河内長野市,末広町２番３７号,,27,216,5860051,,,,,,,2021-09-14,1,,,,,アジアブンカゲイジュツレンメイ,0
2554,9122001035161,新規,0,2021-09-14,2021-09-14,史工務店株式会社,,株式会社,大阪府,大東市,野崎３丁目１０番１６号,,27,218,5740015,,,,,,,2021-09-14,1,,,,,フビトコウムテン,0
2563,9140001123034,新規,0,2021-09-14,2021-09-14,株式会社ＶＡＳＥ　ＳＨＯＰ,,株式会社,兵庫県,姫路市,広畑区東新町１丁目４２番地,,28,201,6711121,,,,,,,2021-09-14,1,,,,,ヴェイズショップ,0
2569,9150001024909,新規,0,2021-09-14,2021-09-14,株式会社Ｃｉｒｃｌｅ　ｐｌｕｓ,,株式会社,奈良県,大和高田市,本郷町１番地１１号,,29,202,6350082,,,,,,,2021-09-14,1,,,,,サークルプラス,0
2571,9160001023612,新規,0,2021-09-14,2021-09-14,株式会社Ｒｅ・ｒｏｕｔｅ,,株式会社,滋賀県,甲賀市,甲南町葛木１３６５番地２,,25,209,5203321,,,,,,,2021-09-14,1,,,,,リルート,0
2574,9170001016771,新規,0,2021-09-14,2021-09-14,ＫＥＹ株式会社,,株式会社,和歌山県,西牟婁郡白浜町,１７２９番地の１１,,30,401,6492211,,,,,,,2021-09-14,1,,,,,キー,0
2592,9180301035371,新規,0,2021-09-14,2021-09-14,株式会社Ｅｙｅ’ｓ,,株式会社,愛知県,豊田市,深田町４丁目４番地１,,23,211,4710841,,,,,,,2021-09-14,1,,,,,アイズ,0
2603,9200003005315,新規,0,2021-09-14,2021-09-14,合同会社ｆａｒｍＭ,,合同会社,岐阜県,各務原市,蘇原青雲町５丁目２０番地３,,21,213,5040843,,,,,,,2021-09-14,1,,,,,ファームエム,0
2606,9210001018607,新規,0,2021-09-14,2021-09-14,株式会社キラメンテナンス,,株式会社,福井県,福井市,中野１丁目６１１番地１,,18,201,9188186,,,,,,,2021-09-14,1,,,,,キラメンテナンス,0
2618,9240001058600,新規,0,2021-09-14,2021-09-14,ときわプランニング株式会社,,株式会社,広島県,広島市中区,南竹屋町９番２０－６０２号,,34,101,7300049,,,,,,,2021-09-14,1,,,,,トキワプランニング,0
2631,9290001094616,新規,0,2021-09-14,2021-09-14,ナノステック株式会社,,株式会社,福岡県,大野城市,川久保１丁目１９番１０号,,40,219,8160905,,,,,,,2021-09-14,1,,,,,ナノステック,0
2632,9290001094624,新規,0,2021-09-14,2021-09-14,株式会社ＮＫＣリンクス,,株式会社,福岡県,福岡市博多区,東光２丁目２２番１６－９０２号エンクレスト空港通り,,40,132,8120008,,,,,,,2021-09-14,1,,,,,エヌケイシーリンクス,0
2637,9290801027790,新規,0,2021-09-14,2021-09-14,株式会社ＫＩＫＩ,,株式会社,福岡県,北九州市八幡西区,日吉台２丁目１番１号,,40,109,8070866,,,,,,,2021-09-14,1,,,,,キキ,0
2642,9310003004165,新規,0,2021-09-14,2021-09-14,合同会社ひだまりらいふ,,合同会社,長崎県,長崎市,青山町１０番５号,,42,201,8528036,,,,,,,2021-09-14,1,,,,,ヒダマリライフ,0
2645,9320001018604,新規,0,2021-09-14,2021-09-14,株式会社ＷＡＹＰＯＩＮＴ,,株式会社,大分県,別府市,大字南立石１９２６番地の１０５,,44,202,8740000,,,,,,,2021-09-14,1,,,,,ウェイポイント,0
2647,9320003003612,新規,0,2021-09-14,2021-09-14,ｋｅｎ合同会社,,合同会社,大分県,佐伯市,池船町２６－２３,,44,205,8760833,,,,,,,2021-09-14,1,,,,,ケン,0
2650,9330003009039,新規,0,2021-09-14,2021-09-14,合同会社向日葵,,合同会社,熊本県,玉名郡南関町,大字下坂下１３０８番地,,43,367,8610821,,,,,,,2021-09-14,1,,,,,ヒマワリ,0
2652,9360001029366,新規,0,2021-09-14,2021-09-14,株式会社ＷＥＳＴ　ＦＩＥＬＤ,,株式会社,沖縄県,宮古島市,平良字西仲宗根２－５,,47,214,9060006,,,,,,,2021-09-14,1,,,,,ウエストフィールド,0
2660,9380001032186,新規,0,2021-09-14,2021-09-14,株式会社龍絆,,株式会社,福島県,いわき市,常磐西郷町忠多６０番地の６４,,07,204,9728316,,,,,,,2021-09-14,1,,,,,リュウキ,0
2662,9380003005017,新規,0,2021-09-14,2021-09-14,合同会社クレア,,合同会社,福島県,いわき市,植田町中央２丁目３番地の２大和ビル２０６号室,,07,204,9748261,,,,,,,2021-09-14,1,,,,,,0
2675,9430001084965,新規,0,2021-09-14,2021-09-14,株式会社グリット,,株式会社,北海道,札幌市白石区,北郷九条７丁目２番１１号,,01,104,0030839,,,,,,,2021-09-14,1,,,,,グリット,0
2679,9450001013476,新規,0,2021-09-14,2021-09-14,豊栄教育株式会社,,株式会社,北海道,名寄市,風連町西町２０５番地１８,,01,221,0980507,,,,,,,2021-09-14,1,,,,,ホウエイキョウイク,0
2680,9450003002122,新規,0,2021-09-14,2021-09-14,合同会社ＨＡＳＥＢＥ産業,,合同会社,北海道,旭川市,永山四条１１丁目５番２号,,01,204,0798414,,,,,,,2021-09-14,1,,,,,ハセベサンギョウ,0
2687,9500001023684,新規,0,2021-09-14,2021-09-14,株式会社Ｇｒａｚｙ,,株式会社,愛媛県,大洲市,肱川町中居谷１４４０番地,,38,207,7971501,,,,,,,2021-09-14,1,,,,,グレイジー,0
2688,9500003002694,新規,0,2021-09-14,2021-09-14,合同会社あじさい,,合同会社,愛媛県,大洲市,肱川町大谷４４２６番地,,38,207,7971507,,,,,,,2021-09-14,1,,,,,アジサイ,0
