sequenceNumber,corporateNumber,process,correct,updateDate,changeDate,name,nameImageId,kind,prefectureName,cityName,streetNumber,addressImageId,prefectureCode,cityCode,postCode,addressOutside,addressOutsideImageId,closeDate,closeCause,successorCorporateNumber,changeCause,assignmentDate,latest,enName,enPrefectureName,enCityName,enAddressOutside,furigana,hihyoji
22,1010401104439,登記記録の閉鎖等,0,2022-09-14,2022-08-29,ＪＰＡ第１０号株式会社,,株式会社,東京都,港区,虎ノ門２丁目９番１１号,,13,103,1050001,,,2022-08-29,清算の結了等,,,2015-10-05,1,,,,,ジェイピーエーダイジュウゴウ,0
25,1010401132217,登記記録の閉鎖等,0,2022-09-14,2022-08-31,株式会社メトロリー,,株式会社,東京都,港区,浜松町２丁目２番１５号,,13,103,1050013,,,2022-08-31,清算の結了等,,,2017-06-27,1,,,,,メトロリー,0
28,1010403017374,登記記録の閉鎖等,0,2022-09-14,2022-08-25,ＯＹＬ　ＥＮＴＥＲＴＡＩＮＭＥＮＴ合同会社,,合同会社,東京都,杉並区,和泉３丁目７－１生活クラブ館杉並２階,,13,115,1680063,,,2022-08-25,清算の結了等,,,2017-10-16,1,OYL ENTERTAINMENT LLC,,,,オイルエンターテインメント,0
52,1011001067571,登記記録の閉鎖等,0,2022-09-14,2022-09-05,株式会社ヴイエス,,株式会社,東京都,千代田区,平河町１丁目６番８号平河町貝坂ビル４Ｆ,,13,101,1020093,,,2022-09-05,清算の結了等,,,2015-10-05,1,,,,,ヴイエス,0
78,1011601003942,登記記録の閉鎖等,0,2022-09-14,2022-09-12,大誠建設株式会社,,株式会社,東京都,練馬区,大泉町５丁目２４番６号,,13,120,1780062,,,2022-09-12,清算の結了等,,,2015-10-05,1,,,,,タイセイケンセツ,0
83,1012701013501,登記記録の閉鎖等,0,2022-09-14,2022-09-12,株式会社孝建,,株式会社,東京都,東村山市,本町２丁目１７番３号,,13,213,1890014,,,2022-09-12,清算の結了等,,,2015-12-22,1,,,,,コウケン,0
89,1020001034291,登記記録の閉鎖等,0,2022-09-14,2022-09-09,株式会社エスシーエル,,株式会社,神奈川県,横浜市瀬谷区,南台１丁目２６番地の４,,14,114,2460032,,,2022-09-09,清算の結了等,,,2015-10-05,1,,,,,エスシーエル,0
91,1020001112634,登記記録の閉鎖等,0,2022-09-14,2022-09-08,株式会社ＫＵＮＯ,,株式会社,神奈川県,横浜市旭区,今宿２丁目４番１４号,,14,112,2410817,,,2022-09-08,清算の結了等,,,2015-10-05,1,,,,,クノ,0
92,1020001128952,登記記録の閉鎖等,0,2022-09-14,2022-09-09,株式会社清緑舎,,株式会社,神奈川県,川崎市多摩区,菅仙谷３丁目１番,,14,135,2140006,,,2022-09-09,清算の結了等,,,2018-11-30,1,,,,,セイリョクシャ,0
101,1021002057868,登記記録の閉鎖等,0,2022-09-14,2022-09-09,有限会社三光精機製作所,,有限会社,神奈川県,平塚市,高根１８７番地,,14,203,2540912,,,2022-09-09,清算の結了等,,,2015-10-05,1,,,,,サンコウセイキセイサクショ,0
111,1030002006355,登記記録の閉鎖等,0,2022-09-14,2022-09-02,有限会社シンコウアメニティー,,有限会社,埼玉県,さいたま市南区,鹿手袋６丁目６番５号,,11,108,3360031,,,2022-09-02,清算の結了等,,,2015-10-05,1,,,,,シンコウアメニティー,0
120,1040001095571,登記記録の閉鎖等,0,2022-09-14,2022-09-09,株式会社Ｈｉｇｈ　Ａｍｂｉｔｉｏｎ,,株式会社,千葉県,千葉市中央区,蘇我１丁目２０番１号,,12,101,2600822,,,2022-09-09,清算の結了等,,,2016-06-06,1,,,,,,0
135,1050005000741,登記記録の閉鎖等,0,2022-09-14,2022-08-22,天理教日沼分教会,,その他の設立登記法人,茨城県,東茨城郡茨城町,大字宮ヶ崎５６０番地の１,,08,302,3113136,,,2022-08-22,合併による解散等,8050005000743,令和４年８月２２日茨城県水戸市五軒町三丁目３番４６号天理教水戸分教会（8050005000743）に合併し解散,2015-10-05,1,,,,,,0
144,1070001035855,登記記録の閉鎖等,0,2022-09-14,2022-09-05,株式会社ＡＲＩＹＡ　ＩＮＴＥＲＮＡＴＩＯＮＡＬ,,株式会社,群馬県,太田市,新田大根町１３３３番地３,,10,205,3700347,,,2022-09-05,清算の結了等,,,2019-06-20,1,,,,,アリヤインターナショナル,0
163,1120001219931,登記記録の閉鎖等,0,2022-09-14,2022-09-06,株式会社西尾テクニカル工業,,株式会社,大阪府,東大阪市,水走３丁目１０番１５号,,27,227,5780921,,,2022-09-06,清算の結了等,,,2019-03-29,1,,,,,ニシオテクニカルコウギョウ,0
168,1120002079879,登記記録の閉鎖等,0,2022-09-14,2022-09-08,有限会社田中製作所,,有限会社,大阪府,門真市,南野口町３５番１２号,,27,223,5710005,,,2022-09-08,清算の結了等,,,2015-10-05,1,,,,,タナカセイサクショ,0
174,1120901011520,登記記録の閉鎖等,0,2022-09-14,2022-09-13,電化チェーン株式会社ヒカリ栄町,,株式会社,大阪府,高槻市,栄町２丁目１９番９号,,27,207,5690825,,,2022-09-13,清算の結了等,,,2015-10-05,1,,,,,デンカチェーンヒカリサカエマチ,0
179,1122001026465,登記記録の閉鎖等,0,2022-09-14,2022-09-07,大興電建株式会社,,株式会社,大阪府,東大阪市,布市町４丁目８番３５－５２７号,,27,227,5798004,,,2022-09-07,清算の結了等,,,2015-10-05,1,,,,,ダイコウデンケン,0
197,1160001020889,登記記録の閉鎖等,0,2022-09-14,2022-09-01,株式会社Ｒ－ｃｏｎｎｅｃｔ,,株式会社,滋賀県,大津市,大萱３丁目６－３５,,25,201,5202144,,,2022-09-01,合併による解散等,4160002014796,令和４年９月１日滋賀県大津市大萱三丁目６－３５株式会社六匠（4160002014796）に合併し解散,2018-04-20,1,,,,,アールコネクト,0
207,1180002038251,登記記録の閉鎖等,0,2022-09-14,2022-09-06,有限会社鈴雅,,有限会社,愛知県,名古屋市緑区,大高町字伊賀殿３－４,,23,114,4598001,,,2022-09-06,清算の結了等,,,2015-10-05,1,,,,,スズマサ,0
210,1180002087694,登記記録の閉鎖等,0,2022-09-14,2022-09-08,有限会社三建,,有限会社,愛知県,東海市,中ノ池２丁目９番地の２９,,23,222,4770033,,,2022-09-08,清算の結了等,,,2015-10-05,1,,,,,サンケン,0
218,1180305008570,登記記録の閉鎖等,0,2022-09-14,2022-09-05,特定非営利活動法人東海ファシリティー,,その他の設立登記法人,愛知県,安城市,二本木町長根６２番地９,,23,212,4460054,,,2022-09-05,清算の結了等,,,2016-10-17,1,,,,,トウカイファシリティー,0
222,1190001008056,登記記録の閉鎖等,0,2022-09-14,2022-09-09,南勢船舶工業株式会社,,株式会社,三重県,志摩市,浜島町浜島１１５０番地５,,24,215,5170404,,,2022-09-09,清算の結了等,,,2015-10-05,1,,,,,ナンセイセンパクコウギョウ,0
223,1190001022635,登記記録の閉鎖等,0,2022-09-14,2022-09-06,株式会社不二電機,,株式会社,三重県,津市,白山町二本木１００１番地１８８,,24,201,5152602,,,2022-09-06,清算の結了等,,,2015-10-05,1,,,,,フジデンキ,0
224,1190002000912,登記記録の閉鎖等,0,2022-09-14,2022-09-12,有限会社高畑板金工業,00075817,有限会社,三重県,津市,半田５６７番地の６,,24,201,5140823,,,2022-09-12,清算の結了等,,,2015-10-05,1,,,,,タカハタバンキンコウギョウ,0
227,1190002022428,登記記録の閉鎖等,0,2022-09-14,2022-09-12,有限会社森田設計,,有限会社,三重県,四日市市,西松本町１０番９号,,24,202,5100837,,,2022-09-12,清算の結了等,,,2015-10-05,1,,,,,モリタセッケイ,0
251,1250002002860,登記記録の閉鎖等,0,2022-09-14,2022-09-08,有限会社ウエダ硝子工業,,有限会社,山口県,防府市,岩畠２丁目５番３３号,,35,206,7470001,,,2022-09-08,清算の結了等,,,2015-10-05,1,,,,,ウエダガラスコウギョウ,0
256,1280002003039,登記記録の閉鎖等,0,2022-09-14,2022-09-13,有限会社トーゴー,,有限会社,島根県,松江市,玉湯町湯町１６３６番地３,,32,201,6990202,,,2022-09-13,清算の結了等,,,2015-10-05,1,,,,,トーゴー,0
321,2010403009461,登記記録の閉鎖等,0,2022-09-14,2022-08-29,ＪＰＡ第８号合同会社,,合同会社,東京都,港区,虎ノ門２丁目９番１１号,,13,103,1050001,,,2022-08-29,清算の結了等,,,2015-10-05,1,,,,,ジェイピーエーダイハチゴウ,0
334,2011001004532,登記記録の閉鎖等,0,2022-09-14,2022-08-31,株式会社エルドア,,株式会社,東京都,渋谷区,恵比寿１丁目１９番１５号ウノサワ東急ビル６Ｆ,,13,113,1500013,,,2022-08-31,清算の結了等,,,2015-10-05,1,,,,,,0
365,2012702003483,登記記録の閉鎖等,0,2022-09-14,2022-09-12,有限会社ホーユー電機製作所,,有限会社,東京都,東村山市,秋津町３丁目１７番地６５,,13,213,1890001,,,2022-09-12,清算の結了等,,,2015-10-05,1,,,,,ホーユーデンキセイサクショ,0
398,2030002033150,登記記録の閉鎖等,0,2022-09-14,2022-09-01,有限会社浅見電化サービス,,有限会社,埼玉県,狭山市,根岸１丁目２８番２０号,,11,215,3501325,,,2022-09-01,清算の結了等,,,2015-10-05,1,,,,,アサミデンカサービス,0
433,2120001076620,登記記録の閉鎖等,0,2022-09-14,2022-09-09,オムロン住倉ロジスティック株式会社,,株式会社,大阪府,大阪市北区,堂島２丁目３番２７号東洋紡エルユービル,,27,127,5300003,,,2022-09-09,清算の結了等,,,2015-10-05,1,,,,,オムロンスミソウロジスティック,0
439,2120001188399,登記記録の閉鎖等,0,2022-09-14,2022-09-12,Ｔ－ＧＲＯＵＰ株式会社,,株式会社,大阪府,守口市,寺方元町２丁目７番１４号,,27,209,5700047,,,2022-09-12,清算の結了等,,,2015-10-05,1,,,,,ティーグループ,0
457,2120101031418,登記記録の閉鎖等,0,2022-09-14,2022-09-12,株式会社永迫組,,株式会社,大阪府,南河内郡河南町,大宝４丁目１２番４号,,27,382,5850005,,,2022-09-12,清算の結了等,,,2015-10-05,1,,,,,ナガサコグミ,0
460,2122002003768,登記記録の閉鎖等,0,2022-09-14,2022-09-05,有限会社初和商事,,有限会社,大阪府,東大阪市,渋川町１丁目１０番２２号,,27,227,5770836,,,2022-09-05,清算の結了等,,,2015-10-05,1,,,,,ハツワショウジ,0
477,2150001015534,登記記録の閉鎖等,0,2022-09-14,2022-09-12,辻好産業株式会社,00043059,株式会社,奈良県,五條市,二見５丁目７番２３号,,29,207,6370071,,,2022-09-12,清算の結了等,,,2015-10-05,1,,,,,ツジコウサンギョウ,0
480,2180001003032,登記記録の閉鎖等,0,2022-09-14,2022-09-07,株式会社メイコープラミックス,,株式会社,愛知県,名古屋市名東区,宝が丘２５０番地,,23,115,4650043,,,2022-09-07,清算の結了等,,,2015-10-05,1,,,,,メイコープラミックス,0
484,2180001109770,登記記録の閉鎖等,0,2022-09-14,2022-09-07,株式会社デザイン工房Ｌｉｅｎ,,株式会社,愛知県,春日井市,気噴町北２丁目２７４番地,,23,206,4870015,,,2022-09-07,清算の結了等,,,2015-10-05,1,,,,,デザインコウボウリアン,0
508,2230001012812,登記記録の閉鎖等,0,2022-09-14,2022-09-09,林車輌株式会社,,株式会社,富山県,射水市,小杉白石８２３番地,,16,211,9390304,,,2022-09-09,清算の結了等,,,2015-10-05,1,,,,,ハヤシシャリョウ,0
509,2230002009519,登記記録の閉鎖等,0,2022-09-14,2022-09-09,有限会社第一ワークス,,有限会社,富山県,南砺市,高堀８番地,,16,210,9391511,,,2022-09-09,清算の結了等,,,2015-10-05,1,,,,,ダイイチワークス,0
515,2240002044291,登記記録の閉鎖等,0,2022-09-14,2022-09-09,有限会社エフケイ,,有限会社,広島県,福山市,曙町１丁目２番２４号,00001547,34,207,7210952,,,2022-09-09,清算の結了等,,,2015-10-05,1,,,,,エフケイ,0
522,2290001059170,登記記録の閉鎖等,0,2022-09-14,2022-09-07,株式会社福岡中央広告社,,株式会社,福岡県,嘉麻市,上山田１５１番地６,,40,227,8210012,,,2022-09-07,清算の結了等,,,2015-10-05,1,,,,,フクオカチュウオウコウコクシャ,0
529,2290002055623,登記記録の閉鎖等,0,2022-09-14,2022-09-07,初島タクシー有限会社,,有限会社,福岡県,大牟田市,東新町１丁目５番地の１３,,40,202,8360806,,,2022-09-07,清算の結了等,,,2015-10-05,1,,,,,ハツシマタクシー,0
539,2310002017050,登記記録の閉鎖等,0,2022-09-14,2022-09-13,有限会社江崎商事,,有限会社,長崎県,大村市,片町１７５番地７１,,42,205,8560833,,,2022-09-13,清算の結了等,,,2015-10-05,1,,,,,,0
555,2370002007806,登記記録の閉鎖等,0,2022-09-14,2022-09-05,有限会社鈴木冷藏庫製作所,,有限会社,宮城県,仙台市宮城野区,日の出町１丁目３番２０号,,04,102,9830035,,,2022-09-05,清算の結了等,,,2015-10-05,1,,,,,スズキレイゾウコセイサクショ,0
556,2370002013151,登記記録の閉鎖等,0,2022-09-14,2022-09-05,有限会社福田通信装機,,有限会社,宮城県,仙台市青葉区,一番町２丁目１番２号ＮＭＦ仙台青葉通りビル８Ｆ,,04,101,9800811,,,2022-09-05,清算の結了等,,,2015-10-05,1,,,,,フクダツウシンソウキ,0
570,2440002002329,登記記録の閉鎖等,0,2022-09-14,2022-09-08,有限会社セイシン,,有限会社,北海道,函館市,松陰町１番３２号,,01,202,0400003,,,2022-09-08,清算の結了等,,,2015-10-05,1,,,,,セイシン,0
587,3010001042608,登記記録の閉鎖等,0,2022-09-14,2022-08-30,熊田貿易株式会社,,株式会社,東京都,中央区,日本橋浜町２丁目３３番７号,,13,102,1030007,,,2022-08-30,清算の結了等,,,2015-10-05,1,,,,,クマタボウエキ,0
602,3010403009460,登記記録の閉鎖等,0,2022-09-14,2022-08-29,ＪＰＡ第７号株式会社,,株式会社,東京都,港区,虎ノ門２丁目９番１１号,,13,103,1050001,,,2022-08-29,清算の結了等,,,2015-10-05,1,,,,,ジェイピーエーダイナナゴウ,0
610,3010901015935,登記記録の閉鎖等,0,2022-09-14,2022-09-07,株式会社ＣＡＲＲＡＲＡ,,株式会社,東京都,世田谷区,上野毛３丁目８番２８号,,13,112,1580093,,,2022-09-07,清算の結了等,,,2015-10-05,1,,,,,カラーラ,0
614,3011001067801,登記記録の閉鎖等,0,2022-09-14,2022-09-09,株式会社高野コーポレーション,,株式会社,東京都,渋谷区,松濤２丁目６番３号,,13,113,1500046,,,2022-09-09,清算の結了等,,,2015-10-05,1,,,,,タカノコーポレーション,0
633,3011603001422,登記記録の閉鎖等,0,2022-09-14,2022-09-12,合同会社実里,,合同会社,東京都,練馬区,練馬４丁目３１番１７号,,13,120,1760001,,,2022-09-12,清算の結了等,,,2015-10-05,1,,,,,ミノリ,0
640,3012401038334,登記記録の閉鎖等,0,2022-09-14,2022-09-07,株式会社ネクストリンク,,株式会社,東京都,武蔵野市,御殿山２丁目１０番３３号,,13,203,1800005,,,2022-09-07,清算の結了等,,,2021-09-29,1,,,,,ネクストリンク,0
676,3040003008125,登記記録の閉鎖等,0,2022-09-14,2022-09-07,合同会社スーペル,,合同会社,千葉県,習志野市,谷津６丁目１８番１号,,12,216,2750026,,,2022-09-07,清算の結了等,,,2016-01-14,1,,,,,スーペル,0
680,3050005006811,登記記録の閉鎖等,0,2022-09-14,2022-08-22,天理教北浦分教会,,その他の設立登記法人,茨城県,鉾田市,鉾田２０５３番地,,08,234,3111517,,,2022-08-22,合併による解散等,8050005000743,令和４年８月２２日茨城県水戸市五軒町三丁目３番４６号天理教水戸分教会（8050005000743）に合併し解散,2015-10-05,1,,,,,,0
710,3120002054731,登記記録の閉鎖等,0,2022-09-14,2022-09-09,ランパール有限会社,,有限会社,大阪府,大阪市北区,角田町８－４７阪急グランドビル２０階,,27,127,5300017,,,2022-09-09,合併による解散等,2120001084573,令和４年９月１日大阪市北区角田町８－４７阪急グランドビル２０階株式会社椿館（2120001084573）に合併し解散,2015-10-05,1,,,,,ランパール,0
726,3130001054120,登記記録の閉鎖等,0,2022-09-14,2022-09-01,株式会社祇園くろちく,00036738,株式会社,京都府,京都市中京区,新町通錦小路上る百足屋町３８０番地,,26,104,6048214,,,2022-09-01,合併による解散等,9130001020637,令和４年９月１日京都市中京区新町通錦小路上ル百足屋町３８０番地株式会社くろちく（9130001020637）に合併し解散,2015-10-05,1,,,,,ギオンクロチク,0
747,3180001131237,登記記録の閉鎖等,0,2022-09-14,2022-09-06,株式会社フューチャー・インベストメント,,株式会社,愛知県,名古屋市守山区,瀬古１丁目１３２４番地ＤＩＡ２０５号室,,23,113,4630068,,,2022-09-06,清算の結了等,,,2018-02-19,1,,,,,フューチャーインベストメント,0
751,3180302012524,登記記録の閉鎖等,0,2022-09-14,2022-09-06,有限会社ワイエム・クリエイト,,有限会社,愛知県,豊橋市,牛川町字乗小路３２番地の７６８,,23,201,4400006,,,2022-09-06,清算の結了等,,,2015-10-05,1,,,,,,0
762,3230002001508,登記記録の閉鎖等,0,2022-09-14,2022-09-09,有限会社三和商會,,有限会社,富山県,富山市,中央通り２丁目３番２２号,,16,201,9300044,,,2022-09-09,清算の結了等,,,2015-10-05,1,,,,,,0
781,3290002010247,登記記録の閉鎖等,0,2022-09-14,2022-09-08,有限会社兜屋,,有限会社,福岡県,福岡市博多区,神屋町２番１１号,,40,132,8120022,,,2022-09-08,清算の結了等,,,2015-10-05,1,,,,,カブトヤ,0
782,3290003006946,登記記録の閉鎖等,0,2022-09-14,2022-08-31,Ｍ＆Ｔコンサルタント合同会社,,合同会社,福岡県,宗像市,日の里２丁目２２番地９,,40,220,8113425,,,2022-08-31,清算の結了等,,,2017-01-10,1,,,,,エムアンドティコンサルタント,0
788,3290005010418,登記記録の閉鎖等,0,2022-09-14,2022-09-13,特定非営利活動法人中国・日本人材教育開発機構,,その他の設立登記法人,福岡県,久留米市,中央町３３番地６,,40,203,8300023,,,2022-09-13,清算の結了等,,,2015-10-05,1,,,,,チュウゴクニホンジンザイキョウイクカイハツキコウ,0
814,3370002009157,登記記録の閉鎖等,0,2022-09-14,2022-08-10,有限会社仙台東部メデイカル・サービス,,有限会社,宮城県,仙台市宮城野区,東仙台５丁目１番２３号,,04,102,9830833,,,2022-08-10,合併による解散等,3370002006609,令和４年８月１０日仙台市宮城野区大梶１５番２２号株式会社案内（3370002006609）に合併し解散,2015-10-05,1,,,,,センダイトウブメディカルサービス,0
823,3430001009432,登記記録の閉鎖等,0,2022-09-14,2022-09-07,デリカフーズ北海道株式会社,,株式会社,北海道,札幌市白石区,中央一条３丁目１番７０号,,01,104,0030011,,,2022-09-07,合併による解散等,8011801010113,令和４年９月１日東京都足立区六町四丁目１２番１２号デリカフーズ株式会社（8011801010113）に合併し解散,2015-10-05,1,,,,,デリカフーズホッカイドウ,0
827,3500005004281,登記記録の閉鎖等,0,2022-09-14,2022-09-09,特定非営利活動法人介護予防・くらしの協同センターコミセン,,その他の設立登記法人,愛媛県,新居浜市,若水町１丁目７番４５号,,38,205,7920017,,,2022-09-09,清算の結了等,,,2015-10-05,1,,,,,カイゴヨボウクラシノキョウドウセンターコミセン,0
861,4010801014953,登記記録の閉鎖等,0,2022-09-14,2022-09-08,株式会社ウィン,,株式会社,東京都,大田区,西蒲田７丁目１６番１号,,13,111,1440051,,,2022-09-08,清算の結了等,,,2015-10-05,1,,,,,ウィン,0
895,4011703001610,登記記録の閉鎖等,0,2022-09-14,2022-09-12,シンシン商事合同会社,,合同会社,東京都,江戸川区,北小岩５丁目２１番７号,,13,123,1330051,,,2022-09-12,清算の結了等,,,2016-11-15,1,,,,,シンシンショウジ,0
903,4012702005164,登記記録の閉鎖等,0,2022-09-14,2022-09-12,アサ・フィールドマウント有限会社,,有限会社,東京都,西東京市,谷戸町３丁目１６番５号,,13,229,1880001,,,2022-09-12,清算の結了等,,,2015-10-05,1,,,,,アサフィールドマウント,0
904,4012801000743,登記記録の閉鎖等,0,2022-09-14,2022-09-06,鈴春不動産株式会社,,株式会社,東京都,立川市,曙町２丁目１２番１号,00058622,13,202,1900012,,,2022-09-06,清算の結了等,,,2015-10-05,1,,,,,スズハルフドウサン,0
906,4013301044677,登記記録の閉鎖等,0,2022-09-14,2022-09-07,ＦＸプロ株式会社,,株式会社,東京都,豊島区,南大塚２丁目７番２号,,13,116,1700005,,,2022-09-07,清算の結了等,,,2019-10-29,1,,,,,エフエックスプロ,0
912,4020002043545,登記記録の閉鎖等,0,2022-09-14,2022-09-09,有限会社大栄商事,,有限会社,神奈川県,横浜市中区,元町４丁目１６９番地,,14,104,2310861,,,2022-09-09,清算の結了等,,,2015-10-05,1,,,,,ダイエイショウジ,0
915,4020002097533,登記記録の閉鎖等,0,2022-09-14,2022-09-07,有限会社須山牛乳店,,有限会社,神奈川県,川崎市川崎区,藤崎２丁目１０番８号,,14,131,2100804,,,2022-09-07,清算の結了等,,,2015-10-05,1,,,,,,0
922,4021001038759,登記記録の閉鎖等,0,2022-09-14,2022-09-09,株式会社ピンポイント,,株式会社,神奈川県,中郡大磯町,大磯８４５番地２５,,14,341,2550003,,,2022-09-09,清算の結了等,,,2015-10-05,1,,,,,ピンポイント,0
930,4021003006672,登記記録の閉鎖等,0,2022-09-14,2022-09-09,ＴＳプロキュアメント合同会社,,合同会社,神奈川県,座間市,相模が丘２丁目３０番１９号エクシード相模が丘３０１号,,14,216,2520001,,,2022-09-09,清算の結了等,,,2017-05-15,1,,,,,ティーエスプロキュアメント,0
936,4030001066604,登記記録の閉鎖等,0,2022-09-14,2022-09-09,キャラアート株式会社,,株式会社,埼玉県,三郷市,中央２丁目３５番地１,,11,237,3410038,,,2022-09-09,合併による解散等,9011101070253,令和４年９月１日東京都千代田区岩本町三丁目７番１６号キャラアート株式会社（9011101070253）に合併し解散,2015-10-05,1,,,,,キャラアート,0
946,4030002095395,登記記録の閉鎖等,0,2022-09-14,2022-09-02,有限会社ホットウェーブ,,有限会社,埼玉県,鶴ヶ島市,大字富士見３４３番地５,,11,241,3502201,,,2022-09-02,清算の結了等,,,2015-10-05,1,,,,,ホットウェーブ,0
949,4040001014859,登記記録の閉鎖等,0,2022-09-14,2022-09-09,株式会社和洋建築,,株式会社,千葉県,習志野市,実籾５丁目４３番１２号,,12,216,2750002,,,2022-09-09,清算の結了等,,,2015-10-05,1,,,,,ワヨウケンチク,0
959,4050002010897,登記記録の閉鎖等,0,2022-09-14,2022-09-08,有限会社石塚測量事務所,,有限会社,茨城県,土浦市,神立東２丁目１９番１５号,,08,203,3000012,,,2022-09-08,清算の結了等,,,2015-10-05,1,,,,,イシツカソクリョウジムショ,0
963,4060002002654,登記記録の閉鎖等,0,2022-09-14,2022-09-08,有限会社カシアテ電子工業,,有限会社,栃木県,宇都宮市,針ヶ谷町４３１番地８,,09,201,3210147,,,2022-09-08,清算の結了等,,,2015-10-05,1,,,,,カシアテデンシコウギョウ,0
965,4060005002008,登記記録の閉鎖等,0,2022-09-14,2022-09-09,烏山基督の教会,,その他の設立登記法人,栃木県,那須烏山市,３３番地,,09,215,3210600,,,2022-09-09,清算の結了等,,,2015-10-05,1,,,,,カラスヤマキリストノキョウカイ,0
978,4110001010520,登記記録の閉鎖等,0,2022-09-14,2022-09-09,株式会社しんらい保険設計,,株式会社,新潟県,新潟市中央区,鳥屋野２丁目１３番２２号,,15,103,9500951,,,2022-09-09,清算の結了等,,,2015-10-05,1,,,,,シンライホケンセッケイ,0
1016,4122001028525,登記記録の閉鎖等,0,2022-09-14,2022-08-30,株式会社スーパーパワー,,株式会社,大阪府,東大阪市,菱屋西６丁目４番４１－１０２号,,27,227,5770807,,,2022-08-30,清算の結了等,,,2015-10-05,1,,,,,スーパーパワー,0
1032,4140001097002,登記記録の閉鎖等,0,2022-09-14,2022-09-08,株式会社ＰＡＰＰＡＳ　ＧＡＲＤＥＮ,,株式会社,千葉県,千葉市中央区,中央２丁目５－１千葉中央ツインビル２号館７階ＣＨＩＢＡ－ＬＡＢＯ,,12,101,2600013,,,2022-09-08,合併による解散等,9140001101460,令和４年９月１日神戸市東灘区向洋町中七丁目２番地の１－１１番館１０１号株式会社ＧＲＥＥＮ　ＣＩＴＹ（9140001101460）に合併し解散,2015-10-05,1,,,,,パパスガーデン,0
1039,4160005010132,登記記録の閉鎖等,0,2022-09-14,2022-09-12,東淡海生コン輸送協同組合,,その他の設立登記法人,滋賀県,近江八幡市,西庄町９６９番地１８,,25,204,5230816,,,2022-09-12,清算の結了等,,,2015-10-05,1,,,,,ヒガシオウミナマコンユソウ,0
1087,4290002007052,登記記録の閉鎖等,0,2022-09-14,2022-09-08,有限会社なおき鮮魚,,有限会社,福岡県,福岡市南区,長丘５丁目２０番１３号,,40,134,8150075,,,2022-09-08,清算の結了等,,,2015-10-05,1,,,,,,0
1091,4290801001180,登記記録の閉鎖等,0,2022-09-14,2022-09-12,株式会社国スペース,,株式会社,福岡県,北九州市若松区,古前１丁目７番９号,,40,103,8080062,,,2022-09-12,清算の結了等,,,2015-10-05,1,,,,,クニスペース,0
1095,4290805005921,登記記録の閉鎖等,0,2022-09-14,2022-08-23,天理教宮菅分教会,,その他の設立登記法人,福岡県,宮若市,鶴田１８９１番地の１,,40,226,8230002,,,2022-08-23,合併による解散等,6290805004442,令和４年８月２３日北九州市八幡西区東王子町１２番１号天理教若宮分教会（6290805004442）に合併し解散,2015-10-05,1,,,,,,0
1115,4370301000484,登記記録の閉鎖等,0,2022-09-14,2022-09-06,株式会社今野会計事務所,,株式会社,宮城県,石巻市,鋳銭場３番１３号,,04,202,9860826,,,2022-09-06,清算の結了等,,,2015-10-05,1,,,,,コンノカイケイジムショ,0
1128,4420002012212,登記記録の閉鎖等,0,2022-09-14,2022-09-08,有限会社荒関新聞販売店,,有限会社,青森県,北津軽郡中泊町,大字中里字亀山４９４番地,,02,387,0370305,,,2022-09-08,清算の結了等,,,2015-10-05,1,,,,,アラセキシンブンハンバイテン,0
1138,4490001009178,登記記録の閉鎖等,0,2022-09-14,2022-09-07,株式会社ダイニングエクスペリエンス,,株式会社,高知県,高知市,帯屋町１丁目１４番１５号,,39,201,7800841,,,2022-09-07,清算の結了等,,,2019-02-05,1,,,,,,0
1150,5010001128314,登記記録の閉鎖等,0,2022-09-14,2022-09-08,株式会社ＰＤＳ,,株式会社,東京都,中央区,日本橋兜町１８番５号日本橋兜町ビル２階,,13,102,1030026,,,2022-09-08,清算の結了等,,,2015-10-05,1,,,,,ピーディーエス,0
1163,5010005032388,登記記録の閉鎖等,0,2022-09-14,2022-09-08,一般社団法人オーシー研究所,,その他の設立登記法人,東京都,千代田区,五番町１番９号ＭＧ市ヶ谷ビルディング２階,,13,101,1020076,,,2022-09-08,清算の結了等,,,2020-10-09,1,,,,,オーシーケンキュウジョ,0
1166,5010401073779,登記記録の閉鎖等,0,2022-09-14,2022-08-22,株式会社サンクプランニング,,株式会社,東京都,港区,海岸２丁目７番６８号,,13,103,1050022,,,2022-08-22,清算の結了等,,,2015-10-05,1,,,,,サンクプランニング,0
1172,5010401134705,登記記録の閉鎖等,0,2022-09-14,2022-08-31,株式会社ふかする,,株式会社,東京都,港区,浜松町２丁目２番１５号浜松町ダイヤビル２Ｆ,,13,103,1050013,,,2022-08-31,清算の結了等,,,2017-10-31,1,,,,,フカスル,0
1175,5010403008989,登記記録の閉鎖等,0,2022-09-14,2022-08-29,ＪＰＡ第１号合同会社,,合同会社,東京都,港区,虎ノ門２丁目９番１１号,,13,103,1050001,,,2022-08-29,清算の結了等,,,2015-10-05,1,,,,,ジェイピーエーダイイチゴウ,0
1176,5010403009459,登記記録の閉鎖等,0,2022-09-14,2022-08-29,ＪＰＡ第６号株式会社,,株式会社,東京都,港区,虎ノ門２丁目９番１１号,,13,103,1050001,,,2022-08-29,清算の結了等,,,2015-10-05,1,,,,,ジェイピーエーダイロクゴウ,0
1218,5011801000380,登記記録の閉鎖等,0,2022-09-14,2022-09-08,株式会社イトオー,,株式会社,東京都,葛飾区,亀有２丁目６３番５号,,13,122,1250061,,,2022-09-08,清算の結了等,,,2015-10-05,1,,,,,イトオー,0
1238,5021001056454,登記記録の閉鎖等,0,2022-09-14,2022-09-06,株式会社０１ハピネス,,株式会社,神奈川県,横須賀市,ハイランド１丁目４３番３号,,14,201,2390833,,,2022-09-06,合併による解散等,2021001043075,令和４年８月３１日東京都大田区西糀谷二丁目２８番６号株式会社横浜サザンハピネス（2021001043075）に合併し解散,2015-10-05,1,,,,,ゼロワンハピネス,0
1272,5070005003499,登記記録の閉鎖等,0,2022-09-14,2022-09-09,医療法人加藤内科医院,,その他の設立登記法人,群馬県,富岡市,田島１２番地１,,10,210,3702454,,,2022-09-09,清算の結了等,,,2015-10-05,1,,,,,カトウナイカイイン,0
1275,5080002000861,登記記録の閉鎖等,0,2022-09-14,2022-09-12,エー・ディー・有限会社,,有限会社,静岡県,静岡市駿河区,有明町５番７号,,22,102,4228031,,,2022-09-12,清算の結了等,,,2015-10-05,1,,,,,エーディー,0
1303,5122001034571,登記記録の閉鎖等,0,2022-09-14,2022-09-05,万恒株式会社,,株式会社,大阪府,東大阪市,鴻池町１丁目１６番８－５０１号,,27,227,5780972,,,2022-09-05,清算の結了等,,,2021-03-09,1,,,,,バンコウ,0
1304,5122002003071,登記記録の閉鎖等,0,2022-09-14,2022-09-05,有限会社千穂,,有限会社,大阪府,東大阪市,菱屋西３丁目４番８号,,27,227,5770807,,,2022-09-05,清算の結了等,,,2015-10-05,1,,,,,チホ,0
1311,5130002001301,登記記録の閉鎖等,0,2022-09-14,2022-09-02,有限会社バシック,,有限会社,京都府,京都市右京区,花園土堂町１番地,,26,108,6168025,,,2022-09-02,清算の結了等,,,2015-10-05,1,,,,,バシック,0
1313,5140001008651,登記記録の閉鎖等,0,2022-09-14,2022-09-08,鈴木商店株式会社,,株式会社,兵庫県,神戸市中央区,江戸町１０１番地,,28,110,6500033,,,2022-09-08,清算の結了等,,,2015-10-05,1,,,,,,0
1314,5140001059050,登記記録の閉鎖等,0,2022-09-14,2022-09-09,株式会社坂本商店,,株式会社,兵庫県,姫路市,西駅前町４９番地,,28,201,6700913,,,2022-09-09,清算の結了等,,,2015-10-05,1,,,,,サカモトショウテン,0
1323,5140005008490,登記記録の閉鎖等,0,2022-09-14,2022-08-05,天理教牧山分教会,,その他の設立登記法人,兵庫県,丹波市,山南町山本字下林３４、３５番地の１,,28,223,6693163,,,2022-08-05,合併による解散等,7140005008489,令和４年８月５日兵庫県丹波市山南町和田２８７番地天理教和楽分教会（7140005008489）に合併し解散,2015-10-05,1,,,,,,0
1335,5180301033651,登記記録の閉鎖等,0,2022-09-14,2022-09-06,株式会社花,,株式会社,愛知県,豊橋市,松葉町１丁目７０番地Ｔ－１ビル４階東側,,23,201,4400897,,,2022-09-06,清算の結了等,,,2020-04-21,1,,,,,ハナ,0
1339,5190001015024,登記記録の閉鎖等,0,2022-09-14,2022-09-09,株式会社サナダヤ,,株式会社,三重県,四日市市,小杉新町１３４番地,,24,202,5120903,,,2022-09-09,清算の結了等,,,2015-10-05,1,,,,,サナダヤ,0
1346,5250003001255,登記記録の閉鎖等,0,2022-09-14,2022-09-02,合同会社ライジングパワー,,合同会社,山口県,下関市,羽山町２２番２３号,,35,201,7500046,,,2022-09-02,清算の結了等,,,2015-10-05,1,,,,,ライジングパワー,0
1351,5260005002779,登記記録の閉鎖等,0,2022-09-14,2022-08-23,天理教鳥致院分教会,,その他の設立登記法人,岡山県,岡山市南区,西高崎４５番地９,,33,104,7091204,,,2022-08-23,合併による解散等,8260005006843,令和４年８月２３日岡山県津山市横山２９２番地４天理教新龍山分教会（8260005006843）に合併し解散,2015-10-05,1,,,,,テンリキョウチョウチインブンキョウカイ,0
1356,5290002007209,登記記録の閉鎖等,0,2022-09-14,2022-09-08,福大前ホーム有限会社,,有限会社,福岡県,福岡市城南区,片江５丁目１０番８号,,40,136,8140142,,,2022-09-08,清算の結了等,,,2015-10-05,1,,,,,フクダイマエホーム,0
1361,5310001009104,登記記録の閉鎖等,0,2022-09-14,2022-09-08,株式会社ＦＵＭ長崎,,株式会社,長崎県,雲仙市,吾妻町永中名６９番地第３,,42,213,8591115,,,2022-09-08,清算の結了等,,,2015-10-05,1,,,,,ファムナガサキ,0
1363,5310001009665,登記記録の閉鎖等,0,2022-09-14,2022-09-13,株式会社太洋,,株式会社,長崎県,島原市,大手原町甲２１３０番地５０,,42,203,8550012,,,2022-09-13,清算の結了等,,,2015-10-05,1,,,,,,0
1365,5320001006190,登記記録の閉鎖等,0,2022-09-14,2022-09-09,株式会社市川,,株式会社,大分県,別府市,石垣東７丁目１番４号,,44,202,8740919,,,2022-09-09,清算の結了等,,,2015-10-05,1,,,,,,0
1389,5430002054236,登記記録の閉鎖等,0,2022-09-14,2022-09-05,有限会社共栄パツク,,有限会社,北海道,小樽市,桜４丁目５番１５号,,01,203,0470156,,,2022-09-05,清算の結了等,,,2015-10-05,1,,,,,キョウエイパツク,0
1391,5460001003901,登記記録の閉鎖等,0,2022-09-14,2022-09-13,株式会社道東マリーン商会,,株式会社,北海道,厚岸郡厚岸町,奔渡６丁目２８３番地,,01,662,0881111,,,2022-09-13,清算の結了等,,,2015-10-05,1,,,,,ドウトウマリーンショウカイ,0
1397,5490001009136,登記記録の閉鎖等,0,2022-09-14,2022-09-09,株式会社タナカ,,株式会社,高知県,高知市,鷹匠町１丁目１番８号,,39,201,7800862,,,2022-09-09,清算の結了等,,,2018-12-03,1,,,,,タナカ,0
1406,6010001097384,登記記録の閉鎖等,0,2022-09-14,2022-09-06,株式会社楠和研究所,,株式会社,東京都,中央区,日本橋室町４丁目２番１６号,,13,102,1030022,,,2022-09-06,清算の結了等,,,2015-10-05,1,,,,,ナンワケンキュウジョ,0
1430,6010005024954,登記記録の閉鎖等,0,2022-09-14,2022-09-09,ＬＤ１一般社団法人,,その他の設立登記法人,東京都,千代田区,霞が関３丁目２番５号,,13,101,1000013,,,2022-09-09,清算の結了等,,,2016-02-12,1,,,,,エルディーワン,0
1432,6010401051263,登記記録の閉鎖等,0,2022-09-14,2022-09-08,株式会社芝大門・元禄堂,,株式会社,新潟県,長岡市,宮原３丁目５番２１号,,15,202,9400083,,,2022-09-08,清算の結了等,,,2015-10-05,1,,,,,シバダイモンゲンロクドウ,0
1443,6010401150957,登記記録の閉鎖等,0,2022-09-14,2022-09-09,株式会社ＡＬＰＨＡＢＥＴ　ＨＯＬＤＩＮＧＳ　ＴＯＫＹＯ,,株式会社,東京都,港区,港南２丁目１６番１号品川イーストワンタワー４階,,13,103,1080075,,,2022-09-09,合併による解散等,7300001011190,令和４年９月１日佐賀県武雄市武雄町大字富岡８４８３番地５株式会社ＡＬＰＨＡＢＥＴ　ＨＯＬＤＩＮＧＳ（7300001011190）に合併し解散,2020-02-13,1,,,,,アルファベットホールディングストウキョウ,0
1447,6010403009458,登記記録の閉鎖等,0,2022-09-14,2022-08-29,ＪＰＡ第５号合同会社,,合同会社,東京都,港区,虎ノ門２丁目９番１１号,,13,103,1050001,,,2022-08-29,清算の結了等,,,2015-10-05,1,,,,,ジェイピーエーダイゴゴウ,0
1455,6010602004771,登記記録の閉鎖等,0,2022-09-14,2022-09-06,有限会社新栄包装,,有限会社,東京都,江東区,清澄３丁目１０番４号,,13,108,1350024,,,2022-09-06,清算の結了等,,,2015-10-05,1,,,,,シンエイホウソウ,0
1463,6010901007418,登記記録の閉鎖等,0,2022-09-14,2022-09-07,千曲産業株式会社,,株式会社,東京都,世田谷区,瀬田４丁目１７番７号,,13,112,1580095,,,2022-09-07,清算の結了等,,,2015-10-05,1,,,,,チクマサンギョウ,0
1507,6011802015906,登記記録の閉鎖等,0,2022-09-14,2022-09-09,有限会社デー．イー．ケイ．飯塚製作所,,有限会社,東京都,足立区,皿沼３丁目９番３号,,13,121,1230862,,,2022-09-09,清算の結了等,,,2015-10-05,1,,,,,デーイーケイイイヅカセイサクショ,0
1508,6011803001302,登記記録の閉鎖等,0,2022-09-14,2022-09-09,合同会社ＡＹＭ,,合同会社,東京都,足立区,竹の塚３丁目２番１８号,,13,121,1210813,,,2022-09-09,清算の結了等,,,2015-10-05,1,,,,,エーワイエム,0
1525,6021002001755,登記記録の閉鎖等,0,2022-09-14,2022-09-09,有限会社交成設備工業,,有限会社,神奈川県,藤沢市,湘南台３丁目２７番地の１,,14,205,2520804,,,2022-09-09,清算の結了等,,,2015-10-05,1,,,,,コウセイセツビコウギョウ,0
1527,6021002059777,登記記録の閉鎖等,0,2022-09-14,2022-09-06,株式会社エムワイ,,株式会社,東京都,中央区,日本橋人形町１丁目９番２号,,13,102,1030013,,,2022-09-06,清算の結了等,,,2015-10-05,1,,,,,エムワイ,0
1531,6030001128815,登記記録の閉鎖等,0,2022-09-14,2022-09-09,株式会社シーアールエス,,株式会社,栃木県,栃木市,箱森町５－１９森戸貸家Ｅ棟,,09,203,3280075,,,2022-09-09,清算の結了等,,,2018-12-21,1,,,,,シーアールエス,0
1544,6040002102479,登記記録の閉鎖等,0,2022-09-14,2022-09-09,有限会社神定電機商会,,有限会社,千葉県,夷隅郡御宿町,須賀５２５番地,,12,443,2995106,,,2022-09-09,清算の結了等,,,2015-10-05,1,,,,,カンジョウデンキショウカイ,0
1553,6080001011818,登記記録の閉鎖等,0,2022-09-14,2022-09-12,ナイルインターナショナル株式会社,,株式会社,静岡県,静岡市駿河区,西島７９１番地,,22,102,4228045,,,2022-09-12,清算の結了等,,,2015-10-05,1,,,,,,0
1564,6090002013267,登記記録の閉鎖等,0,2022-09-14,2022-09-09,有限会社とまり樹,,有限会社,山梨県,富士吉田市,上暮地１丁目１８番３４号,,19,202,4030001,,,2022-09-09,清算の結了等,,,2015-10-05,1,,,,,,0
1569,6100002032042,登記記録の閉鎖等,0,2022-09-14,2022-09-09,有限会社米久肉店,,有限会社,長野県,岡谷市,東銀座２丁目４番３２号,,20,204,3940023,,,2022-09-09,清算の結了等,,,2015-10-05,1,,,,,ヨネキュウニクテン,0
1633,6200002022149,登記記録の閉鎖等,0,2022-09-14,2022-09-12,有限会社マルコ小木曽商店,,有限会社,岐阜県,瑞浪市,陶町水上８３１番地の２,,21,208,5096362,,,2022-09-12,清算の結了等,,,2015-10-05,1,,,,,マルココギソショウテン,0
1640,6240002030610,登記記録の閉鎖等,0,2022-09-14,2022-09-06,有限会社高木製麺所,00001080,有限会社,広島県,三次市,吉舎町吉舎１０８番地の１,,34,209,7294211,,,2022-09-06,清算の結了等,,,2015-10-05,1,,,,,,0
1661,6300002006934,登記記録の閉鎖等,0,2022-09-14,2022-09-06,有限会社横田産業,,有限会社,佐賀県,鹿島市,大字高津原２８６番地１,,41,207,8491311,,,2022-09-06,清算の結了等,,,2015-10-05,1,,,,,ヨコタサンギョウ,0
1686,6390003000795,登記記録の閉鎖等,0,2022-09-14,2022-09-08,合名会社米沢市斎場公社,,合名会社,山形県,米沢市,桜木町２番６３号,,06,202,9920017,,,2022-09-08,清算の結了等,,,2015-10-05,1,,,,,ヨネザワシサイジョウコウシャ,0
1694,6450001013181,登記記録の閉鎖等,0,2022-09-14,2022-09-09,思い出の森株式会社,,株式会社,北海道,旭川市,江丹別町共和４６番地の１,,01,204,0708053,,,2022-09-09,清算の結了等,,,2020-12-24,1,,,,,オモイデノモリ,0
1721,7010005024441,登記記録の閉鎖等,0,2022-09-14,2022-09-09,西新宿タワープロジェクト特定目的会社,,その他の設立登記法人,東京都,千代田区,飯田橋４丁目７番１号結和税理士法人内,,13,101,1020072,,,2022-09-09,清算の結了等,,,2015-10-05,1,,,,,,0
1722,7010005033236,登記記録の閉鎖等,0,2022-09-14,2022-09-08,一般社団法人給与デジタルマネー払いに伴うＤＸ推進機構,,その他の設立登記法人,東京都,千代田区,永田町２丁目１４番３号東急不動産赤坂ビル１２階,,13,101,1000014,,,2022-09-08,清算の結了等,,,2021-04-19,1,,,,,キュウヨデジタルマネーバライニトモナウディーエックススイシンキコウ,0
1727,7010403009242,登記記録の閉鎖等,0,2022-09-14,2022-08-29,ＪＰＡ第２号合同会社,,合同会社,東京都,港区,虎ノ門２丁目９番１１号,,13,103,1050001,,,2022-08-29,清算の結了等,,,2015-10-05,1,,,,,ジェイピーエーダイニゴウ,0
1728,7010403009457,登記記録の閉鎖等,0,2022-09-14,2022-08-29,ＪＰＡ第４号合同会社,,合同会社,東京都,港区,虎ノ門２丁目９番１１号,,13,103,1050001,,,2022-08-29,清算の結了等,,,2015-10-05,1,,,,,ジェイピーエーダイヨンゴウ,0
1761,7011103011579,登記記録の閉鎖等,0,2022-09-14,2022-09-09,合同会社ＤｏＣｏｓｍｅ,,合同会社,東京都,新宿区,中落合１丁目１７番地９号２階,,13,104,1610032,,,2022-09-09,清算の結了等,,,2022-03-25,1,,,,,ドゥコスメ,0
1773,7012402000355,登記記録の閉鎖等,0,2022-09-14,2022-09-12,有限会社岩田商事,,有限会社,東京都,府中市,天神町２丁目１番地の３３,,13,206,1830053,,,2022-09-12,清算の結了等,,,2015-10-05,1,,,,,イワタショウジ,0
1779,7013302019304,登記記録の閉鎖等,0,2022-09-14,2022-09-09,有限会社田村工業所,,有限会社,東京都,板橋区,小豆沢４丁目１４番９－２１２号,,13,119,1740051,,,2022-09-09,清算の結了等,,,2015-10-05,1,,,,,タムラコウギョウショ,0
1780,7020001005551,登記記録の閉鎖等,0,2022-09-14,2022-09-12,株式会社ファミリーハウス,,株式会社,神奈川県,横浜市旭区,笹野台１丁目２８番１３号,,14,112,2410816,,,2022-09-12,清算の結了等,,,2015-10-05,1,,,,,ファミリーハウス,0
1798,7030001139654,登記記録の閉鎖等,0,2022-09-14,2022-09-01,株式会社シュービ,,株式会社,埼玉県,越谷市,大字平方２３２４番地１,,11,222,3430002,,,2022-09-01,清算の結了等,,,2020-12-15,1,,,,,シュービ,0
1802,7030002090294,登記記録の閉鎖等,0,2022-09-14,2022-09-01,有限会社高橋製作所,,有限会社,埼玉県,吉川市,中野３４５番地６,,11,243,3420042,,,2022-09-01,清算の結了等,,,2015-10-05,1,,,,,タカハシセイサクショ,0
1811,7040003015209,登記記録の閉鎖等,0,2022-09-14,2022-09-09,Ｋ＆Ｍインターナショナル合同会社,,合同会社,千葉県,市川市,市川１丁目１８番３－６０２号,,12,203,2720034,,,2022-09-09,清算の結了等,,,2020-04-17,1,,,,,ケイアンドエムインターナショナル,0
1820,7070001013319,登記記録の閉鎖等,0,2022-09-14,2022-09-06,光洋株式会社,,株式会社,群馬県,伊勢崎市,寿町１６４番地６,,10,204,3720052,,,2022-09-06,清算の結了等,,,2015-10-05,1,,,,,コウヨウ,0
1831,7100002022991,登記記録の閉鎖等,0,2022-09-14,2022-09-09,有限会社エスアールアイ,,有限会社,長野県,松本市,横田１丁目２番１２号,,20,202,3900804,,,2022-09-09,清算の結了等,,,2015-10-05,1,,,,,エスアールアイ,0
1879,7160002013952,登記記録の閉鎖等,0,2022-09-14,2022-09-12,有限会社シオタニ,,有限会社,滋賀県,守山市,杉江町６１１番地,,25,207,5240062,,,2022-09-12,清算の結了等,,,2015-10-05,1,,,,,シオタニ,0
1881,7170002006600,登記記録の閉鎖等,0,2022-09-14,2022-09-13,有限会社まるこ薬品,,有限会社,和歌山県,海南市,大野中５０３番地４,,30,202,6420022,,,2022-09-13,清算の結了等,,,2015-10-05,1,,,,,マルコヤクヒン,0
1905,7230001010761,登記記録の閉鎖等,0,2022-09-14,2022-09-08,株式会社福壽堂,,株式会社,富山県,高岡市,手洗野１５９７番地,,16,202,9330967,,,2022-09-08,清算の結了等,,,2015-10-05,1,,,,,フクジュドウ,0
1906,7230001017906,登記記録の閉鎖等,0,2022-09-14,2022-09-08,ＴＲＵＳＴ　ｃｏｍｐａｎｙ株式会社,,株式会社,富山県,富山市,八日町五番地,,16,201,9398221,,,2022-09-08,清算の結了等,,,2019-06-19,1,,,,,トラストカンパニー,0
1912,7260001023975,登記記録の閉鎖等,0,2022-09-14,2022-09-12,株式会社翔輝建設,,株式会社,岡山県,岡山市東区,城東台東２丁目７番３号,,33,103,7090622,,,2022-09-12,清算の結了等,,,2015-10-05,1,,,,,ショウキケンセツ,0
1927,7310002005323,登記記録の閉鎖等,0,2022-09-14,2022-09-12,有限会社丸重ビル興産,,有限会社,長崎県,長崎市,伊良林１丁目２番２６号,,42,201,8500802,,,2022-09-12,清算の結了等,,,2015-10-05,1,,,,,マルシゲビルコウサン,0
1938,7360001018065,登記記録の閉鎖等,0,2022-09-14,2022-09-05,株式会社ネクストリノベーション,,株式会社,沖縄県,豊見城市,字高安５６７番地１,,47,212,9010242,,,2022-09-05,清算の結了等,,,2015-10-05,1,,,,,ネクストリノベーション,0
1977,8010102000971,登記記録の閉鎖等,0,2022-09-14,2022-09-09,内電子有限会社,,有限会社,東京都,八王子市,弐分方町５２８番地の１０,,13,201,1930822,,,2022-09-09,清算の結了等,,,2015-10-05,1,,,,,ウチデンシ,0
1984,8010403009407,登記記録の閉鎖等,0,2022-09-14,2022-08-29,ＪＰＡ第３号合同会社,,合同会社,東京都,港区,虎ノ門２丁目９番１１号,,13,103,1050001,,,2022-08-29,清算の結了等,,,2015-10-05,1,,,,,ジェイピーエーダイサンゴウ,0
1998,8010802012069,登記記録の閉鎖等,0,2022-09-14,2022-09-07,有限会社日吉製作所,,有限会社,東京都,大田区,北糀谷１丁目１番６号,,13,111,1440032,,,2022-09-07,清算の結了等,,,2015-10-05,1,,,,,,0
1999,8010901030657,登記記録の閉鎖等,0,2022-09-14,2022-08-29,ＪＰＡ第９号株式会社,,株式会社,東京都,港区,虎ノ門２丁目９番１１号,,13,103,1050001,,,2022-08-29,清算の結了等,,,2015-10-05,1,,,,,ジェイピーエーダイキュウゴウ,0
2010,8011001142426,登記記録の閉鎖等,0,2022-09-14,2022-08-31,株式会社Ｗｅ　Ｃｒｅａｔｅ,,株式会社,東京都,渋谷区,神宮前６丁目２３番４号桑野ビル２階,,13,113,1500001,,,2022-08-31,清算の結了等,,,2021-08-26,1,,,,,ウィークリエイト,0
2020,8011102025471,登記記録の閉鎖等,0,2022-09-14,2022-09-09,有限会社ももくり柿の木社,,有限会社,東京都,新宿区,北町２２番地,,13,104,1620834,,,2022-09-09,清算の結了等,,,2015-10-05,1,,,,,モモクリカキノキシャ,0
2024,8011402007475,登記記録の閉鎖等,0,2022-09-14,2022-09-12,有限会社日之出商会,,有限会社,東京都,板橋区,舟渡３丁目５番８号,,13,119,1740041,,,2022-09-12,清算の結了等,,,2015-10-05,1,,,,,ヒノデショウカイ,0
2030,8011801009097,登記記録の閉鎖等,0,2022-09-14,2022-09-08,株式会社千住マツダ,,株式会社,東京都,足立区,千住中居町１１番１４号,,13,121,1200035,,,2022-09-08,清算の結了等,,,2015-10-05,1,,,,,センジュマツダ,0
2041,8013201017696,登記記録の閉鎖等,0,2022-09-14,2022-09-09,株式会社テクノード,,株式会社,東京都,品川区,南品川４丁目４番１７号品川サウスタワー,,13,109,1400004,,,2022-09-09,清算の結了等,,,2015-10-05,1,,,,,テクノード,0
2044,8013301044673,登記記録の閉鎖等,0,2022-09-14,2022-09-07,法人カード比較コンシェル株式会社,,株式会社,東京都,豊島区,南大塚２丁目７番２号,,13,116,1700005,,,2022-09-07,清算の結了等,,,2019-10-29,1,,,,,ホウジンカードヒカクコンシェル,0
2054,8021002071532,登記記録の閉鎖等,0,2022-09-14,2022-09-09,有限会社新栄工業,,有限会社,神奈川県,三浦市,南下浦町上宮田３０１７番３７,,14,210,2380101,,,2022-09-09,清算の結了等,,,2015-10-05,1,,,,,シンエイコウギョウ,0
2067,8040002067423,登記記録の閉鎖等,0,2022-09-14,2022-09-07,有限会社ナカショー,,有限会社,千葉県,袖ケ浦市,奈良輪２５３２番地４,,12,229,2990263,,,2022-09-07,清算の結了等,,,2015-10-05,1,,,,,ナカショー,0
2068,8050001001299,登記記録の閉鎖等,0,2022-09-14,2022-09-08,株式会社常美堂,,株式会社,茨城県,水戸市,石川４丁目３８９０番地６,,08,201,3100905,,,2022-09-08,清算の結了等,,,2015-10-05,1,,,,,ジョウビドウ,0
2080,8080402009129,登記記録の閉鎖等,0,2022-09-14,2022-09-12,有限会社アキュレット,,有限会社,静岡県,湖西市,吉美３２５７番地,,22,221,4310441,,,2022-09-12,清算の結了等,,,2015-10-05,1,,,,,アキュレット,0
2081,8080402017701,登記記録の閉鎖等,0,2022-09-14,2022-09-12,有限会社丸徳織物,,有限会社,静岡県,掛川市,長谷５５番地,,22,213,4360047,,,2022-09-12,清算の結了等,,,2015-10-05,1,,,,,マルトクオリモノ,0
2084,8110002006010,登記記録の閉鎖等,0,2022-09-14,2022-09-08,本田左官有限会社,,有限会社,新潟県,新潟市北区,新崎３丁目８番３０号,,15,101,9503134,,,2022-09-08,清算の結了等,,,2015-10-05,1,,,,,ホンダサカン,0
2093,8120001217788,登記記録の閉鎖等,0,2022-09-14,2022-09-09,株式会社ＡＢＣ,,株式会社,東京都,板橋区,板橋２丁目３６番２号,,13,119,1730004,,,2022-09-09,清算の結了等,,,2018-12-14,1,,,,,エービーシー,0
2117,8122001022664,登記記録の閉鎖等,0,2022-09-14,2022-09-01,新栄産業株式会社,,株式会社,大阪府,八尾市,志紀町１丁目１１８番地,,27,212,5810031,,,2022-09-01,合併による解散等,1122001018405,令和４年９月１日大阪府八尾市志紀町一丁目１１８番地国際開発株式会社（1122001018405）に合併し解散,2015-10-05,1,,,,,シンエイサンギョウ,0
2124,8130001017031,登記記録の閉鎖等,0,2022-09-14,2022-09-07,株式会社京乃雪本舗,,株式会社,京都府,京都市下京区,若宮通花屋町下る四本松町５８５番地,,26,106,6008316,,,2022-09-07,清算の結了等,,,2015-10-05,1,,,,,キョウノユキホンポ,0
2139,8140002030164,登記記録の閉鎖等,0,2022-09-14,2022-09-08,有限会社ディーオーユー,,有限会社,兵庫県,明石市,桜町６番２２号,,28,203,6730885,,,2022-09-08,清算の結了等,,,2015-10-05,1,,,,,ディーオーユー,0
2148,8160002012598,登記記録の閉鎖等,0,2022-09-14,2022-09-08,有限会社エブリ,,有限会社,滋賀県,栗東市,小野５００番地１,,25,208,5203016,,,2022-09-08,清算の結了等,,,2015-10-05,1,,,,,エブリ,0
2158,8180002088091,登記記録の閉鎖等,0,2022-09-14,2022-09-12,八幡工業有限会社,,有限会社,愛知県,東海市,加木屋町冬至池４番地の２７,,23,222,4770032,,,2022-09-12,清算の結了等,,,2015-10-05,1,,,,,ヤハタコウギョウ,0
2181,8210005001444,登記記録の閉鎖等,0,2022-09-14,2022-09-09,明照寺,,その他の設立登記法人,福井県,福井市,安波賀町１４号１番地,,18,201,9102152,,,2022-09-09,清算の結了等,,,2015-10-05,1,,,,,ミョウショウジ,0
2184,8220001015793,登記記録の閉鎖等,0,2022-09-14,2022-09-08,ＫＡＷＡＩ地研株式会社,,株式会社,石川県,七尾市,つつじが浜１番地７,,17,202,9260851,,,2022-09-08,清算の結了等,,,2015-10-05,1,,,,,カワイチケン,0
2186,8240001022680,登記記録の閉鎖等,0,2022-09-14,2022-09-07,大成電業株式会社,,株式会社,広島県,東広島市,西条町寺家８３８番地,,34,212,7390041,,,2022-09-07,清算の結了等,,,2015-10-05,1,,,,,タイセイデンギョウ,0
2226,8410001005800,登記記録の閉鎖等,0,2022-09-14,2022-09-12,株式会社アース・パートナー,,株式会社,秋田県,湯沢市,字大島町６番地１,,05,207,0120000,,,2022-09-12,清算の結了等,,,2015-10-05,1,,,,,アースパートナー,0
2246,9010001188783,登記記録の閉鎖等,0,2022-09-14,2022-09-06,株式会社ｇｅｎｃｅ,,株式会社,東京都,千代田区,九段南１丁目５番６号りそな九段ビル５階ＫＳフロア,,13,101,1020074,,,2022-09-06,清算の結了等,,,2018-01-11,1,,,,,ゲンス,0
2250,9010003020853,登記記録の閉鎖等,0,2022-09-14,2022-09-09,スーサ・グローバルジャパン株式会社,,株式会社,東京都,新宿区,高田馬場１丁目３１番８－１００１号,,13,104,1690075,,,2022-09-09,清算の結了等,,,2015-10-05,1,,,,,スーサグローバルジャパン,0
2280,9011101031833,登記記録の閉鎖等,0,2022-09-14,2022-09-12,株式会社東洋資材産業,,株式会社,東京都,新宿区,市谷左内町３２番地市ヶ谷台グランドマンション２Ｂ,,13,104,1620846,,,2022-09-12,清算の結了等,,,2015-10-05,1,,,,,トウヨウシザイサンギョウ,0
2289,9011501013654,登記記録の閉鎖等,0,2022-09-14,2022-08-29,株式会社朋伸,00015749,株式会社,埼玉県,川口市,東領家５丁目１４番８号,,11,203,3320003,,,2022-08-29,清算の結了等,,,2015-10-05,1,,,,,ホウシン,0
2294,9011801039317,登記記録の閉鎖等,0,2022-09-14,2022-09-08,和盛商事株式会社,,株式会社,東京都,葛飾区,亀有５丁目３４番１４永和ビル２０１号,,13,122,1250061,,,2022-09-08,清算の結了等,,,2021-06-14,1,,,,,ワジョウショウジ,0
2301,9013301012984,登記記録の閉鎖等,0,2022-09-14,2022-09-08,株式会社山田設計コンサルタンツ,,株式会社,東京都,豊島区,東池袋１丁目２８番１号グローリア初穂池袋９０２号,,13,116,1700013,,,2022-09-08,清算の結了等,,,2015-10-05,1,,,,,ヤマダセッケイコンサルタンツ,0
2302,9013301044672,登記記録の閉鎖等,0,2022-09-14,2022-09-07,資金調達ＢＡＮＫ株式会社,,株式会社,東京都,豊島区,南大塚２丁目７番２号,,13,116,1700005,,,2022-09-07,清算の結了等,,,2019-10-29,1,,,,,シキンチョウタツバンク,0
2316,9020002052038,登記記録の閉鎖等,0,2022-09-14,2022-09-08,有限会社ウインド,,有限会社,神奈川県,横浜市都筑区,中川１丁目１９番２６号中川イサワビル３０３,,14,118,2240001,,,2022-09-08,清算の結了等,,,2015-10-05,1,,,,,ウインド,0
2324,9021002048752,登記記録の閉鎖等,0,2022-09-14,2022-09-09,有限会社秋葉ファ一マシー,,有限会社,神奈川県,大和市,下鶴間２７７７番地５－６,,14,213,2420001,,,2022-09-09,清算の結了等,,,2015-10-05,1,,,,,アキハファーマシー,0
2325,9021005001262,登記記録の閉鎖等,0,2022-09-14,2022-09-09,特定非営利活動法人かながわ健康づくりセンター,,その他の設立登記法人,神奈川県,藤沢市,宮前３７０番地の１,,14,205,2510014,,,2022-09-09,清算の結了等,,,2015-10-05,1,,,,,カナガワケンコウヅクリセンター,0
2330,9030001072300,登記記録の閉鎖等,0,2022-09-14,2022-09-02,株式会社レアール,,株式会社,埼玉県,東松山市,大字石橋２０１７番地４,,11,212,3550072,,,2022-09-02,清算の結了等,,,2015-10-05,1,,,,,,0
2331,9030001079683,登記記録の閉鎖等,0,2022-09-14,2022-08-31,株式会社共栄建装,,株式会社,埼玉県,川口市,芝東町１３番１０号,,11,203,3330867,,,2022-08-31,清算の結了等,,,2015-10-05,1,,,,,キョウエイケンソウ,0
2337,9030002017601,登記記録の閉鎖等,0,2022-09-14,2022-09-02,有限会社クラスター・リンク,,有限会社,埼玉県,さいたま市浦和区,瀬ヶ崎２丁目８番１号,,11,107,3300044,,,2022-09-02,清算の結了等,,,2015-10-05,1,,,,,クラスターリンク,0
2340,9030002087529,登記記録の閉鎖等,0,2022-09-14,2022-09-02,有限会社八像,,有限会社,埼玉県,越谷市,蒲生寿町１２番２０号,,11,222,3430836,,,2022-09-02,清算の結了等,,,2015-10-05,1,,,,,,0
2344,9040001085409,登記記録の閉鎖等,0,2022-09-14,2022-09-02,株式会社ハウスコネクト,,株式会社,千葉県,習志野市,谷津７丁目７番５１号Ｂ－１０２,,12,216,2750026,,,2022-09-02,合併による解散等,2040001017574,令和４年９月１日千葉県船橋市薬円台六丁目６番１９号株式会社秀榮（2040001017574）に合併し解散,2015-10-05,1,,,,,ハウスコネクト,0
2353,9050001023193,登記記録の閉鎖等,0,2022-09-14,2022-09-07,株式会社三和物産市民小売市場,,株式会社,茨城県,神栖市,柳川２０９２番地の１,,08,232,3140252,,,2022-09-07,清算の結了等,,,2015-10-05,1,,,,,サンワブッサンシミンコウリイチバ,0
2358,9060002017607,登記記録の閉鎖等,0,2022-09-14,2022-09-08,有限会社平成商事,,有限会社,栃木県,真岡市,田町２２０５番地,,09,209,3214325,,,2022-09-08,清算の結了等,,,2015-10-05,1,,,,,ヘイセイショウジ,0
2365,9110002034332,登記記録の閉鎖等,0,2022-09-14,2022-09-08,有限会社笠井木材店,,有限会社,新潟県,佐渡市,千種１１５６番地１,,15,224,9521209,,,2022-09-08,清算の結了等,,,2015-10-05,1,,,,,カサイモクザイテン,0
2413,9170001013810,登記記録の閉鎖等,0,2022-09-14,2022-09-12,株式会社リッチ＆フォース,,株式会社,和歌山県,和歌山市,北島２００番地,,30,201,6408403,,,2022-09-12,清算の結了等,,,2015-10-05,1,,,,,リッチアンドフォース,0
2470,9340002004948,登記記録の閉鎖等,0,2022-09-14,2022-09-12,有限会社商建社,,有限会社,鹿児島県,霧島市,横川町上ノ４８２９番地６,,46,218,8996301,,,2022-09-12,清算の結了等,,,2015-10-05,1,,,,,ショウケンシャ,0
