sequenceNumber,corporateNumber,process,correct,updateDate,changeDate,name,nameImageId,kind,prefectureName,cityName,streetNumber,addressImageId,prefectureCode,cityCode,postCode,addressOutside,addressOutsideImageId,closeDate,closeCause,successorCorporateNumber,changeCause,assignmentDate,latest,enName,enPrefectureName,enCityName,enAddressOutside,furigana,hihyoji
1,1000020209058,登記記録の閉鎖等,0,2024-04-12,2024-03-31,佐久市・軽井沢町清掃施設組合,,地方公共団体,長野県,佐久市,中込２８８０,,20,217,3850051,,,2024-03-31,その他の清算の結了等,,,2015-10-05,1,,,,,サクシカルイザワマチセイソウシセツクミアイ,0
5,1010001204424,登記記録の閉鎖等,0,2024-04-12,2024-04-01,ＳＩホールディングス株式会社,,株式会社,東京都,中央区,日本橋室町１丁目２番６号,,13,102,1030022,,,2024-04-01,合併による解散等,6010001110741,令和６年４月１日東京都中央区日本橋室町一丁目２番６号株式会社やまねメディカル（6010001110741）に合併し解散,2019-10-09,1,,,,,エスアイホールディングス,0
15,1010401040717,登記記録の閉鎖等,0,2024-04-12,2024-04-10,サン・トックス株式会社,,株式会社,東京都,台東区,上野１丁目１番１０号,,13,106,1100005,,,2024-04-10,合併による解散等,2010001034829,令和６年４月１日東京都千代田区神田美土代町７アールエム東セロ株式会社（2010001034829）に合併し解散,2015-10-05,1,,,,,サントックス,0
17,1010401054386,登記記録の閉鎖等,0,2024-04-12,2024-04-01,株式会社ベイトレイルジャパン,,株式会社,千葉県,我孫子市,並木５丁目５番２０号,,12,222,2701165,,,2024-04-01,清算の結了等,,,2015-10-05,1,"BAY TRAIL JAPAN CO., LTD.",Chiba,"5-5-20 Namiki, Abiko shi",,ベイトレイルジャパン,0
24,1010501046267,登記記録の閉鎖等,0,2024-04-12,2024-04-01,株式会社花重本店,,株式会社,東京都,台東区,谷中７丁目５番２７号,,13,106,1100001,,,2024-04-01,合併による解散等,2010501022399,令和６年４月１日東京都台東区谷中七丁目５番２７号株式会社エスエーエー（2010501022399）に合併し解散,2020-09-28,1,,,,,ハナジュウホンテン,0
42,1011001073470,登記記録の閉鎖等,0,2024-04-12,2024-04-01,株式会社エブリィ・エンタテインメント,,株式会社,東京都,港区,三田２丁目１０番４号,,13,103,1080073,,,2024-04-01,合併による解散等,3030001076125,令和６年４月１日東京都港区三田二丁目１０番４号株式会社テイパーズ（3030001076125）に合併し解散,2015-10-05,1,,,,,エブリィエンタテインメント,0
44,1011001132128,登記記録の閉鎖等,0,2024-04-12,2024-04-05,株式会社ジェクトコンサルティング,,株式会社,東京都,渋谷区,渋谷２丁目１２番１９号東建インターナショナルビル本館１Ｆ,,13,113,1500002,,,2024-04-05,合併による解散等,4011001059442,令和６年４月１日東京都渋谷区渋谷二丁目１２番１９号東建インターナショナルビル本館１Ｆ株式会社ジェクトワン（4011001059442）に合併し解散,2020-01-31,1,,,,,ジェクトコンサルティング,0
124,1030002043415,登記記録の閉鎖等,0,2024-04-12,2024-04-09,有限会社エイ・ケイ・ティー,,有限会社,埼玉県,草加市,青柳７丁目６３番２３号,,11,221,3400002,,,2024-04-09,合併による解散等,5011401007108,令和６年４月１日東京都板橋区成増三丁目２番１５号日本運輸荷造株式会社（5011401007108）に合併し解散,2015-10-05,1,,,,,エイケイティー,0
134,1040001008673,登記記録の閉鎖等,0,2024-04-12,2024-04-08,株式会社コンフォート,,株式会社,千葉県,千葉市中央区,浜野町１０２５番地５９,,12,101,2600824,,,2024-04-08,合併による解散等,2220001007219,令和６年４月１日石川県金沢市藤江南二丁目４１番地株式会社山崎屋（2220001007219）に合併し解散,2015-10-05,1,,,,,コンフォート,0
135,1040001029785,登記記録の閉鎖等,0,2024-04-12,2024-04-01,株式会社デザインファクトリー,,株式会社,千葉県,浦安市,美浜１丁目８番１号,,12,227,2790011,,,2024-04-01,合併による解散等,4040001029931,令和６年４月１日千葉県浦安市美浜一丁目８番１号株式会社オリエンタルランド・クリエイションズ（4040001029931）に合併し解散,2015-10-05,1,,,,,デザインファクトリー,0
155,1060001015065,登記記録の閉鎖等,0,2024-04-12,2024-04-08,株式会社高山春吉商店,00024070,株式会社,栃木県,下野市,石橋３２２番地,,09,216,3290511,,,2024-04-08,合併による解散等,9030001003544,令和６年４月１日埼玉県さいたま市大宮区桜木町一丁目１１番地５株式会社サイサン（9030001003544）に合併し解散,2015-10-05,1,,,,,タカヤマハルキチショウテン,0
159,1070002002053,登記記録の閉鎖等,0,2024-04-12,2024-04-09,有限会社倖和設備,,有限会社,群馬県,前橋市,天川大島町１丁目４番地の１３,,10,201,3792154,,,2024-04-09,清算の結了等,,,2015-10-05,1,,,,,コウワセツビ,0
169,1110003002725,登記記録の閉鎖等,0,2024-04-12,2024-04-04,合同会社佐藤モータース,,合同会社,新潟県,新潟市東区,岡山１２６５番地１,,15,102,9500821,,,2024-04-04,清算の結了等,,,2015-10-05,1,,,,,サトウモータース,0
172,1120001103103,登記記録の閉鎖等,0,2024-04-12,2024-04-01,株式会社リバティイースト,,株式会社,大阪府,大阪市淀川区,東三国３丁目１１番３５号,,27,123,5320002,,,2024-04-01,合併による解散等,3120001096015,令和６年４月１日大阪市浪速区元町三丁目１２番１２－１０５号株式会社Ｒｕｉ（3120001096015）に合併し解散,2015-10-05,1,,,,,リバティイースト,0
173,1120001127028,登記記録の閉鎖等,0,2024-04-12,2024-04-01,株式会社ＧＯＰ警備保障,,株式会社,兵庫県,神戸市中央区,磯辺通４丁目１番８号,,28,110,6510084,,,2024-04-01,合併による解散等,7140001047838,令和６年４月１日兵庫県尼崎市杭瀬北新町四丁目９番７号株式会社エース警備保障（7140001047838）に合併し解散,2015-10-05,1,,,,,ジーオーピーケイビホショウ,0
190,1120101045757,登記記録の閉鎖等,0,2024-04-12,2024-04-08,株式会社樹望プロダクツ,,株式会社,大阪府,岸和田市,新港町１３番５,,27,202,5960012,,,2024-04-08,清算の結了等,,,2015-10-05,1,,,,,キボウプロダクツ,0
219,1180001086185,登記記録の閉鎖等,0,2024-04-12,2024-04-02,丸富毛織株式会社,,株式会社,愛知県,稲沢市,祖父江町祖父江江東４番地,,23,220,4950001,,,2024-04-02,清算の結了等,,,2015-10-05,1,,,,,マルトミケオリ,0
243,1250002015623,登記記録の閉鎖等,0,2024-04-12,2024-04-08,川幸工業笠戸有限会社,,有限会社,山口県,下松市,大字笠戸島７０８番地,,35,207,7440001,,,2024-04-08,清算の結了等,,,2015-10-05,1,,,,,カワコウコウギョウカサド,0
281,1420001000006,登記記録の閉鎖等,0,2024-04-12,2024-04-01,日産プリンス青森販売株式会社,,株式会社,青森県,青森市,大字新城字福田２７１番地１,,02,201,0380042,,,2024-04-01,合併による解散等,7420001000231,令和６年４月１日青森市大字三内字稲元８６番地青森日産自動車株式会社（7420001000231）に合併し解散,2015-10-05,1,,,,,ニッサンプリンスアオモリハンバイ,0
294,1500001001598,登記記録の閉鎖等,0,2024-04-12,2024-04-08,株式会社神戸屋,,株式会社,愛媛県,松山市,土居田町８４８番地１１,,38,201,7900056,,,2024-04-08,清算の結了等,,,2015-10-05,1,,,,,コウベヤ,0
295,1500002020985,登記記録の閉鎖等,0,2024-04-12,2024-04-04,有限会社加地事務所,,有限会社,愛媛県,四国中央市,三島中央５丁目３番１５号,,38,213,7990405,,,2024-04-04,清算の結了等,,,2015-10-05,1,,,,,カジジムショ,0
304,2010001229065,登記記録の閉鎖等,0,2024-04-12,2024-04-02,ミットエスイーエルインベストメント株式会社,,株式会社,東京都,千代田区,大手町１丁目２番１号,,13,101,1000004,,,2024-04-02,清算の結了等,,,2022-08-29,1,,,,,ミットエスイーエルインベストメント,0
317,2010401130459,登記記録の閉鎖等,0,2024-04-12,2024-04-01,バイオテクサ株式会社,,株式会社,東京都,港区,西新橋３丁目４番１号,,13,103,1050003,,,2024-04-01,合併による解散等,2010401048321,令和６年４月１日東京都港区西新橋三丁目４番１号エヌティーシーアカウンティングサービス株式会社（2010401048321）に合併し解散,2017-03-28,1,,,,,バイオテクサ,0
329,2010503005550,登記記録の閉鎖等,0,2024-04-12,2024-02-26,ＨＴＧ商事合同会社,,合同会社,東京都,荒川区,東日暮里２丁目３３番６号マリオン鶯谷１０１,,13,118,1160014,,,2024-02-26,清算の結了等,,,2019-03-28,1,,,,,エイチティージーショウジ,0
345,2011101103457,登記記録の閉鎖等,0,2024-04-12,2024-04-10,株式会社ラクスＨＲテック,,株式会社,東京都,新宿区,西新宿６丁目２２番１号,,13,104,1600023,,,2024-04-10,合併による解散等,9120001097305,令和６年４月１日大阪市北区鶴野町１番９号株式会社ラクス（9120001097305）に合併し解散,2023-07-06,1,,,,,ラクスエイチアールテック,0
362,2011601005491,登記記録の閉鎖等,0,2024-04-12,2024-04-05,野村大理石株式会社,,株式会社,東京都,練馬区,大泉学園町８丁目３１番１１号,,13,120,1780061,,,2024-04-05,清算の結了等,,,2015-10-05,1,,,,,,0
371,2012301010823,登記記録の閉鎖等,0,2024-04-12,2024-04-05,株式会社ラ・ルミエール,,株式会社,東京都,町田市,南成瀬７丁目１１番地６,,13,209,1940045,,,2024-04-05,清算の結了等,,,2017-01-10,1,,,,,,0
379,2013301014376,登記記録の閉鎖等,0,2024-04-12,2024-04-09,株式会社新和商事,,株式会社,大阪府,吹田市,末広町７番２１号,,27,205,5640022,,,2024-04-09,合併による解散等,5120901019015,令和６年４月１日大阪市東淀川区小松三丁目３番１６号株式会社サンアティラン（5120901019015）に合併し解散,2015-10-05,1,,,,,シンワショウジ,0
427,2050001054154,登記記録の閉鎖等,0,2024-04-12,2024-04-05,セイケン工業株式会社,,株式会社,茨城県,つくば市,天久保１丁目８番１４号,,08,220,3050005,,,2024-04-05,清算の結了等,,,2024-01-25,1,,,,,セイケンコウギョウ,0
445,2100002031865,登記記録の閉鎖等,0,2024-04-12,2024-04-01,有限会社マイクロテック,,有限会社,長野県,岡谷市,長地出早２丁目８番２号,,20,204,3940089,,,2024-04-01,清算の結了等,,,2015-10-05,1,,,,,マイクロテック,0
469,2120101034263,登記記録の閉鎖等,0,2024-04-12,2024-04-10,株式会社サン機工,,株式会社,大阪府,富田林市,若松町東２丁目５番５号,,27,214,5840023,,,2024-04-10,合併による解散等,4120001102688,令和６年４月１日大阪市西区新町一丁目１６番１号大陽日酸ガス＆ウェルディング株式会社（4120001102688）に合併し解散,2015-10-05,1,,,,,サンキコウ,0
474,2122005000886,登記記録の閉鎖等,0,2024-04-12,2024-04-08,特定非営利活動法人福祉住環境整備センター,,その他の設立登記法人,大阪府,東大阪市,下六万寺町１丁目１１番１号,,27,227,5798066,,,2024-04-08,清算の結了等,,,2015-10-05,1,,,,,フクシジュウカンキョウセイビ,0
490,2150001013612,登記記録の閉鎖等,0,2024-04-12,2024-04-09,株式会社ヤング,,株式会社,奈良県,北葛城郡広陵町,大字沢５２２番地,,29,426,6350804,,,2024-04-09,清算の結了等,,,2015-10-05,1,,,,,ヤング,0
500,2180002004640,登記記録の閉鎖等,0,2024-04-12,2024-04-01,有限会社タス企画,,有限会社,愛知県,名古屋市千種区,松軒１丁目５番７号,,23,101,4640084,,,2024-04-01,清算の結了等,,,2015-10-05,1,,,,,タスキカク,0
508,2180302002542,登記記録の閉鎖等,0,2024-04-12,2024-04-01,有限会社ハヤテック,,有限会社,愛知県,岡崎市,大西１丁目１８番地１９,,23,202,4440871,,,2024-04-01,清算の結了等,,,2015-10-05,1,,,,,ハヤテック,0
515,2200002007533,登記記録の閉鎖等,0,2024-04-12,2024-04-09,有限会社杉浦果実,,有限会社,岐阜県,各務原市,鵜沼三ツ池町２丁目８６番地,,21,213,5090146,,,2024-04-09,清算の結了等,,,2015-10-05,1,,,,,スギウラカジツ,0
533,2290001092956,登記記録の閉鎖等,0,2024-04-12,2024-03-28,初源株式会社,,株式会社,福岡県,福岡市博多区,比恵町１番１８号,,40,132,8120014,,,2024-03-28,清算の結了等,,,2021-04-23,1,,,,,ハツゲン,0
541,2290805006938,登記記録の閉鎖等,0,2024-04-12,2024-03-22,行橋京都電機商業協同組合,,その他の設立登記法人,福岡県,行橋市,大字下津熊１０５０番地,,40,213,8240062,,,2024-03-22,清算の結了等,,,2015-10-05,1,,,,,ユクハシミヤコデンキショウギョウ,0
547,2340001021538,登記記録の閉鎖等,0,2024-04-12,2024-04-05,株式会社ＫＳＣ,,株式会社,鹿児島県,鹿児島市,松原町１番９号アニモビル７０１号,,46,201,8920833,,,2024-04-05,清算の結了等,,,2018-10-15,1,,,,,ケイエスシー,0
580,2430001033821,登記記録の閉鎖等,0,2024-04-12,2024-04-08,日本板硝子北海道株式会社,,株式会社,北海道,札幌市厚別区,厚別中央二条５丁目３番３１号,,01,108,0040052,,,2024-04-08,合併による解散等,3010501030079,令和６年４月１日東京都墨田区本所四丁目１９番３号本所吾妻橋ＤＪビル４階日本板硝子Ｓ＆Ｓ株式会社（3010501030079）に合併し解散,2015-10-05,1,,,,,ニホンイタガラスホッカイドウ,0
589,2460001005818,登記記録の閉鎖等,0,2024-04-12,2024-04-08,株式会社フューネ,,株式会社,北海道,川上郡弟子屈町,泉２丁目１番３２号,,01,665,0883212,,,2024-04-08,清算の結了等,,,2023-08-23,1,,,,,フューネ,0
590,2470001003127,登記記録の閉鎖等,0,2024-04-12,2024-04-03,株式会社西日本空機,,株式会社,香川県,高松市,西宝町２丁目９番２２－１０１号,,37,201,7600004,,,2024-04-03,清算の結了等,,,2015-10-05,1,,,,,ニシニホンクウキ,0
616,3010005034270,登記記録の閉鎖等,0,2024-04-12,2024-04-03,大手町ソーラーホールディングス一般社団法人,,その他の設立登記法人,東京都,中央区,八丁堀４丁目２番１０号ＡＯＪ税理士法人内,,13,102,1040032,,,2024-04-03,清算の結了等,,,2021-12-01,1,,,,,オオテマチソーラーホールディングス,0
627,3010405019598,登記記録の閉鎖等,0,2024-04-12,2024-03-29,一般社団法人Ｄｅｓｉｇｎ　ｔｒａｎｓｆｏｒｍａｔｉｏｎ　ｃｏｍｍｏｎｓ,,その他の設立登記法人,東京都,渋谷区,恵比寿西２丁目２－９ＳＵＧＡＹＡＢＬＤＧ３Ｆ,,13,113,1500021,,,2024-03-29,清算の結了等,,,2021-03-11,1,,,,,デザイントランスフォーメーションコモンズ,0
653,3011001125955,登記記録の閉鎖等,0,2024-04-12,2024-04-01,株式会社Ｆｌｕｔｔｅｒ,,株式会社,東京都,渋谷区,桜丘町２６－１,,13,113,1500031,,,2024-04-01,合併による解散等,3011101056423,令和６年４月１日東京都渋谷区渋谷二丁目１２番１９号ファビウス株式会社（3011101056423）に合併し解散,2019-01-09,1,,,,,フラッター,0
654,3011001133157,登記記録の閉鎖等,0,2024-04-12,2024-04-05,株式会社ジェクトワン＆パートナーズ,,株式会社,東京都,渋谷区,渋谷２丁目１２番１９号東建インターナショナルビル本館１Ｆ,,13,113,1500002,,,2024-04-05,合併による解散等,4011001059442,令和６年４月１日東京都渋谷区渋谷二丁目１２番１９号東建インターナショナルビル本館１Ｆ株式会社ジェクトワン（4011001059442）に合併し解散,2020-04-06,1,,,,,ジェクトワンアンドパートナーズ,0
658,3011101033595,登記記録の閉鎖等,0,2024-04-12,2024-04-01,株式会社日本ビジネス出版,,株式会社,東京都,港区,南青山３丁目１１番１３号新青山東急ビル９階,,13,103,1070062,,,2024-04-01,合併による解散等,6010401015747,令和６年４月１日東京都港区南青山三丁目１１番１３号新青山東急ビル９階株式会社宣伝会議（6010401015747）に合併し解散,2015-10-05,1,,,,,ニホンビジネスシュッパン,0
660,3011101094984,登記記録の閉鎖等,0,2024-04-12,2024-04-08,株式会社Ｃｏｌｔ,,株式会社,東京都,杉並区,和田２丁目３４番１３号ハイムルミエール２０５,,13,115,1660012,,,2024-04-08,清算の結了等,,,2021-05-11,1,,,,,コルト,0
665,3011301000214,登記記録の閉鎖等,0,2024-04-12,2024-04-02,株式会社赤星,,株式会社,東京都,杉並区,松庵２丁目２番２０号,,13,115,1670054,,,2024-04-02,清算の結了等,,,2015-10-05,1,,,,,アカボシ,0
708,3021002011798,登記記録の閉鎖等,0,2024-04-12,2024-04-01,有限会社長谷川工務店,,有限会社,神奈川県,茅ヶ崎市,本村２丁目１番３６号,,14,207,2530042,,,2024-04-01,清算の結了等,,,2015-10-05,1,,,,,,0
750,3110002028851,登記記録の閉鎖等,0,2024-04-12,2024-04-05,有限会社ビーピーガレージ・ヨコヤマ,,有限会社,新潟県,長岡市,宝１丁目２番１８号,,15,202,9400016,,,2024-04-05,清算の結了等,,,2015-10-05,1,,,,,ビーピーガレージヨコヤマ,0
753,3120001092113,登記記録の閉鎖等,0,2024-04-12,2024-04-02,立東商株式会社,,株式会社,大阪府,大阪市中央区,北浜２丁目１番１９,,27,128,5410041,,,2024-04-02,清算の結了等,,,2015-10-05,1,,,,,リットウショウ,0
768,3122005003608,登記記録の閉鎖等,0,2024-04-12,2024-04-08,一般社団法人Ｓｔｏｒｋ　Ｂｅａｕｔｙ　Ｃｏｌｌｅｇｅ,,その他の設立登記法人,大阪府,東大阪市,長堂３丁目２０番１号,,27,227,5770056,,,2024-04-08,清算の結了等,,,2022-03-04,1,,,,,ストークビューティーカレッジ,0
776,3140001115706,登記記録の閉鎖等,0,2024-04-12,2024-04-01,ＳＥＣエンジニアリング株式会社,,株式会社,兵庫県,尼崎市,潮江１丁目２番６号,,28,202,6610976,,,2024-04-01,合併による解散等,1140001048619,令和６年４月１日兵庫県尼崎市潮江一丁目２番６号ＳＥＣファーネス株式会社（1140001048619）に合併し解散,2019-12-05,1,,,,,エスイーシー,0
786,3160001022355,登記記録の閉鎖等,0,2024-04-12,2024-04-03,株式会社アグリマキノ,,株式会社,滋賀県,高島市,マキノ町沢１３５０番地１,,25,212,5201821,,,2024-04-03,合併による解散等,9160002011178,令和６年４月１日滋賀県高島市今津町日置前３７７番地２株式会社アグリサポート高島（9160002011178）に合併し解散,2020-03-23,1,,,,,アグリマキノ,0
790,3180001000227,登記記録の閉鎖等,0,2024-04-12,2024-04-01,株式会社岡工務店,,株式会社,愛知県,名古屋市守山区,四軒家１丁目２０１番地,,23,113,4630034,,,2024-04-01,清算の結了等,,,2015-10-05,1,,,,,オカコウムテン,0
800,3180002029827,登記記録の閉鎖等,0,2024-04-12,2024-04-01,有限会社市川商会,,有限会社,愛知県,名古屋市昭和区,御器所３丁目２０番８号,,23,107,4660051,,,2024-04-01,合併による解散等,5180001009274,令和６年３月３０日名古屋市昭和区白金二丁目４番１０号フタバ株式会社（5180001009274）に合併し解散,2015-10-05,1,,,,,イチカワショウカイ,0
802,3180003025222,登記記録の閉鎖等,0,2024-04-12,2024-04-02,合同会社ハピネスＴ＆Ｋ,,合同会社,愛知県,江南市,和田町中１０１番地,,23,217,4838028,,,2024-04-02,清算の結了等,,,2023-05-16,1,,,,,ハピネスティーアンドケイ,0
811,3210002007011,登記記録の閉鎖等,0,2024-04-12,2024-04-04,有限会社アトレ,,有限会社,福井県,坂井市,三国町平山３０字内垣内１０番地,,18,210,9130004,,,2024-04-04,清算の結了等,,,2015-10-05,1,,,,,アトレ,0
812,3210003001186,登記記録の閉鎖等,0,2024-04-12,2024-04-03,Ｆｏｏｄ　Ｐｌｅｘ合同会社,,合同会社,福井県,福井市,渕２丁目１００６番地,,18,201,9188026,,,2024-04-03,清算の結了等,,,2019-09-12,1,,,,,フードプレックス,0
817,3240005013276,登記記録の閉鎖等,0,2024-04-12,2024-04-09,特定非営利活動法人そうら,,その他の設立登記法人,広島県,広島市中区,榎町３番１号,,34,101,7300851,,,2024-04-09,清算の結了等,,,2015-10-05,1,,,,,ソウラ,0
822,3270003000901,登記記録の閉鎖等,0,2024-04-12,2024-04-03,合同会社おあしす,,合同会社,鳥取県,米子市,皆生温泉３丁目２番１５号,,31,202,6830001,,,2024-04-03,清算の結了等,,,2016-02-04,1,,,,,オアシス,0
827,3290002016178,登記記録の閉鎖等,0,2024-04-12,2024-04-01,有限会社高瀬ビル,00093096,有限会社,福岡県,北九州市小倉北区,浅野３丁目１番３号,,40,106,8020001,,,2024-04-01,合併による解散等,1290002032549,令和６年４月１日北九州市小倉北区浅野三丁目１番３号株式会社ｔｅａｍＢ（1290002032549）に合併し解散,2015-10-05,1,,,,,タカセビル,0
838,3340002011157,登記記録の閉鎖等,0,2024-04-12,2024-04-08,有限会社ラフォーレ,,有限会社,鹿児島県,鹿児島市,薬師２丁目７番３２号,,46,201,8900042,,,2024-04-08,清算の結了等,,,2015-10-05,1,,,,,ラフォーレ,0
880,3500005006138,登記記録の閉鎖等,0,2024-04-12,2024-04-04,医療法人宇都宮内科・胃腸科,,その他の設立登記法人,愛媛県,宇和島市,栄町港２丁目４番２６号,,38,203,7980031,,,2024-04-04,清算の結了等,,,2015-10-05,1,,,,,ウツノミヤナイカイチョウカ,0
890,4010001236316,登記記録の閉鎖等,0,2024-04-12,2024-04-09,ＮＣＴアグリ株式会社,,株式会社,東京都,千代田区,外神田１丁目１８番１３号,,13,101,1010021,,,2024-04-09,合併による解散等,4010401073672,令和６年４月１日東京都港区芝浦三丁目１番１号ＮＣＴアグリ株式会社（4010401073672）に合併し解散,2023-06-22,1,,,,,エヌシーティーアグリ,0
909,4010403028286,登記記録の閉鎖等,0,2024-04-12,2024-04-01,ＣＡＳＡＭＩＸ合同会社,,合同会社,東京都,港区,虎ノ門１丁目１６－６,,13,103,1050001,,,2024-04-01,清算の結了等,,,2022-09-06,1,,,,,カーサミックス,0
916,4010501050506,登記記録の閉鎖等,0,2024-04-12,2024-04-08,株式会社ＹＯＨＡＫＵ．,,株式会社,東京都,台東区,浅草３丁目３８－１奥浅草ハイブリッド１Ａ号室,,13,106,1110032,,,2024-04-08,合併による解散等,4360001022012,令和６年４月１日沖縄県宮古島市平良字下里５５０番地株式会社リッコジェラート（4360001022012）に合併し解散,2023-05-26,1,,,,,ヨハク,0
929,4011001119601,登記記録の閉鎖等,0,2024-04-12,2024-04-05,株式会社ジェクトアセット,,株式会社,東京都,渋谷区,渋谷２丁目１２番１９号東建インターナショナルビル本館１Ｆ,,13,113,1500002,,,2024-04-05,合併による解散等,4011001059442,令和６年４月１日東京都渋谷区渋谷二丁目１２番１９号東建インターナショナルビル本館１Ｆ株式会社ジェクトワン（4011001059442）に合併し解散,2017-12-06,1,,,,,ジェクトアセット,0
978,4021005009095,登記記録の閉鎖等,0,2024-04-12,2024-04-08,ＮＰＯ法人辻堂の民,,その他の設立登記法人,神奈川県,藤沢市,辻堂新町３丁目５番３号,,14,205,2510042,,,2024-04-08,清算の結了等,,,2015-10-05,1,,,,,ツジドウノタミ,0
1038,4120101045630,登記記録の閉鎖等,0,2024-04-12,2024-04-08,はるかマネージメント株式会社,,株式会社,大阪府,阪南市,南山中２４９番地,,27,232,5990233,,,2024-04-08,清算の結了等,,,2015-10-05,1,,,,,ハルカマネージメント,0
1041,4122001019425,登記記録の閉鎖等,0,2024-04-12,2024-04-05,トータル・プロ株式会社,,株式会社,大阪府,八尾市,陽光園２丁目５番４号,,27,212,5810086,,,2024-04-05,清算の結了等,,,2015-10-05,1,,,,,トータルプロ,0
1047,4140001068069,登記記録の閉鎖等,0,2024-04-12,2024-04-01,グローリーＡＺシステム株式会社,,株式会社,兵庫県,西宮市,上甲子園５丁目５番１７号,,28,204,6638114,,,2024-04-01,合併による解散等,6140001064859,令和６年４月１日兵庫県姫路市下手野一丁目３番１号グローリーテクニカルソリューションズ株式会社（6140001064859）に合併し解散,2015-10-05,1,,,,,グローリーエーゼットシステム,0
1055,4150001002571,登記記録の閉鎖等,0,2024-04-12,2024-04-08,株式会社吉川ミシン工作所,00042665,株式会社,奈良県,奈良市,肘塚町１９４番地,,29,201,6308142,,,2024-04-08,清算の結了等,,,2015-10-05,1,,,,,ヨシカワミシンコウサクショ,0
1073,4180002079937,登記記録の閉鎖等,0,2024-04-12,2024-04-02,有限会社ＥＵＧＬＥＮＡ,,有限会社,愛知県,一宮市,玉野１８１１番地,,23,203,4940013,,,2024-04-02,清算の結了等,,,2015-10-05,1,,,,,ユーグレナ,0
1086,4190003000099,登記記録の閉鎖等,0,2024-04-12,2024-04-05,リフォーム高山合名会社,00125195,合名会社,三重県,津市,桜橋３丁目４４６番地,,24,201,5140003,,,2024-04-05,清算の結了等,,,2015-10-05,1,,,,,リフォームタカヤマ,0
1118,4370001042091,登記記録の閉鎖等,0,2024-04-12,2024-04-01,株式会社ケー・エフ・シー,,株式会社,宮城県,栗原市,築館字下宮野山畑３番地１９,,04,213,9872203,,,2024-04-01,清算の結了等,,,2017-09-25,1,,,,,ケーエフシー,0
1121,4370603000059,登記記録の閉鎖等,0,2024-04-12,2024-04-01,合同会社丹野商店,,合同会社,宮城県,多賀城市,鶴ケ谷２丁目３１番５号,,04,209,9850841,,,2024-04-01,清算の結了等,,,2015-10-05,1,,,,,タンノショウテン,0
1125,4380002026704,登記記録の閉鎖等,0,2024-04-12,2024-04-03,有限会社好間遠藤工務店,,有限会社,福島県,いわき市,好間町榊小屋字生木葉５番地の６,00084011,07,204,9701146,,,2024-04-03,清算の結了等,,,2015-10-05,1,,,,,ヨシマエンドウコウムテン,0
1126,4380002031852,登記記録の閉鎖等,0,2024-04-12,2024-04-03,有限会社斎藤新聞店,,有限会社,福島県,耶麻郡猪苗代町,字城南１４１番地１,,07,408,9693123,,,2024-04-03,清算の結了等,,,2015-10-05,1,,,,,サイトウシンブンテン,0
1136,4430005011061,登記記録の閉鎖等,0,2024-04-12,2024-04-05,一般社団法人生物資産流動化研究所,,その他の設立登記法人,北海道,江別市,大麻泉町９番地の１６,,01,217,0690864,,,2024-04-05,清算の結了等,,,2015-10-05,1,,,,,セイブツシサンリュウドウカケンキュウショ,0
1152,5010001103556,登記記録の閉鎖等,0,2024-04-12,2024-04-10,株式会社そーせい,,株式会社,東京都,千代田区,麹町２丁目１番地,,13,101,1020083,,,2024-04-10,合併による解散等,1010001190615,令和６年４月１日東京都港区赤坂九丁目７番２号ネクセラファーマジャパン株式会社（1010001190615）に合併し解散,2015-10-05,1,,,,,ソーセイ,0
1154,5010001221432,登記記録の閉鎖等,0,2024-04-12,2024-04-04,株式会社ＡＱＵＡ　ＡＲＴ　ＲＥＬＡＴＩＯＮＳ,,株式会社,東京都,千代田区,丸の内１丁目１１番１号,,13,101,1000005,,,2024-04-04,合併による解散等,5010001226497,令和６年４月１日東京都千代田区丸の内一丁目１１番１号株式会社Ｋｉｒａｎａｈ　Ｒｅｓｏｒｔ（5010001226497）に合併し解散,2021-09-30,1,,,,,アクアアートリレーションズ,0
1185,5010803000430,登記記録の閉鎖等,0,2024-04-12,2024-04-02,合資会社一二三屋,,合資会社,東京都,大田区,東矢口１丁目１５番２２号,,13,111,1460094,,,2024-04-02,清算の結了等,,,2015-10-05,1,,,,,ヒフミヤ,0
1197,5011101005873,登記記録の閉鎖等,0,2024-04-12,2024-04-10,クリタ・ビーエムエス株式会社,,株式会社,東京都,渋谷区,笹塚２丁目１番６号,,13,113,1510073,,,2024-04-10,合併による解散等,3021001024454,令和６年４月１日神奈川県相模原市中央区共和三丁目１５番７号クリタ東日本株式会社（3021001024454）に合併し解散,2015-10-05,1,,,,,クリタビーエムエス,0
1198,5011101032595,登記記録の閉鎖等,0,2024-04-12,2024-04-05,株式会社大沼国際カントリークラブ,,株式会社,東京都,中央区,日本橋堀留町１丁目８番１２号,,13,102,1030012,,,2024-04-05,合併による解散等,7100001032918,令和６年３月２９日長野県北安曇郡小谷村大字千国乙１２８６０番地１株式会社奥白馬総合リゾート（7100001032918）に合併し解散,2015-10-05,1,,,,,オオヌマコクサイカントリークラブ,0
1226,5013101008567,登記記録の閉鎖等,0,2024-04-12,2024-04-10,蓄熱工房株式会社,,株式会社,東京都,青梅市,成木１丁目５１５番地４,,13,205,1980001,,,2024-04-10,清算の結了等,,,2021-03-02,1,,,,,チクネツコウボウ,0
1249,5021001031671,登記記録の閉鎖等,0,2024-04-12,2024-04-08,株式会社スカイネット,,株式会社,神奈川県,座間市,ひばりが丘２丁目４１番１－２２２号エステ・スクエア南林間,,14,216,2520003,,,2024-04-08,清算の結了等,,,2015-10-05,1,,,,,スカイネット,0
1254,5021002069232,登記記録の閉鎖等,0,2024-04-12,2024-04-01,株式会社ハーツ,,株式会社,神奈川県,横須賀市,根岸町３丁目３番１６号,,14,201,2390807,,,2024-04-01,合併による解散等,4021001042612,令和６年４月１日神奈川県横須賀市根岸町三丁目３番１６号株式会社マハロ（4021001042612）に合併し解散,2015-10-05,1,,,,,ハーツ,0
1286,5050002011886,登記記録の閉鎖等,0,2024-04-12,2024-04-09,有限会社土浦コンタクトレンズ研究所,,有限会社,茨城県,土浦市,中央１丁目４番１６号,,08,203,3000043,,,2024-04-09,清算の結了等,,,2015-10-05,1,,,,,ツチウラコンタクトレンズケンキュウジョ,0
1289,5060001023576,登記記録の閉鎖等,0,2024-04-12,2024-04-05,株式会社マツケン,,株式会社,栃木県,日光市,森友１１２５番地９５,,09,206,3212335,,,2024-04-05,清算の結了等,,,2015-10-05,1,,,,,マツケン,0
1290,5070001016728,登記記録の閉鎖等,0,2024-04-12,2024-04-05,株式会社ヨシケイ両毛,,株式会社,群馬県,桐生市,広沢町６丁目２２７番地,,10,203,3760013,,,2024-04-05,合併による解散等,2110001013962,令和６年４月１日新潟県三条市西本成寺二丁目２６番５７号株式会社オーシャンシステム（2110001013962）に合併し解散,2015-10-05,1,,,,,ヨシケイリョウモウ,0
1308,5110002020897,登記記録の閉鎖等,0,2024-04-12,2024-04-05,有限会社毘沙門堂,,有限会社,新潟県,柏崎市,長浜町２番１９号ひろみハウス２０２,,15,205,9450042,,,2024-04-05,清算の結了等,,,2015-10-05,1,,,,,ビシャモンドウ,0
1325,5120101060959,登記記録の閉鎖等,0,2024-04-12,2024-04-10,五井物産株式会社,,株式会社,大阪府,堺市中区,平井６２３番地４６,,27,142,5998251,,,2024-04-10,清算の結了等,,,2019-12-11,1,,,,,イツイブッサン,0
1334,5130001026753,登記記録の閉鎖等,0,2024-04-12,2024-04-03,タカラ容器株式会社,,株式会社,京都府,京都市下京区,四条通烏丸東入長刀鉾町２０番地,,26,106,6008008,,,2024-04-03,合併による解散等,8130001017881,令和６年４月１日京都市伏見区舞台町１番地タカラサプライコミュニケーションズ株式会社（8130001017881）に合併し解散,2015-10-05,1,,,,,タカラヨウキ,0
1379,5240001053092,登記記録の閉鎖等,0,2024-04-12,2024-04-05,ウエルジンジャー株式会社,,株式会社,広島県,府中市,上下町上下１３０３,,34,208,7293431,,,2024-04-05,清算の結了等,,,2018-07-25,1,,,,,ウエルジンジャー,0
1385,5250001015513,登記記録の閉鎖等,0,2024-04-12,2024-04-08,株式会社山口建築センター,,株式会社,山口県,山口市,平井１４０４番地１,,35,203,7530831,,,2024-04-08,清算の結了等,,,2015-10-05,1,,,,,ヤマグチケンチクセンター,0
1387,5250002019868,登記記録の閉鎖等,0,2024-04-12,2024-04-05,有限会社村中建設,,有限会社,山口県,柳井市,余田２２１４番地,,35,212,7420034,,,2024-04-05,清算の結了等,,,2015-10-05,1,,,,,ムラナカケンセツ,0
1397,5290002032074,登記記録の閉鎖等,0,2024-04-12,2024-03-01,有限会社ＷＡＩＰＥＲ,,有限会社,福岡県,福岡市中央区,清川３丁目２６番１７号ＷＡＩＰＥＲビル,,40,133,8100005,,,2024-03-01,合併による解散等,4290001078656,令和６年３月１日福岡市中央区清川三丁目１６番２４号株式会社ＰＩＺＺＡＲＥＶＯ（4290001078656）に合併し解散,2015-10-05,1,,,,,ワイパー,0
1402,5320003001553,登記記録の閉鎖等,0,2024-04-12,2024-04-01,合同会社きずな,,合同会社,大分県,大分市,東原１丁目１７番１０号,,44,201,8700150,,,2024-04-01,合併による解散等,5320002009597,令和６年４月１日大分市明野北五丁目１１番７号株式会社おいが（5320002009597）に合併し解散,2015-10-05,1,,,,,,0
1409,5350001012921,登記記録の閉鎖等,0,2024-04-12,2024-04-03,株式会社フード・マックス,,株式会社,宮崎県,えびの市,大字大河平１６１４番地２,,45,209,8894314,,,2024-04-03,清算の結了等,,,2015-10-05,1,,,,,フードマックス,0
1417,5370001021383,登記記録の閉鎖等,0,2024-04-12,2024-03-28,ジェイングループ株式会社,,株式会社,宮城県,仙台市泉区,みずほ台３４番地の２,,04,105,9813125,,,2024-03-28,清算の結了等,,,2015-10-05,1,,,,,ジェイングループ,0
1431,5430001046878,登記記録の閉鎖等,0,2024-04-12,2024-04-08,株式会社ベールドノール,,株式会社,北海道,美唄市,字茶志内７４５番地３５,,01,215,0720000,,,2024-04-08,合併による解散等,3010501030079,令和６年４月１日東京都墨田区本所四丁目１９番３号本所吾妻橋ＤＪビル４階日本板硝子Ｓ＆Ｓ株式会社（3010501030079）に合併し解散,2015-10-05,1,,,,,ベールドノール,0
1482,6010501035959,登記記録の閉鎖等,0,2024-04-12,2024-04-09,Ｂｒｉｌｌｉａｎｔ　Ｒｅｃｒｕｉｔｍｅｎｔ株式会社,,株式会社,広島県,福山市,曙町２丁目１５番９号,00130282,34,207,7210952,,,2024-04-09,清算の結了等,,,2015-10-05,1,,,,,ブリリアントリクルートメント,0
1500,6011001118790,登記記録の閉鎖等,0,2024-04-12,2024-04-08,株式会社Ｂｒｏｃａｎｔｅ,,株式会社,東京都,渋谷区,元代々木町２５番６号,,13,113,1510062,,,2024-04-08,合併による解散等,1011101029018,令和６年４月１日東京都新宿区西新宿六丁目５番１号エン・ジャパン株式会社（1011101029018）に合併し解散,2017-10-16,1,,,,,ブロカント,0
1510,6011205000464,登記記録の閉鎖等,0,2024-04-12,2024-04-10,税理士法人稜事務所,,その他の設立登記法人,東京都,中野区,沼袋３丁目１番４号,,13,114,1650025,,,2024-04-10,清算の結了等,,,2015-10-05,1,,,,,リョウジムショ,0
1549,6021002040984,登記記録の閉鎖等,0,2024-04-12,2024-04-11,有限会社三共メガネ,,有限会社,神奈川県,大和市,南林間１丁目５番８号,,14,213,2420006,,,2024-04-11,清算の結了等,,,2015-10-05,1,,,,,サンキョウメガネ,0
1551,6030001013570,登記記録の閉鎖等,0,2024-04-12,2024-04-04,株式会社国祭,,株式会社,埼玉県,さいたま市中央区,大戸４丁目１４番２号,,11,105,3380012,,,2024-04-04,清算の結了等,,,2015-10-05,1,,,,,コクサイ,0
1552,6030001135134,登記記録の閉鎖等,0,2024-04-12,2024-04-05,株式会社ＨＭＳＯＩ,,株式会社,埼玉県,さいたま市岩槻区,加倉５丁目１４番２７号,,11,110,3390056,,,2024-04-05,合併による解散等,6120001180212,令和６年４月１日大阪市都島区中野町一丁目１３番４号株式会社Ｂｅｓｔ　Ｄｅｌｉｇｈｔ　Ｇｒｏｕｐ（6120001180212）に合併し解散,2020-02-07,1,,,,,エイチエムエスオーアイ,0
1555,6030002000675,登記記録の閉鎖等,0,2024-04-12,2024-04-04,有限会社茜スペースクリエイト,,有限会社,埼玉県,さいたま市見沼区,堀崎町１０６７番地２,,11,104,3370052,,,2024-04-04,清算の結了等,,,2015-10-05,1,,,,,アカネスペースクリエイト,0
1584,6070001029381,登記記録の閉鎖等,0,2024-04-12,2024-04-05,Ｌｏｈａｓ株式会社,,株式会社,群馬県,太田市,大原町３６０番地１３,,10,205,3792304,,,2024-04-05,清算の結了等,,,2015-10-05,1,,,,,ロハス,0
1586,6070002029406,登記記録の閉鎖等,0,2024-04-12,2024-04-08,有限会社サン・メディカル・サプライ,,有限会社,群馬県,太田市,藪塚町１４０６番地の２,00026806,10,205,3792301,,,2024-04-08,清算の結了等,,,2015-10-05,1,,,,,サンメディカルサプライ,0
1591,6080102008192,登記記録の閉鎖等,0,2024-04-12,2024-04-08,有限会社城所,,有限会社,静岡県,伊豆市,土肥１７５３番地,,22,222,4103302,,,2024-04-08,清算の結了等,,,2015-10-05,1,,,,,キドコロ,0
1602,6120001112413,登記記録の閉鎖等,0,2024-04-12,2024-04-01,株式会社アルファクトビジネスサービス,,株式会社,大阪府,大阪市中央区,南船場４丁目１１番９号,,27,128,5420081,,,2024-04-01,合併による解散等,2120001088987,令和６年４月１日大阪市中央区南船場四丁目１１番９号株式会社アルファクト（2120001088987）に合併し解散,2015-10-05,1,,,,,アルファクトビジネスサービス,0
1603,6120001133608,登記記録の閉鎖等,0,2024-04-12,2024-04-03,株式会社ＡＩプロジェクト,,株式会社,大阪府,大阪市中央区,淡路町４丁目３番１０号ＴＭＭビルディング３階,,27,128,5410047,,,2024-04-03,清算の結了等,,,2015-10-05,1,,,,,エーアイプロジェクト,0
1605,6120001178289,登記記録の閉鎖等,0,2024-04-12,2024-04-10,株式会社Ｉ’ｓ,,株式会社,大阪府,堺市中区,八田北町４０７－５昌栄マンション２０１号室,,27,142,5998262,,,2024-04-10,清算の結了等,,,2015-10-05,1,,,,,,0
1628,6122002004259,登記記録の閉鎖等,0,2024-04-12,2024-04-05,有限会社ビッケ,,有限会社,大阪府,東大阪市,吉田５丁目１４番３５号,,27,227,5780924,,,2024-04-05,清算の結了等,,,2015-10-05,1,,,,,ビッケ,0
1632,6140001064842,登記記録の閉鎖等,0,2024-04-12,2024-04-01,グローリーメカトロニクス株式会社,,株式会社,兵庫県,姫路市,下手野１丁目３番１号,,28,201,6700063,,,2024-04-01,合併による解散等,6140001064859,令和６年４月１日兵庫県姫路市下手野一丁目３番１号グローリーテクニカルソリューションズ株式会社（6140001064859）に合併し解散,2015-10-05,1,,,,,グローリーメカトロニクス,0
1634,6140001074890,登記記録の閉鎖等,0,2024-04-12,2024-04-01,株式会社浦野測量設計事務所,,株式会社,兵庫県,加東市,少分谷４３９番地,,28,228,6731303,,,2024-04-01,清算の結了等,,,2015-10-05,1,,,,,ウラノソクリョウセッケイジムショ,0
1637,6140002055741,登記記録の閉鎖等,0,2024-04-12,2024-04-04,有限会社上野商事,,有限会社,兵庫県,西宮市,甲子園口３丁目１２番１３号,,28,204,6638113,,,2024-04-04,清算の結了等,,,2015-10-05,1,,,,,ウエノショウジ,0
1645,6160002011759,登記記録の閉鎖等,0,2024-04-12,2024-04-03,有限会社アグリ西びわこ,,有限会社,滋賀県,高島市,安曇川町横江４３６番地,,25,212,5201222,,,2024-04-03,合併による解散等,9160002011178,令和６年４月１日滋賀県高島市今津町日置前３７７番地２株式会社アグリサポート高島（9160002011178）に合併し解散,2015-10-05,1,,,,,アグリニシビワコ,0
1676,6210002012685,登記記録の閉鎖等,0,2024-04-12,2024-04-03,有限会社福井ウルテック,,有限会社,福井県,越前市,矢放町第４号７番地,,18,209,9150052,,,2024-04-03,清算の結了等,,,2015-10-05,1,,,,,フクイウルテック,0
1688,6260001032671,登記記録の閉鎖等,0,2024-04-12,2024-04-01,株式会社フクシマ管理,,株式会社,岡山県,岡山市北区,奉還町３丁目８－９,,33,101,7000026,,,2024-04-01,合併による解散等,9260001031415,令和６年４月１日岡山市北区奉還町３－８－９株式会社岡山不動産管理センター（9260001031415）に合併し解散,2018-12-18,1,,,,,フクシマカンリ,0
1691,6270001000529,登記記録の閉鎖等,0,2024-04-12,2024-04-08,東部石油販売株式会社,,株式会社,鳥取県,鳥取市,里仁１０９番地１,,31,201,6800935,,,2024-04-08,合併による解散等,3470001004116,令和６年３月３１日香川県高松市田村町３９７番地株式会社ヤマウチ（3470001004116）に合併し解散,2015-10-05,1,,,,,トウブセキユハンバイ,0
1712,6330001007237,登記記録の閉鎖等,0,2024-04-12,2024-04-04,株式会社笑福,,株式会社,熊本県,熊本市南区,城南町鰐瀬８６５番地１,,43,104,8614222,,,2024-04-04,清算の結了等,,,2015-10-05,1,,,,,ショウフク,0
1723,6370001011986,登記記録の閉鎖等,0,2024-04-12,2024-04-09,株式会社オシキリ北日本,,株式会社,宮城県,仙台市青葉区,錦ケ丘８丁目１２番２２号,,04,101,9893123,,,2024-04-09,合併による解散等,7021001004460,令和６年４月１日神奈川県藤沢市桐原町４番地株式会社オシキリ（7021001004460）に合併し解散,2015-10-05,1,,,,,オシキリキタニホン,0
1724,6370001042809,登記記録の閉鎖等,0,2024-04-12,2024-04-03,株式会社多賀城ＤＭＣ,,株式会社,宮城県,多賀城市,新田字後２４番地の２５,,04,209,9850854,,,2024-04-03,清算の結了等,,,2018-03-22,1,,,,,タガジョウディーエムシー,0
1728,6370302001323,登記記録の閉鎖等,0,2024-04-12,2024-04-03,有限会社鈴誠自動車商会,,有限会社,宮城県,石巻市,大瓜字下大塚前２７番地の１,,04,202,9860005,,,2024-04-03,清算の結了等,,,2015-10-05,1,,,,,,0
1736,6430001065258,登記記録の閉鎖等,0,2024-04-12,2024-04-02,北海道精密ツール株式会社,,株式会社,北海道,空知郡奈井江町,字奈井江７７６番地１,,01,424,0790300,,,2024-04-02,合併による解散等,3430001048694,令和６年４月１日北海道空知郡奈井江町字奈井江７７６番地北海道住電精密株式会社（3430001048694）に合併し解散,2015-10-05,1,,,,,ホッカイドウセイミツツール,0
1744,6480001002124,登記記録の閉鎖等,0,2024-04-12,2024-04-04,株式会社ヨーグルト,,株式会社,徳島県,徳島市,沖浜東１丁目４５番地,,36,201,7708053,,,2024-04-04,清算の結了等,,,2015-10-05,1,,,,,ヨーグルト,0
1750,7010001025658,登記記録の閉鎖等,0,2024-04-12,2024-04-01,株式会社日建スペースデザイン,,株式会社,東京都,文京区,後楽１丁目４番２７号,,13,105,1120004,,,2024-04-01,合併による解散等,9010001006111,令和６年４月１日東京都千代田区飯田橋二丁目１８番３号株式会社日建設計（9010001006111）に合併し解散,2015-10-05,1,,,,,ニッケンスペースデザイン,0
1751,7010001034601,登記記録の閉鎖等,0,2024-04-12,2024-04-09,ジェイソフト株式会社,,株式会社,東京都,千代田区,神田須田町１丁目２８番地,,13,101,1010041,,,2024-04-09,合併による解散等,6200001004239,令和６年４月１日岐阜市福光東三丁目５番７号ハビックス株式会社（6200001004239）に合併し解散,2015-10-05,1,,,,,ジェイソフト,0
1795,7011001006986,登記記録の閉鎖等,0,2024-04-12,2024-04-10,クリタ・ビルテック株式会社,,株式会社,東京都,渋谷区,笹塚２丁目１番６号,,13,113,1510073,,,2024-04-10,合併による解散等,3021001024454,令和６年４月１日神奈川県相模原市中央区共和三丁目１５番７号クリタ東日本株式会社（3021001024454）に合併し解散,2015-10-05,1,,,,,クリタビルテック,0
1796,7011001117916,登記記録の閉鎖等,0,2024-04-12,2024-04-01,株式会社ｅＳｔｒｅａｍ,,株式会社,東京都,渋谷区,宇田川町４０番１号,,13,113,1500042,,,2024-04-01,合併による解散等,2011001060187,令和６年４月１日東京都渋谷区渋谷二丁目２４番１２号株式会社ＣｙｂｅｒＺ（2011001060187）に合併し解散,2017-08-16,1,,,,,イーストリーム,0
1803,7011101083802,登記記録の閉鎖等,0,2024-04-12,2024-04-02,株式会社Ｎｉｎｔ,,株式会社,東京都,新宿区,西新宿８丁目１７番１号,,13,104,1600023,,,2024-04-02,合併による解散等,5011101086848,令和６年４月１日東京都新宿区西新宿八丁目１７番１号Ｎｉｎｔホールディングス株式会社（5011101086848）に合併し解散,2018-04-12,1,,,,,ニント,0
1815,7011802011648,登記記録の閉鎖等,0,2024-04-12,2024-04-08,有限会社菊栄,,有限会社,東京都,足立区,西新井１丁目２３番２号,,13,121,1230841,,,2024-04-08,清算の結了等,,,2015-10-05,1,,,,,キクエイ,0
1846,7021001071781,登記記録の閉鎖等,0,2024-04-12,2024-04-09,株式会社ローカルブレッド,,株式会社,神奈川県,藤沢市,湘南台１丁目２１番地の３,,14,205,2520804,,,2024-04-09,清算の結了等,,,2021-01-12,1,,,,,ローカルブレッド,0
1853,7021005010546,登記記録の閉鎖等,0,2024-04-12,2024-04-09,特定非営利活動法人ｅｍａｎｏｎ,,その他の設立登記法人,神奈川県,相模原市中央区,青葉１丁目１４番１１号ブルーリーフ１階,,14,152,2520224,,,2024-04-09,清算の結了等,,,2016-03-02,1,,,,,エマノン,0
1893,7080103002144,登記記録の閉鎖等,0,2024-04-12,2024-04-08,合同会社ｒｉｃｈ　Ｃｏｒｒｅｃｔ,,合同会社,静岡県,駿東郡長泉町,竹原２６０番地１２,,22,342,4110944,,,2024-04-08,清算の結了等,,,2020-04-22,1,,,,,リッチコレクト,0
1895,7080401004008,登記記録の閉鎖等,0,2024-04-12,2024-04-08,浜松ＮＤＳ株式会社,,株式会社,静岡県,浜松市中央区,丸塚町３４番地,,22,138,4350046,,,2024-04-08,合併による解散等,4080001002637,令和６年４月１日静岡市葵区川合三丁目２５番２５号静岡ＮＤＳ株式会社（4080001002637）に合併し解散,2015-10-05,1,,,,,ハママツエヌディエス,0
1919,7120002031883,登記記録の閉鎖等,0,2024-04-12,2024-04-01,有限会社童夢,,有限会社,大阪府,大阪市北区,東天満２丁目２番７号,,27,127,5300044,,,2024-04-01,合併による解散等,9120001071689,令和６年４月１日大阪市北区東天満二丁目２番７号株式会社ユニコム（9120001071689）に合併し解散,2015-10-05,1,,,,,ドウム,0
1926,7122001002122,登記記録の閉鎖等,0,2024-04-12,2024-04-09,株式会社健民社,,株式会社,奈良県,奈良市,学園大和町５丁目１９６番地,,29,201,6310041,,,2024-04-09,清算の結了等,,,2015-10-05,1,,,,,ケンミンシャ,0
1935,7140001050890,登記記録の閉鎖等,0,2024-04-12,2024-04-03,株式会社ヒシダイ,,株式会社,兵庫県,尼崎市,神崎町１２番３９号,,28,202,6610964,,,2024-04-03,清算の結了等,,,2015-10-05,1,,,,,ヒシダイ,0
1941,7140001095713,登記記録の閉鎖等,0,2024-04-12,2024-04-04,株式会社ＳＡＮＫＯ,,株式会社,兵庫県,三田市,大原１３２３番地４８,,28,219,6691515,,,2024-04-04,清算の結了等,,,2015-10-05,1,,,,,,0
1945,7140002056210,登記記録の閉鎖等,0,2024-04-12,2024-04-05,有限会社銀の鍵,,有限会社,兵庫県,西宮市,菊谷町１０番２６号,,28,204,6620078,,,2024-04-05,清算の結了等,,,2015-10-05,1,,,,,,0
1952,7180001016236,登記記録の閉鎖等,0,2024-04-12,2024-04-02,株式会社エピック,,株式会社,愛知県,名古屋市名東区,名東本町１７０番地,,23,115,4650088,,,2024-04-02,清算の結了等,,,2015-10-05,1,,,,,エピック,0
1959,7180003023379,登記記録の閉鎖等,0,2024-04-12,2024-04-01,合同会社岡松教育進学研究所,,合同会社,愛知県,名古屋市瑞穂区,春山町１４番地の１八事春山ヒルズ３０７号,,23,108,4670024,,,2024-04-01,清算の結了等,,,2022-01-17,1,,,,,オカマツキョウイクシンガクケンキュウジョ,0
2009,7400002007038,登記記録の閉鎖等,0,2024-04-12,2024-04-02,有限会社きくや薬局,,有限会社,岩手県,紫波郡紫波町,日詰字郡山駅２１８番地,,03,321,0283305,,,2024-04-02,清算の結了等,,,2015-10-05,1,,,,,キクヤヤッキョク,0
2013,7430001055927,登記記録の閉鎖等,0,2024-04-12,2024-04-01,株式会社ミリオンファーム,,株式会社,北海道,浦河郡浦河町,字上向別６６番地,,01,607,0570027,,,2024-04-01,合併による解散等,9430001055801,令和６年４月１日北海道浦河郡浦河町字野深５５８番地の２３株式会社浦河ファーム（9430001055801）に合併し解散,2015-10-05,1,,,,,ミリオンファーム,0
2020,7480002001941,登記記録の閉鎖等,0,2024-04-12,2024-04-03,有限会社佐野プランニング,,有限会社,徳島県,徳島市,川内町大松１１７番地,,36,201,7710131,,,2024-04-03,清算の結了等,,,2015-10-05,1,,,,,サノプランニング,0
2026,8000020238414,登記記録の閉鎖等,0,2024-04-12,2024-03-31,常滑武豊衛生組合,,地方公共団体,愛知県,知多郡武豊町,字壱町田２７,,23,447,4702301,,,2024-03-31,その他の清算の結了等,,,2015-10-05,1,Tokoname Taketoyo Sanitary association,Aichi,"27 Aza-Icchoda, Chita gun Taketoyo town ",,トコナメタケトヨエイセイクミアイ,0
2043,8010401092628,登記記録の閉鎖等,0,2024-04-12,2024-04-01,Ｎｏｒｅｎ株式会社,,株式会社,東京都,港区,南青山１丁目１５番９号,,13,103,1070062,,,2024-04-01,合併による解散等,3010401163037,令和６年４月１日東京都港区南青山一丁目１５番９号ＳＯＥＬ株式会社（3010401163037）に合併し解散,2015-10-05,1,,,,,ノレン,0
2044,8010401103731,登記記録の閉鎖等,0,2024-04-12,2024-04-08,クラウドクレジット株式会社,,株式会社,東京都,中央区,日本橋茅場町１丁目８番１号,,13,102,1030025,,,2024-04-08,合併による解散等,7010501031841,令和６年４月１日東京都中央区日本橋茅場町一丁目８番１号株式会社バンカーズ・クラウドクレジット・ファンディング（7010501031841）に合併し解散,2015-10-05,1,,,,,クラウドクレジット,0
2059,8010601004110,登記記録の閉鎖等,0,2024-04-12,2024-04-09,株式会社砂町運輸,,株式会社,東京都,江東区,有明４丁目８番６号東京港フェリー埠頭ターミナルビル３階５－２号室,,13,108,1350063,,,2024-04-09,合併による解散等,7010401026743,令和６年４月１日東京都港区浜松町一丁目２９番６号富士港運株式会社（7010401026743）に合併し解散,2015-10-05,1,,,,,スナマチウンユ,0
2064,8010605001723,登記記録の閉鎖等,0,2024-04-12,2024-04-05,一般社団法人新木場再開発コンソーシアム,,その他の設立登記法人,東京都,江東区,新木場１丁目１８番６号,,13,108,1360082,,,2024-04-05,清算の結了等,,,2015-10-05,1,,,,,シンキバサイカイハツコンソーシアム,0
2067,8010802005568,登記記録の閉鎖等,0,2024-04-12,2024-04-03,有限会社コペル天明,,有限会社,東京都,大田区,仲池上１丁目１５番５－３０１号,,13,111,1460081,,,2024-04-03,清算の結了等,,,2015-10-05,1,,,,,コペルテンミョウ,0
2088,8011401000968,登記記録の閉鎖等,0,2024-04-12,2024-04-04,エヌ・オー・ティシステム株式会社,,株式会社,埼玉県,川口市,飯塚１丁目２番１６号,,11,203,3320023,,,2024-04-04,清算の結了等,,,2015-10-05,1,,,,,エヌオーティシステム,0
2092,8011602012060,登記記録の閉鎖等,0,2024-04-12,2024-04-03,有限会社浅間,,有限会社,東京都,練馬区,東大泉１丁目３７番５号,,13,120,1780063,,,2024-04-03,清算の結了等,,,2015-10-05,1,,,,,センゲン,0
2100,8011801043352,登記記録の閉鎖等,0,2024-04-12,2024-04-09,株式会社アドミサポート,,株式会社,東京都,足立区,綾瀬３丁目１９番１６号松代ビル２０２,,13,121,1200005,,,2024-04-09,合併による解散等,9021001037459,令和６年４月１日東京都千代田区外神田一丁目１６番８号ＧＥＥＫＳＡＫＩＨＡＢＡＲＡ２階Ｓ区画株式会社ミライラボラトリー（9021001037459）に合併し解散,2023-11-15,1,,,,,アドミサポート,0
2141,8030002111644,登記記録の閉鎖等,0,2024-04-12,2024-04-03,有限会社タカギ,,有限会社,埼玉県,川口市,赤井４丁目８番１５号,,11,203,3340073,,,2024-04-03,清算の結了等,,,2015-10-05,1,,,,,タカギ,0
2147,8040001020069,登記記録の閉鎖等,0,2024-04-12,2024-04-01,株式会社横河ニューライフ,,株式会社,東京都,港区,芝浦４丁目４番４４号,,13,103,1080023,,,2024-04-01,合併による解散等,9010401030578,令和６年４月１日東京都港区芝浦四丁目４番４４号株式会社横河ブリッジホールディングス（9010401030578）に合併し解散,2015-10-05,1,,,,,ヨコガワニューライフ,0
2150,8040001046774,登記記録の閉鎖等,0,2024-04-12,2024-04-08,株式会社日本エナジーコンポーネンツ,,株式会社,茨城県,石岡市,柏原４番地２,,08,205,3150002,,,2024-04-08,合併による解散等,2010401157080,令和６年４月１日東京都港区愛宕二丁目５番１号愛宕グリーンヒルズＭＯＲＩタワー株式会社日本エナジーコンポーネンツ（2010401157080）に合併し解散,2015-10-05,1,,,,,,0
2153,8040002052202,登記記録の閉鎖等,0,2024-04-12,2024-04-01,有限会社美容室モン,,有限会社,千葉県,流山市,南流山１丁目９番１号,,12,220,2700163,,,2024-04-01,清算の結了等,,,2015-10-05,1,,,,,ビヨウシツモン,0
2154,8040002087801,登記記録の閉鎖等,0,2024-04-12,2024-04-04,有限会社翼ハウジング,,有限会社,千葉県,香取市,八日市場７９５番地,,12,236,2890311,,,2024-04-04,清算の結了等,,,2015-10-05,1,,,,,ツバサハウジング,0
2163,8050001023260,登記記録の閉鎖等,0,2024-04-12,2024-04-09,シンコーワールド株式会社,,株式会社,茨城県,日立市,相田町２丁目９番１３号,,08,202,3191415,,,2024-04-09,清算の結了等,,,2015-10-05,1,,,,,シンコーワールド,0
2164,8050001053968,登記記録の閉鎖等,0,2024-04-12,2024-04-09,ＪＶファシリティーズ株式会社,,株式会社,茨城県,常総市,水海道本町２６１２番地３ＪＶビル３０２号,,08,211,3030026,,,2024-04-09,清算の結了等,,,2023-12-15,1,,,,,,0
2184,8080401012422,登記記録の閉鎖等,0,2024-04-12,2024-04-11,株式会社愛美,,株式会社,静岡県,浜松市中央区,中島３丁目１７番７号,,22,138,4300856,,,2024-04-11,清算の結了等,,,2015-10-05,1,,,,,ナルミ,0
2207,8120102010621,登記記録の閉鎖等,0,2024-04-12,2024-04-09,有限会社エヌティファッション,,有限会社,大阪府,堺市南区,槇塚台２丁１２番１号,,27,145,5900114,,,2024-04-09,清算の結了等,,,2015-10-05,1,,,,,エヌティファッション,0
2218,8140001037730,登記記録の閉鎖等,0,2024-04-12,2024-04-10,ハクト技研株式会社,,株式会社,兵庫県,明石市,相生町１丁目１０番３６－１３０３号,,28,203,6730882,,,2024-04-10,清算の結了等,,,2015-10-05,1,,,,,ハクトギケン,0
2220,8140001076183,登記記録の閉鎖等,0,2024-04-12,2024-04-05,株式会社協栄,,株式会社,兵庫県,加西市,坂本町６９８番地の１,,28,220,6752222,,,2024-04-05,清算の結了等,,,2015-10-05,1,,,,,キョウエイ,0
2237,8180001002573,登記記録の閉鎖等,0,2024-04-12,2024-04-08,都市ビルサービス株式会社,,株式会社,愛知県,名古屋市中区,錦３丁目５番３０号三晃錦ビル,,23,106,4600003,,,2024-04-08,合併による解散等,5470001000435,令和６年４月１日香川県高松市紺屋町３番地６株式会社穴吹ハウジングサービス（5470001000435）に合併し解散,2015-10-05,1,,,,,トシビルサービス,0
2244,8180001139267,登記記録の閉鎖等,0,2024-04-12,2024-04-01,株式会社ＴＲＹ　ＭＩＸ　ＰＡＲＡＤＩＳＥ,,株式会社,愛知県,半田市,州の崎町２番地の１４０,,23,205,4750021,,,2024-04-01,合併による解散等,2180001012933,令和６年３月３１日名古屋市北区天道町五丁目３７番地トミタパックス株式会社（2180001012933）に合併し解散,2019-12-17,1,,,,,トライミックスパラダイス,0
2261,8200003001901,登記記録の閉鎖等,0,2024-04-12,2024-04-09,合資会社大垣木工所,,合資会社,岐阜県,大垣市,寺内町３丁目６８番地,,21,202,5030865,,,2024-04-09,清算の結了等,,,2015-10-05,1,,,,,オオガキモッコウショ,0
2288,8330002017282,登記記録の閉鎖等,0,2024-04-12,2024-04-10,有限会社松永農機サービス,,有限会社,熊本県,合志市,須屋１３９５番地８,,43,216,8611102,,,2024-04-10,清算の結了等,,,2015-10-05,1,,,,,マツナガノウキサービス,0
2291,8360001012380,登記記録の閉鎖等,0,2024-04-12,2024-04-09,本部建設株式会社,,株式会社,沖縄県,国頭郡本部町,字大浜８６３番地の１,,47,308,9050212,,,2024-04-09,清算の結了等,,,2015-10-05,1,,,,,モトブケンセツ,0
2298,8370003004722,登記記録の閉鎖等,0,2024-04-12,2024-04-01,合同会社ＬＢ,,合同会社,宮城県,仙台市泉区,虹の丘４丁目１８番地の７,,04,105,9818007,,,2024-04-01,合併による解散等,6370001018049,令和６年４月１日仙台市泉区虹の丘四丁目１８番地の７株式会社プラス（6370001018049）に合併し解散,2020-02-21,1,,,,,エルビー,0
2316,8420002018437,登記記録の閉鎖等,0,2024-04-12,2024-04-02,有限会社大誠工業,,有限会社,青森県,上北郡東北町,上北南２丁目３１番地２４４,,02,408,0392405,,,2024-04-02,清算の結了等,,,2015-10-05,1,,,,,,0
2318,8430001008875,登記記録の閉鎖等,0,2024-04-12,2024-04-01,株式会社エミック,,株式会社,北海道,札幌市中央区,南七条西８丁目１番１８号,,01,101,0640807,,,2024-04-01,合併による解散等,6430001068120,令和６年４月１日札幌市豊平区水車町六丁目３番１号ジャパンエレベーターサービス北海道株式会社（6430001068120）に合併し解散,2015-10-05,1,,,,,エミック,0
2322,8430005014416,登記記録の閉鎖等,0,2024-04-12,2024-04-03,一般社団法人南雅子・整体エステ協会,,その他の設立登記法人,北海道,札幌市中央区,宮の森四条１０丁目１の１０いづみハイツ宮の森,,01,101,0640954,,,2024-04-03,清算の結了等,,,2022-04-14,1,,,,,,0
2326,8480005004107,登記記録の閉鎖等,0,2024-04-12,2024-04-04,阿波旅客自動車協同組合,,その他の設立登記法人,徳島県,小松島市,中田町字東山４５番地の９,,36,203,7730015,,,2024-04-04,清算の結了等,,,2015-10-05,1,,,,,アワリョキャクジドウシャ,0
2335,9010001194492,登記記録の閉鎖等,0,2024-04-12,2024-04-01,今田建設ホールディングス株式会社,,株式会社,大阪府,大阪市浪速区,敷津東２丁目６番９号,,27,111,5560012,,,2024-04-01,合併による解散等,5120001037322,令和６年４月１日大阪市浪速区敷津東二丁目６番９号今田建設株式会社（5120001037322）に合併し解散,2018-08-31,1,,,,,イマダケンセツホールディングス,0
2348,9010401088617,登記記録の閉鎖等,0,2024-04-12,2024-04-08,エム・シー・メディカル株式会社,,株式会社,東京都,港区,港南２丁目１６番１号,,13,103,1080075,,,2024-04-08,合併による解散等,4120001143360,令和６年４月１日大阪市中央区今橋二丁目５番８号エム・シー・メディカル株式会社（4120001143360）に合併し解散,2015-10-05,1,,,,,エムシーメディカル,0
2368,9010901033700,登記記録の閉鎖等,0,2024-04-12,2024-04-09,ＴＭ　Ｅｎｇｌｉｓｈ　Ａｃａｄｅｍｙ株式会社,,株式会社,東京都,世田谷区,上北沢１丁目１番５号,,13,112,1560057,,,2024-04-09,清算の結了等,,,2015-10-05,1,,,,,ティーエムイングリッシュアカデミー,0
2374,9011001103971,登記記録の閉鎖等,0,2024-04-12,2024-04-08,株式会社ライボ,,株式会社,東京都,渋谷区,道玄坂１丁目１９番９号,,13,113,1500043,,,2024-04-08,合併による解散等,2010401089183,令和６年４月１日東京都千代田区丸の内二丁目４番１号パーソルキャリア株式会社（2010401089183）に合併し解散,2015-10-05,1,,,,,ライボ,0
2379,9011101019218,登記記録の閉鎖等,0,2024-04-12,2024-04-09,株式会社フジテックス,,株式会社,東京都,新宿区,大久保３丁目８番２号住友不動産新宿ガーデンタワー,,13,104,1690072,,,2024-04-09,合併による解散等,7010401167843,令和６年４月１日東京都港区虎ノ門一丁目２３番１号ジャフコグループ株式会社内株式会社フジテックス（7010401167843）に合併し解散,2015-10-05,1,,,,,フジテックス,0
2389,9011501008159,登記記録の閉鎖等,0,2024-04-12,2024-04-02,株式会社日創建築設計事務所,,株式会社,東京都,荒川区,東日暮里５丁目２３番８号,,13,118,1160014,,,2024-04-02,清算の結了等,,,2015-10-05,1,,,,,ニッソウケンチクセッケイジムショ,0
2432,9030001132310,登記記録の閉鎖等,0,2024-04-12,2024-04-10,クリタ北関東株式会社,,株式会社,埼玉県,白岡市,新白岡９丁目１５番地３,,11,246,3490212,,,2024-04-10,合併による解散等,3021001024454,令和６年４月１日神奈川県相模原市中央区共和三丁目１５番７号クリタ東日本株式会社（3021001024454）に合併し解散,2019-08-08,1,,,,,クリタキタカントウ,0
2453,9040002041724,登記記録の閉鎖等,0,2024-04-12,2024-04-04,有限会社松田設備,,有限会社,千葉県,浦安市,堀江１丁目２４番１１号,,12,227,2790041,,,2024-04-04,清算の結了等,,,2015-10-05,1,,,,,,0
2474,9090002004528,登記記録の閉鎖等,0,2024-04-12,2024-04-03,有限会社エスアイエヌ,,有限会社,山梨県,中巨摩郡昭和町,西条１０９６番地の１,,19,384,4093866,,,2024-04-03,清算の結了等,,,2015-10-05,1,,,,,エスアイエヌ,0
2499,9122001001452,登記記録の閉鎖等,0,2024-04-12,2024-04-09,株式会社キオイ電気商会,,株式会社,大阪府,東大阪市,上小阪２丁目４番１号,,27,227,5770806,,,2024-04-09,清算の結了等,,,2015-10-05,1,,,,,キオイデンキショウカイ,0
2511,9140001016089,登記記録の閉鎖等,0,2024-04-12,2024-04-08,株式会社三建,,株式会社,兵庫県,神戸市長田区,菅原通１丁目５番地の１６,,28,106,6530015,,,2024-04-08,清算の結了等,,,2015-10-05,1,,,,,サンケン,0
2519,9150001010140,登記記録の閉鎖等,0,2024-04-12,2024-04-09,株式会社ｋｕｄｚｕ　ｐｌａｎｎｉｎｇ,,株式会社,奈良県,宇陀市,大宇陀上新１９２１番地,,29,212,6332161,,,2024-04-09,清算の結了等,,,2015-10-05,1,,,,,クズプランニング,0
2523,9160002004438,登記記録の閉鎖等,0,2024-04-12,2024-04-01,有限会社ブルーウィング,,有限会社,滋賀県,大津市,雄琴３丁目１１番１４号,,25,201,5200101,,,2024-04-01,清算の結了等,,,2015-10-05,1,,,,,ブルーウィング,0
2525,9160002011657,登記記録の閉鎖等,0,2024-04-12,2024-04-03,有限会社グリーンサポート新旭,,有限会社,滋賀県,高島市,新旭町旭２０４０番地の１,,25,212,5201501,,,2024-04-03,合併による解散等,9160002011178,令和６年４月１日滋賀県高島市今津町日置前３７７番地２株式会社アグリサポート高島（9160002011178）に合併し解散,2015-10-05,1,,,,,グリーンサポートシンアサヒ,0
2537,9180302003831,登記記録の閉鎖等,0,2024-04-12,2024-04-02,有限会社写真のかとう,,有限会社,愛知県,岡崎市,庄司田３丁目９番地１５,,23,202,4440821,,,2024-04-02,清算の結了等,,,2015-10-05,1,,,,,シャシンノカトウ,0
2541,9200001024779,登記記録の閉鎖等,0,2024-04-12,2024-04-09,株式会社紀旺,,株式会社,岐阜県,高山市,上岡本町３丁目３１６番地１,,21,203,5060055,,,2024-04-09,清算の結了等,,,2015-10-05,1,,,,,キオウ,0
2556,9290002036377,登記記録の閉鎖等,0,2024-04-12,2024-03-26,有限会社篠栗商事不動産,,有限会社,福岡県,糟屋郡篠栗町,大字篠栗４７９２番地の１０,,40,342,8112405,,,2024-03-26,清算の結了等,,,2015-10-05,1,,,,,ササグリショウジフドウサン,0
2566,9330005006554,登記記録の閉鎖等,0,2024-04-12,2024-04-04,企業組合エコネットみなまた,,その他の設立登記法人,熊本県,水俣市,南福寺６０番地,,43,205,8670023,,,2024-04-04,清算の結了等,,,2015-10-05,1,,,,,エコネットミナマタ,0
2571,9350001006614,登記記録の閉鎖等,0,2024-04-12,2024-04-03,アサイ日通プロパン株式会社,,株式会社,宮崎県,延岡市,船倉町２丁目５番地３,,45,203,8820826,,,2024-04-03,清算の結了等,,,2015-10-05,1,,,,,アサイニッツウプロパン,0
2579,9370003004721,登記記録の閉鎖等,0,2024-04-12,2024-04-01,合同会社ｃｏｃｏｎ,,合同会社,宮城県,仙台市泉区,上谷刈１丁目５番８号,,04,105,9813121,,,2024-04-01,合併による解散等,6370001018049,令和６年４月１日仙台市泉区虹の丘四丁目１８番地の７株式会社プラス（6370001018049）に合併し解散,2020-02-21,1,,,,,ココン,0
2594,9420005004251,登記記録の閉鎖等,0,2024-04-12,2024-04-02,農事組合法人出来島みらい集落営農組合,,その他の設立登記法人,青森県,つがる市,木造出来島雉子森堀切２１４番地４,,02,209,0383288,,,2024-04-02,清算の結了等,,,2015-10-05,1,,,,,デキシマミライシュウラクエイノウクミアイ,0
2598,9430001084494,登記記録の閉鎖等,0,2024-04-12,2024-04-03,株式会社Ｋ．Ｉ．Ｇ,,株式会社,北海道,札幌市北区,新琴似十一条６丁目２番１０号,,01,102,0010911,,,2024-04-03,清算の結了等,,,2021-07-09,1,,,,,ケーアイジー,0
2611,9480001005339,登記記録の閉鎖等,0,2024-04-12,2024-04-01,平田建設株式会社,,株式会社,徳島県,板野郡松茂町,笹木野字八北開拓５０番地,,36,401,7710219,,,2024-04-01,清算の結了等,,,2023-12-19,1,,,,,ヒラタケンセツ,0
