sequenceNumber,corporateNumber,process,correct,updateDate,changeDate,name,nameImageId,kind,prefectureName,cityName,streetNumber,addressImageId,prefectureCode,cityCode,postCode,addressOutside,addressOutsideImageId,closeDate,closeCause,successorCorporateNumber,changeCause,assignmentDate,latest,enName,enPrefectureName,enCityName,enAddressOutside,furigana,hihyoji
26,1010003031701,登記記録の閉鎖等,0,2024-09-30,2024-09-12,新宿マネージメント合同会社,,合同会社,東京都,千代田区,丸の内１丁目１１番１号,,13,101,1000005,,,2024-09-12,清算の結了等,,,2020-02-25,1,,,,,シンジュクマネージメント,0
36,1010505002811,登記記録の閉鎖等,0,2024-09-30,2024-09-20,一般社団法人ニッポンおかみさん会,,その他の設立登記法人,東京都,台東区,浅草１丁目１３番４号,,13,106,1110032,,,2024-09-20,清算の結了等,,,2017-08-17,1,,,,,ニッポンオカミサンカイ,0
39,1010602018842,登記記録の閉鎖等,0,2024-09-30,2024-09-27,有限会社サン・グリーン,,有限会社,東京都,墨田区,立花２丁目２５番３号,,13,107,1310043,,,2024-09-27,清算の結了等,,,2015-10-05,1,,,,,,0
45,1010902012818,登記記録の閉鎖等,0,2024-09-30,2024-09-12,有限会社フィード・アップ,,有限会社,東京都,世田谷区,用賀１丁目１５番１２号,,13,112,1580097,,,2024-09-12,清算の結了等,,,2015-10-05,1,,,,,,0
47,1011001008030,登記記録の閉鎖等,0,2024-09-30,2024-08-09,株式会社小阪自工,,株式会社,東京都,渋谷区,初台２丁目２６番３号,,13,113,1510061,,,2024-08-09,清算の結了等,,,2023-12-27,1,,,,,コサカジコウ,0
49,1011001128068,登記記録の閉鎖等,0,2024-09-30,2024-09-02,株式会社ｕｔｏｐｉａ,,株式会社,東京都,渋谷区,上原１丁目３６番７号茂庭ハウス代々木上原４Ａ号室,,13,113,1510064,,,2024-09-02,合併による解散等,2011001102476,令和６年９月１日東京都渋谷区神宮前三丁目３１番６号株式会社ハイピース（2011001102476）に合併し解散,2019-05-17,1,,,,,ユートピア,0
51,1011002035197,登記記録の閉鎖等,0,2024-09-30,2024-08-30,株式会社ベルボトム,,株式会社,東京都,渋谷区,神宮前５丁目３番２１号,,13,113,1500001,,,2024-08-30,清算の結了等,,,2015-10-05,1,,,,,ベルボトム,0
52,1011005009941,登記記録の閉鎖等,0,2024-09-30,2024-09-03,一般社団法人日本消費者機構,,その他の設立登記法人,東京都,渋谷区,代々木１丁目５７番２号ドルミ代々木２０１,,13,113,1510053,,,2024-09-03,清算の結了等,,,2023-02-10,1,,,,,ニホンショウヒシャキコウ,0
55,1011101021552,登記記録の閉鎖等,0,2024-09-30,2024-09-17,株式会社やまわ長生堂,,株式会社,東京都,新宿区,西新宿５丁目１６番３号,,13,104,1600023,,,2024-09-17,清算の結了等,,,2015-10-05,1,,,,,ヤマワチョウセイドウ,0
69,1011805003020,登記記録の閉鎖等,0,2024-09-30,2024-09-24,一般社団法人ハワイアンマナヒーリングの会,,その他の設立登記法人,東京都,足立区,谷中５丁目８番５号Ａ２０２,,13,121,1200006,,,2024-09-24,清算の結了等,,,2020-11-16,1,,,,,ハワイアンマナヒーリングノカイ,0
70,1012301005816,登記記録の閉鎖等,0,2024-09-30,2024-09-24,プリミアテクノロジーズ株式会社,,株式会社,東京都,町田市,玉川学園７丁目５番２号,,13,209,1940041,,,2024-09-24,清算の結了等,,,2015-10-05,1,,,,,プリミアテクノロジーズ,0
77,1013402003097,登記記録の閉鎖等,0,2024-09-30,2024-09-30,有限会社横沢エンジニアリング,,有限会社,東京都,多摩市,南野２丁目９番１０号,,13,224,2060032,,,2024-09-30,清算の結了等,,,2015-10-05,1,,,,,,0
84,1020002040693,登記記録の閉鎖等,0,2024-09-30,2024-09-12,有限会社ゆきの,,有限会社,神奈川県,横浜市鶴見区,東寺尾北台３番６号,,14,101,2300016,,,2024-09-12,清算の結了等,,,2015-10-05,1,,,,,ユキノ,0
85,1020002052268,登記記録の閉鎖等,0,2024-09-30,2024-09-12,有限会社アップライズ,,有限会社,神奈川県,横浜市南区,永田北２丁目４９番９号,,14,105,2320071,,,2024-09-12,清算の結了等,,,2015-10-05,1,,,,,アップライズ,0
94,1030001038069,登記記録の閉鎖等,0,2024-09-30,2024-09-20,スマーク株式会社,,株式会社,埼玉県,草加市,瀬崎４丁目１番２１号,,11,221,3400022,,,2024-09-20,清算の結了等,,,2015-10-05,1,,,,,スマーク,0
102,1030002022947,登記記録の閉鎖等,0,2024-09-30,2024-09-20,有限会社フォーチュン,,有限会社,埼玉県,さいたま市岩槻区,諏訪４丁目１番３号,,11,110,3390007,,,2024-09-20,清算の結了等,,,2015-10-05,1,,,,,フォーチュン,0
104,1030002090977,登記記録の閉鎖等,0,2024-09-30,2024-09-19,有限会社サイトウ企画,,有限会社,埼玉県,久喜市,青葉４丁目１３番地１,,11,232,3460013,,,2024-09-19,清算の結了等,,,2015-10-05,1,,,,,サイトウキカク,0
105,1030003014571,登記記録の閉鎖等,0,2024-09-30,2024-09-19,イスト合同会社,,合同会社,埼玉県,さいたま市緑区,大字三室１４９９番地１,,11,109,3360911,,,2024-09-19,清算の結了等,,,2019-12-25,1,,,,,イスト,0
110,1040001108614,登記記録の閉鎖等,0,2024-09-30,2024-09-20,株式会社Ｎｅｘｔ　ｉｎｎｏｖａｔｉｏｎ,,株式会社,千葉県,船橋市,習志野１丁目１３番３号,,12,204,2740071,,,2024-09-20,清算の結了等,,,2019-04-08,1,,,,,ネクストイノベーション,0
114,1050001048033,登記記録の閉鎖等,0,2024-09-30,2024-09-18,株式会社侑栄,,株式会社,茨城県,古河市,尾崎４３５番地１４,,08,204,3060101,,,2024-09-18,清算の結了等,,,2020-09-09,1,,,,,ユウエイ,0
129,1100001003197,登記記録の閉鎖等,0,2024-09-30,2024-09-19,株式会社マイシン建設,,株式会社,長野県,長野市,安茂里小市１丁目３０番１９号,,20,201,3800961,,,2024-09-19,清算の結了等,,,2015-10-05,1,,,,,マイシンケンセツ,0
137,1120001136524,登記記録の閉鎖等,0,2024-09-30,2024-09-13,株式会社ｆｌｅｕｒｉｒ,,株式会社,東京都,中央区,銀座２丁目１４番１６号,,13,102,1040061,,,2024-09-13,清算の結了等,,,2015-10-05,1,,,,,フルリール,0
140,1120001223586,登記記録の閉鎖等,0,2024-09-30,2024-09-26,共信国際株式会社,,株式会社,大阪府,大阪市浪速区,下寺３丁目１２番３－５０３号,,27,111,5560001,,,2024-09-26,清算の結了等,,,2019-09-06,1,,,,,キョウシンコクサイ,0
148,1120101000729,登記記録の閉鎖等,0,2024-09-30,2024-09-27,乾建設株式会社,,株式会社,大阪府,堺市堺区,百舌鳥夕雲町１丁２８番地１０,,27,141,5900802,,,2024-09-27,清算の結了等,,,2015-10-05,1,,,,,イヌイケンセツ,0
178,1180002061848,登記記録の閉鎖等,0,2024-09-30,2024-09-18,新都開発有限会社,,有限会社,愛知県,豊田市,山之手４丁目７１番地,,23,211,4710833,,,2024-09-18,清算の結了等,,,2015-10-05,1,,,,,シントカイハツ,0
190,1250001005807,登記記録の閉鎖等,0,2024-09-30,2024-09-25,株式会社大一石油,,株式会社,山口県,下関市,幡生町２丁目１２番１８号,,35,201,7510828,,,2024-09-25,清算の結了等,,,2015-10-05,1,,,,,ダイイチセキユ,0
191,1250003002703,登記記録の閉鎖等,0,2024-09-30,2024-09-26,合同会社和奏の響,,合同会社,山口県,宇部市,大字東須恵４２９番地６,,35,202,7590206,,,2024-09-26,清算の結了等,,,2020-10-06,1,,,,,ワカナノヒビキ,0
209,1340002016587,登記記録の閉鎖等,0,2024-09-30,2024-09-25,有限会社クリンプラスチック,,有限会社,鹿児島県,薩摩川内市,御陵下町６４４５番地６,,46,215,8950061,,,2024-09-25,清算の結了等,,,2015-10-05,1,,,,,クリンプラスチック,0
215,1370101001636,登記記録の閉鎖等,0,2024-09-30,2024-09-05,ジェラルドラン株式会社,,株式会社,宮城県,柴田郡柴田町,西船迫４丁目１番地６０,,04,323,9891622,,,2024-09-05,清算の結了等,,,2015-10-05,1,,,,,ジェラルドラン,0
231,2010001043292,登記記録の閉鎖等,0,2024-09-30,2024-09-20,株式会社小駒商事,,株式会社,東京都,杉並区,永福２丁目１７番１９号,,13,115,1680064,,,2024-09-20,清算の結了等,,,2015-10-05,1,,,,,コゴマショウジ,0
243,2010003023920,登記記録の閉鎖等,0,2024-09-30,2024-09-13,アセットファイナンス南船場合同会社,,合同会社,東京都,中央区,京橋１丁目１１番１号,,13,102,1040031,,,2024-09-13,清算の結了等,,,2016-08-02,1,,,,,アセットファイナンスミナミセンバ,0
244,2010003031519,登記記録の閉鎖等,0,2024-09-30,2024-09-12,新宿プロパティー２合同会社,,合同会社,東京都,千代田区,丸の内１丁目１１番１号,,13,101,1000005,,,2024-09-12,清算の結了等,,,2020-01-27,1,,,,,シンジュクプロパティーツー,0
251,2010401098325,登記記録の閉鎖等,0,2024-09-30,2024-09-13,株式会社ティー・ラウンジ,,株式会社,東京都,文京区,小石川２丁目１番２号,,13,105,1120002,,,2024-09-13,清算の結了等,,,2015-10-05,1,,,,,ティーラウンジ,0
273,2011002021725,登記記録の閉鎖等,0,2024-09-30,2024-09-24,有限会社アイディア・スコープ・インターナショナル,,有限会社,栃木県,鹿沼市,上殿町９３０番地１アイリージャミンＢ２０１,,09,205,3220045,,,2024-09-24,清算の結了等,,,2015-10-05,1,,,,,アイディアスコープインターナショナル,0
274,2011101031410,登記記録の閉鎖等,0,2024-09-30,2024-09-17,株式会社ジヤパンフレツシユセンター,,株式会社,東京都,新宿区,北新宿４丁目１番９号,,13,104,1690074,,,2024-09-17,清算の結了等,,,2015-10-05,1,,,,,ジヤパンフレツシユセンター,0
277,2011101073031,登記記録の閉鎖等,0,2024-09-30,2024-09-13,センセイプレイス株式会社,,株式会社,東京都,新宿区,西新宿３丁目３番１３号西新宿水間ビル２Ｆ,,13,104,1600023,,,2024-09-13,清算の結了等,,,2015-10-05,1,,,,,センセイプレイス,0
303,2020003012006,登記記録の閉鎖等,0,2024-09-30,2024-09-12,合同会社中山総合サービス,,合同会社,神奈川県,横浜市中区,伊勢佐木町２丁目６３番地,,14,104,2310045,,,2024-09-12,清算の結了等,,,2016-11-09,1,,,,,ナカヤマソウゴウサービス,0
311,2021002038297,登記記録の閉鎖等,0,2024-09-30,2024-09-26,有限会社中村工務店,,有限会社,神奈川県,秦野市,渋沢上２丁目１番１号,,14,211,2591326,,,2024-09-26,清算の結了等,,,2015-10-05,1,,,,,ナカムラコウムテン,0
315,2021005009460,登記記録の閉鎖等,0,2024-09-30,2024-09-27,特定非営利活動法人Ｒｅｌａｔｉｏｎ,,その他の設立登記法人,神奈川県,伊勢原市,沼目３丁目２番５号サンモール石井２０１号,,14,214,2591126,,,2024-09-27,清算の結了等,,,2015-10-05,1,,,,,リレーション,0
333,2050002020808,登記記録の閉鎖等,0,2024-09-30,2024-09-19,有限会社茨城イワヤ,,有限会社,茨城県,つくば市,北中島３８３番地４,,08,220,3050072,,,2024-09-19,清算の結了等,,,2015-10-05,1,,,,,イバラキイワヤ,0
340,2070002015731,登記記録の閉鎖等,0,2024-09-30,2024-09-25,有限会社竹の里,,有限会社,群馬県,安中市,松井田町五料字立野２０９８番１,,10,211,3790302,,,2024-09-25,清算の結了等,,,2015-10-05,1,,,,,タケノサト,0
341,2070002025045,登記記録の閉鎖等,0,2024-09-30,2024-09-20,有限会社山崎商店,00025772,有限会社,群馬県,みどり市,東町小夜戸７３１番地１,,10,212,3760305,,,2024-09-20,清算の結了等,,,2015-10-05,1,,,,,ヤマザキショウテン,0
342,2070005000937,登記記録の閉鎖等,0,2024-09-30,2024-09-20,一般社団法人群馬県繊維連合会,,その他の設立登記法人,群馬県,前橋市,大手町１丁目１番１号,,10,201,3710026,,,2024-09-20,清算の結了等,,,2015-10-05,1,,,,,グンマケンセンイレンゴウカイ,0
344,2080002014988,登記記録の閉鎖等,0,2024-09-30,2024-09-19,有限会社マルイチ,,有限会社,静岡県,牧之原市,堀野新田９９番地の１,,22,226,4210534,,,2024-09-19,清算の結了等,,,2015-10-05,1,,,,,マルイチ,0
360,2120101054526,登記記録の閉鎖等,0,2024-09-30,2024-09-25,株式会社新高,,株式会社,大阪府,堺市西区,堀上緑町２丁２１番１号,,27,144,5938305,,,2024-09-25,清算の結了等,,,2016-04-01,1,,,,,シンコウ,0
363,2120901033992,登記記録の閉鎖等,0,2024-09-30,2024-09-19,寺島会計株式会社,,株式会社,大阪府,吹田市,豊津町１番１８号,,27,205,5640051,,,2024-09-19,清算の結了等,,,2015-10-05,1,,,,,テラシマカイケイ,0
366,2122001019162,登記記録の閉鎖等,0,2024-09-30,2024-09-26,大阪企画株式会社,,株式会社,京都府,京都市伏見区,三栖町１丁目７８０番地２アーバンコンフォート５０６号室,,26,109,6128233,,,2024-09-26,清算の結了等,,,2015-10-05,1,,,,,オオサカキカク,0
378,2140002033767,登記記録の閉鎖等,0,2024-09-30,2024-09-25,有限会社カントー,,有限会社,兵庫県,相生市,那波大浜町４番１号,,28,208,6780051,,,2024-09-25,清算の結了等,,,2015-10-05,1,,,,,カントー,0
379,2140002046562,登記記録の閉鎖等,0,2024-09-30,2024-09-25,有限会社ふたばや,,有限会社,兵庫県,豊岡市,但東町中山８０５番地,,28,209,6680345,,,2024-09-25,清算の結了等,,,2015-10-05,1,,,,,フタバヤ,0
400,2180002018608,登記記録の閉鎖等,0,2024-09-30,2024-09-17,有限会社中京製綱,,有限会社,愛知県,名古屋市中川区,笈瀬町２丁目２４番地,00072949,23,110,4540026,,,2024-09-17,清算の結了等,,,2015-10-05,1,,,,,チュウキョウセイコウ,0
412,2210005000798,登記記録の閉鎖等,0,2024-09-30,2024-09-26,福井県絹織物工業協同組合,,その他の設立登記法人,福井県,福井市,大手３丁目７番１号,,18,201,9100005,,,2024-09-26,清算の結了等,,,2015-10-05,1,,,,,フクイケンキヌオリモノコウギョウ,0
420,2250002005986,登記記録の閉鎖等,0,2024-09-30,2024-09-20,有限会社若林事務所,,有限会社,山口県,宇部市,小松原町２丁目１番１１－１号,,35,202,7550066,,,2024-09-20,清算の結了等,,,2015-10-05,1,,,,,ワカバヤシジムショ,0
421,2250002014112,登記記録の閉鎖等,0,2024-09-30,2024-09-20,有限会社河野工務店,,有限会社,山口県,長門市,三隅下３２４６番地の２,,35,211,7593803,,,2024-09-20,清算の結了等,,,2015-10-05,1,,,,,カワノコウムテン,0
441,2340002021099,登記記録の閉鎖等,0,2024-09-30,2024-09-17,有限会社名音商事,,有限会社,鹿児島県,大島郡大和村,大字名音３８４番地２,,46,523,8943212,,,2024-09-17,清算の結了等,,,2015-10-05,1,,,,,ナオンショウジ,0
454,2470003000626,登記記録の閉鎖等,0,2024-09-30,2024-09-25,合同会社送電コンサルティング,,合同会社,香川県,高松市,栗林町１丁目９番１９,,37,201,7600073,,,2024-09-25,清算の結了等,,,2015-10-05,1,,,,,ソウデンコンサルティング,0
522,3030001131276,登記記録の閉鎖等,0,2024-09-30,2024-09-20,株式会社ベジノーバ,,株式会社,埼玉県,加須市,古川１丁目２番１,,11,210,3470004,,,2024-09-20,清算の結了等,,,2019-06-07,1,,,,,ベジノーバ,0
527,3040001014793,登記記録の閉鎖等,0,2024-09-30,2024-09-24,株式会社美角薬局,00018848,株式会社,千葉県,習志野市,津田沼５丁目１０番３号,,12,216,2750016,,,2024-09-24,清算の結了等,,,2015-10-05,1,,,,,ミカドヤッキョク,0
538,3040005019442,登記記録の閉鎖等,0,2024-09-30,2024-09-18,一般社団法人日本台湾深交会輝,,その他の設立登記法人,千葉県,船橋市,宮本８丁目２２番２６号,,12,204,2730003,,,2024-09-18,清算の結了等,,,2017-03-03,1,,,,,ニホンタイワンシンコウカイカガヤキ,0
541,3050002003423,登記記録の閉鎖等,0,2024-09-30,2024-09-18,洋建設有限会社,,有限会社,茨城県,水戸市,元吉田町１３１５番地,,08,201,3100836,,,2024-09-18,清算の結了等,,,2015-10-05,1,,,,,ヨウケンセツ,0
549,3070002015045,登記記録の閉鎖等,0,2024-09-30,2024-09-24,有限会社ＨＡＣＨＩＤＡＩ,,有限会社,群馬県,安中市,板鼻２１８４番地４,,10,211,3790111,,,2024-09-24,清算の結了等,,,2015-10-05,1,,,,,ハチダイ,0
550,3070002026348,登記記録の閉鎖等,0,2024-09-30,2024-09-25,有限会社上印青果,,有限会社,群馬県,渋川市,渋川１１２９番地,,10,208,3770008,,,2024-09-25,清算の結了等,,,2015-10-05,1,,,,,ジョウインセイカ,0
556,3080102003799,登記記録の閉鎖等,0,2024-09-30,2024-09-24,有限会社ヨシムラ,,有限会社,静岡県,沼津市,大手町４丁目５番１号,,22,203,4100801,,,2024-09-24,清算の結了等,,,2015-10-05,1,,,,,,0
562,3110003004843,登記記録の閉鎖等,0,2024-09-30,2024-09-18,合同会社ＨＡＰＰＹ　ＪＡＰＡＮ,,合同会社,新潟県,新潟市江南区,直り山８３１番地,,15,104,9500111,,,2024-09-18,清算の結了等,,,2022-08-16,1,,,,,ハッピージャパン,0
565,3120001077642,登記記録の閉鎖等,0,2024-09-30,2024-09-25,関西総合防災株式会社,,株式会社,大阪府,堺市堺区,香ヶ丘町２丁１２番７号,,27,141,5900011,,,2024-09-25,清算の結了等,,,2015-10-05,1,,,,,カンサイソウゴウボウサイ,0
577,3120005011110,登記記録の閉鎖等,0,2024-09-30,2024-09-26,特定非営利活動法人全人教育リプル,,その他の設立登記法人,大阪府,大阪市阿倍野区,阿倍野筋３丁目１２番３－１４０８号,,27,119,5450052,,,2024-09-26,清算の結了等,,,2015-10-05,1,,,,,ゼンジンキョウイクリプル,0
584,3130002025962,登記記録の閉鎖等,0,2024-09-30,2024-09-26,有限会社カーフ・スタジオ京都,,有限会社,京都府,京都市上京区,元誓願寺通新町西入元図子町４８１番地,,26,102,6020938,,,2024-09-26,清算の結了等,,,2015-10-05,1,,,,,カーフスタジオキョウト,0
598,3180302019957,登記記録の閉鎖等,0,2024-09-30,2024-09-24,有限会社喜十,,有限会社,愛知県,碧南市,伊勢町１丁目５４番地,,23,209,4470837,,,2024-09-24,清算の結了等,,,2015-10-05,1,,,,,キジュウ,0
604,3200001022301,登記記録の閉鎖等,0,2024-09-30,2024-09-18,名城産業株式会社,,株式会社,岐阜県,土岐市,駄知町１９６８番地の１,,21,212,5095401,,,2024-09-18,清算の結了等,,,2015-10-05,1,,,,,メイジョウサンギョウ,0
608,3240002007537,登記記録の閉鎖等,0,2024-09-30,2024-09-25,新世紀東方貿易有限会社,,有限会社,広島県,広島市中区,基町１８番１－９５７号,,34,101,7300011,,,2024-09-25,清算の結了等,,,2015-10-05,1,,,,,シンセイキトウホウボウエキ,0
610,3260002000630,登記記録の閉鎖等,0,2024-09-30,2024-09-24,有限会社井木商店,,有限会社,岡山県,岡山市中区,藤原光町３丁目６番１号,,33,102,7038246,,,2024-09-24,清算の結了等,,,2015-10-05,1,,,,,イギショウテン,0
611,3260002001884,登記記録の閉鎖等,0,2024-09-30,2024-09-20,有限会社大井商店,,有限会社,岡山県,岡山市北区,青江５丁目１７番１１号１０１,,33,101,7000941,,,2024-09-20,清算の結了等,,,2015-10-05,1,,,,,オオイショウテン,0
638,3490003001761,登記記録の閉鎖等,0,2024-09-30,2024-09-18,合同会社ＷＩＬＤＷＥＳＴ,,合同会社,高知県,高岡郡佐川町,乙１２７５番地,,39,402,7891202,,,2024-09-18,清算の結了等,,,2023-05-02,1,,,,,ワイルドウエスト,0
643,4010001183723,登記記録の閉鎖等,0,2024-09-30,2024-09-13,株式会社アネックスギャラリー,,株式会社,東京都,中央区,日本橋本町３丁目２番１３号,,13,102,1030023,,,2024-09-13,清算の結了等,,,2017-05-22,1,,,,,アネックスギャラリー,0
644,4010001196056,登記記録の閉鎖等,0,2024-09-30,2024-09-12,株式会社Ｓｉｒｅｎａ,,株式会社,東京都,中央区,日本橋３丁目２番１４号新槇町ビル別館第一１階,,13,102,1030027,,,2024-09-12,清算の結了等,,,2018-11-05,1,,,,,シレーナ,0
654,4010005033882,登記記録の閉鎖等,0,2024-09-30,2024-09-26,一般社団法人ＳＡＭプロジェクト１号,,その他の設立登記法人,東京都,中央区,新川２丁目２７番１号,,13,102,1040033,,,2024-09-26,清算の結了等,,,2021-08-30,1,,,,,エスエーエムプロジェクトイチゴウ,0
657,4010401085511,登記記録の閉鎖等,0,2024-09-30,2024-09-04,エコ・ワールド株式会社,,株式会社,東京都,港区,芝３丁目２番１１号,,13,103,1050014,,,2024-09-04,清算の結了等,,,2015-10-05,1,,,,,,0
660,4010401164091,登記記録の閉鎖等,0,2024-09-30,2024-09-17,株式会社アレグレット,,株式会社,東京都,新宿区,原町１丁目１８番地松永ビル３階,,13,104,1620053,,,2024-09-17,清算の結了等,,,2021-12-01,1,,,,,アレグレット,0
662,4010402010121,登記記録の閉鎖等,0,2024-09-30,2024-09-03,有限会社野本モータース,,有限会社,東京都,港区,南麻布１丁目７番３０号,,13,103,1060047,,,2024-09-03,清算の結了等,,,2015-10-05,1,,,,,ノモトモータース,0
697,4012401018715,登記記録の閉鎖等,0,2024-09-30,2024-09-26,株式会社ＳＩＬＶＥＲ　ＬＩＮＫ．資産管理,,株式会社,東京都,三鷹市,下連雀３丁目３０番８号,,13,204,1810013,,,2024-09-26,清算の結了等,,,2015-10-05,1,,,,,シルバーリンクシサンカンリ,0
699,4012701010628,登記記録の閉鎖等,0,2024-09-30,2024-09-25,ヨネイテクノサービス株式会社,,株式会社,東京都,中野区,弥生町４丁目３４番８号,,13,114,1640013,,,2024-09-25,清算の結了等,,,2015-10-05,1,,,,,ヨネイテクノサービス,0
707,4020002004200,登記記録の閉鎖等,0,2024-09-30,2024-09-12,有限会社コンビニエンス丸善,,有限会社,神奈川県,横浜市緑区,鴨居町２４４１番地１,,14,113,2260004,,,2024-09-12,清算の結了等,,,2015-10-05,1,,,,,コンビニエンスマルゼン,0
713,4030001056357,登記記録の閉鎖等,0,2024-09-30,2024-09-19,島原商事株式会社,,株式会社,埼玉県,入間郡三芳町,大字藤久保２３５番地８,,11,324,3540041,,,2024-09-19,清算の結了等,,,2015-10-05,1,,,,,シマバラショウジ,0
748,4080102012923,登記記録の閉鎖等,0,2024-09-30,2024-09-24,有限会社芳地所,,有限会社,静岡県,沼津市,岡一色１０７番地の１,,22,203,4100012,,,2024-09-24,清算の結了等,,,2015-10-05,1,,,,,カオルチショ,0
757,4110001027267,登記記録の閉鎖等,0,2024-09-30,2024-09-19,株式会社ケアシスタ,,株式会社,新潟県,魚沼市,四日町２５番地１,,15,225,9460007,,,2024-09-19,清算の結了等,,,2015-10-05,1,,,,,ケアシスタ,0
763,4120001256971,登記記録の閉鎖等,0,2024-09-30,2024-09-27,瑞和株式会社,,株式会社,東京都,墨田区,文花１丁目３４番１１－３１１号,,13,107,1310044,,,2024-09-27,清算の結了等,,,2023-08-03,1,,,,,ズイカ,0
769,4120901002228,登記記録の閉鎖等,0,2024-09-30,2024-09-13,株式会社モリシン,,株式会社,大阪府,茨木市,西中条町１１番４号,,27,211,5670887,,,2024-09-13,清算の結了等,,,2015-10-05,1,,,,,モリシン,0
773,4120902012580,登記記録の閉鎖等,0,2024-09-30,2024-09-20,有限会社ニシダ企画,,有限会社,大阪府,吹田市,南吹田３丁目８番２１号,,27,205,5640043,,,2024-09-20,清算の結了等,,,2015-10-05,1,,,,,ニシダキカク,0
789,4150001013379,登記記録の閉鎖等,0,2024-09-30,2024-09-10,布川運送株式会社,,株式会社,奈良県,大和高田市,大字奥田５７０番地の８,,29,202,6350052,,,2024-09-10,清算の結了等,,,2015-10-05,1,,,,,フカワウンソウ,0
798,4180302023710,登記記録の閉鎖等,0,2024-09-30,2024-09-27,名友工業有限会社,,有限会社,愛知県,岡崎市,井田町字荒居１００番地,,23,202,4440076,,,2024-09-27,清算の結了等,,,2015-10-05,1,,,,,,0
809,4240002008674,登記記録の閉鎖等,0,2024-09-30,2024-09-27,有限会社正寿,,有限会社,広島県,広島市佐伯区,美鈴が丘東１丁目２番１１号,,34,108,7315111,,,2024-09-27,清算の結了等,,,2015-10-05,1,,,,,セイジュ,0
812,4260002013615,登記記録の閉鎖等,0,2024-09-30,2024-09-25,有限会社和夢,,有限会社,岡山県,岡山市北区,辰巳４２１番地の１,,33,101,7000976,,,2024-09-25,清算の結了等,,,2015-10-05,1,,,,,ワム,0
831,4340002014761,登記記録の閉鎖等,0,2024-09-30,2024-09-26,有限会社丸三,,有限会社,鹿児島県,伊佐市,大口里３０１６番地,,46,224,8952511,,,2024-09-26,清算の結了等,,,2015-10-05,1,,,,,マルサン,0
832,4340002023028,登記記録の閉鎖等,0,2024-09-30,2024-09-25,有限会社湯川内温泉,,有限会社,鹿児島県,出水市,武本２０６０番地,,46,208,8990215,,,2024-09-25,清算の結了等,,,2015-10-05,1,,,,,ユガワウチオンセン,0
836,4350001016007,登記記録の閉鎖等,0,2024-09-30,2024-09-26,株式会社ウィロック,,株式会社,鹿児島県,鹿児島市,谷山港２丁目２番４号,,46,201,8910131,,,2024-09-26,清算の結了等,,,2019-09-04,1,,,,,ウィロック,0
841,4370602001867,登記記録の閉鎖等,0,2024-09-30,2024-09-13,有限会社宮城コア興業,,有限会社,宮城県,多賀城市,桜木１丁目４－１７－１０５,,04,209,9850842,,,2024-09-13,清算の結了等,,,2015-10-05,1,,,,,ミヤギコアコウギョウ,0
848,4410001011819,登記記録の閉鎖等,0,2024-09-30,2024-09-24,フロンティア株式会社,,株式会社,秋田県,仙北郡美郷町,金沢西根字元村４３３番地６,,05,434,0191235,,,2024-09-24,清算の結了等,,,2018-04-09,1,,,,,フロンティア,0
849,4410002003955,登記記録の閉鎖等,0,2024-09-30,2024-09-20,有限会社リースリング,,有限会社,秋田県,秋田市,広面字釣瓶町６６番地の１１,,05,201,0100041,,,2024-09-20,清算の結了等,,,2015-10-05,1,,,,,リースリング,0
854,4430002022549,登記記録の閉鎖等,0,2024-09-30,2024-09-24,有限会社三恵ソイル,,有限会社,北海道,札幌市清田区,北野五条２丁目６番５６号,,01,110,0040865,,,2024-09-24,清算の結了等,,,2015-10-05,1,,,,,サンケイソイル,0
878,5010401121471,登記記録の閉鎖等,0,2024-09-30,2024-09-04,株式会社Ｃｒｏｗｄ　Ｌｅａｓｅ,,株式会社,東京都,港区,東新橋２丁目９番７号ＹＡＨＡＴＡ汐留ビル４Ｆ,,13,103,1050021,,,2024-09-04,清算の結了等,,,2015-11-12,1,,,,,クラウドリース,0
881,5010403025588,登記記録の閉鎖等,0,2024-09-30,2024-09-02,してん合同会社,,合同会社,東京都,港区,芝大門１丁目６番８－２０１号,,13,103,1050012,,,2024-09-02,清算の結了等,,,2021-06-24,1,,,,,シテン,0
894,5010901037746,登記記録の閉鎖等,0,2024-09-30,2024-09-13,株式会社ｆｉｒｓｔ　ｌｉｎｋ,,株式会社,東京都,新宿区,新宿５丁目１１番３０号新宿第五葉山ビル３階,,13,104,1600022,,,2024-09-13,清算の結了等,,,2016-03-14,1,,,,,ファーストリンク,0
897,5010903006022,登記記録の閉鎖等,0,2024-09-30,2024-09-25,Ｇ　Ｓｏｌｕｔｉｏｎｓ合同会社,,合同会社,東京都,世田谷区,下馬５丁目１０番７号,,13,112,1540002,,,2024-09-25,清算の結了等,,,2020-10-16,1,,,,,ジーソリューションズ,0
900,5011001051480,登記記録の閉鎖等,0,2024-09-30,2024-09-03,株式会社アフト,,株式会社,東京都,渋谷区,本町１丁目７番１６号,,13,113,1510071,,,2024-09-03,清算の結了等,,,2015-10-05,1,,,,,アフト,0
901,5011001055432,登記記録の閉鎖等,0,2024-09-30,2024-09-12,ソルジェンテ株式会社,,株式会社,神奈川県,横浜市港北区,篠原北１丁目２４－４,,14,109,2220021,,,2024-09-12,清算の結了等,,,2015-10-05,1,,,,,ソルジェンテ,0
950,5100002026813,登記記録の閉鎖等,0,2024-09-30,2024-09-20,有限会社北陽電気工事,,有限会社,長野県,北安曇郡白馬村,大字神城１６６４番地１,,20,485,3999211,,,2024-09-20,清算の結了等,,,2015-10-05,1,,,,,ホクヨウデンキコウジ,0
951,5100002038057,登記記録の閉鎖等,0,2024-09-30,2024-09-19,有限会社ウォール,,有限会社,長野県,下伊那郡高森町,牛牧２６７７番地１,,20,403,3993105,,,2024-09-19,清算の結了等,,,2015-10-05,1,,,,,ウォール,0
957,5120001205580,登記記録の閉鎖等,0,2024-09-30,2024-09-24,株式会社リリーフ,,株式会社,大阪府,大阪市平野区,加美東２丁目２－１１,,27,126,5470002,,,2024-09-24,清算の結了等,,,2017-05-17,1,,,,,リリーフ,0
976,5140001058903,登記記録の閉鎖等,0,2024-09-30,2024-09-25,株式会社山陽工務店,,株式会社,兵庫県,姫路市,西中島４３３－１３番地,,28,201,6700805,,,2024-09-25,清算の結了等,,,2015-10-05,1,,,,,サンヨウコウムテン,0
977,5140001065437,登記記録の閉鎖等,0,2024-09-30,2024-09-26,株式会社西田商会,,株式会社,兵庫県,姫路市,豊富町豊富３６８８番地１,,28,201,6792123,,,2024-09-26,清算の結了等,,,2015-10-05,1,,,,,ニシダショウカイ,0
981,5140002070139,登記記録の閉鎖等,0,2024-09-30,2024-09-25,有限会社青山,,有限会社,兵庫県,南あわじ市,阿那賀１６０３番地３５５,00041500,28,224,6560661,,,2024-09-25,清算の結了等,,,2015-10-05,1,,,,,セイザン,0
983,5150001007611,登記記録の閉鎖等,0,2024-09-30,2024-09-27,株式会社シー・アイ・エムインターナショナル,,株式会社,奈良県,大和郡山市,矢田町５４６４番地,,29,203,6391058,,,2024-09-27,清算の結了等,,,2015-10-05,1,,,,,シーアイエムインターナショナル,0
1008,5230001010409,登記記録の閉鎖等,0,2024-09-30,2024-09-26,株式会社トコエッグ,,株式会社,富山県,高岡市,横田本町３番１号,,16,202,9330849,,,2024-09-26,清算の結了等,,,2015-10-05,1,,,,,トコエッグ,0
1012,5230002003626,登記記録の閉鎖等,0,2024-09-30,2024-09-26,有限会社本江商事,,有限会社,富山県,富山市,奥田新町１２番７号,,16,201,9300857,,,2024-09-26,清算の結了等,,,2015-10-05,1,,,,,モトエショウジ,0
1013,5240001030892,登記記録の閉鎖等,0,2024-09-30,2024-09-25,株式会社シミズ,,株式会社,広島県,福山市,光南町３丁目６番８号,,34,207,7200814,,,2024-09-25,清算の結了等,,,2015-10-05,1,,,,,シミズ,0
1020,5260002004290,登記記録の閉鎖等,0,2024-09-30,2024-09-25,有限会社榊工業,,有限会社,岡山県,岡山市中区,江並２０１番地２６サンビレッジ江並１０２,,33,102,7028004,,,2024-09-25,清算の結了等,,,2015-10-05,1,,,,,サカキコウギョウ,0
1041,5400602001251,登記記録の閉鎖等,0,2024-09-30,2024-09-12,有限会社岡渡,,有限会社,岩手県,奥州市,胆沢小山字道場６５番地の１０,,03,215,0230402,,,2024-09-12,清算の結了等,,,2015-10-05,1,,,,,オカド,0
1043,5410002002353,登記記録の閉鎖等,0,2024-09-30,2024-09-20,有限会社大報社,,有限会社,秋田県,秋田市,仁井田本町１丁目１０番３号,,05,201,0101421,,,2024-09-20,清算の結了等,,,2015-10-05,1,,,,,ダイホウシャ,0
1065,6010401123062,登記記録の閉鎖等,0,2024-09-30,2024-09-04,株式会社Ｃｒｏｗｄ　Ｆｕｎｄ,,株式会社,東京都,港区,東新橋２丁目９番７号ＹＡＨＡＴＡ汐留ビル４Ｆ,,13,103,1050021,,,2024-09-04,清算の結了等,,,2016-02-12,1,,,,,クラウドファンド,0
1075,6010601001613,登記記録の閉鎖等,0,2024-09-30,2024-09-26,株式会社江東東青色会館,,株式会社,東京都,江東区,亀戸２丁目３０番１号,,13,108,1360071,,,2024-09-26,清算の結了等,,,2015-10-05,1,,,,,コウトウヒガシアオイロカイカン,0
1087,6011001099627,登記記録の閉鎖等,0,2024-09-30,2024-09-17,株式会社ビューティートレードジャパン,,株式会社,東京都,新宿区,新宿３丁目１２番４号新宿Ｎタウンプラザ３０９号,,13,104,1600022,,,2024-09-17,清算の結了等,,,2015-10-05,1,,,,,ビューティートレードジャパン,0
1096,6011105008921,登記記録の閉鎖等,0,2024-09-30,2024-09-13,東日本建設業協同組合,,その他の設立登記法人,東京都,新宿区,下落合２丁目１３番１１号イガリビル３０２号室,,13,104,1610033,,,2024-09-13,清算の結了等,,,2019-07-16,1,,,,,ヒガシニホンケンセツギョウ,0
1103,6011701019999,登記記録の閉鎖等,0,2024-09-30,2024-09-17,棚橋電通工株式会社,,株式会社,東京都,江戸川区,松江７丁目５番１号,,13,123,1320025,,,2024-09-17,清算の結了等,,,2016-07-06,1,,,,,タナハシデンツウコウ,0
1136,6050002008378,登記記録の閉鎖等,0,2024-09-30,2024-09-18,有限会社コアクツ,,有限会社,茨城県,ひたちなか市,大字稲田１１６６番地２６２,,08,221,3120061,,,2024-09-18,清算の結了等,,,2015-10-05,1,,,,,コアクツ,0
1142,6070001009441,登記記録の閉鎖等,0,2024-09-30,2024-09-24,株式会社サンセイ,,株式会社,群馬県,高崎市,北原町１７２番地７,,10,202,3703513,,,2024-09-24,清算の結了等,,,2015-10-05,1,,,,,サンセイ,0
1152,6080105004874,登記記録の閉鎖等,0,2024-09-30,2024-09-24,医療法人社団松栄会,,その他の設立登記法人,静岡県,賀茂郡河津町,浜字和田１５７番地２,,22,302,4130513,,,2024-09-24,清算の結了等,,,2015-10-05,1,,,,,ショウエイカイ,0
1155,6090001010827,登記記録の閉鎖等,0,2024-09-30,2024-09-20,ヤマイチスポーツ株式会社,,株式会社,山梨県,富士吉田市,上暮地２丁目４番１６号,,19,202,4030001,,,2024-09-20,清算の結了等,,,2015-10-05,1,,,,,ヤマイチスポーツ,0
1156,6100001027885,登記記録の閉鎖等,0,2024-09-30,2024-09-20,株式会社協創,,株式会社,長野県,伊那市,美篶１３４２番地２,,20,209,3960111,,,2024-09-20,清算の結了等,,,2015-10-05,1,,,,,キョウソウ,0
1172,6120001245378,登記記録の閉鎖等,0,2024-09-30,2024-09-26,株式会社ミライズ,,株式会社,大阪府,大阪市北区,堂島２丁目１番２７号桜橋千代田ビル４階Ａ’号室,,27,127,5300003,,,2024-09-26,清算の結了等,,,2022-04-21,1,,,,,ミライズ,0
1176,6120102021570,登記記録の閉鎖等,0,2024-09-30,2024-09-25,有限会社ベルシオン建築事務所,,有限会社,大阪府,岸和田市,下野町２丁目１１番３－５０９号,,27,202,5960041,,,2024-09-25,清算の結了等,,,2015-10-05,1,,,,,ベルシオンケンチクジムショ,0
1183,6130005014472,登記記録の閉鎖等,0,2024-09-30,2024-09-25,特定非営利活動法人宮津・与謝子育て教育ネットワーク,,その他の設立登記法人,京都府,与謝郡与謝野町,字弓木５２２番地３,,26,465,6292263,,,2024-09-25,清算の結了等,,,2016-01-21,1,,,,,ミヤズヨザコソダテキョウイクネットワーク,0
1204,6180302022033,登記記録の閉鎖等,0,2024-09-30,2024-09-19,有限会社小沼精密,,有限会社,愛知県,豊田市,若林東町石根４１番地８,,23,211,4730914,,,2024-09-19,清算の結了等,,,2015-10-05,1,,,,,オヌマセイミツ,0
1219,6240002040741,登記記録の閉鎖等,0,2024-09-30,2024-09-25,有限会社酒のむらかみ,,有限会社,広島県,福山市,草戸町３丁目８番２４号,,34,207,7200831,,,2024-09-25,清算の結了等,,,2015-10-05,1,,,,,サケノムラカミ,0
1223,6290801025896,登記記録の閉鎖等,0,2024-09-30,2024-09-04,株式会社アルゴネクト,,株式会社,東京都,渋谷区,本町４丁目４番１３－４０４号,,13,113,1510071,,,2024-09-04,清算の結了等,,,2019-09-30,1,,,,,アルゴネクト,0
1226,6320002020850,登記記録の閉鎖等,0,2024-09-30,2024-09-26,有限会社出利葉商店,,有限会社,大分県,中津市,１４０５番地の５,,44,203,8710099,,,2024-09-26,清算の結了等,,,2015-10-05,1,,,,,,0
1228,6340002020155,登記記録の閉鎖等,0,2024-09-30,2024-09-20,有限会社保科組,,有限会社,鹿児島県,大島郡徳之島町,井之川５４８番地,,46,530,8917114,,,2024-09-20,清算の結了等,,,2015-10-05,1,,,,,ホシナグミ,0
1230,6360003011176,登記記録の閉鎖等,0,2024-09-30,2024-09-26,合同会社ファームテックアキ,,合同会社,沖縄県,国頭郡東村,字宮城３７５番地２１,,47,303,9051202,,,2024-09-26,清算の結了等,,,2021-06-02,1,,,,,ファームテックアキ,0
1234,6410001003649,登記記録の閉鎖等,0,2024-09-30,2024-09-24,パワーテックテクノロジー秋田株式会社,,株式会社,秋田県,秋田市,雄和石田字山田８９番地２,,05,201,0101222,,,2024-09-24,清算の結了等,,,2015-10-05,1,,,,,パワーテックテクノロジーアキタ,0
1238,6430001069481,登記記録の閉鎖等,0,2024-09-30,2024-09-27,株式会社ホクセイコーポレーション,,株式会社,北海道,札幌市北区,百合が原１１丁目１８９番地,,01,102,0028081,,,2024-09-27,清算の結了等,,,2015-10-05,1,,,,,ホクセイコーポレーション,0
1244,6500005008049,登記記録の閉鎖等,0,2024-09-30,2024-09-20,一般社団法人海外人材育成促進協議会,,その他の設立登記法人,愛媛県,新居浜市,上泉町１番２８号,,38,205,7920824,,,2024-09-20,清算の結了等,,,2019-03-18,1,,,,,カイガイジンザイイクセイソクシンキョウギカイ,0
1252,7010002036555,登記記録の閉鎖等,0,2024-09-30,2024-09-13,有限会社タカクラ・ファンディング・コーポレーション,,有限会社,東京都,千代田区,九段南３丁目８番１３号,,13,101,1020074,,,2024-09-13,清算の結了等,,,2015-10-05,1,,,,,タカクラファンディングコーポレーション,0
1253,7010003031828,登記記録の閉鎖等,0,2024-09-30,2024-09-12,新宿プロパティー１合同会社,,合同会社,東京都,千代田区,丸の内１丁目１１番１号,,13,101,1000005,,,2024-09-12,清算の結了等,,,2020-03-09,1,,,,,シンジュクプロパティーワン,0
1264,7010403009556,登記記録の閉鎖等,0,2024-09-30,2024-09-13,合同会社ＣＲＴ菖蒲,,合同会社,東京都,千代田区,丸の内３丁目１番１号東京共同会計事務所内,,13,101,1000005,,,2024-09-13,清算の結了等,,,2015-10-05,1,,,,,シーアールティーショウブ,0
1281,7011102025539,登記記録の閉鎖等,0,2024-09-30,2024-09-18,有限会社バケーションマーケティング,,有限会社,東京都,新宿区,住吉町８番２３号富井ビル２階,,13,104,1620065,,,2024-09-18,清算の結了等,,,2015-10-05,1,,,,,バケーションマーケティング,0
1287,7011602022911,登記記録の閉鎖等,0,2024-09-30,2024-09-19,有限会社那須保険事務所,,有限会社,東京都,練馬区,下石神井４丁目２０番５号,,13,120,1770042,,,2024-09-19,清算の結了等,,,2015-10-05,1,,,,,ナスホケンジムショ,0
1291,7012303001840,登記記録の閉鎖等,0,2024-09-30,2024-09-25,合同会社リオタール,,合同会社,東京都,町田市,小川７丁目７番１２号,,13,209,1940003,,,2024-09-25,清算の結了等,,,2023-06-28,1,,,,,リオタール,0
1297,7013202006625,登記記録の閉鎖等,0,2024-09-30,2024-09-03,有限会社山本善松商店,,有限会社,東京都,目黒区,東が丘２丁目３番１号,,13,110,1520021,,,2024-09-03,清算の結了等,,,2015-10-05,1,,,,,ヤマモトヨシマツショウテン,0
1304,7020001122082,登記記録の閉鎖等,0,2024-09-30,2024-09-13,株式会社ニットー防災,,株式会社,神奈川県,横浜市磯子区,洋光台２丁目１番２－２０３号,,14,107,2350045,,,2024-09-13,清算の結了等,,,2017-07-04,1,,,,,ニットーボウサイ,0
1314,7021002010607,登記記録の閉鎖等,0,2024-09-30,2024-09-26,有限会社カリンバルウ,,有限会社,神奈川県,茅ヶ崎市,幸町２番１１－５０３号コンフオール茅ヶ崎,,14,207,2530052,,,2024-09-26,清算の結了等,,,2015-10-05,1,,,,,カリンバルウ,0
1324,7040001121421,登記記録の閉鎖等,0,2024-09-30,2024-09-25,メーテルリンク株式会社,,株式会社,千葉県,松戸市,六実２丁目１４番地の３７,,12,207,2702204,,,2024-09-25,合併による解散等,2040001094250,令和６年９月１０日東京都葛飾区青戸八丁目２番１１号１０１日本総合整備株式会社（2040001094250）に合併し解散,2021-12-20,1,,,,,メーテルリンク,0
1354,7100002004008,登記記録の閉鎖等,0,2024-09-30,2024-09-20,有限会社能登重鰹節店,,有限会社,長野県,長野市,大字長野東後町２１番地,,20,201,3800832,,,2024-09-20,清算の結了等,,,2015-10-05,1,,,,,ノトジュウカツオブシテン,0
1364,7120005014332,登記記録の閉鎖等,0,2024-09-30,2024-09-26,ＮＰＯ法人日本がん温熱・食事療法,,その他の設立登記法人,大阪府,大阪市西成区,玉出西２丁目１４番１５号,,27,122,5570045,,,2024-09-26,清算の結了等,,,2015-10-05,1,,,,,ニホンガンオンネツショクジリョウホウ,0
1367,7120102027906,登記記録の閉鎖等,0,2024-09-30,2024-09-24,有限会社検見崎建築設計事務所,,有限会社,大阪府,阪南市,和泉鳥取１０８７番地の４,,27,232,5990213,,,2024-09-24,清算の結了等,,,2015-10-05,1,,,,,ケンミザキケンチクセッケイジムショ,0
1385,7140002011479,登記記録の閉鎖等,0,2024-09-30,2024-09-24,有限会社尚宏ビル,00040588,有限会社,兵庫県,神戸市兵庫区,浜崎通４番９号,,28,105,6520807,,,2024-09-24,清算の結了等,,,2015-10-05,1,,,,,ショウコウビル,0
1387,7140002031122,登記記録の閉鎖等,0,2024-09-30,2024-09-24,有限会社藤井電機,,有限会社,兵庫県,三木市,府内町２番４５号,,28,215,6730400,,,2024-09-24,清算の結了等,,,2015-10-05,1,,,,,フジイデンキ,0
1388,7140003020339,登記記録の閉鎖等,0,2024-09-30,2024-09-26,りみっと合同会社,,合同会社,兵庫県,豊岡市,下陰６３５番地の８,,28,209,6680012,,,2024-09-26,清算の結了等,,,2024-04-08,1,,,,,リミット,0
1420,7240001018060,登記記録の閉鎖等,0,2024-09-30,2024-09-27,株式会社リアルネット,,株式会社,広島県,広島市中区,袋町３番２８号,,34,101,7300036,,,2024-09-27,清算の結了等,,,2015-10-05,1,,,,,リアルネット,0
1421,7240002009579,登記記録の閉鎖等,0,2024-09-30,2024-09-27,有限会社竹内,,有限会社,広島県,広島市佐伯区,美の里２丁目１番４５号,,34,108,7315137,,,2024-09-27,清算の結了等,,,2015-10-05,1,,,,,タケウチ,0
1424,7250001001940,登記記録の閉鎖等,0,2024-09-30,2024-09-26,木本建設株式会社,,株式会社,山口県,防府市,大字浜方４８番地の２,,35,206,7470833,,,2024-09-26,清算の結了等,,,2015-10-05,1,,,,,キモトケンセツ,0
1434,7360003004988,登記記録の閉鎖等,0,2024-09-30,2024-09-25,合同会社しん,,合同会社,沖縄県,浦添市,宮城５丁目７番９号,,47,208,9012126,,,2024-09-25,清算の結了等,,,2015-10-05,1,,,,,,0
1436,7370002011869,登記記録の閉鎖等,0,2024-09-30,2024-09-13,有限会社セクター・ディー,,有限会社,宮城県,仙台市青葉区,東勝山２丁目２４番３０号,,04,101,9810923,,,2024-09-13,清算の結了等,,,2015-10-05,1,,,,,セクターディー,0
1438,7400602001340,登記記録の閉鎖等,0,2024-09-30,2024-09-13,有限会社青沼鉄工所,,有限会社,岩手県,奥州市,前沢字五十人町１４番地の２,,03,215,0294207,,,2024-09-13,清算の結了等,,,2015-10-05,1,,,,,アオヌマテッコウジョ,0
1441,7410003003051,登記記録の閉鎖等,0,2024-09-30,2024-09-20,合同会社秋田羽後ファーム,,合同会社,秋田県,雄勝郡羽後町,杉宮字上野２１番地８,,05,463,0121126,,,2024-09-20,清算の結了等,,,2016-12-09,1,,,,,,0
1486,8010002017488,登記記録の閉鎖等,0,2024-09-30,2024-09-13,エール有限会社,,有限会社,東京都,中央区,銀座１丁目５番１４号,,13,102,1040061,,,2024-09-13,清算の結了等,,,2015-10-05,1,,,,,エール,0
1487,8010003015838,登記記録の閉鎖等,0,2024-09-30,2024-09-13,合同会社心斎橋地所,,合同会社,東京都,千代田区,丸の内２丁目６番１号,,13,101,1000005,,,2024-09-13,清算の結了等,,,2015-10-05,1,,,,,シンサイバシジショ,0
1491,8010401016933,登記記録の閉鎖等,0,2024-09-30,2024-09-20,高樹興産株式会社,,株式会社,東京都,港区,南青山７丁目８番４号,,13,103,1070062,,,2024-09-20,清算の結了等,,,2015-10-05,1,,,,,タカギコウサン,0
1502,8011001133094,登記記録の閉鎖等,0,2024-09-30,2024-09-05,株式会社ＢＡＭＦ,,株式会社,東京都,渋谷区,代官山町１３番４号ヴォーグ代官山２,,13,113,1500034,,,2024-09-05,清算の結了等,,,2020-03-31,1,,,,,バンフ,0
1519,8011801004230,登記記録の閉鎖等,0,2024-09-30,2024-09-24,株式会社福井工務店,,株式会社,千葉県,松戸市,二ツ木４８２番地３,,12,207,2700027,,,2024-09-24,清算の結了等,,,2015-10-05,1,,,,,フクイコウムテン,0
1551,8040001067242,登記記録の閉鎖等,0,2024-09-30,2024-09-24,北斗建設工業株式会社,,株式会社,千葉県,柏市,大井７６７番地３,,12,217,2770902,,,2024-09-24,清算の結了等,,,2015-10-05,1,,,,,ホクトケンセツコウギョウ,0
1556,8040003013211,登記記録の閉鎖等,0,2024-09-30,2024-09-24,合同会社美らフーズ,,合同会社,千葉県,習志野市,秋津４丁目１４番１１号,,12,216,2750025,,,2024-09-24,清算の結了等,,,2019-04-12,1,,,,,チュラフーズ,0
1575,8080401012125,登記記録の閉鎖等,0,2024-09-30,2024-09-18,横浜システム株式会社,,株式会社,静岡県,浜松市中央区,笠井町１１３２番地,,22,138,4313107,,,2024-09-18,清算の結了等,,,2015-10-05,1,,,,,ヨコハマシステム,0
1585,8120001094807,登記記録の閉鎖等,0,2024-09-30,2024-09-24,株式会社サンテック,,株式会社,大阪府,大阪市北区,長柄東３丁目３番５号,,27,127,5310063,,,2024-09-24,清算の結了等,,,2015-10-05,1,,,,,サンテック,0
1589,8120001259491,登記記録の閉鎖等,0,2024-09-30,2024-09-26,紫貝殻株式会社,,株式会社,大阪府,大阪市中央区,島之内１丁目１６－２２,,27,128,5420082,,,2024-09-26,清算の結了等,,,2023-11-02,1,,,,,ムラサキカイガラ,0
1602,8120901016323,登記記録の閉鎖等,0,2024-09-30,2024-09-19,株式会社ダイヤモンドエフ,,株式会社,大阪府,吹田市,西御旅町８番１－４０６号,,27,205,5640034,,,2024-09-19,清算の結了等,,,2015-10-05,1,,,,,ダイヤモンドエフ,0
1610,8130002014770,登記記録の閉鎖等,0,2024-09-30,2024-09-25,有限会社深見陶治,,有限会社,京都府,京都市伏見区,深草谷口町８６番地の１,,26,109,6120829,,,2024-09-25,清算の結了等,,,2015-10-05,1,,,,,フカミスエハル,0
1654,8270001003752,登記記録の閉鎖等,0,2024-09-30,2024-09-26,カネコ食品株式会社,,株式会社,鳥取県,境港市,上道町２９１番地,,31,204,6840033,,,2024-09-26,清算の結了等,,,2015-10-05,1,,,,,カネコショクヒン,0
1666,8360001005095,登記記録の閉鎖等,0,2024-09-30,2024-09-25,株式会社ケラマ,,株式会社,沖縄県,島尻郡座間味村,字座間味４８番地,,47,354,9013402,,,2024-09-25,清算の結了等,,,2015-10-05,1,,,,,ケラマ,0
1667,8360002018831,登記記録の閉鎖等,0,2024-09-30,2024-09-24,有限会社津梁会,,有限会社,沖縄県,中頭郡北谷町,北前１丁目３番５号,,47,326,9040117,,,2024-09-24,清算の結了等,,,2015-10-05,1,,,,,シンリョウカイ,0
1682,8430001068630,登記記録の閉鎖等,0,2024-09-30,2024-09-24,植田建設株式会社,,株式会社,北海道,岩見沢市,南町五条１丁目８番１７号,,01,210,0680805,,,2024-09-24,清算の結了等,,,2015-10-05,1,,,,,ウエダケンセツ,0
1683,8430001086780,登記記録の閉鎖等,0,2024-09-30,2024-09-25,株式会社マインド,,株式会社,北海道,札幌市北区,屯田十一条３丁目５番１３号,,01,102,0020861,,,2024-09-25,清算の結了等,,,2022-06-06,1,,,,,マインド,0
1687,8430002051453,登記記録の閉鎖等,0,2024-09-30,2024-09-24,坪田木材有限会社,,有限会社,北海道,夕張郡由仁町,中央２１０番地,,01,427,0691205,,,2024-09-24,清算の結了等,,,2015-10-05,1,,,,,ツボタモクザイ,0
1690,8460001005928,登記記録の閉鎖等,0,2024-09-30,2024-09-25,松本水産株式会社,,株式会社,北海道,釧路市,新富士町４丁目２番７号,,01,206,0840904,,,2024-09-25,清算の結了等,,,2024-07-25,1,,,,,マツモトスイサン,0
1699,8500002012943,登記記録の閉鎖等,0,2024-09-30,2024-09-19,有限会社徳永家具店,,有限会社,愛媛県,喜多郡内子町,寺村２３０番地,,38,422,7913502,,,2024-09-19,清算の結了等,,,2015-10-05,1,,,,,トクナガカグテン,0
1700,8500002018833,登記記録の閉鎖等,0,2024-09-30,2024-09-20,有限会社なつ,,有限会社,愛媛県,今治市,別宮町４丁目６番地８,,38,202,7940026,,,2024-09-20,清算の結了等,,,2015-10-05,1,,,,,ナツ,0
1718,9010403026211,登記記録の閉鎖等,0,2024-09-30,2024-09-02,Ｂｒｉｄｇｅ　Ｃａｐｉｔａｌ合同会社,,合同会社,東京都,港区,南青山２丁目２番６号７０２号室,,13,103,1070062,,,2024-09-02,合併による解散等,4010401124582,令和６年９月１日東京都港区南青山二丁目２番６号７０２号室Ｄｕａｌ　Ｌｉｆｅ　Ｐａｒｔｎｅｒｓ株式会社（4010401124582）に合併し解散,2021-10-01,1,,,,,ブリッジキャピタル,0
1741,9011001157456,登記記録の閉鎖等,0,2024-09-30,2024-09-03,ｘｘｘ株式会社,,株式会社,東京都,渋谷区,渋谷２丁目１９番１５号宮益坂ビルディング６０９,,13,113,1500002,,,2024-09-03,清算の結了等,,,2023-10-13,1,,,,,スリーエックス,0
1745,9011101082579,登記記録の閉鎖等,0,2024-09-30,2024-09-17,株式会社ミレニアムゼロ,,株式会社,東京都,新宿区,西新宿７丁目４－７イマス浜田ビル５階,,13,104,1600023,,,2024-09-17,清算の結了等,,,2017-12-18,1,,,,,ミレニアムゼロ,0
1754,9011301016997,登記記録の閉鎖等,0,2024-09-30,2024-09-19,株式会社ＧＯＴＥＣ,,株式会社,東京都,西東京市,富士町４丁目１６番１１号,,13,229,2020014,,,2024-09-19,清算の結了等,,,2015-10-05,1,,,,,ゴーテック,0
1761,9011701021283,登記記録の閉鎖等,0,2024-09-30,2024-09-10,株式会社ＨＡＮＳ,,株式会社,東京都,江戸川区,東小松川３丁目３３番１２号,,13,123,1320033,,,2024-09-10,合併による解散等,3011703002717,令和６年９月１日東京都江戸川区東小松川３－３３－１２ＳＳ　Ｉｎｔｅｒｎａｔｉｏｎａｌ合同会社（3011703002717）に合併し解散,2017-10-31,1,,,,,ハンズ,0
1764,9012402013388,登記記録の閉鎖等,0,2024-09-30,2024-08-28,ヒップスタイルエクスプレス株式会社,,株式会社,神奈川県,横浜市西区,みなとみらい２丁目３－５クイーンズタワーＣ１０Ｆ,,14,103,2200012,,,2024-08-28,合併による解散等,3020001103581,令和６年７月１日横浜市西区みなとみらい二丁目３番５号クイーンズタワーＣ－１０Ｆヒップスタイル株式会社（3020001103581）に合併し解散,2015-10-05,1,,,,,ヒップスタイルエクスプレス,0
1768,9020001009360,登記記録の閉鎖等,0,2024-09-30,2024-09-12,ムラカミ精機株式会社,,株式会社,神奈川県,横浜市都筑区,池辺町３８３４番２号,,14,118,2240053,,,2024-09-12,清算の結了等,,,2015-10-05,1,,,,,ムラカミセイキ,0
1789,9030001098840,登記記録の閉鎖等,0,2024-09-30,2024-09-13,ＫＥＹＨＩＴＥＣＨ株式会社,,株式会社,東京都,千代田区,二番町５番地２麹町駅プラザ９０１,,13,101,1020084,,,2024-09-13,清算の結了等,,,2015-10-05,1,,,,,キーハイテック,0
1798,9040001106263,登記記録の閉鎖等,0,2024-09-30,2024-09-09,株式会社Ｆｉｎａｌｌｙ,,株式会社,千葉県,市川市,稲越町２１番地１－２０１号ウッドサイド市川,,12,203,2720831,,,2024-09-09,清算の結了等,,,2018-10-01,1,,,,,ファイナリー,0
1804,9040002063578,登記記録の閉鎖等,0,2024-09-30,2024-09-20,中野工業有限会社,,有限会社,千葉県,八街市,榎戸６８６番地１７,,12,230,2891106,,,2024-09-20,清算の結了等,,,2015-10-05,1,,,,,ナカノコウギョウ,0
1807,9060001008994,登記記録の閉鎖等,0,2024-09-30,2024-09-24,株式会社亀井しずお仏具店今市葬祭市民ホール,,株式会社,栃木県,日光市,豊田１４４番地１６,,09,206,3212414,,,2024-09-24,清算の結了等,,,2015-10-05,1,,,,,カメイシズオブツグテンイマイチソウサイシミンホール,0
1810,9060002008853,登記記録の閉鎖等,0,2024-09-30,2024-09-19,美和自動車有限会社,,有限会社,栃木県,宇都宮市,横田新町１８番５号,,09,201,3210105,,,2024-09-19,清算の結了等,,,2015-10-05,1,,,,,ミワジドウシャ,0
1812,9060002033166,登記記録の閉鎖等,0,2024-09-30,2024-09-24,有限会社泉看板工業,,有限会社,栃木県,栃木市,岩舟町静２８０４番地１,,09,203,3294307,,,2024-09-24,清算の結了等,,,2015-10-05,1,,,,,イズミカンバンコウギョウ,0
1848,9130001031213,登記記録の閉鎖等,0,2024-09-30,2024-09-26,株式会社リチウムエナジージャパン,,株式会社,滋賀県,栗東市,蜂屋７８０番地１,,25,208,5203021,,,2024-09-26,清算の結了等,,,2015-10-05,1,,,,,リチウムエナジージャパン,0
1855,9150002009132,登記記録の閉鎖等,0,2024-09-30,2024-09-27,有限会社高田電機通信,,有限会社,奈良県,大和高田市,日之出東本町２０番９号,,29,202,6350023,,,2024-09-27,清算の結了等,,,2015-10-05,1,,,,,タカダデンキツウシン,0
1871,9180005020570,登記記録の閉鎖等,0,2024-09-30,2024-09-25,一般社団法人全国高齢者身元保証協会,,その他の設立登記法人,愛知県,名古屋市東区,主税町４丁目７７番地藤本ビル２０１号,,23,102,4610018,,,2024-09-25,清算の結了等,,,2024-03-29,1,,,,,ゼンコクコウレイシャミモトホショウキョウカイ,0
1873,9190001010095,登記記録の閉鎖等,0,2024-09-30,2024-09-26,株式会社イブ,,株式会社,三重県,松阪市,大黒田町１８０番地の２,,24,204,5150063,,,2024-09-26,清算の結了等,,,2015-10-05,1,,,,,イブ,0
1881,9200003004606,登記記録の閉鎖等,0,2024-09-30,2024-09-27,ＬａｎＤｉｌｌ合同会社,,合同会社,岐阜県,可児郡御嵩町,中９８１番地２,,21,521,5050121,,,2024-09-27,清算の結了等,,,2019-10-04,1,,,,,ランディル,0
1887,9240001017515,登記記録の閉鎖等,0,2024-09-30,2024-09-27,株式会社スポーツ・リハビリテーション・システム,,株式会社,広島県,広島市佐伯区,五日市駅前１丁目８番１１－１４０１号,,34,108,7315125,,,2024-09-27,清算の結了等,,,2015-10-05,1,,,,,スポーツリハビリテーションシステム,0
1888,9240002042710,登記記録の閉鎖等,0,2024-09-30,2024-09-26,有限会社藤井祐治商店,,有限会社,広島県,福山市,引野町４丁目８番２７号,,34,207,7210942,,,2024-09-26,清算の結了等,,,2015-10-05,1,,,,,フジイユウジショウテン,0
1893,9250002020839,登記記録の閉鎖等,0,2024-09-30,2024-09-25,有限会社サンアイ,,有限会社,山口県,宇部市,大字小野５７５番地,,35,202,7541311,,,2024-09-25,清算の結了等,,,2024-03-19,1,,,,,サンアイ,0
1906,9350005001966,登記記録の閉鎖等,0,2024-09-30,2024-09-19,西都造林素材生産事業協同組合,,その他の設立登記法人,宮崎県,西都市,大字三納１０３６７番地,,45,208,8810101,,,2024-09-19,清算の結了等,,,2015-10-05,1,,,,,サイトゾウリンソザイセイサン,0
1915,9400602000002,登記記録の閉鎖等,0,2024-09-30,2024-09-11,有限会社東北エイセン,,有限会社,岩手県,奥州市,江刺田原字新田７番地,,03,215,0230171,,,2024-09-11,清算の結了等,,,2015-10-05,1,,,,,トウホクエイセン,0
1928,9490001010354,登記記録の閉鎖等,0,2024-09-30,2024-09-25,株式会社ｒｉｃｈ５,,株式会社,高知県,香美市,土佐山田町６３７番地１,,39,212,7820047,,,2024-09-25,清算の結了等,,,2022-12-13,1,,,,,リッチファイブ,0
1931,9500002006085,登記記録の閉鎖等,0,2024-09-30,2024-09-24,有限会社堀内環境造形研究所,,有限会社,愛媛県,松山市,北斎院町１１５０番地２６,,38,201,7918031,,,2024-09-24,清算の結了等,,,2015-10-05,1,,,,,ホリウチカンキョウゾウケイケンキュウショ,0
1932,9500002015623,登記記録の閉鎖等,0,2024-09-30,2024-09-20,デンタル・ラボグッドワークス有限会社,,有限会社,愛媛県,西条市,大町７０８番地２,,38,206,7930030,,,2024-09-20,清算の結了等,,,2015-10-05,1,,,,,デンタルラボグッドワークス,0
