sequenceNumber,corporateNumber,process,correct,updateDate,changeDate,name,nameImageId,kind,prefectureName,cityName,streetNumber,addressImageId,prefectureCode,cityCode,postCode,addressOutside,addressOutsideImageId,closeDate,closeCause,successorCorporateNumber,changeCause,assignmentDate,latest,enName,enPrefectureName,enCityName,enAddressOutside,furigana,hihyoji
10,1010001254122,新規,0,2025-04-14,2025-04-14,ＧＭＩ　Ｃｌｏｕｄ　Ｊａｐａｎ株式会社,,株式会社,東京都,中央区,日本橋３丁目９番１号日本橋三丁目スクエア１１階,,13,102,1030027,,,,,,,2025-04-14,1,,,,,ジーエムアイクラウドジャパン,0
16,1010005039882,新規,0,2025-04-14,2025-04-14,一般社団法人ラーニングプロセスデザイン協会,,その他の設立登記法人,東京都,千代田区,神田錦町１丁目１６番地１,,13,101,1010054,,,,,,,2025-04-14,1,,,,,ラーニングプロセスデザインキョウカイ,0
18,1010101016629,新規,0,2025-04-14,2025-04-14,Ｃｏｃｏｏｎ株式会社,,株式会社,東京都,八王子市,台町３丁目６番１－５０５号,,13,201,1930931,,,,,,,2025-04-14,1,,,,,コクーン,0
28,1010401189166,新規,0,2025-04-14,2025-04-14,株式会社ヘイグッド,,株式会社,東京都,港区,東新橋２丁目７－３昭和アステック１号館,,13,103,1050021,,,,,,,2025-04-14,1,,,,,ヘイグッド,0
29,1010401189323,新規,0,2025-04-14,2025-04-14,株式会社クルーガー・インベストメント・マネジメント,,株式会社,東京都,港区,六本木６丁目１０－１六本木ヒルズ森タワー１６階,,13,103,1060032,,,,,,,2025-04-14,1,,,,,クルーガーインベストメントマネジメント,0
30,1010401189406,新規,0,2025-04-14,2025-04-14,株式会社ＳｕｎＳｕｎＴｅｃｈ,,株式会社,東京都,港区,北青山１丁目３－３三橋ビル３階,,13,103,1070061,,,,,,,2025-04-14,1,,,,,サンサンテック,0
31,1010401189678,新規,0,2025-04-14,2025-04-14,タタンリーシング２株式会社,,株式会社,東京都,港区,虎ノ門１丁目２番６号,,13,103,1050001,,,,,,,2025-04-14,1,,,,,タタンリーシングツー,0
36,1010403034808,新規,0,2025-04-14,2025-04-14,合同会社ＬＩＦＥ　ＳＣＩＥＮＣＥ,,合同会社,東京都,港区,六本木３丁目７‐１ＴｈｅＲｏｐｐｏｎｇｉＴｏｋｙｏＳｕｐｅｒｉｏｒＲｅｓｉｄｅｎｃ７０２号室,,13,103,1060032,,,,,,,2025-04-14,1,,,,,ライフサイエンス,0
40,1010501053924,新規,0,2025-04-14,2025-04-14,株式会社オペレーション,,株式会社,東京都,台東区,浅草３丁目１０番５号プライマル浅草言問通４０８号,,13,106,1110032,,,,,,,2025-04-14,1,,,,,オペレーション,0
41,1010501053940,新規,0,2025-04-14,2025-04-14,ＩＮＳＰＩＲＥ　ＴＯＫＹＯ株式会社,,株式会社,東京都,台東区,上野２丁目８番７号ＳＥＩＫＡ　ＢＬＤ．５Ｆ,,13,106,1100005,,,,,,,2025-04-14,1,,,,,インスパイアトウキョウ,0
42,1010503007779,新規,0,2025-04-14,2025-04-14,百通国際合同会社,,合同会社,東京都,台東区,下谷３丁目１番２４号,,13,106,1100004,,,,,,,2025-04-14,1,,,,,ヒャクツウ,0
48,1010701047552,新規,0,2025-04-14,2025-04-14,株式会社エスビー,,株式会社,東京都,品川区,小山３丁目１４番２号シティタワー武蔵小山１５０８,,13,109,1420062,,,,,,,2025-04-14,1,,,,,エスビー,0
56,1011001168849,新規,0,2025-04-14,2025-04-14,株式会社ＩＴＳ,,株式会社,東京都,目黒区,目黒１丁目４番１６号目黒Ｇビル５階,,13,110,1530063,,,,,,,2025-04-14,1,,,,,アイティーエス,0
57,1011001168898,新規,0,2025-04-14,2025-04-14,株式会社グローバル・ラフテル,,株式会社,東京都,渋谷区,道玄坂１丁目１２番１号,,13,113,1500043,,,,,,,2025-04-14,1,,,,,グローバルラフテル,0
58,1011001168907,新規,0,2025-04-14,2025-04-14,株式会社いまり,,株式会社,東京都,渋谷区,恵比寿４丁目２７番８号,,13,113,1500013,,,,,,,2025-04-14,1,,,,,イマリ,0
59,1011001168931,新規,0,2025-04-14,2025-04-14,ニュートリン・ヘルスケアフーズ・ジャパン株式会社,,株式会社,東京都,渋谷区,富ヶ谷１丁目１４番１４号スタンフォードアネックスビル３Ｆ,,13,113,1510063,,,,,,,2025-04-14,1,,,,,ニュートリンヘルスケアフーズジャパン,0
60,1011001168956,新規,0,2025-04-14,2025-04-14,株式会社ｋｏｊｉｋｏｊｉ,,株式会社,東京都,目黒区,青葉台４丁目４番１２－１３０３号ルフォンプログレ渋谷ヒルトップ,,13,110,1530042,,,,,,,2025-04-14,1,,,,,コジコジ,0
62,1011003021353,新規,0,2025-04-14,2025-04-14,合同会社とりとん,,合同会社,東京都,渋谷区,神南１丁目１１番４号ＦＰＧリンクス神南５階,,13,113,1500041,,,,,,,2025-04-14,1,,,,,トリトン,0
63,1011003021378,新規,0,2025-04-14,2025-04-14,日本循環向上合同会社,,合同会社,東京都,渋谷区,広尾４丁目１－６Ａ２１１,,13,113,1500012,,,,,,,2025-04-14,1,,,,,ニホンジュンカンコウジョウ,0
64,1011101111295,新規,0,2025-04-14,2025-04-14,株式会社ＣｒａｆｔＥｄｇｅ　Ｐａｒｔｎｅｒｓ,,株式会社,東京都,新宿区,西新宿３丁目３番１３号西新宿水間ビル２Ｆ,,13,104,1600023,,,,,,,2025-04-14,1,,,,,クラフトエッジパートナーズ,0
65,1011101111329,新規,0,2025-04-14,2025-04-14,株式会社アストリリーフ,,株式会社,東京都,新宿区,西早稲田１丁目２３番１２号藤和シティホームズ西早稲田４０３,,13,104,1690051,,,,,,,2025-04-14,1,,,,,アストリリーフ,0
66,1011101111337,新規,0,2025-04-14,2025-04-14,株式会社ｌｅｌｅ,,株式会社,東京都,新宿区,西新宿３丁目３番１３号西新宿水間ビル２Ｆ,,13,104,1600023,,,,,,,2025-04-14,1,,,,,レレ,0
69,1011103015750,新規,0,2025-04-14,2025-04-14,しろながす合同会社,,合同会社,東京都,新宿区,西新宿３丁目３－１３西新宿水間ビル６階,,13,104,1600023,,,,,,,2025-04-14,1,,,,,シロナガス,0
72,1011301030493,新規,0,2025-04-14,2025-04-14,株式会社ＧＢ　ＭＯＵＴＨ,,株式会社,東京都,杉並区,阿佐谷南１丁目１番３２号,,13,115,1660004,,,,,,,2025-04-14,1,,,,,ジービーマウス,0
74,1011401026994,新規,0,2025-04-14,2025-04-14,株式会社ＫＵＬＴＮＯＸ,,株式会社,東京都,板橋区,上板橋３丁目２５－８,,13,119,1740076,,,,,,,2025-04-14,1,,,,,カルトノックス,0
75,1011501031928,新規,0,2025-04-14,2025-04-14,Ｙｏｓｈｉ　Ｔｒａｄｉｎｇ株式会社,,株式会社,東京都,荒川区,町屋３丁目２番１号Ｂ１Ｆ,,13,118,1160001,,,,,,,2025-04-14,1,,,,,ヨシトレーディング,0
77,1011503006481,新規,0,2025-04-14,2025-04-14,ナイス情報応用学合同会社,,合同会社,東京都,荒川区,南千住８丁目６－３－１５０１,,13,118,1160003,,,,,,,2025-04-14,1,,,,,ナイスジョウホウオウヨウガク,0
79,1011701028253,新規,0,2025-04-14,2025-04-14,ＴＡＶＡＮ株式会社,,株式会社,東京都,江戸川区,鹿骨２丁目３７番８－３０５号,,13,123,1330073,,,,,,,2025-04-14,1,,,,,タヴァン,0
80,1011701028261,新規,0,2025-04-14,2025-04-14,株式会社ＡＰＥＲＵＹ,,株式会社,東京都,江戸川区,南葛西３丁目１－２－２０１,,13,123,1340085,,,,,,,2025-04-14,1,,,,,アペルイ,0
83,1011801045925,新規,0,2025-04-14,2025-04-14,株式会社バイトフォージ,,株式会社,東京都,足立区,足立４丁目３－１ディナスカーラ五反野９０２,,13,121,1200015,,,,,,,2025-04-14,1,,,,,バイトフォージ,0
84,1011801045958,新規,0,2025-04-14,2025-04-14,株式会社ネロンガ,,株式会社,東京都,足立区,綾瀬４丁目９番１８－９０４号,,13,121,1200005,,,,,,,2025-04-14,1,,,,,ネロンガ,0
85,1011801045966,新規,0,2025-04-14,2025-04-14,株式会社ＥＶ‐Ｆｌｏｕｒｉｓｈ,,株式会社,東京都,葛飾区,青戸８丁目５番９号,,13,122,1250062,,,,,,,2025-04-14,1,,,,,エボルブフローリッシュ,0
86,1011803006801,新規,0,2025-04-14,2025-04-14,月の花合同会社,,合同会社,東京都,足立区,足立４丁目３３－１ＺＫＹビル２０２号室,,13,121,1200015,,,,,,,2025-04-14,1,,,,,ツキノハナ,0
87,1013105001869,新規,0,2025-04-14,2025-04-14,一般社団法人かすみ夢企画,,その他の設立登記法人,東京都,青梅市,今寺４丁目７番地の４,,13,205,1980021,,,,,,,2025-04-14,1,,,,,カスミユメキカク,0
97,1020001162308,新規,0,2025-04-14,2025-04-14,株式会社ＳｕｎＬｉｆｅＴｅｃｈ,,株式会社,神奈川県,横浜市港北区,新横浜１丁目３－１５シュロス新横浜６０３,,14,109,2220033,,,,,,,2025-04-14,1,,,,,,0
98,1020001162316,新規,0,2025-04-14,2025-04-14,株式会社である,,株式会社,神奈川県,川崎市幸区,下平間２５８番地１,,14,132,2120053,,,,,,,2025-04-14,1,,,,,デアル,0
99,1020001162332,新規,0,2025-04-14,2025-04-14,株式会社アシステンテ,,株式会社,神奈川県,横浜市西区,楠町１１番地５ウイング横浜２０８号,,14,103,2200003,,,,,,,2025-04-14,1,,,,,アシステンテ,0
100,1020001162349,新規,0,2025-04-14,2025-04-14,ＭＡＳＡＺＡＷＡ　ＧＲＯＵＰ株式会社,,株式会社,神奈川県,横浜市都筑区,中川１丁目１２番１４－２０３号,,14,118,2240001,,,,,,,2025-04-14,1,,,,,マサザワグループ,0
101,1020001162373,新規,0,2025-04-14,2025-04-14,株式会社アルケイト,,株式会社,神奈川県,川崎市川崎区,元木２丁目４番５－１００６号,,14,131,2100021,,,,,,,2025-04-14,1,,,,,アルケイト,0
105,1020003028176,新規,0,2025-04-14,2025-04-14,万作合同会社,,合同会社,神奈川県,川崎市宮前区,南野川２丁目９－９,,14,136,2160042,,,,,,,2025-04-14,1,,,,,マンサク,0
106,1020003028259,新規,0,2025-04-14,2025-04-14,合同会社スリーオーシャン,,合同会社,神奈川県,横浜市旭区,中希望が丘１９番地３,,14,112,2410825,,,,,,,2025-04-14,1,,,,,スリーオーシャン,0
107,1020003028283,新規,0,2025-04-14,2025-04-14,合同会社ｆｔ,,合同会社,神奈川県,川崎市幸区,戸手２丁目３番６号,,14,132,2120005,,,,,,,2025-04-14,1,,,,,エフティー,0
112,1021001084946,新規,0,2025-04-14,2025-04-14,株式会社ＡＺＵＲＥ　ＰＬＡＮＮＩＮＧ,,株式会社,神奈川県,平塚市,龍城ケ丘１７番４０号,,14,203,2540814,,,,,,,2025-04-14,1,,,,,アジュールプランニング,0
113,1021001084987,新規,0,2025-04-14,2025-04-14,株式会社Ｎｉｊｉ　Ｑｕｅｓｔ,,株式会社,神奈川県,茅ヶ崎市,浜竹４丁目１―１９,,14,207,2530021,,,,,,,2025-04-14,1,,,,,ニジクエスト,0
125,1040001138280,新規,0,2025-04-14,2025-04-14,玉華株式会社,,株式会社,千葉県,船橋市,金杉９丁目１５－１６サクセス１番館１０９室,,12,204,2730853,,,,,,,2025-04-14,1,,,,,タマカ,0
130,1040003027309,新規,0,2025-04-14,2025-04-14,合同会社恭海建設,,合同会社,千葉県,柏市,旭町２丁目８－１４－１０２,,12,217,2770852,,,,,,,2025-04-14,1,,,,,キョウカイケンセツ,0
131,1050003009157,新規,0,2025-04-14,2025-04-14,銘豊商事合同会社,,合同会社,茨城県,結城郡八千代町,大字芦ケ谷８２６番地,,08,521,3003555,,,,,,,2025-04-14,1,,,,,メイホウショウジ,0
132,1050005013603,新規,0,2025-04-14,2025-04-14,医療法人Ｋａ　ｐｉｌｉｎａ　ｍｅｄｉｃａｌ　ｃｏｒｐｏｒａｔｉｏｎ,,その他の設立登記法人,茨城県,守谷市,松並１３９４番地の１,,08,224,3020108,,,,,,,2025-04-14,1,,,,,カピリナメディカルコーポレーション,0
144,1080001026829,新規,0,2025-04-14,2025-04-14,株式会社エシカルチャー,,株式会社,静岡県,島田市,中溝町２５１２番地の４,,22,209,4270047,,,,,,,2025-04-14,1,,,,,エシカルチャー,0
145,1080001026878,新規,0,2025-04-14,2025-04-14,株式会社友結,,株式会社,静岡県,焼津市,田尻１３３１番地,,22,212,4250052,,,,,,,2025-04-14,1,,,,,ユユ,0
147,1080003003438,新規,0,2025-04-14,2025-04-14,合同会社スルガサポート,,合同会社,静岡県,静岡市駿河区,石田３丁目１８番１６号,,22,102,4228042,,,,,,,2025-04-14,1,,,,,スルガサポート,0
148,1080101025433,新規,0,2025-04-14,2025-04-14,株式会社Ｆｉｒｓｔ　Ｓｉｇｎ,,株式会社,静岡県,駿東郡清水町,玉川１１５番地佐野ビル２Ｆ,,22,341,4110902,,,,,,,2025-04-14,1,,,,,ファーストサイン,0
150,1080401027848,新規,0,2025-04-14,2025-04-14,ＴＨＸ株式会社,,株式会社,静岡県,掛川市,細田４３９番地の１ＦＬＢＬＤＧ．２０１,,22,213,4360048,,,,,,,2025-04-14,1,,,,,ティーエイチエックス,0
152,1090001019212,新規,0,2025-04-14,2025-04-14,ヤマナシ楽器株式会社,,株式会社,山梨県,甲府市,武田３丁目３番３２号,,19,201,4000016,,,,,,,2025-04-14,1,,,,,ヤマナシガッキ,0
156,1100005013333,新規,0,2025-04-14,2025-04-14,一般財団法人夢投資財団,,その他の設立登記法人,長野県,飯田市,羽場権現９７８－４－２階なりわいオフィス飯田内,,20,205,3950067,,,,,,,2025-04-14,1,,,,,ユメトウシザイダン,0
164,1120001274365,新規,0,2025-04-14,2025-04-14,株式会社千和,,株式会社,大阪府,大阪市北区,梅田１丁目２番２号大阪駅前第２ビル１２－１２,,27,127,5300001,,,,,,,2025-04-14,1,,,,,センワ,0
165,1120001274373,新規,0,2025-04-14,2025-04-14,株式会社Ｂｅｌａｎ,,株式会社,大阪府,大阪市中央区,南船場４丁目１０番１８－６０８号,,27,128,5420081,,,,,,,2025-04-14,1,,,,,ベラン,0
166,1120001274407,新規,0,2025-04-14,2025-04-14,株式会社クロスバー,,株式会社,大阪府,大阪市淀川区,十三本町１丁目９番地２０十三カワマタビル２０３号,,27,123,5320024,,,,,,,2025-04-14,1,,,,,クロスバー,0
167,1120001274423,新規,0,2025-04-14,2025-04-14,株式会社Ｕｎｉｖｅｒｓｅ,,株式会社,大阪府,大阪市浪速区,敷津西１丁目１０番８号上垣第三ビル２０２号室,,27,111,5560015,,,,,,,2025-04-14,1,,,,,ユニバース,0
168,1120001274464,新規,0,2025-04-14,2025-04-14,株式会社ｅｓｔｕｄｙ,,株式会社,大阪府,大阪市中央区,南船場３丁目２番２２号おおきに南船場ビル２０５,,27,128,5420081,,,,,,,2025-04-14,1,,,,,イースタディー,0
169,1120001274480,新規,0,2025-04-14,2025-04-14,美程国際株式会社,,株式会社,大阪府,大阪市東成区,大今里西１丁目７番２号,,27,115,5370014,,,,,,,2025-04-14,1,,,,,ビテイコクサイ,0
170,1120001274489,新規,0,2025-04-14,2025-04-14,大阪国の旅株式会社,,株式会社,大阪府,大阪市都島区,中野町４丁目３番６号Ｈ２Ｈ大阪桜之宮邸２Ａ－２,,27,102,5340027,,,,,,,2025-04-14,1,,,,,オオサカクニノタビ,0
171,1120001274506,新規,0,2025-04-14,2025-04-14,ＳｕｎＬｉｇｈｔ株式会社,,株式会社,大阪府,大阪市港区,弁天町１０－２０港ＯＧＩビル２号室,,27,107,5520000,,,,,,,2025-04-14,1,,,,,サンライト,0
172,1120001274514,新規,0,2025-04-14,2025-04-14,雲海株式会社,,株式会社,大阪府,大阪市西区,九条２丁目１１番９号３０１室,,27,106,5500027,,,,,,,2025-04-14,1,,,,,ウンカイ,0
173,1120001274522,新規,0,2025-04-14,2025-04-14,株式会社武士道,,株式会社,大阪府,大阪市北区,西天満６丁目９番２１号タイガービル１階,,27,127,5300047,,,,,,,2025-04-14,1,,,,,ブシドウ,0
174,1120001274530,新規,0,2025-04-14,2025-04-14,株式会社ｋａｒａｄａ　ｐｌｕｓ,,株式会社,大阪府,大阪市福島区,福島１丁目５番１２号,,27,103,5530003,,,,,,,2025-04-14,1,,,,,カラダプラス,0
175,1120001274539,新規,0,2025-04-14,2025-04-14,株式会社Ｓｔｕｄｉｏ　Ｄｅｔａｉｌ一級建築士事務所,,株式会社,大阪府,枚方市,堂山２丁目１番８号松田工芸ビル２Ｆ,,27,210,5730007,,,,,,,2025-04-14,1,,,,,スタジオディティールイッキュウケンチクシジムショ,0
176,1120001274555,新規,0,2025-04-14,2025-04-14,鋭成貿易株式会社,,株式会社,大阪府,大阪市城東区,東中浜３丁目２番２３－２０９号,,27,118,5360023,,,,,,,2025-04-14,1,,,,,エイセイボウエキ,0
177,1120001274605,新規,0,2025-04-14,2025-04-14,金豊株式会社,,株式会社,大阪府,大阪市西成区,萩之茶屋１丁目１２番７号万葉ビル５階１０２号室,,27,122,5570004,,,,,,,2025-04-14,1,,,,,キンホウ,0
178,1120001274613,新規,0,2025-04-14,2025-04-14,株式会社磯口工業,,株式会社,大阪府,大阪市住之江区,北加賀屋４丁目５番１０号,,27,125,5590011,,,,,,,2025-04-14,1,,,,,イソグチコウギョウ,0
179,1120001274662,新規,0,2025-04-14,2025-04-14,株式会社センターサークル,,株式会社,大阪府,大阪市北区,黒崎町９番９－２０１号,,27,127,5300023,,,,,,,2025-04-14,1,,,,,センターサークル,0
180,1120001274695,新規,0,2025-04-14,2025-04-14,株式会社雅,,株式会社,大阪府,大阪市平野区,長吉六反２丁目２番１２－２０３号,,27,126,5470012,,,,,,,2025-04-14,1,,,,,ミヤビ,0
189,1120101071448,新規,0,2025-04-14,2025-04-14,株式会社プレイフルワークス,,株式会社,大阪府,羽曳野市,白鳥２丁目１２番５号,,27,222,5830856,,,,,,,2025-04-14,1,,,,,プレイフルワークス,0
190,1120101071472,新規,0,2025-04-14,2025-04-14,壹米管理株式会社,,株式会社,大阪府,堺市堺区,中安井町３丁３番６号,,27,141,5900063,,,,,,,2025-04-14,1,,,,,イチベイカンリ,0
194,1120905006715,新規,0,2025-04-14,2025-04-14,管理組合法人パシフィック南千里,,その他の設立登記法人,大阪府,吹田市,山田西１丁目２４番５号,,27,205,5650824,,,,,,,2025-04-14,1,,,,,パシフィックミナミセンリ,0
196,1130001079417,新規,0,2025-04-14,2025-04-14,株式会社ＮｏｖｕＳｅｅｄ,,株式会社,京都府,京都市上京区,中筋通浄福寺東入菱屋町２７８番地１－２０１,,26,102,6028451,,,,,,,2025-04-14,1,,,,,ノヴァシード,0
205,1140001138114,新規,0,2025-04-14,2025-04-14,海と山の街リフォーム株式会社,,株式会社,兵庫県,神戸市西区,伊川谷町有瀬１２９２番地の２１,,28,111,6512113,,,,,,,2025-04-14,1,,,,,ウミトヤマノマチリフォーム,0
207,1140005027461,新規,0,2025-04-14,2025-04-14,医療法人社団武美会,,その他の設立登記法人,兵庫県,神戸市北区,有野町有野３３９２番６号ＥＫＭビル２階,,28,109,6511312,,,,,,,2025-04-14,1,,,,,タケビカイ,0
218,1180001166251,新規,0,2025-04-14,2025-04-14,株式会社ムジンダー,,株式会社,愛知県,名古屋市昭和区,鶴舞１丁目２番３２号ＳＴＡＴＩＯＮＡｉ,,23,107,4660064,,,,,,,2025-04-14,1,,,,,ムジンダー,0
219,1180001166400,新規,0,2025-04-14,2025-04-14,株式会社Ｏｎｅ,,株式会社,愛知県,北名古屋市,鹿田２５６８番地３７,,23,234,4810004,,,,,,,2025-04-14,1,,,,,ワン,0
237,1200005013752,新規,0,2025-04-14,2025-04-14,一般社団法人ＫＡＳＡＮＥ,,その他の設立登記法人,岐阜県,関市,小屋名９７４番地,,21,205,5013941,,,,,,,2025-04-14,1,,,,,カサネ,0
260,1290001109629,新規,0,2025-04-14,2025-04-14,ウエルドシステム株式会社,,株式会社,福岡県,糟屋郡須惠町,大字植木１９８番地２,,40,344,8112112,,,,,,,2025-04-14,1,,,,,ウエルドシステム,0
263,1290003016674,新規,0,2025-04-14,2025-04-14,合同会社コミュニケーション設計所,,合同会社,福岡県,福岡市博多区,博多駅前３丁目４－２５アクロスキューブ博多駅前,,40,132,8120011,,,,,,,2025-04-14,1,,,,,コミュニケーションセッケイショ,0
270,1290803005026,新規,0,2025-04-14,2025-04-14,合同会社穂本硝子,,合同会社,福岡県,田川郡福智町,上野２１００番地１,,40,610,8221102,,,,,,,2025-04-14,1,,,,,ホモトガラス,0
277,1330003010937,新規,0,2025-04-14,2025-04-14,合同会社スマイルアース,,合同会社,熊本県,熊本市中央区,水前寺４丁目８番５号スカイコート水前寺１０１,,43,101,8620950,,,,,,,2025-04-14,1,,,,,スマイルアース,0
284,1360001035041,新規,0,2025-04-14,2025-04-14,株式会社みどり建設,,株式会社,沖縄県,宮古島市,平良字久貝１９５,,47,214,9060015,,,,,,,2025-04-14,1,,,,,ミドリケンセツ,0
290,1380003006006,新規,0,2025-04-14,2025-04-14,アンドグループ合同会社,,合同会社,福島県,郡山市,駅前２丁目３－７エリート３０ビル２Ｆ／３Ｆ,,07,203,9638002,,,,,,,2025-04-14,1,,,,,アンドグループ,0
297,1420001019095,新規,0,2025-04-14,2025-04-14,株式会社山本不動産鑑定,,株式会社,青森県,八戸市,田向２丁目２番１９号,,02,203,0310011,,,,,,,2025-04-14,1,,,,,ヤマモトフドウサンカンテイ,0
313,1700150129906,新規,0,2025-04-14,2025-04-14,ＹＧＡＣｒｏｓｓＢｏｒｄｅｒＥ－ＣｏｍｍｅｒｃｅＲｅｓｅａｒｃｈＣｅｎｔｒｅＣｏ．，Ｌｉｍｉｔｅｄ,,外国会社等,,,,,,,,ＦＬＡＴ／ＲＭ　１６０３　１６／Ｆ　ＴＵＮＧ　ＮＩＮＧ　ＢＵＩＬＤＩＮＧ　１２５－１２６　ＣＯＮＮＡＵＧＨＴ　ＲＯＡＤ　ＣＥＮＴＲＡＬ　ＨＫ,,,,,,2025-04-14,1,,,,,ワイジーエークロスボーダーイーコマースリサーチセンターカンパニーリミテッド,0
314,1700150129922,新規,0,2025-04-14,2025-04-14,ＮＩＳＵＲＡ　ＭＯＴＯＲＳ,,外国会社等,千葉県,八街市,東吉田７２５番地ビジネスオフィス３８号,,12,230,2891114,スリランカ民主社会主義共和国、マタラ、パンブラナ、アンガリカダルマパラマワタ、Ｎｏ．５２３,,,,,,2025-04-14,1,,,,,ニスラモータース,0
315,1700150129930,新規,0,2025-04-14,2025-04-14,Ｋ．Ｐ．ＭＯＴＯＲＳ,,外国会社等,千葉県,東金市,二又３３６番地２　オフィス２Ａ,,12,213,2830004,スリランカ民主社会主義共和国、マタレ、ウクウェラ、マルコナ、Ｎｏ．１１８／５,,,,,,2025-04-14,1,,,,,ケイピーモータース,0
316,1700150129939,新規,0,2025-04-14,2025-04-14,ＲＵＨＵＮＵ　ＴＲＡＤＩＮＧ,,外国会社等,千葉県,山武郡横芝光町,新島５２１４番地３　オフィス１,,12,410,2891736,スリランカ民主社会主義共和国、キャンディ、プージャピティヤ、ボッカウェラロード、Ｎｏ．４４／７,,,,,,2025-04-14,1,,,,,ルフヌトレーデイング,0
331,2010001254154,新規,0,2025-04-14,2025-04-14,株式会社ｓｉｏ,,株式会社,東京都,中央区,銀座１丁目２２番１１号銀座大竹ビジデンス２Ｆ,,13,102,1040061,,,,,,,2025-04-14,1,,,,,シオ,0
337,2010005039849,新規,0,2025-04-14,2025-04-14,一般財団法人日本共同購買機構,,その他の設立登記法人,東京都,中央区,勝どき４丁目６番１－４１１８号,,13,102,1040054,,,,,,,2025-04-14,1,,,,,ニホンキョウドウコウバイキコウ,0
352,2010401189470,新規,0,2025-04-14,2025-04-14,株式会社Ｒｅ脳,,株式会社,東京都,港区,北青山３丁目５番４０号ＰＲＹＭＥＣＵＢＥ表参道４０２,,13,103,1070061,,,,,,,2025-04-14,1,,,,,リノウ,0
353,2010401189677,新規,0,2025-04-14,2025-04-14,タタンリーシング１株式会社,,株式会社,東京都,港区,虎ノ門１丁目２番６号,,13,103,1050001,,,,,,,2025-04-14,1,,,,,タタンリーシングワン,0
361,2010701047510,新規,0,2025-04-14,2025-04-14,株式会社旗が岡住宅サービス,,株式会社,東京都,品川区,旗の台６丁目２４－１２－６０３,,13,109,1420064,,,,,,,2025-04-14,1,,,,,ハタガオカジュウタクサービス,0
364,2010703007660,新規,0,2025-04-14,2025-04-14,Ｓｉｘ合同会社,,合同会社,東京都,品川区,小山６丁目２１番３号ベル・シャンブル小山６０１,,13,109,1420062,,,,,,,2025-04-14,1,,,,,シックス,0
365,2010703007669,新規,0,2025-04-14,2025-04-14,ケーラボ合同会社,,合同会社,東京都,品川区,二葉３丁目１１－９,,13,109,1420043,,,,,,,2025-04-14,1,,,,,ケーラボ,0
369,2010801036000,新規,0,2025-04-14,2025-04-14,Ｍａｋｅｌｅｗ株式会社,,株式会社,東京都,大田区,大森西２丁目１１番５号,,13,111,1430015,,,,,,,2025-04-14,1,,,,,メイクル,0
381,2011001168427,新規,0,2025-04-14,2025-04-14,株式会社Ｒｅｖｏ　Ｃｌｉｎｉｃすすきの,,株式会社,東京都,渋谷区,桜丘町３番２号ＳＡＫＵＲＡタワー１２０２,,13,113,1500031,,,,,,,2025-04-14,1,,,,,レボクリニックススキノ,0
382,2011001168856,新規,0,2025-04-14,2025-04-14,ＨＲチェック株式会社,,株式会社,東京都,渋谷区,道玄坂１丁目１０番８号渋谷道玄坂東急ビル２Ｆ－Ｃ,,13,113,1500043,,,,,,,2025-04-14,1,,,,,エイチアールチェック,0
383,2011001168922,新規,0,2025-04-14,2025-04-14,株式会社ＦｌｏｗＴｅｃｈ,,株式会社,東京都,渋谷区,渋谷２丁目１９－１５宮益坂ビルディング６０９,,13,113,1500002,,,,,,,2025-04-14,1,,,,,フローテック,0
384,2011001168947,新規,0,2025-04-14,2025-04-14,ＪＯＢＡＩＤ株式会社,,株式会社,東京都,渋谷区,円山町５－５Ｎａｖｉ渋谷Ｖ３階,,13,113,1500044,,,,,,,2025-04-14,1,,,,,ジョブエイド,0
385,2011001168963,新規,0,2025-04-14,2025-04-14,株式会社Ｔｏｂａｓ,,株式会社,東京都,渋谷区,渋谷２丁目１９－１５宮益坂ビルディング６０９,,13,113,1500002,,,,,,,2025-04-14,1,,,,,トバス,0
386,2011001168971,新規,0,2025-04-14,2025-04-14,株式会社ＭＩＬＫｃｏｍｐａｎｙ,,株式会社,東京都,渋谷区,渋谷１丁目２３－２１渋谷キャスト１５１９,,13,113,1500002,,,,,,,2025-04-14,1,,,,,ミルクカンパニー,0
389,2011003021369,新規,0,2025-04-14,2025-04-14,合同会社大和,,合同会社,東京都,渋谷区,渋谷２丁目１９番１５号,,13,113,1500002,,,,,,,2025-04-14,1,,,,,ヤマト,0
390,2011003021385,新規,0,2025-04-14,2025-04-14,坂本商事合同会社,,合同会社,東京都,渋谷区,道玄坂１丁目１０番８号渋谷道玄坂東急ビル２Ｆ－Ｃ,,13,113,1500043,,,,,,,2025-04-14,1,,,,,サカモトショウジ,0
391,2011003021402,新規,0,2025-04-14,2025-04-14,合同会社ハローフューチャーアカデミー,,合同会社,東京都,渋谷区,円山町５番３号ＭＩＥＵＸ渋谷ビル８階,,13,113,1500044,,,,,,,2025-04-14,1,,,,,ハローフューチャーアカデミー,0
404,2011401027018,新規,0,2025-04-14,2025-04-14,安莊株式会社,,株式会社,東京都,板橋区,徳丸６丁目１３－１５グリーンヒル徳丸４０１号室,,13,119,1750083,,,,,,,2025-04-14,1,,,,,アンソウ,0
405,2011501031919,新規,0,2025-04-14,2025-04-14,７．４．Ｉｎｄｅｐｅｎｄｅｎｃｅ　Ｄａｙ株式会社,,株式会社,東京都,北区,上十条２丁目３番１号アーバンスクエアＫ１０２号室,,13,117,1140034,,,,,,,2025-04-14,1,,,,,ナナヨンインディペンデンスデイ,0
406,2011501031927,新規,0,2025-04-14,2025-04-14,株式会社Ａｒｔ　Ｌｉｎｋ,,株式会社,東京都,荒川区,南千住２丁目１６－９マッスビル５０１号室,,13,118,1160003,,,,,,,2025-04-14,1,,,,,アートリンク,0
407,2011601028583,新規,0,2025-04-14,2025-04-14,ＧＣＭコンサルティング株式会社,,株式会社,東京都,練馬区,北町３丁目１６－１０－３０９,,13,120,1790081,,,,,,,2025-04-14,1,,,,,ジーシーエムコンサルティング,0
408,2011603004657,新規,0,2025-04-14,2025-04-14,ＳＴＡＲ　ＰＬＵＳ合同会社,,合同会社,東京都,練馬区,光が丘３丁目８番７－４０５号,,13,120,1790072,,,,,,,2025-04-14,1,,,,,スタープラス,0
409,2011701028244,新規,0,2025-04-14,2025-04-14,３６５．株式会社,,株式会社,東京都,江戸川区,西一之江３丁目４２番２号,,13,123,1320023,,,,,,,2025-04-14,1,,,,,サンロクゴ,0
414,2012801023894,新規,0,2025-04-14,2025-04-14,株式会社ＭＡＣＳ　Ｄｅｓｉｇｎ,,株式会社,東京都,立川市,西砂町２丁目１７番地の４,,13,202,1900034,,,,,,,2025-04-14,1,,,,,マックスデザイン,0
417,2013301054075,新規,0,2025-04-14,2025-04-14,株式会社ＳＭＡＲＴ,,株式会社,東京都,豊島区,東池袋２丁目６２番８号ＢＩＧオフィスプラザ池袋１２０６,,13,116,1700013,,,,,,,2025-04-14,1,,,,,スマート,0
422,2020001162348,新規,0,2025-04-14,2025-04-14,株式会社ＨＴＴｗｏｒｋｓ,,株式会社,神奈川県,横浜市青葉区,あざみ野南２丁目８－３６グレイスあざみ野南Ａ,,14,117,2250012,,,,,,,2025-04-14,1,,,,,エイチティーティーワークス,0
423,2020001162364,新規,0,2025-04-14,2025-04-14,株式会社コアブレイン,,株式会社,神奈川県,横浜市神奈川区,鶴屋町２丁目９－７,,14,102,2210835,,,,,,,2025-04-14,1,,,,,コアブレイン,0
424,2020001162372,新規,0,2025-04-14,2025-04-14,株式会社Ｃ＆Ｈ,,株式会社,神奈川県,横浜市中区,野毛町３丁目１５３－４,,14,104,2310064,,,,,,,2025-04-14,1,,,,,シーアンドエイチ,0
427,2020003028217,新規,0,2025-04-14,2025-04-14,ＯＬＤパワー合同会社,,合同会社,神奈川県,横浜市戸塚区,上柏尾町１６６番地１,,14,110,2440811,,,,,,,2025-04-14,1,,,,,オールドパワー,0
428,2020003028258,新規,0,2025-04-14,2025-04-14,デンツー合同会社,,合同会社,神奈川県,横浜市磯子区,杉田８丁目５４－１５,,14,107,2350033,,,,,,,2025-04-14,1,,,,,デンツー,0
429,2020003028266,新規,0,2025-04-14,2025-04-14,合同会社ファイブドラゴンズ,,合同会社,神奈川県,横浜市中区,打越３０番地パーク・ハイム横濱山手４１５号室,,14,104,2310867,,,,,,,2025-04-14,1,,,,,ファイブドラゴンズ,0
430,2020005016797,新規,0,2025-04-14,2025-04-14,税理士法人神奈川税経センター,,その他の設立登記法人,神奈川県,横浜市戸塚区,上倉田町４４５番地,,14,110,2440816,,,,,,,2025-04-14,1,,,,,カナガワゼイケイ,0
434,2021001084953,新規,0,2025-04-14,2025-04-14,株式会社カプタワークス,,株式会社,神奈川県,鎌倉市,二階堂７３－１２,,14,204,2480002,,,,,,,2025-04-14,1,,,,,カプタワークス,0
436,2021003015865,新規,0,2025-04-14,2025-04-14,合同会社ケアフュージョン,,合同会社,神奈川県,大和市,下和田１１７０番地,,14,213,2420015,,,,,,,2025-04-14,1,,,,,ケアフュージョン,0
442,2030001165969,新規,0,2025-04-14,2025-04-14,株式会社ＮＩＣＯ,,株式会社,埼玉県,さいたま市北区,日進町１丁目１９７番地２１,,11,102,3310823,,,,,,,2025-04-14,1,,,,,ニコ,0
444,2030003026541,新規,0,2025-04-14,2025-04-14,合同会社ＵｎｚａＵｎｚａ,,合同会社,埼玉県,さいたま市北区,盆栽町３４０番地１－５２４号,,11,102,3310805,,,,,,,2025-04-14,1,,,,,ウンザウンザ,0
453,2060003005501,新規,0,2025-04-14,2025-04-14,合同会社ナカリバデザイン,,合同会社,栃木県,那須郡那珂川町,馬頭３６６,,09,411,3240613,,,,,,,2025-04-14,1,,,,,ナカリバデザイン,0
454,2060005010326,新規,0,2025-04-14,2025-04-14,ライズ協同組合,,その他の設立登記法人,栃木県,宇都宮市,双葉１丁目２番１号,,09,201,3210164,,,,,,,2025-04-14,1,,,,,ライズ,0
461,2080101025440,新規,0,2025-04-14,2025-04-14,職人ギルド株式会社,,株式会社,静岡県,富士宮市,宮原２０番地の１７,,22,207,4180005,,,,,,,2025-04-14,1,,,,,ショクニンギルド,0
463,2080403005231,新規,0,2025-04-14,2025-04-14,合同会社ＡＩ‐ＲＯＢＯＴＩＣ‐ＭＵＳＩＣ‐ＳＴＵＤＩＯ,,合同会社,静岡県,磐田市,中泉２９１８‐２７,,22,211,4380078,,,,,,,2025-04-14,1,,,,,エイアイロボティックミュージックスタジオ,0
476,2120001274182,新規,0,2025-04-14,2025-04-14,株式会社ホットスポット,,株式会社,大阪府,大阪市西淀川区,佃３丁目２‐２６‐２Ｆ,,27,113,5550001,,,,,,,2025-04-14,1,,,,,ホットスポット,0
477,2120001274232,新規,0,2025-04-14,2025-04-14,株式会社２１２,,株式会社,大阪府,大阪市北区,梅田１丁目２番２号大阪駅前第２ビル１２－１２,,27,127,5300001,,,,,,,2025-04-14,1,,,,,ニイチニ,0
478,2120001274281,新規,0,2025-04-14,2025-04-14,株式会社ＲＹＯＳＨＩＮ,,株式会社,大阪府,寝屋川市,石津元町１１番２－２０５号,,27,215,5720025,,,,,,,2025-04-14,1,,,,,リョウシン,0
479,2120001274364,新規,0,2025-04-14,2025-04-14,タンジェリン・フーカ株式会社,,株式会社,大阪府,大阪市淀川区,西三国１丁目１７－１５シャトー西三国３階３０２号室,,27,123,5320006,,,,,,,2025-04-14,1,,,,,タンジェリンフーカ,0
480,2120001274380,新規,0,2025-04-14,2025-04-14,盈通株式会社,,株式会社,大阪府,大阪市浪速区,敷津西１丁目５番１１号新浪速ビル４階４０２,,27,111,5560015,,,,,,,2025-04-14,1,,,,,エイツウ,0
481,2120001274422,新規,0,2025-04-14,2025-04-14,株式会社ＲＯＣＫＹ,,株式会社,大阪府,大阪市西成区,玉出西２丁目９－１８－１０１,,27,122,5570045,,,,,,,2025-04-14,1,,,,,ロッキー,0
482,2120001274430,新規,0,2025-04-14,2025-04-14,株式会社Ｎａｉｎａｉ,,株式会社,大阪府,大阪市中央区,南船場３丁目２番２２号おおきに南船場ビル２０５,,27,128,5420081,,,,,,,2025-04-14,1,,,,,ナイナイ,0
483,2120001274496,新規,0,2025-04-14,2025-04-14,成峰株式会社,,株式会社,大阪府,大阪市中央区,松屋町９番２０号ローレルステート松屋町６０９Ａ,,27,128,5420067,,,,,,,2025-04-14,1,,,,,セイホウ,0
484,2120001274538,新規,0,2025-04-14,2025-04-14,バトルクライテクノロジー株式会社,,株式会社,大阪府,大阪市西区,京町堀１丁目１６番８号ＲＥ‐０２１‐７０２号室,,27,106,5500003,,,,,,,2025-04-14,1,,,,,バトルクライテクノロジー,0
485,2120001274546,新規,0,2025-04-14,2025-04-14,株式会社ｖｅｎｔ,,株式会社,大阪府,大阪市西区,北堀江２丁目３番１－１２０９号,,27,106,5500014,,,,,,,2025-04-14,1,,,,,ヴェント,0
486,2120001274554,新規,0,2025-04-14,2025-04-14,中昌国際株式会社,,株式会社,大阪府,大阪市淀川区,十三本町１丁目９番２０－３０１号,,27,123,5320024,,,,,,,2025-04-14,1,,,,,チュウショウコクサイ,0
487,2120001274562,新規,0,2025-04-14,2025-04-14,不動産Ｍ＆Ａパートナーズ株式会社,,株式会社,大阪府,大阪市北区,西天満３丁目１番５号英和ビル１０３,,27,127,5300047,,,,,,,2025-04-14,1,,,,,フドウサンエムアンドエーパートナーズ,0
488,2120001274604,新規,0,2025-04-14,2025-04-14,株式会社韻雅,,株式会社,大阪府,大阪市住吉区,遠里小野４丁目５番２号、２０１号室,,27,120,5580032,,,,,,,2025-04-14,1,,,,,インガ,0
489,2120001274612,新規,0,2025-04-14,2025-04-14,株式会社ヤマト精工,,株式会社,大阪府,大阪市平野区,加美北３丁目１７番１５号,,27,126,5470001,,,,,,,2025-04-14,1,,,,,ヤマトセイコウ,0
490,2120001274629,新規,0,2025-04-14,2025-04-14,ＯＤＩＮＳＯＮ株式会社,,株式会社,大阪府,大阪市生野区,新今里７丁目７番２号、３０５号室,,27,116,5440001,,,,,,,2025-04-14,1,,,,,オーディンソン,0
496,2120003029089,新規,0,2025-04-14,2025-04-14,神啓合同会社,,合同会社,大阪府,大阪市東成区,東中本３丁目２０番２２号関西マンション２０６号室,,27,115,5370021,,,,,,,2025-04-14,1,,,,,シンケイ,0
497,2120003029097,新規,0,2025-04-14,2025-04-14,合同会社アルカナ,,合同会社,大阪府,大阪市生野区,巽西４丁目２番３０号１０２室,00138764,27,116,5440012,,,,,,,2025-04-14,1,,,,,アルカナ,0
498,2120003029114,新規,0,2025-04-14,2025-04-14,合同会社ＶＥＮＴＯ,,合同会社,大阪府,大阪市北区,梅田１丁目１番３号大阪駅前第３ビル２９階１－１－１号室,,27,127,5300001,,,,,,,2025-04-14,1,,,,,ヴェント,0
499,2120003029139,新規,0,2025-04-14,2025-04-14,合同会社夢のとりで,,合同会社,大阪府,大阪市城東区,今福西６丁目２番１－１０２２号,,27,118,5360004,,,,,,,2025-04-14,1,,,,,ユメノトリデ,0
501,2120101071414,新規,0,2025-04-14,2025-04-14,株式会社別格,,株式会社,大阪府,堺市中区,平井１０３０番地７,,27,142,5998251,,,,,,,2025-04-14,1,,,,,ベッカク,0
504,2120901050708,新規,0,2025-04-14,2025-04-14,株式会社ＮＯＩ,,株式会社,大阪府,高槻市,奈佐原４丁目８番２号,,27,207,5691041,,,,,,,2025-04-14,1,,,,,ノイ,0
505,2120901050724,新規,0,2025-04-14,2025-04-14,株式会社百智,,株式会社,大阪府,箕面市,桜ケ丘３丁目７番４号,,27,220,5620046,,,,,,,2025-04-14,1,,,,,モモチ,0
506,2120905006714,新規,0,2025-04-14,2025-04-14,一般財団法人群青財団,,その他の設立登記法人,大阪府,高槻市,北大樋町１３番４号,,27,207,5690041,,,,,,,2025-04-14,1,,,,,グンジョウザイダン,0
512,2130001079416,新規,0,2025-04-14,2025-04-14,株式会社団欒月,,株式会社,京都府,京都市左京区,吉田泉殿町４番地１３,,26,103,6068301,,,,,,,2025-04-14,1,,,,,マドイヅキ,0
520,2140001138014,新規,0,2025-04-14,2025-04-14,株式会社宝塚歌劇団,,株式会社,兵庫県,宝塚市,栄町１丁目１番５７号,,28,214,6650845,,,,,,,2025-04-14,1,,,,,タカラヅカカゲキダン,0
521,2140001138113,新規,0,2025-04-14,2025-04-14,海と山の街引越しサービス株式会社,,株式会社,兵庫県,神戸市西区,伊川谷町有瀬１２９２番地の２１,,28,111,6512113,,,,,,,2025-04-14,1,,,,,ウミトヤマノマチヒッコシサービス,0
525,2140003021911,新規,0,2025-04-14,2025-04-14,合同会社Ｓｕｎｎｙ　Ｐｌａｃｅ,,合同会社,兵庫県,神戸市西区,南別府１丁目１－１サンシャビル１Ｆ,,28,111,6512116,,,,,,,2025-04-14,1,,,,,サニープレイス,0
526,2140003021928,新規,0,2025-04-14,2025-04-14,合同会社ＳＡＴ,,合同会社,兵庫県,尼崎市,神田南通１丁目３１番地ルミエール阪神尼崎３０３,,28,202,6600885,,,,,,,2025-04-14,1,,,,,サット,0
529,2140005027460,新規,0,2025-04-14,2025-04-14,医療法人社団熊谷内科医院,,その他の設立登記法人,兵庫県,神戸市西区,糀台３丁目２６番地の２,,28,111,6512273,,,,,,,2025-04-14,1,,,,,クマガイナイカイイン,0
532,2150003003553,新規,0,2025-04-14,2025-04-14,ＺＥＲＯ‐１合同会社,,合同会社,奈良県,大和郡山市,小林町西３丁目１番１３号,,29,203,6391045,,,,,,,2025-04-14,1,,,,,ゼロイチ,0
534,2160005011396,新規,0,2025-04-14,2025-04-14,一般社団法人京滋ＧＸ推進組合,,その他の設立登記法人,滋賀県,大津市,穴太３丁目２番３８号,,25,201,5200114,,,,,,,2025-04-14,1,,,,,ケイジジーエックススイシンクミアイ,0
546,2180003028317,新規,0,2025-04-14,2025-04-14,合同会社かけはし,,合同会社,愛知県,名古屋市中区,栄１丁目２２番２号,,23,106,4600008,,,,,,,2025-04-14,1,,,,,カケハシ,0
549,2180005021047,新規,0,2025-04-14,2025-04-14,特定非営利活動法人ハピハグ,,その他の設立登記法人,愛知県,名古屋市中村区,森末町２丁目５０番地の３,,23,105,4530052,,,,,,,2025-04-14,1,,,,,ハピハグ,0
568,2240001064803,新規,0,2025-04-14,2025-04-14,ケーズアルケミー株式会社,,株式会社,広島県,広島市安佐南区,祇園５丁目３８番７号,,34,105,7310138,,,,,,,2025-04-14,1,,,,,ケーズアルケミー,0
572,2250003003700,新規,0,2025-04-14,2025-04-14,合同会社ネフェルフリーヤ,,合同会社,山口県,宇部市,八王子町１５番１３号,,35,202,7550007,,,,,,,2025-04-14,1,,,,,ネフェルフリーヤ,0
573,2250005009002,新規,0,2025-04-14,2025-04-14,医療法人やのくにクリニック,,その他の設立登記法人,山口県,熊毛郡田布施町,大字下田布施８９９番地３,,35,343,7421511,,,,,,,2025-04-14,1,,,,,ヤノクニクリニック,0
576,2260005011460,新規,0,2025-04-14,2025-04-14,一般社団法人いきいきライフ協会あしたの私,,その他の設立登記法人,岡山県,浅口郡里庄町,大字里見９２７１番地２,,33,445,7190301,,,,,,,2025-04-14,1,,,,,イキイキライフキョウカイアシタノワタシ,0
593,2290001109669,新規,0,2025-04-14,2025-04-14,株式会社ｓｍａｓａｐｏ,,株式会社,福岡県,大牟田市,日出町２丁目２－１９－２Ｆ,,40,202,8360802,,,,,,,2025-04-14,1,,,,,,0
594,2290001109719,新規,0,2025-04-14,2025-04-14,株式会社和ごころ,,株式会社,福岡県,福岡市中央区,今川１丁目１３番２４号,,40,133,8100054,,,,,,,2025-04-14,1,,,,,ワゴコロ,0
598,2290005019708,新規,0,2025-04-14,2025-04-14,医療法人喜咲堂,,その他の設立登記法人,福岡県,福津市,日蒔野６丁目１４－３,,40,224,8113209,,,,,,,2025-04-14,1,,,,,キショウドウ,0
608,2330003010936,新規,0,2025-04-14,2025-04-14,合同会社雫,,合同会社,熊本県,菊池郡菊陽町,大字久保田２８０８番地１,,43,404,8691103,,,,,,,2025-04-14,1,,,,,シズク,0
609,2330003010944,新規,0,2025-04-14,2025-04-14,合同会社濱武,,合同会社,熊本県,山鹿市,長坂１６００番地,,43,208,8610534,,,,,,,2025-04-14,1,,,,,ハマタケ,0
611,2340005009851,新規,0,2025-04-14,2025-04-14,一般社団法人こしきＡＧ,,その他の設立登記法人,鹿児島県,姶良市,北山１３６５番地２,,46,225,8995541,,,,,,,2025-04-14,1,,,,,コシキエージー,0
615,2360001035040,新規,0,2025-04-14,2025-04-14,株式会社ｉｓｌａｎｄ．ｎ,,株式会社,沖縄県,糸満市,字兼城７２２リトルハウス・Ｎ・３－Ａ,,47,210,9010303,,,,,,,2025-04-14,1,,,,,アイランドエヌ,0
616,2360003014835,新規,0,2025-04-14,2025-04-14,合同会社Ｉｎａ,,合同会社,沖縄県,沖縄市,山内２丁目１２番４０号,,47,211,9040034,,,,,,,2025-04-14,1,,,,,アイナ,0
623,2410005006635,新規,0,2025-04-14,2025-04-14,一般社団法人北秋田まちづくり観光協会,,その他の設立登記法人,秋田県,北秋田市,松葉町３番１号,,05,213,0183321,,,,,,,2025-04-14,1,,,,,キタアキタマチヅクリカンコウキョウカイ,0
633,2450003002640,新規,0,2025-04-14,2025-04-14,合同会社ＹＪ,,合同会社,北海道,雨竜郡妹背牛町,字妹背牛４６４番地の２４,,01,433,0790500,,,,,,,2025-04-14,1,,,,,ワイジェー,0
637,2470001020650,新規,0,2025-04-14,2025-04-14,ＧＯＳＨＩＫＩホールディングス株式会社,,株式会社,香川県,さぬき市,志度３３００番地１３,,37,206,7692101,,,,,,,2025-04-14,1,,,,,ゴシキホールディングス,0
642,2700150129863,新規,0,2025-04-14,2025-04-14,Ｈｅｆｅｉ　Ｗｅｉｌａｎ　Ｓｐｏｒｔｓ　Ｔｅｃｈｎｏｌｏｇｙ　Ｃｏ．，Ｌｔｄ,,外国会社等,,,,,,,,Ｒｏｏｍ　２２０３，Ｂｕｉｌｄｉｎｇ　１，Ｙａｎｇｇｕａｎｇｓｈａｎｇｊｉｎｇｙｕａｎ，Ｓｕｚｈｏｕ　Ｒｏａｄ，Ｓｈｕａｎｇｇａｎｇ　Ｓｔｒｅｅｔ，Ｌｕｙａｎｇ　Ｄｉｓｔｒｉｃｔ，Ｈｅｆｅｉ　Ｃｉｔｙ，Ａｎｈｕｉ　Ｐｒｏｖｉｎｃｅ,,,,,,2025-04-14,1,,,,,ヘフェイウェイランスポーツテクノロジーカンパニーリミテッド,0
643,2700150129896,新規,0,2025-04-14,2025-04-14,Ｒａｋｕｔｅｎ　Ｓｙｍｐｈｏｎｙ　Ｉｎｄｉａ　Ｐｒｉｖａｔｅ　Ｌｉｍｉｔｅｄ,,外国会社等,,,,,,,,３ｒｄ　Ｆｌｏｏｒ，Ｃ２１　Ｂｕｓｉｎｅｓｓ　Ｐａｒｋ，ＭＲ－１０，Ｉｎｄｏｒｅ,,,,,,2025-04-14,1,,,,,ラクテンシンフオニーインデイアプライベートリミテツド,0
644,2700150129905,新規,0,2025-04-14,2025-04-14,ｓｈｅｎｚｈｅｎｓｈｉｈｏｎｇｙａｗｅｉｓｈｉｄｉａｎｚｉｋｅｊｉｙｏｕｘｉａｎｇｏｎｇｓｉ,,外国会社等,,,,,,,,５０５，Ｂｕｉｌｄｉｎｇ　Ｃ，Ｎｏ．６　Ｉｎｄｕｓｔｒｉａｌ　Ａｖｅｎｕｅ，Ｔａｎｇｗｅｉ　Ｃｏｍｍｕｎｉｔｙ，Ｆｕｈａｉ　Ｓｔｒｅｅｔ，Ｂａｏａｎ　Ｄｉｓｔｒｉｃｔ，Ｓｈｅｎｚｈｅｎ,,,,,,2025-04-14,1,,,,,シンセンシホンヤウェイシデンシカギユウゲンコウシ,0
645,2700150129913,新規,0,2025-04-14,2025-04-14,ＳＨＥＮ　ＺＨＥＮ　ＳＨＩ　Ａ　ＮＵＯ　ＭＡ　ＹＵＥ　ＱＩ　ＹＯＵ　ＸＩＡＮ　ＧＯＮＧ　ＳＩ,,外国会社等,,,,,,,,ＸｉＸｉａｎｇＪｉｅＤａｏＧｏｎｇＬｅＳｈｅＱｕＴｉｅＺａｉＬｕ２８ＨａｏＬａｎｇＪｕｎＧｕａｎｇＣｈａｎｇ１Ｄｏｎｇ９０１Ｂａｏａｎｑｕ　ＳｈｅｎＺｈｅｎＳｈｉ,,,,,,2025-04-14,1,,,,,シンセンシアヌオマユエチユウゲンコウシ,0
646,2700150129921,新規,0,2025-04-14,2025-04-14,Ｊｕｓｔ　Ｃｅｙｌｏｎ　Ｐｖｔ　Ｌｔｄ,,外国会社等,千葉県,成田市,名古屋３６１番地１オフィス１,,12,211,2890116,スリランカ民主社会主義共和国、アクラナ、ブルゴハテンナ、２９２,,,,,,2025-04-14,1,,,,,ジヤストセイロンプライベートリミテツド,0
647,2700150129938,新規,0,2025-04-14,2025-04-14,ＦＡＬＣＯＮ　ＭＯＴＯＲＳ,,外国会社等,千葉県,山武市,木原１１６３番地２５　オフィスＮｏ２,,12,237,2891212,スリランカ民主社会主義共和国、マダワラバザール、ワッテガマロード、Ｎｏ．１４Ｂ,,,,,,2025-04-14,1,,,,,フアルコンモータース,0
648,2700150129946,新規,0,2025-04-14,2025-04-14,ｈａｎｇｚｈｏｕｄｉｌｅｄａｊｉａｎｋａｎｇｋｅｊｉｙｏｕｘｉａｎｇｏｎｇｓｉ,,外国会社等,,,,,,,,ｚｈｅ　ｊｉａｎｇ　ｓｈｅｎｇ　ｈａｎｇ　ｚｈｏｕ　ｓｈｉ　ｓｈａｎｇ　ｃｈｅｎｇ　ｑｕ　ｊｉａｎ　ｑｉａｏ　ｊｉｅ　ｄａｏ　ｄａ　ｓｈｉ　ｊｉｅ　ｗｕ　ｊｉｎ　ｃｈｅｎｇ　２４　ｚｈｕａｎｇ　２１０　ｓｈｉ,,,,,,2025-04-14,1,,,,,ハンゾウディレダケンコウカギユウゲンコウシ,0
657,3010001254145,新規,0,2025-04-14,2025-04-14,株式会社ＫＯＧＯ　ｔｅｃｈｎｏｌｏｇｉｅｓ,,株式会社,東京都,千代田区,大手町１丁目６番１号,,13,101,1000004,,,,,,,2025-04-14,1,,,,,コウゴウテクノロジーズ,0
658,3010001254153,新規,0,2025-04-14,2025-04-14,株式会社ＬｉｎｏＰｌｕｓ,,株式会社,東京都,中央区,日本橋大伝馬町１１－８ＨＡＴビル５階,,13,102,1030011,,,,,,,2025-04-14,1,,,,,リノプラス,0
667,3010401189206,新規,0,2025-04-14,2025-04-14,株式会社ｅｎｕｈａｃｋ,,株式会社,東京都,港区,北青山１丁目３－３三橋ビル３階,,13,103,1070061,,,,,,,2025-04-14,1,,,,,エヌハック,0
668,3010401189437,新規,0,2025-04-14,2025-04-14,株式会社Ｒｉｐｏｓｉｎｏ,,株式会社,東京都,港区,北青山１丁目３番３号三橋ビル３階,,13,103,1070061,,,,,,,2025-04-14,1,,,,,リポジーノ,0
669,3010401189453,新規,0,2025-04-14,2025-04-14,株式会社ＡＩｚｅｎ,,株式会社,東京都,港区,南青山３丁目１番３６号南青山丸竹ビル６Ｆ,,13,103,1070062,,,,,,,2025-04-14,1,,,,,アイゼン,0
676,3010501053930,新規,0,2025-04-14,2025-04-14,Ｓｏｌｉｎｋ株式会社,,株式会社,東京都,台東区,浅草３丁目２４番３号,,13,106,1110032,,,,,,,2025-04-14,1,,,,,ソーリンク,0
678,3010601067104,新規,0,2025-04-14,2025-04-14,桜沢貿易株式会社,,株式会社,東京都,墨田区,両国２丁目１７番１７号両国ダイヤハイツ２０２－１５号室,,13,107,1300026,,,,,,,2025-04-14,1,,,,,サクラザワボウエキ,0
679,3010603011489,新規,0,2025-04-14,2025-04-14,ベルツリーパートナーズ合同会社,,合同会社,東京都,江東区,大島１丁目２番２－１４０７号,,13,108,1360072,,,,,,,2025-04-14,1,,,,,ベルツリーパートナーズ,0
685,3010801036049,新規,0,2025-04-14,2025-04-14,株式会社ＴＭＫ,,株式会社,東京都,大田区,鵜の木１丁目５番２－３２２号,,13,111,1460091,,,,,,,2025-04-14,1,,,,,ティーエムケー,0
702,3011001168863,新規,0,2025-04-14,2025-04-14,ＰｅｔＢｉｔ株式会社,,株式会社,東京都,渋谷区,渋谷２丁目１９番１５号宮益坂ビルディング６０９,,13,113,1500002,,,,,,,2025-04-14,1,,,,,ペットビット,0
703,3011001168888,新規,0,2025-04-14,2025-04-14,株式会社フィールフロウ,,株式会社,東京都,渋谷区,道玄坂１丁目１２番１号渋谷マークシティＷ２２階,,13,113,1500043,,,,,,,2025-04-14,1,,,,,フィールフロウ,0
704,3011001168896,新規,0,2025-04-14,2025-04-14,株式会社ＨｉｎａＴｅｃｈ,,株式会社,東京都,渋谷区,神宮前２丁目１３－８アピターレ神宮前Ａ－４,,13,113,1500001,,,,,,,2025-04-14,1,,,,,ヒナテック,0
705,3011001168905,新規,0,2025-04-14,2025-04-14,株式会社ＳＢトレーディング,,株式会社,東京都,渋谷区,上原１丁目２２番１号４０２号室,,13,113,1510064,,,,,,,2025-04-14,1,,,,,エスビートレーディング,0
706,3011001168913,新規,0,2025-04-14,2025-04-14,株式会社ＧＳプロパティ,,株式会社,東京都,目黒区,下目黒１丁目２番１８－１０４号カーサ横河,,13,110,1530064,,,,,,,2025-04-14,1,,,,,ジーエスプロパティ,0
707,3011003021384,新規,0,2025-04-14,2025-04-14,Ｇｒｏｗｉｌｌ合同会社,,合同会社,東京都,渋谷区,渋谷２丁目１９－１５宮益坂ビルディング６０９,,13,113,1500002,,,,,,,2025-04-14,1,,,,,グロウィル,0
708,3011003021392,新規,0,2025-04-14,2025-04-14,花笑み合同会社,,合同会社,東京都,渋谷区,道玄坂１丁目１０番８号渋谷道玄坂東急ビル２Ｆ－Ｃ,,13,113,1500043,,,,,,,2025-04-14,1,,,,,ハナエミ,0
709,3011003021459,新規,0,2025-04-14,2025-04-14,合同会社テイクプロフィット,,合同会社,東京都,渋谷区,円山町５番３号ＭＩＥＵＸ渋谷ビル８階,,13,113,1500044,,,,,,,2025-04-14,1,,,,,テイクプロフィット,0
715,3011101111137,新規,0,2025-04-14,2025-04-14,中瑞国際科貿株式会社,,株式会社,東京都,新宿区,西新宿７丁目１６－１第３歯朶ビル３階,,13,104,1600023,,,,,,,2025-04-14,1,,,,,チュウズイコクサイカボウ,0
716,3011101111401,新規,0,2025-04-14,2025-04-14,株式会社ＳＴＡＹ　ＧＯＬＤ,,株式会社,東京都,新宿区,歌舞伎町２丁目９番１８号,,13,104,1600021,,,,,,,2025-04-14,1,,,,,ステイゴールド,0
721,3011301030491,新規,0,2025-04-14,2025-04-14,株式会社奥なな商店,,株式会社,東京都,杉並区,南荻窪１丁目１５－９,,13,115,1670052,,,,,,,2025-04-14,1,,,,,オクナナショウテン,0
724,3011501031918,新規,0,2025-04-14,2025-04-14,株式会社Ｔ＆Ｘコーポレーション,,株式会社,東京都,北区,赤羽北１丁目２５番３８号,,13,117,1150052,,,,,,,2025-04-14,1,,,,,ティーアンドエックスコーポレーション,0
725,3011501031926,新規,0,2025-04-14,2025-04-14,風雅頌株式会社,,株式会社,東京都,荒川区,町屋３丁目１８番１２号ＮＤビル２０９,,13,118,1160001,,,,,,,2025-04-14,1,,,,,フウガショウ,0
726,3011501031934,新規,0,2025-04-14,2025-04-14,玖運Ｇ‐ＨＯＬＤＩＮＧ株式会社,,株式会社,東京都,荒川区,東尾久３丁目２８番５－４０１号,,13,118,1160012,,,,,,,2025-04-14,1,,,,,クウンジーホルディング,0
727,3011503006488,新規,0,2025-04-14,2025-04-14,合同会社ＩＳ,,合同会社,東京都,北区,滝野川３丁目５９番１－２０１号チサンマンション滝野川,,13,117,1140023,,,,,,,2025-04-14,1,,,,,アイエス,0
731,3011801045931,新規,0,2025-04-14,2025-04-14,ＡＮＺＥＮじゃぱん株式会社,,株式会社,東京都,足立区,中央本町４丁目１２番１３号,,13,121,1210011,,,,,,,2025-04-14,1,,,,,アンゼンジャパン,0
732,3011801045956,新規,0,2025-04-14,2025-04-14,インヴェルデ株式会社,,株式会社,東京都,葛飾区,東水元３丁目１６番２号,,13,122,1250033,,,,,,,2025-04-14,1,,,,,インヴェルデ,0
733,3011801045964,新規,0,2025-04-14,2025-04-14,株式会社ＩＭＡ織部,,株式会社,東京都,足立区,綾瀬６丁目２９－１６－４０７,,13,121,1200005,,,,,,,2025-04-14,1,,,,,イマオリベ,0
739,3012801023893,新規,0,2025-04-14,2025-04-14,株式会社返仁会,,株式会社,東京都,国分寺市,西恋ヶ窪１丁目４３－３－１０５,,13,214,1850013,,,,,,,2025-04-14,1,,,,,トウジンカイ,0
753,3020001162165,新規,0,2025-04-14,2025-04-14,株式会社ワイズ,,株式会社,神奈川県,横浜市都筑区,池辺町４７０４番４０３－２号,,14,118,2240053,,,,,,,2025-04-14,1,,,,,ワイズ,0
754,3020001162347,新規,0,2025-04-14,2025-04-14,Ｅｍａｎｄａｒ株式会社,,株式会社,神奈川県,横浜市西区,浅間町１丁目４番３号ウィザードビル４０２,,14,103,2200072,,,,,,,2025-04-14,1,,,,,エマンダール,0
755,3020001162355,新規,0,2025-04-14,2025-04-14,いちの葉株式会社,,株式会社,神奈川県,横浜市磯子区,杉田２丁目１５番１９号,,14,107,2350033,,,,,,,2025-04-14,1,,,,,イチノハ,0
756,3020001162363,新規,0,2025-04-14,2025-04-14,株式会社坂口組,,株式会社,神奈川県,川崎市川崎区,元木２丁目５番７－１号,,14,131,2100021,,,,,,,2025-04-14,1,,,,,,0
758,3020003028281,新規,0,2025-04-14,2025-04-14,合同会社ａｉｎａ,,合同会社,神奈川県,横浜市都筑区,茅ケ崎南２丁目２０番８－２０１号,,14,118,2240037,,,,,,,2025-04-14,1,,,,,アイナ,0
764,3021003015856,新規,0,2025-04-14,2025-04-14,Ｙｏｋｏ　Ｈｏｍｅ　Ｓｅｒｖｉｃｅｓ合同会社,,合同会社,神奈川県,横須賀市,鴨居１丁目４５番２０号,,14,201,2390813,,,,,,,2025-04-14,1,,,,,,0
782,3040003027356,新規,0,2025-04-14,2025-04-14,ＳＫ合同会社,,合同会社,千葉県,松戸市,常盤平３丁目３０番地の２中央市街地住宅７０７号,,12,207,2702261,,,,,,,2025-04-14,1,,,,,エスケー,0
801,3080405007729,新規,0,2025-04-14,2025-04-14,医療法人社団仁心堂,,その他の設立登記法人,静岡県,磐田市,千手堂９５１番地,,22,211,4380057,,,,,,,2025-04-14,1,,,,,ジンシンドウ,0
802,3090001019210,新規,0,2025-04-14,2025-04-14,Ｃ２株式会社,,株式会社,山梨県,甲府市,岩窪町５１５－１０,,19,201,4000013,,,,,,,2025-04-14,1,,,,,シーツー,0
803,3110003005726,新規,0,2025-04-14,2025-04-14,合同会社ＩＳＯＧＡＩワークスタイルコンサルタント,,合同会社,新潟県,上越市,大字石沢１８２７番地,,15,222,9430872,,,,,,,2025-04-14,1,,,,,イソガイワークスタイルコンサルタント,0
816,3120001274388,新規,0,2025-04-14,2025-04-14,株式会社クックサウンド,,株式会社,大阪府,大阪市浪速区,日本橋４丁目１２番１号旭日旅行ビル１Ｆ,,27,111,5560005,,,,,,,2025-04-14,1,,,,,クックサウンド,0
817,3120001274421,新規,0,2025-04-14,2025-04-14,株式会社立花堂,,株式会社,大阪府,大阪市北区,梅田１丁目２番２号大阪駅前第２ビル１２－１２,,27,127,5300001,,,,,,,2025-04-14,1,,,,,タチバナドウ,0
818,3120001274462,新規,0,2025-04-14,2025-04-14,ＮＧＴ株式会社,,株式会社,大阪府,大阪市城東区,今福南１丁目５番１２号,,27,118,5360003,,,,,,,2025-04-14,1,,,,,エヌジーティー,0
819,3120001274470,新規,0,2025-04-14,2025-04-14,株式会社ＡＣＴ,,株式会社,大阪府,大阪市北区,天満２丁目７番２８号,,27,127,5300043,,,,,,,2025-04-14,1,,,,,アクト,0
820,3120001274504,新規,0,2025-04-14,2025-04-14,華＿能源株式会社,00138761,株式会社,大阪府,大阪市浪速区,敷津西２丁目１４番１４号,,27,111,5560015,,,,,,,2025-04-14,1,,,,,カシンノウゲン,0
821,3120001274553,新規,0,2025-04-14,2025-04-14,株式会社アルク,,株式会社,大阪府,大阪市福島区,福島６丁目８番１３－４０８号,,27,103,5530003,,,,,,,2025-04-14,1,,,,,アルク,0
822,3120001274586,新規,0,2025-04-14,2025-04-14,株式会社ＫＵＲＯＣＯ,,株式会社,大阪府,大阪市中央区,谷町６丁目１７番３９号,,27,128,5420012,,,,,,,2025-04-14,1,,,,,クロコ,0
823,3120001274611,新規,0,2025-04-14,2025-04-14,株式会社枚方東保険事務所,,株式会社,大阪府,枚方市,尊延寺６丁目２番６号,,27,210,5730112,,,,,,,2025-04-14,1,,,,,ヒラカタヒガシホケンジムショ,0
830,3120003029088,新規,0,2025-04-14,2025-04-14,合同会社アメインワン,,合同会社,大阪府,大阪市淀川区,塚本６丁目３番３３号,,27,123,5320026,,,,,,,2025-04-14,1,,,,,アメインワン,0
831,3120003029105,新規,0,2025-04-14,2025-04-14,合同会社Ｉｎｆｉｎｉｔｙ,,合同会社,大阪府,大阪市住吉区,殿辻１丁目２番２７号メゾンド福島１０１,,27,120,5580042,,,,,,,2025-04-14,1,,,,,インフィニティ,0
832,3120003029212,新規,0,2025-04-14,2025-04-14,合同会社縁結びの水奥出雲,,合同会社,大阪府,大阪市城東区,鴫野西５丁目１２番２９号,,27,118,5360014,,,,,,,2025-04-14,1,,,,,エンムスビノミズオクイズモ,0
834,3120103006391,新規,0,2025-04-14,2025-04-14,合同会社奥宏商会,,合同会社,大阪府,河内長野市,小深９５番地,,27,216,5860057,,,,,,,2025-04-14,1,,,,,オクヒロショウカイ,0
835,3120901050715,新規,0,2025-04-14,2025-04-14,株式会社ｖｅｒｓａｔｉｌｅ,,株式会社,大阪府,茨木市,東太田２丁目２番６５号,,27,211,5670012,,,,,,,2025-04-14,1,,,,,バーサタイル,0
836,3120901050723,新規,0,2025-04-14,2025-04-14,株式会社Ｒｕｓｔｉｃａ,,株式会社,大阪府,箕面市,坊島１丁目１５番３７－２０１号,,27,220,5620013,,,,,,,2025-04-14,1,,,,,ルスティカ,0
837,3120903005618,新規,0,2025-04-14,2025-04-14,合同会社橘高,00138752,合同会社,大阪府,豊中市,刀根山元町４番３７号,,27,203,5600044,,,,,,,2025-04-14,1,,,,,キッタカ,0
841,3130001079415,新規,0,2025-04-14,2025-04-14,株式会社ＥＮＴＯＡＮ,,株式会社,京都府,京都市右京区,梅津神田町３０メイツ京都梅津４１０,,26,108,6150902,,,,,,,2025-04-14,1,,,,,エントーン,0
858,3150003003560,新規,0,2025-04-14,2025-04-14,合同会社福々堂,,合同会社,奈良県,奈良市,大宮町３丁目２番３９号ジャンギャバン新大宮ビル１階,,29,201,6308115,,,,,,,2025-04-14,1,,,,,フクフクドウ,0
859,3170001018575,新規,0,2025-04-14,2025-04-14,近未来病理研究所株式会社,,株式会社,和歌山県,和歌山市,十二番丁６７番地,,30,201,6408158,,,,,,,2025-04-14,1,,,,,キンミライビョウリケンキュウショ,0
866,3180001166373,新規,0,2025-04-14,2025-04-14,株式会社ＨＯＰＥ　ＬＩＮＥ名古屋,,株式会社,愛知県,名古屋市西区,中小田井３丁目４１５番地の２,,23,104,4520822,,,,,,,2025-04-14,1,,,,,,0
867,3180001166381,新規,0,2025-04-14,2025-04-14,株式会社ＡＬＬＩＡＮＣＥ,,株式会社,愛知県,名古屋市中村区,並木１丁目８７番地１,,23,105,4530856,,,,,,,2025-04-14,1,,,,,アライアンス,0
868,3180001166407,新規,0,2025-04-14,2025-04-14,株式会社オガワ建設,,株式会社,愛知県,日進市,藤塚７丁目１７５番地,00138763,23,230,4700117,,,,,,,2025-04-14,1,,,,,オガワケンセツ,0
872,3180003028316,新規,0,2025-04-14,2025-04-14,合同会社Ａｍｙ　Ｅｎｔｅｒｔａｉｎｍｅｎｔ,,合同会社,愛知県,名古屋市中村区,名駅４丁目８番２６号エニシオ名駅１６階,,23,105,4500002,,,,,,,2025-04-14,1,,,,,エイミーエンターテイメント,0
873,3180005021046,新規,0,2025-04-14,2025-04-14,一般社団法人地球倶楽部,,その他の設立登記法人,愛知県,名古屋市守山区,大字川字東山１０１３番地,,23,113,4630005,,,,,,,2025-04-14,1,,,,,チキュウクラブ,0
894,3230005009457,新規,0,2025-04-14,2025-04-14,一般社団法人ゼロエネルギー推進協会,,その他の設立登記法人,富山県,黒部市,前沢北１００４番地１,,16,207,9380806,,,,,,,2025-04-14,1,,,,,ゼロエネルギースイシンキョウカイ,0
898,3250001021100,新規,0,2025-04-14,2025-04-14,株式会社Ｃｈｅｆｉｎｉｔｙ,,株式会社,山口県,宇部市,松島町１１－１８Ｕビル１Ｆ,,35,202,7550042,,,,,,,2025-04-14,1,,,,,シェフィニティ,0
902,3260003005133,新規,0,2025-04-14,2025-04-14,合同会社Ａ’ｎｏＡ,,合同会社,岡山県,倉敷市,亀山２３２－５７,,33,202,7100024,,,,,,,2025-04-14,1,,,,,アノア,0
919,3290001109511,新規,0,2025-04-14,2025-04-14,株式会社Ｐｅｎｔａｇｏｎ,,株式会社,福岡県,福岡市中央区,春吉３丁目２１－１８Ｇｅｓｔ２５ビル７０２,,40,133,8100003,,,,,,,2025-04-14,1,,,,,,0
920,3290001109627,新規,0,2025-04-14,2025-04-14,株式会社ＡＳＫ,,株式会社,福岡県,福岡市東区,原田１丁目４２番５号キャンパスシティ箱崎４１６号,,40,131,8120063,,,,,,,2025-04-14,1,,,,,アスク,0
921,3290001109635,新規,0,2025-04-14,2025-04-14,株式会社ＴＮＫエステート,,株式会社,福岡県,大野城市,雑餉隈町５丁目２番１３号,,40,219,8160923,,,,,,,2025-04-14,1,,,,,ティエヌケイエステート,0
922,3290001109684,新規,0,2025-04-14,2025-04-14,株式会社タカ不動産,,株式会社,福岡県,久留米市,天神町１番地１米城ビルディング９Ｆ,,40,203,8300033,,,,,,,2025-04-14,1,,,,,タカフドウサン,0
923,3290001109692,新規,0,2025-04-14,2025-04-14,ポコアポコ株式会社,,株式会社,福岡県,福岡市南区,大池２丁目１番７－２号,,40,134,8150073,,,,,,,2025-04-14,1,,,,,ポコアポコ,0
924,3290001109734,新規,0,2025-04-14,2025-04-14,株式会社ＬＩＬＥＯＮ,,株式会社,福岡県,福津市,若木台２丁目４－８,,40,224,8113221,,,,,,,2025-04-14,1,,,,,リレオン,0
925,3290001109742,新規,0,2025-04-14,2025-04-14,Ｐｅｎｔａ　Ｆｕｋｕｏｋａ株式会社,,株式会社,福岡県,福岡市中央区,赤坂３丁目１３番３号ＡｋａｓａｋａＳａｎａｓ,,40,133,8100042,,,,,,,2025-04-14,1,,,,,ペンタフクオカ,0
929,3290003016664,新規,0,2025-04-14,2025-04-14,ＳＵＮアニマルＡＣＵ合同会社,,合同会社,福岡県,久留米市,原古賀２９－１,,40,203,8390000,,,,,,,2025-04-14,1,,,,,サンアニマルアキュウ,0
932,3290801031419,新規,0,2025-04-14,2025-04-14,株式会社ＳＡＸＳＩＡ,,株式会社,福岡県,北九州市八幡西区,本城学研台２丁目４－６,,40,109,8070807,,,,,,,2025-04-14,1,,,,,サクシア,0
938,3310001019542,新規,0,2025-04-14,2025-04-14,下久商店株式会社,,株式会社,長崎県,壱岐市,芦辺町瀬戸浦１８７番地,00138758,42,210,8115461,,,,,,,2025-04-14,1,,,,,シモキュウショウテン,0
939,3310001019550,新規,0,2025-04-14,2025-04-14,株式会社佐世保防災,,株式会社,長崎県,佐世保市,大岳台町６番２０－１号,,42,202,8571163,,,,,,,2025-04-14,1,,,,,サセボボウサイ,0
943,3330001033021,新規,0,2025-04-14,2025-04-14,株式会社アート・エム,,株式会社,熊本県,菊池市,西寺１７４０番３,,43,210,8611323,,,,,,,2025-04-14,1,,,,,アートエム,0
944,3330001033087,新規,0,2025-04-14,2025-04-14,株式会社ＡＯＩ企画,,株式会社,熊本県,熊本市南区,田井島１丁目７－２３－７０１号,,43,104,8620965,,,,,,,2025-04-14,1,,,,,アオイキカク,0
947,3340003004812,新規,0,2025-04-14,2025-04-14,合同会社福永新作総合事務所,,合同会社,鹿児島県,霧島市,国分中央１丁目４番１４号,,46,218,8994332,,,,,,,2025-04-14,1,,,,,フクナガシンサクソウゴウジムショ,0
950,3360001035064,新規,0,2025-04-14,2025-04-14,株式会社ＴＨＥ　ＴＯＰ,,株式会社,沖縄県,島尻郡与那原町,字与那原８９４番地,,47,348,9011303,,,,,,,2025-04-14,1,,,,,ザトップ,0
951,3360003014834,新規,0,2025-04-14,2025-04-14,合同会社ＭＡ建物調査,,合同会社,沖縄県,那覇市,安謝１丁目１３番２５号３１０,,47,201,9000003,,,,,,,2025-04-14,1,,,,,エムエータテモノチョウサ,0
952,3360003014850,新規,0,2025-04-14,2025-04-14,合同会社Ｌｉｋｅｉｔ,,合同会社,沖縄県,糸満市,西崎２丁目２４番地１号（３０２）,,47,210,9010305,,,,,,,2025-04-14,1,,,,,ライクイット,0
953,3370005010938,新規,0,2025-04-14,2025-04-14,税理士法人千葉会計,,その他の設立登記法人,宮城県,塩竈市,玉川１丁目２番４０号,,04,203,9850042,,,,,,,2025-04-14,1,,,,,チバカイケイ,0
962,3410005006634,新規,0,2025-04-14,2025-04-14,協同組合秋田県キッチンカー協会,,その他の設立登記法人,秋田県,秋田市,大町５丁目２番３２号大町パッションビル１階,,05,201,0100921,,,,,,,2025-04-14,1,,,,,,0
969,3500001026239,新規,0,2025-04-14,2025-04-14,ＭＫＣ株式会社,,株式会社,愛媛県,今治市,波方町郷乙４１５番地２８９,,38,202,7992110,,,,,,,2025-04-14,1,,,,,エムケーシー,0
972,3700150022712,新規,0,2025-04-14,2015-10-09,魚沼市スポーツ協会,,その他,新潟県,魚沼市,堀之内１３０,,15,225,9497413,,,,,,,2015-10-09,1,,,,,ウオヌマシスポーツキヨウカイ,0
973,3700150108172,新規,0,2025-04-14,2022-04-20,プティビジュー,,その他,東京都,世田谷区,梅丘２丁目１３－２６Ｊハウス梅ヶ丘Ａ,,13,112,1540022,,,,,,,2022-04-20,1,,,,,プテイビジユー,0
975,3700150129895,新規,0,2025-04-14,2025-04-14,Ｅｄｕ４ｓｔｕｄｉｏ　Ｌｔｄ．,,外国会社等,,,,,,,,３０６　Ｖｉｃｔｏｒｉａ　Ｈｏｕｓｅ，Ｖｉｃｔｏｒｉａ，Ｍａｈｅ，Ｓｅｙｃｈｅｌｌｅｓ,00138712,,,,,2025-04-14,1,,,,,エデユフオーストユデイオリミテツド,0
976,3700150129904,新規,0,2025-04-14,2025-04-14,ｊｉｎｈｕａｓｈｉｙｉｃａｉｓｈａｎｇｍａｏｙｏｕｘｉａｎｇｏｎｇｓｉ,,外国会社等,,,,,,,,ｚｈｅｊｉａｎｇｓｈｅｎｇｊｉｎｈｕａｓｈｉｗｕｙｉｘｉａｎｂａｉｙａｎｇｊｉｅｄａｏｄｏｎｇｆａｎｇｗｕｊｉｎｃｈｅｎｇ２ｚｈｕａｎｇ３ｄａｎｙｕａｎ５０２ｓｈｉｆｕｆａｎｇ,,,,,,2025-04-14,1,,,,,ジンホゥアシイチャイシャンマオユウゲンコウシ,0
977,3700150129912,新規,0,2025-04-14,2025-04-14,ｓｈｅｎｚｈｅｎｓｈｉｌｉｄｕｑｉｎｍａｏｙｉｙｏｕｘｉａｎｇｏｎｇｓｉ,,外国会社等,,,,,,,,ｓｈｅｎ　ｚｈｅｎ　ｓｈｉ　ｂａｏ　ａｎ　ｑｕ　ｘｉｎ　ａｎ　ｊｉｅ　ｄａｏ　ｓｈａｎｇ　ｈｅ　ｓｈｅ　ｑｕ　３２ｑｕ　ｘｉｎ　ａｎ　ｓａｎ　ｌｕ　２３３ｈａｏ　７０４,,,,,,2025-04-14,1,,,,,シンセンシリドウチンマオイユウゲンコウシ,0
978,3700150129920,新規,0,2025-04-14,2025-04-14,ＳｈｉＳｈｉＳｈｉＬｉＴｏｕＪｉｎＣｈｕＫｏｕＭａｏＹｉＹｏｕＸｉａｎＧｏｎｇＳｉ,,外国会社等,,,,,,,,５／Ｆ，Ｎｏ．１７　Ｘｉｎｔｉａｎｄｉ　Ｐｌａｚａ　Ｂａｏｇａｉ　Ｓｃｉｅｎｃｅ　ａｎｄ　Ｔｅｃｈｎｏｌｏｇｙ　Ｐａｒｋ，Ｂａｏｇａｉ　Ｔｏｗｎ　Ｑｕａｎｚｈｏｕ　Ｆｕｊｉａｎ　３６２７００　ＣＮ,,,,,,2025-04-14,1,,,,,シーシーシリートウジンチュウコウマオイーヨウシェンゴンスー,0
979,3700150129929,新規,0,2025-04-14,2025-04-14,Ｍ．Ｋ．ＴＲＡＤＩＮＧ,,外国会社等,千葉県,山武郡横芝光町,新島５２１４番地３　オフィス２,,12,410,2891736,スリランカ民主社会主義共和国、キャンディ、アクラナ、７ｔｈマイルポスト、Ｎｏ．７８,,,,,,2025-04-14,1,,,,,エムケートレーデイング,0
980,3700150129937,新規,0,2025-04-14,2025-04-14,ｔｈｅｆｏｏｄ．ｐｌ,,外国会社等,大阪府,大阪市此花区,夢洲中１丁目１番２０号（２０２５年万博会場内）ポーランド館Ａ３６区画,,27,104,5540044,ポーランド共和国８１－６０４グディニア、ソスノバ４,,,,,,2025-04-14,1,,,,,ザフードドツトピーエル,0
981,3700150129945,新規,0,2025-04-14,2025-04-14,ＳＨＥＮＺＨＥＮＳＨＩＨＯＮＧＹＥＤＩＡＮＺＩＳＨＡＮＧＷＵＹＯＵＸＩＡＮＧＯＮＧＳＩ,,外国会社等,,,,,,,,Ｓｈｅｎｚｈｅｎ　ｓｈｉ　Ｎａｎｓｈａｎ　ｑｕ　Ｚｈａｏｓｈａｎｇ　ｊｉｅｄａｏ　Ｔａｏｈｕａｙｕａｎ　ｓｈｅｑｕ　Ｘｉｎｇｇｏｎｇ　ｌｕ　Ｍｅｉｎｉａｎ　ｇｕａｎｇｃｈａｎｇ　４　ｄｏｎｇ　１１０２－２３,,,,,,2025-04-14,1,,,,,シンセンシホンイエデンシショウムユウゲンコウシ,0
995,4010001254078,新規,0,2025-04-14,2025-04-14,ユーマ・ジャパン株式会社,,株式会社,東京都,中央区,日本橋堀留町１丁目１１番５号,,13,102,1030012,,,,,,,2025-04-14,1,,,,,ユーマジャパン,0
996,4010001254160,新規,0,2025-04-14,2025-04-14,行無憂文旅投資管理株式会社,,株式会社,東京都,千代田区,内神田１丁目５－９丸山ビル２階,,13,101,1010047,,,,,,,2025-04-14,1,,,,,コウムユウブンリョトウシカンリ,0
999,4010003047059,新規,0,2025-04-14,2025-04-14,合同会社スカルクラッシャー,,合同会社,東京都,中央区,銀座８丁目５番２０号,,13,102,1040061,,,,,,,2025-04-14,1,,,,,スカルクラッシャー,0
1000,4010005039905,新規,0,2025-04-14,2025-04-14,一般財団法人公益未来共創財団,,その他の設立登記法人,東京都,千代田区,一番町８住友不動産一番町ビル７階,,13,101,1020082,,,,,,,2025-04-14,1,,,,,コウエキミライキョウソウザイダン,0
1012,4010401189469,新規,0,2025-04-14,2025-04-14,株式会社Ａｍｉｌｙ,,株式会社,東京都,港区,新橋５丁目７－１３,,13,103,1050004,,,,,,,2025-04-14,1,,,,,アメリー,0
1016,4010403034796,新規,0,2025-04-14,2025-04-14,合同会社滝藤,,合同会社,東京都,港区,新橋４丁目１４－１ＡＵＮビル３階,,13,103,1050004,,,,,,,2025-04-14,1,,,,,タキトウ,0
1018,4010601067128,新規,0,2025-04-14,2025-04-14,恒久株式会社,,株式会社,東京都,墨田区,両国１丁目１２番１２号塚田ビル３階,,13,107,1300026,,,,,,,2025-04-14,1,,,,,コウキュウ,0
1020,4010703007667,新規,0,2025-04-14,2025-04-14,合同会社ブレスト・ストローク,,合同会社,東京都,品川区,西五反田２丁目９番７号,,13,109,1410031,,,,,,,2025-04-14,1,,,,,ブレストストローク,0
1023,4010803005348,新規,0,2025-04-14,2025-04-14,クマル合同会社,,合同会社,東京都,大田区,西蒲田６丁目１７番２号,,13,111,1440051,,,,,,,2025-04-14,1,,,,,クマル,0
1025,4010901057167,新規,0,2025-04-14,2025-04-14,株式会社ＡＩｍａｔｈハピネスデータサイエンス,,株式会社,東京都,世田谷区,北烏山３丁目１９番１号ミリオンコート烏山３０１,,13,112,1570061,,,,,,,2025-04-14,1,,,,,エイアイマスハピネスデータサイエンス,0
1026,4010901057175,新規,0,2025-04-14,2025-04-14,株式会社ｓｔｏｎ．,,株式会社,東京都,世田谷区,駒沢３丁目７番９号フォンタナ駒沢第４－３０９,,13,112,1540012,,,,,,,2025-04-14,1,,,,,ストン,0
1032,4011001168887,新規,0,2025-04-14,2025-04-14,株式会社Ｋ２Ｍ,,株式会社,東京都,目黒区,青葉台１丁目４番７号,,13,110,1530042,,,,,,,2025-04-14,1,,,,,ケーツーエム,0
1033,4011001168929,新規,0,2025-04-14,2025-04-14,株式会社煌伸,,株式会社,東京都,渋谷区,道玄坂１丁目２２番１１号星野ビル２階,,13,113,1500043,,,,,,,2025-04-14,1,,,,,コウシン,0
1034,4011001168945,新規,0,2025-04-14,2025-04-14,株式会社ＨＮ,,株式会社,東京都,目黒区,上目黒３丁目３１番６号,,13,110,1530051,,,,,,,2025-04-14,1,,,,,エッチエヌ,0
1035,4011001168953,新規,0,2025-04-14,2025-04-14,株式会社インテンション,,株式会社,東京都,渋谷区,神宮前６丁目２３番４号桑野ビル２階,,13,113,1500001,,,,,,,2025-04-14,1,,,,,インテンション,0
1036,4011001169051,新規,0,2025-04-14,2025-04-14,株式会社ＬＩＴＡ,,株式会社,東京都,渋谷区,円山町２３番１３号Ｍ・Ｉビル１０１,,13,113,1500044,,,,,,,2025-04-14,1,,,,,リタ,0
1037,4011003021367,新規,0,2025-04-14,2025-04-14,合同会社ＶｉｋｉｎｇＳｔｒｉｋｅ,,合同会社,東京都,渋谷区,渋谷２丁目１９－１５宮益坂ビルディング６０９,,13,113,1500002,,,,,,,2025-04-14,1,,,,,バイキングストライク,0
1042,4011101111292,新規,0,2025-04-14,2025-04-14,建物支援株式会社,,株式会社,東京都,新宿区,新宿１丁目５番６号,,13,104,1600022,,,,,,,2025-04-14,1,,,,,タテモノシエン,0
1044,4011103015756,新規,0,2025-04-14,2025-04-14,合同会社Ｓａｌｅｓ　Ｐａｒｔｎｅｒ,,合同会社,東京都,新宿区,新宿５丁目１８番１６号新宿伊藤ビル,,13,104,1600022,,,,,,,2025-04-14,1,,,,,セールスパートナー,0
1045,4011301030499,新規,0,2025-04-14,2025-04-14,ワイズパス株式会社,,株式会社,東京都,杉並区,南荻窪４丁目１番６号,,13,115,1670052,,,,,,,2025-04-14,1,,,,,ワイズパス,0
1046,4011401027016,新規,0,2025-04-14,2025-04-14,株式会社アセプロ,,株式会社,東京都,板橋区,三園１丁目４８番２０－４０８号,,13,119,1750091,,,,,,,2025-04-14,1,,,,,アセプロ,0
1048,4011503006487,新規,0,2025-04-14,2025-04-14,合同会社ジャルダン,,合同会社,東京都,荒川区,荒川３丁目３７番５号,,13,118,1160002,,,,,,,2025-04-14,1,,,,,ジャルダン,0
1051,4011705001889,新規,0,2025-04-14,2025-04-14,特定非営利活動法人ワークハピネス支援ネット,,その他の設立登記法人,東京都,江戸川区,江戸川６丁目１番５号,,13,123,1340013,,,,,,,2025-04-14,1,,,,,ワークハピネスシエンネット,0
1057,4013101009673,新規,0,2025-04-14,2025-04-14,株式会社ＩＤ　ＳＴＹＬＥ,,株式会社,東京都,羽村市,羽中２丁目１３番１３号,,13,227,2050015,,,,,,,2025-04-14,1,,,,,アイディースタイル,0
1066,4020001162313,新規,0,2025-04-14,2025-04-14,株式会社エフエフ,,株式会社,神奈川県,川崎市川崎区,貝塚１丁目７－１７ピジョン田中１Ｆ,,14,131,2100014,,,,,,,2025-04-14,1,,,,,エフエフ,0
1071,4021003015863,新規,0,2025-04-14,2025-04-14,合同会社五想,,合同会社,神奈川県,藤沢市,本藤沢１丁目１番２０号コスモ本藤沢４０４,,14,205,2510875,,,,,,,2025-04-14,1,,,,,ゴソウ,0
1072,4021005013337,新規,0,2025-04-14,2025-04-14,一般社団法人フードバンクふじさわ,,その他の設立登記法人,神奈川県,藤沢市,稲荷５２０番地,,14,205,2510862,,,,,,,2025-04-14,1,,,,,フードバンクフジサワ,0
1075,4030001165991,新規,0,2025-04-14,2025-04-14,みやこエンターテイメント株式会社,,株式会社,埼玉県,草加市,谷塚町１１６９－２１,,11,221,3400023,,,,,,,2025-04-14,1,,,,,ミヤコエンターテイメント,0
1076,4030003026564,新規,0,2025-04-14,2025-04-14,合同会社くぼ,,合同会社,埼玉県,本庄市,児玉町塩谷１５５番地,,11,211,3670223,,,,,,,2025-04-14,1,,,,,クボ,0
1078,4040001138328,新規,0,2025-04-14,2025-04-14,株式会社コウエン・ヘルスケア・カンパニー,,株式会社,千葉県,千葉市中央区,中央２丁目５－１千葉中央ツインビル２号館１階,,12,101,2600013,,,,,,,2025-04-14,1,,,,,コウエンヘルスケアカンパニー,0
1079,4040001138336,新規,0,2025-04-14,2025-04-14,株式会社花風,,株式会社,千葉県,船橋市,金杉３丁目１３番１２号,,12,204,2730853,,,,,,,2025-04-14,1,,,,,ハナカゼ,0
1081,4040005022726,新規,0,2025-04-14,2025-04-14,一般社団法人なのわ,,その他の設立登記法人,千葉県,松戸市,馬橋１１７番地１田口ビル２０２,,12,207,2710051,,,,,,,2025-04-14,1,,,,,ナノワ,0
1085,4060003005508,新規,0,2025-04-14,2025-04-14,インダストリアルグローバル合同会社,,合同会社,栃木県,栃木市,藤岡町緑川２番地２,,09,203,3290313,,,,,,,2025-04-14,1,,,,,インダストリアルグローバル,0
1101,4100003008084,新規,0,2025-04-14,2025-04-14,合同会社ＴＵＲＥＩＳ,,合同会社,長野県,長野市,大字稲葉１７３１番地１８フレグランス日詰Ｂ棟１０２号室,,20,201,3800911,,,,,,,2025-04-14,1,,,,,トゥレイス,0
1103,4110003005725,新規,0,2025-04-14,2025-04-14,合同会社クラライフサービス,,合同会社,新潟県,新発田市,下高関３３５番地,,15,206,9570354,,,,,,,2025-04-14,1,,,,,クラライフサービス,0
1114,4120001274321,新規,0,2025-04-14,2025-04-14,鯨喜株式会社,,株式会社,大阪府,大阪市西成区,花園北１丁目７番１４号５０６－Ｃ号室,,27,122,5570016,,,,,,,2025-04-14,1,,,,,ゲイキ,0
1115,4120001274379,新規,0,2025-04-14,2025-04-14,旭和株式会社,,株式会社,大阪府,大阪市中央区,島之内１丁目２１番２３号大起興産長堀橋ビル５０５,,27,128,5420082,,,,,,,2025-04-14,1,,,,,キョクワ,0
1116,4120001274420,新規,0,2025-04-14,2025-04-14,株式会社ＤｒｉｆｔＴｈｉｎｋｉｎｇ,,株式会社,大阪府,大阪市西淀川区,柏里３丁目７番１６－４０８号,,27,113,5550022,,,,,,,2025-04-14,1,,,,,ドリフトシンキング,0
1117,4120001274429,新規,0,2025-04-14,2025-04-14,株式会社ＦＯＯＤ　ＣＩＲＣＵＳ　ＪＡＰＡＮ,,株式会社,大阪府,大阪市北区,中之島３丁目６－３２ダイビル本館,,27,127,5300005,,,,,,,2025-04-14,1,,,,,フードサーカスジャパン,0
1118,4120001274445,新規,0,2025-04-14,2025-04-14,株式会社ＫＡＭＵＫＵＲＡ　ＩＮＴＥＲＮＡＴＩＯＮＡＬ,,株式会社,大阪府,大阪市北区,中之島３丁目６－３２ダイビル本館,,27,127,5300005,,,,,,,2025-04-14,1,,,,,カムクラインターナショナル,0
1119,4120001274503,新規,0,2025-04-14,2025-04-14,ジョナサン・フーズ株式会社,,株式会社,大阪府,大阪市北区,梅田１丁目３番１号,,27,127,5300001,,,,,,,2025-04-14,1,,,,,ジョナサンフーズ,0
1120,4120001274560,新規,0,2025-04-14,2025-04-14,森生株式会社,,株式会社,大阪府,大阪市都島区,内代町１丁目６－２４－２０２,,27,102,5340013,,,,,,,2025-04-14,1,,,,,モリセイ,0
1121,4120001274866,新規,0,2025-04-14,2025-04-14,株式会社ＯＮＥ　ＲＥＡＬ　ＥＳＴＡＴＥ,,株式会社,大阪府,守口市,金田町１丁目７１番１６号,,27,209,5700011,,,,,,,2025-04-14,1,,,,,ワンリアルエステート,0
1124,4120003029095,新規,0,2025-04-14,2025-04-14,ありがとうｋａｗａｉｉ　ＡＩアイシテル合同会社,,合同会社,大阪府,大阪市北区,梅田１丁目２番２号大阪駅前第２ビル１２－１２,,27,127,5300001,,,,,,,2025-04-14,1,,,,,アリガトウカワイイエーアイアイシテル,0
1133,4120901050706,新規,0,2025-04-14,2025-04-14,一方見株式会社,,株式会社,大阪府,豊中市,岡町北１丁目１０番２９号,,27,203,5610884,,,,,,,2025-04-14,1,,,,,イッポウミ,0
1136,4120905006720,新規,0,2025-04-14,2025-04-14,特定非営利活動法人高槻市日中友好協会,,その他の設立登記法人,大阪府,高槻市,城北町１丁目１４番６号荒木ビル２階,,27,207,5690071,,,,,,,2025-04-14,1,,,,,タカツキシニッチュウユウコウキョウカイ,0
1142,4130001079406,新規,0,2025-04-14,2025-04-14,株式会社ＭＯＭＯ　ＵＮＩＶＥＲＳＥ,,株式会社,京都府,八幡市,岩田六ノ坪６１番地の３,,26,210,6148263,,,,,,,2025-04-14,1,,,,,モモユニバース,0
1143,4130001079414,新規,0,2025-04-14,2025-04-14,京都薬事広告ラボ株式会社,,株式会社,京都府,京都市下京区,西七条東八反田町３３番地パデシオン京都七条３１２号,,26,106,6008891,,,,,,,2025-04-14,1,,,,,キョウトヤクジコウコクラボ,0
1144,4130001079447,新規,0,2025-04-14,2025-04-14,Ｓ・ｐｌｕｓ株式会社,,株式会社,京都府,京都市伏見区,竹田久保町７０番地９,,26,109,6128411,,,,,,,2025-04-14,1,,,,,エスプラス,0
1151,4140001138103,新規,0,2025-04-14,2025-04-14,株式会社パソナウェルネスツーリズム,,株式会社,兵庫県,淡路市,野島常盤１０４２,,28,226,6561726,,,,,,,2025-04-14,1,,,,,パソナウェルネスツーリズム,0
1152,4140001138152,新規,0,2025-04-14,2025-04-14,おおば補聴器株式会社,,株式会社,兵庫県,豊岡市,立野町１９番１号萬長ビル１階,,28,209,6680046,,,,,,,2025-04-14,1,,,,,オオバホチョウキ,0
1153,4140001138160,新規,0,2025-04-14,2025-04-14,株式会社ＮＱコーポレーション,,株式会社,兵庫県,西宮市,柏堂西町５番１７号,,28,204,6620098,,,,,,,2025-04-14,1,,,,,エヌキューコーポレーション,0
1166,4160001026685,新規,0,2025-04-14,2025-04-14,株式会社ＹＰＣ,,株式会社,滋賀県,愛知郡愛荘町,山川原４２７番地２,,25,425,5291301,,,,,,,2025-04-14,1,,,,,ワイピーシー,0
1167,4170001018574,新規,0,2025-04-14,2025-04-14,株式会社サンクスラボ,,株式会社,和歌山県,岩出市,西国分１８６番地の１,,30,209,6496213,,,,,,,2025-04-14,1,,,,,サンクスラボ,0
1172,4180001166380,新規,0,2025-04-14,2025-04-14,株式会社ツイテル,,株式会社,愛知県,名古屋市中区,大須３丁目１４番４３号第二アメ横ビル１Ｆ－４Ａ,,23,106,4600011,,,,,,,2025-04-14,1,,,,,ツイテル,0
1174,4180003028315,新規,0,2025-04-14,2025-04-14,合同会社アシスト,,合同会社,愛知県,江南市,島宮町吉原１２２,,23,217,4838262,,,,,,,2025-04-14,1,,,,,アシスト,0
1178,4180301039716,新規,0,2025-04-14,2025-04-14,ラインズフレア株式会社,,株式会社,愛知県,豊田市,下林町２丁目３１番地ＫｌｉｎｇｅｌＢａｕｍ２０２,,23,211,4710878,,,,,,,2025-04-14,1,,,,,ラインズフレア,0
1189,4230005009456,新規,0,2025-04-14,2025-04-14,一般社団法人ろんくま,,その他の設立登記法人,富山県,氷見市,論田２０５５番地,,16,205,9350258,,,,,,,2025-04-14,1,,,,,ロンクマ,0
1191,4250003003698,新規,0,2025-04-14,2025-04-14,合同会社エスビー・ソリューション,,合同会社,山口県,玖珂郡和木町,和木１丁目１０番３－８号,,35,321,7400061,,,,,,,2025-04-14,1,,,,,エスビーソリューション,0
1192,4260005011467,新規,0,2025-04-14,2025-04-14,協同組合岡山県リペア協会,,その他の設立登記法人,岡山県,岡山市北区,平野６２２－８,,33,101,7010151,,,,,,,2025-04-14,1,,,,,オカヤマケンリペアキョウカイ,0
1193,4280003001939,新規,0,2025-04-14,2025-04-14,合同会社池上銃砲火薬店,,合同会社,島根県,松江市,東津田町２３２５番地,,32,201,6900011,,,,,,,2025-04-14,1,,,,,イケガミジュウホウカヤクテン,0
1200,4290001109634,新規,0,2025-04-14,2025-04-14,株式会社メンテナンス・ガレージＫ,,株式会社,福岡県,福津市,本木１１６３番地,,40,224,8113203,,,,,,,2025-04-14,1,,,,,メンテナンスガレージケー,0
1201,4290001109733,新規,0,2025-04-14,2025-04-14,株式会社ｆｉｄｕｃｉａ,,株式会社,福岡県,糟屋郡新宮町,下府３丁目１９番２５号２階,,40,345,8110112,,,,,,,2025-04-14,1,,,,,フィデューチャ,0
1207,4290003016655,新規,0,2025-04-14,2025-04-14,合同会社リスタート,,合同会社,福岡県,糟屋郡篠栗町,庄２丁目１０番２０－４０６号,,40,342,8112419,,,,,,,2025-04-14,1,,,,,リスタート,0
1208,4290003016671,新規,0,2025-04-14,2025-04-14,合同会社ＳＧＵ,,合同会社,福岡県,福岡市中央区,古小烏町８１番地３－７０９号,,40,133,8100026,,,,,,,2025-04-14,1,,,,,エスジーユー,0
1209,4290003016705,新規,0,2025-04-14,2025-04-14,合同会社ｅｖｅｎｔ‐ｔｙ．,,合同会社,福岡県,福岡市中央区,平尾１丁目４－７,,40,133,8100014,,,,,,,2025-04-14,1,,,,,イベンティ,0
1213,4300001014147,新規,0,2025-04-14,2025-04-14,株式会社モアナ・エステート,,株式会社,佐賀県,神埼郡吉野ヶ里町,吉田２９６番地３,,41,327,8420031,,,,,,,2025-04-14,1,,,,,モアナエステート,0
1214,4310001019541,新規,0,2025-04-14,2025-04-14,株式会社ＴＥＲＡ‐ＳＩＴＥ,,株式会社,長崎県,長崎市,赤迫１丁目７－５２アベニュー住吉弐番館４０３号室,,42,201,8528156,,,,,,,2025-04-14,1,,,,,テラサイト,0
1219,4320001021050,新規,0,2025-04-14,2025-04-14,株式会社ケンシン,,株式会社,大分県,津久見市,大字上青江６５９８番地,,44,207,8792461,,,,,,,2025-04-14,1,,,,,ケンシン,0
1220,4330001033094,新規,0,2025-04-14,2025-04-14,株式会社さしすせそ,,株式会社,熊本県,熊本市中央区,帯山４丁目１３番２６号,,43,101,8620924,,,,,,,2025-04-14,1,,,,,サシスセソ,0
1231,4360001035006,新規,0,2025-04-14,2025-04-14,株式会社タイラ商会,,株式会社,沖縄県,那覇市,小禄１丁目６番１７号,,47,201,9010152,,,,,,,2025-04-14,1,,,,,タイラショウカイ,0
1232,4360001035014,新規,0,2025-04-14,2025-04-14,株式会社ワイズリゾートおきなわ,,株式会社,沖縄県,国頭郡恩納村,字前兼久９番地,,47,311,9040414,,,,,,,2025-04-14,1,,,,,ワイズリゾートオキナワ,0
1235,4370001052446,新規,0,2025-04-14,2025-04-14,株式会社Ｅｑｕａｌ＆Ｒｅｓｐｅｃｔ,,株式会社,宮城県,多賀城市,大代２丁目１番１０号コーポサンライズ１０５,,04,209,9850832,,,,,,,2025-04-14,1,,,,,イコールアンドリスペクト,0
1244,4410001014128,新規,0,2025-04-14,2025-04-14,株式会社サンライスつるた,,株式会社,秋田県,大仙市,橋本字鶴田２８４番地,,05,212,0140804,,,,,,,2025-04-14,1,,,,,サンライスツルタ,0
1252,4450003002639,新規,0,2025-04-14,2025-04-14,合同会社Ｒ２,,合同会社,北海道,士別市,中士別町五線東１９番地,,01,220,0950063,,,,,,,2025-04-14,1,,,,,アールツー,0
1260,4500003003482,新規,0,2025-04-14,2025-04-14,合同会社かどた林業,,合同会社,愛媛県,喜多郡内子町,五十崎甲３６７番地１,,38,422,7950301,,,,,,,2025-04-14,1,,,,,カドタリンギョウ,0
1263,4700150129829,新規,0,2025-04-14,2025-04-14,ＳＨＩＮＭＡＫＯＴＯ　Ｍｉｃｒｏｎｅｓｉａ　Ｉｎｃ．,,外国会社等,,,,,,,,ミクロネシア連邦、ポンペイ、ネット、ポンアンポプレイス、ブイビーセンター、２Ａ,,,,,,2025-04-14,1,,,,,シンマコトミクロネシアインク,0
1264,4700150129903,新規,0,2025-04-14,2025-04-14,Ｇｕａｎｇｚｈｏｕ　Ｌａｎｈｏｎｇｗａｎｇｌｕｏｋｅｊｉ　Ｙｏｕｘｉａｎｇｏｎｇｓｉ,,外国会社等,,,,,,,,ＨｕａｎｇＣｕｎＬｕＺｉＢｉａｎ８ＨａｏＥｒＬｏｕＣ２２８Ｆａｎｇ　ＴｉａｎＨｅＱｕ　ＧｕａｎｇＺｈｏｕＳｈｉ,,,,,,2025-04-14,1,,,,,グゥアンゾウランホンワンロウカギユウゲンコウシ,0
1265,4700150129911,新規,0,2025-04-14,2025-04-14,ＭＳＵＮ　ＩＮＤＵＳＴＲＩＡＬ（ＨＫ）ＣＯ．，ＬＩＭＩＴＥＤ,,外国会社等,,,,,,,,Ｒｏｏｍ　Ａ５１６，５ｔｈ　Ｆｌｏｏｒ，Ｙｉｆａ　Ｉｎｄｕｓｔｒｉａｌ　Ｂｕｉｌｄｉｎｇ，３５　Ｄａｙｏｕ　Ｓｔｒｅｅｔ，Ｓａｎ　Ｐｏ　Ｋｏｎｇ，Ｋｏｗｌｏｏｎ，Ｈｏｎｇ　Ｋｏｎｇ,,,,,,2025-04-14,1,,,,,エムサンインダストリアルホンコンカンパニーリミテッド,0
1266,4700150129928,新規,0,2025-04-14,2025-04-14,Ｑ．Ｒ．ＬＡＮＫＡ　ＭＯＴＯＲＳ,,外国会社等,千葉県,山武市,木原１４００番地　オフィス１０Ａ,,12,237,2891212,スリランカ民主社会主義共和国、キャンディ、アクラナ、デルガステンナ、Ｎｏ．２１０／３,,,,,,2025-04-14,1,,,,,キユーアールランカモータース,0
1267,4700150129936,新規,0,2025-04-14,2025-04-14,Ｓ．Ｒ．Ｓ．ＴＲＡＤＩＮＧ,,外国会社等,千葉県,山武市,横田１０６７番地３５Ａ,,12,237,2891226,スリランカ民主社会主義共和国、ウクウェラ、マタレロード、Ｎｏ．６４／Ｃ,,,,,,2025-04-14,1,,,,,エスアールエストレーデイング,0
1268,4700150129944,新規,0,2025-04-14,2025-04-14,Ｓｈｅｎｚｈｅｎｓｈｉｘｉｎｔｉａｏｍｅｉｌｉｋｕａｊｉｎｇｄｉａｎｓｈａｎｇ　ｃｏ．ｌｔｄ,,外国会社等,,,,,,,,Ｒｏｏｍ　２１８，Ｂｕｉｌｄｉｎｇ　Ｅ，Ｎｏ．５４－６，Ｇｕａｎｌａｎ　Ａｖｅｎｕｅ，Ｘｉｎｈｅ　Ｃｏｍｍｕｎｉｔｙ，Ｆｕｃｈｅｎｇ　Ｓｔｒｅｅｔ，Ｌｏｎｇｈｕａ　Ｄｉｓｔｒｉｃｔ，Ｓｈｅｎｚｈｅｎ　Ｃｉｔｙ　ＣＮ,,,,,,2025-04-14,1,,,,,シンセンシシンテャオメイリクァジンデェンシャンカンパニーリミテッド,0
1284,5010001254127,新規,0,2025-04-14,2025-04-14,株式会社ＮＤＣ,,株式会社,東京都,千代田区,神田多町２丁目１番２３号神田東山ビル７Ｆ,,13,101,1010046,,,,,,,2025-04-14,1,,,,,エヌディーシー,0
1285,5010001254135,新規,0,2025-04-14,2025-04-14,株式会社Ｌｉａｉｓｏｎ,,株式会社,東京都,中央区,日本橋箱崎町４４番７号箱崎ＹＭビル４階,,13,102,1030015,,,,,,,2025-04-14,1,,,,,リエゾン,0
1294,5010003047066,新規,0,2025-04-14,2025-04-14,合同会社Ｍ企画,,合同会社,東京都,千代田区,東神田１丁目２－２ＰＲＩＭＥＯＦＦＩＣＥ２０１号,,13,101,1010031,,,,,,,2025-04-14,1,,,,,エムキカク,0
1295,5010005039846,新規,0,2025-04-14,2025-04-14,ＲＥ１００まつまえウインドファーム一般社団法人,,その他の設立登記法人,東京都,中央区,京橋２丁目１２番６号ＡＯＪ税理士法人内,,13,102,1040031,,,,,,,2025-04-14,1,,,,,アールイーヒャクマツマエウインドファーム,0
1308,5010401189427,新規,0,2025-04-14,2025-04-14,株式会社エリロワ,,株式会社,東京都,港区,北青山３丁目６番７号青山パラシオタワー１１階,,13,103,1070061,,,,,,,2025-04-14,1,,,,,エリロワ,0
1309,5010401189451,新規,0,2025-04-14,2025-04-14,ＳｅｎｓｅＤｒｉｖｅ株式会社,,株式会社,東京都,港区,新橋４丁目３１－３第３名和ビル,,13,103,1050004,,,,,,,2025-04-14,1,,,,,センスドライブ,0
1310,5010401189609,新規,0,2025-04-14,2025-04-14,マムトムチロル株式会社,,株式会社,東京都,港区,六本木６丁目１０番１号,,13,103,1060032,,,,,,,2025-04-14,1,,,,,マムトムチロル,0
1311,5010401189617,新規,0,2025-04-14,2025-04-14,株式会社エンドラン,,株式会社,東京都,港区,北青山１丁目３番１号アールキューブ青山３階,,13,103,1070061,,,,,,,2025-04-14,1,,,,,エンドラン,0
1316,5010403034861,新規,0,2025-04-14,2025-04-14,ＳＡＧＥ　Ｊａｐａｎ合同会社,,合同会社,東京都,港区,元麻布３丁目１番６号,,13,103,1060046,,,,,,,2025-04-14,1,,,,,セージジャパン,0
1317,5010403034878,新規,0,2025-04-14,2025-04-14,Ｌａｓｓｅ　Ｗｅｈｌｍａｎｎ合同会社,,合同会社,東京都,港区,浜松町２丁目７番１７号,,13,103,1050013,,,,,,,2025-04-14,1,,,,,ラッセウェールマン,0
1318,5010501053904,新規,0,2025-04-14,2025-04-14,國際ジュエリーブランド流通協会株式会社,,株式会社,東京都,台東区,東上野２丁目１０番２－３０１号,,13,106,1100015,,,,,,,2025-04-14,1,,,,,コクサイジュエリーブランドリュウツウキョウカイ,0
1321,5010603011512,新規,0,2025-04-14,2025-04-14,ＫＯＭＡＣＨＩ合同会社,,合同会社,東京都,江東区,有明３丁目７－２６有明フロンティアビルＢ棟９階,,13,108,1350063,,,,,,,2025-04-14,1,,,,,コマチ,0
1325,5010801036006,新規,0,2025-04-14,2025-04-14,株式会社ヤマジュウ,,株式会社,東京都,大田区,雪谷大塚町９番１３号,,13,111,1450067,,,,,,,2025-04-14,1,,,,,ヤマジュウ,0
1326,5010801036055,新規,0,2025-04-14,2025-04-14,井川株式会社,,株式会社,東京都,大田区,東海３丁目７番３号東海ビル４０５号室,,13,111,1430001,,,,,,,2025-04-14,1,,,,,イカワ,0
1327,5010903009850,新規,0,2025-04-14,2025-04-14,和のこころ合同会社,,合同会社,東京都,世田谷区,太子堂３丁目３８番１－９０２号,,13,112,1540004,,,,,,,2025-04-14,1,,,,,ワノココロ,0
1330,5011001168746,新規,0,2025-04-14,2025-04-14,株式会社天河メディア,,株式会社,東京都,渋谷区,南平台町３番４号,,13,113,1500036,,,,,,,2025-04-14,1,,,,,ギャラクシーメディア,0
1331,5011001168886,新規,0,2025-04-14,2025-04-14,株式会社アイオピネル,,株式会社,東京都,渋谷区,初台１丁目３１番２－１０２号,,13,113,1510061,,,,,,,2025-04-14,1,,,,,アイオピネル,0
1332,5011001168903,新規,0,2025-04-14,2025-04-14,株式会社Ｇａｒａｋｕｔａ　Ｃｉｎｅｍａ　Ｇｕｉｌｄ,,株式会社,東京都,渋谷区,円山町５番５号Ｎａｖｉ渋谷Ｖ３階,,13,113,1500044,,,,,,,2025-04-14,1,,,,,ガラクタシネマギルド,0
1333,5011001168911,新規,0,2025-04-14,2025-04-14,株式会社マステイク,,株式会社,東京都,渋谷区,道玄坂１丁目１０番８号,,13,113,1500043,,,,,,,2025-04-14,1,,,,,マステイク,0
1334,5011001168928,新規,0,2025-04-14,2025-04-14,株式会社とんかつ,,株式会社,東京都,渋谷区,道玄坂１丁目１０番８号渋谷道玄坂東急ビル２Ｆ－Ｃ,,13,113,1500043,,,,,,,2025-04-14,1,,,,,トンカツ,0
1335,5011001168952,新規,0,2025-04-14,2025-04-14,株式会社Ｎｅｓｔｅｘ,,株式会社,東京都,渋谷区,代々木５丁目５５番１２号パーク立林参宮橋,,13,113,1510053,,,,,,,2025-04-14,1,,,,,ネステックス,0
1336,5011001168969,新規,0,2025-04-14,2025-04-14,株式会社ジョブボーズ,,株式会社,東京都,渋谷区,神南１丁目１１番４号ＦＰＧリンクス神南５階,,13,113,1500041,,,,,,,2025-04-14,1,,,,,ジョブボーズ,0
1337,5011003021382,新規,0,2025-04-14,2025-04-14,合同会社服部恭平写真事務所,,合同会社,東京都,渋谷区,鶯谷町５番７号第２ヴィラアオヤマ４０１,,13,113,1500032,,,,,,,2025-04-14,1,,,,,ハットリキョウヘイシャシンジムショ,0
1338,5011003021390,新規,0,2025-04-14,2025-04-14,合同会社やまっか,,合同会社,東京都,目黒区,下目黒１丁目６番２１号,,13,110,1530064,,,,,,,2025-04-14,1,,,,,ヤマッカ,0
1340,5011101111300,新規,0,2025-04-14,2025-04-14,株式会社アールジーニー,,株式会社,東京都,新宿区,西新宿３丁目７番２３－５０２号,,13,104,1600023,,,,,,,2025-04-14,1,,,,,アールジーニー,0
1342,5011105011389,新規,0,2025-04-14,2025-04-14,一般社団法人ＡＩキャリアリスキリング開発機構,,その他の設立登記法人,東京都,新宿区,四谷４丁目３エクシーナ四谷４０１,,13,104,1600004,,,,,,,2025-04-14,1,,,,,エーアイキャリアリスキリングカイハツキコウ,0
1344,5011201026282,新規,0,2025-04-14,2025-04-14,株式会社ｂｒａｃｅ,,株式会社,東京都,中野区,弥生町２丁目１４番１０号弘仁堂ビルヂング１Ｆ１,,13,114,1640013,,,,,,,2025-04-14,1,,,,,ブレース,0
1345,5011301030507,新規,0,2025-04-14,2025-04-14,株式会社ゆうとぴあ,,株式会社,東京都,杉並区,永福２丁目３番５号,,13,115,1680064,,,,,,,2025-04-14,1,,,,,ユウトピア,0
1347,5011501031916,新規,0,2025-04-14,2025-04-14,株式会社ＩＬＡＩＺＡ,,株式会社,東京都,北区,田端５丁目３番１２号,,13,117,1140014,,,,,,,2025-04-14,1,,,,,イライザ,0
1348,5011503006478,新規,0,2025-04-14,2025-04-14,合同会社ＪＣ,,合同会社,東京都,北区,赤羽北２丁目３３－８－１０４号,,13,117,1150052,,,,,,,2025-04-14,1,,,,,ジェイシー,0
1349,5011503006486,新規,0,2025-04-14,2025-04-14,合同会社エムシーピー,,合同会社,東京都,北区,豊島３丁目８番１７号,,13,117,1140003,,,,,,,2025-04-14,1,,,,,エムシーピー,0
1354,5011801045962,新規,0,2025-04-14,2025-04-14,株式会社あんしんモータース,,株式会社,東京都,足立区,島根３丁目２１－１７,,13,121,1210815,,,,,,,2025-04-14,1,,,,,アンシンモータース,0
1355,5011803006797,新規,0,2025-04-14,2025-04-14,合同会社インテリア・タキモト,,合同会社,東京都,足立区,鹿浜２丁目２５番１－２０７号,,13,121,1230864,,,,,,,2025-04-14,1,,,,,インテリアタキモト,0
1356,5011805003446,新規,0,2025-04-14,2025-04-14,一般社団法人日本相撲事業振興会,,その他の設立登記法人,東京都,足立区,弘道２丁目２７番２号,,13,121,1200013,,,,,,,2025-04-14,1,,,,,ニホンスモウジギョウシンコウカイ,0
1358,5012303002130,新規,0,2025-04-14,2025-04-14,あかり合同会社,,合同会社,東京都,町田市,下小山田町２９７１番地４,,13,209,1940202,,,,,,,2025-04-14,1,,,,,アカリ,0
1364,5013301054056,新規,0,2025-04-14,2025-04-14,エナジーコネクト株式会社,,株式会社,東京都,豊島区,西池袋１丁目４番１０号,,13,116,1710021,,,,,,,2025-04-14,1,,,,,エナジーコネクト,0
1370,5020001162031,新規,0,2025-04-14,2025-04-14,株式会社サヤカフーズ,,株式会社,神奈川県,横浜市青葉区,美しが丘１丁目１０番地８第一みなもとビル１階,,14,117,2250002,,,,,,,2025-04-14,1,,,,,サヤカフーズ,0
1371,5020001162238,新規,0,2025-04-14,2025-04-14,森海株式会社,,株式会社,神奈川県,横浜市港北区,新横浜３丁目７番地７新横浜アリーナ通りビル３Ｆ新横浜オフィス０１,,14,109,2220033,,,,,,,2025-04-14,1,,,,,シンカイ,0
1372,5020001162361,新規,0,2025-04-14,2025-04-14,揚ノ沢鉱山株式会社,,株式会社,神奈川県,横浜市神奈川区,六角橋１丁目７番２１号コテイジ白楽２０２号,,14,102,2210802,,,,,,,2025-04-14,1,,,,,アゲノサワコウザン,0
1375,5020003028255,新規,0,2025-04-14,2025-04-14,プルミエール合同会社,,合同会社,神奈川県,横浜市青葉区,美しが丘西２丁目２番地８,,14,117,2250001,,,,,,,2025-04-14,1,,,,,プルミエール,0
1380,5021001084950,新規,0,2025-04-14,2025-04-14,株式会社ＨＯＮＧ　ＡＮ　ＦＯＯＤＳ,,株式会社,神奈川県,綾瀬市,上土棚南１丁目６－５３,,14,218,2521114,,,,,,,2025-04-14,1,,,,,ホンアンフーズ,0
1387,5030001165982,新規,0,2025-04-14,2025-04-14,株式会社ニシ,,株式会社,埼玉県,所沢市,寿町２７番７－１０６号,,11,208,3591122,,,,,,,2025-04-14,1,,,,,ニシ,0
1394,5030003026563,新規,0,2025-04-14,2025-04-14,ＥＭＭＡ　ＡＵＴＯ合同会社,,合同会社,埼玉県,草加市,金明町１０５０番地１ハイツエトワール２０１号,,11,221,3400052,,,,,,,2025-04-14,1,,,,,エマオート,0
1395,5030003026571,新規,0,2025-04-14,2025-04-14,ＴＳ　ＮＩＨＯＮ　ＬＡＮＫＡ合同会社,,合同会社,埼玉県,鶴ヶ島市,大字下新田６２１番地２０５ＫＩＶオフィス下新田Ｂ号室,,11,241,3502222,,,,,,,2025-04-14,1,,,,,ティーエスニホンランカ,0
1403,5040003027206,新規,0,2025-04-14,2025-04-14,合同会社スパイラル商会,,合同会社,千葉県,香取市,みずほ台３丁目１番地２３８,,12,236,2870064,,,,,,,2025-04-14,1,,,,,スパイラルショウカイ,0
1404,5040003027296,新規,0,2025-04-14,2025-04-14,合同会社ＫＡＩＴＳ,,合同会社,千葉県,八千代市,上高野１３３２－６０,,12,221,2760022,,,,,,,2025-04-14,1,,,,,カイタス,0
1405,5040003027338,新規,0,2025-04-14,2025-04-14,合同会社ＢｅａｕｔｙＳａｌｏｎＲ２,,合同会社,千葉県,市原市,辰巳台東４丁目２０番地９,,12,219,2900003,,,,,,,2025-04-14,1,,,,,ビューティサロンアールツー,0
1410,5050005013599,新規,0,2025-04-14,2025-04-14,弁理士法人石井特許コンサルティング事務所,,その他の設立登記法人,茨城県,つくば市,春風台１１番地６５,,08,220,3050007,,,,,,,2025-04-14,1,,,,,イシイトッキョコンサルティングジムショ,0
1416,5080405007727,新規,0,2025-04-14,2025-04-14,一般社団法人袋井スポーツアカデミー,,その他の設立登記法人,静岡県,袋井市,方丈６丁目２番地の１８,,22,216,4370022,,,,,,,2025-04-14,1,,,,,フクロイスポーツアカデミー,0
1421,5100001038504,新規,0,2025-04-14,2025-04-14,株式会社Ｃａｔ　Ｈａｎｄ,,株式会社,長野県,千曲市,杭瀬下５丁目９２番地２,,20,218,3870011,,,,,,,2025-04-14,1,,,,,キャットハンド,0
1423,5100003008083,新規,0,2025-04-14,2025-04-14,ＢＲＡＮＴ合同会社,,合同会社,長野県,北安曇郡白馬村,大字北城１０９１８番地１,,20,485,3999301,,,,,,,2025-04-14,1,,,,,ブラント,0
1428,5110001039187,新規,0,2025-04-14,2025-04-14,ＫＯＳＨＩＮＯ　ＫＩＲＡＭＥＫＩ株式会社,,株式会社,新潟県,新潟市江南区,亀田工業団地２丁目１－２５２８－３９、２階,,15,104,9500141,,,,,,,2025-04-14,1,,,,,コシノキラメキ,0
1429,5110001039195,新規,0,2025-04-14,2025-04-14,信濃川米穀株式会社,,株式会社,新潟県,新潟市中央区,西大畑町５１９１番地１４グランドメゾン西大畑２０３号,,15,103,9518104,,,,,,,2025-04-14,1,,,,,シナノガワベイコク,0
1430,5110003005724,新規,0,2025-04-14,2025-04-14,Ｌｏｃｋｗｏｏｄ　Ｌｏｄｇｅｓ合同会社,,合同会社,新潟県,南魚沼郡湯沢町,大字三国字石グネ４３２－１６１,,15,461,9496212,,,,,,,2025-04-14,1,,,,,ロックウッドロッジズ,0
1446,5120001274295,新規,0,2025-04-14,2025-04-14,株式会社ＹＲＤ,,株式会社,大阪府,大阪市鶴見区,浜３丁目１３番１１－３号,,27,124,5380035,,,,,,,2025-04-14,1,,,,,ワイアールディー,0
1447,5120001274337,新規,0,2025-04-14,2025-04-14,雨田株式会社,,株式会社,大阪府,大阪市此花区,春日出中１丁目９番１３号１０１室,,27,104,5540022,,,,,,,2025-04-14,1,,,,,アマダ,0
1448,5120001274345,新規,0,2025-04-14,2025-04-14,株式会社セイライフード,,株式会社,大阪府,大阪市城東区,永田４丁目１０番９号,,27,118,5360022,,,,,,,2025-04-14,1,,,,,セイライフード,0
1449,5120001274386,新規,0,2025-04-14,2025-04-14,株式会社Ｍ＆Ｄ,,株式会社,大阪府,大阪市中央区,北浜東２番１８号Ｎビル,,27,128,5400031,,,,,,,2025-04-14,1,,,,,エムアンドディー,0
1450,5120001274428,新規,0,2025-04-14,2025-04-14,株式会社郵船組,,株式会社,大阪府,大阪市西区,新町１丁目２９番１０号,,27,106,5500013,,,,,,,2025-04-14,1,,,,,ユウセングミ,0
1451,5120001274452,新規,0,2025-04-14,2025-04-14,株式会社ＭＯＵＴＩ,,株式会社,大阪府,大阪市阿倍野区,阿倍野筋３丁目１番１６号２Ｆ,,27,119,5450052,,,,,,,2025-04-14,1,,,,,モウチ,0
1452,5120001274477,新規,0,2025-04-14,2025-04-14,株式会社エボリューションカフェ,,株式会社,大阪府,大阪市浪速区,恵美須東３丁目４－１６,,27,111,5560002,,,,,,,2025-04-14,1,,,,,エボリューションカフェ,0
1453,5120001274485,新規,0,2025-04-14,2025-04-14,株式会社１５,,株式会社,大阪府,守口市,寺方本通３丁目１番３号,,27,209,5700048,,,,,,,2025-04-14,1,,,,,ジュウゴ,0
1454,5120001274502,新規,0,2025-04-14,2025-04-14,君禾麗株式会社,,株式会社,大阪府,大阪市北区,天満２丁目１番１２号天満橋ＳＥビル４階,,27,127,5300043,,,,,,,2025-04-14,1,,,,,クンカレイ,0
1455,5120001274527,新規,0,2025-04-14,2025-04-14,株式会社ナウエスト,,株式会社,大阪府,大阪市中央区,日本橋２丁目１番２２号上野ビル４０６号,,27,128,5420073,,,,,,,2025-04-14,1,,,,,ナウエスト,0
1456,5120001274535,新規,0,2025-04-14,2025-04-14,株式会社アレスト,,株式会社,大阪府,大阪市平野区,平野馬場１丁目１－２５,,27,126,5470048,,,,,,,2025-04-14,1,,,,,アレスト,0
1457,5120001274618,新規,0,2025-04-14,2025-04-14,共栄検査株式会社,,株式会社,大阪府,大阪市東住吉区,桑津５丁目４番１２号,,27,121,5460041,,,,,,,2025-04-14,1,,,,,キョウエイケンサ,0
1458,5120001274683,新規,0,2025-04-14,2025-04-14,株式会社飛鳥,,株式会社,大阪府,大阪市西成区,萩之茶屋２丁目１０番２４－１１５号,,27,122,5570004,,,,,,,2025-04-14,1,,,,,アスカ,0
1459,5120001274774,新規,0,2025-04-14,2025-04-14,株式会社パシオン・ａｔ,,株式会社,大阪府,枚方市,東田宮１丁目１番１１号,,27,210,5730023,,,,,,,2025-04-14,1,,,,,パシオンエーティー,0
1460,5120001274873,新規,0,2025-04-14,2025-04-14,株式会社ここ福,,株式会社,大阪府,大阪市淀川区,十三本町３丁目４番２４－７０２号,,27,123,5320024,,,,,,,2025-04-14,1,,,,,ココフク,0
1465,5120003029111,新規,0,2025-04-14,2025-04-14,合同会社はぴうぇる,,合同会社,大阪府,大阪市東淀川区,大桐３丁目１１番７号１階,,27,114,5330011,,,,,,,2025-04-14,1,,,,,ハピウェル,0
1470,5120103006398,新規,0,2025-04-14,2025-04-14,合同会社ふぁーすと・すてっぷ,,合同会社,大阪府,松原市,天美北７丁目８番３２号,,27,217,5800031,,,,,,,2025-04-14,1,,,,,ファーストステップ,0
1481,5120901050671,新規,0,2025-04-14,2025-04-14,株式会社横商,,株式会社,大阪府,池田市,城南３丁目１１番６号,,27,204,5630025,,,,,,,2025-04-14,1,,,,,ヨコショウ,0
1482,5120903005616,新規,0,2025-04-14,2025-04-14,めい合同会社,,合同会社,大阪府,吹田市,千里山東２丁目１６番１０号（３０１）,,27,205,5650842,,,,,,,2025-04-14,1,,,,,,0
1490,5130001079405,新規,0,2025-04-14,2025-04-14,寿建設株式会社,,株式会社,京都府,京都市伏見区,下鳥羽北円面田町５９番地バードハイツ５０７,,26,109,6128497,,,,,,,2025-04-14,1,,,,,コトブキケンセツ,0
1491,5130001079413,新規,0,2025-04-14,2025-04-14,金泰株式会社,,株式会社,京都府,京都市上京区,元誓願寺通東堀川東入西町４５１番地コーポ小林４０４,,26,102,6020956,,,,,,,2025-04-14,1,,,,,キンタイ,0
1492,5130001079421,新規,0,2025-04-14,2025-04-14,満繁商事株式会社,,株式会社,京都府,京都市東山区,今熊野宝蔵町１７番地４９,,26,105,6050952,,,,,,,2025-04-14,1,,,,,マンシゲショウジ,0
1496,5130003010350,新規,0,2025-04-14,2025-04-14,合同会社合同,,合同会社,京都府,京都市下京区,小稲荷町８５－２Ｇｒａｎｄ－Ｋ京都駅前ビル２０１,,26,106,6008208,,,,,,,2025-04-14,1,,,,,ゴウドウ,0
1503,5140001138135,新規,0,2025-04-14,2025-04-14,株式会社ＳＵＩ‐ＲＹＵ,,株式会社,兵庫県,神戸市灘区,篠原北町１丁目８番１１－２０６号,,28,102,6570068,,,,,,,2025-04-14,1,,,,,スイリュウ,0
1511,5140005027458,新規,0,2025-04-14,2025-04-14,一般社団法人Ｍｙｓ,,その他の設立登記法人,兵庫県,加東市,東垂水２８４番地１,,28,228,6731336,,,,,,,2025-04-14,1,,,,,ミース,0
1512,5140005027466,新規,0,2025-04-14,2025-04-14,医療法人友縁会,,その他の設立登記法人,兵庫県,神崎郡福崎町,南田原２２６５番地１,,28,443,6792203,,,,,,,2025-04-14,1,,,,,ユウエンカイ,0
1517,5170001018573,新規,0,2025-04-14,2025-04-14,株式会社陽,,株式会社,和歌山県,日高郡日高町,大字阿尾５８８番地の１,,30,382,6491232,,,,,,,2025-04-14,1,,,,,ヒナタ,0
1528,5180001166371,新規,0,2025-04-14,2025-04-14,ＢＵＩＬＤＥＸ株式会社,,株式会社,愛知県,半田市,冨士ケ丘６丁目１００番地の１０,,23,205,4750834,,,,,,,2025-04-14,1,,,,,ビルデクス,0
1529,5180001166388,新規,0,2025-04-14,2025-04-14,アシア外構株式会社,,株式会社,愛知県,一宮市,西大海道字中寺１５番地,,23,203,4910005,,,,,,,2025-04-14,1,,,,,アシアガイコウ,0
1530,5180001166405,新規,0,2025-04-14,2025-04-14,株式会社ｙｏｌｉｉｙ,,株式会社,愛知県,名古屋市中区,栄１丁目２０番１０号グランアベニュー栄６１８号室,,23,106,4600008,,,,,,,2025-04-14,1,,,,,ヨリ,0
1533,5180003028306,新規,0,2025-04-14,2025-04-14,Ｓ・Ｈ・ＴＲＡＤＥＲ合同会社,,合同会社,愛知県,春日井市,神領町３丁目８番地４クオール神領１０３号,,23,206,4860821,,,,,,,2025-04-14,1,,,,,エスエイチトレーダー,0
1534,5180003028314,新規,0,2025-04-14,2025-04-14,合同会社テラスワークス,,合同会社,愛知県,犬山市,大字橋爪字国正６９番地,,23,215,4840076,,,,,,,2025-04-14,1,,,,,テラスワークス,0
1538,5180301039707,新規,0,2025-04-14,2025-04-14,株式会社ＧＵＩＬＤ,,株式会社,愛知県,豊橋市,石巻本町字茶ノ木６３番地,,23,201,4411115,,,,,,,2025-04-14,1,,,,,ギルド,0
1543,5220003004005,新規,0,2025-04-14,2025-04-14,合同会社ＯｆｆｉｃｅＡｋａｓａｋａ,,合同会社,石川県,金沢市,米泉町２丁目６５番地５,,17,201,9218044,,,,,,,2025-04-14,1,,,,,オフィスアカサカ,0
1548,5230001020845,新規,0,2025-04-14,2025-04-14,株式会社小林海産,,株式会社,富山県,高岡市,中曽根２９１７番地４,,16,202,9340092,,,,,,,2025-04-14,1,,,,,コバヤシカイサン,0
1549,5230003002412,新規,0,2025-04-14,2025-04-14,イオサイクル・ジャパン合同会社,,合同会社,富山県,高岡市,昭和町２丁目３番８号,,16,202,9330946,,,,,,,2025-04-14,1,,,,,イオサイクルジャパン,0
1555,5270003001732,新規,0,2025-04-14,2025-04-14,合同会社生田不動産,,合同会社,鳥取県,米子市,長砂町７８０番地２,,31,202,6830033,,,,,,,2025-04-14,1,,,,,イクタフドウサン,0
1556,5280001009405,新規,0,2025-04-14,2025-04-14,株式会社ランド,,株式会社,島根県,松江市,上乃木３丁目５番１８号,,32,201,6900015,,,,,,,2025-04-14,1,,,,,ランド,0
1565,5290001109641,新規,0,2025-04-14,2025-04-14,株式会社よかとこ不動産,,株式会社,福岡県,筑紫野市,針摺東５丁目９番１号２階,,40,217,8180081,,,,,,,2025-04-14,1,,,,,ヨカトコフドウサン,0
1566,5290001109699,新規,0,2025-04-14,2025-04-14,株式会社ＲＥ,,株式会社,福岡県,福岡市博多区,中洲３丁目７番３３号,,40,132,8100801,,,,,,,2025-04-14,1,,,,,アールイー,0
1572,5290003016670,新規,0,2025-04-14,2025-04-14,ラボ合同会社,,合同会社,福岡県,福岡市中央区,天神３丁目６－８,,40,133,8100001,,,,,,,2025-04-14,1,,,,,ラボ,0
1576,5290005019713,新規,0,2025-04-14,2025-04-14,医療法人光希会,,その他の設立登記法人,福岡県,大野城市,瑞穂町２丁目６番９号,,40,219,8160933,,,,,,,2025-04-14,1,,,,,コウキカイ,0
1586,5330001033069,新規,0,2025-04-14,2025-04-14,株式会社磯本建設,,株式会社,熊本県,宇城市,不知火町大字永尾１４９番地,,43,213,8690500,,,,,,,2025-04-14,1,,,,,イソモトケンセツ,0
1587,5330003010941,新規,0,2025-04-14,2025-04-14,ＡＳＯ・瞰合同会社,,合同会社,熊本県,菊池郡菊陽町,大字津久礼２０９８番地６６,,43,404,8691101,,,,,,,2025-04-14,1,,,,,アソケン,0
1591,5360003014824,新規,0,2025-04-14,2025-04-14,合同会社こはく,,合同会社,沖縄県,那覇市,牧志１丁目４番４３号新川ビルＢ１,,47,201,9000013,,,,,,,2025-04-14,1,,,,,コハク,0
1597,5380005012956,新規,0,2025-04-14,2025-04-14,一般社団法人ＷＩＳＴＥＲＩＡ　ＦＩＥＬＤＳ,,その他の設立登記法人,福島県,福島市,宮下町１７番２０号コートピアリッジ７０２,,07,201,9608011,,,,,,,2025-04-14,1,,,,,ウィステリアフィールズ,0
1606,5410001014110,新規,0,2025-04-14,2025-04-14,株式会社熊ノ護化研,,株式会社,秋田県,秋田市,中通３丁目１番９号,,05,201,0100001,,,,,,,2025-04-14,1,,,,,クマノモリカケン,0
1607,5420001019091,新規,0,2025-04-14,2025-04-14,株式会社青森県フードトラック協会,,株式会社,青森県,八戸市,大字三日町１１番地１八戸ポータルミュージアム１ＦＣａｆｅ＆ＢａｌＲｏａｓｔ内,,02,203,0310032,,,,,,,2025-04-14,1,,,,,アオモリケンフードトラックキョウカイ,0
1608,5420003003102,新規,0,2025-04-14,2025-04-14,合同会社林技建,,合同会社,青森県,八戸市,大字鮫町字鬼場平３番地４,,02,203,0310841,,,,,,,2025-04-14,1,,,,,ハヤシギケン,0
1618,5470001020664,新規,0,2025-04-14,2025-04-14,株式会社近藤商店,,株式会社,香川県,高松市,鶴市町２０４８番地６,,37,201,7618032,,,,,,,2025-04-14,1,,,,,,0
1622,5490005006988,新規,0,2025-04-14,2025-04-14,医療法人仙頭会,,その他の設立登記法人,高知県,安芸市,矢ノ丸３丁目２番１９号,,39,203,7840001,,,,,,,2025-04-14,1,,,,,セントウカイ,0
1625,5700150054506,新規,0,2025-04-14,2015-10-09,きのこ元気クラブ,,その他,岡山県,井原市,木之子町２９７１,,33,207,7150004,,,,,,,2015-10-09,1,,,,,キノコゲンキクラブ,0
1626,5700150129902,新規,0,2025-04-14,2025-04-14,Ｃａｐｉｔａｌ　Ｈｏｎｏｕｒ　Ｄｅｖｅｌｏｐｍｅｎｔ　Ｌｔｄ,,外国会社等,,,,,,,,Ｕｎｉｔ　１９０３　Ｔｉｍｅｓ　Ｔｏｗｅｒ　９２８－９３０　Ｃｈｅｕｎｇ　Ｓｈａ　Ｗａｎ　Ｒｏａｄ　Ｋｏｗｌｏｏｎ　Ｈｏｎｇ　Ｋｏｎｇ,,,,,,2025-04-14,1,,,,,キヤピタルオナーデベロツプメントリミテツド,0
1627,5700150129910,新規,0,2025-04-14,2025-04-14,ｓｈａｎｇｈａｉｗｅｉｓｈｕｗａｎｇｌｕｏｋｅｊｉｙｏｕｘｉａｎｇｏｎｇｓｉ,,外国会社等,,,,,,,,ｆｅｎｇｘｉａｎｑｕ　ｎａｎｑｉａｏｚｈｅｎ　ｎｉｎｇｆｕｌｕ２８８ｈａｏ　１ｚｈｕａｎｇ６ｃｅｎｇ　ｓｈａｎｇｈａｉｓｈｉ　ＣＮ,,,,,,2025-04-14,1,,,,,シャンハイウェイスウワンロウカギユウゲンコウシ,0
1628,5700150129919,新規,0,2025-04-14,2025-04-14,Ｈ．Ｒ．ＴＲＡＤＩＮＧ,,外国会社等,千葉県,香取郡神崎町,古原乙３２６番地２１２オフィス２,,12,342,2890215,スリランカ民主社会主義共和国、キャンディ、アクラナ、クルゴダ、Ｎｏ．９０／１Ａ,,,,,,2025-04-14,1,,,,,エイチアールトレーデイング,0
1629,5700150129927,新規,0,2025-04-14,2025-04-14,Ｇ．Ｐ．Ｒ．ＴＲＡＤＩＮＧ,,外国会社等,千葉県,山武市,木原１４００番地　オフィス８Ａ,,12,237,2891212,スリランカ民主社会主義共和国、キャンディ、アラワトゥゴダ、８ｔｈマイルポスト、Ｎｏ．２３／Ａ,,,,,,2025-04-14,1,,,,,ジーピーアールトレーデイング,0
1630,5700150129935,新規,0,2025-04-14,2025-04-14,ＭＵＭ　ＴＲＡＤＥＲＳ,,外国会社等,千葉県,八街市,朝日２８４番地１０,,12,230,2891101,スリランカ民主社会主義共和国、西部州、コロンボ地区、コロンボ１４、グランドパス、セントジョセフズストリート、Ｎｏ．４３／７,,,,,,2025-04-14,1,,,,,ムントレーダーズ,0
1631,5700150129943,新規,0,2025-04-14,2025-04-14,ｃｈａｎｇｃｈｕｎｊｉｎｇｚｈｕｎｊｉｘｉｅｓｈｅｂｅｉｙｏｕｘｉａｎｇｏｎｇｓｉ,,外国会社等,,,,,,,,ｃｈａｎｇｃｈｕｎｓｈｉ　ｂｅｉｈｕｋｅｊｉｋａｉｆａｑｕ　ｓｈｅｎｇｂｅｉｄａｊｉｅ３３３３ｈａｏ　ｃｈａｎｇｃｈｕｎｂｅｉｈｕｋｅｊｉｙｕａｎ　ｅｒｑｉ　Ｇ１　ｌｏｕ　７３２、７３３、７３４ｓｈｉ,,,,,,2025-04-14,1,,,,,チャンツンジンズンジシエシェベイユウゲンコウシ,0
1654,6010001254142,新規,0,2025-04-14,2025-04-14,株式会社ＭＩＦＵ,,株式会社,東京都,中央区,銀座３丁目１１－３ＬＥＡＧＵＥ銀座４０１,,13,102,1040061,,,,,,,2025-04-14,1,,,,,ミーフー,0
1655,6010001254159,新規,0,2025-04-14,2025-04-14,営業を科学する株式会社,,株式会社,東京都,中央区,銀座１丁目１２－４Ｎ＆ＥＢＬＤ．７階,,13,102,1040061,,,,,,,2025-04-14,1,,,,,エイギョウヲカガクスル,0
1658,6010003046942,新規,0,2025-04-14,2025-04-14,ＲＥ１００まつまえウインドファーム合同会社,,合同会社,東京都,中央区,京橋２丁目１２番６号ＡＯＪ税理士法人内,,13,102,1040031,,,,,,,2025-04-14,1,,,,,アールイーヒャクマツマエウインドファーム,0
1664,6010401189590,新規,0,2025-04-14,2025-04-14,株式会社ＬＥＧＡＬ　ＵＰ法務事務所,,株式会社,東京都,港区,高輪２丁目１３－１,,13,103,1080074,,,,,,,2025-04-14,1,,,,,リーガルアップホウムジムショ,0
1671,6010405024257,新規,0,2025-04-14,2025-04-14,一般社団法人リップメイク協会,,その他の設立登記法人,東京都,港区,赤坂１丁目３－１８,,13,103,1070052,,,,,,,2025-04-14,1,,,,,リップメイクキョウカイ,0
1673,6010601067101,新規,0,2025-04-14,2025-04-14,株式会社中小企業経営グループ,,株式会社,東京都,江東区,深川１丁目３－１１パークフロントビル６Ｆ,,13,108,1350033,,,,,,,2025-04-14,1,,,,,チュウショウキギョウケイエイグループ,0
1674,6010601067126,新規,0,2025-04-14,2025-04-14,東雲国際株式会社,,株式会社,東京都,墨田区,千歳３丁目６－５－２１１,,13,107,1300025,,,,,,,2025-04-14,1,,,,,トウウンコクサイ,0
1675,6010703007665,新規,0,2025-04-14,2025-04-14,Ｓｉｌｖｅｒ　Ｐａｃｉｆｉｃ　Ｐａｒｔｎｅｒｓ合同会社,,合同会社,東京都,品川区,北品川２丁目２６番２０号９０１,,13,109,1400001,,,,,,,2025-04-14,1,,,,,シルバーパシフィックパートナーズ,0
1682,6011001168869,新規,0,2025-04-14,2025-04-14,株式会社スタープラチナオブザワールド,,株式会社,東京都,渋谷区,渋谷２丁目６番１号ウインド渋谷１Ｆ,,13,113,1500002,,,,,,,2025-04-14,1,,,,,スタープラチナオブザワールド,0
1683,6011001168877,新規,0,2025-04-14,2025-04-14,株式会社覇道,,株式会社,東京都,渋谷区,渋谷２丁目１９番１５号宮益坂ビルディング６０９,,13,113,1500002,,,,,,,2025-04-14,1,,,,,ハドウ,0
1684,6011001168885,新規,0,2025-04-14,2025-04-14,株式会社Ｙｕｃａｐｔ　Ｉｎｖｅｓｔｍｅｎｔｓ,,株式会社,東京都,渋谷区,恵比寿南３丁目７番５－１１０３号,,13,113,1500022,,,,,,,2025-04-14,1,,,,,ユカップインベストメンツ,0
1685,6011001168893,新規,0,2025-04-14,2025-04-14,Ａｒｏｕｎｄａｂｏｕｔ株式会社,,株式会社,東京都,渋谷区,渋谷２丁目１９－１５,,13,113,1500002,,,,,,,2025-04-14,1,,,,,アラウンドアバウト,0
1686,6011001168910,新規,0,2025-04-14,2025-04-14,株式会社創成舎,,株式会社,東京都,渋谷区,代々木１丁目４０番１０号ヴォ－セジュ－ル代々木１０３,,13,113,1510053,,,,,,,2025-04-14,1,,,,,ソウセイシャ,0
1687,6011001168927,新規,0,2025-04-14,2025-04-14,株式会社ｐｉｖｏｔＸ,,株式会社,東京都,渋谷区,千駄ヶ谷４丁目１９－１５－４０１,,13,113,1510051,,,,,,,2025-04-14,1,,,,,ピヴォットエックス,0
1688,6011001168943,新規,0,2025-04-14,2025-04-14,株式会社ノッツ,,株式会社,東京都,渋谷区,本町１丁目３８番１１号,,13,113,1510071,,,,,,,2025-04-14,1,,,,,ノッツ,0
1689,6011001168968,新規,0,2025-04-14,2025-04-14,株式会社Ｍ＆Ａコンストラクションパートナーズ,,株式会社,東京都,渋谷区,恵比寿４丁目２０番３号恵比寿ガーデンプレイスタワー１５階,,13,113,1500013,,,,,,,2025-04-14,1,,,,,エムアンドエーコンストラクションパートナーズ,0
1690,6011003021365,新規,0,2025-04-14,2025-04-14,Ｉｄｅａ　Ｌｅａｖｅｓ合同会社,,合同会社,東京都,渋谷区,渋谷２丁目１９番１５号宮益坂ビルディング６０９,,13,113,1500002,,,,,,,2025-04-14,1,,,,,アイデアリーブス,0
1691,6011003021381,新規,0,2025-04-14,2025-04-14,健康経営士合同会社,,合同会社,東京都,渋谷区,円山町５番５号Ｎａｖｉ渋谷Ｖ３階,,13,113,1500044,,,,,,,2025-04-14,1,,,,,ケンコウケイエイシ,0
1698,6011103015746,新規,0,2025-04-14,2025-04-14,合同会社ケーエフプラス,,合同会社,東京都,新宿区,西新宿３丁目３番地１３号西新宿水間ビル２Ｆ,,13,104,1600023,,,,,,,2025-04-14,1,,,,,ケーエフプラス,0
1699,6011103015754,新規,0,2025-04-14,2025-04-14,合同会社ｃｏｌｌｅｃｔ,,合同会社,東京都,新宿区,西新宿８丁目３番１号西新宿ＧＦビル４階,,13,104,1600023,,,,,,,2025-04-14,1,,,,,コレクト,0
1702,6011501031923,新規,0,2025-04-14,2025-04-14,株式会社文月,,株式会社,東京都,北区,赤羽台１丁目５番７号,,13,117,1150053,,,,,,,2025-04-14,1,,,,,フミツキ,0
1704,6011601028571,新規,0,2025-04-14,2025-04-14,無設建築設計事務所株式会社,,株式会社,東京都,練馬区,旭丘１丁目１１番３旭丘光ハイム４０１Ｃ号,,13,120,1760005,,,,,,,2025-04-14,1,,,,,ムセツケンチクセッケイジムショ,0
1705,6011601028588,新規,0,2025-04-14,2025-04-14,株式会社アソビナ,,株式会社,東京都,練馬区,貫井１丁目２３―２０富士見台ファミリーマンション９０５,,13,120,1760021,,,,,,,2025-04-14,1,,,,,アソビナ,0
1711,6011801045937,新規,0,2025-04-14,2025-04-14,株式会社アンサンブル,,株式会社,東京都,足立区,谷中１丁目２６－２－４０１,,13,121,1200006,,,,,,,2025-04-14,1,,,,,アンサンブル,0
1716,6012801023899,新規,0,2025-04-14,2025-04-14,株式会社ＲｉｃｈＤｅｘ,,株式会社,東京都,立川市,高松町３丁目３１番１８号,,13,202,1900011,,,,,,,2025-04-14,1,,,,,リッチデックス,0
1718,6013103001429,新規,0,2025-04-14,2025-04-14,合同会社ギフルスワークショップ,,合同会社,東京都,青梅市,新町４丁目１９番地の７,,13,205,1980024,,,,,,,2025-04-14,1,,,,,ギフルスワークショップ,0
1727,6020001162212,新規,0,2025-04-14,2025-04-14,株式会社ＡＺＬＯＧＹ,,株式会社,神奈川県,横浜市中区,本牧元町６４番１３号,,14,104,2310822,,,,,,,2025-04-14,1,,,,,アズロジー,0
1730,6020003028279,新規,0,2025-04-14,2025-04-14,合同会社ＴＩＧＲＥ　ＢＬＥＵ,,合同会社,神奈川県,横浜市鶴見区,上の宮２丁目１５番１号Ａ,,14,101,2300075,,,,,,,2025-04-14,1,,,,,ティグレブルー,0
1732,6020005016785,新規,0,2025-04-14,2025-04-14,一般社団法人横濱自由華僑婦女協會,,その他の設立登記法人,神奈川県,横浜市中区,山下町２２１番５,,14,104,2310023,,,,,,,2025-04-14,1,,,,,ヨコハマジユウカキヨウフジヨキヨウカイ,0
1737,6021001084925,新規,0,2025-04-14,2025-04-14,株式会社グローレ設計工房,,株式会社,神奈川県,相模原市南区,古淵６丁目６番１６号バイオレットビル４号室,,14,153,2520344,,,,,,,2025-04-14,1,,,,,グローレセッケイコウボウ,0
1752,6030005022122,新規,0,2025-04-14,2025-04-14,一般社団法人好喜心,,その他の設立登記法人,埼玉県,所沢市,若松町１０９２番地の７,,11,208,3590032,,,,,,,2025-04-14,1,,,,,コウキシン,0
1755,6040001138334,新規,0,2025-04-14,2025-04-14,司建プラント株式会社,,株式会社,千葉県,市原市,椎津１００７番地センチュリーヒルズ椎津Ｃ棟１３１号,,12,219,2990118,,,,,,,2025-04-14,1,,,,,シケンプラント,0
1756,6040001138350,新規,0,2025-04-14,2025-04-14,宮田商事株式会社,,株式会社,千葉県,山武市,松尾町谷津２番地,,12,237,2891503,,,,,,,2025-04-14,1,,,,,ミヤタショウジ,0
1757,6040003027353,新規,0,2025-04-14,2025-04-14,合同会社航遥エステート,,合同会社,千葉県,千葉市美浜区,打瀬２丁目２１番地幕張サウスコートＤ棟３０４号,,12,106,2610013,,,,,,,2025-04-14,1,,,,,コウヨウエステート,0
1762,6050005013598,新規,0,2025-04-14,2025-04-14,土地家屋調査士法人ニッソク,,その他の設立登記法人,茨城県,つくば市,春日３丁目７番地４,,08,220,3050821,,,,,,,2025-04-14,1,,,,,ニッソク,0
1763,6050005013607,新規,0,2025-04-14,2025-04-14,望月司法書士法人,,その他の設立登記法人,茨城県,水戸市,吉沢町３５４番地の９７,,08,201,3100845,,,,,,,2025-04-14,1,,,,,モチヅキ,0
1779,6110005017221,新規,0,2025-04-14,2025-04-14,一般財団法人吉池森林財団,,その他の設立登記法人,新潟県,新潟市中央区,関屋松波町３丁目３１４番地,,15,103,9518161,,,,,,,2025-04-14,1,,,,,ヨシイケシンリンザイダン,0
1794,6120001274311,新規,0,2025-04-14,2025-04-14,銘＿株式会社,00138765,株式会社,大阪府,大阪市西区,江戸堀１丁目２３－１３肥後橋ビル３号館１２０１－Ｊ,,27,106,5500002,,,,,,,2025-04-14,1,,,,,メイギョク,0
1795,6120001274352,新規,0,2025-04-14,2025-04-14,Ｏｉｌ　Ｃｌｕｂ株式会社,,株式会社,大阪府,大阪市中央区,島之内１丁目１２番１７号,,27,128,5420082,,,,,,,2025-04-14,1,,,,,オイルクラブ,0
1796,6120001274377,新規,0,2025-04-14,2025-04-14,株式会社ユウコウ機工,,株式会社,大阪府,大阪市西区,九条南３丁目２６番１３号,,27,106,5500025,,,,,,,2025-04-14,1,,,,,ユウコウキコウ,0
1797,6120001274393,新規,0,2025-04-14,2025-04-14,株式会社Ｒ‐ＥＰ,,株式会社,大阪府,大阪市東淀川区,大道南３丁目４番２６号ＯＳＫＹ２１－０３０６号,,27,114,5330012,,,,,,,2025-04-14,1,,,,,レップ,0
1798,6120001274410,新規,0,2025-04-14,2025-04-14,アスワンテック株式会社,,株式会社,大阪府,大阪市都島区,善源寺町２丁目２番８－２００３号,,27,102,5340015,,,,,,,2025-04-14,1,,,,,アスワンテック,0
1799,6120001274419,新規,0,2025-04-14,2025-04-14,ＪＦＣ株式会社,,株式会社,大阪府,大阪市中央区,久太郎町１丁目６番１１号西野金陵ビル西館２階,,27,128,5410056,,,,,,,2025-04-14,1,,,,,,0
1800,6120001274476,新規,0,2025-04-14,2025-04-14,日伸株式会社,,株式会社,大阪府,大阪市天王寺区,国分町２番６号,,27,109,5430044,,,,,,,2025-04-14,1,,,,,ニッシン,0
1801,6120001274518,新規,0,2025-04-14,2025-04-14,邦寧株式会社,,株式会社,大阪府,大阪市西成区,鶴見橋１丁目１０番１４号２０４室,,27,122,5570031,,,,,,,2025-04-14,1,,,,,ホウネイ,0
1802,6120001274542,新規,0,2025-04-14,2025-04-14,株式会社レフォム,,株式会社,大阪府,大阪市中央区,上本町西１丁目９－３０３号,,27,128,5420062,,,,,,,2025-04-14,1,,,,,レフォム,0
1803,6120001274591,新規,0,2025-04-14,2025-04-14,株式会社ジュウカク,,株式会社,大阪府,大阪市住之江区,粉浜西１丁目７番１５号１階,,27,125,5590007,,,,,,,2025-04-14,1,,,,,ジュウカク,0
1804,6120001274625,新規,0,2025-04-14,2025-04-14,株式会社Ｌｉｂｒａ,,株式会社,大阪府,大阪市北区,中津１丁目６番２９－２３０９号,,27,127,5310071,,,,,,,2025-04-14,1,,,,,ライブラ,0
1805,6120001274666,新規,0,2025-04-14,2025-04-14,株式会社Ｍ‐ＲＥＡＣＨ,,株式会社,大阪府,大阪市西区,南堀江１丁目２１番４号,,27,106,5500015,,,,,,,2025-04-14,1,,,,,エムリーチ,0
1806,6120001274732,新規,0,2025-04-14,2025-04-14,株式会社ＭＴ　Ｓｔｕｄｉｏ,,株式会社,大阪府,大阪市中央区,博労町４丁目６番１７号,,27,128,5410059,,,,,,,2025-04-14,1,,,,,エムティースタジオ,0
1807,6120003029060,新規,0,2025-04-14,2025-04-14,合同会社Ｎｉｋｓｅｎ,,合同会社,大阪府,大阪市中央区,玉造１丁目１２－１－１００１,,27,128,5400004,,,,,,,2025-04-14,1,,,,,ニクセン,0
1808,6120003029102,新規,0,2025-04-14,2025-04-14,響＿合同会社,00138754,合同会社,大阪府,大阪市東成区,中道４丁目１６番２１－４０５号,,27,115,5370025,,,,,,,2025-04-14,1,,,,,キョウエイ,0
1809,6120003029127,新規,0,2025-04-14,2025-04-14,合同会社久保設計,,合同会社,大阪府,大阪市港区,波除２丁目２番４３－１３０８号,,27,107,5520001,,,,,,,2025-04-14,1,,,,,クボセッケイ,0
1811,6120101071427,新規,0,2025-04-14,2025-04-14,株式会社Ｓｅｒａｐｈｉｍ,,株式会社,大阪府,富田林市,寿町２丁目１０番４７号,,27,214,5840031,,,,,,,2025-04-14,1,,,,,セラフィム,0
1812,6120101071451,新規,0,2025-04-14,2025-04-14,ＹＯＵ　ＨＯＭＥ株式会社,,株式会社,大阪府,泉佐野市,長滝７９５番地１,,27,213,5980034,,,,,,,2025-04-14,1,,,,,ユーホーム,0
1814,6120901050695,新規,0,2025-04-14,2025-04-14,ＴＯＴＯＲＯ株式会社,,株式会社,大阪府,箕面市,粟生間谷西７丁目３７番１１号,,27,220,5620023,,,,,,,2025-04-14,1,,,,,トトロ,0
1816,6120903005615,新規,0,2025-04-14,2025-04-14,合同会社ａｓｈ,,合同会社,大阪府,吹田市,五月が丘南１３番１２－６０７号,,27,205,5650832,,,,,,,2025-04-14,1,,,,,アッシュ,0
1818,6122001039082,新規,0,2025-04-14,2025-04-14,ビルズ株式会社,,株式会社,大阪府,四條畷市,岡山４丁目１番１８号Ｂ１,,27,229,5750002,,,,,,,2025-04-14,1,,,,,ビルズ,0
1821,6130001079395,新規,0,2025-04-14,2025-04-14,株式会社ミナコン,,株式会社,京都府,京都市上京区,今出川通大宮東入元伊佐町２８５－２０２号室,,26,102,6028435,,,,,,,2025-04-14,1,,,,,ミナコン,0
1822,6130001079404,新規,0,2025-04-14,2025-04-14,株式会社百太郎,,株式会社,京都府,京都市中京区,釜座通御池上る橋之町７４５番地,,26,104,6040033,,,,,,,2025-04-14,1,,,,,ヒャクタロウ,0
1823,6130001079429,新規,0,2025-04-14,2025-04-14,株式会社フォレストグロード,,株式会社,京都府,京都市山科区,勧修寺西北出町７６番地７,,26,110,6078225,,,,,,,2025-04-14,1,,,,,フォレストグロード,0
1831,6140001138159,新規,0,2025-04-14,2025-04-14,三和産業株式会社,,株式会社,兵庫県,神戸市中央区,雲井通２丁目３番３号,,28,110,6510096,,,,,,,2025-04-14,1,,,,,サンワサンギョウ,0
1832,6140001138175,新規,0,2025-04-14,2025-04-14,株式会社プレイバック,,株式会社,兵庫県,神戸市中央区,磯辺通４丁目１－８ＩＴＣビルディング１００３号,,28,110,6510084,,,,,,,2025-04-14,1,,,,,プレイバック,0
1834,6140003021924,新規,0,2025-04-14,2025-04-14,ＢＢＡ合同会社,,合同会社,兵庫県,尼崎市,蓬川町１０番地,,28,202,6600081,,,,,,,2025-04-14,1,,,,,ビービーエー,0
1837,6140005027457,新規,0,2025-04-14,2025-04-14,一般社団法人ＫＯＬＯＲ,,その他の設立登記法人,兵庫県,西宮市,獅子ケ口町１－３１,,28,204,6620026,,,,,,,2025-04-14,1,,,,,コロル,0
1839,6150003003558,新規,0,2025-04-14,2025-04-14,Ｅｎｂａｒｃ合同会社,,合同会社,奈良県,奈良市,朱雀５丁目４番地の１２,,29,201,6310806,,,,,,,2025-04-14,1,,,,,エンバーク,0
1848,6180001166354,新規,0,2025-04-14,2025-04-14,株式会社Ｎ’ｓｍｉｌｅ,,株式会社,愛知県,名古屋市南区,内田橋１丁目３４番２３号,,23,112,4570862,,,,,,,2025-04-14,1,,,,,エヌズマイル,0
1852,6180003028313,新規,0,2025-04-14,2025-04-14,合同会社あそび部,,合同会社,愛知県,名古屋市緑区,曽根２丁目２４４番地（コーポ浅見４０２号）,,23,114,4580035,,,,,,,2025-04-14,1,,,,,アソビブ,0
1853,6180003028321,新規,0,2025-04-14,2025-04-14,合同会社Ｊａｐａｎ．ｓｕｐｐｏｒｔ．ｓｅｒｖｉｃｅマツモトキヨシ,,合同会社,愛知県,海部郡大治町,大字砂子字尾崎４１番地センチュリーハイツ橘３０２号,,23,424,4901143,,,,,,,2025-04-14,1,,,,,ジャパンサポートサービスマツモトキヨシ,0
1863,6190001032159,新規,0,2025-04-14,2025-04-14,ＮＥＯＲＥＳＴＡ株式会社,,株式会社,三重県,四日市市,河原田町４６８番地２,,24,202,5100874,,,,,,,2025-04-14,1,,,,,ネオリスタ,0
1868,6230003002411,新規,0,2025-04-14,2025-04-14,イノブライト蓄電所合同会社,,合同会社,富山県,高岡市,昭和町２丁目３番８号,,16,202,9330946,,,,,,,2025-04-14,1,,,,,イノブライトチクデンショ,0
1874,6250005008999,新規,0,2025-04-14,2025-04-14,特定非営利活動法人スポーツクラブ翔雲,,その他の設立登記法人,山口県,山口市,吉敷下東２丁目１３番３２号,,35,203,7530814,,,,,,,2025-04-14,1,,,,,スポーツクラブショウウン,0
1878,6260001040071,新規,0,2025-04-14,2025-04-14,株式会社Ｋ‐ｔｕｎｅｓ,,株式会社,岡山県,岡山市北区,三和１０００－４５,,33,101,7011134,,,,,,,2025-04-14,1,,,,,ケイチューンズ,0
1880,6260005011465,新規,0,2025-04-14,2025-04-14,西粟倉事業協同組合,,その他の設立登記法人,岡山県,英田郡西粟倉村,大字長尾１４６４番地,,33,643,7070504,,,,,,,2025-04-14,1,,,,,ニシアワクラ,0
1891,6290001109624,新規,0,2025-04-14,2025-04-14,株式会社ＯＳ・Ｐａｒｔｎｅｒｓ,,株式会社,福岡県,久留米市,上津町２１９２番地１２４３,,40,203,8300052,,,,,,,2025-04-14,1,,,,,オーエスパートナーズ,0
1892,6290001109640,新規,0,2025-04-14,2025-04-14,黒崎物流株式会社,,株式会社,福岡県,福岡市東区,松島５丁目２９番３２号２階,,40,131,8130062,,,,,,,2025-04-14,1,,,,,クロサキブツリュウ,0
1893,6290001109707,新規,0,2025-04-14,2025-04-14,株式会社プライマリー・グループカンパニー,,株式会社,福岡県,糸島市,有田中央２丁目１４番６４号プライマリー糸島中央２０３号室,,40,230,8191127,,,,,,,2025-04-14,1,,,,,プライマリーグループカンパニー,0
1894,6290001109715,新規,0,2025-04-14,2025-04-14,株式会社鼎泰,,株式会社,福岡県,福岡市中央区,桜坂２丁目５番５２号,,40,133,8100024,,,,,,,2025-04-14,1,,,,,テイタイ,0
1919,6360001035037,新規,0,2025-04-14,2025-04-14,株式会社丸真,,株式会社,沖縄県,沖縄市,桃原３丁目２１番７号,,47,211,9042164,,,,,,,2025-04-14,1,,,,,マルシン,0
1923,6370003007033,新規,0,2025-04-14,2025-04-14,合同会社楽壽,,合同会社,宮城県,仙台市泉区,長命ケ丘４丁目２９番地の４,,04,105,9813212,,,,,,,2025-04-14,1,,,,,ラクジュ,0
1924,6370005010943,新規,0,2025-04-14,2025-04-14,土地家屋調査士法人森総合事務所,,その他の設立登記法人,宮城県,柴田郡大河原町,字住吉町９番地７,,04,321,9891213,,,,,,,2025-04-14,1,,,,,モリソウゴウジムショ,0
1929,6380005012955,新規,0,2025-04-14,2025-04-14,ＮＰＯ法人タイラボ,,その他の設立登記法人,福島県,いわき市,平字三町目８番地の２,,07,204,9708026,,,,,,,2025-04-14,1,,,,,タイラボ,0
1933,6410001014126,新規,0,2025-04-14,2025-04-14,株式会社イカワプラス,,株式会社,秋田県,南秋田郡井川町,北川尻字海老沢樋ノ口７８番地１,,05,366,0181512,,,,,,,2025-04-14,1,,,,,イカワプラス,0
1950,6470005006618,新規,0,2025-04-14,2025-04-14,中四国たばこ耕作組合,,その他の設立登記法人,香川県,高松市,西内町７番２３号,,37,201,7600022,,,,,,,2025-04-14,1,,,,,チュウシコク,0
1958,6700150129323,新規,0,2025-04-14,2025-04-14,ＡＣＳ　Ａｅｒｏ　４　Ｂｅｔａ　Ｌｉｍｉｔｅｄ,,外国会社等,,,,,,,,Ｂｌｏｃｋ　Ａ，Ｇｅｏｒｇｅ’ｓ　Ｑｕａｙ　Ｐｌａｚａ，Ｇｅｏｒｇｅ’ｓ　Ｑｕａｙ，Ｉｒｅｌａｎｄ,,,,,,2025-04-14,1,,,,,エーシーエスエアロフオーベータリミテツド,0
1960,6700150129901,新規,0,2025-04-14,2025-04-14,ＴＬＣ　Ｈｏｌｄｉｎｇｓ　Ｌｉｍｉｔｅｄ,,外国会社等,,,,,,,,ＦＬＡＴ　Ａ，１７／Ｆ，ＣＹＰＲＥＳＳ　ＣＯＵＲＴ　２　ＬＵＮＧ　ＰＡＫ　ＳＴＲＥＥＴ，ＷＯＲＬＤ－ＷＩＤＥ　ＧＡＲＤＥＮＳ，ＳＨＡＴＩＮ　Ｈｏｎｇ　Ｋｏｎｇ,,,,,,2025-04-14,1,,,,,テイーエルシーホールテイングズリミテツド,0
1961,6700150129918,新規,0,2025-04-14,2025-04-14,ＯＫＡＲＩＡ　ＰＶＴ　ＬＴＤ,,外国会社等,神奈川県,相模原市中央区,上溝７９７－７－２０１,,14,152,2520243,スリランカ民主社会主義共和国ＮＯ７８／２，ブルゴハテンナ、アクラナ、キャンディ,,,,,,2025-04-14,1,,,,,オカリアピーブイテイーエルテイーデイー,0
1962,6700150129926,新規,0,2025-04-14,2025-04-14,Ｇ．Ｍ．ＴＲＡＤＩＮＧ,,外国会社等,千葉県,山武郡横芝光町,新島５２１４番地３　オフィス４,,12,410,2891736,スリランカ民主社会主義共和国、キャンディ、マハイヤワ、Ｎｏ．８８／Ｃ,,,,,,2025-04-14,1,,,,,ジーエムトレーデイング,0
1963,6700150129934,新規,0,2025-04-14,2025-04-14,Ａ．Ｂ．Ｆ．ＭＯＴＯＲＳ　ＴＲＡＤＩＮＧ,,外国会社等,千葉県,山武市,木原１４００番地９Ａ,,12,237,2891212,スリランカ民主社会主義共和国、キャンディ、アクラナ、ドダンゴラ、Ｎｏ．６０／４,,,,,,2025-04-14,1,,,,,エービーエフモーターストレーデイング,0
1964,6700150129942,新規,0,2025-04-14,2025-04-14,Ｇ．Ｎ．Ｅｎｔｅｒｐｒｉｓｅｓ,,外国会社等,千葉県,匝瑳市,飯塚１１２５番地２棟オフィスＧ,,12,235,2892106,スリランカ民主社会主義共和国、ペピリヤワラ、アムヘナ、６９－３－１,,,,,,2025-04-14,1,,,,,ジーエヌエンタープライズ,0
1986,7010003047072,新規,0,2025-04-14,2025-04-14,城南デンキ合同会社,,合同会社,東京都,千代田区,神田和泉町１－６－１６ヤマトビル４０５,,13,101,1010024,,,,,,,2025-04-14,1,,,,,ジョウナンデンキ,0
1990,7010101016623,新規,0,2025-04-14,2025-04-14,株式会社ＥＭＵ,,株式会社,東京都,八王子市,散田町４丁目４０番１０号,,13,201,1930832,,,,,,,2025-04-14,1,,,,,イーエムユー,0
1996,7010401189482,新規,0,2025-04-14,2025-04-14,株式会社知恵乃屋,,株式会社,東京都,港区,東新橋１丁目６番３号ザロイヤルパークホテルアイコニック東京汐留２４Ｆ,,13,103,1050021,,,,,,,2025-04-14,1,,,,,チエノヤ,0
1997,7010401189557,新規,0,2025-04-14,2025-04-14,ＵＮＩＴＥＸコンポジット株式会社,,株式会社,東京都,港区,六本木３丁目４番５号コープ野村六本木ＩＩ１１３号室,00138760,13,103,1060032,,,,,,,2025-04-14,1,,,,,ユニテックスコンポジット,0
2004,7010501053910,新規,0,2025-04-14,2025-04-14,ナラン株式会社,,株式会社,東京都,台東区,根岸４丁目１６－３０－２０２,,13,106,1100003,,,,,,,2025-04-14,1,,,,,ナラン,0
2012,7010701047555,新規,0,2025-04-14,2025-04-14,株式会社Ｋソリューション,,株式会社,東京都,品川区,戸越１丁目１２－１３,,13,109,1420041,,,,,,,2025-04-14,1,,,,,ケイソリューション,0
2013,7010805003173,新規,0,2025-04-14,2025-04-14,一般社団法人フューチャースポーツコンサルティング,,その他の設立登記法人,東京都,大田区,中央８丁目３９番２号１０１号室,,13,111,1430024,,,,,,,2025-04-14,1,,,,,フューチャースポーツコンサルティング,0
2014,7010901057172,新規,0,2025-04-14,2025-04-14,株式会社Ｃｈａｎ,,株式会社,東京都,世田谷区,松原６丁目１２番１１－１０３号,,13,112,1560043,,,,,,,2025-04-14,1,,,,,チャン,0
2025,7011001168876,新規,0,2025-04-14,2025-04-14,株式会社ＫＡＵＮＡＬＯＡ,,株式会社,東京都,渋谷区,恵比寿南１丁目１４番９号アルティｕｎ３０１,,13,113,1500022,,,,,,,2025-04-14,1,,,,,カウナロア,0
2026,7011001168884,新規,0,2025-04-14,2025-04-14,ｓｅｑｕｅｎｔｉａｌ株式会社,,株式会社,東京都,目黒区,中町２丁目５０番１３号,,13,110,1530065,,,,,,,2025-04-14,1,,,,,シーケンシャル,0
2027,7011001168892,新規,0,2025-04-14,2025-04-14,株式会社Ｓｐａｃｅ　Ｊａｐａｎ,,株式会社,東京都,目黒区,目黒１丁目１番３３号,,13,110,1530063,,,,,,,2025-04-14,1,,,,,スペースジャパン,0
2028,7011001168901,新規,0,2025-04-14,2025-04-14,こうな姫株式会社,,株式会社,東京都,渋谷区,渋谷２丁目１９番１９号ワコー宮益坂ビル５階,,13,113,1500002,,,,,,,2025-04-14,1,,,,,コウナヒメ,0
2029,7011001168918,新規,0,2025-04-14,2025-04-14,株式会社フォロック,,株式会社,東京都,渋谷区,千駄ヶ谷５丁目３２番７号野村不動産南新宿ビル８階,,13,113,1510051,,,,,,,2025-04-14,1,,,,,フォロック,0
2030,7011001168926,新規,0,2025-04-14,2025-04-14,株式会社Ｄｅｒｅｙｓｓ,,株式会社,東京都,渋谷区,本町１丁目１０－３カスタリア初台７０５,,13,113,1510071,,,,,,,2025-04-14,1,,,,,ディレイス,0
2031,7011001169107,新規,0,2025-04-14,2025-04-14,ＳＴＪ　Ｃｒｅａｔｉｏｎｓ株式会社,,株式会社,東京都,渋谷区,恵比寿４丁目２０番３号恵比寿ガーデンプレイスタワー１８階,,13,113,1500013,,,,,,,2025-04-14,1,,,,,エスティージェイクリエーションズ,0
2034,7011003021380,新規,0,2025-04-14,2025-04-14,Ａｉ　Ｓｅｎｓｉｎｇ合同会社,,合同会社,東京都,渋谷区,道玄坂１丁目１２－１渋谷マークシティ２２Ｆ,,13,113,1500043,,,,,,,2025-04-14,1,,,,,エーアイセンシング,0
2039,7011103015753,新規,0,2025-04-14,2025-04-14,オフィスＹ合同会社,,合同会社,東京都,新宿区,富久町３番８号,,13,104,1620067,,,,,,,2025-04-14,1,,,,,オフィスワイ,0
2041,7011301030496,新規,0,2025-04-14,2025-04-14,株式会社ＮＯＮＮＯＮ　ＪＡＰＡＮ,,株式会社,東京都,杉並区,高円寺南４丁目４１番９号,,13,115,1660003,,,,,,,2025-04-14,1,,,,,ノンノンジャパン,0
2046,7011501031914,新規,0,2025-04-14,2025-04-14,アミカルコンサルティング株式会社,,株式会社,東京都,北区,滝野川１丁目１７番１４号,,13,117,1140023,,,,,,,2025-04-14,1,,,,,アミカルコンサルティング,0
2049,7011701028256,新規,0,2025-04-14,2025-04-14,ＡＡＹＡＴ　ＩＮＴＥＲＮＡＴＩＯＮＡＬ株式会社,,株式会社,東京都,江戸川区,東篠崎１丁目７番８－５０２号,,13,123,1330063,,,,,,,2025-04-14,1,,,,,アアヤットインターナショナル,0
2053,7011801045969,新規,0,2025-04-14,2025-04-14,明大貿易株式会社,,株式会社,東京都,葛飾区,東金町３丁目１７－１０ＫＢＳ、Ｃ－１号,,13,122,1250041,,,,,,,2025-04-14,1,,,,,メイダイボウエキ,0
2054,7011803006804,新規,0,2025-04-14,2025-04-14,丹華合同会社,,合同会社,東京都,足立区,小台１丁目２２－２尾久橋スカイハイツ７１５号室,,13,121,1200046,,,,,,,2025-04-14,1,,,,,タンカ,0
2060,7013301054079,新規,0,2025-04-14,2025-04-14,株式会社ＴＯＭＡＳ,,株式会社,東京都,豊島区,目白３丁目１番４０号,,13,116,1710031,,,,,,,2025-04-14,1,,,,,トーマス,0
2066,7020001162087,新規,0,2025-04-14,2025-04-14,株式会社エヌエスワークス,,株式会社,神奈川県,川崎市麻生区,下麻生１丁目３０番９号,,14,137,2150022,,,,,,,2025-04-14,1,,,,,エヌエスワークス,0
2067,7020001162343,新規,0,2025-04-14,2025-04-14,日木斤株式会社,,株式会社,神奈川県,横浜市神奈川区,金港町５－１４クアドリフォリオ８階,,14,102,2210056,,,,,,,2025-04-14,1,,,,,ヒキキン,0
2071,7020003028278,新規,0,2025-04-14,2025-04-14,合同会社アミソノーレ,,合同会社,神奈川県,川崎市宮前区,宮前平２丁目３－６－１０１,,14,136,2160006,,,,,,,2025-04-14,1,,,,,アミソノーレ,0
2072,7020003028286,新規,0,2025-04-14,2025-04-14,ＳＲ合同会社,,合同会社,神奈川県,横浜市南区,白妙町２丁目７－１０グランパーク横濱南５０４,,14,105,2320023,,,,,,,2025-04-14,1,,,,,エスアール,0
2073,7020005016792,新規,0,2025-04-14,2025-04-14,一般社団法人横浜市地球温暖化対策推進協議会,,その他の設立登記法人,神奈川県,横浜市中区,元浜町４丁目３２番地県民共済馬車道ビル８階,,14,104,2310004,,,,,,,2025-04-14,1,,,,,ヨコハマシチキュウオンダンカタイサクスイシンキョウカイ,0
2075,7021003015869,新規,0,2025-04-14,2025-04-14,合同会社ＮＳｎｅｖｅｒ,,合同会社,神奈川県,相模原市緑区,東橋本２丁目２２番１号ラインハイム３５－１０２,,14,151,2520144,,,,,,,2025-04-14,1,,,,,エヌエスネバー,0
2085,7030001165956,新規,0,2025-04-14,2025-04-14,３ＲＤ株式会社,,株式会社,埼玉県,さいたま市北区,櫛引町２丁目４７８番地１,,11,102,3310825,,,,,,,2025-04-14,1,,,,,サンアールデー,0
2092,7040001138218,新規,0,2025-04-14,2025-04-14,株式会社約櫃,,株式会社,千葉県,市原市,ちはら台西２丁目３番地８しののめビル４階４０１室,,12,219,2900143,,,,,,,2025-04-14,1,,,,,ヤクヒツ,0
2093,7040001138325,新規,0,2025-04-14,2025-04-14,株式会社ＢＣＭ,,株式会社,千葉県,千葉市花見川区,天戸町１４７４番地２２,,12,102,2620043,,,,,,,2025-04-14,1,,,,,ビーシーエム,0
2094,7040003027311,新規,0,2025-04-14,2025-04-14,合同会社グラッドベスト,,合同会社,千葉県,銚子市,垣根町１丁目２８５番地の３,,12,202,2880835,,,,,,,2025-04-14,1,,,,,グラッドベスト,0
2100,7060001038093,新規,0,2025-04-14,2025-04-14,エヌシステム株式会社,,株式会社,栃木県,那須塩原市,青木１９５９番地３,,09,213,3250103,,,,,,,2025-04-14,1,,,,,エヌシステム,0
2101,7060003005496,新規,0,2025-04-14,2025-04-14,合同会社ＯＬＩＶ,,合同会社,栃木県,小山市,三峯２丁目５番７号ロイヤルメゾネットＡ号棟,,09,208,3230821,,,,,,,2025-04-14,1,,,,,オリーヴ,0
2111,7080403005243,新規,0,2025-04-14,2025-04-14,合同会社ＧＡＺｅｌｌｅ,,合同会社,静岡県,磐田市,笠梅１５０９,,22,211,4380011,,,,,,,2025-04-14,1,,,,,ジーエーゼーレ,0
2114,7090001019215,新規,0,2025-04-14,2025-04-14,Ａｖａｎｔ　ＧＤ株式会社,,株式会社,山梨県,甲府市,上積翠寺町１６６１番地,,19,201,4000011,,,,,,,2025-04-14,1,,,,,アヴァントジーディー,0
2115,7090005007694,新規,0,2025-04-14,2025-04-14,一般社団法人やまなしソーシャルイノベーションセンター,,その他の設立登記法人,山梨県,甲府市,中央４丁目１２番２１号,,19,201,4000032,,,,,,,2025-04-14,1,,,,,ヤマナシソーシャルイノベーションセンター,0
2120,7100001038502,新規,0,2025-04-14,2025-04-14,ジョイント株式会社,,株式会社,長野県,上田市,古里２０６５番地１５,,20,203,3860005,,,,,,,2025-04-14,1,,,,,ジョイント,0
2123,7110005017212,新規,0,2025-04-14,2025-04-14,一般社団法人小千谷観光協会,,その他の設立登記法人,新潟県,小千谷市,城内１丁目８番２５号,,15,208,9470028,,,,,,,2025-04-14,1,,,,,オヂヤカンコウキョウカイ,0
2135,7120001274236,新規,0,2025-04-14,2025-04-14,高鵬株式会社,,株式会社,大阪府,大阪市東住吉区,住道矢田５丁目１２－１０－１０２号室,,27,121,5460022,,,,,,,2025-04-14,1,,,,,コウホウ,0
2136,7120001274277,新規,0,2025-04-14,2025-04-14,株式会社コクリワーク,,株式会社,大阪府,大阪市西区,北堀江１丁目６番２号サンワールドビル,,27,106,5500014,,,,,,,2025-04-14,1,,,,,コクリワーク,0
2137,7120001274376,新規,0,2025-04-14,2025-04-14,抹茶日本サービス株式会社,,株式会社,大阪府,大阪市浪速区,芦原２丁目５番４８号,,27,111,5560029,,,,,,,2025-04-14,1,,,,,マッチャニホンサービス,0
2138,7120001274426,新規,0,2025-04-14,2025-04-14,Ｘ＆Ｍ国際貿易株式会社,,株式会社,大阪府,大阪市港区,港晴３丁目７番１５号アワーハウス港晴２０１号室,,27,107,5520023,,,,,,,2025-04-14,1,,,,,エックスアンドエムコクサイボウエキ,0
2139,7120001274450,新規,0,2025-04-14,2025-04-14,ＳＵＰＰ　ＪＡＰＡＮ株式会社,,株式会社,大阪府,大阪市北区,梅田３丁目２番１２３号,,27,127,5300001,,,,,,,2025-04-14,1,,,,,サップジャパン,0
2140,7120001274459,新規,0,2025-04-14,2025-04-14,株式会社ジョブチェンジ,,株式会社,大阪府,大阪市西区,新町１丁目６番２３号,,27,106,5500013,,,,,,,2025-04-14,1,,,,,ジョブチェンジ,0
2141,7120001274467,新規,0,2025-04-14,2025-04-14,株式会社ＬＳＯ,,株式会社,大阪府,大阪市北区,中津１丁目１２番１１号,,27,127,5310071,,,,,,,2025-04-14,1,,,,,エルエスオー,0
2142,7120001274491,新規,0,2025-04-14,2025-04-14,喀酷株式会社,,株式会社,大阪府,大阪市大正区,三軒家西３丁目４番１６号中山ビル２１８Ａ,,27,108,5510001,,,,,,,2025-04-14,1,,,,,カクコク,0
2143,7120001274509,新規,0,2025-04-14,2025-04-14,嘉通株式会社,,株式会社,大阪府,大阪市中央区,谷町１丁目５番７号ストークビル天満橋７０１,,27,128,5400012,,,,,,,2025-04-14,1,,,,,カツウ,0
2144,7120001274533,新規,0,2025-04-14,2025-04-14,あい・メディカルＣａｒｅ株式会社,,株式会社,大阪府,大阪市天王寺区,上汐３丁目２－１７,,27,109,5430002,,,,,,,2025-04-14,1,,,,,アイメディカルケア,0
2145,7120001274558,新規,0,2025-04-14,2025-04-14,株式会社ストックフォルム,,株式会社,大阪府,大阪市西区,西本町１丁目２番１号ＡＸＩＳ本町ビル８０２,,27,106,5500005,,,,,,,2025-04-14,1,,,,,ストックフォルム,0
2146,7120001274574,新規,0,2025-04-14,2025-04-14,株式会社ＷＨＩＴＥＳＴＡＧＥ,,株式会社,大阪府,大阪市西成区,南津守７丁目２番６号,,27,122,5570063,,,,,,,2025-04-14,1,,,,,ホワイトステージ,0
2147,7120001274640,新規,0,2025-04-14,2025-04-14,株式会社レインディア,,株式会社,大阪府,大阪市東住吉区,南田辺３丁目１９番２４号,,27,121,5460033,,,,,,,2025-04-14,1,,,,,レインディア,0
2148,7120001274863,新規,0,2025-04-14,2025-04-14,株式会社フューチャー,,株式会社,大阪府,枚方市,尊延寺３丁目１５番１２号,,27,210,5730112,,,,,,,2025-04-14,1,,,,,フューチャー,0
2150,7120003029092,新規,0,2025-04-14,2025-04-14,合同会社ニシ,,合同会社,大阪府,大阪市北区,梅田１丁目２番２号大阪駅前第２ビル１２－１２,,27,127,5300001,,,,,,,2025-04-14,1,,,,,ニシ,0
2155,7120101071450,新規,0,2025-04-14,2025-04-14,株式会社山水社,,株式会社,大阪府,堺市中区,土師町５丁２１番５号,,27,142,5998238,,,,,,,2025-04-14,1,,,,,サンスイシャ,0
2157,7120103006396,新規,0,2025-04-14,2025-04-14,佳宝合同会社,,合同会社,大阪府,貝塚市,海塚１丁目１９番６号ビバ・イチヨシ２０１号室,,27,208,5970083,,,,,,,2025-04-14,1,,,,,カホウ,0
2160,7120901050711,新規,0,2025-04-14,2025-04-14,株式会社ランドネ,,株式会社,大阪府,吹田市,五月が丘南９番１０号ブールヴァール五月が丘１０１号,,27,205,5650832,,,,,,,2025-04-14,1,,,,,ランドネ,0
2166,7140001138158,新規,0,2025-04-14,2025-04-14,株式会社Ｔｒａｎｚａｍ,,株式会社,兵庫県,西宮市,若山町１０番９号,,28,204,6638016,,,,,,,2025-04-14,1,,,,,トランザム,0
2167,7140001138166,新規,0,2025-04-14,2025-04-14,株式会社バンタン,,株式会社,兵庫県,多可郡多可町,八千代区仕出原６９７番地１５,,28,365,6770114,,,,,,,2025-04-14,1,,,,,バンタン,0
2175,7140003021931,新規,0,2025-04-14,2025-04-14,合同会社ｌｏｕｔ,,合同会社,兵庫県,明石市,貴崎４丁目１２番１０号,,28,203,6730037,,,,,,,2025-04-14,1,,,,,ラウト,0
2176,7140005027431,新規,0,2025-04-14,2025-04-14,医療法人社団光風会,,その他の設立登記法人,兵庫県,神戸市中央区,三宮町２丁目１１－１センタープラザ西館７０９号,,28,110,6500021,,,,,,,2025-04-14,1,,,,,コウフウカイ,0
2178,7170003002185,新規,0,2025-04-14,2025-04-14,合名会社有田カムイ,,合名会社,和歌山県,有田市,箕島２７７番地１,,30,204,6490304,,,,,,,2025-04-14,1,,,,,アリダカムイ,0
2185,7180001166304,新規,0,2025-04-14,2025-04-14,株式会社ａ　ｂｙ　ｆ,,株式会社,愛知県,一宮市,開明字西出１５番地４,,23,203,4940001,,,,,,,2025-04-14,1,,,,,エーバイエフ,0
2186,7180001166337,新規,0,2025-04-14,2025-04-14,株式会社サンクチュアリ,,株式会社,愛知県,名古屋市中村区,名駅４丁目２４番５号第２森ビル４０１,,23,105,4500002,,,,,,,2025-04-14,1,,,,,サンクチュアリ,0
2190,7180005021050,新規,0,2025-04-14,2025-04-14,愛知県木炭協同組合,,その他の設立登記法人,愛知県,知多郡武豊町,字西門６７番地３６アークフラッツ３０５号,,23,447,4702345,,,,,,,2025-04-14,1,,,,,アイチケンモクタン,0
2194,7180301039696,新規,0,2025-04-14,2025-04-14,ロコモーション株式会社,,株式会社,愛知県,岡崎市,鴨田町字広元２１７番地,,23,202,4442121,,,,,,,2025-04-14,1,,,,,ロコモーション,0
2199,7200001043649,新規,0,2025-04-14,2025-04-14,ＳＡＮＡ　ＴＲＡＤＩＮＧ株式会社,,株式会社,岐阜県,関市,市平賀１６１番地２、３号,,21,205,5013822,,,,,,,2025-04-14,1,,,,,サナトレーディング,0
2208,7220001026619,新規,0,2025-04-14,2025-04-14,株式会社ｙｏｉ,,株式会社,石川県,金沢市,無量寺５丁目５６番地２（サンライズＩ・１０６号）,,17,201,9200333,,,,,,,2025-04-14,1,,,,,ヨイ,0
2220,7240001064798,新規,0,2025-04-14,2025-04-14,株式会社日高組,00138753,株式会社,広島県,福山市,御門町２丁目７番１５－２０４号,,34,207,7200805,,,,,,,2025-04-14,1,,,,,ヒダカグミ,0
2222,7250001021096,新規,0,2025-04-14,2025-04-14,株式会社プラントテクニカルサービス,,株式会社,山口県,下関市,秋根南町２丁目７番１１号,,35,201,7510872,,,,,,,2025-04-14,1,,,,,プラントテクニカルサービス,0
2225,7260005011464,新規,0,2025-04-14,2025-04-14,社会福祉法人慈弘会,,その他の設立登記法人,岡山県,笠岡市,走出１３０７番地,,33,205,7140001,,,,,,,2025-04-14,1,,,,,ジコウカイ,0
2226,7260005011472,新規,0,2025-04-14,2025-04-14,一般社団法人ＩＢＡＤＵＲＲＡＨＭＡＮ　ＩＳＬＡＭＩＣ　ＣＥＮＴＥＲ,,その他の設立登記法人,岡山県,岡山市北区,庭瀬１８７番地１,,33,101,7010153,,,,,,,2025-04-14,1,,,,,イバドゥルラフマンイスラミックセンター,0
2228,7280001009403,新規,0,2025-04-14,2025-04-14,株式会社松幸,,株式会社,島根県,松江市,宍道町白石７７番地３９,,32,201,6990402,,,,,,,2025-04-14,1,,,,,マツコウ,0
2241,7290001109706,新規,0,2025-04-14,2025-04-14,株式会社Ｙ．＆Ｌ．ＨＡＲＡＳＡＷＡ,,株式会社,福岡県,福岡市中央区,地行浜１丁目６番１５号,,40,133,8100065,,,,,,,2025-04-14,1,,,,,ワイアンドエルハラサワ,0
2247,7290003016677,新規,0,2025-04-14,2025-04-14,合同会社Ｋランド,,合同会社,福岡県,大野城市,大池２丁目１８番１３号,,40,219,8160904,,,,,,,2025-04-14,1,,,,,ケーランド,0
2248,7290003016702,新規,0,2025-04-14,2025-04-14,合同会社ＡＬＬ　ＩＮ,,合同会社,福岡県,福岡市博多区,博多駅中央街５－１１第１３泰平ビル３Ｆ３号,,40,132,8120012,,,,,,,2025-04-14,1,,,,,オールイン,0
2251,7290801031448,新規,0,2025-04-14,2025-04-14,株式会社ＲＳ,,株式会社,福岡県,北九州市八幡西区,茶売町１０番１５－２０３号,,40,109,8060069,,,,,,,2025-04-14,1,,,,,アールエス,0
2254,7330001033091,新規,0,2025-04-14,2025-04-14,株式会社Ｔｒａｖｅｌ,,株式会社,熊本県,天草市,南新町１３番地１１,,43,215,8630031,,,,,,,2025-04-14,1,,,,,トラベル,0
2259,7340003004800,新規,0,2025-04-14,2025-04-14,合同会社Ｋ‐３,,合同会社,鹿児島県,大島郡伊仙町,大字喜念１５５０番地,,46,532,8918111,,,,,,,2025-04-14,1,,,,,ケイスリー,0
2262,7370001052468,新規,0,2025-04-14,2025-04-14,株式会社せせらぎ,,株式会社,宮城県,仙台市青葉区,一番町１丁目１５番１１－１５０４号,,04,101,9800811,,,,,,,2025-04-14,1,,,,,セセラギ,0
2265,7380005012954,新規,0,2025-04-14,2025-04-14,一般社団法人川にさめ,,その他の設立登記法人,福島県,東白川郡鮫川村,大字赤坂東野字蕨ノ草１９８番地２,,07,484,9638403,,,,,,,2025-04-14,1,,,,,カワニサメ,0
2270,7410001014125,新規,0,2025-04-14,2025-04-14,株式会社ＳＰＧＦ秋田,,株式会社,秋田県,秋田市,中通３丁目１番９号,,05,201,0100001,,,,,,,2025-04-14,1,,,,,エスピージーエフアキタ,0
2279,7460101007701,新規,0,2025-04-14,2025-04-14,株式会社Ｎプラン,,株式会社,北海道,河東郡音更町,南鈴蘭南４丁目４番地４,,01,631,0800312,,,,,,,2025-04-14,1,,,,,エヌプラン,0
2280,7470001020662,新規,0,2025-04-14,2025-04-14,ＯｎｅＬｉｆｅ株式会社,,株式会社,香川県,坂出市,川津町３５７０番地,,37,203,7620025,,,,,,,2025-04-14,1,,,,,ワンライフ,0
2295,7700150101693,新規,0,2025-04-14,2021-01-18,西江原キッズ運営委員会,,その他,岡山県,井原市,西江原町５６３,,33,207,7150006,,,,,,,2021-01-18,1,,,,,ニシエバラキツズウンエイイインカイ,0
2296,7700150129470,新規,0,2025-04-14,2025-04-14,ＮＩＮＧＢＯ　ＵＬＴＲＡ　ＴＥＣＨ　ＣＯ　ＬＴＤ,,外国会社等,,,,,,,,ＺＨＥ　ＪＩＡＮＧ　ＳＨＥＮＧ　ＮＩＮＧ　ＢＯ　ＳＨＩ　ＨＡＩ　ＳＨＵ　ＱＵ　ＳＨＩ　ＱＩ　ＪＩＥ　ＤＡＯ　ＲＯＮＧ　ＪＩＡＮＧ　ＱＩ　ＬＵ　１９８ＨＡＯ（ＷＥＩ　ＬＡＩ　ＨＵＩ　ＧＵ　ＣＨＡＮ　ＹＥ　ＹＵＡＮ　ＮＥＩ　２ＨＡＯ　ＬＯＵ　５Ｆ－１）,,,,,,2025-04-14,1,,,,,ニンボウルトラテックカンパニーリミテッド,0
2297,7700150129909,新規,0,2025-04-14,2025-04-14,ＨＵ　ＢＥＩ　ＷＥＩ　ＭＩＮＧ　ＫＥ　ＪＩ　ＹＯＵ　ＸＩＡＮ　ＧＯＮＧ　ＳＩ,,外国会社等,,,,,,,,Ｎｏ．３　Ｆａｃｔｏｒｙ　Ｂｕｉｌｄｉｎｇ　ｉｎ　Ｚｈｏｎｇｊｉｅ　Ｋｅｚｅ　Ｓｃｉｅｎｃｅ　ａｎｄ　Ｔｅｃｈｎｏｌｏｇｙ　Ｃｏｍｐａｎｙ　Ｘｉｎｇｙｅ　Ｓｏｕｔｈ　Ｒｏａｄ　Ｂｏｌａｎ　Ｗｅｓｔ　Ｒｏａｄ　Ｘｉａｏｄｏｎｇ　Ｓｔｒｅｅｔ　Ｏｆｆｉｃｅ　Ｈａｎｃｈｕａｎ　Ｃｉｔｙ，Ｘｉａｏｇａｎ　Ｃｉｔｙ　Ｈｕｂｅｉ　Ｐｒｏｖｉｎｃｅ　ＣＮ,,,,,,2025-04-14,1,,,,,フベイウェイミンカギユウゲンコウシ,0
2298,7700150129917,新規,0,2025-04-14,2025-04-14,ＳＵＸＵＳ　ＭＯＢＩＬＥＰＶＴＬＴＤ．,,外国会社等,神奈川県,綾瀬市,深谷中７丁目２８番３０号ドミトリーミカミ２０２,,14,218,2521107,スリランカ，ヒングッラ，ガネータンナ，アランベワッタ，Ｎｏ１１７,,,,,,2025-04-14,1,,,,,サクサスモバイルピーブイテイーエルテイーデイー,0
2299,7700150129925,新規,0,2025-04-14,2025-04-14,Ｓ　Ｓ　Ｒ　ＣＡＲ　ＳＡＬＥ,,外国会社等,千葉県,八街市,東吉田７２５番地ビジネスオフィス３９号,,12,230,2891114,スリランカ民主社会主義共和国、ミリガマ、パスヤラギリウッラロード、Ｎｏ．１Ａ,,,,,,2025-04-14,1,,,,,エスエスアールカーセール,0
2300,7700150129933,新規,0,2025-04-14,2025-04-14,ＷＩＳＨ　ＭＯＴＯＲＳ,,外国会社等,千葉県,山武市,横田１０６７番地３５Ｂ,,12,237,2891226,スリランカ民主社会主義共和国、アンバテンナ、キャンディロード、Ｎｏ．３２／５,,,,,,2025-04-14,1,,,,,ウイツシユモータース,0
2301,7700150129941,新規,0,2025-04-14,2025-04-14,ＤＥＮＳＯ　ＡＵＴＯ　ＴＲＡＤＩＮＧ,,外国会社等,千葉県,八街市,東吉田３５８－４オフィース－Ｃ,,12,230,2891114,スリランカ民主社会主義共和国、Ｎｏ．３８９／Ｄ、マリナシティロード、デヒベラ、マウントリビニア,,,,,,2025-04-14,1,,,,,デンソオートトレーデイング,0
2314,8010005039892,新規,0,2025-04-14,2025-04-14,一般社団法人尾上菊五郎劇団音楽部,,その他の設立登記法人,東京都,中央区,銀座１丁目１２番４号Ｎ＆ＥＢＬＤ．６Ｆ,,13,102,1040061,,,,,,,2025-04-14,1,,,,,オガミキクゴロウゲキダンオンガクブ,0
2320,8010401189374,新規,0,2025-04-14,2025-04-14,株式会社Ｅｌａｓｔｉｃ　Ｉｎｆｒａ,,株式会社,東京都,港区,麻布台１丁目３番１号,,13,103,1060041,,,,,,,2025-04-14,1,,,,,エラスティックインフラ,0
2321,8010401189589,新規,0,2025-04-14,2025-04-14,エングロービスプロ株式会社,,株式会社,東京都,港区,新橋４丁目１４番１号新橋ＡＵＮＢＬＤＧ４階,,13,103,1050004,,,,,,,2025-04-14,1,,,,,エングロービスプロ,0
2322,8010401189614,新規,0,2025-04-14,2025-04-14,株式会社ｔｉｔｌｅｆａｍ,,株式会社,東京都,港区,海岸１丁目７番１号東京ポートシティ竹芝８Ｆ,,13,103,1050022,,,,,,,2025-04-14,1,,,,,タイトルファム,0
2326,8010405024239,新規,0,2025-04-14,2025-04-14,一般社団法人歌劇セカンドキャリア活性化推進機構,,その他の設立登記法人,東京都,港区,新橋４丁目２９番１－１００５号,,13,103,1050004,,,,,,,2025-04-14,1,,,,,カゲキセカンドキャリアカッセイカスイシンキコウ,0
2327,8010405024247,新規,0,2025-04-14,2025-04-14,一般社団法人牧ノ原バイオガス発電所,,その他の設立登記法人,東京都,港区,芝大門２丁目１２番３号,,13,103,1050012,,,,,,,2025-04-14,1,,,,,マキノハラバイオガスハツデンショ,0
2328,8010405024255,新規,0,2025-04-14,2025-04-14,一般社団法人Ｄ２Ｃの会,,その他の設立登記法人,東京都,港区,台場２丁目３番１号トレードピアお台場２０階,,13,103,1350091,,,,,,,2025-04-14,1,,,,,ディーツーシーノカイ,0
2330,8010601067108,新規,0,2025-04-14,2025-04-14,株式会社ビーファット,,株式会社,東京都,墨田区,墨田５丁目５番２号Ｒビル墨田２階,,13,107,1310031,,,,,,,2025-04-14,1,,,,,ビーファット,0
2331,8010801036052,新規,0,2025-04-14,2025-04-14,株式会社ＹＤＫ,,株式会社,東京都,大田区,西六郷３丁目６番８－５０２号,,13,111,1440056,,,,,,,2025-04-14,1,,,,,ワイディーケー,0
2336,8011001168603,新規,0,2025-04-14,2025-04-14,株式会社アスマリ,,株式会社,東京都,渋谷区,道玄坂１丁目１０番８号渋谷道玄坂東急ビル２Ｆ－Ｃ,,13,113,1500043,,,,,,,2025-04-14,1,,,,,アスマリ,0
2337,8011001168850,新規,0,2025-04-14,2025-04-14,株式会社ふるなび電力,,株式会社,東京都,渋谷区,渋谷３丁目２６番２０号,,13,113,1500002,,,,,,,2025-04-14,1,,,,,フルナビデンリョク,0
2338,8011001168859,新規,0,2025-04-14,2025-04-14,ギムワラプロダクション株式会社,,株式会社,東京都,渋谷区,富ヶ谷１丁目３５番１０号ルエ真洋１０２,,13,113,1510063,,,,,,,2025-04-14,1,,,,,ギムワラプロダクション,0
2339,8011001168867,新規,0,2025-04-14,2025-04-14,株式会社ＤＯＤＯＤＯ,,株式会社,東京都,渋谷区,渋谷２丁目１９番１５号宮益坂ビルディング６０９,,13,113,1500002,,,,,,,2025-04-14,1,,,,,ドドド,0
2340,8011001168875,新規,0,2025-04-14,2025-04-14,ｕｎｌｏｃａｌ株式会社,,株式会社,東京都,渋谷区,富ヶ谷１丁目７番９号,,13,113,1510063,,,,,,,2025-04-14,1,,,,,アンローカル,0
2341,8011001168900,新規,0,2025-04-14,2025-04-14,株式会社ＬｕｍｉＮｙｔｅ,,株式会社,東京都,渋谷区,円山町５番５号Ｎａｖｉ渋谷Ｖ３階,,13,113,1500044,,,,,,,2025-04-14,1,,,,,ルミナイト,0
2342,8011001168933,新規,0,2025-04-14,2025-04-14,ＬｉｎｋＨｕｂ株式会社,,株式会社,東京都,渋谷区,渋谷２丁目２１番１号渋谷ヒカリエ３３Ｆ,,13,113,1500002,,,,,,,2025-04-14,1,,,,,リンクハブ,0
2343,8011001168941,新規,0,2025-04-14,2025-04-14,Ｉｓｈｉｎｏｖａ株式会社,,株式会社,東京都,渋谷区,渋谷２丁目１９－１５宮益坂ビルディング６０９,,13,113,1500002,,,,,,,2025-04-14,1,,,,,イシノバ,0
2344,8011001168958,新規,0,2025-04-14,2025-04-14,株式会社恵相,,株式会社,東京都,渋谷区,恵比寿南２丁目２５－１－６０３,,13,113,1500022,,,,,,,2025-04-14,1,,,,,ケイソウ,0
2345,8011003021322,新規,0,2025-04-14,2025-04-14,合同会社リファクター,,合同会社,東京都,渋谷区,神宮前６丁目２３番４号桑野ビル２階,,13,113,1500001,,,,,,,2025-04-14,1,,,,,リファクター,0
2346,8011003021396,新規,0,2025-04-14,2025-04-14,ジェーシーアンドアソシエイツ合同会社,,合同会社,東京都,渋谷区,神南１丁目１１番４号ＦＰＧリンクス神南５階,,13,113,1500041,,,,,,,2025-04-14,1,,,,,ジェーシーアンドアソシエイツ,0
2348,8011101111215,新規,0,2025-04-14,2025-04-14,株式会社Ｊｕｐｉｔｅｒ,,株式会社,東京都,新宿区,下落合４丁目２４番２１号,,13,104,1610033,,,,,,,2025-04-14,1,,,,,ジュピター,0
2350,8011103015752,新規,0,2025-04-14,2025-04-14,ＦｕｎＦａｃｔ合同会社,,合同会社,東京都,新宿区,市谷薬王寺町１３－５,,13,104,1620063,,,,,,,2025-04-14,1,,,,,ファンファクト,0
2352,8011203004671,新規,0,2025-04-14,2025-04-14,合同会社スウィートエモーション,,合同会社,東京都,中野区,中野５丁目５６番１０号第９８東京ビル４階,,13,114,1640001,,,,,,,2025-04-14,1,,,,,スウィートエモーション,0
2355,8011501031921,新規,0,2025-04-14,2025-04-14,ＤａｔａＰｒｏ株式会社,,株式会社,東京都,荒川区,南千住８丁目８番１－１８１０号,,13,118,1160003,,,,,,,2025-04-14,1,,,,,データプロ,0
2356,8011503006483,新規,0,2025-04-14,2025-04-14,合同会社ポーラースター蓄電所２号,,合同会社,東京都,荒川区,町屋３丁目２番１号Ｂ１Ｆ,,13,118,1160001,,,,,,,2025-04-14,1,,,,,ポーラースターチクデンショニゴウ,0
2360,8011701028255,新規,0,2025-04-14,2025-04-14,阿里株式会社,,株式会社,東京都,江戸川区,西小岩５丁目１３番１３小出マンション１６９号室,,13,123,1330057,,,,,,,2025-04-14,1,,,,,アリ,0
2363,8011801045927,新規,0,2025-04-14,2025-04-14,株式会社ＮＩＣＥ,,株式会社,東京都,葛飾区,柴又２丁目２１－１３,,13,122,1250052,,,,,,,2025-04-14,1,,,,,ナイス,0
2364,8011801045943,新規,0,2025-04-14,2025-04-14,株式会社ＡＳＨＩＫＡＧＡ,,株式会社,東京都,足立区,西新井本町４丁目２－１０－３０４,,13,121,1230845,,,,,,,2025-04-14,1,,,,,アシカガ,0
2368,8012801023897,新規,0,2025-04-14,2025-04-14,株式会社武蔵野建創,,株式会社,東京都,立川市,上砂町１丁目１３番地の１、１５－３－１０５,,13,202,1900032,,,,,,,2025-04-14,1,,,,,ムサシノケンソウ,0
2370,8013301054078,新規,0,2025-04-14,2025-04-14,株式会社ノア,,株式会社,東京都,豊島区,池袋３丁目６７－１０－２階,,13,116,1710014,,,,,,,2025-04-14,1,,,,,ノア,0
2375,8020001162391,新規,0,2025-04-14,2025-04-14,株式会社ＫＡＳＵＭＹ,,株式会社,神奈川県,横浜市神奈川区,金港町５－１４クアドリフォリオ８階,,14,102,2210056,,,,,,,2025-04-14,1,,,,,カスミー,0
2377,8020003028285,新規,0,2025-04-14,2025-04-14,美オウエン合同会社,,合同会社,神奈川県,横浜市磯子区,東町１８番８号ダイアパレス根岸８１７号室,,14,107,2350005,,,,,,,2025-04-14,1,,,,,ビオウエン,0
2378,8020005016759,新規,0,2025-04-14,2025-04-14,一般社団法人ＭＩＲＡＴＯＢＩ,,その他の設立登記法人,神奈川県,横浜市金沢区,泥亀１丁目１６番１３号サハラビル２階,,14,108,2360021,,,,,,,2025-04-14,1,,,,,ミラトビ,0
2379,8020005016783,新規,0,2025-04-14,2025-04-14,社会福祉法人横浜ＳＳＪ,,その他の設立登記法人,神奈川県,横浜市南区,高根町３丁目１７番１２号ＫＳビル６階,,14,105,2320022,,,,,,,2025-04-14,1,,,,,ヨコハマエスエスジェイ,0
2380,8020005016800,新規,0,2025-04-14,2025-04-14,一般社団法人ＦＩＣＳアカデミー,,その他の設立登記法人,神奈川県,横浜市旭区,中希望が丘９４－３３リーフビル新館２０８,,14,112,2410825,,,,,,,2025-04-14,1,,,,,フィクスアカデミー,0
2401,8030003026569,新規,0,2025-04-14,2025-04-14,くらしえ合同会社,,合同会社,埼玉県,さいたま市浦和区,上木崎６丁目２７番４－１号,,11,107,3300071,,,,,,,2025-04-14,1,,,,,クラシエ,0
2407,8040001138308,新規,0,2025-04-14,2025-04-14,株式会社Ａｔｈｌｅａｄ　Ｋｉｄｓ,,株式会社,千葉県,市川市,中国分３丁目１５番３０号,,12,203,2720835,,,,,,,2025-04-14,1,,,,,アスリードキッズ,0
2408,8040001138332,新規,0,2025-04-14,2025-04-14,株式会社コア・バリュー,,株式会社,千葉県,船橋市,前原四丁目３０番３０号,,12,204,2730000,,,,,,,2025-04-14,1,,,,,コアバリュー,0
2409,8040001138340,新規,0,2025-04-14,2025-04-14,株式会社大樹,,株式会社,千葉県,市原市,西広５丁目２番地３,,12,219,2900022,,,,,,,2025-04-14,1,,,,,タイジュ,0
2410,8040003027319,新規,0,2025-04-14,2025-04-14,合同会社蒼,,合同会社,千葉県,千葉市緑区,あすみが丘２丁目２０番地１エスポワールＢ棟１０３号,,12,105,2670066,,,,,,,2025-04-14,1,,,,,アオイ,0
2412,8050001056491,新規,0,2025-04-14,2025-04-14,バン株式会社,,株式会社,茨城県,つくば市,羽成７番地１,,08,220,3050857,,,,,,,2025-04-14,1,,,,,バン,0
2423,8070001042812,新規,0,2025-04-14,2025-04-14,株式会社ＳｔｕｄｉｏＡｌｔｉｅｒ,,株式会社,群馬県,渋川市,中村５６５,,10,208,3770002,,,,,,,2025-04-14,1,,,,,スタジオアルティエ,0
2430,8080401027858,新規,0,2025-04-14,2025-04-14,エンパワー＆リンク株式会社,,株式会社,静岡県,浜松市中央区,尾張町１２４番地６浜松士業ビル４階Ｅ号室,,22,138,4300949,,,,,,,2025-04-14,1,,,,,エンパワーアンドリンク,0
2431,8080403005242,新規,0,2025-04-14,2025-04-14,合同会社和久,,合同会社,静岡県,浜松市中央区,舞阪町弁天島３１４７番地の２,,22,138,4310214,,,,,,,2025-04-14,1,,,,,ワキュウ,0
2433,8090001019214,新規,0,2025-04-14,2025-04-14,株式会社ＫＯＵＮＡＮ,,株式会社,山梨県,南都留郡富士河口湖町,船津７３４９番地２,,19,430,4010301,,,,,,,2025-04-14,1,,,,,コウナン,0
2437,8100001038501,新規,0,2025-04-14,2025-04-14,株式会社アトラズ,,株式会社,長野県,安曇野市,穂高４６７４番地２,,20,220,3998303,,,,,,,2025-04-14,1,,,,,アトラズ,0
2454,8120001274375,新規,0,2025-04-14,2025-04-14,新研株式会社,,株式会社,大阪府,大阪市西淀川区,野里２丁目１４番１３－１０６号,,27,113,5550024,,,,,,,2025-04-14,1,,,,,シンケン,0
2455,8120001274383,新規,0,2025-04-14,2025-04-14,銀海株式会社,,株式会社,大阪府,大阪市都島区,都島北通２丁目７番１９－３０１号,,27,102,5340014,,,,,,,2025-04-14,1,,,,,ギンカイ,0
2456,8120001274417,新規,0,2025-04-14,2025-04-14,清慎機設株式会社,,株式会社,大阪府,大阪市西区,川口３丁目８番１５－５０１号,,27,106,5500021,,,,,,,2025-04-14,1,,,,,セイシンキセツ,0
2457,8120001274425,新規,0,2025-04-14,2025-04-14,株式会社喜与乃,,株式会社,大阪府,交野市,私部３丁目１１番５号,,27,230,5760052,,,,,,,2025-04-14,1,,,,,キヨノ,0
2458,8120001274433,新規,0,2025-04-14,2025-04-14,永河株式会社,,株式会社,大阪府,大阪市北区,本庄西１丁目１番３－１００４,,27,127,5310073,,,,,,,2025-04-14,1,,,,,エイコウ,0
2459,8120001274458,新規,0,2025-04-14,2025-04-14,株式会社カネト尾上,,株式会社,大阪府,大阪市生野区,鶴橋３丁目１番２２号,,27,116,5440031,,,,,,,2025-04-14,1,,,,,カネトオノウエ,0
2460,8120001274466,新規,0,2025-04-14,2025-04-14,栄達株式会社,,株式会社,大阪府,大阪市浪速区,恵美須町東二丁目１番３号４階,,27,111,5560000,,,,,,,2025-04-14,1,,,,,エイタツ,0
2461,8120001274516,新規,0,2025-04-14,2025-04-14,株式会社Ｉ‐Ｔｒｅｋ,,株式会社,大阪府,大阪市阿倍野区,昭和町５丁目１番３０号アーバン昭和町ビル２０５号,,27,119,5450011,,,,,,,2025-04-14,1,,,,,アイトレック,0
2462,8120001274540,新規,0,2025-04-14,2025-04-14,株式会社ＨＩＲＯメイト,,株式会社,大阪府,交野市,東倉治３丁目１８番５号Ｇ．Ｓ．ＣＯＴＯ１０２,,27,230,5760061,,,,,,,2025-04-14,1,,,,,ヒロメイト,0
2463,8120001274598,新規,0,2025-04-14,2025-04-14,Ｓｗｅｅｔ　Ｓｐｏｔ株式会社,,株式会社,大阪府,大阪市福島区,福島５丁目６番１６号ラグザ大阪２階,,27,103,5530003,,,,,,,2025-04-14,1,,,,,スイートスポット,0
2464,8120001274672,新規,0,2025-04-14,2025-04-14,城野株式会社,,株式会社,大阪府,大阪市東住吉区,杭全４丁目１２番６号２Ｆ,,27,121,5460002,,,,,,,2025-04-14,1,,,,,ジョウノ,0
2465,8120001274680,新規,0,2025-04-14,2025-04-14,株式会社アイリー不動産,,株式会社,大阪府,大阪市生野区,鶴橋２丁目７番１３号ＫＡＮＡＩＢＵＩＬＤ２０２,,27,116,5440031,,,,,,,2025-04-14,1,,,,,アイリーフドウサン,0
2468,8120003029100,新規,0,2025-04-14,2025-04-14,合同会社Ｇｒｏｗｔｈ　Ｇｏａｌｓ,,合同会社,大阪府,門真市,末広町１７番１８号ポケットアベニュー２階ゆめのたね放送局内,,27,223,5710030,,,,,,,2025-04-14,1,,,,,グロウスゴールズ,0
2469,8120003029117,新規,0,2025-04-14,2025-04-14,Ｄｉｃｅ　Ｌｏｇｉｃ合同会社,,合同会社,大阪府,大阪市中央区,南船場３丁目２番２２号おおきに南船場ビル２０５,,27,128,5420081,,,,,,,2025-04-14,1,,,,,ダイスロジック,0
2470,8120901050710,新規,0,2025-04-14,2025-04-14,株式会社Ｇｒｏｗ　Ｋ,,株式会社,大阪府,箕面市,稲６丁目１５番１５号,,27,220,5620015,,,,,,,2025-04-14,1,,,,,グローケイ,0
2471,8120901050727,新規,0,2025-04-14,2025-04-14,スズラン不動産株式会社,,株式会社,大阪府,箕面市,半町２丁目２番３８号（３０６号）,,27,220,5620044,,,,,,,2025-04-14,1,,,,,スズランフドウサン,0
2473,8122001039080,新規,0,2025-04-14,2025-04-14,株式会社福禄寿,,株式会社,大阪府,東大阪市,大蓮南２丁目４番５号,00138766,27,227,5770825,,,,,,,2025-04-14,1,,,,,フクロクジュ,0
2474,8122005003818,新規,0,2025-04-14,2025-04-14,ＮＰＯ法人ヒビスクス,,その他の設立登記法人,大阪府,東大阪市,西岩田３丁目４番３３－１１０３号,,27,227,5780947,,,,,,,2025-04-14,1,,,,,ヒビスクス,0
2476,8130001079410,新規,0,2025-04-14,2025-04-14,株式会社ＯＤ,,株式会社,京都府,京都市東山区,泉涌寺雀ケ森町５番地１１,,26,105,6050975,,,,,,,2025-04-14,1,,,,,オーディー,0
2483,8140001138149,新規,0,2025-04-14,2025-04-14,株式会社スウィフトエンジニアリングジャパン,,株式会社,兵庫県,川西市,大和西１丁目９番地５,,28,217,6660112,,,,,,,2025-04-14,1,,,,,スウィフトエンジニアリングジャパン,0
2491,8150001028035,新規,0,2025-04-14,2025-04-14,株式会社Ｎ．ＡＲＴ,,株式会社,奈良県,奈良市,富雄北１丁目８番３号ハートフルスイーツ富雄北１０７,,29,201,6310076,,,,,,,2025-04-14,1,,,,,エヌアート,0
2499,8180001166385,新規,0,2025-04-14,2025-04-14,株式会社ＳＹキャピタル,,株式会社,愛知県,名古屋市東区,葵１丁目２番２０号,,23,102,4610004,,,,,,,2025-04-14,1,,,,,エスワイキャピタル,0
2520,8220003003986,新規,0,2025-04-14,2025-04-14,合同会社景色,,合同会社,石川県,小松市,大文字町４８番地,,17,203,9230931,,,,,,,2025-04-14,1,,,,,ケシキ,0
2523,8230005009460,新規,0,2025-04-14,2025-04-14,医療法人沼田医院,,その他の設立登記法人,富山県,小矢部市,石動町８番３６号,,16,209,9320053,,,,,,,2025-04-14,1,,,,,ヌマタイイン,0
2531,8260001040111,新規,0,2025-04-14,2025-04-14,株式会社ＤＯＵＢＬＥ　ＬＥＥ,,株式会社,岡山県,倉敷市,粒江２７１４番地１４,,33,202,7100034,,,,,,,2025-04-14,1,,,,,ダブルリー,0
2533,8260005011463,新規,0,2025-04-14,2025-04-14,医療法人社団澄静会,,その他の設立登記法人,岡山県,岡山市東区,西大寺中２丁目１３番１号,,33,103,7048116,,,,,,,2025-04-14,1,,,,,チョウジョウカイ,0
2534,8270005005638,新規,0,2025-04-14,2025-04-14,一般社団法人わかさ福祉会,,その他の設立登記法人,鳥取県,八頭郡若桜町,大字若桜１６５番地１４,,31,325,6800701,,,,,,,2025-04-14,1,,,,,,0
2541,8280001009402,新規,0,2025-04-14,2025-04-14,株式会社にじいろの丘,,株式会社,島根県,出雲市,小津町２１番地,,32,203,6910041,,,,,,,2025-04-14,1,,,,,ニジイロノオカ,0
2553,8290001109671,新規,0,2025-04-14,2025-04-14,株式会社志寿,,株式会社,福岡県,福岡市中央区,薬院２丁目２番２４－８０１号,,40,133,8100022,,,,,,,2025-04-14,1,,,,,シジュ,0
2557,8290003016651,新規,0,2025-04-14,2025-04-14,合同会社小浜技研,,合同会社,福岡県,大野城市,川久保２丁目１７番１７－１００１号,,40,219,8160905,,,,,,,2025-04-14,1,,,,,コハマギケン,0
2558,8290801031447,新規,0,2025-04-14,2025-04-14,株式会社丸丈工務店,,株式会社,福岡県,北九州市小倉北区,高坊２丁目２番２７号,,40,106,8020053,,,,,,,2025-04-14,1,,,,,マルジョウコウムテン,0
2568,8330001033074,新規,0,2025-04-14,2025-04-14,株式会社リクマル青果,,株式会社,熊本県,宇城市,小川町江頭４６４番地６３,,43,213,8690624,,,,,,,2025-04-14,1,,,,,リクマルセイカ,0
2569,8330001033090,新規,0,2025-04-14,2025-04-14,株式会社本田牧場,,株式会社,熊本県,熊本市東区,戸島町１３６３番地２,,43,102,8618031,,,,,,,2025-04-14,1,,,,,ホンダボクジョウ,0
2570,8330003010930,新規,0,2025-04-14,2025-04-14,ＭｉｉｉＥａｔ合同会社,,合同会社,熊本県,合志市,幾久富１８３３番地１３４,,43,216,8611112,,,,,,,2025-04-14,1,,,,,ミーイート,0
2571,8330003010939,新規,0,2025-04-14,2025-04-14,合同会社ふわりぶ,,合同会社,熊本県,熊本市中央区,出水６丁目６番７－２０４号出水パークハイツ飛鳥,,43,101,8620941,,,,,,,2025-04-14,1,,,,,フワリブ,0
2577,8350001019484,新規,0,2025-04-14,2025-04-14,株式会社やまぶき,,株式会社,宮崎県,宮崎市,元宮町６番７号,,45,201,8800004,,,,,,,2025-04-14,1,,,,,ヤマブキ,0
2580,8380001035223,新規,0,2025-04-14,2025-04-14,株式会社ＥｐｏｃｈＲｉｓｅ,,株式会社,福島県,二本松市,油井字下中ノ内２０番地,,07,210,9691404,,,,,,,2025-04-14,1,,,,,エポックライズ,0
2598,8460101007700,新規,0,2025-04-14,2025-04-14,帯広食べ歩きまち株式会社,,株式会社,北海道,帯広市,西二条南１０丁目２０番地３,,01,207,0800012,,,,,,,2025-04-14,1,,,,,オビヒロタベアルキマチ,0
2602,8700150129908,新規,0,2025-04-14,2025-04-14,ｃｈａｎｇｓｈａｊｉｎｍｉａｏｋｅｊｉｙｏｕｘｉａｎｇｏｎｇｓｉ,,外国会社等,,,,,,,,ｃｈａｎｇｓｈａｓｈｉｙｕｈｕａｑｕｄｏｎｇｔａｎｇｊｉｅｄａｏｆｕｒｏｎｇｚｈｏｎｇｌｕｓａｎｄｕａｎ４８９ｈａｏｘｉｎｆｕｒｏｎｇｚｈｉｄｕｊｉａｙｕａｎｓｈａｎｇｗｕｄａｌｏｕ９１１ｆａｎｇ,,,,,,2025-04-14,1,,,,,チャンサジンミャオカギユウゲンコウシ,0
2603,8700150129916,新規,0,2025-04-14,2025-04-14,ＫＡＹＡＫ　Ｓｏｆｔｗａｒｅ　Ｃｏｒｐｏｒａｔｉｏｎ,,外国会社等,東京都,港区,南青山３丁目５番２号,,13,103,1070062,アメリカ合衆国コネチカット州スタンフォード、マーケット・ストリート７,,,,,,2025-04-14,1,,,,,カヤツクソフトウエアコーポレーシヨン,0
2604,8700150129924,新規,0,2025-04-14,2025-04-14,Ｃ．Ｒ．Ｖ．ＴＲＡＤＥＲＳ,,外国会社等,千葉県,東金市,二又３３６番地２　オフィス３Ａ,,12,213,2830004,スリランカ民主社会主義共和国、マタレ、メインロード、Ｎｏ．２１１,,,,,,2025-04-14,1,,,,,シーアールブイトレーダーズ,0
2605,8700150129932,新規,0,2025-04-14,2025-04-14,ＫＡＮＤＹ　ＡＵＴＯ　ＤＲＩＶＥ,,外国会社等,千葉県,山武市,木原２０３１番地１５－Ｃ－１０,,12,237,2891212,スリランカ民主社会主義共和国、キャンディ、アラワトゥゴダ、マワトゥプラ、Ｎｏ．Ｄ／１３,,,,,,2025-04-14,1,,,,,キヤンデイオートドライブ,0
2606,8700150129940,新規,0,2025-04-14,2025-04-14,Ｒ．Ｒ．ＭＯＴＯＲＳ,,外国会社等,千葉県,東金市,二又３３６番地２オフィス１Ａ,,12,213,2830004,スリランカ民主社会主義共和国、キャンディ、バトゥゴダ、カサワッタ、Ｎｏ．４９０／７,,,,,,2025-04-14,1,,,,,アールアールモータース,0
2625,9010001253851,新規,0,2025-04-14,2025-04-14,株式会社Ｈｉｄｅｏｕｔ,,株式会社,東京都,中央区,銀座１丁目１２－４Ｎ＆Ｅビルディング６Ｆ,,13,102,1040061,,,,,,,2025-04-14,1,,,,,ハイドアウト,0
2627,9010003047062,新規,0,2025-04-14,2025-04-14,合同会社ＳＰＣ９,,合同会社,東京都,千代田区,平河町１丁目６番１５号シルスフィア会計事務所内,,13,101,1020093,,,,,,,2025-04-14,1,,,,,エスピーシーナイン,0
2628,9010003047070,新規,0,2025-04-14,2025-04-14,ＨＨＨ１合同会社,,合同会社,東京都,中央区,日本橋室町４丁目３番９号,,13,102,1030022,,,,,,,2025-04-14,1,,,,,エイチエイチエイチワン,0
2629,9010005039883,新規,0,2025-04-14,2025-04-14,一般社団法人スマートビルディング共創機構,,その他の設立登記法人,東京都,千代田区,丸の内１丁目１１番１号パシフィックセンチュリープレイス丸の内１３階,,13,101,1000005,,,,,,,2025-04-14,1,,,,,スマートビルディングキョウソウキコウ,0
2631,9010103002553,新規,0,2025-04-14,2025-04-14,Ｎ．Ｔ合同会社,,合同会社,東京都,八王子市,暁町３丁目６番１号,,13,201,1920043,,,,,,,2025-04-14,1,,,,,エヌテー,0
2640,9010401189407,新規,0,2025-04-14,2025-04-14,株式会社ベストスタッフ,,株式会社,東京都,港区,三田２丁目７番１２号徳文堂ビル８階,,13,103,1080073,,,,,,,2025-04-14,1,,,,,ベストスタッフ,0
2641,9010401189448,新規,0,2025-04-14,2025-04-14,株式会社Ｅｎｅｚａｃ,,株式会社,東京都,港区,麻布十番１丁目２番７号ラフィネ麻布十番７０１号室,,13,103,1060045,,,,,,,2025-04-14,1,,,,,エネザック,0
2642,9010401189480,新規,0,2025-04-14,2025-04-14,深恒知能株式会社,,株式会社,東京都,港区,赤坂２丁目１６－６Ｂｉｚｍａｒｋｓ赤坂３０６号室,,13,103,1070052,,,,,,,2025-04-14,1,,,,,シンコウチノウ,0
2644,9010403034874,新規,0,2025-04-14,2025-04-14,ジー・エイ・ワン・レジデンス・フォー合同会社,,合同会社,東京都,港区,六本木１丁目９番１０号アークヒルズ仙石山森タワー４０階,,13,103,1060032,,,,,,,2025-04-14,1,,,,,ジーエイワンレジデンスフォー,0
2650,9010703007662,新規,0,2025-04-14,2025-04-14,ＳＴＥＭ合同会社,,合同会社,東京都,品川区,東品川５丁目９－１５－３１５,,13,109,1400002,,,,,,,2025-04-14,1,,,,,ステム,0
2652,9010801036035,新規,0,2025-04-14,2025-04-14,株式会社Ｂ‐ｆｕｅｎｔｅ,,株式会社,東京都,大田区,羽田１丁目１０番４号イリス羽田２０３,,13,111,1440043,,,,,,,2025-04-14,1,,,,,ビーフェンテ,0
2654,9010901057113,新規,0,2025-04-14,2025-04-14,株式会社ラディッシュ,,株式会社,東京都,世田谷区,赤堤５丁目１番１７号－２,,13,112,1560044,,,,,,,2025-04-14,1,,,,,ラディッシュ,0
2656,9011001168866,新規,0,2025-04-14,2025-04-14,株式会社ＡＬＴＤＥＣＯ,,株式会社,東京都,渋谷区,道玄坂１丁目１０番８号渋谷道玄坂東急ビル２Ｆ－Ｃ,,13,113,1500043,,,,,,,2025-04-14,1,,,,,アルトデコ,0
2657,9011001168874,新規,0,2025-04-14,2025-04-14,ＴＥＮ株式会社,,株式会社,東京都,渋谷区,道玄坂１丁目１０番８号２Ｆ－Ｃ,,13,113,1500043,,,,,,,2025-04-14,1,,,,,テン,0
2658,9011001168899,新規,0,2025-04-14,2025-04-14,株式会社ナハト不動産,,株式会社,東京都,渋谷区,道玄坂１丁目１２番１号,,13,113,1500043,,,,,,,2025-04-14,1,,,,,ナハトフドウサン,0
2659,9011001168940,新規,0,2025-04-14,2025-04-14,株式会社ＲＩＴＡ　ＰＡＲＴＮＥＲＳ,,株式会社,東京都,渋谷区,道玄坂１丁目１６－６二葉ビル８Ｂ,,13,113,1500043,,,,,,,2025-04-14,1,,,,,リタパートナーズ,0
2662,9011003021370,新規,0,2025-04-14,2025-04-14,Ｎ＆Ａ合同会社,,合同会社,東京都,渋谷区,千駄ヶ谷３丁目１１番８号（ＴＯＳグループ内）,,13,113,1510051,,,,,,,2025-04-14,1,,,,,エヌアンドエー,0
2663,9011003021379,新規,0,2025-04-14,2025-04-14,ｓｈｉｋａｍａ合同会社,,合同会社,東京都,渋谷区,道玄坂１丁目１０番８号渋谷道玄坂東急ビル２Ｆ－Ｃ,,13,113,1500043,,,,,,,2025-04-14,1,,,,,シカマ,0
2664,9011003021387,新規,0,2025-04-14,2025-04-14,合同会社ｎｏｈｏｈｏｎｋｉ,,合同会社,東京都,渋谷区,神南１丁目１１－４ＦＰＧリンクス神南５階,,13,113,1500041,,,,,,,2025-04-14,1,,,,,ノホホンキ,0
2666,9011101111263,新規,0,2025-04-14,2025-04-14,ｓａｎｋａｋｕ株式会社,,株式会社,東京都,新宿区,神楽坂３丁目１号軽子坂プレイス２階,,13,104,1620825,,,,,,,2025-04-14,1,,,,,サンカク,0
2667,9011101111296,新規,0,2025-04-14,2025-04-14,株式会社ルーツパートナーズ,,株式会社,東京都,新宿区,西新宿７丁目７番１９－１２０９号,,13,104,1600023,,,,,,,2025-04-14,1,,,,,ルーツパートナーズ,0
2668,9011101111305,新規,0,2025-04-14,2025-04-14,株式会社ブタ小家,,株式会社,東京都,新宿区,歌舞伎町１丁目３番地１０号除楽園ビル,,13,104,1600021,,,,,,,2025-04-14,1,,,,,ブタコヤ,0
2669,9011101111313,新規,0,2025-04-14,2025-04-14,株式会社Ｌｕｘｅ,,株式会社,東京都,新宿区,西新宿３丁目３番１３号西新宿水間ビル６階,,13,104,1600023,,,,,,,2025-04-14,1,,,,,ラグゼ,0
2671,9011501031920,新規,0,2025-04-14,2025-04-14,環宇貿易株式会社,,株式会社,東京都,荒川区,南千住３丁目２７－２浅草ビル５０８,,13,118,1160003,,,,,,,2025-04-14,1,,,,,カンウボウエキ,0
2672,9011503006482,新規,0,2025-04-14,2025-04-14,合同会社ポーラースター蓄電所１号,,合同会社,東京都,荒川区,町屋３丁目２番１号Ｂ１Ｆ,,13,118,1160001,,,,,,,2025-04-14,1,,,,,ポーラースターチクデンショイチゴウ,0
2673,9011503006490,新規,0,2025-04-14,2025-04-14,合同会社マルタ,,合同会社,東京都,北区,神谷２丁目１９－７北区神谷ビル１０１,,13,117,1150043,,,,,,,2025-04-14,1,,,,,マルタ,0
2674,9011505002686,新規,0,2025-04-14,2025-04-14,医療法人社団悠壮会,,その他の設立登記法人,東京都,北区,神谷１丁目２５番３－１０１号ローレルホームズ王子神谷,,13,117,1150043,,,,,,,2025-04-14,1,,,,,ユウソウカイ,0
2678,9011701028254,新規,0,2025-04-14,2025-04-14,泊居株式会社,,株式会社,東京都,江戸川区,西小岩５丁目１３番１３小出マンション１２２号,,13,123,1330057,,,,,,,2025-04-14,1,,,,,ハクキョ,0
2687,9011803006793,新規,0,2025-04-14,2025-04-14,合同会社ＳｐｒｉｔＺ,,合同会社,東京都,足立区,一ツ家３丁目１８番５号,,13,121,1210075,,,,,,,2025-04-14,1,,,,,スプリッツ,0
2689,9012303002143,新規,0,2025-04-14,2025-04-14,合同会社ＲＦＮアセット,,合同会社,東京都,町田市,南つくし野４丁目６番地１９,,13,209,1940002,,,,,,,2025-04-14,1,,,,,アールエフエヌアセット,0
2692,9012703003245,新規,0,2025-04-14,2025-04-14,合同会社ａｓｐｉｒｉｎＧ,,合同会社,東京都,清瀬市,中里４丁目７０１番地９０,,13,221,2040003,,,,,,,2025-04-14,1,,,,,アスパイアリング,0
2693,9013101009669,新規,0,2025-04-14,2025-04-14,株式会社セントラルデジタルテクノロジー,,株式会社,東京都,福生市,大字福生２１６２－４アーバンヒルズ福生２０５号室,,13,218,1970011,,,,,,,2025-04-14,1,,,,,セントラルデジタルテクノロジー,0
2704,9020001162028,新規,0,2025-04-14,2025-04-14,株式会社土田屋,,株式会社,神奈川県,横浜市都筑区,東方町１３８,,14,118,2240045,,,,,,,2025-04-14,1,,,,,ツチダヤ,0
2705,9020001162127,新規,0,2025-04-14,2025-04-14,ＨＲＩ株式会社,,株式会社,神奈川県,横浜市港南区,丸山台４丁目１７番２５号,,14,111,2330013,,,,,,,2025-04-14,1,,,,,エイチアールアイ,0
2706,9020001162135,新規,0,2025-04-14,2025-04-14,株式会社首都圏総合メンテナンス,,株式会社,神奈川県,横浜市西区,藤棚町１丁目９７番地,,14,103,2200053,,,,,,,2025-04-14,1,,,,,シュトケンソウゴウメンテナンス,0
2707,9020001162184,新規,0,2025-04-14,2025-04-14,株式会社ＭＫ,,株式会社,神奈川県,横浜市戸塚区,下倉田町９２５番地１３ＭＫビル１０１号,,14,110,2440815,,,,,,,2025-04-14,1,,,,,エムケイ,0
2708,9020001162283,新規,0,2025-04-14,2025-04-14,株式会社風のわ,,株式会社,神奈川県,横浜市神奈川区,金港町５－１４クアドリフォリオ８階,,14,102,2210056,,,,,,,2025-04-14,1,,,,,カゼノワ,0
2709,9020001162382,新規,0,2025-04-14,2025-04-14,株式会社エヌビック,,株式会社,神奈川県,横浜市中区,長者町２丁目６番地１ライフレビュー横浜関内スクエアＩＩ９０６号,00138757,14,104,2310033,,,,,,,2025-04-14,1,,,,,エヌビック,0
2713,9020003028243,新規,0,2025-04-14,2025-04-14,合同会社ｃｏｃｏｒｏｎ,,合同会社,神奈川県,横浜市栄区,本郷台１丁目１２－２４,,14,115,2470008,,,,,,,2025-04-14,1,,,,,ココロン,0
2714,9020003028251,新規,0,2025-04-14,2025-04-14,合同会社岩渕ＰＭＰ事務所,,合同会社,神奈川県,横浜市神奈川区,橋本町２丁目５－３コットンハーバータワーズＢＷ９０４,,14,102,2210053,,,,,,,2025-04-14,1,,,,,イワブチピーエムピージムショ,0
2715,9020003028284,新規,0,2025-04-14,2025-04-14,合同会社ワイズクエスト,,合同会社,神奈川県,川崎市高津区,久本３丁目１４番地１ザ・タワーアンドパークス田園都市溝の口１５１５,,14,134,2130011,,,,,,,2025-04-14,1,,,,,ワイズクエスト,0
2717,9020005016790,新規,0,2025-04-14,2025-04-14,医療法人ＫＤＣ,,その他の設立登記法人,神奈川県,川崎市中原区,下小田中６丁目６番１７号１階,,14,133,2110041,,,,,,,2025-04-14,1,,,,,ケーディーシー,0
2721,9021005013324,新規,0,2025-04-14,2025-04-14,行政書士法人ＹＭＡ,,その他の設立登記法人,神奈川県,相模原市南区,相模大野７丁目２４番１２号２０２号室,,14,153,2520303,,,,,,,2025-04-14,1,,,,,ワイエムエ,0
2729,9030001165970,新規,0,2025-04-14,2025-04-14,株式会社Ｓｏｒａ,,株式会社,埼玉県,三郷市,栄４丁目２４５,,11,237,3410043,,,,,,,2025-04-14,1,,,,,ソラ,0
2730,9030001165987,新規,0,2025-04-14,2025-04-14,株式会社ねこのてスタジオ,,株式会社,埼玉県,さいたま市大宮区,桜木町２丁目３番地大宮マルイ７階,,11,103,3300854,,,,,,,2025-04-14,1,,,,,ネコノテスタジオ,0
2738,9030003026460,新規,0,2025-04-14,2025-04-14,合同会社エモトケンチク,,合同会社,埼玉県,越谷市,大字南荻島４２４２番地６朝日プラザ越谷ＩＩＩ－１１０号,00138767,11,222,3430804,,,,,,,2025-04-14,1,,,,,エモトケンチク,0
2739,9030003026568,新規,0,2025-04-14,2025-04-14,合同会社アイワイエム,,合同会社,埼玉県,所沢市,林３丁目５５８番地の１３,,11,208,3591167,,,,,,,2025-04-14,1,,,,,アイワイエム,0
2744,9040001138174,新規,0,2025-04-14,2025-04-14,株式会社Ｃｌａｕｄｅｒｅ,,株式会社,千葉県,千葉市美浜区,真砂２丁目１５番３棟４１８号,,12,106,2610011,,,,,,,2025-04-14,1,,,,,クラウディア,0
2749,9060005010328,新規,0,2025-04-14,2025-04-14,一般社団法人ライフサポートはなみずき,,その他の設立登記法人,栃木県,那須塩原市,下永田３丁目３番地８１,,09,213,3292712,,,,,,,2025-04-14,1,,,,,ライフサポートハナミズキ,0
2753,9080003003422,新規,0,2025-04-14,2025-04-14,ＩＱ魚ＰＱ高名合同会社,,合同会社,静岡県,静岡市清水区,川原町５番４号,,22,103,4240857,,,,,,,2025-04-14,1,,,,,アイキュウサカナピーキュータカナ,0
2772,9120001274382,新規,0,2025-04-14,2025-04-14,樂石株式会社,,株式会社,大阪府,大阪市城東区,東中浜６丁目１２番７号１Ｆ,,27,118,5360023,,,,,,,2025-04-14,1,,,,,ラクセキ,0
2773,9120001274390,新規,0,2025-04-14,2025-04-14,株式会社ＴＭＴ,,株式会社,大阪府,交野市,星田山手２丁目４番８号,,27,230,5760014,,,,,,,2025-04-14,1,,,,,ティーエムティー,0
2774,9120001274416,新規,0,2025-04-14,2025-04-14,株式会社城東園芸,,株式会社,大阪府,大阪市城東区,蒲生４丁目５番１０号,,27,118,5360016,,,,,,,2025-04-14,1,,,,,ジョウトウエンゲイ,0
2775,9120001274449,新規,0,2025-04-14,2025-04-14,株式会社はじめホーム,,株式会社,大阪府,大阪市城東区,今福西３丁目１４番１号大韓民国民団城東支部ビル３階,,27,118,5360004,,,,,,,2025-04-14,1,,,,,ハジメホーム,0
2776,9120001274507,新規,0,2025-04-14,2025-04-14,与輝同行株式会社,,株式会社,大阪府,大阪市旭区,清水１丁目３番８号,,27,117,5350021,,,,,,,2025-04-14,1,,,,,ヨキドウコウ,0
2777,9120001274523,新規,0,2025-04-14,2025-04-14,ホライズンクエストホールディングス株式会社,,株式会社,大阪府,大阪市西区,靭本町一丁目１０番２４号三共本町ビル,,27,106,5500000,,,,,,,2025-04-14,1,,,,,ホライズンクエストホールディングス,0
2778,9120001274531,新規,0,2025-04-14,2025-04-14,株式会社ｎａｏｔａｋｕ,,株式会社,大阪府,大阪市阿倍野区,旭町１丁目１番１０号,,27,119,5450051,,,,,,,2025-04-14,1,,,,,ナオタク,0
2779,9120001274564,新規,0,2025-04-14,2025-04-14,株式会社静和,,株式会社,大阪府,大阪市北区,菅栄町１２番１９号塚本文化４号室,,27,127,5300031,,,,,,,2025-04-14,1,,,,,セイワ,0
2780,9120001274589,新規,0,2025-04-14,2025-04-14,株式会社ＢＯＮＳＡＩ　ＥＮＴＯ,,株式会社,大阪府,大阪市中央区,南船場４丁目７番６号,,27,128,5420081,,,,,,,2025-04-14,1,,,,,ボンサイエント,0
2781,9120001274622,新規,0,2025-04-14,2025-04-14,株式会社プリート,,株式会社,大阪府,大阪市住之江区,東加賀屋２丁目８番９号カーサフォルトゥーナ１０１号,,27,125,5590012,,,,,,,2025-04-14,1,,,,,プリート,0
2783,9120003029066,新規,0,2025-04-14,2025-04-14,碁侘合同会社,,合同会社,大阪府,大阪市西成区,萩之茶屋１丁目１２番７号万葉ビル１１号室,,27,122,5570004,,,,,,,2025-04-14,1,,,,,ゴタ,0
2784,9120003029074,新規,0,2025-04-14,2025-04-14,オフィスゴトウ合名会社,,合名会社,大阪府,大阪市城東区,鴫野西１丁目１７番１３号,,27,118,5360014,,,,,,,2025-04-14,1,,,,,オフィスゴトウ,0
2785,9120003029140,新規,0,2025-04-14,2025-04-14,合同会社ＹＵＪＡＹＵＳ,,合同会社,大阪府,大阪市都島区,善源寺町１丁目５番５１号,,27,102,5340015,,,,,,,2025-04-14,1,,,,,ユジュアユス,0
2787,9120101071457,新規,0,2025-04-14,2025-04-14,株式会社Ｎ．Ｓ,,株式会社,大阪府,高石市,加茂１丁目９番１４号,,27,225,5920011,,,,,,,2025-04-14,1,,,,,エヌエス,0
2788,9120103006394,新規,0,2025-04-14,2025-04-14,ピースワーク合同会社,,合同会社,大阪府,泉大津市,東助松町２丁目２番８号,,27,206,5950006,,,,,,,2025-04-14,1,,,,,ピースワーク,0
2794,9130001079401,新規,0,2025-04-14,2025-04-14,Ｍ　Ｓｔａｎｄ株式会社,,株式会社,京都府,京都市左京区,南禅寺草川町６９番地１,,26,103,6068437,,,,,,,2025-04-14,1,,,,,エムスタンド,0
2803,9140001138123,新規,0,2025-04-14,2025-04-14,株式会社Ｒｅｄ　Ｐｉｎｅ,,株式会社,兵庫県,姫路市,城北新町１丁目１２番４号,,28,201,6700883,,,,,,,2025-04-14,1,,,,,レッドパイン,0
2804,9140001138148,新規,0,2025-04-14,2025-04-14,株式会社ＰＭＴ工業,,株式会社,兵庫県,川西市,石道字芝向２５４－４,,28,217,6660156,,,,,,,2025-04-14,1,,,,,ピーエムティーコウギョウ,0
2808,9140005027462,新規,0,2025-04-14,2025-04-14,医療法人令仁会,,その他の設立登記法人,兵庫県,尼崎市,七松町１丁目２－１・３０１Ａフェスタ立花北館３Ｆ,,28,202,6600052,,,,,,,2025-04-14,1,,,,,レイジンカイ,0
2811,9160001026680,新規,0,2025-04-14,2025-04-14,株式会社Ｃｏｌｏｒｆｕｌ　Ｇｒｏｗ,,株式会社,滋賀県,草津市,馬場町９９０番地,,25,206,5250043,,,,,,,2025-04-14,1,,,,,カラフルグロウ,0
2817,9180001166376,新規,0,2025-04-14,2025-04-14,株式会社リバティ,,株式会社,愛知県,名古屋市西区,上名古屋２丁目５番７号,,23,104,4510025,,,,,,,2025-04-14,1,,,,,リバティ,0
2818,9180001166384,新規,0,2025-04-14,2025-04-14,１ｕｐｐｐ株式会社,,株式会社,愛知県,名古屋市西区,栄生２丁目５番４号アレフガルド１階,,23,104,4510052,,,,,,,2025-04-14,1,,,,,ワンアップ,0
2819,9180001166401,新規,0,2025-04-14,2025-04-14,株式会社彩ｓａｉ,,株式会社,愛知県,名古屋市中区,金山２丁目７番１４号エスポア金山ＩＩＩ７０２号,00138762,23,106,4600022,,,,,,,2025-04-14,1,,,,,サイ,0
2823,9180005021049,新規,0,2025-04-14,2025-04-14,一般社団法人社会実業推進機構,,その他の設立登記法人,愛知県,名古屋市中区,錦３丁目２番２３号プレサンス錦エボリューション４０２号,,23,106,4600003,,,,,,,2025-04-14,1,,,,,シャカイジツギョウスイシンキコウ,0
2828,9190001032156,新規,0,2025-04-14,2025-04-14,株式会社山本家,,株式会社,三重県,伊勢市,黒瀬町１７２４番地４,,24,203,5160018,,,,,,,2025-04-14,1,,,,,ヤマモトヤ,0
2835,9200001043647,新規,0,2025-04-14,2025-04-14,株式会社ビジネスアシスト,,株式会社,岐阜県,岐阜市,若宮町８丁目７番地－４０１号室,,21,201,5008828,,,,,,,2025-04-14,1,,,,,ビジネスアシスト,0
2836,9200003006767,新規,0,2025-04-14,2025-04-14,合同会社ＧＬＵＣＫ　ＧＡＲＴＥＮ,,合同会社,岐阜県,高山市,上宝町吉野３６３０－１,,21,203,5061316,,,,,,,2025-04-14,1,,,,,グルックガルテン,0
2844,9250001021094,新規,0,2025-04-14,2025-04-14,株式会社ａｃｔｉｖｅ　ｃｈｉｌｄｒｅｎ,,株式会社,山口県,萩市,大字橋本町３０番地１,,35,204,7580062,,,,,,,2025-04-14,1,,,,,アクティブチルドレン,0
2847,9250003003693,新規,0,2025-04-14,2025-04-14,合同会社Ｎラボ,,合同会社,山口県,熊毛郡田布施町,大字麻郷奥１０９６番地４,,35,343,7421512,,,,,,,2025-04-14,1,,,,,エヌラボ,0
2850,9260005011470,新規,0,2025-04-14,2025-04-14,医療法人社団鶴山歯科クリニック西大寺,,その他の設立登記法人,岡山県,岡山市東区,西大寺上２丁目９番２６号,,33,103,7048112,,,,,,,2025-04-14,1,,,,,カクザンシカクリニックサイダイジ,0
2855,9280001009401,新規,0,2025-04-14,2025-04-14,株式会社神田ファーム,,株式会社,島根県,出雲市,浜町１２７番地１,,32,203,6930054,,,,,,,2025-04-14,1,,,,,カンダファーム,0
2866,9290001109662,新規,0,2025-04-14,2025-04-14,株式会社Ｕ‐Ｌｉｆｅ　Ｊａｐａｎ,,株式会社,福岡県,糸島市,志摩稲留２３０番地１,,40,230,8191313,,,,,,,2025-04-14,1,,,,,ユーライフジャパン,0
2867,9290001109670,新規,0,2025-04-14,2025-04-14,株式会社ＡＩＺＥＮ　ＴＲＵＳＴ,,株式会社,福岡県,福岡市博多区,東那珂１丁目４番１８－１０２号パル東那珂,,40,132,8120892,,,,,,,2025-04-14,1,,,,,アイゼントラスト,0
2872,9290003016667,新規,0,2025-04-14,2025-04-14,Ｅ‐ｑｕａｌｉｔｙ合同会社,,合同会社,福岡県,久留米市,合川町１７２７番地１ガーデンハウス迎野Ｂ棟２０２号,,40,203,8390861,,,,,,,2025-04-14,1,,,,,,0
2890,9360005007211,新規,0,2025-04-14,2025-04-14,医療法人ウィメンズクリニック糸数,,その他の設立登記法人,沖縄県,那覇市,泊１丁目２９番地１２,,47,201,9000012,,,,,,,2025-04-14,1,,,,,ウィメンズクリニックイトカズ,0
2892,9370001052474,新規,0,2025-04-14,2025-04-14,株式会社響遊,,株式会社,宮城県,石巻市,双葉町５番３１－５号,,04,202,9860874,,,,,,,2025-04-14,1,,,,,キョウユウ,0
2893,9370005010940,新規,0,2025-04-14,2025-04-14,農事組合法人須江営農,,その他の設立登記法人,宮城県,石巻市,須江字代官４４番地,,04,202,9871221,,,,,,,2025-04-14,1,,,,,スエエイノウ,0
2900,9390001017938,新規,0,2025-04-14,2025-04-14,株式会社ランドバンク山形,,株式会社,山形県,上山市,金谷１８番地,,06,207,9993103,,,,,,,2025-04-14,1,,,,,ランドバンクヤマガタ,0
2905,9410005006637,新規,0,2025-04-14,2025-04-14,特定非営利活動法人トラストつなぐ,,その他の設立登記法人,秋田県,潟上市,昭和大久保字街道下９２－１,,05,211,0181401,,,,,,,2025-04-14,1,,,,,トラストツナグ,0
2907,9420003003098,新規,0,2025-04-14,2025-04-14,合同会社ｏｆｆｉｃｅ８８,,合同会社,青森県,むつ市,南町３番４３号,,02,208,0350046,,,,,,,2025-04-14,1,,,,,オフィスハチハチ,0
2913,9430005015215,新規,0,2025-04-14,2025-04-14,特定非営利活動法人ここちち,,その他の設立登記法人,北海道,札幌市北区,北二十四条西１６丁目１番２３－１０３号,,01,102,0010024,,,,,,,2025-04-14,1,,,,,ココチチ,0
2914,9460101007699,新規,0,2025-04-14,2025-04-14,株式会社スギムラ興業,,株式会社,北海道,広尾郡大樹町,寿通３丁目３５番地,,01,641,0892146,,,,,,,2025-04-14,1,,,,,スギムラコウギョウ,0
2920,9500003003486,新規,0,2025-04-14,2025-04-14,山田興業合同会社,,合同会社,愛媛県,西条市,丹原町石経５５０番地２号,,38,206,7910532,,,,,,,2025-04-14,1,,,,,ヤマダコウギョウ,0
2923,9700150129907,新規,0,2025-04-14,2025-04-14,Ｓｈｅｎｚｈｅｎ　Ｙｉｊｉｎｇ　Ｂｅｌｔｉｎｇ　Ｃｏ．，Ｌｔｄ,,外国会社等,,,,,,,,１４ｂ，Ｊｉｎｒｏｎｇｙｕａｎ，Ｂａｏｌｉ　Ｈａｏｔｉｎｇ，Ｓｏｎｇｔａｏ　Ｃｏｍｍｕｎｉｔｙ，Ｓｏｎｇｇａｎｇ　Ｓｔｒｅｅｔ，Ｂａｏａｎ　Ｄｉｓｔｒｉｃｔ，Ｓｈｅｎｚｈｅｎ　Ｃｉｔｙ,,,,,,2025-04-14,1,,,,,シンセンイジンベルティングカンパニーリミテッド,0
2924,9700150129915,新規,0,2025-04-14,2025-04-14,Ｇｕａｎｇｘｉ　Ｎａｎｎｉｎｇｓｈｉ　Ｏｕｊｉｎｇｔｏｎｇ　ｍａｏｙｉｙｏｕｘｉａｎｇｏｎｇｓｉ,,外国会社等,,,,,,,,Ｎａｎｎｉｎｇｓｈｉ　Ｑｉｎｇｘｉｕｑｕ　Ｍｉｎｚｕｄａｄａｏ　１３１Ｈａｏ　Ｈａｎｇｙａｎｇｇｕｏｊｉｃｈｅｎｇ　２Ｈａｏｌｏｕ　１７２３Ｈａｏ,,,,,,2025-04-14,1,,,,,グゥアンシナンニンシオウジントンマオイユウゲンコウシ,0
2925,9700150129923,新規,0,2025-04-14,2025-04-14,ＲＩＫＯ　ＭＯＴＯＲ　ＴＲＡＤＩＮＧ,,外国会社等,千葉県,八街市,八街へ１９９番地１３５９フェリース八街２－１０５,,12,230,2891113,スリランカ民主社会主義共和国、中央州、マタレ地区、マタレ、ヤタワッタ、ニカゴッラ、Ｎｏ．５２,,,,,,2025-04-14,1,,,,,リコモータートレーデイング,0
2926,9700150129931,新規,0,2025-04-14,2025-04-14,ＪＥＳＮＡ　ＥＮＴＥＲＰＲＩＳＥＳ　ＰＶＴ　ＬＴＤ,,外国会社等,千葉県,山武市,埴谷２４６３番地１８－１,,12,237,2891223,スリランカ民主社会主義共和国、ヤタワッタ、ダンガンプレイス、１ｓｔレーン、アッカラ２５、Ｎｏ．１７Ａ,,,,,,2025-04-14,1,,,,,ジエスナエンタープライズプライベートリミテツド,0
