sequenceNumber,corporateNumber,process,correct,updateDate,changeDate,name,nameImageId,kind,prefectureName,cityName,streetNumber,addressImageId,prefectureCode,cityCode,postCode,addressOutside,addressOutsideImageId,closeDate,closeCause,successorCorporateNumber,changeCause,assignmentDate,latest,enName,enPrefectureName,enCityName,enAddressOutside,furigana,hihyoji
2,1010001058283,登記記録の閉鎖等,0,2025-10-02,2025-09-01,美鷹株式会社,,株式会社,東京都,港区,赤坂６丁目１２番１６号,,13,103,1070052,,,2025-09-01,清算の結了等,,,2015-10-05,1,,,,,ミタカ,0
11,1010002007487,登記記録の閉鎖等,0,2025-10-02,2025-09-10,有限会社いちご屋,,有限会社,東京都,千代田区,神田神保町１丁目３０番地,,13,101,1010051,,,2025-09-10,清算の結了等,,,2015-10-05,1,,,,,イチゴヤ,0
29,1010402009505,登記記録の閉鎖等,0,2025-10-02,2025-09-01,有限会社東京メディカルサービス,,有限会社,東京都,港区,西麻布４丁目２１番１１号,,13,103,1060031,,,2025-09-01,清算の結了等,,,2015-10-05,1,,,,,トウキョウメディカルサービス,0
30,1010403026953,登記記録の閉鎖等,0,2025-10-02,2025-08-27,Ｃｈｏｃｏｍｅａｔ合同会社,,合同会社,東京都,港区,南青山２丁目２番１５号,,13,103,1070062,,,2025-08-27,清算の結了等,,,2022-01-25,1,,,,,チョコミート,0
40,1010703006829,登記記録の閉鎖等,0,2025-10-02,2025-09-22,王子加工所ホールディングス合同会社,,合同会社,東京都,江東区,豊洲５丁目６番２９－１２３０号,,13,108,1350061,,,2025-09-22,清算の結了等,,,2023-08-22,1,,,,,オウジカコウショホールディングス,0
47,1011001168270,登記記録の閉鎖等,0,2025-10-02,2025-09-29,株式会社ＮＧＴＧ１２,,株式会社,東京都,渋谷区,渋谷１丁目３－１８ビラ・モデルナＡ４０２,,13,113,1500002,,,2025-09-29,合併による解散等,5180001048834,令和７年９月１日名古屋市港区十一屋二丁目４８番地株式会社サンテック産業（5180001048834）に合併し解散,2025-03-07,1,,,,,エヌジーティージーイチニ,0
50,1011003016279,登記記録の閉鎖等,0,2025-10-02,2025-09-01,合同会社トラスト,,合同会社,東京都,渋谷区,神山町１０番２－９０４号パークハビオ渋谷神山町,,13,113,1500047,,,2025-09-01,清算の結了等,,,2023-02-15,1,,,,,トラスト,0
61,1020001040141,登記記録の閉鎖等,0,2025-10-02,2025-09-01,旭テクノ機材株式会社,,株式会社,東京都,港区,芝２丁目１番２４号五幸商事ビル４０２号,,13,103,1050014,,,2025-09-01,清算の結了等,,,2015-10-05,1,,,,,アサヒテクノキザイ,0
63,1020001078727,登記記録の閉鎖等,0,2025-10-02,2025-09-10,株式会社オン・ベース,,株式会社,神奈川県,川崎市中原区,上小田中７丁目３番３１－３号,,14,133,2110053,,,2025-09-10,清算の結了等,,,2015-10-05,1,,,,,オンベース,0
65,1020001104466,登記記録の閉鎖等,0,2025-10-02,2025-09-22,株式会社キタンダ,,株式会社,東京都,大田区,大森本町２丁目３１番２０号大森本町２丁目ビル３０１,,13,111,1430011,,,2025-09-22,清算の結了等,,,2015-10-05,1,,,,,,0
68,1020001134372,登記記録の閉鎖等,0,2025-10-02,2025-09-09,株式会社ファンケルラボ,,株式会社,神奈川県,横浜市中区,山下町８９番地１,,14,104,2310023,,,2025-09-09,合併による解散等,9020001102660,令和７年９月１日横浜市栄区飯島町５３番地ニコスタービューテック株式会社（9020001102660）に合併し解散,2020-01-09,1,,,,,ファンケルラボ,0
78,1021002005281,登記記録の閉鎖等,0,2025-10-02,2025-09-24,有限会社吉田製作所,,有限会社,神奈川県,藤沢市,辻堂４丁目１３番８号,,14,205,2510047,,,2025-09-24,清算の結了等,,,2015-10-05,1,,,,,,0
85,1030002020785,登記記録の閉鎖等,0,2025-10-02,2025-09-22,有限会社大畠製作所,,有限会社,埼玉県,さいたま市岩槻区,加倉４丁目２２番２８号,,11,110,3390056,,,2025-09-22,清算の結了等,,,2015-10-05,1,,,,,オオハタセイサクショ,0
87,1030002088583,登記記録の閉鎖等,0,2025-10-02,2025-09-22,有限会社ラッド,,有限会社,埼玉県,越谷市,赤山町３丁目２５７番地８,,11,222,3430807,,,2025-09-22,清算の結了等,,,2015-10-05,1,,,,,ラッド,0
113,1060005007190,登記記録の閉鎖等,0,2025-10-02,2025-09-25,医療法人社団鈴木内科クリニック,,その他の設立登記法人,栃木県,佐野市,浅沼町５０番地２,,09,204,3270831,,,2025-09-25,清算の結了等,,,2015-10-05,1,,,,,スズキナイカクリニック,0
118,1070002009511,登記記録の閉鎖等,0,2025-10-02,2025-09-26,有限会社ファーストメガネ,,有限会社,群馬県,高崎市,筑縄町５７番地９,,10,202,3700075,,,2025-09-26,清算の結了等,,,2015-10-05,1,,,,,ファーストメガネ,0
120,1080001013637,登記記録の閉鎖等,0,2025-10-02,2025-09-25,相良製材株式会社,,株式会社,静岡県,牧之原市,波津１９１番地３,,22,226,4210523,,,2025-09-25,清算の結了等,,,2015-10-05,1,,,,,サガラセイザイ,0
122,1080103001878,登記記録の閉鎖等,0,2025-10-02,2025-09-29,合同会社Ｆｌｏｒａｌ,,合同会社,静岡県,富士宮市,富士見ケ丘３０４番地の１５,,22,207,4180014,,,2025-09-29,清算の結了等,,,2018-09-06,1,,,,,フローラル,0
130,1100002018021,登記記録の閉鎖等,0,2025-10-02,2025-09-30,有限会社にほんヴィクトリー,,有限会社,長野県,上水内郡信濃町,大字野尻１０４７番地２,,20,583,3891303,,,2025-09-30,清算の結了等,,,2015-10-05,1,,,,,ニホンヴィクトリー,0
135,1110002015661,登記記録の閉鎖等,0,2025-10-02,2025-09-22,有限会社渡辺産業,,有限会社,新潟県,新発田市,小舟町３丁目９番４号,,15,206,9570007,,,2025-09-22,清算の結了等,,,2015-10-05,1,,,,,ワタナベサンギョウ,0
162,1130001003748,登記記録の閉鎖等,0,2025-10-02,2025-09-30,株式会社プライムシティ,,株式会社,京都府,京都市北区,大北山長谷町５－２－３０２,,26,101,6038488,,,2025-09-30,清算の結了等,,,2015-10-05,1,,,,,プライムシティ,0
187,1180001146906,登記記録の閉鎖等,0,2025-10-02,2025-09-10,株式会社ノアプロダクション,,株式会社,愛知県,半田市,岩滑西町２丁目３１番地の２３,,23,205,4750966,,,2025-09-10,清算の結了等,,,2021-07-08,1,,,,,ノアプロダクション,0
206,1240002049473,登記記録の閉鎖等,0,2025-10-02,2025-09-26,有限会社広和産業,,有限会社,広島県,竹原市,吉名町４７１１番地の２,,34,203,7250013,,,2025-09-26,清算の結了等,,,2015-10-05,1,,,,,コウワサンギョウ,0
207,1240002051479,登記記録の閉鎖等,0,2025-10-02,2025-09-26,有限会社松本食品,,有限会社,広島県,尾道市,土堂２丁目２番１２号,,34,205,7220035,,,2025-09-26,清算の結了等,,,2015-10-05,1,,,,,マツモトショクヒン,0
210,1270002007189,登記記録の閉鎖等,0,2025-10-02,2025-09-30,有限会社モグデンタルアートスタジオ,,有限会社,鳥取県,米子市,両三柳５０７３番地１,,31,202,6830853,,,2025-09-30,清算の結了等,,,2015-10-05,1,,,,,モグデンタルアートスタジオ,0
211,1280001004203,登記記録の閉鎖等,0,2025-10-02,2025-09-29,株式会社オープンハウス,,株式会社,島根県,出雲市,東園町５４２番地１５,,32,203,6930045,,,2025-09-29,清算の結了等,,,2015-10-05,1,,,,,オープンハウス,0
215,1290002023580,登記記録の閉鎖等,0,2025-10-02,2025-09-18,有限会社寺崎デザイン事務所,00093173,有限会社,福岡県,福岡市西区,石丸３丁目４２番１号,,40,135,8190025,,,2025-09-18,清算の結了等,,,2015-10-05,1,,,,,テラサキデザインジムショ,0
217,1290003015684,登記記録の閉鎖等,0,2025-10-02,2025-09-03,アイデザイン合同会社,,合同会社,福岡県,大牟田市,大字三池９１５番地１,,40,202,8370921,,,2025-09-03,清算の結了等,,,2024-08-22,1,,,,,アイデザイン,0
227,1310002002838,登記記録の閉鎖等,0,2025-10-02,2025-09-30,有限会社大栄商会,,有限会社,長崎県,長崎市,八つ尾町２番１５号,,42,201,8500813,,,2025-09-30,清算の結了等,,,2015-10-05,1,,,,,ダイエイショウカイ,0
243,1370001047671,登記記録の閉鎖等,0,2025-10-02,2025-09-16,株式会社Ｎ‐ａｃｒｏ,,株式会社,宮城県,多賀城市,桜木２丁目８番２６号,,04,209,9850842,,,2025-09-16,清算の結了等,,,2021-10-04,1,,,,,エヌアクロ,0
249,1380001012939,登記記録の閉鎖等,0,2025-10-02,2025-09-19,三秀製作所株式会社,,株式会社,福島県,いわき市,泉町下川字稲子塚８７番地,,07,204,9718183,,,2025-09-19,清算の結了等,,,2015-10-05,1,,,,,,0
260,1450001005051,登記記録の閉鎖等,0,2025-10-02,2025-09-29,大地株式会社,,株式会社,北海道,雨竜郡妹背牛町,字妹背牛３７５番地の１,,01,433,0790500,,,2025-09-29,清算の結了等,,,2015-10-05,1,,,,,ダイチ,0
269,2010001154619,登記記録の閉鎖等,0,2025-10-02,2025-09-11,株式会社東京メイカー,,株式会社,東京都,中央区,京橋３丁目６番１０号,,13,102,1040031,,,2025-09-11,清算の結了等,,,2015-10-05,1,,,,,トウキョウメイカー,0
271,2010001166597,登記記録の閉鎖等,0,2025-10-02,2025-09-10,Ｍ－ＴＯＫステーション株式会社,,株式会社,東京都,中央区,銀座７丁目１３番６号,,13,102,1040061,,,2025-09-10,清算の結了等,,,2015-10-05,1,,,,,エムトクステーション,0
272,2010001243710,登記記録の閉鎖等,0,2025-10-02,2025-09-11,株式会社日本企業支援機構,,株式会社,東京都,千代田区,九段南２丁目３番２５号平安堂ビル４階,,13,101,1020074,,,2025-09-11,清算の結了等,,,2024-04-08,1,,,,,ニホンキギョウシエンキコウ,0
281,2010401003359,登記記録の閉鎖等,0,2025-10-02,2025-08-29,株式会社インターナショナルジュエリーアート,,株式会社,東京都,港区,六本木４丁目９番２号,,13,103,1060032,,,2025-08-29,清算の結了等,,,2015-10-05,1,,,,,インターナショナルジュエリーアート,0
290,2010402019643,登記記録の閉鎖等,0,2025-10-02,2025-08-29,有限会社ワイ・オー・ユー,,有限会社,東京都,港区,六本木４丁目９番２号,,13,103,1060032,,,2025-08-29,清算の結了等,,,2015-10-05,1,,,,,ワイオーユー,0
295,2010601014395,登記記録の閉鎖等,0,2025-10-02,2025-09-19,株式会社ブンカゴム,,株式会社,東京都,墨田区,太平４丁目２３番１９号,,13,107,1300012,,,2025-09-19,清算の結了等,,,2015-10-05,1,,,,,ブンカゴム,0
307,2011003009364,登記記録の閉鎖等,0,2025-10-02,2025-09-26,ｅＸＧｅｎ　Ｊａｐａｎ合同会社,,合同会社,栃木県,那須塩原市,戸田７１０番地２８,,09,213,3250114,,,2025-09-26,清算の結了等,,,2018-11-09,1,,,,,エックスジェンジャパン,0
310,2011102001585,登記記録の閉鎖等,0,2025-10-02,2025-08-28,有限会社浦山製本所,,有限会社,東京都,新宿区,天神町６５番地１０,,13,104,1620808,,,2025-08-28,清算の結了等,,,2015-10-05,1,,,,,ウラヤマセイホンジョ,0
311,2011103012813,登記記録の閉鎖等,0,2025-10-02,2025-08-29,西葛西ホテル合同会社,,合同会社,東京都,新宿区,下宮比町１番４号,,13,104,1620822,,,2025-08-29,清算の結了等,,,2023-03-16,1,,,,,ニシカサイホテル,0
320,2011801021792,登記記録の閉鎖等,0,2025-10-02,2025-09-26,株式会社匠皇,,株式会社,東京都,葛飾区,柴又３丁目３番８号,,13,122,1250052,,,2025-09-26,清算の結了等,,,2015-10-05,1,,,,,,0
338,2020001068594,登記記録の閉鎖等,0,2025-10-02,2025-09-11,株式会社ムラタ商会,,株式会社,神奈川県,川崎市宮前区,菅生３丁目５番５号,,14,136,2160015,,,2025-09-11,清算の結了等,,,2015-10-05,1,,,,,ムラタショウカイ,0
341,2020001135188,登記記録の閉鎖等,0,2025-10-02,2025-06-18,タンカム株式会社,,株式会社,神奈川県,横浜市磯子区,磯子７丁目１２番２１号,,14,107,2350016,,,2025-06-18,清算の結了等,,,2020-03-05,1,,,,,タンカム,0
345,2020002043753,登記記録の閉鎖等,0,2025-10-02,2025-09-10,竹葉有限会社,,有限会社,神奈川県,横浜市中区,竹之丸１８５番地,,14,104,2310847,,,2025-09-10,清算の結了等,,,2015-10-05,1,,,,,チクバ,0
347,2020002082017,登記記録の閉鎖等,0,2025-10-02,2025-09-10,有限会社東和鍍金,,有限会社,神奈川県,川崎市幸区,鹿島田２丁目５番４号,,14,132,2120058,,,2025-09-10,清算の結了等,,,2015-10-05,1,,,,,トウワメッキ,0
349,2020003002907,登記記録の閉鎖等,0,2025-10-02,2025-09-10,砂長商事合資会社,,合資会社,神奈川県,横浜市旭区,南希望が丘５７番地の６,,14,112,2410824,,,2025-09-10,清算の結了等,,,2015-10-05,1,,,,,スナガショウジ,0
354,2030001020835,登記記録の閉鎖等,0,2025-10-02,2025-09-24,株式会社和樹,,株式会社,埼玉県,戸田市,上戸田３丁目２１番４号,,11,224,3350022,,,2025-09-24,清算の結了等,,,2015-10-05,1,,,,,ワキ,0
355,2030001031510,登記記録の閉鎖等,0,2025-10-02,2025-09-22,野口堂電機株式会社,,株式会社,埼玉県,幸手市,中４丁目１５番３４号,,11,240,3400115,,,2025-09-22,清算の結了等,,,2015-10-05,1,,,,,ノグチドウデンキ,0
365,2030002042275,登記記録の閉鎖等,0,2025-10-02,2025-09-24,有限会社尾島製作所,,有限会社,埼玉県,加須市,水深９４５番地,,11,210,3470022,,,2025-09-24,清算の結了等,,,2015-10-05,1,,,,,オジマセイサクジョ,0
369,2040001069129,登記記録の閉鎖等,0,2025-10-02,2025-09-04,株式会社大場建築設計事務所,,株式会社,千葉県,我孫子市,岡発戸新田１０番地の３,,12,222,2701136,,,2025-09-04,清算の結了等,,,2015-10-05,1,,,,,オオバケンチクセッケイジムショ,0
405,2080101006110,登記記録の閉鎖等,0,2025-10-02,2025-09-26,株式会社ビッツ,,株式会社,静岡県,三島市,南田町３番１９号,,22,206,4110837,,,2025-09-26,清算の結了等,,,2015-10-05,1,,,,,ビッツ,0
414,2110003001164,登記記録の閉鎖等,0,2025-10-02,2025-09-22,合資会社寿莊,,合資会社,新潟県,岩船郡関川村,大字上関６６９番地２,,15,581,9593264,,,2025-09-22,清算の結了等,,,2015-10-05,1,,,,,コトブキソウ,0
427,2120002081173,登記記録の閉鎖等,0,2025-10-02,2025-09-24,有限会社エフテック,,有限会社,大阪府,守口市,佐太中町６丁目８番６号,,27,209,5700002,,,2025-09-24,清算の結了等,,,2015-10-05,1,,,,,エフテック,0
451,2180002031387,登記記録の閉鎖等,0,2025-10-02,2025-09-11,有限会社スペース遊,,有限会社,愛知県,名古屋市中区,栄３丁目９番２２号,,23,106,4600008,,,2025-09-11,清算の結了等,,,2015-10-05,1,,,,,スペースユウ,0
463,2210002010263,登記記録の閉鎖等,0,2025-10-02,2025-09-29,ケイズコミュニケーション有限会社,,有限会社,福井県,敦賀市,和久野１０号１５番地の５,,18,202,9140123,,,2025-09-29,清算の結了等,,,2015-10-05,1,,,,,ケイズコミュニケーション,0
470,2240002048251,登記記録の閉鎖等,0,2025-10-02,2025-09-30,有限会社末本工作所,,有限会社,広島県,安芸郡海田町,寺迫２丁目３番２７号,,34,304,7360011,,,2025-09-30,清算の結了等,,,2015-10-05,1,,,,,スエモトコウサクショ,0
471,2260002006447,登記記録の閉鎖等,0,2025-10-02,2025-09-22,有限会社長和不動産,,有限会社,岡山県,岡山市北区,小山５３３番地の１,,33,101,7011352,,,2025-09-22,清算の結了等,,,2015-10-05,1,,,,,チョウワフドウサン,0
473,2270002001348,登記記録の閉鎖等,0,2025-10-02,2025-10-01,有限会社古澤製作所,,有限会社,鳥取県,鳥取市,賀露町北４丁目１９番５号,,31,201,6800907,,,2025-10-01,清算の結了等,,,2015-10-05,1,,,,,フルサワセイサクショ,0
488,2320001003042,登記記録の閉鎖等,0,2025-10-02,2025-09-25,株式会社クレビィア大分,,株式会社,大分県,大分市,羽屋新町２丁目１番１０号,,44,201,8700853,,,2025-09-25,清算の結了等,,,2015-10-05,1,,,,,クレビィアオオイタ,0
493,2320002006779,登記記録の閉鎖等,0,2025-10-02,2025-09-24,有限会社宗方プレスセンター,,有限会社,大分県,大分市,大字上宗方５１１番地の８,,44,201,8701152,,,2025-09-24,清算の結了等,,,2015-10-05,1,,,,,,0
501,2410002005937,登記記録の閉鎖等,0,2025-10-02,2025-09-30,有限会社安田産業,,有限会社,秋田県,潟上市,天王字羽立北野１番地８０,,05,211,0100201,,,2025-09-30,清算の結了等,,,2015-10-05,1,,,,,ヤスダサンギョウ,0
514,3010001078866,登記記録の閉鎖等,0,2025-10-02,2025-08-28,オクト株式会社,,株式会社,東京都,中央区,日本橋浜町２丁目１３番６号,,13,102,1030007,,,2025-08-28,清算の結了等,,,2017-01-17,1,,,,,オクト,0
518,3010001251720,登記記録の閉鎖等,0,2025-10-02,2025-09-11,株式会社ｏｎｅｎｅｓｓ,,株式会社,東京都,千代田区,九段南２丁目３番２５号平安堂ビル４階,,13,101,1020074,,,2025-09-11,清算の結了等,,,2025-01-27,1,,,,,ワンネス,0
527,3010005032118,登記記録の閉鎖等,0,2025-10-02,2025-09-26,座間小松原デベロップメント一般社団法人,,その他の設立登記法人,東京都,中央区,新川２丁目２７番１号,,13,102,1040033,,,2025-09-26,清算の結了等,,,2020-08-17,1,,,,,ザマコマツバラデベロップメント,0
529,3010401171097,登記記録の閉鎖等,0,2025-10-02,2025-09-11,ギャラガーホールディングスジャパン株式会社,,株式会社,東京都,港区,虎ノ門１丁目３番１号東京虎ノ門グローバルスクエア,,13,103,1050001,,,2025-09-11,清算の結了等,,,2022-12-01,1,,,,,ギャラガーホールディングスジャパン,0
550,3011003013200,登記記録の閉鎖等,0,2025-10-02,2025-09-01,アロマリーフ合同会社,,合同会社,東京都,渋谷区,松濤２丁目１１番１７－１０３号,,13,113,1500046,,,2025-09-01,合併による解散等,3011001140104,令和７年８月３１日東京都渋谷区道玄坂一丁目１２番１渋谷マークシティＷ２２階ＮＳＧＰアドバイザリー株式会社（3011001140104）に合併し解散,2021-08-13,1,,,,,アロマリーフ,0
556,3011103012812,登記記録の閉鎖等,0,2025-10-02,2025-08-29,葛西ホテル合同会社,,合同会社,東京都,新宿区,下宮比町１番４号,,13,104,1620822,,,2025-08-29,清算の結了等,,,2023-03-16,1,,,,,カサイホテル,0
564,3011701009037,登記記録の閉鎖等,0,2025-10-02,2025-09-22,宇城産業株式会社,,株式会社,東京都,江戸川区,西小岩１丁目２７番２０－７０２号,,13,123,1330057,,,2025-09-22,清算の結了等,,,2015-10-05,1,,,,,ウジョウサンギョウ,0
570,3013301032492,登記記録の閉鎖等,0,2025-10-02,2025-09-04,三益株式会社,,株式会社,東京都,豊島区,東池袋３丁目８番５－５０７号,,13,116,1700013,,,2025-09-04,清算の結了等,,,2015-10-05,1,,,,,,0
587,3021001052934,登記記録の閉鎖等,0,2025-10-02,2025-09-19,エムエスエンジニアリング株式会社,,株式会社,神奈川県,横須賀市,長瀬１丁目１番６号,,14,201,2390826,,,2025-09-19,清算の結了等,,,2015-10-05,1,,,,,エムエスエンジニアリング,0
593,3021002000421,登記記録の閉鎖等,0,2025-10-02,2025-09-19,有限会社飯田木工所,,有限会社,神奈川県,藤沢市,善行４丁目３６７５番地１０号,,14,205,2510871,,,2025-09-19,清算の結了等,,,2015-10-05,1,,,,,イイダモッコウジョ,0
595,3021002053312,登記記録の閉鎖等,0,2025-10-02,2025-09-19,有限会社森木材,,有限会社,神奈川県,小田原市,前川６９０番地の２,,14,206,2560813,,,2025-09-19,清算の結了等,,,2015-10-05,1,,,,,モリモクザイ,0
596,3030001026856,登記記録の閉鎖等,0,2025-10-02,2025-09-22,株式会社共栄エンタープライズジャパン,,株式会社,埼玉県,入間市,大字上藤沢４２９番地１２０,,11,225,3580013,,,2025-09-22,清算の結了等,,,2015-10-05,1,,,,,キョウエイエンタープライズジャパン,0
603,3030001134106,登記記録の閉鎖等,0,2025-10-02,2025-09-24,株式会社クラチ新聞販売,,株式会社,埼玉県,越谷市,赤山町５丁目１０番２１号,,11,222,3430807,,,2025-09-24,清算の結了等,,,2019-12-06,1,,,,,クラチシンブンハンバイ,0
607,3030002086437,登記記録の閉鎖等,0,2025-10-02,2025-09-18,有限会社新邦製版,,有限会社,埼玉県,越谷市,東越谷１丁目２２番地１９,,11,222,3430023,,,2025-09-18,清算の結了等,,,2015-10-05,1,,,,,シンポウセイハン,0
609,3030003006063,登記記録の閉鎖等,0,2025-10-02,2025-09-22,マーブル合同会社,,合同会社,埼玉県,白岡市,上野田４７７番地７４,,11,246,3490221,,,2025-09-22,清算の結了等,,,2015-10-05,1,,,,,マーブル,0
626,3060001006764,登記記録の閉鎖等,0,2025-10-02,2025-09-24,株式会社綜,,株式会社,栃木県,宇都宮市,江曽島町１０２２番２,,09,201,3210102,,,2025-09-24,清算の結了等,,,2015-10-05,1,,,,,ソウ,0
629,3060002013660,登記記録の閉鎖等,0,2025-10-02,2025-09-26,有限会社エーエムシー経営管理センター,,有限会社,栃木県,宇都宮市,鶴田１丁目９番１号,,09,201,3200857,,,2025-09-26,清算の結了等,,,2015-10-05,1,,,,,エーエムシーケイエイカンリセンター,0
641,3100001036253,登記記録の閉鎖等,0,2025-10-02,2025-09-29,株式会社コンフィアンス,,株式会社,長野県,中野市,大字岩船４４０番地４,,20,211,3830041,,,2025-09-29,清算の結了等,,,2023-03-28,1,,,,,コンフィアンス,0
644,3100002036888,登記記録の閉鎖等,0,2025-10-02,2025-09-29,有限会社トライ・ミー,,有限会社,長野県,飯田市,長姫町３番地１,,20,205,3950028,,,2025-09-29,清算の結了等,,,2015-10-05,1,,,,,トライミー,0
648,3110002005875,登記記録の閉鎖等,0,2025-10-02,2025-10-01,有限会社ベルベ,,有限会社,奈良県,北葛城郡王寺町,久度５丁目３番５９号,,29,425,6360003,,,2025-10-01,清算の結了等,,,2015-10-05,1,,,,,ベルベ,0
662,3120101032142,登記記録の閉鎖等,0,2025-10-02,2025-09-26,芝坂化学工業株式会社,,株式会社,大阪府,羽曳野市,埴生野１０８５番１,,27,222,5830866,,,2025-09-26,清算の結了等,,,2015-10-05,1,,,,,シバサカカガクコウギョウ,0
663,3120101059508,登記記録の閉鎖等,0,2025-10-02,2025-09-09,株式会社いづみ解体,,株式会社,大阪府,堺市美原区,今井２３９番地,,27,147,5870061,,,2025-09-09,清算の結了等,,,2019-03-05,1,,,,,イヅミカイタイ,0
664,3120102023322,登記記録の閉鎖等,0,2025-10-02,2025-09-29,有限会社アクア設備,,有限会社,大阪府,岸和田市,稲葉町６５５番地,,27,202,5960103,,,2025-09-29,清算の結了等,,,2015-10-05,1,,,,,アクアセツビ,0
677,3140001020311,登記記録の閉鎖等,0,2025-10-02,2025-09-29,株式会社デビュー,,株式会社,兵庫県,神戸市東灘区,向洋町中６丁目９番地,,28,101,6580032,,,2025-09-29,清算の結了等,,,2015-10-05,1,,,,,デビュー,0
685,3170001006332,登記記録の閉鎖等,0,2025-10-02,2025-09-30,サンクス株式会社,,株式会社,和歌山県,和歌山市,鷺ノ森堂前丁２９番地２,,30,201,6408052,,,2025-09-30,清算の結了等,,,2015-10-05,1,,,,,サンクス,0
696,3190001016016,登記記録の閉鎖等,0,2025-10-02,2025-09-26,ヒロセタオル株式会社,,株式会社,三重県,四日市市,松寺３丁目２番２６号,,24,202,5108021,,,2025-09-26,清算の結了等,,,2015-10-05,1,,,,,ヒロセタオル,0
697,3190002007674,登記記録の閉鎖等,0,2025-10-02,2025-09-25,有限会社アルファー,,有限会社,三重県,鈴鹿市,桜島町２丁目７番地１１,,24,207,5130817,,,2025-09-25,清算の結了等,,,2015-10-05,1,,,,,アルファー,0
709,3240002005689,登記記録の閉鎖等,0,2025-10-02,2025-09-30,有限会社興産業,,有限会社,広島県,広島市中区,羽衣町６番２号,,34,101,7300814,,,2025-09-30,清算の結了等,,,2015-10-05,1,,,,,オキサンギョウ,0
711,3240002029754,登記記録の閉鎖等,0,2025-10-02,2025-09-30,大祐商事株式会社,,株式会社,広島県,山県郡安芸太田町,大字津浪１６７８番地２,,34,368,7313502,,,2025-09-30,清算の結了等,,,2015-10-05,1,,,,,ダイユウショウジ,0
716,3280002006568,登記記録の閉鎖等,0,2025-10-02,2025-09-30,有限会社シードシステムカンパニー,,有限会社,島根県,出雲市,大社町北荒木２２７番地１,,32,203,6990722,,,2025-09-30,清算の結了等,,,2015-10-05,1,,,,,シードシステムカンパニー,0
725,3310002007546,登記記録の閉鎖等,0,2025-10-02,2025-09-30,有限会社タックＡＳＡ,,有限会社,長崎県,長崎市,滑石５丁目１番２２号,,42,201,8528061,,,2025-09-30,清算の結了等,,,2015-10-05,1,,,,,タックアサ,0
740,3380002008629,登記記録の閉鎖等,0,2025-10-02,2025-09-05,有限会社樫村木工所,,有限会社,福島県,郡山市,富久山町久保田字古坦１３５番地４,,07,203,9638071,,,2025-09-05,清算の結了等,,,2015-10-05,1,,,,,カシムラモッコウショ,0
747,3430001035742,登記記録の閉鎖等,0,2025-10-02,2025-09-11,コーセイ建設株式会社,,株式会社,北海道,苫小牧市,弥生町２丁目２２番１７号,,01,213,0530802,,,2025-09-11,清算の結了等,,,2015-10-05,1,,,,,コーセイケンセツ,0
750,3430003014579,登記記録の閉鎖等,0,2025-10-02,2025-09-12,アシストライフ合同会社,,合同会社,北海道,札幌市北区,新琴似四条４丁目６番４０号,,01,102,0010904,,,2025-09-12,清算の結了等,,,2022-12-23,1,,,,,アシストライフ,0
780,4010401066346,登記記録の閉鎖等,0,2025-10-02,2025-09-01,株式会社カリアッジジャパン,,株式会社,東京都,港区,南青山７丁目１－１４－８１５,,13,103,1070062,,,2025-09-01,清算の結了等,,,2015-10-05,1,,,,,カリアッジジャパン,0
787,4010403014311,登記記録の閉鎖等,0,2025-10-02,2025-08-29,日本絶景旅行合同会社,,合同会社,東京都,港区,浜松町２丁目２番１５号,,13,103,1050013,,,2025-08-29,清算の結了等,,,2016-01-18,1,,,,,ニホンゼッケイリョコウ,0
790,4010603006307,登記記録の閉鎖等,0,2025-10-02,2025-09-22,合同会社トゥエンティ・オー・シックス,,合同会社,東京都,江東区,豊洲５丁目１－１３－１９１３,,13,108,1350061,,,2025-09-22,清算の結了等,,,2016-05-25,1,,,,,トゥエンティオーシックス,0
809,4011103012811,登記記録の閉鎖等,0,2025-10-02,2025-08-29,合同会社ジェイ・イー・ジェイ,,合同会社,東京都,新宿区,下宮比町１番４号,,13,104,1620822,,,2025-08-29,清算の結了等,,,2023-03-16,1,,,,,ジェイイージェイ,0
859,4030001138147,登記記録の閉鎖等,0,2025-10-02,2025-08-27,ＣＪフーズアグリジャパン株式会社,,株式会社,東京都,港区,西新橋２丁目７番４号,,13,103,1050003,,,2025-08-27,清算の結了等,,,2020-09-03,1,,,,,シージェイフーズアグリジャパン,0
865,4030002085982,登記記録の閉鎖等,0,2025-10-02,2025-09-29,有限会社五光建設,,有限会社,埼玉県,越谷市,南越谷５丁目７番地７,,11,222,3430845,,,2025-09-29,清算の結了等,,,2015-10-05,1,,,,,ゴコウケンセツ,0
866,4030002108818,登記記録の閉鎖等,0,2025-10-02,2025-09-11,有限会社高山機電,,有限会社,埼玉県,川口市,北園町７番２１号,,11,203,3330862,,,2025-09-11,清算の結了等,,,2015-10-05,1,,,,,タカヤマキデン,0
874,4040001088374,登記記録の閉鎖等,0,2025-10-02,2025-09-12,株式会社早慶ブレイン,,株式会社,千葉県,浦安市,明海３丁目２番８－１０１号,,12,227,2790014,,,2025-09-12,清算の結了等,,,2015-10-05,1,,,,,ソウケイブレイン,0
882,4050001027546,登記記録の閉鎖等,0,2025-10-02,2025-09-19,株式会社中央不動産研究所,,株式会社,茨城県,取手市,新町１丁目６番１号９０６号,,08,217,3020024,,,2025-09-19,清算の結了等,,,2015-10-05,1,,,,,チュウオウフドウサンケンキュウジョ,0
887,4050002042932,登記記録の閉鎖等,0,2025-10-02,2025-09-17,有限会社古谷野製作所,,有限会社,茨城県,筑西市,井出蛯沢１１４１番地の３,,08,227,3091108,,,2025-09-17,清算の結了等,,,2015-10-05,1,,,,,コヤノセイサクショ,0
895,4080105005767,登記記録の閉鎖等,0,2025-10-02,2025-09-24,ＮＰＯ法人健常高齢者スポーツ支援機構,,その他の設立登記法人,静岡県,伊東市,富戸１０２０番地の２９２ロワジール伊豆高原１－１０１号,,22,208,4130231,,,2025-09-24,清算の結了等,,,2017-06-30,1,,,,,ケンジョウコウレイシャスポーツシエンキコウ,0
896,4080401014182,登記記録の閉鎖等,0,2025-10-02,2025-10-01,株式会社アクセス,,株式会社,静岡県,掛川市,宮脇１２１番地の５,,22,213,4360086,,,2025-10-01,清算の結了等,,,2015-10-05,1,,,,,アクセス,0
897,4080402015709,登記記録の閉鎖等,0,2025-10-02,2025-09-25,有限会社吉村興業,,有限会社,静岡県,浜松市浜名区,中瀬２２３３番地,,22,139,4340012,,,2025-09-25,清算の結了等,,,2015-10-05,1,,,,,ヨシムラコウギョウ,0
899,4100001021270,登記記録の閉鎖等,0,2025-10-02,2025-10-01,株式会社スズキ自販南信,,株式会社,長野県,駒ヶ根市,赤穂１２８９番地,,20,210,3994117,,,2025-10-01,合併による解散等,1100001001580,令和７年１０月１日長野市大字北尾張部１１６番地株式会社スズキ自販長野（1100001001580）に合併し解散,2015-10-05,1,,,,,スズキジハンナンシン,0
900,4100002001800,登記記録の閉鎖等,0,2025-10-02,2025-09-30,有限会社小伝,,有限会社,長野県,長野市,大字長野大門町５１８番地,,20,201,3800841,,,2025-09-30,清算の結了等,,,2015-10-05,1,,,,,コデン,0
903,4110001001899,登記記録の閉鎖等,0,2025-10-02,2025-09-22,株式会社興伸電機,,株式会社,新潟県,新潟市中央区,鳥屋野南２丁目５番２４号,,15,103,9500950,,,2025-09-22,清算の結了等,,,2015-10-05,1,,,,,コウシンデンキ,0
906,4110002031862,登記記録の閉鎖等,0,2025-10-02,2025-09-19,有限会社みわ調剤薬局,,有限会社,新潟県,見附市,本町１丁目５番２１号,,15,211,9540053,,,2025-09-19,清算の結了等,,,2015-10-05,1,,,,,ミワチョウザイヤッキョク,0
908,4120001053097,登記記録の閉鎖等,0,2025-10-02,2025-09-22,森脇電気建設株式会社,,株式会社,大阪府,大阪市東淀川区,上新庄３丁目７番１５号,,27,114,5330006,,,2025-09-22,清算の結了等,,,2015-10-05,1,,,,,モリワキデンキケンセツ,0
923,4130005006835,登記記録の閉鎖等,0,2025-10-02,2025-09-25,特定非営利活動法人京都南部の精神保健福祉をすすめる会かわせみ,,その他の設立登記法人,京都府,宇治市,木幡南端５３－７洛南共同作業所,,26,204,6110002,,,2025-09-25,清算の結了等,,,2015-10-05,1,,,,,キョウトナンブノセイシンホケンフクシヲススメルカイカワセミ,0
928,4180001104101,登記記録の閉鎖等,0,2025-10-02,2025-09-10,株式会社アックス・マーケティングＬＯＧＩ,,株式会社,愛知県,名古屋市中区,丸の内２丁目１７番４号ＭＩＷＡ第一ビル６０５,,23,106,4600002,,,2025-09-10,清算の結了等,,,2015-10-05,1,,,,,アックスマーケティングロジ,0
929,4180001121344,登記記録の閉鎖等,0,2025-10-02,2025-09-11,株式会社クォンタム,,株式会社,愛知県,名古屋市西区,那古野２丁目１８番７号,,23,104,4510042,,,2025-09-11,清算の結了等,,,2015-12-15,1,,,,,クォンタム,0
936,4180003027242,登記記録の閉鎖等,0,2025-10-02,2025-09-05,プロデモリューション合同会社,,合同会社,愛知県,名古屋市中村区,名駅４丁目２４番５号第２森ビル４０１,,23,105,4500002,,,2025-09-05,清算の結了等,,,2024-08-13,1,,,,,プロデモリューション,0
938,4180301011328,登記記録の閉鎖等,0,2025-10-02,2025-09-18,株式会社丸伊組,,株式会社,愛知県,蒲郡市,三谷北通４丁目５２番地,,23,214,4430022,,,2025-09-18,清算の結了等,,,2015-10-05,1,,,,,マルイグミ,0
951,4220003002991,登記記録の閉鎖等,0,2025-10-02,2025-09-30,３ｒｄ　ｃｒｅａｔｅ合同会社,,合同会社,石川県,野々市市,押野１丁目３９３番地ピーノパラッツォ２０４号,,17,212,9218802,,,2025-09-30,清算の結了等,,,2021-03-10,1,,,,,サードクリエイト,0
961,4250002007337,登記記録の閉鎖等,0,2025-10-02,2025-09-30,有限会社あつたく,,有限会社,山口県,美祢市,西厚保町原字岩ノ本１２６６番地１,,35,213,7592152,,,2025-09-30,清算の結了等,,,2015-10-05,1,,,,,アツタク,0
981,4300005002791,登記記録の閉鎖等,0,2025-10-02,2025-09-30,一般財団法人スマイルアース,,その他の設立登記法人,佐賀県,佐賀市,富士町大字藤瀬７２４番地の４,,41,201,8400542,,,2025-09-30,清算の結了等,,,2015-10-05,1,,,,,スマイルアース,0
1017,4470002000617,登記記録の閉鎖等,0,2025-10-02,2025-09-30,有限会社安西興産,,有限会社,香川県,高松市,太田下町２５１８番地,,37,201,7618073,,,2025-09-30,清算の結了等,,,2015-10-05,1,,,,,アンザイコウサン,0
1040,5010401163712,登記記録の閉鎖等,0,2025-10-02,2025-09-30,ＭＣＰ３株式会社,,株式会社,東京都,港区,元赤坂１丁目１番８号株式会社赤坂国際会計内,,13,103,1070051,,,2025-09-30,合併による解散等,5180001089093,令和７年９月１日名古屋市熱田区金山町二丁目１番１号ＳＯＬＵＸ金山９階株式会社リッシュプラス（5180001089093）に合併し解散,2021-11-10,1,,,,,エムシーピースリー,0
1041,5010401166649,登記記録の閉鎖等,0,2025-10-02,2025-09-01,ＧＤＳ株式会社,,株式会社,東京都,港区,六本木７丁目１８番１８号住友不動産六本木通ビル,,13,103,1060032,,,2025-09-01,合併による解散等,3010001147200,令和７年９月１日東京都港区六本木七丁目１８番１８号住友不動産六本木通ビルジープラ株式会社（3010001147200）に合併し解散,2022-04-11,1,,,,,ジーディーエス,0
1049,5010801033531,登記記録の閉鎖等,0,2025-10-02,2025-09-22,株式会社ＩＣ,,株式会社,東京都,大田区,南六郷３丁目２０番１号,,13,111,1440045,,,2025-09-22,清算の結了等,,,2022-12-20,1,,,,,アイシー,0
1063,5011101092243,登記記録の閉鎖等,0,2025-10-02,2025-09-08,株式会社ＹＥＳ　ＭＡＲＴ,,株式会社,東京都,新宿区,大久保１丁目１番１１号,,13,104,1690072,,,2025-09-08,清算の結了等,,,2020-08-20,1,,,,,イエスマート,0
1073,5011503003913,登記記録の閉鎖等,0,2025-10-02,2025-09-25,コーパス合同会社,,合同会社,東京都,北区,赤羽北３丁目２６番２－１１０１号東京メガシティ,,13,117,1150052,,,2025-09-25,清算の結了等,,,2019-03-07,1,,,,,コーパス,0
1080,5012802000337,登記記録の閉鎖等,0,2025-10-02,2025-09-16,エイチ・ケー・エージェンシー有限会社,,有限会社,東京都,武蔵村山市,大南３丁目１１１番地の５１,,13,223,2080013,,,2025-09-16,清算の結了等,,,2015-10-05,1,,,,,エイチケーエージェンシー,0
1086,5013301050708,登記記録の閉鎖等,0,2025-10-02,2025-09-11,プロンプトテックスターズ株式会社,,株式会社,東京都,豊島区,千早２丁目１８番４号富有マンション１Ｆ,,13,116,1710044,,,2025-09-11,清算の結了等,,,2023-05-08,1,,,,,プロンプトテックスターズ,0
1095,5021001064102,登記記録の閉鎖等,0,2025-10-02,2025-09-22,株式会社寿海水産,,株式会社,神奈川県,足柄下郡湯河原町,中央５丁目９番地８,,14,384,2590301,,,2025-09-22,清算の結了等,,,2018-02-07,1,,,,,コトミスイサン,0
1106,5030002071494,登記記録の閉鎖等,0,2025-10-02,2025-09-24,有限会社京屋食品,,有限会社,埼玉県,北葛飾郡杉戸町,大字才羽５６０番地,,11,464,3450014,,,2025-09-24,清算の結了等,,,2015-10-05,1,,,,,ミヤコヤショクヒン,0
1114,5040001118056,登記記録の閉鎖等,0,2025-10-02,2025-09-08,株式会社アメリカンエンパイヤパートナーズ,,株式会社,千葉県,市原市,山田橋２丁目３番地１８,,12,219,2900021,,,2025-09-08,合併による解散等,7040001136386,令和７年９月８日千葉県市原市山田橋二丁目３番地１８株式会社キャピタルエンパイヤ（7040001136386）に合併し解散,2021-04-15,1,,,,,アメリカンエンパイヤパートナーズ,0
1124,5050001000741,登記記録の閉鎖等,0,2025-10-02,2025-09-11,株式会社亀印商事,,株式会社,茨城県,水戸市,見川町２１３９番地の５,,08,201,3100913,,,2025-09-11,清算の結了等,,,2025-07-01,1,,,,,カメジルシショウジ,0
1133,5080101008211,登記記録の閉鎖等,0,2025-10-02,2025-10-01,ジヤトコエンジニアリング株式会社,,株式会社,静岡県,富士市,依田橋１２５番地の１,,22,210,4170002,,,2025-10-01,合併による解散等,6080101008739,令和７年１０月１日静岡県富士市今泉７００番地の１ジヤトコ株式会社（6080101008739）に合併し解散,2015-10-05,1,,,,,ジヤトコエンジニアリング,0
1134,5080102010678,登記記録の閉鎖等,0,2025-10-02,2025-10-01,有限会社西神技研,,有限会社,静岡県,駿東郡長泉町,南一色７８番地の３,,22,342,4110932,,,2025-10-01,合併による解散等,5080102012922,令和７年１０月１日静岡県沼津市岡宮４４３番地、城北ハイツ１号館Ｄ株式会社セイシンワークス（5080102012922）に合併し解散,2015-10-05,1,,,,,セイシンギケン,0
1136,5080401022218,登記記録の閉鎖等,0,2025-10-02,2025-10-01,株式会社ＡＳＯＮＥ,,株式会社,静岡県,浜松市中央区,連尺町３０７番地の１４浜松連尺ビル２０１号室,,22,138,4300939,,,2025-10-01,清算の結了等,,,2017-05-26,1,,,,,アズワン,0
1144,5100003007449,登記記録の閉鎖等,0,2025-10-02,2025-09-29,ＴＫコーポレーション合同会社,,合同会社,長野県,安曇野市,豊科２６１０－５１,,20,220,3998205,,,2025-09-29,清算の結了等,,,2024-03-21,1,,,,,ティーケーコーポレーション,0
1148,5110001034205,登記記録の閉鎖等,0,2025-10-02,2025-09-22,株式会社金華,,株式会社,新潟県,燕市,小高１０８５番地,,15,213,9591241,,,2025-09-22,清算の結了等,,,2019-08-07,1,,,,,キンカ,0
1178,5130005017286,登記記録の閉鎖等,0,2025-10-02,2025-09-30,一般社団法人ぽのっく,,その他の設立登記法人,京都府,京都市下京区,本燈籠町２９－３,,26,106,6008086,,,2025-09-30,清算の結了等,,,2025-02-10,1,,,,,ポノック,0
1181,5140001059364,登記記録の閉鎖等,0,2025-10-02,2025-09-26,株式会社しみず,,株式会社,兵庫県,姫路市,飾東町豊国５４番地の１,,28,201,6710219,,,2025-09-26,清算の結了等,,,2015-10-05,1,,,,,シミズ,0
1190,5160005000537,登記記録の閉鎖等,0,2025-10-02,2025-09-26,滋賀県土地開発公社,,その他の設立登記法人,滋賀県,大津市,松本１丁目２番１号,,25,201,5200807,,,2025-09-26,清算の結了等,,,2015-10-05,1,,,,,シガケン,0
1202,5200001026135,登記記録の閉鎖等,0,2025-10-02,2025-09-29,株式会社国富建設,,株式会社,岐阜県,高山市,国府町今２４３番地,,21,203,5094104,,,2025-09-29,清算の結了等,,,2015-10-05,1,,,,,コクフケンセツ,0
1203,5200001040053,登記記録の閉鎖等,0,2025-10-02,2025-09-26,株式会社Ｒｅｉｗａ　Ａｇｒｉｔｅｃｈ,,株式会社,岐阜県,恵那市,武並町藤字西ケ洞２２５２番地の１,,21,210,5097121,,,2025-09-26,清算の結了等,,,2022-05-06,1,,,,,レイワアグリテック,0
1214,5240002005621,登記記録の閉鎖等,0,2025-10-02,2025-09-30,有限会社工業センター,,有限会社,広島県,広島市東区,尾長東２丁目６番１７号,,34,102,7320046,,,2025-09-30,合併による解散等,9240001011559,令和７年９月３０日広島市西区商工センター八丁目９番５０号株式会社宮地精機（9240001011559）に合併し解散,2015-10-05,1,,,,,コウギョウセンター,0
1222,5260001037770,登記記録の閉鎖等,0,2025-10-02,2025-09-25,株式会社オール・アイ,,株式会社,岡山県,倉敷市,福田町浦田２１６８番地２１,,33,202,7128031,,,2025-09-25,清算の結了等,,,2023-03-31,1,,,,,オールアイ,0
1225,5260002022549,登記記録の閉鎖等,0,2025-10-02,2025-09-19,有限会社ミハル機工,,有限会社,岡山県,倉敷市,玉島柏島６４８８番地の３,,33,202,7138123,,,2025-09-19,清算の結了等,,,2015-10-05,1,,,,,ミハルキコウ,0
1228,5280002004347,登記記録の閉鎖等,0,2025-10-02,2025-10-01,有限会社まほろば,,有限会社,島根県,松江市,鹿島町御津５３４番地,,32,201,6900411,,,2025-10-01,清算の結了等,,,2015-10-05,1,,,,,マホロバ,0
1244,5330002027978,登記記録の閉鎖等,0,2025-10-02,2025-09-19,有限会社森塗装店,,有限会社,熊本県,水俣市,平町１丁目６番６号,,43,205,8670021,,,2025-09-19,清算の結了等,,,2015-10-05,1,,,,,モリトソウテン,0
1245,5330005008521,登記記録の閉鎖等,0,2025-10-02,2025-09-12,ＮＰＯ法人天草あゆみ保育園,,その他の設立登記法人,熊本県,天草市,本渡町広瀬４５７番地３,,43,215,8630001,,,2025-09-12,清算の結了等,,,2015-10-05,1,,,,,アマクサアユミホイクエン,0
1262,5370002010947,登記記録の閉鎖等,0,2025-10-02,2025-09-17,有限会社小西染物舖,,有限会社,宮城県,仙台市若林区,大和町４丁目２５番２２－２０６号,,04,103,9840042,,,2025-09-17,清算の結了等,,,2015-10-05,1,,,,,コニシソメモノホ,0
1264,5380002012950,登記記録の閉鎖等,0,2025-10-02,2025-09-05,有限会社洋装まつざき,,有限会社,福島県,郡山市,富久山町久保田字乙高２８番地の１４,,07,203,9638071,,,2025-09-05,清算の結了等,,,2015-10-05,1,,,,,ヨウソウマツザキ,0
1267,5390001000138,登記記録の閉鎖等,0,2025-10-02,2025-08-26,八重洲商事株式会社,,株式会社,東京都,中央区,新川２丁目１８番４号八重洲マンション４０１,,13,102,1040033,,,2025-08-26,清算の結了等,,,2015-10-05,1,,,,,ヤエスショウジ,0
1274,5440005001416,登記記録の閉鎖等,0,2025-10-02,2025-09-25,特定非営利活動法人ＮＰＯサポートはこだて,,その他の設立登記法人,北海道,函館市,亀田町７番１４号,,01,202,0400072,,,2025-09-25,清算の結了等,,,2015-10-05,1,,,,,エヌピーオーサポートハコダテ,0
1279,6010001011444,登記記録の閉鎖等,0,2025-10-02,2025-08-29,株式会社ウイザス,,株式会社,東京都,千代田区,三番町７番１３号,,13,101,1020075,,,2025-08-29,清算の結了等,,,2015-10-05,1,,,,,ウイザス,0
1281,6010001139500,登記記録の閉鎖等,0,2025-10-02,2025-09-11,株式会社ＳＩＮＬＡ,,株式会社,東京都,中央区,日本橋本町１丁目８番１２号,,13,102,1030023,,,2025-09-11,清算の結了等,,,2015-10-05,1,,,,,シンラ,0
1291,6010003036084,登記記録の閉鎖等,0,2025-10-02,2025-09-11,合同会社カーチスファンドナインス,,合同会社,東京都,千代田区,六番町２番地８番町Ｍビル３Ｆ,,13,101,1020085,,,2025-09-11,清算の結了等,,,2021-10-25,1,,,,,カーチスファンドナインス,0
1307,6010702014885,登記記録の閉鎖等,0,2025-10-02,2025-09-01,有限会社ハーモナイズデザイン,,有限会社,東京都,港区,南青山３丁目４番４号,,13,103,1070062,,,2025-09-01,清算の結了等,,,2015-10-05,1,,,,,ハーモナイズデザイン,0
1329,6011401000581,登記記録の閉鎖等,0,2025-10-02,2025-09-26,株式会社インターフォトン,,株式会社,東京都,板橋区,前野町２丁目１６番１－１３２３号,,13,119,1740063,,,2025-09-26,清算の結了等,,,2015-10-05,1,,,,,インターフォトン,0
1339,6012401020479,登記記録の閉鎖等,0,2025-10-02,2025-09-16,株式会社ティーアンドダブリュー,,株式会社,東京都,国分寺市,南町３丁目２３番１２号,,13,214,1850021,,,2025-09-16,清算の結了等,,,2015-10-05,1,,,,,ティーアンドダブリュー,0
1348,6020001076081,登記記録の閉鎖等,0,2025-10-02,2025-09-10,株式会社日研精機,,株式会社,神奈川県,川崎市高津区,久末３００番地３９,,14,134,2130026,,,2025-09-10,清算の結了等,,,2015-10-05,1,,,,,ニッケンセイキ,0
1352,6020001104998,登記記録の閉鎖等,0,2025-10-02,2025-08-29,聖美株式会社,,株式会社,東京都,新宿区,下落合３丁目２１番２２号セントヒルズ目白１０５号室,,13,104,1610033,,,2025-08-29,清算の結了等,,,2015-10-05,1,,,,,サトミ,0
1358,6020002089520,登記記録の閉鎖等,0,2025-10-02,2025-09-10,有限会社高尾製作所,00011536,有限会社,神奈川県,川崎市高津区,上作延１丁目２６番２号,,14,134,2130034,,,2025-09-10,清算の結了等,,,2015-10-05,1,,,,,タカオセイサクショ,0
1360,6021001013727,登記記録の閉鎖等,0,2025-10-02,2025-09-19,平野発条株式会社,,株式会社,神奈川県,相模原市緑区,橋本台１丁目３１番２５号,,14,151,2520132,,,2025-09-19,清算の結了等,,,2015-10-05,1,,,,,ヒラノハツジョウ,0
1367,6030002037874,登記記録の閉鎖等,0,2025-10-02,2025-09-19,有限会社ウチダホームサービス,,有限会社,埼玉県,久喜市,北青柳４３０番地の３,,11,232,3460024,,,2025-09-19,清算の結了等,,,2015-10-05,1,,,,,ウチダホームサービス,0
1368,6030002038906,登記記録の閉鎖等,0,2025-10-02,2025-09-19,有限会社奥村電機製作所,,有限会社,埼玉県,久喜市,菖蒲町新堀１７３１番地３,,11,232,3460105,,,2025-09-19,清算の結了等,,,2015-10-05,1,,,,,オクムラデンキセイサクショ,0
1369,6030002045225,登記記録の閉鎖等,0,2025-10-02,2025-09-22,有限会社ナカムラ動物病院,,有限会社,埼玉県,草加市,八幡町５０番地１,,11,221,3400006,,,2025-09-22,清算の結了等,,,2015-10-05,1,,,,,ナカムラドウブツビョウイン,0
1370,6030002107727,登記記録の閉鎖等,0,2025-10-02,2025-09-22,有限会社望月鉄工所,,有限会社,埼玉県,川口市,中青木２丁目２３番１６号,,11,203,3320032,,,2025-09-22,清算の結了等,,,2015-10-05,1,,,,,,0
1371,6030003003710,登記記録の閉鎖等,0,2025-10-02,2025-09-12,ＦＬＹ‐Ｔ合同会社,,合同会社,埼玉県,さいたま市北区,東大成町２丁目６０－１１,,11,102,3310814,,,2025-09-12,清算の結了等,,,2015-10-05,1,,,,,フライティー,0
1373,6030003023279,登記記録の閉鎖等,0,2025-10-02,2025-09-22,Ｃ＆Ｈ　Ｎｕｒｓｅ合同会社,,合同会社,埼玉県,比企郡ときがわ町,大字玉川４７５５番地１,,11,349,3550342,,,2025-09-22,清算の結了等,,,2023-12-22,1,,,,,シーアンドエイチナース,0
1391,6060002035223,登記記録の閉鎖等,0,2025-10-02,2025-09-24,有限会社我妻鉄工所,,有限会社,栃木県,足利市,大前町１２８７番地,,09,202,3260845,,,2025-09-24,清算の結了等,,,2015-10-05,1,,,,,アズマテッコウショ,0
1410,6120001172606,登記記録の閉鎖等,0,2025-10-02,2025-09-30,株式会社ビーヤン物流,,株式会社,京都府,京都市下京区,東洞院通綾小路下る扇酒屋町２９３番地２シャルマン小森２０７,,26,106,6008095,,,2025-09-30,清算の結了等,,,2015-10-05,1,,,,,ビーヤンブツリュウ,0
1412,6120001244628,登記記録の閉鎖等,0,2025-10-02,2025-09-24,株式会社アイサムプレイス,,株式会社,大阪府,大阪市西区,土佐堀１丁目６番１１号,,27,106,5500001,,,2025-09-24,清算の結了等,,,2022-03-24,1,,,,,アイサムプレイス,0
1434,6130001066179,登記記録の閉鎖等,0,2025-10-02,2025-09-17,株式会社ＢＬＵＥ　ＭＩＳＳＩＯＮ,,株式会社,京都府,亀岡市,千代川町北ノ庄角垣内２番地,,26,206,6210046,,,2025-09-17,清算の結了等,,,2020-01-31,1,,,,,ブルーミッション,0
1441,6140001084931,登記記録の閉鎖等,0,2025-10-02,2025-09-22,株式会社リベラル,,株式会社,兵庫県,洲本市,納２２２番地の１,,28,205,6560101,,,2025-09-22,清算の結了等,,,2015-10-05,1,,,,,,0
1444,6150001019028,登記記録の閉鎖等,0,2025-10-02,2025-09-29,株式会社コンプライアント,,株式会社,大阪府,堺市美原区,南余部２４０番地１Ａ号棟,,27,147,5870052,,,2025-09-29,清算の結了等,,,2015-10-05,1,,,,,コンプライアント,0
1447,6180001060870,登記記録の閉鎖等,0,2025-10-02,2025-09-11,株式会社サンサマー,,株式会社,愛知県,名古屋市東区,芳野１丁目１２番２３号,,23,102,4610027,,,2025-09-11,清算の結了等,,,2015-10-05,1,,,,,サンサマー,0
1455,6180301036703,登記記録の閉鎖等,0,2025-10-02,2025-09-17,株式会社ＩＱＯＬプラス,,株式会社,愛知県,みよし市,三好町弥栄１０７番地７,,23,236,4700224,,,2025-09-17,清算の結了等,,,2022-10-11,1,,,,,イコールプラス,0
1479,6240002040114,登記記録の閉鎖等,0,2025-10-02,2025-09-26,有限会社カワサキ,,有限会社,広島県,福山市,引野町３丁目１６番３号,,34,207,7210942,,,2025-09-26,清算の結了等,,,2015-10-05,1,,,,,カワサキ,0
1481,6260001022169,登記記録の閉鎖等,0,2025-10-02,2025-09-17,宇野港冷蔵株式会社,,株式会社,岡山県,加賀郡吉備中央町,上野２４５２番地２３,,33,681,7092344,,,2025-09-17,清算の結了等,,,2025-08-25,1,,,,,ウノコウレイゾウ,0
1502,6290802024674,登記記録の閉鎖等,0,2025-10-02,2025-09-29,有限会社智栄商事,,有限会社,福岡県,田川郡川崎町,大字川崎２９３番地の６２,,40,605,8270003,,,2025-09-29,清算の結了等,,,2015-10-05,1,,,,,トモエイショウジ,0
1504,6320001004598,登記記録の閉鎖等,0,2025-10-02,2025-09-24,株式会社弘大鐵技建,,株式会社,大分県,大分市,大字猪野４６６番地（プロスペリテ猪野Ｅ）,,44,201,8700134,,,2025-09-24,清算の結了等,,,2015-10-05,1,,,,,コウダイテツギケン,0
1506,6320002002106,登記記録の閉鎖等,0,2025-10-02,2025-09-30,有限会社キング,,有限会社,大分県,大分市,大字森町３５１番地の６,,44,201,8700127,,,2025-09-30,清算の結了等,,,2015-10-05,1,,,,,キング,0
1516,6370402001850,登記記録の閉鎖等,0,2025-10-02,2025-09-17,有限会社スイートショップおの,,有限会社,宮城県,登米市,中田町宝江黒沼字下道２１０番地の１,,04,212,9870621,,,2025-09-17,清算の結了等,,,2015-10-05,1,,,,,スイートショップオノ,0
1521,6390002003171,登記記録の閉鎖等,0,2025-10-02,2025-09-29,有限会社イシザワ,,有限会社,山形県,東村山郡中山町,大字長崎６１８６番地の５,,06,302,9900401,,,2025-09-29,清算の結了等,,,2015-10-05,1,,,,,イシザワ,0
1557,7010401171424,登記記録の閉鎖等,0,2025-10-02,2025-09-11,ギャラガージャパン株式会社,,株式会社,東京都,港区,虎ノ門１丁目３番１号東京虎ノ門グローバルスクエア,,13,103,1050001,,,2025-09-11,清算の結了等,,,2022-12-16,1,,,,,ギャラガージャパン,0
1565,7010601039702,登記記録の閉鎖等,0,2025-10-02,2025-09-25,株式会社タレイア,,株式会社,栃木県,那須郡那須町,大字東岩崎５８６番地,,09,407,3293445,,,2025-09-25,清算の結了等,,,2015-10-05,1,,,,,タレイア,0
1567,7010602018201,登記記録の閉鎖等,0,2025-10-02,2025-09-24,有限会社永代みなとや,,有限会社,東京都,江東区,永代２丁目２３番１号,,13,108,1350034,,,2025-09-24,清算の結了等,,,2015-10-05,1,,,,,エイタイミナトヤ,0
1581,7011003021884,登記記録の閉鎖等,0,2025-10-02,2025-09-30,ＣＭＴ合同会社,,合同会社,東京都,渋谷区,神宮前１丁目５番８号,,13,113,1500001,,,2025-09-30,合併による解散等,5370001008868,令和７年９月２日仙台市青葉区一番町二丁目７番１７号朝日生命仙台一番町ビルＣマネジメント株式会社（5370001008868）に合併し解散,2025-07-03,1,,,,,シーエムティ,0
1590,7011405000412,登記記録の閉鎖等,0,2025-10-02,2025-09-19,御嶽千岳教会,,その他の設立登記法人,東京都,板橋区,大谷口上町１７番地,,13,119,1730032,,,2025-09-19,清算の結了等,,,2015-10-05,1,,,,,,0
1609,7020001150001,登記記録の閉鎖等,0,2025-10-02,2025-09-10,千若町不動産株式会社,,株式会社,神奈川県,横浜市神奈川区,千若町２丁目１番地５０,,14,102,2210036,,,2025-09-10,合併による解散等,2020001026239,令和７年９月１０日神奈川県横浜市神奈川区千若町二丁目１番地５０京濱港運株式会社（2020001026239）に合併し解散,2023-01-26,1,,,,,チワカチョウフドウサン,0
1610,7020001152526,登記記録の閉鎖等,0,2025-10-02,2025-09-11,株式会社鈴,,株式会社,神奈川県,川崎市川崎区,浜町２丁目７番７－２号,,14,131,2100851,,,2025-09-11,清算の結了等,,,2023-07-14,1,,,,,スズ,0
1611,7020002022604,登記記録の閉鎖等,0,2025-10-02,2025-09-02,有限会社ムラオカ,,有限会社,神奈川県,横浜市旭区,笹野台３丁目１９番１３号,,14,112,2410816,,,2025-09-02,清算の結了等,,,2015-10-05,1,,,,,ムラオカ,0
1616,7020005007940,登記記録の閉鎖等,0,2025-10-02,2025-09-11,川崎木材商相互協同組合,,その他の設立登記法人,神奈川県,川崎市幸区,南幸町２丁目６２番地,,14,132,2120016,,,2025-09-11,清算の結了等,,,2015-10-05,1,,,,,カワサキモクザイショウソウゴ,0
1624,7030001092060,登記記録の閉鎖等,0,2025-10-02,2025-09-22,東京工業ゴム株式会社,,株式会社,埼玉県,さいたま市浦和区,岸町２丁目１５番１号,,11,107,3300064,,,2025-09-22,清算の結了等,,,2015-10-05,1,,,,,トウキョウコウギョウゴム,0
1630,7030002084916,登記記録の閉鎖等,0,2025-10-02,2025-09-22,有限会社池上吹付工業,,有限会社,埼玉県,越谷市,大字向畑６６０番地１２,,11,222,3430007,,,2025-09-22,清算の結了等,,,2015-10-05,1,,,,,イケガミフキツケコウギョウ,0
1645,7050002020175,登記記録の閉鎖等,0,2025-10-02,2025-09-22,有限会社増田重機,,有限会社,茨城県,坂東市,猫実９８９番地の９,,08,228,3060616,,,2025-09-22,清算の結了等,,,2015-10-05,1,,,,,マスダジュウキ,0
1646,7050002027402,登記記録の閉鎖等,0,2025-10-02,2025-09-19,有限会社萩原,,有限会社,茨城県,神栖市,横瀬７７７番地の８,,08,232,3140113,,,2025-09-19,清算の結了等,,,2015-10-05,1,,,,,ハギワラ,0
1663,7120001117188,登記記録の閉鎖等,0,2025-10-02,2025-09-22,株式会社ブライト・ネット・システム,,株式会社,大阪府,大阪市中央区,久太郎町１丁目９番２６号,,27,128,5410056,,,2025-09-22,清算の結了等,,,2015-10-05,1,,,,,ブライトネットシステム,0
1672,7120101034399,登記記録の閉鎖等,0,2025-10-02,2025-09-29,株式会社サイガクリエイト,,株式会社,大阪府,松原市,大堀１丁目１１番３号Ａ号,,27,217,5800006,,,2025-09-29,清算の結了等,,,2015-10-05,1,,,,,サイガクリエイト,0
1676,7120901028253,登記記録の閉鎖等,0,2025-10-02,2025-09-17,株式会社エイケイシステム,,株式会社,大阪府,箕面市,箕面５丁目１４番６号,,27,220,5620001,,,2025-09-17,清算の結了等,,,2015-10-05,1,,,,,エイケイシステム,0
1683,7140001036270,登記記録の閉鎖等,0,2025-10-02,2025-09-26,株式会社丸和鉄工所,,株式会社,兵庫県,神戸市垂水区,つつじが丘７丁目２３８８番地の１４,,28,108,6550853,,,2025-09-26,清算の結了等,,,2015-10-05,1,,,,,マルワテッコウショ,0
1685,7140001101181,登記記録の閉鎖等,0,2025-10-02,2025-09-18,株式会社Ｄ‐ＷＡＹ,,株式会社,神奈川県,小田原市,東町１丁目３番３０号オーキッド・ヴィラ３・２０２号,,14,206,2500003,,,2025-09-18,清算の結了等,,,2016-03-02,1,,,,,ディーウェイ,0
1690,7140002034604,登記記録の閉鎖等,0,2025-10-02,2025-09-26,有限会社西脇建設,,有限会社,兵庫県,丹波市,山南町北和田１０２８番地の２,,28,223,6693152,,,2025-09-26,清算の結了等,,,2015-10-05,1,,,,,ニシワキケンセツ,0
1695,7180001014330,登記記録の閉鎖等,0,2025-10-02,2025-09-03,木村土木建設株式会社,,株式会社,愛知県,名古屋市南区,五条町２丁目１番地,,23,112,4570851,,,2025-09-03,清算の結了等,,,2015-10-05,1,,,,,キムラドボクケンセツ,0
1696,7180001064482,登記記録の閉鎖等,0,2025-10-02,2025-09-11,株式会社リードサイン,,株式会社,愛知県,尾張旭市,吉岡町１丁目７番１号,,23,226,4880827,,,2025-09-11,清算の結了等,,,2015-10-05,1,,,,,リードサイン,0
1699,7180001153228,登記記録の閉鎖等,0,2025-10-02,2025-09-10,サンタッドグループファーイースト株式会社,,株式会社,愛知県,名古屋市南区,明治２丁目３２番１４号,,23,112,4570861,,,2025-09-10,清算の結了等,,,2022-10-04,1,,,,,サンタッドグループファーイースト,0
1703,7180002011608,登記記録の閉鎖等,0,2025-10-02,2025-09-12,有限会社柴田加工所,,有限会社,愛知県,名古屋市北区,楠味鋺３丁目１４０７番地,,23,103,4620014,,,2025-09-12,清算の結了等,,,2015-10-05,1,,,,,シバタカコウショ,0
1706,7180003025631,登記記録の閉鎖等,0,2025-10-02,2025-09-10,合同会社ユーモラシイ,,合同会社,愛知県,名古屋市中村区,名駅３丁目４－１０アルティメイト名駅１ｓｔ　２階,,23,105,4500002,,,2025-09-10,清算の結了等,,,2023-08-16,1,,,,,ユーモラシイ,0
1708,7180301030358,登記記録の閉鎖等,0,2025-10-02,2025-10-01,株式会社協進建工,,株式会社,愛知県,安城市,住吉町７丁目２２－１５エアリーＳ２０２号,,23,212,4460072,,,2025-10-01,清算の結了等,,,2017-05-17,1,,,,,キョウシンケンコウ,0
1709,7180305002287,登記記録の閉鎖等,0,2025-10-02,2025-09-16,一般社団法人愛知報徳会,,その他の設立登記法人,愛知県,刈谷市,下重原町３丁目２９番地４,,23,210,4480024,,,2025-09-16,清算の結了等,,,2015-10-05,1,,,,,アイチホウトクカイ,0
1712,7200001006804,登記記録の閉鎖等,0,2025-10-02,2025-09-26,株式会社アイカ技研,,株式会社,岐阜県,各務原市,各務東町２丁目２２２番地,,21,213,5090103,,,2025-09-26,清算の結了等,,,2015-10-05,1,,,,,アイカギケン,0
1713,7200001037007,登記記録の閉鎖等,0,2025-10-02,2025-09-29,Ｂｌｉｓｓｅｅｄ大人教育サービス株式会社,,株式会社,岐阜県,高山市,一之宮町１９３０番地１,,21,203,5093505,,,2025-09-29,清算の結了等,,,2020-01-06,1,,,,,ブリッシードオトナキョウイクサービス,0
1726,7250005004915,登記記録の閉鎖等,0,2025-10-02,2025-09-30,農事組合法人二条窪,,その他の設立登記法人,山口県,長門市,三隅下９０番地１,,35,211,7593803,,,2025-09-30,清算の結了等,,,2015-10-05,1,,,,,ニジョウクボ,0
1739,7290802020053,登記記録の閉鎖等,0,2025-10-02,2025-09-29,有限会社鞍手電設,,有限会社,福岡県,中間市,土手ノ内１丁目１５番２１号,,40,215,8090033,,,2025-09-29,清算の結了等,,,2015-10-05,1,,,,,,0
1740,7290803003032,登記記録の閉鎖等,0,2025-10-02,2025-09-29,合同会社ＴＳＫ,,合同会社,福岡県,北九州市小倉北区,霧ケ丘２丁目１８番９号,,40,106,8020052,,,2025-09-29,清算の結了等,,,2017-12-05,1,,,,,ティーエスケー,0
1745,7310002015891,登記記録の閉鎖等,0,2025-10-02,2025-09-29,増山運輸有限会社,,有限会社,長崎県,諫早市,高来町小峰１１１番地１,,42,204,8590123,,,2025-09-29,清算の結了等,,,2015-10-05,1,,,,,マスヤマウンユ,0
1759,7370102000359,登記記録の閉鎖等,0,2025-10-02,2025-09-16,有限会社仙南葬祭一心堂,,有限会社,宮城県,柴田郡柴田町,船岡中央３丁目７番２３号,,04,323,9891601,,,2025-09-16,清算の結了等,,,2015-10-05,1,,,,,センナンソウサイイッシンドウ,0
1760,7370201002925,登記記録の閉鎖等,0,2025-10-02,2025-09-16,株式会社佐清商会,,株式会社,宮城県,栗原市,築館木戸３番１３号,,04,213,9872212,,,2025-09-16,清算の結了等,,,2015-10-05,1,,,,,サセイショウカイ,0
1765,7430002023651,登記記録の閉鎖等,0,2025-10-02,2025-09-11,有限会社札幌森田塗装,,有限会社,北海道,札幌市清田区,里塚三条５丁目２２番２３号,,01,110,0040803,,,2025-09-11,清算の結了等,,,2015-10-05,1,,,,,サッポロモリタトソウ,0
1800,8010102007265,登記記録の閉鎖等,0,2025-10-02,2025-09-30,有限会社横峰製作所,,有限会社,東京都,八王子市,上壱分方町２３８番地１５,,13,201,1930811,,,2025-09-30,清算の結了等,,,2015-10-05,1,,,,,ヨコミネセイサクショ,0
1819,8011001043467,登記記録の閉鎖等,0,2025-10-02,2025-09-11,株式会社エスアンドシー,,株式会社,神奈川県,横浜市中区,山下町８０番地３,,14,104,2310023,,,2025-09-11,清算の結了等,,,2015-10-05,1,,,,,エスアンドシー,0
1824,8011003018260,登記記録の閉鎖等,0,2025-10-02,2025-09-01,合同会社阿中商事,,合同会社,東京都,渋谷区,渋谷２丁目１９番地１５宮益坂ビルディング６０９,,13,113,1500002,,,2025-09-01,清算の結了等,,,2024-01-25,1,,,,,アナカショウジ,0
1828,8011102024390,登記記録の閉鎖等,0,2025-10-02,2025-08-29,有限会社早稲田サービス,,有限会社,東京都,新宿区,西早稲田２丁目３番１号,,13,104,1690051,,,2025-08-29,清算の結了等,,,2015-10-05,1,,,,,ワセダサービス,0
1829,8011103004490,登記記録の閉鎖等,0,2025-10-02,2025-08-27,合同会社三和マンション,,合同会社,東京都,新宿区,上落合１丁目３０番１５－９１０号,,13,104,1610034,,,2025-08-27,清算の結了等,,,2015-10-05,1,,,,,サンワマンション,0
1849,8013301025087,登記記録の閉鎖等,0,2025-10-02,2025-08-27,株式会社ＪＡＥ,,株式会社,東京都,豊島区,東池袋１丁目３３番３号,,13,116,1700013,,,2025-08-27,清算の結了等,,,2015-10-05,1,,,,,ジェイエーイー,0
1858,8021002026461,登記記録の閉鎖等,0,2025-10-02,2025-09-19,有限会社大翔グリーン,,有限会社,神奈川県,相模原市中央区,上矢部４丁目６番１７号,,14,152,2520201,,,2025-09-19,清算の結了等,,,2015-10-05,1,,,,,ダイショウグリーン,0
1863,8030001087497,登記記録の閉鎖等,0,2025-10-02,2025-09-22,株式会社丸高組,00015517,株式会社,埼玉県,深谷市,岡部２１９５番地５,,11,218,3690211,,,2025-09-22,清算の結了等,,,2015-10-05,1,,,,,マルタカグミ,0
1866,8030002100457,登記記録の閉鎖等,0,2025-10-02,2025-09-24,有限会社板垣工務店,,有限会社,埼玉県,川口市,北園町１番３７号,,11,203,3330862,,,2025-09-24,清算の結了等,,,2015-10-05,1,,,,,イタガキコウムテン,0
1869,8030003013179,登記記録の閉鎖等,0,2025-10-02,2025-09-16,合同会社ＫＡ３,,合同会社,埼玉県,入間郡三芳町,大字藤久保５１２９番地,,11,324,3540041,,,2025-09-16,清算の結了等,,,2019-03-01,1,,,,,カスリー,0
1880,8040002082579,登記記録の閉鎖等,0,2025-10-02,2025-09-03,有限会社市原瓦工業,,有限会社,千葉県,長生郡睦沢町,川島６９２番地,,12,422,2994402,,,2025-09-03,清算の結了等,,,2015-10-05,1,,,,,イチハラカワラコウギョウ,0
1884,8050001035446,登記記録の閉鎖等,0,2025-10-02,2025-09-22,吉澤巧業株式会社,,株式会社,茨城県,神栖市,太田３３２９番地８,,08,232,3140254,,,2025-09-22,清算の結了等,,,2015-10-05,1,,,,,ヨシザワコウギョウ,0
1888,8060002017392,登記記録の閉鎖等,0,2025-10-02,2025-09-26,高波建築有限会社,00024477,有限会社,栃木県,真岡市,小林８０番地１０,,09,209,3214321,,,2025-09-26,清算の結了等,,,2015-10-05,1,,,,,タカナミケンチク,0
1889,8060002019802,登記記録の閉鎖等,0,2025-10-02,2025-09-24,有限会社大谷精肉店,,有限会社,栃木県,鹿沼市,久保町１６１８番地,,09,205,3220051,,,2025-09-24,清算の結了等,,,2015-10-05,1,,,,,オオタニセイニクテン,0
1890,8060002037481,登記記録の閉鎖等,0,2025-10-02,2025-09-25,足利交通有限会社,,有限会社,栃木県,足利市,福居町５７１番地１,,09,202,3260338,,,2025-09-25,清算の結了等,,,2015-10-05,1,,,,,アシカガコウツウ,0
1892,8070001016543,登記記録の閉鎖等,0,2025-10-02,2025-09-29,芳栄産業株式会社,,株式会社,群馬県,桐生市,広沢町間ノ島３１２番地の４,,10,203,3760014,,,2025-09-29,清算の結了等,,,2015-10-05,1,,,,,ホウエイサンギョウ,0
1903,8120001117476,登記記録の閉鎖等,0,2025-10-02,2025-09-22,株式会社ネクスト,,株式会社,大阪府,大阪市中央区,高麗橋４丁目５番８号,,27,128,5410043,,,2025-09-22,清算の結了等,,,2015-10-05,1,,,,,,0
1910,8120003019274,登記記録の閉鎖等,0,2025-10-02,2025-09-24,合同会社メディカルヘルスプランニング,,合同会社,大阪府,大阪市北区,天満橋１丁目８番１５－１００４号,,27,127,5300042,,,2025-09-24,清算の結了等,,,2021-04-19,1,,,,,メディカルヘルスプランニング,0
1913,8120101068248,登記記録の閉鎖等,0,2025-10-02,2025-09-29,株式会社ＳＰ．ＢＯＮＤ,,株式会社,大阪府,堺市南区,美木多上１－１－１０３,,27,145,5900136,,,2025-09-29,清算の結了等,,,2023-09-22,1,,,,,エスピーボンド,0
1928,8130005016112,登記記録の閉鎖等,0,2025-10-02,2025-09-26,一般社団法人みんなのために,,その他の設立登記法人,京都府,京都市伏見区,深草下川原町１番地１コトーハイツ伏見稲荷Ｃ棟２０６,,26,109,6128401,,,2025-09-26,清算の結了等,,,2021-03-04,1,,,,,ミンナノタメニ,0
1935,8140003003409,登記記録の閉鎖等,0,2025-10-02,2025-09-29,合資会社浜中運送,,合資会社,兵庫県,神戸市長田区,大塚町１丁目１番２５号,,28,106,6530811,,,2025-09-29,清算の結了等,,,2015-10-05,1,,,,,ハマナカウンソウ,0
1943,8170001017969,登記記録の閉鎖等,0,2025-10-02,2025-09-30,株式会社ＧＨＭ　ＧＲＯＵＰ,,株式会社,和歌山県,和歌山市,北ノ新地１丁目３１番地,,30,201,6408355,,,2025-09-30,清算の結了等,,,2024-01-18,1,,,,,ジーエイチエムグループ,0
1951,8180003000724,登記記録の閉鎖等,0,2025-10-02,2025-09-10,合資会社さかい,,合資会社,愛知県,名古屋市昭和区,鶴舞２丁目１５番４号‐３,,23,107,4660064,,,2025-09-10,清算の結了等,,,2015-10-05,1,,,,,サカイ,0
1952,8180301004220,登記記録の閉鎖等,0,2025-10-02,2025-10-01,株式会社サン輝テクノ,,株式会社,愛知県,額田郡幸田町,大字相見字四十五間２０番地２,,23,501,4440117,,,2025-10-01,清算の結了等,,,2015-10-05,1,,,,,サンキテクノ,0
1954,8180302005688,登記記録の閉鎖等,0,2025-10-02,2025-09-18,有限会社ベストテックス,,有限会社,愛知県,額田郡幸田町,大字芦谷字福田１５番地１１,00074899,23,501,4440116,,,2025-09-18,清算の結了等,,,2015-10-05,1,,,,,ベストテックス,0
1960,8190005008632,登記記録の閉鎖等,0,2025-10-02,2025-09-24,医療法人羽津ふくお医院,,その他の設立登記法人,三重県,四日市市,羽津山町６番５号,,24,202,5100016,,,2025-09-24,清算の結了等,,,2015-10-05,1,,,,,ハヅフクオイイン,0
1965,8210002009663,登記記録の閉鎖等,0,2025-10-02,2025-09-29,有限会社めん工房木瀬家,,有限会社,福井県,大野市,中荒井町１丁目８０４番地,,18,205,9120023,,,2025-09-29,清算の結了等,,,2015-10-05,1,,,,,メンコウボウキセヤ,0
1970,8240001004200,登記記録の閉鎖等,0,2025-10-02,2025-09-29,サト工業株式会社,,株式会社,広島県,広島市佐伯区,五日市町上河内８９２番地の２,,34,108,7315100,,,2025-09-29,清算の結了等,,,2015-10-05,1,,,,,サトコウギョウ,0
1971,8240001027143,登記記録の閉鎖等,0,2025-10-02,2025-09-30,浜口建設株式会社,,株式会社,広島県,呉市,豊町御手洗２５７番地１,,34,202,7340302,,,2025-09-30,清算の結了等,,,2015-10-05,1,,,,,ハマグチケンセツ,0
1972,8240001048651,登記記録の閉鎖等,0,2025-10-02,2025-09-29,株式会社ＯＮＧ,,株式会社,広島県,広島市中区,宝町７番１０号,,34,101,7300044,,,2025-09-29,清算の結了等,,,2015-12-22,1,,,,,オーエヌジー,0
1977,8260001028602,登記記録の閉鎖等,0,2025-10-02,2025-09-16,晃伸工業株式会社,,株式会社,岡山県,岡山市中区,雄町４６２番地１１,,33,102,7038204,,,2025-09-16,清算の結了等,,,2015-10-05,1,,,,,コウシンコウギョウ,0
1978,8260002001137,登記記録の閉鎖等,0,2025-10-02,2025-09-19,有限会社内村不動産鑑定事務所,,有限会社,岡山県,岡山市北区,弓之町１番１７号,,33,101,7000817,,,2025-09-19,清算の結了等,,,2015-10-05,1,,,,,ウチムラフドウサンカンテイジムショ,0
1979,8260002026869,登記記録の閉鎖等,0,2025-10-02,2025-09-22,有限会社フラワーショップカワムラ,,有限会社,岡山県,高梁市,東町１８９６番地,,33,209,7160034,,,2025-09-22,清算の結了等,,,2015-10-05,1,,,,,フラワーショップカワムラ,0
1998,8310002019009,登記記録の閉鎖等,0,2025-10-02,2025-09-29,有限会社福田呉服店,,有限会社,長崎県,壱岐市,勝本町勝本浦２０３番地,,42,210,8115501,,,2025-09-29,清算の結了等,,,2015-10-05,1,,,,,フクダゴフクテン,0
2001,8310005004726,登記記録の閉鎖等,0,2025-10-02,2025-09-29,特定非営利活動法人ラヴいさはや,,その他の設立登記法人,長崎県,諫早市,八坂町３番１号,,42,204,8540025,,,2025-09-29,清算の結了等,,,2015-10-05,1,,,,,ラヴイサハヤ,0
2003,8320003004058,登記記録の閉鎖等,0,2025-10-02,2025-08-12,合同会社軽食あさみ,,合同会社,大分県,別府市,大字浜脇字迫３１９８番地,,44,202,8740947,,,2025-08-12,清算の結了等,,,2023-04-13,1,,,,,ケイショクアサミ,0
2009,8350001011078,登記記録の閉鎖等,0,2025-10-02,2025-09-16,株式会社リンクドプロビンス,,株式会社,宮崎県,えびの市,大字大河平１２１０番地,,45,209,8894314,,,2025-09-16,清算の結了等,,,2015-10-05,1,,,,,リンクドプロビンス,0
2030,8500001020690,登記記録の閉鎖等,0,2025-10-02,2025-09-29,媛電株式会社,,株式会社,愛媛県,松山市,清住２丁目１１１７番地１６,,38,201,7918055,,,2025-09-29,合併による解散等,2500001024243,令和７年９月２７日愛媛県松山市南斎院町４３番地３ヒメデンサービス株式会社（2500001024243）に合併し解散,2017-06-16,1,,,,,ヒメデン,0
2053,9010401137423,登記記録の閉鎖等,0,2025-10-02,2025-09-01,ＰＳＬ　Ｊａｐａｎ　Ｃｏｌｌｅｃｔｉｏｎｓ株式会社,,株式会社,東京都,港区,南青山６丁目６番２０号パシフィック青山５Ｆ,,13,103,1070062,,,2025-09-01,清算の結了等,,,2018-03-28,1,,,,,ピーエスエルジャパンコレクションズ,0
2056,9010401171991,登記記録の閉鎖等,0,2025-10-02,2025-09-11,ギャラガーブローカージャパン株式会社,,株式会社,東京都,港区,虎ノ門１丁目３番１号東京虎ノ門グローバルスクエア,,13,103,1050001,,,2025-09-11,清算の結了等,,,2023-01-23,1,,,,,ギャラガーブローカージャパン,0
2059,9010402006156,登記記録の閉鎖等,0,2025-10-02,2025-08-29,シアトロインタナショナル有限会社,,有限会社,東京都,港区,六本木４丁目９番２号,,13,103,1060032,,,2025-08-29,清算の結了等,,,2015-10-05,1,,,,,シアトロインタナショナル,0
2068,9010802000849,登記記録の閉鎖等,0,2025-10-02,2025-09-22,有限会社荒井発条製作所,,有限会社,東京都,大田区,蒲田２丁目２２番１９号,,13,111,1440052,,,2025-09-22,清算の結了等,,,2015-10-05,1,,,,,アライハツジョウセイサクショ,0
2070,9010901007530,登記記録の閉鎖等,0,2025-10-02,2025-09-29,司製茶株式会社,,株式会社,東京都,世田谷区,下馬１丁目４５番７号,,13,112,1540002,,,2025-09-29,清算の結了等,,,2015-10-05,1,,,,,ツカサセイチャ,0
2099,9012701003866,登記記録の閉鎖等,0,2025-10-02,2025-09-30,株式会社町田オートサービス,,株式会社,東京都,東久留米市,野火止１丁目１番１０号,,13,222,2030041,,,2025-09-30,清算の結了等,,,2015-10-05,1,,,,,マチダオートサービス,0
2110,9020002030118,登記記録の閉鎖等,0,2025-10-02,2025-09-10,有限会社サン二階堂,,有限会社,神奈川県,横浜市港北区,大倉山５丁目８番１－６１２号,,14,109,2220037,,,2025-09-10,清算の結了等,,,2015-10-05,1,,,,,,0
2113,9021001067687,登記記録の閉鎖等,0,2025-10-02,2025-09-29,株式会社エンケルヒュース,,株式会社,神奈川県,藤沢市,辻堂東海岸１丁目１９－３３,,14,205,2510045,,,2025-09-29,清算の結了等,,,2019-07-05,1,,,,,エンケルヒュース,0
2117,9021002010316,登記記録の閉鎖等,0,2025-10-02,2025-09-26,有限会社エイチ・アイ・テイ・ハウス,,有限会社,神奈川県,茅ヶ崎市,西久保２００８番地１－２０５号グランドビュー茅ヶ崎,,14,207,2530083,,,2025-09-26,清算の結了等,,,2015-10-05,1,,,,,エイチアイティハウス,0
2118,9030001030514,登記記録の閉鎖等,0,2025-10-02,2025-09-22,株式会社ＹＳプランニング,,株式会社,埼玉県,所沢市,花園２丁目２３４４番２２号,,11,208,3590047,,,2025-09-22,清算の結了等,,,2015-10-05,1,,,,,ワイエスプランニング,0
2131,9040001028251,登記記録の閉鎖等,0,2025-10-02,2025-09-09,株式会社トラスト,,株式会社,千葉県,鎌ケ谷市,東初富４丁目２７番７号,,12,224,2730122,,,2025-09-09,清算の結了等,,,2015-10-05,1,,,,,トラスト,0
2135,9040002019051,登記記録の閉鎖等,0,2025-10-02,2025-09-01,有限会社マルハチ商事,,有限会社,千葉県,習志野市,東習志野８丁目２３番１号,,12,216,2750001,,,2025-09-01,清算の結了等,,,2015-10-05,1,,,,,マルハチショウジ,0
2147,9050002025164,登記記録の閉鎖等,0,2025-10-02,2025-09-22,有限会社巽建設,,有限会社,茨城県,猿島郡五霞町,大字小手指２０９６番地２,,08,542,3060315,,,2025-09-22,清算の結了等,,,2015-10-05,1,,,,,タツミケンセツ,0
2149,9050005010931,登記記録の閉鎖等,0,2025-10-02,2025-09-22,特定非営利活動法人きずな子どもクラブ,,その他の設立登記法人,茨城県,つくば市,大角豆１４６７番地,,08,220,3050043,,,2025-09-22,清算の結了等,,,2015-10-05,1,,,,,キズナコドモクラブ,0
2168,9100005011775,登記記録の閉鎖等,0,2025-10-02,2025-09-26,一般社団法人こころの故郷,,その他の設立登記法人,長野県,長野市,中御所３丁目１５番１号総合教育センタービル３Ｆ,,20,201,3800935,,,2025-09-26,清算の結了等,,,2016-01-26,1,,,,,ココロノフルサト,0
2175,9110003001249,登記記録の閉鎖等,0,2025-10-02,2025-09-18,合資会社上越ネットメディア,,合資会社,新潟県,上越市,南城町１丁目１０番２３号,,15,222,9430837,,,2025-09-18,清算の結了等,,,2015-10-05,1,,,,,ジョウエツネットメディア,0
2201,9130002016502,登記記録の閉鎖等,0,2025-10-02,2025-09-30,有限会社清水健三,,有限会社,京都府,京都市中京区,三条通室町西入衣棚町５９番地の１,,26,104,6048203,,,2025-09-30,清算の結了等,,,2015-10-05,1,,,,,シミズケンゾウ,0
2203,9140001001173,登記記録の閉鎖等,0,2025-10-02,2025-09-29,株式会社大川石油店,,株式会社,兵庫県,神戸市東灘区,森南町２丁目２番１号,,28,101,6580011,,,2025-09-29,清算の結了等,,,2015-10-05,1,,,,,オオカワセキユテン,0
2204,9140001061449,登記記録の閉鎖等,0,2025-10-02,2025-09-24,ギケンクリエイティブ株式会社,,株式会社,兵庫県,姫路市,広畑区東新町１丁目７７番地１,,28,201,6711121,,,2025-09-24,清算の結了等,,,2015-10-05,1,,,,,ギケンクリエイティブ,0
2211,9180001059514,登記記録の閉鎖等,0,2025-10-02,2025-09-10,株式会社Ｔｓ－ＢＡＮＱＵＥＴ,,株式会社,愛知県,名古屋市西区,名駅２丁目２３番１４号,,23,104,4510045,,,2025-09-10,清算の結了等,,,2015-10-05,1,,,,,ティーズバンケット,0
2212,9180001066477,登記記録の閉鎖等,0,2025-10-02,2025-09-10,株式会社Ｔｓ－ＳＥＲＶＩＣＥ,,株式会社,愛知県,名古屋市昭和区,前山町３丁目４０番地,,23,107,4660821,,,2025-09-10,清算の結了等,,,2015-10-05,1,,,,,ティーズサービス,0
2215,9180001138061,登記記録の閉鎖等,0,2025-10-02,2025-09-12,株式会社Ｂｅｙｏｕ,,株式会社,東京都,台東区,台東１丁目２３番２号,,13,106,1100016,,,2025-09-12,清算の結了等,,,2019-09-11,1,,,,,ビーユー,0
2228,9190001004147,登記記録の閉鎖等,0,2025-10-02,2025-09-22,株式会社ＫＴＧ三重,,株式会社,三重県,津市,久居本町１５３７番地,,24,201,5141135,,,2025-09-22,清算の結了等,,,2015-10-05,1,,,,,ケーティージーミエ,0
2245,9240002051769,登記記録の閉鎖等,0,2025-10-02,2025-09-26,有限会社リッチランド小田原,,有限会社,広島県,尾道市,向島町５４３１番地の１,,34,205,7220073,,,2025-09-26,清算の結了等,,,2015-10-05,1,,,,,リッチランドオダワラ,0
2259,9290005017845,登記記録の閉鎖等,0,2025-10-02,2025-09-08,ＮＰＯ法人エルキーオ,,その他の設立登記法人,福岡県,福岡市南区,老司５丁目５番２０号,,40,134,8111346,,,2025-09-08,清算の結了等,,,2020-08-12,1,NPO Corporation Elkyo (Specified Nonprofit Corporation Elkyo),Fukuoka,"NPO Corporation Elkyo, 5-5-20, Roji, Fukuoka Shi Minami Ku",,エルキーオ,0
2283,9410003004114,登記記録の閉鎖等,0,2025-10-02,2025-10-01,合同会社緑のティー,,合同会社,秋田県,秋田市,広面字近藤堰越８番地７,,05,201,0100041,,,2025-10-01,清算の結了等,,,2025-06-10,1,,,,,ミドリノティー,0
