sequenceNumber,corporateNumber,process,correct,updateDate,changeDate,name,nameImageId,kind,prefectureName,cityName,streetNumber,addressImageId,prefectureCode,cityCode,postCode,addressOutside,addressOutsideImageId,closeDate,closeCause,successorCorporateNumber,changeCause,assignmentDate,latest,enName,enPrefectureName,enCityName,enAddressOutside,furigana,hihyoji
14,1010001240865,新規,0,2023-12-20,2023-12-20,株式会社ＦＵＥＬ　ＡＮＩＭＡＴＩＯＮ　ＳＴＵＤＩＯ,,株式会社,東京都,文京区,湯島１丁目２番１３号御茶ノ水明神ビル６階,,13,105,1130034,,,,,,,2023-12-20,1,,,,,フュールアニメーションスタジオ,0
15,1010001240964,新規,0,2023-12-20,2023-12-20,ジャパンゲートセンター株式会社,,株式会社,東京都,千代田区,二番町１１－１７－３０１,,13,101,1020084,,,,,,,2023-12-20,1,,,,,ジャパンゲートセンター,0
20,1010003042475,新規,0,2023-12-20,2023-12-20,合同会社ＰＲＯＳＰＥＲ　ＭＯＯＮ,,合同会社,東京都,千代田区,神田錦町１丁目１４番地１１,,13,101,1010054,,,,,,,2023-12-20,1,,,,,エイゲツ,0
21,1010003042491,新規,0,2023-12-20,2023-12-20,合同会社Ｅｔｏｉｌｅ,,合同会社,東京都,文京区,大塚３丁目３番１４号茗荷谷パークホームズ１２０４,,13,105,1120012,,,,,,,2023-12-20,1,,,,,エトワール,0
23,1010401179266,新規,0,2023-12-20,2023-12-20,エイチアンドコンサルティング株式会社,,株式会社,東京都,港区,高輪２丁目１番１３号,,13,103,1080074,,,,,,,2023-12-20,1,,,,,エイチアンドコンサルティング,0
24,1010401179290,新規,0,2023-12-20,2023-12-20,平和観光サービス株式会社,,株式会社,東京都,港区,六本木６丁目２番３１号六本木ヒルズノースタワー１６階,,13,103,1060032,,,,,,,2023-12-20,1,,,,,ヘイワカンコウサービス,0
26,1010403031623,新規,0,2023-12-20,2023-12-20,Ｏｆｆｉｃｅ　Ｆ合同会社,,合同会社,東京都,港区,高輪３丁目１０番１５－４０３号,,13,103,1080074,,,,,,,2023-12-20,1,,,,,オフィスエフ,0
27,1010501051498,新規,0,2023-12-20,2023-12-20,ＡＳＣ株式会社,,株式会社,東京都,台東区,浅草２丁目１０－１２,,13,106,1110032,,,,,,,2023-12-20,1,,,,,エーエスシー,0
28,1010501051523,新規,0,2023-12-20,2023-12-20,ＶＩＥＢＲＩＧＨＴ株式会社,,株式会社,東京都,台東区,橋場２丁目１４－２０デッセルビル３０１,,13,106,1110023,,,,,,,2023-12-20,1,,,,,ビエブライト,0
33,1010601064367,新規,0,2023-12-20,2023-12-20,株式会社アドカル,,株式会社,東京都,墨田区,菊川２丁目５－４,,13,107,1300024,,,,,,,2023-12-20,1,,,,,アドカル,0
36,1010901054381,新規,0,2023-12-20,2023-12-20,株式会社オフィス花崎,,株式会社,東京都,世田谷区,代沢５丁目２４番１２号,,13,112,1550032,,,,,,,2023-12-20,1,,,,,オフィスハナザキ,0
42,1011001158742,新規,0,2023-12-20,2023-12-20,株式会社Ｖａｎｉｌｌａ　Ｍｏｏｎ,,株式会社,東京都,目黒区,自由が丘２丁目１６番１２号ＲＪ３,,13,110,1520035,,,,,,,2023-12-20,1,,,,,バニラムーン,0
43,1011001158817,新規,0,2023-12-20,2023-12-20,モン・シャロン株式会社,,株式会社,東京都,渋谷区,神宮前６丁目２３番４号桑野ビル２階,,13,113,1500001,,,,,,,2023-12-20,1,,,,,モンシャロン,0
44,1011001158932,新規,0,2023-12-20,2023-12-20,株式会社Ｍｉｎｉｍａｌｉ,,株式会社,東京都,渋谷区,恵比寿１丁目３４番１１－５０６号グランドヒルズ恵比寿,,13,113,1500013,,,,,,,2023-12-20,1,,,,,ミニマリ,0
45,1011001158940,新規,0,2023-12-20,2023-12-20,キカイトデアイ株式会社,,株式会社,東京都,渋谷区,円山町５番５号Ｎａｖｉ渋谷Ｖ３階,,13,113,1500044,,,,,,,2023-12-20,1,,,,,キカイトデアイ,0
46,1011001158957,新規,0,2023-12-20,2023-12-20,株式会社ＤＥＶＥＴ,,株式会社,東京都,渋谷区,恵比寿西２丁目４番８号ウィンド恵比寿ビル８Ｆ,,13,113,1500021,,,,,,,2023-12-20,1,,,,,ディベット,0
48,1011003018110,新規,0,2023-12-20,2023-12-20,合同会社らくらくマーケティング,,合同会社,東京都,渋谷区,道玄坂１丁目１０番８号渋谷道玄坂東急ビル２Ｆ－Ｃ,,13,113,1500043,,,,,,,2023-12-20,1,,,,,ラクラクマーケティング,0
49,1011003018135,新規,0,2023-12-20,2023-12-20,合同会社Ｓｅｌｅｃｔ　Ｃａｒｅｅｒ,,合同会社,東京都,渋谷区,神宮前６丁目２９番４号原宿Ｋｏｍｉｙａビル６階,,13,113,1500001,,,,,,,2023-12-20,1,,,,,セレクトキャリア,0
51,1011101105537,新規,0,2023-12-20,2023-12-20,株式会社ＰＡＮＤＡ,,株式会社,東京都,新宿区,新宿１丁目３－１２壱丁目参番館ビル５０１,,13,104,1600022,,,,,,,2023-12-20,1,,,,,パンダ,0
53,1011103013878,新規,0,2023-12-20,2023-12-20,ＣＳ青森今別ＥＳＳ合同会社,,合同会社,東京都,新宿区,西新宿２丁目１番１号新宿三井ビル４３階,,13,104,1600023,,,,,,,2023-12-20,1,,,,,シーエスアオモリイマベツイーエスエス,0
54,1011103013886,新規,0,2023-12-20,2023-12-20,合同会社クレイモア,,合同会社,東京都,新宿区,西新宿３丁目３番１３号西新宿水間ビル６階,,13,104,1600023,,,,,,,2023-12-20,1,,,,,クレイモア,0
57,1011201025123,新規,0,2023-12-20,2023-12-20,株式会社ｍｕｓｕｂｉｍｅ,,株式会社,東京都,中野区,丸山２丁目１６番１号,,13,114,1650021,,,,,,,2023-12-20,1,,,,,ムスビメ,0
60,1011303005007,新規,0,2023-12-20,2023-12-20,ＺＰｒｏ合同会社,,合同会社,東京都,杉並区,下高井戸４丁目４５番６号,,13,115,1680073,,,,,,,2023-12-20,1,,,,,ゼットプロ,0
63,1011601027396,新規,0,2023-12-20,2023-12-20,株式会社弘中住建,,株式会社,東京都,練馬区,上石神井１丁目１２番７号－７０１,,13,120,1770044,,,,,,,2023-12-20,1,,,,,ヒロナカジュウケン,0
68,1011801043532,新規,0,2023-12-20,2023-12-20,三高メンテナンス株式会社,,株式会社,東京都,葛飾区,東立石１丁目５番１号,,13,122,1240013,,,,,,,2023-12-20,1,,,,,サンコウメンテナンス,0
70,1011803005992,新規,0,2023-12-20,2023-12-20,合同会社ＦＬＹ,,合同会社,東京都,葛飾区,鎌倉３丁目４６番９号,,13,122,1250053,,,,,,,2023-12-20,1,,,,,フライ,0
75,1012403006340,新規,0,2023-12-20,2023-12-20,合同会社にこぷらす,,合同会社,東京都,三鷹市,牟礼６丁目１２番１３号,,13,204,1810002,,,,,,,2023-12-20,1,,,,,ニコプラス,0
77,1012801022848,新規,0,2023-12-20,2023-12-20,一光株式会社,,株式会社,東京都,立川市,若葉町２丁目１４番地の１８ジャロックビル１階Ａ,,13,202,1900001,,,,,,,2023-12-20,1,,,,,イッコウ,0
79,1013301051809,新規,0,2023-12-20,2023-12-20,Ｓｕｎ　Ｄｉｒｅｃｔｉｏｎ株式会社,,株式会社,東京都,豊島区,東池袋１丁目３４番５号いちご東池袋ビル６階,,13,116,1700013,,,,,,,2023-12-20,1,,,,,サンディレクション,0
80,1013303006926,新規,0,2023-12-20,2023-12-20,ＴＲＡＮＧ　ＡＮ合同会社,,合同会社,東京都,豊島区,千川１丁目５－４遊葉館１０１号室,,13,116,1710041,,,,,,,2023-12-20,1,,,,,チャンアン,0
85,1020001154973,新規,0,2023-12-20,2023-12-20,株式会社ファベルカンパニー,,株式会社,神奈川県,横浜市旭区,白根７丁目２０番２６号,,14,112,2410005,,,,,,,2023-12-20,1,,,,,ファベルカンパニー,0
87,1020003025215,新規,0,2023-12-20,2023-12-20,合同会社ｍｕｌｂｅｒｒｙ,,合同会社,神奈川県,横浜市南区,永田南２丁目２１番５号,,14,105,2320073,,,,,,,2023-12-20,1,,,,,マルベリー,0
88,1020005016229,新規,0,2023-12-20,2023-12-20,一般社団法人ヨコハマフォント,,その他の設立登記法人,神奈川県,横浜市西区,平沼１丁目４０－１７モンテベルデ横浜５１２,,14,103,2200023,,,,,,,2023-12-20,1,,,,,ヨコハマフォント,0
89,1021001081010,新規,0,2023-12-20,2023-12-20,株式会社三瓶,,株式会社,神奈川県,相模原市緑区,田名２５８１番地１２６－３０３号,,14,151,2520124,,,,,,,2023-12-20,1,,,,,ミカメ,0
102,1030001157728,新規,0,2023-12-20,2023-12-20,株式会社Ｘｂｒｉｄｇｅ,,株式会社,埼玉県,さいたま市北区,東大成町１丁目５８番地５スカイコート大宮２０３号室,,11,102,3310814,,,,,,,2023-12-20,1,,,,,クロスブリッジ,0
103,1030001157769,新規,0,2023-12-20,2023-12-20,株式会社ＮＥＸＴ‐ＰＬＵＳ,,株式会社,埼玉県,川口市,西川口１丁目１９番１２号日隆ビル４階,,11,203,3320021,,,,,,,2023-12-20,1,,,,,ネクストプラス,0
104,1030001157777,新規,0,2023-12-20,2023-12-20,株式会社ＣｒｏｓｓＲｏａｄ,,株式会社,埼玉県,鶴ヶ島市,大字上広谷３３２番地８,,11,241,3502203,,,,,,,2023-12-20,1,,,,,クロスロード,0
106,1030003023267,新規,0,2023-12-20,2023-12-20,ＫＲＩＡＮＪＡ合同会社,,合同会社,埼玉県,深谷市,東方町４丁目３３番１０,,11,218,3660042,,,,,,,2023-12-20,1,,,,,クリアンジャ,0
112,1050001053933,新規,0,2023-12-20,2023-12-20,株式会社さくら,,株式会社,茨城県,桜川市,明日香４丁目６８番地２コーポグレイズ１０１,,08,231,3091216,,,,,,,2023-12-20,1,,,,,サクラ,0
113,1050001053990,新規,0,2023-12-20,2023-12-20,Ｓｕｉｔｅ３０１株式会社,,株式会社,茨城県,結城市,大字結城７０７９番地７スプリングタウン２Ｆ,,08,207,3070001,,,,,,,2023-12-20,1,,,,,スイートサンマルイチ,0
136,1120001260646,新規,0,2023-12-20,2023-12-20,株式会社ＭＯＺソリューションズ,,株式会社,大阪府,大阪市北区,梅田１丁目２番２号大阪駅前第２ビル１２－１２,,27,127,5300001,,,,,,,2023-12-20,1,,,,,モズソリューションズ,0
137,1120001260737,新規,0,2023-12-20,2023-12-20,株式会社新功社,,株式会社,大阪府,大阪市生野区,巽西２丁目１５番１２号,,27,116,5440012,,,,,,,2023-12-20,1,,,,,シンコウシャ,0
138,1120001260794,新規,0,2023-12-20,2023-12-20,株式会社ＢａｒｏＱ　Ｗｏｒｋｓ,,株式会社,大阪府,大阪市中央区,心斎橋筋２丁目７番１１号日宝ロイヤルビルＢ１Ｆ,,27,128,5420085,,,,,,,2023-12-20,1,,,,,バロックワークス,0
139,1120001260811,新規,0,2023-12-20,2023-12-20,株式会社Ｓ‐ＬＩＮＫＸ,,株式会社,大阪府,大阪市西成区,岸里東１丁目８番１４号,,27,122,5570042,,,,,,,2023-12-20,1,,,,,エスリンクス,0
141,1120003025320,新規,0,2023-12-20,2023-12-20,合同会社Ｐ　Ｏｃｅａｎ,,合同会社,大阪府,大阪市西区,阿波座１丁目１４‐６‐１５０５,,27,106,5500011,,,,,,,2023-12-20,1,,,,,ピーオーシャン,0
150,1120103005593,新規,0,2023-12-20,2023-12-20,ＳＴＡＲＳＨＩＰ合同会社,,合同会社,大阪府,堺市北区,新金岡町３丁４番１号クレアガーデン新金岡１０７,,27,146,5918021,,,,,,,2023-12-20,1,,,,,スターシップ,0
166,1140005026851,新規,0,2023-12-20,2023-12-20,医療法人ＭＨ,,その他の設立登記法人,兵庫県,加東市,上滝野２４１８－１,,28,228,6790211,,,,,,,2023-12-20,1,,,,,エムエイチ,0
167,1150001026953,新規,0,2023-12-20,2023-12-20,株式会社登,,株式会社,奈良県,奈良市,中登美ヶ丘６丁目２５番１号,,29,201,6310003,,,,,,,2023-12-20,1,,,,,ノボル,0
170,1170001017934,新規,0,2023-12-20,2023-12-20,株式会社アルファ,,株式会社,和歌山県,和歌山市,加太１１３４番地１９１（１０２）,,30,201,6400103,,,,,,,2023-12-20,1,,,,,アルファ,0
181,1180005020470,新規,0,2023-12-20,2023-12-20,一般社団法人ＳＴＡＲＴ　ＵＰ,,その他の設立登記法人,愛知県,名古屋市北区,清水５丁目４番１８号,,23,103,4620844,,,,,,,2023-12-20,1,,,,,スタートアップ,0
191,1230001020147,新規,0,2023-12-20,2023-12-20,株式会社デンソーシステム,,株式会社,富山県,中新川郡立山町,前沢２３３番地７,,16,323,9300221,,,,,,,2023-12-20,1,,,,,デンソーシステム,0
200,1250003003395,新規,0,2023-12-20,2023-12-20,合同会社恵比寿,,合同会社,山口県,長門市,油谷向津具下２５０３番地２,,35,211,7594623,,,,,,,2023-12-20,1,,,,,,0
211,1290003014760,新規,0,2023-12-20,2023-12-20,フィルランド合同会社,,合同会社,福岡県,久留米市,津福本町１７３３番地２９,,40,203,8300047,,,,,,,2023-12-20,1,,,,,フィルランド,0
212,1300001013564,新規,0,2023-12-20,2023-12-20,株式会社サンプラス,,株式会社,佐賀県,神埼市,千代田町直鳥４４６番地,,41,210,8420053,,,,,,,2023-12-20,1,,,,,サンプラス,0
215,1320001020195,新規,0,2023-12-20,2023-12-20,株式会社ＲＳＲ,,株式会社,大分県,大分市,新町１８番８号,,44,201,8700028,,,,,,,2023-12-20,1,,,,,アールエスアール,0
216,1320003004262,新規,0,2023-12-20,2023-12-20,合同会社ＯＧＡＷＡ,,合同会社,大分県,大分市,賀来西１丁目９番１８号ｍｉｌｄ　ＳＩ１０３,00133054,44,201,8700850,,,,,,,2023-12-20,1,,,,,オガワ,0
218,1330001031588,新規,0,2023-12-20,2023-12-20,株式会社合志郡つくだ,,株式会社,熊本県,合志市,野々島８８番地,,43,216,8611103,,,,,,,2023-12-20,1,,,,,コウシグンツクダ,0
219,1330001031596,新規,0,2023-12-20,2023-12-20,株式会社五感,,株式会社,熊本県,熊本市中央区,上通町３－１５ステラビル２階,,43,101,8600845,,,,,,,2023-12-20,1,,,,,ゴカン,0
221,1330003010136,新規,0,2023-12-20,2023-12-20,合同会社トリプルウィン,,合同会社,熊本県,宇土市,北段原町１６番地３,,43,211,8690451,,,,,,,2023-12-20,1,,,,,トリプルウィン,0
223,1340003004335,新規,0,2023-12-20,2023-12-20,合同会社Ｒａｐｉｄ　Ｒｉｓｅ,,合同会社,鹿児島県,鹿児島市,西千石町１７番２８号ＮＡＤＥＳＨＩＫＯビル４－Ｂ,,46,201,8920847,,,,,,,2023-12-20,1,,,,,ラピッドライズ,0
230,1370001050758,新規,0,2023-12-20,2023-12-20,株式会社ＳＵＪＩＮＯ,,株式会社,宮城県,仙台市太白区,長町２丁目５－４５コーワ長町１０５,,04,104,9820011,,,,,,,2023-12-20,1,,,,,スジノ,0
246,1430001090698,新規,0,2023-12-20,2023-12-20,株式会社ＹＲ,,株式会社,北海道,滝川市,滝の川町西８丁目３番５－５４０６号,,01,225,0730003,,,,,,,2023-12-20,1,,,,,ワイアール,0
249,1430003015769,新規,0,2023-12-20,2023-12-20,北優合同会社,,合同会社,北海道,札幌市東区,北十六条東１丁目２番２０,,01,103,0650016,,,,,,,2023-12-20,1,,,,,キタユウ,0
251,1480001012326,新規,0,2023-12-20,2023-12-20,株式会社ｓｐｏｒｔｓｌｉｎｋｓ,,株式会社,徳島県,徳島市,名東町２丁目６８１番地５,,36,201,7700047,,,,,,,2023-12-20,1,,,,,スポーツリンクス,0
257,1700150122919,新規,0,2023-12-20,2023-12-20,ｌａｎｓｅｎｄｉａｎｚｉｓｈａｎｇｗｕ（ｇｕａｎｇｚｈｏｕ）ｙｏｕｘｉａｎｇｏｎｇｓｉ,,外国会社等,,,,,,,,ｔｉａｎｈｅｑｕｚｈｏｎｇｓｈａｎｄａｄａｏｘｉ６，８ｈａｏｔｉａｎｈｅｇｏｕｗｕｚｈｏｎｇｘｉｎｄｉ２１ｃｅｎｇ　ｚｉｂｉａｎ２１０４－Ｃ０３ｈａｏ（ｊｉｎｘｉａｎｂａｎｇｏｎｇ）Ｇｕａｎｇｚｈｏｕ　Ｇｕａｎｇｄｏｎｇ　５１００００　ＣＮ,,,,,,2023-12-20,1,,,,,ランセンディエンズーシャンウグァンジョウヨウシェンゴンスー,0
275,2010003042474,新規,0,2023-12-20,2023-12-20,合同会社ＨＥＤＥＮ,,合同会社,東京都,千代田区,神田錦町１丁目１４番地１１,,13,101,1010054,,,,,,,2023-12-20,1,,,,,ヘデン,0
277,2010005037654,新規,0,2023-12-20,2023-12-20,一般社団法人ＳＯＳｉＬＡプライベートファンド１,,その他の設立登記法人,東京都,中央区,八丁堀４丁目２番１０号ＡＯＪ税理士法人内,,13,102,1040032,,,,,,,2023-12-20,1,,,,,ソシラプライベートファンドファースト,0
278,2010101015935,新規,0,2023-12-20,2023-12-20,株式会社ＤＣＭ,,株式会社,東京都,八王子市,散田町３丁目４番６号１,,13,201,1930832,,,,,,,2023-12-20,1,,,,,ディシーエム,0
279,2010103002279,新規,0,2023-12-20,2023-12-20,合同会社エヌプランニング,,合同会社,東京都,八王子市,平町２７２番地１サンライフクレセントアレイＡ棟１０２号,,13,201,1920022,,,,,,,2023-12-20,1,,,,,エヌプランニング,0
282,2010401179240,新規,0,2023-12-20,2023-12-20,株式会社Ｃ．Ｍａｒｉｎ,,株式会社,東京都,港区,南青山２丁目２番１５－５３１号,,13,103,1070062,,,,,,,2023-12-20,1,,,,,シーマリン,0
283,2010401179265,新規,0,2023-12-20,2023-12-20,株式会社ジーガン,,株式会社,東京都,港区,赤坂３丁目１１番１４号赤坂ベルゴ９０４号,,13,103,1070052,,,,,,,2023-12-20,1,,,,,ジーガン,0
284,2010401179273,新規,0,2023-12-20,2023-12-20,ＢＩＯ　ｒｅｆｉｎｅ株式会社,,株式会社,東京都,港区,芝公園３丁目５番８号,,13,103,1050011,,,,,,,2023-12-20,1,,,,,バイオリファイン,0
285,2010401179348,新規,0,2023-12-20,2023-12-20,Ｒｏｗｍｏｕｎｔ株式会社,,株式会社,東京都,港区,麻布十番１丁目５番１０号６Ｆ,,13,103,1060045,,,,,,,2023-12-20,1,,,,,ロウマウント,0
286,2010403031622,新規,0,2023-12-20,2023-12-20,合同会社ＣｒｅａｔｉｖｅＥｖｏｌｕｔｉｏｎ,,合同会社,東京都,港区,浜松町２丁目２番１５号浜松町ダイヤビル２Ｆ,,13,103,1050013,,,,,,,2023-12-20,1,,,,,クリエイティブエボリューション,0
287,2010405022784,新規,0,2023-12-20,2023-12-20,一般社団法人全国学術情報分析支援機構,,その他の設立登記法人,東京都,港区,赤坂４丁目２番２５－５０１号,,13,103,1070052,,,,,,,2023-12-20,1,,,,,ゼンコクガクジュツジョウホウブンセキシエンキコウ,0
288,2010405022792,新規,0,2023-12-20,2023-12-20,エフエム＆パートナーズ司法書士法人,,その他の設立登記法人,東京都,港区,虎ノ門３丁目１１番８号山田ビル３階,,13,103,1050001,,,,,,,2023-12-20,1,,,,,エフエムアンドパートナーズ,0
298,2010801034631,新規,0,2023-12-20,2023-12-20,Ａｓｓｉｓｔ　Ｊａｐａｎ株式会社,,株式会社,東京都,大田区,上池台５丁目２番４－５号,,13,111,1450064,,,,,,,2023-12-20,1,,,,,アシストジャパン,0
299,2010901054380,新規,0,2023-12-20,2023-12-20,株式会社オフィス１０３,,株式会社,東京都,世田谷区,玉川台２丁目２４番７－３０２号,,13,112,1580096,,,,,,,2023-12-20,1,,,,,オフィスイチマルサン,0
303,2011001158907,新規,0,2023-12-20,2023-12-20,株式会社ＪＴＳ＆Ｂ　Ｄｉｓｔｒｉｂｕｔｉｏｎ　Ｊａｐａｎ,,株式会社,東京都,渋谷区,道玄坂１丁目１０番８号渋谷道玄坂東急ビル２Ｆ－Ｃ,,13,113,1500043,,,,,,,2023-12-20,1,,,,,ジェイティーエスアンドビーディストリビューションジャパン,0
304,2011001158923,新規,0,2023-12-20,2023-12-20,駒田不動産株式会社,,株式会社,東京都,渋谷区,恵比寿４丁目５番２８－４０５,,13,113,1500013,,,,,,,2023-12-20,1,,,,,コマダフドウサン,0
305,2011001158931,新規,0,2023-12-20,2023-12-20,株式会社Ｙ’ｓ　Ｗｅｌｌｎｅｓｓ,,株式会社,東京都,目黒区,三田２丁目８－３Ｕ低１階,,13,110,1530062,,,,,,,2023-12-20,1,,,,,ワイズウェルネス,0
306,2011001158956,新規,0,2023-12-20,2023-12-20,ＡｔＰｅａｋ株式会社,,株式会社,東京都,渋谷区,道玄坂１丁目１２番１号,,13,113,1500043,,,,,,,2023-12-20,1,,,,,アットピーク,0
321,2011103013877,新規,0,2023-12-20,2023-12-20,ＣＳ北海道苗穂ＥＳＳ合同会社,,合同会社,東京都,新宿区,西新宿２丁目１番１号新宿三井ビル４３階,,13,104,1600023,,,,,,,2023-12-20,1,,,,,シーエスホッカイドウナエボイーエスエス,0
322,2011103013885,新規,0,2023-12-20,2023-12-20,合同会社イラ,,合同会社,東京都,新宿区,大久保２丁目９－１２－３ＦＥ,,13,104,1690072,,,,,,,2023-12-20,1,,,,,イラ,0
327,2011601027395,新規,0,2023-12-20,2023-12-20,株式会社スペースホーム,,株式会社,東京都,練馬区,南大泉４丁目５４番４号,,13,120,1780064,,,,,,,2023-12-20,1,,,,,スペースホーム,0
331,2011801043523,新規,0,2023-12-20,2023-12-20,株式会社いつか,,株式会社,東京都,葛飾区,鎌倉１丁目２３番１４号,,13,122,1250053,,,,,,,2023-12-20,1,,,,,イツカ,0
332,2011801043548,新規,0,2023-12-20,2023-12-20,株式会社きりん企画,,株式会社,東京都,足立区,東保木間１丁目１０番１２号,,13,121,1210063,,,,,,,2023-12-20,1,,,,,キリンキカク,0
338,2013301051799,新規,0,2023-12-20,2023-12-20,株式会社Ｂｌｕｅ　Ｒｅｌａｔｅｄ．,,株式会社,東京都,豊島区,西池袋１丁目３７－８ＪＰビル７Ｆ,,13,116,1710021,,,,,,,2023-12-20,1,,,,,ブルーリレイテッド,0
350,2020001154956,新規,0,2023-12-20,2023-12-20,株式会社８６０Ｆｕｔｕｒｅ’ｓ,,株式会社,神奈川県,横浜市都筑区,佐江戸町５４４番地１ル・リアン４０１,,14,118,2240054,,,,,,,2023-12-20,1,,,,,ハローヒューチャーズ,0
351,2020001154980,新規,0,2023-12-20,2023-12-20,株式会社Ｂｅｅ　Ｔａｌｋ,,株式会社,神奈川県,横浜市金沢区,東朝比奈２丁目２－３５サニークレスト湘南八景２－１０４,,14,108,2360033,,,,,,,2023-12-20,1,,,,,ビートーク,0
354,2021003013927,新規,0,2023-12-20,2023-12-20,ＡＳＭ　ＧＬＯＢＡＬ合同会社,,合同会社,神奈川県,厚木市,長谷１４３３番地１グリーンコテージＢ２階２０２号室,,14,212,2430036,,,,,,,2023-12-20,1,,,,,エーエスエムグローバル,0
363,2030001157776,新規,0,2023-12-20,2023-12-20,株式会社おえかき,,株式会社,埼玉県,川越市,大字砂１０３６番地２０,,11,201,3501133,,,,,,,2023-12-20,1,,,,,オエカキ,0
364,2030001157784,新規,0,2023-12-20,2023-12-20,株式会社亮点,,株式会社,埼玉県,さいたま市見沼区,大字御蔵１２２３番地２８,,11,104,3370033,,,,,,,2023-12-20,1,,,,,リャンデン,0
365,2030001157801,新規,0,2023-12-20,2023-12-20,株式会社Ｎ．Ｔ．Ｍ,,株式会社,埼玉県,越谷市,東越谷５丁目１番地１７,,11,222,3430023,,,,,,,2023-12-20,1,,,,,エヌティエム,0
375,2040003023950,新規,0,2023-12-20,2023-12-20,合同会社アルコポンテ,,合同会社,千葉県,船橋市,前原西６丁目１番２６－１０７号,,12,204,2740825,,,,,,,2023-12-20,1,,,,,アルコポンテ,0
406,2120001260694,新規,0,2023-12-20,2023-12-20,岡野興産株式会社,,株式会社,大阪府,大阪市北区,梅田１丁目１番３号大阪駅前第３ビル２９階１－１－１号室,,27,127,5300001,,,,,,,2023-12-20,1,,,,,オカノコウサン,0
407,2120001260736,新規,0,2023-12-20,2023-12-20,株式会社みちかけ,,株式会社,大阪府,大阪市西区,新町１丁目１４番２１－３１０５号,,27,106,5500013,,,,,,,2023-12-20,1,,,,,ミチカケ,0
410,2120003025492,新規,0,2023-12-20,2023-12-20,合同会社ブルーシルク,,合同会社,大阪府,大阪市平野区,喜連東２丁目１－１０,,27,126,5470021,,,,,,,2023-12-20,1,,,,,ブルーシルク,0
414,2120101068740,新規,0,2023-12-20,2023-12-20,株式会社武正,,株式会社,大阪府,堺市西区,鳳南町５丁６７０番地１５,,27,144,5938325,,,,,,,2023-12-20,1,,,,,タケマサ,0
415,2120103005584,新規,0,2023-12-20,2023-12-20,住吉合同会社,,合同会社,大阪府,堺市美原区,さつき野西３丁目７番６号,,27,147,5870031,,,,,,,2023-12-20,1,,,,,スミヨシ,0
416,2120103005592,新規,0,2023-12-20,2023-12-20,合同会社咲縁,,合同会社,大阪府,堺市西区,北条町２丁２３番５－１号,,27,144,5938302,,,,,,,2023-12-20,1,,,,,エニシ,0
421,2130003009206,新規,0,2023-12-20,2023-12-20,訪問看護ステーションごーるでん合同会社,,合同会社,京都府,亀岡市,篠町夕日ケ丘３丁目５番地１,,26,206,6210829,,,,,,,2023-12-20,1,,,,,ホウモンカンゴステーションゴールデン,0
430,2140005026842,新規,0,2023-12-20,2023-12-20,ＮＰＯ法人近畿支援センター,,その他の設立登記法人,兵庫県,明石市,大久保町福田３丁目８番３７号,,28,203,6740066,,,,,,,2023-12-20,1,,,,,,0
431,2140005026850,新規,0,2023-12-20,2023-12-20,医療法人まごころ会,,その他の設立登記法人,兵庫県,加古川市,加古川町稲屋１－１,,28,210,6750034,,,,,,,2023-12-20,1,,,,,マゴコロカイ,0
434,2150003003149,新規,0,2023-12-20,2023-12-20,合同会社天迦久,00133059,合同会社,奈良県,奈良市,中新屋町１８,,29,201,6308333,,,,,,,2023-12-20,1,,,,,アメノカク,0
436,2170001017933,新規,0,2023-12-20,2023-12-20,やん吉株式会社,,株式会社,和歌山県,橋本市,三石台１丁目５番地の２サンロード三石台１番館３０７号室,,30,203,6480094,,,,,,,2023-12-20,1,,,,,ヤンキチ,0
437,2170001017941,新規,0,2023-12-20,2023-12-20,尾高ホールディングス株式会社,,株式会社,和歌山県,紀の川市,貴志川町神戸７７番地３,,30,208,6400413,,,,,,,2023-12-20,1,,,,,オタカホールディングス,0
440,2180001159337,新規,0,2023-12-20,2023-12-20,＿鴻図株式会社,00133062,株式会社,愛知県,弥富市,善太後南７３５番地,,23,235,4980000,,,,,,,2023-12-20,1,,,,,キンコウズ,0
449,2180005020461,新規,0,2023-12-20,2023-12-20,医療法人つむぐ,,その他の設立登記法人,愛知県,名古屋市緑区,潮見が丘２丁目１７番地,,23,114,4580037,,,,,,,2023-12-20,1,,,,,ツムグ,0
462,2200003006187,新規,0,2023-12-20,2023-12-20,ＣＬＡＭＰＳ合同会社,,合同会社,岐阜県,郡上市,八幡町小野８丁目８番地９,,21,219,5014221,,,,,,,2023-12-20,1,,,,,クランプス,0
476,2260001038540,新規,0,2023-12-20,2023-12-20,株式会社スマイルアップ,,株式会社,岡山県,岡山市北区,新屋敷町３丁目１８番１６－３号ヴィラージオＤ棟,,33,101,7000986,,,,,,,2023-12-20,1,,,,,スマイルアップ,0
501,2290001104059,新規,0,2023-12-20,2023-12-20,まゆみ薬局株式会社,,株式会社,福岡県,福岡市博多区,博多駅東１丁目１１番１５号博多駅東口ビル１Ｆ,,40,132,8120013,,,,,,,2023-12-20,1,,,,,マユミヤッキョク,0
502,2290001104109,新規,0,2023-12-20,2023-12-20,株式会社ＭＭｃｒｅｗ,,株式会社,福岡県,福岡市中央区,大名１丁目１２番２７号,,40,133,8100041,,,,,,,2023-12-20,1,,,,,エムエムクルー,0
509,2310005008732,新規,0,2023-12-20,2023-12-20,一般社団法人ＫＯＫＯＲＯ,,その他の設立登記法人,長崎県,佐世保市,白岳町１６６番地１１秋月ビル３０１,,42,202,8571164,,,,,,,2023-12-20,1,,,,,ココロ,0
510,2320001020194,新規,0,2023-12-20,2023-12-20,株式会社ＣＬＡＭｂａｓｅ,,株式会社,大分県,大分市,金池町２丁目１番１９号大分駅前ビル２Ｆ,,44,201,8700026,,,,,,,2023-12-20,1,,,,,クラムベイス,0
512,2330003010135,新規,0,2023-12-20,2023-12-20,合同会社Ｃｌｏｖｅｒ　Ｇｒｏｕｐ,,合同会社,熊本県,下益城郡美里町,豊富２５３１番地,,43,348,8614705,,,,,,,2023-12-20,1,,,,,クローバーグループ,0
524,2390001017449,新規,0,2023-12-20,2023-12-20,株式会社米沢スクールランチ,,株式会社,山形県,米沢市,丸の内２丁目２番２７号,,06,202,9920052,,,,,,,2023-12-20,1,,,,,ヨネザワスクールランチ,0
530,2410001013676,新規,0,2023-12-20,2023-12-20,株式会社Ｇａｓｔｒｏｎｏｍｙ　Ｌａｂｏ,,株式会社,秋田県,秋田市,広面字板橋添４０番地２４,,05,201,0100041,,,,,,,2023-12-20,1,,,,,ガストロノミーラボ,0
542,2480001012325,新規,0,2023-12-20,2023-12-20,株式会社ユニバーサルモータース,,株式会社,徳島県,板野郡板野町,下庄字神木１１番地４,,36,404,7790118,,,,,,,2023-12-20,1,,,,,ユニバーサルモータース,0
545,2700150122918,新規,0,2023-12-20,2023-12-20,Ｃｈａｎｇｓｈａ　Ｘｉａｏｘｕｅ　Ｔｒａｄｉｎｇ　Ｃｏ．，Ｌｔｄ．,,外国会社等,,,,,,,,ＸｉａｎｇＪｉａｎｇＸｉｎＱｕＬｕＧｕＪｉｅＤａｏＤｏｎｇＦａｎｇＨｏｎｇＢｅｉＬｕ６０１Ｈａｏ　ＭｅｉＴｉＹｉＳｈｕＹｕａｎＤｉＡ－１Ｄｏｎｇ１７Ｃｅｎｇ１７０３ＨａｏＦａｎｇ　ＣｈａｎｇＳｈａＳｈｉ　ＨｕＮａｎ　４１０２０５　ＣＮ,,,,,,2023-12-20,1,,,,,ジャンシャアシァオシュエシャンマオヨウシェンゴンスー,0
550,3010001240921,新規,0,2023-12-20,2023-12-20,株式会社ＴＡＭＡＧＯ　ＦＩＬＭ,,株式会社,東京都,中央区,銀座７丁目１３番６号２階,,13,102,1040061,,,,,,,2023-12-20,1,,,,,タマゴフィルム,0
558,3010003042473,新規,0,2023-12-20,2023-12-20,合同会社ＣＯＤＥＮ,,合同会社,東京都,千代田区,神田錦町１丁目１４番地１１,,13,101,1010054,,,,,,,2023-12-20,1,,,,,コデン,0
570,3010401179207,新規,0,2023-12-20,2023-12-20,Ａｎａｋｈ株式会社,,株式会社,東京都,港区,南麻布１丁目２４番６号バアクレイ南麻布３０３号室,,13,103,1060047,,,,,,,2023-12-20,1,,,,,アナンク,0
571,3010401179264,新規,0,2023-12-20,2023-12-20,株式会社３３,,株式会社,東京都,港区,六本木３丁目１８番２－１４０５号,,13,103,1060032,,,,,,,2023-12-20,1,,,,,サンジュウサン,0
572,3010401179289,新規,0,2023-12-20,2023-12-20,ＥＤＵＧＬＯＢＵＳ株式会社,,株式会社,東京都,港区,芝大門１丁目３番１７号玉家ビル４Ｆ,,13,103,1050012,,,,,,,2023-12-20,1,,,,,エデュグロブス,0
574,3010403031605,新規,0,2023-12-20,2023-12-20,ｃｈｉｔｏｓｅ．Ｋ合同会社,,合同会社,東京都,港区,南青山３丁目１番３６号青山丸竹ビル６Ｆ,,13,103,1070062,,,,,,,2023-12-20,1,,,,,チトセケイ,0
575,3010403031621,新規,0,2023-12-20,2023-12-20,白猫総研合同会社,,合同会社,東京都,港区,西麻布３丁目１５番８号,,13,103,1060031,,,,,,,2023-12-20,1,,,,,シロネコソウケン,0
587,3010905004554,新規,0,2023-12-20,2023-12-20,特定非営利活動法人和と人の交流ちとせ,,その他の設立登記法人,東京都,世田谷区,太子堂４丁目１４番３号,,13,112,1540004,,,,,,,2023-12-20,1,,,,,ワトヒトノコウリュウチトセ,0
589,3011001158880,新規,0,2023-12-20,2023-12-20,株式会社Ｓｈｕｎ,,株式会社,東京都,渋谷区,上原１丁目３９番７号ベイタック・ケイ１０２,,13,113,1510064,,,,,,,2023-12-20,1,,,,,シュン,0
590,3011001158906,新規,0,2023-12-20,2023-12-20,株式会社ＤＣＷ　ＰＲＯＤＵＣＴＳ,,株式会社,東京都,渋谷区,神宮前２丁目３１番７号ビラグロリアＫ１,,13,113,1500001,,,,,,,2023-12-20,1,,,,,ディーシータブリュープロダクツ,0
600,3011101105568,新規,0,2023-12-20,2023-12-20,株式会社アクロス・シティホールディングス,,株式会社,東京都,新宿区,西新宿７丁目５番２５号,,13,104,1600023,,,,,,,2023-12-20,1,,,,,アクロスシティホールディングス,0
603,3011103013876,新規,0,2023-12-20,2023-12-20,ＣＳ福岡飯塚ＥＳＳ合同会社,,合同会社,東京都,新宿区,西新宿２丁目１番１号新宿三井ビル４３階,,13,104,1600023,,,,,,,2023-12-20,1,,,,,シーエスフクオカイイヅカイーエスエス,0
605,3011201025121,新規,0,2023-12-20,2023-12-20,ライフサポート株式会社,,株式会社,東京都,中野区,本町５丁目３３番３０号,,13,114,1640012,,,,,,,2023-12-20,1,,,,,ライフサポート,0
610,3011501030127,新規,0,2023-12-20,2023-12-20,株式会社ポニエ,,株式会社,東京都,荒川区,東尾久１丁目２７－１０ハイツ栗原５０１,,13,118,1160012,,,,,,,2023-12-20,1,,,,,ポニエ,0
622,3011801043539,新規,0,2023-12-20,2023-12-20,株式会社Ｎｉｋａ商事,,株式会社,東京都,足立区,東伊興３丁目４－１４－１０２,,13,121,1210801,,,,,,,2023-12-20,1,,,,,ニカショウジ,0
624,3012403006339,新規,0,2023-12-20,2023-12-20,ＧｕｉｌｄＳｐｏｔ合同会社,,合同会社,東京都,三鷹市,新川１丁目１０番２０号,,13,204,1810004,,,,,,,2023-12-20,1,,,,,ギルドスポット,0
635,3020001154955,新規,0,2023-12-20,2023-12-20,株式会社ＲｅＮ,,株式会社,神奈川県,川崎市宮前区,小台１丁目７－１－３０５,,14,136,2160007,,,,,,,2023-12-20,1,,,,,レン,0
636,3020001154996,新規,0,2023-12-20,2023-12-20,株式会社ＬＩＣＣＵＭＩＡ,,株式会社,神奈川県,横浜市中区,元町４丁目１６１番地８Ｍ＆Ｋ元町１階,,14,104,2310861,,,,,,,2023-12-20,1,,,,,リックミーア,0
646,3021001081000,新規,0,2023-12-20,2023-12-20,株式会社サンフィールド,,株式会社,神奈川県,相模原市緑区,大島７２３番地１,,14,151,2520135,,,,,,,2023-12-20,1,,,,,サンフィールド,0
647,3021001081009,新規,0,2023-12-20,2023-12-20,雲水株式会社,,株式会社,神奈川県,秦野市,下大槻７２５－２ハイツ・サンウェイ２０３号,,14,211,2570004,,,,,,,2023-12-20,1,,,,,ウンスイ,0
650,3021003013926,新規,0,2023-12-20,2023-12-20,インペックス・ホールディングス合同会社,,合同会社,神奈川県,相模原市中央区,田名５５５７番地７,,14,152,2520244,,,,,,,2023-12-20,1,,,,,インペックスホールディングス,0
655,3030001157775,新規,0,2023-12-20,2023-12-20,食乃邱株式会社,,株式会社,埼玉県,川口市,東本郷２丁目１９番２６号,,11,203,3340063,,,,,,,2023-12-20,1,,,,,ショクノオカ,0
658,3030003023249,新規,0,2023-12-20,2023-12-20,茘麗合同会社,,合同会社,埼玉県,川越市,大字下広谷１１１５番地４,,11,201,3500804,,,,,,,2023-12-20,1,,,,,リレイ,0
679,3060001036638,新規,0,2023-12-20,2023-12-20,ＳＭ　ＴＲＡＤＩＮＧ株式会社,,株式会社,栃木県,小山市,大字粟宮１７９８番地宮内コーポＡ棟２０２号室,,09,208,3290201,,,,,,,2023-12-20,1,,,,,エスエムトレーディング,0
696,3090001018468,新規,0,2023-12-20,2023-12-20,株式会社ｅ．Ａｍｂｅｒ,,株式会社,山梨県,南アルプス市,沢登４０番地１,,19,208,4000302,,,,,,,2023-12-20,1,,,,,イーアンバー,0
707,3120001260768,新規,0,2023-12-20,2023-12-20,東昇国際商貿株式会社,,株式会社,大阪府,大阪市西成区,鶴見橋３丁目１０番３号１階,,27,122,5570031,,,,,,,2023-12-20,1,,,,,トウショウコクサイショウボウ,0
708,3120001260776,新規,0,2023-12-20,2023-12-20,楽活商事株式会社,,株式会社,大阪府,大阪市浪速区,芦原１丁目１番７号,00133061,27,111,5560029,,,,,,,2023-12-20,1,,,,,ラクカツショウジ,0
709,3120001260784,新規,0,2023-12-20,2023-12-20,株式会社ＤＡＩＦＵＫＵ,,株式会社,大阪府,大阪市中央区,心斎橋筋２丁目７番２０号サザンパレスビル５Ｆ,,27,128,5420085,,,,,,,2023-12-20,1,,,,,ダイフク,0
710,3120001260801,新規,0,2023-12-20,2023-12-20,株式会社泰富,,株式会社,大阪府,大阪市中央区,南船場２丁目６－２１－２Ｆ,,27,128,5420081,,,,,,,2023-12-20,1,,,,,タイフ,0
711,3120001260818,新規,0,2023-12-20,2023-12-20,株式会社匠技建,,株式会社,大阪府,門真市,小路町１５番７号トキワパレス２－１Ｃ５,,27,223,5710058,,,,,,,2023-12-20,1,,,,,タクミギケン,0
713,3120003025517,新規,0,2023-12-20,2023-12-20,ビッグ・フィールド合同会社,,合同会社,大阪府,枚方市,東中振１丁目２１番１６－４０４号,,27,210,5730093,,,,,,,2023-12-20,1,,,,,ビッグフィールド,0
714,3120005024054,新規,0,2023-12-20,2023-12-20,一般社団法人まちづくり支援機関,,その他の設立登記法人,大阪府,大阪市都島区,都島中通３丁目１４番９－２０２号,,27,102,5340022,,,,,,,2023-12-20,1,,,,,マチヅクリシエンキカン,0
716,3120103005591,新規,0,2023-12-20,2023-12-20,合同会社スマイルクラス,,合同会社,大阪府,高石市,東羽衣５丁目４番６号,,27,225,5920003,,,,,,,2023-12-20,1,,,,,スマイルクラス,0
722,3130001075959,新規,0,2023-12-20,2023-12-20,Ｋｙｏｔｏｍｏｕｎｔ　Ｉｎｔｅｒｎａｔｉｏｎａｌ株式会社,,株式会社,京都府,京都市中京区,釜座通押小路下る下松屋町７１９番地２,,26,104,6040034,,,,,,,2023-12-20,1,,,,,キョウトマウントインターナショナル,0
725,3140001132701,新規,0,2023-12-20,2023-12-20,ファイナルアンサー株式会社,,株式会社,兵庫県,尼崎市,塚口町１丁目２７－２,,28,202,6610002,,,,,,,2023-12-20,1,,,,,ファイナルアンサー,0
730,3160001025572,新規,0,2023-12-20,2023-12-20,株式会社ウエストヴィレッジ,,株式会社,滋賀県,長浜市,下之郷町７０９番地,,25,203,5260005,,,,,,,2023-12-20,1,,,,,ウエストヴィレッジ,0
731,3170001017940,新規,0,2023-12-20,2023-12-20,株式会社明成造園,,株式会社,和歌山県,和歌山市,鳴神１６番地４０,,30,201,6408303,,,,,,,2023-12-20,1,,,,,メイセイゾウエン,0
736,3180001159352,新規,0,2023-12-20,2023-12-20,株式会社プラドミント,,株式会社,愛知県,瀬戸市,苗場町１番地の２５,,23,204,4890983,,,,,,,2023-12-20,1,,,,,プラドミント,0
738,3180301038124,新規,0,2023-12-20,2023-12-20,ヒューマテックジャパン株式会社,,株式会社,愛知県,刈谷市,松栄町２丁目８番地１６,,23,210,4480806,,,,,,,2023-12-20,1,,,,,ヒューマテックジャパン,0
743,3190003004539,新規,0,2023-12-20,2023-12-20,合同会社ＯＨＲＩＮ,,合同会社,三重県,桑名市,大字大仲新田４５２番地１クローバー１０２号室,,24,205,5110947,,,,,,,2023-12-20,1,,,,,オーリン,0
750,3240001062574,新規,0,2023-12-20,2023-12-20,株式会社Ｐｏｎｔｅ　Ｇｏｄｅｒｅ,,株式会社,広島県,東広島市,西条町助実１８３７ニューロータス３０２号,,34,212,7390021,,,,,,,2023-12-20,1,,,,,ポンテゴデーレ,0
752,3250001020440,新規,0,2023-12-20,2023-12-20,株式会社ＳＫＳ,,株式会社,山口県,山口市,秋穂東７５１９,,35,203,7541101,,,,,,,2023-12-20,1,,,,,エスケイエス,0
770,3290001104116,新規,0,2023-12-20,2023-12-20,株式会社ＴＥＮＰＯ,,株式会社,福岡県,宗像市,緑町１６５番地,,40,220,8114172,,,,,,,2023-12-20,1,,,,,テンポ,0
776,3290805009691,新規,0,2023-12-20,2023-12-20,三楽農事組合法人,,その他の設立登記法人,福岡県,豊前市,大字三楽７９番地４,,40,214,8280032,,,,,,,2023-12-20,1,,,,,サンラク,0
779,3300001013562,新規,0,2023-12-20,2023-12-20,株式会社ＡＤＯ,,株式会社,佐賀県,佐賀市,本庄町大字袋２８６番地５,,41,201,8400023,,,,,,,2023-12-20,1,,,,,アド,0
782,3320001020193,新規,0,2023-12-20,2023-12-20,株式会社ＭＩＹＡＶＩ,,株式会社,大分県,由布市,湯布院町川北５０７番地の１,,44,213,8795114,,,,,,,2023-12-20,1,,,,,ミヤビ,0
787,3330001031578,新規,0,2023-12-20,2023-12-20,株式会社コネクト,,株式会社,熊本県,熊本市南区,良町５丁目５番３２号,,43,104,8620969,,,,,,,2023-12-20,1,,,,,コネクト,0
789,3330003010134,新規,0,2023-12-20,2023-12-20,合同会社オバマ,,合同会社,熊本県,熊本市東区,長嶺南３丁目４番９５－３０１号,,43,102,8618039,,,,,,,2023-12-20,1,,,,,オバマ,0
790,3340003004333,新規,0,2023-12-20,2023-12-20,合同会社ＮＩＫＣ,,合同会社,鹿児島県,鹿児島市,山下町９番２６号ファインビルＢ１Ｆ,,46,201,8920816,,,,,,,2023-12-20,1,,,,,ニック,0
796,3360001032953,新規,0,2023-12-20,2023-12-20,株式会社かなまる,,株式会社,沖縄県,沖縄市,高原４丁目１０番１０－３号,,47,211,9042171,,,,,,,2023-12-20,1,,,,,カナマル,0
798,3360003013539,新規,0,2023-12-20,2023-12-20,合同会社ＡＰＰ　ＬＩＦＥ,,合同会社,沖縄県,那覇市,首里山川町２丁目６９番地１４,,47,201,9030825,,,,,,,2023-12-20,1,,,,,アップライフ,0
799,3360003013555,新規,0,2023-12-20,2023-12-20,合同会社十人十色,,合同会社,沖縄県,糸満市,字座波７５４番地の１,,47,210,9010314,,,,,,,2023-12-20,1,,,,,ジュウニントイロ,0
802,3370001050748,新規,0,2023-12-20,2023-12-20,株式会社笑,,株式会社,宮城県,角田市,角田字野田前２９８番地,,04,208,9811505,,,,,,,2023-12-20,1,,,,,エミ,0
803,3370001050756,新規,0,2023-12-20,2023-12-20,株式会社ＡＺＥＳ,,株式会社,宮城県,仙台市若林区,今泉２丁目１７番７３号,,04,103,9840835,,,,,,,2023-12-20,1,,,,,アゼス,0
826,3480001012324,新規,0,2023-12-20,2023-12-20,株式会社ｗｉｔｈ　ｓｕｐｐｏｒｔ,,株式会社,徳島県,小松島市,小松島町字外開２３番地６,,36,203,7730001,,,,,,,2023-12-20,1,,,,,ウィズサポート,0
831,3700150122090,新規,0,2023-12-20,2023-11-14,土浦市地域クラブ活動推進協会,,その他,茨城県,土浦市,文京町１０－１６,,08,203,3000045,,,,,,,2023-11-14,1,,,,,ツチウラシチイキクラブカツドウスイシンキヨウカイ,0
832,3700150122917,新規,0,2023-12-20,2023-12-20,ｄｏｎｇｇｕａｎｙｕｎｚｅｋｅｊｉｙｏｕｘｉａｎｇｏｎｇｓｉ,,外国会社等,,,,,,,,Ｎｏ．１５　Ｓｈｉｚｈａｉ　Ｒｏａｄ，Ｃｈａｎｇ’ａｎ　Ｔｏｗｎ　Ｒｏｏｍ　４０１　Ｄｏｎｇｇｕａｎ　Ｇｕａｎｇｄｏｎｇ　５２３８４６　ＣＮ,,,,,,2023-12-20,1,,,,,ドンワンユンズァカージヨウシェンゴンスー,0
847,4010001240953,新規,0,2023-12-20,2023-12-20,株式会社Ｓｋｅｌｅｔｏｎ,,株式会社,東京都,千代田区,神田猿楽町２丁目８番１１号,,13,101,1010064,,,,,,,2023-12-20,1,,,,,スケルトン,0
852,4010003042472,新規,0,2023-12-20,2023-12-20,合同会社ＢＥＤＡ,,合同会社,東京都,千代田区,神田錦町１丁目１４番地１１,,13,101,1010054,,,,,,,2023-12-20,1,,,,,ベダ,0
853,4010005037652,新規,0,2023-12-20,2023-12-20,マクシブ社会保険労務士法人,,その他の設立登記法人,東京都,中央区,銀座３丁目１０－９ＫＥＣ銀座ビル８階,,13,102,1040061,,,,,,,2023-12-20,1,,,,,マクシブ,0
866,4010401179230,新規,0,2023-12-20,2023-12-20,株式会社ＣＴ,,株式会社,東京都,港区,六本木７丁目１７番１２号,,13,103,1060032,,,,,,,2023-12-20,1,,,,,シーティー,0
867,4010401179239,新規,0,2023-12-20,2023-12-20,セイタキャピタル株式会社,,株式会社,東京都,港区,台場２丁目２番２号,,13,103,1350091,,,,,,,2023-12-20,1,,,,,セイタキャピタル,0
868,4010401179263,新規,0,2023-12-20,2023-12-20,株式会社広済堂ハウスキーピングサービス,,株式会社,東京都,港区,芝浦１丁目２番３号シーバンスＳ館１３階,,13,103,1050023,,,,,,,2023-12-20,1,,,,,コウサイドウハウスキーピングサービス,0
869,4010401179296,新規,0,2023-12-20,2023-12-20,不動産ＤＸホールディングス株式会社,,株式会社,東京都,港区,六本木１丁目６番１号,,13,103,1060032,,,,,,,2023-12-20,1,,,,,フドウサンディーエックスホールディングス,0
889,4011001158871,新規,0,2023-12-20,2023-12-20,株式会社ＣＯＳＡＣＡ　ＬＯＧＩＳＴＩＣＳ,,株式会社,東京都,渋谷区,代々木２丁目２０番地９ジェイパークヨヨギ１０１,,13,113,1510053,,,,,,,2023-12-20,1,,,,,コサカロジスティクス,0
899,4011101105542,新規,0,2023-12-20,2023-12-20,株式会社Ｂｉｌｌｉｏｎ　Ｗａｔｃｈ,,株式会社,東京都,新宿区,北新宿３丁目２８番７号栄マンションＢ０７号,,13,104,1690074,,,,,,,2023-12-20,1,,,,,ビリオンウォッチ,0
900,4011101105550,新規,0,2023-12-20,2023-12-20,株式会社ＭＯＲＥ,,株式会社,東京都,新宿区,西新宿３丁目５番１２号,,13,104,1600023,,,,,,,2023-12-20,1,,,,,モア,0
903,4011103013875,新規,0,2023-12-20,2023-12-20,ＣＳ北海道千歳ＥＳＳ合同会社,,合同会社,東京都,新宿区,西新宿２丁目１番１号新宿三井ビル４３階,,13,104,1600023,,,,,,,2023-12-20,1,,,,,シーエスホッカイドウチトセイーエスエス,0
906,4011303004996,新規,0,2023-12-20,2023-12-20,合同会社ユクレシア出版,,合同会社,東京都,杉並区,西荻南３丁目８番１６号メゾン西荻５０６号室,,13,115,1670053,,,,,,,2023-12-20,1,,,,,ユクレシアシュッパン,0
908,4011601027393,新規,0,2023-12-20,2023-12-20,株式会社ラウズアクト,,株式会社,東京都,練馬区,中村南２丁目２番８号,,13,120,1760025,,,,,,,2023-12-20,1,,,,,ラウズアクト,0
911,4011801043521,新規,0,2023-12-20,2023-12-20,株式会社Ｐｈ．Ｄ．マネジメント,,株式会社,東京都,足立区,中川４丁目４０番１３号,,13,121,1200002,,,,,,,2023-12-20,1,,,,,ピーエイチディーマネジメント,0
915,4012403006338,新規,0,2023-12-20,2023-12-20,合同会社サン・ライク,,合同会社,東京都,三鷹市,大沢２丁目１４番２６－２０６号,,13,204,1810015,,,,,,,2023-12-20,1,,,,,サンライク,0
919,4012801022845,新規,0,2023-12-20,2023-12-20,株式会社ヒューマンＭＫ,,株式会社,東京都,国立市,北２丁目２番の１エクセル国立グレイスコート２２１,,13,215,1860001,,,,,,,2023-12-20,1,,,,,ヒューマンエムケー,0
920,4012803003265,新規,0,2023-12-20,2023-12-20,光日出リファイン合同会社,,合同会社,東京都,国分寺市,東恋ヶ窪３丁目３４番地１１７,,13,214,1850014,,,,,,,2023-12-20,1,,,,,ミツヒデリファイン,0
921,4013101009319,新規,0,2023-12-20,2023-12-20,桜渡国際株式会社,,株式会社,東京都,福生市,加美平１丁目１６番地９グリーンビル４０１号室,,13,218,1970012,,,,,,,2023-12-20,1,,,,,,0
928,4020003025220,新規,0,2023-12-20,2023-12-20,Ｙ＆Ｃ商事合同会社,,合同会社,神奈川県,横浜市南区,清水ケ丘２１４番６号,,14,105,2320007,,,,,,,2023-12-20,1,,,,,ワイアンドショウジ,0
929,4020005016168,新規,0,2023-12-20,2023-12-20,一般社団法人ＢＡＹＳＩＤＥ　ＦＣ　ＹＯＫＯＨＡＭＡ,,その他の設立登記法人,神奈川県,横浜市磯子区,岡村３丁目４番３５号,,14,107,2350021,,,,,,,2023-12-20,1,,,,,ベイサイドエフシーヨコハマ,0
938,4030001157782,新規,0,2023-12-20,2023-12-20,Ｋ‐Ｂｅｓｔ　Ｔｅｃｈｎｏｌｏｇｙ株式会社,,株式会社,埼玉県,さいたま市中央区,上落合２丁目３番２号Ｍｉｏ新都心,,11,105,3380001,,,,,,,2023-12-20,1,,,,,ケーベストテクノロジー,0
942,4030003023256,新規,0,2023-12-20,2023-12-20,合同会社向日・葵,,合同会社,埼玉県,さいたま市西区,大字指扇１３９７番地５３,,11,101,3310047,,,,,,,2023-12-20,1,,,,,ヒマワリ,0
943,4030003023264,新規,0,2023-12-20,2023-12-20,合同会社ＢＡＳＥ,,合同会社,埼玉県,さいたま市緑区,美園４丁目１番地１ウエリス浦和美園サウステラス１０５号室,,11,109,3360967,,,,,,,2023-12-20,1,,,,,ベース,0
944,4030003023272,新規,0,2023-12-20,2023-12-20,合同会社ニュー・ストリート,,合同会社,埼玉県,八潮市,大字新町１１８番地,,11,234,3400807,,,,,,,2023-12-20,1,,,,,ニューストリート,0
954,4040003023981,新規,0,2023-12-20,2023-12-20,ＳＭ・ＬＴアートジャパン合同会社,,合同会社,千葉県,市川市,大野町２丁目２３２番地,,12,203,2720805,,,,,,,2023-12-20,1,,,,,エスエムエルティーアートジャパン,0
958,4050001053996,新規,0,2023-12-20,2023-12-20,ＧＲＥＥＮ　ＬＩＯＮ　ＣＯＲＰＯＲＡＴＩＯＮ株式会社,,株式会社,茨城県,筑西市,布川８４６番地３２－Ｂ,,08,227,3080846,,,,,,,2023-12-20,1,,,,,グリーンライオンコーポレーション,0
970,4080105006385,新規,0,2023-12-20,2023-12-20,特定非営利活動法人ふじのくに乳がん交流サロン,,その他の設立登記法人,静岡県,沼津市,御幸町１４番１２号,,22,203,4100832,,,,,,,2023-12-20,1,,,,,フジノクニニュウガンコウリュウサロン,0
983,4120001260759,新規,0,2023-12-20,2023-12-20,ＷＥ　ＢＡＳＥ株式会社,,株式会社,大阪府,大阪市都島区,片町１丁目４番７号カスティーヨ天満橋３０２号,,27,102,5340025,,,,,,,2023-12-20,1,,,,,ウィベース,0
984,4120001260767,新規,0,2023-12-20,2023-12-20,志凡株式会社,,株式会社,大阪府,大阪市生野区,巽北１丁目７番３号３０２,00133060,27,116,5440004,,,,,,,2023-12-20,1,,,,,シボン,0
985,4120001260775,新規,0,2023-12-20,2023-12-20,ＪＳ資管株式会社,,株式会社,大阪府,大阪市中央区,島之内２丁目９番１５－２０７号,,27,128,5420082,,,,,,,2023-12-20,1,,,,,ジエイエスシカン,0
987,4120003025573,新規,0,2023-12-20,2023-12-20,合同会社トランクラボ,,合同会社,大阪府,大阪市福島区,海老江２丁目１‐７‐１１０２,,27,103,5530001,,,,,,,2023-12-20,1,,,,,トランクラボ,0
990,4120101068730,新規,0,2023-12-20,2023-12-20,株式会社ＫＡＳＥＮ,,株式会社,大阪府,堺市中区,東山６９９番地２２,,27,142,5998247,,,,,,,2023-12-20,1,,,,,カセン,0
991,4120101068739,新規,0,2023-12-20,2023-12-20,株式会社和心堂,,株式会社,大阪府,富田林市,常盤町１３－２３－１０２号アライアンス常盤町,,27,214,5840032,,,,,,,2023-12-20,1,,,,,ワシンドウ,0
1008,4140001132675,新規,0,2023-12-20,2023-12-20,株式会社ＣＬＡＲＵＳ,,株式会社,兵庫県,神戸市北区,有野台３丁目１９番地の２,,28,109,6511321,,,,,,,2023-12-20,1,,,,,クラルス,0
1010,4150001026959,新規,0,2023-12-20,2023-12-20,株式会社グッドライフ,,株式会社,奈良県,北葛城郡広陵町,馬見北７丁目１番９－１６号,,29,426,6350831,,,,,,,2023-12-20,1,,,,,グッドライフ,0
1016,4180001159450,新規,0,2023-12-20,2023-12-20,株式会社ＴＡＥコンサルティング,,株式会社,愛知県,名古屋市中村区,名駅３丁目４－１０アルティメイト名駅１ｓｔ２階,,23,105,4500002,,,,,,,2023-12-20,1,,,,,ティーエーイーコンサルティング,0
1017,4180003026104,新規,0,2023-12-20,2023-12-20,合同会社とんとん,,合同会社,愛知県,名古屋市瑞穂区,豊岡通２丁目１７番地サンテラス瑞穂３Ｅ号,,23,108,4670012,,,,,,,2023-12-20,1,,,,,トントン,0
1022,4190005011895,新規,0,2023-12-20,2023-12-20,特定非営利活動法人ＨＯＭＥ,,その他の設立登記法人,三重県,津市,大門２３番２４号,,24,201,5140027,,,,,,,2023-12-20,1,,,,,ホーム,0
1024,4200001042001,新規,0,2023-12-20,2023-12-20,ｒｉｋｕｒａ株式会社,,株式会社,岐阜県,岐阜市,大福町５丁目２番地,,21,201,5020934,,,,,,,2023-12-20,1,,,,,リクラ,0
1037,4260001038588,新規,0,2023-12-20,2023-12-20,株式会社ＣＲＡＹＯＮ,,株式会社,岡山県,玉野市,後閑２２１,,33,204,7060315,,,,,,,2023-12-20,1,,,,,クレヨン,0
1045,4290001104107,新規,0,2023-12-20,2023-12-20,株式会社ホームリンク,,株式会社,福岡県,古賀市,駅東２丁目１４番３７号,,40,223,8113102,,,,,,,2023-12-20,1,,,,,ホームリンク,0
1046,4290001104123,新規,0,2023-12-20,2023-12-20,株式会社Ｓｐａｃｅ　Ｆｏｏｄ　Ｌａｂ．,,株式会社,福岡県,久留米市,百年公園１番１号,,40,203,8390864,,,,,,,2023-12-20,1,,,,,スペースフードラボ,0
1049,4290003014758,新規,0,2023-12-20,2023-12-20,合資会社アトレ,,合資会社,福岡県,福岡市中央区,薬院２丁目２番２６－５０３号,,40,133,8100022,,,,,,,2023-12-20,1,,,,,,0
1050,4290005019219,新規,0,2023-12-20,2023-12-20,一般社団法人ＹＵＯＮ,,その他の設立登記法人,福岡県,福岡市博多区,空港前３丁目１２番５７号,,40,132,8120002,,,,,,,2023-12-20,1,,,,,ユオン,0
1053,4300001013561,新規,0,2023-12-20,2023-12-20,株式会社フィーリングカーズ,,株式会社,佐賀県,小城市,三日月町金田１１１５番地,,41,208,8450032,,,,,,,2023-12-20,1,,,,,フィーリングカーズ,0
1054,4310001018758,新規,0,2023-12-20,2023-12-20,株式会社Ｉ’ｍ　ｔｈｅ　ｏｎｅ,,株式会社,長崎県,壱岐市,郷ノ浦町郷ノ浦１０８番地北原ビル３０２号,,42,210,8115135,,,,,,,2023-12-20,1,,,,,アイムザワン,0
1057,4310003004698,新規,0,2023-12-20,2023-12-20,合同会社Ｋ‐ＴＥＣ,,合同会社,長崎県,長崎市,三原２丁目７番１９号－１０１号,,42,201,8528123,,,,,,,2023-12-20,1,,,,,ケイテック,0
1059,4330001031585,新規,0,2023-12-20,2023-12-20,株式会社Ｒ＆Ｃ,,株式会社,熊本県,熊本市中央区,花畑町１１番３２号,,43,101,8600806,,,,,,,2023-12-20,1,,,,,アールアンドシー,0
1061,4330003010133,新規,0,2023-12-20,2023-12-20,クロスロードジャパン合同会社,,合同会社,熊本県,天草市,諏訪町１１－２０,,43,215,8630037,,,,,,,2023-12-20,1,,,,,クロスロードジャパン,0
1064,4370001050747,新規,0,2023-12-20,2023-12-20,東北ミクロン医療株式会社,,株式会社,宮城県,仙台市青葉区,高松２丁目１５番３２号－２階,,04,101,9810907,,,,,,,2023-12-20,1,,,,,トウホクミクロンイリョウ,0
1074,4400001016496,新規,0,2023-12-20,2023-12-20,株式会社不動産トラストマネジメント,,株式会社,岩手県,盛岡市,東黒石野１丁目１２番７号,,03,201,0200108,,,,,,,2023-12-20,1,,,,,フドウサントラストマネジメント,0
1076,4400005008374,新規,0,2023-12-20,2023-12-20,一般社団法人いきいきライフ協会盛岡北,,その他の設立登記法人,岩手県,盛岡市,月が丘３丁目３１番４２号,,03,201,0200121,,,,,,,2023-12-20,1,,,,,イキイキライフキョウカイモリオカキタ,0
1083,4420001018516,新規,0,2023-12-20,2023-12-20,株式会社ミクマリ,,株式会社,青森県,三戸郡階上町,蒼前東４丁目６番地３５６,,02,446,0391211,,,,,,,2023-12-20,1,,,,,ミクマリ,0
1085,4430001090695,新規,0,2023-12-20,2023-12-20,株式会社伊達苺ファーム,,株式会社,北海道,伊達市,東関内町６３番地２,,01,233,0520006,,,,,,,2023-12-20,1,,,,,ダテイチゴファーム,0
1091,4500001025371,新規,0,2023-12-20,2023-12-20,株式会社エヒメサービス,,株式会社,愛媛県,松山市,平井町甲２１６９番地７７,,38,201,7910243,,,,,,,2023-12-20,1,,,,,エヒメサービス,0
1092,4700150122916,新規,0,2023-12-20,2023-12-20,Ｊｉｘｉｓｈｉｈｏｎｇｓｈｕｙｕａｎｄｉａｎｚｉｓｈａｎｇｗｕｙｏｕｘｉａｎｇｏｎｇｓｉ,,外国会社等,,,,,,,,Ｎｏ．６　Ｃｏｍｐｒｅｈｅｎｓｉｖｅ　Ｂｕｉｌｄｉｎｇ，Ｇｏｌｄｅｎ　Ｔｒｉａｎｇｌｅ　Ａｕｔｏｍｏｂｉｌｅ　Ｔｒａｄｅ　ａｎｄ　Ｌｏｇｉｓｔｉｃｓ　Ｃｅｎｔｅｒ，Ｃｅｎｔｒａｌ　Ｏｆｆｉｃｅ　ｏｆ　Ｃｈｅｎｇｚｉｈｅ　Ｄｉｓｔｒｉｃｔ，Ｊｉｘｉ　Ｃｉｔｙ　Ｈｅｉｌｏｎｇｊｉａｎｇ　１５８１００　ＣＮ,,,,,,2023-12-20,1,,,,,ジーシーシホンシュウユェンディエンズーシャンウヨウシェンゴンスー,0
1123,5010401179205,新規,0,2023-12-20,2023-12-20,株式会社ＦｅｍＭａｒｔ,,株式会社,東京都,港区,芝浦３丁目１７－１１天翔オフィス田町３０２,,13,103,1080023,,,,,,,2023-12-20,1,,,,,フェムマート,0
1124,5010401179279,新規,0,2023-12-20,2023-12-20,株式会社ナナシアン,,株式会社,東京都,港区,西麻布２丁目２４番３１－５０３号,,13,103,1060031,,,,,,,2023-12-20,1,,,,,ナナシアン,0
1125,5010401179295,新規,0,2023-12-20,2023-12-20,株式会社Ｃｉｒｃｕｉｔ６１,,株式会社,東京都,港区,六本木１丁目６番１号,,13,103,1060032,,,,,,,2023-12-20,1,,,,,サーキットロクイチ,0
1126,5010401179312,新規,0,2023-12-20,2023-12-20,アルテミス貿易株式会社,,株式会社,東京都,港区,赤坂３丁目１３－３,,13,103,1070052,,,,,,,2023-12-20,1,,,,,アルテミスボウエキ,0
1128,5010501051503,新規,0,2023-12-20,2023-12-20,友運株式会社,,株式会社,東京都,台東区,上野６丁目７－１６川久保ビル８２５室,,13,106,1100005,,,,,,,2023-12-20,1,,,,,ユウウン,0
1129,5010501051528,新規,0,2023-12-20,2023-12-20,株式会社エンクラフト,,株式会社,東京都,台東区,駒形２丁目１番４号リベーラ２１４、３０１,,13,106,1110043,,,,,,,2023-12-20,1,,,,,エンクラフト,0
1130,5010601064355,新規,0,2023-12-20,2023-12-20,株式会社Ｗｏｐｐｉ,,株式会社,東京都,墨田区,緑４丁目４番６号,,13,107,1300021,,,,,,,2023-12-20,1,,,,,ワッピー,0
1131,5010601064363,新規,0,2023-12-20,2023-12-20,株式会社エース,,株式会社,東京都,江東区,豊洲５丁目６番２９号,,13,108,1350061,,,,,,,2023-12-20,1,,,,,エース,0
1133,5010701045288,新規,0,2023-12-20,2023-12-20,ＧＡＬＡＸＹ　ＰＡＣＫＡＧＥＲＳ株式会社,,株式会社,東京都,品川区,大井１丁目２１番２号豊強ビル７０２Ｃ,,13,109,1400014,,,,,,,2023-12-20,1,,,,,ギャラクシーパッケージャーズ,0
1139,5011001158920,新規,0,2023-12-20,2023-12-20,ｉｍｉ株式会社,,株式会社,東京都,目黒区,自由が丘２丁目１６番１２号ＲＪ３,,13,110,1520035,,,,,,,2023-12-20,1,,,,,イミ,0
1142,5011101105434,新規,0,2023-12-20,2023-12-20,ＧｒｅｅｎＡｓｓｉｓｔ　Ｓｅｒｖｉｃｅ株式会社,,株式会社,東京都,新宿区,西新宿３丁目３－１３西新宿水間ビル６階,,13,104,1600023,,,,,,,2023-12-20,1,,,,,グリーンアシストサービス,0
1143,5011101105533,新規,0,2023-12-20,2023-12-20,ぶるむずべりーらぼ・じゃぱん株式会社,,株式会社,東京都,新宿区,百人町４丁目６番２－３０３号,,13,104,1690073,,,,,,,2023-12-20,1,,,,,ブルムズベリーラボジャパン,0
1144,5011101105558,新規,0,2023-12-20,2023-12-20,株式会社ＴｅａｒＷｏｎ,,株式会社,東京都,新宿区,西新宿６丁目５番１号新宿アイランドタワー２階,,13,104,1600023,,,,,,,2023-12-20,1,,,,,ティアワン,0
1146,5011103013866,新規,0,2023-12-20,2023-12-20,Ｗａｖｅ　Ｔｅｃｈ　Ｓｏｌｕｔｉｏｎｓ合同会社,,合同会社,東京都,新宿区,西新宿３丁目３番１３号西新宿水間ビル６階,,13,104,1600023,,,,,,,2023-12-20,1,,,,,ウェーブテックソリューションズ,0
1147,5011103013874,新規,0,2023-12-20,2023-12-20,ＣＳ福島石川ＥＳＳ合同会社,,合同会社,東京都,新宿区,西新宿２丁目１番１号新宿三井ビル４３階,,13,104,1600023,,,,,,,2023-12-20,1,,,,,シーエスフクシマイシカワイーエスエス,0
1148,5011105010878,新規,0,2023-12-20,2023-12-20,一般社団法人地方ｄｅ就活,,その他の設立登記法人,東京都,新宿区,西新宿３丁目３番１３号西新宿水間ビル６階,,13,104,1600023,,,,,,,2023-12-20,1,,,,,チホウデシュウカツ,0
1152,5011203004261,新規,0,2023-12-20,2023-12-20,リトルビー合同会社,,合同会社,東京都,中野区,南台２丁目４９番３号,,13,114,1640014,,,,,,,2023-12-20,1,,,,,リトルビー,0
1162,5011801043529,新規,0,2023-12-20,2023-12-20,株式会社オーエス,,株式会社,東京都,足立区,栗原３丁目２５番１２号,,13,121,1230842,,,,,,,2023-12-20,1,,,,,オーエス,0
1163,5011801043537,新規,0,2023-12-20,2023-12-20,株式会社ｍｏｒｅ,,株式会社,東京都,足立区,中央本町５丁目４番１６号,,13,121,1210011,,,,,,,2023-12-20,1,,,,,モア,0
1165,5011803006005,新規,0,2023-12-20,2023-12-20,合同会社Ｒｉｓｅｗｉｎ,,合同会社,東京都,葛飾区,東四つ木２丁目５番１４‐４０１号,,13,122,1240014,,,,,,,2023-12-20,1,,,,,ライズウィン,0
1166,5012303001917,新規,0,2023-12-20,2023-12-20,合同会社ＣＨＥＥＲＳ,,合同会社,東京都,町田市,中町４丁目６番１１号２,,13,209,1940021,,,,,,,2023-12-20,1,,,,,チアーズ,0
1167,5012401041336,新規,0,2023-12-20,2023-12-20,株式会社エフエム,,株式会社,東京都,府中市,分梅町３丁目２番地の６ハイツ松村２０２,,13,206,1830033,,,,,,,2023-12-20,1,,,,,エフエム,0
1169,5012803003264,新規,0,2023-12-20,2023-12-20,Ｍ．ＴＡＮＫ合同会社,,合同会社,東京都,立川市,栄町１丁目１６―１プライムガーデン国立３０６,,13,202,1900003,,,,,,,2023-12-20,1,,,,,エムタンク,0
1170,5013101009318,新規,0,2023-12-20,2023-12-20,株式会社東京山側デジタル推進機構,,株式会社,東京都,あきる野市,入野２７８番地１グラウクスＩＩ２０３号,00133051,13,228,1900161,,,,,,,2023-12-20,1,,,,,,0
1187,5021001081007,新規,0,2023-12-20,2023-12-20,株式会社ベルスタイル,,株式会社,神奈川県,綾瀬市,大上１丁目１６番４号２０５,,14,218,2521104,,,,,,,2023-12-20,1,,,,,ベルスタイル,0
1196,5030001157781,新規,0,2023-12-20,2023-12-20,大同株式会社,,株式会社,埼玉県,川口市,並木３丁目２３番２５－６０７号ライオンズ川口並木グランゲート,,11,203,3320034,,,,,,,2023-12-20,1,,,,,ダイドウ,0
1201,5030003023271,新規,0,2023-12-20,2023-12-20,合同会社マルシャンデセル,,合同会社,埼玉県,新座市,大和田１丁目１７番３４号アヴニール２０１号室,,11,230,3520004,,,,,,,2023-12-20,1,,,,,マルシャンデセル,0
1212,5040003023931,新規,0,2023-12-20,2023-12-20,一龍商事合同会社,,合同会社,千葉県,船橋市,宮本２丁目１－１クレアホームズ船橋２０３,,12,204,2730003,,,,,,,2023-12-20,1,,,,,イチリュウショウジ,0
1213,5040003023972,新規,0,2023-12-20,2023-12-20,ＣＨＡＮＡＫＡ　ＩＫＩＧＡＩ合同会社,,合同会社,千葉県,富里市,新中沢４６２－１,,12,233,2860223,,,,,,,2023-12-20,1,,,,,チャナカイキガイ,0
1228,5080001026040,新規,0,2023-12-20,2023-12-20,株式会社空色,,株式会社,静岡県,静岡市葵区,本通２丁目２－１６,,22,101,4200064,,,,,,,2023-12-20,1,,,,,ソライロ,0
1232,5080401026904,新規,0,2023-12-20,2023-12-20,ＵＢホールディングス株式会社,,株式会社,静岡県,浜松市東区,有玉西町２４１１番地の２,,22,132,4313123,,,,,,,2023-12-20,1,,,,,ユービーホールディングス,0
1234,5090001018466,新規,0,2023-12-20,2023-12-20,株式会社いちかわベリーハウス,,株式会社,山梨県,山梨市,市川１９９４番地,,19,205,4050044,,,,,,,2023-12-20,1,,,,,イチカワベリーハウス,0
1235,5100001037068,新規,0,2023-12-20,2023-12-20,株式会社戸隠堂,,株式会社,長野県,長野市,戸隠３５２０,,20,201,3814101,,,,,,,2023-12-20,1,,,,,トガクシドウ,0
1236,5100003007317,新規,0,2023-12-20,2023-12-20,しなの里明日華合同会社,,合同会社,長野県,松本市,会田３６３番地４,,20,202,3997402,,,,,,,2023-12-20,1,,,,,シナノサトアスカ,0
1246,5120001260709,新規,0,2023-12-20,2023-12-20,株式会社シレカチ,,株式会社,大阪府,大阪市住吉区,長居２丁目１０番３－１０５号,,27,120,5580003,,,,,,,2023-12-20,1,,,,,シレカチ,0
1247,5120001260766,新規,0,2023-12-20,2023-12-20,日本ＨＭＩ株式会社,,株式会社,大阪府,大阪市北区,梅田１丁目１－３大阪駅前第３ビル２９階１－１－１号室,,27,127,5300001,,,,,,,2023-12-20,1,,,,,ニホンエイチエヌアイ,0
1250,5120003025531,新規,0,2023-12-20,2023-12-20,合同会社タクミベース,,合同会社,大阪府,大阪市鶴見区,緑１丁目１５番３１号,,27,124,5380054,,,,,,,2023-12-20,1,,,,,タクミベース,0
1251,5120003025548,新規,0,2023-12-20,2023-12-20,Ｒａｉｆｕｎ合同会社,,合同会社,大阪府,大阪市中央区,南本町２丁目６－５ファースト船場６０６,,27,128,5410054,,,,,,,2023-12-20,1,,,,,ライファン,0
1254,5120101068746,新規,0,2023-12-20,2023-12-20,株式会社ディ・オール,,株式会社,大阪府,貝塚市,久保３９１番地３８,,27,208,5970031,,,,,,,2023-12-20,1,,,,,ディオール,0
1260,5120901048468,新規,0,2023-12-20,2023-12-20,株式会社外装職人塗右衛門,,株式会社,大阪府,豊中市,走井１丁目１番５号,,27,203,5610891,,,,,,,2023-12-20,1,,,,,ガイソウショクニンヌリエモン,0
1272,5140003019944,新規,0,2023-12-20,2023-12-20,合同会社ラソス,,合同会社,兵庫県,尼崎市,東園田町５丁目１０６番地３,,28,202,6610953,,,,,,,2023-12-20,1,,,,,,0
1275,5160003003070,新規,0,2023-12-20,2023-12-20,合同会社ＡＳ６４５１２,,合同会社,滋賀県,草津市,野路東５丁目５番１６号,,25,206,5250058,,,,,,,2023-12-20,1,,,,,エーエスロクヨンゴーイチニ,0
1280,5180001159417,新規,0,2023-12-20,2023-12-20,株式会社金禾商事,,株式会社,愛知県,名古屋市中川区,明徳町２丁目７番地,,23,110,4540857,,,,,,,2023-12-20,1,,,,,カナノギショウジ,0
1292,5220003003642,新規,0,2023-12-20,2023-12-20,合同会社ＭＡＥＭＵＫＩ,,合同会社,石川県,金沢市,畝田東２丁目５２７,,17,201,9200344,,,,,,,2023-12-20,1,,,,,マエムキ,0
1297,5260001038587,新規,0,2023-12-20,2023-12-20,株式会社ファストリヴィール,,株式会社,岡山県,井原市,芳井町吉井２８２６番地,,33,207,7142111,,,,,,,2023-12-20,1,,,,,ファストリヴィール,0
1298,5260005011301,新規,0,2023-12-20,2023-12-20,一般社団法人学びと自治ネットワーク,,その他の設立登記法人,岡山県,真庭市,蒜山下和１９４９番地２,,33,214,7170513,,,,,,,2023-12-20,1,,,,,マナビトジチネットワーク,0
1300,5280003001797,新規,0,2023-12-20,2023-12-20,リバースヒット合同会社,,合同会社,島根県,松江市,伊勢宮町５０６番地,,32,201,6900006,,,,,,,2023-12-20,1,,,,,リバースヒット,0
1314,5290001104097,新規,0,2023-12-20,2023-12-20,株式会社会計総合サポート,,株式会社,福岡県,福岡市東区,水谷２丁目１６番１５号,,40,131,8130041,,,,,,,2023-12-20,1,,,,,カイケイソウゴウサポート,0
1315,5290001104114,新規,0,2023-12-20,2023-12-20,株式会社佐藤興産,,株式会社,福岡県,飯塚市,椋本６６番地６,,40,205,8200077,,,,,,,2023-12-20,1,,,,,サトウコウサン,0
1316,5290001104122,新規,0,2023-12-20,2023-12-20,株式会社筑紫商事,,株式会社,福岡県,福岡市東区,香椎照葉３丁目２－７－３００１,,40,131,8130017,,,,,,,2023-12-20,1,,,,,チクシショウジ,0
1319,5290003014757,新規,0,2023-12-20,2023-12-20,合同会社ＡＴＳ,,合同会社,福岡県,福岡市博多区,中洲４丁目３－１中洲岡部ビル２号館９０１号室,,40,132,8100801,,,,,,,2023-12-20,1,,,,,,0
1322,5290801030154,新規,0,2023-12-20,2023-12-20,株式会社カイリュウ,,株式会社,福岡県,中間市,浄花町８番１号,,40,215,8090038,,,,,,,2023-12-20,1,,,,,カイリュウ,0
1326,5320001020191,新規,0,2023-12-20,2023-12-20,株式会社ＬＥＣＸＩＡ,,株式会社,大分県,別府市,大字内竈１１０９番地の６,,44,202,8740011,,,,,,,2023-12-20,1,,,,,レクシア,0
1327,5330001031576,新規,0,2023-12-20,2023-12-20,上嘉地産株式会社,,株式会社,熊本県,熊本市南区,近見３丁目１番３０号,,43,104,8614101,,,,,,,2023-12-20,1,,,,,ジョウカチサン,0
1331,5340001026154,新規,0,2023-12-20,2023-12-20,株式会社柿木田,,株式会社,鹿児島県,鹿児島市,甲突町１１番２１号,,46,201,8920837,,,,,,,2023-12-20,1,,,,,カキノキダ,0
1336,5360001032968,新規,0,2023-12-20,2023-12-20,株式会社山設備工業,,株式会社,沖縄県,島尻郡八重瀬町,字玻名城６０８番地８,,47,362,9010513,,,,,,,2023-12-20,1,,,,,サンセツビコウギョウ,0
1337,5360003013561,新規,0,2023-12-20,2023-12-20,合同会社ＲＥＣＯＶＥＲＹ,,合同会社,沖縄県,うるま市,字田場１８７２番地５エステートＲｅｉＭＫＩＩＩ１階右側,00133057,47,213,9042213,,,,,,,2023-12-20,1,,,,,リカバリー,0
1346,5400001016495,新規,0,2023-12-20,2023-12-20,株式会社近江電気,,株式会社,岩手県,滝沢市,穴口１７０番地３,,03,216,0200633,,,,,,,2023-12-20,1,,,,,オウミデンキ,0
1358,5500001025370,新規,0,2023-12-20,2023-12-20,株式会社いつも真珠,,株式会社,愛媛県,宇和島市,津島町近家甲２８番地１３,,38,203,7983303,,,,,,,2023-12-20,1,,,,,イツモシンジュ,0
1372,6010001240869,新規,0,2023-12-20,2023-12-20,Ｐｏｒｔｕｓ　ＡＩ株式会社,,株式会社,東京都,文京区,本郷６丁目２５番１４号,,13,105,1130033,,,,,,,2023-12-20,1,,,,,ポータスエーアイ,0
1373,6010001240902,新規,0,2023-12-20,2023-12-20,日本那角落株式会社,,株式会社,東京都,千代田区,神田三崎町３丁目５番９号天翔水道橋ビル５１１号室,,13,101,1010061,,,,,,,2023-12-20,1,,,,,ニホンナカクラク,0
1374,6010001240943,新規,0,2023-12-20,2023-12-20,ＧＬＯＢＡＬ　ＥＸＣＨＡＮＧＥ　ＪＡＰＡＮ株式会社,,株式会社,東京都,中央区,日本橋３丁目９番１号日本橋三丁目スクエア１１階,,13,102,1030027,,,,,,,2023-12-20,1,,,,,グローバルエクスチェンジジャパン,0
1378,6010003042462,新規,0,2023-12-20,2023-12-20,合同会社ＧＡＩＪＩＮＦＯＯＤＳ,,合同会社,東京都,千代田区,外神田５丁目４番５号岡田ビル１階,,13,101,1010021,,,,,,,2023-12-20,1,,,,,ガイジンフーズ,0
1379,6010003042470,新規,0,2023-12-20,2023-12-20,合同会社ＪＲＥＡＳＴファンド第６号,,合同会社,東京都,中央区,日本橋１丁目４番１号日本橋一丁目ビルディング,,13,102,1030027,,,,,,,2023-12-20,1,,,,,ジェイアールイーストファンドダイロクゴウ,0
1386,6010401179229,新規,0,2023-12-20,2023-12-20,株式会社ＣＡＬＬＩＮＧ,,株式会社,東京都,港区,六本木３丁目１６番１３号,,13,103,1060032,,,,,,,2023-12-20,1,,,,,コーリング,0
1387,6010401179253,新規,0,2023-12-20,2023-12-20,銘寛貿易株式会社,,株式会社,東京都,港区,芝２丁目２８番１１号ＬｉｎｋＳｐａｃｅ芝５０２,,13,103,1050014,,,,,,,2023-12-20,1,,,,,メイカンボウエキ,0
1396,6010701045287,新規,0,2023-12-20,2023-12-20,株式会社横浜みらい計画,,株式会社,東京都,品川区,南大井１丁目８番１８号,,13,109,1400013,,,,,,,2023-12-20,1,,,,,ヨコハマミライケイカク,0
1400,6010801034628,新規,0,2023-12-20,2023-12-20,株式会社ブルズアイ,,株式会社,東京都,大田区,矢口１丁目２０番４号吉井ビル３階,,13,111,1460093,,,,,,,2023-12-20,1,,,,,ブルズアイ,0
1403,6010901054377,新規,0,2023-12-20,2023-12-20,株式会社ＴＯＴ,,株式会社,東京都,世田谷区,用賀４丁目３０番１１－２Ｆ,,13,112,1580097,,,,,,,2023-12-20,1,,,,,トット,0
1412,6011001158795,新規,0,2023-12-20,2023-12-20,株式会社コネクト,,株式会社,東京都,渋谷区,千駄ヶ谷３丁目８番１１号－１０３号室,,13,113,1510051,,,,,,,2023-12-20,1,,,,,コネクト,0
1413,6011001158878,新規,0,2023-12-20,2023-12-20,株式会社ｄｉｌ,,株式会社,東京都,渋谷区,道玄坂１丁目１０番８号渋谷道玄坂東急ビル２Ｆ－Ｃ,,13,113,1500043,,,,,,,2023-12-20,1,,,,,ジル,0
1414,6011001158886,新規,0,2023-12-20,2023-12-20,株式会社ＣＯＵＮＴＲＹ　ＭＯＮＳＴＥＲ,,株式会社,東京都,渋谷区,上原１丁目１３－９リトルボックス５０１,,13,113,1510064,,,,,,,2023-12-20,1,,,,,カントリーモンスター,0
1415,6011001158952,新規,0,2023-12-20,2023-12-20,株式会社ＢＲＡＩＮ,,株式会社,東京都,渋谷区,千駄ヶ谷３丁目３番３２号,,13,113,1510051,,,,,,,2023-12-20,1,,,,,ブレイン,0
1418,6011103013873,新規,0,2023-12-20,2023-12-20,ＣＳ群馬高崎ＥＳＳ合同会社,,合同会社,東京都,新宿区,西新宿２丁目１番１号新宿三井ビル４３階,,13,104,1600023,,,,,,,2023-12-20,1,,,,,シーエスグンマタカサキイーエスエス,0
1419,6011103013881,新規,0,2023-12-20,2023-12-20,合同会社ノア,,合同会社,東京都,新宿区,新宿３丁目１４番２２号小川ビル,,13,104,1600022,,,,,,,2023-12-20,1,,,,,ノア,0
1421,6011203004260,新規,0,2023-12-20,2023-12-20,合同会社ＡＳ,,合同会社,東京都,中野区,南台３丁目１１番２１号ハイツフジ３０１,,13,114,1640014,,,,,,,2023-12-20,1,,,,,エーエス,0
1423,6011301029259,新規,0,2023-12-20,2023-12-20,ＴＯＰＳＵＮ　ＴＥＫ株式会社,,株式会社,東京都,杉並区,高円寺南１丁目７番２０号龍氏ビル１０２号室,,13,115,1660003,,,,,,,2023-12-20,1,,,,,トップサンテック,0
1426,6011401025711,新規,0,2023-12-20,2023-12-20,ＳＧＣ株式会社,,株式会社,東京都,板橋区,常盤台４丁目２１番６号,,13,119,1740071,,,,,,,2023-12-20,1,,,,,エスジーシー,0
1434,6011801043536,新規,0,2023-12-20,2023-12-20,株式会社ｓｅａ　ｓｔｏｒｙ,,株式会社,東京都,足立区,千住柳町１５番２号,,13,121,1200032,,,,,,,2023-12-20,1,,,,,シーストーリー,0
1439,6012801022843,新規,0,2023-12-20,2023-12-20,たなゆー株式会社,,株式会社,東京都,昭島市,緑町３丁目４番３号,,13,207,1960004,,,,,,,2023-12-20,1,,,,,タナユー,0
1440,6013101009317,新規,0,2023-12-20,2023-12-20,株式会社西東京土木建設工業,,株式会社,東京都,西多摩郡日の出町,大字平井２４０番地９、１０３－Ｂ,,13,305,1900182,,,,,,,2023-12-20,1,,,,,ニシトウキョウドボクケンセツコウギョウ,0
1442,6013301051795,新規,0,2023-12-20,2023-12-20,日本国際格付グループ株式会社,,株式会社,東京都,豊島区,上池袋１丁目９－５光建ハイムブリリアンス上池袋４階,,13,116,1700012,,,,,,,2023-12-20,1,,,,,ニホンコクサイカクツキグループ,0
1451,6020003025219,新規,0,2023-12-20,2023-12-20,合同会社ＢＪｍｏｋａ,,合同会社,神奈川県,横浜市西区,北幸１丁目１１番１号水信ビル７階,,14,103,2200004,,,,,,,2023-12-20,1,,,,,ビージェイモカ,0
1458,6021003013931,新規,0,2023-12-20,2023-12-20,マホロ合同会社,,合同会社,神奈川県,秦野市,南矢名１１０１番地の２１スクエア東海大学前２０１号,,14,211,2570003,,,,,,,2023-12-20,1,,,,,マホロ,0
1460,6030001157764,新規,0,2023-12-20,2023-12-20,株式会社ＯＴＢトレーディング,,株式会社,埼玉県,ふじみ野市,谷田２丁目６番地１,,11,245,3560024,,,,,,,2023-12-20,1,,,,,オーティービートレーディング,0
1461,6030001157780,新規,0,2023-12-20,2023-12-20,株式会社ＦＬＥＸＸＡＳ,,株式会社,埼玉県,八潮市,大字木曽根１５１４番地１３,,11,234,3400813,,,,,,,2023-12-20,1,,,,,フレクサス,0
1462,6030001157789,新規,0,2023-12-20,2023-12-20,株式会社協友,,株式会社,埼玉県,加須市,下三俣１７７８番地１,,11,210,3470007,,,,,,,2023-12-20,1,,,,,キョウユウ,0
1469,6030003023262,新規,0,2023-12-20,2023-12-20,Ｔｒｅｅ合同会社,,合同会社,埼玉県,羽生市,東３丁目２０－２,,11,216,3480052,,,,,,,2023-12-20,1,,,,,ツリー,0
1475,6060001036635,新規,0,2023-12-20,2023-12-20,株式会社ｂｅ　ｎｏｂｌｅ,,株式会社,栃木県,宇都宮市,錦２丁目７番２号ポケットオフィスＮＩＳＨＩＫＩ　Ｇ,,09,201,3210967,,,,,,,2023-12-20,1,,,,,ビーノーブル,0
1477,6060003004846,新規,0,2023-12-20,2023-12-20,合同会社フォレストサービス,,合同会社,栃木県,那須郡那須町,大字高久丙海道下４－６,,09,407,3250302,,,,,,,2023-12-20,1,,,,,フォレストサービス,0
1487,6080003003111,新規,0,2023-12-20,2023-12-20,悠好合同会社,,合同会社,静岡県,静岡市葵区,大岩本町７番３２－２号,,22,101,4200884,,,,,,,2023-12-20,1,,,,,ヒサヨシ,0
1491,6100001037067,新規,0,2023-12-20,2023-12-20,株式会社ＴＨＲＥＥ,,株式会社,長野県,松本市,大手４丁目１２番９号Ｋ・Ｉビル２Ｆ２０１,,20,202,3900874,,,,,,,2023-12-20,1,,,,,スリー,0
1496,6120001260542,新規,0,2023-12-20,2023-12-20,株式会社徳善晴,,株式会社,大阪府,大阪市東住吉区,矢田２丁目１３－２３エルグリーン東住吉４０１号室,,27,121,5460023,,,,,,,2023-12-20,1,,,,,トクゼンハル,0
1497,6120001260708,新規,0,2023-12-20,2023-12-20,英子株式会社,,株式会社,大阪府,大阪市淀川区,東三国４丁目６番１６号,,27,123,5320002,,,,,,,2023-12-20,1,,,,,エイコ,0
1498,6120001260773,新規,0,2023-12-20,2023-12-20,一洋株式会社,,株式会社,大阪府,大阪市大正区,三軒家西３丁目４番１６号中山ビル１０５７,,27,108,5510001,,,,,,,2023-12-20,1,,,,,イチヨウ,0
1499,6120001260798,新規,0,2023-12-20,2023-12-20,得意株式会社,,株式会社,大阪府,大阪市東住吉区,矢田１丁目２６－７ＵＩＩＴビル矢田４０５号室,,27,121,5460023,,,,,,,2023-12-20,1,,,,,トクイ,0
1500,6120001260815,新規,0,2023-12-20,2023-12-20,ＧＥＯＮＷＯＯ　ＪＡＰＡＮ株式会社,,株式会社,大阪府,大阪市北区,芝田２丁目１番１８号西阪急ビル１Ｆ,,27,127,5300012,,,,,,,2023-12-20,1,,,,,ゴヌジャパン,0
1501,6120001260848,新規,0,2023-12-20,2023-12-20,株式会社ＨＡＴＣＨ,,株式会社,大阪府,枚方市,長尾東町３丁目１６番２０号,,27,210,5730105,,,,,,,2023-12-20,1,,,,,ハッチ,0
1502,6120001260864,新規,0,2023-12-20,2023-12-20,株式会社理工学研究所,,株式会社,大阪府,大阪市浪速区,湊町２丁目２番４５号,,27,111,5560017,,,,,,,2023-12-20,1,,,,,リコウガクケンキュウショ,0
1507,6120003025555,新規,0,2023-12-20,2023-12-20,合同会社ＴＫ,,合同会社,大阪府,大阪市平野区,平野西５丁目３番７号,,27,126,5470033,,,,,,,2023-12-20,1,,,,,ティーケー,0
1508,6120005024051,新規,0,2023-12-20,2023-12-20,一般社団法人大日本警備業協同組合,,その他の設立登記法人,大阪府,大阪市中央区,本町橋２番１６号５階,,27,128,5400029,,,,,,,2023-12-20,1,,,,,ダイニホンケイビギョウキョウドウクミアイ,0
1510,6120101068720,新規,0,2023-12-20,2023-12-20,株式会社Ｃｏｓ　Ｃｏｃｏ,,株式会社,大阪府,富田林市,美山台７番４番館１５０５号,,27,214,5840039,,,,,,,2023-12-20,1,,,,,コスココ,0
1513,6120103005589,新規,0,2023-12-20,2023-12-20,合同会社ＢＬＥＳＳ　ＹＯＵ,,合同会社,大阪府,羽曳野市,羽曳が丘７丁目２番４号,,27,222,5830864,,,,,,,2023-12-20,1,,,,,ブレスユー,0
1520,6130001075964,新規,0,2023-12-20,2023-12-20,株式会社マルユウ,,株式会社,京都府,宇治市,炭山西ノ谷４６番地３,,26,204,6011395,,,,,,,2023-12-20,1,,,,,マルユウ,0
1530,6150001026957,新規,0,2023-12-20,2023-12-20,株式会社エストアート,,株式会社,奈良県,生駒市,南田原町１１５０－９,,29,209,6300135,,,,,,,2023-12-20,1,,,,,エストアート,0
1531,6150005009537,新規,0,2023-12-20,2023-12-20,医療法人小林クリニック,,その他の設立登記法人,奈良県,天理市,西長柄町１６３,,29,204,6320063,,,,,,,2023-12-20,1,,,,,コバヤシクリニック,0
1534,6170001017938,新規,0,2023-12-20,2023-12-20,株式会社アルク,,株式会社,和歌山県,日高郡みなべ町,山内字西魚崎１４４４番地,,30,391,6450012,,,,,,,2023-12-20,1,,,,,アルク,0
1535,6170003001964,新規,0,2023-12-20,2023-12-20,ＭＳＴ合同会社,,合同会社,和歌山県,和歌山市,松江北６丁目６番１２号,,30,201,6408425,,,,,,,2023-12-20,1,,,,,エムエスティー,0
1541,6180001159234,新規,0,2023-12-20,2023-12-20,株式会社ＭＫロジ,,株式会社,愛知県,小牧市,郷中２丁目１１７番地,,23,219,4850033,,,,,,,2023-12-20,1,,,,,エムケイロジ,0
1542,6180001159374,新規,0,2023-12-20,2023-12-20,株式会社ＥＮＥＲＧＹ,,株式会社,愛知県,稲沢市,井之口親畑町８９番地１,,23,220,4928156,,,,,,,2023-12-20,1,,,,,エナジー,0
1562,6230003002122,新規,0,2023-12-20,2023-12-20,合同会社育,,合同会社,富山県,高岡市,木町１－２０,,16,202,9330908,,,,,,,2023-12-20,1,,,,,イク,0
1567,6260001038586,新規,0,2023-12-20,2023-12-20,株式会社コバヤシ,,株式会社,岡山県,岡山市北区,御津高津２１９番地１,,33,101,7092124,,,,,,,2023-12-20,1,,,,,コバヤシ,0
1575,6290001104047,新規,0,2023-12-20,2023-12-20,株式会社ＣｈＥＲｉｓｈ,,株式会社,福岡県,福岡市博多区,博多駅前２丁目１９番１７号トーカン博多第５ビル３１２号室,,40,132,8120011,,,,,,,2023-12-20,1,,,,,チェリッシュ,0
1576,6290001104105,新規,0,2023-12-20,2023-12-20,株式会社佳南工業,,株式会社,福岡県,福岡市南区,曰佐２丁目８番１４号,,40,134,8111313,,,,,,,2023-12-20,1,,,,,カナンコウギョウ,0
1577,6290001104113,新規,0,2023-12-20,2023-12-20,株式会社アシスト５,,株式会社,福岡県,福岡市東区,多の津１丁目１４番１号ＦＲＣビル６１７号,,40,131,8130034,,,,,,,2023-12-20,1,,,,,アシストゴー,0
1583,6290003014756,新規,0,2023-12-20,2023-12-20,福山バイオマス発電所合同会社,,合同会社,福岡県,福岡市早良区,百道浜２丁目４番２７号ＡＩビル６Ｆ,,40,137,8140001,,,,,,,2023-12-20,1,,,,,フクヤマバイオマスハツデンショ,0
1584,6290003014764,新規,0,2023-12-20,2023-12-20,カンサポ合同会社,,合同会社,福岡県,福岡市南区,横手３丁目２６番１－１０１号,,40,134,8111311,,,,,,,2023-12-20,1,,,,,カンサポ,0
1587,6290803004568,新規,0,2023-12-20,2023-12-20,合同会社ＤＲＥＡＭ,,合同会社,福岡県,北九州市小倉北区,古船場町９番６－１３０４号,,40,106,8020082,,,,,,,2023-12-20,1,,,,,ドリーム,0
1591,6320001020190,新規,0,2023-12-20,2023-12-20,カギの安心太郎株式会社,,株式会社,大分県,大分市,大字野津原１６３番地リバーサイド広瀬Ｃ２０１,,44,201,8701203,,,,,,,2023-12-20,1,,,,,カギノアンシンタロウ,0
1592,6340001026153,新規,0,2023-12-20,2023-12-20,株式会社ニュースタイルホーム,,株式会社,鹿児島県,姶良市,永池町３１番地１６,,46,225,8995654,,,,,,,2023-12-20,1,,,,,ニュースタイルホーム,0
1599,6350001018703,新規,0,2023-12-20,2023-12-20,株式会社シンミライエホールディングス,,株式会社,宮崎県,北諸県郡三股町,大字蓼池４４３５,,45,341,8891914,,,,,,,2023-12-20,1,,,,,シンミライエホールディングス,0
1602,6370001050753,新規,0,2023-12-20,2023-12-20,株式会社ロードヘブン,,株式会社,宮城県,名取市,閖上東２丁目１０－３,,04,207,9811204,,,,,,,2023-12-20,1,,,,,ロードヘブン,0
1603,6370003006423,新規,0,2023-12-20,2023-12-20,合同会社ＢＯＯＳＴ　ＪＡＰＡＮ,,合同会社,宮城県,白石市,福岡長袋字永坂４番地５,,04,206,9890232,,,,,,,2023-12-20,1,,,,,ブーストジャパン,0
1616,6400001016494,新規,0,2023-12-20,2023-12-20,マサルＭＭＣ株式会社,,株式会社,岩手県,花巻市,小瀬川第４地割１３９番地,,03,205,0250324,,,,,,,2023-12-20,1,,,,,マサルエムエムシー,0
1617,6420003002854,新規,0,2023-12-20,2023-12-20,合同会社ワイ企画,,合同会社,青森県,青森市,長島４丁目５番６号,,02,201,0300861,,,,,,,2023-12-20,1,,,,,ワイキカク,0
1628,6470001019945,新規,0,2023-12-20,2023-12-20,株式会社西森設備,,株式会社,香川県,高松市,大工町５番地６,,37,201,7600042,,,,,,,2023-12-20,1,,,,,ニシモリセツビ,0
1631,6500003003159,新規,0,2023-12-20,2023-12-20,合同会社花桃,,合同会社,愛媛県,松山市,安城寺町１２８５番地２,,38,201,7918006,,,,,,,2023-12-20,1,,,,,ハナモモ,0
1637,7010001240868,新規,0,2023-12-20,2023-12-20,株式会社ＥｐｉｃＡＩ,,株式会社,東京都,文京区,本郷６丁目２５番１４号,,13,105,1130033,,,,,,,2023-12-20,1,,,,,エピックエーアイ,0
1638,7010003042503,新規,0,2023-12-20,2023-12-20,ＳＴＵＤＩＯ　Ｙ‐ＰＬＵＳ合同会社,,合同会社,東京都,中央区,銀座１丁目１２番４号Ｎ＆ＥＢＬＤ．６Ｆ,,13,102,1040061,,,,,,,2023-12-20,1,,,,,スタジオワイプラス,0
1647,7010401179228,新規,0,2023-12-20,2023-12-20,株式会社コーリング,,株式会社,東京都,港区,赤坂８丁目１３番１９号,,13,103,1070052,,,,,,,2023-12-20,1,,,,,コーリング,0
1655,7010603010537,新規,0,2023-12-20,2023-12-20,ゆずもち合同会社,,合同会社,東京都,江東区,豊洲５丁目６番２９－２０１７号,,13,108,1350061,,,,,,,2023-12-20,1,,,,,ユズモチ,0
1661,7010801034610,新規,0,2023-12-20,2023-12-20,株式会社ＷＡＴＡＲＡＫＵ,,株式会社,東京都,大田区,蒲田５丁目２８番４号ＥＣＳ第２７ビル３階,,13,111,1440052,,,,,,,2023-12-20,1,,,,,ワタラク,0
1662,7010901054384,新規,0,2023-12-20,2023-12-20,株式会社ペンと道,,株式会社,東京都,世田谷区,池尻２丁目３０番７号,,13,112,1540001,,,,,,,2023-12-20,1,,,,,ペントミチ,0
1663,7010901054392,新規,0,2023-12-20,2023-12-20,ｕｎｉｂｏｘ株式会社,,株式会社,東京都,世田谷区,瀬田４丁目１４番３号,,13,112,1580095,,,,,,,2023-12-20,1,,,,,ユニボックス,0
1666,7010903008685,新規,0,2023-12-20,2023-12-20,そらとうみ合同会社,,合同会社,東京都,世田谷区,中町４丁目１５－８,,13,112,1580091,,,,,,,2023-12-20,1,,,,,ソラトウミ,0
1667,7010905004559,新規,0,2023-12-20,2023-12-20,一般社団法人日中科学文化交流協会,,その他の設立登記法人,東京都,世田谷区,弦巻５丁目７－３０－３１２,,13,112,1540016,,,,,,,2023-12-20,1,,,,,ニッチュウカガクブンカコウリュウキョウカイ,0
1673,7011003018113,新規,0,2023-12-20,2023-12-20,合同会社ＡＢＶＥＮＴ,,合同会社,東京都,目黒区,中目黒２丁目８－７－５０４,,13,110,1530061,,,,,,,2023-12-20,1,,,,,エービヴェント,0
1674,7011003018146,新規,0,2023-12-20,2023-12-20,慧文合同会社,,合同会社,東京都,渋谷区,初台２丁目４－２０シャルム初台４０１,,13,113,1510061,,,,,,,2023-12-20,1,,,,,ケイブン,0
1677,7011103013872,新規,0,2023-12-20,2023-12-20,ＣＳ熊本益城ＥＳＳ合同会社,,合同会社,東京都,新宿区,西新宿２丁目１番１号新宿三井ビル４３階,,13,104,1600023,,,,,,,2023-12-20,1,,,,,シーエスクマモトマシキイーエスエス,0
1678,7011105010884,新規,0,2023-12-20,2023-12-20,一般社団法人日本物流ロボット協会,,その他の設立登記法人,東京都,新宿区,新宿５丁目２－２,,13,104,1600022,,,,,,,2023-12-20,1,,,,,ニホンブツリュウロボットキョウカイ,0
1685,7011601027390,新規,0,2023-12-20,2023-12-20,株式会社ぺけれ,,株式会社,東京都,練馬区,南田中２丁目１５番５－２０８号,,13,120,1770035,,,,,,,2023-12-20,1,,,,,ペケレ,0
1686,7011701026862,新規,0,2023-12-20,2023-12-20,はつこい魔法瓶株式会社,,株式会社,東京都,江戸川区,平井５丁目４５番５号渡辺ハイツ１０１,,13,123,1320035,,,,,,,2023-12-20,1,,,,,ハツコイマホウビン,0
1691,7011801043535,新規,0,2023-12-20,2023-12-20,株式会社縁Ｓｗｅｅｔｓ　ｌａｂｏ,,株式会社,東京都,足立区,竹の塚４丁目８番８号グリーンハイツ大恵１０２号,,13,121,1210813,,,,,,,2023-12-20,1,,,,,エニシスイーツラボ,0
1692,7011803005995,新規,0,2023-12-20,2023-12-20,プロテクションワークス合同会社,,合同会社,東京都,葛飾区,青戸８丁目４番１０号－タウンハイツ亀有２号棟店舗３号室,,13,122,1250062,,,,,,,2023-12-20,1,,,,,プロテクションワークス,0
1693,7011803006003,新規,0,2023-12-20,2023-12-20,合同会社Ｕ．Ｈ．Ｓｙｓｔｅｍ,,合同会社,東京都,足立区,西新井４丁目２４番１４－２１９号室,,13,121,1230841,,,,,,,2023-12-20,1,,,,,ユーエイチシステム,0
1699,7012703002876,新規,0,2023-12-20,2023-12-20,合同会社ＭＭＰコンサルティング,,合同会社,東京都,西東京市,ひばりが丘３丁目２番５１号,,13,229,2020001,,,,,,,2023-12-20,1,,,,,エムエムピーコンサルティング,0
1702,7012801022850,新規,0,2023-12-20,2023-12-20,株式会社リバーランド,,株式会社,東京都,国立市,北１丁目７番の４国立ＨＡＵＳ－Ｄ,,13,215,1860001,,,,,,,2023-12-20,1,,,,,リバーランド,0
1707,7020001154984,新規,0,2023-12-20,2023-12-20,株式会社ｍ‐ｇａｔｅ,,株式会社,神奈川県,横浜市鶴見区,生麦３丁目７番１３号マキシムＩＫ５－２階,,14,101,2300052,,,,,,,2023-12-20,1,,,,,エムゲート,0
1714,7020003025218,新規,0,2023-12-20,2023-12-20,ケートー商会合同会社,,合同会社,神奈川県,横浜市南区,六ツ川１丁目１６２番地１,,14,105,2320066,,,,,,,2023-12-20,1,,,,,ケートーショウカイ,0
1718,7021001080964,新規,0,2023-12-20,2023-12-20,株式会社ＮｅｘｔＡｉｍ,,株式会社,神奈川県,小田原市,延清１４５番地の１,,14,206,2500218,,,,,,,2023-12-20,1,,,,,ネクストエイム,0
1720,7021003013930,新規,0,2023-12-20,2023-12-20,フェイセズ合同会社,,合同会社,神奈川県,大和市,中央林間５丁目１番１号杉本ビル３０３,,14,213,2420007,,,,,,,2023-12-20,1,,,,,フェイセズ,0
1725,7030001157771,新規,0,2023-12-20,2023-12-20,株式会社アスト,,株式会社,埼玉県,朝霞市,溝沼４丁目６番１７号アンシェルＦ,00133053,11,227,3510023,,,,,,,2023-12-20,1,,,,,アスト,0
1726,7030001157788,新規,0,2023-12-20,2023-12-20,ＳＹＣ株式会社,,株式会社,埼玉県,富士見市,ふじみ野西２丁目１番地１アイムふじみ野タワー西館１５０５,,11,235,3540035,,,,,,,2023-12-20,1,,,,,エスワイシー,0
1732,7030003023253,新規,0,2023-12-20,2023-12-20,ＡＣＴｉＬＩＦＩＸ合同会社,,合同会社,埼玉県,和光市,中央２丁目７番２６号牧嶋コーポＢ１０１,,11,229,3510113,,,,,,,2023-12-20,1,,,,,アクティリフィックス,0
1733,7030005021503,新規,0,2023-12-20,2023-12-20,一般社団法人ありがとう,,その他の設立登記法人,埼玉県,桶川市,大字坂田７９３番地の３,,11,231,3630008,,,,,,,2023-12-20,1,,,,,アリガトウ,0
1742,7050003008013,新規,0,2023-12-20,2023-12-20,合同会社カナチョコレート,,合同会社,茨城県,つくば市,みどりの１丁目１番地２ライオンズタワーみどりのスタイリーナ２３０３号,,08,220,3050881,,,,,,,2023-12-20,1,,,,,カナチョコレート,0
1743,7060003004845,新規,0,2023-12-20,2023-12-20,合同会社紹介業マリナー,,合同会社,栃木県,佐野市,植下町４９２番地１,,09,204,3270835,,,,,,,2023-12-20,1,,,,,ショウカイギョウマリナー,0
1749,7080103002945,新規,0,2023-12-20,2023-12-20,合同会社蘭台,,合同会社,静岡県,熱海市,田原本町９番１号,,22,205,4130011,,,,,,,2023-12-20,1,,,,,ランダイ,0
1750,7080401026902,新規,0,2023-12-20,2023-12-20,株式会社ワールドダンスナビ,,株式会社,静岡県,浜松市西区,馬郡町３０４１番地,,22,133,4310203,,,,,,,2023-12-20,1,,,,,ワールドダンスナビ,0
1760,7120001260772,新規,0,2023-12-20,2023-12-20,晧銘株式会社,,株式会社,大阪府,大阪市大正区,三軒家西３丁目４番１６号中山ビル１０４６,,27,108,5510001,,,,,,,2023-12-20,1,,,,,コウメイ,0
1761,7120001260789,新規,0,2023-12-20,2023-12-20,ＲＪホールディングス株式会社,,株式会社,大阪府,大阪市中央区,松屋町６番１４号ＫＫＧＫビル７Ｆ,,27,128,5420067,,,,,,,2023-12-20,1,,,,,アールジェイホールディングス,0
1762,7120001260863,新規,0,2023-12-20,2023-12-20,株式会社理化学総合研究所,,株式会社,大阪府,大阪市浪速区,湊町２丁目２番４５号,,27,111,5560017,,,,,,,2023-12-20,1,,,,,リカガクソウゴウケンキュウショ,0
1771,7120101068736,新規,0,2023-12-20,2023-12-20,イーソーコ関西株式会社,,株式会社,大阪府,堺市中区,陶器北２４４番地の５,,27,142,5998242,,,,,,,2023-12-20,1,,,,,イーソーコカンサイ,0
1772,7120103005588,新規,0,2023-12-20,2023-12-20,合同会社ジートレーサー,,合同会社,大阪府,松原市,松ケ丘３丁目６１０番地の１,,27,217,5800042,,,,,,,2023-12-20,1,,,,,ジートレーサー,0
1773,7120901048508,新規,0,2023-12-20,2023-12-20,株式会社Ｔ＆Ｔ,,株式会社,大阪府,吹田市,広芝町１０番８号江坂董友ビル,,27,205,5640052,,,,,,,2023-12-20,1,,,,,ティーアンドティー,0
1774,7120901048516,新規,0,2023-12-20,2023-12-20,株式会社ＲｅＴｈａｎｋ,,株式会社,大阪府,吹田市,江坂町２丁目３‐１６大建コーポ江坂２、５１０号室,,27,205,5640063,,,,,,,2023-12-20,1,,,,,リサンク,0
1780,7130001075963,新規,0,2023-12-20,2023-12-20,株式会社Ｏｋａｗａｒｉ,,株式会社,京都府,京都市西京区,川島尻堀町５４番地ジオ桂シェノン３０５,,26,111,6158196,,,,,,,2023-12-20,1,,,,,オカワリ,0
1795,7140001132788,新規,0,2023-12-20,2023-12-20,株式会社Ｈｕｇｋｕｍｕ,,株式会社,兵庫県,神戸市東灘区,本庄町２丁目５－１２ファミール東灘壱番館１階,,28,101,6580012,,,,,,,2023-12-20,1,,,,,ハグクム,0
1801,7140003019950,新規,0,2023-12-20,2023-12-20,合同会社トゥナース,,合同会社,兵庫県,明石市,大久保町西島１１４０,,28,203,6740065,,,,,,,2023-12-20,1,,,,,トゥナース,0
1802,7140005026854,新規,0,2023-12-20,2023-12-20,医療法人社団稜悠会,,その他の設立登記法人,兵庫県,神戸市長田区,水笠通３丁目５番１１号ＨＫマンション７０２号室,,28,106,6530842,,,,,,,2023-12-20,1,,,,,リョウユウカイ,0
1804,7160001025577,新規,0,2023-12-20,2023-12-20,株式会社Ｌｕｕ　Ｓｔｅｌｌａ,,株式会社,滋賀県,栗東市,小柿６丁目２番２６号,,25,208,5203024,,,,,,,2023-12-20,1,,,,,ルーステラ,0
1817,7190001030970,新規,0,2023-12-20,2023-12-20,株式会社ｔｅｔｏｔｅ,,株式会社,三重県,津市,高茶屋小森町１６２１番地１,,24,201,5140817,,,,,,,2023-12-20,1,,,,,テトテ,0
1819,7200001041999,新規,0,2023-12-20,2023-12-20,株式会社エンジョイせんかな,,株式会社,岐阜県,飛騨市,古川町幸栄町１－１１,,21,217,5094245,,,,,,,2023-12-20,1,,,,,エンジョイセンカナ,0
1821,7200003006174,新規,0,2023-12-20,2023-12-20,合同会社国枝美装,,合同会社,岐阜県,揖斐郡池田町,白鳥５７９番地,,21,404,5032413,,,,,,,2023-12-20,1,,,,,クニエダビソウ,0
1828,7230003002121,新規,0,2023-12-20,2023-12-20,フレックス合同会社,,合同会社,富山県,高岡市,熊野町１－２５アネックス熊野２０２,,16,202,9330903,,,,,,,2023-12-20,1,,,,,フレックス,0
1834,7260001038593,新規,0,2023-12-20,2023-12-20,株式会社Ｎｉｎａ,,株式会社,岡山県,岡山市南区,小串２５２８番地７,,33,104,7028016,,,,,,,2023-12-20,1,,,,,ニナ,0
1836,7260003004528,新規,0,2023-12-20,2023-12-20,合同会社ＨＯＭＥ豊,,合同会社,岡山県,赤磐市,岡１０９５番地,,33,213,7090702,,,,,,,2023-12-20,1,,,,,ホームユタカ,0
1845,7290001103923,新規,0,2023-12-20,2023-12-20,青柳メディカルリース株式会社,,株式会社,福岡県,福岡市中央区,清川１丁目７番１３－５０４ＯＮＥＰＡＳＥＯ,,40,133,8100005,,,,,,,2023-12-20,1,,,,,アオヤギメディカルリース,0
1846,7290001104112,新規,0,2023-12-20,2023-12-20,株式会社ＬＬＬ‐Ｃｏｍｍｕｎｉｃａｔｉｏｎｓ,,株式会社,福岡県,福岡市博多区,博多駅南３丁目３－３フェイズイン博多駅南７Ｆ,,40,132,8120016,,,,,,,2023-12-20,1,,,,,エルエルエルコミュニケーションズ,0
1850,7290003014763,新規,0,2023-12-20,2023-12-20,ディーアンドアールファースト資産管理合同会社,,合同会社,福岡県,福岡市中央区,天神２丁目７番２１号,,40,133,8100001,,,,,,,2023-12-20,1,,,,,ディーアンドアールファーストシサンカンリ,0
1851,7290801030152,新規,0,2023-12-20,2023-12-20,株式会社ａ　ｂｅｌｉｅｖｅｓ,,株式会社,福岡県,北九州市八幡西区,南王子町４番７号,,40,109,8060038,,,,,,,2023-12-20,1,,,,,アビリーブス,0
1852,7300001013559,新規,0,2023-12-20,2023-12-20,株式会社Ｈａｌｃ,,株式会社,佐賀県,杵島郡白石町,大字横手２６４３番地１,,41,425,8491116,,,,,,,2023-12-20,1,,,,,ハルク,0
1854,7320003004257,新規,0,2023-12-20,2023-12-20,合同会社ｃｒｅａｔｉｏ,,合同会社,大分県,大分市,大字津守８７２番地,,44,201,8700945,,,,,,,2023-12-20,1,,,,,クレアティオ,0
1857,7340001026152,新規,0,2023-12-20,2023-12-20,株式会社ＫａＰｏＮｏａ,,株式会社,鹿児島県,鹿児島市,西千石町１３番１１－１３０５号,,46,201,8920847,,,,,,,2023-12-20,1,,,,,カポノア,0
1868,7370001050752,新規,0,2023-12-20,2023-12-20,株式会社ＳＳＫ,,株式会社,宮城県,仙台市青葉区,国分町２丁目８－３０,,04,101,9800803,,,,,,,2023-12-20,1,,,,,エスエスケー,0
1869,7370003006422,新規,0,2023-12-20,2023-12-20,合同会社調循天,,合同会社,宮城県,仙台市太白区,あすと長町４丁目２番５８―１４０２号,,04,104,9820007,,,,,,,2023-12-20,1,,,,,チョウジュンテン,0
1871,7390001017452,新規,0,2023-12-20,2023-12-20,株式会社ジャパン仮設,,株式会社,山形県,天童市,大字山元３４９番地９,,06,210,9940021,,,,,,,2023-12-20,1,,,,,ジャパンカセツ,0
1889,7700150122715,新規,0,2023-12-20,2023-12-13,ヤブクグリ生活道具研究室,,その他,大分県,日田市,元町１１－３,,44,204,8770013,,,,,,,2023-12-13,1,,,,,ヤブクグリセイカツドウグケンキユウシツ,0
1901,8010103002273,新規,0,2023-12-20,2023-12-20,合同会社スケッチ,,合同会社,東京都,八王子市,大和田町２丁目２番７号,,13,201,1920045,,,,,,,2023-12-20,1,,,,,スケッチ,0
1909,8010401179301,新規,0,2023-12-20,2023-12-20,ケアネットホールディングス株式会社,,株式会社,東京都,港区,虎ノ門１丁目３番１号,,13,103,1050001,,,,,,,2023-12-20,1,,,,,ケアネットホールディングス,0
1912,8010603010528,新規,0,2023-12-20,2023-12-20,サイトウパーキング＆サービス合同会社,,合同会社,東京都,江東区,千石１丁目４番１３号,,13,108,1350015,,,,,,,2023-12-20,1,,,,,サイトウパーキングアンドサービス,0
1914,8010701045285,新規,0,2023-12-20,2023-12-20,株式会社Ｒｅａｌ　Ｍｏｉ,,株式会社,東京都,品川区,中延４丁目７番１１号,,13,109,1420053,,,,,,,2023-12-20,1,,,,,リアルモア,0
1915,8010701045293,新規,0,2023-12-20,2023-12-20,株式会社Ｉｄｅａ　ｓｅｎｓｅ,,株式会社,東京都,品川区,北品川５丁目５番１５号,,13,109,1410001,,,,,,,2023-12-20,1,,,,,イデアセンス,0
1917,8010801034626,新規,0,2023-12-20,2023-12-20,株式会社Ｔｓ‐ａｉｒ,,株式会社,東京都,大田区,東矢口３丁目１１番７号,,13,111,1460094,,,,,,,2023-12-20,1,,,,,ティーエスエアー,0
1922,8010901054367,新規,0,2023-12-20,2023-12-20,株式会社レピス,,株式会社,東京都,世田谷区,北烏山１丁目１番１８号,,13,112,1570061,,,,,,,2023-12-20,1,,,,,レピス,0
1923,8010901054375,新規,0,2023-12-20,2023-12-20,株式会社森,,株式会社,東京都,世田谷区,池尻２丁目３０番７号,,13,112,1540001,,,,,,,2023-12-20,1,,,,,モリ,0
1926,8011001158802,新規,0,2023-12-20,2023-12-20,株式会社Ａｔｅｌｉｅｒ　Ｌ,,株式会社,東京都,渋谷区,千駄ヶ谷４丁目９－２４メゾンドール北参道６０３,,13,113,1510051,,,,,,,2023-12-20,1,,,,,アトリエエル,0
1927,8011001158884,新規,0,2023-12-20,2023-12-20,株式会社Ｃｒｏｉｘｌｓ,,株式会社,東京都,目黒区,平町２丁目２３－９,,13,110,1520032,,,,,,,2023-12-20,1,,,,,クロワ,0
1928,8011001158926,新規,0,2023-12-20,2023-12-20,株式会社バディブロー,,株式会社,東京都,渋谷区,恵比寿西１丁目３３番６号１Ｆ,,13,113,1500021,,,,,,,2023-12-20,1,,,,,バディブロー,0
1930,8011003018129,新規,0,2023-12-20,2023-12-20,ＢｉＮＵＭ合同会社,,合同会社,東京都,渋谷区,渋谷２丁目１９－１５宮益坂ビルディング６０９,,13,113,1500002,,,,,,,2023-12-20,1,,,,,バイナム,0
1934,8011103013871,新規,0,2023-12-20,2023-12-20,ＣＳ山口新美祢ＥＳＳ合同会社,,合同会社,東京都,新宿区,西新宿２丁目１番１号新宿三井ビル４３階,,13,104,1600023,,,,,,,2023-12-20,1,,,,,シーエスヤマグチシンミネイーエスエス,0
1935,8011201025125,新規,0,2023-12-20,2023-12-20,株式会社リベロ・リアルエステート,,株式会社,東京都,中野区,中野１丁目４６番２号,,13,114,1640001,,,,,,,2023-12-20,1,,,,,リベロリアルエステート,0
1942,8011801043526,新規,0,2023-12-20,2023-12-20,株式会社ＣＲＥＡ,,株式会社,東京都,葛飾区,新小岩１丁目２４番８号,,13,122,1240024,,,,,,,2023-12-20,1,,,,,クレア,0
1943,8011801043534,新規,0,2023-12-20,2023-12-20,株式会社ラヴィーン,,株式会社,東京都,葛飾区,新小岩１丁目４１番９号３階,,13,122,1240024,,,,,,,2023-12-20,1,,,,,ラヴィーン,0
1944,8011803006002,新規,0,2023-12-20,2023-12-20,ＯＺＯ合同会社,,合同会社,東京都,足立区,江北３丁目３番４号,,13,121,1230872,,,,,,,2023-12-20,1,,,,,オゾ,0
1951,8013301051802,新規,0,2023-12-20,2023-12-20,上田株式会社,,株式会社,東京都,豊島区,南池袋２丁目４１番１２号－６０２号室,,13,116,1710022,,,,,,,2023-12-20,1,,,,,ウエダ,0
1952,8013301051810,新規,0,2023-12-20,2023-12-20,ＳＴＥＰＨＥＮ株式会社,,株式会社,東京都,豊島区,池袋１丁目１２－１ハニービーＦ室,,13,116,1700014,,,,,,,2023-12-20,1,,,,,ステファン,0
1958,8020001154967,新規,0,2023-12-20,2023-12-20,株式会社イーストサンジャパン,,株式会社,神奈川県,横浜市旭区,今宿東町７１１番地１３,,14,112,2410032,,,,,,,2023-12-20,1,,,,,イーストサンジャパン,0
1964,8021001081012,新規,0,2023-12-20,2023-12-20,株式会社ＧＦＳ,,株式会社,神奈川県,相模原市南区,大野台４丁目２６番３号,,14,153,2520331,,,,,,,2023-12-20,1,,,,,ジーエフエス,0
1966,8021003013905,新規,0,2023-12-20,2023-12-20,スマビジ合同会社,,合同会社,神奈川県,厚木市,寿町２丁目６番２５号,,14,212,2430003,,,,,,,2023-12-20,1,,,,,スマビジ,0
1973,8030001157779,新規,0,2023-12-20,2023-12-20,マリタイムハウス株式会社,,株式会社,埼玉県,川口市,元郷５丁目８番１２号,,11,203,3320011,,,,,,,2023-12-20,1,,,,,マリタイムハウス,0
1974,8030001157787,新規,0,2023-12-20,2023-12-20,万賀株式会社,,株式会社,埼玉県,川口市,西川口３丁目１５番２０号,,11,203,3320021,,,,,,,2023-12-20,1,,,,,マンガ,0
1975,8030001157795,新規,0,2023-12-20,2023-12-20,株式会社ミライエーアイテクノロジー,,株式会社,埼玉県,春日部市,粕壁東１丁目１５番４３―４０３号ライオンズプラザ春日部,,11,214,3440062,,,,,,,2023-12-20,1,,,,,ミライエーアイテクノロジー,0
1991,8040003023747,新規,0,2023-12-20,2023-12-20,合同会社Ｒｅｆｉｎｅ　Ｉｎｔｅｒｎａｔｉｏｎａｌ,,合同会社,千葉県,柏市,豊四季１００１,,12,217,2770863,,,,,,,2023-12-20,1,,,,,リファインインターナショナル,0
1993,8050001053943,新規,0,2023-12-20,2023-12-20,嘉和日本研究院株式会社,,株式会社,茨城県,鉾田市,安房３８９番地５,,08,234,3111504,,,,,,,2023-12-20,1,,,,,カワニホンケンキュウイン,0
2004,8090001018471,新規,0,2023-12-20,2023-12-20,株式会社ＳＴＡＲＦＩＳＨ,,株式会社,山梨県,富士吉田市,下吉田８丁目２０－１１,,19,202,4030004,,,,,,,2023-12-20,1,,,,,,0
2006,8100001037065,新規,0,2023-12-20,2023-12-20,株式会社東北シュタール,,株式会社,長野県,諏訪市,大字豊田１２３番地５,,20,206,3920016,,,,,,,2023-12-20,1,,,,,トウホクシュタール,0
2019,8120001260499,新規,0,2023-12-20,2023-12-20,株式会社ＬｉｎＫｉｎｇ,,株式会社,大阪府,大阪市中央区,南船場３丁目２番２８号日宝タイヨービル６Ｆ１,,27,128,5420081,,,,,,,2023-12-20,1,,,,,リンキング,0
2020,8120001260508,新規,0,2023-12-20,2023-12-20,株式会社京鵬商事,,株式会社,大阪府,大阪市中央区,淡路町２丁目１－１０ユニ船場６０６,,27,128,5410047,,,,,,,2023-12-20,1,,,,,キョウホウショウジ,0
2021,8120001260771,新規,0,2023-12-20,2023-12-20,屹騰株式会社,,株式会社,大阪府,大阪市東淀川区,東中島２丁目１９番１４号３Ａ,,27,114,5330033,,,,,,,2023-12-20,1,,,,,キツトウ,0
2022,8120001260846,新規,0,2023-12-20,2023-12-20,ＡＬＥＳＳＩ　ＪＡＰＡＮ株式会社,,株式会社,大阪府,大阪市阿倍野区,天王寺町北３丁目１５番２６号,,27,119,5450001,,,,,,,2023-12-20,1,,,,,アレッシジャパン,0
2029,8120003025561,新規,0,2023-12-20,2023-12-20,合同会社Ｎｏｗ　ｏｎ　Ｎｏｖａ,,合同会社,大阪府,大阪市中央区,高津３丁目１５－１０－１０２,,27,128,5420072,,,,,,,2023-12-20,1,,,,,ナウオンノバ,0
2032,8120101068719,新規,0,2023-12-20,2023-12-20,株式会社ＦＯＣＵＳ,,株式会社,大阪府,河内長野市,楠ケ丘１０番１号,,27,216,5860039,,,,,,,2023-12-20,1,,,,,フォーカス,0
2033,8120101068743,新規,0,2023-12-20,2023-12-20,株式会社Ｋ‐Ｓｕｐｐｏｒｔ,,株式会社,大阪府,泉南郡熊取町,つばさが丘西２丁目２２番１６号,,27,361,5900443,,,,,,,2023-12-20,1,,,,,ケーサポート,0
2047,8140005026845,新規,0,2023-12-20,2023-12-20,医療法人社団磯貝歯科医院,,その他の設立登記法人,兵庫県,加東市,木梨１１３４番地２５２,,28,228,6731461,,,,,,,2023-12-20,1,,,,,イソガイシカイイン,0
2049,8170001017936,新規,0,2023-12-20,2023-12-20,株式会社ＤＳＰ,,株式会社,和歌山県,和歌山市,加太１１３４番地１９１（２０２）,,30,201,6400103,,,,,,,2023-12-20,1,,,,,ディーエスピー,0
2052,8180001159430,新規,0,2023-12-20,2023-12-20,株式会社ＬＵＡＧＯ,,株式会社,愛知県,名古屋市緑区,鳴海町字向田９５番地,,23,114,4580831,,,,,,,2023-12-20,1,,,,,ルアゴ,0
2057,8180005020431,新規,0,2023-12-20,2023-12-20,一般社団法人Ｓｈｉｍｏ経営アドバイザリー,,その他の設立登記法人,愛知県,名古屋市中区,錦３丁目６－１５先名古屋テレビ塔３階０３区画,,23,106,4600003,,,,,,,2023-12-20,1,,,,,シモケイエイアドバイザリー,0
2059,8190001030961,新規,0,2023-12-20,2023-12-20,株式会社ピーシーエスコート,,株式会社,三重県,桑名市,大字上野８７０番地２,,24,205,5110825,,,,,,,2023-12-20,1,,,,,ピーシーエスコート,0
2069,8230005009353,新規,0,2023-12-20,2023-12-20,弁護士法人樋爪・大原法律事務所,,その他の設立登記法人,富山県,高岡市,中川本町１番１２号,,16,202,9330046,,,,,,,2023-12-20,1,,,,,ヒヅメオオハラホウリツジムショ,0
2084,8290001104061,新規,0,2023-12-20,2023-12-20,株式会社名嘉,,株式会社,福岡県,福岡市中央区,渡辺通２丁目３番１９－７０１号,,40,133,8100004,,,,,,,2023-12-20,1,,,,,ナカ,0
2085,8290001104111,新規,0,2023-12-20,2023-12-20,株式会社テッチュン,,株式会社,福岡県,福岡市中央区,小笹５丁目１８番３０号,,40,133,8100033,,,,,,,2023-12-20,1,,,,,テッチュン,0
2088,8290003014746,新規,0,2023-12-20,2023-12-20,合同会社ロハス倶楽部,,合同会社,福岡県,筑後市,大字尾島１２１番地,,40,211,8330014,,,,,,,2023-12-20,1,,,,,ロハスクラブ,0
2089,8290003014762,新規,0,2023-12-20,2023-12-20,合同会社アルクジー,,合同会社,福岡県,福岡市東区,箱崎ふ頭３丁目４番２０－１００５号,,40,131,8120051,,,,,,,2023-12-20,1,,,,,アルクジー,0
2091,8290801030151,新規,0,2023-12-20,2023-12-20,株式会社ＬＵＣＥ,,株式会社,福岡県,北九州市若松区,本町３丁目４番１２号,,40,103,8080034,,,,,,,2023-12-20,1,,,,,ルーチェ,0
2097,8340001026151,新規,0,2023-12-20,2023-12-20,株式会社生田商会,,株式会社,鹿児島県,大島郡喜界町,大字湾１３４番地１,,46,529,8916202,,,,,,,2023-12-20,1,,,,,イクタショウカイ,0
2103,8360005006957,新規,0,2023-12-20,2023-12-20,一般社団法人読谷村シルバー人材センター,,その他の設立登記法人,沖縄県,中頭郡読谷村,字楚辺２１８７番地,,47,324,9040304,,,,,,,2023-12-20,1,,,,,ヨミタンソンシルバージンザイセンター,0
2105,8370003006421,新規,0,2023-12-20,2023-12-20,合同会社Ｎ．Ｒ,,合同会社,宮城県,塩竈市,錦町６番１７号,,04,203,9850024,,,,,,,2023-12-20,1,,,,,エヌアール,0
2106,8370005010735,新規,0,2023-12-20,2023-12-20,一般社団法人宮城中華総商会,,その他の設立登記法人,宮城県,仙台市泉区,北中山１丁目１番地１７号,,04,105,9813215,,,,,,,2023-12-20,1,,,,,ミヤギチュウカソウショウカイ,0
2108,8390001017451,新規,0,2023-12-20,2023-12-20,株式会社ゴトウホールディングス,,株式会社,山形県,山形市,東青田４丁目１番５６号,,06,201,9902423,,,,,,,2023-12-20,1,,,,,ゴトウホールディングス,0
2111,8420003002852,新規,0,2023-12-20,2023-12-20,合同会社青森燃料販売,,合同会社,青森県,三戸郡三戸町,大字川守田字大明地２０番地９号３号室,,02,441,0390141,,,,,,,2023-12-20,1,,,,,アオモリネンリョウハンバイ,0
2117,8430001090675,新規,0,2023-12-20,2023-12-20,白石ハイトラスト株式会社,,株式会社,北海道,札幌市中央区,大通西５丁目１１番地（大五ビル内）,,01,101,0600042,,,,,,,2023-12-20,1,,,,,シロイシハイトラスト,0
2123,8460101007477,新規,0,2023-12-20,2023-12-20,株式会社Ｈ．Ｋ．サービス,,株式会社,北海道,広尾郡広尾町,公園通北２丁目１２番地１２,,01,642,0892621,,,,,,,2023-12-20,1,,,,,エイチケイサービス,0
2132,8500001025376,新規,0,2023-12-20,2023-12-20,瀬戸内ＢＰＯ株式会社,,株式会社,愛媛県,松山市,夏目甲７９番地,,38,201,7992437,,,,,,,2023-12-20,1,,,,,セトウチビーピーオー,0
2138,9010001240908,新規,0,2023-12-20,2023-12-20,株式会社チャンス,,株式会社,東京都,千代田区,神田和泉町１番地６－１６ヤマトビル４０５,,13,101,1010024,,,,,,,2023-12-20,1,,,,,チャンス,0
2139,9010001240932,新規,0,2023-12-20,2023-12-20,アイエムテクノ株式会社,,株式会社,東京都,千代田区,神田三崎町２丁目２０番１号,,13,101,1010061,,,,,,,2023-12-20,1,,,,,アイエムテクノ,0
2140,9010001240973,新規,0,2023-12-20,2023-12-20,株式会社Ｐｏｒｒｉｄｇｅ　Ｍｕｓｉｃａ,,株式会社,東京都,中央区,銀座１丁目１２番４号Ｎ＆ＥＢＬＤ．６Ｆ,,13,102,1040061,,,,,,,2023-12-20,1,,,,,ポリッジムジカ,0
2143,9010003042476,新規,0,2023-12-20,2023-12-20,合同会社ＴＯＤＡ,,合同会社,東京都,千代田区,神田錦町１丁目１４番地１１,,13,101,1010054,,,,,,,2023-12-20,1,,,,,ティオディエ,0
2144,9010003042492,新規,0,2023-12-20,2023-12-20,ジユウ合同会社,,合同会社,東京都,中央区,銀座１丁目１２番４号Ｎ＆ＥＢＬＤ．６Ｆ,,13,102,1040061,,,,,,,2023-12-20,1,,,,,ジユウ,0
2145,9010101015937,新規,0,2023-12-20,2023-12-20,株式会社ボディコンパス,,株式会社,東京都,八王子市,明神町３丁目８－１７エクセレント京王八王子１階,,13,201,1920046,,,,,,,2023-12-20,1,,,,,ボディコンパス,0
2154,9010403031608,新規,0,2023-12-20,2023-12-20,合同会社Ｍｏｖｅ,,合同会社,東京都,港区,北青山１丁目３番１号アールキューブ青山３階,,13,103,1070061,,,,,,,2023-12-20,1,,,,,ムーヴ,0
2155,9010403031640,新規,0,2023-12-20,2023-12-20,合同会社城南ネットワークス,,合同会社,東京都,港区,浜松町２丁目２番１５号浜松町ダイヤビル２Ｆ,,13,103,1050013,,,,,,,2023-12-20,1,,,,,ジョウナンネットワークス,0
2158,9010601064368,新規,0,2023-12-20,2023-12-20,株式会社ＰＡＰＵＲＩ,,株式会社,東京都,江東区,深川２丁目１５番１１号ＰＡＰＵＲＩ門前仲町３０１,,13,108,1350033,,,,,,,2023-12-20,1,,,,,パプリ,0
2171,9011001158883,新規,0,2023-12-20,2023-12-20,株式会社焔,,株式会社,東京都,渋谷区,恵比寿西２丁目８番４号ＥＸ恵比寿西ビル５階,,13,113,1500021,,,,,,,2023-12-20,1,,,,,ホムラ,0
2172,9011001158917,新規,0,2023-12-20,2023-12-20,株式会社５ＷＡＬＫ,,株式会社,東京都,渋谷区,恵比寿４丁目２０番２－１３１６号,,13,113,1500013,,,,,,,2023-12-20,1,,,,,ファイブウォーク,0
2174,9011003018128,新規,0,2023-12-20,2023-12-20,合同会社ｋａｎｇｅｎ,,合同会社,東京都,渋谷区,渋谷２丁目１９番１５－６０９号宮益坂ビルディング,,13,113,1500002,,,,,,,2023-12-20,1,,,,,カンゲン,0
2175,9011003018136,新規,0,2023-12-20,2023-12-20,合同会社ＡＴＫ,,合同会社,東京都,目黒区,鷹番３丁目３番１８号川島共同ビル地下１階,,13,110,1520004,,,,,,,2023-12-20,1,,,,,エーティーケー,0
2179,9011101105538,新規,0,2023-12-20,2023-12-20,Ｒｉｃｋｓ　Ｃｉｔａｄｅｌ　Ｍｇｍｔ株式会社,,株式会社,東京都,新宿区,山吹町３３７番地５都住創山吹町ビル６０４Ｄ,,13,104,1620801,,,,,,,2023-12-20,1,,,,,リックスシタデルマネジメント,0
2183,9011403004207,新規,0,2023-12-20,2023-12-20,赤石合同会社,,合同会社,東京都,板橋区,常盤台４丁目２９番１６号,,13,119,1740071,,,,,,,2023-12-20,1,,,,,アカイシ,0
2189,9011603004171,新規,0,2023-12-20,2023-12-20,合同会社あさひ総合研究所,,合同会社,東京都,練馬区,豊玉中４丁目１４番１４号,,13,120,1760013,,,,,,,2023-12-20,1,,,,,アサヒソウゴウケンキュウジョ,0
2193,9011801043525,新規,0,2023-12-20,2023-12-20,株式会社ジンクテクノロジーズ,,株式会社,東京都,葛飾区,東四つ木４丁目９番９号,,13,122,1240014,,,,,,,2023-12-20,1,,,,,ジンクテクノロジーズ,0
2194,9011801043541,新規,0,2023-12-20,2023-12-20,ＭＹＣ株式会社,,株式会社,東京都,足立区,伊興３丁目７番３８号,,13,121,1210823,,,,,,,2023-12-20,1,,,,,エムワイシー,0
2195,9011803006001,新規,0,2023-12-20,2023-12-20,ｄｋ合同会社,,合同会社,東京都,足立区,島根３丁目７番６号,,13,121,1210815,,,,,,,2023-12-20,1,,,,,ディーケー,0
2215,9021003013904,新規,0,2023-12-20,2023-12-20,合同会社ミライオ,,合同会社,神奈川県,厚木市,中町１丁目７番２７－３０４号,,14,212,2430018,,,,,,,2023-12-20,1,,,,,ミライオ,0
2220,9030001157745,新規,0,2023-12-20,2023-12-20,株式会社ＨＩＮＤＡＩ,,株式会社,埼玉県,川口市,並木１丁目１１番１号,,11,203,3320034,,,,,,,2023-12-20,1,,,,,ヒィンダイ,0
2221,9030001157778,新規,0,2023-12-20,2023-12-20,株式会社ＡＩＲＦＩＴ,,株式会社,埼玉県,川越市,大字山田１６２１－１モンドビル２Ｆ,,11,201,3500822,,,,,,,2023-12-20,1,,,,,エアフィット,0
2225,9030003023251,新規,0,2023-12-20,2023-12-20,文化の木合同会社,,合同会社,埼玉県,久喜市,久喜中央１丁目８番１５号ナベビル１階,,11,232,3460003,,,,,,,2023-12-20,1,,,,,ブンカノキ,0
2235,9040001131410,新規,0,2023-12-20,2023-12-20,株式会社Ｗａｃｋ,,株式会社,千葉県,千葉市美浜区,中瀬１丁目３番地,,12,106,2610023,,,,,,,2023-12-20,1,,,,,ワック,0
2250,9070001041210,新規,0,2023-12-20,2023-12-20,株式会社成道産業,,株式会社,群馬県,邑楽郡邑楽町,大字篠塚２１０５番地,,10,525,3700615,,,,,,,2023-12-20,1,,,,,ナルトサンギョウ,0
2254,9080001026037,新規,0,2023-12-20,2023-12-20,ＫＫＡ株式会社,,株式会社,静岡県,静岡市葵区,川合２丁目２４番６号,,22,101,4200923,,,,,,,2023-12-20,1,,,,,ケーケーエー,0
2258,9080401026900,新規,0,2023-12-20,2023-12-20,株式会社アドメイト,,株式会社,静岡県,菊川市,堀之内７８０－３,,22,224,4390006,,,,,,,2023-12-20,1,,,,,アドメイト,0
2260,9090001018470,新規,0,2023-12-20,2023-12-20,Ｃｒｒｉｔ株式会社,,株式会社,山梨県,甲府市,堀之内町８４０－１,,19,201,4000056,,,,,,,2023-12-20,1,,,,,クリット,0
2276,9120001260754,新規,0,2023-12-20,2023-12-20,株式会社ＨＯＧＸＩＡ,,株式会社,大阪府,大阪市福島区,福島２丁目１０番１１号秋元ビル５階,,27,103,5530003,,,,,,,2023-12-20,1,,,,,ホグシア,0
2277,9120001260762,新規,0,2023-12-20,2023-12-20,日本緑新医美株式会社,,株式会社,大阪府,大阪市中央区,淡路町３丁目５番１３号創建御堂筋ビル２階,,27,128,5410047,,,,,,,2023-12-20,1,,,,,ニッポンリョクシンイビ,0
2278,9120001260770,新規,0,2023-12-20,2023-12-20,株式会社簡繁,,株式会社,大阪府,大阪市東成区,中道２丁目２４番１８号２Ａ,,27,115,5370025,,,,,,,2023-12-20,1,,,,,カンハン,0
2279,9120001260779,新規,0,2023-12-20,2023-12-20,株式会社ＯＭＯＣＨＩ,,株式会社,大阪府,大阪市西成区,天下茶屋東１丁目２番６号,,27,122,5570011,,,,,,,2023-12-20,1,,,,,オモチ,0
2280,9120001260787,新規,0,2023-12-20,2023-12-20,株式会社レッドダイヤモンドＪＡＰＡＮ,,株式会社,大阪府,大阪市北区,長柄西１丁目３番２２－２２０１号,,27,127,5310061,,,,,,,2023-12-20,1,,,,,レッドダイヤモンドジャパン,0
2284,9120003025528,新規,0,2023-12-20,2023-12-20,合同会社Ｃｏｒｅｅ,,合同会社,大阪府,大阪市西区,新町４丁目１０番２１－５１０号,,27,106,5500013,,,,,,,2023-12-20,1,,,,,コレ,0
2285,9120003025552,新規,0,2023-12-20,2023-12-20,合同会社ＳＰＡＤＥ,,合同会社,大阪府,大阪市北区,浪花町１番２３号８Ｆ,,27,127,5300022,,,,,,,2023-12-20,1,,,,,スペード,0
2286,9120003025560,新規,0,2023-12-20,2023-12-20,合同会社きずなグループ誠,,合同会社,大阪府,大阪市北区,中崎２丁目４－１２－８０３,,27,127,5300016,,,,,,,2023-12-20,1,,,,,キズナグループマコト,0
2287,9120005024057,新規,0,2023-12-20,2023-12-20,一般社団法人アゼリアひまわりネット,,その他の設立登記法人,大阪府,大阪市港区,三先１丁目１０番３０号,,27,107,5520016,,,,,,,2023-12-20,1,,,,,アゼリアヒマワリネット,0
2288,9120101068742,新規,0,2023-12-20,2023-12-20,株式会社ラールビア,,株式会社,大阪府,阪南市,自然田７２８番地の１,,27,232,5990212,,,,,,,2023-12-20,1,,,,,,0
2294,9122003002754,新規,0,2023-12-20,2023-12-20,黎トータルヘルスサポート合同会社,,合同会社,大阪府,四條畷市,岡山東１丁目５番１１号,,27,229,5750003,,,,,,,2023-12-20,1,,,,,レイトータルヘルスサポート,0
2302,9140003019949,新規,0,2023-12-20,2023-12-20,合同会社東昇,,合同会社,兵庫県,尼崎市,立花町１丁目２４番１９号,,28,202,6610025,,,,,,,2023-12-20,1,,,,,トウショウ,0
2305,9140005026852,新規,0,2023-12-20,2023-12-20,医療法人明寿会,,その他の設立登記法人,兵庫県,明石市,旭が丘２１番２３号クリニックステーション西明石２－Ｃ,,28,203,6730002,,,,,,,2023-12-20,1,,,,,メイジュカイ,0
2306,9150001026954,新規,0,2023-12-20,2023-12-20,株式会社ＶｉＥｄｇｅ,,株式会社,奈良県,奈良市,東九条町６番地の６,,29,201,6308144,,,,,,,2023-12-20,1,,,,,バイエッジ,0
2307,9160003003067,新規,0,2023-12-20,2023-12-20,合同会社ＬＵＸ,,合同会社,滋賀県,栗東市,小平井２丁目３番１１号,,25,208,5203034,,,,,,,2023-12-20,1,,,,,ラックス,0
2308,9170001017935,新規,0,2023-12-20,2023-12-20,株式会社ベータ,,株式会社,和歌山県,和歌山市,加太１１３４番地１９１（１０３）,,30,201,6400103,,,,,,,2023-12-20,1,,,,,ベータ,0
2316,9180001159438,新規,0,2023-12-20,2023-12-20,株式会社とみやビル,,株式会社,愛知県,名古屋市中区,栄４丁目１７番２４号,,23,106,4600008,,,,,,,2023-12-20,1,,,,,トミヤビル,0
2319,9180005020471,新規,0,2023-12-20,2023-12-20,一般社団法人日本チェコ楽友協会,,その他の設立登記法人,愛知県,名古屋市中村区,名駅４丁目２４番５号第２森ビル４０１,,23,105,4500002,,,,,,,2023-12-20,1,,,,,ニホンチェコガクユウキョウカイ,0
2327,9200001042005,新規,0,2023-12-20,2023-12-20,株式会社えんむすび１ｓｔ,,株式会社,岐阜県,加茂郡七宗町,神渕１０９４２番地１,,21,504,5090511,,,,,,,2023-12-20,1,,,,,エンムスビファースト,0
2336,9260001038583,新規,0,2023-12-20,2023-12-20,ゲートウェイ株式会社,,株式会社,岡山県,岡山市南区,泉田１丁目８番５９－５号,,33,104,7000944,,,,,,,2023-12-20,1,,,,,ゲートウェイ,0
2337,9260001038591,新規,0,2023-12-20,2023-12-20,株式会社スリーピース,,株式会社,岡山県,岡山市北区,西島田町４番２７号,,33,101,7000981,,,,,,,2023-12-20,1,,,,,スリーピース,0
2350,9290001104085,新規,0,2023-12-20,2023-12-20,株式会社まほろば,,株式会社,福岡県,飯塚市,口原７４７番地２,,40,205,8201114,,,,,,,2023-12-20,1,,,,,マホロバ,0
2351,9290001104102,新規,0,2023-12-20,2023-12-20,ＺＴＹＹ　ＣＬＡＳＳＩＣ株式会社,,株式会社,福岡県,福岡市東区,高美台４丁目４０番１号,,40,131,8110215,,,,,,,2023-12-20,1,,,,,ゼットティーワイワイクラシック,0
2352,9290001104110,新規,0,2023-12-20,2023-12-20,株式会社結城ホールディングス,,株式会社,福岡県,福岡市中央区,鳥飼１丁目３番２３号,,40,133,8100053,,,,,,,2023-12-20,1,,,,,ユウキホールディングス,0
2356,9290803004565,新規,0,2023-12-20,2023-12-20,合同会社ようちゃん,,合同会社,福岡県,北九州市小倉北区,砂津２丁目１１番２０－８０１号,,40,106,8020014,,,,,,,2023-12-20,1,,,,,ヨウチャン,0
2363,9370003006420,新規,0,2023-12-20,2023-12-20,合同会社Ｋａｎａｔａ　Ｆａｒｍ,,合同会社,宮城県,仙台市宮城野区,大梶８番３－１００１号,,04,102,9830835,,,,,,,2023-12-20,1,,,,,カナタファーム,0
2364,9370005010734,新規,0,2023-12-20,2023-12-20,医療法人藤仁会,,その他の設立登記法人,宮城県,大崎市,古川駅前大通１丁目１－１０,,04,215,9896162,,,,,,,2023-12-20,1,,,,,トウジンカイ,0
2370,9390001017450,新規,0,2023-12-20,2023-12-20,株式会社ハウスケア,,株式会社,山形県,東根市,本丸北１丁目６番３４号,,06,211,9993781,,,,,,,2023-12-20,1,,,,,ハウスケア,0
2375,9450001014177,新規,0,2023-12-20,2023-12-20,株式会社丸北農場,,株式会社,北海道,上川郡美瑛町,字美馬牛大成,,01,459,0710471,,,,,,,2023-12-20,1,,,,,マルキタノウジョウ,0
2376,9480001012327,新規,0,2023-12-20,2023-12-20,イガイルーフ株式会社,,株式会社,徳島県,徳島市,八万町法花谷１２７番地,,36,201,7708084,,,,,,,2023-12-20,1,,,,,イガイルーフ,0
2378,9700150007179,新規,0,2023-12-20,2015-10-09,全国赤帽共済会,,その他,東京都,台東区,浅草橋３丁目８－５ＶＯＲＴ浅草橋３Ｆ,,13,106,1110053,,,,,,,2015-10-09,1,,,,,ゼンコクアカボウキヨウサイカイ,0
2379,9700150102392,新規,0,2023-12-20,2021-03-16,田無グリーンマンション管理組合,,その他,東京都,西東京市,芝久保町１丁目５－５,,13,229,1880014,,,,,,,2021-03-16,1,,,,,タナシグリーンマンシヨンカンリクミアイ,0
2380,9700150122754,新規,0,2023-12-20,2023-12-15,シティコーポ尾頭橋団地管理組合,,その他,愛知県,名古屋市中川区,尾頭橋１丁目１番３５号,,23,110,4540012,,,,,,,2023-12-15,1,,,,,シテイコーポオトウバシダンチカンリクミアイ,0
