sequenceNumber,corporateNumber,process,correct,updateDate,changeDate,name,nameImageId,kind,prefectureName,cityName,streetNumber,addressImageId,prefectureCode,cityCode,postCode,addressOutside,addressOutsideImageId,closeDate,closeCause,successorCorporateNumber,changeCause,assignmentDate,latest,enName,enPrefectureName,enCityName,enAddressOutside,furigana,hihyoji
3,1010001234297,登記記録の閉鎖等,0,2025-11-28,2025-11-11,株式会社ＩＮＮＯＶＩＴＡ,,株式会社,東京都,中央区,銀座１丁目１２番４号Ｎ＆ＥＢＬＤ．６Ｆ,,13,102,1040061,,,2025-11-11,清算の結了等,,,2023-04-10,1,,,,,イノヴィータ,0
14,1010401104496,登記記録の閉鎖等,0,2025-11-28,2025-11-05,株式会社ＡＡコーポレーションジャパン,,株式会社,東京都,港区,芝浦３丁目２番１６号,,13,103,1080023,,,2025-11-05,清算の結了等,,,2015-10-05,1,,,,,エーエーコーポレーションジャパン,0
25,1010403030600,登記記録の閉鎖等,0,2025-11-28,2025-11-04,枇杷合同会社,,合同会社,東京都,港区,西新橋１丁目１番１号ＥＰコンサルティングサービス内,,13,103,1050003,,,2025-11-04,清算の結了等,,,2023-07-28,1,,,,,ビワ,0
29,1010501026764,登記記録の閉鎖等,0,2025-11-28,2025-11-25,株式会社愛和,,株式会社,東京都,台東区,松が谷１丁目４番６号,,13,106,1110036,,,2025-11-25,清算の結了等,,,2015-10-05,1,,,,,アイワ,0
48,1011001127359,登記記録の閉鎖等,0,2025-11-28,2025-11-04,エクウス株式会社,,株式会社,東京都,渋谷区,恵比寿１丁目２４番１６号カルチェ恵比寿７０４,,13,113,1500013,,,2025-11-04,清算の結了等,,,2019-04-04,1,,,,,エクウス,0
61,1011102015017,登記記録の閉鎖等,0,2025-11-28,2025-10-10,有限会社加川不動産鑑定所,,有限会社,東京都,新宿区,富久町９番１１－４１１号,,13,104,1620067,,,2025-10-10,清算の結了等,,,2015-10-05,1,,,,,カガワフドウサンカンテイショ,0
63,1011103013630,登記記録の閉鎖等,0,2025-11-28,2025-10-28,合同会社ＳＵ,,合同会社,東京都,新宿区,上落合３丁目３０番１号アーバンプレイス中井ＩＩＩ・Ａ１０６,00132310,13,104,1610034,,,2025-10-28,清算の結了等,,,2023-10-19,1,,,,,エスユウ,0
69,1011402005122,登記記録の閉鎖等,0,2025-11-28,2025-11-20,有限会社せきぐち,,有限会社,東京都,板橋区,富士見町７番７号ハーヴェストヒル富士見３０３,,13,119,1740062,,,2025-11-20,清算の結了等,,,2015-10-05,1,,,,,セキグチ,0
79,1012303002035,登記記録の閉鎖等,0,2025-11-28,2025-11-14,Ｔｅｃｋ　ｎｏｖａ合同会社,,合同会社,東京都,町田市,金森１丁目４番９号フラッツかなもり１０５,,13,209,1940012,,,2025-11-14,清算の結了等,,,2024-08-15,1,,,,,テックノヴァ,0
90,1020002069700,登記記録の閉鎖等,0,2025-11-28,2025-11-12,有限会社アピス,,有限会社,神奈川県,横浜市戸塚区,品濃町１８０３番地５の４０２,,14,110,2440801,,,2025-11-12,清算の結了等,,,2015-10-05,1,,,,,アピス,0
97,1021002012749,登記記録の閉鎖等,0,2025-11-28,2025-11-07,有限会社オートサービスケイベスト,,有限会社,神奈川県,茅ヶ崎市,共恵１丁目５番２９号,,14,207,2530056,,,2025-11-07,清算の結了等,,,2015-10-05,1,,,,,オートサービスケイベスト,0
116,1040002088797,登記記録の閉鎖等,0,2025-11-28,2025-10-31,有限会社イオリ,,有限会社,千葉県,柏市,柏４５３番地５,,12,217,2770005,,,2025-10-31,清算の結了等,,,2015-10-05,1,,,,,イオリ,0
120,1040003016385,登記記録の閉鎖等,0,2025-11-28,2025-11-04,合同会社パッシングマーク,,合同会社,千葉県,流山市,おおたかの森南１丁目２５番地の２－６２９号室,,12,220,2700139,,,2025-11-04,清算の結了等,,,2020-11-04,1,,,,,パッシングマーク,0
129,1070001000413,登記記録の閉鎖等,0,2025-11-28,2025-11-25,株式会社湧志,,株式会社,群馬県,前橋市,天川大島町１０３番地２,,10,201,3792154,,,2025-11-25,清算の結了等,,,2015-10-05,1,,,,,ユウシ,0
130,1070001000561,登記記録の閉鎖等,0,2025-11-28,2025-11-21,株式会社環境分析センター,,株式会社,群馬県,前橋市,西善町１７９番地の４,,10,201,3792131,,,2025-11-21,清算の結了等,,,2015-10-05,1,,,,,カンキョウブンセキセンター,0
133,1070002005361,登記記録の閉鎖等,0,2025-11-28,2025-11-25,有限会社室橋商店,,有限会社,群馬県,前橋市,住吉町１丁目１３番２３号,,10,201,3710021,,,2025-11-25,清算の結了等,,,2015-10-05,1,,,,,ムロハシショウテン,0
138,1080003002951,登記記録の閉鎖等,0,2025-11-28,2025-11-25,合同会社サファイア,,合同会社,静岡県,静岡市駿河区,池田２２５番地の１,,22,102,4228005,,,2025-11-25,清算の結了等,,,2023-03-29,1,,,,,サファイア,0
139,1080402016858,登記記録の閉鎖等,0,2025-11-28,2025-11-26,株式会社ありがとう,,株式会社,静岡県,掛川市,御所原７番７号,,22,213,4360068,,,2025-11-26,清算の結了等,,,2015-10-05,1,,,,,アリガトウ,0
141,1100003007411,登記記録の閉鎖等,0,2025-11-28,2025-11-21,合同会社優風,,合同会社,長野県,松本市,大字和田１８４０番地１,,20,202,3901242,,,2025-11-21,清算の結了等,,,2024-02-20,1,,,,,ユウフウ,0
143,1110001014177,登記記録の閉鎖等,0,2025-11-28,2025-11-25,株式会社三栄工務店,,株式会社,新潟県,三条市,西四日町１丁目１５番１８号,,15,204,9550851,,,2025-11-25,清算の結了等,,,2015-10-05,1,,,,,サンエイコウムテン,0
166,1120005019015,登記記録の閉鎖等,0,2025-11-28,2025-11-26,ＭＹＫ税理士法人,,その他の設立登記法人,大阪府,大阪市淀川区,西中島７丁目１番２６号,,27,123,5320011,,,2025-11-26,清算の結了等,,,2016-10-28,1,,,,,エムワイケイ,0
176,1130001071225,登記記録の閉鎖等,0,2025-11-28,2025-11-21,株式会社ＲＡＹ,,株式会社,大阪府,大阪市此花区,梅香１丁目２３番１９号ダイセイビル２Ｆ,,27,104,5540013,,,2025-11-21,清算の結了等,,,2022-02-28,1,,,,,レイ,0
185,1140002040087,登記記録の閉鎖等,0,2025-11-28,2025-11-25,有限会社英晃産業,,有限会社,兵庫県,尼崎市,水堂町４丁目２０番２３号,,28,202,6610026,,,2025-11-25,清算の結了等,,,2015-10-05,1,,,,,エイコウサンギョウ,0
186,1140002055738,登記記録の閉鎖等,0,2025-11-28,2025-11-20,有限会社植田測量設計事務所,,有限会社,兵庫県,西宮市,東鳴尾町２丁目２番１１－４１２号,,28,204,6638132,,,2025-11-20,清算の結了等,,,2015-10-05,1,,,,,,0
190,1170001007316,登記記録の閉鎖等,0,2025-11-28,2025-11-26,紀州高圧株式会社,,株式会社,和歌山県,有田市,辻堂３１１番地の１,00045283,30,204,6490311,,,2025-11-26,合併による解散等,5140001077993,令和７年１０月１日兵庫県伊丹市中央五丁目５番１０号伊丹産業株式会社（5140001077993）に合併し解散,2015-10-05,1,,,,,キシュウコウアツ,0
196,1180001164115,登記記録の閉鎖等,0,2025-11-28,2025-11-25,株式会社ｇａｒｕｍｏ,,株式会社,愛知県,名古屋市中村区,名駅４丁目２４番５号第２森ビル４０１,,23,105,4500002,,,2025-11-25,清算の結了等,,,2024-11-12,1,,,,,ガルモ,0
198,1180002019937,登記記録の閉鎖等,0,2025-11-28,2025-11-26,有限会社浅野商店,,有限会社,愛知県,名古屋市熱田区,川並町２番２２号,,23,109,4560072,,,2025-11-26,清算の結了等,,,2015-10-05,1,,,,,アサノショウテン,0
203,1190002008740,登記記録の閉鎖等,0,2025-11-28,2025-11-21,有限会社米清商店,,有限会社,三重県,伊勢市,二俣１丁目６番１６号,,24,203,5160064,,,2025-11-21,清算の結了等,,,2015-10-05,1,,,,,コメセイショウテン,0
204,1190002014557,登記記録の閉鎖等,0,2025-11-28,2025-11-25,有限会社ムラジン,,有限会社,三重県,松阪市,日野町５８６番地,,24,204,5150084,,,2025-11-25,清算の結了等,,,2015-10-05,1,,,,,ムラジン,0
207,1200001035560,登記記録の閉鎖等,0,2025-11-28,2025-11-27,株式会社インテリアひぐち,,株式会社,岐阜県,岐阜市,北一色７丁目２５番１０号,,21,201,5008227,,,2025-11-27,清算の結了等,,,2018-09-27,1,,,,,インテリアヒグチ,0
214,1230005009302,登記記録の閉鎖等,0,2025-11-28,2025-11-19,特定非営利活動法人ｉｄｅｎｇｒｏｗ,,その他の設立登記法人,富山県,黒部市,三日市３３３６番地,,16,207,9380031,,,2025-11-19,清算の結了等,,,2023-05-08,1,,,,,アイデングロウ,0
233,1290002037779,登記記録の閉鎖等,0,2025-11-28,2025-10-28,有限会社丸美産業,,有限会社,福岡県,太宰府市,大字北谷１００２番地１,,40,221,8180114,,,2025-10-28,清算の結了等,,,2015-10-05,1,,,,,マルヨシサンギョウ,0
234,1290003016435,登記記録の閉鎖等,0,2025-11-28,2025-10-22,合同会社ＤＩＹレディーズ,,合同会社,福岡県,福津市,光陽台２丁目１４番地の８,,40,224,8113223,,,2025-10-22,清算の結了等,,,2025-02-18,1,,,,,ディーアイワイレディーズ,0
246,1320002015194,登記記録の閉鎖等,0,2025-11-28,2025-11-21,有限会社北島建設,,有限会社,大分県,国東市,国東町浜５７０２番地,,44,214,8721651,,,2025-11-21,清算の結了等,,,2015-10-05,1,,,,,キタジマケンセツ,0
250,1350002013451,登記記録の閉鎖等,0,2025-11-28,2025-11-25,有限会社藤本工務店,,有限会社,宮崎県,西臼杵郡五ヶ瀬町,大字鞍岡２８７０番地の１,,45,443,8821201,,,2025-11-25,清算の結了等,,,2015-10-05,1,,,,,フジモトコウムテン,0
260,1380001009480,登記記録の閉鎖等,0,2025-11-28,2025-11-21,株式会社ホナミ商店,,株式会社,福島県,二本松市,下川崎字荒屋敷４２番地,,07,210,9691511,,,2025-11-21,清算の結了等,,,2015-10-05,1,,,,,,0
269,1460101007772,登記記録の閉鎖等,0,2025-11-28,2025-11-20,豊熊開発株式会社,,株式会社,北海道,帯広市,西十一条南３３丁目２番地１,,01,207,0800021,,,2025-11-20,清算の結了等,,,2025-10-31,1,,,,,,0
276,2010001023212,登記記録の閉鎖等,0,2025-11-28,2025-11-18,株式会社電設広告,,株式会社,埼玉県,大里郡寄居町,大字富田５８７番地１,,11,408,3691216,,,2025-11-18,清算の結了等,,,2015-10-05,1,,,,,デンセツコウコク,0
277,2010001040760,登記記録の閉鎖等,0,2025-11-28,2025-11-13,株式会社元祖お多幸,,株式会社,東京都,中央区,銀座３丁目４番４号,,13,102,1040061,,,2025-11-13,清算の結了等,,,2015-10-05,1,,,,,ガンソオタコウ,0
278,2010001061352,登記記録の閉鎖等,0,2025-11-28,2025-11-13,東京商工リサーチ首都圏株式会社,,株式会社,東京都,中央区,日本橋久松町６番９号,,13,102,1030005,,,2025-11-13,清算の結了等,,,2015-10-05,1,,,,,トウキョウショウコウリサーチシュトケン,0
311,2010601031234,登記記録の閉鎖等,0,2025-11-28,2025-11-04,エム・キャスト株式会社,,株式会社,東京都,港区,西新橋１丁目３番１号,,13,103,1050003,,,2025-11-04,清算の結了等,,,2015-10-05,1,,,,,エムキャスト,0
341,2011302006038,登記記録の閉鎖等,0,2025-11-28,2025-11-19,有限会社ツネヨシ建設,,有限会社,東京都,杉並区,和田２丁目１７番３号,,13,115,1660012,,,2025-11-19,清算の結了等,,,2015-10-05,1,,,,,ツネヨシケンセツ,0
345,2011502001697,登記記録の閉鎖等,0,2025-11-28,2025-11-25,有限会社きのくにや工芸品店,,有限会社,東京都,北区,上十条３丁目２３番５号,,13,117,1140034,,,2025-11-25,清算の結了等,,,2015-10-05,1,,,,,,0
351,2012301002440,登記記録の閉鎖等,0,2025-11-28,2025-11-13,株式会社丸錠商店,,株式会社,東京都,町田市,原町田５丁目１２番１２号,,13,209,1940013,,,2025-11-13,清算の結了等,,,2015-10-05,1,,,,,マルジョウショウテン,0
354,2012702001702,登記記録の閉鎖等,0,2025-11-28,2025-11-20,有限会社マイルドグリーン,,有限会社,東京都,小平市,花小金井４丁目３３番５号,,13,211,1870002,,,2025-11-20,清算の結了等,,,2015-10-05,1,,,,,マイルドグリーン,0
358,2013301014483,登記記録の閉鎖等,0,2025-11-28,2025-11-19,永田精機ニッティング・マシナリー株式会社,,株式会社,東京都,豊島区,北大塚２丁目２４番５号,,13,116,1700004,,,2025-11-19,清算の結了等,,,2015-10-05,1,,,,,ナガタセイキニッティングマシナリー,0
362,2013301050710,登記記録の閉鎖等,0,2025-11-28,2025-11-19,株式会社ｇｒａｙ,,株式会社,東京都,豊島区,要町１丁目２８－２３,,13,116,1710043,,,2025-11-19,清算の結了等,,,2023-05-09,1,,,,,,0
364,2020001122293,登記記録の閉鎖等,0,2025-11-28,2025-10-28,株式会社ミニヨン,,株式会社,福岡県,福岡市東区,香椎照葉３丁目２番３号,,40,131,8130017,,,2025-10-28,清算の結了等,,,2017-07-14,1,,,,,ミニヨン,0
365,2020001137969,登記記録の閉鎖等,0,2025-11-28,2025-11-21,株式会社アクシスアーク,,株式会社,神奈川県,川崎市宮前区,土橋２丁目１４番地３－４１３,,14,136,2160005,,,2025-11-21,清算の結了等,,,2020-10-06,1,,,,,アクシスアーク,0
366,2020001139718,登記記録の閉鎖等,0,2025-11-28,2025-11-17,株式会社プランダムール,,株式会社,神奈川県,横浜市西区,平沼１丁目３３番１号日新横浜ビル５Ｆ,,14,103,2200023,,,2025-11-17,清算の結了等,,,2021-02-01,1,,,,,プランダムール,0
370,2020001163313,登記記録の閉鎖等,0,2025-11-28,2025-11-19,株式会社横浜ＢＡＹＳＴＡＴＥ,,株式会社,神奈川県,横浜市泉区,弥生台３３番地１グレーシアガーデン弥生台３０６号,,14,116,2450008,,,2025-11-19,清算の結了等,,,2025-06-12,1,,,,,ヨコハマベイステート,0
376,2021001025734,登記記録の閉鎖等,0,2025-11-28,2025-11-07,ネオテクノエンジニヤリング株式会社,,株式会社,神奈川県,海老名市,上今泉５丁目３７番１８号,,14,215,2430431,,,2025-11-07,清算の結了等,,,2015-10-05,1,,,,,ネオテクノエンジニアリング,0
382,2030002025032,登記記録の閉鎖等,0,2025-11-28,2025-11-21,有限会社美女木化粧品店,,有限会社,埼玉県,戸田市,美女木１丁目１０番地の２６,,11,224,3350031,,,2025-11-21,清算の結了等,,,2015-10-05,1,,,,,ビジョギケショウヒンテン,0
395,2040002002261,登記記録の閉鎖等,0,2025-11-28,2025-10-31,有限会社大林興業,,有限会社,千葉県,千葉市若葉区,高品町８９９番地１高品ハイツ２棟１００１号,,12,104,2640024,,,2025-10-31,清算の結了等,,,2015-10-05,1,,,,,オオバヤシコウギョウ,0
402,2070003002027,登記記録の閉鎖等,0,2025-11-28,2025-11-21,ＡＭＩＫＡ合同会社,,合同会社,群馬県,高崎市,中尾町６９８番地４８,,10,202,3700001,,,2025-11-21,清算の結了等,,,2015-10-05,1,,,,,,0
404,2080002017867,登記記録の閉鎖等,0,2025-11-28,2025-11-25,有限会社はら宝石,,有限会社,静岡県,藤枝市,小石川町３丁目３番２６号,,22,214,4260033,,,2025-11-25,清算の結了等,,,2015-10-05,1,,,,,ハラホウセキ,0
410,2100002017113,登記記録の閉鎖等,0,2025-11-28,2025-11-21,有限会社こくや商店,,有限会社,長野県,飯山市,大字野坂田５１３番地３,,20,213,3892233,,,2025-11-21,清算の結了等,,,2015-10-05,1,,,,,コクヤショウテン,0
411,2100003003995,登記記録の閉鎖等,0,2025-11-28,2025-11-26,Ｇｏｏｄ　Ｌｕｃｋ合同会社,,合同会社,長野県,長野市,南千歳１丁目１６番２号,,20,201,3800823,,,2025-11-26,清算の結了等,,,2015-10-05,1,,,,,グッドラック,0
413,2120001108150,登記記録の閉鎖等,0,2025-11-28,2025-11-21,Ｏｎｅ’ｓエステート株式会社,,株式会社,大阪府,大阪市中央区,平野町２丁目２番８号,,27,128,5410046,,,2025-11-21,清算の結了等,,,2015-10-05,1,,,,,,0
426,2120001279801,登記記録の閉鎖等,0,2025-11-28,2025-11-19,聿良株式会社,,株式会社,大阪府,大阪市淀川区,西宮原２丁目６－１６新大阪コーポビアネーズ１０２０号室,,27,123,5320004,,,2025-11-19,清算の結了等,,,2025-09-22,1,,,,,イツリョウ,0
455,2130003003241,登記記録の閉鎖等,0,2025-11-28,2025-11-25,合同会社京都府ＳＳ管理委員会,,合同会社,京都府,京丹後市,大宮町谷内小字大河原１５３８番地の７,,26,212,6292532,,,2025-11-25,清算の結了等,,,2015-10-05,1,,,,,キョウトフエスエスカンリイインカイ,0
465,2180001006786,登記記録の閉鎖等,0,2025-11-28,2025-11-25,株式会社谷装,,株式会社,愛知県,名古屋市港区,九番町３丁目４３番地の２,,23,111,4550008,,,2025-11-25,清算の結了等,,,2015-10-05,1,,,,,タニソウ,0
471,2180002064040,登記記録の閉鎖等,0,2025-11-28,2025-11-25,有限会社宿善恒産,,有限会社,愛知県,豊明市,沓掛町宿１１２番地,,23,229,4701109,,,2025-11-25,清算の結了等,,,2015-10-05,1,,,,,シュクゼンコウサン,0
475,2180302004002,登記記録の閉鎖等,0,2025-11-28,2025-11-18,有限会社ノマド,,有限会社,愛知県,岡崎市,洞町字西奥洞６番地１,,23,202,4440008,,,2025-11-18,清算の結了等,,,2015-10-05,1,,,,,ノマド,0
492,2240002040381,登記記録の閉鎖等,0,2025-11-28,2025-11-26,有限会社クロワッサン,,有限会社,広島県,福山市,水呑町４４８８番地,,34,207,7200832,,,2025-11-26,清算の結了等,,,2015-10-05,1,,,,,,0
502,2290001027334,登記記録の閉鎖等,0,2025-11-28,2025-10-28,株式会社アムリンク,,株式会社,福岡県,古賀市,新久保２丁目１４番１７号,,40,223,8113118,,,2025-10-28,清算の結了等,,,2015-10-05,1,,,,,アムリンク,0
503,2290001042234,登記記録の閉鎖等,0,2025-11-28,2025-10-28,西日本テック株式会社,,株式会社,福岡県,福岡市東区,蒲田３丁目２番５号,,40,131,8130023,,,2025-10-28,清算の結了等,,,2015-10-05,1,,,,,ニシニホンテック,0
506,2290003014322,登記記録の閉鎖等,0,2025-11-28,2025-10-30,合同会社ＴＭＫＫＹ,,合同会社,福岡県,福岡市早良区,次郎丸４丁目１０番５４‐３０２号ジョーヴァネソプラ,,40,137,8140165,,,2025-10-30,清算の結了等,,,2023-09-19,1,,,,,ティーエムケーケーワイ,0
513,2310002013306,登記記録の閉鎖等,0,2025-11-28,2025-11-25,有限会社中村電器商会,,有限会社,長崎県,長崎市,三原３丁目４９７－２,,42,201,8528123,,,2025-11-25,清算の結了等,,,2015-10-05,1,,,,,ナカムラデンキショウカイ,0
526,2400001012720,登記記録の閉鎖等,0,2025-11-28,2025-11-20,株式会社さが屋,,株式会社,岩手県,久慈市,旭町第７地割４番地１,,03,207,0280014,,,2025-11-20,清算の結了等,,,2015-10-05,1,,,,,サガヤ,0
529,2430001040462,登記記録の閉鎖等,0,2025-11-28,2025-11-05,株式会社トライプレイン,,株式会社,東京都,渋谷区,千駄ヶ谷１丁目２１番１３号ネオマイム千駄ヶ谷４０４,,13,113,1510051,,,2025-11-05,清算の結了等,,,2015-10-05,1,,,,,トライプレイン,0
534,2470001002987,登記記録の閉鎖等,0,2025-11-28,2025-11-10,株式会社常磐タクシー,,株式会社,香川県,高松市,紙町５９５番地１,,37,201,7618055,,,2025-11-10,合併による解散等,4470001006004,令和７年１１月１０日香川県高松市紙町５９６番地２株式会社トキワタクシー（4470001006004）に合併し解散,2015-10-05,1,,,,,トキワタクシー,0
536,2490002012117,登記記録の閉鎖等,0,2025-11-28,2025-11-26,有限会社オカモト商事,,有限会社,高知県,香南市,野市町中ノ村６９３番地,,39,211,7815211,,,2025-11-26,清算の結了等,,,2015-10-05,1,,,,,オカモトショウジ,0
544,3010001203110,登記記録の閉鎖等,0,2025-11-28,2025-11-26,エンバーポイントホールディングス株式会社,,株式会社,東京都,千代田区,有楽町１丁目７－１,,13,101,1000006,,,2025-11-26,合併による解散等,6010001233914,令和７年１１月１日東京都港区赤坂一丁目１２番３２号株式会社ＷＨＩ　Ｈｏｌｄｉｎｇｓ（6010001233914）に合併し解散,2019-08-08,1,,,,,エンバーポイントホールディングス,0
569,3010703003700,登記記録の閉鎖等,0,2025-11-28,2025-11-20,合同会社ソレイユ,,合同会社,東京都,品川区,北品川１丁目９番７号トップルーム品川１０１５号,,13,109,1400001,,,2025-11-20,清算の結了等,,,2017-07-04,1,,,,,ソレイユ,0
579,3010905004546,登記記録の閉鎖等,0,2025-11-28,2025-11-19,一般社団法人インクルーシブ・ソサエティ,,その他の設立登記法人,東京都,世田谷区,砧７丁目５番１３号,,13,112,1570073,,,2025-11-19,清算の結了等,,,2023-12-04,1,,,,,インクルーシブソサエティ,0
580,3011001002519,登記記録の閉鎖等,0,2025-11-28,2025-11-06,一不二興産株式会社,,株式会社,東京都,渋谷区,渋谷２丁目７番１３号,,13,113,1500002,,,2025-11-06,清算の結了等,,,2015-10-05,1,,,,,イチフジコウサン,0
601,3011601001424,登記記録の閉鎖等,0,2025-11-28,2025-11-25,株式会社カシウス,,株式会社,東京都,練馬区,春日町６丁目７番１２号,,13,120,1790074,,,2025-11-25,清算の結了等,,,2015-10-05,1,,,,,カシウス,0
613,3012802001262,登記記録の閉鎖等,0,2025-11-28,2025-11-21,有限会社関不動産,,有限会社,東京都,立川市,柏町４丁目６２番地２２,,13,202,1900004,,,2025-11-21,清算の結了等,,,2015-10-05,1,,,,,セキフドウサン,0
636,3030001130096,登記記録の閉鎖等,0,2025-11-28,2025-11-20,株式会社日神建設工業,,株式会社,埼玉県,新座市,馬場４丁目６番３５－３０７号,,11,230,3520016,,,2025-11-20,清算の結了等,,,2019-03-28,1,,,,,ヒシンケンセツコウギョウ,0
644,3040001029387,登記記録の閉鎖等,0,2025-11-28,2025-10-30,カネカ貝灰製造株式会社,,株式会社,千葉県,浦安市,当代島３丁目５番６号,,12,227,2790001,,,2025-10-30,清算の結了等,,,2015-10-05,1,,,,,カネカカイバイセイゾウ,0
650,3040002090966,登記記録の閉鎖等,0,2025-11-28,2025-11-10,有限会社成管工事,,有限会社,千葉県,柏市,布施７１７番地の３,,12,217,2770825,,,2025-11-10,清算の結了等,,,2015-10-05,1,,,,,ナルカンコウジ,0
664,3070002024087,登記記録の閉鎖等,0,2025-11-28,2025-11-21,有限会社田村工業,,有限会社,群馬県,みどり市,笠懸町鹿２５２０番地,,10,212,3792313,,,2025-11-21,清算の結了等,,,2015-10-05,1,,,,,タムラコウギョウ,0
669,3100001028985,登記記録の閉鎖等,0,2025-11-28,2025-11-21,株式会社破天荒,,株式会社,長野県,塩尻市,大門五番町１１番３号,,20,215,3990732,,,2025-11-21,清算の結了等,,,2016-01-12,1,,,,,ハテンコウ,0
694,3120101032753,登記記録の閉鎖等,0,2025-11-28,2025-11-20,株式会社キバヤシ住販,,株式会社,大阪府,藤井寺市,小山５丁目６番２号,,27,226,5830033,,,2025-11-20,清算の結了等,,,2015-10-05,1,,,,,キバヤシジュウハン,0
711,3130005006522,登記記録の閉鎖等,0,2025-11-28,2025-11-25,特定非営利活動法人愛宕山に記念樹を植える会,,その他の設立登記法人,京都府,宇治市,広野町尖山２番地１４１,,26,204,6110031,,,2025-11-25,清算の結了等,,,2015-10-05,1,,,,,アタゴヤマニキネンジュヲウエルカイ,0
712,3140001010411,登記記録の閉鎖等,0,2025-11-28,2025-11-25,株式会社ビバリーハウス,,株式会社,兵庫県,神戸市中央区,二宮町１丁目９番１１号１Ｆ,,28,110,6510093,,,2025-11-25,清算の結了等,,,2015-10-05,1,,,,,ビバリーハウス,0
724,3140002067095,登記記録の閉鎖等,0,2025-11-28,2025-11-25,有限会社宝寿司,,有限会社,兵庫県,宝塚市,栄町１丁目１番１２号,,28,214,6650845,,,2025-11-25,清算の結了等,,,2015-10-05,1,,,,,タカラズシ,0
759,3230002011127,登記記録の閉鎖等,0,2025-11-28,2025-11-11,有限会社坂下工業,,有限会社,富山県,高岡市,早川２５５番地,,16,202,9330957,,,2025-11-11,合併による解散等,1230002008389,令和７年１１月１１日富山県下新川郡入善町舟見１３５２番地スパイラル株式会社（1230002008389）に合併し解散,2015-10-05,1,,,,,サカシタコウギョウ,0
766,3290001075233,登記記録の閉鎖等,0,2025-11-28,2025-10-28,株式会社インターファイブ,,株式会社,福岡県,糟屋郡粕屋町,長者原東１丁目８番１７号,,40,349,8112317,,,2025-10-28,清算の結了等,,,2016-09-23,1,,,,,インターファイブ,0
776,3310001007646,登記記録の閉鎖等,0,2025-11-28,2025-11-25,株式会社ほけん家サン,,株式会社,長崎県,佐世保市,白岳町９２９番地１－１,,42,202,8571164,,,2025-11-25,清算の結了等,,,2015-10-05,1,,,,,ホケンヤサン,0
777,3310002006176,登記記録の閉鎖等,0,2025-11-28,2025-11-27,有限会社ライフサポート,,有限会社,長崎県,長崎市,出島町１３－８ポレスタータワー出島水辺の森３０２,,42,201,8500862,,,2025-11-27,清算の結了等,,,2015-10-05,1,,,,,ライフサポート,0
781,3330003005514,登記記録の閉鎖等,0,2025-11-28,2025-10-23,合同会社ちひろ,,合同会社,熊本県,荒尾市,川登字広田１８６１番地１,,43,204,8640131,,,2025-10-23,清算の結了等,,,2015-10-05,1,,,,,チヒロ,0
784,3340002013748,登記記録の閉鎖等,0,2025-11-28,2025-11-25,有限会社シャトー,,有限会社,鹿児島県,霧島市,国分重久２７５５番地４,,46,218,8994301,,,2025-11-25,清算の結了等,,,2015-10-05,1,,,,,シャトー,0
796,3420002017518,登記記録の閉鎖等,0,2025-11-28,2025-11-19,有限会社十和田ファーム,,有限会社,青森県,十和田市,大字三本木字野崎４９９番地２,,02,206,0340001,,,2025-11-19,清算の結了等,,,2015-10-05,1,,,,,トワダファーム,0
816,4010002036442,登記記録の閉鎖等,0,2025-11-28,2025-10-31,有限会社千代田住宅ローン債権保証,,有限会社,東京都,港区,麻布台１丁目３番１号麻布台ヒルズ森ＪＰタワー,,13,103,1060041,,,2025-10-31,清算の結了等,,,2015-10-05,1,,,,,チヨダジュウタクローンサイケンホショウ,0
822,4010402001228,登記記録の閉鎖等,0,2025-11-28,2025-11-04,有限会社磯美家,,有限会社,東京都,港区,南青山２丁目２６番３６号,,13,103,1070062,,,2025-11-04,清算の結了等,,,2015-10-05,1,,,,,イソミヤ,0
826,4010405010944,登記記録の閉鎖等,0,2025-11-28,2025-11-04,Ｕｍｉ一般社団法人,,その他の設立登記法人,東京都,港区,西新橋１丁目１番１号ＥＰコンサルティングサービス内,,13,103,1050003,,,2025-11-04,清算の結了等,,,2015-10-05,1,,,,,ウミ,0
835,4010702011026,登記記録の閉鎖等,0,2025-11-28,2025-11-20,有限会社ジャスト,,有限会社,東京都,品川区,南大井４丁目４番５号,,13,109,1400013,,,2025-11-20,清算の結了等,,,2015-10-05,1,,,,,ジャスト,0
840,4010901018581,登記記録の閉鎖等,0,2025-11-28,2025-11-25,株式会社たくま,,株式会社,東京都,世田谷区,宮坂３丁目２０番１号,,13,112,1560051,,,2025-11-25,清算の結了等,,,2015-10-05,1,,,,,タクマ,0
843,4010901031667,登記記録の閉鎖等,0,2025-11-28,2025-11-27,株式会社アルファセンセーション,,株式会社,東京都,世田谷区,用賀２丁目２１番２０号,,13,112,1580097,,,2025-11-27,清算の結了等,,,2015-10-05,1,,,,,アルファセンセーション,0
918,4030001166049,登記記録の閉鎖等,0,2025-11-28,2025-11-21,株式会社ケアギフト,,株式会社,埼玉県,さいたま市浦和区,高砂４丁目１番５号ふじビル３階,,11,107,3300063,,,2025-11-21,清算の結了等,,,2025-04-16,1,,,,,ケアギフト,0
929,4040003013628,登記記録の閉鎖等,0,2025-11-28,2025-10-31,ｙｏｕｍｉｎｇ合同会社,,合同会社,千葉県,松戸市,幸谷１１４番地の２０,,12,207,2700017,,,2025-10-31,清算の結了等,,,2019-07-04,1,,,,,ユーミング,0
932,4050001032372,登記記録の閉鎖等,0,2025-11-28,2025-11-25,小久保製作所株式会社,,株式会社,茨城県,桜川市,南飯田１６３番地７,,08,231,3091344,,,2025-11-25,清算の結了等,,,2015-10-05,1,,,,,コクボセイサクショ,0
938,4070001025498,登記記録の閉鎖等,0,2025-11-28,2025-11-21,株式会社大伸運輸,,株式会社,群馬県,前橋市,樋越町５１５番地５,00025362,10,201,3710221,,,2025-11-21,清算の結了等,,,2015-10-05,1,,,,,ダイシンウンユ,0
940,4080401013119,登記記録の閉鎖等,0,2025-11-28,2025-11-21,株式会社ジッコー,,株式会社,静岡県,浜松市中央区,入野町１４４０８番地の２,,22,138,4328061,,,2025-11-21,清算の結了等,,,2015-10-05,1,,,,,ジッコー,0
948,4120001227618,登記記録の閉鎖等,0,2025-11-28,2025-11-18,株式会社ＯＴＨＥＲＳＩＤＥ,,株式会社,大阪府,東大阪市,東石切町３丁目５番１１号,,27,227,5798011,,,2025-11-18,清算の結了等,,,2020-03-04,1,,,,,アザーサイド,0
961,4120002074167,登記記録の閉鎖等,0,2025-11-28,2025-10-24,有限会社坂本電気,,有限会社,大阪府,枚方市,須山町３９番１３号,,27,210,5731164,,,2025-10-24,清算の結了等,,,2015-10-05,1,,,,,サカモトデンキ,0
966,4120102024369,登記記録の閉鎖等,0,2025-11-28,2025-11-10,有限会社奥喜タオル,,有限会社,大阪府,泉佐野市,南中樫井７７６番地,,27,213,5980035,,,2025-11-10,清算の結了等,,,2015-10-05,1,,,,,オクキタオル,0
969,4122001013428,登記記録の閉鎖等,0,2025-11-28,2025-11-25,株式会社ＥＩＫＡ,,株式会社,大阪府,東大阪市,俊徳町５丁目４番３１号,,27,227,5770831,,,2025-11-25,清算の結了等,,,2015-10-05,1,,,,,,0
994,4180001127366,登記記録の閉鎖等,0,2025-11-28,2025-11-21,株式会社ナゴヤニューロードインターナショナル,,株式会社,愛知県,名古屋市東区,泉１丁目２１－１０スタメン泉ビル５階,,23,102,4610001,,,2025-11-21,清算の結了等,,,2017-04-19,1,,,,,ナゴヤニューロードインターナショナル,0
1008,4200002020856,登記記録の閉鎖等,0,2025-11-28,2025-11-26,山吹化学有限会社,,有限会社,岐阜県,多治見市,山吹町２丁目１００番地,,21,204,5070802,,,2025-11-26,清算の結了等,,,2015-10-05,1,,,,,ヤマブキカガク,0
1013,4240002039141,登記記録の閉鎖等,0,2025-11-28,2025-11-20,有限会社旭工作所,,有限会社,広島県,福山市,野上町１丁目５番１６号,,34,207,7200815,,,2025-11-20,清算の結了等,,,2015-10-05,1,,,,,アサヒコウサクショ,0
1045,4360003000271,登記記録の閉鎖等,0,2025-11-28,2025-11-27,合資会社大原病院ビルデイング,,合資会社,沖縄県,那覇市,寄宮３丁目１２番１２号,,47,201,9020064,,,2025-11-27,清算の結了等,,,2015-10-05,1,,,,,オオハラビョウインビルデイング,0
1049,4370001023356,登記記録の閉鎖等,0,2025-11-28,2025-11-20,アーカスコーポレーション株式会社,,株式会社,宮城県,仙台市青葉区,片平１丁目２番２７号２Ｆアーカス良覚院,,04,101,9800812,,,2025-11-20,清算の結了等,,,2015-10-05,1,,,,,アーカスコーポレーション,0
1057,4400001006902,登記記録の閉鎖等,0,2025-11-28,2025-11-20,株式会社高京,,株式会社,岩手県,宮古市,大通３丁目１番６号,,03,202,0270083,,,2025-11-20,清算の結了等,,,2015-10-05,1,,,,,タカキョウ,0
1069,4490005004654,登記記録の閉鎖等,0,2025-11-28,2025-11-27,南国酒販協同組合,,その他の設立登記法人,高知県,香美市,土佐山田町神通寺字西村３６１番地７,,39,212,7820024,,,2025-11-27,清算の結了等,,,2015-10-05,1,,,,,,0
1073,5010001133512,登記記録の閉鎖等,0,2025-11-28,2025-11-25,株式会社ビィウィナーズ,,株式会社,東京都,練馬区,大泉学園町７丁目７番６号,,13,120,1780061,,,2025-11-25,清算の結了等,,,2015-10-05,1,,,,,ビィウィナーズ,0
1092,5010401192810,登記記録の閉鎖等,0,2025-11-28,2025-11-04,鋼板リースホールディングス株式会社,,株式会社,東京都,港区,西新橋２丁目８番６号,,13,103,1050003,,,2025-11-04,合併による解散等,2010401172385,令和７年１１月１日東京都港区西新橋二丁目８番６号ニューブリッジ２株式会社（2010401172385）に合併し解散,2025-09-08,1,,,,,コウバンリースホールディングス,0
1102,5010405020348,登記記録の閉鎖等,0,2025-11-28,2025-11-26,一般社団法人ＥＳＳ事業団,,その他の設立登記法人,東京都,港区,芝浦１丁目６番３８号,,13,103,1050023,,,2025-11-26,清算の結了等,,,2021-10-22,1,,,,,イーエスエスジギョウダン,0
1144,5013303006138,登記記録の閉鎖等,0,2025-11-28,2025-11-20,ひなたの木合同会社,,合同会社,東京都,豊島区,雑司が谷３丁目６番６－３０３号東興ビル３０３,,13,116,1710032,,,2025-11-20,清算の結了等,,,2022-05-02,1,,,,,ヒナタノキ,0
1155,5020002035211,登記記録の閉鎖等,0,2025-11-28,2025-11-21,有限会社新羽鋼材,,有限会社,神奈川県,横浜市青葉区,みたけ台４４－１,,14,117,2270047,,,2025-11-21,清算の結了等,,,2015-10-05,1,,,,,ニッパコウザイ,0
1165,5030001046646,登記記録の閉鎖等,0,2025-11-28,2025-11-20,株式会社奥州,,株式会社,埼玉県,和光市,諏訪１番１３号,,11,229,3510102,,,2025-11-20,清算の結了等,,,2015-10-05,1,,,,,オウシュウ,0
1183,5040002062278,登記記録の閉鎖等,0,2025-11-28,2025-10-31,有限会社スズキタイル,,有限会社,千葉県,四街道市,上野２６０番地の６,,12,228,2840041,,,2025-10-31,清算の結了等,,,2015-10-05,1,,,,,スズキタイル,0
1196,5100001019677,登記記録の閉鎖等,0,2025-11-28,2025-11-25,南信ファイリング株式会社,,株式会社,長野県,岡谷市,若宮２丁目５番１４号,,20,204,3940032,,,2025-11-25,清算の結了等,,,2015-10-05,1,,,,,ナンシンファイリング,0
1199,5110001007078,登記記録の閉鎖等,0,2025-11-28,2025-11-25,株式会社石井商店,,株式会社,新潟県,新潟市秋葉区,新津本町２丁目６番３３号,,15,105,9560864,,,2025-11-25,清算の結了等,,,2015-10-05,1,,,,,イシイショウテン,0
1201,5110002019741,登記記録の閉鎖等,0,2025-11-28,2025-11-25,有限会社星商会,,有限会社,新潟県,燕市,地蔵堂本町２丁目４番１５号,,15,213,9590129,,,2025-11-25,清算の結了等,,,2015-10-05,1,,,,,ホシショウカイ,0
1203,5120001071354,登記記録の閉鎖等,0,2025-11-28,2025-11-25,森田機工株式会社,,株式会社,大阪府,大阪市北区,（大阪市大淀区本庄東一丁目７番１１号）,,27,127,5300000,,,2025-11-25,清算の結了等,,,2015-10-05,1,,,,,モリタキコウ,1
1223,5120101030838,登記記録の閉鎖等,0,2025-11-28,2025-11-11,株式会社金剛機工,,株式会社,大阪府,富田林市,錦織東２丁目１９番１０号,,27,214,5840069,,,2025-11-11,清算の結了等,,,2015-10-05,1,,,,,コンゴウキコウ,0
1247,5140001046619,登記記録の閉鎖等,0,2025-11-28,2025-11-25,株式会社守本測量,,株式会社,兵庫県,養父市,上野３９９番地の１,,28,222,6670131,,,2025-11-25,清算の結了等,,,2015-10-05,1,,,,,モリモトソクリョウ,0
1250,5140002004534,登記記録の閉鎖等,0,2025-11-28,2025-11-25,有限会社サカイ工業,,有限会社,兵庫県,西脇市,富吉南町８５番地の１,,28,213,6770012,,,2025-11-25,清算の結了等,,,2015-10-05,1,,,,,サカイコウギョウ,0
1261,5180001078121,登記記録の閉鎖等,0,2025-11-28,2025-11-25,株式会社櫻電設,,株式会社,愛知県,春日井市,篠木町７丁目４０番地３,,23,206,4860851,,,2025-11-25,清算の結了等,,,2015-10-05,1,,,,,サクラデンセツ,0
1263,5180001090068,登記記録の閉鎖等,0,2025-11-28,2025-11-25,バリオッソ株式会社,,株式会社,愛知県,名古屋市中区,千代田２丁目６番１８号,,23,106,4600012,,,2025-11-25,清算の結了等,,,2015-10-05,1,,,,,バリオッソ,0
1264,5180001092543,登記記録の閉鎖等,0,2025-11-28,2025-11-26,株式会社鈴木工業所,,株式会社,愛知県,大府市,桃山町５丁目１３３番地の１,,23,223,4740026,,,2025-11-26,清算の結了等,,,2015-10-05,1,,,,,スズキコウギョウショ,0
1270,5180305005936,登記記録の閉鎖等,0,2025-11-28,2025-11-26,神道大教壽覚講社,,その他の設立登記法人,愛知県,豊田市,下市場町４丁目５７番地,,23,211,4710875,,,2025-11-26,清算の結了等,,,2025-05-27,1,,,,,,0
1289,5290001017456,登記記録の閉鎖等,0,2025-11-28,2025-10-30,株式会社リボックス,,株式会社,福岡県,福岡市東区,多の津４丁目１９番３号多の津コアＩＩＩ２号,00121972,40,131,8130034,,,2025-10-30,清算の結了等,,,2015-10-05,1,,,,,リボックス,0
1301,5290801008539,登記記録の閉鎖等,0,2025-11-28,2025-11-06,株式会社アクティブ・エイジ,,株式会社,福岡県,太宰府市,石坂１丁目２１番３号,,40,221,8180118,,,2025-11-06,清算の結了等,,,2015-10-05,1,Active Age Corp.,Fukuoka,"1-21-3, Ishizaka, Dazaifu City",,アクティブエイジ,0
1309,5330001020926,登記記録の閉鎖等,0,2025-11-28,2025-10-29,サンコウ株式会社,,株式会社,福岡県,久留米市,東合川４丁目９番１４号,,40,203,8390809,,,2025-10-29,清算の結了等,,,2015-10-05,1,,,,,サンコウ,0
1330,5480001006084,登記記録の閉鎖等,0,2025-11-28,2025-11-27,株式会社Ａ・Ｆ・Ｃ,,株式会社,徳島県,徳島市,大松町榎原外４８番地２,,36,201,7708022,,,2025-11-27,清算の結了等,,,2015-10-05,1,,,,,エイエフシー,0
1333,5500002021195,登記記録の閉鎖等,0,2025-11-28,2025-11-20,有限会社田村タンス店,,有限会社,愛媛県,四国中央市,三島中央１丁目８番３３号,,38,213,7990405,,,2025-11-20,清算の結了等,,,2015-10-05,1,,,,,タムラタンステン,0
1336,6010001048098,登記記録の閉鎖等,0,2025-11-28,2025-11-25,セントラル商事株式会社,,株式会社,東京都,練馬区,大泉学園町７丁目７番６号,,13,120,1780061,,,2025-11-25,清算の結了等,,,2015-10-05,1,,,,,セントラルショウジ,0
1343,6010001203082,登記記録の閉鎖等,0,2025-11-28,2025-11-26,株式会社ＢＣＪ－４１,,株式会社,東京都,千代田区,丸の内１丁目１番１号パレスビル５階,,13,101,1000005,,,2025-11-26,合併による解散等,6010001233914,令和７年１０月３１日東京都港区赤坂一丁目１２番３２号株式会社ＷＨＩ　Ｈｏｌｄｉｎｇｓ（6010001233914）に合併し解散,2019-08-07,1,,,,,ビーシージェイフォーティーワン,0
1350,6010005025770,登記記録の閉鎖等,0,2025-11-28,2025-11-26,一般社団法人ココファンド２,,その他の設立登記法人,東京都,中央区,日本橋１丁目４番１号,,13,102,1030027,,,2025-11-26,清算の結了等,,,2016-09-08,1,,,,,ココファンドツー,0
1355,6010401158034,登記記録の閉鎖等,0,2025-11-28,2025-11-12,Ｌｉｖｅｍｏｏｄ　Ｊａｐａｎ株式会社,,株式会社,東京都,中央区,八丁堀４丁目３番５号京橋宝町ＰＲＥＸ１１階,,13,102,1040032,,,2025-11-12,清算の結了等,,,2021-02-05,1,,,,,ライブムードジャパン,0
1387,6011001151635,登記記録の閉鎖等,0,2025-11-28,2025-11-05,株式会社ＹＭ,,株式会社,東京都,渋谷区,松濤２丁目２０番１０号,,13,113,1500046,,,2025-11-05,清算の結了等,,,2022-12-26,1,,,,,ワイエム,0
1396,6011101109021,登記記録の閉鎖等,0,2025-11-28,2025-10-22,青麦ホテル株式会社,,株式会社,東京都,新宿区,西早稲田１丁目十一番六号華青会ビル３０３号室,,13,104,1690051,,,2025-10-22,清算の結了等,,,2024-10-04,1,,,,,アオムギホテル,0
1397,6011101111803,登記記録の閉鎖等,0,2025-11-28,2025-10-29,株式会社クリアティーク,,株式会社,東京都,新宿区,市谷田町１丁目４,,13,104,1620843,,,2025-10-29,清算の結了等,,,2025-05-27,1,,,,,クリアティーク,0
1401,6011105004771,登記記録の閉鎖等,0,2025-11-28,2025-11-19,医療法人社団正診会,,その他の設立登記法人,東京都,新宿区,市谷田町２丁目１番地３市谷東ビル６階,,13,104,1620843,,,2025-11-19,清算の結了等,,,2015-10-05,1,,,,,セイシンカイ,0
1406,6011701020305,登記記録の閉鎖等,0,2025-11-28,2025-11-20,株式会社Ｃ－ＲＥＮＡＳ,,株式会社,東京都,江戸川区,中葛西２丁目１３番９号１０６号,,13,123,1340083,,,2025-11-20,清算の結了等,,,2016-10-27,1,,,,,,0
1420,6013302007805,登記記録の閉鎖等,0,2025-11-28,2025-11-20,有限会社野本建具店,,有限会社,東京都,豊島区,巣鴨５丁目２６番２号,,13,116,1700002,,,2025-11-20,清算の結了等,,,2015-10-05,1,,,,,,0
1438,6030001127668,登記記録の閉鎖等,0,2025-11-28,2025-11-20,株式会社カノンファースト,,株式会社,埼玉県,蕨市,塚越５丁目３７番９号,,11,223,3350002,,,2025-11-20,清算の結了等,,,2018-10-03,1,,,,,カノンファースト,0
1447,6040001003323,登記記録の閉鎖等,0,2025-11-28,2025-11-17,株式会社ミノバト,,株式会社,東京都,千代田区,丸の内３丁目４番１号新国際ビル４階４１５Ａ,,13,101,1000005,,,2025-11-17,清算の結了等,,,2015-10-05,1,,,,,,0
1454,6040003017412,登記記録の閉鎖等,0,2025-11-28,2025-11-25,合同会社ＧｕｔＬｅｂｅｎ,,合同会社,岐阜県,瑞浪市,上野町１丁目１１番地の３ベルメゾン瑞浪Ｉ、１階,00133428,21,208,5096125,,,2025-11-25,合併による解散等,9040001018855,令和７年１１月１日東京都江戸川区中央四丁目１６番２５号株式会社ミハシ（9040001018855）に合併し解散,2021-04-05,1,,,,,,0
1457,6050002019805,登記記録の閉鎖等,0,2025-11-28,2025-11-19,有限会社岸本ガラス工業,,有限会社,茨城県,坂東市,大口２９９番地１,,08,228,3060615,,,2025-11-19,清算の結了等,,,2015-10-05,1,,,,,キシモトガラスコウギョウ,0
1461,6070001016520,登記記録の閉鎖等,0,2025-11-28,2025-11-25,株式会社不動産流通サービス,,株式会社,群馬県,みどり市,大間々町桐原３６番地１,,10,212,3760102,,,2025-11-25,清算の結了等,,,2015-10-05,1,,,,,フドウサンリュウツウサービス,0
1472,6100001010791,登記記録の閉鎖等,0,2025-11-28,2025-11-21,株式会社タイシン興業,,株式会社,長野県,東御市,下之城２６２番地,,20,219,3890405,,,2025-11-21,清算の結了等,,,2015-10-05,1,,,,,タイシンコウギョウ,0
1478,6120001206264,登記記録の閉鎖等,0,2025-11-28,2025-11-21,ＹＩＮ　ＪＡＰＡＮ株式会社,,株式会社,大阪府,大阪市天王寺区,大道４丁目５番５号,,27,109,5430052,,,2025-11-21,清算の結了等,,,2017-06-02,1,,,,,インジャパン,0
1485,6120002033781,登記記録の閉鎖等,0,2025-11-28,2025-11-20,有限会社ライフデザイン事務所,,有限会社,大阪府,大阪市天王寺区,真田山町５番３６－７０１号,,27,109,5430015,,,2025-11-20,清算の結了等,,,2015-10-05,1,,,,,ライフデザインジムショ,0
1496,6122001006917,登記記録の閉鎖等,0,2025-11-28,2025-11-11,株式会社ホンダ東大阪,,株式会社,大阪府,東大阪市,末広町２番７号,,27,227,5798055,,,2025-11-11,清算の結了等,,,2015-10-05,1,,,,,ホンダヒガシオオサカ,0
1498,6122002001256,登記記録の閉鎖等,0,2025-11-28,2025-11-20,有限会社小方化学製作所,,有限会社,大阪府,東大阪市,岩田町５丁目１番５号,,27,227,5780941,,,2025-11-20,清算の結了等,,,2015-10-05,1,,,,,オカタカガクセイサクショ,0
1502,6130001064026,登記記録の閉鎖等,0,2025-11-28,2025-11-04,株式会社スサノオ,,株式会社,東京都,港区,赤坂９丁目１番７－４１８号,,13,103,1070052,,,2025-11-04,清算の結了等,,,2019-03-04,1,,,,,スサノオ,0
1503,6130001069603,登記記録の閉鎖等,0,2025-11-28,2025-11-21,株式会社トライアングル,,株式会社,京都府,久世郡久御山町,林宮ノ後６７番地９,,26,322,6130033,,,2025-11-21,清算の結了等,,,2021-06-25,1,,,,,トライアングル,0
1505,6130003009391,登記記録の閉鎖等,0,2025-11-28,2025-11-17,合同会社Ｍｔ．ｌｉｎｋ,,合同会社,京都府,京都市下京区,鶏鉾町４９３番地ムーンバットビル７Ｆ,,26,106,6008491,,,2025-11-17,清算の結了等,,,2024-03-21,1,,,,,エムティードットリンク,0
1508,6140001059974,登記記録の閉鎖等,0,2025-11-28,2025-11-21,但馬工業株式会社,,株式会社,兵庫県,姫路市,御立中６丁目２番１０号,,28,201,6700073,,,2025-11-21,清算の結了等,,,2015-10-05,1,,,,,タジマコウギョウ,0
1509,6140001061641,登記記録の閉鎖等,0,2025-11-28,2025-11-25,松崎建設株式会社,,株式会社,兵庫県,姫路市,庄田１８５番地の１,,28,201,6700951,,,2025-11-25,清算の結了等,,,2015-10-05,1,,,,,,0
1534,6180005011861,登記記録の閉鎖等,0,2025-11-28,2025-11-25,常滑市衣料品小売業協同組合,,その他の設立登記法人,愛知県,常滑市,字千代８７番地３,,23,216,4790041,,,2025-11-25,清算の結了等,,,2015-10-05,1,,,,,トコナメシイリョウヒンコウリギョウ,0
1544,6220001022239,登記記録の閉鎖等,0,2025-11-28,2025-11-25,株式会社のと産業,,株式会社,石川県,金沢市,梅田町ロ２８番地３,,17,201,9203111,,,2025-11-25,清算の結了等,,,2018-04-23,1,,,,,ノトサンギョウ,0
1548,6240001031254,登記記録の閉鎖等,0,2025-11-28,2025-11-21,株式会社高橋学習センター,00000378,株式会社,広島県,福山市,千田町２丁目３番２４－２号,,34,207,7200017,,,2025-11-21,清算の結了等,,,2015-10-05,1,,,,,タカハシガクシュウセンター,0
1551,6250002000125,登記記録の閉鎖等,0,2025-11-28,2025-11-26,有限会社丸宗,,有限会社,山口県,岩国市,山手町１丁目２１番２号,,35,208,7400022,,,2025-11-26,清算の結了等,,,2015-10-05,1,,,,,マルソウ,0
1565,6290005018557,登記記録の閉鎖等,0,2025-11-28,2025-11-10,ＮＰＯ法人ベルク,,その他の設立登記法人,福岡県,久留米市,北野町中７０１番地３,,40,203,8301113,,,2025-11-10,清算の結了等,,,2022-02-08,1,,,,,ベルク,0
1569,6290802003521,登記記録の閉鎖等,0,2025-11-28,2025-11-17,有限会社善山,,有限会社,福岡県,北九州市小倉北区,木町１丁目７番８号,,40,106,8030851,,,2025-11-17,清算の結了等,,,2015-10-05,1,,,,,,0
1577,6340002012409,登記記録の閉鎖等,0,2025-11-28,2025-11-25,有限会社北薩サービス,00099232,有限会社,鹿児島県,鹿児島市,吉野町１９４１番地２,,46,201,8920871,,,2025-11-25,清算の結了等,,,2015-10-05,1,,,,,ホクサツサービス,0
1588,6410001011412,登記記録の閉鎖等,0,2025-11-28,2025-11-25,株式会社ロングラン,,株式会社,秋田県,秋田市,千秋北の丸４番１６号,,05,201,0100872,,,2025-11-25,清算の結了等,,,2017-01-25,1,,,,,ロングラン,0
1595,6440002003091,登記記録の閉鎖等,0,2025-11-28,2025-11-26,トヤマ測量有限会社,,有限会社,北海道,函館市,田家町１２番１５号,,01,202,0400081,,,2025-11-26,清算の結了等,,,2015-10-05,1,,,,,トヤマソクリョウ,0
1612,7010005037856,登記記録の閉鎖等,0,2025-11-28,2025-11-25,ソーラーマタイホールディングス一般社団法人,,その他の設立登記法人,東京都,中央区,八丁堀４丁目２番１０号ＡＯＪ税理士法人内,,13,102,1040032,,,2025-11-25,清算の結了等,,,2024-02-07,1,,,,,ソーラーマタイホールディングス,0
1655,7011802022455,登記記録の閉鎖等,0,2025-11-28,2025-11-26,有限会社アルファテクスト,,有限会社,栃木県,日光市,清滝安良沢町１７３０番地１４０,,09,206,3211441,,,2025-11-26,清算の結了等,,,2015-10-05,1,,,,,アルファテクスト,0
1669,7020002090592,登記記録の閉鎖等,0,2025-11-28,2025-11-20,有限会社ファイブスター,,有限会社,神奈川県,川崎市高津区,梶ケ谷３丁目５番地２,,14,134,2130015,,,2025-11-20,清算の結了等,,,2015-10-05,1,,,,,ファイブスター,0
1689,7030002071146,登記記録の閉鎖等,0,2025-11-28,2025-11-20,有限会社ユーキ総合設備,,有限会社,埼玉県,春日部市,藤塚１７３２番地５,,11,214,3440011,,,2025-11-20,清算の結了等,,,2015-10-05,1,,,,,ユーキソウゴウセツビ,0
1692,7040001055719,登記記録の閉鎖等,0,2025-11-28,2025-10-29,株式会社ドリームスカイ,,株式会社,千葉県,市原市,郡本１丁目３２５番地,,12,219,2900013,,,2025-10-29,清算の結了等,,,2015-10-05,1,,,,,ドリームスカイ,0
1693,7040001091532,登記記録の閉鎖等,0,2025-11-28,2025-11-04,株式会社花いちご,,株式会社,千葉県,南房総市,和田町花園８９８番地,,12,234,2992701,,,2025-11-04,合併による解散等,1040002100636,令和７年１１月１日千葉県南房総市和田町花園８９８番地株式会社房植（1040002100636）に合併し解散,2015-10-05,1,,,,,ハナイチゴ,0
1697,7040002083082,登記記録の閉鎖等,0,2025-11-28,2025-10-31,有限会社佐藤農園,,有限会社,千葉県,匝瑳市,東小笹２４８５番地,,12,235,2892121,,,2025-10-31,清算の結了等,,,2015-10-05,1,,,,,サトウノウエン,0
1699,7040005007105,登記記録の閉鎖等,0,2025-11-28,2025-10-31,医療法人社団内田医院,,その他の設立登記法人,千葉県,佐倉市,鏑木町３８４番地１,,12,212,2850025,,,2025-10-31,清算の結了等,,,2015-10-05,1,,,,,ウチダイイン,0
1708,7080102015675,登記記録の閉鎖等,0,2025-11-28,2025-11-21,有限会社三澤商会,,有限会社,静岡県,富士市,宇東川東町１番２９号,,22,210,4170853,,,2025-11-21,清算の結了等,,,2015-10-05,1,,,,,ミサワショウカイ,0
1718,7120001025564,登記記録の閉鎖等,0,2025-11-28,2025-11-25,株式会社明和食品,,株式会社,大阪府,大阪市天王寺区,城南寺町７番３４号,,27,109,5430017,,,2025-11-25,清算の結了等,,,2015-10-05,1,,,,,メイワショクヒン,0
1730,7120002005482,登記記録の閉鎖等,0,2025-11-28,2025-11-25,有限会社グッドライフカンパニー,,有限会社,大阪府,松原市,田井城１丁目２２８番地の１２,,27,217,5800044,,,2025-11-25,清算の結了等,,,2015-10-05,1,,,,,グッドライフカンパニー,0
1731,7120002013502,登記記録の閉鎖等,0,2025-11-28,2025-11-21,有限会社橋本,,有限会社,大阪府,大阪市天王寺区,東高津町１番２５号,,27,109,5430021,,,2025-11-21,清算の結了等,,,2015-10-05,1,,,,,ハシモト,0
1736,7120102026131,登記記録の閉鎖等,0,2025-11-28,2025-11-18,有限会社川口縫工所,,有限会社,大阪府,泉北郡忠岡町,馬瀬２丁目４番１０号,,27,341,5950804,,,2025-11-18,清算の結了等,,,2015-10-05,1,,,,,カワグチホウコウショ,0
1751,7140001039851,登記記録の閉鎖等,0,2025-11-28,2025-11-07,西播機設株式会社,,株式会社,兵庫県,相生市,那波野２６９番地の１,,28,208,6780011,,,2025-11-07,清算の結了等,,,2015-10-05,1,,,,,セイバンキセツ,0
1753,7140001075616,登記記録の閉鎖等,0,2025-11-28,2025-11-21,伸興織物株式会社,,株式会社,兵庫県,西脇市,板波町４６２番地の１,,28,213,6770056,,,2025-11-21,清算の結了等,,,2015-10-05,1,,,,,シンコウオリモノ,0
1765,7180002045580,登記記録の閉鎖等,0,2025-11-28,2025-11-26,有限会社東山テクノスチール,,有限会社,愛知県,名古屋市千種区,大久手町７丁目２２番地の５,,23,101,4640854,,,2025-11-26,清算の結了等,,,2015-10-05,1,,,,,ヒガシヤマテクノスチール,0
1779,7230001009465,登記記録の閉鎖等,0,2025-11-28,2025-11-21,水口造園株式会社,,株式会社,富山県,南砺市,小院瀬見１５３番地,,16,210,9391684,,,2025-11-21,清算の結了等,,,2015-10-05,1,,,,,ミズグチゾウエン,0
1781,7230002012815,登記記録の閉鎖等,0,2025-11-28,2025-11-21,有限会社笠井水産,,有限会社,富山県,氷見市,地蔵町１３番１８号,,16,205,9350014,,,2025-11-21,清算の結了等,,,2015-10-05,1,,,,,カサイスイサン,0
1785,7260002033338,登記記録の閉鎖等,0,2025-11-28,2025-11-26,有限会社安川商店,,有限会社,岡山県,玉野市,宇野３丁目３６番２号,,33,204,7060011,,,2025-11-26,合併による解散等,5140001077993,令和７年１０月１日兵庫県伊丹市中央五丁目５番１０号伊丹産業株式会社（5140001077993）に合併し解散,2015-10-05,1,,,,,ヤスカワショウテン,0
1787,7270002005393,登記記録の閉鎖等,0,2025-11-28,2025-11-26,有限会社ウエダ工務店,,有限会社,鳥取県,米子市,二本木１６８０番地,,31,202,6893541,,,2025-11-26,清算の結了等,,,2015-10-05,1,,,,,ウエダコウムテン,0
1788,7290001024962,登記記録の閉鎖等,0,2025-11-28,2025-11-06,株式会社レオパルデイ,,株式会社,福岡県,福岡市博多区,下呉服町６番３０号,,40,132,8120034,,,2025-11-06,清算の結了等,,,2015-10-05,1,,,,,レオパルディ,0
1790,7290001059604,登記記録の閉鎖等,0,2025-11-28,2025-11-06,株式会社生野建設,,株式会社,福岡県,うきは市,吉井町橘田２７２番地,,40,225,8391307,,,2025-11-06,清算の結了等,,,2015-10-05,1,,,,,,0
1795,7290801013157,登記記録の閉鎖等,0,2025-11-28,2025-11-17,株式会社ドアベル,,株式会社,福岡県,北九州市八幡西区,御開５丁目２番４号,,40,109,8070806,,,2025-11-17,清算の結了等,,,2015-10-05,1,,,,,ドアベル,0
1812,7370401000051,登記記録の閉鎖等,0,2025-11-28,2025-11-20,日進輸送株式会社,,株式会社,宮城県,登米市,東和町米谷字金谷５６番地,,04,212,9870902,,,2025-11-20,清算の結了等,,,2015-10-05,1,,,,,,0
1814,7380001011968,登記記録の閉鎖等,0,2025-11-28,2025-11-25,株式会社有賀工業,,株式会社,福島県,石川郡石川町,大字塩沢字竹ノ内３５番地,,07,501,9637836,,,2025-11-25,清算の結了等,,,2015-10-05,1,,,,,アリガコウギョウ,0
1817,7390001012379,登記記録の閉鎖等,0,2025-11-28,2025-11-25,株式会社ブライト,,株式会社,山形県,寒河江市,本町１丁目４番１６号,,06,206,9910031,,,2025-11-25,清算の結了等,,,2015-10-05,1,,,,,ブライト,0
1825,7430005011661,登記記録の閉鎖等,0,2025-11-28,2025-11-26,特定非営利活動法人Ｅ－ＫＩＤ’Ｓ総合型地域スポーツクラブ,,その他の設立登記法人,北海道,江別市,東野幌本町７番５号,,01,217,0690824,,,2025-11-26,清算の結了等,,,2015-10-05,1,,,,,イーキッズソウゴウガタチイキスポーツクラブ,0
1827,7470002004202,登記記録の閉鎖等,0,2025-11-28,2025-11-26,有限会社第一フーズ,,有限会社,香川県,高松市,中央町１８番２１号,,37,201,7600007,,,2025-11-26,清算の結了等,,,2015-10-05,1,,,,,,0
1852,8010403023770,登記記録の閉鎖等,0,2025-11-28,2025-11-04,合同会社ダイヤリゾート,,合同会社,東京都,港区,赤坂２丁目１５番１８号西山興行赤坂ビル５０３号,,13,103,1070052,,,2025-11-04,清算の結了等,,,2020-09-28,1,,,,,ダイヤリゾート,0
1853,8010502009662,登記記録の閉鎖等,0,2025-11-28,2025-11-20,福山商事有限会社,,有限会社,東京都,台東区,元浅草４丁目５番１号,,13,106,1110041,,,2025-11-20,清算の結了等,,,2015-10-05,1,,,,,フクヤマショウジ,0
1870,8011001154487,登記記録の閉鎖等,0,2025-11-28,2025-11-06,Ｐｒｏｄｕｃｔ　Ｐｒｏｖｉｓｉｏｎ株式会社,,株式会社,東京都,渋谷区,神宮前６丁目２３番４号桑野ビル２階,,13,113,1500001,,,2025-11-06,清算の結了等,,,2023-05-18,1,,,,,プロダクトプロヴィジョン,0
1885,8011802015573,登記記録の閉鎖等,0,2025-11-28,2025-11-25,田中運送有限会社,,有限会社,東京都,足立区,本木南町２５番１２号,,13,121,1230855,,,2025-11-25,清算の結了等,,,2015-10-05,1,,,,,タナカウンソウ,0
1905,8030001077069,登記記録の閉鎖等,0,2025-11-28,2025-11-20,株式会社プリンテック,,株式会社,埼玉県,川口市,前川３丁目１０番２号,,11,203,3330842,,,2025-11-20,清算の結了等,,,2015-10-05,1,,,,,プリンテック,0
1917,8040001028005,登記記録の閉鎖等,0,2025-11-28,2025-11-20,株式会社インサイト,,株式会社,神奈川県,横浜市都筑区,高山１９－２－１０６,,14,118,2240065,,,2025-11-20,清算の結了等,,,2015-10-05,1,,,,,インサイト,0
1918,8040001052566,登記記録の閉鎖等,0,2025-11-28,2025-10-30,株式会社アイ・エヌ・ジー,,株式会社,千葉県,木更津市,朝日３丁目１番１５－４０６号,,12,206,2920055,,,2025-10-30,清算の結了等,,,2015-10-05,1,,,,,アイエヌジー,0
1928,8050001024812,登記記録の閉鎖等,0,2025-11-28,2025-11-19,株式会社丸富物流,,株式会社,茨城県,日立市,田尻町４丁目４５番４号,,08,202,3191416,,,2025-11-19,清算の結了等,,,2015-10-05,1,,,,,マルトミブツリュウ,0
1932,8070001010562,登記記録の閉鎖等,0,2025-11-28,2025-11-10,株式会社環境創造研究所,,株式会社,群馬県,高崎市,箕郷町和田山２１６番地１２,,10,202,3703116,,,2025-11-10,清算の結了等,,,2015-10-05,1,,,,,カンキョウソウゾウケンキュウジョ,0
1941,8100002017982,登記記録の閉鎖等,0,2025-11-28,2025-11-25,有限会社清水工業,,有限会社,長野県,中野市,大字新保６６６番地,,20,211,3830036,,,2025-11-25,清算の結了等,,,2015-10-05,1,,,,,シミズコウギョウ,0
1968,8130001053670,登記記録の閉鎖等,0,2025-11-28,2025-11-26,株式会社ファミリー不動産,,株式会社,京都府,亀岡市,曽我部町南条屋敷１７番地,,26,206,6210022,,,2025-11-26,清算の結了等,,,2015-10-05,1,,,,,ファミリーフドウサン,0
1978,8140001080953,登記記録の閉鎖等,0,2025-11-28,2025-11-21,株式会社ユウコウグリーンシステム,,株式会社,兵庫県,伊丹市,宮ノ前２丁目２番４－１２０５号,,28,207,6640895,,,2025-11-21,清算の結了等,,,2015-10-05,1,,,,,ユウコウグリーンシステム,0
1994,8180001121431,登記記録の閉鎖等,0,2025-11-28,2025-11-25,ＢＬＩＳＳ　Ｉｎｔｅｒｎａｔｉｏｎａｌ株式会社,,株式会社,愛知県,日進市,赤池町西組１２０番地１,,23,230,4700126,,,2025-11-25,清算の結了等,,,2015-12-21,1,,,,,,0
2000,8180001145133,登記記録の閉鎖等,0,2025-11-28,2025-11-26,明豊商事株式会社,,株式会社,愛知県,名古屋市千種区,仲田１丁目３番１８号,,23,101,4640074,,,2025-11-26,清算の結了等,,,2021-03-10,1,,,,,メイホウショウジ,0
2010,8210001014895,登記記録の閉鎖等,0,2025-11-28,2025-11-25,株式会社温,,株式会社,福井県,福井市,昭和新町第５号１番地,,18,201,9103101,,,2025-11-25,清算の結了等,,,2015-10-05,1,,,,,ハル,0
2013,8230001007154,登記記録の閉鎖等,0,2025-11-28,2025-11-21,株式会社新川漁業,,株式会社,富山県,魚津市,港町４番５号,,16,204,9370057,,,2025-11-21,清算の結了等,,,2015-10-05,1,,,,,ニイカワギョギョウ,0
2015,8250001002806,登記記録の閉鎖等,0,2025-11-28,2025-11-26,株式会社ぐりーん,,株式会社,山口県,山口市,赤妻町３番２０号,,35,203,7530067,,,2025-11-26,清算の結了等,,,2015-10-05,1,,,,,グリーン,0
2016,8250001011773,登記記録の閉鎖等,0,2025-11-28,2025-11-27,株式会社広兼組,,株式会社,山口県,岩国市,錦町広瀬７９０５番地１,,35,208,7400724,,,2025-11-27,清算の結了等,,,2015-10-05,1,,,,,ヒロカネグミ,0
2017,8250002014692,登記記録の閉鎖等,0,2025-11-28,2025-11-27,有限会社斉藤設備,,有限会社,山口県,周南市,大字徳山４４８５番地の６,,35,215,7450851,,,2025-11-27,清算の結了等,,,2015-10-05,1,,,,,サイトウセツビ,0
2042,8330001021252,登記記録の閉鎖等,0,2025-11-28,2025-11-21,Ｌａｖｉｅｎ　Ｃｈｅｒｉｅ株式会社,,株式会社,熊本県,荒尾市,東屋形１丁目１０番地５,,43,204,8640042,,,2025-11-21,清算の結了等,,,2015-10-05,1,,,,,ラヴィアンシェリー,0
2052,8370001031405,登記記録の閉鎖等,0,2025-11-28,2025-11-20,株式会社エアルエ,,株式会社,宮城県,名取市,小山３丁目４番１９号,,04,207,9811233,,,2025-11-20,清算の結了等,,,2015-10-05,1,,,,,エアルエ,0
2053,8370001039068,登記記録の閉鎖等,0,2025-11-28,2025-11-20,株式会社Ｓ　ＥＤＩＴＩＯＮ,,株式会社,宮城県,仙台市宮城野区,幸町１丁目１７－３８－１０５,,04,102,9830836,,,2025-11-20,清算の結了等,,,2016-01-18,1,,,,,エスエディテョン,0
2055,8380002024679,登記記録の閉鎖等,0,2025-11-28,2025-11-25,有限会社滝商店,,有限会社,福島県,いわき市,常磐藤原町大畑７８番地の１,,07,204,9728326,,,2025-11-25,清算の結了等,,,2015-10-05,1,,,,,タキショウテン,0
2071,8500002021201,登記記録の閉鎖等,0,2025-11-28,2025-11-26,有限会社武村コンピューター会計,,有限会社,愛媛県,四国中央市,三島中央１丁目６番７号,,38,213,7990405,,,2025-11-26,清算の結了等,,,2015-10-05,1,,,,,タケムラコンピューターカイケイ,0
2090,9010403018456,登記記録の閉鎖等,0,2025-11-28,2025-11-04,Ａｇａｔｉｓ合同会社,,合同会社,東京都,港区,港南１丁目９番３６号,,13,103,1080075,,,2025-11-04,清算の結了等,,,2018-04-18,1,,,,,アガティス,0
2116,9011101017089,登記記録の閉鎖等,0,2025-11-28,2025-10-28,株式会社楳下庵,,株式会社,東京都,新宿区,高田馬場４丁目１０番８号,,13,104,1690075,,,2025-10-28,清算の結了等,,,2015-10-05,1,,,,,バイカアン,0
2127,9011202001553,登記記録の閉鎖等,0,2025-11-28,2025-11-21,有限会社カネト,,有限会社,東京都,中野区,鷺宮３丁目３２番６号,,13,114,1650032,,,2025-11-21,清算の結了等,,,2015-10-05,1,,,,,カネト,0
2146,9012701010417,登記記録の閉鎖等,0,2025-11-28,2025-11-21,株式会社ジオプローブ,,株式会社,東京都,清瀬市,中清戸２丁目６３６番地１８,,13,221,2040012,,,2025-11-21,清算の結了等,,,2015-10-05,1,,,,,ジオプローブ,0
2150,9013301016119,登記記録の閉鎖等,0,2025-11-28,2025-11-25,愛和総業株式会社,,株式会社,東京都,台東区,松が谷１丁目４番６号,,13,106,1110036,,,2025-11-25,清算の結了等,,,2015-10-05,1,,,,,アイワソウギョウ,0
2154,9020001066600,登記記録の閉鎖等,0,2025-11-28,2025-11-21,大協食品株式会社,,株式会社,神奈川県,川崎市高津区,向ケ丘４２番地１,,14,134,2130035,,,2025-11-21,清算の結了等,,,2015-10-05,1,,,,,ダイキョウショクヒン,0
2169,9021002033119,登記記録の閉鎖等,0,2025-11-28,2025-11-07,有限会社ホテル七沢,,有限会社,神奈川県,厚木市,七沢１８２６番地,,14,212,2430121,,,2025-11-07,清算の結了等,,,2015-10-05,1,,,,,,0
2181,9040001025686,登記記録の閉鎖等,0,2025-11-28,2025-10-30,株式会社ウダガワ設備,,株式会社,千葉県,市川市,妙典３丁目７番１８号,,12,203,2720111,,,2025-10-30,清算の結了等,,,2015-10-05,1,,,,,ウダガワセツビ,0
2191,9050001032418,登記記録の閉鎖等,0,2025-11-28,2025-11-20,株式会社筑西軽運,,株式会社,茨城県,筑西市,乙２３６番地,,08,227,3080041,,,2025-11-20,清算の結了等,,,2015-10-05,1,,,,,チクセイケイウン,0
2200,9080002010790,登記記録の閉鎖等,0,2025-11-28,2025-11-25,有限会社堂林自動車,,有限会社,静岡県,静岡市清水区,堂林２丁目１５番３２号,,22,103,4240851,,,2025-11-25,清算の結了等,,,2015-10-05,1,,,,,ドウバヤシジドウシャ,0
2203,9080402007478,登記記録の閉鎖等,0,2025-11-28,2025-11-21,有限会社松井部品,,有限会社,静岡県,浜松市中央区,三方原町２７２１番地の２,,22,138,4338105,,,2025-11-21,清算の結了等,,,2015-10-05,1,,,,,マツイブヒン,0
2204,9080402022411,登記記録の閉鎖等,0,2025-11-28,2025-11-21,有限会社ナガイ薬局,,有限会社,静岡県,袋井市,堀越３丁目８番地の３,,22,216,4370065,,,2025-11-21,清算の結了等,,,2015-10-05,1,,,,,ナガイヤッキョク,0
2205,9090002000898,登記記録の閉鎖等,0,2025-11-28,2025-11-26,有限会社窪田電気商会,,有限会社,山梨県,甲府市,中央１丁目３番１号,,19,201,4000032,,,2025-11-26,清算の結了等,,,2015-10-05,1,,,,,クボタデンキショウカイ,0
2217,9120001241416,登記記録の閉鎖等,0,2025-11-28,2025-11-20,芳華友株式会社,,株式会社,埼玉県,所沢市,若狭３丁目２５５１番地の１４佐孝アパート２０２室,,11,208,3591151,,,2025-11-20,清算の結了等,,,2021-10-28,1,,,,,ホウカユウ,0
2237,9140001000778,登記記録の閉鎖等,0,2025-11-28,2025-11-25,ミキプレゼ株式会社,,株式会社,大阪府,大阪市北区,梅田１丁目２番２－８００号,,27,127,5300001,,,2025-11-25,清算の結了等,,,2015-10-05,1,,,,,ミキプレゼ,0
2248,9140003015873,登記記録の閉鎖等,0,2025-11-28,2025-11-25,合同会社介護支援室咲くやこの花,,合同会社,兵庫県,養父市,左近山５１９番地,,28,222,6670105,,,2025-11-25,清算の結了等,,,2021-02-03,1,,,,,カイゴシエンシツサクヤコノハナ,0
2254,9180001009881,登記記録の閉鎖等,0,2025-11-28,2025-11-25,エヌジーケイ・テクニカ株式会社,,株式会社,愛知県,名古屋市瑞穂区,須田町２番５６号,,23,108,4670871,,,2025-11-25,清算の結了等,,,2015-10-05,1,,,,,エヌジーケイテクニカ,0
2255,9180001012514,登記記録の閉鎖等,0,2025-11-28,2025-11-25,株式会社セルコ,,株式会社,愛知県,津島市,莪原町字神守前８番地,,23,208,4960011,,,2025-11-25,清算の結了等,,,2015-10-05,1,,,,,セルコ,0
2256,9180001018313,登記記録の閉鎖等,0,2025-11-28,2025-11-26,丸進印刷工業株式会社,,株式会社,愛知県,名古屋市東区,出来町３丁目１９番７号,,23,102,4610032,,,2025-11-26,清算の結了等,,,2015-10-05,1,,,,,マルシンインサツコウギョウ,0
2258,9180001152293,登記記録の閉鎖等,0,2025-11-28,2025-11-25,株式会社Ｌｉｃ,,株式会社,愛知県,清須市,西枇杷島町城並１丁目４番地３,,23,233,4520011,,,2025-11-25,清算の結了等,,,2022-07-26,1,,,,,エルアイシー,0
2260,9180003025935,登記記録の閉鎖等,0,2025-11-28,2025-11-20,合同会社ＫＡＶＳＡＲ,,合同会社,愛知県,西春日井郡豊山町,大字豊場字諏訪１９,,23,342,4800202,,,2025-11-20,清算の結了等,,,2023-11-02,1,,,,,カウサル,0
2262,9180301019333,登記記録の閉鎖等,0,2025-11-28,2025-11-25,株式会社丸進総合設備,,株式会社,愛知県,豊田市,竜神町新生１８２番地１,,23,211,4730907,,,2025-11-25,清算の結了等,,,2015-10-05,1,,,,,マルシンソウゴウセツビ,0
2265,9180303005091,登記記録の閉鎖等,0,2025-11-28,2025-10-22,合同会社どこでもドア,,合同会社,愛知県,豊橋市,佐藤２丁目２１番地２,,23,201,4400853,,,2025-10-22,清算の結了等,,,2021-09-07,1,,,,,ドコデモドア,0
2267,9180305002343,登記記録の閉鎖等,0,2025-11-28,2025-11-21,医療法人青林会,,その他の設立登記法人,愛知県,豊橋市,南大清水町字富士見３７９番地１,,23,201,4418132,,,2025-11-21,清算の結了等,,,2015-10-05,1,,,,,セイリンカイ,0
2278,9240001002467,登記記録の閉鎖等,0,2025-11-28,2025-11-21,株式会社川本製作所,,株式会社,広島県,広島市安佐南区,祇園３丁目１２番３０号,,34,105,7310138,,,2025-11-21,清算の結了等,,,2015-10-05,1,,,,,カワモトセイサクショ,0
2283,9260001003091,登記記録の閉鎖等,0,2025-11-28,2025-11-21,三立総業株式会社,,株式会社,岡山県,岡山市北区,粟井５８７番地２,,33,101,7011461,,,2025-11-21,清算の結了等,,,2015-10-05,1,,,,,サンリツソウギョウ,0
2294,9290003012963,登記記録の閉鎖等,0,2025-11-28,2025-10-28,合同会社ＣＯＣＯＩＥ,,合同会社,福岡県,大野城市,南ケ丘５丁目２番２３号,,40,219,8160964,,,2025-10-28,清算の結了等,,,2022-09-16,1,,,,,ココイエ,0
2296,9290005014834,登記記録の閉鎖等,0,2025-11-28,2025-10-31,特定非営利活動法人タイフク,,その他の設立登記法人,福岡県,福岡市早良区,藤崎１丁目１番２５号,,40,137,8140013,,,2025-10-31,清算の結了等,,,2015-10-05,1,,,,,,0
2298,9290801017107,登記記録の閉鎖等,0,2025-11-28,2025-11-26,株式会社アセット不動産,,株式会社,福岡県,北九州市八幡東区,川淵町８番２７号,,40,108,8050012,,,2025-11-26,清算の結了等,,,2015-10-05,1,,,,,アセットフドウサン,0
2300,9300005003785,登記記録の閉鎖等,0,2025-11-28,2025-11-26,浄土宗西山観音庵,,その他の設立登記法人,佐賀県,嬉野市,塩田町大字久間乙３５５１番地,,41,209,8491402,,,2025-11-26,清算の結了等,,,2015-10-05,1,,,,,ジョウドシュウニシヤマカンノンアン,0
2306,9320002005774,登記記録の閉鎖等,0,2025-11-28,2025-11-25,有限会社文化温泉,,有限会社,大分県,大分市,寿町１番２６号,,44,201,8700036,,,2025-11-25,清算の結了等,,,2015-10-05,1,,,,,ブンカオンセン,0
2311,9350002016513,登記記録の閉鎖等,0,2025-11-28,2025-11-25,有限会社川越木材,,有限会社,宮崎県,日南市,大字平山２１２６番地６,,45,204,8870033,,,2025-11-25,清算の結了等,,,2015-10-05,1,,,,,カワゴエモクザイ,0
2313,9360001014087,登記記録の閉鎖等,0,2025-11-28,2025-11-25,株式会社大寛建設,,株式会社,沖縄県,宮古島市,平良字荷川取３２１番地１１,,47,214,9060008,,,2025-11-25,清算の結了等,,,2015-10-05,1,,,,,ダイカンケンセツ,0
2315,9370002006157,登記記録の閉鎖等,0,2025-11-28,2025-11-19,明和食品工業有限会社,,有限会社,宮城県,仙台市若林区,遠見塚東１番４６号,,04,103,9840824,,,2025-11-19,清算の結了等,,,2015-10-05,1,,,,,メイワショクヒンコウギョウ,0
