sequenceNumber,corporateNumber,process,correct,updateDate,changeDate,name,nameImageId,kind,prefectureName,cityName,streetNumber,addressImageId,prefectureCode,cityCode,postCode,addressOutside,addressOutsideImageId,closeDate,closeCause,successorCorporateNumber,changeCause,assignmentDate,latest,enName,enPrefectureName,enCityName,enAddressOutside,furigana,hihyoji
7,1010001152391,登記記録の閉鎖等,0,2026-02-10,2026-01-19,株式会社アントワーヌ,,株式会社,東京都,渋谷区,渋谷２丁目２１－１渋谷ヒカリエ８階ＭＯＶ,,13,113,1500002,,,2026-01-19,清算の結了等,,,2015-10-05,1,,,,,アントワーヌ,0
17,1010003035025,登記記録の閉鎖等,0,2026-02-10,2026-01-20,ロイヤル・ウェルス・マネジメント合同会社,,合同会社,東京都,千代田区,丸の内１丁目４番１号丸の内永楽ビルディング２６階,,13,101,1000005,,,2026-01-20,清算の結了等,,,2021-06-10,1,,,,,ロイヤルウェルスマネジメント,0
24,1010401115535,登記記録の閉鎖等,0,2026-02-10,2026-01-20,ジオマ株式会社,,株式会社,東京都,港区,赤坂２丁目８－５若林ビル２Ｆ,,13,103,1070052,,,2026-01-20,清算の結了等,,,2015-10-05,1,,,,,ジオマ,0
41,1010801001863,登記記録の閉鎖等,0,2026-02-10,2026-01-19,株式会社Ｈｅｒｍｅｓ　Ｃｏｒｐｏｒａｔｉｏｎ,,株式会社,東京都,港区,海岸１丁目９番１５－２２０４号,,13,103,1050022,,,2026-01-19,清算の結了等,,,2015-10-05,1,,,,,ヘルメスコーポレーション,0
51,1011001062928,登記記録の閉鎖等,0,2026-02-10,2026-01-19,株式会社暮らしの健康生活社,,株式会社,東京都,渋谷区,笹塚１丁目５４番９号,,13,113,1510073,,,2026-01-19,清算の結了等,,,2015-10-05,1,,,,,クラシノケンコウセイカツシャ,0
52,1011001090755,登記記録の閉鎖等,0,2026-02-10,2026-02-05,株式会社シンクスバンク,,株式会社,東京都,渋谷区,代々木２丁目９番２号,,13,113,1510053,,,2026-02-05,合併による解散等,7010001146074,令和８年１月１日東京都千代田区丸の内一丁目８番３号株式会社ＢＲＥＸＡ　Ｔｅｃｈｎｏｌｏｇｙ（7010001146074）に合併し解散,2015-10-05,1,"ThinkethBank Co., Ltd.",Tokyo,"2-9-2, Yoyogi, Shibuya ku",,シンクスバンク,0
60,1011101081530,登記記録の閉鎖等,0,2026-02-10,2026-01-19,株式会社Ｄｏｏｒｋｅｌ,,株式会社,東京都,港区,三田１丁目１番１４号,,13,103,1080073,,,2026-01-19,清算の結了等,,,2017-08-21,1,,,,,ドアケル,0
82,1011701004997,登記記録の閉鎖等,0,2026-02-10,2026-01-30,株式会社田中商会,,株式会社,東京都,江戸川区,南葛西１丁目１４番１５号,,13,123,1340085,,,2026-01-30,清算の結了等,,,2015-10-05,1,,,,,タナカショウカイ,0
86,1011802010671,登記記録の閉鎖等,0,2026-02-10,2026-02-06,有限会社大串金属工業,,有限会社,東京都,足立区,南花畑３丁目２番５号,,13,121,1210062,,,2026-02-06,清算の結了等,,,2015-10-05,1,,,,,,0
100,1020005003978,登記記録の閉鎖等,0,2026-02-10,2026-02-03,医療法人健心会,,その他の設立登記法人,神奈川県,横浜市港南区,上大岡東２丁目７番１７号,,14,111,2330001,,,2026-02-03,清算の結了等,,,2015-10-05,1,,,,,ケンシンカイ,0
115,1030002086001,登記記録の閉鎖等,0,2026-02-10,2026-02-02,有限会社コスモ・インターナショナル,,有限会社,埼玉県,朝霞市,三原２丁目１６番１４－３１２号,,11,227,3510025,,,2026-02-02,清算の結了等,,,2015-10-05,1,,,,,,0
137,1060001008531,登記記録の閉鎖等,0,2026-02-10,2026-02-09,細田林業株式会社,,株式会社,栃木県,日光市,今市１５５９番地３,,09,206,3211261,,,2026-02-09,清算の結了等,,,2015-10-05,1,,,,,ホソダリンギョウ,0
138,1060001033595,登記記録の閉鎖等,0,2026-02-10,2026-02-06,株式会社ワークビクトリー,,株式会社,栃木県,足利市,福富町５７４番地,,09,202,3260331,,,2026-02-06,清算の結了等,,,2021-04-13,1,,,,,ワークビクトリー,0
139,1060001036788,登記記録の閉鎖等,0,2026-02-10,2026-02-06,株式会社さわしょう,,株式会社,栃木県,宇都宮市,ゆいの杜６丁目２７番３０号,,09,201,3213226,,,2026-02-06,清算の結了等,,,2024-02-02,1,,,,,サワショウ,0
153,1120001069583,登記記録の閉鎖等,0,2026-02-10,2026-02-04,株式会社平岡,,株式会社,大阪府,吹田市,桃山台３丁目３番１２号,,27,205,5650854,,,2026-02-04,清算の結了等,,,2015-10-05,1,,,,,ヒラオカ,0
156,1120001222448,登記記録の閉鎖等,0,2026-02-10,2026-02-06,株式会社Ｆａｔｅ,,株式会社,大阪府,大阪市中央区,南船場３丁目８番１５号,,27,128,5420081,,,2026-02-06,清算の結了等,,,2019-07-12,1,,,,,フェイト,0
173,1122001001352,登記記録の閉鎖等,0,2026-02-10,2026-01-30,株式会社華栄,,株式会社,大阪府,大東市,平野屋２丁目９番３０号,,27,218,5740022,,,2026-01-30,清算の結了等,,,2015-10-05,1,,,,,ハナエ,0
194,1160003000006,登記記録の閉鎖等,0,2026-02-10,2026-02-06,合名会社県政しが,,合名会社,滋賀県,大津市,石山寺５丁目７番１０号,,25,201,5200861,,,2026-02-06,清算の結了等,,,2015-10-05,1,,,,,ケンセイシガ,0
203,1180002068587,登記記録の閉鎖等,0,2026-02-10,2026-02-03,有限会社イナワ精機,,有限会社,愛知県,小牧市,大字北外山１２７１番地の１,,23,219,4850023,,,2026-02-03,清算の結了等,,,2015-10-05,1,,,,,イナワセイキ,0
218,1220002001394,登記記録の閉鎖等,0,2026-02-10,2026-02-06,有限会社エーワン食品,,有限会社,石川県,金沢市,西念４丁目１４番１号,,17,201,9200024,,,2026-02-06,清算の結了等,,,2015-10-05,1,,,,,エーワンショクヒン,0
232,1290002044032,登記記録の閉鎖等,0,2026-02-10,2026-01-30,有限会社嶺商店,,有限会社,福岡県,朝倉郡筑前町,当所字下屋敷４１５番地１,,40,447,8380803,,,2026-01-30,清算の結了等,,,2015-10-05,1,,,,,ミネショウテン,0
244,1370202003218,登記記録の閉鎖等,0,2026-02-10,2026-02-03,有限会社新星電気,,有限会社,宮城県,大崎市,岩出山字浦小路１０５番地の２,,04,215,9896435,,,2026-02-03,清算の結了等,,,2015-10-05,1,,,,,シンセイデンキ,0
246,1380002034635,登記記録の閉鎖等,0,2026-02-10,2026-02-04,有限会社瓜生内装,,有限会社,福島県,喜多方市,岩月町宮津字惣社原４１１８番地の５,,07,208,9660002,,,2026-02-04,清算の結了等,,,2015-10-05,1,,,,,ウリウナイソウ,0
250,1420001008214,登記記録の閉鎖等,0,2026-02-10,2026-02-02,会津建設株式会社,,株式会社,青森県,つがる市,稲垣町豊川宮藤２１番地９号,,02,209,0370104,,,2026-02-02,清算の結了等,,,2015-10-05,1,,,,,,0
254,1430001093552,登記記録の閉鎖等,0,2026-02-10,2026-02-03,株式会社ＢａｒｃｈＥ,,株式会社,北海道,札幌市豊平区,月寒東三条７丁目３番２０号,,01,105,0620053,,,2026-02-03,清算の結了等,,,2025-01-28,1,,,,,バーチェ,0
259,1440001002586,登記記録の閉鎖等,0,2026-02-10,2026-02-04,株式会社吉野谷鉄工所,,株式会社,北海道,函館市,万代町２２番１３号,,01,202,0400075,,,2026-02-04,清算の結了等,,,2015-10-05,1,,,,,ヨシノヤテッコウショ,0
269,2010001089939,登記記録の閉鎖等,0,2026-02-10,2026-01-20,株式会社ウエルズインターナショナル,,株式会社,東京都,千代田区,神田多町２丁目３番５号,,13,101,1010046,,,2026-01-20,清算の結了等,,,2015-10-05,1,,,,,,0
270,2010001108418,登記記録の閉鎖等,0,2026-02-10,2026-01-20,Ｄｏｎｎｅｌｌｅｙ　Ｆｉｎａｎｃｉａｌ　Ｓｏｌｕｔｉｏｎｓ　Ｊａｐａｎ株式会社,,株式会社,東京都,港区,虎ノ門４丁目３番１号城山トラストタワー東京赤坂法律事務所内,,13,103,1050001,,,2026-01-20,清算の結了等,,,2015-10-05,1,,,,,ドネリーファイナンシャルソリューションズジャパンシャ,0
277,2010001217111,登記記録の閉鎖等,0,2026-02-10,2026-02-02,株式会社アルクエデュケーション,,株式会社,東京都,品川区,北品川６丁目７番２９号,,13,109,1410001,,,2026-02-02,合併による解散等,6010001143378,令和８年２月１日東京都品川区北品川六丁目７番２９号株式会社アルク（6010001143378）に合併し解散,2021-04-09,1,,,,,アルクエデュケーション,0
293,2010102003501,登記記録の閉鎖等,0,2026-02-10,2026-02-06,有限会社鈴木クリーニング店,,有限会社,東京都,八王子市,横山町１２番５号,,13,201,1920081,,,2026-02-06,清算の結了等,,,2015-10-05,1,,,,,スズキクリーニングテン,0
295,2010102005002,登記記録の閉鎖等,0,2026-02-10,2026-02-09,有限会社中野工務店,,有限会社,東京都,八王子市,万町１１２番地の７,,13,201,1920903,,,2026-02-09,清算の結了等,,,2015-10-05,1,,,,,ナカノコウムテン,0
311,2010601055282,登記記録の閉鎖等,0,2026-02-10,2026-02-03,ＹｏｕＣａｎ　Ｇｒｏｕｐ株式会社,,株式会社,東京都,練馬区,春日町６丁目１８－１９,,13,120,1790074,,,2026-02-03,清算の結了等,,,2019-04-04,1,,,,,ユーキャングループ,0
320,2011001162314,登記記録の閉鎖等,0,2026-02-10,2026-01-19,株式会社ＤＡｉＲＯＫＵ,,株式会社,東京都,渋谷区,円山町５番５号Ｎａｖｉ渋谷Ｖ３階,,13,113,1500044,,,2026-01-19,清算の結了等,,,2024-05-31,1,,,,,ダイロク,0
326,2011101060013,登記記録の閉鎖等,0,2026-02-10,2026-02-06,アイエスアールコンポーネンツ株式会社,,株式会社,東京都,新宿区,西新宿６丁目１６番１２号,,13,104,1600023,,,2026-02-06,清算の結了等,,,2015-10-05,1,,,,,アイエスアールコンポーネンツ,0
331,2011103015403,登記記録の閉鎖等,0,2026-02-10,2026-01-14,ＤＡＩ　ＫＩＭ合同会社,,合同会社,東京都,新宿区,北新宿１丁目１６番３号せぴあ館２０２,,13,104,1690074,,,2026-01-14,清算の結了等,,,2025-01-15,1,,,,,ダイキン,0
340,2011501001120,登記記録の閉鎖等,0,2026-02-10,2026-02-05,株式会社銀座プロセス,,株式会社,東京都,北区,中里２丁目１９番８号,,13,117,1140015,,,2026-02-05,清算の結了等,,,2015-10-05,1,,,,,ギンザプロセス,0
345,2011801009722,登記記録の閉鎖等,0,2026-02-10,2026-02-06,株式会社田中商店,,株式会社,東京都,足立区,西綾瀬２丁目４番１号,,13,121,1200014,,,2026-02-06,清算の結了等,,,2015-10-05,1,,,,,タナカショウテン,0
347,2011802003286,登記記録の閉鎖等,0,2026-02-10,2026-02-05,有限会社笹,,有限会社,東京都,葛飾区,高砂８丁目２４番２号,,13,122,1250054,,,2026-02-05,清算の結了等,,,2015-10-05,1,,,,,ササ,0
387,2040002084944,登記記録の閉鎖等,0,2026-02-10,2026-01-13,有限会社マサルヤ,,有限会社,千葉県,旭市,三川８９９０番地３,,12,215,2892714,,,2026-01-13,清算の結了等,,,2015-10-05,1,,,,,マサルヤ,0
403,2060002020914,登記記録の閉鎖等,0,2026-02-10,2026-02-06,有限会社松村商事,,有限会社,栃木県,鹿沼市,千渡１５１３番地１,,09,205,3220002,,,2026-02-06,清算の結了等,,,2015-10-05,1,,,,,マツムラショウジ,0
404,2060002021400,登記記録の閉鎖等,0,2026-02-10,2026-02-06,有限会社トキワ測量設計事務所,,有限会社,栃木県,鹿沼市,松原１丁目１５９番地,,09,205,3220012,,,2026-02-06,清算の結了等,,,2015-10-05,1,,,,,トキワソクリョウセッケイジムショ,0
405,2070001010865,登記記録の閉鎖等,0,2026-02-10,2026-02-05,株式会社ａｄｄｖｉｓｉｏｎ,,株式会社,群馬県,高崎市,江木町２７５番地１（３Ｆ）,,10,202,3700046,,,2026-02-05,清算の結了等,,,2015-10-05,1,,,,,アドヴィジョン,0
407,2070002017505,登記記録の閉鎖等,0,2026-02-10,2026-02-06,有限会社システム・アーツ社,,有限会社,群馬県,藤岡市,藤岡３２１７番地１,,10,209,3750024,,,2026-02-06,清算の結了等,,,2015-10-05,1,,,,,システムアーツシャ,0
414,2080401023722,登記記録の閉鎖等,0,2026-02-10,2026-02-03,株式会社ＫＲＲ,,株式会社,静岡県,浜松市浜名区,染地台１丁目５番１４号,,22,139,4340046,,,2026-02-03,清算の結了等,,,2019-07-03,1,,,,,ケーアールアール,0
428,2120001263045,登記記録の閉鎖等,0,2026-02-10,2026-02-04,ｓａｎａｄａ株式会社,,株式会社,大阪府,大阪市中央区,谷町７丁目３番４－２１５号Ａ,,27,128,5420012,,,2026-02-04,清算の結了等,,,2024-03-12,1,,,,,サナダ,0
435,2120003026020,登記記録の閉鎖等,0,2026-02-10,2026-02-05,欧楽多合同会社,,合同会社,大阪府,大阪市東淀川区,下新庄２丁目８番１６－３０２号,,27,114,5330021,,,2026-02-05,清算の結了等,,,2024-02-27,1,,,,,オウラクタ,0
441,2120005020483,登記記録の閉鎖等,0,2026-02-10,2026-02-06,一般社団法人採用定着支援協会,,その他の設立登記法人,大阪府,大阪市中央区,伏見町４丁目４番９号淀屋橋東洋ビル３階,,27,128,5410044,,,2026-02-06,清算の結了等,,,2018-10-15,1,,,,,サイヨウテイチャクシエンキョウカイ,0
463,2150001008397,登記記録の閉鎖等,0,2026-02-10,2026-02-06,株式会社ＯＧＯ研究所,,株式会社,奈良県,奈良市,二名４丁目１１９３番地の３６,,29,201,6310072,,,2026-02-06,清算の結了等,,,2015-10-05,1,,,,,オージーオーケンキュウショ,0
464,2150002011425,登記記録の閉鎖等,0,2026-02-10,2026-02-02,有限会社歩み,,有限会社,奈良県,吉野郡下市町,大字阿知賀２６９７番地の８,,29,443,6380001,,,2026-02-02,清算の結了等,,,2015-10-05,1,,,,,アユミ,0
472,2180001159881,登記記録の閉鎖等,0,2026-02-10,2026-01-27,株式会社ビジョンクリエイト,,株式会社,愛知県,名古屋市中区,丸の内３丁目１７－２９丸の内ｉａビル７Ｆ,,23,106,4600002,,,2026-01-27,清算の結了等,,,2024-01-19,1,,,,,ビジョンクリエイト,0
483,2220001021351,登記記録の閉鎖等,0,2026-02-10,2026-01-30,株式会社尾田林業,,株式会社,石川県,白山市,白峰ロ２６番地,,17,210,9202501,,,2026-01-30,清算の結了等,,,2016-12-01,1,,,,,ビタリンギョウ,0
491,2240003003585,登記記録の閉鎖等,0,2026-02-10,2026-02-04,合同会社Ｇ．Ｒ．Ｈ．,,合同会社,広島県,東広島市,志和町内５２５番地,,34,212,7390261,,,2026-02-04,清算の結了等,,,2017-06-07,1,,,,,ジーアールエイチ,0
492,2240003003783,登記記録の閉鎖等,0,2026-02-10,2026-02-06,合同会社近藤建工,,合同会社,広島県,廿日市市,阿品２丁目４番１７号,,34,213,7380054,,,2026-02-06,清算の結了等,,,2018-01-23,1,,,,,,0
500,2270002005233,登記記録の閉鎖等,0,2026-02-10,2026-02-09,有限会社青戸洋装店,,有限会社,鳥取県,米子市,紺屋町３７番地,,31,202,6830062,,,2026-02-09,清算の結了等,,,2015-10-05,1,,,,,アオトヨウソウテン,0
501,2270002007997,登記記録の閉鎖等,0,2026-02-10,2026-02-06,有限会社山形鉄筋工業,,有限会社,鳥取県,米子市,和田町２０３５番地３,,31,202,6830102,,,2026-02-06,清算の結了等,,,2015-10-05,1,,,,,,0
518,2310002012175,登記記録の閉鎖等,0,2026-02-10,2026-02-04,有限会社一瀬商店,,有限会社,長崎県,東彼杵郡川棚町,栄町５番地,,42,322,8593608,,,2026-02-04,清算の結了等,,,2015-10-05,1,,,,,イチノセショウテン,0
544,2420002015043,登記記録の閉鎖等,0,2026-02-10,2026-02-03,有限会社ＨＡＲＵ,,有限会社,青森県,弘前市,大字田園３丁目１番地４,,02,202,0368086,,,2026-02-03,清算の結了等,,,2015-10-05,1,,,,,ハル,0
546,2430001081696,登記記録の閉鎖等,0,2026-02-10,2026-02-09,株式会社ファーシル,,株式会社,北海道,札幌市北区,北二十九条西６丁目１番１５号,,01,102,0010029,,,2026-02-09,清算の結了等,,,2020-06-15,1,,,,,ファーシル,0
550,2430003010166,登記記録の閉鎖等,0,2026-02-10,2026-02-06,合同会社明日香,,合同会社,北海道,札幌市東区,北二十四条東２１丁目４番７号,,01,103,0650024,,,2026-02-06,清算の結了等,,,2019-02-22,1,,,,,アスカ,0
552,2440001007460,登記記録の閉鎖等,0,2026-02-10,2026-02-06,株式会社ユニフーズ,,株式会社,北海道,函館市,昭和４丁目１３番１６号,,01,202,0410812,,,2026-02-06,清算の結了等,,,2015-10-05,1,,,,,ユニフーズ,0
553,2440002000349,登記記録の閉鎖等,0,2026-02-10,2026-02-06,有限会社一福福嶋漁業部,,有限会社,北海道,函館市,川汲町１４５７番地,00090343,01,202,0411611,,,2026-02-06,清算の結了等,,,2015-10-05,1,,,,,イチフクフクシマギョギョウブ,0
557,2500001008857,登記記録の閉鎖等,0,2026-02-10,2026-02-06,オリエンス株式会社,,株式会社,愛媛県,西条市,喜多川２６６番地１,,38,206,7930042,,,2026-02-06,清算の結了等,,,2015-10-05,1,,,,,オリエンス,0
578,3010401146982,登記記録の閉鎖等,0,2026-02-10,2026-02-06,株式会社Ｈｅａｌｔｈｙ　Ｂｏｄｙ,,株式会社,東京都,新宿区,四谷３丁目１１－１アローズビル５階,,13,104,1600004,,,2026-02-06,清算の結了等,,,2019-07-26,1,,,,,ヘルシーボディー,0
583,3010402028536,登記記録の閉鎖等,0,2026-02-10,2025-12-17,有限会社ｃｈｅｓｔ　ｎｕｔｓ,,有限会社,千葉県,白井市,掘込一丁目６番３棟５０１号,,12,232,2701400,,,2025-12-17,清算の結了等,,,2015-10-05,1,,,,,チェストナッツ,0
598,3010601035028,登記記録の閉鎖等,0,2026-02-10,2026-01-30,株式会社公共船舶安全検査実施機構,,株式会社,東京都,江東区,常盤１丁目１４番５号,,13,108,1350006,,,2026-01-30,清算の結了等,,,2015-10-05,1,,,,,コウキョウセンパクアンゼンケンサジッシキコウ,0
644,3011801030891,登記記録の閉鎖等,0,2026-02-10,2026-02-09,株式会社エレック,,株式会社,東京都,葛飾区,小菅１丁目２２番２号,,13,122,1240001,,,2026-02-09,清算の結了等,,,2015-10-14,1,,,,,,0
652,3012805003297,登記記録の閉鎖等,0,2026-02-10,2026-02-03,一般社団法人ＡｕＰａｉｒ　ｉｎ　Ｊａｐａｎ,,その他の設立登記法人,東京都,立川市,砂川町２丁目２４番地の６,,13,202,1900031,,,2026-02-03,清算の結了等,,,2024-11-26,1,,,,,オペアインジャパン,0
668,3021002041770,登記記録の閉鎖等,0,2026-02-10,2026-01-21,有限会社東京テクニカトランス,,有限会社,神奈川県,大和市,下鶴間２丁目４番６号,,14,213,2420001,,,2026-01-21,清算の結了等,,,2015-10-05,1,,,,,トウキョウテクニカトランス,0
685,3040001022697,登記記録の閉鎖等,0,2026-02-10,2026-01-14,株式会社ランセン,,株式会社,千葉県,船橋市,習志野台５丁目３６番２５－４１１号,,12,204,2740063,,,2026-01-14,清算の結了等,,,2015-10-05,1,,,,,ランセン,0
686,3040001045319,登記記録の閉鎖等,0,2026-02-10,2026-01-14,ヴァージンパブジャパン株式会社,,株式会社,千葉県,成田市,花崎町５３８番地,,12,211,2860033,,,2026-01-14,清算の結了等,,,2015-10-05,1,,,,,ヴァージンパブジャパン,0
696,3050001020576,登記記録の閉鎖等,0,2026-02-10,2026-02-03,鹿島共同再資源化センター株式会社,,株式会社,茨城県,神栖市,東和田２１番地３,,08,232,3140102,,,2026-02-03,清算の結了等,,,2015-10-05,1,,,,,カシマキョウドウサイシゲンカセンター,0
704,3060002025177,登記記録の閉鎖等,0,2026-02-10,2026-02-05,株式会社大橋酒店,,株式会社,栃木県,大田原市,中央１丁目１１番３号,,09,210,3240056,,,2026-02-05,合併による解散等,9010001060208,令和８年２月１日大阪市淀川区西宮原二丁目２番２２号株式会社ライフコーポレーション（9010001060208）に合併し解散,2015-10-05,1,,,,,オオハシサケテン,0
705,3060002035754,登記記録の閉鎖等,0,2026-02-10,2026-02-06,有限会社柿沼製作所,,有限会社,栃木県,足利市,上渋垂町４７０番地の１１,,09,202,3260335,,,2026-02-06,清算の結了等,,,2015-10-05,1,,,,,カキヌマセイサクショ,0
706,3070001041208,登記記録の閉鎖等,0,2026-02-10,2026-02-06,株式会社柳田鉄工所,,株式会社,群馬県,太田市,矢場町２７０７番地,,10,205,3730803,,,2026-02-06,合併による解散等,4180001022765,令和８年２月１日名古屋市熱田区旗屋一丁目９番２１号株式会社マキテック（4180001022765）に合併し解散,2023-12-19,1,,,,,ヤナギダテッコウショ,0
709,3070005007097,登記記録の閉鎖等,0,2026-02-10,2026-02-05,笠原牧野農業協同組合,,その他の設立登記法人,群馬県,利根郡みなかみ町,須川１６１３番地,,10,449,3791418,,,2026-02-05,清算の結了等,,,2015-10-05,1,,,,,カサハラボクヤ,0
711,3080401024050,登記記録の閉鎖等,0,2026-02-10,2026-02-03,株式会社Ｋカンパニー,,株式会社,静岡県,浜松市中央区,領家１丁目７－２９アステリアガーデン１０１号,,22,138,4300852,,,2026-02-03,清算の結了等,,,2019-12-26,1,,,,,ケーカンパニー,0
719,3110002022227,登記記録の閉鎖等,0,2026-02-10,2026-02-02,有限会社有沢建興,,有限会社,新潟県,上越市,西城町３丁目１１番４４号,,15,222,9430834,,,2026-02-02,合併による解散等,1110001018789,令和８年２月１日新潟県上越市南本町一丁目５番５号株式会社有沢製作所（1110001018789）に合併し解散,2015-10-05,1,,,,,アリサワケンコウ,0
720,3110002024974,登記記録の閉鎖等,0,2026-02-10,2026-01-30,有限会社文進堂書店,,有限会社,新潟県,妙高市,上町４番６号,,15,217,9440046,,,2026-01-30,清算の結了等,,,2015-10-05,1,,,,,ブンシンドウショテン,0
722,3120001225572,登記記録の閉鎖等,0,2026-02-10,2026-02-05,モアピュール株式会社,,株式会社,大阪府,大阪市北区,天満２丁目１番１０号,,27,127,5300043,,,2026-02-05,清算の結了等,,,2019-12-09,1,,,,,モアピュール,0
724,3120001246890,登記記録の閉鎖等,0,2026-02-10,2026-01-30,丸一株式会社,,株式会社,大阪府,大阪市大正区,泉尾６丁目６－２,,27,108,5510031,,,2026-01-30,清算の結了等,,,2022-06-27,1,,,,,マルイ,0
736,3120002021129,登記記録の閉鎖等,0,2026-02-10,2026-02-03,石原興産有限会社,,有限会社,大阪府,大阪市西区,江戸堀２丁目１番１号江戸堀センタービル９階,,27,106,5500002,,,2026-02-03,清算の結了等,,,2015-10-05,1,,,,,イシハラコウサン,0
737,3120003015055,登記記録の閉鎖等,0,2026-02-10,2026-02-06,シュティール・エンダーン合同会社,,合同会社,大阪府,大阪市北区,長柄東２丁目８番３６－７０５号,,27,127,5310063,,,2026-02-06,清算の結了等,,,2018-12-12,1,,,,,シュティールエンダーン,0
744,3120902021830,登記記録の閉鎖等,0,2026-02-10,2026-02-06,有限会社ウイングス　コンサルティング,,有限会社,大阪府,豊中市,中桜塚５丁目２番１－１１４号,,27,203,5610881,,,2026-02-06,清算の結了等,,,2015-10-05,1,,,,,ウイングスコンサルティング,0
761,3160001007975,登記記録の閉鎖等,0,2026-02-10,2026-02-06,株式会社ナレッジ,,株式会社,滋賀県,長浜市,川崎町１２９番地の５,,25,203,5260846,,,2026-02-06,清算の結了等,,,2015-10-05,1,,,,,ナレッジ,0
772,3180002033424,登記記録の閉鎖等,0,2026-02-10,2026-02-02,有限会社横井商店,,有限会社,愛知県,名古屋市中区,大須４丁目７番２５号,,23,106,4600011,,,2026-02-02,清算の結了等,,,2015-10-05,1,,,,,,0
773,3180003020842,登記記録の閉鎖等,0,2026-02-10,2026-02-03,アクア合同会社,,合同会社,愛知県,名古屋市守山区,瀬古東１丁目９４１番地,,23,113,4630090,,,2026-02-03,清算の結了等,,,2020-02-12,1,,,,,アクア,0
781,3200002010008,登記記録の閉鎖等,0,2026-02-10,2026-02-03,有限会社ルミエール,,有限会社,岐阜県,本巣郡北方町,柱本南２丁目１３１番地,,21,421,5010445,,,2026-02-03,清算の結了等,,,2015-10-05,1,,,,,ルミエール,0
783,3230001012885,登記記録の閉鎖等,0,2026-02-10,2026-01-30,株式会社ヨシダクリーンサービス,,株式会社,富山県,射水市,中野５６０番地１,,16,211,9390273,,,2026-01-30,合併による解散等,7230001012881,令和８年１月２１日富山県射水市新開発６５０番地の１株式会社ヨシダ（7230001012881）に合併し解散,2015-10-05,1,,,,,ヨシダクリーンサービス,0
796,3270001003443,登記記録の閉鎖等,0,2026-02-10,2026-02-05,株式会社鳥取南吉方窒素ガスセンター,,株式会社,鳥取県,米子市,旗ヶ崎２２０１番地１,,31,202,6830845,,,2026-02-05,清算の結了等,,,2015-10-05,1,,,,,トットリミナミヨシカタチッソガスセンター,0
815,3320002010854,登記記録の閉鎖等,0,2026-02-10,2026-01-29,有限会社アリス,,有限会社,大分県,別府市,大字鶴見５２番地の９,,44,202,8740840,,,2026-01-29,清算の結了等,,,2015-10-05,1,,,,,アリス,0
830,3420003001512,登記記録の閉鎖等,0,2026-02-10,2026-02-04,北森商事合同会社,,合同会社,青森県,東津軽郡外ヶ浜町,字上蟹田５２番地４,,02,307,0301309,,,2026-02-04,清算の結了等,,,2015-10-20,1,,,,,ホクシンショウジ,0
844,4010001046483,登記記録の閉鎖等,0,2026-02-10,2026-01-08,株式会社ジェイエスピー,,株式会社,千葉県,市川市,国分１丁目３番１０号,,12,203,2720834,,,2026-01-08,清算の結了等,,,2015-10-05,1,,,,,ジェイエスピー,0
848,4010001199629,登記記録の閉鎖等,0,2026-02-10,2026-02-02,ｓｎｏｂ株式会社,,株式会社,熊本県,熊本市西区,高橋町２丁目２番３５号,,43,103,8600062,,,2026-02-02,清算の結了等,,,2019-04-03,1,,,,,スノッブ,0
868,4010005006054,登記記録の閉鎖等,0,2026-02-10,2026-02-05,特定非営利活動法人循環型社会研究会,,その他の設立登記法人,北海道,札幌市中央区,南十三条西１丁目３番２０－２０１号,,01,101,0640913,,,2026-02-05,清算の結了等,,,2015-10-05,1,,,,,ジュンカンガタシャカイケンキュウカイ,0
881,4010405023426,登記記録の閉鎖等,0,2026-02-10,2026-01-19,一般社団法人デジタルイラスト教育協会,,その他の設立登記法人,東京都,港区,南青山３丁目１番３６号青山丸竹ビル６Ｆ,,13,103,1070062,,,2026-01-19,清算の結了等,,,2024-08-08,1,,,,,デジタルイラストキョウイクキョウカイ,0
891,4010703007898,登記記録の閉鎖等,0,2026-02-10,2026-02-03,ＳＨＲＥＳＴＨＡ合同会社,,合同会社,東京都,品川区,二葉２丁目２４番９－３０１号,,13,109,1420043,,,2026-02-03,清算の結了等,,,2025-09-10,1,,,,,スレスタ,0
914,4011205001811,登記記録の閉鎖等,0,2026-02-10,2026-01-14,特定非営利活動法人日本エクストリーム・マーシャルアーツ協会,,その他の設立登記法人,東京都,新宿区,中落合１丁目８番６号カーサ中落合１０１,,13,104,1610032,,,2026-01-14,清算の結了等,,,2015-10-05,1,,,,,ニホンエクストリームマーシャルアーツキョウカイ,0
943,4021002064028,登記記録の閉鎖等,0,2026-02-10,2026-01-21,有限会社ケイシイエム,,有限会社,神奈川県,横須賀市,大矢部４丁目７番６号,,14,201,2380024,,,2026-01-21,清算の結了等,,,2015-10-05,1,,,,,ケイシイエム,0
966,4040002032083,登記記録の閉鎖等,0,2026-02-10,2026-01-15,有限会社暁巧建,,有限会社,千葉県,市川市,塩浜４丁目２番４１棟１０２号,,12,203,2720127,,,2026-01-15,清算の結了等,,,2015-10-05,1,,,,,アカツキコウケン,0
967,4040002040656,登記記録の閉鎖等,0,2026-02-10,2026-01-14,有限会社カネカ,,有限会社,千葉県,市川市,行徳駅前４丁目１５番１５号,,12,203,2720133,,,2026-01-14,清算の結了等,,,2015-10-05,1,,,,,カネカ,0
968,4040003021688,登記記録の閉鎖等,0,2026-02-10,2026-02-09,合同会社ＫＢ事務所,,合同会社,栃木県,那須郡那須町,大字豊原乙１番地２２９４,,09,407,3293224,,,2026-02-09,清算の結了等,,,2023-01-16,1,,,,,ケービージムショ,0
971,4040005002612,登記記録の閉鎖等,0,2026-02-10,2025-12-03,特定非営利活動法人生ごみ減量研究会,,その他の設立登記法人,千葉県,千葉市美浜区,磯辺７丁目２４番１０号,,12,106,2610012,,,2025-12-03,清算の結了等,,,2015-10-05,1,,,,,ナマゴミゲンリョウケンキュウカイ,0
972,4040005018699,登記記録の閉鎖等,0,2026-02-10,2026-01-21,特定非営利活動法人ちばバイオマス事業化ネットワーク,,その他の設立登記法人,千葉県,千葉市緑区,誉田町３丁目７８番地,,12,105,2660005,,,2026-01-21,清算の結了等,,,2015-10-05,1,,,,,チババイオマスジギョウカネットワーク,0
973,4050001000619,登記記録の閉鎖等,0,2026-02-10,2026-02-03,株式会社岡野石油,,株式会社,茨城県,水戸市,平須町１５８番地の９８,,08,201,3100853,,,2026-02-03,清算の結了等,,,2015-10-05,1,,,,,オカノセキユ,0
988,4100001006131,登記記録の閉鎖等,0,2026-02-10,2026-02-06,児玉樹脂化工株式会社,,株式会社,長野県,千曲市,大字稲荷山２７３番地,,20,218,3870021,,,2026-02-06,清算の結了等,,,2015-10-05,1,,,,,コダマジュシカコウ,0
990,4100002009703,登記記録の閉鎖等,0,2026-02-10,2026-02-05,有限会社サンワ精工,,有限会社,長野県,千曲市,大字戸倉１６２５番地の３,,20,218,3890804,,,2026-02-05,清算の結了等,,,2015-10-05,1,,,,,サンワセイコウ,0
1005,4120002081221,登記記録の閉鎖等,0,2026-02-10,2026-02-05,有限会社シーケンス,,有限会社,大阪府,門真市,三ツ島４丁目２０番９号,,27,223,5710015,,,2026-02-05,清算の結了等,,,2015-10-05,1,,,,,シーケンス,0
1020,4130001037446,登記記録の閉鎖等,0,2026-02-10,2026-01-30,株式会社エコー,,株式会社,京都府,向日市,物集女町森ノ上６番地１１,,26,208,6170001,,,2026-01-30,合併による解散等,1130001030742,令和８年１月３０日京都府向日市物集女町森ノ上６番地１１株式会社ハウスサポート（1130001030742）に合併し解散,2015-10-05,1,,,,,エコー,0
1022,4140001014238,登記記録の閉鎖等,0,2026-02-10,2026-02-05,株式会社マルチテック,,株式会社,兵庫県,神戸市中央区,加納町４丁目２番１号,,28,110,6500001,,,2026-02-05,合併による解散等,4011101062767,令和８年１月１日東京都千代田区丸の内一丁目８番３号株式会社ＢＲＥＸＡ　Ｅｎｇｉｎｅｅｒｉｎｇ（4011101062767）に合併し解散,2015-10-05,1,,,,,マルチテック,0
1027,4150001014658,登記記録の閉鎖等,0,2026-02-10,2026-02-09,吉井商事株式会社,,株式会社,奈良県,大和高田市,中三倉堂２丁目１１番３２号,,29,202,6350045,,,2026-02-09,清算の結了等,,,2015-10-05,1,,,,,ヨシイショウジ,0
1032,4170005002203,登記記録の閉鎖等,0,2026-02-10,2026-01-30,紀美野町土地開発公社,,その他の設立登記法人,和歌山県,海草郡紀美野町,動木２８７番地,,30,304,6401131,,,2026-01-30,清算の結了等,,,2015-10-05,1,,,,,キミノチョウ,0
1086,4390002014377,登記記録の閉鎖等,0,2026-02-10,2026-02-06,有限会社竹田味噌糀店,00085020,有限会社,山形県,南陽市,宮内２９７９番地,,06,213,9920472,,,2026-02-06,清算の結了等,,,2015-10-05,1,,,,,タケダミソコウジテン,0
1088,4400005002947,登記記録の閉鎖等,0,2026-02-10,2026-02-02,一般財団法人岩手理容美容専門学校,,その他の設立登記法人,岩手県,花巻市,若葉町２丁目１４番３９号,,03,205,0250097,,,2026-02-02,清算の結了等,,,2015-10-05,1,,,,,イワテリヨウビヨウセンモンガッコウ,0
1100,4460105000374,登記記録の閉鎖等,0,2026-02-10,2026-02-05,医療法人仁愛会,,その他の設立登記法人,北海道,帯広市,東四条南８丁目,,01,207,0800804,,,2026-02-05,清算の結了等,,,2015-10-05,1,,,,,ジンアイカイ,0
1101,4470001005237,登記記録の閉鎖等,0,2026-02-10,2026-02-03,新日本工芸株式会社,,株式会社,香川県,高松市,香川町川内原３４番地１,,37,201,7611704,,,2026-02-03,清算の結了等,,,2015-10-05,1,,,,,シンニホンコウゲイ,0
1110,5010001122143,登記記録の閉鎖等,0,2026-02-10,2026-01-20,株式会社成の里,,株式会社,東京都,千代田区,岩本町２丁目１７番１２号,,13,101,1010032,,,2026-01-20,清算の結了等,,,2015-10-05,1,,,,,アキノサト,0
1116,5010001215418,登記記録の閉鎖等,0,2026-02-10,2026-01-21,株式会社ＢｅＯＰＴ,,株式会社,東京都,文京区,大塚３丁目２０番１号紅屋茗荷谷ビル６Ｆ,,13,105,1120012,,,2026-01-21,清算の結了等,,,2021-01-29,1,,,,,ビーオプト,0
1144,5010601032394,登記記録の閉鎖等,0,2026-02-10,2026-02-02,小岩工業株式会社,,株式会社,東京都,墨田区,立花６丁目３番８号,,13,107,1310043,,,2026-02-02,清算の結了等,,,2015-10-05,1,,,,,コイワコウギョウ,0
1147,5010603011140,登記記録の閉鎖等,0,2026-02-10,2026-02-06,合同会社もももんが電王,,合同会社,東京都,杉並区,清水１丁目１２番２号,,13,115,1670033,,,2026-02-06,合併による解散等,9011003021866,令和８年１月１４日東京都渋谷区神南一丁目１１番４号ＦＰＧリンクス神南５階合同会社ラーマ（9011003021866）に合併し解散,2024-10-11,1,,,,,モモモンガデンオウ,0
1157,5010901045071,登記記録の閉鎖等,0,2026-02-10,2026-01-21,Ａｖａｎｔｉｕｍ　Ｊａｐａｎ株式会社,,株式会社,東京都,千代田区,丸の内２丁目３番２号郵船ビルディング１階,,13,101,1000005,,,2026-01-21,清算の結了等,,,2019-10-21,1,,,,,アバンティウムジャパン,0
1171,5011301013321,登記記録の閉鎖等,0,2026-02-10,2026-01-16,株式会社文研ビズ,,株式会社,神奈川県,横須賀市,野比３丁目１－４－４０７,,14,201,2390841,,,2026-01-16,清算の結了等,,,2015-10-05,1,,,,,ブンケンビズ,0
1177,5011701019042,登記記録の閉鎖等,0,2026-02-10,2026-02-02,プログレス株式会社,,株式会社,東京都,台東区,浅草橋５丁目２番３号鈴和ビル,,13,106,1110053,,,2026-02-02,清算の結了等,,,2015-10-05,1,,,,,プログレス,0
1180,5011801024603,登記記録の閉鎖等,0,2026-02-10,2026-01-15,株式会社新栄商会,,株式会社,千葉県,松戸市,秋山７４１番地３,,12,207,2702223,,,2026-01-15,清算の結了等,,,2015-10-05,1,,,,,シンエイショウカイ,0
1187,5020001132884,登記記録の閉鎖等,0,2026-02-10,2026-02-03,株式会社横浜クリエイティブラボラトリー,,株式会社,神奈川県,横浜市中区,本牧原３番１―２０１号　鈴木方,,14,104,2310821,,,2026-02-03,清算の結了等,,,2019-09-27,1,,,,,ヨコハマクリエイティブラボラトリー,0
1192,5020001148591,登記記録の閉鎖等,0,2026-02-10,2026-02-02,新日本総合建設株式会社,,株式会社,神奈川県,横浜市南区,別所１丁目３番３１号静心ビル１階,,14,105,2320064,,,2026-02-02,清算の結了等,,,2022-10-17,1,,,,,シンニホンソウゴウケンセツ,0
1213,5050001014997,登記記録の閉鎖等,0,2026-02-10,2026-02-04,株式会社マスミつくば,,株式会社,茨城県,下妻市,五箇１５７番地,,08,210,3040823,,,2026-02-04,清算の結了等,,,2015-10-05,1,,,,,マスミツクバ,0
1215,5050003009252,登記記録の閉鎖等,0,2026-02-10,2026-02-03,合同会社美浦倶楽部,,合同会社,茨城県,稲敷郡美浦村,大字木原１６９１番地１７,,08,442,3000421,,,2026-02-03,清算の結了等,,,2025-05-14,1,,,,,ミホクラブ,0
1244,5100003008257,登記記録の閉鎖等,0,2026-02-10,2026-02-04,合同会社Ａテック,,合同会社,長野県,松本市,横田２丁目１３番Ｂ－４０１号,,20,202,3900804,,,2026-02-04,清算の結了等,,,2025-07-03,1,,,,,エーテック,0
1246,5120001069084,登記記録の閉鎖等,0,2026-02-10,2026-02-06,株式会社林商店,,株式会社,大阪府,大阪市北区,西天満３丁目７番１号,,27,127,5300047,,,2026-02-06,清算の結了等,,,2015-10-05,1,,,,,,0
1262,5120005009870,登記記録の閉鎖等,0,2026-02-10,2026-02-06,特定非営利活動法人淀川助け合い,,その他の設立登記法人,大阪府,大阪市淀川区,東三国２丁目２４番７号、森実千秋方,,27,123,5320002,,,2026-02-06,清算の結了等,,,2015-10-05,1,,,,,ヨドガワタスケアイ,0
1271,5122001013014,登記記録の閉鎖等,0,2026-02-10,2026-02-02,株式会社テサキ製作所,,株式会社,大阪府,東大阪市,宝町５番２７号,,27,227,5798025,,,2026-02-02,清算の結了等,,,2015-10-05,1,,,,,テサキセイサクショ,0
1278,5130002021992,登記記録の閉鎖等,0,2026-02-10,2026-01-30,有限会社藤端,,有限会社,京都府,向日市,物集女町森ノ上６番地１１,,26,208,6170001,,,2026-01-30,合併による解散等,1130001030742,令和８年１月３０日京都府向日市物集女町森ノ上６番地１１株式会社ハウスサポート（1130001030742）に合併し解散,2015-10-05,1,,,,,フジハタ,0
1288,5180002074350,登記記録の閉鎖等,0,2026-02-10,2026-02-06,有限会社スィンパスィー,,有限会社,愛知県,犬山市,大字羽黒字堂ケ洞２０番地の８１,,23,215,4840894,,,2026-02-06,清算の結了等,,,2015-10-05,1,,,,,スィンパスィー,0
1295,5190003000800,登記記録の閉鎖等,0,2026-02-10,2026-02-06,合同会社ＳＰＩＲＡＬＮＥＴ,,合同会社,三重県,鈴鹿市,住吉５丁目８番２５号,,24,207,5130826,,,2026-02-06,清算の結了等,,,2015-10-05,1,,,,,スパイラルネット,0
1296,5200001037842,登記記録の閉鎖等,0,2026-02-10,2026-02-05,株式会社フロンティア,,株式会社,岐阜県,岐阜市,今嶺１丁目１９番５号,,21,201,5008388,,,2026-02-05,清算の結了等,,,2020-09-16,1,,,,,フロンティア,0
1305,5230001008808,登記記録の閉鎖等,0,2026-02-10,2026-01-30,ヨシダ運送株式会社,,株式会社,富山県,南砺市,松木５番地,,16,210,9391623,,,2026-01-30,合併による解散等,7230001012881,令和８年１月２１日富山県射水市新開発６５０番地の１株式会社ヨシダ（7230001012881）に合併し解散,2015-10-05,1,,,,,ヨシダウンソウ,0
1307,5230002001027,登記記録の閉鎖等,0,2026-02-10,2026-02-05,有限会社クリーンアップ,,有限会社,富山県,富山市,音羽町２丁目２番１号,,16,201,9300037,,,2026-02-05,清算の結了等,,,2015-10-05,1,,,,,クリーンアップ,0
1311,5240002052003,登記記録の閉鎖等,0,2026-02-10,2026-02-04,有限会社写真のビッグ,,有限会社,広島県,尾道市,吉和町４５３０番地の３,,34,205,7220008,,,2026-02-04,清算の結了等,,,2015-10-05,1,,,,,シャシンノビッグ,0
1312,5240005014611,登記記録の閉鎖等,0,2026-02-10,2026-02-06,一般社団法人ボンズプロジェクト,,その他の設立登記法人,広島県,広島市佐伯区,湯来町大字伏谷２５番地１,,34,108,7380513,,,2026-02-06,清算の結了等,,,2018-05-24,1,,,,,ボンズプロジェクト,0
1314,5250002001181,登記記録の閉鎖等,0,2026-02-10,2026-02-06,有限会社のむら,,有限会社,山口県,山口市,大内御堀５丁目１１番３号,,35,203,7530214,,,2026-02-06,清算の結了等,,,2015-10-05,1,,,,,ノムラ,0
1328,5310005008597,登記記録の閉鎖等,0,2026-02-10,2026-02-09,大和商工協同組合,,その他の設立登記法人,長崎県,長崎市,栄町４番１５号２階,,42,201,8500875,,,2026-02-09,清算の結了等,,,2022-03-17,1,,,,,ヤマトショウコウ,0
1334,5330002001355,登記記録の閉鎖等,0,2026-02-10,2026-02-03,有限会社エコーリリーフ,,有限会社,熊本県,熊本市東区,戸島５丁目１５番２１号,,43,102,8618041,,,2026-02-03,清算の結了等,,,2015-10-05,1,,,,,エコーリリーフ,0
1350,5380002035662,登記記録の閉鎖等,0,2026-02-10,2026-02-03,有限会社南建築設計事務所,,有限会社,福島県,南会津郡只見町,大字只見字上ノ原１６８９番地４,,07,367,9680421,,,2026-02-03,清算の結了等,,,2015-10-05,1,,,,,ミナミケンチクセッケイジムショ,0
1358,5410002006437,登記記録の閉鎖等,0,2026-02-10,2026-02-06,有限会社グリーンサポート男鹿,,有限会社,秋田県,男鹿市,五里合箱井字町屋田２４７番地２,,05,206,0100351,,,2026-02-06,清算の結了等,,,2015-10-05,1,,,,,グリーンサポートオガ,0
1389,6010002032927,登記記録の閉鎖等,0,2026-02-10,2026-01-20,有限会社アイティーファーム,,有限会社,東京都,文京区,千石４丁目４４番８号,,13,105,1120011,,,2026-01-20,清算の結了等,,,2015-10-05,1,,,,,アイティーファーム,0
1390,6010003036373,登記記録の閉鎖等,0,2026-02-10,2026-01-21,合同会社オルタナ９,,合同会社,東京都,千代田区,丸の内１丁目４番１号東京共同会計事務所内,,13,101,1000005,,,2026-01-21,清算の結了等,,,2021-11-25,1,,,,,オルタナナイン,0
1403,6010005039424,登記記録の閉鎖等,0,2026-02-10,2026-02-03,一般社団法人１５,,その他の設立登記法人,東京都,千代田区,丸の内１丁目４番１号東京共同会計事務所内,,13,101,1000005,,,2026-02-03,清算の結了等,,,2025-01-20,1,,,,,ジュウゴ,0
1404,6010101011344,登記記録の閉鎖等,0,2026-02-10,2026-02-03,トフコ株式会社,,株式会社,東京都,日野市,多摩平３丁目２番地の１,,13,212,1910062,,,2026-02-03,清算の結了等,,,2015-10-05,1,,,,,トフコ,0
1411,6010601019564,登記記録の閉鎖等,0,2026-02-10,2026-02-02,株式会社ノア・オートシステム,,株式会社,東京都,墨田区,亀沢３丁目１番１号,,13,107,1300014,,,2026-02-02,清算の結了等,,,2015-10-05,1,,,,,ノアオートシステム,0
1416,6010701033548,登記記録の閉鎖等,0,2026-02-10,2026-02-05,株式会社ネイリス,,株式会社,埼玉県,羽生市,西４丁目２０番地１,,11,216,3480054,,,2026-02-05,合併による解散等,2011501001970,令和８年２月１日東京都北区赤羽西六丁目１０番２２号十条ケミカル株式会社（2011501001970）に合併し解散,2017-01-11,1,,,,,ネイリス,0
1437,6011105009358,登記記録の閉鎖等,0,2026-02-10,2026-02-04,一般社団法人図解総研,,その他の設立登記法人,東京都,千代田区,神田須田町１丁目１番地１ＡＬＥＳ３階,,13,101,1010041,,,2026-02-04,清算の結了等,,,2020-05-14,1,,,,,ズカイソウケン,0
1494,6120001176920,登記記録の閉鎖等,0,2026-02-10,2026-02-06,テイケン株式会社,,株式会社,京都府,福知山市,字天田７１番地の３,,26,201,6200000,,,2026-02-06,清算の結了等,,,2015-10-05,1,,,,,テイケン,0
1495,6120001188544,登記記録の閉鎖等,0,2026-02-10,2026-02-05,株式会社Ｙ’ｓ　Ｆａｃｔｏｒｙ,,株式会社,大阪府,枚方市,朝日丘町１０番４７－２号,,27,210,5730026,,,2026-02-05,合併による解散等,7120001149280,令和８年２月１日大阪府交野市幾野五丁目１５番５号関西金属工業株式会社（7120001149280）に合併し解散,2015-10-05,1,,,,,ワイズファクトリー,0
1501,6120003025126,登記記録の閉鎖等,0,2026-02-10,2026-02-05,合同会社優光,,合同会社,大阪府,大阪市淀川区,宮原１丁目１９番２３号６０６号室,,27,123,5320003,,,2026-02-05,合併による解散等,9010903003734,令和８年１月３１日大阪市淀川区宮原１－１９－２３ステュディオ新御堂６０６合同会社Ｂｉｇ　Ｍｏｍ（9010903003734）に合併し解散,2023-10-19,1,,,,,ユウコウ,0
1538,6180302000872,登記記録の閉鎖等,0,2026-02-10,2026-02-02,有限会社かとう建築事務所,,有限会社,愛知県,岡崎市,奥殿町字石飛７５番地,,23,202,4442108,,,2026-02-02,清算の結了等,,,2015-10-05,1,,,,,カトウケンチクジムショ,0
1546,6230001000292,登記記録の閉鎖等,0,2026-02-10,2026-02-06,今田塗装工業株式会社,,株式会社,富山県,富山市,羽根４６番地の１,,16,201,9300864,,,2026-02-06,清算の結了等,,,2015-10-05,1,,,,,イマダトソウコウギョウ,0
1553,6240002033489,登記記録の閉鎖等,0,2026-02-10,2026-02-05,有限会社十河商店,,有限会社,広島県,呉市,警固屋３丁目２番１４号,,34,202,7370012,,,2026-02-05,清算の結了等,,,2015-10-05,1,,,,,ソゴウショウテン,0
1555,6240003005743,登記記録の閉鎖等,0,2026-02-10,2026-02-03,合同会社善恵,,合同会社,広島県,広島市東区,山根町３９番１２号,,34,102,7320048,,,2026-02-03,清算の結了等,,,2022-08-03,1,,,,,ゼンケイ,0
1557,6250002017813,登記記録の閉鎖等,0,2026-02-10,2026-02-02,有限会社オダ薬局,,有限会社,山口県,岩国市,昭和町１丁目１８番４号,,35,208,7400004,,,2026-02-02,清算の結了等,,,2015-10-05,1,,,,,オダヤッキョク,0
1570,6290801030509,登記記録の閉鎖等,0,2026-02-10,2026-02-02,株式会社アエナ飲料,,株式会社,東京都,世田谷区,三軒茶屋２丁目２番１６号,,13,112,1540024,,,2026-02-02,合併による解散等,8010901017654,令和８年２月１日東京都世田谷区三軒茶屋二丁目２番１６号株式会社アエナ（8010901017654）に合併し解散,2024-04-17,1,,,,,アエナインリョウ,0
1581,6340001024207,登記記録の閉鎖等,0,2026-02-10,2026-02-04,株式会社Ｌｉａｎａｈ,,株式会社,鹿児島県,鹿児島市,西谷山２丁目１９番１３号,,46,201,8910117,,,2026-02-04,清算の結了等,,,2021-11-05,1,,,,,リアンナ,0
1598,6420001000496,登記記録の閉鎖等,0,2026-02-10,2026-02-04,梅津商事株式会社,,株式会社,青森県,青森市,大字安田字近野３０５番地,,02,201,0380021,,,2026-02-04,清算の結了等,,,2015-10-05,1,,,,,ウメヅショウジ,0
1600,6420001015032,登記記録の閉鎖等,0,2026-02-10,2026-02-03,株式会社中谷土建,,株式会社,青森県,青森市,大字新城字平岡２１２番地２０,,02,201,0380042,,,2026-02-03,清算の結了等,,,2016-01-08,1,,,,,ナカヤドケン,0
1609,6440002007324,登記記録の閉鎖等,0,2026-02-10,2026-02-05,有限会社寺島建設,,有限会社,北海道,函館市,桔梗２丁目２番１５号,,01,202,0410808,,,2026-02-05,清算の結了等,,,2015-10-05,1,,,,,テラシマケンセツ,0
1613,6460102006521,登記記録の閉鎖等,0,2026-02-10,2026-02-05,有限会社山上やまもと,,有限会社,北海道,十勝郡浦幌町,字末広町４番地,,01,649,0895602,,,2026-02-05,清算の結了等,,,2015-10-05,1,,,,,ヤマジョウヤマモト,0
1617,6480001000169,登記記録の閉鎖等,0,2026-02-10,2026-02-06,株式会社アロー,,株式会社,徳島県,徳島市,問屋町５２番地,,36,201,7708056,,,2026-02-06,清算の結了等,,,2015-10-05,1,,,,,アロー,0
1619,6480002010613,登記記録の閉鎖等,0,2026-02-10,2026-02-06,有限会社ツジ鉄工,,有限会社,徳島県,鳴門市,撫養町林崎字北殿町１３９番地の２,,36,202,7720016,,,2026-02-06,清算の結了等,,,2015-10-05,1,,,,,ツジテッコウ,0
1652,7010601052960,登記記録の閉鎖等,0,2026-02-10,2026-02-02,ＪＦＲこどもみらい株式会社,,株式会社,東京都,江東区,木場２丁目１８番１１号,,13,108,1350042,,,2026-02-02,清算の結了等,,,2018-03-06,1,,,,,ジェイエフアールコドモミライ,0
1659,7010901015493,登記記録の閉鎖等,0,2026-02-10,2026-01-29,株式会社ＢＯＮＡ,,株式会社,東京都,世田谷区,宮坂３丁目７番６,,13,112,1560051,,,2026-01-29,清算の結了等,,,2015-10-05,1,,,,,,0
1677,7011101077531,登記記録の閉鎖等,0,2026-02-10,2026-01-14,健康コーポレーション株式会社,,株式会社,東京都,新宿区,西新宿８丁目１７番１号,,13,104,1600023,,,2026-01-14,合併による解散等,2011201014257,令和８年１月１日東京都新宿区西新宿八丁目１７番１号ＲＩＺＡＰ株式会社（2011201014257）に合併し解散,2016-07-14,1,,,,,ケンコウコーポレーション,0
1684,7011103010275,登記記録の閉鎖等,0,2026-02-10,2026-02-05,株式会社ｉａｍ,,株式会社,東京都,新宿区,西新宿３丁目３番１３号西新宿水間ビル２Ｆ,,13,104,1600023,,,2026-02-05,合併による解散等,4010401193776,令和７年１２月３１日東京都港区南青山三丁目１番３６号青山丸竹ビル６Ｆ株式会社ＬＴＧ　Ｇｒｏｕｐ（4010401193776）に合併し解散,2020-12-25,1,,,,,アイエーエム,0
1703,7012802007446,登記記録の閉鎖等,0,2026-02-10,2026-02-03,有限会社セレブロ,,有限会社,東京都,立川市,錦町１丁目４番４号サニービル２Ｆ、ＣＳ－２００,,13,202,1900022,,,2026-02-03,清算の結了等,,,2015-10-05,1,,,,,セレブロ,0
1705,7013101001132,登記記録の閉鎖等,0,2026-02-10,2026-02-09,ハーブ化粧品株式会社,,株式会社,東京都,福生市,加美平３丁目１５番地１０号,,13,218,1970012,,,2026-02-09,清算の結了等,,,2015-10-05,1,,,,,ハーブケショウヒン,0
1707,7020001012580,登記記録の閉鎖等,0,2026-02-10,2026-02-03,株式会社江戸家,,株式会社,神奈川県,横浜市南区,日枝町３丁目７５番地－９０２号,,14,105,2320011,,,2026-02-03,清算の結了等,,,2015-10-05,1,,,,,エドヤ,0
1750,7120001204424,登記記録の閉鎖等,0,2026-02-10,2026-02-04,アシダブラザーズ株式会社,,株式会社,大阪府,大阪市北区,天神橋６丁目２番１８号,,27,127,5300041,,,2026-02-04,清算の結了等,,,2017-03-16,1,,,,,アシダブラザーズ,0
1751,7120001230734,登記記録の閉鎖等,0,2026-02-10,2026-02-02,株式会社Ｂｓｈｉｐ,,株式会社,大阪府,大阪市北区,梅田１丁目１１番４号大阪駅前第４ビル９階９２３－１６９７号,,27,127,5300001,,,2026-02-02,合併による解散等,5120001180709,令和８年２月１日大阪市中央区道修町一丁目２番１１号アルテビル道修町２０１号室株式会社Ｗａｐｌｕｓ（5120001180709）に合併し解散,2020-08-06,1,,,,,ビシップ,0
1775,7130001038177,登記記録の閉鎖等,0,2026-02-10,2026-02-05,株式会社パルステック,,株式会社,京都府,八幡市,上奈良城垣内２２番地,,26,210,6148155,,,2026-02-05,合併による解散等,3240001003974,令和８年２月１日広島市南区比治山本町６番５号株式会社三光電子製作所（3240001003974）に合併し解散,2015-10-05,1,,,,,パルステック,0
1793,7200002011761,登記記録の閉鎖等,0,2026-02-10,2026-02-05,有限会社ブティック藤,,有限会社,岐阜県,羽島郡岐南町,伏屋２丁目９番地の１,,21,302,5016006,,,2026-02-05,清算の結了等,,,2015-10-05,1,,,,,ブティックフジ,0
1808,7290005009514,登記記録の閉鎖等,0,2026-02-10,2026-02-04,ＮＰＯ法人権利擁護支援センターふくおかネット,,その他の設立登記法人,福岡県,久留米市,日吉町２３番地３メディア７ビル６階,,40,203,8300017,,,2026-02-04,清算の結了等,,,2015-10-05,1,,,,,ケンリヨウゴシエンセンターフクオカネット,0
1820,7350001005106,登記記録の閉鎖等,0,2026-02-10,2026-02-04,株式会社宏匡建設,,株式会社,宮崎県,宮崎市,田野町乙１０６７４番地５,,45,201,8891702,,,2026-02-04,清算の結了等,,,2015-10-05,1,,,,,ヒロマサケンセツ,0
1843,7430002042742,登記記録の閉鎖等,0,2026-02-10,2026-02-05,有限会社菱冷サービス,,有限会社,北海道,札幌市白石区,菊水八条２丁目２番２８号,,01,104,0030808,,,2026-02-05,清算の結了等,,,2015-10-05,1,,,,,リョウレイサービス,0
1868,8010003047179,登記記録の閉鎖等,0,2026-02-10,2026-01-22,エスティ１６合同会社,,合同会社,東京都,千代田区,丸の内１丁目４番１号東京共同会計事務所内,,13,101,1000005,,,2026-01-22,清算の結了等,,,2025-04-25,1,,,,,エスティジュウロク,0
1877,8010401005795,登記記録の閉鎖等,0,2026-02-10,2026-01-19,株式会社オーソドンティックランドシステム,,株式会社,東京都,港区,白金台１丁目１番２１―５０４号,,13,103,1080071,,,2026-01-19,清算の結了等,,,2015-10-05,1,,,,,オーソドンティックランドシステム,0
1885,8010403025908,登記記録の閉鎖等,0,2026-02-10,2026-01-15,合同会社ＵｗＵ,,合同会社,東京都,港区,南青山２丁目２番１５号,,13,103,1070062,,,2026-01-15,清算の結了等,,,2021-08-16,1,,,,,ユーダブリューユー,0
1895,8010905001919,登記記録の閉鎖等,0,2026-02-10,2026-01-30,特定非営利活動法人チャイルド・フォーラム,,その他の設立登記法人,東京都,大田区,北馬込２丁目１０番２－２１１号,,13,111,1430021,,,2026-01-30,清算の結了等,,,2015-10-05,1,,,,,チャイルドフォーラム,0
1901,8011101041453,登記記録の閉鎖等,0,2026-02-10,2026-02-06,株式会社ドリーマーソフト,,株式会社,東京都,新宿区,山吹町３３２番地,,13,104,1620801,,,2026-02-06,清算の結了等,,,2015-10-05,1,,,,,ドリーマーソフト,0
1909,8011105010306,登記記録の閉鎖等,0,2026-02-10,2026-01-14,一般社団法人経筋バランスケアセラピスト協会,,その他の設立登記法人,東京都,新宿区,上落合３丁目８－２５ＦＬＡＭＰ１３０３,,13,104,1610034,,,2026-01-14,清算の結了等,,,2022-06-28,1,,,,,ケイキンバランスケアセラピストキョウカイ,0
1920,8011801043229,登記記録の閉鎖等,0,2026-02-10,2026-02-06,株式会社Ｌｉｖｅｐｏｋｅｒ,,株式会社,東京都,葛飾区,堀切３丁目５－２,,13,122,1240006,,,2026-02-06,清算の結了等,,,2023-10-26,1,,,,,ライブポーカー,0
1928,8012702000715,登記記録の閉鎖等,0,2026-02-10,2026-01-29,有限会社幸喜,,有限会社,東京都,小平市,上水本町５丁目１２番１１号,,13,211,1870022,,,2026-01-29,清算の結了等,,,2015-10-05,1,,,,,コウキ,0
1930,8012803002783,登記記録の閉鎖等,0,2026-02-10,2026-02-03,合同会社Ｐａｄｏｏｄｏｏ,,合同会社,東京都,国分寺市,光町１丁目４１番地５ソフトタウン武蔵野５０５,,13,214,1850034,,,2026-02-03,清算の結了等,,,2022-05-23,1,,,,,パドゥドゥ,0
1940,8021003002222,登記記録の閉鎖等,0,2026-02-10,2026-02-04,ＲＵＲＩ　Ｔｅｃｈｎｏｌｏｇｉｅｓ合同会社,,合同会社,神奈川県,鎌倉市,長谷２丁目１１－４３マリン・ピュエール長谷１－Ｂ,,14,204,2480016,,,2026-02-04,合併による解散等,8010001232311,令和７年１２月２４日東京都中央区銀座６－６－１銀座風月堂ビル５Ｆ株式会社ＲＵＲＩ　Ｓｏｃｉａｌ　Ｉｎｎｏｖａｔｉｏｎ（8010001232311）に合併し解散,2015-10-05,1,,,,,ルリテクノロジーズ,0
1981,8050002000325,登記記録の閉鎖等,0,2026-02-10,2026-01-28,有限会社井坂製作所,,有限会社,茨城県,水戸市,大塚町１１１１番地,,08,201,3114143,,,2026-01-28,清算の結了等,,,2015-10-05,1,,,,,イサカセイサクショ,0
1982,8050005011773,登記記録の閉鎖等,0,2026-02-10,2026-01-30,一般社団法人日本メディカルアシスト,,その他の設立登記法人,茨城県,取手市,片町３５８番地１,,08,217,3001513,,,2026-01-30,清算の結了等,,,2015-12-02,1,,,,,ニホンメディカルアシスト,0
1990,8070002026087,登記記録の閉鎖等,0,2026-02-10,2026-02-06,有限会社加藤設備,,有限会社,群馬県,渋川市,川島４７０番地,,10,208,3770025,,,2026-02-06,清算の結了等,,,2015-10-05,1,,,,,カトウセツビ,0
2004,8120001147036,登記記録の閉鎖等,0,2026-02-10,2026-02-06,エスケー株式会社,,株式会社,大阪府,交野市,幾野６丁目３３番２号,,27,230,5760054,,,2026-02-06,清算の結了等,,,2015-10-05,1,,,,,エスケー,0
2014,8120003008145,登記記録の閉鎖等,0,2026-02-10,2026-02-04,合同会社ウェビフィールド,,合同会社,大阪府,大阪市平野区,加美正覚寺３丁目５番３０号,,27,126,5470006,,,2026-02-04,清算の結了等,,,2015-10-05,1,,,,,ウェビフィールド,0
2024,8120901001201,登記記録の閉鎖等,0,2026-02-10,2026-02-02,株式会社ダイトー,,株式会社,大阪府,茨木市,稲葉町１５番２８号,,27,211,5670827,,,2026-02-02,清算の結了等,,,2015-10-05,1,,,,,ダイトー,0
2027,8120902007486,登記記録の閉鎖等,0,2026-02-10,2026-02-09,有限会社フクイ,,有限会社,大阪府,吹田市,江坂町２丁目４番２５号,,27,205,5640063,,,2026-02-09,清算の結了等,,,2015-10-05,1,,,,,フクイ,0
2039,8150001019133,登記記録の閉鎖等,0,2026-02-10,2026-02-05,リンクハート株式会社,,株式会社,奈良県,桜井市,大字阿部４８５番地の９,,29,206,6330054,,,2026-02-05,清算の結了等,,,2015-10-05,1,,,,,リンクハート,0
2045,8180001076790,登記記録の閉鎖等,0,2026-02-10,2026-02-02,株式会社栄光,,株式会社,愛知県,春日井市,十三塚町３番地２,,23,206,4860815,,,2026-02-02,清算の結了等,,,2015-10-05,1,,,,,エイコウ,0
2047,8180003022512,登記記録の閉鎖等,0,2026-02-10,2026-02-03,合同会社アテンザ,,合同会社,愛知県,一宮市,春明字神明山６４番地１,,23,203,4910003,,,2026-02-03,清算の結了等,,,2021-05-24,1,,,,,アテンザ,0
2052,8180301027618,登記記録の閉鎖等,0,2026-02-10,2026-02-03,ＶＥＳＴ株式会社,,株式会社,愛知県,蒲郡市,三谷北通６丁目７１番地,,23,214,4430022,,,2026-02-03,清算の結了等,,,2015-10-05,1,,,,,ヴェスタ,0
2059,8200001032741,登記記録の閉鎖等,0,2026-02-10,2026-02-04,株式会社オグラプレス,,株式会社,岐阜県,岐阜市,茜部辰新１丁目８２番地２,,21,201,5008264,,,2026-02-04,清算の結了等,,,2016-04-11,1,,,,,,0
2067,8240001004464,登記記録の閉鎖等,0,2026-02-10,2026-02-02,株式会社シオザイム,,株式会社,広島県,広島市南区,東雲本町２丁目８番７号,,34,103,7340023,,,2026-02-02,合併による解散等,9240001011179,令和８年１月３１日広島市南区東雲本町二丁目８番７号株式会社丸善企画（9240001011179）に合併し解散,2015-10-05,1,,,,,シオザイム,0
2080,8290002047978,登記記録の閉鎖等,0,2026-02-10,2026-02-05,有限会社ジョイックスジャパン,,有限会社,佐賀県,神埼市,千代田町迎島５４７番地８,,41,210,8420063,,,2026-02-05,清算の結了等,,,2015-10-05,1,,,,,ジョイックスジャパン,0
2089,8330003010311,登記記録の閉鎖等,0,2026-02-10,2026-02-04,合同会社白‐ＨＡＫＵ,,合同会社,熊本県,菊池郡菊陽町,光の森７丁目２４番１０号オンブラージュ光の森１０１,,43,404,8691108,,,2026-02-04,清算の結了等,,,2024-04-11,1,,,,,ハクハク,0
2095,8370001019400,登記記録の閉鎖等,0,2026-02-10,2026-02-06,株式会社ファミリア,,株式会社,宮城県,名取市,杜せきのした５丁目３１番１号,,04,207,9811227,,,2026-02-06,清算の結了等,,,2015-10-05,1,,,,,ファミリア,0
2098,8370201002263,登記記録の閉鎖等,0,2026-02-10,2026-02-04,株式会社白石呉服店,,株式会社,宮城県,遠田郡美里町,二郷字高玉四号９番地の５,,04,505,9894206,,,2026-02-04,清算の結了等,,,2015-10-05,1,,,,,シライシゴフクテン,0
2099,8380001024498,登記記録の閉鎖等,0,2026-02-10,2026-02-05,株式会社遠藤工業,,株式会社,福島県,いわき市,平豊間字原町１番地の２,,07,204,9700224,,,2026-02-05,清算の結了等,,,2015-10-05,1,,,,,エンドウコウギョウ,0
2157,9010502014736,登記記録の閉鎖等,0,2026-02-10,2026-01-29,有限会社山茂商店,,有限会社,東京都,台東区,東上野１丁目２４番２号,,13,106,1100015,,,2026-01-29,清算の結了等,,,2015-10-05,1,,,,,ヤマモショウテン,0
2159,9010601018720,登記記録の閉鎖等,0,2026-02-10,2026-02-02,株式会社カタギリ,,株式会社,東京都,墨田区,太平２丁目１１番５号,,13,107,1300012,,,2026-02-02,清算の結了等,,,2015-10-05,1,,,,,カタギリ,0
2162,9010602021211,登記記録の閉鎖等,0,2026-02-10,2026-02-02,有限会社船橋屋菓子司,,有限会社,東京都,江東区,住吉１丁目１９番１－１１８号,,13,108,1350002,,,2026-02-02,清算の結了等,,,2015-10-05,1,,,,,フナバシヤカシツカサ,0
2164,9010801009404,登記記録の閉鎖等,0,2026-02-10,2026-01-30,株式会社ニチデン,,株式会社,東京都,大田区,大森東４丁目３８番８号,,13,111,1430012,,,2026-01-30,清算の結了等,,,2015-10-05,1,,,,,ニチデン,0
2168,9011001104375,登記記録の閉鎖等,0,2026-02-10,2026-01-15,株式会社渋谷土木設計事務所,,株式会社,東京都,渋谷区,南平台町２番６号,,13,113,1500036,,,2026-01-15,清算の結了等,,,2015-10-05,1,,,,,シブヤドボクセッケイジムショ,0
2174,9011101062481,登記記録の閉鎖等,0,2026-02-10,2026-02-03,株式会社ＴＣＪ,,株式会社,東京都,新宿区,四谷４丁目８番地,,13,104,1600004,,,2026-02-03,清算の結了等,,,2015-10-05,1,,,,,ティーシージェー,0
2177,9011101106172,登記記録の閉鎖等,0,2026-02-10,2026-01-15,株式会社ＳＳＫＮ,,株式会社,東京都,新宿区,北新宿３丁目７番１８号,,13,104,1690074,,,2026-01-15,清算の結了等,,,2024-02-14,1,,,,,エスエスケーエヌ,0
2180,9011105010833,登記記録の閉鎖等,0,2026-02-10,2026-01-14,狭山ロジ一般社団法人,,その他の設立登記法人,東京都,新宿区,四谷２丁目９番地１５東京ユナイテッド綜合事務所内,,13,104,1600004,,,2026-01-14,清算の結了等,,,2023-11-06,1,,,,,サヤマロジ,0
2207,9020002106438,登記記録の閉鎖等,0,2026-02-10,2026-02-03,有限会社Ｂクリエイト,,有限会社,神奈川県,横浜市泉区,和泉町７８９４番地２,,14,116,2450016,,,2026-02-03,清算の結了等,,,2015-10-05,1,,,,,ビークリエイト,0
2211,9021001011083,登記記録の閉鎖等,0,2026-02-10,2026-01-21,株式会社アクアテック,,株式会社,神奈川県,相模原市中央区,共和１丁目７番２２号,,14,152,2520234,,,2026-01-21,清算の結了等,,,2015-10-05,1,,,,,アクアテック,0
2237,9060003000891,登記記録の閉鎖等,0,2026-02-10,2026-02-06,三井質店合同会社,,合同会社,栃木県,小山市,城山町３丁目６番５号,,09,208,3230025,,,2026-02-06,清算の結了等,,,2015-10-05,1,,,,,ミツイシチテン,0
2241,9080001012961,登記記録の閉鎖等,0,2026-02-10,2026-02-05,株式会社オレンジステンレス,,株式会社,静岡県,島田市,東町２０８８番地の１,,22,209,4270011,,,2026-02-05,清算の結了等,,,2015-10-05,1,,,,,オレンジステンレス,0
2242,9080101009692,登記記録の閉鎖等,0,2026-02-10,2026-02-04,株式会社松岡製作所,,株式会社,静岡県,富士市,松岡３４７番地の３,,22,210,4160909,,,2026-02-04,清算の結了等,,,2015-10-05,1,,,,,マツオカセイサクショ,0
2278,9122002002193,登記記録の閉鎖等,0,2026-02-10,2026-02-04,有限会社サンタッチ,,有限会社,大阪府,東大阪市,衣摺１丁目４番３８号,00034664,27,227,5770827,,,2026-02-04,清算の結了等,,,2015-10-05,1,,,,,サンタッチ,0
2305,9220002008515,登記記録の閉鎖等,0,2026-02-10,2026-02-06,有限会社キングマシン,,有限会社,石川県,金沢市,広岡１丁目１１番４号,,17,201,9200031,,,2026-02-06,清算の結了等,,,2015-10-05,1,,,,,キングマシン,0
2323,9290001052581,登記記録の閉鎖等,0,2026-02-10,2026-02-02,テクノファ九州株式会社,,株式会社,熊本県,八代市,竹原町１５５３,,43,202,8660826,,,2026-02-02,清算の結了等,,,2015-10-05,1,,,,,,0
2342,9360001008287,登記記録の閉鎖等,0,2026-02-10,2026-02-04,株式会社Ｓｕｎｔｅａ　Ａ・Ｋ,,株式会社,沖縄県,うるま市,字州崎８番地１５,,47,213,9042234,,,2026-02-04,清算の結了等,,,2015-10-05,1,,,,,,0
2344,9370001040223,登記記録の閉鎖等,0,2026-02-10,2026-02-02,株式会社若木,,株式会社,宮城県,仙台市太白区,西中田７丁目１２番１８号,,04,104,9811105,,,2026-02-02,清算の結了等,,,2016-09-14,1,,,,,オサナギ,0
2351,9380002008053,登記記録の閉鎖等,0,2026-02-10,2026-02-05,有限会社鰻飛鳥,,有限会社,福島県,郡山市,名郷田１丁目１４番地,,07,203,9638043,,,2026-02-05,清算の結了等,,,2015-10-05,1,,,,,ウナギアスカ,0
2358,9420001018817,登記記録の閉鎖等,0,2026-02-10,2026-01-23,株式会社セフィロト,,株式会社,青森県,五所川原市,大字新宮字岡田１１３番地２,,02,205,0370081,,,2026-01-23,清算の結了等,,,2024-08-02,1,,,,,セフィロト,0
