sequenceNumber,corporateNumber,process,correct,updateDate,changeDate,name,nameImageId,kind,prefectureName,cityName,streetNumber,addressImageId,prefectureCode,cityCode,postCode,addressOutside,addressOutsideImageId,closeDate,closeCause,successorCorporateNumber,changeCause,assignmentDate,latest,enName,enPrefectureName,enCityName,enAddressOutside,furigana,hihyoji
4,1010001142590,登記記録の閉鎖等,0,2023-04-10,2023-03-31,フェイス３４株式会社,,株式会社,東京都,中央区,日本橋室町４丁目３番５号,,13,102,1030022,,,2023-03-31,合併による解散等,9010001044664,令和５年３月３１日東京都中央区日本橋室町四丁目３番５号山陽化工株式会社（9010001044664）に合併し解散,2015-10-05,1,,,,,フェイスサンヨウ,0
20,1010003022386,登記記録の閉鎖等,0,2023-04-10,2023-04-03,オージョワ・インターナショナル合同会社,,合同会社,東京都,中央区,東日本橋２丁目２８番４号日本橋ＣＥＴビル２階,,13,102,1030004,,,2023-04-03,清算の結了等,,,2015-10-05,1,,,,,オージョワインターナショナル,0
36,1010401143172,登記記録の閉鎖等,0,2023-04-10,2023-04-03,株式会社ＺＥＳＳ,,株式会社,東京都,品川区,東五反田５丁目２２番３７号,,13,109,1410022,,,2023-04-03,合併による解散等,2011001069922,令和５年４月１日東京都品川区上大崎三丁目１４番１２号株式会社ネットネイティブ（2011001069922）に合併し解散,2019-01-18,1,,,,,ゼス,0
49,1010601060127,登記記録の閉鎖等,0,2023-04-10,2023-04-03,株式会社ロボティックジェーコンピュータ,,株式会社,東京都,江東区,東陽５丁目２３番６－４０５号,,13,108,1350016,,,2023-04-03,清算の結了等,,,2021-10-26,1,,,,,ロボティックジェーコンピュータ,0
58,1010701029749,登記記録の閉鎖等,0,2023-04-10,2023-04-03,株式会社ベネセレ,,株式会社,東京都,品川区,荏原６丁目１８番１６号,,13,109,1420063,,,2023-04-03,合併による解散等,4020001097823,令和５年４月１日東京都品川区荏原六丁目１８番１６号株式会社フェリーチェ（4020001097823）に合併し解散,2015-10-05,1,,,,,ベネセレ,0
63,1010901029375,登記記録の閉鎖等,0,2023-04-10,2023-04-06,株式会社フルリ,,株式会社,東京都,世田谷区,野沢２丁目１５番５号,,13,112,1540003,,,2023-04-06,合併による解散等,7013201017301,令和５年３月２５日さいたま市南区南本町一丁目２番６号株式会社エクスプラウド（7013201017301）に合併し解散,2015-10-05,1,,,,,フルリ,0
75,1011101019167,登記記録の閉鎖等,0,2023-04-10,2023-04-05,株式会社富士小山ゴルフクラブ,,株式会社,東京都,新宿区,西新宿１丁目８番３号,,13,104,1600023,,,2023-04-05,合併による解散等,5011001005057,令和５年４月１日東京都渋谷区代々木二丁目２８番１２号株式会社小田急スポーツサービス（5011001005057）に合併し解散,2015-10-05,1,,,,,フジオヤマゴルフクラブ,0
103,1011701003280,登記記録の閉鎖等,0,2023-04-10,2023-04-03,三幸社印刷株式会社,,株式会社,東京都,江戸川区,南小岩６丁目２６番１２号,,13,123,1330056,,,2023-04-03,清算の結了等,,,2015-10-05,1,,,,,,0
109,1012401024542,登記記録の閉鎖等,0,2023-04-10,2023-03-31,株式会社日宅建設,,株式会社,東京都,武蔵野市,吉祥寺南町２丁目１１番１８号,,13,203,1800003,,,2023-03-31,清算の結了等,,,2015-10-05,1,,,,,ニッタクケンセツ,0
133,1021001051260,登記記録の閉鎖等,0,2023-04-10,2023-04-03,ＧＡＲＡ　ｅｎｔｒａ株式会社,,株式会社,神奈川県,茅ヶ崎市,幸町２番１０－２０５号,,14,207,2530052,,,2023-04-03,清算の結了等,,,2015-10-05,1,,,,,ガラエントラ,0
151,1040005004371,登記記録の閉鎖等,0,2023-04-10,2023-04-03,高周波精密労働組合,,その他の設立登記法人,千葉県,市川市,東浜１丁目１番地,,12,203,2720003,,,2023-04-03,清算の結了等,,,2015-10-05,1,,,,,コウシュウハセイミツ,0
156,1050001040865,登記記録の閉鎖等,0,2023-04-10,2023-03-31,株式会社バイオパワーＢ,,株式会社,茨城県,つくば市,花室９６２番地３,,08,220,3050025,,,2023-03-31,清算の結了等,,,2016-04-25,1,,,,,バイオパワービー,0
158,1050005010583,登記記録の閉鎖等,0,2023-04-10,2023-03-31,特定非営利活動法人あしたを拓く有機農業塾,,その他の設立登記法人,茨城県,笠間市,随分附１１６４番地６５,,08,216,3091711,,,2023-03-31,清算の結了等,,,2015-10-05,1,,,,,アシタヲヒラクユウキノウギョウジュク,0
159,1050005012571,登記記録の閉鎖等,0,2023-04-10,2023-03-31,協同組合ひたちオネスト,,その他の設立登記法人,茨城県,日立市,桜川町２丁目１４１番,,08,202,3160002,,,2023-03-31,清算の結了等,,,2019-09-12,1,,,,,ヒタチオネスト,0
183,1120001203613,登記記録の閉鎖等,0,2023-04-10,2023-04-03,株式会社ビジョンアカデミー,,株式会社,大阪府,大阪市天王寺区,堀越町９番２０－４０２号,,27,109,5430056,,,2023-04-03,清算の結了等,,,2017-02-10,1,,,,,,0
191,1120005015757,登記記録の閉鎖等,0,2023-04-10,2023-04-06,一般社団法人生活デザイン研究機構,,その他の設立登記法人,大阪府,大阪市東住吉区,矢田２丁目９番２０号,,27,121,5460023,,,2023-04-06,清算の結了等,,,2015-10-05,1,,,,,セイカツデザインケンキュウキコウ,0
213,1140001038009,登記記録の閉鎖等,0,2023-04-10,2023-03-31,株式会社福禄寿,,株式会社,兵庫県,宝塚市,武庫山１丁目１番３６号,,28,214,6650005,,,2023-03-31,清算の結了等,,,2015-10-05,1,,,,,フクロクジュ,0
218,1140001128478,登記記録の閉鎖等,0,2023-04-10,2023-04-03,株式会社ランドベース,,株式会社,兵庫県,西宮市,津門綾羽町４番１１号,,28,204,6638244,,,2023-04-03,合併による解散等,8140001070756,令和５年４月１日兵庫県西宮市津門綾羽町４番１１号株式会社ランド（8140001070756）に合併し解散,2022-12-22,1,,,,,ランドベース,0
228,1160001021144,登記記録の閉鎖等,0,2023-04-10,2023-04-05,株式会社カンファクト,,株式会社,京都府,京都市中京区,間之町通夷川上る楠町６０１番地３楠町ビル３階,,26,104,6040883,,,2023-04-05,清算の結了等,,,2018-08-24,1,,,,,カンファクト,0
264,1220002013398,登記記録の閉鎖等,0,2023-04-10,2023-04-04,有限会社相馬商会,,有限会社,石川県,小松市,東山町か８番地１,,17,203,9230842,,,2023-04-04,清算の結了等,,,2015-10-05,1,,,,,ソウマショウカイ,0
271,1250005001158,登記記録の閉鎖等,0,2023-04-10,2023-03-31,特定非営利活動法人やまぐち介護サービス評価調査ネットワーク,,その他の設立登記法人,山口県,山口市,吉敷下東３丁目１番１号山口県総合保健会館,,35,203,7530814,,,2023-03-31,清算の結了等,,,2015-10-05,1,,,,,,0
277,1290001008731,登記記録の閉鎖等,0,2023-04-10,2023-04-03,株式会社竹風,,株式会社,福岡県,福岡市中央区,天神１丁目１番１号,,40,133,8100001,,,2023-04-03,合併による解散等,4290001013670,令和５年４月１日福岡市博多区上呉服町１番１０号新出光不動産株式会社（4290001013670）に合併し解散,2015-10-05,1,,,,,チクフウ,0
303,1360002007221,登記記録の閉鎖等,0,2023-04-10,2023-04-04,有限会社白金商事,,有限会社,沖縄県,浦添市,西原２丁目１７番１４号,,47,208,9012101,,,2023-04-04,清算の結了等,,,2015-10-05,1,,,,,,0
314,1380002016146,登記記録の閉鎖等,0,2023-04-10,2023-04-05,株式会社エム・ティ,,株式会社,福島県,福島市,南矢野目字高田東１５番地１２,,07,201,9600112,,,2023-04-05,清算の結了等,,,2015-10-05,1,,,,,エムティ,0
329,1430001000789,登記記録の閉鎖等,0,2023-04-10,2023-04-03,株式会社アテック,,株式会社,北海道,札幌市清田区,清田四条２丁目６番２２号,,01,110,0040844,,,2023-04-03,清算の結了等,,,2015-10-05,1,,,,,アテック,0
361,2010003032310,登記記録の閉鎖等,0,2023-04-10,2023-03-31,Ｌｅａｐｓ＆Ｅｎｇｌｉｓｈ合同会社,,合同会社,東京都,文京区,本駒込６丁目１１番２２号パーク六義園３０２号,,13,105,1130021,,,2023-03-31,清算の結了等,,,2020-05-28,1,,,,,リープスアンドイングリッシュ,0
393,2010405017090,登記記録の閉鎖等,0,2023-04-10,2023-03-28,一般社団法人ＳＨ０１５,,その他の設立登記法人,東京都,港区,虎ノ門３丁目２２番１０－２０１号,,13,103,1050001,,,2023-03-28,清算の結了等,,,2018-09-26,1,,,,,エスエイチゼロワンファイブ,0
401,2010602033766,登記記録の閉鎖等,0,2023-04-10,2023-03-31,有限会社スタジオ・ヨンジューゴ設計事務所,,有限会社,東京都,墨田区,石原３丁目２９番１号,,13,107,1300011,,,2023-03-31,清算の結了等,,,2015-10-05,1,,,,,スタジオヨンジューゴセッケイジムショ,0
419,2011101052167,登記記録の閉鎖等,0,2023-04-10,2023-03-27,株式会社よみうり神楽坂,,株式会社,東京都,新宿区,南山伏町２番１０－９０６号,,13,104,1620854,,,2023-03-27,清算の結了等,,,2015-10-05,1,,,,,ヨミウリカグラザカ,0
421,2011101092709,登記記録の閉鎖等,0,2023-04-10,2023-04-03,株式会社デイペイ,,株式会社,東京都,新宿区,新宿４丁目３番１７号,,13,104,1600022,,,2023-04-03,合併による解散等,3011101067560,令和５年３月３１日東京都新宿区新宿一丁目２０番１３号株式会社エール（3011101067560）に合併し解散,2020-10-07,1,,,,,デイペイ,0
427,2011103008984,登記記録の閉鎖等,0,2023-04-10,2023-04-05,合同会社ジェイ・ヴイ・エフ,,合同会社,東京都,新宿区,下宮比町１番４号,,13,104,1620822,,,2023-04-05,清算の結了等,,,2019-08-01,1,,,,,ジェイヴイエフ,0
431,2011402000551,登記記録の閉鎖等,0,2023-04-10,2023-04-03,有限会社アデ川質店,,有限会社,東京都,板橋区,常盤台４丁目２４番１０号,,13,119,1740071,,,2023-04-03,清算の結了等,,,2015-10-05,1,,,,,アデガワシチテン,0
432,2011402007530,登記記録の閉鎖等,0,2023-04-10,2023-04-06,広尾物産有限会社,,有限会社,東京都,板橋区,中台３丁目２７番Ｆ－１３０７号,,13,119,1740064,,,2023-04-06,清算の結了等,,,2015-10-05,1,,,,,ヒロオブッサン,0
462,2030001144337,登記記録の閉鎖等,0,2023-04-10,2023-03-31,株式会社ＦＩＳ,,株式会社,埼玉県,さいたま市大宮区,桜木町２丁目３番地,,11,103,3300854,,,2023-03-31,清算の結了等,,,2021-09-15,1,,,,,エフアイエス,0
467,2040002004209,登記記録の閉鎖等,0,2023-04-10,2023-03-31,有限会社光和商事,,有限会社,千葉県,千葉市若葉区,野呂町５８７番地の２,,12,104,2650053,,,2023-03-31,清算の結了等,,,2015-10-05,1,,,,,コウワショウジ,0
468,2040005012646,登記記録の閉鎖等,0,2023-04-10,2023-03-28,銚子漁船船員組合,,その他の設立登記法人,千葉県,銚子市,新地町１４６９番地の３４,,12,202,2880067,,,2023-03-28,清算の結了等,,,2015-10-05,1,,,,,チョウシギョセンセンインクミアイ,0
495,2110001021189,登記記録の閉鎖等,0,2023-04-10,2023-04-03,新潟県南部青果株式会社,,株式会社,新潟県,十日町市,高山３丁目７４５番地,,15,210,9480055,,,2023-04-03,合併による解散等,6110001003976,令和５年４月１日新潟市江南区茗荷谷７１１番地新潟中央青果株式会社（6110001003976）に合併し解散,2015-10-05,1,,,,,ニイガタチュウオウセイカ,0
498,2120001114454,登記記録の閉鎖等,0,2023-04-10,2023-04-03,株式会社日豊社,,株式会社,大阪府,大阪市北区,東天満１丁目１２番１３号,,27,127,5300044,,,2023-04-03,清算の結了等,,,2015-10-05,1,,,,,,0
502,2120001145235,登記記録の閉鎖等,0,2023-04-10,2023-03-31,株式会社ＫＳ．ＬＡＮＤ,,株式会社,大阪府,大阪市城東区,今福東１丁目４番１９号,,27,118,5360002,,,2023-03-31,合併による解散等,5120001015229,令和５年３月３１日大阪市城東区今福東一丁目４番１９号スギタグループ株式会社（5120001015229）に合併し解散,2015-10-05,1,,,,,ケーエスランド,0
512,2120002081009,登記記録の閉鎖等,0,2023-04-10,2023-04-03,有限会社協同物流,,有限会社,大阪府,門真市,小路町三丁目２５番地セントラル門真２０２号室,,27,223,5710058,,,2023-04-03,清算の結了等,,,2015-10-05,1,,,,,,0
553,2140002015229,登記記録の閉鎖等,0,2023-04-10,2023-04-03,有限会社ナツメ商店,,有限会社,兵庫県,神戸市灘区,岩屋北町７丁目１番１２号,,28,102,6570846,,,2023-04-03,清算の結了等,,,2015-10-05,1,,,,,ナツメショウテン,0
554,2140002050556,登記記録の閉鎖等,0,2023-04-10,2023-03-31,有限会社福井電機商会,,有限会社,兵庫県,姫路市,青山２丁目１１番１号,,28,201,6712222,,,2023-03-31,清算の結了等,,,2015-10-05,1,,,,,フクイデンキショウカイ,0
566,2180001074247,登記記録の閉鎖等,0,2023-04-10,2023-04-04,株式会社アスカ,,株式会社,愛知県,春日井市,藤山台４丁目１番地の２,,23,206,4870035,,,2023-04-04,清算の結了等,,,2015-10-05,1,,,,,アスカ,0
567,2180001081664,登記記録の閉鎖等,0,2023-04-10,2023-04-06,株式会社Ｒａｙ　Ｐｒｏｏｆ,,株式会社,愛知県,丹羽郡扶桑町,大字高雄字伊勢帰２０１番地２,,23,362,4800102,,,2023-04-06,清算の結了等,,,2015-10-05,1,,,,,レイプルーフ,0
591,2180302011898,登記記録の閉鎖等,0,2023-04-10,2023-03-31,有限会社希美の里,,有限会社,愛知県,豊橋市,西岩田２丁目１番地の１９,,23,201,4400831,,,2023-03-31,清算の結了等,,,2015-10-05,1,,,,,キミノサト,0
597,2230001001575,登記記録の閉鎖等,0,2023-04-10,2023-04-05,株式会社高島エンジニア,,株式会社,富山県,富山市,大町６９番地６,,16,201,9398073,,,2023-04-05,清算の結了等,,,2015-10-05,1,,,,,タカシマエンジニア,0
605,2240001031786,登記記録の閉鎖等,0,2023-04-10,2023-04-03,備南三菱自動車販売株式会社,,株式会社,広島県,福山市,曙町４丁目３番１１号,00000417,34,207,7210952,,,2023-04-03,合併による解散等,6240001032806,令和５年４月１日広島県福山市瀬戸町大字山北１３０番地の２福山三菱自動車販売株式会社（6240001032806）に合併し解散,2015-10-05,1,,,,,ビナンミツビシジドウシャハンバイ,0
621,2290001013193,登記記録の閉鎖等,0,2023-04-10,2023-04-03,株式会社コンフィス,,株式会社,福岡県,福岡市博多区,博多駅南５丁目１５番９号,,40,132,8120016,,,2023-04-03,合併による解散等,5290001016425,令和５年４月１日福岡市博多区博多駅南五丁目１５番９号株式会社不動産総合センター（5290001016425）に合併し解散,2015-10-05,1,,,,,コンフィス,0
645,2340002027492,登記記録の閉鎖等,0,2023-04-10,2023-04-05,有限会社長ケ原バラ園,,有限会社,鹿児島県,曽於市,末吉町南之郷３８００番地,,46,217,8998608,,,2023-04-05,清算の結了等,,,2015-10-05,1,,,,,チョウガハラバラエン,0
701,3010001174698,登記記録の閉鎖等,0,2023-04-10,2023-03-30,スペースキット株式会社,,株式会社,東京都,中央区,八重洲２丁目８番７号,,13,102,1040028,,,2023-03-30,清算の結了等,,,2016-04-12,1,,,,,スペースキット,0
721,3010401073657,登記記録の閉鎖等,0,2023-04-10,2023-03-31,ＳＩＶＥＸアルファ株式会社,,株式会社,兵庫県,姫路市,千代田町７３１番地の１,,28,201,6700993,,,2023-03-31,清算の結了等,,,2015-10-05,1,,,,,サイベックスアルファ,0
724,3010401163292,登記記録の閉鎖等,0,2023-04-10,2023-03-29,株式会社プロテリアル,,株式会社,東京都,港区,港南１丁目２番７０号,,13,103,1080075,,,2023-03-29,清算の結了等,,,2021-10-15,1,,,,,プロテリアル,0
733,3010405014021,登記記録の閉鎖等,0,2023-04-10,2023-03-28,本栖湖特定目的会社,,その他の設立登記法人,東京都,港区,虎ノ門５丁目１番４号グローバル・ソリューションズ・コンサルティング株式会社内,,13,103,1050001,,,2023-03-28,清算の結了等,,,2015-10-05,1,,,,,モトスコ,0
735,3010501045390,登記記録の閉鎖等,0,2023-04-10,2023-03-30,株式会社Ｔａｋｅｗａｒｅ,,株式会社,東京都,町田市,高ヶ坂２丁目２７番７号,,13,209,1940014,,,2023-03-30,合併による解散等,8011001046619,令和５年３月２８日東京都町田市高ヶ坂二丁目２７番７号株式会社イーフロー（8011001046619）に合併し解散,2020-03-04,1,,,,,テイクウェア,0
737,3010601036843,登記記録の閉鎖等,0,2023-04-10,2023-03-31,株式会社タイガ,,株式会社,東京都,墨田区,千歳３丁目１４番１０号,,13,107,1300025,,,2023-03-31,清算の結了等,,,2015-10-05,1,,,,,タイガ,0
742,3010905003812,登記記録の閉鎖等,0,2023-04-10,2023-04-03,一般社団法人とも実会,,その他の設立登記法人,東京都,世田谷区,松原１丁目３５番２１－２１５号,,13,112,1560043,,,2023-04-03,清算の結了等,,,2019-07-16,1,,,,,トモミカイ,0
754,3011001096940,登記記録の閉鎖等,0,2023-04-10,2023-03-31,株式会社ＲＯジャパンエージェンシー,,株式会社,東京都,渋谷区,渋谷２丁目２４番１２号,,13,113,1500002,,,2023-03-31,合併による解散等,7011001093447,令和５年３月３１日東京都渋谷区渋谷二丁目２４番１２号株式会社ロッキング・オン・ジャパン（7011001093447）に合併し解散,2015-10-05,1,,,,,アールオージャパンエージェンシー,0
786,3011801001348,登記記録の閉鎖等,0,2023-04-10,2023-04-04,株式会社桂野染革工場,,株式会社,東京都,葛飾区,立石４丁目３番１２号,,13,122,1240012,,,2023-04-04,清算の結了等,,,2015-10-05,1,,,,,ケイノセンカクコウジョウ,0
832,3040001112812,登記記録の閉鎖等,0,2023-04-10,2023-03-31,株式会社青野工業,,株式会社,千葉県,松戸市,高塚新田１３６番地の１リエス松戸高塚３０６号,,12,207,2702222,,,2023-03-31,清算の結了等,,,2020-03-10,1,,,,,アオノコウギョウ,0
837,3050002025772,登記記録の閉鎖等,0,2023-04-10,2023-04-03,有限会社塚原漬物食品,00022961,有限会社,茨城県,古河市,恩名２２２９番地の１,,08,204,3060104,,,2023-04-03,清算の結了等,,,2015-10-05,1,,,,,ツカハラツケモノショクヒン,0
842,3070001022802,登記記録の閉鎖等,0,2023-04-10,2023-04-03,株式会社タグワグリーンファーム,,株式会社,群馬県,太田市,堀口町５８４番地１,,10,205,3700414,,,2023-04-03,清算の結了等,,,2015-10-05,1,,,,,タグワグリーンファーム,0
857,3080401011949,登記記録の閉鎖等,0,2023-04-10,2023-04-04,株式会社食文化倶楽部,,株式会社,静岡県,浜松市西区,大平台２丁目１６番１０号,,22,133,4328068,,,2023-04-04,清算の結了等,,,2015-10-05,1,,,,,ショクブンカクラブ,0
858,3080402005355,登記記録の閉鎖等,0,2023-04-10,2023-04-04,有限会社東海パーキング開発,,有限会社,静岡県,浜松市東区,和田町５３３番地の１,,22,132,4350016,,,2023-04-04,清算の結了等,,,2015-10-05,1,,,,,トウカイパーキングカイハツ,0
859,3080402021204,登記記録の閉鎖等,0,2023-04-10,2023-04-03,有限会社野部砂利,,有限会社,静岡県,磐田市,新開４４０番地,,22,211,4380113,,,2023-04-03,合併による解散等,4080401016600,令和５年４月１日静岡県磐田市新開４４０番地乗松建設株式会社（4080401016600）に合併し解散,2015-10-05,1,,,,,ノベジャリ,0
865,3100001029380,登記記録の閉鎖等,0,2023-04-10,2023-03-31,農業生産法人信濃の郷株式会社,,株式会社,長野県,茅野市,北山２９７７番地１,,20,214,3910301,,,2023-03-31,清算の結了等,,,2016-05-30,1,,,,,ノウギョウセイサンホウジンシナノノサト,0
873,3120001232882,登記記録の閉鎖等,0,2023-04-10,2023-04-04,株式会社億成,,株式会社,大阪府,大阪市西成区,太子２丁目３番７号,,27,122,5570002,,,2023-04-04,清算の結了等,,,2020-11-06,1,,,,,オクセイ,0
892,3130001048709,登記記録の閉鎖等,0,2023-04-10,2023-04-04,株式会社ウェルビー京都,,株式会社,京都府,京都市伏見区,横大路下三栖宮ノ後６７番地,,26,109,6128245,,,2023-04-04,合併による解散等,4130001019956,令和５年４月１日京都市中京区車屋町通御池上ル塗師屋町３４４番地上原成商事株式会社（4130001019956）に合併し解散,2015-10-05,1,,,,,ウェルビーキョウト,0
935,3170001005466,登記記録の閉鎖等,0,2023-04-10,2023-04-05,海南設備工事株式会社,,株式会社,和歌山県,海南市,日方１２８９番地６６,,30,202,6420002,,,2023-04-05,清算の結了等,,,2015-10-05,1,,,,,カイナンセツビコウジ,0
947,3180002046839,登記記録の閉鎖等,0,2023-04-10,2023-04-03,有限会社林田製作所,,有限会社,愛知県,名古屋市南区,七条町１丁目１番地,,23,112,4570854,,,2023-04-03,清算の結了等,,,2015-10-05,1,,,,,ハヤシダセイサクジョ,0
953,3180005016327,登記記録の閉鎖等,0,2023-04-10,2023-03-31,一般社団法人訓読友の会,,その他の設立登記法人,愛知県,名古屋市緑区,鳴海町字古鳴海１４番地の１,,23,114,4580801,,,2023-03-31,清算の結了等,,,2015-10-05,1,,,,,クンヨミトモノカイ,0
960,3200001000819,登記記録の閉鎖等,0,2023-04-10,2023-04-03,株式会社起き上り本舗,,株式会社,岐阜県,岐阜市,柳ケ瀬通５丁目５番地,,21,201,5008875,,,2023-04-03,清算の結了等,,,2015-10-05,1,,,,,,0
962,3200002012607,登記記録の閉鎖等,0,2023-04-10,2023-03-31,有限会社サイトウ,,有限会社,岐阜県,大垣市,赤坂町３０７２番地の１,,21,202,5032213,,,2023-03-31,清算の結了等,,,2015-10-05,1,,,,,サイトウ,0
966,3210002009619,登記記録の閉鎖等,0,2023-04-10,2023-04-05,有限会社北陸建設,,有限会社,福井県,大野市,中野第５５号６２番地,,18,205,9120021,,,2023-04-05,清算の結了等,,,2015-10-05,1,,,,,ホクリクケンセツ,0
978,3270002004795,登記記録の閉鎖等,0,2023-04-10,2023-04-04,有限会社鳥取昭和トレー,,有限会社,鳥取県,鳥取市,佐治町葛谷２１２番地１,00004328,31,201,6891301,,,2023-04-04,清算の結了等,,,2015-10-05,1,,,,,トットリショウワトレー,0
985,3290001025964,登記記録の閉鎖等,0,2023-04-10,2023-04-03,福岡日産自動車株式会社,,株式会社,福岡県,福岡市博多区,東比恵２丁目１４番３３号,,40,132,8120007,,,2023-04-03,合併による解散等,5290001025962,令和５年４月１日福岡市中央区平尾三丁目６番３号日産プリンス福岡販売株式会社（5290001025962）に合併し解散,2015-10-05,1,,,,,フクオカニッサンジドウシャ,0
988,3290001072973,登記記録の閉鎖等,0,2023-04-10,2023-04-03,株式会社テノ．サポート,,株式会社,福岡県,福岡市博多区,上呉服町１０番１０号,,40,132,8120036,,,2023-04-03,合併による解散等,4290001022507,令和５年４月１日福岡市博多区上呉服町１０番１０号株式会社テノ．コーポレーション（4290001022507）に合併し解散,2016-02-19,1,,,,,テノサポート,0
1007,3330002006744,登記記録の閉鎖等,0,2023-04-10,2023-04-03,有限会社玉屋商事,,有限会社,熊本県,熊本市西区,上代１０丁目８番５４号,,43,103,8600068,,,2023-04-03,合併による解散等,7330002003366,令和５年４月１日熊本市西区春日七丁目１５番６６号株式会社熊本製萠（7330002003366）に合併し解散,2015-10-05,1,,,,,タマヤショウジ,0
1017,3350002010959,登記記録の閉鎖等,0,2023-04-10,2023-03-31,有限会社松葉建設,,有限会社,宮崎県,日向市,大字平岩１２３５９番地,,45,206,8830022,,,2023-03-31,清算の結了等,,,2015-10-05,1,,,,,マツバケンセツ,0
1028,3370002006765,登記記録の閉鎖等,0,2023-04-10,2023-04-03,有限会社泉医療サービス,,有限会社,宮城県,仙台市泉区,上谷刈字丸山６番地１,,04,105,9813121,,,2023-04-03,合併による解散等,6370002007026,令和５年４月１日宮城県仙台市泉区上谷刈字橋元４３番地３タウンコートＩ－２０１号室株式会社オルト（6370002007026）に合併し解散,2015-10-05,1,,,,,イズミイリョウサービス,0
1036,3380002013488,登記記録の閉鎖等,0,2023-04-10,2023-03-29,有限会社ワークプラン,,有限会社,福島県,郡山市,東原１丁目１３５番地,,07,203,9630552,,,2023-03-29,清算の結了等,,,2015-10-05,1,,,,,ワークプラン,0
1051,3430001061714,登記記録の閉鎖等,0,2023-04-10,2023-04-03,株式会社ノースヘルスケアサポート,,株式会社,北海道,札幌市中央区,南九条西３丁目１０番９７号,,01,101,0640809,,,2023-04-03,合併による解散等,2430002040453,令和５年４月１日北海道小樽市奥沢一丁目１７番１号株式会社アイケア北海道（2430002040453）に合併し解散,2015-10-05,1,,,,,ノースヘルスケアサポート,0
1087,4010002011899,登記記録の閉鎖等,0,2023-04-10,2023-04-03,有限会社高木商事,00049720,有限会社,東京都,千代田区,神田神保町１丁目９番地稲垣ビル６階,,13,101,1010051,,,2023-04-03,清算の結了等,,,2015-10-05,1,,,,,,0
1099,4010403027676,登記記録の閉鎖等,0,2023-04-10,2023-03-28,合同会社ＧＫ０６０,,合同会社,東京都,港区,虎ノ門３丁目２２番１０－２０１号,,13,103,1050001,,,2023-03-28,清算の結了等,,,2022-05-17,1,,,,,ジーケイゼロシックスゼロ,0
1100,4010405011026,登記記録の閉鎖等,0,2023-04-10,2023-03-28,一般社団法人エスエフホールディングス,,その他の設立登記法人,東京都,港区,虎ノ門３丁目２２番１０－２０１号,,13,103,1050001,,,2023-03-28,清算の結了等,,,2015-10-05,1,,,,,エスエフホールディングス,0
1105,4010601008338,登記記録の閉鎖等,0,2023-04-10,2023-03-31,秋田産業株式会社,,株式会社,東京都,墨田区,墨田４丁目５９番７号,,13,107,1310031,,,2023-03-31,清算の結了等,,,2015-10-05,1,,,,,アキタサンギョウ,0
1125,4011001072131,登記記録の閉鎖等,0,2023-04-10,2023-03-27,株式会社コネクティングビー,,株式会社,東京都,港区,南青山２丁目２番１５号ウィン青山９４２,,13,103,1070062,,,2023-03-27,清算の結了等,,,2015-10-05,1,,,,,コネクティングビー,0
1137,4011101057478,登記記録の閉鎖等,0,2023-04-10,2023-04-04,株式会社藝元,,株式会社,東京都,新宿区,大久保１丁目１７番８号２階,,13,104,1690072,,,2023-04-04,清算の結了等,,,2015-10-05,1,,,,,イェウォン,0
1151,4011501008106,登記記録の閉鎖等,0,2023-04-10,2023-04-05,株式会社日本ばし大増,,株式会社,東京都,荒川区,西尾久７丁目４８番１号,,13,118,1160011,,,2023-04-05,合併による解散等,3011101042662,令和５年４月１日東京都渋谷区千駄ヶ谷五丁目３３番８号株式会社ＪＲ東日本クロスステーション（3011101042662）に合併し解散,2015-10-05,1,,,,,ニホンバシダイマス,0
1165,4012402005910,登記記録の閉鎖等,0,2023-04-10,2023-04-04,有限会社ライトライン,,有限会社,東京都,国立市,富士見台１丁目７番１－５－２０１,,13,215,1860003,,,2023-04-04,清算の結了等,,,2015-10-05,1,,,,,ライトライン,0
1180,4020005012547,登記記録の閉鎖等,0,2023-04-10,2023-04-03,一般社団法人神奈川県農業会議,,その他の設立登記法人,神奈川県,横浜市中区,山下町２番地,,14,104,2310023,,,2023-04-03,合併による解散等,5020005004353,令和５年４月１日神奈川県横浜市中区山下町２番地公益社団法人神奈川県農業会議（5020005004353）に合併し解散,2016-04-12,1,,,,,カナガワケンノウギョウカイギ,0
1186,4030001017994,登記記録の閉鎖等,0,2023-04-10,2023-03-29,株式会社匠建設,,株式会社,埼玉県,さいたま市岩槻区,原町１番１８号,,11,110,3390047,,,2023-03-29,清算の結了等,,,2015-10-05,1,,,,,タクミケンセツ,0
1192,4040002001559,登記記録の閉鎖等,0,2023-04-10,2023-04-03,有限会社エーアイサービス,,有限会社,千葉県,千葉市若葉区,大宮町２８８０番地２２７,,12,104,2640016,,,2023-04-03,清算の結了等,,,2015-10-05,1,,,,,エーアイサービス,0
1196,4050001045606,登記記録の閉鎖等,0,2023-04-10,2023-03-31,株式会社神栖バイオマス発電所,,株式会社,茨城県,神栖市,砂山１４番地１,,08,232,3140255,,,2023-03-31,清算の結了等,,,2019-02-22,1,,,,,カミスバイオマスハツデンショ,0
1197,4050001045993,登記記録の閉鎖等,0,2023-04-10,2023-03-31,新世代エネルギー開発株式会社,,株式会社,茨城県,つくば市,古来４５２番地,,08,220,3050021,,,2023-03-31,清算の結了等,,,2019-05-22,1,,,,,シンセダイエネルギーカイハツ,0
1208,4080002005341,登記記録の閉鎖等,0,2023-04-10,2023-04-06,有限会社前林基礎,,有限会社,静岡県,静岡市葵区,南２丁目８番２２号,,22,101,4200956,,,2023-04-06,清算の結了等,,,2015-10-05,1,,,,,マエバヤシキソ,0
1218,4110001022565,登記記録の閉鎖等,0,2023-04-10,2023-04-03,株式会社新越設備,,株式会社,新潟県,長岡市,古正寺２丁目８２番地,,15,202,9402106,,,2023-04-03,清算の結了等,,,2015-10-05,1,,,,,シンエツセツビ,0
1224,4120001007747,登記記録の閉鎖等,0,2023-04-10,2023-04-03,株式会社信栄アド,,株式会社,大阪府,大阪市住吉区,清水丘１丁目１９番１４号,,27,120,5580033,,,2023-04-03,清算の結了等,,,2015-10-05,1,,,,,シンエイアド,0
1229,4120001202942,登記記録の閉鎖等,0,2023-04-10,2023-04-04,ＭＡＫＡＮＡ　ＪＡＰＡＮ株式会社,,株式会社,兵庫県,姫路市,南町６３番地ミツワビル３Ｆ,,28,201,6700912,,,2023-04-04,清算の結了等,,,2017-01-13,1,,,,,マカナジャパン,0
1231,4120001233954,登記記録の閉鎖等,0,2023-04-10,2023-04-03,株式会社なつぞら,,株式会社,大阪府,大阪市東住吉区,湯里１丁目１３番３６号,,27,121,5460013,,,2023-04-03,合併による解散等,1120001190554,令和５年４月１日大阪市東住吉区湯里一丁目１３番３６号株式会社ブループラス（1120001190554）に合併し解散,2020-12-21,1,,,,,ナツゾラ,0
1240,4120101001476,登記記録の閉鎖等,0,2023-04-10,2023-03-31,株式会社コーワ建築工房,,株式会社,大阪府,堺市堺区,向陵西町４丁１番２９号,,27,141,5900026,,,2023-03-31,合併による解散等,4120101002359,令和５年３月３１日大阪府堺市堺区向陵西町四丁１番２９号株式会社公和メンテナンス（4120101002359）に合併し解散,2015-10-05,1,,,,,コーワケンチクコウボウ,0
1261,4140001007258,登記記録の閉鎖等,0,2023-04-10,2023-04-03,株式会社クボ医療,,株式会社,兵庫県,神戸市中央区,御幸通５丁目２番５号,,28,110,6510087,,,2023-04-03,合併による解散等,2140001026292,令和５年４月１日神戸市中央区御幸通五丁目２番５号株式会社医療事務スタッフ関西（2140001026292）に合併し解散,2015-10-05,1,,,,,クボイリョウ,0
1267,4140001071329,登記記録の閉鎖等,0,2023-04-10,2023-04-03,株式会社グリーンサービス,,株式会社,兵庫県,芦屋市,公光町８番２２号,,28,206,6590065,,,2023-04-03,清算の結了等,,,2015-10-05,1,,,,,グリーンサービス,0
1268,4140001085345,登記記録の閉鎖等,0,2023-04-10,2023-04-03,山口水産株式会社,,株式会社,兵庫県,淡路市,野島蟇浦７８４番地１,,28,226,6561721,,,2023-04-03,清算の結了等,,,2015-10-05,1,,,,,ヤマグチスイサン,0
1272,4140001099948,登記記録の閉鎖等,0,2023-04-10,2023-04-05,株式会社ＹＫホールディングス,,株式会社,兵庫県,宝塚市,長寿ガ丘１８番１３号,,28,214,6650001,,,2023-04-05,清算の結了等,,,2015-11-06,1,,,,,,0
1293,4170003000464,登記記録の閉鎖等,0,2023-04-10,2023-04-04,合資会社脇田商店,00045691,合資会社,和歌山県,伊都郡九度山町,大字九度山１４４５番地,,30,343,6480101,,,2023-04-04,清算の結了等,,,2015-10-05,1,,,,,ワキタショウテン,0
1296,4180001068536,登記記録の閉鎖等,0,2023-04-10,2023-04-03,株式会社竹内商会,,株式会社,愛知県,名古屋市千種区,振甫町１丁目３番地の３,,23,101,4640072,,,2023-04-03,清算の結了等,,,2015-10-05,1,,,,,タケウチショウカイ,0
1321,4200001036176,登記記録の閉鎖等,0,2023-04-10,2023-03-31,株式会社Ｈｏｎｅｓｔｙ,,株式会社,岐阜県,関市,小野１４３７番地１,,21,205,5013201,,,2023-03-31,清算の結了等,,,2019-04-24,1,,,,,オネスティー,0
1330,4250002013145,登記記録の閉鎖等,0,2023-04-10,2023-04-03,有限会社サンバード,,有限会社,山口県,萩市,大字椿東３０１８番地１,,35,204,7580011,,,2023-04-03,清算の結了等,,,2015-10-05,1,,,,,サンバード,0
1331,4250002013871,登記記録の閉鎖等,0,2023-04-10,2023-04-03,有限会社山縣工務店,,有限会社,山口県,長門市,三隅上２３９５番地の５,,35,211,7593801,,,2023-04-03,清算の結了等,,,2015-10-05,1,,,,,ヤマガタコウムテン,0
1336,4270002007277,登記記録の閉鎖等,0,2023-04-10,2023-03-31,有限会社山福,,有限会社,鳥取県,米子市,上福原５８１番地７,,31,202,6830004,,,2023-03-31,清算の結了等,,,2015-10-05,1,,,,,ヤマフク,0
1343,4290005009681,登記記録の閉鎖等,0,2023-04-10,2023-04-03,社会福祉法人合川福祉会,,その他の設立登記法人,福岡県,久留米市,合川町枝光２３５番地の１,,40,203,8390861,,,2023-04-03,合併による解散等,1290005009676,令和５年４月３日福岡県久留米市荒木町白口４５７番地社会福祉法人白鳥福祉会（1290005009676）に合併し解散,2015-10-05,1,,,,,アイカワフクシカイ,0
1355,4310001003537,登記記録の閉鎖等,0,2023-04-10,2023-04-06,株式会社リブネット,,株式会社,長崎県,長崎市,若草町１８番１１号,,42,201,8528023,,,2023-04-06,清算の結了等,,,2015-10-05,1,,,,,リブネット,0
1356,4320001001696,登記記録の閉鎖等,0,2023-04-10,2023-04-05,株式会社さんふらわあ物流,,株式会社,大分県,大分市,生石５丁目３番１号,,44,201,8700003,,,2023-04-05,合併による解散等,4340001007147,令和５年４月１日鹿児島市鴨池新町５番６号鹿児島県プロパンガス会館株式会社さんふらわあエクスプレス（4340001007147）に合併し解散,2015-10-05,1,,,,,サンフラワアブツリュウ,0
1384,4380001026721,登記記録の閉鎖等,0,2023-04-10,2023-04-05,株式会社いちごノえん,,株式会社,福島県,須賀川市,館取町１１６番地,,07,207,9620021,,,2023-04-05,合併による解散等,3380001033157,令和５年３月４日福島県須賀川市大町４０３番地の１株式会社ＬＯＬ（3380001033157）に合併し解散,2016-04-07,1,,,,,イチゴノエン,0
1386,4380002019212,登記記録の閉鎖等,0,2023-04-10,2023-04-04,有限会社福島建設,,有限会社,福島県,東白川郡塙町,大字堀越字妻沢４１番地,,07,483,9635408,,,2023-04-04,清算の結了等,,,2015-10-05,1,,,,,フクシマケンセツ,0
1393,4420002014646,登記記録の閉鎖等,0,2023-04-10,2023-04-03,有限会社木村塗装,,有限会社,青森県,南津軽郡藤崎町,大字西豊田３丁目２番地の４,,02,361,0383803,,,2023-04-03,清算の結了等,,,2015-10-05,1,,,,,キムラトソウ,0
1411,4490001007818,登記記録の閉鎖等,0,2023-04-10,2023-04-03,株式会社Ｎｅｘｔｒｕｃｔｕｒｅ,,株式会社,高知県,高知市,九反田９番１５号,,39,201,7800832,,,2023-04-03,合併による解散等,7490001004647,令和５年４月１日高知県南国市領石２４６番地Ｇｒｅｅｎ　Ｅａｒｔｈ　Ｐｏｗｅｒ　Ｊａｐａｎ株式会社（7490001004647）に合併し解散,2015-10-05,1,,,,,ネクストラクチャー,0
1419,5010001006412,登記記録の閉鎖等,0,2023-04-10,2023-03-30,株式会社坂東商店,,株式会社,東京都,文京区,湯島３丁目３８番１３号,,13,105,1130034,,,2023-03-30,清算の結了等,,,2015-10-05,1,,,,,バンドウショウテン,0
1420,5010001050807,登記記録の閉鎖等,0,2023-04-10,2023-04-03,株式会社天賞堂エム・エス,,株式会社,東京都,中央区,銀座４丁目３番９号,,13,102,1040061,,,2023-04-03,合併による解散等,9010001050794,令和５年４月１日東京都中央区銀座四丁目３番９号株式会社天賞堂（9010001050794）に合併し解散,2015-10-05,1,,,,,テンショウドウエムエス,0
1423,5010001122300,登記記録の閉鎖等,0,2023-04-10,2023-04-03,グローバルコムサービス株式会社,,株式会社,東京都,中央区,明石町８番１号,,13,102,1040044,,,2023-04-03,合併による解散等,2010001166143,令和５年４月１日東京都中央区明石町８番１号グローバルコムホールディングス株式会社（2010001166143）に合併し解散,2015-10-05,1,,,,,グローバルコムサービス,0
1439,5010003031482,登記記録の閉鎖等,0,2023-04-10,2023-04-05,合同会社サポート３４号,,合同会社,東京都,千代田区,丸の内３丁目１番１号東京共同会計事務所内,,13,101,1000005,,,2023-04-05,清算の結了等,,,2020-01-20,1,,,,,サポートサンジュウヨンゴウ,0
1441,5010003036028,登記記録の閉鎖等,0,2023-04-10,2023-04-03,Ｓｃｈｏｌｌ’ｓ　Ｗｅｌｌｎｅｓｓ　Ｃｏｍｐａｎｙ合同会社,,合同会社,東京都,千代田区,霞が関３丁目２番６号東京倶楽部ビルディング１１階,,13,101,1000013,,,2023-04-03,清算の結了等,,,2021-10-15,1,,,,,ショールズウェルネスカンパニー,0
1445,5010005018949,登記記録の閉鎖等,0,2023-04-10,2023-04-03,一般社団法人文京区商工協会,,その他の設立登記法人,東京都,文京区,本郷４丁目１５番１４号,,13,105,1130033,,,2023-04-03,合併による解散等,6010005018956,令和５年４月１日東京都文京区本郷四丁目１５番１４号一般社団法人文京区産業協会（6010005018956）に合併し解散,2015-10-05,1,,,,,ブンキョウクショウコウキョウカイ,0
1448,5010401041835,登記記録の閉鎖等,0,2023-04-10,2023-04-03,ネクスト・ゴルフ株式会社,,株式会社,東京都,品川区,東品川４丁目１２番４号,,13,109,1400002,,,2023-04-03,合併による解散等,3011001046912,令和５年４月１日東京都品川区東品川四丁目１２番４号株式会社ゴルフ・アライアンス（3011001046912）に合併し解散,2015-10-05,1,,,,,ネクストゴルフ,0
1459,5010403027675,登記記録の閉鎖等,0,2023-04-10,2023-03-28,合同会社ＧＫ０５９,,合同会社,東京都,港区,虎ノ門３丁目２２番１０－２０１号,,13,103,1050001,,,2023-03-28,清算の結了等,,,2022-05-17,1,,,,,ジーケイゼロファイブナイン,0
1461,5010405004004,登記記録の閉鎖等,0,2023-04-10,2023-03-28,アーセナルアセット特定目的会社,,その他の設立登記法人,東京都,港区,虎ノ門３丁目２２番１０－２０１号,,13,103,1050001,,,2023-03-28,清算の結了等,,,2015-10-05,1,,,,,アーセナルアセット,0
1464,5010501026075,登記記録の閉鎖等,0,2023-04-10,2023-04-04,株式会社清可堂,,株式会社,東京都,台東区,谷中５丁目３番２０号,,13,106,1100001,,,2023-04-04,清算の結了等,,,2015-10-05,1,,,,,セイカドウ,0
1468,5010601040637,登記記録の閉鎖等,0,2023-04-10,2023-04-03,株式会社増田,,株式会社,東京都,江東区,東砂５丁目６番２号,,13,108,1360074,,,2023-04-03,清算の結了等,,,2015-10-05,1,,,,,マスダ,0
1477,5010802000464,登記記録の閉鎖等,0,2023-04-10,2023-03-31,有限会社安斎家電サービス,,有限会社,東京都,大田区,下丸子２丁目３６番２０号,,13,111,1460092,,,2023-03-31,清算の結了等,,,2015-10-05,1,,,,,アンザイカデンサービス,0
1495,5011103008560,登記記録の閉鎖等,0,2023-04-10,2023-04-05,合同会社ジェイ・ヴイ・ビー,,合同会社,東京都,新宿区,下宮比町１番４号,,13,104,1620822,,,2023-04-05,清算の結了等,,,2019-02-08,1,,,,,ジェイヴイビー,0
1498,5011201009502,登記記録の閉鎖等,0,2023-04-10,2023-04-03,株式会社アップライトミュージック,,株式会社,東京都,中野区,中央２丁目５８番９号,,13,114,1640011,,,2023-04-03,清算の結了等,,,2015-10-05,1,,,,,アップライトミュージック,0
1516,5012302008459,登記記録の閉鎖等,0,2023-04-10,2023-04-04,有限会社大和通商,,有限会社,東京都,町田市,金井７丁目１番２４号,,13,209,1950072,,,2023-04-04,清算の結了等,,,2015-10-05,1,,,,,ダイワツウショウ,0
1524,5020001045079,登記記録の閉鎖等,0,2023-04-10,2023-03-31,株式会社トライウエイブ,,株式会社,神奈川県,横浜市港南区,日野南１丁目６番１７号勇吉第５ビル３０３号室,,14,111,2340055,,,2023-03-31,合併による解散等,8021001029498,令和５年３月３１日神奈川県横浜市港南区日野南一丁目６番１７号勇吉第５ビル３０３号室日本レメディー株式会社（8021001029498）に合併し解散,2015-10-05,1,,,,,トライウエイブ,0
1539,5021001018958,登記記録の閉鎖等,0,2023-04-10,2023-04-05,株式会社大船軒,,株式会社,神奈川県,鎌倉市,岡本２丁目３番３号,,14,204,2470072,,,2023-04-05,合併による解散等,3011101042662,令和５年４月１日東京都渋谷区千駄ヶ谷五丁目３３番８号株式会社ＪＲ東日本クロスステーション（3011101042662）に合併し解散,2015-10-05,1,,,,,オオフナケン,0
1559,5050001039020,登記記録の閉鎖等,0,2023-04-10,2023-04-03,株式会社シルビオ,,株式会社,茨城県,水戸市,千波町１９４９番地１,,08,201,3100851,,,2023-04-03,合併による解散等,5050001005526,令和５年４月１日茨城県水戸市千波町１９４８番地茨城リース株式会社（5050001005526）に合併し解散,2015-10-05,1,,,,,シルビオ,0
1574,5070002001729,登記記録の閉鎖等,0,2023-04-10,2023-04-04,有限会社群馬経済プランナー,,有限会社,群馬県,前橋市,千代田町１丁目７番２０号,,10,201,3710022,,,2023-04-04,清算の結了等,,,2015-10-05,1,,,,,グンマケイザイプランナー,0
1588,5080401015972,登記記録の閉鎖等,0,2023-04-10,2023-04-04,株式会社ビジネスホテル磐田,,株式会社,静岡県,磐田市,中泉１２５番地の８,,22,211,4380078,,,2023-04-04,清算の結了等,,,2015-10-05,1,,,,,ビジネスホテルイワタ,0
1604,5120001247078,登記記録の閉鎖等,0,2023-04-10,2023-04-03,澤宇株式会社,,株式会社,大阪府,大阪市東成区,東小橋１丁目１７－３１グランドハイツ東小橋６０１号室,,27,115,5370024,,,2023-04-03,清算の結了等,,,2022-07-12,1,,,,,タクウ,0
1609,5120101060612,登記記録の閉鎖等,0,2023-04-10,2023-04-03,日電技研株式会社,,株式会社,大阪府,堺市東区,日置荘西町２丁４９－１９,,27,143,5998114,,,2023-04-03,清算の結了等,,,2019-10-03,1,,,,,ニチデンギケン,0
1665,5220001014419,登記記録の閉鎖等,0,2023-04-10,2023-04-03,株式会社丸一観光北陸,,株式会社,石川県,金沢市,無量寺町ホ１２０番地,,17,201,9200332,,,2023-04-03,合併による解散等,1220001016261,令和５年４月１日石川県七尾市矢田町弐部１番地株式会社丸一観光（1220001016261）に合併し解散,2015-10-05,1,,,,,マルイチカンコウホクリク,0
1669,5240001025513,登記記録の閉鎖等,0,2023-04-10,2023-04-03,株式会社一誠工業,,株式会社,広島県,呉市,三条４丁目１１番１４号,,34,202,7370821,,,2023-04-03,清算の結了等,,,2015-10-05,1,,,,,イッセイコウギョウ,0
1725,5380001024245,登記記録の閉鎖等,0,2023-04-10,2023-04-05,株式会社植富造園土木,,株式会社,福島県,白河市,白坂石阿弥陀５５６番地,,07,205,9610835,,,2023-04-05,清算の結了等,,,2015-10-05,1,,,,,ウエトミゾウエンドボク,0
1733,5430001046903,登記記録の閉鎖等,0,2023-04-10,2023-03-31,株式会社丸幸奥山不動産,,株式会社,北海道,美唄市,東三条南３丁目１番３６号,,01,215,0720014,,,2023-03-31,清算の結了等,,,2015-10-05,1,,,,,マルコウオクヤマフドウサン,0
1735,5450001008901,登記記録の閉鎖等,0,2023-04-10,2023-04-04,株式会社佐々木時計店,,株式会社,北海道,留萌市,錦町１丁目４番８号,,01,212,0770044,,,2023-04-04,清算の結了等,,,2015-10-05,1,,,,,ササキトケイテン,0
1740,5500001018151,登記記録の閉鎖等,0,2023-04-10,2023-04-04,株式会社サンライズ西条加工センター,,株式会社,愛媛県,西条市,ひうち３番地１７,,38,206,7930003,,,2023-04-04,清算の結了等,,,2015-10-05,1,,,,,サンライズサイジョウカコウセンター,0
1741,5500002014216,登記記録の閉鎖等,0,2023-04-10,2023-04-05,有限会社白石組,,有限会社,愛媛県,西条市,禎瑞１９７１番地,,38,206,7930061,,,2023-04-05,清算の結了等,,,2015-10-05,1,,,,,シライシグミ,0
1747,6010001050806,登記記録の閉鎖等,0,2023-04-10,2023-04-03,株式会社天賞堂ジー・エム,,株式会社,東京都,中央区,銀座４丁目３番９号,,13,102,1040061,,,2023-04-03,合併による解散等,9010001050794,令和５年４月１日東京都中央区銀座四丁目３番９号株式会社天賞堂（9010001050794）に合併し解散,2015-10-05,1,,,,,テンショウドウジーエム,0
1753,6010001226819,登記記録の閉鎖等,0,2023-04-10,2023-03-31,ＭＥＮＩＡ株式会社,,株式会社,東京都,千代田区,神田須田町１丁目１４番地１ヒューリック神田須田町ビル１階,,13,101,1010041,,,2023-03-31,清算の結了等,,,2022-05-24,1,,,,,メニア,0
1760,6010003023636,登記記録の閉鎖等,0,2023-04-10,2023-03-31,株式会社ｒｅ－Ｒｉｇｈｔ,,株式会社,東京都,中央区,日本橋小伝馬町７－１６ニッケイビル５Ｆ－Ｂ,,13,102,1030001,,,2023-03-31,清算の結了等,,,2016-06-09,1,,,,,リライト,0
1771,6010005025317,登記記録の閉鎖等,0,2023-04-10,2023-04-05,一般社団法人ジェイ・エス・ブイ,,その他の設立登記法人,東京都,新宿区,下宮比町１番４号,,13,104,1620822,,,2023-04-05,清算の結了等,,,2016-05-11,1,,,,,ジェイエスブイ,0
1775,6010401011853,登記記録の閉鎖等,0,2023-04-10,2023-03-30,サンレックス株式会社,,株式会社,東京都,港区,南麻布２丁目７番３２号ナカヤマビル,,13,103,1060047,,,2023-03-30,清算の結了等,,,2015-10-05,1,,,,,サンレックス,0
1780,6010403027674,登記記録の閉鎖等,0,2023-04-10,2023-03-28,合同会社ＧＫ０５８,,合同会社,東京都,港区,虎ノ門３丁目２２番１０－２０１号,,13,103,1050001,,,2023-03-28,清算の結了等,,,2022-05-17,1,,,,,ジーケイゼロファイブエイト,0
1795,6010905000476,登記記録の閉鎖等,0,2023-04-10,2023-04-04,エルベンセ美容協同組合,,その他の設立登記法人,東京都,品川区,中延６丁目９番２１号トーハナ,,13,109,1420053,,,2023-04-04,清算の結了等,,,2015-10-05,1,,,,,エルベンセビヨウ,0
1796,6011001071305,登記記録の閉鎖等,0,2023-04-10,2023-04-03,株式会社ＩＴＳＵＭＯ,,株式会社,東京都,世田谷区,用賀４丁目１２－６テトラ用賀２階,,13,112,1580097,,,2023-04-03,清算の結了等,,,2015-10-05,1,,,,,,0
1822,6011501009234,登記記録の閉鎖等,0,2023-04-10,2023-04-05,株式会社吉野商会,00055664,株式会社,東京都,荒川区,東日暮里４丁目４番５号,,13,118,1160014,,,2023-04-05,合併による解散等,5120001221974,令和５年４月１日大阪市平野区平野西六丁目７番１８号グランドフッド株式会社（5120001221974）に合併し解散,2015-10-05,1,,,,,ヨシノショウカイ,0
1834,6013301035880,登記記録の閉鎖等,0,2023-04-10,2023-04-03,サンキンビジネスシステム株式会社,,株式会社,東京都,北区,豊島８丁目２７番１－８１６号,,13,117,1140003,,,2023-04-03,清算の結了等,,,2015-10-05,1,,,,,,0
1851,6021001058937,登記記録の閉鎖等,0,2023-04-10,2023-04-03,株式会社塗達,,株式会社,神奈川県,相模原市緑区,根小屋４７番地１５,,14,151,2520153,,,2023-04-03,合併による解散等,7021001067763,令和５年３月３１日神奈川県相模原市中央区上溝１６８０番地２株式会社ＰＲＯＴＥＣＴ（7021001067763）に合併し解散,2016-04-06,1,,,,,ヌリタツ,0
1853,6021002042634,登記記録の閉鎖等,0,2023-04-10,2023-04-04,明和精工有限会社,,有限会社,神奈川県,大和市,上草柳９５番地の５,,14,213,2420029,,,2023-04-04,清算の結了等,,,2015-10-05,1,,,,,メイワセイコウ,0
1856,6030001099354,登記記録の閉鎖等,0,2023-04-10,2023-04-03,株式会社ランジャパン,,株式会社,愛知県,日進市,岩崎台２丁目１２０９番地,,23,230,4700135,,,2023-04-03,清算の結了等,,,2015-10-05,1,,,,,ランジャパン,0
1857,6030001120788,登記記録の閉鎖等,0,2023-04-10,2023-04-03,株式会社ＫＩＮＷＡ,,株式会社,埼玉県,所沢市,大字久米１４１７番地の１,,11,208,3591131,,,2023-04-03,清算の結了等,,,2017-06-07,1,,,,,,0
1870,6040001112867,登記記録の閉鎖等,0,2023-04-10,2023-03-31,株式会社デザインオフィス・Ａ,,株式会社,千葉県,千葉市美浜区,幸町２丁目１０番１６棟３０７号,,12,106,2610001,,,2023-03-31,清算の結了等,,,2020-03-11,1,,,,,デザインオフィスエイ,0
1899,6080101010109,登記記録の閉鎖等,0,2023-04-10,2023-04-03,ＫＪ紙工株式会社,,株式会社,静岡県,富士市,新橋町７番１号,,22,210,4170004,,,2023-04-03,合併による解散等,1080101015847,令和５年４月１日静岡県富士市新橋町７番１号ＫＪ特殊紙株式会社（1080101015847）に合併し解散,2015-10-05,1,,,,,ケイジェイシコウ,0
1909,6110002023924,登記記録の閉鎖等,0,2023-04-10,2023-04-03,有限会社新地屋小山商店,,有限会社,新潟県,上越市,柿崎区芋島３９５番地,,15,222,9493374,,,2023-04-03,清算の結了等,,,2015-10-05,1,,,,,シンチヤコヤマショウテン,0
1942,6130001007298,登記記録の閉鎖等,0,2023-04-10,2023-04-03,北陽測地株式会社,,株式会社,京都府,京都市左京区,下鴨上川原町２８番地,,26,103,6060812,,,2023-04-03,合併による解散等,5130001017447,令和５年４月１日京都市下京区五条通新町西入西錺屋町２３番地サンスイコンサルタント株式会社（5130001017447）に合併し解散,2015-10-05,1,,,,,ホクヨウソクチ,0
1947,6140001034738,登記記録の閉鎖等,0,2023-04-10,2023-04-04,川重サービス株式会社,,株式会社,兵庫県,明石市,川崎町１番１号,,28,203,6730014,,,2023-04-04,合併による解散等,9140001006998,令和５年４月１日神戸市中央区東川崎町一丁目１番３号株式会社カワサキライフコーポレーション（9140001006998）に合併し解散,2015-10-05,1,,,,,カワジュウサービス,0
1950,6140001055263,登記記録の閉鎖等,0,2023-04-10,2023-04-04,株式会社Ｒｅ’ｓ,,株式会社,兵庫県,尼崎市,塚口町５丁目３３番地の１１,,28,202,6610002,,,2023-04-04,清算の結了等,,,2015-10-05,1,,,,,リズ,0
1960,6140001113459,登記記録の閉鎖等,0,2023-04-10,2023-04-03,株式会社リオテック,,株式会社,兵庫県,神戸市兵庫区,大開通２丁目３番２１号甲南アセット大開ビル別館５Ｆ,,28,105,6520803,,,2023-04-03,合併による解散等,9140001100792,令和５年４月１日神戸市兵庫区大開通二丁目３番２１号甲南アセット大開ビル別館５Ｆ誠工株式会社（9140001100792）に合併し解散,2019-04-23,1,,,,,リオテック,0
1962,6140001118020,登記記録の閉鎖等,0,2023-04-10,2023-04-03,エイチプラスファイブ株式会社,,株式会社,兵庫県,芦屋市,大桝町１番１８号,,28,206,6590066,,,2023-04-03,合併による解散等,2140001112885,令和５年４月１日兵庫県芦屋市大桝町１番１８号Ｉ＆Ｈ株式会社（2140001112885）に合併し解散,2020-07-15,1,,,,,エイチプラスファイブ,0
1971,6140002039117,登記記録の閉鎖等,0,2023-04-10,2023-04-03,株式会社ＴＮＵ整理会社,,株式会社,兵庫県,養父市,十二所９５８番地,,28,222,6670102,,,2023-04-03,清算の結了等,,,2015-10-05,1,,,,,,0
1983,6170002003838,登記記録の閉鎖等,0,2023-04-10,2023-04-05,有限会社柳生電設,,有限会社,和歌山県,和歌山市,小倉２７４番地の２４,,30,201,6496261,,,2023-04-05,清算の結了等,,,2015-10-05,1,,,,,ヤギュウデンセツ,0
1986,6180001029115,登記記録の閉鎖等,0,2023-04-10,2023-04-04,愛知ゴルフ・サービス株式会社,,株式会社,愛知県,名古屋市中村区,名駅３丁目２１番４号名銀駅前ビル,,23,105,4500002,,,2023-04-04,合併による解散等,8180001118254,令和５年４月１日名古屋市中村区名駅三丁目２１番４号名銀駅前ビルアイチゴルフサービス株式会社（8180001118254）に合併し解散,2015-10-05,1,,,,,アイチゴルフサービス,0
2001,6180002004760,登記記録の閉鎖等,0,2023-04-10,2023-04-03,有限会社テイーエヌスリー,,有限会社,愛知県,名古屋市千種区,内山１丁目８番３号,,23,101,4640075,,,2023-04-03,清算の結了等,,,2015-10-05,1,,,,,テイーエヌスリー,0
2004,6180003020303,登記記録の閉鎖等,0,2023-04-10,2023-04-03,合同会社タシロアセット,,合同会社,愛知県,丹羽郡扶桑町,大字高雄字柳前１５１番地１,,23,362,4800102,,,2023-04-03,清算の結了等,,,2019-09-06,1,,,,,タシロアセット,0
2015,6200001014205,登記記録の閉鎖等,0,2023-04-10,2023-04-03,富士精機工業株式会社,,株式会社,岐阜県,大垣市,築捨町２丁目３４５番地,,21,202,5030854,,,2023-04-03,清算の結了等,,,2015-10-05,1,,,,,フジセイキコウギョウ,0
2024,6220002005589,登記記録の閉鎖等,0,2023-04-10,2023-04-05,有限会社マルナカ解体,,有限会社,石川県,金沢市,松村５丁目２９番地１,,17,201,9200348,,,2023-04-05,清算の結了等,,,2015-10-05,1,,,,,マルナカカイタイ,0
2027,6230002000952,登記記録の閉鎖等,0,2023-04-10,2023-04-04,有限会社共栄商事,,有限会社,富山県,射水市,八幡町２丁目８番２３号,,16,211,9340025,,,2023-04-04,清算の結了等,,,2015-10-05,1,,,,,キョウエイショウジ,0
2028,6230002005423,登記記録の閉鎖等,0,2023-04-10,2023-04-05,有限会社アイハートシステム,,有限会社,富山県,富山市,千石町５丁目５番６号,,16,201,9300066,,,2023-04-05,清算の結了等,,,2015-10-05,1,,,,,アイハートシステム,0
2041,6260001019165,登記記録の閉鎖等,0,2023-04-10,2023-04-03,株式会社ツインファネル,,株式会社,岡山県,新見市,上市１１４９番地１,,33,210,7180005,,,2023-04-03,合併による解散等,4260001025355,令和５年４月１日岡山県新見市上市１１４９番地１株式会社ソーラープラント（4260001025355）に合併し解散,2015-10-05,1,,,,,ツインファネル,0
2051,6290001058490,登記記録の閉鎖等,0,2023-04-10,2023-03-31,株式会社Ｋ＆Ｆ　ＦＵＪＩＳＡＫＩ,,株式会社,宮崎県,都城市,南横市町４２１６－１０,,45,202,8850092,,,2023-03-31,清算の結了等,,,2015-10-05,1,,,,,ケイアンドエフフジサキ,0
2121,6460001000229,登記記録の閉鎖等,0,2023-04-10,2023-04-04,株式会社カーショップエクセレント,,株式会社,北海道,釧路市,鳥取北５丁目１５番１号,,01,206,0840907,,,2023-04-04,清算の結了等,,,2015-10-05,1,,,,,カーショップエクセレント,0
2134,7010001014792,登記記録の閉鎖等,0,2023-04-10,2023-04-03,杏林製薬株式会社,,株式会社,東京都,千代田区,神田駿河台４丁目６番地,,13,101,1010062,,,2023-04-03,合併による解散等,8010001096491,令和５年４月１日東京都千代田区神田駿河台四丁目６番地杏林製薬株式会社（8010001096491）に合併し解散,2015-10-05,1,,,,,キョウリンセイヤク,0
2160,7010403027673,登記記録の閉鎖等,0,2023-04-10,2023-03-28,合同会社ＧＫ０５７,,合同会社,東京都,港区,虎ノ門３丁目２２番１０－２０１号,,13,103,1050001,,,2023-03-28,清算の結了等,,,2022-05-18,1,,,,,ジーケイゼロファイブセブン,0
2161,7010405011931,登記記録の閉鎖等,0,2023-04-10,2023-03-28,Ｌｏｍｏｎｄ特定目的会社,,その他の設立登記法人,東京都,港区,西新橋１丁目１番１号ＥＰコンサルティングサービス内,,13,103,1050003,,,2023-03-28,清算の結了等,,,2015-10-05,1,,,,,ローモンド,0
2176,7010901005214,登記記録の閉鎖等,0,2023-04-10,2023-04-03,夕香亭株式会社,,株式会社,東京都,世田谷区,玉堤１丁目２０番１９号,,13,112,1580087,,,2023-04-03,清算の結了等,,,2015-10-05,1,,,,,,0
2177,7010903001038,登記記録の閉鎖等,0,2023-04-10,2023-04-03,金松総合研究所合同会社,,合同会社,東京都,世田谷区,代沢３丁目１８番１号,,13,112,1550032,,,2023-04-03,清算の結了等,,,2015-10-05,1,,,,,カネマツソウゴウケンキュウジョ,0
2178,7011001038328,登記記録の閉鎖等,0,2023-04-10,2023-03-31,株式会社シャインブルートウキョウ,,株式会社,東京都,渋谷区,千駄ヶ谷３丁目７番６号,,13,113,1510051,,,2023-03-31,合併による解散等,8011001016415,令和５年３月３１日東京都渋谷区千駄ケ谷三丁目７番６号株式会社東京宅配（8011001016415）に合併し解散,2015-10-05,1,,,,,シャインブルートウキョウ,0
2233,7030001035671,登記記録の閉鎖等,0,2023-04-10,2023-03-30,谷古宇製鋲株式会社,,株式会社,埼玉県,草加市,谷塚町５４１番地,,11,221,3400023,,,2023-03-30,清算の結了等,,,2015-10-05,1,,,,,ヤコウセイビョウ,0
2238,7030002000121,登記記録の閉鎖等,0,2023-04-10,2023-03-31,有限会社アイビー,,有限会社,埼玉県,さいたま市浦和区,東高砂町２６番２２号,,11,107,3300055,,,2023-03-31,清算の結了等,,,2015-10-05,1,,,,,アイビー,0
2247,7050003004268,登記記録の閉鎖等,0,2023-04-10,2023-03-31,合同会社あづま小富士ＳＳ第二発電所,,合同会社,茨城県,つくば市,花室９６２番地３,,08,220,3050025,,,2023-03-31,清算の結了等,,,2018-07-09,1,,,,,アヅマコフジエスエスダイニハツデンショ,0
2266,7080102011492,登記記録の閉鎖等,0,2023-04-10,2023-04-04,有限会社富士商事,,有限会社,静岡県,三島市,芝本町７番３号,,22,206,4110857,,,2023-04-04,清算の結了等,,,2015-10-05,1,,,,,フジショウジ,0
2276,7120001037989,登記記録の閉鎖等,0,2023-04-10,2023-04-03,クボタシステムズ株式会社,,株式会社,大阪府,大阪市浪速区,敷津東１丁目２番４７号,,27,111,5560012,,,2023-04-03,合併による解散等,1120001037978,令和５年４月１日大阪市浪速区敷津東一丁目２番４７号株式会社クボタ（1120001037978）に合併し解散,2015-10-05,1,,,,,クボタシステムズ,0
2281,7120001089048,登記記録の閉鎖等,0,2023-04-10,2023-04-03,株式会社へきろ社,,株式会社,大阪府,大阪市中央区,心斎橋筋１丁目３番１０号,,27,128,5420085,,,2023-04-03,清算の結了等,,,2015-10-05,1,,,,,ヘキロシャ,0
2303,7120101039472,登記記録の閉鎖等,0,2023-04-10,2023-04-04,大北ハウス工業株式会社,,株式会社,大阪府,泉佐野市,高松東１丁目４番３０号,,27,213,5980012,,,2023-04-04,清算の結了等,,,2015-10-05,1,,,,,オオキタハウスコウギョウ,0
2321,7140001026156,登記記録の閉鎖等,0,2023-04-10,2023-04-04,シルバーホーム株式会社,,株式会社,兵庫県,神戸市東灘区,住吉山手６丁目１０番４５号,,28,101,6580063,,,2023-04-04,清算の結了等,,,2015-10-05,1,,,,,シルバーホーム,0
2335,7140001117764,登記記録の閉鎖等,0,2023-04-10,2023-04-03,エイチプラスツー株式会社,,株式会社,兵庫県,芦屋市,大桝町１番１８号,,28,206,6590066,,,2023-04-03,合併による解散等,2140001112885,令和５年４月１日兵庫県芦屋市大桝町１番１８号Ｉ＆Ｈ株式会社（2140001112885）に合併し解散,2020-06-16,1,,,,,エイチプラスツー,0
2352,7180001113520,登記記録の閉鎖等,0,2023-04-10,2023-04-06,株式会社チームミラクル,,株式会社,愛知県,北名古屋市,徳重与八杁３１番地７,,23,234,4810038,,,2023-04-06,清算の結了等,,,2015-10-05,1,,,,,チームミラクル,0
2364,7180002055043,登記記録の閉鎖等,0,2023-04-10,2023-04-04,有限会社なぎさ薬局,,有限会社,愛知県,名古屋市中川区,宮脇町１丁目１４２番地の２,,23,110,4540842,,,2023-04-04,合併による解散等,4200001020808,令和５年４月１日岐阜県多治見市高根町四丁目２９番地中部薬品株式会社（4200001020808）に合併し解散,2015-10-05,1,,,,,ナギサヤッキョク,0
2389,7260001011484,登記記録の閉鎖等,0,2023-04-10,2023-04-03,株式会社サンクス・ライフ,,株式会社,岡山県,岡山市中区,海吉２１２７番地１,,33,102,7038261,,,2023-04-03,合併による解散等,5260001026781,令和５年４月１日岡山市中区海吉２１２７番地１イビサ株式会社（5260001026781）に合併し解散,2015-10-05,1,,,,,サンクスライフ,0
2411,7310002012872,登記記録の閉鎖等,0,2023-04-10,2023-03-31,ホワイトプロバイダー有限会社,,有限会社,長崎県,佐世保市,赤崎町９９２番地５,,42,202,8570064,,,2023-03-31,清算の結了等,,,2015-10-05,1,,,,,ホワイトプロバイダー,0
2455,7430001033899,登記記録の閉鎖等,0,2023-04-10,2023-04-06,株式会社エヌシー日商連北海道,,株式会社,北海道,札幌市中央区,南二条西１丁目３番地,,01,101,0600062,,,2023-04-06,合併による解散等,7460101000177,令和５年４月１日北海道帯広市西五条南十四丁目５番地ＮＣカード株式会社（7460101000177）に合併し解散,2015-10-05,1,,,,,エヌシーニッショウレンホッカイドウ,0
2462,7450001009518,登記記録の閉鎖等,0,2023-04-10,2023-04-04,株式会社丸一和田商店,,株式会社,北海道,紋別市,渚滑町２丁目４１０６番地,,01,219,0995171,,,2023-04-04,清算の結了等,,,2015-10-05,1,,,,,マルイチワダショウテン,0
2486,8010003002869,登記記録の閉鎖等,0,2023-04-10,2023-03-31,合資会社伊勢權酒店,,合資会社,東京都,千代田区,岩本町２丁目１４番１２号,,13,101,1010032,,,2023-03-31,清算の結了等,,,2015-10-05,1,,,,,イセゴンサケテン,0
2492,8010005031783,登記記録の閉鎖等,0,2023-04-10,2023-04-03,一般社団法人リバーサイド・ホールディングス,,その他の設立登記法人,東京都,千代田区,内幸町２丁目１番６号,,13,101,1000011,,,2023-04-03,清算の結了等,,,2020-04-28,1,,,,,リバーサイドホールディングス,0
2493,8010101003579,登記記録の閉鎖等,0,2023-04-10,2023-03-31,ヘルプ株式会社,,株式会社,東京都,目黒区,南２丁目１０番１５号,,13,110,1520013,,,2023-03-31,合併による解散等,9010101008206,令和５年３月３１日東京都目黒区南二丁目１０番１５号株式会社エメ（9010101008206）に合併し解散,2015-10-05,1,,,,,ヘルプ,0
2497,8010401101883,登記記録の閉鎖等,0,2023-04-10,2023-03-28,エスエフホールディングス株式会社,,株式会社,東京都,港区,虎ノ門３丁目２２番１０－２０１号,,13,103,1050001,,,2023-03-28,清算の結了等,,,2015-10-05,1,,,,,エスエフホールディングス,0
2500,8010401120487,登記記録の閉鎖等,0,2023-04-10,2023-03-28,エスピーコンサルティング株式会社,,株式会社,東京都,港区,虎ノ門３丁目２２番１０－２０１号,,13,103,1050001,,,2023-03-28,清算の結了等,,,2015-10-05,1,,,,,エスピーコンサルティング,0
2504,8010403014019,登記記録の閉鎖等,0,2023-04-10,2023-03-28,合同会社ＳＡＰＲ２,,合同会社,東京都,港区,虎ノ門５丁目１番４号,,13,103,1050001,,,2023-03-28,清算の結了等,,,2015-10-30,1,,,,,エスエーピーアールツー,0
2534,8011301018391,登記記録の閉鎖等,0,2023-04-10,2023-03-31,株式会社東伍,,株式会社,東京都,杉並区,永福４丁目２５番１２号,,13,115,1680064,,,2023-03-31,清算の結了等,,,2015-10-05,1,,,,,トウゴ,0
2538,8011701006285,登記記録の閉鎖等,0,2023-04-10,2023-04-03,株式会社二宮幸文堂,,株式会社,東京都,江戸川区,南小岩６丁目２６番１２号,,13,123,1330056,,,2023-04-03,清算の結了等,,,2015-10-05,1,,,,,,0
2546,8013301023066,登記記録の閉鎖等,0,2023-04-10,2023-03-30,株式会社オリエンタルベリー,,株式会社,東京都,豊島区,目白２丁目１６－２２ロンアイル池袋,,13,116,1710031,,,2023-03-30,清算の結了等,,,2015-10-05,1,,,,,オリエンタルベリー,0
2550,8013401007225,登記記録の閉鎖等,0,2023-04-10,2023-04-03,株式会社グリーンステージ,,株式会社,東京都,多摩市,関戸６丁目４番地の１２,,13,224,2060011,,,2023-04-03,合併による解散等,2013401006488,令和５年４月１日東京都多摩市関戸六丁目４番１２号株式会社サントス（2013401006488）に合併し解散,2015-10-05,1,,,,,グリーンステージ,0
2580,8050001036403,登記記録の閉鎖等,0,2023-04-10,2023-04-03,株式会社弘輝フーズ,,株式会社,茨城県,下妻市,山尻１３５番地１,,08,210,3040045,,,2023-04-03,合併による解散等,6050001014889,令和５年４月１日茨城県下妻市山尻１３５番地２株式会社弘輝（6050001014889）に合併し解散,2015-10-05,1,,,,,コウキフーズ,0
2583,8050003004267,登記記録の閉鎖等,0,2023-04-10,2023-03-31,合同会社あづま小富士ＳＳ第一発電所,,合同会社,茨城県,つくば市,花室９６２番地３,,08,220,3050025,,,2023-03-31,清算の結了等,,,2018-07-09,1,,,,,アヅマコフジエスエスダイイチハツデンショ,0
2587,8050005011261,登記記録の閉鎖等,0,2023-04-10,2023-03-31,特定非営利活動法人ライフコーディネーター,,その他の設立登記法人,茨城県,水戸市,千波町１７３５番地の１スパニッシュコー卜Ａ棟３０６号,,08,201,3100851,,,2023-03-31,清算の結了等,,,2015-10-05,1,,,,,ライフコーディネーター,0
2591,8070002018547,登記記録の閉鎖等,0,2023-04-10,2023-04-03,有限会社エフ・シー・ピー,,有限会社,群馬県,伊勢崎市,除ケ町２７３番地２,,10,204,3720832,,,2023-04-03,清算の結了等,,,2015-10-05,1,,,,,エフシーピー,0
2614,8120001203581,登記記録の閉鎖等,0,2023-04-10,2023-04-05,エステートアークス株式会社,,株式会社,愛知県,名古屋市千種区,幸川町１丁目１３番地２,,23,101,4640815,,,2023-04-05,清算の結了等,,,2017-02-08,1,,,,,エステートアークス,0
2624,8120901044605,登記記録の閉鎖等,0,2023-04-10,2023-04-03,スポーツマインダー株式会社,,株式会社,大阪府,茨木市,水尾３丁目２番３０号,,27,211,5670891,,,2023-04-03,合併による解散等,5120901034996,令和５年４月１日大阪府茨木市水尾三丁目２番３０号エイチエスジャパン株式会社（5120901034996）に合併し解散,2021-07-09,1,,,,,スポーツマインダー,0
2638,8140001025586,登記記録の閉鎖等,0,2023-04-10,2023-04-03,株式会社イーモード,,株式会社,兵庫県,神戸市長田区,大日丘町２丁目１番地,,28,106,6530872,,,2023-04-03,清算の結了等,,,2015-10-05,1,,,,,,0
2643,8140001080846,登記記録の閉鎖等,0,2023-04-10,2023-04-04,株式会社三和エス・ティー,,株式会社,兵庫県,伊丹市,昆陽南１丁目１番５－７０２号,,28,207,6640888,,,2023-04-04,合併による解散等,3140001053724,令和５年４月１日兵庫県尼崎市塚口町三丁目３８番地の７株式会社エリアプランニング（3140001053724）に合併し解散,2015-10-05,1,,,,,サンワエスティー,0
2648,8140001118019,登記記録の閉鎖等,0,2023-04-10,2023-04-03,エイチプラスフォー株式会社,,株式会社,兵庫県,芦屋市,大桝町１番１８号,,28,206,6590066,,,2023-04-03,合併による解散等,2140001112885,令和５年４月１日兵庫県芦屋市大桝町１番１８号Ｉ＆Ｈ株式会社（2140001112885）に合併し解散,2020-07-15,1,,,,,エイチプラスフォー,0
2682,8180001065711,登記記録の閉鎖等,0,2023-04-10,2023-04-06,株式会社ハルカプランニング,,株式会社,愛知県,名古屋市東区,砂田橋３丁目２番,,23,102,4610045,,,2023-04-06,清算の結了等,,,2015-10-05,1,,,,,ハルカプランニング,0
2711,8200002005845,登記記録の閉鎖等,0,2023-04-10,2023-04-03,有限会社ズーム,,有限会社,岐阜県,岐阜市,県町１丁目５番地,,21,201,5008176,,,2023-04-03,清算の結了等,,,2015-10-05,1,,,,,ズーム,0
2755,8330005009855,登記記録の閉鎖等,0,2023-04-10,2023-04-03,税理士法人ユリイカ,,その他の設立登記法人,熊本県,熊本市東区,京塚本町７番３５号,00112988,43,102,8620952,,,2023-04-03,清算の結了等,,,2018-04-05,1,,,,,ユリイカ,0
2766,8370001004245,登記記録の閉鎖等,0,2023-04-10,2023-04-03,吉成電気工事株式会社,,株式会社,宮城県,仙台市青葉区,吉成２丁目１９番６号,,04,101,9893205,,,2023-04-03,清算の結了等,,,2015-10-05,1,,,,,ヨシナリデンキコウジ,0
2779,8402701000503,登記記録の閉鎖等,0,2023-04-10,2023-04-03,株式会社美弥ハウス,,株式会社,岩手県,大船渡市,赤崎町字大洞３７番地３４,,03,203,0220007,,,2023-04-03,清算の結了等,,,2015-10-05,1,,,,,,0
2841,9010405018479,登記記録の閉鎖等,0,2023-04-10,2023-03-28,一般社団法人杜の街づくりＰＪ２,,その他の設立登記法人,東京都,港区,元赤坂１丁目１番７号,,13,103,1070051,,,2023-03-28,清算の結了等,,,2020-02-07,1,,,,,モリノマチヅクリピージェイツー,0
2846,9010601014513,登記記録の閉鎖等,0,2023-04-10,2023-03-31,株式会社クロス・ポイント,,株式会社,東京都,文京区,湯島２丁目２９番３号,,13,105,1130034,,,2023-03-31,清算の結了等,,,2015-10-05,1,,,,,クロスポイント,0
2853,9010801026928,登記記録の閉鎖等,0,2023-04-10,2023-03-31,株式会社ＨＬＣ,,株式会社,東京都,大田区,上池台３丁目１２番８号,,13,111,1450064,,,2023-03-31,清算の結了等,,,2016-07-29,1,,,,,エイチエルシー,0
2859,9011001027972,登記記録の閉鎖等,0,2023-04-10,2023-03-31,株式会社スワン・ソング,,株式会社,東京都,渋谷区,渋谷２丁目２４番１２号,,13,113,1500002,,,2023-03-31,合併による解散等,7011001093447,令和５年３月３１日東京都渋谷区渋谷二丁目２４番１２号株式会社ロッキング・オン・ジャパン（7011001093447）に合併し解散,2015-10-05,1,,,,,スワンソング,0
2860,9011001099459,登記記録の閉鎖等,0,2023-04-10,2023-03-31,株式会社ＩＣＳ,,株式会社,東京都,豊島区,西池袋１丁目４番１０号,,13,116,1710021,,,2023-03-31,清算の結了等,,,2015-10-05,1,,,,,アイシーエス,0
2867,9011101009177,登記記録の閉鎖等,0,2023-04-10,2023-04-03,株式会社ジムコンピユータシステム,,株式会社,東京都,新宿区,西新宿６丁目１６番６号,,13,104,1600023,,,2023-04-03,合併による解散等,5011101009230,令和５年４月１日東京都新宿区西新宿六丁目１６番６号株式会社ジムマネジメント（5011101009230）に合併し解散,2015-10-05,1,,,,,ジムコンピュータシステム,0
2868,9011101075467,登記記録の閉鎖等,0,2023-04-10,2023-03-30,ＬＹ－ＨＩＳトラベル株式会社,,株式会社,東京都,中央区,新川１丁目２２－１１,,13,102,1040033,,,2023-03-30,清算の結了等,,,2015-12-17,1,,,,,エルワイエイチアイエストラベル,0
2872,9011103009191,登記記録の閉鎖等,0,2023-04-10,2023-04-05,合同会社ＥＳ４１,,合同会社,東京都,新宿区,下宮比町１番４号,,13,104,1620822,,,2023-04-05,清算の結了等,,,2019-10-24,1,,,,,イーエスヨンジュウイチ,0
2877,9011302011691,登記記録の閉鎖等,0,2023-04-10,2023-04-03,株式会社マーベリオン,,株式会社,東京都,世田谷区,経堂５丁目２７番２６号－２０２,,13,112,1560052,,,2023-04-03,清算の結了等,,,2015-10-05,1,,,,,,0
2883,9011801012744,登記記録の閉鎖等,0,2023-04-10,2023-04-04,株式会社ヤマザキ工業,,株式会社,東京都,足立区,西新井７丁目１９番２号,,13,121,1230841,,,2023-04-04,清算の結了等,,,2015-10-05,1,,,,,ヤマザキコウギョウ,0
2892,9012405004616,登記記録の閉鎖等,0,2023-04-10,2023-04-05,一般社団法人サポートズー,,その他の設立登記法人,東京都,府中市,多磨町１丁目３９番地の２アークテラス多磨２０６,,13,206,1830002,,,2023-04-05,清算の結了等,,,2021-07-13,1,,,,,サポートズー,0
2916,9021002063842,登記記録の閉鎖等,0,2023-04-10,2023-04-04,有限会社共和プランニング,,有限会社,神奈川県,横須賀市,粟田２丁目６番５号,,14,201,2390845,,,2023-04-04,清算の結了等,,,2015-10-05,1,,,,,,0
2952,9090001012275,登記記録の閉鎖等,0,2023-04-10,2023-04-03,株式会社中央倉庫,,株式会社,山梨県,南巨摩郡南部町,南部字南田９４７０番地,,19,366,4092212,,,2023-04-03,清算の結了等,,,2015-10-05,1,,,,,チュウオウソウコ,0
2978,9120005000116,登記記録の閉鎖等,0,2023-04-10,2023-04-05,天理教関治分教会,,その他の設立登記法人,大阪府,大阪市港区,弁天４丁目１１番５号,,27,107,5520007,,,2023-04-05,合併による解散等,7500005005152,令和５年４月３日愛媛県今治市菊間町浜１０８３番地天理教菊間分教会（7500005005152）に合併し解散,2015-10-05,1,,,,,テンリキョウセキハルブンキョウカイ,0
2985,9120902021552,登記記録の閉鎖等,0,2023-04-10,2023-04-04,有限会社トレジャーブレイン,,有限会社,大阪府,豊中市,桜の町３丁目９番１４－２０２号,,27,203,5600054,,,2023-04-04,清算の結了等,,,2015-10-05,1,,,,,トレジャーブレイン,0
2991,9130001010984,登記記録の閉鎖等,0,2023-04-10,2023-04-03,株式会社セントラル,,株式会社,京都府,京都市上京区,千本通中立売上る玉屋町３９番地,,26,102,6028286,,,2023-04-03,合併による解散等,4130001018628,令和５年４月１日京都市下京区五条通新町西入西錺屋町１番地富光商事株式会社（4130001018628）に合併し解散,2015-10-05,1,,,,,セントラル,0
2993,9130001043547,登記記録の閉鎖等,0,2023-04-10,2023-04-04,株式会社仲八商店,,株式会社,京都府,舞鶴市,字余部上２番地の１,,26,202,6250083,,,2023-04-04,清算の結了等,,,2015-10-05,1,,,,,ナカハチショウテン,0
3007,9140001060590,登記記録の閉鎖等,0,2023-04-10,2023-04-04,株式会社日本フエルトサービス,,株式会社,兵庫県,姫路市,本町６８番地糸吉ビル１０３号,,28,201,6700012,,,2023-04-04,清算の結了等,,,2015-10-05,1,,,,,ニホンフエルトサービス,0
3019,9140002039337,登記記録の閉鎖等,0,2023-04-10,2023-03-31,有限会社生野観光,,有限会社,兵庫県,朝来市,生野町口銀谷２２４１番地の１,,28,225,6793301,,,2023-03-31,清算の結了等,,,2015-10-05,1,,,,,イクノカンコウ,0
3020,9140003012342,登記記録の閉鎖等,0,2023-04-10,2023-04-05,合同会社Ｓ＆Ｓ,,合同会社,兵庫県,神戸市北区,桂木４丁目２番地の１３,,28,109,6511223,,,2023-04-05,合併による解散等,5180001095901,令和５年３月３１日愛知県半田市乙川新町一丁目４９番地の３株式会社グローバルテクノロジー（5180001095901）に合併し解散,2017-08-09,1,,,,,,0
3026,9150001026038,登記記録の閉鎖等,0,2023-04-10,2023-03-31,株式会社ｇｌｏｗ‐ｂｌｏｏｍ,,株式会社,奈良県,橿原市,内膳町３丁目８番５号ＢｉｚＷｏｒｋ３０４,,29,205,6340804,,,2023-03-31,清算の結了等,,,2022-12-23,1,,,,,グローブルーム,0
3033,9180001002804,登記記録の閉鎖等,0,2023-04-10,2023-04-06,株式会社ビットウェア,,株式会社,愛知県,名古屋市名東区,上社２丁目２８番地,,23,115,4650025,,,2023-04-06,清算の結了等,,,2015-10-05,1,,,,,ビットウェア,0
3054,9180002013775,登記記録の閉鎖等,0,2023-04-10,2023-03-31,有限会社サカイ商店,,有限会社,愛知県,名古屋市南区,元塩町４丁目１番地,,23,112,4570823,,,2023-03-31,清算の結了等,,,2015-10-05,1,,,,,サカイショウテン,0
3104,9310002016203,登記記録の閉鎖等,0,2023-04-10,2023-04-03,有限会社坂富士建設,,有限会社,長崎県,諫早市,真崎町９６４番地６,,42,204,8540084,,,2023-04-03,清算の結了等,,,2015-10-05,1,,,,,サカフジケンセツ,0
3107,9330001012928,登記記録の閉鎖等,0,2023-04-10,2023-04-03,熊本東和薬品株式会社,,株式会社,熊本県,宇城市,小川町川尻２０番地３,,43,213,8690623,,,2023-04-03,合併による解散等,1330001004750,令和５年４月１日熊本市北区武蔵ケ丘七丁目２番５５号株式会社ヤマトメディカル（1330001004750）に合併し解散,2015-10-05,1,,,,,クマモトトウワヤクヒン,0
3114,9340002008214,登記記録の閉鎖等,0,2023-04-10,2023-04-06,有限会社福田（正）建設,,有限会社,鹿児島県,鹿児島市,上竜尾町３４番１１号,,46,201,8920851,,,2023-04-06,清算の結了等,,,2015-10-05,1,,,,,フクダケンセツ,0
3115,9340002025093,登記記録の閉鎖等,0,2023-04-10,2023-04-06,有限会社鹿屋給食センター,,有限会社,鹿児島県,鹿屋市,川東町７１５１番地,,46,203,8930031,,,2023-04-06,清算の結了等,,,2015-10-05,1,,,,,カノヤキュウショクセンター,0
3133,9400001000917,登記記録の閉鎖等,0,2023-04-10,2023-04-03,大日建設株式会社,,株式会社,岩手県,盛岡市,紺屋町２番１２号,,03,201,0200885,,,2023-04-03,清算の結了等,,,2015-10-05,1,,,,,,0
3134,9400002007333,登記記録の閉鎖等,0,2023-04-10,2023-04-03,株式会社庭匠館,,株式会社,岩手県,紫波郡紫波町,桜町字大坪３５番地１,,03,321,0283307,,,2023-04-03,合併による解散等,1400001003869,令和５年４月１日岩手県紫波郡紫波町桜町字大坪３５番地の１橘建設株式会社（1400001003869）に合併し解散,2015-10-05,1,,,,,テイショウカン,0
3145,9460305001829,登記記録の閉鎖等,0,2023-04-10,2023-04-06,税理士法人アドヴァンス会計,,その他の設立登記法人,北海道,網走市,駒場北３丁目４番２号,,01,211,0930033,,,2023-04-06,清算の結了等,,,2015-10-05,1,,,,,アドヴァンスカイケイ,0
3146,9470001002337,登記記録の閉鎖等,0,2023-04-10,2023-04-03,株式会社セントラル建工,,株式会社,香川県,高松市,郷東町１９８番地２,,37,201,7618031,,,2023-04-03,合併による解散等,3470001003571,令和５年４月１日香川県高松市郷東町２１６番地株式会社フソウリブテック（3470001003571）に合併し解散,2015-10-05,1,,,,,セントラルケンコウ,0
3151,9500001016408,登記記録の閉鎖等,0,2023-04-10,2023-04-04,株式会社サンライズファーム西条,,株式会社,愛媛県,西条市,神拝甲２３３番地の１,,38,206,7930041,,,2023-04-04,清算の結了等,,,2015-10-05,1,,,,,サンライズファームサイジョウ,0
