sequenceNumber,corporateNumber,process,correct,updateDate,changeDate,name,nameImageId,kind,prefectureName,cityName,streetNumber,addressImageId,prefectureCode,cityCode,postCode,addressOutside,addressOutsideImageId,closeDate,closeCause,successorCorporateNumber,changeCause,assignmentDate,latest,enName,enPrefectureName,enCityName,enAddressOutside,furigana,hihyoji
1,1000030020248,新規,0,2022-10-20,2022-10-20,風合瀬財産区,,地方公共団体,青森県,西津軽郡深浦町,大字深浦字苗代沢８４－２,,02,323,0382324,,,,,,,2022-10-20,1,,,,,カソセザイサンク,0
9,1010001230172,新規,0,2022-10-20,2022-10-20,株式会社東京ドリーム,,株式会社,東京都,文京区,西片２丁目１９番２４号,,13,105,1130024,,,,,,,2022-10-20,1,,,,,トウキョウドリーム,0
16,1010101015374,新規,0,2022-10-20,2022-10-20,株式会社ルミエールインターナショナル,,株式会社,東京都,八王子市,兵衛１丁目３番５－１１３号,,13,201,1920918,,,,,,,2022-10-20,1,,,,,ルミエールインターナショナル,0
23,1010401170340,新規,0,2022-10-20,2022-10-20,株式会社ＯＣＴＯＰＵＳ,,株式会社,東京都,港区,南青山７丁目４番１９号,,13,103,1070062,,,,,,,2022-10-20,1,,,,,オクトパス,0
32,1010605004146,新規,0,2022-10-20,2022-10-20,一般社団法人日本在宅医療サービス協会,,その他の設立登記法人,東京都,墨田区,太平１丁目１１番７号グランドステータスＫＩＹＡ３階,,13,107,1300012,,,,,,,2022-10-20,1,,,,,ニホンザイタクイリョウサービスキョウカイ,0
37,1010805002981,新規,0,2022-10-20,2022-10-20,ＡｂａｃｕｓＳｔｕｄｉｏ社会保険労務士法人,,その他の設立登記法人,東京都,大田区,西蒲田８丁目２４番８号井門西蒲田ビル６階,,13,111,1440051,,,,,,,2022-10-20,1,,,,,アバカススタジオ,0
38,1010903007726,新規,0,2022-10-20,2022-10-20,合同会社みきママ,,合同会社,東京都,世田谷区,赤堤１丁目３５番１０号,,13,112,1560044,,,,,,,2022-10-20,1,,,,,ミキママ,0
43,1011001150286,新規,0,2022-10-20,2022-10-20,株式会社ＣＭＣソフト,,株式会社,東京都,渋谷区,神宮前６丁目２３番４号桑野ビル２階,,13,113,1500001,,,,,,,2022-10-20,1,,,,,シーエムシーソフト,0
47,1011003015520,新規,0,2022-10-20,2022-10-20,合同会社ＭＯＢＩＬＩＳ　ＩＮ　ＭＯＢＩＬＩ,,合同会社,東京都,渋谷区,恵比寿２丁目１５番５号,,13,113,1500013,,,,,,,2022-10-20,1,,,,,モビリスインモビリ,0
50,1011101100546,新規,0,2022-10-20,2022-10-20,アントレラボ株式会社,,株式会社,東京都,新宿区,市谷田町３丁目８番地市ヶ谷科学技術イノベーションセンタービル２階,,13,104,1620843,,,,,,,2022-10-20,1,,,,,アントレラボ,0
52,1011301028199,新規,0,2022-10-20,2022-10-20,株式会社エニイ・サービス,,株式会社,東京都,杉並区,上高井戸２丁目８番１６号,,13,115,1680074,,,,,,,2022-10-20,1,,,,,エニイサービス,0
53,1011303004553,新規,0,2022-10-20,2022-10-20,合同会社Ｅｌｅｐｈａｎｔ　Ｔｒｕｎｋ,,合同会社,東京都,杉並区,阿佐谷北３丁目４０番４号メイツ阿佐谷２０１,,13,115,1660001,,,,,,,2022-10-20,1,,,,,エレファントトランク,0
55,1011401024619,新規,0,2022-10-20,2022-10-20,晟晶株式会社,,株式会社,東京都,板橋区,小茂根１丁目２５－１６－２０１号室,,13,119,1730037,,,,,,,2022-10-20,1,,,,,セイショウ,0
57,1011501028552,新規,0,2022-10-20,2022-10-20,思棟株式会社,,株式会社,東京都,北区,東田端２丁目９番１７－２０８号,,13,117,1140013,,,,,,,2022-10-20,1,,,,,シトウ,0
64,1011701025713,新規,0,2022-10-20,2022-10-20,吉迷商貿株式会社,,株式会社,東京都,江戸川区,西小岩５丁目１２番１６号ＫＵＲＡＳＳＫＯＩＷＡ２０４号室,,13,123,1330057,,,,,,,2022-10-20,1,,,,,キチマイショウボウ,0
65,1011703003279,新規,0,2022-10-20,2022-10-20,ノムラジャパン合同会社,,合同会社,東京都,江戸川区,一之江７丁目８８番１２－８０２号,,13,123,1320024,,,,,,,2022-10-20,1,,,,,ノムラジャパン,0
66,1011801041412,新規,0,2022-10-20,2022-10-20,ファストビズ株式会社,,株式会社,東京都,葛飾区,小菅１丁目３７－１－２１８,,13,122,1240001,,,,,,,2022-10-20,1,,,,,ファストビズ,0
67,1011801041429,新規,0,2022-10-20,2022-10-20,株式会社ｓｏｒａ,,株式会社,東京都,足立区,花畑６丁目２２番１８号,,13,121,1210061,,,,,,,2022-10-20,1,,,,,ソラ,0
70,1012403005631,新規,0,2022-10-20,2022-10-20,崎陽新社合同会社,,合同会社,東京都,多摩市,中沢１丁目１７番１号ヴェルデコート多摩センター２１４室,,13,224,2060036,,,,,,,2022-10-20,1,,,,,キヨウシンシャ,0
72,1012701017312,新規,0,2022-10-20,2022-10-20,株式会社スイーツマーグー,,株式会社,東京都,東村山市,恩多町３丁目１７番地１セレーノ１０４,,13,213,1890011,,,,,,,2022-10-20,1,,,,,スイーツマーグー,0
93,1021003012244,新規,0,2022-10-20,2022-10-20,ＡＡＲＳ合同会社,,合同会社,神奈川県,小田原市,国府津２２６９－２７,,14,206,2560812,,,,,,,2022-10-20,1,,,,,アールス,0
94,1021005012639,新規,0,2022-10-20,2022-10-20,特定非営利活動法人歴史人物学習館,,その他の設立登記法人,神奈川県,足柄下郡湯河原町,土肥４丁目１１番地の４ライオンズマンション湯河原５０４号,,14,384,2590303,,,,,,,2022-10-20,1,,,,,レキシジンブツガクシュウカン,0
96,1030001150690,新規,0,2022-10-20,2022-10-20,株式会社ビッグウィッシュ,,株式会社,埼玉県,川口市,大字石神５２４番地,,11,203,3330823,,,,,,,2022-10-20,1,,,,,ビッグウィッシュ,0
105,1040001125460,新規,0,2022-10-20,2022-10-20,イーカイ株式会社,,株式会社,千葉県,千葉市花見川区,幕張町１丁目７６９３番地３５ベイコスモ３０３号,,12,102,2620032,,,,,,,2022-10-20,1,,,,,イーカイ,0
108,1040003021088,新規,0,2022-10-20,2022-10-20,合同会社ドルフィン,,合同会社,千葉県,市川市,鬼高２丁目１２番２３－１００３号市川ハイツＡ棟,,12,203,2720015,,,,,,,2022-10-20,1,,,,,ドルフィン,0
117,1050003006930,新規,0,2022-10-20,2022-10-20,ＳＨＡＡ．インターナショナル合同会社,,合同会社,茨城県,龍ケ崎市,馴馬町４８９番地５エイム２０１号室,,08,208,3010004,,,,,,,2022-10-20,1,,,,,シャーインターナショナル,0
118,1050003006939,新規,0,2022-10-20,2022-10-20,合同会社ＩＷＡＭＯＴＯ,,合同会社,茨城県,つくば市,天久保２丁目１０番２３号,,08,220,3050005,,,,,,,2022-10-20,1,,,,,イワモト,0
121,1060001035369,新規,0,2022-10-20,2022-10-20,ＯＧＡＷＡ晃株式会社,,株式会社,栃木県,真岡市,亀山２３６１番地１,,09,209,3214363,,,,,,,2022-10-20,1,,,,,オガワコウ,0
127,1060003004272,新規,0,2022-10-20,2022-10-20,合同会社まるしぇＣ,,合同会社,栃木県,鹿沼市,上日向９４５番１号,,09,205,3220076,,,,,,,2022-10-20,1,,,,,マルシェシー,0
135,1080401026107,新規,0,2022-10-20,2022-10-20,株式会社ウェルトラ,,株式会社,静岡県,浜松市中区,砂山町３５５－４ハマキョウレックス浜松駅南ビル４Ｆ,,22,131,4300926,,,,,,,2022-10-20,1,,,,,ウェルトラ,0
144,1120001249648,新規,0,2022-10-20,2022-10-20,株式会社和日羽,,株式会社,大阪府,大阪市港区,弁天５丁目６番２１－１０１号,,27,107,5520007,,,,,,,2022-10-20,1,,,,,ワカバ,0
145,1120001249672,新規,0,2022-10-20,2022-10-20,株式会社ＪＰ　Ｎａｋａｍａ,,株式会社,大阪府,大阪市西区,九条南２丁目１６番１３号３１３室,,27,106,5500025,,,,,,,2022-10-20,1,,,,,ジェイピーナカマ,0
146,1120001249680,新規,0,2022-10-20,2022-10-20,株式会社キンジョウケミカル,,株式会社,大阪府,大阪市北区,梅田１丁目１１番４－１１００号,,27,127,5300001,,,,,,,2022-10-20,1,,,,,キンジョウケミカル,0
147,1120001249689,新規,0,2022-10-20,2022-10-20,アークキャピタル株式会社,,株式会社,大阪府,大阪市東住吉区,杭全３丁目３番１６号２Ｆ,,27,121,5460002,,,,,,,2022-10-20,1,,,,,アークキャピタル,0
148,1120001249697,新規,0,2022-10-20,2022-10-20,株式会社エムティ,,株式会社,大阪府,大阪市西区,新町２丁目１番２－１９０１号,,27,106,5500013,,,,,,,2022-10-20,1,,,,,エムティ,0
152,1120003022664,新規,0,2022-10-20,2022-10-20,ブレビス合同会社,,合同会社,大阪府,大阪市北区,梅田１丁目２番２号大阪駅前第２ビル２階５－６号室,,27,127,5300001,,,,,,,2022-10-20,1,,,,,ブレビス,0
156,1120103004892,新規,0,2022-10-20,2022-10-20,アーステクト合同会社,,合同会社,大阪府,堺市東区,日置荘西町１丁２２番１９号,,27,143,5998114,,,,,,,2022-10-20,1,,,,,アーステクト,0
165,1130005016614,新規,0,2022-10-20,2022-10-20,一般社団法人京都陸上アカデミー,,その他の設立登記法人,京都府,京都市下京区,朱雀宝蔵町４４番地協栄ビル２階京都朱雀スタジオ,,26,106,6008846,,,,,,,2022-10-20,1,,,,,キョウトリクジョウアカデミー,0
170,1140001127744,新規,0,2022-10-20,2022-10-20,株式会社エフ・ケイサポート,,株式会社,兵庫県,神戸市西区,王塚台１丁目８０番地の１,,28,111,6512135,,,,,,,2022-10-20,1,,,,,エフケイサポート,0
171,1140001127769,新規,0,2022-10-20,2022-10-20,株式会社ミットデザイン,,株式会社,兵庫県,神戸市北区,泉台３丁目１６番地の１３,,28,109,6511141,,,,,,,2022-10-20,1,,,,,ミットデザイン,0
174,1140003018256,新規,0,2022-10-20,2022-10-20,ファストイーサーブ合同会社,,合同会社,兵庫県,淡路市,釜口２２４８番,,28,226,6562334,,,,,,,2022-10-20,1,,,,,ファストイーサーブ,0
186,1180001153448,新規,0,2022-10-20,2022-10-20,株式会社ブレイブ,,株式会社,愛知県,江南市,赤童子町大堀１８番地ストーク江南３０２号,,23,217,4838221,,,,,,,2022-10-20,1,,,,,ブレイブ,0
187,1180001153456,新規,0,2022-10-20,2022-10-20,株式会社バイソンリース,,株式会社,愛知県,名古屋市中村区,烏森町８丁目８２２,,23,105,4530855,,,,,,,2022-10-20,1,,,,,バイソンリース,0
189,1180003024358,新規,0,2022-10-20,2022-10-20,合同会社マリア,,合同会社,愛知県,名古屋市中村区,北浦町５２番地の２コーポヤマオカ２Ｄ号,,23,105,4530824,,,,,,,2022-10-20,1,,,,,マリア,0
204,1240001060530,新規,0,2022-10-20,2022-10-20,株式会社Ｋダイニング,,株式会社,広島県,広島市東区,上大須賀町１番６－２０２号,,34,102,7320056,,,,,,,2022-10-20,1,,,,,ケイダイニング,0
208,1270001008650,新規,0,2022-10-20,2022-10-20,株式会社ＶＩＣＴ,,株式会社,鳥取県,鳥取市,青谷町河原９３７番地１,,31,201,6890515,,,,,,,2022-10-20,1,,,,,ビクト,0
210,1290003013093,新規,0,2022-10-20,2022-10-20,合同会社インヘル,,合同会社,福岡県,福岡市博多区,吉塚本町９番１１－５１２号パピヨンシティオ２１ステーションアベニュー１１号棟,,40,132,8120046,,,,,,,2022-10-20,1,,,,,インヘル,0
211,1290005018826,新規,0,2022-10-20,2022-10-20,一般社団法人フォレストグループ福祉共済会,,その他の設立登記法人,福岡県,福岡市博多区,東比恵３丁目１－２,,40,132,8120007,,,,,,,2022-10-20,1,,,,,フォレストグループフクシキョウサイカイ,0
218,1340001025102,新規,0,2022-10-20,2022-10-20,恒大産業株式会社,,株式会社,鹿児島県,鹿児島市,春山町２６５５番地２,,46,201,8992704,,,,,,,2022-10-20,1,,,,,コウダイサンギョウ,0
232,1430001087694,新規,0,2022-10-20,2022-10-20,株式会社メタルワーク札幌,,株式会社,北海道,札幌市西区,西町南１１丁目２番１３－３０１号,,01,107,0630062,,,,,,,2022-10-20,1,,,,,メタルワークサッポロ,0
237,1460103001492,新規,0,2022-10-20,2022-10-20,合同会社想ｍｉｎｄ,,合同会社,北海道,帯広市,東一条南２４丁目２番地４日東ハイツ２０５号室,,01,207,0800801,,,,,,,2022-10-20,1,,,,,ソウマインド,0
241,1500003002909,新規,0,2022-10-20,2022-10-20,合同会社ＲＲＲ,,合同会社,愛媛県,松山市,二番町１丁目４番地８Ｆ－ＣＩＴＹビル５Ｆ,,38,201,7900002,,,,,,,2022-10-20,1,,,,,トリプルアール,0
243,2000030020247,新規,0,2022-10-20,2022-10-20,驫木財産区,,地方公共団体,青森県,西津軽郡深浦町,大字深浦字苗代沢８４－２,,02,323,0382324,,,,,,,2022-10-20,1,,,,,トドロキザイサンク,0
253,2010001230238,新規,0,2022-10-20,2022-10-20,株式会社ＡＳＵＣＲＥＡＴＥ,,株式会社,東京都,中央区,銀座１丁目２２番１１号銀座大竹ビジデンス２階,,13,102,1040061,,,,,,,2022-10-20,1,,,,,アスクリエイト,0
254,2010001230287,新規,0,2022-10-20,2022-10-20,七鶴商事株式会社,,株式会社,東京都,千代田区,神田淡路町１丁目９番５号３０３号室,,13,101,1010063,,,,,,,2022-10-20,1,,,,,ナナツルショウジ,0
256,2010003038893,新規,0,2022-10-20,2022-10-20,合同会社ｔｏｍａｎｄｏ　ｓｏｌ,,合同会社,東京都,中央区,銀座１丁目１２番４号Ｎ＆ＥＢＬＤ．７階,,13,102,1040061,,,,,,,2022-10-20,1,,,,,トマンドソル,0
261,2010401170257,新規,0,2022-10-20,2022-10-20,ＪＮＳ株式会社,,株式会社,東京都,港区,浜松町２丁目２番１５号浜松町ダイヤビル２Ｆ,,13,103,1050013,,,,,,,2022-10-20,1,,,,,ジェイエヌエス,0
262,2010401170380,新規,0,2022-10-20,2022-10-20,ＢＲＯＷＮＳＴＯＮＥ株式会社,,株式会社,東京都,港区,元麻布３丁目１番６号,,13,103,1060046,,,,,,,2022-10-20,1,,,,,ブラウンストーン,0
268,2010403028734,新規,0,2022-10-20,2022-10-20,合同会社日本ハラールサービス,,合同会社,東京都,港区,浜松町２丁目２番１５号ダイヤビル２Ｆ,,13,103,1050013,,,,,,,2022-10-20,1,,,,,ニホンハラールサービス,0
269,2010403028742,新規,0,2022-10-20,2022-10-20,石川富来大坂山陸上風力発電合同会社,,合同会社,東京都,港区,新橋６丁目１７番２１号１０階,,13,103,1050004,,,,,,,2022-10-20,1,,,,,イシカワトギオオサカヤマリクジョウフウリョクハツデン,0
270,2010403028750,新規,0,2022-10-20,2022-10-20,合同会社Ｌｅ　Ｐａｉｌｌｏｎ,,合同会社,東京都,港区,虎ノ門５丁目１番４号,,13,103,1050001,,,,,,,2022-10-20,1,,,,,ルパイヨン,0
272,2010501049525,新規,0,2022-10-20,2022-10-20,株式会社ＳＯＬＡＴ,,株式会社,東京都,台東区,三筋２丁目１番９－４０４号クリオラベルヴィ蔵前,,13,106,1110055,,,,,,,2022-10-20,1,,,,,ソラット,0
274,2010601062015,新規,0,2022-10-20,2022-10-20,東興株式会社,,株式会社,東京都,江東区,東砂５丁目５番６－３０２号,,13,108,1360074,,,,,,,2022-10-20,1,,,,,トウギョウ,0
276,2010701043344,新規,0,2022-10-20,2022-10-20,株式会社Ｃｏｎｓａｌｏｖａ,,株式会社,東京都,品川区,大井７丁目１７番１６号ランテルナ山王２０４,,13,109,1400014,,,,,,,2022-10-20,1,,,,,コンサロバ,0
278,2010703006423,新規,0,2022-10-20,2022-10-20,合同会社Ｙ＆Ｔコンサルティング,,合同会社,東京都,品川区,西五反田３丁目１５番６号リードシー目黒不動前ビル５－１９,,13,109,1410031,,,,,,,2022-10-20,1,,,,,ワイアンドティーコンサルティング,0
286,2011001150418,新規,0,2022-10-20,2022-10-20,ポラロイドインターナショナル株式会社,,株式会社,東京都,渋谷区,神宮前４丁目２１番１０号ＵＲＡ表参道３階,,13,113,1500001,,,,,,,2022-10-20,1,,,,,ポラロイドインターナショナル,0
289,2011101100446,新規,0,2022-10-20,2022-10-20,株式会社ＬＩホールディングス,,株式会社,東京都,新宿区,西新宿６丁目６－３新宿国際ビルディング新館４階,,13,104,1600023,,,,,,,2022-10-20,1,,,,,エルアイホールディングス,0
292,2011301028173,新規,0,2022-10-20,2022-10-20,盛和株式会社,,株式会社,東京都,杉並区,梅里２丁目２５番１３号高円寺プラザ２１１室,,13,115,1660011,,,,,,,2022-10-20,1,,,,,セイワ,0
293,2011303004552,新規,0,2022-10-20,2022-10-20,合同会社Ｔｙｐｈｏｏｎ,,合同会社,東京都,杉並区,阿佐谷北３丁目４０番４号メイツ阿佐谷２０１,,13,115,1660001,,,,,,,2022-10-20,1,,,,,タイフーン,0
296,2011801041428,新規,0,2022-10-20,2022-10-20,株式会社ユニバーサルメディスター,,株式会社,東京都,足立区,本木西町１８番１５号,,13,121,1230856,,,,,,,2022-10-20,1,,,,,ユニバーサルメディスター,0
302,2012701017311,新規,0,2022-10-20,2022-10-20,株式会社ＪＢプラネッツ,,株式会社,東京都,清瀬市,元町１丁目３番５－５０６号,,13,221,2040021,,,,,,,2022-10-20,1,,,,,ジェイビープラネッツ,0
304,2012703002559,新規,0,2022-10-20,2022-10-20,合同会社Ｌｕｃｉａ,,合同会社,東京都,東村山市,栄町１丁目２１－３－１４０３アウリオンシティ,,13,213,1890013,,,,,,,2022-10-20,1,,,,,ルシア,0
306,2012801021907,新規,0,2022-10-20,2022-10-20,株式会社安原産業医事務所,,株式会社,東京都,国立市,北１丁目２番の７７,,13,215,1860001,,,,,,,2022-10-20,1,,,,,ヤスハラサンギョウイジムショ,0
319,2020001148644,新規,0,2022-10-20,2022-10-20,株式会社ＨＬＭ,,株式会社,神奈川県,川崎市幸区,大宮町９番地１,,14,132,2120014,,,,,,,2022-10-20,1,,,,,ヒューラマ,0
324,2021001077247,新規,0,2022-10-20,2022-10-20,株式会社Ｍ’ｓ　Ｔｏｐ,,株式会社,神奈川県,平塚市,めぐみが丘１丁目２番２２号,,14,203,2591220,,,,,,,2022-10-20,1,,,,,エムズトップ,0
325,2021003012276,新規,0,2022-10-20,2022-10-20,合同会社ｈａｐｌｕｓ,,合同会社,神奈川県,藤沢市,辻堂太平台２丁目９番１１－７号,,14,205,2510044,,,,,,,2022-10-20,1,,,,,ハプラス,0
327,2030001150649,新規,0,2022-10-20,2022-10-20,株式会社Ｋ＆,,株式会社,埼玉県,八潮市,茜町１丁目８番地９,,11,234,3400826,,,,,,,2022-10-20,1,,,,,ケーアンド,0
338,2040003021079,新規,0,2022-10-20,2022-10-20,合同会社Ｃｈｒｙｓａｎｔｈｅｍｕｍ,,合同会社,千葉県,勝浦市,串浜７８１番地２,,12,218,2995226,,,,,,,2022-10-20,1,,,,,クリサンセマム,0
339,2040003021095,新規,0,2022-10-20,2022-10-20,合同会社アヤアン商会,,合同会社,千葉県,八街市,朝日４５３番地４オフィスＡ,,12,230,2891101,,,,,,,2022-10-20,1,,,,,アヤアンショウカイ,0
345,2060001035376,新規,0,2022-10-20,2022-10-20,採用戦略株式会社,,株式会社,栃木県,鹿沼市,東末広町１９４０番地１２シマダヤビル３階,,09,205,3220039,,,,,,,2022-10-20,1,,,,,サイヨウセンリャク,0
351,2080103002669,新規,0,2022-10-20,2022-10-20,合同会社宙舎,,合同会社,静岡県,富士市,中央町１丁目１０‐９,,22,210,4170052,,,,,,,2022-10-20,1,,,,,ソラシャ,0
362,2100001035801,新規,0,2022-10-20,2022-10-20,株式会社ＮＡＫＥＤ　ＢＬＵＥ,,株式会社,長野県,上伊那郡箕輪町,大字中箕輪４２３４番地１クレストＣ２０４,,20,383,3994601,,,,,,,2022-10-20,1,,,,,ネーキッドブルー,0
372,2120001249572,新規,0,2022-10-20,2022-10-20,株式会社ＢＯＤＹ　ＣＡＲＥ,,株式会社,大阪府,大阪市淀川区,西三国２丁目１２番１８号,,27,123,5320006,,,,,,,2022-10-20,1,,,,,,0
373,2120001249655,新規,0,2022-10-20,2022-10-20,株式会社サンアイ,,株式会社,大阪府,大阪市東淀川区,豊里４丁目１０番１０号メゾン大京１Ｆ,,27,114,5330013,,,,,,,2022-10-20,1,,,,,サンアイ,0
374,2120001249663,新規,0,2022-10-20,2022-10-20,銭恵商事株式会社,,株式会社,大阪府,大阪市都島区,中野町１丁目３番２２号都島エンビィロイヤルハイツ３０３号室,,27,102,5340027,,,,,,,2022-10-20,1,,,,,センエイショウジ,0
377,2120003022696,新規,0,2022-10-20,2022-10-20,合同会社葵葉,,合同会社,大阪府,大阪市浪速区,桜川２丁目３番２８号,,27,111,5560022,,,,,,,2022-10-20,1,,,,,アオバ,0
380,2120103004891,新規,0,2022-10-20,2022-10-20,合同会社新,,合同会社,大阪府,岸和田市,包近町２４２番地の２,,27,202,5960101,,,,,,,2022-10-20,1,,,,,シン,0
393,2140001127743,新規,0,2022-10-20,2022-10-20,株式会社ＦＡＢＯＴ,,株式会社,兵庫県,西宮市,鷲林寺南町８番１７号,,28,204,6620002,,,,,,,2022-10-20,1,,,,,ファボット,0
394,2140001127776,新規,0,2022-10-20,2022-10-20,株式会社ｇｌｏｖｅ,,株式会社,兵庫県,神戸市灘区,大石東町５丁目８番１号（東和ビルＩＩ１０３号）,00128199,28,102,6570043,,,,,,,2022-10-20,1,,,,,グローヴ,0
398,2140003018255,新規,0,2022-10-20,2022-10-20,合同会社セビリア,,合同会社,兵庫県,洲本市,塩屋１丁目１番５７号,,28,205,6560021,,,,,,,2022-10-20,1,,,,,セビリア,0
407,2180001153471,新規,0,2022-10-20,2022-10-20,株式会社Ｈａｕｏｌｉ　Ｃｏｎｓｕｌｔｉｎｇ,,株式会社,愛知県,名古屋市中村区,太閤１丁目２０番９－７０１号,,23,105,4530801,,,,,,,2022-10-20,1,,,,,ハウオリコンサルティング,0
420,2200001040568,新規,0,2022-10-20,2022-10-20,株式会社Ｗｉｓｔｅｒｉａ,,株式会社,岐阜県,本巣郡北方町,高屋字西石仏南ノ町１０４番地５８,,21,421,5010458,,,,,,,2022-10-20,1,,,,,ウィステリア,0
431,2290001099282,新規,0,2022-10-20,2022-10-20,株式会社ＹＡＫＡＴＡ,,株式会社,福岡県,筑後市,大字久富１３８番地１,,40,211,8330056,,,,,,,2022-10-20,1,,,,,ヤカタ,0
432,2290001099290,新規,0,2022-10-20,2022-10-20,株式会社吉之仙,,株式会社,福岡県,春日市,須玖南４丁目３７番地,,40,218,8160863,,,,,,,2022-10-20,1,,,,,ヨシノセン,0
435,2290003013092,新規,0,2022-10-20,2022-10-20,エスフィール合同会社,,合同会社,福岡県,福岡市博多区,堅粕３丁目１８番１３号エクセレンテ博多２０２号,,40,132,8120043,,,,,,,2022-10-20,1,,,,,エスフィール,0
452,2360003012376,新規,0,2022-10-20,2022-10-20,ＴＫＯ合同会社,,合同会社,沖縄県,うるま市,字田場１３６１番地,,47,213,9042213,,,,,,,2022-10-20,1,,,,,ティーケーオー,0
455,2370005010534,新規,0,2022-10-20,2022-10-20,特定非営利活動法人こども食堂＆おとな食堂まごころ,,その他の設立登記法人,宮城県,石巻市,真野字小島２４７番地１,,04,202,9860002,,,,,,,2022-10-20,1,,,,,コドモショクドウアンドオトナショクドウマゴコロ,0
459,2410001013305,新規,0,2022-10-20,2022-10-20,山生ネクスト不動産株式会社,,株式会社,秋田県,秋田市,土崎港西１丁目２番３７号,,05,201,0110945,,,,,,,2022-10-20,1,,,,,サンセイネクストフドウサン,0
463,2430005014586,新規,0,2022-10-20,2022-10-20,一般社団法人おやこみらい,,その他の設立登記法人,北海道,札幌市北区,新川二条１２丁目７番１４号,,01,102,0010922,,,,,,,2022-10-20,1,,,,,オヤコミライ,0
469,2470001019296,新規,0,2022-10-20,2022-10-20,株式会社繁栄工業,,株式会社,香川県,丸亀市,川西町南５８１番地１ココベルＪ,,37,202,7630092,,,,,,,2022-10-20,1,,,,,ハンエイコウギョウ,0
473,3000030020246,新規,0,2022-10-20,2022-10-20,追良瀬財産区,,地方公共団体,青森県,西津軽郡深浦町,大字深浦字苗代沢８４－２,,02,323,0382324,,,,,,,2022-10-20,1,,,,,オイラセザイサンク,0
498,3010401170272,新規,0,2022-10-20,2022-10-20,株式会社Ｍａｃｒｏ,,株式会社,東京都,港区,赤坂８丁目４－１４青山タワープレイス８Ｆ,,13,103,1070052,,,,,,,2022-10-20,1,,,,,マクロ,0
499,3010401170347,新規,0,2022-10-20,2022-10-20,株式会社Ｆｒｉｓｔａｒｔ,,株式会社,東京都,港区,浜松町２丁目２番１５号浜松町ダイヤビル２Ｆ,,13,103,1050013,,,,,,,2022-10-20,1,,,,,フレスタート,0
500,3010401170355,新規,0,2022-10-20,2022-10-20,アイティート株式会社,,株式会社,東京都,港区,六本木４丁目３番１１号六本木ユニハウス２２３,,13,103,1060032,,,,,,,2022-10-20,1,,,,,アイティート,0
503,3010403028741,新規,0,2022-10-20,2022-10-20,９０Ｈｏｌｄｉｎｇｓ合同会社,,合同会社,東京都,港区,三田１丁目３番４０号天翔オフィス７０２号室,,13,103,1080073,,,,,,,2022-10-20,1,,,,,ナインティホールディングス,0
505,3010501049516,新規,0,2022-10-20,2022-10-20,株式会社ユニックジェムス,,株式会社,東京都,台東区,上野３丁目１９番７号６０２,,13,106,1100005,,,,,,,2022-10-20,1,,,,,ユニックジェムス,0
509,3010603009789,新規,0,2022-10-20,2022-10-20,ジー・ワイ・ユニット合同会社,,合同会社,東京都,江東区,辰巳１丁目５番６－１１０９号,,13,108,1350053,,,,,,,2022-10-20,1,,,,,ジーワイユニット,0
512,3010701043335,新規,0,2022-10-20,2022-10-20,株式会社Ｒａｄｉａｓｕ,,株式会社,東京都,品川区,戸越１丁目１５番２０号,,13,109,1420041,,,,,,,2022-10-20,1,,,,,ラディアス,0
523,3011001150425,新規,0,2022-10-20,2022-10-20,株式会社ｋａｂｏ,,株式会社,東京都,渋谷区,東３丁目１３番１１号,,13,113,1500011,,,,,,,2022-10-20,1,,,,,カーボ,0
531,3011101100569,新規,0,2022-10-20,2022-10-20,株式会社Ａｎｏｔｈｅｒ,,株式会社,東京都,新宿区,西新宿３丁目３番１３号西新宿水間ビル２Ｆ,,13,104,1600023,,,,,,,2022-10-20,1,,,,,アナザー,0
534,3011103012250,新規,0,2022-10-20,2022-10-20,ＲＡＳ‐Ｔ合同会社,,合同会社,東京都,新宿区,市谷佐土原町三丁目８番地４０ＴＯＰ市ヶ谷４０８,,13,104,1600000,,,,,,,2022-10-20,1,,,,,ラスティー,0
535,3011201024172,新規,0,2022-10-20,2022-10-20,株式会社Ｈ２,,株式会社,東京都,中野区,中央４丁目４２番８号,,13,114,1640011,,,,,,,2022-10-20,1,,,,,エイチツー,0
536,3011301028172,新規,0,2022-10-20,2022-10-20,山崎商貿株式会社,,株式会社,東京都,杉並区,梅里２丁目２５番１３号高円寺プラザ２１１室,,13,115,1660011,,,,,,,2022-10-20,1,,,,,ヤマサキショウボウ,0
537,3011301028197,新規,0,2022-10-20,2022-10-20,株式会社ｂａｓｅｓｉｘ,,株式会社,東京都,杉並区,梅里１丁目１３番１１号メトロ新高円寺マンション４０６号室,,13,115,1660011,,,,,,,2022-10-20,1,,,,,ベーシックス,0
545,3011801041419,新規,0,2022-10-20,2022-10-20,株式会社結美,,株式会社,東京都,足立区,舎人５丁目８番２号,,13,121,1210831,,,,,,,2022-10-20,1,,,,,ユイビ,0
549,3012405004794,新規,0,2022-10-20,2022-10-20,一般社団法人手話言語等の多文化共生社会協議会,,その他の設立登記法人,東京都,調布市,上石原２丁目１１番地３５,,13,208,1820035,,,,,,,2022-10-20,1,,,,,シュワゲンゴトウノタブンカキョウセイシャカイキョウギカイ,0
550,3012701017310,新規,0,2022-10-20,2022-10-20,株式会社ＳｔａｒＴｗｉｎ,,株式会社,東京都,東久留米市,東本町１６番地５ＪＵＮプレジ東久留米３０６号,,13,222,2030014,,,,,,,2022-10-20,1,,,,,スターツイン,0
555,3013301049826,新規,0,2022-10-20,2022-10-20,株式会社Ｊｅｗｅｌ　Ｓｔａｒプロダクション,,株式会社,東京都,豊島区,南池袋４丁目２０番９号,,13,116,1710022,,,,,,,2022-10-20,1,,,,,ジュエルスタープロダクション,0
563,3021001077238,新規,0,2022-10-20,2022-10-20,株式会社れいり不動産,,株式会社,神奈川県,平塚市,宮の前１番３３号５階,,14,203,2540035,,,,,,,2022-10-20,1,,,,,レイリフドウサン,0
572,3030001150400,新規,0,2022-10-20,2022-10-20,株式会社ＬＣ,,株式会社,埼玉県,川口市,桜町１丁目１１－１１,,11,203,3340001,,,,,,,2022-10-20,1,,,,,エルシー,0
573,3030001150656,新規,0,2022-10-20,2022-10-20,匠一工業株式会社,,株式会社,埼玉県,越谷市,大字南荻島３５５９番地７,,11,222,3430804,,,,,,,2022-10-20,1,,,,,タクイチコウギョウ,0
574,3030001150680,新規,0,2022-10-20,2022-10-20,株式会社Ｖｉｔａｌ　Ｈｅｒｔｚ　Ｌａｂｏ,,株式会社,埼玉県,さいたま市大宮区,天沼町２丁目７６６番地３ブルーテラス新都心１０３,,11,103,3300834,,,,,,,2022-10-20,1,,,,,バイタルヘルツラボ,0
578,3030003020345,新規,0,2022-10-20,2022-10-20,合同会社Ｂｒｉｇｈｔ,,合同会社,埼玉県,北足立郡伊奈町,本町３丁目６番地,,11,301,3620804,,,,,,,2022-10-20,1,,,,,ブライト,0
579,3030003020436,新規,0,2022-10-20,2022-10-20,ＴＡＭアセット合同会社,,合同会社,埼玉県,さいたま市浦和区,岸町４丁目２６番１－１５０１号,,11,107,3300064,,,,,,,2022-10-20,1,,,,,ティーエーエムアセット,0
583,3040001125483,新規,0,2022-10-20,2022-10-20,株式会社ＨＡＲＵ　ＥＮＴＥＲＰＲＩＳＥＳ,,株式会社,千葉県,柏市,藤ケ谷２０５番地,,12,217,2770931,,,,,,,2022-10-20,1,,,,,ハルエンタープライゼズ,0
584,3040001125509,新規,0,2022-10-20,2022-10-20,株式会社シューズコンサルタント,,株式会社,千葉県,千葉市花見川区,幕張町５丁目３８２番地１アーベントハイム幕張花見川１１０号,,12,102,2620032,,,,,,,2022-10-20,1,,,,,シューズコンサルタント,0
585,3040001125517,新規,0,2022-10-20,2022-10-20,赤ネコ株式会社,,株式会社,千葉県,浦安市,明海３丁目２番３－１３０３号海園の街,,12,227,2790014,,,,,,,2022-10-20,1,,,,,アカネコ,0
586,3040001125525,新規,0,2022-10-20,2022-10-20,エス・エス・アイ株式会社,,株式会社,千葉県,松戸市,岩瀬４４６番地の３東洋ハイツ相模台２０８号,,12,207,2710076,,,,,,,2022-10-20,1,,,,,エスエスアイ,0
591,3040003021078,新規,0,2022-10-20,2022-10-20,合同会社Ｌｅｍｏｎ不動産,,合同会社,千葉県,千葉市中央区,白旗３丁目２４番２１号,,12,101,2600841,,,,,,,2022-10-20,1,,,,,レモンフドウサン,0
592,3040003021094,新規,0,2022-10-20,2022-10-20,ワイ合同会社,,合同会社,千葉県,柏市,旭町１丁目１０番３号,,12,217,2770852,,,,,,,2022-10-20,1,,,,,ワイ,0
593,3040005021786,新規,0,2022-10-20,2022-10-20,医療法人社団ＯＬＥＡ,,その他の設立登記法人,千葉県,鎌ケ谷市,東道野辺７丁目２２番４６号ＫＵ馬込沢ビル３階３０１号室,,12,224,2730115,,,,,,,2022-10-20,1,,,,,オレア,0
597,3070003004658,新規,0,2022-10-20,2022-10-20,合同会社ラ・ポーズ,,合同会社,群馬県,前橋市,南町３丁目５０‐２プラザアン２階Ｄ‐１７,,10,201,3710805,,,,,,,2022-10-20,1,,,,,ラポーズ,0
607,3080401026105,新規,0,2022-10-20,2022-10-20,鳴唐株式会社,,株式会社,静岡県,浜松市西区,入野町１６４０３番地の３トォーメイツ１０２号室,,22,133,4328061,,,,,,,2022-10-20,1,,,,,メイトー,0
618,3110001037052,新規,0,2022-10-20,2022-10-20,株式会社ｓｏｕｍｅｉ,,株式会社,新潟県,新潟市江南区,江口２１５６番地１,,15,104,9500101,,,,,,,2022-10-20,1,,,,,ソウメイ,0
626,3120001249646,新規,0,2022-10-20,2022-10-20,株式会社桜縁,,株式会社,大阪府,大阪市東淀川区,東中島６丁目１２番３５－１１０号,,27,114,5330033,,,,,,,2022-10-20,1,,,,,オウエン,0
632,3120003022695,新規,0,2022-10-20,2022-10-20,合同会社ｅａｒｔｈ,,合同会社,大阪府,大阪市北区,天満橋１丁目８番１５－１７０９号,,27,127,5300042,,,,,,,2022-10-20,1,,,,,アース,0
653,3140003018262,新規,0,2022-10-20,2022-10-20,合同会社ヒルズフィールドキッチン,,合同会社,兵庫県,姫路市,御国野町国分寺２５６,,28,201,6710234,,,,,,,2022-10-20,1,,,,,ヒルズフィールドキッチン,0
667,3180001153470,新規,0,2022-10-20,2022-10-20,株式会社英はなぶさ,,株式会社,愛知県,名古屋市西区,花の木３丁目１２番５号－１ＬＵＯＲＥ浄心２０４号,,23,104,4510062,,,,,,,2022-10-20,1,,,,,ハナブサ,0
672,3180005019973,新規,0,2022-10-20,2022-10-20,一般社団法人イーフォレスト,,その他の設立登記法人,愛知県,名古屋市西区,浄心本通３丁目３６番地荘苑浄心本通東棟１０１号,,23,104,4510073,,,,,,,2022-10-20,1,,,,,イーフォレスト,0
676,3180301036739,新規,0,2022-10-20,2022-10-20,株式会社エーケーエス,,株式会社,愛知県,安城市,安城町社口堂１２番地７,,23,212,4460026,,,,,,,2022-10-20,1,,,,,エーケーエス,0
686,3190005011748,新規,0,2022-10-20,2022-10-20,特定非営利活動法人みんなの食堂こむすび舎めいわ町,,その他の設立登記法人,三重県,多気郡明和町,大字斎宮６０２番地１,,24,442,5150321,,,,,,,2022-10-20,1,,,,,ミンナノショクドウコムスビシャメイワチョウ,0
694,3240001060529,新規,0,2022-10-20,2022-10-20,株式会社ＵＬＴＩＭＥ,,株式会社,広島県,広島市中区,鶴見町１３番１１号,,34,101,7300045,,,,,,,2022-10-20,1,,,,,ユルティム,0
709,3290001099281,新規,0,2022-10-20,2022-10-20,株式会社ＣＡＬＭＥ,,株式会社,福岡県,福岡市中央区,天神４丁目６番２８号天神ファーストビル７階,,40,133,8100001,,,,,,,2022-10-20,1,,,,,カルム,0
714,3290003013083,新規,0,2022-10-20,2022-10-20,合同会社ＲＭＧ,,合同会社,福岡県,福岡市博多区,中洲中島町３番１５－１６０１号ウェルリバービュー天神,,40,132,8100802,,,,,,,2022-10-20,1,,,,,アールエムジー,0
715,3290801028976,新規,0,2022-10-20,2022-10-20,株式会社礒辺工業,,株式会社,福岡県,北九州市小倉南区,横代北町４丁目１５番２４号,,40,107,8020821,,,,,,,2022-10-20,1,,,,,イソベコウギョウ,0
719,3320001019384,新規,0,2022-10-20,2022-10-20,株式会社２５３１,,株式会社,大分県,大分市,大字永興８５０番地の８,,44,201,8700883,,,,,,,2022-10-20,1,,,,,ニゴサンイチ,0
727,3340003003938,新規,0,2022-10-20,2022-10-20,合同会社モトジーカンパニー,,合同会社,鹿児島県,鹿児島市,東千石町２番３８号福楽園ビル１階,,46,201,8920842,,,,,,,2022-10-20,1,,,,,モトジーカンパニー,0
749,3700150112026,新規,0,2022-10-20,2022-10-05,岩沼自治会,,その他,千葉県,長生郡長生村,岩沼９０９番地,,12,423,2994336,,,,,,,2022-10-05,1,,,,,イワヌマジチカイ,0
750,4000030020245,新規,0,2022-10-20,2022-10-20,広戸財産区,,地方公共団体,青森県,西津軽郡深浦町,大字深浦字苗代沢８４－２,,02,323,0382324,,,,,,,2022-10-20,1,,,,,ヒロトザイサンク,0
754,4010001230211,新規,0,2022-10-20,2022-10-20,岩崎サイエンス株式会社,,株式会社,東京都,中央区,築地３丁目７番１号ＴＳＵＫＩＪＩ・ＧＲＡＮＤＥ２Ｆ,,13,102,1040045,,,,,,,2022-10-20,1,,,,,イワサキサイエンス,0
758,4010003038875,新規,0,2022-10-20,2022-10-20,合同会社ｔｈｅ３ｒｄ,,合同会社,東京都,中央区,新川１丁目３番２１号ＢＩＺＳＭＡＲＴ茅場町,,13,102,1040033,,,,,,,2022-10-20,1,,,,,ザサード,0
762,4010101015371,新規,0,2022-10-20,2022-10-20,株式会社最後の晩餐,,株式会社,東京都,八王子市,長房町１２６番地２,,13,201,1930824,,,,,,,2022-10-20,1,,,,,サイゴノバンサン,0
771,4010401170354,新規,0,2022-10-20,2022-10-20,株式会社アドレーブ,,株式会社,東京都,港区,南青山３丁目１番３６号青山丸竹ビル６Ｆ,,13,103,1070062,,,,,,,2022-10-20,1,,,,,アドレーブ,0
775,4010403028708,新規,0,2022-10-20,2022-10-20,アロエ木場合同会社,,合同会社,東京都,港区,六本木１丁目６番１号泉ガーデンタワー,,13,103,1060032,,,,,,,2022-10-20,1,,,,,アロエキバ,0
776,4010403028716,新規,0,2022-10-20,2022-10-20,アロエ巣鴨合同会社,,合同会社,東京都,港区,六本木１丁目６番１号泉ガーデンタワー,,13,103,1060032,,,,,,,2022-10-20,1,,,,,アロエスガモ,0
777,4010403028749,新規,0,2022-10-20,2022-10-20,合同会社Ｃａｒａｃａｌｌａ,,合同会社,東京都,港区,虎ノ門５丁目１番４号,,13,103,1050001,,,,,,,2022-10-20,1,,,,,カラカラ,0
778,4010405021512,新規,0,2022-10-20,2022-10-20,一般社団法人横浜金沢ロジ,,その他の設立登記法人,東京都,港区,元赤坂１丁目１番８号株式会社赤坂国際会計内,,13,103,1070051,,,,,,,2022-10-20,1,,,,,ヨコハマカナザワロジ,0
779,4010501049523,新規,0,2022-10-20,2022-10-20,株式会社癒し人,,株式会社,東京都,台東区,上野３丁目２０－１０Ａｌｂｅｒｏ上野長者町７０１,,13,106,1100005,,,,,,,2022-10-20,1,,,,,イヤシビト,0
780,4010503006761,新規,0,2022-10-20,2022-10-20,合同会社プラン・アンド・エグゼキューション,,合同会社,東京都,台東区,北上野２丁目２４番９－７０１号ハイツ北上野,,13,106,1100014,,,,,,,2022-10-20,1,,,,,プランアンドエグゼキューション,0
783,4010601062013,新規,0,2022-10-20,2022-10-20,株式会社五組,,株式会社,東京都,江東区,三好４丁目７番２７号－３０５号,,13,108,1350022,,,,,,,2022-10-20,1,,,,,ゴクミ,0
790,4011001150333,新規,0,2022-10-20,2022-10-20,株式会社ゆあみゅ,,株式会社,東京都,渋谷区,神宮前６丁目２３番４号桑野ビル２Ｆ,,13,113,1500001,,,,,,,2022-10-20,1,,,,,ユアミュ,0
791,4011001150341,新規,0,2022-10-20,2022-10-20,株式会社ライラック,,株式会社,東京都,渋谷区,円山町５－１４スタービル三階,,13,113,1500044,,,,,,,2022-10-20,1,,,,,ライラック,0
792,4011001150408,新規,0,2022-10-20,2022-10-20,ＳＡＭＵＲＡＩ株式会社,,株式会社,東京都,目黒区,緑が丘１丁目１３番１６号,,13,110,1520034,,,,,,,2022-10-20,1,,,,,サムライ,0
794,4011003015550,新規,0,2022-10-20,2022-10-20,合同会社ＢＡＫＵＮＯＢＩ,,合同会社,東京都,渋谷区,渋谷２丁目１９－１５宮益坂ビルディング６０９,,13,113,1500002,,,,,,,2022-10-20,1,,,,,バクノビ,0
804,4011201024171,新規,0,2022-10-20,2022-10-20,ＭＴ‐Ｃｏｎｆｉａｎｃｅ株式会社,,株式会社,東京都,中野区,新井１丁目２０番７号ＭＴハイム２階,,13,114,1650026,,,,,,,2022-10-20,1,,,,,エムティーコンフィアンス,0
805,4011203003933,新規,0,2022-10-20,2022-10-20,ＭＡＫＥＣＵＬＴＵＲＥ合同会社,,合同会社,東京都,中野区,東中野５丁目１番１－６０７号,,13,114,1640003,,,,,,,2022-10-20,1,,,,,メイクカルチャー,0
812,4011701025693,新規,0,2022-10-20,2022-10-20,ＴＡＯ株式会社,,株式会社,東京都,江戸川区,西一之江３丁目３４番１７プラトー・ナカヅシ１０１号,,13,123,1320023,,,,,,,2022-10-20,1,,,,,タオ,0
815,4012301013171,新規,0,2022-10-20,2022-10-20,エナリア株式会社,,株式会社,東京都,町田市,相原町３７０番地３２,,13,209,1940211,,,,,,,2022-10-20,1,,,,,エナリア,0
820,4013103001174,新規,0,2022-10-20,2022-10-20,マヤ合同会社,,合同会社,東京都,あきる野市,戸倉７５７,,13,228,1900173,,,,,,,2022-10-20,1,,,,,マヤ,0
822,4013301049817,新規,0,2022-10-20,2022-10-20,株式会社ＺＥＮＢ　ＡＣＡＤＥＭＹ,,株式会社,東京都,豊島区,池袋２丁目４０番１３号,,13,116,1710014,,,,,,,2022-10-20,1,,,,,ゼンブアカデミー,0
826,4020001148642,新規,0,2022-10-20,2022-10-20,株式会社青山,,株式会社,神奈川県,横浜市鶴見区,上の宮１丁目２４番地１１瀧川ビル２０５号室,,14,101,2300075,,,,,,,2022-10-20,1,,,,,アオヤマ,0
827,4020001148667,新規,0,2022-10-20,2022-10-20,株式会社天竺,,株式会社,神奈川県,横浜市鶴見区,生麦５丁目３－１０エフォートレス鶴見１０２,,14,101,2300052,,,,,,,2022-10-20,1,,,,,テンジク,0
830,4020005015698,新規,0,2022-10-20,2022-10-20,特定非営利活動法人住宅サポートセンター,,その他の設立登記法人,神奈川県,横浜市港北区,新横浜３丁目１９番１１号,,14,109,2220033,,,,,,,2022-10-20,1,,,,,ジュウタクサポートセンター,0
836,4021001077212,新規,0,2022-10-20,2022-10-20,株式会社友湘,,株式会社,神奈川県,茅ヶ崎市,南湖１丁目９番１２号ＬＰビル３０３,,14,207,2530061,,,,,,,2022-10-20,1,,,,,ユウショウ,0
837,4021001077245,新規,0,2022-10-20,2022-10-20,株式会社ＨＡＮＩＦ　ＴＲＡＤＩＮＧ,,株式会社,神奈川県,厚木市,下川入３０１番地コーポ入江１０２号室,,14,212,2430206,,,,,,,2022-10-20,1,,,,,ハニフトレーディング,0
852,4030001150671,新規,0,2022-10-20,2022-10-20,株式会社小久保工務店,,株式会社,埼玉県,川越市,大字鴨田４９７番地１,,11,201,3500844,,,,,,,2022-10-20,1,,,,,コクボコウムテン,0
853,4030003020451,新規,0,2022-10-20,2022-10-20,合同会社オハラ経営,,合同会社,埼玉県,さいたま市緑区,太田窪３丁目６番３０号,,11,109,3360936,,,,,,,2022-10-20,1,,,,,オハラケイエイ,0
854,4030005021027,新規,0,2022-10-20,2022-10-20,医療法人博清会,,その他の設立登記法人,埼玉県,さいたま市大宮区,桜木町２丁目２番地１３第２ユニオンビルディング４階,,11,103,3300854,,,,,,,2022-10-20,1,,,,,ハクセイカイ,0
864,4040001125490,新規,0,2022-10-20,2022-10-20,株式会社裕満,,株式会社,千葉県,佐倉市,石川５５７番地３,,12,212,2850813,,,,,,,2022-10-20,1,,,,,ユウマン,0
865,4040001125516,新規,0,2022-10-20,2022-10-20,Ｍｉｙａｚａｗａ＆Ｃｏｎｎｅｃｔｉｏｎ，ｓ株式会社,,株式会社,千葉県,松戸市,栄町８丁目６３８番地の４,,12,207,2710062,,,,,,,2022-10-20,1,,,,,ミヤザワアンドコネクションズ,0
870,4040003021093,新規,0,2022-10-20,2022-10-20,合同会社エバジー,,合同会社,千葉県,千葉市中央区,宮崎町６６５番地１３、２－５０８号,,12,101,2600805,,,,,,,2022-10-20,1,,,,,エバジー,0
872,4050001051769,新規,0,2022-10-20,2022-10-20,株式会社Ａｌｔｖｅｒｓａｌ,,株式会社,茨城県,つくば市,学園の森２丁目６番地１２,,08,220,3050816,,,,,,,2022-10-20,1,,,,,アルトバーサル,0
873,4050001051843,新規,0,2022-10-20,2022-10-20,株式会社いちだい,,株式会社,茨城県,東茨城郡大洗町,磯浜町８２２６番地,,08,309,3111301,,,,,,,2022-10-20,1,,,,,イチダイ,0
874,4050003006936,新規,0,2022-10-20,2022-10-20,合同会社ＭＡＫＡ,,合同会社,茨城県,日立市,鮎川町５丁目１４番２４号,,08,202,3160036,,,,,,,2022-10-20,1,,,,,マカ,0
877,4070003004657,新規,0,2022-10-20,2022-10-20,合同会社ＳＹＧ,,合同会社,群馬県,高崎市,中泉町１５５番地３,,10,202,3703524,,,,,,,2022-10-20,1,,,,,エスワイジー,0
885,4100003006732,新規,0,2022-10-20,2022-10-20,合同会社Ｎｏｌｓ,,合同会社,長野県,佐久市,根々井２８２－１、２Ｆ,,20,217,3850012,,,,,,,2022-10-20,1,,,,,ノールズ,0
888,4110003004891,新規,0,2022-10-20,2022-10-20,合同会社ＴＩＡＭ,,合同会社,新潟県,新潟市中央区,東大通２丁目１－２０ステーションプラザ新潟ビル８０６,,15,103,9500087,,,,,,,2022-10-20,1,,,,,ティアム,0
901,4120001249645,新規,0,2022-10-20,2022-10-20,創嘉株式会社,,株式会社,大阪府,大阪市西成区,花園南１丁目１１番１８－２０２号,,27,122,5570015,,,,,,,2022-10-20,1,,,,,ソウカ,0
902,4120001249678,新規,0,2022-10-20,2022-10-20,株式会社エルエックススタイル,,株式会社,大阪府,枚方市,津田駅前１丁目２番２９号,,27,210,5730125,,,,,,,2022-10-20,1,,,,,エルエックススタイル,0
905,4120003022645,新規,0,2022-10-20,2022-10-20,合同会社ＫＧ,,合同会社,大阪府,門真市,御堂町２１番７号,,27,223,5710064,,,,,,,2022-10-20,1,,,,,ケージー,0
906,4120003022694,新規,0,2022-10-20,2022-10-20,ハイテックオートメーション合同会社,,合同会社,大阪府,大阪市中央区,安土町２丁目３番１３号,,27,128,5410052,,,,,,,2022-10-20,1,,,,,ハイテックオートメーション,0
907,4120005023253,新規,0,2022-10-20,2022-10-20,一般社団法人大阪動検協力会,,その他の設立登記法人,大阪府,大阪市港区,築港３丁目７番１５号港振興ビル２０５,,27,107,5520021,,,,,,,2022-10-20,1,,,,,オオサカドウケンキョウリョクカイ,0
910,4120101066395,新規,0,2022-10-20,2022-10-20,株式会社木地建設,,株式会社,大阪府,堺市西区,浜寺石津町中１丁１番１０号,,27,144,5928334,,,,,,,2022-10-20,1,,,,,キヂケンセツ,0
918,4140001127758,新規,0,2022-10-20,2022-10-20,株式会社Ｋｇｅｍ,,株式会社,兵庫県,神戸市中央区,海岸通３丁目１－１４大島ビル１Ｆ－１２号,,28,110,6500024,,,,,,,2022-10-20,1,,,,,ケイジェム,0
919,4140001127766,新規,0,2022-10-20,2022-10-20,エヌエス・ジャパン兵庫株式会社,,株式会社,兵庫県,加古川市,加古川町北在家２４６２番地西海ビル２Ｆ,,28,210,6750031,,,,,,,2022-10-20,1,,,,,,0
927,4160001024581,新規,0,2022-10-20,2022-10-20,植威株式会社,,株式会社,滋賀県,大津市,比叡平１丁目２７番２５号,,25,201,5200016,,,,,,,2022-10-20,1,,,,,ウエイ,0
936,4180001153453,新規,0,2022-10-20,2022-10-20,ニノテック株式会社,,株式会社,愛知県,知多郡東浦町,大字緒川字実盛山４２番地の３,,23,442,4702102,,,,,,,2022-10-20,1,,,,,ニノテック,0
946,4200001040566,新規,0,2022-10-20,2022-10-20,ＴＯＵＴＯＯＢＰ株式会社,,株式会社,岐阜県,瑞浪市,稲津町小里１７０４番地の２,,21,208,5096103,,,,,,,2022-10-20,1,,,,,トウトオービーピー,0
959,4240005015478,新規,0,2022-10-20,2022-10-20,一般社団法人農ＬＡＢ．よつば,,その他の設立登記法人,広島県,広島市西区,商工センター４丁目７番１８号,,34,104,7330833,,,,,,,2022-10-20,1,,,,,ノウラボヨツバ,0
963,4260001037334,新規,0,2022-10-20,2022-10-20,株式会社ＷＡＶＹ,,株式会社,岡山県,倉敷市,川西町１５－６梅田コーポ３０１,,33,202,7100821,,,,,,,2022-10-20,1,,,,,ウェビー,0
965,4280003001658,新規,0,2022-10-20,2022-10-20,アグリスマイル合同会社,,合同会社,島根県,大田市,久手町波根西１７８４番地,,32,205,6940051,,,,,,,2022-10-20,1,,,,,アグリスマイル,0
969,4290001099272,新規,0,2022-10-20,2022-10-20,株式会社ＨＩＴ,,株式会社,福岡県,福岡市中央区,小笹４丁目５番２－９０１号,,40,133,8100033,,,,,,,2022-10-20,1,,,,,エイチアイティ,0
983,4320001019383,新規,0,2022-10-20,2022-10-20,株式会社希翔,,株式会社,大分県,大分市,大字種具８８１番地の１,,44,201,8700274,,,,,,,2022-10-20,1,,,,,キショウ,0
984,4320005010025,新規,0,2022-10-20,2022-10-20,一般社団法人あすらん,,その他の設立登記法人,大分県,大分市,羽屋３丁目１番２６号,,44,201,8700854,,,,,,,2022-10-20,1,,,,,アスラン,0
989,4340003003937,新規,0,2022-10-20,2022-10-20,合同会社Ｒｉｏｎａ建設,,合同会社,鹿児島県,薩摩川内市,入来町副田６５７６番地１３ＴＥＲＲＡＣＥ八風１０５,,46,215,8951401,,,,,,,2022-10-20,1,,,,,リオナケンセツ,0
1000,4430001087700,新規,0,2022-10-20,2022-10-20,デジタルキッチン株式会社,,株式会社,北海道,札幌市中央区,南五条西１丁目１番地１５ＦＡＣＥ７０３号,,01,101,0640805,,,,,,,2022-10-20,1,,,,,デジタルキッチン,0
1007,4470003002273,新規,0,2022-10-20,2022-10-20,合同会社オフィスＭ＆Ｎ,,合同会社,香川県,高松市,西植田町９２５番地,,37,201,7610445,,,,,,,2022-10-20,1,,,,,オフィスエムアンドエヌ,0
1012,5000030020244,新規,0,2022-10-20,2022-10-20,横磯財産区,,地方公共団体,青森県,西津軽郡深浦町,大字深浦字苗代沢８４－２,,02,323,0382324,,,,,,,2022-10-20,1,,,,,ヨコイソザイサンク,0
1013,5000030020252,新規,0,2022-10-20,2022-10-20,柳田財産区,,地方公共団体,青森県,西津軽郡深浦町,大字深浦字苗代沢８４－２,,02,323,0382324,,,,,,,2022-10-20,1,,,,,ヤナギタザイサンク,0
1019,5010001230210,新規,0,2022-10-20,2022-10-20,アットブレイク株式会社,,株式会社,東京都,中央区,銀座１丁目１２番４号Ｎ＆ＥＢＬＤ．６Ｆ,,13,102,1040061,,,,,,,2022-10-20,1,,,,,アットブレイク,0
1020,5010001230292,新規,0,2022-10-20,2022-10-20,ＥｄｇｅＣｏｎｎｅＸ　Ｊａｐａｎ　ＯｐＣｏ株式会社,,株式会社,東京都,千代田区,霞が関３丁目２番６号東京倶楽部ビルディング１１階,,13,101,1000013,,,,,,,2022-10-20,1,,,,,エッジコネックスジャパンオプコ,0
1024,5010005035688,新規,0,2022-10-20,2022-10-20,マリオン一般社団法人,,その他の設立登記法人,東京都,千代田区,丸の内３丁目１番１号東京共同会計事務所内,,13,101,1000005,,,,,,,2022-10-20,1,,,,,マリオン,0
1034,5010401170262,新規,0,2022-10-20,2022-10-20,株式会社Ｗ　Ｔｅｐｐａｎ　Ｇｉｎｚａ　１ｃｈｏｍｅ,,株式会社,東京都,港区,六本木５丁目５番１号,,13,103,1060032,,,,,,,2022-10-20,1,,,,,ダブリューテッパンギンザイッチョウメ,0
1035,5010401170320,新規,0,2022-10-20,2022-10-20,ＷｅｂＴｕｂｅ株式会社,,株式会社,東京都,港区,六本木２丁目２番２号,,13,103,1060032,,,,,,,2022-10-20,1,,,,,ウェブチューブ,0
1038,5010403028748,新規,0,2022-10-20,2022-10-20,合同会社Ｎｉｋｅｌｌｏｒａ,,合同会社,東京都,港区,虎ノ門５丁目１番４号,,13,103,1050001,,,,,,,2022-10-20,1,,,,,ニケローラ,0
1040,5010405021511,新規,0,2022-10-20,2022-10-20,一般社団法人Ｌｅ　Ｐａｉｌｌｏｎ,,その他の設立登記法人,東京都,港区,虎ノ門５丁目１番４号,,13,103,1050001,,,,,,,2022-10-20,1,,,,,ルパイロン,0
1053,5011001150349,新規,0,2022-10-20,2022-10-20,株式会社ＭＩＳ　ＰＲＯＤＵＣＴＩＯＮ,,株式会社,東京都,渋谷区,神宮前６丁目２３番４号桑野ビル２階,,13,113,1500001,,,,,,,2022-10-20,1,,,,,ミスプロダクション,0
1054,5011001150357,新規,0,2022-10-20,2022-10-20,株式会社Ｕｎｌｉｍｉｔｅｄ＆Ｃｏ．,,株式会社,東京都,渋谷区,広尾５丁目１４番２号,,13,113,1500012,,,,,,,2022-10-20,1,,,,,アンリミテッドアンドコ,0
1057,5011101100550,新規,0,2022-10-20,2022-10-20,株式会社青天堂,,株式会社,東京都,新宿区,西早稲田３丁目３１番８号カーネ西早稲田１０２号室,,13,104,1690051,,,,,,,2022-10-20,1,,,,,セイテンドウ,0
1058,5011101100559,新規,0,2022-10-20,2022-10-20,株式会社Ｏ．Ｇ．Ａ．,,株式会社,東京都,新宿区,歌舞伎町２丁目１８番５号プラーズタワー東新宿１１０６,,13,104,1600021,,,,,,,2022-10-20,1,,,,,オージーエー,0
1059,5011103012265,新規,0,2022-10-20,2022-10-20,合同会社吉川産業,,合同会社,東京都,新宿区,北新宿３丁目２９番１－１０１号,,13,104,1690074,,,,,,,2022-10-20,1,,,,,ヨシカワサンギョウ,0
1060,5011105010449,新規,0,2022-10-20,2022-10-20,労働者協同組合ワーカーズ葬祭＆後見サポートセンター結の会,,その他の設立登記法人,東京都,新宿区,百人町２丁目１６番８号,,13,104,1690073,,,,,,,2022-10-20,1,,,,,ワーカーズソウサイアンドコウケンサポートセンターユイノカイ,0
1061,5011201024170,新規,0,2022-10-20,2022-10-20,Ｗ餅二ｙ株式会社,,株式会社,東京都,中野区,江古田２丁目２１番３号ハイツベルナール,,13,114,1650022,,,,,,,2022-10-20,1,,,,,ダブルパイツーワイ,0
1063,5011301028195,新規,0,2022-10-20,2022-10-20,株式会社ハピネス,,株式会社,東京都,杉並区,永福３丁目５７番１６号創和ビル,,13,115,1680064,,,,,,,2022-10-20,1,,,,,ハピネス,0
1067,5011503005323,新規,0,2022-10-20,2022-10-20,ＮＧＯＣ　ＡＮＨ合同会社,,合同会社,東京都,北区,赤羽北３丁目２３番１号ハイツ赤羽２０３号,,13,117,1150052,,,,,,,2022-10-20,1,,,,,ゴケアイン,0
1073,5011805003215,新規,0,2022-10-20,2022-10-20,一般社団法人青海波グループ,,その他の設立登記法人,東京都,足立区,扇１丁目３番５号,,13,121,1230873,,,,,,,2022-10-20,1,,,,,セイガイハグループ,0
1075,5012401039727,新規,0,2022-10-20,2022-10-20,株式会社Ｃｏｍｍｕｎｉｔｙ　Ｐｌｕｓ,,株式会社,東京都,調布市,深大寺南町３丁目１７番地１深大寺レジデンスＦ６１４,,13,208,1820013,,,,,,,2022-10-20,1,,,,,コミュニティープラス,0
1086,5020001148633,新規,0,2022-10-20,2022-10-20,５ｓｔａｒホールディングス株式会社,,株式会社,神奈川県,川崎市幸区,南幸町１丁目２５番地２,,14,132,2120016,,,,,,,2022-10-20,1,,,,,ファイブスターホールディングス,0
1096,5021001077228,新規,0,2022-10-20,2022-10-20,株式会社Ｎ．Ａ．Ｋ　ＴＲＡＤＩＮＧ,,株式会社,神奈川県,愛甲郡清川村,煤ヶ谷３０９９－１グリーンハイツ４－２０２,,14,402,2430112,,,,,,,2022-10-20,1,,,,,エヌエーケートレーディング,0
1101,5021003012273,新規,0,2022-10-20,2022-10-20,Ｎ．Ｍ．ＴＲＡＤＩＮＧ合同会社,,合同会社,神奈川県,海老名市,河原口１丁目１２番６号,,14,215,2430433,,,,,,,2022-10-20,1,,,,,エヌエムトレーディング,0
1105,5030001150654,新規,0,2022-10-20,2022-10-20,株式会社ＢＡＢＹＣＡＲＳ,,株式会社,埼玉県,入間市,宮寺４０９４番地の２,,11,225,3580014,,,,,,,2022-10-20,1,,,,,ベイビーカーズ,0
1109,5030003020434,新規,0,2022-10-20,2022-10-20,合同会社Ｈｏｎｇｄｏ．ＮＳ,,合同会社,埼玉県,蕨市,中央４丁目５番１６号ドゥ・シンボ１０３号,,11,223,3350004,,,,,,,2022-10-20,1,,,,,ホンドエヌエス,0
1110,5030005021034,新規,0,2022-10-20,2022-10-20,医療法人晴耕会,,その他の設立登記法人,埼玉県,行田市,忍２丁目１９番１号清水ビル１階,,11,206,3610077,,,,,,,2022-10-20,1,,,,,セイコウカイ,0
1113,5040001125515,新規,0,2022-10-20,2022-10-20,株式会社吉木産業,,株式会社,千葉県,千葉市美浜区,稲毛海岸５丁目２５－１３,,12,106,2610005,,,,,,,2022-10-20,1,,,,,ヨシキサンギョウ,0
1119,5050001051801,新規,0,2022-10-20,2022-10-20,株式会社ＧＣＭ,,株式会社,茨城県,鹿嶋市,大字和字治８６０番,,08,222,3112215,,,,,,,2022-10-20,1,,,,,ジーシーエム,0
1120,5050003006935,新規,0,2022-10-20,2022-10-20,合同会社ターセル,,合同会社,茨城県,水戸市,泉町３丁目７番１４号,,08,201,3100026,,,,,,,2022-10-20,1,,,,,,0
1130,5100001035798,新規,0,2022-10-20,2022-10-20,株式会社Ｃｏｎｓｕｌｔａｎｔ　Ｔｅｎｃａ,,株式会社,長野県,飯田市,中央通り４丁目１８番地,,20,205,3950041,,,,,,,2022-10-20,1,,,,,コンサルタントテンカ,0
1155,5120001249652,新規,0,2022-10-20,2022-10-20,株式会社ベース・ファクトリー,,株式会社,大阪府,枚方市,宗谷２丁目２９番２７号,,27,210,5730113,,,,,,,2022-10-20,1,,,,,ベースファクトリー,0
1156,5120001249669,新規,0,2022-10-20,2022-10-20,株式会社ＢｅｓｔＳｕｐｐｏｒｔ,,株式会社,大阪府,大阪市北区,西天満４丁目３番１１号西天満フクエビル１０階,,27,127,5300047,,,,,,,2022-10-20,1,,,,,ベストサポート,0
1157,5120001249677,新規,0,2022-10-20,2022-10-20,株式会社ＤＧＧ,,株式会社,大阪府,大阪市福島区,吉野４丁目２９番２０－１２０３,,27,103,5530006,,,,,,,2022-10-20,1,,,,,ディジージー,0
1160,5120005023252,新規,0,2022-10-20,2022-10-20,一般社団法人大阪輸入食品衛生協議会,,その他の設立登記法人,大阪府,大阪市港区,築港３丁目７番１５号港振興ビル２０５,,27,107,5520021,,,,,,,2022-10-20,1,,,,,オオサカユニュウショクヒンエイセイキョウギカイ,0
1164,5120101066394,新規,0,2022-10-20,2022-10-20,株式会社エムズスコア,,株式会社,大阪府,堺市堺区,鉄砲町２０番地１１,,27,141,5900905,,,,,,,2022-10-20,1,,,,,エムズスコア,0
1170,5122001036295,新規,0,2022-10-20,2022-10-20,株式会社ＫＩＩ,,株式会社,大阪府,東大阪市,下小阪１丁目５－８－２０２号,,27,227,5770803,,,,,,,2022-10-20,1,,,,,ケーアイアイ,0
1172,5130001072855,新規,0,2022-10-20,2022-10-20,株式会社ｄａｈｌｉ　ｄｅｓｉｇｎ,,株式会社,京都府,京都市南区,久世中久世三丁目５７番地,,26,107,6010000,,,,,,,2022-10-20,1,,,,,ダリデザイン,0
1179,5130003008254,新規,0,2022-10-20,2022-10-20,合同会社ウチの会社,,合同会社,京都府,京都市伏見区,三栖向町７５０番地１,,26,109,6128227,,,,,,,2022-10-20,1,,,,,ウチノカイシャ,0
1180,5130003008262,新規,0,2022-10-20,2022-10-20,オズソフトコンサルティング合同会社,,合同会社,京都府,八幡市,欽明台東５番地１Ｅ－９１２号,,26,210,6148296,,,,,,,2022-10-20,1,,,,,オズソフトコンサルティング,0
1187,5140001127749,新規,0,2022-10-20,2022-10-20,株式会社サン・カンパニー,,株式会社,兵庫県,神戸市須磨区,戎町３丁目１番１７号,,28,107,6540023,,,,,,,2022-10-20,1,,,,,サンカンパニー,0
1196,5150003002800,新規,0,2022-10-20,2022-10-20,合同会社メテオール,,合同会社,奈良県,北葛城郡河合町,大字薬井１６番地２,,29,427,6360082,,,,,,,2022-10-20,1,,,,,メテオール,0
1198,5160001024580,新規,0,2022-10-20,2022-10-20,株式会社吉川工業,00128191,株式会社,滋賀県,大津市,本堅田５丁目１５番２３号,,25,201,5200242,,,,,,,2022-10-20,1,,,,,ヨシカワコウギョウ,0
1201,5170001017328,新規,0,2022-10-20,2022-10-20,株式会社ルナケア,,株式会社,和歌山県,有田郡有田川町,大字下津野２１５－１７,,30,366,6430021,,,,,,,2022-10-20,1,,,,,ルナケア,0
1207,5180001153460,新規,0,2022-10-20,2022-10-20,株式会社ＡｇｅｎｔＳｔａｒ,,株式会社,愛知県,名古屋市中区,大須４丁目１番２号,,23,106,4600011,,,,,,,2022-10-20,1,,,,,エージェントスター,0
1208,5180001153477,新規,0,2022-10-20,2022-10-20,株式会社上冬,,株式会社,愛知県,名古屋市中村区,名駅３丁目２８番１２号大名古屋ビルヂング２５階,,23,105,4500002,,,,,,,2022-10-20,1,,,,,ジョウトウ,0
1209,5180001153493,新規,0,2022-10-20,2022-10-20,株式会社ビイ,,株式会社,愛知県,大府市,中央町３丁目４６番地,,23,223,4740025,,,,,,,2022-10-20,1,,,,,ビイ,0
1213,5180003024379,新規,0,2022-10-20,2022-10-20,合同会社大正産業,,合同会社,愛知県,名古屋市昭和区,広路本町字北石坂１０２番地の４４,,23,107,4660000,,,,,,,2022-10-20,1,,,,,タイショウサンギョウ,0
1214,5180003024387,新規,0,2022-10-20,2022-10-20,ＩＫＡＺＯＮ合同会社,,合同会社,愛知県,長久手市,西原山１番地１セントアース２０９号,,23,238,4801138,,,,,,,2022-10-20,1,,,,,イカゾン,0
1217,5190003004116,新規,0,2022-10-20,2022-10-20,合同会社ゆうゆう,,合同会社,三重県,津市,安濃町安濃２４５９番地８,,24,201,5142302,,,,,,,2022-10-20,1,,,,,ユウユウ,0
1219,5200001040557,新規,0,2022-10-20,2022-10-20,株式会社ｏｆｆｉｃｅＵＫ,,株式会社,岐阜県,岐阜市,蔵前５丁目２４番８号,,21,201,5008233,,,,,,,2022-10-20,1,,,,,オフィスユーケー,0
1225,5240001060527,新規,0,2022-10-20,2022-10-20,株式会社ＲＩＳＥ　ＳＯＬＵＴＩＯＮ,,株式会社,広島県,広島市中区,大手町４丁目５番４－８０１号,,34,101,7300051,,,,,,,2022-10-20,1,,,,,ライズソリューション,0
1227,5250003003169,新規,0,2022-10-20,2022-10-20,合同会社ｆｒｅｅ　ｗｏｒｋｓ,,合同会社,山口県,防府市,沖今宿２丁目２３－２－１０２,,35,206,7470013,,,,,,,2022-10-20,1,,,,,フリーワークス,0
1230,5260001037333,新規,0,2022-10-20,2022-10-20,株式会社太平洋工業,,株式会社,岡山県,倉敷市,浜町１丁目１番１５号,,33,202,7100062,,,,,,,2022-10-20,1,,,,,タイヘイヨウコウギョウ,0
1232,5280001008803,新規,0,2022-10-20,2022-10-20,株式会社まつくる,,株式会社,島根県,松江市,向島町１４０番地１,,32,201,6900841,,,,,,,2022-10-20,1,,,,,マツクル,0
1240,5290001099288,新規,0,2022-10-20,2022-10-20,株式会社Ｃｏｎｎｅｃｔ,,株式会社,福岡県,福岡市南区,屋形原１丁目５－３－１,,40,134,8111351,,,,,,,2022-10-20,1,,,,,コネクト,0
1251,5310005008639,新規,0,2022-10-20,2022-10-20,一般社団法人早崎潮流発電推進研究会,,その他の設立登記法人,長崎県,南島原市,西有家町長野１７６６番地,,42,214,8592215,,,,,,,2022-10-20,1,,,,,,0
1253,5340003003936,新規,0,2022-10-20,2022-10-20,合同会社ＪＭ,,合同会社,鹿児島県,霧島市,国分中央３丁目２９－７,,46,218,8994332,,,,,,,2022-10-20,1,,,,,ジェイエム,0
1291,6000030020243,新規,0,2022-10-20,2022-10-20,舮作財産区,,地方公共団体,青森県,西津軽郡深浦町,大字深浦字苗代沢８４－２,,02,323,0382324,,,,,,,2022-10-20,1,,,,,ヘナシザイサンク,0
1292,6000030020251,新規,0,2022-10-20,2022-10-20,関財産区,,地方公共団体,青森県,西津軽郡深浦町,大字深浦字苗代沢８４－２,,02,323,0382324,,,,,,,2022-10-20,1,,,,,セキザイサンク,0
1304,6010003038799,新規,0,2022-10-20,2022-10-20,エス・ジャパン合同会社,,合同会社,東京都,中央区,銀座１丁目１２番４号エヌアンドイービルディング７階,,13,102,1040061,,,,,,,2022-10-20,1,,,,,エスジャパン,0
1312,6010401170352,新規,0,2022-10-20,2022-10-20,株式会社Ｌｅｐｕｓ,,株式会社,東京都,港区,赤坂２丁目１３番１３号オレンジビル４Ｆ,,13,103,1070052,,,,,,,2022-10-20,1,,,,,レプス,0
1313,6010401170369,新規,0,2022-10-20,2022-10-20,株式会社ＬＰＵ,,株式会社,東京都,港区,南青山２丁目２番１５号,,13,103,1070062,,,,,,,2022-10-20,1,,,,,エルピーユー,0
1314,6010401170377,新規,0,2022-10-20,2022-10-20,株式会社ＨＡＬＥ　ＮＯＡコーポレーション,,株式会社,東京都,港区,白金１丁目２５番１１－６１０号,,13,103,1080072,,,,,,,2022-10-20,1,,,,,ハレノアコーポレーション,0
1315,6010401170385,新規,0,2022-10-20,2022-10-20,株式会社ｏｎｆｒｏｙ,,株式会社,東京都,港区,南青山２丁目２番１５号ウィン青山１２０７,,13,103,1070062,,,,,,,2022-10-20,1,,,,,オンフロイ,0
1319,6010403028598,新規,0,2022-10-20,2022-10-20,合同会社Ｐｏｗｅｒ　ｏｆ　Ｃｈａｎｇｅ,,合同会社,東京都,港区,港南２丁目１６－１品川イーストワンタワー７Ｆ,,13,103,1080075,,,,,,,2022-10-20,1,,,,,パワーオブチェンジ,0
1320,6010403028739,新規,0,2022-10-20,2022-10-20,３Ｄ　Ａｒｃｈｉｔｅｃｈ合同会社,,合同会社,東京都,港区,南青山２丁目２番１５号,,13,103,1070062,,,,,,,2022-10-20,1,,,,,スリーディーアーキテック,0
1321,6010405021510,新規,0,2022-10-20,2022-10-20,一般社団法人Ｃａｒａｃａｌｌａ,,その他の設立登記法人,東京都,港区,虎ノ門５丁目１番４号,,13,103,1050001,,,,,,,2022-10-20,1,,,,,カラカラ,0
1325,6010701043365,新規,0,2022-10-20,2022-10-20,株式会社いちだん,,株式会社,東京都,品川区,西五反田２丁目９番７号ドルミ五反田アンメゾン１００５室,,13,109,1410031,,,,,,,2022-10-20,1,,,,,イチダン,0
1331,6010801033365,新規,0,2022-10-20,2022-10-20,株式会社３５７観光,,株式会社,東京都,大田区,大森南３丁目１３－１１パークサイドアネックス２１０Ｄ,,13,111,1430013,,,,,,,2022-10-20,1,,,,,,0
1339,6011001150232,新規,0,2022-10-20,2022-10-20,株式会社ＨＰＣ,,株式会社,東京都,渋谷区,道玄坂１丁目１０番８号渋谷道玄坂東急ビル２Ｆ－Ｃ,,13,113,1500043,,,,,,,2022-10-20,1,,,,,エイチピーシー,0
1340,6011001150323,新規,0,2022-10-20,2022-10-20,株式会社Ｌａｐｕｔｉ,,株式会社,東京都,渋谷区,千駄ヶ谷５丁目１５番５号ＤＳビル９０５,,13,113,1510051,,,,,,,2022-10-20,1,,,,,ラプテイ,0
1341,6011001150348,新規,0,2022-10-20,2022-10-20,株式会社ＷＥＡＲＬＮＥＳＳ,,株式会社,東京都,渋谷区,恵比寿南２丁目１番５号ＥＳ２１５ビル４階,,13,113,1500022,,,,,,,2022-10-20,1,,,,,ウェアルネス,0
1342,6011001150364,新規,0,2022-10-20,2022-10-20,株式会社ｓｔａｇｅ　Ｎ,,株式会社,東京都,渋谷区,渋谷２丁目１９－１５宮益坂ビルディング６０９,,13,113,1500002,,,,,,,2022-10-20,1,,,,,,0
1344,6011101100509,新規,0,2022-10-20,2022-10-20,株式会社キーダイ,,株式会社,東京都,新宿区,西新宿６丁目１６番６号新宿タツミビル１１０６,,13,104,1600023,,,,,,,2022-10-20,1,,,,,キーダイ,0
1345,6011101100574,新規,0,2022-10-20,2022-10-20,株式会社ＪＭ,,株式会社,東京都,新宿区,中落合２丁目２７番１７号関口ビル３Ｆ,,13,104,1610032,,,,,,,2022-10-20,1,,,,,ジェイエム,0
1348,6011103012272,新規,0,2022-10-20,2022-10-20,ＤＮＡ　ＲＥＶＩＶＡＬ合同会社,,合同会社,東京都,新宿区,西新宿３丁目３番１３号西新宿水間ビル６階,,13,104,1600023,,,,,,,2022-10-20,1,,,,,ディーエヌエーリバイバル,0
1349,6011301028194,新規,0,2022-10-20,2022-10-20,西田ＭＦＯ株式会社,,株式会社,東京都,杉並区,荻窪５丁目２１番１６号－４０６ハイエスト荻窪,,13,115,1670051,,,,,,,2022-10-20,1,,,,,ニシダエムエフオー,0
1354,6011401024614,新規,0,2022-10-20,2022-10-20,ＦＩＳＨ　ＲＥＰＵＢＬＩＣ株式会社,,株式会社,東京都,板橋区,赤塚新町３丁目２６番８号トップ成増３１８,,13,119,1750093,,,,,,,2022-10-20,1,,,,,フィッシュリパブリック,0
1355,6011403003797,新規,0,2022-10-20,2022-10-20,ＳｍａｒｔＴｅｃｈ合同会社,,合同会社,東京都,板橋区,泉町４番４－３０２号,,13,119,1740055,,,,,,,2022-10-20,1,,,,,スマートテック,0
1371,6011701025709,新規,0,2022-10-20,2022-10-20,Ｂｅｙｏｎｄ　Ｃｕｌｔｕｒｅ獨歩文化株式会社,,株式会社,東京都,江戸川区,中央２丁目２０－２１－１Ｆ,,13,123,1320021,,,,,,,2022-10-20,1,,,,,ビヨンドカルチャードクホブンカ,0
1374,6011801041424,新規,0,2022-10-20,2022-10-20,株式会社ＹＮ２‐ＴＥＣＨ‐ＴＯＫＹＯ,,株式会社,東京都,足立区,竹の塚５丁目２５番１５－５０２号,,13,121,1210813,,,,,,,2022-10-20,1,,,,,ワイエヌツーテックトウキョウ,0
1382,6013301049823,新規,0,2022-10-20,2022-10-20,株式会社ｍｉｃｏ　ａｌａ,,株式会社,東京都,豊島区,南長崎６丁目７番１０号４０３号室,,13,116,1710052,,,,,,,2022-10-20,1,,,,,ミコアラ,0
1383,6013303006343,新規,0,2022-10-20,2022-10-20,オクスフォード合同会社,,合同会社,東京都,豊島区,目白４丁目１９番２６号,,13,116,1710031,,,,,,,2022-10-20,1,,,,,オクスフォード,0
1393,6020001148640,新規,0,2022-10-20,2022-10-20,株式会社次世代住設,,株式会社,神奈川県,横浜市港南区,芹が谷３丁目１６番５号２階,,14,111,2330006,,,,,,,2022-10-20,1,,,,,ジセダイジュウセツ,0
1404,6021001077235,新規,0,2022-10-20,2022-10-20,Ｌｉｖｅｆｒｅｅ株式会社,,株式会社,神奈川県,相模原市南区,東林間４丁目５－３ベルヴィル東林間２０２,,14,153,2520311,,,,,,,2022-10-20,1,,,,,ライブフリー,0
1405,6021001077243,新規,0,2022-10-20,2022-10-20,株式会社ノキノ,,株式会社,神奈川県,秦野市,横野８４番地の４,,14,211,2591307,,,,,,,2022-10-20,1,,,,,ノキノ,0
1417,6030001150637,新規,0,2022-10-20,2022-10-20,株式会社レアリティブティック,,株式会社,埼玉県,戸田市,氷川町２丁目７番１１号リバーサイドマンション２０１号,,11,224,3350027,,,,,,,2022-10-20,1,,,,,レアリティブティック,0
1418,6030001150645,新規,0,2022-10-20,2022-10-20,ＧＥＭ　Ｂｒｉｄｇｅ株式会社,,株式会社,埼玉県,坂戸市,浅羽野３丁目２番地７ＫＩＳ亜州商会館坂戸Ａ号室,,11,239,3500237,,,,,,,2022-10-20,1,,,,,ジェムブリッジ,0
1419,6030001150653,新規,0,2022-10-20,2022-10-20,Ｍ・Ｈ　ＡＵＴＯ株式会社,,株式会社,埼玉県,川越市,大字下赤坂６９２番地７,,11,201,3501155,,,,,,,2022-10-20,1,,,,,エムエイチオート,0
1420,6030001150661,新規,0,2022-10-20,2022-10-20,きさらぎ医療設備株式会社,,株式会社,埼玉県,北足立郡伊奈町,内宿台２丁目８２－５,,11,301,3620812,,,,,,,2022-10-20,1,,,,,キサラギイリョウセツビ,0
1429,6030005021033,新規,0,2022-10-20,2022-10-20,医療法人社団ｔｏ　Ｕ,,その他の設立登記法人,埼玉県,坂戸市,末広町１番地１２階,,11,239,3500272,,,,,,,2022-10-20,1,,,,,トゥユー,0
1436,6040001125472,新規,0,2022-10-20,2022-10-20,鯤騰製薬株式会社,,株式会社,千葉県,松戸市,新作１１２７番地５・１Ｆ,,12,207,2710052,,,,,,,2022-10-20,1,,,,,コントウセイヤク,0
1437,6040001125514,新規,0,2022-10-20,2022-10-20,吉屋ホームズ株式会社,,株式会社,千葉県,千葉市美浜区,稲毛海岸５丁目２５－１３,,12,106,2610005,,,,,,,2022-10-20,1,,,,,ヨシヤホームズ,0
1438,6040001125522,新規,0,2022-10-20,2022-10-20,株式会社ｅｓｐｏｉｒ,,株式会社,千葉県,船橋市,山手１丁目１番３－１４３４号,,12,204,2730045,,,,,,,2022-10-20,1,,,,,エスポワール,0
1444,6050001051841,新規,0,2022-10-20,2022-10-20,キャピタルコンサルティング株式会社,,株式会社,茨城県,つくば市,吾妻１丁目５－７ダイワロイネットホテルつくばビル,,08,220,3050031,,,,,,,2022-10-20,1,,,,,キャピタルコンサルティング,0
1447,6050003006934,新規,0,2022-10-20,2022-10-20,合同会社セイロンＴＯＫＹＯ,,合同会社,茨城県,北相馬郡利根町,大字羽根野８００番地３１０,,08,564,3001636,,,,,,,2022-10-20,1,,,,,,0
1448,6050005013160,新規,0,2022-10-20,2022-10-20,特定非営利活動法人Ｎｅｓｔｌｅ,,その他の設立登記法人,茨城県,ひたちなか市,大字市毛８２２番地１,,08,221,3120033,,,,,,,2022-10-20,1,,,,,ネスレ,0
1452,6070003004655,新規,0,2022-10-20,2022-10-20,Ｒａｆｕｙｕ　Ｍｏｔｏｒ合同会社,,合同会社,群馬県,富岡市,野上１９１２番地４,,10,210,3702323,,,,,,,2022-10-20,1,,,,,ラフユモーター,0
1476,6120001249619,新規,0,2022-10-20,2022-10-20,株式会社ＳｍｉｌｅＡｇａｉｎ,,株式会社,大阪府,大阪市北区,芝田２丁目８－１１共栄ビル３Ｆ,,27,127,5300012,,,,,,,2022-10-20,1,,,,,スマイルアゲイン,0
1477,6120001249668,新規,0,2022-10-20,2022-10-20,株式会社プロスト,,株式会社,大阪府,大阪市西淀川区,姫島４丁目２番７－１０１号,,27,113,5550033,,,,,,,2022-10-20,1,,,,,プロスト,0
1478,6120001249676,新規,0,2022-10-20,2022-10-20,株式会社愛凰,,株式会社,大阪府,大阪市東住吉区,照ケ丘矢田３丁目６番３３号,,27,121,5460021,,,,,,,2022-10-20,1,,,,,アイオウ,0
1479,6120001249684,新規,0,2022-10-20,2022-10-20,株式会社ｃｒｅｅｒ,,株式会社,大阪府,大阪市西区,北堀江２丁目８番１７－４０１号,,27,106,5500014,,,,,,,2022-10-20,1,,,,,クレエ,0
1481,6120101066402,新規,0,2022-10-20,2022-10-20,サワ株式会社,,株式会社,大阪府,泉南市,岡田７丁目１６６４番地の２６１,,27,228,5900531,,,,,,,2022-10-20,1,,,,,サワ,0
1482,6120901046628,新規,0,2022-10-20,2022-10-20,株式会社蒼,,株式会社,大阪府,池田市,石橋２丁目１０番１号,,27,204,5630032,,,,,,,2022-10-20,1,,,,,アオイ,0
1494,6140001127772,新規,0,2022-10-20,2022-10-20,株式会社ＦＬＯＷ　ＣＲＥＡＴＥ,,株式会社,兵庫県,神戸市中央区,小野柄通３丁目１－１４ＡＲＣＡＤＩＡ三宮２０２号室,,28,110,6510088,,,,,,,2022-10-20,1,,,,,フロークリエイト,0
1499,6160003002708,新規,0,2022-10-20,2022-10-20,細江農園合同会社,,合同会社,滋賀県,長浜市,難波町２０８番地,,25,203,5260108,,,,,,,2022-10-20,1,,,,,ホソエノウエン,0
1501,6170001017335,新規,0,2022-10-20,2022-10-20,株式会社猪鹿加工,,株式会社,和歌山県,田辺市,芳養松原１丁目１９番１０号,,30,206,6460063,,,,,,,2022-10-20,1,,,,,イノシカカコウ,0
1508,6180001153385,新規,0,2022-10-20,2022-10-20,Ｔ’ｓＦａｃｔｏｒｙ株式会社,,株式会社,愛知県,名古屋市南区,本地通６丁目１０－１,,23,112,4570074,,,,,,,2022-10-20,1,,,,,ティーズファクトリー,0
1509,6180001153468,新規,0,2022-10-20,2022-10-20,株式会社クオリティアプレイザル,,株式会社,愛知県,名古屋市西区,名駅２丁目３４番１７号セントラル名古屋１１０１号,,23,104,4510045,,,,,,,2022-10-20,1,,,,,クオリティアプレイザル,0
1517,6180301036744,新規,0,2022-10-20,2022-10-20,一心建築創作工房株式会社,,株式会社,愛知県,蒲郡市,西浦町龍田５２番地,,23,214,4430105,,,,,,,2022-10-20,1,,,,,イッシンケンチクソウサクコウボウ,0
1519,6180303005482,新規,0,2022-10-20,2022-10-20,槐プロジェクト合同会社,,合同会社,愛知県,豊橋市,飯村南２丁目２０番地２６,,23,201,4400835,,,,,,,2022-10-20,1,,,,,エンジュプロジェクト,0
1520,6190001029849,新規,0,2022-10-20,2022-10-20,奏建設工業株式会社,,株式会社,三重県,津市,一身田大古曽４５番地７,,24,201,5140113,,,,,,,2022-10-20,1,,,,,カナデケンセツコウギョウ,0
1522,6200001040572,新規,0,2022-10-20,2022-10-20,株式会社ティアシスト,,株式会社,岐阜県,岐阜市,菅生３丁目３番２号,,21,201,5020914,,,,,,,2022-10-20,1,,,,,ティアシスト,0
1524,6220001025101,新規,0,2022-10-20,2022-10-20,さんまる株式会社,,株式会社,石川県,金沢市,御供田町イ６３番地８,,17,201,9208221,,,,,,,2022-10-20,1,,,,,サンマル,0
1526,6230001019556,新規,0,2022-10-20,2022-10-20,株式会社ＺＤＩ,,株式会社,富山県,富山市,豊丘町１１番１１号,,16,201,9318316,,,,,,,2022-10-20,1,,,,,ゼットディアイ,0
1530,6240001060526,新規,0,2022-10-20,2022-10-20,株式会社英商店,,株式会社,広島県,広島市西区,古江新町６番９号,,34,104,7330873,,,,,,,2022-10-20,1,,,,,,0
1534,6260001037332,新規,0,2022-10-20,2022-10-20,株式会社アキスマイル,,株式会社,岡山県,総社市,中央２丁目４番１号,,33,208,7191131,,,,,,,2022-10-20,1,,,,,アキスマイル,0
1547,6290001099287,新規,0,2022-10-20,2022-10-20,佐賀の和牛卸株式会社,,株式会社,福岡県,福岡市博多区,博多駅南１丁目１５番２８号,,40,132,8120016,,,,,,,2022-10-20,1,,,,,サガノワギュウオロシ,0
1549,6290003013023,新規,0,2022-10-20,2022-10-20,合同会社ケンサル,,合同会社,福岡県,福岡市博多区,石城町５番１１‐７０７号クレアウォーターマーク,,40,132,8120032,,,,,,,2022-10-20,1,,,,,ケンサル,0
1550,6290003013080,新規,0,2022-10-20,2022-10-20,合同会社Ｚ＆Ｓ,,合同会社,福岡県,糟屋郡粕屋町,仲原３丁目１番３０号,,40,349,8112304,,,,,,,2022-10-20,1,,,,,ゼットアンドエス,0
1557,6320001019381,新規,0,2022-10-20,2022-10-20,株式会社光企画,,株式会社,大分県,大分市,森町西３丁目１７番２９アベニュー千１０３,,44,201,8700140,,,,,,,2022-10-20,1,,,,,ヒカリキカク,0
1562,6340003003935,新規,0,2022-10-20,2022-10-20,合同会社六三四鹿児島,,合同会社,鹿児島県,霧島市,国分中央３丁目１２－９－１,,46,218,8994332,,,,,,,2022-10-20,1,,,,,ムサシカゴシマ,0
1565,6360001031102,新規,0,2022-10-20,2022-10-20,ＡＲＲＯＷＳ株式会社,,株式会社,沖縄県,沖縄市,泡瀬３丁目４４－２６－４１７,,47,211,9042172,,,,,,,2022-10-20,1,,,,,アローズ,0
1575,6370001049151,新規,0,2022-10-20,2022-10-20,アルカ株式会社,,株式会社,宮城県,仙台市宮城野区,五輪２丁目６－６－２ファイブリングス１０３,,04,102,9830842,,,,,,,2022-10-20,1,,,,,アルカ,0
1595,6430001087698,新規,0,2022-10-20,2022-10-20,ドリーム・テンラバーズ株式会社,,株式会社,北海道,札幌市中央区,南二条東３丁目７番地１ユニーブル大通アルファスクエア８０１号,,01,101,0600052,,,,,,,2022-10-20,1,,,,,ドリームテンラバーズ,0
1603,6700150109366,新規,0,2022-10-20,2022-06-10,ｙｕｍｉｔｏｍｉ,,その他,埼玉県,志木市,柏町６丁目２６－２３,,11,228,3530007,,,,,,,2022-06-10,1,,,,,ユミトミ,0
1604,7000030020250,新規,0,2022-10-20,2022-10-20,北金ヶ沢財産区,,地方公共団体,青森県,西津軽郡深浦町,大字深浦字苗代沢８４－２,,02,323,0382324,,,,,,,2022-10-20,1,,,,,キタカネガサワザイサンク,0
1615,7010001230183,新規,0,2022-10-20,2022-10-20,株式会社Ｐｒｏｊｅｃｔ　Ｇ,,株式会社,東京都,中央区,日本橋小網町３番１８号,,13,102,1030016,,,,,,,2022-10-20,1,,,,,プロジェクトジー,0
1616,7010001230225,新規,0,2022-10-20,2022-10-20,株式会社ネイバー,,株式会社,東京都,千代田区,神田佐久間町１丁目８番４号,,13,101,1010025,,,,,,,2022-10-20,1,,,,,ネイバー,0
1617,7010001230233,新規,0,2022-10-20,2022-10-20,株式会社Ａｓｓｅｍｂｌｅ,,株式会社,東京都,中央区,晴海３丁目１３番２－４００７号,,13,102,1040053,,,,,,,2022-10-20,1,,,,,アッセンブル,0
1632,7010401170211,新規,0,2022-10-20,2022-10-20,ＣＯ‐Ｎｅｘｉｏｎ株式会社,,株式会社,東京都,港区,芝浦３丁目１７ー１１天翔田町ビル９０７,,13,103,1080023,,,,,,,2022-10-20,1,,,,,コネクション,0
1633,7010401170384,新規,0,2022-10-20,2022-10-20,株式会社ＡＡ　Ｅｎｔｅｒｔａｉｎｍｅｎｔ．,,株式会社,東京都,港区,西麻布１丁目２番２１号ルネサンス六本木プレミアムコート４０１号室,,13,103,1060031,,,,,,,2022-10-20,1,,,,,エーシーズエンターテインメント,0
1644,7010601061978,新規,0,2022-10-20,2022-10-20,株式会社アストラ,,株式会社,東京都,墨田区,菊川３丁目１３番３号ＫＳビル３階,,13,107,1300024,,,,,,,2022-10-20,1,,,,,アストラ,0
1645,7010601062019,新規,0,2022-10-20,2022-10-20,ＡＭＣ株式会社,,株式会社,東京都,江東区,大島８丁目１４番３号,,13,108,1360072,,,,,,,2022-10-20,1,,,,,エイエムシー,0
1651,7011001150280,新規,0,2022-10-20,2022-10-20,株式会社ゴードル,,株式会社,東京都,渋谷区,神宮前６丁目２３番４号桑野ビル２階,,13,113,1500001,,,,,,,2022-10-20,1,,,,,,0
1656,7011103012263,新規,0,2022-10-20,2022-10-20,元気合同会社,,合同会社,東京都,新宿区,百人町１丁目３－２０メゾンドソワイユ２０１号,,13,104,1690073,,,,,,,2022-10-20,1,,,,,ゲンキ,0
1658,7011301028185,新規,0,2022-10-20,2022-10-20,株式会社ニューワールドトレード,,株式会社,東京都,杉並区,下高井戸２丁目１０番３Ｂ１－０３号,,13,115,1680073,,,,,,,2022-10-20,1,,,,,ニューワールドトレード,0
1661,7011303004548,新規,0,2022-10-20,2022-10-20,合同会社ｋｒ,,合同会社,東京都,杉並区,和泉４丁目４９－２,,13,115,1680063,,,,,,,2022-10-20,1,,,,,ケイアール,0
1669,7011801041415,新規,0,2022-10-20,2022-10-20,株式会社こめじ,,株式会社,東京都,葛飾区,東新小岩１丁目５番１８－２１０号,,13,122,1240023,,,,,,,2022-10-20,1,,,,,コメジ,0
1670,7011801041423,新規,0,2022-10-20,2022-10-20,ＫＡＩＫＩ株式会社,,株式会社,東京都,葛飾区,堀切４丁目２０番５号,,13,122,1240006,,,,,,,2022-10-20,1,,,,,カイキ,0
1673,7012305002028,新規,0,2022-10-20,2022-10-20,一般社団法人日本モトツーリズム推進機構,,その他の設立登記法人,東京都,町田市,小川３丁目２番地８２,,13,209,1940003,,,,,,,2022-10-20,1,,,,,ニホンモトツーリズムスイシンキコウ,0
1685,7020001148648,新規,0,2022-10-20,2022-10-20,株式会社ＭＥＭＡ,,株式会社,神奈川県,川崎市川崎区,渡田新町１丁目１－６－２,,14,131,2100844,,,,,,,2022-10-20,1,,,,,メマ,0
1701,7021001077250,新規,0,2022-10-20,2022-10-20,株式会社カリストガ・インターナショナル,,株式会社,神奈川県,鎌倉市,七里ガ浜東３丁目６番７号,,14,204,2480025,,,,,,,2022-10-20,1,,,,,カリストガインターナショナル,0
1707,7030001150611,新規,0,2022-10-20,2022-10-20,桜株式会社,,株式会社,埼玉県,春日部市,粕壁５８７２番地１グレースコーポ１０５号室,,11,214,3440061,,,,,,,2022-10-20,1,,,,,サクラ,0
1708,7030001150636,新規,0,2022-10-20,2022-10-20,株式会社龍翔商事,,株式会社,埼玉県,川口市,朝日３丁目９－１９－１２号,,11,203,3320001,,,,,,,2022-10-20,1,,,,,リュウショウショウジ,0
1709,7030001150652,新規,0,2022-10-20,2022-10-20,株式会社ＮＥＷ　ＢＲＩＤＧＥ,,株式会社,埼玉県,さいたま市大宮区,仲町３丁目１７－１－３Ｆ,,11,103,3300845,,,,,,,2022-10-20,1,,,,,ニューブリッジ,0
1711,7030005021032,新規,0,2022-10-20,2022-10-20,医療法人隼悠会,,その他の設立登記法人,埼玉県,さいたま市浦和区,高砂１丁目１４番１４号たけふじビル５階,,11,107,3300063,,,,,,,2022-10-20,1,,,,,シュンユウカイ,0
1717,7040005021790,新規,0,2022-10-20,2022-10-20,一般社団法人日本ＡＰＮ後援会,,その他の設立登記法人,千葉県,千葉市花見川区,瑞穂３丁目２３番地３,,12,102,2620026,,,,,,,2022-10-20,1,,,,,ニホンエーピーエヌコウエンカイ,0
1719,7050003006933,新規,0,2022-10-20,2022-10-20,合同会社Ｍｕｓｔａｆａ　ｔｒａｄｉｎｇ,,合同会社,茨城県,水戸市,笠原町１４５６番地笠原ハイツ１０６号室,,08,201,3100852,,,,,,,2022-10-20,1,,,,,ムスタファトレーディング,0
1722,7060003004275,新規,0,2022-10-20,2022-10-20,合同会社ＴｏｋａｍｉＸ,,合同会社,栃木県,宇都宮市,砥上町３０５番地２８,,09,201,3200856,,,,,,,2022-10-20,1,,,,,トカミエックス,0
1726,7080001025255,新規,0,2022-10-20,2022-10-20,株式会社ＮＡＭＵ　ＲＯＯＭ,,株式会社,静岡県,静岡市葵区,常磐町２丁目１３－２,,22,101,4200034,,,,,,,2022-10-20,1,,,,,ナムルーム,0
1734,7100005012932,新規,0,2022-10-20,2022-10-20,ＮＰＯ法人アートカフェ,,その他の設立登記法人,長野県,長野市,三輪２丁目４番３４号アザレビル２０２,,20,201,3800803,,,,,,,2022-10-20,1,,,,,アートカフェ,0
1741,7120001249642,新規,0,2022-10-20,2022-10-20,株式会社かつを,,株式会社,大阪府,大阪市東住吉区,南田辺３丁目１８番９号ローズヴィラ南田辺４０２号,,27,121,5460033,,,,,,,2022-10-20,1,,,,,カツヲ,0
1742,7120001249650,新規,0,2022-10-20,2022-10-20,株式会社Ｋプランニング,,株式会社,大阪府,大阪市中央区,島之内２丁目５番５－３０５号,,27,128,5420082,,,,,,,2022-10-20,1,,,,,カブシキカイサカイシャ,0
1743,7120001249667,新規,0,2022-10-20,2022-10-20,株式会社Ｇｏｏｄ　Ｍａｔｃｈ,,株式会社,大阪府,大阪市中央区,南船場１丁目１２番１３号ベルハウスビル４階,,27,128,5420081,,,,,,,2022-10-20,1,,,,,グットマッチ,0
1744,7120001249691,新規,0,2022-10-20,2022-10-20,株式会社ＬＵＸＵＳ,,株式会社,大阪府,大阪市都島区,中野町４丁目３番９号ＭＥＴＴ桜ノ宮ビル５階,,27,102,5340027,,,,,,,2022-10-20,1,,,,,ラグズ,0
1745,7120003022691,新規,0,2022-10-20,2022-10-20,ＡＲＥＤ合同会社,,合同会社,大阪府,大阪市生野区,勝山北５丁目７番１９号,,27,116,5440033,,,,,,,2022-10-20,1,,,,,アレッド,0
1746,7120003022700,新規,0,2022-10-20,2022-10-20,豊美合同会社,,合同会社,大阪府,大阪市平野区,加美北１丁目２３番２７号１０１号室,,27,126,5470001,,,,,,,2022-10-20,1,,,,,ホウビ,0
1757,7130001072853,新規,0,2022-10-20,2022-10-20,株式会社アシスター,,株式会社,京都府,京都市山科区,勧修寺東堂田町１４番地Ｈ－１フラット１０５号,,26,110,6078222,,,,,,,2022-10-20,1,,,,,アシスター,0
1758,7130001072861,新規,0,2022-10-20,2022-10-20,株式会社心絵エンターテイメント,,株式会社,京都府,京都市右京区,西京極畔勝町２３番地アーバンハウスＡ＆ＵＩ７０２,,26,108,6150806,,,,,,,2022-10-20,1,,,,,ココロエエンターテイメント,0
1769,7160001024579,新規,0,2022-10-20,2022-10-20,株式会社ａｎｎ,,株式会社,滋賀県,彦根市,平田町６２８番地１４,,25,202,5220041,,,,,,,2022-10-20,1,,,,,アン,0
1776,7180001153475,新規,0,2022-10-20,2022-10-20,株式会社ＭＩＧ,,株式会社,愛知県,名古屋市中川区,八剱町３丁目９２番地４,,23,110,4540054,,,,,,,2022-10-20,1,,,,,エムアイジー,0
1781,7180301036743,新規,0,2022-10-20,2022-10-20,株式会社コメット,,株式会社,愛知県,知立市,牛田町東裏７２番地,,23,225,4720007,,,,,,,2022-10-20,1,,,,,コメット,0
1784,7240001060500,新規,0,2022-10-20,2022-10-20,株式会社八翠園,,株式会社,広島県,広島市西区,古江新町１７－２５,,34,104,7330873,,,,,,,2022-10-20,1,,,,,ハッスイエン,0
1790,7290001099245,新規,0,2022-10-20,2022-10-20,九州の星株式会社,,株式会社,福岡県,福岡市博多区,祇園町８－１２ロータリー大和８１３号,,40,132,8120038,,,,,,,2022-10-20,1,,,,,キュウシュウノホシ,0
1792,7290003013088,新規,0,2022-10-20,2022-10-20,合同会社ＨＡＴＥＩ　ＢＯＤＹ　ＣＲＡＦＴ,,合同会社,福岡県,飯塚市,庄司３４８番地１,,40,205,8200051,,,,,,,2022-10-20,1,,,,,ハテイボディークラフト,0
1794,7290801028980,新規,0,2022-10-20,2022-10-20,株式会社昇誠,,株式会社,福岡県,北九州市八幡西区,永犬丸西町３丁目８番２２号,,40,109,8070852,,,,,,,2022-10-20,1,,,,,ショウセイ,0
1796,7300001013105,新規,0,2022-10-20,2022-10-20,株式会社ｆｏｌｌｏｗ,,株式会社,佐賀県,三養基郡基山町,大字宮浦１８６番地６５きやまクリニックモールＡ－３,,41,341,8410204,,,,,,,2022-10-20,1,,,,,フォロー,0
1810,7340005009517,新規,0,2022-10-20,2022-10-20,特定非営利活動法人ＮＰＯカムナ研究会,,その他の設立登記法人,鹿児島県,垂水市,栄町２１番地１,,46,214,8912121,,,,,,,2022-10-20,1,,,,,エヌピーオーカムナケンキュウカイ,0
1814,7360003012371,新規,0,2022-10-20,2022-10-20,合同会社こすもす,,合同会社,沖縄県,沖縄市,知花４丁目２５番１０号,,47,211,9042143,,,,,,,2022-10-20,1,,,,,コスモス,0
1832,7430001087697,新規,0,2022-10-20,2022-10-20,日本建塗株式会社,,株式会社,北海道,札幌市南区,南沢二条３丁目１３番７号,,01,106,0050822,,,,,,,2022-10-20,1,,,,,ニホンケント,0
1840,7480001011891,新規,0,2022-10-20,2022-10-20,日本フルーツ株式会社,,株式会社,徳島県,徳島市,佐古八番町８番２－３号,,36,201,7700028,,,,,,,2022-10-20,1,,,,,ニッポンフルーツ,0
1843,7700150111726,新規,0,2022-10-20,2022-09-16,セントレジアス船堀管理組合,,その他,東京都,江戸川区,船堀７丁目２０－１９,,13,123,1340091,,,,,,,2022-09-16,1,,,,,セントレジアスフナボリカンリクミアイ,0
1857,8010001230166,新規,0,2022-10-20,2022-10-20,レイテストナレッジ株式会社,,株式会社,東京都,中央区,銀座７丁目１３－２１銀座Ｓｉｎｒｏｋｕｓｙｕビル２階,,13,102,1040061,,,,,,,2022-10-20,1,,,,,レイテストナレッジ,0
1858,8010001230249,新規,0,2022-10-20,2022-10-20,株式会社モンジュール,,株式会社,東京都,中央区,日本橋馬喰町１丁目１１番２号,,13,102,1030002,,,,,,,2022-10-20,1,,,,,モンジュール,0
1859,8010001230257,新規,0,2022-10-20,2022-10-20,松悦耀株式会社,,株式会社,東京都,中央区,新川２丁目９番３号藤和新川コープ９０３号,,13,102,1040033,,,,,,,2022-10-20,1,,,,,ショウエツヨウ,0
1867,8010003038847,新規,0,2022-10-20,2022-10-20,合同会社Ｖｉｃｔｏｒｙ,,合同会社,東京都,中央区,銀座１丁目２２番１１号銀座大竹レジデンス２階,,13,102,1040061,,,,,,,2022-10-20,1,,,,,ビクトリー,0
1868,8010003038896,新規,0,2022-10-20,2022-10-20,合同会社Ｓｅｒｖａｎｔ,,合同会社,東京都,中央区,銀座２丁目１４番８号ＭＬ１３２３,,13,102,1040061,,,,,,,2022-10-20,1,,,,,サーバント,0
1870,8010401044967,新規,0,2022-10-20,2022-10-20,大市土地株式会社,,株式会社,東京都,港区,赤坂８丁目６番３１－３０５号,,13,103,1070052,,,,,,,2022-10-20,1,,,,,ダイイチトチ,0
1877,8010401170334,新規,0,2022-10-20,2022-10-20,ＳＡＳＡＬ株式会社,,株式会社,東京都,港区,赤坂４丁目８－１９赤坂フロントタウン３Ｆ,,13,103,1070052,,,,,,,2022-10-20,1,,,,,ササエル,0
1880,8010403028737,新規,0,2022-10-20,2022-10-20,合同会社３Ｃ,,合同会社,東京都,港区,西麻布３丁目５－３３－２０１,,13,103,1060031,,,,,,,2022-10-20,1,,,,,スリーシー,0
1881,8010403028745,新規,0,2022-10-20,2022-10-20,合同会社たかやま,,合同会社,東京都,港区,虎ノ門４丁目１番２０－１２０５号,,13,103,1050001,,,,,,,2022-10-20,1,,,,,タカヤマ,0
1882,8010403028761,新規,0,2022-10-20,2022-10-20,合同会社横浜金沢ロジ,,合同会社,東京都,港区,元赤坂１丁目１番８号株式会社赤坂国際会計内,,13,103,1070051,,,,,,,2022-10-20,1,,,,,ヨコハマカナザワロジ,0
1884,8010405021459,新規,0,2022-10-20,2022-10-20,一般社団法人日本周産期医療ネットワーク推進協議会,,その他の設立登記法人,東京都,港区,南麻布５丁目６番８号,,13,103,1060047,,,,,,,2022-10-20,1,,,,,ニホンシュウサンキイリョウネットワークスイシンキョウギカイ,0
1885,8010405021509,新規,0,2022-10-20,2022-10-20,一般社団法人Ｎｉｋｅｌｌｏｒａ,,その他の設立登記法人,東京都,港区,虎ノ門５丁目１番４号,,13,103,1050001,,,,,,,2022-10-20,1,,,,,ニケローラ,0
1892,8010701043347,新規,0,2022-10-20,2022-10-20,株式会社アイスレモンティ,,株式会社,東京都,品川区,東五反田２丁目１０番１－１９０１号,,13,109,1410022,,,,,,,2022-10-20,1,,,,,アイスレモンティ,0
1893,8010701043363,新規,0,2022-10-20,2022-10-20,日本ナチュラルテック株式会社,,株式会社,東京都,品川区,大崎２丁目９番２号,,13,109,1410032,,,,,,,2022-10-20,1,,,,,ニホンナチュラルテック,0
1898,8011001150420,新規,0,2022-10-20,2022-10-20,ＭＡＲＳ株式会社,,株式会社,東京都,目黒区,上目黒３丁目２１番１９号,,13,110,1530051,,,,,,,2022-10-20,1,,,,,マーズ,0
1899,8011001150429,新規,0,2022-10-20,2022-10-20,株式会社エスポワ,,株式会社,東京都,渋谷区,千駄ヶ谷４丁目２７番１号神宮外苑ビル３Ｆ,,13,113,1510051,,,,,,,2022-10-20,1,,,,,エスポワ,0
1900,8011003015539,新規,0,2022-10-20,2022-10-20,ＭＡＲＰＨＡ合同会社,,合同会社,東京都,目黒区,目黒３丁目１番１６号第２グリーンハウス２７,,13,110,1530063,,,,,,,2022-10-20,1,,,,,マルファ,0
1906,8011101100556,新規,0,2022-10-20,2022-10-20,株式会社ヘイシアブルー,,株式会社,東京都,新宿区,西新宿３丁目３番１３号西新宿水間ビル２Ｆ,,13,104,1600023,,,,,,,2022-10-20,1,,,,,ヘイシアブルー,0
1911,8011401024612,新規,0,2022-10-20,2022-10-20,株式会社ビックカメラトータルリフォーム,,株式会社,東京都,板橋区,前野町４丁目２２番１７号,,13,119,1740063,,,,,,,2022-10-20,1,,,,,ビックカメラトータルリフォーム,0
1919,8011603003728,新規,0,2022-10-20,2022-10-20,合同会社ゆひつつ,,合同会社,東京都,練馬区,上石神井２丁目１６－４－１０６,,13,120,1770044,,,,,,,2022-10-20,1,,,,,ユヒツツ,0
1920,8011701025715,新規,0,2022-10-20,2022-10-20,ＪＣＣＰ株式会社,,株式会社,東京都,江戸川区,江戸川１丁目７番１８号,,13,123,1320013,,,,,,,2022-10-20,1,,,,,ジェーシーシーピー,0
1921,8011801041414,新規,0,2022-10-20,2022-10-20,株式会社Ｇｅｅｋ,,株式会社,東京都,足立区,佐野１丁目１９番１０号,,13,121,1210053,,,,,,,2022-10-20,1,,,,,ギーク,0
1925,8012701017314,新規,0,2022-10-20,2022-10-20,株式会社エムエス不動産,,株式会社,東京都,西東京市,谷戸町１丁目２３番７－３１０号,,13,229,1880001,,,,,,,2022-10-20,1,,,,,エムエスフドウサン,0
1938,8020001148655,新規,0,2022-10-20,2022-10-20,株式会社Ｅ企画管理,,株式会社,神奈川県,横浜市金沢区,六浦４丁目７番１３号湘南六浦ハイツ１０１号室,,14,108,2360031,,,,,,,2022-10-20,1,,,,,イーキカクカンリ,0
1939,8020003022593,新規,0,2022-10-20,2022-10-20,ｅｓｃｕｂｅ合同会社,,合同会社,神奈川県,横浜市中区,花咲町１丁目４８番３号,,14,104,2310063,,,,,,,2022-10-20,1,,,,,エスキューブ,0
1940,8020005015686,新規,0,2022-10-20,2022-10-20,一般社団法人医療連携を推進する会,,その他の設立登記法人,神奈川県,横浜市旭区,上白根３丁目１９番１３号,,14,112,2410002,,,,,,,2022-10-20,1,,,,,イリョウレンケイヲスイシンスルカイ,0
1945,8021001077233,新規,0,2022-10-20,2022-10-20,ＹＬＫ株式会社,,株式会社,神奈川県,茅ヶ崎市,下町屋２丁目１１番１３－９号,,14,207,2530087,,,,,,,2022-10-20,1,,,,,ワイエルケー,0
1946,8021001077241,新規,0,2022-10-20,2022-10-20,ＢＨＪソフト株式会社,,株式会社,神奈川県,海老名市,中央２丁目９番５０号海老名プライムタワー,,14,215,2430432,,,,,,,2022-10-20,1,,,,,ビーエイチジェーソフト,0
1959,8030001150544,新規,0,2022-10-20,2022-10-20,株式会社ａｎｏｃｏｎｏ,,株式会社,埼玉県,越谷市,蒲生西町１丁目１番１７号,,11,222,3430835,,,,,,,2022-10-20,1,,,,,アノコノ,0
1960,8030001150643,新規,0,2022-10-20,2022-10-20,Ｃｏｒｇｉ　Ｃｏｎｓｕｌｔｉｎｇ株式会社,,株式会社,埼玉県,さいたま市浦和区,常盤１丁目３－１４パークスクエア浦和常磐６０５号室,,11,107,3300061,,,,,,,2022-10-20,1,,,,,コーギーコンサルティング,0
1961,8030001150651,新規,0,2022-10-20,2022-10-20,川越製薬株式会社,,株式会社,埼玉県,川越市,南台１丁目３番地２,,11,201,3501165,,,,,,,2022-10-20,1,,,,,カワゴエセイヤク,0
1962,8030001150676,新規,0,2022-10-20,2022-10-20,株式会社Ａｒｔ　Ｗｏｒｋｓ,,株式会社,埼玉県,さいたま市見沼区,大字蓮沼２９０番地,,11,104,3370015,,,,,,,2022-10-20,1,,,,,アートワークス,0
1965,8030003020407,新規,0,2022-10-20,2022-10-20,ＳＴＡＲ　ＩＮＴＥＲＮＡＴＩＯＮＡＬ合同会社,,合同会社,埼玉県,坂戸市,南町１５－５,,11,239,3500233,,,,,,,2022-10-20,1,,,,,スターインターナショナル,0
1966,8030003020415,新規,0,2022-10-20,2022-10-20,Ｔｉｔｌｅ　Ｔｅｘｔ合同会社,,合同会社,埼玉県,所沢市,狭山ケ丘１丁目３０番地の８,,11,208,3591161,,,,,,,2022-10-20,1,,,,,タイトルテクスト,0
1968,8030005021031,新規,0,2022-10-20,2022-10-20,埼玉不動産査定協同組合,,その他の設立登記法人,埼玉県,上尾市,大字上２９６番地９,,11,219,3620001,,,,,,,2022-10-20,1,,,,,サイタマフドウサンサテイ,0
1974,8040001125479,新規,0,2022-10-20,2022-10-20,株式会社ｍｋ,,株式会社,千葉県,千葉市花見川区,幕張町３丁目１５３０番地３,,12,102,2620032,,,,,,,2022-10-20,1,,,,,エムケー,0
1990,8080001025254,新規,0,2022-10-20,2022-10-20,株式会社ワークアウトサービス,,株式会社,静岡県,静岡市駿河区,中島１３７番地の１,,22,102,4228046,,,,,,,2022-10-20,1,,,,,ワークアウトサービス,0
2000,8100005012931,新規,0,2022-10-20,2022-10-20,みさわ行政書士法人,,その他の設立登記法人,長野県,諏訪市,高島３丁目１２０１番地９０,,20,206,3920022,,,,,,,2022-10-20,1,,,,,ミサワ,0
2021,8120001249666,新規,0,2022-10-20,2022-10-20,株式会社リボーン,,株式会社,大阪府,大阪市東淀川区,瑞光１丁目８番１２号ノーヴァ鍵本２１１号,,27,114,5330005,,,,,,,2022-10-20,1,,,,,リボーン,0
2022,8120001249690,新規,0,2022-10-20,2022-10-20,小林株式会社,,株式会社,大阪府,大阪市港区,港晴２丁目３番７号,,27,107,5520023,,,,,,,2022-10-20,1,,,,,コバヤシ,0
2023,8120001249708,新規,0,2022-10-20,2022-10-20,株式会社ＳＫＩＮＤＯＸ,,株式会社,大阪府,大阪市北区,同心２丁目５番１６号岡本ビル２０６号室,,27,127,5300035,,,,,,,2022-10-20,1,,,,,スキンドックス,0
2026,8120003022666,新規,0,2022-10-20,2022-10-20,Ｓｏｌｍｓ合同会社,,合同会社,大阪府,大阪市淀川区,東三国１丁目２７番１６号,,27,123,5320002,,,,,,,2022-10-20,1,,,,,ソルムス,0
2027,8120003022690,新規,0,2022-10-20,2022-10-20,和佳聖銘合同会社,,合同会社,大阪府,大阪市淀川区,西宮原３丁目２番１号新大阪ビジネス第２ニッケンマンション６１８,,27,123,5320004,,,,,,,2022-10-20,1,,,,,ワカセイメイ,0
2028,8120003022699,新規,0,2022-10-20,2022-10-20,合同会社明盛,,合同会社,大阪府,大阪市生野区,新今里５丁目１５番１７号ブランシュＩＩ４Ａ号室,00128194,27,116,5440001,,,,,,,2022-10-20,1,,,,,アキモリ,0
2030,8122001036326,新規,0,2022-10-20,2022-10-20,株式会社トライファー,,株式会社,大阪府,四條畷市,田原台２丁目８番５号,,27,229,5750013,,,,,,,2022-10-20,1,,,,,トライファー,0
2032,8122003002441,新規,0,2022-10-20,2022-10-20,プリーマ合同会社,,合同会社,大阪府,大東市,明美の里町１番５号,,27,218,5740003,,,,,,,2022-10-20,1,,,,,プリーマ,0
2041,8130005016608,新規,0,2022-10-20,2022-10-20,一般社団法人京都２４,,その他の設立登記法人,京都府,京都市伏見区,羽束師志水町１６５番１９０号,,26,109,6128485,,,,,,,2022-10-20,1,,,,,キョウトトゥエンティフォー,0
2047,8140003018258,新規,0,2022-10-20,2022-10-20,合同会社うみづき,,合同会社,兵庫県,宝塚市,中山寺１丁目１３番２０－４０１号,,28,214,6650861,,,,,,,2022-10-20,1,,,,,ウミヅキ,0
2050,8150003002797,新規,0,2022-10-20,2022-10-20,合同会社ＤＣ,,合同会社,奈良県,香芝市,旭ケ丘５丁目１８－１４,,29,210,6390266,,,,,,,2022-10-20,1,,,,,ディーシー,0
2057,8180001153458,新規,0,2022-10-20,2022-10-20,株式会社Ｋプロジェクト,,株式会社,愛知県,名古屋市天白区,植田西３丁目３０１番地１,,23,116,4680058,,,,,,,2022-10-20,1,,,,,ケイプロジェクト,0
2058,8180001153466,新規,0,2022-10-20,2022-10-20,株式会社ＢＧＦ,,株式会社,愛知県,名古屋市中川区,柳川町８番７号,,23,110,4540014,,,,,,,2022-10-20,1,,,,,ビージーエフ,0
2059,8180001153474,新規,0,2022-10-20,2022-10-20,株式会社Ｆｏｖｅｌ,,株式会社,愛知県,名古屋市中村区,名駅１丁目１番１号ＪＰタワー２１階,,23,105,4500002,,,,,,,2022-10-20,1,,,,,フォーベル,0
2060,8180001153482,新規,0,2022-10-20,2022-10-20,株式会社ＤＡＢＥＬＬ,,株式会社,愛知県,名古屋市中区,栄４丁目４番１号,,23,106,4600008,,,,,,,2022-10-20,1,,,,,ダベル,0
2067,8180301036742,新規,0,2022-10-20,2022-10-20,近藤養魚場株式会社,,株式会社,愛知県,豊田市,青木町２丁目１０８番地,,23,211,4700335,,,,,,,2022-10-20,1,,,,,コンドウヨウギョジョウ,0
2070,8190001029847,新規,0,2022-10-20,2022-10-20,株式会社長久丸フーズ,,株式会社,三重県,四日市市,天カ須賀３丁目６２８番地３,,24,202,5108001,,,,,,,2022-10-20,1,,,,,チョウキュウマルフーズ,0
2073,8200001040570,新規,0,2022-10-20,2022-10-20,株式会社ＢＡＲＯＮ　ＳＱＵＡＤ,,株式会社,岐阜県,可児市,土田３５７５番地３,,21,214,5090206,,,,,,,2022-10-20,1,,,,,バロンスクアッド,0
2075,8200003005712,新規,0,2022-10-20,2022-10-20,合同会社バチャータメディアジャパン,,合同会社,岐阜県,下呂市,蛇之尾１３４５,,21,220,5092423,,,,,,,2022-10-20,1,,,,,バチャータメディアジャパン,0
2077,8220001025099,新規,0,2022-10-20,2022-10-20,株式会社兼六ハイツ,,株式会社,石川県,金沢市,材木町４番７号,,17,201,9200921,,,,,,,2022-10-20,1,,,,,ケンロクハイツ,0
2080,8240001060499,新規,0,2022-10-20,2022-10-20,株式会社シナジープロデュース,,株式会社,広島県,広島市西区,古江新町１７－２５,,34,104,7330873,,,,,,,2022-10-20,1,,,,,シナジープロデュース,0
2081,8240001060524,新規,0,2022-10-20,2022-10-20,株式会社リノマナ,,株式会社,広島県,広島市安芸区,船越南３丁目２４番９－１０５号,,34,107,7360082,,,,,,,2022-10-20,1,,,,,リノマナ,0
2092,8290001099260,新規,0,2022-10-20,2022-10-20,株式会社ＥＩＴコンサル,,株式会社,福岡県,太宰府市,観世音寺２丁目６番２号,,40,221,8180101,,,,,,,2022-10-20,1,,,,,エアイティコンサル,0
2093,8290001099293,新規,0,2022-10-20,2022-10-20,株式会社ＬＩＮＫ　ＦＯＲＥＳＴ,,株式会社,福岡県,福岡市博多区,祇園町８番１２－９０５号,,40,132,8120038,,,,,,,2022-10-20,1,,,,,リンクフォレスト,0
2095,8290003013087,新規,0,2022-10-20,2022-10-20,合同会社ＵＭＥＳＨ　ＢＧ,,合同会社,福岡県,久留米市,山川安居野３丁目８番３１号,,40,203,8390812,,,,,,,2022-10-20,1,,,,,ウメシュビージー,0
2104,8340005009516,新規,0,2022-10-20,2022-10-20,弁護士法人クプアス西鹿児島法律事務所,,その他の設立登記法人,鹿児島県,鹿児島市,中央町４番地３４メディカルミュゼビル６０２,,46,201,8900053,,,,,,,2022-10-20,1,,,,,クプアスニシカゴシマホウリツジムショ,0
2121,8430001087705,新規,0,2022-10-20,2022-10-20,櫻楓商事株式会社,,株式会社,北海道,札幌市豊平区,豊平八条８丁目２番４５号キングハウス学園前２０６,,01,105,0620908,,,,,,,2022-10-20,1,,,,,オウフウショウジ,0
2126,8430002066922,新規,0,2022-10-20,2022-10-20,有限会社中公産業,,有限会社,北海道,美唄市,字茶志内８５２番地,,01,215,0720000,,,,,,,2022-10-20,1,,,,,ナカコウサンギョウ,0
2129,8480001011890,新規,0,2022-10-20,2022-10-20,株式会社ＢＬＯＳＳＯＭ,,株式会社,徳島県,徳島市,南二軒屋町新開１２２３番地の２,,36,201,7708063,,,,,,,2022-10-20,1,,,,,ブロッサム,0
2135,8700150111808,新規,0,2022-10-20,2022-09-26,ｌｏｖｅｐｕｎｋ,,その他,東京都,中野区,中央１丁目２３－２７メゾン・ド・坂上３０７,,13,114,1640011,,,,,,,2022-09-26,1,,,,,ラブパンク,0
2136,9000030020249,新規,0,2022-10-20,2022-10-20,田野沢財産区,,地方公共団体,青森県,西津軽郡深浦町,大字深浦字苗代沢８４－２,,02,323,0382324,,,,,,,2022-10-20,1,,,,,タノサワザイサンク,0
2146,9010001229868,新規,0,2022-10-20,2022-10-20,ＸＥＮＯ株式会社,,株式会社,東京都,中央区,月島１丁目８番１－１２１１号,,13,102,1040052,,,,,,,2022-10-20,1,,,,,ゼノ,0
2147,9010001230099,新規,0,2022-10-20,2022-10-20,エターナルステラー株式会社,,株式会社,東京都,中央区,新川２丁目２１番１０号リードシー八丁堀ビル２Ｆ－１５,,13,102,1040033,,,,,,,2022-10-20,1,,,,,エターナルステラー,0
2148,9010001230132,新規,0,2022-10-20,2022-10-20,Ｍｉｎｄ　Ｕｐ株式会社,,株式会社,東京都,中央区,日本橋兜町１７番２号兜町第６葉山ビル４階,,13,102,1030026,,,,,,,2022-10-20,1,,,,,マインドアップ,0
2149,9010001230149,新規,0,2022-10-20,2022-10-20,ＴＣ　ＨＤ株式会社,,株式会社,東京都,中央区,京橋１丁目１７番１号,,13,102,1040031,,,,,,,2022-10-20,1,,,,,ティーシーホールディングス,0
2150,9010001230181,新規,0,2022-10-20,2022-10-20,株式会社翔龍,,株式会社,東京都,千代田区,岩本町２丁目９－１２北村ビル３階,,13,101,1010032,,,,,,,2022-10-20,1,,,,,ショウリュウ,0
2151,9010001230280,新規,0,2022-10-20,2022-10-20,株式会社アクペディア,,株式会社,東京都,文京区,本郷２丁目３５番１７号,,13,105,1130033,,,,,,,2022-10-20,1,,,,,アクペディア,0
2155,9010003038887,新規,0,2022-10-20,2022-10-20,合同会社ヨガシ,,合同会社,東京都,中央区,銀座１丁目２２番１１号・銀座大竹ビジデンス２階,,13,102,1040061,,,,,,,2022-10-20,1,,,,,ヨガシ,0
2164,9010401170341,新規,0,2022-10-20,2022-10-20,株式会社ウェルスゲート,,株式会社,東京都,港区,南青山１丁目２番６号ラティス青山スクエア２階,,13,103,1070062,,,,,,,2022-10-20,1,,,,,ウェルスゲート,0
2165,9010401170382,新規,0,2022-10-20,2022-10-20,株式会社ケーチョウサン,,株式会社,東京都,港区,港南２丁目２番６号,,13,103,1080075,,,,,,,2022-10-20,1,,,,,ケーチョウサン,0
2166,9010401170390,新規,0,2022-10-20,2022-10-20,株式会社Ａｒｃ　Ｃｏｎｓｕｌｔｉｎｇ,,株式会社,東京都,港区,赤坂２丁目１７－５５－１１１,,13,103,1070052,,,,,,,2022-10-20,1,,,,,アークコンサルティング,0
2170,9010501049527,新規,0,2022-10-20,2022-10-20,Ｓｍａｒｔ　Ｂｕｓｉｎｅｓｓ株式会社,,株式会社,東京都,台東区,元浅草２丁目６番４号上野コアビル８Ｆ,,13,106,1110041,,,,,,,2022-10-20,1,,,,,スマートビジネス,0
2174,9010603009791,新規,0,2022-10-20,2022-10-20,合同会社人間道,,合同会社,東京都,墨田区,千歳２丁目８番１７号,,13,107,1300025,,,,,,,2022-10-20,1,,,,,ニンゲンドウ,0
2175,9010703006425,新規,0,2022-10-20,2022-10-20,合同会社まるみ,,合同会社,東京都,品川区,大井１丁目４１番１号,,13,109,1400014,,,,,,,2022-10-20,1,,,,,マルミ,0
2186,9011001150428,新規,0,2022-10-20,2022-10-20,ＫＷｍｅｄｉｃａｌ株式会社,,株式会社,東京都,渋谷区,上原２丁目２８番５号５０３,,13,113,1510064,,,,,,,2022-10-20,1,,,,,ケーダブリューメディカル,0
2188,9011003015546,新規,0,2022-10-20,2022-10-20,ＳＯＩＬ合同会社,,合同会社,東京都,渋谷区,神宮前６丁目２３番４号桑野ビル２階,,13,113,1500001,,,,,,,2022-10-20,1,,,,,ソイル,0
2191,9011103012286,新規,0,2022-10-20,2022-10-20,合同会社ＰＥＡＣＥ,,合同会社,東京都,新宿区,新宿１丁目１３番１２号ファーストビル５階,,13,104,1600022,,,,,,,2022-10-20,1,,,,,ピース,0
2193,9011201024175,新規,0,2022-10-20,2022-10-20,株式会社ミライズ,,株式会社,東京都,中野区,東中野１丁目３２番８－３０３号,,13,114,1640003,,,,,,,2022-10-20,1,,,,,ミライズ,0
2195,9011301028191,新規,0,2022-10-20,2022-10-20,株式会社ｉｇｕｓａ,,株式会社,東京都,杉並区,上井草３丁目２４番２号,,13,115,1670023,,,,,,,2022-10-20,1,,,,,イグサ,0
2206,9011603003727,新規,0,2022-10-20,2022-10-20,合同会社ＩＦ,,合同会社,東京都,練馬区,平和台４丁目１６番８号,,13,120,1790083,,,,,,,2022-10-20,1,,,,,アイエフ,0
2209,9011801041413,新規,0,2022-10-20,2022-10-20,株式会社３９ツリー,,株式会社,東京都,葛飾区,高砂１丁目２５番２３－１３１２号青砥東パーク・ホームズ,,13,122,1250054,,,,,,,2022-10-20,1,,,,,サンキューツリー,0
2231,9021001077182,新規,0,2022-10-20,2022-10-20,Ｆｉｌａｎｚａ株式会社,,株式会社,神奈川県,横須賀市,野比１丁目２６番２号,,14,201,2390841,,,,,,,2022-10-20,1,,,,,フィランザ,0
2232,9021001077199,新規,0,2022-10-20,2022-10-20,シン・ニホンパブリックアフェアーズ株式会社,,株式会社,神奈川県,鎌倉市,西鎌倉３丁目１０番１１号,,14,204,2480035,,,,,,,2022-10-20,1,,,,,シンニホンパブリックアフェアーズ,0
2233,9021001077240,新規,0,2022-10-20,2022-10-20,株式会社銀荘,,株式会社,神奈川県,横須賀市,久里浜４丁目１番８号,,14,201,2390831,,,,,,,2022-10-20,1,,,,,ギンソウ,0
2236,9021003012278,新規,0,2022-10-20,2022-10-20,ｓｔａｃｋｓ合同会社,,合同会社,神奈川県,鎌倉市,大船３丁目７番２９号,,14,204,2470056,,,,,,,2022-10-20,1,,,,,スタックス,0
2239,9030001150650,新規,0,2022-10-20,2022-10-20,株式会社オウチード,,株式会社,埼玉県,さいたま市南区,太田窪２丁目６番７号,,11,108,3360015,,,,,,,2022-10-20,1,,,,,オウチード,0
2241,9030005021039,新規,0,2022-10-20,2022-10-20,一般社団法人愛和法人会,,その他の設立登記法人,埼玉県,上尾市,大字久保３７０番地７,,11,219,3620007,,,,,,,2022-10-20,1,,,,,アイワホウジンカイ,0
2247,9040005021789,新規,0,2022-10-20,2022-10-20,医療法人社団憲伸会,,その他の設立登記法人,千葉県,習志野市,実籾５丁目１番７号,00128192,12,216,2750002,,,,,,,2022-10-20,1,,,,,ケンシンカイ,0
2248,9050001051839,新規,0,2022-10-20,2022-10-20,株式会社バルコ,,株式会社,茨城県,神栖市,溝口２番地,,08,232,3140121,,,,,,,2022-10-20,1,,,,,バルコ,0
2249,9050003006931,新規,0,2022-10-20,2022-10-20,合同会社たけやま,,合同会社,茨城県,筑西市,門井１５８番地,,08,227,3091107,,,,,,,2022-10-20,1,,,,,タケヤマ,0
2257,9060003004273,新規,0,2022-10-20,2022-10-20,ｃｏｍｉｃ　ｍｅｃｈａｎｉｓｍ合同会社,,合同会社,栃木県,宇都宮市,東峰町３０９４番地２０５,,09,201,3210944,,,,,,,2022-10-20,1,,,,,コミックメカニズム,0
2258,9070001039758,新規,0,2022-10-20,2022-10-20,造形の杜おりがみ株式会社,,株式会社,群馬県,高崎市,下小塙町１８６５番地３,,10,202,3700076,,,,,,,2022-10-20,1,,,,,ゾウケイノモリオリガミ,0
2290,9120001249632,新規,0,2022-10-20,2022-10-20,Ｎａｎｃｙ　Ｓｕｍｍｅｒ　Ｂｒｅｅｚｅ株式会社,,株式会社,大阪府,大阪市中央区,船場中央２丁目１番４号船場センタービル４号館地下一階Ｂ１０８ＲＯＹＡＬＯＦＦＩＣＥ内,,27,128,5410055,,,,,,,2022-10-20,1,,,,,ナンシーサマーブリーズ,0
2291,9120001249649,新規,0,2022-10-20,2022-10-20,山川国際株式会社,,株式会社,大阪府,大阪市中央区,内本町２丁目３－１１内本町グリーンビル７Ｆ,,27,128,5400026,,,,,,,2022-10-20,1,,,,,ヤマカワコクサイ,0
2292,9120001249665,新規,0,2022-10-20,2022-10-20,日本資源開発株式会社,,株式会社,大阪府,大阪市大正区,千島３丁目１９番５号,,27,108,5510003,,,,,,,2022-10-20,1,,,,,ニホンシゲンカイハツ,0
2317,9140001127745,新規,0,2022-10-20,2022-10-20,株式会社Ｒｅｂｏｒｎ,,株式会社,兵庫県,神戸市中央区,磯上通８丁目１番２９号カサベラビルＣ＆Ｍ４０３号室,,28,110,6510086,,,,,,,2022-10-20,1,,,,,リボーン,0
2327,9160001024577,新規,0,2022-10-20,2022-10-20,ＯＮＥ‐ＡＬＬ株式会社,,株式会社,滋賀県,彦根市,河原２丁目８番１０号ＭＫビル１０２号室,,25,202,5220083,,,,,,,2022-10-20,1,,,,,ワンオール,0
2328,9180001153473,新規,0,2022-10-20,2022-10-20,株式会社プランニングサポート,,株式会社,愛知県,一宮市,開明字東沼８５番地,,23,203,4940001,,,,,,,2022-10-20,1,,,,,プランニングサポート,0
2329,9180001153481,新規,0,2022-10-20,2022-10-20,イクノテクニカルサービス株式会社,,株式会社,愛知県,名古屋市西区,大野木４丁目１４６番１,,23,104,4520803,,,,,,,2022-10-20,1,,,,,イクノテクニカルサービス,0
2331,9180003024383,新規,0,2022-10-20,2022-10-20,合同会社ＩＭＡＩ,,合同会社,愛知県,名古屋市北区,辻本通１丁目５３番地,00128193,23,103,4620861,,,,,,,2022-10-20,1,,,,,イマイ,0
2340,9230003001922,新規,0,2022-10-20,2022-10-20,アルモイズ合同会社,,合同会社,富山県,射水市,庄川本町２４番５号,,16,211,9340003,,,,,,,2022-10-20,1,,,,,,0
2343,9240001060531,新規,0,2022-10-20,2022-10-20,株式会社インデックス,,株式会社,広島県,広島市南区,向洋本町７番１号,,34,103,7340062,,,,,,,2022-10-20,1,,,,,インデックス,0
2345,9250001019816,新規,0,2022-10-20,2022-10-20,アセンダーズ株式会社,,株式会社,山口県,岩国市,錦見６丁目１４－４３サカイプラザ西２Ｆ,,35,208,7410061,,,,,,,2022-10-20,1,,,,,アセンダーズ,0
2350,9250003003165,新規,0,2022-10-20,2022-10-20,合同会社デンタルラボ新田,,合同会社,山口県,柳井市,古開作２７３番地３,,35,212,7420032,,,,,,,2022-10-20,1,,,,,デンタルラボニッタ,0
2355,9260003004071,新規,0,2022-10-20,2022-10-20,合同会社ＡＣＴ,,合同会社,岡山県,赤磐市,桜が丘西４丁目１８番２号,,33,213,7090802,,,,,,,2022-10-20,1,,,,,アクト,0
2360,9290001099053,新規,0,2022-10-20,2022-10-20,ＩＣＨＩコーポレーション株式会社,,株式会社,福岡県,糟屋郡志免町,田富３丁目６番２８号,,40,343,8112204,,,,,,,2022-10-20,1,,,,,イチコーポレーション,0
2361,9290001099292,新規,0,2022-10-20,2022-10-20,株式会社ｌｉｎｋ,,株式会社,福岡県,朝倉市,来春３３４番地８,,40,228,8380069,,,,,,,2022-10-20,1,,,,,リンク,0
2370,9290003013094,新規,0,2022-10-20,2022-10-20,合同会社Ｅｖｅｒｇａｒｄｅｎ,,合同会社,福岡県,福岡市博多区,博多駅東１丁目２番５号日之出ビル博多駅前１００５,,40,132,8120013,,,,,,,2022-10-20,1,,,,,エヴァーガーデン,0
2371,9290801028979,新規,0,2022-10-20,2022-10-20,株式会社和来,,株式会社,福岡県,北九州市小倉北区,魚町３丁目４番２０号２階,,40,106,8020006,,,,,,,2022-10-20,1,,,,,ワライ,0
2375,9300001013103,新規,0,2022-10-20,2022-10-20,株式会社ＤＥＮＴＡＬ　ＳＵＰＰＯＲＴ,,株式会社,佐賀県,鹿島市,大字高津原３７１５番地１７,,41,207,8491311,,,,,,,2022-10-20,1,,,,,デンタルサポート,0
2384,9340001025103,新規,0,2022-10-20,2022-10-20,ＩＮＴＳ株式会社,,株式会社,鹿児島県,薩摩川内市,東郷町南瀬１７００番地,,46,215,8951105,,,,,,,2022-10-20,1,,,,,インツ,0
2398,9430001087687,新規,0,2022-10-20,2022-10-20,株式会社プロジェクトＫ,,株式会社,北海道,虻田郡倶知安町,字旭３２３番地３６,,01,400,0440083,,,,,,,2022-10-20,1,,,,,プロジェクトケー,0
2404,9500001024542,新規,0,2022-10-20,2022-10-20,株式会社Ｅ‐アソシエイト,,株式会社,愛媛県,松山市,小栗５丁目１番２７号アルファステイツ市駅南６０３号,,38,201,7900036,,,,,,,2022-10-20,1,,,,,イーアソシエイト,0
2406,9700150112094,新規,0,2022-10-20,2022-10-07,Ｍｙ　Ｃｉｔｙ　Ｒｅｐｏｒｔ　コンソーシアム,,その他,東京都,渋谷区,代々木１丁目１０－５代々木伊藤ローヤルコーポ３０４号室,,13,113,1510053,,,,,,,2022-10-07,1,,,,,マイシテイレポートコンソーシアム,0
