sequenceNumber,corporateNumber,process,correct,updateDate,changeDate,name,nameImageId,kind,prefectureName,cityName,streetNumber,addressImageId,prefectureCode,cityCode,postCode,addressOutside,addressOutsideImageId,closeDate,closeCause,successorCorporateNumber,changeCause,assignmentDate,latest,enName,enPrefectureName,enCityName,enAddressOutside,furigana,hihyoji
8,1010001242688,新規,0,2024-03-04,2024-03-04,フォルテース・フォルトゥーナ・ユウァト株式会社,,株式会社,東京都,千代田区,神田和泉町１番地６の１６ヤマトビル４０５号,,13,101,1010024,,,,,,,2024-03-04,1,,,,,フォルテースフォルトゥーナユウァト,0
9,1010001242713,新規,0,2024-03-04,2024-03-04,株式会社ＳＴＯＣＫ１５１,,株式会社,東京都,千代田区,永田町２丁目１２番４号,,13,101,1000014,,,,,,,2024-03-04,1,,,,,ストックヒャクゴジュウイチ,0
10,1010001242721,新規,0,2024-03-04,2024-03-04,株式会社デルタリープ,,株式会社,東京都,中央区,銀座１丁目１２－４Ｎ＆ＥＢＬＤ．７階,,13,102,1040061,,,,,,,2024-03-04,1,,,,,デルタリープ,0
11,1010001242738,新規,0,2024-03-04,2024-03-04,株式会社フォレスト,,株式会社,東京都,中央区,勝どき６丁目３番２－４３１７号,,13,102,1040054,,,,,,,2024-03-04,1,,,,,フォレスト,0
16,1010005037977,新規,0,2024-03-04,2024-03-04,ＮＣＲＥＦ１特定目的会社,,その他の設立登記法人,東京都,千代田区,霞が関３丁目２番５号,,13,101,1000013,,,,,,,2024-03-04,1,,,,,エヌアールイーエフワン,0
23,1010401180736,新規,0,2024-03-04,2024-03-04,ウルト・インダストリー・ジャパン株式会社,,株式会社,東京都,港区,西新橋１丁目２番９号日比谷セントラルビル１４階,,13,103,1050003,,,,,,,2024-03-04,1,,,,,ウルトインダストリージャパン,0
24,1010401180769,新規,0,2024-03-04,2024-03-04,ｉｎ　ｎｏｖａ株式会社,,株式会社,東京都,港区,麻布台２丁目３－５麻布台ノアビル１２Ｆ,,13,103,1060041,,,,,,,2024-03-04,1,,,,,インノバ,0
28,1010405023016,新規,0,2024-03-04,2024-03-04,ジャパン・タンザワ特定目的会社,,その他の設立登記法人,東京都,港区,虎ノ門３丁目２２番１０－２０１号,,13,103,1050001,,,,,,,2024-03-04,1,,,,,ジャパンタンザワ,0
31,1010601064739,新規,0,2024-03-04,2024-03-04,株式会社ＳＡＮＴＡＮＯ,,株式会社,東京都,江東区,亀戸６丁目５８番１７号,,13,108,1360071,,,,,,,2024-03-04,1,,,,,サンタノ,0
32,1010601064747,新規,0,2024-03-04,2024-03-04,楽山商事株式会社,,株式会社,東京都,江東区,有明１丁目６番３０－３００６号,,13,108,1350063,,,,,,,2024-03-04,1,,,,,ラクザンショウジ,0
35,1010705003592,新規,0,2024-03-04,2024-03-04,医療法人社団あきしな会,,その他の設立登記法人,東京都,品川区,上大崎３丁目３番５号新陽ＣＫビル６階,,13,109,1410021,,,,,,,2024-03-04,1,,,,,アキシナカイ,0
41,1010901054803,新規,0,2024-03-04,2024-03-04,うんこインターネット株式会社,,株式会社,東京都,世田谷区,玉川台１丁目１番３号,,13,112,1580096,,,,,,,2024-03-04,1,,,,,,0
47,1011001160343,新規,0,2024-03-04,2024-03-04,株式会社ＭＡＴＳＵＮＯＶＡ,,株式会社,東京都,目黒区,中目黒１丁目４番１８－２０６号,,13,110,1530061,,,,,,,2024-03-04,1,,,,,マツノヴァ,0
48,1011003018523,新規,0,2024-03-04,2024-03-04,合同会社シンドウ,,合同会社,東京都,目黒区,上目黒３丁目４４－２６パークホームズ中目黒４０９,,13,110,1530051,,,,,,,2024-03-04,1,,,,,シンドウ,0
49,1011003018597,新規,0,2024-03-04,2024-03-04,密田商事合同会社,,合同会社,東京都,渋谷区,恵比寿西１丁目１番２号,,13,113,1500021,,,,,,,2024-03-04,1,,,,,ミツダショウジ,0
51,1011103014174,新規,0,2024-03-04,2024-03-04,合同会社ｈａｒｖｅｓｔ,,合同会社,東京都,新宿区,西新宿３丁目５－１２,,13,104,1600023,,,,,,,2024-03-04,1,,,,,ハーベスト,0
52,1011203004315,新規,0,2024-03-04,2024-03-04,スマートテック合同会社,,合同会社,東京都,中野区,弥生町１丁目８番７号,,13,114,1640013,,,,,,,2024-03-04,1,,,,,スマートテック,0
53,1011301029461,新規,0,2024-03-04,2024-03-04,株式会社ＥＮ企画,,株式会社,東京都,杉並区,上荻１丁目１１－５ロゼリウス荻窪５０２号室,,13,115,1670043,,,,,,,2024-03-04,1,,,,,エンキカク,0
56,1011503005970,新規,0,2024-03-04,2024-03-04,ＬＡＸＭＩ合同会社,,合同会社,東京都,北区,栄町３８番２号青葉荘１０１号,,13,117,1140005,,,,,,,2024-03-04,1,,,,,ラクシミ,0
67,1013101009362,新規,0,2024-03-04,2024-03-04,ＬＴＳ　Ｊａｐａｎ株式会社,,株式会社,東京都,福生市,大字福生２２１８－４,,13,218,1970011,,,,,,,2024-03-04,1,,,,,,0
68,1013301052162,新規,0,2024-03-04,2024-03-04,Ｇｌｏｂａｌ　Ｐｒｏｊｅｃｔ株式会社,,株式会社,東京都,豊島区,高田３丁目４－１０－３階,,13,116,1710033,,,,,,,2024-03-04,1,,,,,グローバルプロジェクト,0
80,1021001081596,新規,0,2024-03-04,2024-03-04,ＲＯＹ　ＳＨＯＫＡＩ株式会社,,株式会社,神奈川県,海老名市,河原口１丁目１２番６－２０５号,,14,215,2430433,,,,,,,2024-03-04,1,,,,,ロイショウカイ,0
81,1021001081621,新規,0,2024-03-04,2024-03-04,株式会社ＡＣＥ,,株式会社,神奈川県,厚木市,温水２２４４番地２５,,14,212,2430033,,,,,,,2024-03-04,1,,,,,エース,0
82,1021003014190,新規,0,2024-03-04,2024-03-04,合同会社蓮花,,合同会社,神奈川県,秦野市,渋沢２丁目４６―２６―２Ｆ事務所,,14,211,2591322,,,,,,,2024-03-04,1,,,,,レンカ,0
83,1021005013034,新規,0,2024-03-04,2024-03-04,一般社団法人ケアサポート,,その他の設立登記法人,神奈川県,座間市,さがみ野３丁目６番８号,,14,216,2520005,,,,,,,2024-03-04,1,,,,,ケアサポート,0
93,1030003023738,新規,0,2024-03-04,2024-03-04,合同会社ＣＩＲＣＵＳ,,合同会社,埼玉県,さいたま市緑区,馬場１丁目３９番地１,,11,109,3360912,,,,,,,2024-03-04,1,,,,,サーカス,0
98,1040001132424,新規,0,2024-03-04,2024-03-04,株式会社藤井貿易,,株式会社,千葉県,千葉市若葉区,東寺山町４２３番地１エステ・スクエア千葉Ｃ－８０２号,,12,104,2640035,,,,,,,2024-03-04,1,,,,,フジイボウエキ,0
104,1040003024454,新規,0,2024-03-04,2024-03-04,合同会社あいんしゅりっと,,合同会社,千葉県,我孫子市,寿２丁目１７番２８号,,12,222,2701152,,,,,,,2024-03-04,1,,,,,アインシュリット,0
105,1060001036870,新規,0,2024-03-04,2024-03-04,杉エンタープライズ株式会社,,株式会社,栃木県,栃木市,大宮町２２６８番地１８,,09,203,3280011,,,,,,,2024-03-04,1,,,,,スギエンタープライズ,0
123,1120001262733,新規,0,2024-03-04,2024-03-04,株式会社Ｐｒｉｍｅ　Ｍａｎａｇｅ,,株式会社,大阪府,大阪市中央区,西心斎橋２丁目１２番２２号９１２,,27,128,5420086,,,,,,,2024-03-04,1,,,,,プライムマネージ,0
124,1120001262741,新規,0,2024-03-04,2024-03-04,株式会社桃太郎グローバル,,株式会社,大阪府,大阪市東成区,大今里南６丁目２番２号,,27,115,5370013,,,,,,,2024-03-04,1,,,,,モモタロウグローバル,0
125,1120001262774,新規,0,2024-03-04,2024-03-04,株式会社久安,,株式会社,大阪府,大阪市中央区,西心斎橋２丁目１０－１３－７０５室,,27,128,5420086,,,,,,,2024-03-04,1,,,,,ヒサヤス,0
126,1120001262782,新規,0,2024-03-04,2024-03-04,中立株式会社,,株式会社,大阪府,大阪市西成区,北津守２丁目５番５－１号,,27,122,5570061,,,,,,,2024-03-04,1,,,,,ナカダチ,0
127,1120001262799,新規,0,2024-03-04,2024-03-04,株式会社トイタ,,株式会社,大阪府,大阪市浪速区,敷津西２丁目２－８ラ・メゾンカトウ４０７号,,27,111,5560015,,,,,,,2024-03-04,1,,,,,トイタ,0
128,1120001262808,新規,0,2024-03-04,2024-03-04,株式会社ａｋｉＹｒｉｓｅ,,株式会社,大阪府,大阪市東成区,深江北２丁目３番２８－３０２号,,27,115,5370001,,,,,,,2024-03-04,1,,,,,アキライズ,0
132,1120901048827,新規,0,2024-03-04,2024-03-04,株式会社Ｓｅｍｉｌｌａ　ｉｎｔ’ｌ,,株式会社,大阪府,吹田市,江坂町４丁目１９番１－５０３号,,27,205,5640063,,,,,,,2024-03-04,1,,,,,セミージャインターナショナル,0
133,1120901048835,新規,0,2024-03-04,2024-03-04,株式会社ｓｏｌ,,株式会社,大阪府,吹田市,江坂町５丁目１４番１６号,,27,205,5640063,,,,,,,2024-03-04,1,,,,,ソル,0
134,1120901048843,新規,0,2024-03-04,2024-03-04,株式会社Ａ’ｓｔｙｌｅ　Ｇｒｏｕｐ,,株式会社,大阪府,高槻市,野田２丁目１０－２４,,27,207,5690013,,,,,,,2024-03-04,1,,,,,エースタイルグループ,0
135,1122001037867,新規,0,2024-03-04,2024-03-04,株式会社１４６９Ｓｔ．,,株式会社,大阪府,東大阪市,西岩田３丁目５番３９－１９１２号,,27,227,5780947,,,,,,,2024-03-04,1,,,,,イージーロックストリート,0
143,1170003001993,新規,0,2024-03-04,2024-03-04,Ｒｅｐｌｕｓ合同会社,,合同会社,和歌山県,海南市,野上新４６０番地１,,30,202,6401161,,,,,,,2024-03-04,1,,,,,リプラス,0
146,1180001160295,新規,0,2024-03-04,2024-03-04,株式会社ＡＩＯ,,株式会社,愛知県,春日井市,八田町７丁目３番地２,,23,206,4860849,,,,,,,2024-03-04,1,,,,,エーアイオー,0
153,1180301038365,新規,0,2024-03-04,2024-03-04,株式会社マイライフ,,株式会社,愛知県,豊田市,若林西町向屋敷２０番地,,23,211,4730917,,,,,,,2024-03-04,1,,,,,マイライフ,0
159,1220001025849,新規,0,2024-03-04,2024-03-04,株式会社ハイロード,,株式会社,石川県,金沢市,諸江町下丁９４番地２,,17,201,9200017,,,,,,,2024-03-04,1,,,,,ハイロード,0
160,1220003003687,新規,0,2024-03-04,2024-03-04,合同会社耕杜,,合同会社,石川県,小松市,土居原町１６４番地１２,,17,203,9230921,,,,,,,2024-03-04,1,,,,,コウト,0
171,1260005011321,新規,0,2024-03-04,2024-03-04,司法書士法人朝霧事務所,,その他の設立登記法人,岡山県,岡山市北区,今７丁目１８番３１号,,33,101,7000975,,,,,,,2024-03-04,1,,,,,アサギリジムショ,0
179,1290801030364,新規,0,2024-03-04,2024-03-04,株式会社ＴＭ,,株式会社,福岡県,北九州市八幡西区,大字浅川１２６０番地８,,40,109,8070877,,,,,,,2024-03-04,1,,,,,ティエム,0
180,1300001013639,新規,0,2024-03-04,2024-03-04,株式会社福岡ソノリク２,,株式会社,佐賀県,鳥栖市,姫方町１６６０番地,,41,203,8410023,,,,,,,2024-03-04,1,,,,,フクオカソノリクツー,0
187,1340001026323,新規,0,2024-03-04,2024-03-04,株式会社Ｂｅａｔ,,株式会社,鹿児島県,姶良市,加治木町木田５３４８番地１６９永谷住宅２－１,,46,225,8995241,,,,,,,2024-03-04,1,,,,,ビート,0
188,1340001026331,新規,0,2024-03-04,2024-03-04,株式会社暖,,株式会社,鹿児島県,鹿児島市,川上町８９７番地３,,46,201,8920875,,,,,,,2024-03-04,1,,,,,ダン,0
189,1340003004384,新規,0,2024-03-04,2024-03-04,ＡｍａｍｉＲｉｓｅ合同会社,,合同会社,鹿児島県,奄美市,名瀬大字有屋町８－８　１階,,46,222,8940002,,,,,,,2024-03-04,1,,,,,アマミライズ,0
191,1350001018815,新規,0,2024-03-04,2024-03-04,ハヤブサスポーツ株式会社,,株式会社,宮崎県,都城市,牟田町３０街区１０号,,45,202,8850079,,,,,,,2024-03-04,1,,,,,ハヤブサスポーツ,0
194,1370003006502,新規,0,2024-03-04,2024-03-04,合同会社ＳｕｎｎｙＢｒｉｄｇｅ,,合同会社,宮城県,黒川郡大衡村,大瓜字蒲切沢５２―３,,04,424,9813601,,,,,,,2024-03-04,1,,,,,サニーブリッジ,0
210,1430001091192,新規,0,2024-03-04,2024-03-04,クラフトリサーチ株式会社,,株式会社,北海道,札幌市北区,北十七条西４丁目１番１７－６０２号,,01,102,0010017,,,,,,,2024-03-04,1,,,,,クラフトリサーチ,0
216,1470001020057,新規,0,2024-03-04,2024-03-04,株式会社エイチ建設,,株式会社,香川県,木田郡三木町,大字下高岡１４５５番地１,,37,341,7610704,,,,,,,2024-03-04,1,,,,,エイチケンセツ,0
220,1480003002102,新規,0,2024-03-04,2024-03-04,合同会社岩橋,,合同会社,徳島県,徳島市,西新浜町１丁目１５３－１,,36,201,7708008,,,,,,,2024-03-04,1,,,,,イワハシ,0
225,1700150124287,新規,0,2024-03-04,2024-03-04,ｓｈｅｎｚｈｅｎｓｈｉ　ａｏｓｉｔｅ　ｄｉａｎｚｉｓｈａｎｇｗｕｙｏｕｘｉａｎｇｏｎｇｓｉ,,外国会社等,,,,,,,,ｌｏｎｇｇａｎｇｑｕ　ｂａｎｔｉａｎｊｉｅｄａｏｗｕｈｅｄｉｔｉｅＣ　ｈｅｙｕｎｇｕ　Ａ　ｚｕｏ　３０１　ｓｈｅｎｚｈｅｎ　Ｇｕａｎｇｄｏｎｇ　５１８１０９　ＣＮ,,,,,,2024-03-04,1,,,,,シェンジェンシアオスートァディエンズーシャンウヨウシェンゴンスー,0
226,1700150124295,新規,0,2024-03-04,2024-03-04,新義成実宗　城照山　龍仙院,,その他,宮城県,仙台市宮城野区,原町３丁目１－４３,,04,102,9830841,,,,,,,2024-03-04,1,,,,,シンギジョウジツシュウギショウザンリュウセンイン,0
234,2010001242076,新規,0,2024-03-04,2024-03-04,モンエコフード日本株式会社,,株式会社,東京都,中央区,東日本橋２丁目２８番４号日本橋ＣＥＴビル２階,,13,102,1030004,,,,,,,2024-03-04,1,,,,,モンエコフードニホン,0
235,2010001242638,新規,0,2024-03-04,2024-03-04,ＥＲＭ　Ｊｕｐｉｔｅｒ　Ｎｅｗｃｏ株式会社,,株式会社,東京都,千代田区,大手町１丁目６－１,,13,101,1000004,,,,,,,2024-03-04,1,,,,,イーアールエムジュピターニューコ,0
236,2010001242737,新規,0,2024-03-04,2024-03-04,未来テック株式会社,,株式会社,東京都,千代田区,有楽町１丁目１３番２号第一生命日比谷ファースト１２階,,13,101,1000006,,,,,,,2024-03-04,1,,,,,ミライテック,0
239,2010003043076,新規,0,2024-03-04,2024-03-04,新庄ヒルズカントリークラブ合同会社,,合同会社,東京都,中央区,日本橋２丁目２番２１号日本橋二丁目ビル４階スリーエス内,,13,102,1030027,,,,,,,2024-03-04,1,,,,,シンジョウヒルズカントリークラブ,0
241,2010005037951,新規,0,2024-03-04,2024-03-04,医療法人社団四谷会,,その他の設立登記法人,東京都,千代田区,麹町４丁目６番８号ダイニチ麹町ビル１階,,13,101,1020083,,,,,,,2024-03-04,1,,,,,ヨツヤカイ,0
242,2010005037984,新規,0,2024-03-04,2024-03-04,ＺＵＵ税理士法人,,その他の設立登記法人,東京都,千代田区,神田三崎町２丁目１５－４,,13,101,1010061,,,,,,,2024-03-04,1,,,,,ズー,0
256,2010403032091,新規,0,2024-03-04,2024-03-04,合同会社ムーバルオリオン,,合同会社,東京都,港区,元赤坂１丁目１番８号赤坂コミュニティビル４階,,13,103,1070051,,,,,,,2024-03-04,1,,,,,ムーバルオリオン,0
261,2010703007074,新規,0,2024-03-04,2024-03-04,５１７６合同会社,,合同会社,東京都,品川区,大崎５丁目５番３－４０６号,,13,109,1410032,,,,,,,2024-03-04,1,,,,,ゴーイチナナロク,0
267,2010901054793,新規,0,2024-03-04,2024-03-04,株式会社ＡＳレイズ,,株式会社,東京都,世田谷区,深沢５丁目２０番７号,,13,112,1580081,,,,,,,2024-03-04,1,,,,,エイエスレイズ,0
274,2011001160359,新規,0,2024-03-04,2024-03-04,株式会社Ｘ,,株式会社,東京都,渋谷区,神宮前１丁目１４番３０－５０１号ウィズ原宿レジデンス,,13,113,1500001,,,,,,,2024-03-04,1,,,,,エックス,0
275,2011001160367,新規,0,2024-03-04,2024-03-04,ｉＣａｐｉｔａｌ　Ｊａｐａｎ株式会社,,株式会社,東京都,渋谷区,恵比寿４丁目３番５号７０４号室アークアウトソーシング株式会社内,,13,113,1500013,,,,,,,2024-03-04,1,,,,,アイキャピタルジャパン,0
278,2011003018613,新規,0,2024-03-04,2024-03-04,合同会社トレンドエコ,,合同会社,東京都,渋谷区,円山町５番５号Ｎａｖｉ渋谷Ｖ３階,,13,113,1500044,,,,,,,2024-03-04,1,,,,,トレンドエコ,0
279,2011101106402,新規,0,2024-03-04,2024-03-04,株式会社あたらしいこと,,株式会社,東京都,新宿区,西新宿１丁目２５番１号新宿センタービル４９階,,13,104,1600023,,,,,,,2024-03-04,1,,,,,アタラシイコト,0
280,2011101106410,新規,0,2024-03-04,2024-03-04,株式会社ポケモンワークス,,株式会社,東京都,新宿区,新宿５丁目１５番５号,,13,104,1600022,,,,,,,2024-03-04,1,,,,,ポケモンワークス,0
281,2011101106419,新規,0,2024-03-04,2024-03-04,株式会社ＴＩＦ,,株式会社,東京都,新宿区,歌舞伎町１丁目１７番７号リカム３・７階,,13,104,1600021,,,,,,,2024-03-04,1,,,,,ティーアイエフ,0
283,2011401025896,新規,0,2024-03-04,2024-03-04,ＭＫマネージメントサービス株式会社,,株式会社,東京都,板橋区,幸町２８番９号,,13,119,1730034,,,,,,,2024-03-04,1,,,,,エムケイマネージメントサービス,0
284,2011501030391,新規,0,2024-03-04,2024-03-04,青空株式会社,,株式会社,東京都,北区,王子本町１丁目２２－１ＫＳＧビル２０１号室,,13,117,1140022,,,,,,,2024-03-04,1,,,,,アオゾラ,0
285,2011801043861,新規,0,2024-03-04,2024-03-04,株式会社ＧＤＳ,,株式会社,東京都,足立区,大谷田１丁目７番９号,,13,121,1200001,,,,,,,2024-03-04,1,,,,,ジーディエス,0
289,2012403006430,新規,0,2024-03-04,2024-03-04,仁福合同会社,,合同会社,東京都,多摩市,和田４２５番地２プラザマキシム５１２号室,,13,224,2060001,,,,,,,2024-03-04,1,,,,,ジンフク,0
290,2012701018111,新規,0,2024-03-04,2024-03-04,古我知建装株式会社,,株式会社,東京都,東村山市,久米川町２丁目１０番地１２,,13,213,1890003,,,,,,,2024-03-04,1,,,,,コガチケンソウ,0
293,2020001156011,新規,0,2024-03-04,2024-03-04,ＳＫ株式会社,,株式会社,神奈川県,川崎市宮前区,宮崎９３番地８,,14,136,2160033,,,,,,,2024-03-04,1,,,,,エスケー,0
296,2020003025651,新規,0,2024-03-04,2024-03-04,ＥＶＥＲＹＯＵＲＳ合同会社,,合同会社,神奈川県,横浜市鶴見区,仲通２丁目６８番地３０クリオ鶴見伍番館１０３号,,14,101,2300042,,,,,,,2024-03-04,1,,,,,エヴァーユアーズ,0
300,2021001081570,新規,0,2024-03-04,2024-03-04,株式会社Ｗｉｌｌｎｅｓｓ,,株式会社,神奈川県,相模原市南区,上鶴間本町２丁目２５番１６－４０３号,,14,153,2520318,,,,,,,2024-03-04,1,,,,,ウィルネス,0
301,2021001081595,新規,0,2024-03-04,2024-03-04,ハナトレーディング株式会社,,株式会社,神奈川県,茅ヶ崎市,芹沢２０８７番地Ｂ,,14,207,2530008,,,,,,,2024-03-04,1,,,,,ハナトレーディング,0
302,2021001081612,新規,0,2024-03-04,2024-03-04,株式会社フォーワンズ,,株式会社,神奈川県,茅ヶ崎市,浜竹２丁目１番２－２０８号パークホームズ湘南辻堂,,14,207,2530021,,,,,,,2024-03-04,1,,,,,フォーワンズ,0
304,2021003014215,新規,0,2024-03-04,2024-03-04,合同会社ＡＭＯ　ｂｏｎｈｅｕｒ,,合同会社,神奈川県,鎌倉市,小町２丁目１２番２７号鶴ケ岡会館１階２８号,,14,204,2480006,,,,,,,2024-03-04,1,,,,,アモボヌール,0
305,2021005013033,新規,0,2024-03-04,2024-03-04,一般社団法人就労継続支援実践研究学会,,その他の設立登記法人,神奈川県,相模原市中央区,鹿沼台２丁目２２番３７号エスペランサ鹿沼１０３,,14,152,2520233,,,,,,,2024-03-04,1,,,,,シュウロウケイゾクシエンジッセンケンキュウガッカイ,0
308,2030001158956,新規,0,2024-03-04,2024-03-04,惠美株式会社,,株式会社,埼玉県,さいたま市見沼区,東大宮５丁目３５－９オーゼットロイヤル東大宮２１２,,11,104,3370051,,,,,,,2024-03-04,1,,,,,エミ,0
309,2030001158972,新規,0,2024-03-04,2024-03-04,Ｓｉｎｏｂｏｏｍ　Ｊａｐａｎ株式会社,,株式会社,埼玉県,加須市,琴寄２８－１,,11,210,3491133,,,,,,,2024-03-04,1,,,,,シノブームジャパン,0
310,2030001158997,新規,0,2024-03-04,2024-03-04,株式会社マルモ,,株式会社,埼玉県,さいたま市見沼区,東大宮１丁目９番地１７富士見ハイツ２０１号室,,11,104,3370051,,,,,,,2024-03-04,1,,,,,マルモ,0
320,2040001132480,新規,0,2024-03-04,2024-03-04,株式会社磊,,株式会社,千葉県,千葉市美浜区,幸町１丁目１３番１棟５０４号,,12,106,2610001,,,,,,,2024-03-04,1,,,,,ライ,0
324,2050001054377,新規,0,2024-03-04,2024-03-04,総合自動車販売株式会社,,株式会社,茨城県,水戸市,住吉町２７５番地１１,,08,201,3100844,,,,,,,2024-03-04,1,,,,,,0
326,2060001036845,新規,0,2024-03-04,2024-03-04,株式会社マロニエ,,株式会社,栃木県,足利市,南町４２５４番地１,,09,202,3260821,,,,,,,2024-03-04,1,,,,,マロニエ,0
331,2080001026159,新規,0,2024-03-04,2024-03-04,株式会社ＯＧ,,株式会社,静岡県,静岡市駿河区,北丸子１丁目２８番１３号,,22,102,4210106,,,,,,,2024-03-04,1,,,,,オージー,0
343,2100005013126,新規,0,2024-03-04,2024-03-04,エビデント労働組合,,その他の設立登記法人,長野県,上伊那郡辰野町,大字伊那富６６６６番地,,20,382,3990428,,,,,,,2024-03-04,1,,,,,エビデント,0
355,2120001262732,新規,0,2024-03-04,2024-03-04,株式会社ＳＯＬＡＲＥ,,株式会社,大阪府,大阪市東淀川区,大道南３丁目６番４号１０１号室,,27,114,5330012,,,,,,,2024-03-04,1,,,,,ソラーレ,0
356,2120001262798,新規,0,2024-03-04,2024-03-04,株式会社ＡＴＥＩＭ,,株式会社,大阪府,大阪市住之江区,西加賀屋１丁目２番５６号,,27,125,5590016,,,,,,,2024-03-04,1,,,,,アテイム,0
358,2120101069152,新規,0,2024-03-04,2024-03-04,株式会社Ｔａｇｂｏａｔ,,株式会社,大阪府,堺市堺区,浅香山町１丁５番２４－１号,,27,141,5900012,,,,,,,2024-03-04,1,,,,,タグボート,0
360,2120901048818,新規,0,2024-03-04,2024-03-04,株式会社ＰＯＩＮＴ,,株式会社,大阪府,吹田市,芳野町１４番３３号,,27,205,5640054,,,,,,,2024-03-04,1,,,,,ポイント,0
361,2120901048834,新規,0,2024-03-04,2024-03-04,株式会社ｉｅ,,株式会社,大阪府,茨木市,総持寺駅前町４番１２号２０９号室,,27,211,5670802,,,,,,,2024-03-04,1,,,,,イエ,0
364,2122001037858,新規,0,2024-03-04,2024-03-04,株式会社ｓｉｄｅｔａｂｌｅ,,株式会社,大阪府,大東市,氷野３丁目１５番３９号,,27,218,5740062,,,,,,,2024-03-04,1,,,,,サイドテーブル,0
365,2122003002810,新規,0,2024-03-04,2024-03-04,合同会社ＧｉｖｅＲ,,合同会社,大阪府,東大阪市,稲田本町３丁目２２番１８号３Ｄ,,27,227,5770007,,,,,,,2024-03-04,1,,,,,ギバー,0
369,2130005017017,新規,0,2024-03-04,2024-03-04,はな行政書士法人,,その他の設立登記法人,京都府,京都市東山区,大仏南門通大和大路東入三丁目本瓦町６６５番地６,,26,105,6050000,,,,,,,2024-03-04,1,,,,,ハナ,0
370,2140001133527,新規,0,2024-03-04,2024-03-04,株式会社ビーステイ,,株式会社,兵庫県,神戸市灘区,城内通２丁目３番３号,,28,102,6570836,,,,,,,2024-03-04,1,,,,,ビーステイ,0
374,2150001027109,新規,0,2024-03-04,2024-03-04,株式会社エクスファースト,,株式会社,奈良県,橿原市,四条町２番地の３７,,29,205,6340813,,,,,,,2024-03-04,1,,,,,エクスファースト,0
384,2200001042218,新規,0,2024-03-04,2024-03-04,株式会社パークアクスル,,株式会社,岐阜県,大垣市,大外羽３丁目２６番地２,,21,202,5030956,,,,,,,2024-03-04,1,,,,,パークアクスル,0
387,2210005010137,新規,0,2024-03-04,2024-03-04,特定非営利活動法人ふくいＳｃｈｏｏｌ　ｏｆ　Ｌｉｂｅｒａｌ　Ａｒｔｓ,,その他の設立登記法人,福井県,福井市,寮町第４３号１５番地,,18,201,9188215,,,,,,,2024-03-04,1,,,,,フクイスクールオブリベラルアーツ,0
389,2240001062864,新規,0,2024-03-04,2024-03-04,株式会社陽穂,,株式会社,広島県,福山市,瀬戸町長和１５３６番地４,,34,207,7210000,,,,,,,2024-03-04,1,,,,,ハルホ,0
390,2240001062872,新規,0,2024-03-04,2024-03-04,株式会社広峰芸能,,株式会社,広島県,広島市中区,八丁堀１番２２号,,34,101,7300013,,,,,,,2024-03-04,1,,,,,コウホウゲイノウ,0
391,2240001062880,新規,0,2024-03-04,2024-03-04,株式会社きずく,,株式会社,広島県,広島市南区,東雲１丁目２０番１０号,,34,103,7340022,,,,,,,2024-03-04,1,,,,,キズク,0
399,2260001038805,新規,0,2024-03-04,2024-03-04,株式会社マイリー,,株式会社,岡山県,岡山市南区,藤田６０９番地８,,33,104,7010221,,,,,,,2024-03-04,1,,,,,マイリー,0
400,2260003004598,新規,0,2024-03-04,2024-03-04,猫丸商事合同会社,,合同会社,岡山県,津山市,田町５６番地８,,33,203,7080052,,,,,,,2024-03-04,1,,,,,ネコマルショウジ,0
401,2270003001603,新規,0,2024-03-04,2024-03-04,合同会社アサヒ,,合同会社,鳥取県,東伯郡湯梨浜町,大字長江３１０番地５２,,31,370,6890737,,,,,,,2024-03-04,1,,,,,アサヒ,0
407,2290003015007,新規,0,2024-03-04,2024-03-04,合同会社夕凪,,合同会社,福岡県,糟屋郡篠栗町,和田２丁目１１－８,,40,342,8112414,,,,,,,2024-03-04,1,,,,,ユウナギ,0
411,2300001013638,新規,0,2024-03-04,2024-03-04,株式会社福岡ソノリク１,,株式会社,佐賀県,鳥栖市,姫方町１６６０番地,,41,203,8410023,,,,,,,2024-03-04,1,,,,,フクオカソノリクワン,0
412,2300003002085,新規,0,2024-03-04,2024-03-04,合同会社Ｌｉｆｅｓ,,合同会社,佐賀県,鳥栖市,曽根崎町字村中１３０８－４,,41,203,8410025,,,,,,,2024-03-04,1,,,,,,0
419,2340001026330,新規,0,2024-03-04,2024-03-04,株式会社輝北農園,,株式会社,鹿児島県,鹿屋市,輝北町市成４１７２番地１,,46,203,8998511,,,,,,,2024-03-04,1,,,,,キホクノウエン,0
421,2370001050988,新規,0,2024-03-04,2024-03-04,株式会社２０２４,,株式会社,宮城県,仙台市太白区,富沢西２丁目６番地の３,,04,104,9820037,,,,,,,2024-03-04,1,,,,,ニーマルニーヨン,0
430,2430001091200,新規,0,2024-03-04,2024-03-04,株式会社ＶＥＲＤＥ,,株式会社,北海道,札幌市白石区,本郷通８丁目南５番１０－１号,,01,104,0030024,,,,,,,2024-03-04,1,,,,,ヴェルデ,0
433,2450001014241,新規,0,2024-03-04,2024-03-04,株式会社石山農園,,株式会社,北海道,旭川市,東旭川町忠別８５９番地の１０,,01,204,0788206,,,,,,,2024-03-04,1,,,,,イシヤマノウエン,0
435,2460305002008,新規,0,2024-03-04,2024-03-04,一般社団法人桂丞会,,その他の設立登記法人,北海道,斜里郡斜里町,朝日町２２番地１５,,01,545,0994114,,,,,,,2024-03-04,1,,,,,ケイジョウカイ,0
438,2480003002101,新規,0,2024-03-04,2024-03-04,合同会社藤栄,,合同会社,徳島県,三好市,池田町シンマチ１４４４番地６,,36,208,7780004,,,,,,,2024-03-04,1,,,,,フジエイ,0
441,2500001025497,新規,0,2024-03-04,2024-03-04,サンワーク株式会社,,株式会社,愛媛県,松山市,東垣生町８９７番地１,,38,201,7918043,,,,,,,2024-03-04,1,,,,,サンワーク,0
444,2700150013324,新規,0,2024-03-04,2015-10-09,しおかぜ学童保育所運営委員会,,その他,神奈川県,横浜市鶴見区,潮田町２丁目１２９－６,,14,101,2300041,,,,,,,2015-10-09,1,,,,,シオカゼガクドウホイクシヨウンエイイインカイ,0
445,2700150124286,新規,0,2024-03-04,2024-03-04,ＳｈｅｎＺｈｅｎＳｈｉＹｕＢｏＲｕｉＭａｏＹｉＹｏｕＸｉａｎＧｏｎｇＳｉ,,外国会社等,,,,,,,,ｇｕａｎｇｄｏｎｇｓｈｅｎｇ　ｓｈｅｎｚｈｅｎｓｈｉｆｕｔｉａｎｑｕ　ｆｕｔｉａｎｊｉｅｄａｏ　ｆｕａｎｓｈｅｑｕ　ｓｈｅｎｎａｎｄａｄａｏ４０１９ｈａｏ　ｈａｎｇｔｉａｎｄａｓｈａＡ１３１０Ｔ１２　ＣＨＩＮＡ　５１８０４８,,,,,,2024-03-04,1,,,,,シェンジェンシーイーボールイマオイーヨウシエンゴンスー,0
451,3010003043067,新規,0,2024-03-04,2024-03-04,楽新合同会社,,合同会社,東京都,千代田区,岩本町２丁目１７－４泰合ビルＩＩ２階２０１号室,00133930,13,101,1010032,,,,,,,2024-03-04,1,,,,,ラクシン,0
459,3010401180726,新規,0,2024-03-04,2024-03-04,ＤＬＰ　ＧＬＯＢＡＬ株式会社,,株式会社,東京都,港区,元麻布３丁目１番６号,,13,103,1060046,,,,,,,2024-03-04,1,,,,,ディーエルピーグローバル,0
460,3010401180775,新規,0,2024-03-04,2024-03-04,株式会社ＦｉＧ,,株式会社,東京都,港区,西麻布２丁目１０－１３,,13,103,1060031,,,,,,,2024-03-04,1,,,,,フィグ,0
461,3010401180817,新規,0,2024-03-04,2024-03-04,ＤｅｄｉＰｒｏｇ　Ｊａｐａｎ株式会社,,株式会社,東京都,港区,新橋４丁目２１番３号,,13,103,1050004,,,,,,,2024-03-04,1,,,,,デジプログジャパン,0
468,3010501051851,新規,0,2024-03-04,2024-03-04,株式会社ｌｉｂｅｒｏ,,株式会社,東京都,台東区,寿１丁目５番１号郷ビル２階,,13,106,1110042,,,,,,,2024-03-04,1,,,,,リベロ,0
472,3010601064737,新規,0,2024-03-04,2024-03-04,ＭＹＳＪＯＹ株式会社,,株式会社,東京都,墨田区,東向島４丁目２４番１７号,,13,107,1310032,,,,,,,2024-03-04,1,,,,,マイズジョイ,0
479,3010801034820,新規,0,2024-03-04,2024-03-04,株式会社リテールロジスティックス,,株式会社,東京都,大田区,平和島３丁目３番８号山九平和島ロジスティクスセンター３０３号,,13,111,1430006,,,,,,,2024-03-04,1,,,,,リテールロジスティックス,0
490,3011005010385,新規,0,2024-03-04,2024-03-04,一般社団法人グローバルリスティング推進機構,,その他の設立登記法人,東京都,渋谷区,渋谷２丁目１４番１３号岡崎ビル７階,,13,113,1500002,,,,,,,2024-03-04,1,,,,,グローバルリスティングスイシンキコウ,0
493,3011101106418,新規,0,2024-03-04,2024-03-04,株式会社Ｒ　Ｓｐａｃｅ,,株式会社,東京都,新宿区,中里町３１番地さがみやビル２階,,13,104,1620804,,,,,,,2024-03-04,1,,,,,アールスペース,0
501,3012701018110,新規,0,2024-03-04,2024-03-04,株式会社Ｃ＆Ｎ,,株式会社,東京都,東久留米市,新川町１丁目３番３２号フルヴィエール東久留米２階,,13,222,2030013,,,,,,,2024-03-04,1,,,,,シーアンドエヌ,0
502,3012703002921,新規,0,2024-03-04,2024-03-04,合同会社ウィスタリア,,合同会社,東京都,西東京市,柳沢５丁目１２番１３号,,13,229,2020022,,,,,,,2024-03-04,1,,,,,ウィスタリア,0
503,3013301052136,新規,0,2024-03-04,2024-03-04,旭日株式会社,,株式会社,東京都,豊島区,池袋１丁目１４番７号西山莊２０３号,,13,116,1700014,,,,,,,2024-03-04,1,,,,,アサヒ,0
504,3013303007030,新規,0,2024-03-04,2024-03-04,ＹＤＳプロモーション合同会社,,合同会社,東京都,豊島区,東池袋１丁目１７番１１号パークハイツ池袋１１０５号,,13,116,1700013,,,,,,,2024-03-04,1,,,,,ワイディーエスプロモーション,0
508,3020001156035,新規,0,2024-03-04,2024-03-04,株式会社Ｃｏｒｅ‐Ｓｔａｇｅ,,株式会社,神奈川県,横浜市港北区,師岡町３２９番地１－７０２,,14,109,2220002,,,,,,,2024-03-04,1,,,,,コアステージ,0
511,3020003025650,新規,0,2024-03-04,2024-03-04,合同会社空,,合同会社,神奈川県,川崎市多摩区,南生田２丁目１９番１２－３号,,14,135,2140036,,,,,,,2024-03-04,1,,,,,ソラ,0
526,3040001132505,新規,0,2024-03-04,2024-03-04,株式会社遠山福祉,,株式会社,千葉県,成田市,吉倉６４０番地１,,12,211,2860133,,,,,,,2024-03-04,1,,,,,トオヤマフクシ,0
530,3040003024469,新規,0,2024-03-04,2024-03-04,合同会社カインドハンド,,合同会社,千葉県,佐倉市,江原台２丁目１３番地３,,12,212,2850825,,,,,,,2024-03-04,1,,,,,カインドハンド,0
531,3040005022306,新規,0,2024-03-04,2024-03-04,一般社団法人のこぎりやまエリアリノベーション,,その他の設立登記法人,千葉県,富津市,金谷２１７５番地,,12,226,2991861,,,,,,,2024-03-04,1,,,,,ノコギリヤマエリアリノベーション,0
532,3050001054376,新規,0,2024-03-04,2024-03-04,株式会社ビーナス,,株式会社,茨城県,常陸太田市,金井町３５６８番地の２,,08,212,3130016,,,,,,,2024-03-04,1,,,,,ビーナス,0
535,3050003008173,新規,0,2024-03-04,2024-03-04,合同会社カレイドランス,,合同会社,茨城県,水戸市,藤が原３丁目１４番地の６,,08,201,3114208,,,,,,,2024-03-04,1,,,,,カレイドランス,0
537,3060001036869,新規,0,2024-03-04,2024-03-04,株式会社クローバーサポート,,株式会社,栃木県,宇都宮市,今泉１丁目１番４号古泉ビル３Ｆ,,09,201,3210966,,,,,,,2024-03-04,1,,,,,クローバーサポート,0
541,3070001041447,新規,0,2024-03-04,2024-03-04,フーミー株式会社,,株式会社,群馬県,伊勢崎市,西小保方町３１６番地１,,10,204,3792224,,,,,,,2024-03-04,1,,,,,フーミー,0
547,3080001026158,新規,0,2024-03-04,2024-03-04,株式会社塩対応,,株式会社,静岡県,静岡市葵区,鷹匠３丁目３番１号井口ビル,,22,101,4200839,,,,,,,2024-03-04,1,,,,,シオタイオウ,0
552,3080101024565,新規,0,2024-03-04,2024-03-04,株式会社モリテック,,株式会社,静岡県,富士市,中島５０６番地の１４,,22,210,4160907,,,,,,,2024-03-04,1,,,,,モリテック,0
554,3080401027037,新規,0,2024-03-04,2024-03-04,株式会社西沢建装,,株式会社,静岡県,浜松市中央区,富塚町３９１６番地の４９,,22,138,4328002,,,,,,,2024-03-04,1,,,,,ニシザワケンソウ,0
558,3090001018575,新規,0,2024-03-04,2024-03-04,株式会社ＥＶ‐ＷＯＲＬＤ,,株式会社,山梨県,甲斐市,篠原３２１６番地２,,19,210,4000115,,,,,,,2024-03-04,1,,,,,イーブイワールド,0
567,3110001038216,新規,0,2024-03-04,2024-03-04,コヤマホームサービス株式会社,,株式会社,新潟県,新発田市,岡島１９１番地２,,15,206,9592463,,,,,,,2024-03-04,1,,,,,コヤマホームサービス,0
576,3120001262657,新規,0,2024-03-04,2024-03-04,株式会社ライト,,株式会社,大阪府,大阪市中央区,中寺２丁目４番２２号,,27,128,5420065,,,,,,,2024-03-04,1,,,,,ライト,0
577,3120001262780,新規,0,2024-03-04,2024-03-04,ハッピーマイホーム株式会社,,株式会社,大阪府,大阪市生野区,舎利寺３丁目３番２７号,,27,116,5440022,,,,,,,2024-03-04,1,,,,,ハッピーマイホーム,0
578,3120001262789,新規,0,2024-03-04,2024-03-04,源隆株式会社,00133927,株式会社,大阪府,大阪市港区,八幡屋３丁目５－１－２０１室,,27,107,5520014,,,,,,,2024-03-04,1,,,,,ゲンリュウ,0
579,3120001262806,新規,0,2024-03-04,2024-03-04,株式会社ＳａａＳの窓口,,株式会社,大阪府,大阪市西区,新町１丁目５－７四ツ橋ビルディング２Ｆ,,27,106,5500013,,,,,,,2024-03-04,1,,,,,サースノマドグチ,0
580,3120001262814,新規,0,2024-03-04,2024-03-04,裕複株式会社,,株式会社,大阪府,大阪市西淀川区,姫島２丁目４番１０号パークアベニュー２階Ａ室,,27,113,5550033,,,,,,,2024-03-04,1,,,,,ユウフク,0
582,3120003026060,新規,0,2024-03-04,2024-03-04,アントニー商事合同会社,,合同会社,大阪府,大阪市旭区,高殿７丁目１番１３号－２Ａ,,27,117,5350031,,,,,,,2024-03-04,1,,,,,アントニーショウジ,0
600,3140001133567,新規,0,2024-03-04,2024-03-04,エビス機材株式会社,,株式会社,兵庫県,尼崎市,久々知３丁目１７番７号,,28,202,6610977,,,,,,,2024-03-04,1,,,,,エビスキザイ,0
617,3180003026435,新規,0,2024-03-04,2024-03-04,合同会社イクスプローラ,,合同会社,愛知県,名古屋市天白区,植田西３丁目２０１番地の１,,23,116,4680058,,,,,,,2024-03-04,1,,,,,イクスプローラ,0
619,3180305009550,新規,0,2024-03-04,2024-03-04,一般社団法人次世代医療エコシステム運用ネットワーク,,その他の設立登記法人,愛知県,豊川市,伊奈町南山新田１６７番地２,,23,207,4410105,,,,,,,2024-03-04,1,,,,,ジセダイイリョウエコシステムウンヨウネットワーク,0
624,3200001042217,新規,0,2024-03-04,2024-03-04,株式会社章コーポレーション,,株式会社,岐阜県,岐阜市,住田町１丁目２３番地,,21,201,5008843,,,,,,,2024-03-04,1,,,,,ユキコーポレーション,0
631,3240001062871,新規,0,2024-03-04,2024-03-04,株式会社エターナルボンズ,,株式会社,広島県,広島市中区,八丁堀１番２２号,,34,101,7300013,,,,,,,2024-03-04,1,,,,,エターナルボンズ,0
644,3290001104900,新規,0,2024-03-04,2024-03-04,株式会社ＬＩＦＵ,,株式会社,福岡県,福岡市博多区,博多駅前１丁目２３番２号,,40,132,8120011,,,,,,,2024-03-04,1,,,,,リフ,0
647,3290801030362,新規,0,2024-03-04,2024-03-04,九州三方株式会社,,株式会社,福岡県,北九州市小倉南区,北方３丁目６２番３号,,40,107,8020841,,,,,,,2024-03-04,1,,,,,キュウシュウサンホウ,0
648,3290803004629,新規,0,2024-03-04,2024-03-04,合同会社翔栄,,合同会社,福岡県,遠賀郡芦屋町,大字芦屋１２４３－５－２,,40,381,8070133,,,,,,,2024-03-04,1,,,,,ショウエイ,0
650,3310001018882,新規,0,2024-03-04,2024-03-04,株式会社ＭＫｆｉｅｌｄ,,株式会社,長崎県,長崎市,小ケ倉町２丁目６６７番地７,,42,201,8500961,,,,,,,2024-03-04,1,,,,,エムケイフィールド,0
652,3310003004740,新規,0,2024-03-04,2024-03-04,ＳＩＷ合同会社,,合同会社,長崎県,島原市,有明町湯江丁１３番地１５６,,42,203,8591404,,,,,,,2024-03-04,1,,,,,エスアイダブリュー,0
660,3340003004390,新規,0,2024-03-04,2024-03-04,合同会社ｍｅ‐ｐｕｒｕｓｉｒｏｐｐｕ,,合同会社,鹿児島県,日置市,東市来町長里２２２４番地２１,,46,216,8992202,,,,,,,2024-03-04,1,,,,,メープルシロップ,0
664,3380005012801,新規,0,2024-03-04,2024-03-04,み・らいと司法書士法人,,その他の設立登記法人,福島県,郡山市,緑町２９番７号,,07,203,9638023,,,,,,,2024-03-04,1,,,,,ミライト,0
675,3430001091199,新規,0,2024-03-04,2024-03-04,ＹＭＯサポート株式会社,,株式会社,北海道,札幌市中央区,北一条西９丁目３番地１９フルーフビルディング２階,,01,101,0600001,,,,,,,2024-03-04,1,,,,,ワイエムオーサポート,0
676,3430001091208,新規,0,2024-03-04,2024-03-04,株式会社クロスロード,,株式会社,北海道,札幌市西区,西町北５丁目６番２２‐８０２号,,01,107,0630061,,,,,,,2024-03-04,1,,,,,クロスロード,0
680,3480003002100,新規,0,2024-03-04,2024-03-04,森タイル合同会社,,合同会社,徳島県,阿波市,吉野町柿原字ヒロナカ７番地１０,,36,206,7711401,,,,,,,2024-03-04,1,,,,,モリタイル,0
686,3500001025496,新規,0,2024-03-04,2024-03-04,Ｋ・ファースト企画株式会社,,株式会社,愛媛県,伊予郡松前町,大字北川原９２４番地１,,38,401,7913131,,,,,,,2024-03-04,1,,,,,ケーファーストキカク,0
687,3500003003194,新規,0,2024-03-04,2024-03-04,ピリナジャパン合同会社,,合同会社,愛媛県,松山市,古川北４丁目６番２８号１０１,,38,201,7900942,,,,,,,2024-03-04,1,,,,,ピリナジャパン,0
689,3700150124285,新規,0,2024-03-04,2024-03-04,Ｎａｎｊｉｎｇ　Ｈｅｎｇｎｉｎｇ　Ｈｏｍｅ　Ｆｕｒｎｉｓｈｉｎｇ　Ｃｏ．，Ｌｔｄ．,,外国会社等,,,,,,,,Ｒｏｏｍ　１３１９，Ｏｐｔｏｅｌｅｃｔｒｏｎｉｃ　Ｓｃｉｅｎｃｅ　ａｎｄ　Ｔｅｃｈｎｏｌｏｇｙ　Ｐａｒｋ，Ｎｏ．６　Ｙｕｈｅ　Ｎｏｒｔｈ　Ｒｏａｄ，Ｊｉａｎｇｂｅｉ　Ｎｅｗ　Ｄｉｓｔｒｉｃｔ，Ｎａｎｊｉｎｇ,,,,,,2024-03-04,1,,,,,ナンジンホンニンジャージーヨウシエンゴンスー,0
690,3700150124293,新規,0,2024-03-04,2024-03-04,三田豊岡町会,,その他,東京都,港区,三田５丁目１１番５号,,13,103,1080073,,,,,,,2024-03-04,1,,,,,ミタトヨオカチョウカイ,0
705,4010003043108,新規,0,2024-03-04,2024-03-04,合同会社岡山物流,,合同会社,東京都,中央区,日本橋１丁目４番１号,,13,102,1030027,,,,,,,2024-03-04,1,,,,,オカヤマブツリュウ,0
707,4010005037974,新規,0,2024-03-04,2024-03-04,白岡ロジスティクス開発特定目的会社,,その他の設立登記法人,東京都,千代田区,神田神保町１丁目１１番地さくら綜合事務所内,,13,101,1010051,,,,,,,2024-03-04,1,,,,,シラオカロジスティクスカイハツ,0
712,4010401180485,新規,0,2024-03-04,2024-03-04,プランスホールディングス株式会社,,株式会社,東京都,港区,東麻布１丁目８番４－１５０４号,,13,103,1060044,,,,,,,2024-03-04,1,,,,,プランスホールディングス,0
713,4010401180741,新規,0,2024-03-04,2024-03-04,Ｓｉｇｎｐｒａｉｓｅ株式会社,,株式会社,東京都,港区,西新橋３丁目１８番２－１３０２号,,13,103,1050003,,,,,,,2024-03-04,1,,,,,サインプレイズ,0
726,4011001160340,新規,0,2024-03-04,2024-03-04,株式会社ＰｌｕｍＳｈｅｌｌ,,株式会社,東京都,渋谷区,道玄坂１丁目１０番８号渋谷道玄坂東急ビル２Ｆ－Ｃ,,13,113,1500043,,,,,,,2024-03-04,1,,,,,プランシェル,0
728,4011005010384,新規,0,2024-03-04,2024-03-04,一般社団法人舞動禅,,その他の設立登記法人,東京都,渋谷区,笹塚３丁目１４番１７号ＧａｌｌｅｒｙＢＷ３階,,13,113,1510073,,,,,,,2024-03-04,1,,,,,ブドウゼン,0
734,4011103014163,新規,0,2024-03-04,2024-03-04,ホーム合同会社,,合同会社,東京都,新宿区,西新宿３丁目５番１２号,,13,104,1600023,,,,,,,2024-03-04,1,,,,,ホーム,0
736,4011201025277,新規,0,2024-03-04,2024-03-04,株式会社ＴＦＣ,,株式会社,東京都,中野区,東中野２丁目３－１９コリンズビル４９－７０２,,13,114,1640003,,,,,,,2024-03-04,1,,,,,ティエフシー,0
742,4012403006420,新規,0,2024-03-04,2024-03-04,合同会社Ｖ’Ｓ,,合同会社,東京都,府中市,是政１丁目４－２ネギビレッジＩＩ１０６,00133928,13,206,1830014,,,,,,,2024-03-04,1,,,,,ブイズ,0
743,4012803003331,新規,0,2024-03-04,2024-03-04,合同会社ＰｅｒｋＳ　ＵＰ,,合同会社,東京都,立川市,若葉町１丁目３番地の１ライオンズヴィアーレ立川４０８号,,13,202,1900001,,,,,,,2024-03-04,1,,,,,パークスアップ,0
748,4020003025641,新規,0,2024-03-04,2024-03-04,合同会社ＷｏｒｌｄＳｅａｒｃｈｅｒ,,合同会社,神奈川県,横浜市西区,北幸１丁目１１番１号水信ビル７階,,14,103,2200004,,,,,,,2024-03-04,1,,,,,ワールドサーチャー,0
749,4021001081593,新規,0,2024-03-04,2024-03-04,ブライアンメディカル株式会社,,株式会社,神奈川県,平塚市,中原２丁目１番６３－７０４号,,14,203,2540075,,,,,,,2024-03-04,1,,,,,ブライアンメディカル,0
750,4021001081619,新規,0,2024-03-04,2024-03-04,株式会社Ｆｗｋ,,株式会社,神奈川県,小田原市,寿町１丁目４－２１－３,,14,206,2500002,,,,,,,2024-03-04,1,,,,,エフワーカー,0
751,4021003014213,新規,0,2024-03-04,2024-03-04,ｗｈａｌｅ合同会社,,合同会社,神奈川県,茅ヶ崎市,浜須賀１０－５２－７,,14,207,2530035,,,,,,,2024-03-04,1,,,,,ホエール,0
752,4021003014221,新規,0,2024-03-04,2024-03-04,合同会社ｔｈｕｎｄｅｒｗｏｒｋｓ,,合同会社,神奈川県,大和市,福田８丁目１１番地６,,14,213,2420024,,,,,,,2024-03-04,1,,,,,サンダーワークス,0
768,4040005022305,新規,0,2024-03-04,2024-03-04,一般社団法人鳳仁会,,その他の設立登記法人,千葉県,柏市,豊四季６０７－１６,,12,217,2770863,,,,,,,2024-03-04,1,,,,,ホウジンカイ,0
773,4050003008156,新規,0,2024-03-04,2024-03-04,合同会社ニワトコの木,,合同会社,茨城県,古河市,鳥喰５００－１,,08,204,3060043,,,,,,,2024-03-04,1,,,,,ニワトコノキ,0
775,4060003004930,新規,0,2024-03-04,2024-03-04,ＡＨＭＡＤ商会合同会社,,合同会社,栃木県,栃木市,藤岡町富吉９５８－３,,09,203,3290311,,,,,,,2024-03-04,1,,,,,アフマドショウカイ,0
776,4060003004939,新規,0,2024-03-04,2024-03-04,Ｈａｓｓａｍ　Ｔｒａｄｉｎｇ合同会社,,合同会社,栃木県,栃木市,藤岡町富吉９５８－１,,09,203,3290311,,,,,,,2024-03-04,1,,,,,ハサムトレーディング,0
781,4080001026165,新規,0,2024-03-04,2024-03-04,株式会社ＳＹＥＭＳ,,株式会社,静岡県,静岡市葵区,住吉町２丁目３７番地の２グランディール住吉１０４,,22,101,4200016,,,,,,,2024-03-04,1,,,,,セイムズ,0
782,4080005007590,新規,0,2024-03-04,2024-03-04,特定非営利活動法人茶と人フロンティア静岡会議,,その他の設立登記法人,静岡県,静岡市葵区,北番町８１番地,,22,101,4200005,,,,,,,2024-03-04,1,,,,,チャトヒトフロンティアシズオカカイギ,0
785,4080103002997,新規,0,2024-03-04,2024-03-04,ＨｙｕＣｏｄｅ合同会社,,合同会社,静岡県,沼津市,高沢町１３番３７－２０５号,,22,203,4100057,,,,,,,2024-03-04,1,,,,,ヒューコード,0
793,4090001018574,新規,0,2024-03-04,2024-03-04,株式会社ＲＩＧＨＴ,,株式会社,山梨県,笛吹市,石和町唐柏４８番地３,,19,211,4060034,,,,,,,2024-03-04,1,,,,,ライト,0
800,4120001262516,新規,0,2024-03-04,2024-03-04,株式会社Ｊ．小田,,株式会社,大阪府,大阪市港区,築港２丁目４－２コーシャハイツ港２号棟１１０２号室,,27,107,5520021,,,,,,,2024-03-04,1,,,,,ジェイオダ,0
801,4120001262722,新規,0,2024-03-04,2024-03-04,千尋の谷株式会社,,株式会社,大阪府,大阪市浪速区,恵美須東１丁目５－１５パークハイツ３０２号室,,27,111,5560002,,,,,,,2024-03-04,1,,,,,センジンノタニ,0
802,4120001262755,新規,0,2024-03-04,2024-03-04,株式会社ＦＵＬｓｅｒｖｉｃｅ,,株式会社,大阪府,大阪市中央区,久太郎町４丁目１番３号大阪センタービル６Ｆ－２１３,,27,128,5410056,,,,,,,2024-03-04,1,,,,,フルサービス,0
803,4120001262771,新規,0,2024-03-04,2024-03-04,株式会社織姫ケアワークス,,株式会社,大阪府,交野市,星田山手４丁目７番１０号,,27,230,5760014,,,,,,,2024-03-04,1,,,,,オリヒメケアワークス,0
804,4120001262796,新規,0,2024-03-04,2024-03-04,株式会社ＴＡＳ,,株式会社,大阪府,守口市,八雲東町２丁目８２番４０号朝日ビル２０３号,,27,209,5700021,,,,,,,2024-03-04,1,,,,,タス,0
805,4120001262813,新規,0,2024-03-04,2024-03-04,澤山成株式会社,,株式会社,大阪府,大阪市西淀川区,姫島２丁目４番１０号パークアベニュー２階Ａ室,,27,113,5550033,,,,,,,2024-03-04,1,,,,,タクサンセイ,0
810,4122001037864,新規,0,2024-03-04,2024-03-04,株式会社ＵＭＴＣ,,株式会社,大阪府,柏原市,本郷４丁目１２７番１－２０３号室,,27,221,5820001,,,,,,,2024-03-04,1,,,,,ユーエムティーシー,0
811,4130001076469,新規,0,2024-03-04,2024-03-04,株式会社Ｍａｔｏｍａｒｉ,,株式会社,京都府,木津川市,木津殿城９０番地６,,26,214,6190214,,,,,,,2024-03-04,1,,,,,マトマリ,0
812,4130003009344,新規,0,2024-03-04,2024-03-04,合同会社Ｊｕｉｃｙ,,合同会社,京都府,京都市下京区,高辻通猪熊西入十文字町６６５番地,00133936,26,106,6008354,,,,,,,2024-03-04,1,,,,,ジューシー,0
820,4150005009563,新規,0,2024-03-04,2024-03-04,一般社団法人地域生活プラネット,,その他の設立登記法人,奈良県,天理市,庵治町６番地１０,,29,204,6320086,,,,,,,2024-03-04,1,,,,,チイキセイカツプラネット,0
826,4160001025729,新規,0,2024-03-04,2024-03-04,株式会社ＡＵＴＯ　ＧＬＡＳＳ　ＲＥＳＴＯＲＥ　ＪＡＰＡＮ,,株式会社,滋賀県,野洲市,小南１８５６番地５,,25,210,5202301,,,,,,,2024-03-04,1,,,,,オートグラスレストアジャパン,0
832,4180001160326,新規,0,2024-03-04,2024-03-04,ＳＳ８ホールディングス株式会社,,株式会社,愛知県,あま市,花長川内９２番地２,,23,237,4901204,,,,,,,2024-03-04,1,,,,,エスエスエイトホールディングス,0
833,4180001160367,新規,0,2024-03-04,2024-03-04,株式会社天元ホールディングス,,株式会社,愛知県,名古屋市瑞穂区,春山町１３番地の６,,23,108,4670024,,,,,,,2024-03-04,1,,,,,テンゲンホールディングス,0
834,4180001160375,新規,0,2024-03-04,2024-03-04,株式会社ケーブリッジ,,株式会社,愛知県,名古屋市東区,泉３丁目２９番１２号５階,,23,102,4610001,,,,,,,2024-03-04,1,,,,,ケーブリッジ,0
836,4180301038370,新規,0,2024-03-04,2024-03-04,株式会社つなぐコンサルティング,,株式会社,愛知県,豊田市,泉町林畦１１９番地,,23,211,4710803,,,,,,,2024-03-04,1,,,,,ツナグコンサルティング,0
837,4190001031146,新規,0,2024-03-04,2024-03-04,かわげコンタクト株式会社,,株式会社,三重県,津市,河芸町東千里２６０番地３,,24,201,5100303,,,,,,,2024-03-04,1,,,,,カワゲコンタクト,0
841,4210003001755,新規,0,2024-03-04,2024-03-04,アイズ合同会社,,合同会社,福井県,敦賀市,桜ケ丘町３１番７－２０２号,,18,202,9140144,,,,,,,2024-03-04,1,,,,,アイズ,0
842,4220001025846,新規,0,2024-03-04,2024-03-04,株式会社ＳＣＳ,,株式会社,石川県,金沢市,錦町元土清水２の３２番地１（サーパス小立野・４０３号）,,17,201,9200952,,,,,,,2024-03-04,1,,,,,エスシーエス,0
849,4260001038803,新規,0,2024-03-04,2024-03-04,株式会社ＥＳＣ,,株式会社,岡山県,岡山市北区,田中６０７番地１,,33,101,7000951,,,,,,,2024-03-04,1,,,,,イーエスシー,0
855,4290001104866,新規,0,2024-03-04,2024-03-04,株式会社サイトー,,株式会社,福岡県,太宰府市,五条１丁目１１番３３号,,40,221,8180125,,,,,,,2024-03-04,1,,,,,サイトー,0
856,4290001104874,新規,0,2024-03-04,2024-03-04,株式会社八結,,株式会社,福岡県,福岡市中央区,荒戸２丁目２番１１－１２０８号,,40,133,8100062,,,,,,,2024-03-04,1,,,,,エイトノット,0
857,4290003015005,新規,0,2024-03-04,2024-03-04,合同会社アイムドリーム,,合同会社,福岡県,福岡市東区,馬出２丁目２番３９－２０１号クィーンズ県庁前,,40,131,8120054,,,,,,,2024-03-04,1,,,,,アイムドリーム,0
860,4320003004301,新規,0,2024-03-04,2024-03-04,合同会社ＰＵＲＰＬＥ　ＯＮＩＯＮＳ,,合同会社,大分県,日田市,大山町東大山２６９３番地１,,44,204,8770202,,,,,,,2024-03-04,1,,,,,パープルオニオンズ,0
862,4330001031800,新規,0,2024-03-04,2024-03-04,株式会社ｃｈｕｖｅｌｙ,,株式会社,熊本県,菊池郡大津町,大字岩坂５９６番地,,43,403,8691222,,,,,,,2024-03-04,1,,,,,チュウブリー,0
865,4330005010767,新規,0,2024-03-04,2024-03-04,一般社団法人ＹｕｍｅＳａｐｏ,,その他の設立登記法人,熊本県,合志市,幾久富１７５８番地１５,,43,216,8611112,,,,,,,2024-03-04,1,,,,,ユメサポ,0
866,4340001026329,新規,0,2024-03-04,2024-03-04,株式会社晟栄バイオテック研究所,,株式会社,鹿児島県,鹿児島市,武１丁目２１－４８木村ビル１Ｆ,,46,201,8900045,,,,,,,2024-03-04,1,,,,,セイエイバイオテックケンキュウショ,0
873,4370003006499,新規,0,2024-03-04,2024-03-04,Ｎｏｌｉｍｉｔｓ合同会社,,合同会社,宮城県,仙台市泉区,天神沢１丁目１５番３１号Ｈｉｌｌｂａｓｅ１０７,,04,105,9813105,,,,,,,2024-03-04,1,,,,,ノーリミッツ,0
876,4380005012800,新規,0,2024-03-04,2024-03-04,み・らいと土地家屋調査士法人,,その他の設立登記法人,福島県,郡山市,緑町２９番７号,,07,203,9638023,,,,,,,2024-03-04,1,,,,,ミライト,0
877,4390001017546,新規,0,2024-03-04,2024-03-04,株式会社ホワイトハウス,,株式会社,山形県,山形市,幸町二丁目９番ダイワロイネットホテル山形駅前２階,,06,201,9900038,,,,,,,2024-03-04,1,,,,,ホワイトハウス,0
879,4390003002208,新規,0,2024-03-04,2024-03-04,合同会社アローム,,合同会社,山形県,鶴岡市,下川字松葉１０番地,,06,203,9971117,,,,,,,2024-03-04,1,,,,,アローム,0
894,4500001025487,新規,0,2024-03-04,2024-03-04,株式会社水軍企画,,株式会社,愛媛県,伊予市,双海町上灘甲６３８７番地１,,38,210,7993202,,,,,,,2024-03-04,1,,,,,スイグンキカク,0
895,4500001025495,新規,0,2024-03-04,2024-03-04,株式会社ａｆｔｅｒｇｌｏｗ,,株式会社,愛媛県,四国中央市,寒川町２２７２－４,,38,213,7990431,,,,,,,2024-03-04,1,,,,,アフターグロー,0
896,4700150124284,新規,0,2024-03-04,2024-03-04,ＨＫ　ＡＯＫＡ　ＩＮＦＯ　ＴＥＣＨ　ＣＯ．，ＬＩＭＩＴＥＤ,,外国会社等,,,,,,,,Ｎｏ．３　ＴＡＩ　ＹＡＵ　ＳＴ１９Ｈ　ＭＡＸＧＲＡＮＤ　ＰＬＡＺＡ　ＳＡＮ　ＰＯ　ＫＯＮＧ　ＫＬＮ　９９９０７７　ＨＫ,,,,,,2024-03-04,1,,,,,シャンガンアオカーディエンズーコージーヨウシエンゴンスー,0
897,4700150124292,新規,0,2024-03-04,2024-03-04,Ｌｅｄｇｅｒ　ＳＡＳ,,外国会社等,,,,,,,,１　ｒｕｅ　ｄｕ　ｍａｉｌ，７５００２，Ｐａｒｉｓ，Ｆｒａｎｃｅ,,,,,,2024-03-04,1,,,,,レジャーエスエイエス,0
905,5010001242676,新規,0,2024-03-04,2024-03-04,株式会社環境テクノソリューション,,株式会社,東京都,千代田区,飯田橋３丁目７番１２号,,13,101,1020072,,,,,,,2024-03-04,1,,,,,カンキョウテクノソリューション,0
906,5010001242759,新規,0,2024-03-04,2024-03-04,株式会社ＬｉｎｅＦｅｅｄ,,株式会社,東京都,千代田区,神田和泉町１番地６－１６ヤマトビル４０５,,13,101,1010024,,,,,,,2024-03-04,1,,,,,ラインフィード,0
908,5010003043115,新規,0,2024-03-04,2024-03-04,Ｍｏｂｉｌｉｔｙ　Ｐｒｏ　Ｊａｐａｎ合同会社,,合同会社,東京都,中央区,日本橋室町１丁目１１番１２号日本橋水野ビル７階,,13,102,1030022,,,,,,,2024-03-04,1,,,,,モビリティプロジャパン,0
916,5010401180749,新規,0,2024-03-04,2024-03-04,株式会社Ｚｅｒｏ　Ｖｅｎｔｕｒｅｓ,,株式会社,東京都,港区,浜松町２丁目２番１５号,,13,103,1050013,,,,,,,2024-03-04,1,,,,,ゼロベンチャーズ,0
917,5010401180823,新規,0,2024-03-04,2024-03-04,株式会社アゴーラホテルマネジメント大阪堺,,株式会社,東京都,港区,虎ノ門５丁目２番６号,,13,103,1050001,,,,,,,2024-03-04,1,,,,,アゴーラホテルマネジメントオオサカサカイ,0
931,5011001160026,新規,0,2024-03-04,2024-03-04,株式会社ＯＫａｗａｒｉ,,株式会社,東京都,目黒区,自由が丘１丁目３番１４号３Ｆ,,13,110,1520035,,,,,,,2024-03-04,1,,,,,オカワリ,0
932,5011001160315,新規,0,2024-03-04,2024-03-04,株式会社信和コンサルティング,,株式会社,東京都,渋谷区,渋谷３丁目１８－４渋谷三丁目ビル８Ｆ,,13,113,1500002,,,,,,,2024-03-04,1,,,,,シンワコンサルティング,0
933,5011001160364,新規,0,2024-03-04,2024-03-04,株式会社ＦＲＡＭＥ,,株式会社,東京都,渋谷区,千駄ヶ谷３丁目４０番４号,,13,113,1510051,,,,,,,2024-03-04,1,,,,,フレーム,0
934,5011003018429,新規,0,2024-03-04,2024-03-04,合同会社ピダハン,,合同会社,東京都,渋谷区,渋谷２丁目１９－１５宮益坂ビルディング６０９,,13,113,1500002,,,,,,,2024-03-04,1,,,,,ピダハン,0
935,5011003018536,新規,0,2024-03-04,2024-03-04,Ｓｔａｔｅｒａ合同会社,,合同会社,東京都,渋谷区,神宮前１丁目２１－３－１０２,,13,113,1500001,,,,,,,2024-03-04,1,,,,,スターテラ,0
936,5011003018610,新規,0,2024-03-04,2024-03-04,ＩＳ‐ファイナンス合同会社,,合同会社,東京都,渋谷区,道玄坂１丁目１０番８号渋谷道玄坂東急ビル２Ｆ－Ｃ,,13,113,1500043,,,,,,,2024-03-04,1,,,,,アイエスファイナンス,0
940,5011101106399,新規,0,2024-03-04,2024-03-04,株式会社ソレイユ・ミュージック・クリエイション,,株式会社,東京都,新宿区,中落合２丁目１２番１８－２０３号,,13,104,1610032,,,,,,,2024-03-04,1,,,,,ソレイユミュージッククリエイション,0
942,5011203004311,新規,0,2024-03-04,2024-03-04,ＢＵＤＨＡＴＨＯＫＩ合同会社,,合同会社,東京都,中野区,若宮２丁目３５番１３号カーサ若宮１０１,,13,114,1650033,,,,,,,2024-03-04,1,,,,,ブダトキ,0
943,5011401025902,新規,0,2024-03-04,2024-03-04,株式会社ＵＫＥＯＩ,,株式会社,東京都,板橋区,高島平２丁目１０番１５－５０６号,,13,119,1750082,,,,,,,2024-03-04,1,,,,,ウケオイ,0
946,5011503005975,新規,0,2024-03-04,2024-03-04,ＩＮＱＴＥＬ　ＪＡＰＡＮ合同会社,,合同会社,東京都,荒川区,西日暮里２丁目２２番３号ＡｎｎｅｘＷｅｓｔ２階,,13,118,1160013,,,,,,,2024-03-04,1,,,,,インクテルジャパン,0
951,5011803006112,新規,0,2024-03-04,2024-03-04,合同会社ＭＹＴ,,合同会社,東京都,葛飾区,新小岩２丁目８番８号,,13,122,1240024,,,,,,,2024-03-04,1,,,,,エムワイティー,0
956,5013303007029,新規,0,2024-03-04,2024-03-04,合同会社Ｄｒｅａｍ　Ｔｏｕｃｈ,,合同会社,東京都,豊島区,池袋４丁目１２－１９大雪荘８号室,,13,116,1710014,,,,,,,2024-03-04,1,,,,,ドリームタッチ,0
957,5020003025632,新規,0,2024-03-04,2024-03-04,Ｖａｔｓｍａｎ　Ｊａｐａｎ合同会社,,合同会社,神奈川県,横浜市中区,桜木町１丁目１０１番地１クロスゲート７階,,14,104,2310062,,,,,,,2024-03-04,1,,,,,バッツマンジャパン,0
962,5021003014212,新規,0,2024-03-04,2024-03-04,合同会社ＡＬＭＯＷ,,合同会社,神奈川県,鎌倉市,由比ガ浜４丁目４番３７－１０２号,,14,204,2480014,,,,,,,2024-03-04,1,,,,,アルモウ,0
966,5030001158986,新規,0,2024-03-04,2024-03-04,株式会社ＦＵＴＵＲＥ　ＬＩＮＥ,,株式会社,埼玉県,川越市,大字上戸３１３番地１８,,11,201,3500816,,,,,,,2024-03-04,1,,,,,フューチャーライン,0
967,5030001158994,新規,0,2024-03-04,2024-03-04,ＡＸＥＬ株式会社,,株式会社,埼玉県,春日部市,大沼７丁目５０,,11,214,3440038,,,,,,,2024-03-04,1,,,,,アクセル,0
968,5030001159002,新規,0,2024-03-04,2024-03-04,Ｆｒｅｅ　ｃｏｎｓｔｒｕｃｔｉｏｎ株式会社,,株式会社,埼玉県,越谷市,蒲生寿町１５番１３－３号,,11,222,3430836,,,,,,,2024-03-04,1,,,,,フリーコンストラクション,0
971,5030003023726,新規,0,2024-03-04,2024-03-04,合同会社Ｗキャピタル,,合同会社,埼玉県,さいたま市大宮区,大門町３丁目１５０番地１－５０５号,,11,103,3300846,,,,,,,2024-03-04,1,,,,,ダブリューキャピタル,0
974,5040001132461,新規,0,2024-03-04,2024-03-04,株式会社土井架設,,株式会社,千葉県,袖ケ浦市,大鳥居６４９番地１,,12,229,2990237,,,,,,,2024-03-04,1,,,,,ドイカセツ,0
975,5040001132503,新規,0,2024-03-04,2024-03-04,株式会社ツバサデザイン,,株式会社,千葉県,習志野市,東習志野５丁目１－２０－５,,12,216,2750001,,,,,,,2024-03-04,1,,,,,ツバサデザイン,0
977,5050001054374,新規,0,2024-03-04,2024-03-04,株式会社吉田建設,,株式会社,茨城県,筑西市,大谷６５－１８,,08,227,3080852,,,,,,,2024-03-04,1,,,,,ヨシダケンセツ,0
982,5070003005308,新規,0,2024-03-04,2024-03-04,ハイタッチ・マーケティング合同会社,,合同会社,群馬県,高崎市,小八木町３１２番１５号,,10,202,3700071,,,,,,,2024-03-04,1,,,,,ハイタッチマーケティング,0
985,5080001026164,新規,0,2024-03-04,2024-03-04,株式会社ｂｏｐｏｍｏ,,株式会社,静岡県,藤枝市,駅前１丁目８番３号ＦＵＪＩＥＤＡｍｉｋｉｎｅ１階１０２区画藤枝駅前コワーキングスペース未来共創ラボフジキチ内,,22,214,4260034,,,,,,,2024-03-04,1,,,,,ボポモ,0
987,5080003003145,新規,0,2024-03-04,2024-03-04,Ｐライン合同会社,,合同会社,静岡県,静岡市駿河区,中島２０３－１第二昌栄ビル２階,,22,102,4228046,,,,,,,2024-03-04,1,,,,,ピーライン,0
991,5080401027035,新規,0,2024-03-04,2024-03-04,株式会社ＵＳＬＵ,,株式会社,静岡県,浜松市中央区,常盤町１３３番地の４ＲＥＧＡＬＯ常盤９０１,,22,138,4300917,,,,,,,2024-03-04,1,,,,,ウスル,0
1003,5100005013123,新規,0,2024-03-04,2024-03-04,労働者協同組合ワーカーズ・コレクティブ・リアン,,その他の設立登記法人,長野県,千曲市,大字雨宮２３７４,,20,218,3870001,,,,,,,2024-03-04,1,,,,,ワーカーズコレクティブリアン,0
1019,5122001037871,新規,0,2024-03-04,2024-03-04,株式会社ＧＩＰ　ＴＹＴＥ　ｃｏｒｐ．,,株式会社,大阪府,八尾市,太田新町３丁目２３番,,27,212,5810039,,,,,,,2024-03-04,1,,,,,ジップタイトコープ,0
1024,5140001133499,新規,0,2024-03-04,2024-03-04,株式会社ＦＲＴ．Ｇｒｏｕｐ,,株式会社,兵庫県,神戸市東灘区,深江北町４丁目１０番１４号ウエマスビル２階,,28,101,6580013,,,,,,,2024-03-04,1,,,,,エフアールティーグループ,0
1026,5140005026955,新規,0,2024-03-04,2024-03-04,一般社団法人日本福祉医療ファッション協会,,その他の設立登記法人,兵庫県,尼崎市,南武庫之荘３丁目３４番３－１０５号,,28,202,6610033,,,,,,,2024-03-04,1,,,,,ニホンフクシイリョウファッションキョウカイ,0
1027,5150001027114,新規,0,2024-03-04,2024-03-04,株式会社タクト,,株式会社,奈良県,奈良市,富雄川西１丁目４番７号,,29,201,6310077,,,,,,,2024-03-04,1,,,,,タクト,0
1032,5170001018029,新規,0,2024-03-04,2024-03-04,株式会社マサキ,,株式会社,和歌山県,和歌山市,平井１５７番地３,,30,201,6408442,,,,,,,2024-03-04,1,,,,,マサキ,0
1036,5180001160267,新規,0,2024-03-04,2024-03-04,株式会社ＲＫ　ＡＮＤ　ＢＲＯＴＨＥＲＳ,,株式会社,愛知県,弥富市,東末広１丁目７５番地１,,23,235,4980063,,,,,,,2024-03-04,1,,,,,アールケイアンドブラザース,0
1037,5180001160358,新規,0,2024-03-04,2024-03-04,株式会社ラナキラ,,株式会社,愛知県,名古屋市中村区,名駅南３丁目３番２１号ＢＩＡＮＣＡＳＡ水主町６０５,,23,105,4500003,,,,,,,2024-03-04,1,,,,,ラナキラ,0
1038,5200001042215,新規,0,2024-03-04,2024-03-04,株式会社マコ,,株式会社,岐阜県,瑞穂市,重里１９８９番地,,21,216,5010311,,,,,,,2024-03-04,1,,,,,マコ,0
1041,5200005013575,新規,0,2024-03-04,2024-03-04,一般社団法人コミュニケーションマイスター,,その他の設立登記法人,岐阜県,加茂郡川辺町,西栃井６９７番地５,,21,503,5090305,,,,,,,2024-03-04,1,,,,,コミュニケーションマイスター,0
1043,5220001025845,新規,0,2024-03-04,2024-03-04,株式会社ＢＡＮＴＥＱＴ,,株式会社,石川県,白山市,成町２５６番地３,,17,210,9240023,,,,,,,2024-03-04,1,,,,,バンテクト,0
1048,5240005015741,新規,0,2024-03-04,2024-03-04,医療法人璃醫会,,その他の設立登記法人,広島県,福山市,旭町８番１７号,,34,207,7200033,,,,,,,2024-03-04,1,,,,,リイカイ,0
1049,5250001020538,新規,0,2024-03-04,2024-03-04,株式会社ｏｋｏｍｅｔｏ,,株式会社,山口県,長門市,仙崎１１０９番地,,35,211,7594106,,,,,,,2024-03-04,1,,,,,オコメト,0
1053,5260001038793,新規,0,2024-03-04,2024-03-04,株式会社Ｊ・ＲＩＳＥ,,株式会社,岡山県,岡山市南区,北浦１１１番地１,,33,104,7028012,,,,,,,2024-03-04,1,,,,,ジェイライズ,0
1054,5260001038802,新規,0,2024-03-04,2024-03-04,原崎農産株式会社,00133926,株式会社,岡山県,岡山市南区,東畦８１９番地,,33,104,7010211,,,,,,,2024-03-04,1,,,,,ハラサキノウサン,0
1060,5290001104898,新規,0,2024-03-04,2024-03-04,株式会社千鳥,,株式会社,福岡県,福岡市中央区,長浜２丁目３番３８号シバタビル６０４号,,40,133,8100072,,,,,,,2024-03-04,1,,,,,チドリ,0
1095,5430001091189,新規,0,2024-03-04,2024-03-04,株式会社オリオンホールディングス,,株式会社,北海道,札幌市白石区,栄通６丁目１６番１号,,01,104,0030021,,,,,,,2024-03-04,1,,,,,オリオンホールディングス,0
1099,5430003016012,新規,0,2024-03-04,2024-03-04,森ノキ合同会社,,合同会社,北海道,余市郡余市町,登町１８６３番地,,01,408,0460002,,,,,,,2024-03-04,1,,,,,モリノキ,0
1102,5480003002098,新規,0,2024-03-04,2024-03-04,合同会社松下,,合同会社,徳島県,徳島市,応神町応神産業団地５番地１,,36,201,7711156,,,,,,,2024-03-04,1,,,,,マツシタ,0
1103,5500001025486,新規,0,2024-03-04,2024-03-04,株式会社ＭＥＩ,,株式会社,愛媛県,松山市,余戸東４丁目９番１１号,,38,201,7900044,,,,,,,2024-03-04,1,,,,,エムイーアイ,0
1104,5500001025494,新規,0,2024-03-04,2024-03-04,ｋａｄｏｈａｎ株式会社,,株式会社,愛媛県,松山市,道後湯之町１３番１３号,,38,201,7900842,,,,,,,2024-03-04,1,,,,,カドハン,0
1107,5700150124283,新規,0,2024-03-04,2024-03-04,Ｚｈｕｈａｉ　ａ　ｇｅ　ｌａｉ　ｙａ　ｊｉａ　ｊｕ　ｙｏｕ　ｘｉａｎ　ｇｏｎｇ　ｓｉ,,外国会社等,,,,,,,,Ｚｈｕｈａｉ　Ｘｉａｎｇ　ｚｈｏｕ　ｑｕ　ｊｉｕ　ｚｈｏｕ　ｄａ　ｄａｏ　ｘｉ　１０４３　ｈａｏ　６　ｄｏｎｇ　７０４　ｆａｎｇ　ｚｈｉ　ｅｒ,,,,,,2024-03-04,1,,,,,ジューハイアーゴーライヤージャージーヨウシエンゴンスー,0
1118,6010001242717,新規,0,2024-03-04,2024-03-04,株式会社ＳＴＯＣＫ１５５,,株式会社,東京都,千代田区,永田町２丁目１２番４号,,13,101,1000014,,,,,,,2024-03-04,1,,,,,ストックヒャクゴジュウゴ,0
1119,6010005037980,新規,0,2024-03-04,2024-03-04,弁護士法人半蔵門総合法律事務所,,その他の設立登記法人,東京都,千代田区,二番町３番地５麹町三葉ビル４階,,13,101,1020084,,,,,,,2024-03-04,1,,,,,,0
1120,6010005037989,新規,0,2024-03-04,2024-03-04,医療法人社団レイズ,,その他の設立登記法人,東京都,中央区,日本橋堀留町２丁目６番６号ライフサイエンスビル７階,,13,102,1030012,,,,,,,2024-03-04,1,,,,,レイズ,0
1123,6010401180756,新規,0,2024-03-04,2024-03-04,Ｒａｉｓｅ株式会社,,株式会社,東京都,港区,六本木７丁目７番７号Ｔｒｉ－ＳｅｖｅｎＲｏｐｐｏｎｇｉ８Ｆ,,13,103,1060032,,,,,,,2024-03-04,1,,,,,ライズ,0
1124,6010401180822,新規,0,2024-03-04,2024-03-04,株式会社アゴーラホテルマネジメント大阪本町,,株式会社,東京都,港区,虎ノ門５丁目２番６号,,13,103,1050001,,,,,,,2024-03-04,1,,,,,アゴーラホテルマネジメントオオサカホンマチ,0
1139,6010701045626,新規,0,2024-03-04,2024-03-04,レインフォース株式会社,,株式会社,東京都,品川区,荏原３丁目６番１１－５０４号,,13,109,1420063,,,,,,,2024-03-04,1,,,,,レインフォース,0
1159,6011003018576,新規,0,2024-03-04,2024-03-04,Ｍｅ　Ｔｒｅｅ合同会社,,合同会社,東京都,渋谷区,神宮前６丁目２３－４桑野ビル２階,,13,113,1500001,,,,,,,2024-03-04,1,,,,,ミツリー,0
1165,6011101106415,新規,0,2024-03-04,2024-03-04,株式会社ａｍｓ,,株式会社,東京都,新宿区,下落合３丁目１７番１８号１０１,,13,104,1610033,,,,,,,2024-03-04,1,,,,,エーエムエス,0
1168,6011103014145,新規,0,2024-03-04,2024-03-04,合同会社きせき,,合同会社,東京都,新宿区,西新宿６丁目１２－７Ｃ１４,,13,104,1600023,,,,,,,2024-03-04,1,,,,,キセキ,0
1170,6011301029440,新規,0,2024-03-04,2024-03-04,株式会社ａｓｔｅｒｉｓｑｕｅ　Ａ,,株式会社,東京都,杉並区,西荻北２丁目３７番２２‐２０４号,,13,115,1670042,,,,,,,2024-03-04,1,,,,,アステリスクエー,0
1172,6011501030388,新規,0,2024-03-04,2024-03-04,瑞＿国際株式会社,00133933,株式会社,東京都,荒川区,東日暮里４丁目３３－１２（Ｂ－０８）,,13,118,1160014,,,,,,,2024-03-04,1,,,,,ズイケイコクサイ,0
1174,6012401041574,新規,0,2024-03-04,2024-03-04,Ｃｅｒｕｌｅａｎ　Ｅｄｕｃａｔｉｏｎ株式会社,,株式会社,東京都,武蔵野市,吉祥寺南町４丁目２４番２号３,,13,203,1800003,,,,,,,2024-03-04,1,,,,,セルリアンエデュケーション,0
1181,6013301052141,新規,0,2024-03-04,2024-03-04,株式会社ＨＯＰＥ,,株式会社,東京都,豊島区,東池袋１丁目１８番１号,,13,116,1700013,,,,,,,2024-03-04,1,,,,,ホープ,0
1187,6020001156057,新規,0,2024-03-04,2024-03-04,株式会社桐一葉,,株式会社,神奈川県,横浜市青葉区,あざみ野２丁目２９番地１ブランズシティあざみ野２１２,,14,117,2250011,,,,,,,2024-03-04,1,,,,,キリヒトハ,0
1188,6020001156065,新規,0,2024-03-04,2024-03-04,株式会社禅,,株式会社,神奈川県,横浜市西区,北幸２丁目１０－４８むつみビル３Ｆ,,14,103,2200004,,,,,,,2024-03-04,1,,,,,ゼン,0
1194,6021001081600,新規,0,2024-03-04,2024-03-04,株式会社ＢＭＨ,,株式会社,神奈川県,愛甲郡愛川町,中津３８８２番地の２６,,14,401,2430303,,,,,,,2024-03-04,1,,,,,ビーエムエイチ,0
1195,6021001081617,新規,0,2024-03-04,2024-03-04,アイアイクロス株式会社,,株式会社,神奈川県,横須賀市,三春町５丁目５２番地,,14,201,2380014,,,,,,,2024-03-04,1,,,,,アイアイクロス,0
1196,6021003014211,新規,0,2024-03-04,2024-03-04,合同会社キリン,,合同会社,神奈川県,海老名市,中央２丁目１０－５,,14,215,2430432,,,,,,,2024-03-04,1,,,,,キリン,0
1199,6030001158952,新規,0,2024-03-04,2024-03-04,株式会社大和,,株式会社,埼玉県,さいたま市浦和区,元町２丁目２８番８－２号,,11,107,3300073,,,,,,,2024-03-04,1,,,,,ヤマト,0
1204,6030003023725,新規,0,2024-03-04,2024-03-04,ＴＢＧロジスティクス合同会社,,合同会社,埼玉県,吉川市,栄町１３９７－３,,11,243,3420050,,,,,,,2024-03-04,1,,,,,ティービージーロジスティクス,0
1212,6040001132394,新規,0,2024-03-04,2024-03-04,株式会社ＳＨＯ‐ＫＥＮ,,株式会社,千葉県,松戸市,松飛台５３５－１白鵬ビル２階,,12,207,2702214,,,,,,,2024-03-04,1,,,,,ショーケン,0
1215,6040003024391,新規,0,2024-03-04,2024-03-04,合同会社ハンド屋,,合同会社,千葉県,印西市,舞姫２丁目２Ｆ棟７０４号室,,12,231,2701608,,,,,,,2024-03-04,1,,,,,,0
1216,6050001054373,新規,0,2024-03-04,2024-03-04,株式会社ハイライフキャリアサポート,,株式会社,茨城県,牛久市,上柏田４丁目５５番地２１,,08,219,3001232,,,,,,,2024-03-04,1,,,,,ハイライフキャリアサポート,0
1220,6070003005298,新規,0,2024-03-04,2024-03-04,ＳＨＩＢＡＫＯ合同会社,,合同会社,群馬県,館林市,大街道２丁目７番３２号,,10,207,3740066,,,,,,,2024-03-04,1,,,,,シバコ,0
1225,6080401027034,新規,0,2024-03-04,2024-03-04,株式会社グローバルノード,,株式会社,静岡県,浜松市中央区,田町２２３番地の２１ビオラ田町３Ｆ,,22,138,4300944,,,,,,,2024-03-04,1,,,,,グローバルノード,0
1228,6100001037249,新規,0,2024-03-04,2024-03-04,株式会社Ｓｕｎｎｙ,,株式会社,長野県,松本市,波田４８７８番地２,,20,202,3901401,,,,,,,2024-03-04,1,,,,,サニー,0
1231,6100003007423,新規,0,2024-03-04,2024-03-04,合同会社ディノメディカ,,合同会社,長野県,上水内郡飯綱町,大字川上１５５９－１,,20,590,3891226,,,,,,,2024-03-04,1,,,,,ディノメディカ,0
1232,6100005013130,新規,0,2024-03-04,2024-03-04,一般社団法人長野市聴覚障害者協会,,その他の設立登記法人,長野県,長野市,大字安茂里１９６９番地１,,20,201,3800941,,,,,,,2024-03-04,1,,,,,ナガノシチョウカクショウガイシャキョウカイ,0
1241,6120001262761,新規,0,2024-03-04,2024-03-04,嘉泰居株式会社,,株式会社,大阪府,大阪市中央区,島之内２丁目８番２９－４０７号,,27,128,5420082,,,,,,,2024-03-04,1,,,,,カタイキョ,0
1242,6120001262803,新規,0,2024-03-04,2024-03-04,ＡＵＲＡＢＯＸ株式会社,,株式会社,大阪府,大阪市中央区,松屋町９番２０号ローレルステート松屋町８０５Ａ,,27,128,5420067,,,,,,,2024-03-04,1,,,,,オーラボックス,0
1243,6120001262811,新規,0,2024-03-04,2024-03-04,株式会社ｓｏｆｔｃａｔ,,株式会社,大阪府,大阪市北区,梅田１丁目２番２号大阪駅前第２ビル１２－１２,,27,127,5300001,,,,,,,2024-03-04,1,,,,,ソフトキャット,0
1248,6120901048780,新規,0,2024-03-04,2024-03-04,株式会社アンスワービングパートナーズ,,株式会社,大阪府,吹田市,広芝町３番２号,,27,205,5640052,,,,,,,2024-03-04,1,,,,,アンスワービングパートナーズ,0
1249,6122001037870,新規,0,2024-03-04,2024-03-04,株式会社ファースト車検サービス,,株式会社,大阪府,大東市,深野３丁目２２番３号,,27,218,5740072,,,,,,,2024-03-04,1,,,,,ファーストシャケンサービス,0
1254,6130001076450,新規,0,2024-03-04,2024-03-04,株式会社合同パッケージ,,株式会社,京都府,京都市南区,吉祥院長田町６２０番地,,26,107,6018362,,,,,,,2024-03-04,1,,,,,ゴウドウパッケージ,0
1257,6140001133515,新規,0,2024-03-04,2024-03-04,株式会社アトリエ彩絵,,株式会社,兵庫県,伊丹市,南本町７丁目１番１－６０１号,,28,207,6640852,,,,,,,2024-03-04,1,,,,,アトリエサエ,0
1260,6150003003194,新規,0,2024-03-04,2024-03-04,合同会社一桝,,合同会社,奈良県,香芝市,瓦口１番地７,,29,210,6390225,,,,,,,2024-03-04,1,,,,,イチマス,0
1262,6160001025727,新規,0,2024-03-04,2024-03-04,Ｔｗｏ　Ｆｏｕｒ　Ｌｅｇｓ株式会社,,株式会社,滋賀県,近江八幡市,長命寺町６８,,25,204,5230808,,,,,,,2024-03-04,1,,,,,トゥーフォーレッグス,0
1264,6170001018028,新規,0,2024-03-04,2024-03-04,株式会社赤坂農園,,株式会社,和歌山県,日高郡みなべ町,東本庄４０３番地,,30,391,6450021,,,,,,,2024-03-04,1,,,,,アカサカノウエン,0
1271,6180001160340,新規,0,2024-03-04,2024-03-04,旭商事株式会社,,株式会社,愛知県,名古屋市緑区,砂田１丁目７２４番地の６,,23,114,4580807,,,,,,,2024-03-04,1,,,,,アサヒショウジ,0
1272,6180001160349,新規,0,2024-03-04,2024-03-04,Ｕｐｄｒａｆｔ株式会社,,株式会社,愛知県,名古屋市東区,葵１丁目２０５シティタワー葵１４０８号室,,23,102,4610004,,,,,,,2024-03-04,1,,,,,アップドラフト,0
1273,6180001160373,新規,0,2024-03-04,2024-03-04,株式会社アースコード,,株式会社,愛知県,名古屋市中村区,名駅南２丁目１番３１号,,23,105,4500003,,,,,,,2024-03-04,1,,,,,アースコード,0
1276,6180003026440,新規,0,2024-03-04,2024-03-04,合同会社パルマ,,合同会社,愛知県,瀬戸市,平町１丁目４３番地の２,,23,204,4890916,,,,,,,2024-03-04,1,,,,,パルマ,0
1278,6180303006019,新規,0,2024-03-04,2024-03-04,ＩＴＡＬ　ＨＯＭＥ合同会社,,合同会社,愛知県,豊田市,五ケ丘６丁目１０番地８,,23,211,4710814,,,,,,,2024-03-04,1,,,,,イタルホーム,0
1280,6190001031152,新規,0,2024-03-04,2024-03-04,株式会社へんばや農園,,株式会社,三重県,伊勢市,西豊浜町３４２番地１,,24,203,5150505,,,,,,,2024-03-04,1,,,,,ヘンバヤノウエン,0
1285,6200001042214,新規,0,2024-03-04,2024-03-04,株式会社Ｃ　Ｓｐａｃｅ　Ｊａｐａｎ,,株式会社,岐阜県,岐阜市,西川手６丁目７０番地,,21,201,5008258,,,,,,,2024-03-04,1,,,,,スィースペースジャパン,0
1288,6230001020233,新規,0,2024-03-04,2024-03-04,ワイディケイ株式会社,,株式会社,富山県,南砺市,野尻６７３番地,,16,210,9391502,,,,,,,2024-03-04,1,,,,,ワイディケイ,0
1306,6290001104880,新規,0,2024-03-04,2024-03-04,株式会社アットスマイル,,株式会社,福岡県,久留米市,東町５－５プリオール東町ビル２階,,40,203,8300032,,,,,,,2024-03-04,1,,,,,アットスマイル,0
1317,6330001031798,新規,0,2024-03-04,2024-03-04,株式会社ニト丸,,株式会社,熊本県,上益城郡甲佐町,大字早川１８６８番地１７,,43,444,8613241,,,,,,,2024-03-04,1,,,,,ニトマル,0
1318,6340001026327,新規,0,2024-03-04,2024-03-04,株式会社Ｒｏｎｄｏ,,株式会社,鹿児島県,鹿児島市,薬師２丁目１１番１２号,,46,201,8900042,,,,,,,2024-03-04,1,,,,,ロンド,0
1319,6340001026335,新規,0,2024-03-04,2024-03-04,サウザンドフォール・ホールディングス株式会社,,株式会社,鹿児島県,鹿児島市,紫原４丁目４番２号,,46,201,8900082,,,,,,,2024-03-04,1,,,,,サウザンドフォールホールディングス,0
1322,6370001050992,新規,0,2024-03-04,2024-03-04,オクヤマリテール株式会社,,株式会社,宮城県,仙台市青葉区,一番町３丁目５番２号,,04,101,9800811,,,,,,,2024-03-04,1,,,,,オクヤマリテール,0
1326,6390001017544,新規,0,2024-03-04,2024-03-04,株式会社くるまや農園,,株式会社,山形県,上山市,相生８８番地の２,,06,207,9993222,,,,,,,2024-03-04,1,,,,,クルマヤノウエン,0
1328,6420001018613,新規,0,2024-03-04,2024-03-04,株式会社ＲＯＯＭ,,株式会社,青森県,八戸市,大字是川字二ツ屋６番地１,,02,203,0310023,,,,,,,2024-03-04,1,,,,,ルーム,0
1335,6430003016011,新規,0,2024-03-04,2024-03-04,合同会社Ｔ２号,,合同会社,北海道,札幌市中央区,南十一条西７丁目２－２１,,01,101,0640811,,,,,,,2024-03-04,1,,,,,ティーニゴウ,0
1344,6470003002593,新規,0,2024-03-04,2024-03-04,合同会社ＭＴＧ,,合同会社,香川県,高松市,昭和町１丁目１１番２３号センティア３－２０２,,37,201,7600014,,,,,,,2024-03-04,1,,,,,エムティージー,0
1345,6500001025493,新規,0,2024-03-04,2024-03-04,株式会社アルクフォード,,株式会社,愛媛県,松山市,小栗３丁目４番４４号テラコッタＩ－２０２号室,00133935,38,201,7900036,,,,,,,2024-03-04,1,,,,,アルクフォード,0
1348,6700150124290,新規,0,2024-03-04,2024-03-04,ｓｈｅｎ　ｚｈｅｎ　ｓｈｉ　ｆａ　ｌａ　ｓｈｅｎｇ　ｓｈｉ　ｙｅ　ｙｏｕ　ｘｉａｎ　ｇｏｎｇ　ｓｉ,,外国会社等,,,,,,,,ｌｏｎｇｇａｎｇｑｕｂａｎｔｉａｎｊｉｅｄａｏｄａｆａｐｕｓｈｅｑｕｃｈａｎｇｆａｘｉｌｕ３４ｈａｏｚｈｏｎｇｂａｏｔｏｎｇＢ２ｄｏｎｇ５ｃｅｎｇ５１５　Ｓｈｅｎｚｈｅｎ　ＧｕａｎｇＤｏｎｇ　５１８０００　ＣＮ,,,,,,2024-03-04,1,,,,,シェンジェンシファーラーションシーイエヨウシェンゴンスー,0
1353,7010001242666,新規,0,2024-03-04,2024-03-04,イベント警備サービス株式会社,,株式会社,東京都,千代田区,九段北４丁目１番３１号吉田ビル４０３,,13,101,1020073,,,,,,,2024-03-04,1,,,,,イベントケイビサービス,0
1354,7010001242716,新規,0,2024-03-04,2024-03-04,株式会社ＳＴＯＣＫ１５４,,株式会社,東京都,千代田区,永田町２丁目１２番４号,,13,101,1000014,,,,,,,2024-03-04,1,,,,,ストックヒャクゴジュウヨン,0
1355,7010001242757,新規,0,2024-03-04,2024-03-04,株式会社優晟建材,,株式会社,東京都,千代田区,神田練塀町４５ライオンズマンション秋葉原６０２,,13,101,1010022,,,,,,,2024-03-04,1,,,,,ユウセイケンザイ,0
1356,7010003043096,新規,0,2024-03-04,2024-03-04,合同会社ｅｔｅ,,合同会社,東京都,中央区,日本橋人形町１丁目１番２２号グランピアビル７階,,13,102,1030013,,,,,,,2024-03-04,1,,,,,エテ,0
1357,7010003043113,新規,0,2024-03-04,2024-03-04,広尾合同会社,,合同会社,東京都,千代田区,神田小川町３丁目２６番８号神田小川町三丁目ビル６階,,13,101,1010052,,,,,,,2024-03-04,1,,,,,ヒロオ,0
1359,7010005037988,新規,0,2024-03-04,2024-03-04,医療法人社団ベラフォレスタ,,その他の設立登記法人,東京都,千代田区,丸の内１丁目６番５号丸の内北口ビルディング６階６０５区,,13,101,1000005,,,,,,,2024-03-04,1,,,,,ベラフォレスタ,0
1365,7010403032054,新規,0,2024-03-04,2024-03-04,ＳＬＥＮＤＩＰ合同会社,,合同会社,東京都,港区,南青山３丁目８番１３号ＦＳｍｉｎａｍｉａｏｙａｍａ４ＦＳ号室,,13,103,1070062,,,,,,,2024-03-04,1,,,,,セレンディップ,0
1366,7010403032079,新規,0,2024-03-04,2024-03-04,合同会社ＫＯＭＡＲＩＮＡ,,合同会社,東京都,港区,東麻布１丁目２５番５号麻布イーストビル３階,,13,103,1060044,,,,,,,2024-03-04,1,,,,,コマリナ,0
1367,7010403032095,新規,0,2024-03-04,2024-03-04,合同会社ＳＧＢ,,合同会社,東京都,港区,元赤坂１丁目１番８号赤坂コミュニティビル４階,,13,103,1070051,,,,,,,2024-03-04,1,,,,,エスジービー,0
1370,7010503007360,新規,0,2024-03-04,2024-03-04,ｕｎｔｉｔｌｅｄ合同会社,,合同会社,東京都,台東区,台東２丁目２１－１３,,13,106,1100016,,,,,,,2024-03-04,1,,,,,アンタイトル,0
1372,7010601064741,新規,0,2024-03-04,2024-03-04,ＭａｋｅＳｏｍｅｔｈｉｎｇＮｅｗ株式会社,,株式会社,東京都,江東区,木場６丁目１０－１０アーデン木場５０４,,13,108,1350042,,,,,,,2024-03-04,1,,,,,メイクサムシングニュー,0
1376,7010701045625,新規,0,2024-03-04,2024-03-04,株式会社イレブン,,株式会社,東京都,品川区,東五反田２丁目８－５－５Ｆ,,13,109,1410022,,,,,,,2024-03-04,1,,,,,イレブン,0
1382,7010901054806,新規,0,2024-03-04,2024-03-04,株式会社タカチカキャリア,,株式会社,東京都,世田谷区,松原５丁目２５－３,,13,112,1560043,,,,,,,2024-03-04,1,,,,,タカチカキャリア,0
1386,7011001160131,新規,0,2024-03-04,2024-03-04,Ｂｌｏｏｍｎ株式会社,,株式会社,東京都,渋谷区,恵比寿３丁目４８番１号,,13,113,1500013,,,,,,,2024-03-04,1,,,,,ブルームン,0
1387,7011001160362,新規,0,2024-03-04,2024-03-04,株式会社ウリアセリヤ,,株式会社,東京都,渋谷区,代々木２丁目２７－１６ハイシティ代々木４Ｆ,,13,113,1510053,,,,,,,2024-03-04,1,,,,,ウリアセリヤ,0
1392,7011101106397,新規,0,2024-03-04,2024-03-04,樹林ＡＩ株式会社,,株式会社,東京都,新宿区,西新宿４丁目２８番１８号,,13,104,1600023,,,,,,,2024-03-04,1,,,,,ジュリンエーアイ,0
1393,7011101106406,新規,0,2024-03-04,2024-03-04,株式会社Ｉｍｐｅｇｎｏ,,株式会社,東京都,新宿区,西新宿６丁目２６－３ＣｏｚｙＣｏｕｒｔＭａｋｉ４０４,,13,104,1600023,,,,,,,2024-03-04,1,,,,,インペーニョ,0
1395,7011203004318,新規,0,2024-03-04,2024-03-04,合同会社オフィス・シロトリ,,合同会社,東京都,中野区,本町４丁目４４番２４号,,13,114,1640012,,,,,,,2024-03-04,1,,,,,オフィスシロトリ,0
1398,7011401025900,新規,0,2024-03-04,2024-03-04,株式会社３ＦＬＯＷＥＲ,,株式会社,東京都,板橋区,成増３丁目３２－１１ＬＩＡＭ３０７号室,,13,119,1750094,,,,,,,2024-03-04,1,,,,,サンフラワー,0
1399,7011501030387,新規,0,2024-03-04,2024-03-04,慶元科技株式会社,,株式会社,東京都,荒川区,東日暮里４丁目３３－１２（Ｂ－０６）,,13,118,1160014,,,,,,,2024-03-04,1,,,,,キョウゲンカギ,0
1403,7011503005973,新規,0,2024-03-04,2024-03-04,合同会社Ｒａｍｉｅ．ｓｔ,,合同会社,東京都,北区,中十条１丁目１４番９号シュガーハイムＩＩ－２０３号,00133931,13,117,1140032,,,,,,,2024-03-04,1,,,,,ラミエスト,0
1408,7012801022999,新規,0,2024-03-04,2024-03-04,萩トラベル株式会社,,株式会社,東京都,国分寺市,並木町２丁目８番地５,,13,214,1850005,,,,,,,2024-03-04,1,,,,,ハギトラベル,0
1409,7013101009365,新規,0,2024-03-04,2024-03-04,中川電機サービス株式会社,,株式会社,東京都,あきる野市,雨間１８７４番地３５,,13,228,1970825,,,,,,,2024-03-04,1,,,,,,0
1416,7020001156048,新規,0,2024-03-04,2024-03-04,株式会社横浜アセット,,株式会社,神奈川県,横浜市港北区,新横浜１丁目１番地８,,14,109,2220033,,,,,,,2024-03-04,1,,,,,ヨコハマアセット,0
1423,7021001081616,新規,0,2024-03-04,2024-03-04,株式会社ＬＵＡＮＡ　ＳＡＦＥ,,株式会社,神奈川県,横須賀市,阿部倉２７番４号,,14,201,2380033,,,,,,,2024-03-04,1,,,,,ルアナセーフ,0
1424,7021001081624,新規,0,2024-03-04,2024-03-04,ＫＥＭＩ株式会社,,株式会社,神奈川県,海老名市,河原口１丁目２７番１４号,,14,215,2430433,,,,,,,2024-03-04,1,,,,,ケミ,0
1441,7040003024465,新規,0,2024-03-04,2024-03-04,合同会社ＧＡＲＡＰＯＮ　ＳＴＵＤＩＯ,,合同会社,千葉県,松戸市,牧の原４３５番地の５３,,12,207,2702267,,,,,,,2024-03-04,1,,,,,ガラポンスタジオ,0
1442,7040005022302,新規,0,2024-03-04,2024-03-04,一般社団法人ナップ福祉グループ,,その他の設立登記法人,千葉県,富津市,青木３丁目１７番地７,,12,226,2930012,,,,,,,2024-03-04,1,,,,,ナップフクシグループ,0
1444,7050001054372,新規,0,2024-03-04,2024-03-04,ＹＭサポート・サービス株式会社,,株式会社,茨城県,牛久市,猪子町９９５－２０９,,08,219,3001231,,,,,,,2024-03-04,1,,,,,ワイエムサポートサービス,0
1445,7050001054380,新規,0,2024-03-04,2024-03-04,株式会社ＡＶＵＮＴＩ,,株式会社,茨城県,つくば市,要１３７番地３,,08,220,3002622,,,,,,,2024-03-04,1,,,,,アヴァンティ,0
1449,7060005010172,新規,0,2024-03-04,2024-03-04,一般社団法人ＳＴＯＰ　ＳＮＳ　ＳＯＣＩＥＴＹ,,その他の設立登記法人,栃木県,那須郡那須町,大字高久丙３番地２２,,09,407,3250302,,,,,,,2024-03-04,1,,,,,ストップエスエヌエスソサエティ,0
1451,7070001041451,新規,0,2024-03-04,2024-03-04,株式会社デザインプラス,,株式会社,群馬県,前橋市,天川大島町３丁目２７番地１５,,10,201,3792154,,,,,,,2024-03-04,1,,,,,デザインプラス,0
1455,7080401027033,新規,0,2024-03-04,2024-03-04,株式会社ＯＭＣ,,株式会社,静岡県,浜松市中央区,八幡町９６番地の５,,22,138,4300918,,,,,,,2024-03-04,1,,,,,オーエムシー,0
1467,7120001262760,新規,0,2024-03-04,2024-03-04,元吉株式会社,,株式会社,大阪府,大阪市中央区,島之内２丁目８番２９－５０７号,,27,128,5420082,,,,,,,2024-03-04,1,,,,,モトヨシ,0
1468,7120001262793,新規,0,2024-03-04,2024-03-04,株式会社ＡＤｉｍｐａｃｔ,,株式会社,大阪府,大阪市北区,曾根崎２丁目３－５梅新第一生命ビルディング３階,,27,127,5300057,,,,,,,2024-03-04,1,,,,,アドインパクト,0
1469,7120001262802,新規,0,2024-03-04,2024-03-04,ＢＯＹＵＯ株式会社,,株式会社,大阪府,大阪市大正区,三軒家西３丁目４番１６号中山ビル２０１Ｂ,,27,108,5510001,,,,,,,2024-03-04,1,,,,,ボイュオ,0
1470,7120001262819,新規,0,2024-03-04,2024-03-04,株式会社山嶺会,,株式会社,大阪府,大阪市城東区,今福西１丁目９－３,,27,118,5360004,,,,,,,2024-03-04,1,,,,,サンレイカイ,0
1475,7120101069156,新規,0,2024-03-04,2024-03-04,株式会社倶楽部ハウス,,株式会社,大阪府,藤井寺市,東藤井寺町７番９号,,27,226,5830022,,,,,,,2024-03-04,1,,,,,クラブハウス,0
1478,7120103005704,新規,0,2024-03-04,2024-03-04,みやび合同会社,,合同会社,大阪府,堺市西区,鳳南町２丁１０１番地１５,,27,144,5938325,,,,,,,2024-03-04,1,,,,,ミヤビ,0
1489,7122003002814,新規,0,2024-03-04,2024-03-04,合同会社サラスヴァティ,,合同会社,大阪府,柏原市,国分東条町３０番１８４号,,27,221,5820023,,,,,,,2024-03-04,1,,,,,サラスヴァティ,0
1502,7140001133522,新規,0,2024-03-04,2024-03-04,株式会社ＶＩＶＡＬＯ,,株式会社,兵庫県,神戸市中央区,小野浜町８番５１号,,28,110,6510082,,,,,,,2024-03-04,1,,,,,ビバロ,0
1503,7140001133530,新規,0,2024-03-04,2024-03-04,ＧＣ株式会社,,株式会社,兵庫県,加古郡稲美町,草谷１番地の６４９,,28,381,6751102,,,,,,,2024-03-04,1,,,,,ジーシー,0
1506,7140005026961,新規,0,2024-03-04,2024-03-04,特定非営利活動法人ゆるり家,,その他の設立登記法人,兵庫県,加古郡稲美町,国岡２丁目１７番地５,,28,381,6751115,,,,,,,2024-03-04,1,,,,,ユルリヤ,0
1510,7160003003127,新規,0,2024-03-04,2024-03-04,Ｍ．Ｙ．Ｓｙｓｔｅｍｓ合同会社,,合同会社,滋賀県,東近江市,妙法寺町８５４－３Ｉ・Ｃビル１－Ｂ,00133944,25,213,5270046,,,,,,,2024-03-04,1,,,,,エムワイシステムズ,0
1517,7180001160348,新規,0,2024-03-04,2024-03-04,株式会社吉永商事,,株式会社,愛知県,名古屋市東区,砂田橋４丁目１番５７号,,23,102,4610045,,,,,,,2024-03-04,1,,,,,ヨシナガショウジ,0
1518,7180003026398,新規,0,2024-03-04,2024-03-04,Ｍａｋｅ　Ｙｏｕｒ　Ｗａｙ合同会社,,合同会社,愛知県,名古屋市昭和区,山脇町１丁目７サンマンション山脇２０３,,23,107,4660063,,,,,,,2024-03-04,1,,,,,メイクユアウェイ,0
1520,7180301038368,新規,0,2024-03-04,2024-03-04,ポートライト株式会社,,株式会社,愛知県,岡崎市,康生町５１５－３－６０１,,23,202,4440052,,,,,,,2024-03-04,1,,,,,ポートライト,0
1521,7180301038376,新規,0,2024-03-04,2024-03-04,株式会社ワールドシステム,,株式会社,愛知県,安城市,安城町祥南３０番地,,23,212,4460026,,,,,,,2024-03-04,1,,,,,ワールドシステム,0
1522,7190001031151,新規,0,2024-03-04,2024-03-04,株式会社ｏｗｌ,,株式会社,三重県,松阪市,小黒田町４２１番地５,,24,204,5150062,,,,,,,2024-03-04,1,,,,,アウル,0
1523,7220001025843,新規,0,2024-03-04,2024-03-04,株式会社ＴＷＩＮ　ＲＯＡＤ,,株式会社,石川県,金沢市,久安２丁目４７２番地,,17,201,9218164,,,,,,,2024-03-04,1,,,,,ツインロード,0
1527,7240001062868,新規,0,2024-03-04,2024-03-04,エスピーエス株式会社,,株式会社,広島県,東広島市,西条町御薗宇４６５７番地５,,34,212,7390024,,,,,,,2024-03-04,1,,,,,エスピーエス,0
1531,7260001038800,新規,0,2024-03-04,2024-03-04,株式会社ハイミックス,,株式会社,岡山県,岡山市北区,西之町１０番地１０８,,33,101,7000916,,,,,,,2024-03-04,1,,,,,ハイミックス,0
1538,7290003015027,新規,0,2024-03-04,2024-03-04,ＦｌａｐＬａｂｏ合同会社,,合同会社,福岡県,筑後市,大字北長田３２８‐１,,40,211,8330013,,,,,,,2024-03-04,1,,,,,フラップラボ,0
1543,7330001031748,新規,0,2024-03-04,2024-03-04,星波株式会社,,株式会社,熊本県,熊本市西区,戸坂町２番１２号,,43,103,8600045,,,,,,,2024-03-04,1,,,,,ホシナミ,0
1547,7340001026334,新規,0,2024-03-04,2024-03-04,今村健朗工業株式会社,,株式会社,鹿児島県,鹿児島市,魚見町１３０番地６,,46,201,8910112,,,,,,,2024-03-04,1,,,,,イマムラケンロウコウギョウ,0
1557,7390001017543,新規,0,2024-03-04,2024-03-04,株式会社かみよこファーム,,株式会社,山形県,尾花沢市,大字丹生１５０番地５,,06,212,9994213,,,,,,,2024-03-04,1,,,,,カミヨコファーム,0
1559,7430001091204,新規,0,2024-03-04,2024-03-04,株式会社ヤマコウ木村水産,,株式会社,北海道,古平郡古平町,大字本町９４番地１,,01,406,0460103,,,,,,,2024-03-04,1,,,,,ヤマコウキムラスイサン,0
1563,7430003016010,新規,0,2024-03-04,2024-03-04,合同会社Ｔ１号,,合同会社,北海道,札幌市中央区,南十一条西７丁目２－２１,,01,101,0640811,,,,,,,2024-03-04,1,,,,,ティーイチゴウ,0
1565,7450001014237,新規,0,2024-03-04,2024-03-04,株式会社北風と太陽エナジー,,株式会社,北海道,稚内市,中央３丁目１０番１８号丹羽ビル１階,,01,214,0970022,,,,,,,2024-03-04,1,,,,,キタカゼトタイヨウエナジー,0
1572,7500001025492,新規,0,2024-03-04,2024-03-04,株式会社ｔｅｎｚｉｋｕ,,株式会社,愛媛県,松山市,福角町１５５７－８,,38,201,7992652,,,,,,,2024-03-04,1,,,,,テンジク,0
1576,7700150124091,新規,0,2024-03-04,2024-02-20,庄内町耕地管理組合,,その他,山形県,東田川郡庄内町,狩川字小野里５４,,06,428,9996601,,,,,,,2024-02-20,1,,,,,シヨウナイマチコウチカンリクミアイ,0
1582,8010001242715,新規,0,2024-03-04,2024-03-04,株式会社ＳＴＯＣＫ１５３,,株式会社,東京都,千代田区,永田町２丁目１２番４号,,13,101,1000014,,,,,,,2024-03-04,1,,,,,ストックヒャクゴジュウサン,0
1585,8010003043095,新規,0,2024-03-04,2024-03-04,合同会社ビズコネクト,,合同会社,東京都,中央区,日本橋兜町１７番２号兜町第六葉山ビル４階,,13,102,1030026,,,,,,,2024-03-04,1,,,,,ビズコネクト,0
1597,8010603010684,新規,0,2024-03-04,2024-03-04,合同会社ＫＵＤＯ６,,合同会社,東京都,江東区,三好４丁目７番１０－３０７号,,13,108,1350022,,,,,,,2024-03-04,1,,,,,クドウシックス,0
1599,8010801034824,新規,0,2024-03-04,2024-03-04,株式会社ｃｌｏｕｄ　ｎｏ．９,,株式会社,東京都,大田区,田園調布１丁目２３番１６号コートデコ田園調布１０７,,13,111,1450071,,,,,,,2024-03-04,1,,,,,クラウドナンバーナイン,0
1607,8011001160023,新規,0,2024-03-04,2024-03-04,株式会社ＵＬＴＲＯ,,株式会社,東京都,渋谷区,渋谷２丁目１９－１５宮益坂ビルディング６０９,,13,113,1500002,,,,,,,2024-03-04,1,,,,,ウルトロ,0
1608,8011001160353,新規,0,2024-03-04,2024-03-04,株式会社ＵＵＷＩＴ,,株式会社,東京都,渋谷区,恵比寿４丁目２０－３恵比寿ガーデンプレイスタワー１８階,,13,113,1500013,,,,,,,2024-03-04,1,,,,,ウーウィット,0
1609,8011001160378,新規,0,2024-03-04,2024-03-04,株式会社ＫＥＲＡ,,株式会社,東京都,渋谷区,上原１丁目３２－１８小林ビル２階,,13,113,1510064,,,,,,,2024-03-04,1,,,,,ケラ,0
1610,8011003018582,新規,0,2024-03-04,2024-03-04,合同会社ＤＡＩＧＯＭＩ,,合同会社,東京都,渋谷区,東１丁目２７－７渋谷東ＫＭビル７階,,13,113,1500011,,,,,,,2024-03-04,1,,,,,ダイゴミ,0
1613,8011101106396,新規,0,2024-03-04,2024-03-04,株式会社Ｇａｍｅｖｉｓｉｏｎ　Ｊａｐａｎ,,株式会社,東京都,新宿区,新宿１丁目１２番５号Ｕｎｉ－ｗｏｒｋｓ新宿御苑４階,,13,104,1600022,,,,,,,2024-03-04,1,,,,,ゲームビジョンジャパン,0
1614,8011101106405,新規,0,2024-03-04,2024-03-04,株式会社コーリング,,株式会社,東京都,新宿区,西新宿７丁目５番５号Ｐｌａｚａ西新宿ＵＣＦ４階,,13,104,1600023,,,,,,,2024-03-04,1,,,,,コーリング,0
1619,8011301029463,新規,0,2024-03-04,2024-03-04,株式会社ＴＫ　Ａｓｓｅｔ　Ｍａｎａｇｅｍｅｎｔ,,株式会社,東京都,杉並区,高井戸東１丁目２７番５号,,13,115,1680072,,,,,,,2024-03-04,1,,,,,ティーケーアセットマネジメント,0
1620,8011303005074,新規,0,2024-03-04,2024-03-04,旅風道合同会社,,合同会社,東京都,杉並区,高円寺南４丁目２４－１２（Ｔｒｅｅｓ高円寺）高円寺南オフィス２１２号室,,13,115,1660003,,,,,,,2024-03-04,1,,,,,タビフウドウ,0
1628,8012801022998,新規,0,2024-03-04,2024-03-04,株式会社ＨＴｃｏｒｐ,,株式会社,東京都,日野市,程久保３丁目２０番７号,,13,212,1910042,,,,,,,2024-03-04,1,,,,,エイチティコープ,0
1629,8013101009364,新規,0,2024-03-04,2024-03-04,サクラテック株式会社,,株式会社,東京都,青梅市,新町５丁目３０番地の７,,13,205,1980024,,,,,,,2024-03-04,1,,,,,,0
1641,8020003025654,新規,0,2024-03-04,2024-03-04,保険のエンゼル合同会社,,合同会社,神奈川県,横浜市南区,大岡１丁目４４番９号,,14,105,2320061,,,,,,,2024-03-04,1,,,,,ホケンノエンゼル,0
1644,8021001081623,新規,0,2024-03-04,2024-03-04,株式会社サップリーグジャパン,,株式会社,神奈川県,平塚市,代官町３５番１３－５０３号藤和平塚代官町コープ,,14,203,2540807,,,,,,,2024-03-04,1,,,,,サップリーグジャパン,0
1647,8030001158884,新規,0,2024-03-04,2024-03-04,株式会社あさひ,,株式会社,埼玉県,越谷市,赤山町１丁目１５２番地１,,11,222,3430807,,,,,,,2024-03-04,1,,,,,アサヒ,0
1648,8030001158959,新規,0,2024-03-04,2024-03-04,株式会社Ｂｒｉｇｈｔ　Ｓｔｏｒｙ,,株式会社,埼玉県,熊谷市,肥塚２丁目７番１２号,,11,202,3600015,,,,,,,2024-03-04,1,,,,,ブライトストーリー,0
1649,8030001158967,新規,0,2024-03-04,2024-03-04,株式会社ＨＡＮＡＭＩ,,株式会社,埼玉県,羽生市,大字羽生１１８８番地１３,,11,216,3480055,,,,,,,2024-03-04,1,,,,,ハナミ,0
1650,8030001158983,新規,0,2024-03-04,2024-03-04,在宅支援株式会社,,株式会社,埼玉県,和光市,白子３丁目１１番３９号ビビナ．２－１０３,,11,229,3510101,,,,,,,2024-03-04,1,,,,,ザイタクシエン,0
1656,8040001132401,新規,0,2024-03-04,2024-03-04,株式会社ファインコネクト,,株式会社,千葉県,成田市,囲護台２丁目２番地１２平和ビル,,12,211,2860035,,,,,,,2024-03-04,1,,,,,ファインコネクト,0
1661,8040003024407,新規,0,2024-03-04,2024-03-04,合同会社みんな活躍,,合同会社,千葉県,八千代市,萱田町８８３番地３フロレスタ上ノ山ＩＩ１０２,00133932,12,221,2760044,,,,,,,2024-03-04,1,,,,,ミンナカツヤク,0
1662,8040003024464,新規,0,2024-03-04,2024-03-04,合同会社ＡＬＯＨＡ７,,合同会社,千葉県,千葉市緑区,おゆみ野南４丁目２４番地２,,12,105,2660033,,,,,,,2024-03-04,1,,,,,アロハセブン,0
1667,8050001054347,新規,0,2024-03-04,2024-03-04,株式会社ハイサイン,,株式会社,茨城県,取手市,井野台１丁目９番２６号,,08,217,3020015,,,,,,,2024-03-04,1,,,,,ハイサイン,0
1668,8050001054371,新規,0,2024-03-04,2024-03-04,株式会社Ｋ＆Ｙ,,株式会社,茨城県,牛久市,猪子町９９５番地２０９,,08,219,3001231,,,,,,,2024-03-04,1,,,,,ケーアンドワイ,0
1677,8070001041450,新規,0,2024-03-04,2024-03-04,ＳＳＫ　ＴＲＡＤＩＮＧ株式会社,,株式会社,群馬県,邑楽郡明和町,中谷１１６番地６澤浦アパート東,,10,522,3700713,,,,,,,2024-03-04,1,,,,,エスエスケートレーディング,0
1680,8070003005296,新規,0,2024-03-04,2024-03-04,合同会社ＧＲＥＳＳ,,合同会社,群馬県,太田市,新田小金井町７８０番地４,,10,205,3700303,,,,,,,2024-03-04,1,,,,,グレース,0
1683,8080003003142,新規,0,2024-03-04,2024-03-04,ぐっとくる合同会社,,合同会社,静岡県,静岡市清水区,江尻東２丁目４番１０号,,22,103,4240815,,,,,,,2024-03-04,1,,,,,グットクル,0
1688,8080401027032,新規,0,2024-03-04,2024-03-04,株式会社ＹＫＲ,,株式会社,静岡県,浜松市中央区,本郷町１３１７番地の４,,22,138,4300812,,,,,,,2024-03-04,1,,,,,ワイケーアール,0
1689,8090001018570,新規,0,2024-03-04,2024-03-04,株式会社害獣駆除専門屋,,株式会社,山梨県,中巨摩郡昭和町,紙漉阿原２３２５番地,,19,384,4093861,,,,,,,2024-03-04,1,,,,,ガイジュウクジョセンモンヤ,0
1699,8120001262776,新規,0,2024-03-04,2024-03-04,すいへい株式会社,,株式会社,大阪府,大阪市大正区,三軒家西３丁目４番１６号中山ビル１０２０,,27,108,5510001,,,,,,,2024-03-04,1,,,,,スイヘイ,0
1703,8120003026056,新規,0,2024-03-04,2024-03-04,合同会社ｗｈｉｔｅ,,合同会社,大阪府,大阪市生野区,勝山北１丁目３番１３号,,27,116,5440033,,,,,,,2024-03-04,1,,,,,ホワイト,0
1704,8120005024181,新規,0,2024-03-04,2024-03-04,一般社団法人Ｆ．ｄｉｖｅｒｓｉｔｙ,,その他の設立登記法人,大阪府,大阪市淀川区,西中島５丁目９－５－８０２,,27,123,5320011,,,,,,,2024-03-04,1,,,,,エフダイバーシティ,0
1707,8120103005703,新規,0,2024-03-04,2024-03-04,合同会社ｂｅｌｌｌｉｖｅｓ,,合同会社,大阪府,堺市堺区,砂道町１丁７番１６号,,27,141,5900002,,,,,,,2024-03-04,1,,,,,ベルライヴス,0
1710,8122001037860,新規,0,2024-03-04,2024-03-04,ＴＭカンパニー株式会社,,株式会社,大阪府,東大阪市,上小阪３丁目１番３号コトブキ園芸ビル３０２,,27,227,5770806,,,,,,,2024-03-04,1,,,,,ティーエムカンパニー,0
1712,8122003002813,新規,0,2024-03-04,2024-03-04,ＡＤＡＬＩＥ合同会社,,合同会社,大阪府,東大阪市,御厨２丁目１番４９号,,27,227,5770032,,,,,,,2024-03-04,1,,,,,アダリエ,0
1713,8130001076515,新規,0,2024-03-04,2024-03-04,株式会社大誠,,株式会社,京都府,京田辺市,三山木柚ノ木３６番地１大宝同志社ＣＴスクエア２０６号室,,26,211,6100313,,,,,,,2024-03-04,1,,,,,タイセイ,0
1719,8140001133521,新規,0,2024-03-04,2024-03-04,株式会社Ｌｉｏｎ,,株式会社,兵庫県,神戸市中央区,北野町１丁目５番２７号サドワニマンション１Ｂ,,28,110,6500002,,,,,,,2024-03-04,1,,,,,リオン,0
1721,8140003020222,新規,0,2024-03-04,2024-03-04,合同会社ＳＡＭＹ,,合同会社,兵庫県,神戸市灘区,永手町５丁目８番１９号,,28,102,6570027,,,,,,,2024-03-04,1,,,,,サミー,0
1722,8140005026960,新規,0,2024-03-04,2024-03-04,一般社団法人モーリエ,,その他の設立登記法人,兵庫県,明石市,本町２丁目９－６ＲＳ本町ビル３階,,28,203,6730892,,,,,,,2024-03-04,1,,,,,モーリエ,0
1731,8160001025725,新規,0,2024-03-04,2024-03-04,株式会社ニワトリ,,株式会社,滋賀県,栗東市,下鈎１２４２番地１（１０５号）シャルマントリシティＩＩ,00133929,25,208,5203026,,,,,,,2024-03-04,1,,,,,,0
1748,8190001031150,新規,0,2024-03-04,2024-03-04,ドリームＡｄｄベンチャー株式会社,,株式会社,三重県,四日市市,内堀町２７７番地１４,,24,202,5100872,,,,,,,2024-03-04,1,,,,,ドリームアドベンチャー,0
1749,8190003004600,新規,0,2024-03-04,2024-03-04,フランドストア合同会社,,合同会社,三重県,松阪市,西之庄町８６番地１０,,24,204,5150816,,,,,,,2024-03-04,1,,,,,フランドストア,0
1750,8190005011909,新規,0,2024-03-04,2024-03-04,一般社団法人ＩＮＴＥＲＮＡＴＩＯＮＡＬ　ＣＨＲＩＳＴ　ＣＥＮＴＥＲＥＤ　ＦＥＬＬＯＷＳＨＩＰ　ＭＩＮＩＳＴＲＩＥＳ，ＩＮＣ．,,その他の設立登記法人,三重県,津市,白山町三ヶ野１１９８番地,,24,201,5152601,,,,,,,2024-03-04,1,,,,,インターナショナルクライストセンタードフェローシップミニストリーズインク,0
1751,8210001019655,新規,0,2024-03-04,2024-03-04,株式会社鶴工建,00133934,株式会社,福井県,敦賀市,金山４９号１６番地,,18,202,9140146,,,,,,,2024-03-04,1,,,,,ツルコウケン,0
1755,8220001025842,新規,0,2024-03-04,2024-03-04,株式会社アンドグラム,,株式会社,石川県,金沢市,高尾台２丁目８８番地３,,17,201,9218155,,,,,,,2024-03-04,1,,,,,アンドグラム,0
1756,8220001025850,新規,0,2024-03-04,2024-03-04,加越食品株式会社,,株式会社,石川県,小松市,問屋町３番地,,17,203,9230037,,,,,,,2024-03-04,1,,,,,カエツショクヒン,0
1757,8230001020231,新規,0,2024-03-04,2024-03-04,株式会社ファームイシザカ,,株式会社,富山県,滑川市,栗山３９００番地,,16,206,9360803,,,,,,,2024-03-04,1,,,,,ファームイシザカ,0
1764,8240001062867,新規,0,2024-03-04,2024-03-04,株式会社ＬｉＢｅｒｋ,,株式会社,広島県,広島市佐伯区,五日市駅前３丁目１番８－２０２号,,34,108,7315125,,,,,,,2024-03-04,1,,,,,リベルク,0
1776,8260001038799,新規,0,2024-03-04,2024-03-04,株式会社ＴＲＩＢＥ,,株式会社,岡山県,倉敷市,浜町１丁目６番２２号プリメールＩＩＩＡ棟,00133943,33,202,7100062,,,,,,,2024-03-04,1,,,,,トライブ,0
1785,8290001104870,新規,0,2024-03-04,2024-03-04,株式会社マッドソイルセメント工業,,株式会社,福岡県,福岡市博多区,豊１丁目３番１４号佐藤ビルＡ－１,,40,132,8120042,,,,,,,2024-03-04,1,,,,,マッドソイルセメントコウギョウ,0
1786,8290001104887,新規,0,2024-03-04,2024-03-04,株式会社園木,,株式会社,福岡県,福岡市東区,千早１丁目３５番５号,,40,131,8130044,,,,,,,2024-03-04,1,,,,,ソノキ,0
1787,8290001104895,新規,0,2024-03-04,2024-03-04,株式会社シューナッチ,,株式会社,福岡県,福岡市中央区,平尾２丁目５番８号ラクレイス平尾ステーション２階,,40,133,8100014,,,,,,,2024-03-04,1,,,,,シューナッチ,0
1794,8290801030358,新規,0,2024-03-04,2024-03-04,東亜株式会社,,株式会社,福岡県,鞍手郡鞍手町,大字中山２８２４番地１５７,,40,402,8071312,,,,,,,2024-03-04,1,,,,,トウア,0
1804,8320005010137,新規,0,2024-03-04,2024-03-04,一般社団法人人材育成振興会,,その他の設立登記法人,大分県,大分市,金池町２丁目１４番２３号,,44,201,8700026,,,,,,,2024-03-04,1,,,,,ジンザイイクセイシンコウカイ,0
1809,8340001026333,新規,0,2024-03-04,2024-03-04,ＳＫＹクリーンサービス株式会社,,株式会社,鹿児島県,鹿児島市,小川町１７－１１中村ビル２０１号,,46,201,8920817,,,,,,,2024-03-04,1,,,,,スカイクリーンサービス,0
1811,8370001050990,新規,0,2024-03-04,2024-03-04,リフェクト株式会社,,株式会社,宮城県,仙台市青葉区,藤松３番２－１０２号,,04,101,9810921,,,,,,,2024-03-04,1,,,,,リフェクト,0
1815,8390001017542,新規,0,2024-03-04,2024-03-04,株式会社農穣おく山,,株式会社,山形県,村山市,大字大槇２３１７番地２,,06,208,9950203,,,,,,,2024-03-04,1,,,,,ノウジョウオクヤマ,0
1819,8430001091203,新規,0,2024-03-04,2024-03-04,株式会社ユースフル不動産,,株式会社,北海道,空知郡南幌町,北町３丁目３番２２号,,01,423,0690231,,,,,,,2024-03-04,1,,,,,ユースフルフドウサン,0
1822,8450003002445,新規,0,2024-03-04,2024-03-04,合同会社ＮＲＴＰＲＯＤＵＣＥ,,合同会社,北海道,旭川市,忠和四条８丁目７番１１号,,01,204,0708044,,,,,,,2024-03-04,1,,,,,エヌアールティープロデュース,0
1830,8700150124289,新規,0,2024-03-04,2024-03-04,ｈａｎｇｚｈｏｕｚｕｏｈａｎｋｅｊｉｙｏｕｘｉａｎｇｏｎｇｓｉ,,外国会社等,,,,,,,,Ｚｈｅｊｉａｎｇｓｈｅｎｇｈａｎｇｚｈｏｕｓｈｉｙｕｈａｎｇｑｕ　ｊｉｎｇｓｈａｎｚｈｅｎｃｈａｎｇｌｅｇｏｎｇｙｅｑｕ　ｓｈｕｎｌｅｌｕ６ｈａｏ４ｌｏｕ,,,,,,2024-03-04,1,,,,,コウシュウサカンカギユウゲンコウシ,0
1831,8700150124297,新規,0,2024-03-04,2024-03-04,東部丘陵線連絡協議会,,その他,愛知県,名古屋市中区,三の丸３丁目１－２,,23,106,4600001,,,,,,,2024-03-04,1,,,,,トウブキュウリョウセンレンラクキョウギカイ,0
1837,9010001242615,新規,0,2024-03-04,2024-03-04,ネクサスパートナーズ株式会社,,株式会社,東京都,中央区,勝どき４丁目６番２－４３０６号,,13,102,1040054,,,,,,,2024-03-04,1,,,,,ネクサスパートナーズ,0
1838,9010001242714,新規,0,2024-03-04,2024-03-04,株式会社ＳＴＯＣＫ１５２,,株式会社,東京都,千代田区,永田町２丁目１２番４号,,13,101,1000014,,,,,,,2024-03-04,1,,,,,ストックヒャクゴジュウニ,0
1839,9010001242763,新規,0,2024-03-04,2024-03-04,株式会社ＳｙｎｃｈｒｏＡｒｔ,,株式会社,東京都,中央区,銀座１丁目２２番１１号銀座大竹ビジデンス２Ｆ,,13,102,1040061,,,,,,,2024-03-04,1,,,,,シンクロアート,0
1840,9010003043078,新規,0,2024-03-04,2024-03-04,合同会社Ｂｏｎ　ｖｏｙａｇ,,合同会社,東京都,中央区,銀座１丁目２２番１１号銀座大竹ビジデンス２Ｆ,,13,102,1040061,,,,,,,2024-03-04,1,,,,,ボンボヤージュ,0
1841,9010003043086,新規,0,2024-03-04,2024-03-04,合同会社ｍｏｏｎｌｉｇｈｔ,,合同会社,東京都,中央区,日本橋兜町１７番１号日本橋ロイヤルプラザ７０６,,13,102,1030026,,,,,,,2024-03-04,1,,,,,ムーンライト,0
1846,9010401180695,新規,0,2024-03-04,2024-03-04,株式会社ＶＶ．ＭＥＬＯＮ,,株式会社,東京都,港区,六本木４丁目１番１９号ＡＲＵＧＡ２１ビル,,13,103,1060032,,,,,,,2024-03-04,1,,,,,ヴィヴィメロン,0
1849,9010403032093,新規,0,2024-03-04,2024-03-04,合同会社Ｓｅｒｐｅｎｔ　Ｐａｒｔｎｅｒｓ,,合同会社,東京都,港区,赤坂９丁目７番２号２１１２,,13,103,1070052,,,,,,,2024-03-04,1,,,,,サーペントパートナーズ,0
1850,9010405023017,新規,0,2024-03-04,2024-03-04,ジャパン・キリシマ特定目的会社,,その他の設立登記法人,東京都,港区,虎ノ門３丁目２２番１０－２０１号,,13,103,1050001,,,,,,,2024-03-04,1,,,,,ジャパンキリシマ,0
1852,9010601064731,新規,0,2024-03-04,2024-03-04,株式会社アッシュボーン,,株式会社,東京都,墨田区,墨田５丁目５番２号Ｒビル墨田,,13,107,1310031,,,,,,,2024-03-04,1,,,,,アッシュボーン,0
1863,9010801034823,新規,0,2024-03-04,2024-03-04,ＪＬＤ株式会社,,株式会社,東京都,大田区,山王２丁目１番８号山王アーバンライフ７２２号,,13,111,1430023,,,,,,,2024-03-04,1,,,,,ジェイエルディー,0
1869,9011001160278,新規,0,2024-03-04,2024-03-04,錦上美株式会社,,株式会社,東京都,渋谷区,富ヶ谷１丁目１４－１４スタンフォードアネックスビル３Ｆ・４Ｆ,,13,113,1510063,,,,,,,2024-03-04,1,,,,,ジンショウミ,0
1870,9011001160328,新規,0,2024-03-04,2024-03-04,株式会社ｍａｖｉｅ,,株式会社,東京都,渋谷区,渋谷２丁目１９－１５宮益坂ビルディング６０９,,13,113,1500002,,,,,,,2024-03-04,1,,,,,メヴィ,0
1871,9011001160352,新規,0,2024-03-04,2024-03-04,株式会社ハーネス,,株式会社,東京都,目黒区,下目黒１丁目３番１－６０１号,,13,110,1530064,,,,,,,2024-03-04,1,,,,,ハーネス,0
1872,9011001160377,新規,0,2024-03-04,2024-03-04,株式会社ｕｐｄａｔｅｒｓ,,株式会社,東京都,渋谷区,神泉町２０－２１,,13,113,1500045,,,,,,,2024-03-04,1,,,,,アップデーターズ,0
1874,9011005010388,新規,0,2024-03-04,2024-03-04,一般社団法人ＢＯＯＫＳＯ,,その他の設立登記法人,東京都,渋谷区,神宮前６丁目２３番４号桑野ビル２階,,13,113,1500001,,,,,,,2024-03-04,1,,,,,ボクソー,0
1877,9011101106387,新規,0,2024-03-04,2024-03-04,株式会社ｂｉｌｌｉｏｎ　ｐａｒｋ,,株式会社,東京都,新宿区,荒木町１０番地９フォレスト四谷１Ｂ号室,,13,104,1600007,,,,,,,2024-03-04,1,,,,,ビリオンパーク,0
1878,9011101106404,新規,0,2024-03-04,2024-03-04,株式会社スタックアップ,,株式会社,東京都,新宿区,水道町２番１５号,,13,104,1620811,,,,,,,2024-03-04,1,,,,,スタックアップ,0
1882,9011105010957,新規,0,2024-03-04,2024-03-04,特定非営利活動法人新宿区日中友好協会,,その他の設立登記法人,東京都,新宿区,北町２４番地１シャリエ神楽坂１０４号,,13,104,1620834,,,,,,,2024-03-04,1,,,,,,0
1888,9011301029462,新規,0,2024-03-04,2024-03-04,株式会社Ｍｉｇｈｔｙ,,株式会社,東京都,杉並区,高円寺南４丁目４１番１０号ＵＰＢＡＳＥ高円寺１０１号室,,13,115,1660003,,,,,,,2024-03-04,1,,,,,マイティ,0
1890,9011501030385,新規,0,2024-03-04,2024-03-04,吉川商事株式会社,,株式会社,東京都,荒川区,西尾久２丁目３４番１４号,,13,118,1160011,,,,,,,2024-03-04,1,,,,,ヨシカワショウジ,0
1891,9011603004262,新規,0,2024-03-04,2024-03-04,合同会社ｌｕｃｋｙ　ｃｌｏｖｅｒ,,合同会社,東京都,練馬区,向山４丁目９番２７号エクリューイ１０２,,13,120,1760022,,,,,,,2024-03-04,1,,,,,ラッキークローバー,0
1894,9012401041588,新規,0,2024-03-04,2024-03-04,株式会社ＡＥソリューション,,株式会社,東京都,府中市,府中町２丁目３番１号ＺＯＯＭ府中１００７,,13,206,1830055,,,,,,,2024-03-04,1,,,,,エーイーソリューション,0
1898,9013301052064,新規,0,2024-03-04,2024-03-04,株式会社ＭｏｏｎＪａｐａｎ,,株式会社,東京都,豊島区,要町３丁目４－６,,13,116,1710043,,,,,,,2024-03-04,1,,,,,ムーンジャパン,0
1899,9013301052080,新規,0,2024-03-04,2024-03-04,株式会社ＢＯＤ　ＰＯＷＥＲ,,株式会社,東京都,豊島区,南池袋２丁目４９番７号,,13,116,1710022,,,,,,,2024-03-04,1,,,,,ビーオーディーパワー,0
1900,9013301052155,新規,0,2024-03-04,2024-03-04,株式会社ジーイーピー,,株式会社,東京都,豊島区,西池袋１丁目４番１０号,,13,116,1710021,,,,,,,2024-03-04,1,,,,,ジーイーピー,0
1907,9021001081589,新規,0,2024-03-04,2024-03-04,株式会社ゼッカマ,,株式会社,神奈川県,鎌倉市,材木座４丁目１０番６号,,14,204,2480013,,,,,,,2024-03-04,1,,,,,ゼッカマ,0
1913,9030001158974,新規,0,2024-03-04,2024-03-04,株式会社ＳｋｙＭｋｓｓ,,株式会社,埼玉県,富士見市,上沢１丁目１４－２３,,11,235,3540034,,,,,,,2024-03-04,1,,,,,スカイミクス,0
1914,9030003023739,新規,0,2024-03-04,2024-03-04,合同会社ＳＧ工業,,合同会社,埼玉県,川口市,戸塚東１丁目２番３１号東川口グリーンハイツ４０３号,,11,203,3330802,,,,,,,2024-03-04,1,,,,,エスジーコウギョウ,0
1918,9040001132466,新規,0,2024-03-04,2024-03-04,株式会社ＡＲＳＲＥＧＩＳ,,株式会社,千葉県,千葉市中央区,新千葉２丁目３番１号１０１,,12,101,2600031,,,,,,,2024-03-04,1,,,,,アズレジス,0
1923,9050001054379,新規,0,2024-03-04,2024-03-04,株式会社ＡＭＲＩＴ,,株式会社,茨城県,神栖市,知手中央３丁目５番５号,,08,232,3140112,,,,,,,2024-03-04,1,,,,,アムリット,0
1925,9060001036871,新規,0,2024-03-04,2024-03-04,株式会社Ｙ’ｓホールディングス,,株式会社,栃木県,宇都宮市,台新田１丁目１番３７号,,09,201,3210104,,,,,,,2024-03-04,1,,,,,ワイズホールディングス,0
1928,9060003004934,新規,0,2024-03-04,2024-03-04,合同会社ティコレル,,合同会社,栃木県,矢板市,沢６２７番地,,09,211,3292132,,,,,,,2024-03-04,1,,,,,ティコレル,0
1931,9070001041458,新規,0,2024-03-04,2024-03-04,株式会社ＳａＲｙｕ,,株式会社,群馬県,太田市,新田小金井町８２８番地５,,10,205,3700303,,,,,,,2024-03-04,1,,,,,サリュー,0
1933,9070003005295,新規,0,2024-03-04,2024-03-04,ＣＨ．ＮＡＺＩＭ　ＴＲＡＤＩＮＧ合同会社,,合同会社,群馬県,太田市,浜町５８番２５号Ｆハイツ２０２,,10,205,3730853,,,,,,,2024-03-04,1,,,,,シーエイチナジムトレーディング,0
1938,9080001026160,新規,0,2024-03-04,2024-03-04,株式会社ｇｌｏｂｅ,,株式会社,静岡県,静岡市清水区,草薙一里山３番３８号,,22,103,4240884,,,,,,,2024-03-04,1,,,,,グローブ,0
1941,9080103002976,新規,0,2024-03-04,2024-03-04,合同会社ｈｉｄａｍａｒｉ,,合同会社,静岡県,伊豆の国市,三福１４７番地の１,,22,225,4102321,,,,,,,2024-03-04,1,,,,,ヒダマリ,0
1950,9110001038210,新規,0,2024-03-04,2024-03-04,株式会社エネリープ,,株式会社,新潟県,燕市,吉田堤町３番３３号,,15,213,9590237,,,,,,,2024-03-04,1,,,,,エネリープ,0
1959,9120001262775,新規,0,2024-03-04,2024-03-04,ｓｔａｎｄａｒｄ株式会社,,株式会社,大阪府,大阪市大正区,三軒家西３丁目４番１６号中山ビル２１３Ｂ,,27,108,5510001,,,,,,,2024-03-04,1,,,,,スタンダード,0
1960,9120001262783,新規,0,2024-03-04,2024-03-04,行健株式会社,,株式会社,大阪府,大阪市西成区,北津守２丁目５番５－１号,,27,122,5570061,,,,,,,2024-03-04,1,,,,,ユキタケ,0
1961,9120001262800,新規,0,2024-03-04,2024-03-04,株式会社感情力学研究所,,株式会社,大阪府,大阪市北区,梅田１丁目２番２号大阪駅前第２ビル１２－１２,,27,127,5300001,,,,,,,2024-03-04,1,,,,,カンジョウリキガクケンキュウジョ,0
1966,9120003026030,新規,0,2024-03-04,2024-03-04,合同会社忍々,,合同会社,大阪府,大阪市西区,本田１丁目５番６－１０６号,,27,106,5500022,,,,,,,2024-03-04,1,,,,,ニンニン,0
1968,9120101069154,新規,0,2024-03-04,2024-03-04,株式会社大知電設,,株式会社,大阪府,堺市北区,常磐町３丁２０番地９,,27,146,5918001,,,,,,,2024-03-04,1,,,,,ダイチデンセツ,0
1976,9122001037868,新規,0,2024-03-04,2024-03-04,Ｄ．ＦＬＥＸ株式会社,,株式会社,大阪府,八尾市,美園町２丁目１０,,27,212,5810818,,,,,,,2024-03-04,1,,,,,ディーフレックス,0
1977,9122003002812,新規,0,2024-03-04,2024-03-04,ＮＢジャパン合同会社,,合同会社,大阪府,大東市,北条７丁目１６－１０,,27,218,5740011,,,,,,,2024-03-04,1,,,,,エヌビージャパン,0
1987,9130001076480,新規,0,2024-03-04,2024-03-04,小林化学株式会社,,株式会社,京都府,京都市伏見区,深草西浦町５丁目３８,,26,109,6120029,,,,,,,2024-03-04,1,,,,,コバヤシカガク,0
1990,9140001133396,新規,0,2024-03-04,2024-03-04,株式会社ＦＩＲＥＢＯＸ,,株式会社,兵庫県,尼崎市,東難波町５丁目８番２６号９階,,28,202,6600892,,,,,,,2024-03-04,1,,,,,ファイヤーボックス,0
1991,9140001133529,新規,0,2024-03-04,2024-03-04,株式会社山口企画,,株式会社,兵庫県,朝来市,和田山町寺谷３５３番地１,,28,225,6695203,,,,,,,2024-03-04,1,,,,,ヤマグチキカク,0
1992,9150001027102,新規,0,2024-03-04,2024-03-04,株式会社やまもり企画,,株式会社,奈良県,生駒市,俵口町８１４番１号,,29,209,6300243,,,,,,,2024-03-04,1,,,,,ヤマモリキカク,0
1994,9170005007073,新規,0,2024-03-04,2024-03-04,一般社団法人未来創生塾,,その他の設立登記法人,和歌山県,新宮市,仲之町３丁目１番地の５,,30,207,6470018,,,,,,,2024-03-04,1,,,,,ミライソウセイジュク,0
2000,9180301038366,新規,0,2024-03-04,2024-03-04,中央プランテックエンジニアリング株式会社,,株式会社,愛知県,刈谷市,野田町馬池３番地１８,,23,210,4480803,,,,,,,2024-03-04,1,,,,,チュウオウプランテックエンジニアリング,0
2002,9190003004590,新規,0,2024-03-04,2024-03-04,合同会社ＳＴＫサポート,,合同会社,三重県,鈴鹿市,南堀江１丁目８番２６号,,24,207,5130046,,,,,,,2024-03-04,1,,,,,エスティケイサポート,0
2008,9240001062866,新規,0,2024-03-04,2024-03-04,アート・エイト株式会社,,株式会社,広島県,広島市東区,牛田新町３丁目１９番３７－３０６号,,34,102,7320068,,,,,,,2024-03-04,1,,,,,アートエイト,0
2026,9290001104952,新規,0,2024-03-04,2024-03-04,株式会社ピージェイエヌ,,株式会社,福岡県,福岡市博多区,博多駅前４丁目１６番６号,,40,132,8120011,,,,,,,2024-03-04,1,,,,,ピージェイエヌ,0
2028,9290003015017,新規,0,2024-03-04,2024-03-04,合同会社ｕｒａｎａｉｓｕ,,合同会社,福岡県,福岡市城南区,別府３丁目１７－３ステイタス別府アクシス１２０１,,40,136,8140104,,,,,,,2024-03-04,1,,,,,ウラナイス,0
2031,9300001013631,新規,0,2024-03-04,2024-03-04,株式会社ａｍ,,株式会社,佐賀県,伊万里市,二里町八谷搦１３３９番地,,41,205,8480031,,,,,,,2024-03-04,1,,,,,アム,0
2033,9340001026340,新規,0,2024-03-04,2024-03-04,株式会社Ａｒｔｓ＆Ｇｏｌｄ,,株式会社,鹿児島県,鹿児島市,南新町７番３８号,,46,201,8900085,,,,,,,2024-03-04,1,,,,,アーツアンドゴールド,0
2037,9350003004582,新規,0,2024-03-04,2024-03-04,合同会社ａｉシス,,合同会社,宮崎県,宮崎市,佐土原町下田島１１８８０番地２,,45,201,8800211,,,,,,,2024-03-04,1,,,,,アイシス,0
2046,9420001018610,新規,0,2024-03-04,2024-03-04,ＨＩＲＡＹＡＭＡホールディングス株式会社,,株式会社,青森県,北津軽郡中泊町,大字今泉字神山５９番地１,,02,387,0370301,,,,,,,2024-03-04,1,,,,,ヒラヤマホールディングス,0
2050,9430001091169,新規,0,2024-03-04,2024-03-04,華武偉株式会社,,株式会社,北海道,札幌市豊平区,美園七条２丁目１番２号,,01,105,0620007,,,,,,,2024-03-04,1,,,,,カムイ,0
2051,9430001091202,新規,0,2024-03-04,2024-03-04,株式会社ノースポート,,株式会社,北海道,札幌市中央区,南一条西２８丁目１番３－７０４号,,01,101,0640801,,,,,,,2024-03-04,1,,,,,ノースポート,0
2059,9700150123653,新規,0,2024-03-04,2024-01-26,県営ほ場整備事業西興野地区協力会,,その他,山形県,東田川郡庄内町,狩川字殿田１－１,,06,428,9996601,,,,,,,2024-01-26,1,,,,,ケンエイホジヨウセイビジギヨウニシコウヤチクキヨウリヨクカイ,0
2060,9700150124288,新規,0,2024-03-04,2024-03-04,Ｖｉｒ　Ｖｅｎｔｕｒｅｓ　ＩＮＣ,,外国会社等,,,,,,,,１４９３２，Ｋｕｙｋｅｎｄａｈｌ　ＲＤ，Ｈｏｕｓｔｏｎ，ＴＸ，７７０９０,,,,,,2024-03-04,1,,,,,ウィルベンシャーインコーポレイテッド,0
