sequenceNumber,corporateNumber,process,correct,updateDate,changeDate,name,nameImageId,kind,prefectureName,cityName,streetNumber,addressImageId,prefectureCode,cityCode,postCode,addressOutside,addressOutsideImageId,closeDate,closeCause,successorCorporateNumber,changeCause,assignmentDate,latest,enName,enPrefectureName,enCityName,enAddressOutside,furigana,hihyoji
9,1010001253074,新規,0,2025-03-18,2025-03-18,株式会社ＳＨＩＰ第１０１３号,,株式会社,東京都,千代田区,丸の内２丁目７番２号,,13,101,1000005,,,,,,,2025-03-18,1,,,,,エスエイチアイピーダイセンジュウサンゴウ,0
10,1010001253132,新規,0,2025-03-18,2025-03-18,株式会社楽草花,,株式会社,東京都,千代田区,岩本町２丁目１８番１６－１１０１号,,13,101,1010032,,,,,,,2025-03-18,1,,,,,タソカ,0
11,1010001253165,新規,0,2025-03-18,2025-03-18,株式会社Ｙ＆Ｍ,,株式会社,東京都,中央区,築地１丁目１２番１３－２０１号,,13,102,1040045,,,,,,,2025-03-18,1,,,,,ワイアンドエム,0
14,1010003046773,新規,0,2025-03-18,2025-03-18,ＬＶＣファンド２５号合同会社,,合同会社,東京都,千代田区,紀尾井町３－８第２紀尾井町ビル９０１アクシス綜合会計事務所内,,13,101,1020094,,,,,,,2025-03-18,1,,,,,エルブイシーファンドニジュウゴゴウ,0
17,1010401188903,新規,0,2025-03-18,2025-03-18,株式会社トリカイ,,株式会社,東京都,港区,南青山３丁目１番３６号６Ｆ,,13,103,1070062,,,,,,,2025-03-18,1,,,,,トリカイ,0
20,1010403034650,新規,0,2025-03-18,2025-03-18,Ａｘｉｓ合同会社,,合同会社,東京都,港区,三田５丁目８－８－１０１,,13,103,1080073,,,,,,,2025-03-18,1,,,,,アクシス,0
24,1010601066966,新規,0,2025-03-18,2025-03-18,株式会社ソラリスパワー,,株式会社,東京都,江東区,有明３丁目６番１１号ＴＦＴビル東館９Ｆ西１,,13,108,1350063,,,,,,,2025-03-18,1,,,,,ソラリスパワー,0
31,1010701047412,新規,0,2025-03-18,2025-03-18,民泊ＳＨＯＧＵＮ株式会社,,株式会社,東京都,品川区,西五反田２丁目３１番５号,,13,109,1410031,,,,,,,2025-03-18,1,,,,,ミンパクショーグン,0
32,1010701047420,新規,0,2025-03-18,2025-03-18,株式会社エムジー,,株式会社,東京都,品川区,戸越３丁目１番１５－４０４号,,13,109,1420041,,,,,,,2025-03-18,1,,,,,エムジー,0
41,1011001168320,新規,0,2025-03-18,2025-03-18,ＭＩＴ株式会社,,株式会社,東京都,渋谷区,渋谷２丁目１９－１５宮益坂ビルディング６０９,,13,113,1500002,,,,,,,2025-03-18,1,,,,,エムアイティー,0
44,1011003021155,新規,0,2025-03-18,2025-03-18,ａｂｉｙｏ合同会社,,合同会社,東京都,渋谷区,道玄坂１丁目１０番８号渋谷道玄坂東急ビル２Ｆ－Ｃ,,13,113,1500043,,,,,,,2025-03-18,1,,,,,アビヨ,0
46,1011101111007,新規,0,2025-03-18,2025-03-18,エイルハース株式会社,,株式会社,東京都,新宿区,大京町５番地２アーリーバード四谷大京町１０２,,13,104,1600015,,,,,,,2025-03-18,1,,,,,エイルハース,0
48,1011201026187,新規,0,2025-03-18,2025-03-18,株式会社芸術創新,,株式会社,東京都,中野区,鷺宮６丁目２６－１９,,13,114,1650032,,,,,,,2025-03-18,1,,,,,ゲイジュツソウシン,0
50,1011303005460,新規,0,2025-03-18,2025-03-18,ＣＹＰＨＩＡ合同会社,,合同会社,東京都,杉並区,清水１丁目４番１３号,,13,115,1670033,,,,,,,2025-03-18,1,,,,,サイフィア,0
56,1011501031837,新規,0,2025-03-18,2025-03-18,株式会社Ｊ‐ｔａｓｔｅ　ｃｏｎｓｕｌｔｉｎｇ,,株式会社,東京都,荒川区,東日暮里５丁目５０番５号アートホテル日暮里ラングウッド３Ｆ,,13,118,1160014,,,,,,,2025-03-18,1,,,,,ジェイテイストコンサルティング,0
62,1011601028502,新規,0,2025-03-18,2025-03-18,株式会社ＭＫ　Ｃｏｒｐｏｒａｔｉｏｎ,,株式会社,東京都,練馬区,石神井町３丁目２５－１２－１９０３,,13,120,1770041,,,,,,,2025-03-18,1,,,,,エムケーコーポレーション,0
63,1011601028510,新規,0,2025-03-18,2025-03-18,株式会社ａｌｂａ　ｃｏｃｃａ,,株式会社,東京都,練馬区,豊玉上２丁目２７番１号フラッツ宇佐美４０１,,13,120,1760011,,,,,,,2025-03-18,1,,,,,アルバコッカ,0
67,1012403007025,新規,0,2025-03-18,2025-03-18,合同会社エンカウンター,,合同会社,東京都,武蔵野市,吉祥寺本町３丁目１番１５号２Ｆ,,13,203,1800004,,,,,,,2025-03-18,1,,,,,エンカウンター,0
78,1020001161821,新規,0,2025-03-18,2025-03-18,クラシノ株式会社,,株式会社,神奈川県,横浜市緑区,十日市場町８２６－７,,14,113,2260025,,,,,,,2025-03-18,1,,,,,クラシノ,0
82,1021001084756,新規,0,2025-03-18,2025-03-18,ＨＭ　ＲＥＳＯＲＴ株式会社,,株式会社,神奈川県,三浦市,天神町１１番２５号,,14,210,2380241,,,,,,,2025-03-18,1,,,,,エイチエムリゾート,0
83,1021002048165,新規,0,2025-03-18,2025-03-18,有限会社三ツ吉商事,,有限会社,神奈川県,海老名市,社家１８５番地,,14,215,2430424,,,,,,,2025-03-18,1,,,,,,0
98,1030001165326,新規,0,2025-03-18,2025-03-18,株式会社ピジョンプロ,,株式会社,埼玉県,川口市,西川口１丁目５－２０－４Ａ－９号室,,11,203,3320021,,,,,,,2025-03-18,1,,,,,ピジョンプロ,0
99,1030001165458,新規,0,2025-03-18,2025-03-18,イーストエスメディカル株式会社,,株式会社,埼玉県,さいたま市緑区,芝原３丁目３２番地８,,11,109,3360917,,,,,,,2025-03-18,1,,,,,イーストエスメディカル,0
100,1030001165474,新規,0,2025-03-18,2025-03-18,株式会社タック,,株式会社,埼玉県,春日部市,下柳１９０５番３０,,11,214,3440122,,,,,,,2025-03-18,1,,,,,タック,0
111,1040001137869,新規,0,2025-03-18,2025-03-18,モデストリフォーム株式会社,,株式会社,千葉県,柏市,東中新宿２丁目１番６号,,12,217,2770061,,,,,,,2025-03-18,1,,,,,モデストリフォーム,0
112,1040001137902,新規,0,2025-03-18,2025-03-18,Ｒプランナー株式会社,,株式会社,千葉県,松戸市,新作１１７２番地の１ハイム新作１０６,,12,207,2710052,,,,,,,2025-03-18,1,,,,,アールプランナー,0
113,1040003027093,新規,0,2025-03-18,2025-03-18,合同会社ＳＣｉ,,合同会社,千葉県,柏市,常盤台１－１４－２０３,,12,217,2770087,,,,,,,2025-03-18,1,,,,,スシィ,0
114,1050001056341,新規,0,2025-03-18,2025-03-18,株式会社Ｌｉｆｅ,,株式会社,茨城県,つくば市,花室１６３４番地１,,08,220,3050025,,,,,,,2025-03-18,1,,,,,ライフ,0
123,1060005010310,新規,0,2025-03-18,2025-03-18,農事組合法人ＹＤカンパニー,,その他の設立登記法人,栃木県,矢板市,富田５３１－１０,,09,211,3292145,,,,,,,2025-03-18,1,,,,,ワイディカンパニー,0
125,1080101025383,新規,0,2025-03-18,2025-03-18,いろはアウトドア株式会社,,株式会社,静岡県,田方郡函南町,丹那９９７番地,,22,325,4190105,,,,,,,2025-03-18,1,,,,,イロハアウトドア,0
133,1100003008038,新規,0,2025-03-18,2025-03-18,合同会社みらいの種,,合同会社,長野県,佐久市,春日５９０６番地３８,,20,217,3842205,,,,,,,2025-03-18,1,,,,,ミライノタネ,0
141,1120001273656,新規,0,2025-03-18,2025-03-18,星＿嘉株式会社,00138388,株式会社,大阪府,大阪市港区,八幡屋３丁目５－１－３０５室,,27,107,5520014,,,,,,,2025-03-18,1,,,,,セイコウカ,0
142,1120001273706,新規,0,2025-03-18,2025-03-18,株式会社ステッチジャパン,,株式会社,大阪府,大阪市平野区,西脇２丁目８番１６号,,27,126,5470035,,,,,,,2025-03-18,1,,,,,ステッチジャパン,0
143,1120001273722,新規,0,2025-03-18,2025-03-18,株式会社ＧＨＰ　ｉｎｔｅｒｎａｔｉｏｎａｌ,,株式会社,大阪府,大阪市中央区,道頓堀２丁目１‐８ＺＥＬＫＯＶＡＴＲＥ３Ｆ,,27,128,5420071,,,,,,,2025-03-18,1,,,,,ジーエイチピーインターナショナル,0
144,1120001273730,新規,0,2025-03-18,2025-03-18,株式会社Ｎｅｗ　Ｓｗｅｌｌ,,株式会社,大阪府,枚方市,伊加賀西町３５番３号,,27,210,5730066,,,,,,,2025-03-18,1,,,,,ニュースウェル,0
145,1120001273788,新規,0,2025-03-18,2025-03-18,株式会社アイシィコーポレーション,,株式会社,大阪府,大阪市西区,西本町１丁目１１番１号８Ｆ,,27,106,5500005,,,,,,,2025-03-18,1,,,,,アイシィコーポレーション,0
146,1120001273813,新規,0,2025-03-18,2025-03-18,銭程株式会社,,株式会社,大阪府,大阪市東成区,中本５丁目１５番１３号,,27,115,5370022,,,,,,,2025-03-18,1,,,,,センテイ,0
147,1120001273862,新規,0,2025-03-18,2025-03-18,株式会社松下管財,,株式会社,大阪府,大阪市港区,三先１丁目１０番３４号,,27,107,5520016,,,,,,,2025-03-18,1,,,,,マツシタカンザイ,0
149,1120003028843,新規,0,2025-03-18,2025-03-18,系統引導伝習院合同会社,,合同会社,大阪府,大阪市天王寺区,寺田町２丁目５－６－８０６室,,27,109,5430045,,,,,,,2025-03-18,1,,,,,ケイトウインドウデンシュウイン,0
150,1120003028876,新規,0,2025-03-18,2025-03-18,合同会社Ｋ＆Ｋ,,合同会社,大阪府,大阪市中央区,高津３丁目１６番１１号オロヒルズ２０２号,,27,128,5420072,,,,,,,2025-03-18,1,,,,,ケーアンドケー,0
151,1120003028884,新規,0,2025-03-18,2025-03-18,合同会社４０３,,合同会社,大阪府,大阪市平野区,長吉長原東３丁目２－３４－３０２,,27,126,5470013,,,,,,,2025-03-18,1,,,,,ヨンマルサン,0
152,1120003028892,新規,0,2025-03-18,2025-03-18,合同会社スタジオシックス,,合同会社,大阪府,大阪市中央区,博労町４丁目６番１７号第三丸米ビル１０１,,27,128,5410059,,,,,,,2025-03-18,1,,,,,スタジオシックス,0
155,1120101071258,新規,0,2025-03-18,2025-03-18,株式会社アイピーエンジニアリング,,株式会社,大阪府,堺市東区,菩提町３丁６番地１４,,27,143,5998103,,,,,,,2025-03-18,1,,,,,アイピーエンジニアリング,0
156,1120101071266,新規,0,2025-03-18,2025-03-18,株式会社ＦＡＭＴ,,株式会社,大阪府,高石市,羽衣４丁目１番５号,,27,225,5920002,,,,,,,2025-03-18,1,,,,,ファムト,0
157,1120101071274,新規,0,2025-03-18,2025-03-18,株式会社アーツ,,株式会社,大阪府,高石市,高師浜３丁目５番１５号,,27,225,5920004,,,,,,,2025-03-18,1,,,,,アーツ,0
160,1120901050584,新規,0,2025-03-18,2025-03-18,株式会社ＣＵＲＥＳＯＬ,,株式会社,大阪府,吹田市,千里丘北１番３－８号,,27,205,5650815,,,,,,,2025-03-18,1,,,,,キュアソル,0
161,1120905006698,新規,0,2025-03-18,2025-03-18,特定非営利活動法人みなせ野文化を継ぐ会,,その他の設立登記法人,大阪府,三島郡島本町,広瀬３丁目１０番２４号,,27,301,6180011,,,,,,,2025-03-18,1,,,,,ミナセノブンカヲツグカイ,0
163,1130001079185,新規,0,2025-03-18,2025-03-18,株式会社都美野,,株式会社,京都府,京都市右京区,嵯峨天龍寺芒ノ馬場町２２番地,,26,108,6168385,,,,,,,2025-03-18,1,,,,,ミヤビノ,0
167,1130003010296,新規,0,2025-03-18,2025-03-18,合同会社ウェルキュア,,合同会社,京都府,京都市下京区,朱雀裏畑町１０番１,,26,106,6008844,,,,,,,2025-03-18,1,,,,,ウェルキュア,0
170,1140001137743,新規,0,2025-03-18,2025-03-18,株式会社Ｍｅｘｙｚ,,株式会社,兵庫県,明石市,西明石北町３丁目２２番２号,,28,203,6730018,,,,,,,2025-03-18,1,,,,,メクシーズ,0
171,1140001137801,新規,0,2025-03-18,2025-03-18,株式会社ＭＡＹＫＡＮ　ＭＯＴＯＲＳ,,株式会社,兵庫県,三木市,口吉川町笹原６４,,28,215,6730757,,,,,,,2025-03-18,1,,,,,マイカンモーターズ,0
172,1140001137818,新規,0,2025-03-18,2025-03-18,エクセレントホスピタリティ株式会社,,株式会社,兵庫県,神戸市長田区,久保町６丁目１番１号,,28,106,6530041,,,,,,,2025-03-18,1,,,,,エクセレントホスピタリティ,0
175,1150001027968,新規,0,2025-03-18,2025-03-18,株式会社ＳＪトラックス,,株式会社,奈良県,葛城市,竹内３７３番地１,,29,211,6392155,,,,,,,2025-03-18,1,,,,,エスジェイトラックス,0
176,1160003003421,新規,0,2025-03-18,2025-03-18,合同会社和匠,,合同会社,滋賀県,長浜市,相撲町１１００番２０,,25,203,5260017,,,,,,,2025-03-18,1,,,,,ワショウ,0
180,1180001165674,新規,0,2025-03-18,2025-03-18,株式会社クリエイティブビジョンズ,,株式会社,愛知県,名古屋市中区,錦１丁目７番４２号リアライズ錦２０３号,,23,106,4600003,,,,,,,2025-03-18,1,,,,,クリエイティブビジョンズ,0
181,1180001165798,新規,0,2025-03-18,2025-03-18,Ａ　Ｌｕｃｋｙコンサルティング株式会社,,株式会社,愛知県,名古屋市中村区,名駅南２丁目７番８号ＮＡＧＯＹＡｔｈｅＴＯＷＥＲ７１３号,,23,105,4500003,,,,,,,2025-03-18,1,,,,,アラッキーコンサルティング,0
182,1180001165864,新規,0,2025-03-18,2025-03-18,株式会社ＤＡＩＫＩ　ＪＡＰＡＮ,,株式会社,愛知県,東海市,養父町釈迦御堂１番地１２,,23,222,4770034,,,,,,,2025-03-18,1,,,,,ダイキジャパン,0
183,1180001165872,新規,0,2025-03-18,2025-03-18,ｓ‐ｓｏｌｉｄ株式会社,,株式会社,愛知県,名古屋市中村区,椿町１３番１６号,,23,105,4530015,,,,,,,2025-03-18,1,,,,,エスソリッド,0
184,1180001165914,新規,0,2025-03-18,2025-03-18,株式会社ＰＥＡＣＥ　ＣＬＥＡＮ,,株式会社,愛知県,犬山市,前原南１丁目５６番２,,23,215,4840063,,,,,,,2025-03-18,1,,,,,ピースクリーン,0
185,1180001165930,新規,0,2025-03-18,2025-03-18,Ｋ＆Ｙ株式会社,,株式会社,愛知県,名古屋市東区,東桜１丁目２番２５号野々山ビル２Ｄ,,23,102,4610005,,,,,,,2025-03-18,1,,,,,ケーアンドワイ,0
188,1180301039628,新規,0,2025-03-18,2025-03-18,株式会社Ｌｅａ,,株式会社,愛知県,豊田市,大林町１６丁目１６番地１１,,23,211,4730902,,,,,,,2025-03-18,1,,,,,レア,0
190,1180303006493,新規,0,2025-03-18,2025-03-18,そらなん合同会社,,合同会社,愛知県,知立市,新林町新林４０－９,,23,225,4720017,,,,,,,2025-03-18,1,,,,,ソラナン,0
195,1200001043547,新規,0,2025-03-18,2025-03-18,株式会社科域商事,,株式会社,岐阜県,安八郡神戸町,大字神戸８７６番地の１,,21,381,5032305,,,,,,,2025-03-18,1,,,,,カイキショウジ,0
201,1230003002390,新規,0,2025-03-18,2025-03-18,合同会社ｇｏｏｄ,,合同会社,富山県,下新川郡入善町,入膳５２３２番地１７,,16,342,9390626,,,,,,,2025-03-18,1,,,,,グッド,0
205,1260001040027,新規,0,2025-03-18,2025-03-18,株式会社ＡＫプランニング,,株式会社,岡山県,岡山市北区,大安寺南町１丁目８番５０号,,33,101,7000064,,,,,,,2025-03-18,1,,,,,エーケープランニング,0
208,1290003016518,新規,0,2025-03-18,2025-03-18,合同会社ＳＴＥＬＬＡ,,合同会社,福岡県,飯塚市,相田１５４８番地,,40,205,8200052,,,,,,,2025-03-18,1,,,,,ステラ,0
213,1330001032974,新規,0,2025-03-18,2025-03-18,株式会社篤樹,,株式会社,熊本県,上益城郡益城町,大字赤井２６８４番地,,43,443,8612221,,,,,,,2025-03-18,1,,,,,アツキ,0
214,1330001032990,新規,0,2025-03-18,2025-03-18,株式会社フレッシュアグリホールディングス,,株式会社,熊本県,熊本市南区,海路口町２４２３番地,,43,104,8614124,,,,,,,2025-03-18,1,,,,,フレッシュアグリホールディングス,0
221,1350001019441,新規,0,2025-03-18,2025-03-18,株式会社たまの農園出荷組合,,株式会社,宮崎県,宮崎市,大字島之内３１２７番地,,45,201,8800121,,,,,,,2025-03-18,1,,,,,タマノノウエンシュッカクミアイ,0
222,1360001034910,新規,0,2025-03-18,2025-03-18,株式会社ＴＯＫＵ徳,,株式会社,沖縄県,名護市,字三原１９３－５,,47,209,9052264,,,,,,,2025-03-18,1,,,,,トクトク,0
226,1370003006980,新規,0,2025-03-18,2025-03-18,合同会社ＤＯＭＯＮＥ,,合同会社,宮城県,大崎市,三本木字しらとり１２番地６,,04,215,9896321,,,,,,,2025-03-18,1,,,,,ドモネ,0
227,1370003006989,新規,0,2025-03-18,2025-03-18,合同会社ＳＫ,,合同会社,宮城県,仙台市宮城野区,田子１丁目２７番６号,,04,102,9830021,,,,,,,2025-03-18,1,,,,,エスケイ,0
230,1380001035155,新規,0,2025-03-18,2025-03-18,株式会社ふくろう,,株式会社,福島県,西白河郡西郷村,大字小田倉字後原４５番地９,,07,461,9618061,,,,,,,2025-03-18,1,,,,,フクロウ,0
231,1380005012935,新規,0,2025-03-18,2025-03-18,特定非営利活動法人コドモスター,,その他の設立登記法人,福島県,郡山市,字名倉５８番地,,07,203,9638845,,,,,,,2025-03-18,1,,,,,コドモスター,0
233,1420001019054,新規,0,2025-03-18,2025-03-18,株式会社倉橋鍛冶工業,,株式会社,青森県,八戸市,長苗代３丁目９番１８号,,02,203,0391103,,,,,,,2025-03-18,1,,,,,クラハシカジコウギョウ,0
236,1430001093957,新規,0,2025-03-18,2025-03-18,武建築企画株式会社,,株式会社,北海道,札幌市東区,北二十二条東１丁目１番５０号,,01,103,0650022,,,,,,,2025-03-18,1,,,,,タケケンチクキカク,0
239,1430003017410,新規,0,2025-03-18,2025-03-18,ラボンホーム合同会社,,合同会社,北海道,苫小牧市,新中野町３丁目３番１３－３０２号,,01,213,0530006,,,,,,,2025-03-18,1,,,,,ラボンホーム,0
242,1460301005287,新規,0,2025-03-18,2025-03-18,株式会社カウルス,,株式会社,北海道,北見市,東相内町６１５番地３,,01,208,0990878,,,,,,,2025-03-18,1,,,,,カウルス,0
243,1470001020619,新規,0,2025-03-18,2025-03-18,デイズデザイン株式会社,,株式会社,香川県,丸亀市,山北町４３５番地５,,37,202,7630072,,,,,,,2025-03-18,1,,,,,デイズデザイン,0
244,1470001020635,新規,0,2025-03-18,2025-03-18,株式会社ＢＥＡＮＳ,,株式会社,香川県,東かがわ市,湊１８７３番地１,,37,207,7692701,,,,,,,2025-03-18,1,,,,,ビーンズ,0
248,1700150129633,新規,0,2025-03-18,2025-03-18,ｓｈｅｎｚｈｅｎｓｈｉｈｕａｒｕｉｊｉａｊｕｙｏｕｘｉａｎｚｅｒｅｎｇｏｎｇｓｉ,,外国会社等,,,,,,,,ｌｏｎｇｇａｎｇｑｕｙｕａｎｓｈａｎｊｉｅｄａｏｘｉｋｅｎｇｓｈｅｑｕａｎｌｉａｎｇｌｕ１ｈａｏ１０２　ｓｈｅｎｚｈｅｎｓｈｉ　ＣＮ,,,,,,2025-03-18,1,,,,,シンセンシホゥアルイジャジュユウゲンセキニンコウシ,0
255,2010001253073,新規,0,2025-03-18,2025-03-18,株式会社ＳＨＩＰ第１０１２号,,株式会社,東京都,千代田区,丸の内２丁目７番２号,,13,101,1000005,,,,,,,2025-03-18,1,,,,,エスエイチアイピーダイセンジュウニゴウ,0
258,2010005039766,新規,0,2025-03-18,2025-03-18,一般社団法人日本大学ゴルフ部サポート倶楽部,,その他の設立登記法人,東京都,千代田区,大手町１丁目６番１号,,13,101,1000004,,,,,,,2025-03-18,1,,,,,ニホンダイガクゴルフブサポートクラブ,0
262,2010401188910,新規,0,2025-03-18,2025-03-18,ソシオークヒューテック株式会社,,株式会社,東京都,港区,三田３丁目５番１９号住友不動産東京三田ガーデンタワー,,13,103,1080073,,,,,,,2025-03-18,1,,,,,ソシオークヒューテック,0
263,2010401188919,新規,0,2025-03-18,2025-03-18,Ｎｅｘｔ　Ｖｉｓｉｏｎ株式会社,,株式会社,東京都,港区,南青山３丁目１番３６号青山丸竹ビル６Ｆ,,13,103,1070062,,,,,,,2025-03-18,1,,,,,ネクストビジョン,0
264,2010403034641,新規,0,2025-03-18,2025-03-18,合同会社Ｆａｍｕｌｉｔｅ　Ｌａｂ．,,合同会社,東京都,港区,南青山２丁目２－１５ＷＩＮ青山５３１,,13,103,1070062,,,,,,,2025-03-18,1,,,,,ファミュライトラボ,0
265,2010501053799,新規,0,2025-03-18,2025-03-18,株式会社Ｍｉｙｏｓｅｐｔ,,株式会社,東京都,台東区,北上野２丁目５番３－１００２号ザ・パークハウス上野プレイス,,13,106,1100014,,,,,,,2025-03-18,1,,,,,ミヨセプト,0
266,2010501053808,新規,0,2025-03-18,2025-03-18,株式会社ＭＴ＆Ｄ,,株式会社,東京都,台東区,下谷３丁目１番２４号３１０号室,,13,106,1100004,,,,,,,2025-03-18,1,,,,,エムティアンドディ,0
267,2010501053816,新規,0,2025-03-18,2025-03-18,共立ＡＴＳホールディングス株式会社,,株式会社,東京都,台東区,台東２丁目１番１号,,13,106,1100016,,,,,,,2025-03-18,1,,,,,キョウリツエーティーエスホールディングス,0
270,2010603011449,新規,0,2025-03-18,2025-03-18,東商合同会社,,合同会社,東京都,江東区,東雲１丁目５番３５号,,13,108,1350062,,,,,,,2025-03-18,1,,,,,トウショウ,0
272,2010705003740,新規,0,2025-03-18,2025-03-18,一般社団法人ＳＳダンスネットワーク,,その他の設立登記法人,東京都,品川区,東五反田５丁目２番３７－３０５号,,13,109,1410022,,,,,,,2025-03-18,1,,,,,エスエスダンスネットワーク,0
277,2011003021146,新規,0,2025-03-18,2025-03-18,合同会社セルペンティ,,合同会社,東京都,渋谷区,富ヶ谷１丁目３番８号第２２ＳＹビル４０１,,13,113,1510063,,,,,,,2025-03-18,1,,,,,セルペンティ,0
283,2011101111006,新規,0,2025-03-18,2025-03-18,アルマ株式会社,,株式会社,東京都,新宿区,西新宿３丁目３番１３号,,13,104,1600023,,,,,,,2025-03-18,1,,,,,アルマ,0
284,2011101111063,新規,0,2025-03-18,2025-03-18,株式会社ＫＡＹＯＩＳＭ,,株式会社,東京都,新宿区,西新宿４丁目３２‐１１セントビラ永谷２０７,,13,104,1600023,,,,,,,2025-03-18,1,,,,,カヨイズム,0
285,2011103015634,新規,0,2025-03-18,2025-03-18,白天馬幻想合同会社,,合同会社,東京都,新宿区,百人町１丁目５‐２４リベルタ新宿３０４号室,,13,104,1690073,,,,,,,2025-03-18,1,,,,,ペガサスファンタジー,0
287,2011201026203,新規,0,2025-03-18,2025-03-18,三宝株式会社,,株式会社,東京都,中野区,本町５丁目２４－１１－４０２室,,13,114,1640012,,,,,,,2025-03-18,1,,,,,サンポウ,0
293,2011501031836,新規,0,2025-03-18,2025-03-18,株式会社ＳＵＺＵＴＥＣ,,株式会社,東京都,北区,滝野川７丁目３８番６号,,13,117,1140023,,,,,,,2025-03-18,1,,,,,スズテック,0
297,2011801045817,新規,0,2025-03-18,2025-03-18,株式会社Ｏｉａｌｃ,,株式会社,東京都,足立区,竹の塚６丁目１５－１ウイングス竹の塚２０２－Ｂ,,13,121,1210813,,,,,,,2025-03-18,1,,,,,オイアルク,0
299,2012701018755,新規,0,2025-03-18,2025-03-18,株式会社竹株防水,,株式会社,東京都,東村山市,栄町３丁目４番地１８パテラスクエア久米川４０１,,13,213,1890013,,,,,,,2025-03-18,1,,,,,タケカブボウスイ,0
300,2012703003219,新規,0,2025-03-18,2025-03-18,結キャピタル合同会社,,合同会社,東京都,清瀬市,元町２丁目６番１６号,,13,221,2040021,,,,,,,2025-03-18,1,,,,,ユウキャピタル,0
303,2013101009650,新規,0,2025-03-18,2025-03-18,株式会社オピト,,株式会社,東京都,西多摩郡奥多摩町,氷川８１４番地１,,13,308,1980212,,,,,,,2025-03-18,1,,,,,オピト,0
304,2013301053928,新規,0,2025-03-18,2025-03-18,株式会社ルビジョン,,株式会社,東京都,豊島区,池袋１丁目２番６号ベルメゾン池袋３０３号室,,13,116,1700014,,,,,,,2025-03-18,1,,,,,ルビジョン,0
312,2020001161878,新規,0,2025-03-18,2025-03-18,株式会社Ｇｒａｎｄｅ　Ｐｒｏｇｒｅｓｓｏ,,株式会社,神奈川県,横浜市神奈川区,金港町５－１４クアドリフォリオ８階,,14,102,2210056,,,,,,,2025-03-18,1,,,,,グランデプログレッソ,0
313,2020001161886,新規,0,2025-03-18,2025-03-18,株式会社ｂｏｎｄ．,,株式会社,神奈川県,横浜市鶴見区,仲通３丁目７３番地７マルナカビル４０１,,14,101,2300042,,,,,,,2025-03-18,1,,,,,ボンド,0
314,2020001161944,新規,0,2025-03-18,2025-03-18,株式会社フーディニアアソシエーション,,株式会社,神奈川県,横浜市青葉区,藤が丘２丁目４番地１プロスパ藤が丘３０１,,14,117,2270043,,,,,,,2025-03-18,1,,,,,フーディニアアソシエーション,0
332,2030001165416,新規,0,2025-03-18,2025-03-18,Ｍｉｚｕｎｏ　ｃｒｅａｔｅ株式会社,,株式会社,埼玉県,さいたま市南区,内谷７丁目８番１－５０４号,,11,108,3360034,,,,,,,2025-03-18,1,,,,,ミズノクリエイト,0
333,2030001165432,新規,0,2025-03-18,2025-03-18,株式会社平田住建,,株式会社,埼玉県,桶川市,大字川田谷６７８９番地の６,,11,231,3630027,,,,,,,2025-03-18,1,,,,,ヒラタジュウケン,0
334,2030001165449,新規,0,2025-03-18,2025-03-18,株式会社ルート,,株式会社,埼玉県,草加市,柳島町６３０,,11,221,3400033,,,,,,,2025-03-18,1,,,,,ルート,0
339,2030003026368,新規,0,2025-03-18,2025-03-18,合同会社ユーエーツー,,合同会社,埼玉県,越谷市,花田４丁目１９番地６カンパーニャミリオーネ２０５号,,11,222,3430015,,,,,,,2025-03-18,1,,,,,ユーエーツー,0
341,2030005022076,新規,0,2025-03-18,2025-03-18,みさと第三住宅団地管理組合法人,,その他の設立登記法人,埼玉県,三郷市,彦成３丁目１３番１３号,,11,237,3410003,,,,,,,2025-03-18,1,,,,,ミサトダイサンジュウタクダンチ,0
352,2040003027084,新規,0,2025-03-18,2025-03-18,ＤＵＣ　ＨＩＥＮ合同会社,,合同会社,千葉県,千葉市中央区,弁天１丁目３０番１号ゴールデンマンション３１３号,,12,101,2600045,,,,,,,2025-03-18,1,,,,,ドゥックヒエン,0
355,2050003009123,新規,0,2025-03-18,2025-03-18,合同会社ミロク,,合同会社,茨城県,ひたちなか市,大成町２９番５号,,08,221,3120055,,,,,,,2025-03-18,1,,,,,ミロク,0
359,2070001042743,新規,0,2025-03-18,2025-03-18,たま商事株式会社,,株式会社,群馬県,太田市,飯田町１５４６番地ポレスター太田駅前サウスレジデンス１１０５号,,10,205,3730851,,,,,,,2025-03-18,1,,,,,タマショウジ,0
365,2080103003270,新規,0,2025-03-18,2025-03-18,合同会社ＥｎｔｈｏｓＨｕｂ,,合同会社,静岡県,賀茂郡南伊豆町,湊７８１番地旧杉並区職員宿舎,,22,304,4150152,,,,,,,2025-03-18,1,,,,,,0
373,2120001273738,新規,0,2025-03-18,2025-03-18,株式会社ＷＡＬＮＵＴ,,株式会社,大阪府,枚方市,南中振２丁目４５番８号,,27,210,5730094,,,,,,,2025-03-18,1,,,,,ウォルナット,0
374,2120001273754,新規,0,2025-03-18,2025-03-18,株式会社Ｄ＆Ｄ．ｃｏｍ,,株式会社,大阪府,大阪市東成区,大今里南１丁目２１番１２－１００８号,,27,115,5370013,,,,,,,2025-03-18,1,,,,,ディーアンドディードットコム,0
375,2120001273770,新規,0,2025-03-18,2025-03-18,株式会社ＳＹＮＱＡＩ,,株式会社,大阪府,大阪市淀川区,西中島３丁目１９番８号新大阪興業ビル４０２,,27,123,5320011,,,,,,,2025-03-18,1,,,,,シンカイ,0
376,2120001273779,新規,0,2025-03-18,2025-03-18,拾壹株式会社,,株式会社,大阪府,大阪市中央区,上町１丁目２５－２－２Ｆ、３Ｆ,,27,128,5400005,,,,,,,2025-03-18,1,,,,,ジュウイチ,0
380,2120003028842,新規,0,2025-03-18,2025-03-18,天蓬合同会社,,合同会社,大阪府,大阪市浪速区,敷津東２丁目４番１７－２４０７号,,27,111,5560012,,,,,,,2025-03-18,1,,,,,テンホウ,0
381,2120003028891,新規,0,2025-03-18,2025-03-18,合同会社Ｅａｒｔｈ,,合同会社,大阪府,大阪市旭区,赤川２丁目５－６－２０５,,27,117,5350005,,,,,,,2025-03-18,1,,,,,アース,0
386,2120101071232,新規,0,2025-03-18,2025-03-18,シンコウエステート株式会社,,株式会社,大阪府,堺市堺区,中之町東３丁１番３１号,,27,141,5900956,,,,,,,2025-03-18,1,,,,,シンコウエステート,0
387,2120101071273,新規,0,2025-03-18,2025-03-18,株式会社ブレイン,,株式会社,大阪府,岸和田市,南町３７番２号,,27,202,5960067,,,,,,,2025-03-18,1,,,,,ブレイン,0
394,2130001079234,新規,0,2025-03-18,2025-03-18,株式会社政治経済研究所,,株式会社,京都府,京都市左京区,一乗寺野田町２１番地１,,26,103,6068165,,,,,,,2025-03-18,1,,,,,セイジケイザイケンキュウジョ,0
399,2140001137742,新規,0,2025-03-18,2025-03-18,株式会社グローバルオート,,株式会社,兵庫県,神戸市兵庫区,楠谷町２番５号,,28,105,6520004,,,,,,,2025-03-18,1,,,,,グローバルオート,0
400,2140001137809,新規,0,2025-03-18,2025-03-18,宇洋商事株式会社,,株式会社,兵庫県,神戸市須磨区,弥栄台２丁目１０番３号,,28,107,6540161,,,,,,,2025-03-18,1,,,,,ウヨウショウジ,0
405,2150001027967,新規,0,2025-03-18,2025-03-18,Ｓｔｒａｉｇｈｔ　ｄｅｓｉｇｎ株式会社,,株式会社,奈良県,香芝市,西真美３丁目８番地７,,29,210,6390222,,,,,,,2025-03-18,1,,,,,ストレイトデザイン,0
406,2160003003420,新規,0,2025-03-18,2025-03-18,合同会社井本ロジスティクス,,合同会社,滋賀県,大津市,雄琴６丁目１９‐２１ラフィーネビワ２０８号室,,25,201,5200101,,,,,,,2025-03-18,1,,,,,イモトロジスティクス,0
415,2180001165896,新規,0,2025-03-18,2025-03-18,株式会社ＡＩＸ,,株式会社,愛知県,名古屋市守山区,桜坂１丁目５２０番地,,23,113,4630018,,,,,,,2025-03-18,1,,,,,アイクス,0
416,2180001165905,新規,0,2025-03-18,2025-03-18,株式会社Ｏｆｆｉｃｅ　Ｌｉｎｋ,,株式会社,愛知県,名古屋市北区,喜惣治１丁目３５２番地の１（プリオール平成２Ｂ号）,,23,103,4620065,,,,,,,2025-03-18,1,,,,,,0
417,2180001165946,新規,0,2025-03-18,2025-03-18,ヒューマンゲート株式会社,,株式会社,愛知県,長久手市,勝入塚２０６番地,,23,238,4801128,,,,,,,2025-03-18,1,,,,,ヒューマンゲート,0
418,2180001165970,新規,0,2025-03-18,2025-03-18,株式会社ＯＲＡＮＧＥ,,株式会社,愛知県,春日井市,高森台１丁目９番地６,,23,206,4870032,,,,,,,2025-03-18,1,,,,,オレンジ,0
421,2180003028119,新規,0,2025-03-18,2025-03-18,合同会社夢暦,,合同会社,愛知県,名古屋市守山区,苗代１丁目１４番１６号,,23,113,4630046,,,,,,,2025-03-18,1,,,,,ユメゴヨミ,0
423,2180301039619,新規,0,2025-03-18,2025-03-18,ラパン不動産株式会社,,株式会社,愛知県,岡崎市,上衣文町字中屋敷３番地１,,23,202,4443504,,,,,,,2025-03-18,1,,,,,ラパンフドウサン,0
424,2180301039635,新規,0,2025-03-18,2025-03-18,株式会社エムジェイスタッフ,,株式会社,愛知県,豊橋市,前田町２丁目１７番地１８,,23,201,4400814,,,,,,,2025-03-18,1,,,,,エムジェイスタッフ,0
430,2260001040026,新規,0,2025-03-18,2025-03-18,株式会社Ｎａｖｙ,,株式会社,岡山県,岡山市北区,今４丁目１－１ダイシン産業ビル２階,,33,101,7000975,,,,,,,2025-03-18,1,,,,,ネイビー,0
434,2290001109339,新規,0,2025-03-18,2025-03-18,株式会社ＯＶＥＬ,,株式会社,福岡県,福岡市東区,唐原５丁目９番２５－２０１号シーズブローテＩＩＩ,00138387,40,131,8130001,,,,,,,2025-03-18,1,,,,,オーベル,0
435,2290001109355,新規,0,2025-03-18,2025-03-18,株式会社引力,,株式会社,福岡県,福岡市博多区,博多駅中央街５番１１号,,40,132,8120012,,,,,,,2025-03-18,1,,,,,ニュートン,0
442,2310003004964,新規,0,2025-03-18,2025-03-18,合同会社ＧＡＴＥ,,合同会社,長崎県,長崎市,鍛冶屋町３－１０ハイフォルムＯｓｍ,,42,201,8500831,,,,,,,2025-03-18,1,,,,,ゲート,0
444,2330003010903,新規,0,2025-03-18,2025-03-18,クリスタル水素販売合同会社,,合同会社,熊本県,山鹿市,鹿本町中川２７７１番地,,43,208,8610314,,,,,,,2025-03-18,1,,,,,クリスタルスイソハンバイ,0
446,2340001027196,新規,0,2025-03-18,2025-03-18,リースマイル株式会社,,株式会社,鹿児島県,薩摩川内市,神田町２番３号,,46,215,8950052,,,,,,,2025-03-18,1,,,,,リースマイル,0
448,2340005009835,新規,0,2025-03-18,2025-03-18,特定非営利活動法人高岡の風,,その他の設立登記法人,鹿児島県,曽於市,末吉町南之郷９９３２番地３,,46,217,8998608,,,,,,,2025-03-18,1,,,,,タカオカノカゼ,0
450,2360001034926,新規,0,2025-03-18,2025-03-18,株式会社グロウ,,株式会社,沖縄県,宜野湾市,大山２丁目２８番２７号,,47,205,9012223,,,,,,,2025-03-18,1,,,,,グロウ,0
451,2360001034934,新規,0,2025-03-18,2025-03-18,株式会社セイラウェイマネジメント,,株式会社,沖縄県,石垣市,字真栄里２０４－３２９,,47,207,9070002,,,,,,,2025-03-18,1,,,,,セイラウェイマネジメント,0
454,2360003014777,新規,0,2025-03-18,2025-03-18,ＩＭＬ合同会社,,合同会社,沖縄県,中頭郡北谷町,伊平１丁目１５番１９号,,47,326,9040102,,,,,,,2025-03-18,1,,,,,アイエムエル,0
455,2370001052349,新規,0,2025-03-18,2025-03-18,株式会社ＵＰＨＩＬＬ,,株式会社,宮城県,気仙沼市,所沢２４８番地１,,04,205,9880057,,,,,,,2025-03-18,1,,,,,アップヒル,0
466,2410001014096,新規,0,2025-03-18,2025-03-18,グローバルテインホールディングス株式会社,,株式会社,秋田県,由利本荘市,西目町沼田字新道下２０４番地,,05,210,0180604,,,,,,,2025-03-18,1,,,,,グローバルテインホールディングス,0
469,2430001093956,新規,0,2025-03-18,2025-03-18,株式会社地産商会,,株式会社,北海道,札幌市中央区,北三条西２３丁目２番１５号,,01,101,0640823,,,,,,,2025-03-18,1,,,,,チサンショウカイ,0
472,2470001020634,新規,0,2025-03-18,2025-03-18,株式会社タイマックス,,株式会社,香川県,丸亀市,西平山町２５７番地,,37,202,7630041,,,,,,,2025-03-18,1,,,,,タイマックス,0
487,3010001253048,新規,0,2025-03-18,2025-03-18,株式会社ＲＥＭ,,株式会社,東京都,中央区,銀座１丁目２２番１１号銀座大竹ビジデンス２Ｆ,,13,102,1040061,,,,,,,2025-03-18,1,,,,,レム,0
488,3010001253072,新規,0,2025-03-18,2025-03-18,株式会社ＳＨＩＰ第１０１１号,,株式会社,東京都,千代田区,丸の内２丁目７番２号,,13,101,1000005,,,,,,,2025-03-18,1,,,,,エスエイチアイピーダイセンジュウイチゴウ,0
491,3010003046771,新規,0,2025-03-18,2025-03-18,ＬＶＣファンド２４号合同会社,,合同会社,東京都,千代田区,紀尾井町３－８第２紀尾井町ビル９０１アクシス綜合会計事務所内,,13,101,1020094,,,,,,,2025-03-18,1,,,,,エルブイシーファンドニジュウヨンゴウ,0
498,3010005039781,新規,0,2025-03-18,2025-03-18,一般社団法人東通レジデンス,,その他の設立登記法人,東京都,中央区,新川１丁目１７番１８号,,13,102,1040033,,,,,,,2025-03-18,1,,,,,トウツウレジデンス,0
499,3010103002534,新規,0,2025-03-18,2025-03-18,ミッドランドソリューションズ合同会社,,合同会社,東京都,八王子市,北野町５６８番地,,13,201,1920906,,,,,,,2025-03-18,1,,,,,ミッドランドソリューションズ,0
509,3010401188901,新規,0,2025-03-18,2025-03-18,株式会社ＳｕｇｅＴｅｋ,,株式会社,東京都,港区,港南２丁目１５－１品川インターシティＡ棟２８階,,13,103,1080075,,,,,,,2025-03-18,1,,,,,スゲーテック,0
510,3010401188918,新規,0,2025-03-18,2025-03-18,株式会社ｍａｋｅ　ｔｒｉｇｇｅｒ,,株式会社,東京都,港区,高輪１丁目２番１６号フラットウェル高輪２Ｆ,,13,103,1080074,,,,,,,2025-03-18,1,,,,,メイクトリガー,0
513,3010501053798,新規,0,2025-03-18,2025-03-18,株式会社ＢＬＵＥ　ＳＱＵＡＲＥ,,株式会社,東京都,台東区,上野５丁目８番１０－１００９号,,13,106,1100005,,,,,,,2025-03-18,1,,,,,ブルースクエア,0
514,3010501053807,新規,0,2025-03-18,2025-03-18,株式会社グラウンドアップ,,株式会社,東京都,台東区,清川２丁目１１番７号,,13,106,1110022,,,,,,,2025-03-18,1,,,,,グラウンドアップ,0
521,3010701047393,新規,0,2025-03-18,2025-03-18,Ｓｉｐ　Ｓｍａｒｔ株式会社,,株式会社,東京都,品川区,大井１丁目２５番３号シティハイツ大井町１０６,,13,109,1400014,,,,,,,2025-03-18,1,,,,,シップスマート,0
522,3010701047435,新規,0,2025-03-18,2025-03-18,イエロ株式会社,,株式会社,東京都,品川区,上大崎３丁目２－１,,13,109,1410021,,,,,,,2025-03-18,1,,,,,イエロ,0
528,3010901057036,新規,0,2025-03-18,2025-03-18,株式会社ＴＡＮＤＡ,,株式会社,東京都,世田谷区,羽根木２丁目２８－１０,,13,112,1560042,,,,,,,2025-03-18,1,,,,,タンダ,0
532,3011001168236,新規,0,2025-03-18,2025-03-18,Ｓｏｌａ株式会社,,株式会社,東京都,渋谷区,神宮前２丁目３０－２６,,13,113,1500001,,,,,,,2025-03-18,1,,,,,ソラ,0
533,3011001168392,新規,0,2025-03-18,2025-03-18,株式会社Ｓｐｅｃｉａｌｅ　Ａｒｔ　Ｍｅｄｉａ,,株式会社,東京都,渋谷区,東１丁目２２番６号カスティル渋谷４０１,,13,113,1500011,,,,,,,2025-03-18,1,,,,,スペチアーレアートメディア,0
537,3011601028500,新規,0,2025-03-18,2025-03-18,株式会社ネリ,,株式会社,東京都,練馬区,石神井台８丁目７番８号,,13,120,1770045,,,,,,,2025-03-18,1,,,,,ネリ,0
539,3011703004168,新規,0,2025-03-18,2025-03-18,合同会社ＢＩＺ‐ＴＥＣＨ．ａｉ,,合同会社,東京都,江戸川区,中葛西３丁目５番８号,,13,123,1340083,,,,,,,2025-03-18,1,,,,,ビズテックエイアイ,0
541,3012401042897,新規,0,2025-03-18,2025-03-18,株式会社アセモネ,,株式会社,東京都,調布市,入間町１丁目３４番地２７,,13,208,1820004,,,,,,,2025-03-18,1,,,,,アセモネ,0
542,3012703003218,新規,0,2025-03-18,2025-03-18,合同会社Ｗａｔ　Ｗｉｓｅ,,合同会社,東京都,清瀬市,松山２丁目２番５号ライオンズマンション３０６,,13,221,2040022,,,,,,,2025-03-18,1,,,,,,0
543,3012805003322,新規,0,2025-03-18,2025-03-18,医療法人社団ＭＡＳＴ,,その他の設立登記法人,東京都,日野市,多摩平７丁目２３番５号,,13,212,1910062,,,,,,,2025-03-18,1,,,,,マスト,0
546,3013301053943,新規,0,2025-03-18,2025-03-18,株式会社ＩＶＹ,,株式会社,東京都,豊島区,池袋本町１丁目８番６号８８Ａ１池袋１０３号,,13,116,1700011,,,,,,,2025-03-18,1,,,,,アイヴィー,0
554,3020001161836,新規,0,2025-03-18,2025-03-18,株式会社みんなの樹,,株式会社,神奈川県,横浜市中区,吉浜町１番地２パークスクエア横浜１０１２号室,,14,104,2310024,,,,,,,2025-03-18,1,,,,,ミンナノキ,0
555,3020001161877,新規,0,2025-03-18,2025-03-18,株式会社ＡＳＨＨ,,株式会社,神奈川県,横浜市金沢区,高舟台２丁目１５番７号,,14,108,2360044,,,,,,,2025-03-18,1,,,,,アス,0
556,3020001161943,新規,0,2025-03-18,2025-03-18,株式会社Ｉｎｓｅｒｔ　Ｃｏｉｎ　Ｊａｐａｎ,,株式会社,神奈川県,横浜市保土ケ谷区,初音ケ丘３８番２１号,,14,106,2400016,,,,,,,2025-03-18,1,,,,,インサートコインジャパン,0
564,3020003028050,新規,0,2025-03-18,2025-03-18,合同会社阿久津総業,,合同会社,神奈川県,横浜市磯子区,洋光台６丁目８番２４号,,14,107,2350045,,,,,,,2025-03-18,1,,,,,アクツソウギョウ,0
566,3021001084721,新規,0,2025-03-18,2025-03-18,株式会社ＲＡＸ,,株式会社,神奈川県,相模原市中央区,東淵野辺５丁目９番１０号,,14,152,2520203,,,,,,,2025-03-18,1,,,,,ラックス,0
571,3021003015749,新規,0,2025-03-18,2025-03-18,合同会社ＳＨＯＮＡＮ　ＲＵＮＳ,,合同会社,神奈川県,茅ヶ崎市,松が丘２丁目６番４２－７号,,14,207,2530025,,,,,,,2025-03-18,1,,,,,ショウナンランズ,0
579,3030003026359,新規,0,2025-03-18,2025-03-18,合同会社天青,,合同会社,埼玉県,鶴ヶ島市,若葉２丁目１０番地５,,11,241,3502207,,,,,,,2025-03-18,1,,,,,テンセイ,0
586,3040001137834,新規,0,2025-03-18,2025-03-18,株式会社オアシスＫｉｓａ１,,株式会社,千葉県,柏市,若柴１７８番地４柏の葉キャンパス１４８街区１ウェスト３階Ｖ１３０,,12,217,2770871,,,,,,,2025-03-18,1,,,,,オアシスキサイチ,0
587,3040001137900,新規,0,2025-03-18,2025-03-18,株式会社シーズン,,株式会社,千葉県,印西市,舞姫２丁目２番地Ａ棟９０２号,,12,231,2701608,,,,,,,2025-03-18,1,,,,,シーズン,0
589,3040003027083,新規,0,2025-03-18,2025-03-18,合同会社エムズスポーツ用品製作所,,合同会社,千葉県,茂原市,東郷１４３９番地,,12,210,2970017,,,,,,,2025-03-18,1,,,,,エムズスポーツヨウヒンセイサクショ,0
591,3050001056331,新規,0,2025-03-18,2025-03-18,株式会社美水,,株式会社,茨城県,水戸市,平須町１番地の３９３,,08,201,3100853,,,,,,,2025-03-18,1,,,,,ミスイ,0
592,3050001056348,新規,0,2025-03-18,2025-03-18,バトンパス株式会社,,株式会社,茨城県,つくば市,みどりの南４１番地２２,,08,220,3050884,,,,,,,2025-03-18,1,,,,,バトンパス,0
595,3050005013576,新規,0,2025-03-18,2025-03-18,行政書士法人みとみらい,,その他の設立登記法人,茨城県,水戸市,南町３丁目３番３３号ＰＳ第３ビル８階,,08,201,3100021,,,,,,,2025-03-18,1,,,,,ミトミライ,0
601,3080101025381,新規,0,2025-03-18,2025-03-18,株式会社ｐｌｕｓ　Ａｉｎｇ,,株式会社,静岡県,三島市,加茂川町４０９２番地の３,,22,206,4110034,,,,,,,2025-03-18,1,,,,,プラスエーイング,0
606,3110005017199,新規,0,2025-03-18,2025-03-18,一般社団法人自然体験村,,その他の設立登記法人,新潟県,南魚沼市,浦佐４８７番地７コーポ善徳１０１号,,15,226,9497302,,,,,,,2025-03-18,1,,,,,シゼンタイケンムラ,0
611,3120001273737,新規,0,2025-03-18,2025-03-18,株式会社アレシス,,株式会社,大阪府,大阪市住之江区,中加賀屋３丁目１０番２４号,,27,125,5590017,,,,,,,2025-03-18,1,,,,,アレシス,0
612,3120001273778,新規,0,2025-03-18,2025-03-18,ｓｏｚｏ株式会社,,株式会社,大阪府,大阪市福島区,福島８丁目１３番１６号,,27,103,5530003,,,,,,,2025-03-18,1,,,,,ソゾ,0
613,3120001273803,新規,0,2025-03-18,2025-03-18,株式会社Ｄｉｖｅｒｇｅｎｃｅ,,株式会社,大阪府,大阪市平野区,平野元町４番７－６０８号,,27,126,5470047,,,,,,,2025-03-18,1,,,,,ダイバージェンス,0
614,3120001273811,新規,0,2025-03-18,2025-03-18,株式会社誰でも,,株式会社,大阪府,大阪市生野区,桃谷５丁目６番２号ＫＴＰＬＡＺＡ１階,,27,116,5440034,,,,,,,2025-03-18,1,,,,,ダレデモ,0
615,3120001273844,新規,0,2025-03-18,2025-03-18,興葉株式会社,,株式会社,大阪府,大阪市淀川区,東三国４丁目２１番９－１号,,27,123,5320002,,,,,,,2025-03-18,1,,,,,コウヨウ,0
616,3120003028899,新規,0,2025-03-18,2025-03-18,合同会社ＳＡＧＯＬＩＮＫ,,合同会社,大阪府,大阪市阿倍野区,晴明通１４番１６号,,27,119,5450032,,,,,,,2025-03-18,1,,,,,サゴリンク,0
617,3120003028916,新規,0,2025-03-18,2025-03-18,合同会社Ｓｈｉｎｏｓｈ,,合同会社,大阪府,大阪市北区,梅田１丁目１－３大阪駅前第３ビル２９階１－１－１号室,,27,127,5300001,,,,,,,2025-03-18,1,,,,,シナッシュ,0
619,3120103006301,新規,0,2025-03-18,2025-03-18,ＭＩＮＨ　ＴＵＡＮ３８合同会社,,合同会社,大阪府,泉大津市,助松町１丁目５番１６号,,27,206,5950071,,,,,,,2025-03-18,1,,,,,ミントゥアンサンハチ,0
622,3120105009987,新規,0,2025-03-18,2025-03-18,一般社団法人紡げ広がる良心,,その他の設立登記法人,大阪府,和泉市,室堂町６７４番地４９,,27,219,5941101,,,,,,,2025-03-18,1,,,,,ツムゲヒロガルリョウシン,0
624,3120901050590,新規,0,2025-03-18,2025-03-18,ＹＳ設備設計株式会社,,株式会社,大阪府,高槻市,富田町３丁目１４番１４－２０１号,,27,207,5690814,,,,,,,2025-03-18,1,,,,,ワイエスセツビセッケイ,0
632,3130001079233,新規,0,2025-03-18,2025-03-18,Ｇｒａｃｅ防災設備株式会社,,株式会社,京都府,京都市下京区,柿本町６１８アムスビル５階,,26,106,6008357,,,,,,,2025-03-18,1,,,,,グレイスボウサイセツビ,0
634,3140001137725,新規,0,2025-03-18,2025-03-18,株式会社ＭＥＲＹ,,株式会社,兵庫県,神戸市中央区,磯辺通１丁目１番１８号カサベラ国際プラザビル７０７号室,,28,110,6510084,,,,,,,2025-03-18,1,,,,,メリー,0
635,3140001137816,新規,0,2025-03-18,2025-03-18,株式会社Ｃｒｅａｔｅ,,株式会社,兵庫県,神戸市西区,枝吉４丁目１３５番地フォレスト枝吉Ａ１０２号,,28,111,6512133,,,,,,,2025-03-18,1,,,,,クリエイト,0
636,3140001137840,新規,0,2025-03-18,2025-03-18,株式会社Ｒｉｖｅｒａ,,株式会社,兵庫県,神戸市中央区,加納町３丁目１２－１１,,28,110,6500001,,,,,,,2025-03-18,1,,,,,リベラ,0
644,3180001165838,新規,0,2025-03-18,2025-03-18,ＬＩＢＥＲＴＡＧＥ株式会社,,株式会社,愛知県,名古屋市中区,栄１丁目２番３号,,23,106,4600008,,,,,,,2025-03-18,1,,,,,リベルテージ,0
645,3180001165895,新規,0,2025-03-18,2025-03-18,株式会社金虎,,株式会社,愛知県,東海市,新宝町５０７番地４８,,23,222,4760005,,,,,,,2025-03-18,1,,,,,カネコ,0
646,3180001165904,新規,0,2025-03-18,2025-03-18,株式会社ＳＥＰＲＯＳ名古屋,,株式会社,愛知県,名古屋市中村区,名駅３丁目４－１０アルティメイト名駅１ｓｔ２階,,23,105,4500002,,,,,,,2025-03-18,1,,,,,セプロスナゴヤ,0
647,3180001165961,新規,0,2025-03-18,2025-03-18,株式会社レーヴァ,,株式会社,愛知県,名古屋市中区,栄３丁目３５番４７号サン・栄三丁目ビル１０２号室,,23,106,4600008,,,,,,,2025-03-18,1,,,,,レーヴァ,0
648,3180003028118,新規,0,2025-03-18,2025-03-18,合同会社創美の杜,,合同会社,愛知県,名古屋市名東区,山の手３丁目１００７番地ユニーブル第一猪子石２０６号,,23,115,4650011,,,,,,,2025-03-18,1,,,,,ソウビノモリ,0
649,3180003028150,新規,0,2025-03-18,2025-03-18,合同会社あんじゅ,,合同会社,愛知県,春日井市,高山町１丁目２１番地８アルカディア高山５０１号,,23,206,4860912,,,,,,,2025-03-18,1,,,,,アンジュ,0
650,3180005020989,新規,0,2025-03-18,2025-03-18,一般財団法人フィリピン留学振興財団,,その他の設立登記法人,愛知県,名古屋市中村区,名駅１丁目１番１号ＪＰタワー名古屋１５Ｆ,,23,105,4500002,,,,,,,2025-03-18,1,,,,,フィリピンリュウガクシンコウザイダン,0
652,3180301039618,新規,0,2025-03-18,2025-03-18,ＲＯＣＫ株式会社,,株式会社,愛知県,安城市,高棚町秋葉堂１３２番地５,,23,212,4460053,,,,,,,2025-03-18,1,,,,,ロック,0
653,3180301039634,新規,0,2025-03-18,2025-03-18,株式会社さくらフィッシャリー,,株式会社,愛知県,蒲郡市,港町１８番２３号（蒲郡商工会議所ＥＧＧ内）,,23,214,4430034,,,,,,,2025-03-18,1,,,,,サクラフィッシャリー,0
654,3180303006500,新規,0,2025-03-18,2025-03-18,合同会社ファンプラス,,合同会社,愛知県,安城市,東明町１８番地６２階,,23,212,4460027,,,,,,,2025-03-18,1,,,,,ファンプラス,0
658,3200001043545,新規,0,2025-03-18,2025-03-18,ムービースタイル株式会社,,株式会社,岐阜県,高山市,荘川町新渕３０６番地,,21,203,5015413,,,,,,,2025-03-18,1,,,,,ムービースタイル,0
662,3210001020097,新規,0,2025-03-18,2025-03-18,株式会社ＢＩＷＡＫＯ　ＩＮＴＥＲＮＡＴＩＯＮＡＬ　ＧＲＯＵＰ,,株式会社,福井県,敦賀市,呉竹町１丁目２３番６号,,18,202,9140802,,,,,,,2025-03-18,1,,,,,ビワコインターナショナルグループ,0
663,3220005008939,新規,0,2025-03-18,2025-03-18,一般社団法人能登復興住宅サポートセンター,,その他の設立登記法人,石川県,羽咋郡志賀町,若葉台１３番地３,,17,384,9250375,,,,,,,2025-03-18,1,,,,,ノトフッコウジュウタクサポートセンター,0
666,3250003003682,新規,0,2025-03-18,2025-03-18,合同会社まこゆた,,合同会社,山口県,萩市,大字河添２７８番地５,,35,204,7580073,,,,,,,2025-03-18,1,,,,,マコユタ,0
669,3260001040017,新規,0,2025-03-18,2025-03-18,株式会社ＳＴＲＩＸ,,株式会社,岡山県,岡山市北区,中山下１丁目１１番１５号新田第１ビル４０２,,33,101,7000821,,,,,,,2025-03-18,1,,,,,ストリクス,0
683,3320001021002,新規,0,2025-03-18,2025-03-18,株式会社リライス,,株式会社,大分県,大分市,王子南町１０番１７号アーサー王子南３０２,,44,201,8700007,,,,,,,2025-03-18,1,,,,,リライス,0
685,3330001032972,新規,0,2025-03-18,2025-03-18,株式会社ハマー,,株式会社,熊本県,熊本市北区,室園町１０番３１－９０２号,,43,105,8618072,,,,,,,2025-03-18,1,,,,,ハマー,0
690,3340005009834,新規,0,2025-03-18,2025-03-18,医療法人鴨池歯科医院,,その他の設立登記法人,鹿児島県,鹿児島市,鴨池新町３番地２,,46,201,8900064,,,,,,,2025-03-18,1,,,,,カモイケシカイイン,0
691,3360001034933,新規,0,2025-03-18,2025-03-18,株式会社アジト,,株式会社,沖縄県,宮古島市,平良字下里１５４１－６ガーリカーサ２－Ｄ,,47,214,9060013,,,,,,,2025-03-18,1,,,,,アジト,0
695,3360003014776,新規,0,2025-03-18,2025-03-18,合同会社碧,,合同会社,沖縄県,中頭郡北中城村,字ライカム４０９番地,,47,327,9012306,,,,,,,2025-03-18,1,,,,,アオ,0
701,3410003004061,新規,0,2025-03-18,2025-03-18,いい縁Ｊ合同会社,,合同会社,秋田県,鹿角郡小坂町,荒谷字上ノ平２７‐１,,05,303,0170204,,,,,,,2025-03-18,1,,,,,イイエンジェイ,0
702,3420003003087,新規,0,2025-03-18,2025-03-18,合同会社おいしいミカタ,,合同会社,青森県,弘前市,大字松ケ枝５丁目１０－７,,02,202,0368042,,,,,,,2025-03-18,1,,,,,オイシイミカタ,0
705,3430001093955,新規,0,2025-03-18,2025-03-18,株式会社くろしお,,株式会社,北海道,札幌市中央区,北十条西２１丁目２番１６号札幌場外市場食堂長屋１Ｆ,,01,101,0600010,,,,,,,2025-03-18,1,,,,,クロシオ,0
719,4010001253071,新規,0,2025-03-18,2025-03-18,株式会社ＳＨＩＰ第１０１０号,,株式会社,東京都,千代田区,丸の内２丁目７番２号,,13,101,1000005,,,,,,,2025-03-18,1,,,,,エスエイチアイピーダイセンジュウゴウ,0
723,4010005039764,新規,0,2025-03-18,2025-03-18,小牧ロジ特定目的会社,,その他の設立登記法人,東京都,中央区,銀座１丁目６番１１号アースタックス税理士法人内,,13,102,1040061,,,,,,,2025-03-18,1,,,,,コマキロジ,0
724,4010401188900,新規,0,2025-03-18,2025-03-18,株式会社アールボワ,,株式会社,東京都,港区,北青山１丁目３－３三橋ビル３階,,13,103,1070061,,,,,,,2025-03-18,1,,,,,アールボワ,0
728,4010501053806,新規,0,2025-03-18,2025-03-18,株式会社りんちゃん,,株式会社,東京都,台東区,台東２丁目３１番１０号第２掛川ビル１０２号室,,13,106,1100016,,,,,,,2025-03-18,1,,,,,リンチャン,0
735,4010601066897,新規,0,2025-03-18,2025-03-18,維動国際株式会社,,株式会社,東京都,江東区,亀戸３丁目６２番１０号ＳＡＮビル４１０号室,,13,108,1360071,,,,,,,2025-03-18,1,,,,,イドウコクサイ,0
739,4010801035941,新規,0,2025-03-18,2025-03-18,龍羽株式会社,,株式会社,東京都,大田区,東海３丁目７番３号東海ビル４１０室,,13,111,1430001,,,,,,,2025-03-18,1,,,,,リュウウ,0
751,4011503006446,新規,0,2025-03-18,2025-03-18,合同会社ＤＥＭＯ,,合同会社,東京都,北区,昭和町２丁目１３番１４－５０１号ライオンズマンション尾久第１,,13,117,1140011,,,,,,,2025-03-18,1,,,,,デモ,0
752,4011503006454,新規,0,2025-03-18,2025-03-18,合同会社ＭＡＣＨＩＹＡ　ＢＡＳＥ,,合同会社,東京都,荒川区,荒川７丁目３５番７－２０６号,,13,118,1160002,,,,,,,2025-03-18,1,,,,,マチヤベース,0
762,4011701028176,新規,0,2025-03-18,2025-03-18,株式会社コックス,,株式会社,東京都,江戸川区,中葛西５丁目４１番１０号６Ｆ,,13,123,1340083,,,,,,,2025-03-18,1,,,,,コックス,0
764,4012405005081,新規,0,2025-03-18,2025-03-18,一般社団法人空間芸術文化研究機構,,その他の設立登記法人,東京都,武蔵野市,吉祥寺本町１丁目２７番３号,,13,203,1800004,,,,,,,2025-03-18,1,,,,,クウカンゲイジュツブンカケンキュウキコウ,0
765,4012701018753,新規,0,2025-03-18,2025-03-18,株式会社アリビオ,,株式会社,東京都,小平市,小川町１丁目７４１番地の１３３,,13,211,1870032,,,,,,,2025-03-18,1,,,,,アリビオ,0
777,4020001161843,新規,0,2025-03-18,2025-03-18,株式会社Ｍａｇｉｃ　Ｈｏｕｒ,,株式会社,神奈川県,川崎市川崎区,本町２丁目２―５グランイーグルｗｉｎｇ川崎６１１,,14,131,2100001,,,,,,,2025-03-18,1,,,,,マジックアワー,0
778,4020001161868,新規,0,2025-03-18,2025-03-18,株式会社クリアフィールド,,株式会社,神奈川県,横浜市鶴見区,鶴見中央５丁目５番１６号,,14,101,2300051,,,,,,,2025-03-18,1,,,,,クリアフィールド,0
781,4020003028074,新規,0,2025-03-18,2025-03-18,Ｎｅｗ　Ｅｙｅ合同会社,,合同会社,神奈川県,横浜市神奈川区,台町１５番地８久世ビル１階,,14,102,2210834,,,,,,,2025-03-18,1,,,,,ニューアイ,0
782,4021001084745,新規,0,2025-03-18,2025-03-18,ｃｏｐｌｕｓ株式会社,,株式会社,神奈川県,藤沢市,湘南台２丁目１０－５,,14,205,2520804,,,,,,,2025-03-18,1,,,,,コプラス,0
785,4030001165447,新規,0,2025-03-18,2025-03-18,株式会社Ｄ　ａｃｃｅｌ,,株式会社,埼玉県,白岡市,白岡７４２番地７,,11,246,3490218,,,,,,,2025-03-18,1,,,,,ディーアクセル,0
786,4030001165505,新規,0,2025-03-18,2025-03-18,株式会社エルメプル,,株式会社,埼玉県,比企郡嵐山町,むさし台２丁目３－１４,,11,342,3550216,,,,,,,2025-03-18,1,,,,,エルメプル,0
793,4030003026366,新規,0,2025-03-18,2025-03-18,合同会社ｗｉｚ　ｇａｒｄｅｎ,,合同会社,埼玉県,さいたま市見沼区,大字大谷１３７番地１,,11,104,3370014,,,,,,,2025-03-18,1,,,,,ウィズガーデン,0
801,4040001137874,新規,0,2025-03-18,2025-03-18,株式会社丸甚建装,,株式会社,千葉県,柏市,藤心８９１番地１,,12,217,2770034,,,,,,,2025-03-18,1,,,,,マルジンケンソウ,0
803,4040003027082,新規,0,2025-03-18,2025-03-18,合同会社Ｈｉｓｏｌｌｅ,,合同会社,千葉県,市川市,平田３丁目４―１４,,12,203,2720031,,,,,,,2025-03-18,1,,,,,イゾレ,0
804,4040003027090,新規,0,2025-03-18,2025-03-18,合同会社ＡｓｏＢｅｅＬａｎｄ,,合同会社,千葉県,富津市,湊１０９７番地３,,12,226,2991607,,,,,,,2025-03-18,1,,,,,アソビーランド,0
805,4040003027132,新規,0,2025-03-18,2025-03-18,合同会社Ｍ＆Ｃコネクト,,合同会社,千葉県,船橋市,本町３丁目８―２７―１,,12,204,2730005,,,,,,,2025-03-18,1,,,,,エムアンドシーコネクト,0
813,4060001038039,新規,0,2025-03-18,2025-03-18,株式会社ＡＲＴ　ＦＯＲ　ＡＥＲ建築設計事務所,,株式会社,栃木県,宇都宮市,富士見が丘４丁目３４番１１号,,09,201,3200011,,,,,,,2025-03-18,1,,,,,アートフォーアリアケンチクセッケイジムショ,0
819,4070003005820,新規,0,2025-03-18,2025-03-18,合同会社ＭＡＫＥＲ,,合同会社,群馬県,渋川市,八木原１０８０番地１,,10,208,3770003,,,,,,,2025-03-18,1,,,,,メイカー,0
821,4080103003269,新規,0,2025-03-18,2025-03-18,合同会社ＲＯＡＳＴＷＯＲＫＳ,,合同会社,静岡県,熱海市,相の原町３７番７号,,22,205,4130039,,,,,,,2025-03-18,1,,,,,ローストワークス,0
822,4090003002766,新規,0,2025-03-18,2025-03-18,０３合同会社,,合同会社,山梨県,北杜市,高根町清里３５４５番地,,19,209,4070301,,,,,,,2025-03-18,1,,,,,マルサン,0
826,4110001039122,新規,0,2025-03-18,2025-03-18,株式会社マルコ建設,,株式会社,新潟県,新潟市西蒲区,仁箇１２８８番地１４,,15,108,9530022,,,,,,,2025-03-18,1,,,,,マルコケンセツ,0
833,4120001273629,新規,0,2025-03-18,2025-03-18,株式会社吉田工業,,株式会社,大阪府,大阪市大正区,千島３丁目６番４号,,27,108,5510003,,,,,,,2025-03-18,1,,,,,ヨシダコウギョウ,0
834,4120001273711,新規,0,2025-03-18,2025-03-18,株式会社ＭＩＨＡＲＢＩ,,株式会社,大阪府,大阪市大正区,泉尾３丁目７番８－１５０１号,,27,108,5510031,,,,,,,2025-03-18,1,,,,,ミハルビー,0
835,4120001273769,新規,0,2025-03-18,2025-03-18,株式会社ＰＤＭ　ＦＡＳ,,株式会社,大阪府,大阪市北区,梅田３丁目２番１２３号イノゲート大阪１０階,,27,127,5300001,,,,,,,2025-03-18,1,,,,,ピーディーエムファズ,0
836,4120001273793,新規,0,2025-03-18,2025-03-18,株式会社康順,,株式会社,大阪府,大阪市東成区,東小橋３丁目１－２５－２階,,27,115,5370024,,,,,,,2025-03-18,1,,,,,コウジュン,0
837,4120001273819,新規,0,2025-03-18,2025-03-18,ＥＢＥ株式会社,,株式会社,大阪府,大阪市浪速区,恵比須東二丁目６番１５－２０５号,,27,111,5560000,,,,,,,2025-03-18,1,,,,,イービーイー,0
838,4120001273983,新規,0,2025-03-18,2025-03-18,ＫＬＵＭＰ株式会社,,株式会社,大阪府,大阪市北区,梅田１丁目２番２号大阪駅前第２ビル１２－１２,,27,127,5300001,,,,,,,2025-03-18,1,,,,,クランプ,0
840,4120003028840,新規,0,2025-03-18,2025-03-18,ＭＵＳＨＴＡＱ＆ＳＯＮＳ合同会社,,合同会社,大阪府,枚方市,枚方元町４－３０－１０６,,27,210,5730052,,,,,,,2025-03-18,1,,,,,ムシュタークアンドサンズ,0
841,4120003028865,新規,0,2025-03-18,2025-03-18,合同会社ＧＲＦ　Ｍｔｅｋ,,合同会社,大阪府,大阪市福島区,福島１丁目２番４号,,27,103,5530003,,,,,,,2025-03-18,1,,,,,ジーアールエフエムテック,0
842,4120003028881,新規,0,2025-03-18,2025-03-18,合同会社オムライスケチャップ,,合同会社,大阪府,大阪市北区,同心２丁目１－５,,27,127,5300035,,,,,,,2025-03-18,1,,,,,オムライスケチャップ,0
843,4120101071247,新規,0,2025-03-18,2025-03-18,株式会社縁ｐｒｅｓｓ,,株式会社,大阪府,高石市,千代田６丁目１２番１１号,,27,225,5920005,,,,,,,2025-03-18,1,,,,,エンプレス,0
846,4120901050573,新規,0,2025-03-18,2025-03-18,地域医療コンサルティング株式会社,,株式会社,大阪府,箕面市,如意谷５丁目１番１－１０３号,,27,220,5620011,,,,,,,2025-03-18,1,,,,,チイキイリョウコンサルティング,0
847,4120905006704,新規,0,2025-03-18,2025-03-18,一般社団法人ＴＡＫＡＲＡ,,その他の設立登記法人,大阪府,高槻市,紺屋町１番１号５０１グリーンプラザたかつき１号館５階,,27,207,5690804,,,,,,,2025-03-18,1,,,,,タカラ,0
851,4130001079190,新規,0,2025-03-18,2025-03-18,京都鮨一株式会社,,株式会社,京都府,京都市下京区,西中筋通花屋町下る堺町９４番地,,26,106,6008349,,,,,,,2025-03-18,1,,,,,キョウトスシイチ,0
852,4130001079232,新規,0,2025-03-18,2025-03-18,株式会社ハコニワ,,株式会社,京都府,綾部市,上杉町籏投３２番地,,26,203,6230102,,,,,,,2025-03-18,1,,,,,ハコニワ,0
853,4130003010293,新規,0,2025-03-18,2025-03-18,ＣＨＥＥＲＳ合同会社,,合同会社,京都府,京都市左京区,北白川西蔦町５－２,,26,103,6068261,,,,,,,2025-03-18,1,,,,,チアーズ,0
857,4140001137708,新規,0,2025-03-18,2025-03-18,株式会社Ｔ管財,,株式会社,兵庫県,西宮市,段上町３丁目１２番１３号,,28,204,6638006,,,,,,,2025-03-18,1,,,,,ティーカンザイ,0
858,4140001137798,新規,0,2025-03-18,2025-03-18,ＪＰＡＬ株式会社,,株式会社,兵庫県,西宮市,中前田町１－２０－３Ｆ,,28,204,6620857,,,,,,,2025-03-18,1,,,,,,0
859,4140001137807,新規,0,2025-03-18,2025-03-18,株式会社辰馬,,株式会社,兵庫県,西脇市,郷瀬町４１７番地,,28,213,6770014,,,,,,,2025-03-18,1,,,,,タツマ,0
861,4150001027949,新規,0,2025-03-18,2025-03-18,株式会社大神リアルエステート,,株式会社,奈良県,桜井市,大字大泉５４０－１,,29,206,6330076,,,,,,,2025-03-18,1,,,,,オオミワリアルエステート,0
866,4180001165878,新規,0,2025-03-18,2025-03-18,株式会社Ｇ‐フィールズ,,株式会社,愛知県,春日井市,岩成台７丁目２番地３,,23,206,4870033,,,,,,,2025-03-18,1,,,,,ジーフィールズ,0
867,4180001165894,新規,0,2025-03-18,2025-03-18,株式会社ＧＲＯＷ　ＡＩ,,株式会社,愛知県,名古屋市中川区,万場５丁目８１８番地,,23,110,4540997,,,,,,,2025-03-18,1,,,,,グローエーアイ,0
868,4180001165952,新規,0,2025-03-18,2025-03-18,カモリスペース株式会社,,株式会社,愛知県,津島市,神守町字こがね２５番地,,23,208,4960005,,,,,,,2025-03-18,1,,,,,カモリスペース,0
869,4180001165969,新規,0,2025-03-18,2025-03-18,株式会社中和古陶軒,,株式会社,愛知県,名古屋市港区,宝神１丁目６５番地の２、３０５号,,23,111,4550832,,,,,,,2025-03-18,1,,,,,チュウワコトウケン,0
871,4180003028117,新規,0,2025-03-18,2025-03-18,合同会社フェリシダ,,合同会社,愛知県,知多郡美浜町,大字河和字上前田２６８番地２,,23,446,4702409,,,,,,,2025-03-18,1,,,,,フェリシダ,0
872,4180301039633,新規,0,2025-03-18,2025-03-18,株式会社ＫＵＭＥホールディングス,,株式会社,愛知県,西尾市,住崎１丁目２１番地,,23,213,4450879,,,,,,,2025-03-18,1,,,,,クメホールディングス,0
873,4180303006490,新規,0,2025-03-18,2025-03-18,エレガンスリシェス合同会社,,合同会社,愛知県,豊橋市,新本町８４ダイアパレス新本町５０４,,23,201,4400892,,,,,,,2025-03-18,1,,,,,エレガンスリシェス,0
876,4200001043544,新規,0,2025-03-18,2025-03-18,株式会社ＮＯＩＥＳ,,株式会社,岐阜県,羽島市,竹鼻町蜂尻２４５,,21,209,5016235,,,,,,,2025-03-18,1,,,,,ノイエス,0
877,4200003006706,新規,0,2025-03-18,2025-03-18,合資会社丸東後藤商店,,合資会社,岐阜県,岐阜市,鏡島１２８３番地の２,,21,201,5010111,,,,,,,2025-03-18,1,,,,,マルトウゴトウショウテン,0
879,4220003003973,新規,0,2025-03-18,2025-03-18,蒼波珈琲合同会社,,合同会社,石川県,金沢市,菊川１丁目１０番１３号,,17,201,9200967,,,,,,,2025-03-18,1,,,,,アオナミコーヒー,0
880,4220005008938,新規,0,2025-03-18,2025-03-18,一般社団法人Ｃｏｎｎｅｃｔ　Ｗｉｔｈ,,その他の設立登記法人,石川県,河北郡津幡町,字吉倉１６３番地１,,17,361,9290466,,,,,,,2025-03-18,1,,,,,コネクトウィズ,0
883,4230005009448,新規,0,2025-03-18,2025-03-18,農事組合法人シード布施山,,その他の設立登記法人,富山県,黒部市,本野６２番地,,16,207,9380833,,,,,,,2025-03-18,1,,,,,シードフセヤマ,0
890,4290001109287,新規,0,2025-03-18,2025-03-18,ＳＵＮ豆株式会社,,株式会社,福岡県,筑紫野市,大字永岡１１２９番地５,,40,217,8180066,,,,,,,2025-03-18,1,,,,,サンズ,0
893,4290003016523,新規,0,2025-03-18,2025-03-18,合同会社寄り道会ギ室,,合同会社,福岡県,福岡市博多区,博多駅中央街１番１号,,40,132,8120012,,,,,,,2025-03-18,1,,,,,ヨリミチカイギシツ,0
894,4290803004999,新規,0,2025-03-18,2025-03-18,合同会社ＶＩＸＸサポート,,合同会社,福岡県,北九州市八幡東区,東田２丁目１－２５－３０２,,40,108,8050071,,,,,,,2025-03-18,1,,,,,ビックスサポート,0
899,4350001019422,新規,0,2025-03-18,2025-03-18,株式会社ユーモア大陸,,株式会社,宮崎県,児湯郡高鍋町,大字北高鍋５２６１番地,,45,401,8840002,,,,,,,2025-03-18,1,,,,,ユーモアタイリク,0
900,4350001019439,新規,0,2025-03-18,2025-03-18,株式会社コスミック研究所,,株式会社,宮崎県,都城市,小松原町１１４４番地１,,45,202,8850022,,,,,,,2025-03-18,1,,,,,コスミックケンキュウジョ,0
902,4360001034924,新規,0,2025-03-18,2025-03-18,株式会社エステートサポート,,株式会社,沖縄県,南城市,玉城字垣花３０７番地,,47,215,9010601,,,,,,,2025-03-18,1,,,,,エステートサポート,0
903,4360001034932,新規,0,2025-03-18,2025-03-18,株式会社ＢＬＵＥ　ＨＥＡＶＥＮ,,株式会社,沖縄県,宮古島市,平良字久貝８３７番地６,,47,214,9060015,,,,,,,2025-03-18,1,,,,,ブルーヘブン,0
904,4360003014775,新規,0,2025-03-18,2025-03-18,Ｈ＆Ｄ合同会社,,合同会社,沖縄県,那覇市,小禄２丁目２番地１１メゾンうえはら４０１号,,47,201,9010152,,,,,,,2025-03-18,1,,,,,エイチアンドディ,0
911,4380001035152,新規,0,2025-03-18,2025-03-18,株式会社ふどけん,,株式会社,福島県,福島市,宮代字宝田前２番地４,,07,201,9600116,,,,,,,2025-03-18,1,,,,,フドケン,0
923,4430001093946,新規,0,2025-03-18,2025-03-18,彩り株式会社,,株式会社,北海道,札幌市東区,北十一条東１３丁目１番１２号,,01,103,0650011,,,,,,,2025-03-18,1,,,,,イロドリ,0
928,4450003002614,新規,0,2025-03-18,2025-03-18,ピケ合同会社,,合同会社,北海道,紋別市,南が丘町３丁目６番２８号,,01,219,0940013,,,,,,,2025-03-18,1,,,,,ピケ,0
929,4460103001688,新規,0,2025-03-18,2025-03-18,Ａｇｒｅｓｓ合同会社,,合同会社,北海道,帯広市,南の森西１丁目１番地１,,01,207,0800862,,,,,,,2025-03-18,1,,,,,アグレス,0
930,4470005006611,新規,0,2025-03-18,2025-03-18,一般財団法人日本フューチャーレジリエンス機構,,その他の設立登記法人,香川県,丸亀市,綾歌町岡田下３４６番地３,,37,202,7612402,,,,,,,2025-03-18,1,,,,,フューチャーレジリエンスキコウ,0
932,4480001012777,新規,0,2025-03-18,2025-03-18,ＯｌｉＯｌｉ　Ｆａｒｍ株式会社,,株式会社,徳島県,鳴門市,北灘町大須字長浜７番地２,,36,202,7710377,,,,,,,2025-03-18,1,,,,,オリオリファーム,0
934,4500001026205,新規,0,2025-03-18,2025-03-18,株式会社Ｃａｒｒｙ　Ｐｒｏ,,株式会社,愛媛県,松山市,和泉北２丁目１０番１号メゾン・ド・アーベリール４０４,,38,201,7900038,,,,,,,2025-03-18,1,,,,,キャリープロ,0
944,5010001253070,新規,0,2025-03-18,2025-03-18,株式会社ＳＨＩＰ第１００９号,,株式会社,東京都,千代田区,丸の内２丁目７番２号,,13,101,1000005,,,,,,,2025-03-18,1,,,,,エスエイチアイピーダイセンキュウゴウ,0
945,5010001253145,新規,0,2025-03-18,2025-03-18,株式会社竜也,,株式会社,東京都,中央区,築地２丁目１番２－１２０１号,,13,102,1040045,,,,,,,2025-03-18,1,,,,,キザスコレ,0
946,5010001253260,新規,0,2025-03-18,2025-03-18,株式会社ＯＰＣ,,株式会社,東京都,千代田区,丸の内１丁目９番２号グラントウキョウサウスタワー９階,,13,101,1000005,,,,,,,2025-03-18,1,,,,,オーピーシー,0
947,5010003046778,新規,0,2025-03-18,2025-03-18,ＬＶＣファンド２８号合同会社,,合同会社,東京都,千代田区,紀尾井町３－８第２紀尾井町ビル９０１アクシス綜合会計事務所内,,13,101,1020094,,,,,,,2025-03-18,1,,,,,エルブイシーファンドニジュウハチゴウ,0
959,5010403034639,新規,0,2025-03-18,2025-03-18,ＳＯＹＴＥＮ合同会社,,合同会社,東京都,港区,白金６丁目１２－２７１Ｆ,,13,103,1080072,,,,,,,2025-03-18,1,,,,,ソイテン,0
960,5010403034663,新規,0,2025-03-18,2025-03-18,合同会社アストラルＭＫインベストメント,,合同会社,東京都,港区,南青山３丁目１番３６号青山丸竹ビル６Ｆ,,13,103,1070062,,,,,,,2025-03-18,1,,,,,アストラルエムケイインベストメント,0
966,5010603011446,新規,0,2025-03-18,2025-03-18,ソフィア西浅草合同会社,,合同会社,東京都,江東区,豊洲５丁目６番２９－１９１９号,,13,108,1350061,,,,,,,2025-03-18,1,,,,,ソフィアニシアサクサ,0
967,5010701047400,新規,0,2025-03-18,2025-03-18,Ｐｏｒｔｅ‐Ｂｏｎｈｅｕｒ株式会社,,株式会社,東京都,品川区,東五反田５丁目２０番７号増岡ハウス池田山１０１,,13,109,1410022,,,,,,,2025-03-18,1,,,,,ポルテボヌール,0
968,5010701047417,新規,0,2025-03-18,2025-03-18,ｃｕｍｕ株式会社,,株式会社,東京都,品川区,西五反田１丁目２６番２号五反田サンハイツ９１１,,13,109,1410031,,,,,,,2025-03-18,1,,,,,クム,0
972,5010901057034,新規,0,2025-03-18,2025-03-18,株式会社Ｔｅｎｃｏｌｏｒ,,株式会社,東京都,世田谷区,千歳台１丁目１９番９号,,13,112,1570071,,,,,,,2025-03-18,1,,,,,テンカラー,0
978,5011001168242,新規,0,2025-03-18,2025-03-18,株式会社ルミナスフィールド,,株式会社,東京都,渋谷区,恵比寿西２丁目４番８号ウィンド恵比寿ビル８Ｆ,,13,113,1500021,,,,,,,2025-03-18,1,,,,,ルミナスフィールド,0
979,5011001168597,新規,0,2025-03-18,2025-03-18,株式会社Ｌｕｍｉｌｉｎｋｓ,,株式会社,東京都,渋谷区,道玄坂１丁目１０番８号渋谷道玄坂東急ビル２Ｆ－Ｃ,,13,113,1500043,,,,,,,2025-03-18,1,,,,,ルミリンクス,0
985,5011501031809,新規,0,2025-03-18,2025-03-18,生茂株式会社,,株式会社,東京都,荒川区,町屋３丁目１８－１２ＮＤビル２２５号,,13,118,1160001,,,,,,,2025-03-18,1,,,,,オイシゲ,0
988,5011701028159,新規,0,2025-03-18,2025-03-18,株式会社ＢＥＰＰ,,株式会社,東京都,江戸川区,東瑞江３丁目６番３－２０６号,,13,123,1320014,,,,,,,2025-03-18,1,,,,,ベップ,0
989,5011701028167,新規,0,2025-03-18,2025-03-18,株式会社Ｉｎｆｉｎｉｔｙ　Ｘ,,株式会社,東京都,江戸川区,松島３丁目２３番１５号,,13,123,1320031,,,,,,,2025-03-18,1,,,,,インフィニティエックス,0
991,5011801045780,新規,0,2025-03-18,2025-03-18,Ｐｏｋｋｅ　Ｐｌａｎｅｔ株式会社,,株式会社,東京都,足立区,東綾瀬２丁目１７番２１号,,13,121,1200004,,,,,,,2025-03-18,1,,,,,ポッケプラネット,0
994,5012805003320,新規,0,2025-03-18,2025-03-18,医療法人社団慶澪会,,その他の設立登記法人,東京都,国分寺市,本町２丁目１０番９号２階,,13,214,1850012,,,,,,,2025-03-18,1,,,,,ケイリョウカイ,0
995,5013103001413,新規,0,2025-03-18,2025-03-18,合同会社すまいぷる,,合同会社,東京都,西多摩郡日の出町,大字平井２１６１番地１６神田ビル２０３号室,,13,305,1900182,,,,,,,2025-03-18,1,,,,,スマイプル,0
997,5013301053933,新規,0,2025-03-18,2025-03-18,株式会社サトリ,,株式会社,東京都,豊島区,東池袋２丁目６２番８号ＢＩＧオフィスプラザ池袋１２０６,,13,116,1700013,,,,,,,2025-03-18,1,,,,,サトリ,0
1006,5020001161801,新規,0,2025-03-18,2025-03-18,千景株式会社,,株式会社,神奈川県,横浜市神奈川区,片倉３丁目７番１２－１０４,,14,102,2210865,,,,,,,2025-03-18,1,,,,,チカゲ,0
1007,5020001161867,新規,0,2025-03-18,2025-03-18,マホーコク商会株式会社,,株式会社,神奈川県,横浜市神奈川区,金港町５－１４クアドリフォリオ８階,,14,102,2210056,,,,,,,2025-03-18,1,,,,,マホーコクショウカイ,0
1008,5020001161891,新規,0,2025-03-18,2025-03-18,株式会社ＩＢＥＲＩＳ,,株式会社,神奈川県,横浜市港北区,篠原町３０２５－２グランディールＩ２０１号室,00138384,14,109,2220026,,,,,,,2025-03-18,1,,,,,イベリス,0
1009,5020001161909,新規,0,2025-03-18,2025-03-18,株式会社Ｌｉｎｋｕｐ,,株式会社,神奈川県,横浜市中区,伊勢佐木町５丁目１２７－１８ＫＧＲ×ＢＬＤ４Ｆ,,14,104,2310045,,,,,,,2025-03-18,1,,,,,リンクアップ,0
1010,5020001161941,新規,0,2025-03-18,2025-03-18,株式会社Ｈａｒｍｏｎｙ,,株式会社,神奈川県,横浜市中区,日本大通７番地合人社横浜日本大通７ビル４Ｆ,,14,104,2310021,,,,,,,2025-03-18,1,,,,,ハーモニー,0
1011,5020003027942,新規,0,2025-03-18,2025-03-18,合同会社ポエッタ,,合同会社,神奈川県,横浜市西区,浅間町１丁目４番３号ウィザードビル４０２,,14,103,2200072,,,,,,,2025-03-18,1,,,,,ポエッタ,0
1012,5020003028008,新規,0,2025-03-18,2025-03-18,合同会社経理心,,合同会社,神奈川県,横浜市保土ケ谷区,上菅田町８８９番地３８,,14,106,2400051,,,,,,,2025-03-18,1,,,,,ケイリココロ,0
1013,5020003028040,新規,0,2025-03-18,2025-03-18,合同会社Ｒｉｋｋｙｏ,,合同会社,神奈川県,横浜市中区,松影町２丁目７番地９さかえ館４１５,,14,104,2310025,,,,,,,2025-03-18,1,,,,,リッキョウ,0
1014,5020003028107,新規,0,2025-03-18,2025-03-18,合同会社オプティマム,,合同会社,神奈川県,川崎市宮前区,土橋４丁目６－１－３０７,,14,136,2160005,,,,,,,2025-03-18,1,,,,,オプティマム,0
1025,5021003015747,新規,0,2025-03-18,2025-03-18,ｎｉｎｅ．４Ｕ合同会社,,合同会社,神奈川県,茅ヶ崎市,小和田３丁目１６－２６－１０３エクレール,,14,207,2530012,,,,,,,2025-03-18,1,,,,,ナインフォーユー,0
1030,5030001165446,新規,0,2025-03-18,2025-03-18,株式会社上上,,株式会社,埼玉県,北足立郡伊奈町,本町１丁目２２６,,11,301,3620804,,,,,,,2025-03-18,1,,,,,ジョウジョウ,0
1031,5030001165470,新規,0,2025-03-18,2025-03-18,株式会社ロワ,,株式会社,埼玉県,さいたま市緑区,大字南部領辻４０５７,00138379,11,109,3360973,,,,,,,2025-03-18,1,,,,,ロワ,0
1036,5030003026357,新規,0,2025-03-18,2025-03-18,Ｑ＆Ｔ合同会社,,合同会社,埼玉県,川越市,菅原町１９－１伊勢原六番館３０７,,11,201,3500046,,,,,,,2025-03-18,1,,,,,キューアンドティー,0
1044,5040001137477,新規,0,2025-03-18,2025-03-18,香港乗方国際投資日本株式会社,,株式会社,千葉県,山武市,富田トの４７１番地１－２Ｆ,,12,237,2891321,,,,,,,2025-03-18,1,,,,,ホンコンジョウホウコクサイトウシニホン,0
1045,5040001137816,新規,0,2025-03-18,2025-03-18,株式会社ＭＡＬＵＬＡＮＩ,,株式会社,千葉県,千葉市中央区,富士見２丁目１６番４号,,12,101,2600015,,,,,,,2025-03-18,1,,,,,マルラニ,0
1046,5040001137873,新規,0,2025-03-18,2025-03-18,株式会社ドリームカーズ,,株式会社,千葉県,東金市,東金１３０８番地３ツインパレスＢ－１０２,,12,213,2830802,,,,,,,2025-03-18,1,,,,,ドリームカーズ,0
1047,5040001137881,新規,0,2025-03-18,2025-03-18,株式会社アール・エス・ダブリュー,,株式会社,千葉県,鎌ケ谷市,北中沢２丁目２５番４２号,,12,224,2730111,,,,,,,2025-03-18,1,,,,,アールエスダブリュー,0
1050,5040003027049,新規,0,2025-03-18,2025-03-18,合同会社よし,,合同会社,千葉県,市川市,北国分４丁目２‐１９,,12,203,2720836,,,,,,,2025-03-18,1,,,,,ヨシ,0
1056,5050001056338,新規,0,2025-03-18,2025-03-18,岡田株式会社,,株式会社,茨城県,常陸太田市,瑞龍町５５３番地,,08,212,3130003,,,,,,,2025-03-18,1,,,,,オカダ,0
1058,5050003009120,新規,0,2025-03-18,2025-03-18,ＲＹＳ電工合同会社,,合同会社,茨城県,行方市,次木１０３３番地４,,08,233,3111722,,,,,,,2025-03-18,1,,,,,ライズデンコウ,0
1061,5070001042740,新規,0,2025-03-18,2025-03-18,株式会社ハミーファーム,,株式会社,群馬県,太田市,大原町８２番地１５７,,10,205,3792304,,,,,,,2025-03-18,1,,,,,ハミーファーム,0
1064,5080403005229,新規,0,2025-03-18,2025-03-18,合同会社ダイヤモンドハート,,合同会社,静岡県,湖西市,梅田５９番地の１,,22,221,4310425,,,,,,,2025-03-18,1,,,,,ダイヤモンドハート,0
1065,5100001038396,新規,0,2025-03-18,2025-03-18,株式会社梨の木,,株式会社,長野県,長野市,大字高田３４１－６,,20,201,3810034,,,,,,,2025-03-18,1,,,,,ナシノキ,0
1066,5100003008042,新規,0,2025-03-18,2025-03-18,ＮＥＸＴ合同会社,,合同会社,長野県,茅野市,湖東８６９６－１サンコーポ２号棟１－Ｂ,,20,214,3910211,,,,,,,2025-03-18,1,,,,,ネクスト,0
1067,5100005013313,新規,0,2025-03-18,2025-03-18,一般社団法人いきいきライフ協会伊南,,その他の設立登記法人,長野県,駒ヶ根市,赤穂１０１９番地２,,20,210,3994117,,,,,,,2025-03-18,1,,,,,イキイキライフキョウカイイナン,0
1079,5120001273594,新規,0,2025-03-18,2025-03-18,株式会社ＡＫＥＩＧＨＴ８,,株式会社,大阪府,大阪市天王寺区,国分町２番１８号,,27,109,5430044,,,,,,,2025-03-18,1,,,,,エイケイエイト,0
1080,5120001273735,新規,0,2025-03-18,2025-03-18,株式会社ｓｉｓｔｅｍａｒｅ,,株式会社,大阪府,大阪市城東区,関目２丁目１６番２８－２１２号,,27,118,5360008,,,,,,,2025-03-18,1,,,,,システマーレ,0
1081,5120001273743,新規,0,2025-03-18,2025-03-18,株式会社ＹＵＵＳＥＩ,,株式会社,大阪府,大阪市浪速区,塩草１丁目２番９号ＥＸＥ難波西２－２０２号室,,27,111,5560024,,,,,,,2025-03-18,1,,,,,ユウセイ,0
1082,5120001273818,新規,0,2025-03-18,2025-03-18,ｍｏｒｆａｃｅ株式会社,,株式会社,大阪府,大阪市浪速区,敷津東２丁目１番２４－４０３号,,27,111,5560012,,,,,,,2025-03-18,1,,,,,モルフェイス,0
1083,5120001273859,新規,0,2025-03-18,2025-03-18,オプセントラ株式会社,,株式会社,大阪府,大阪市北区,梅田１丁目１－３大阪駅前第３ビル２９階１－１－１号室,,27,127,5300001,,,,,,,2025-03-18,1,,,,,オプセントラ,0
1084,5120001273917,新規,0,2025-03-18,2025-03-18,株式会社ＨＲ,,株式会社,大阪府,大阪市中央区,北久宝寺町４丁目３番５号本町サミットビル２Ｆ,,27,128,5410057,,,,,,,2025-03-18,1,,,,,エイチアール,0
1087,5120101071238,新規,0,2025-03-18,2025-03-18,株式会社Ｆａｍｉｌｙ　Ｏｆｆｉｃｅ　ＩＪＫ,,株式会社,大阪府,堺市美原区,木材通２丁目２番８７号,,27,147,5870042,,,,,,,2025-03-18,1,,,,,ファミリーオフィスアイジェイケイ,0
1090,5120103006332,新規,0,2025-03-18,2025-03-18,合同会社ＫＡＺＵ,,合同会社,大阪府,和泉市,和気町２丁目２番５号,,27,219,5940073,,,,,,,2025-03-18,1,,,,,カズ,0
1091,5120105009985,新規,0,2025-03-18,2025-03-18,一般社団法人かたつむり,,その他の設立登記法人,大阪府,泉佐野市,岡本２丁目３番１６号,,27,213,5980036,,,,,,,2025-03-18,1,,,,,カタツムリ,0
1096,5122003003145,新規,0,2025-03-18,2025-03-18,合同会社ｔｅｎｔｅｉ,,合同会社,大阪府,大東市,南津の辺町８番８号,,27,218,5740016,,,,,,,2025-03-18,1,,,,,テンテイ,0
1100,5130003010292,新規,0,2025-03-18,2025-03-18,ＯＨＡＮＡ合同会社,,合同会社,京都府,京都市右京区,嵯峨天龍寺芒ノ馬場町３－２５嵐山スクエア,,26,108,6168385,,,,,,,2025-03-18,1,,,,,オハナ,0
1109,5140001137723,新規,0,2025-03-18,2025-03-18,株式会社中建,,株式会社,兵庫県,姫路市,町坪１５番地４,,28,201,6700984,,,,,,,2025-03-18,1,,,,,ナカケン,0
1110,5140001137748,新規,0,2025-03-18,2025-03-18,株式会社エコランドライフ,,株式会社,兵庫県,神崎郡神河町,川上４８７番地の１,,28,446,6793104,,,,,,,2025-03-18,1,,,,,エコランドライフ,0
1111,5140001137789,新規,0,2025-03-18,2025-03-18,株式会社Ｇｒｉｌｌｚ,,株式会社,兵庫県,神戸市中央区,三宮町３丁目１番１６号三星ビル５階,,28,110,6500021,,,,,,,2025-03-18,1,,,,,グリルズ,0
1122,5180001165828,新規,0,2025-03-18,2025-03-18,みらい創建株式会社,,株式会社,愛知県,名古屋市天白区,野並２丁目１５０番地,,23,116,4680045,,,,,,,2025-03-18,1,,,,,ミライソウケン,0
1123,5180001165860,新規,0,2025-03-18,2025-03-18,Ｌａｌａｒｉｓ株式会社,,株式会社,愛知県,豊明市,三崎町高鴨９－５・１Ａ,,23,229,4701126,,,,,,,2025-03-18,1,,,,,ララリス,0
1124,5180001165902,新規,0,2025-03-18,2025-03-18,株式会社ＧＲＥＡＴ　ＯＦ　ＢＡＮＫ,,株式会社,愛知県,名古屋市中区,千代田１丁目４番２２号プラセシオン久屋大通公園９０３号,,23,106,4600012,,,,,,,2025-03-18,1,,,,,グレートオブバンク,0
1125,5180001165951,新規,0,2025-03-18,2025-03-18,株式会社ＺｏｏＮｅｘｔ,,株式会社,愛知県,名古屋市中川区,長良町１丁目８０番地,,23,110,4540815,,,,,,,2025-03-18,1,,,,,ズーネクスト,0
1126,5180001165976,新規,0,2025-03-18,2025-03-18,株式会社ＯＭＡＲ　ＴＲＡＤＩＮＧ,,株式会社,愛知県,弥富市,桴場２丁目３３６番地,,23,235,4901404,,,,,,,2025-03-18,1,,,,,オマールトレーディング,0
1127,5180003028157,新規,0,2025-03-18,2025-03-18,ＡｓｈｉｔａＬａｂ合同会社,,合同会社,愛知県,稲沢市,大塚北１丁目８８番地アンジェリーク１８８、１０４号,,23,220,4928215,,,,,,,2025-03-18,1,,,,,アシタラボ,0
1131,5180301039616,新規,0,2025-03-18,2025-03-18,ＰＬＡＮＴ　ＣＡＳＥ株式会社,,株式会社,愛知県,豊橋市,豊清町字茶屋ノ下２番地５５８,,23,201,4413115,,,,,,,2025-03-18,1,,,,,プラントケース,0
1132,5180303006498,新規,0,2025-03-18,2025-03-18,合同会社悠る莉,,合同会社,愛知県,岡崎市,宮地町字郷東２８番地２,,23,202,4440202,,,,,,,2025-03-18,1,,,,,ユルリ,0
1134,5190003004966,新規,0,2025-03-18,2025-03-18,合同会社カナダ,,合同会社,三重県,鈴鹿市,若松東２丁目９番５号,,24,207,5100225,,,,,,,2025-03-18,1,,,,,カナダ,0
1138,5250001021040,新規,0,2025-03-18,2025-03-18,株式会社ＲＡＣＩコーポレート,,株式会社,山口県,岩国市,室の木町４丁目５６番２６号,,35,208,7400021,,,,,,,2025-03-18,1,,,,,レイシーコーポレート,0
1140,5260003005098,新規,0,2025-03-18,2025-03-18,ＩＭＢＤ合同会社,,合同会社,岡山県,岡山市北区,柳町２丁目１１－２０ダイトクビル２Ｆ,,33,101,7000904,,,,,,,2025-03-18,1,,,,,アイエムビーディー,0
1142,5290001109328,新規,0,2025-03-18,2025-03-18,株式会社エスティーノ,,株式会社,福岡県,太宰府市,五条６丁目１３番２５号,,40,221,8180125,,,,,,,2025-03-18,1,,,,,エスティーノ,0
1144,5310005008837,新規,0,2025-03-18,2025-03-18,ＮＵＣＡ協同組合,,その他の設立登記法人,長崎県,長崎市,田中町２７９番地４,,42,201,8510134,,,,,,,2025-03-18,1,,,,,エヌユーシーエー,0
1154,5360001034931,新規,0,2025-03-18,2025-03-18,株式会社ｉ‐ｔｅｃ,,株式会社,沖縄県,南城市,知念字久原４３２番地３,,47,215,9011505,,,,,,,2025-03-18,1,,,,,アイテック,0
1164,5370001052370,新規,0,2025-03-18,2025-03-18,みやがた株式会社,,株式会社,宮城県,仙台市宮城野区,福田町４丁目４番６号,,04,102,9830023,,,,,,,2025-03-18,1,,,,,ミヤガタ,0
1168,5380001035168,新規,0,2025-03-18,2025-03-18,株式会社Ｓｎｏｗ　Ｍｏｏｎ,,株式会社,福島県,いわき市,小島町２丁目６番地の１０,,07,204,9738411,,,,,,,2025-03-18,1,,,,,スノームーン,0
1173,5380005012931,新規,0,2025-03-18,2025-03-18,医療法人ＫＭＣ,,その他の設立登記法人,福島県,会津若松市,大町１丁目２番２０号,,07,202,9650042,,,,,,,2025-03-18,1,,,,,ケイエムシー,0
1195,6010001253012,新規,0,2025-03-18,2025-03-18,マール株式会社,,株式会社,東京都,千代田区,平河町２丁目５番３号ＭＩＤＯＲＩ．ｓｏ・ＮＡＧＡＴＡＣＨＯ３階,,13,101,1020093,,,,,,,2025-03-18,1,,,,,マール,0
1198,6010003046760,新規,0,2025-03-18,2025-03-18,合同会社ＤＬ狭山日高,,合同会社,東京都,千代田区,内神田１丁目３番７号４０１あすな会計事務所内,,13,101,1010047,,,,,,,2025-03-18,1,,,,,ディーエルサヤマヒダカ,0
1200,6010401188915,新規,0,2025-03-18,2025-03-18,株式会社Ｍｏｏｎ　Ｓｔｕｄｉｏｓ,,株式会社,東京都,港区,南青山６丁目１２番１０号,,13,103,1070062,,,,,,,2025-03-18,1,,,,,ムーンストゥディオス,0
1202,6010501053804,新規,0,2025-03-18,2025-03-18,株式会社ロバのパンヤ,,株式会社,東京都,台東区,根岸５丁目１６番１５－３０５号,,13,106,1100003,,,,,,,2025-03-18,1,,,,,ロバノパンヤ,0
1203,6010501053812,新規,0,2025-03-18,2025-03-18,株式会社Ｖ＆Ｊシナジー,,株式会社,東京都,台東区,東上野２丁目２３番２３号,,13,106,1100015,,,,,,,2025-03-18,1,,,,,,0
1204,6010501053820,新規,0,2025-03-18,2025-03-18,錦洲国際開発株式会社,,株式会社,東京都,台東区,東上野１丁目２２番１号宝華ビル３階Ｂ室,,13,106,1100015,,,,,,,2025-03-18,1,,,,,キンシュウコクサイカイハツ,0
1205,6010503007766,新規,0,2025-03-18,2025-03-18,フォーチュン合同会社,,合同会社,東京都,台東区,寿３丁目１５番６号ＴＣＲＥ上野浅草３０２,,13,106,1110042,,,,,,,2025-03-18,1,,,,,フォーチュン,0
1207,6010601066953,新規,0,2025-03-18,2025-03-18,ＢＬＡＣＫ　ＮＥＫＯ株式会社,,株式会社,東京都,江東区,東陽５丁目１７番４号２Ｆ,,13,108,1350016,,,,,,,2025-03-18,1,,,,,ブラックネコ,0
1208,6010603011453,新規,0,2025-03-18,2025-03-18,天一合同会社,,合同会社,東京都,墨田区,横川３丁目６番７号２－Ｅ室,,13,107,1300003,,,,,,,2025-03-18,1,,,,,テンイチ,0
1209,6010701047358,新規,0,2025-03-18,2025-03-18,株式会社ｏｖｅｒｓｋｒｉｄｅ,,株式会社,東京都,品川区,上大崎３丁目４－１サンリオンインターナショナルビル３Ｆ,,13,109,1410021,,,,,,,2025-03-18,1,,,,,オーバースクライド,0
1210,6010701047408,新規,0,2025-03-18,2025-03-18,株式会社ＳＴＥＲＲＡ,,株式会社,東京都,品川区,二葉１丁目２３番１号,,13,109,1420043,,,,,,,2025-03-18,1,,,,,ステラ,0
1211,6010703007624,新規,0,2025-03-18,2025-03-18,ＴＨＯＫＡＲ合同会社,,合同会社,東京都,品川区,大井４丁目１２番１３号コーポ倉田２０３,,13,109,1400014,,,,,,,2025-03-18,1,,,,,トーカー,0
1220,6011001168217,新規,0,2025-03-18,2025-03-18,株式会社グロスケット,,株式会社,東京都,渋谷区,道玄坂１丁目１０番８号渋谷道玄坂東急ビル２Ｆ－Ｃ,,13,113,1500043,,,,,,,2025-03-18,1,,,,,グロスケット,0
1224,6011101110994,新規,0,2025-03-18,2025-03-18,株式会社ＣＡＶＡＬＲＹ,,株式会社,東京都,新宿区,新宿２丁目１２番１３号新宿アントレサロンビル２階,,13,104,1600022,,,,,,,2025-03-18,1,,,,,カヴァリィ,0
1229,6011701028109,新規,0,2025-03-18,2025-03-18,株式会社９１９Ｌｉｎｋ,,株式会社,東京都,江戸川区,西小松川町３５番地２,,13,123,1320032,,,,,,,2025-03-18,1,,,,,キュウイチキュウリンク,0
1234,6011801045821,新規,0,2025-03-18,2025-03-18,三栄株式会社,,株式会社,東京都,葛飾区,亀有２丁目３１番１１号,,13,122,1250061,,,,,,,2025-03-18,1,,,,,サンエイ,0
1235,6012401042894,新規,0,2025-03-18,2025-03-18,株式会社Ｄｅｆｉ,,株式会社,東京都,三鷹市,深大寺１丁目２－２６,,13,204,1810016,,,,,,,2025-03-18,1,,,,,デフィ,0
1238,6013301053932,新規,0,2025-03-18,2025-03-18,Ｓ＆Ｙ株式会社,,株式会社,東京都,豊島区,池袋２丁目４９番１号,,13,116,1710014,,,,,,,2025-03-18,1,,,,,エスアンドワイ,0
1245,6020001161742,新規,0,2025-03-18,2025-03-18,株式会社ＯＳＴ,,株式会社,神奈川県,川崎市多摩区,登戸２０９１－３－２アンファンドソレイユ２階,,14,135,2140014,,,,,,,2025-03-18,1,,,,,オーエスティー,0
1246,6020001161841,新規,0,2025-03-18,2025-03-18,株式会社ＧＯＯＳＴ,,株式会社,神奈川県,横浜市神奈川区,三枚町９６番地１ウィンドミル片倉１０２号,,14,102,2210862,,,,,,,2025-03-18,1,,,,,グースト,0
1247,6020003028080,新規,0,2025-03-18,2025-03-18,合同会社ＤＡＮ,,合同会社,神奈川県,横浜市栄区,野七里２丁目４番１７号,,14,115,2470024,,,,,,,2025-03-18,1,,,,,ダン,0
1253,6021001084751,新規,0,2025-03-18,2025-03-18,株式会社スターク,,株式会社,神奈川県,相模原市南区,西大沼１丁目２６番９号,,14,153,2520332,,,,,,,2025-03-18,1,,,,,スターク,0
1254,6021003015754,新規,0,2025-03-18,2025-03-18,合同会社ｍａｒｕｙｕｕ,,合同会社,神奈川県,横須賀市,小川町２６番地８加瀬ビル２０９,,14,201,2380004,,,,,,,2025-03-18,1,,,,,マルユウ,0
1264,6030003026348,新規,0,2025-03-18,2025-03-18,合同会社Ｈ’ｓ．ｍａｐ,,合同会社,埼玉県,所沢市,大字下安松１８４番地の１１,,11,208,3590024,,,,,,,2025-03-18,1,,,,,エイチズマップ,0
1267,6040001060067,新規,0,2025-03-18,2025-03-18,株式会社アース・ウィング,,株式会社,千葉県,長生郡白子町,南日当９５３番地１８,,12,424,2994205,,,,,,,2025-03-18,1,,,,,アースウィング,0
1272,6040001137798,新規,0,2025-03-18,2025-03-18,スカイリニューアル株式会社,,株式会社,千葉県,松戸市,松戸１３０７番地の１松戸ビル１３Ｆ,,12,207,2710092,,,,,,,2025-03-18,1,,,,,スカイリニューアル,0
1274,6040001137848,新規,0,2025-03-18,2025-03-18,株式会社Ｏ‐ｍｏｔｈｅｒ,,株式会社,千葉県,浦安市,高洲５丁目１番Ｇ－１５０４号レジアスフォート新浦安,,12,227,2790023,,,,,,,2025-03-18,1,,,,,オーマザー,0
1275,6040001137864,新規,0,2025-03-18,2025-03-18,株式会社瀧本,,株式会社,千葉県,木更津市,東太田２丁目１３番８号,,12,206,2920043,,,,,,,2025-03-18,1,,,,,タキモト,0
1276,6040001137872,新規,0,2025-03-18,2025-03-18,株式会社幸陽イターナルホールディングス,,株式会社,千葉県,柏市,藤心９６２番地,,12,217,2770034,,,,,,,2025-03-18,1,,,,,コウヨウイターナルホールディングス,0
1281,6050001056337,新規,0,2025-03-18,2025-03-18,茨城直売株式会社,,株式会社,茨城県,つくば市,稲岡６１４番地,,08,220,3050071,,,,,,,2025-03-18,1,,,,,イバラキチョクバイ,0
1285,6060001038037,新規,0,2025-03-18,2025-03-18,ＴＨＲＥＥ　ＢＲＯＴＨＥＲＳ株式会社,,株式会社,栃木県,宇都宮市,錦３丁目９－２７,,09,201,3210967,,,,,,,2025-03-18,1,,,,,スリーブラザーズ,0
1287,6060003005464,新規,0,2025-03-18,2025-03-18,合同会社誉心オート,,合同会社,栃木県,小山市,大字大行寺１０６７番５ＴＫビル１階,,09,208,3230041,,,,,,,2025-03-18,1,,,,,ヨウシンオート,0
1288,6060005010314,新規,0,2025-03-18,2025-03-18,農事組合法人ＹＤ４,,その他の設立登記法人,栃木県,矢板市,富田５３１－１０,,09,211,3292145,,,,,,,2025-03-18,1,,,,,ワイディヨン,0
1295,6080105006490,新規,0,2025-03-18,2025-03-18,一般社団法人熱海伊豆山地域活性化推進協会,,その他の設立登記法人,静岡県,熱海市,伊豆山６２４番地,,22,205,4130002,,,,,,,2025-03-18,1,,,,,,0
1299,6100001038404,新規,0,2025-03-18,2025-03-18,株式会社グラビティ,,株式会社,長野県,南佐久郡佐久穂町,大字高野町２９１３番地６,,20,309,3840613,,,,,,,2025-03-18,1,,,,,グラビティ,0
1301,6100005013312,新規,0,2025-03-18,2025-03-18,医療法人こばやし矯正歯科,,その他の設立登記法人,長野県,長野市,川中島町御厨９４１番地１,,20,201,3812221,,,,,,,2025-03-18,1,,,,,コバヤシキョウセイシカ,0
1306,6120001273718,新規,0,2025-03-18,2025-03-18,株式会社Ｍｕｓｕｂｕ　Ｂｅａｒｄ,,株式会社,大阪府,大阪市淀川区,宮原１丁目１３番１－１４０５号,,27,123,5320003,,,,,,,2025-03-18,1,,,,,ムスブビアード,0
1307,6120001273742,新規,0,2025-03-18,2025-03-18,株式会社ＭＡＫＯ,,株式会社,大阪府,大阪市福島区,玉川４丁目１４番８号今村ビル１０１,,27,103,5530004,,,,,,,2025-03-18,1,,,,,マコ,0
1308,6120001273783,新規,0,2025-03-18,2025-03-18,１ＳＴＡＧＥ株式会社,,株式会社,大阪府,大阪市中央区,千日目二丁目６番８号５０３,,27,128,5390000,,,,,,,2025-03-18,1,,,,,ワンステージ,0
1309,6120001273800,新規,0,2025-03-18,2025-03-18,株式会社Ｍ’ｓ,,株式会社,大阪府,大阪市生野区,巽東２丁目８番４号,00138382,27,116,5440014,,,,,,,2025-03-18,1,,,,,エムズ,0
1310,6120001273858,新規,0,2025-03-18,2025-03-18,株式会社Ｒａｙ,,株式会社,大阪府,大阪市中央区,南船場３丁目２番２２号おおきに南船場ビル２０５,,27,128,5420081,,,,,,,2025-03-18,1,,,,,レイ,0
1311,6120001273957,新規,0,2025-03-18,2025-03-18,ロナテクノロジーズ株式会社,,株式会社,大阪府,大阪市阿倍野区,晴明通３番１号グランアッシュ晴明丘９０１号,,27,119,5450032,,,,,,,2025-03-18,1,,,,,ロナテクノロジーズ,0
1313,6120003028839,新規,0,2025-03-18,2025-03-18,ＥＬＩＴＥ　ＡＳＩＡ　ＰＲＯ合同会社,,合同会社,大阪府,大阪市天王寺区,味原町１３－９サンエイ下味原第二ビル３Ｆ－２６,,27,109,5430023,,,,,,,2025-03-18,1,,,,,エリートアジアプロ,0
1314,6120003028871,新規,0,2025-03-18,2025-03-18,ＦＯＲＴＵＮＥ合同会社,,合同会社,大阪府,大阪市生野区,新今里３丁目２２番１９号サンハイツ今里５０６号,,27,116,5440001,,,,,,,2025-03-18,1,,,,,フォートゥーヌ,0
1316,6120101071311,新規,0,2025-03-18,2025-03-18,株式会社ＨＡＪＩＭＥ,,株式会社,大阪府,和泉市,池田下町２５４６－１３,,27,219,5940032,,,,,,,2025-03-18,1,,,,,ハジメ,0
1317,6120103006331,新規,0,2025-03-18,2025-03-18,合同会社つなぐ,,合同会社,大阪府,堺市堺区,向陵東町２－１２－２７,,27,141,5900000,,,,,,,2025-03-18,1,,,,,ツナグ,0
1327,6130001079230,新規,0,2025-03-18,2025-03-18,株式会社サンライズ,,株式会社,京都府,京都市右京区,西院日照町１８－３０１,,26,108,6150065,,,,,,,2025-03-18,1,,,,,サンライズ,0
1328,6130003010291,新規,0,2025-03-18,2025-03-18,ＵＭＤマネジメント合同会社,,合同会社,京都府,向日市,寺戸町寺田５０－１,,26,208,6170002,,,,,,,2025-03-18,1,,,,,ユーエムディーマネジメント,0
1330,6140001137722,新規,0,2025-03-18,2025-03-18,ＫＯＭＡＫＩ　Ｊａｐａｎ株式会社,,株式会社,兵庫県,神戸市須磨区,白川台６丁目４番地の２０,,28,107,6540103,,,,,,,2025-03-18,1,,,,,コマキジャパン,0
1331,6140001137755,新規,0,2025-03-18,2025-03-18,株式会社志方工業,,株式会社,兵庫県,姫路市,城東町清水１６番地京口団地２棟１０７号,,28,201,6700843,,,,,,,2025-03-18,1,,,,,シカタコウギョウ,0
1332,6140001137771,新規,0,2025-03-18,2025-03-18,株式会社ＳＥＰＲＯＳ神戸,,株式会社,兵庫県,神戸市中央区,山本通２丁目１３－１５ＷＡＬＬＳＱＵＡＲＥ北野坂,,28,110,6500003,,,,,,,2025-03-18,1,,,,,セプロスコウベ,0
1342,6180001165918,新規,0,2025-03-18,2025-03-18,ｔｈｙｎｋ株式会社,,株式会社,愛知県,名古屋市西区,南川町４６－１,,23,104,4520814,,,,,,,2025-03-18,1,,,,,シンク,0
1343,6180001165926,新規,0,2025-03-18,2025-03-18,英昌ワークス株式会社,,株式会社,愛知県,知多郡武豊町,字壱町田９０番地３２３,,23,447,4702301,,,,,,,2025-03-18,1,,,,,エイショウワークス,0
1344,6180001165934,新規,0,2025-03-18,2025-03-18,株式会社ＣＡＴ,,株式会社,愛知県,名古屋市名東区,上社２丁目１７番地,,23,115,4650025,,,,,,,2025-03-18,1,,,,,シーエーティー,0
1345,6180001165959,新規,0,2025-03-18,2025-03-18,Ｉｎｖｉｎｃｉｂｌｅ　Ｓｐｅｃｕｌａｔｏｒｓ株式会社,,株式会社,愛知県,名古屋市中区,丸の内２丁目４－１８ａｔｔｒａｃｔｉｏｎＩＩ号,00138380,23,106,4600002,,,,,,,2025-03-18,1,,,,,インビンシブルスペキュレーターズ,0
1346,6180001165975,新規,0,2025-03-18,2025-03-18,株式会社リフト,,株式会社,愛知県,名古屋市名東区,社が丘２丁目１１１５番地の１（ユニーブル社が丘テラス１０１号）,,23,115,4650051,,,,,,,2025-03-18,1,,,,,リフト,0
1353,6180003028123,新規,0,2025-03-18,2025-03-18,メタセコイア合同会社,,合同会社,愛知県,名古屋市東区,泉１丁目１１番６号,,23,102,4610001,,,,,,,2025-03-18,1,,,,,メタセコイア,0
1354,6180003028148,新規,0,2025-03-18,2025-03-18,合同会社ブレインリンク,,合同会社,愛知県,名古屋市名東区,上社４丁目１２０－１,,23,115,4650025,,,,,,,2025-03-18,1,,,,,ブレインリンク,0
1355,6180005020986,新規,0,2025-03-18,2025-03-18,Ｍｏｎｉｈｅｉ協同組合,,その他の設立登記法人,愛知県,名古屋市港区,土古町２丁目５番地,,23,111,4550068,,,,,,,2025-03-18,1,,,,,モニヘイ,0
1356,6180301039623,新規,0,2025-03-18,2025-03-18,株式会社Ｈ＆Ｇ,,株式会社,愛知県,高浜市,神明町２丁目５番地２４,,23,227,4441305,,,,,,,2025-03-18,1,,,,,エイチアンドジー,0
1360,6190005012025,新規,0,2025-03-18,2025-03-18,特定非営利活動法人ＣＬＵＢ霞ヶ浦の風,,その他の設立登記法人,三重県,四日市市,八千代台１丁目１番地１７３,,24,202,5128047,,,,,,,2025-03-18,1,,,,,クラブカスミガウラノカゼ,0
1369,6230003002394,新規,0,2025-03-18,2025-03-18,ベジタブルＸハウス合同会社,,合同会社,富山県,高岡市,内免２丁目８番４０号,,16,202,9330941,,,,,,,2025-03-18,1,,,,,ベジタブルカケルハウス,0
1380,6290001109293,新規,0,2025-03-18,2025-03-18,株式会社ＳＥＤコンサルタント,,株式会社,福岡県,福岡市博多区,博多駅前２丁目１７番８号安田第４ビル,,40,132,8120011,,,,,,,2025-03-18,1,,,,,セドコンサルタント,0
1381,6290001109343,新規,0,2025-03-18,2025-03-18,株式会社ネオライズ,,株式会社,福岡県,福岡市博多区,博多駅前１丁目２３番２号ＰａｒｋＦｒｏｎｔ博多駅前１丁目５Ｆ－Ｂ,,40,132,8120011,,,,,,,2025-03-18,1,,,,,ネオライズ,0
1388,6300001014120,新規,0,2025-03-18,2025-03-18,株式会社ｈｏｐｐａｓ,,株式会社,佐賀県,佐賀市,大和町大字尼寺３３４９番地１３,,41,201,8400201,,,,,,,2025-03-18,1,,,,,ホッパス,0
1389,6310005008836,新規,0,2025-03-18,2025-03-18,医療法人西海メディケアブリッジ,,その他の設立登記法人,長崎県,西海市,大島町１８９５番地３,,42,212,8572427,,,,,,,2025-03-18,1,,,,,サイカイメディケアブリッジ,0
1397,6360003014781,新規,0,2025-03-18,2025-03-18,合同会社ソフラ,,合同会社,沖縄県,うるま市,字喜屋武４２３番地メゾンサンモール１階１Ａ号,,47,213,9042225,,,,,,,2025-03-18,1,,,,,ソフラ,0
1400,6380001035167,新規,0,2025-03-18,2025-03-18,兎月産業株式会社,,株式会社,福島県,いわき市,平下片寄字北作１７２番地,,07,204,9708012,,,,,,,2025-03-18,1,,,,,トゲツサンギョウ,0
1403,6380005012939,新規,0,2025-03-18,2025-03-18,一般社団法人サステナブル・ソーラーふくしま,,その他の設立登記法人,福島県,郡山市,西田町鬼生田字西原２８８番地,,07,203,9630921,,,,,,,2025-03-18,1,,,,,サステナブルソーラーフクシマ,0
1412,6430003017414,新規,0,2025-03-18,2025-03-18,Ｕｎｃｌｅ８２合同会社,,合同会社,北海道,札幌市中央区,南五条西１５丁目２－３リズム医大前５０３号室,,01,101,0640805,,,,,,,2025-03-18,1,,,,,アンコーハチジュウニ,0
1414,6480003002246,新規,0,2025-03-18,2025-03-18,合同会社ＭＩＭＡ　ＫＥＩＴＡ　ＯＦＦＩＣＥ,,合同会社,徳島県,吉野川市,鴨島町山路１８８５番地４０,,36,205,7760036,,,,,,,2025-03-18,1,,,,,ミマケイタオフィス,0
1425,7010001253069,新規,0,2025-03-18,2025-03-18,株式会社ＳＨＩＰ第１００８号,,株式会社,東京都,千代田区,丸の内２丁目７番２号,,13,101,1000005,,,,,,,2025-03-18,1,,,,,エスエイチアイピーダイセンハチゴウ,0
1426,7010001253127,新規,0,2025-03-18,2025-03-18,株式会社ＮｏｖａＲｅＧｅｎ,,株式会社,東京都,中央区,銀座１丁目１２番４号Ｎ＆ＥＢＬＤ．６Ｆ,,13,102,1040061,,,,,,,2025-03-18,1,,,,,ノバリジェン,0
1429,7010005039778,新規,0,2025-03-18,2025-03-18,一般社団法人ＰＥＡＣＥ　ＦＯＲ　ＡＬＬ,,その他の設立登記法人,東京都,文京区,大塚６丁目１６－３,,13,105,1120012,,,,,,,2025-03-18,1,,,,,ピースフォーオール,0
1430,7010101016565,新規,0,2025-03-18,2025-03-18,ＲＯＹＡＬ株式会社,,株式会社,東京都,八王子市,台町３丁目１－１３パークサイドビル２０３,,13,201,1930931,,,,,,,2025-03-18,1,,,,,ロイヤル,0
1432,7010401188666,新規,0,2025-03-18,2025-03-18,ＥＮＷＡ株式会社,,株式会社,東京都,港区,南青山２丁目７－３０ムラハンビル１階,,13,103,1070062,,,,,,,2025-03-18,1,,,,,エンワ,0
1433,7010401188930,新規,0,2025-03-18,2025-03-18,Ｇｏｌｆ　Ｎｏｂｌｅ株式会社,,株式会社,東京都,港区,新橋５丁目２５番２号ル・グラシエルＢＬＤＧ．６０－５Ｆ,,13,103,1050004,,,,,,,2025-03-18,1,,,,,ゴルフノーブル,0
1435,7010403034629,新規,0,2025-03-18,2025-03-18,合同会社たかぱスマイル,,合同会社,東京都,港区,北青山１丁目３番１号アールキューブ青山３階,,13,103,1070061,,,,,,,2025-03-18,1,,,,,タカパスマイル,0
1436,7010403034637,新規,0,2025-03-18,2025-03-18,合同会社Ａ・ｒｕ,,合同会社,東京都,港区,南青山４丁目１８－３秀和青南レジデンス４０６,,13,103,1070062,,,,,,,2025-03-18,1,,,,,アル,0
1439,7010405024149,新規,0,2025-03-18,2025-03-18,一般社団法人介護関連サービス事業協会,,その他の設立登記法人,東京都,港区,南青山２丁目２６番３２号,,13,103,1070062,,,,,,,2025-03-18,1,,,,,カイゴカンレンサービスジギョウキョウカイ,0
1441,7010501053811,新規,0,2025-03-18,2025-03-18,ＩＢＣ株式会社,,株式会社,東京都,台東区,蔵前２丁目４番３号,,13,106,1110051,,,,,,,2025-03-18,1,,,,,アイビーシー,0
1443,7010601066969,新規,0,2025-03-18,2025-03-18,ＧＯＬＤＥＮ　ＤＲＡＧＯＮ株式会社,,株式会社,東京都,江東区,亀戸２丁目４５番２号,,13,108,1360071,,,,,,,2025-03-18,1,,,,,ゴールデンドラゴン,0
1450,7010801035939,新規,0,2025-03-18,2025-03-18,Ａｒｔｉｖａｔｉｏｎ株式会社,,株式会社,東京都,大田区,池上１丁目１２番１３号,,13,111,1460082,,,,,,,2025-03-18,1,,,,,アーティベーション,0
1459,7010901056819,新規,0,2025-03-18,2025-03-18,エピックス株式会社,,株式会社,東京都,世田谷区,池尻３丁目１１番３１号マンションニュー池尻４０１,,13,112,1540001,,,,,,,2025-03-18,1,,,,,エピックス,0
1461,7010903009774,新規,0,2025-03-18,2025-03-18,合同会社Ｒｏｎ,,合同会社,東京都,世田谷区,松原３丁目３８番１５号ＴＯＰ明大前Ｎｏ．３－２０１,,13,112,1560043,,,,,,,2025-03-18,1,,,,,ロン,0
1462,7011001168232,新規,0,2025-03-18,2025-03-18,コグアップ株式会社,,株式会社,東京都,渋谷区,渋谷１丁目１２－２クロスオフィス渋谷５０２,,13,113,1500002,,,,,,,2025-03-18,1,,,,,コグアップ,0
1465,7011103015679,新規,0,2025-03-18,2025-03-18,富ヶ谷１丁目合同会社,,合同会社,東京都,新宿区,四谷４丁目３２番８号ＹＫＢサニービル６階,,13,104,1600004,,,,,,,2025-03-18,1,,,,,トミガヤイッチョウメ,0
1466,7011105011370,新規,0,2025-03-18,2025-03-18,サン・モール第８マンション管理組合法人,,その他の設立登記法人,東京都,新宿区,新宿１丁目２０番１４号,,13,104,1600022,,,,,,,2025-03-18,1,,,,,サンモールダイハチマンション,0
1471,7011303005430,新規,0,2025-03-18,2025-03-18,合同会社ｍｉｃｏ,,合同会社,東京都,杉並区,高井戸西１丁目２３－２,,13,115,1680071,,,,,,,2025-03-18,1,,,,,ミコ,0
1472,7011303005447,新規,0,2025-03-18,2025-03-18,合同会社ＥＲＡＩＮ,,合同会社,東京都,杉並区,高井戸東２丁目１９番８号,,13,115,1680072,,,,,,,2025-03-18,1,,,,,エライン,0
1476,7011503006451,新規,0,2025-03-18,2025-03-18,ＳＥＡ合同会社,,合同会社,東京都,荒川区,西尾久７丁目４０－２－２０１号,,13,118,1160011,,,,,,,2025-03-18,1,,,,,シー,0
1482,7012401042869,新規,0,2025-03-18,2025-03-18,株式会社フェット・アン・ロゼ,,株式会社,東京都,三鷹市,牟礼５丁目２‐６,,13,204,1810002,,,,,,,2025-03-18,1,,,,,フェットアンロゼ,0
1483,7012401042902,新規,0,2025-03-18,2025-03-18,株式会社ナンテン,,株式会社,東京都,狛江市,元和泉２丁目５‐１６,,13,219,2010013,,,,,,,2025-03-18,1,,,,,ナンテン,0
1484,7013301053948,新規,0,2025-03-18,2025-03-18,千代文萃株式会社,,株式会社,東京都,豊島区,高田３丁目７番１７号２０５号室,,13,116,1710033,,,,,,,2025-03-18,1,,,,,センダイブンスイ,0
1491,7020001161881,新規,0,2025-03-18,2025-03-18,株式会社ＲａｉｎｂｏｗＦｌｕｏｒｉｔｅ,,株式会社,神奈川県,横浜市中区,曙町４丁目５６Ｌｉｂｅｒｔｙ大通り公園９０２,,14,104,2310057,,,,,,,2025-03-18,1,,,,,レインボーフローライト,0
1492,7020001161915,新規,0,2025-03-18,2025-03-18,Ｂａｒ　Ｓａｒ　Ｌｔｄ．株式会社,,株式会社,神奈川県,横浜市西区,浅間町１丁目４番３号ウィザードビル４０２,,14,103,2200072,,,,,,,2025-03-18,1,,,,,バーサーリミテッド,0
1493,7020001161931,新規,0,2025-03-18,2025-03-18,ＵＲＢＡＮＰＲＯＯＦ株式会社,,株式会社,神奈川県,川崎市中原区,小杉町３丁目６００番地コスギサードアヴェニュー１・２階,,14,133,2110063,,,,,,,2025-03-18,1,,,,,アーバンプルーフ,0
1495,7020003028088,新規,0,2025-03-18,2025-03-18,合同会社ＡＯコンサルティング,,合同会社,神奈川県,横浜市戸塚区,矢部町１４２５番地５,,14,110,2440002,,,,,,,2025-03-18,1,,,,,エイオーコンサルティング,0
1499,7021003015729,新規,0,2025-03-18,2025-03-18,合同会社テラスグッディ,,合同会社,神奈川県,相模原市南区,相模大野７丁目７番１２号,,14,153,2520303,,,,,,,2025-03-18,1,,,,,テラスグッディ,0
1500,7021003015753,新規,0,2025-03-18,2025-03-18,合同会社ＳＮＲＭ,,合同会社,神奈川県,横須賀市,小川町２６番地８加瀬ビル２０９,,14,201,2380004,,,,,,,2025-03-18,1,,,,,エスエヌアールエム,0
1502,7030001165452,新規,0,2025-03-18,2025-03-18,株式会社ヴァベーネ,,株式会社,埼玉県,川口市,鳩ヶ谷本町３丁目２９番３号,,11,203,3340002,,,,,,,2025-03-18,1,,,,,ヴァベーネ,0
1503,7030001165469,新規,0,2025-03-18,2025-03-18,株式会社ＫＥＮ　ＢＩ　ＫＯＲ,,株式会社,埼玉県,さいたま市南区,別所５丁目１５番地２,,11,108,3360021,,,,,,,2025-03-18,1,,,,,ケンビコアル,0
1504,7030001165485,新規,0,2025-03-18,2025-03-18,株式会社Ｋ企画,,株式会社,埼玉県,所沢市,大字久米１３２６番地の１４,,11,208,3591131,,,,,,,2025-03-18,1,,,,,ケーキカク,0
1505,7030001165519,新規,0,2025-03-18,2025-03-18,株式会社ＡＴＲＩＺＥ,,株式会社,埼玉県,朝霞市,本町２丁目１０番６号,,11,227,3510011,,,,,,,2025-03-18,1,,,,,アトライズ,0
1514,7060001038036,新規,0,2025-03-18,2025-03-18,株式会社ＭＯＴＴＯ,,株式会社,栃木県,宇都宮市,池上町４番５号３Ｆ,,09,201,3200801,,,,,,,2025-03-18,1,,,,,モット,0
1515,7060005010313,新規,0,2025-03-18,2025-03-18,農事組合法人ＹＤ３,,その他の設立登記法人,栃木県,矢板市,富田５３１－１０,,09,211,3292145,,,,,,,2025-03-18,1,,,,,ワイディサン,0
1518,7070001042739,新規,0,2025-03-18,2025-03-18,ＭＨＣホールディングス株式会社,,株式会社,群馬県,安中市,松井田町二軒在家７６４番地１,,10,211,3790223,,,,,,,2025-03-18,1,,,,,エムエイチシーホールディングス,0
1519,7080403005219,新規,0,2025-03-18,2025-03-18,合同会社桜管理,,合同会社,静岡県,浜松市中央区,桜台２丁目５番１８号,,22,138,4311104,,,,,,,2025-03-18,1,,,,,サクラカンリ,0
1522,7100005013311,新規,0,2025-03-18,2025-03-18,医療法人池田クリニック,,その他の設立登記法人,長野県,長野市,上松２丁目２９番１６号,,20,201,3800802,,,,,,,2025-03-18,1,,,,,イケダクリニック,0
1539,7120001273774,新規,0,2025-03-18,2025-03-18,株式会社あずよも,,株式会社,大阪府,大阪市城東区,野江３丁目１７番１１号,,27,118,5360006,,,,,,,2025-03-18,1,,,,,アズヨモ,0
1540,7120001273816,新規,0,2025-03-18,2025-03-18,株式会社ＲＯＳＥＯ,,株式会社,大阪府,大阪市中央区,本町４丁目４番１７－６０５号,,27,128,5410053,,,,,,,2025-03-18,1,,,,,ロゼオ,0
1544,7120003028879,新規,0,2025-03-18,2025-03-18,合同会社マンモスピーポー,,合同会社,大阪府,大阪市北区,豊崎３丁目１６－１６－３０１５,,27,127,5310072,,,,,,,2025-03-18,1,,,,,マンモスピーポー,0
1545,7120003028887,新規,0,2025-03-18,2025-03-18,合同会社Ｕｒｂａｎ　Ｃｈｉｃ,,合同会社,大阪府,大阪市生野区,中川西２丁目２４－２９,,27,116,5440032,,,,,,,2025-03-18,1,,,,,アーバンシック,0
1547,7120101071252,新規,0,2025-03-18,2025-03-18,株式会社ＲｅＬｏａｄ,,株式会社,大阪府,堺市中区,東山５０番地１,,27,142,5998247,,,,,,,2025-03-18,1,,,,,リロード,0
1548,7120101071285,新規,0,2025-03-18,2025-03-18,株式会社Ｋ２‐ＴＥＣ,,株式会社,大阪府,堺市堺区,緑ヶ丘北町３丁２番２号,,27,141,5900806,,,,,,,2025-03-18,1,,,,,ケーツーテック,0
1549,7120103006322,新規,0,2025-03-18,2025-03-18,ＯＭＥＤ合同会社,,合同会社,大阪府,堺市堺区,西永山園６番１８－３０３号,,27,141,5900032,,,,,,,2025-03-18,1,,,,,オメド,0
1550,7120103006330,新規,0,2025-03-18,2025-03-18,合同会社ＴＰＹＮ,,合同会社,大阪府,富田林市,錦織東１丁目６番５号－２０４号室,,27,214,5840069,,,,,,,2025-03-18,1,,,,,ティーピーワイエヌ,0
1557,7130003010290,新規,0,2025-03-18,2025-03-18,合同会社ＭｙＣｏｍ　Ｓｙｓｔｅｍｓ,,合同会社,京都府,京都市上京区,俵屋町４４２番地,,26,102,6020871,,,,,,,2025-03-18,1,,,,,マイコムシステムズ,0
1561,7140001137795,新規,0,2025-03-18,2025-03-18,株式会社ハナイトナデシコ,,株式会社,兵庫県,神戸市灘区,泉通５丁目３番２０号,,28,102,6570834,,,,,,,2025-03-18,1,,,,,ハナイトナデシコ,0
1563,7140005027407,新規,0,2025-03-18,2025-03-18,特定非営利活動法人社会貢献活動ＰＲ協会,,その他の設立登記法人,兵庫県,神戸市東灘区,深江北町２丁目２番２８号,,28,101,6580013,,,,,,,2025-03-18,1,,,,,シャカイコウケンカツドウピーアールキョウカイ,0
1565,7160005011383,新規,0,2025-03-18,2025-03-18,一般社団法人日本脳もみ協会,,その他の設立登記法人,滋賀県,草津市,大路１丁目１番１号草津ロジュマン１８１２号室,,25,206,5250032,,,,,,,2025-03-18,1,,,,,ニホンノウモミキョウカイ,0
1571,7180001165891,新規,0,2025-03-18,2025-03-18,株式会社加藤会,,株式会社,愛知県,名古屋市中区,千代田３丁目８番１０号万長ビル８０６号室,,23,106,4600012,,,,,,,2025-03-18,1,,,,,カトウカイ,0
1572,7180001165933,新規,0,2025-03-18,2025-03-18,株式会社ＳＩＧＮＡＬ,,株式会社,愛知県,名古屋市港区,名港１丁目２０番１１号宝来ビル２階,,23,111,4550037,,,,,,,2025-03-18,1,,,,,シグナル,0
1573,7180001165974,新規,0,2025-03-18,2025-03-18,株式会社ツインドリーム,,株式会社,愛知県,一宮市,千秋町芝原字下山２６番地３,,23,203,4910812,,,,,,,2025-03-18,1,,,,,ツインドリーム,0
1574,7180001165990,新規,0,2025-03-18,2025-03-18,株式会社ＭＡＲＫサポート,,株式会社,愛知県,名古屋市瑞穂区,松栄町１丁目５２番地の１グランドメゾン松栄町１０３号,,23,108,4670025,,,,,,,2025-03-18,1,,,,,マークサポート,0
1576,7180003028155,新規,0,2025-03-18,2025-03-18,合同会社すなっぐすぺーす,,合同会社,愛知県,小牧市,大字東田中１４１番地１,,23,219,4850826,,,,,,,2025-03-18,1,,,,,スナッグスペース,0
1577,7180005020985,新規,0,2025-03-18,2025-03-18,社会保険労務士法人エーエムエス,,その他の設立登記法人,愛知県,名古屋市東区,葵２丁目１２番１号,,23,102,4610004,,,,,,,2025-03-18,1,,,,,エーエムエス,0
1578,7180005020993,新規,0,2025-03-18,2025-03-18,一般社団法人すぎとファミリー,,その他の設立登記法人,愛知県,名古屋市中村区,宮塚町２３番地,,23,105,4530845,,,,,,,2025-03-18,1,,,,,スギトファミリー,0
1581,7180301039614,新規,0,2025-03-18,2025-03-18,株式会社アートリベラル,,株式会社,愛知県,刈谷市,一色町３丁目１１番地,,23,210,4480022,,,,,,,2025-03-18,1,,,,,アートリベラル,0
1582,7180301039639,新規,0,2025-03-18,2025-03-18,ＳＴＡＲ　ＬＩＦＥ株式会社,,株式会社,愛知県,岡崎市,東蔵前町字荒神１番地１,,23,202,4442146,,,,,,,2025-03-18,1,,,,,スターライフ,0
1585,7190005012024,新規,0,2025-03-18,2025-03-18,一般社団法人クローバー会,,その他の設立登記法人,三重県,名張市,春日丘２番町９９番地,,24,208,5180454,,,,,,,2025-03-18,1,,,,,クローバーカイ,0
1601,7250003003679,新規,0,2025-03-18,2025-03-18,合同会社訪問看護リハビリステーションるりいろ,,合同会社,山口県,山口市,香山町６番２４号,,35,203,7530081,,,,,,,2025-03-18,1,,,,,ホウモンカンゴリハビリステーションルリイロ,0
1606,7310001019506,新規,0,2025-03-18,2025-03-18,株式会社ルレイル,,株式会社,長崎県,長崎市,豊洋台１丁目３２番１０号,,42,201,8512216,,,,,,,2025-03-18,1,,,,,ルレイル,0
1610,7330003010898,新規,0,2025-03-18,2025-03-18,合同会社ガロン,,合同会社,熊本県,熊本市中央区,花畑町１番１４号Ａ＆Ｍ・ＨＡＮＡＢＡＴＡ３０１号,,43,101,8600806,,,,,,,2025-03-18,1,,,,,ガロン,0
1611,7330005010888,新規,0,2025-03-18,2025-03-18,医療法人悠遥会,,その他の設立登記法人,熊本県,山鹿市,新町２０４番地,,43,208,8610514,,,,,,,2025-03-18,1,,,,,ユウヨウカイ,0
1617,7380001035158,新規,0,2025-03-18,2025-03-18,１２ローズ株式会社,,株式会社,福島県,いわき市,桜ケ丘３丁目５４番地,,07,204,9728324,,,,,,,2025-03-18,1,,,,,トゥエルヴローズ,0
1619,7380005012938,新規,0,2025-03-18,2025-03-18,医療法人涼悠会,,その他の設立登記法人,福島県,いわき市,平下神谷字仲田２５番地,,07,204,9700101,,,,,,,2025-03-18,1,,,,,リョウユウカイ,0
1632,8010001253068,新規,0,2025-03-18,2025-03-18,株式会社ＳＨＩＰ第１００７号,,株式会社,東京都,千代田区,丸の内２丁目７番２号,,13,101,1000005,,,,,,,2025-03-18,1,,,,,エスエイチアイピーダイセンナナゴウ,0
1633,8010001253076,新規,0,2025-03-18,2025-03-18,株式会社ＳＨＩＰ第１０１５号,,株式会社,東京都,千代田区,丸の内２丁目７番２号,,13,101,1000005,,,,,,,2025-03-18,1,,,,,エスエイチアイピーダイセンジュウゴゴウ,0
1636,8010003046775,新規,0,2025-03-18,2025-03-18,ＬＶＣファンド２７号合同会社,,合同会社,東京都,千代田区,紀尾井町３－８第２紀尾井町ビル９０１アクシス綜合会計事務所内,,13,101,1020094,,,,,,,2025-03-18,1,,,,,エルブイシーファンドニジュウナナゴウ,0
1637,8010005039777,新規,0,2025-03-18,2025-03-18,一般社団法人フォーキャスト,,その他の設立登記法人,東京都,千代田区,紀尾井町４番１号ニューオータニガーデンコート１９階フィンポート税理士法人内,,13,101,1020094,,,,,,,2025-03-18,1,,,,,フォーキャスト,0
1649,8010401188780,新規,0,2025-03-18,2025-03-18,株式会社ユーライブ,,株式会社,東京都,港区,麻布十番１丁目９－５,,13,103,1060045,,,,,,,2025-03-18,1,,,,,ユーライブ,0
1650,8010401188962,新規,0,2025-03-18,2025-03-18,株式会社友愛ジャパン,,株式会社,東京都,港区,芝３丁目８番２号,,13,103,1050014,,,,,,,2025-03-18,1,,,,,ユウアイジャパン,0
1653,8010501053802,新規,0,2025-03-18,2025-03-18,株式会社リアヴィス,,株式会社,東京都,台東区,台東３丁目１０－５,,13,106,1100016,,,,,,,2025-03-18,1,,,,,リアヴィス,0
1664,8010601066976,新規,0,2025-03-18,2025-03-18,株式会社Ｋ３,,株式会社,東京都,江東区,大島５丁目６番１４号,,13,108,1360072,,,,,,,2025-03-18,1,,,,,ケイスリー,0
1666,8010603011443,新規,0,2025-03-18,2025-03-18,合同会社ＺＩＲＫＡ,,合同会社,東京都,江東区,南砂５丁目７番１７号,,13,108,1360076,,,,,,,2025-03-18,1,,,,,ジルカ,0
1670,8010701047389,新規,0,2025-03-18,2025-03-18,資産税務コンサルセンター株式会社,,株式会社,東京都,品川区,北品川６丁目５番２６号坂の上テラスＵ－１０,,13,109,1410001,,,,,,,2025-03-18,1,,,,,シサンゼイムコンサルセンター,0
1671,8010701047439,新規,0,2025-03-18,2025-03-18,株式会社ＩＺＵＭＯ,,株式会社,東京都,品川区,西五反田３丁目３番２号,,13,109,1410031,,,,,,,2025-03-18,1,,,,,イズモ,0
1672,8010703007622,新規,0,2025-03-18,2025-03-18,合同会社Ｔｉａｎｕ,,合同会社,東京都,品川区,上大崎３丁目１３番２１－２０６号,,13,109,1410021,,,,,,,2025-03-18,1,,,,,ティアヌ,0
1677,8010901057023,新規,0,2025-03-18,2025-03-18,株式会社Ｖｉｔ＆Ｎａｔｔ,,株式会社,東京都,世田谷区,粕谷４丁目９番４号,,13,112,1570063,,,,,,,2025-03-18,1,,,,,ヴィットナット,0
1687,8011003021231,新規,0,2025-03-18,2025-03-18,合同会社みどりのもりラボ,,合同会社,東京都,目黒区,下目黒６丁目８番２４ー２０３号目黒パビリオン,,13,110,1530064,,,,,,,2025-03-18,1,,,,,ミドリノモリラボ,0
1692,8011301030438,新規,0,2025-03-18,2025-03-18,株式会社カノン,,株式会社,東京都,杉並区,阿佐谷北４丁目１１番１１号,,13,115,1660001,,,,,,,2025-03-18,1,,,,,カノン,0
1693,8011303005462,新規,0,2025-03-18,2025-03-18,合同会社松の実不動産,,合同会社,東京都,杉並区,松庵１丁目５番１８号,,13,115,1670054,,,,,,,2025-03-18,1,,,,,マツノミフドウサン,0
1703,8012303002128,新規,0,2025-03-18,2025-03-18,合同会社グローバルマネージメント,,合同会社,東京都,町田市,原町田６丁目１４番８号東亜ビル地下１階,,13,209,1940013,,,,,,,2025-03-18,1,,,,,グローバルマネージメント,0
1707,8013301053930,新規,0,2025-03-18,2025-03-18,楽成株式会社,,株式会社,東京都,豊島区,西巣鴨１丁目２番６号,,13,116,1700001,,,,,,,2025-03-18,1,,,,,ラクナリ,0
1708,8013301053947,新規,0,2025-03-18,2025-03-18,Ｍｏｂｉ　Ｇａｒｄｅｎ　Ｏｕｔｄｏｏｒ株式会社,,株式会社,東京都,豊島区,北大塚２丁目１１－１４第二アンザイヤマキビル８階,,13,116,1700004,,,,,,,2025-03-18,1,,,,,モビガーデンアウトドア,0
1710,8013303007579,新規,0,2025-03-18,2025-03-18,ファンタサイズ・アーツ合同会社,,合同会社,東京都,豊島区,西池袋２丁目３６－１１ソフトタウンニュー池袋２０４,,13,116,1710021,,,,,,,2025-03-18,1,,,,,ファンタサイズアーツ,0
1711,8013303007587,新規,0,2025-03-18,2025-03-18,ＳｔｅａｌｔｈＸ合同会社,,合同会社,東京都,豊島区,南大塚２丁目３８番１号リードシー大塚ビル,,13,116,1700005,,,,,,,2025-03-18,1,,,,,ステルスエックス,0
1721,8020001161906,新規,0,2025-03-18,2025-03-18,株式会社ＯＨＺＯＲＡ,,株式会社,神奈川県,横浜市港北区,日吉本町６丁目４８番９号,,14,109,2230062,,,,,,,2025-03-18,1,,,,,オォゾラ,0
1725,8020003028062,新規,0,2025-03-18,2025-03-18,ｋｏｈｏｌａ合同会社,,合同会社,神奈川県,横浜市西区,北幸２丁目１０番４８号むつみビル３階,,14,103,2200004,,,,,,,2025-03-18,1,,,,,コホラ,0
1728,8021003015752,新規,0,2025-03-18,2025-03-18,合同会社ピースタイル,,合同会社,神奈川県,鎌倉市,手広４丁目１９―３,,14,204,2480036,,,,,,,2025-03-18,1,,,,,ピースタイル,0
1732,8030001165393,新規,0,2025-03-18,2025-03-18,ＴＷＥＥＴ　ＪＡＰＡＮ　ＤＭＣ株式会社,,株式会社,埼玉県,戸田市,喜沢２丁目２１番地の１０,,11,224,3350013,,,,,,,2025-03-18,1,,,,,ツイートジャパンディーエムシー,0
1733,8030001165435,新規,0,2025-03-18,2025-03-18,株式会社アイコニックフィールド・エコ,,株式会社,埼玉県,深谷市,本田７０６３番地,,11,218,3691105,,,,,,,2025-03-18,1,,,,,アイコニックフィールドエコ,0
1734,8030001165443,新規,0,2025-03-18,2025-03-18,株式会社ＴＦＨ,,株式会社,埼玉県,さいたま市桜区,道場３丁目２０番１５号,,11,106,3380835,,,,,,,2025-03-18,1,,,,,ティーエフエイチ,0
1735,8030001165484,新規,0,2025-03-18,2025-03-18,信和株式会社,,株式会社,埼玉県,さいたま市南区,松本１丁目５番２－１号,,11,108,3360035,,,,,,,2025-03-18,1,,,,,シンワ,0
1739,8040001137862,新規,0,2025-03-18,2025-03-18,株式会社フライハイト,,株式会社,千葉県,市原市,辰巳台東３丁目２０番地４,,12,219,2900003,,,,,,,2025-03-18,1,,,,,フライハイト,0
1740,8040001137870,新規,0,2025-03-18,2025-03-18,敬善株式会社,,株式会社,千葉県,市川市,稲越３丁目１５番５号,,12,203,2720831,,,,,,,2025-03-18,1,,,,,ケイゼン,0
1741,8040001137887,新規,0,2025-03-18,2025-03-18,株式会社Ｓｍｉｌｅ,,株式会社,千葉県,船橋市,本町６丁目１８番１９号第３山中ビル４０１号室,,12,204,2730005,,,,,,,2025-03-18,1,,,,,スマイル,0
1742,8040001137904,新規,0,2025-03-18,2025-03-18,株式会社アスモット,,株式会社,千葉県,千葉市中央区,中央３丁目１８番３号,,12,101,2600013,,,,,,,2025-03-18,1,,,,,アスモット,0
1747,8040003027087,新規,0,2025-03-18,2025-03-18,合同会社ＲＮ,,合同会社,千葉県,野田市,親野井７６番地の１３,,12,208,2700227,,,,,,,2025-03-18,1,,,,,アールエヌ,0
1748,8040003027104,新規,0,2025-03-18,2025-03-18,未来コネクト合同会社,,合同会社,千葉県,千葉市若葉区,みつわ台３丁目１番６棟３０３号,,12,104,2640032,,,,,,,2025-03-18,1,,,,,ミライコネクト,0
1755,8060005010312,新規,0,2025-03-18,2025-03-18,農事組合法人ＹＤ２,,その他の設立登記法人,栃木県,矢板市,富田５３１－１０,,09,211,3292145,,,,,,,2025-03-18,1,,,,,ワイディニ,0
1757,8070001042738,新規,0,2025-03-18,2025-03-18,株式会社ティースリービー,,株式会社,群馬県,高崎市,上中居町５６７番地２,,10,202,3700851,,,,,,,2025-03-18,1,,,,,ティースリービー,0
1762,8080101025385,新規,0,2025-03-18,2025-03-18,株式会社來宮,,株式会社,静岡県,熱海市,西山町４３番１号,,22,205,4130034,,,,,,,2025-03-18,1,,,,,キノミヤ,0
1764,8080401027809,新規,0,2025-03-18,2025-03-18,ジーベック環境株式会社,,株式会社,静岡県,浜松市中央区,広沢２丁目２７番３３号,,22,138,4328013,,,,,,,2025-03-18,1,,,,,ジーベックカンキョウ,0
1768,8090001019172,新規,0,2025-03-18,2025-03-18,株式会社ＨＩＫＡＲＵ,,株式会社,山梨県,西八代郡市川三郷町,落居２１１番地,,19,346,4093231,,,,,,,2025-03-18,1,,,,,ヒカル,0
1771,8100005013310,新規,0,2025-03-18,2025-03-18,一般社団法人アヲハル,,その他の設立登記法人,長野県,松本市,中央１丁目２番１２号,,20,202,3900811,,,,,,,2025-03-18,1,,,,,アヲハル,0
1785,8120001273716,新規,0,2025-03-18,2025-03-18,株式会社ＭＡＨＡＬＯ,,株式会社,大阪府,大阪市北区,梅田１丁目１番３号大阪駅前第３ビル２５Ｆ,,27,127,5300001,,,,,,,2025-03-18,1,,,,,マハロ,0
1786,8120001273773,新規,0,2025-03-18,2025-03-18,株式会社Ｍｅｔａ　Ｃｒｅａｔｉｏｎ,,株式会社,大阪府,大阪市北区,西天満５丁目１６番１５号エフワンビル５Ｆ,,27,127,5300047,,,,,,,2025-03-18,1,,,,,メタクリエイション,0
1787,8120001273781,新規,0,2025-03-18,2025-03-18,慢慢享株式会社,,株式会社,大阪府,大阪市東住吉区,矢田１丁目２６－７ＵＩＩＴビル矢田２０１号室,,27,121,5460023,,,,,,,2025-03-18,1,,,,,マンマンショウ,0
1788,8120001273856,新規,0,2025-03-18,2025-03-18,株式会社プライム,,株式会社,大阪府,大阪市中央区,鎗屋町１丁目２－６ザ・スペース鑓屋町６０１,,27,128,5400027,,,,,,,2025-03-18,1,,,,,プライム,0
1791,8120003028845,新規,0,2025-03-18,2025-03-18,合同会社ＷＥＳＴＲＩＣＫ,,合同会社,大阪府,大阪市福島区,野田２丁目２番１３号１０１,,27,103,5530005,,,,,,,2025-03-18,1,,,,,ウエストリック,0
1792,8120003028894,新規,0,2025-03-18,2025-03-18,Ｋｕｄｏ　Ｇｌｏｂａｌ合同会社,,合同会社,大阪府,大阪市西成区,出城２丁目５番３号,,27,122,5570024,,,,,,,2025-03-18,1,,,,,クドグローバル,0
1793,8120101071251,新規,0,2025-03-18,2025-03-18,株式会社リベルティック,,株式会社,大阪府,堺市北区,長曽根町１９１２－１,,27,146,5918025,,,,,,,2025-03-18,1,,,,,リベルティック,0
1794,8120101071268,新規,0,2025-03-18,2025-03-18,株式会社萃聚会,,株式会社,大阪府,岸和田市,作才町１丁目６番６号,,27,202,5960826,,,,,,,2025-03-18,1,,,,,サンジュカイ,0
1795,8120101071276,新規,0,2025-03-18,2025-03-18,株式会社ＩＮＮ０‐Ｌ１ｆｅ,,株式会社,大阪府,堺市南区,岩室４１番地３,,27,145,5900112,,,,,,,2025-03-18,1,,,,,イノライフ,0
1796,8120101071284,新規,0,2025-03-18,2025-03-18,株式会社ていねい,,株式会社,大阪府,堺市中区,東山４３番地１－Ｂ号室,,27,142,5998247,,,,,,,2025-03-18,1,,,,,テイネイ,0
1802,8122001038974,新規,0,2025-03-18,2025-03-18,吉川株式会社,,株式会社,大阪府,柏原市,大字青谷３７５－１０１号室,,27,221,5820014,,,,,,,2025-03-18,1,,,,,ヨシカワ,0
1807,8130001079162,新規,0,2025-03-18,2025-03-18,株式会社江永トレーディング,,株式会社,京都府,京都市伏見区,桃山南大島町７３番地の７８,,26,109,6128017,,,,,,,2025-03-18,1,,,,,エナガトレーディング,0
1808,8130001079229,新規,0,2025-03-18,2025-03-18,株式会社Ａｄｄ,,株式会社,京都府,京都市伏見区,深草大亀谷東安信町８番地３,,26,109,6120832,,,,,,,2025-03-18,1,,,,,アド,0
1811,8140001137737,新規,0,2025-03-18,2025-03-18,株式会社国神建設,,株式会社,兵庫県,姫路市,勝原区丁１８２番地２４,,28,201,6711203,,,,,,,2025-03-18,1,,,,,コクシンケンセツ,0
1812,8140001137753,新規,0,2025-03-18,2025-03-18,株式会社フラットフィールド,,株式会社,兵庫県,神戸市中央区,東町１１６番地１,,28,110,6500031,,,,,,,2025-03-18,1,,,,,フラットフィールド,0
1813,8140001137811,新規,0,2025-03-18,2025-03-18,株式会社ＦＬＥＸ,,株式会社,兵庫県,神戸市垂水区,多聞町字小束山８６８番地の７９０,,28,108,6550001,,,,,,,2025-03-18,1,,,,,フレックス,0
1816,8150001027945,新規,0,2025-03-18,2025-03-18,株式会社三晃,,株式会社,奈良県,大和郡山市,南郡山町４５０番地,,29,203,6391007,,,,,,,2025-03-18,1,,,,,サンコウ,0
1822,8180001165890,新規,0,2025-03-18,2025-03-18,株式会社ＳｍａｓｈＯｎｅ,,株式会社,愛知県,名古屋市中川区,柳森町１６０１番地の５,,23,110,4540871,,,,,,,2025-03-18,1,,,,,スマッシュワン,0
1823,8180001165924,新規,0,2025-03-18,2025-03-18,株式会社ラインドライブ,,株式会社,愛知県,津島市,青塚町６丁目８７番地,00138383,23,208,4960001,,,,,,,2025-03-18,1,,,,,ラインドライブ,0
1824,8180001165949,新規,0,2025-03-18,2025-03-18,株式会社ルミナス,,株式会社,愛知県,名古屋市北区,尾上町１‐４メリアＢ棟１０４,,23,103,4620863,,,,,,,2025-03-18,1,,,,,ルミナス,0
1826,8180003028154,新規,0,2025-03-18,2025-03-18,Ｎコンサルティング合同会社,,合同会社,愛知県,名古屋市名東区,社台３丁目１３７番,,23,115,4650092,,,,,,,2025-03-18,1,,,,,エヌコンサルティング,0
1830,8180301039638,新規,0,2025-03-18,2025-03-18,株式会社車屋Ｗａｋｉｍｏ,,株式会社,愛知県,蒲郡市,拾石町宮前５８番地３,,23,214,4430038,,,,,,,2025-03-18,1,,,,,クルマヤワキモ,0
1833,8190001032058,新規,0,2025-03-18,2025-03-18,株式会社ＴＡＫＡＲＡ,,株式会社,三重県,四日市市,八田２丁目４番９号グラシューズウィルＡ－２０２,,24,202,5100001,,,,,,,2025-03-18,1,,,,,タカラ,0
1835,8200001043549,新規,0,2025-03-18,2025-03-18,岐阜塗装ＨＤ株式会社,,株式会社,岐阜県,岐阜市,茜部本郷３丁目８７番地の１,,21,201,5008262,,,,,,,2025-03-18,1,,,,,ギフトソウエイチディー,0
1839,8240001064649,新規,0,2025-03-18,2025-03-18,メゾン・ホワイト株式会社,,株式会社,広島県,広島市中区,国泰寺町１丁目５番１４－１１０２号,,34,101,7300042,,,,,,,2025-03-18,1,,,,,メゾンホワイト,0
1855,8330005010887,新規,0,2025-03-18,2025-03-18,医療法人Ｓｍｉｌｅ　Ａｇａｉｎ,,その他の設立登記法人,熊本県,熊本市中央区,帯山３丁目７－３３,,43,101,8620924,,,,,,,2025-03-18,1,,,,,スマイルアゲイン,0
1858,8340003004774,新規,0,2025-03-18,2025-03-18,合同会社ｌｉｂｒａ,,合同会社,鹿児島県,薩摩川内市,原田町３２番１３号,,46,215,8950074,,,,,,,2025-03-18,1,,,,,リブラ,0
1862,8360001034937,新規,0,2025-03-18,2025-03-18,株式会社Ｇ　ＢＡＳＥ,,株式会社,沖縄県,那覇市,牧志２丁目１３番１２号ＴＫハイム４０３,,47,201,9000013,,,,,,,2025-03-18,1,,,,,ジーベース,0
1864,8370001052368,新規,0,2025-03-18,2025-03-18,コトノバ株式会社,,株式会社,宮城県,仙台市青葉区,荒巻字青葉４６８番地の１東北大学マテリアル・イノベーション・センター青葉山ガレージ内,,04,101,9800845,,,,,,,2025-03-18,1,,,,,コトノバ,0
1869,8380001035157,新規,0,2025-03-18,2025-03-18,和クワクリエイト株式会社,,株式会社,福島県,本宮市,岩根字みずきが丘１番地３７１,,07,214,9691106,,,,,,,2025-03-18,1,,,,,ワクワクリエイト,0
1870,8380001035165,新規,0,2025-03-18,2025-03-18,株式会社ＮｅｘｔＲｉｓｅ,,株式会社,福島県,郡山市,中町２番１２号－３０１号,,07,203,9638004,,,,,,,2025-03-18,1,,,,,ネクストライズ,0
1871,8380005012937,新規,0,2025-03-18,2025-03-18,医療法人ＭＣＷ,,その他の設立登記法人,福島県,郡山市,喜久田町卸１丁目１１７番地１,,07,203,9630547,,,,,,,2025-03-18,1,,,,,エムシーダブリュー,0
1872,8410003004065,新規,0,2025-03-18,2025-03-18,合同会社アルク,,合同会社,秋田県,にかほ市,平沢字町田１２３番地１０,,05,214,0180402,,,,,,,2025-03-18,1,,,,,アルク,0
1879,8430001093950,新規,0,2025-03-18,2025-03-18,株式会社ぱんだ,,株式会社,北海道,札幌市中央区,北五条西１１丁目１５番地４,,01,101,0600005,,,,,,,2025-03-18,1,,,,,パンダ,0
1882,8430003017387,新規,0,2025-03-18,2025-03-18,合同会社ＴｅＭ,,合同会社,北海道,札幌市厚別区,厚別北四条５丁目１５－１７,,01,108,0040074,,,,,,,2025-03-18,1,,,,,テム,0
1885,8480001012781,新規,0,2025-03-18,2025-03-18,株式会社ＴＳＵＮＡＧＩ,,株式会社,徳島県,徳島市,助任本町２丁目３１番地の３,,36,201,7700816,,,,,,,2025-03-18,1,,,,,ツナギ,0
1887,8700150128331,新規,0,2025-03-18,2025-03-18,ＣＭＥ　ＰＴＥ．ＬＴＤ．,,外国会社等,,,,,,,,２　ＪＵＲＯＮＧ　ＥＡＳＴ　ＳＴＲＥＥＴ　２１　♯０４－２０，ＩＭＭ　ＢＵＩＬＤＩＮＧ，ＳＩＮＧＡＰＯＲＥ（６０９６０１）,,,,,,2025-03-18,1,,,,,シーエムイープライベートリミテツド,0
1897,9010001253067,新規,0,2025-03-18,2025-03-18,株式会社ＳＨＩＰ第１００６号,,株式会社,東京都,千代田区,丸の内２丁目７番２号,,13,101,1000005,,,,,,,2025-03-18,1,,,,,エスエイチアイピーダイセンロクゴウ,0
1898,9010001253075,新規,0,2025-03-18,2025-03-18,株式会社ＳＨＩＰ第１０１４号,,株式会社,東京都,千代田区,丸の内２丁目７番２号,,13,101,1000005,,,,,,,2025-03-18,1,,,,,エスエイチアイピーダイセンジュウヨンゴウ,0
1899,9010001253224,新規,0,2025-03-18,2025-03-18,株式会社カテンクス,,株式会社,東京都,中央区,銀座１丁目１２－４Ｎ＆ＥＢＬＤ．７Ｆ,,13,102,1040061,,,,,,,2025-03-18,1,,,,,カテンクス,0
1900,9010003046774,新規,0,2025-03-18,2025-03-18,ＬＶＣファンド２６号合同会社,,合同会社,東京都,千代田区,紀尾井町３－８第２紀尾井町ビル９０１アクシス綜合会計事務所内,,13,101,1020094,,,,,,,2025-03-18,1,,,,,エルブイシーファンドニジュウロクゴウ,0
1902,9010005039776,新規,0,2025-03-18,2025-03-18,一般社団法人フォーキャストＬＰ,,その他の設立登記法人,東京都,千代田区,紀尾井町４番１号ニューオータニガーデンコート１９階フィンポート税理士法人内,,13,101,1020094,,,,,,,2025-03-18,1,,,,,フォーキャストエルピー,0
1905,9010401188739,新規,0,2025-03-18,2025-03-18,株式会社Ｆｒｉ　Ｓｔａｄ,,株式会社,東京都,港区,三田３丁目４－３ＲＩＰＬ９・１－１Ｆ,,13,103,1080073,,,,,,,2025-03-18,1,,,,,フリースタッド,0
1906,9010405024139,新規,0,2025-03-18,2025-03-18,一般社団法人日本中小企業経営者支援協会,,その他の設立登記法人,東京都,港区,元赤坂１丁目１番１８号大原ビル４階,,13,103,1070051,,,,,,,2025-03-18,1,,,,,ニホンチュウショウキギョウケイエイシャシエンキョウカイ,0
1910,9010701047388,新規,0,2025-03-18,2025-03-18,株式会社おいどん,,株式会社,東京都,品川区,西五反田４丁目３０番９号メゾンブランシュ不動前Ｂ１Ｆ,,13,109,1410031,,,,,,,2025-03-18,1,,,,,オイドン,0
1918,9011003021148,新規,0,2025-03-18,2025-03-18,Ｓｑｕａｌｅ合同会社,,合同会社,東京都,渋谷区,代々木１丁目２－９－３０２,,13,113,1510053,,,,,,,2025-03-18,1,,,,,スクエア,0
1920,9011101110967,新規,0,2025-03-18,2025-03-18,ＡｍｉＪ２株式会社,,株式会社,東京都,新宿区,高田馬場１丁目３２番１０号,,13,104,1690075,,,,,,,2025-03-18,1,,,,,アミジェイツー,0
1921,9011101111024,新規,0,2025-03-18,2025-03-18,Ｖｏｃａｔｉｏｎ　Ｓｕｐｐｏｒｔ　Ｋ株式会社,,株式会社,東京都,新宿区,西新宿３丁目３番１３号西新宿水間ビル６階,,13,104,1600023,,,,,,,2025-03-18,1,,,,,ヴォケイションサポートケイ,0
1924,9011503006458,新規,0,2025-03-18,2025-03-18,ＫＰＳリアルエステート合同会社,,合同会社,東京都,北区,赤羽１丁目７－９赤羽第一葉山ビル４Ｆ,,13,117,1150045,,,,,,,2025-03-18,1,,,,,ケーピーリアルエステート,0
1925,9011601028503,新規,0,2025-03-18,2025-03-18,電設ラボ株式会社,,株式会社,東京都,練馬区,南大泉５丁目１８番２２号ＹＫビル３０５号室,,13,120,1780064,,,,,,,2025-03-18,1,,,,,デンセツラボ,0
1928,9011703004162,新規,0,2025-03-18,2025-03-18,宏興源合同会社,,合同会社,東京都,江戸川区,西小岩５丁目１３番１３号１３１号室,,13,123,1330057,,,,,,,2025-03-18,1,,,,,コウコウゲン,0
1936,9013303007578,新規,0,2025-03-18,2025-03-18,ＰＡＣａｇｅ合同会社,,合同会社,東京都,豊島区,東池袋３丁目１３－３いちご東池袋三丁目ビルＢ１Ａ,,13,116,1700013,,,,,,,2025-03-18,1,,,,,パッケージ,0
1939,9020001161863,新規,0,2025-03-18,2025-03-18,株式会社ＯＮＥ　ＦＡＭＩＬＹ,,株式会社,神奈川県,横浜市戸塚区,川上町５７４番地１,,14,110,2440805,,,,,,,2025-03-18,1,,,,,ワンファミリー,0
1940,9020001161871,新規,0,2025-03-18,2025-03-18,株式会社ａｕｎｄ,,株式会社,神奈川県,横浜市西区,浅間町１丁目４番３号ウィザードビル４０２,,14,103,2200072,,,,,,,2025-03-18,1,,,,,アウンド,0
1941,9020001161921,新規,0,2025-03-18,2025-03-18,株式会社ｍａｒｋｙ,,株式会社,神奈川県,横浜市泉区,岡津町１１１番地２３,,14,116,2450003,,,,,,,2025-03-18,1,,,,,マーキー,0
1944,9020003028004,新規,0,2025-03-18,2025-03-18,合同会社セガール,,合同会社,神奈川県,横浜市旭区,今宿西町１８５番地３４,,14,112,2410031,,,,,,,2025-03-18,1,,,,,セガール,0
1945,9020003028061,新規,0,2025-03-18,2025-03-18,合同会社Ｅｃｌｉｅｌ,,合同会社,神奈川県,横浜市西区,みなとみらい５丁目１番２号横浜シンフォステージイーストタワー３階ｃｈｉｌｉｎｋＷＯＲＫＳＩＴＥＭＩＮＡＴＯＭＩＲＡＩ内,,14,103,2200012,,,,,,,2025-03-18,1,,,,,エクリエル,0
1946,9020003028078,新規,0,2025-03-18,2025-03-18,合同会社ティグリス,,合同会社,神奈川県,横浜市戸塚区,上矢部町４４０番地１グランガーデン東戸塚１４０号,,14,110,2450053,,,,,,,2025-03-18,1,,,,,ティグリス,0
1947,9020003028086,新規,0,2025-03-18,2025-03-18,合同会社ＴＧＭ,,合同会社,神奈川県,横浜市中区,長者町４丁目１０番２号横浜関内プラッツ４０１,,14,104,2310033,,,,,,,2025-03-18,1,,,,,ティージーエム,0
1948,9020005016741,新規,0,2025-03-18,2025-03-18,医療法人博昭会,,その他の設立登記法人,神奈川県,横浜市戸塚区,上倉田町４４７番地１プラージュ戸塚１階,,14,110,2440816,,,,,,,2025-03-18,1,,,,,ハクショウカイ,0
1949,9020005016758,新規,0,2025-03-18,2025-03-18,医療法人Ｌｉｆｅ,,その他の設立登記法人,神奈川県,横浜市戸塚区,原宿３丁目８番６号二八五番館１階,,14,110,2450063,,,,,,,2025-03-18,1,,,,,ライフ,0
1951,9021001084674,新規,0,2025-03-18,2025-03-18,株式会社ダイワネクスト,,株式会社,神奈川県,三浦郡葉山町,上山口２３８７番地の１,,14,301,2400115,,,,,,,2025-03-18,1,,,,,ダイワネクスト,0
1958,9030001165450,新規,0,2025-03-18,2025-03-18,株式会社ＭＵＧＨＡＬ　ＭＯＴＯＲＳ,,株式会社,埼玉県,幸手市,南２丁目３番３６号,,11,240,3400156,,,,,,,2025-03-18,1,,,,,ムガールモーターズ,0
1959,9030001165483,新規,0,2025-03-18,2025-03-18,アタラヨ株式会社,,株式会社,埼玉県,さいたま市浦和区,常盤２丁目２番７－８０５号,,11,107,3300061,,,,,,,2025-03-18,1,,,,,アタラヨ,0
1961,9030003026337,新規,0,2025-03-18,2025-03-18,ＳｏｒａＶａｎｔｉａ合同会社,,合同会社,埼玉県,さいたま市大宮区,桜木町２丁目３番地大宮マルイ７階,,11,103,3300854,,,,,,,2025-03-18,1,,,,,ソラヴァンティア,0
1971,9050001056326,新規,0,2025-03-18,2025-03-18,高智株式会社,,株式会社,茨城県,神栖市,若松中央５丁目５８番地はーとハイツＡ－２号室,,08,232,3140256,,,,,,,2025-03-18,1,,,,,コウチ,0
1973,9050003009117,新規,0,2025-03-18,2025-03-18,合同会社プレスト,,合同会社,茨城県,水戸市,本町２丁目２番１７号,,08,201,3100815,,,,,,,2025-03-18,1,,,,,プレスト,0
1976,9060001038042,新規,0,2025-03-18,2025-03-18,株式会社ココロデザイン,,株式会社,栃木県,宇都宮市,兵庫塚３丁目４８番１４号,,09,201,3210138,,,,,,,2025-03-18,1,,,,,ココロデザイン,0
1977,9060005010311,新規,0,2025-03-18,2025-03-18,農事組合法人ＹＤ１,,その他の設立登記法人,栃木県,矢板市,富田５３１－１０,,09,211,3292145,,,,,,,2025-03-18,1,,,,,ワイディイチ,0
1980,9070001042737,新規,0,2025-03-18,2025-03-18,株式会社ＳＨＷ,,株式会社,群馬県,高崎市,下里見町４９番地６,,10,202,3703343,,,,,,,2025-03-18,1,,,,,エスエイチダブリュウ,0
1981,9070003005824,新規,0,2025-03-18,2025-03-18,ＦＲＥＳＣＯ　ＴＲＡＤＩＮＧ合同会社,,合同会社,群馬県,伊勢崎市,境１３８－３,,10,204,3700124,,,,,,,2025-03-18,1,,,,,フレスコトレーディング,0
1983,9080003003414,新規,0,2025-03-18,2025-03-18,ＫＵＲＡＳＩＳＴ合同会社,,合同会社,静岡県,静岡市駿河区,南町１－２小泉ビル３Ｆ,,22,102,4228067,,,,,,,2025-03-18,1,,,,,クラシスト,0
1989,9090003002778,新規,0,2025-03-18,2025-03-18,ＬＥＧＥＮＤＡＲＩＯＳ　ＪＡＰＡＮ合同会社,,合同会社,山梨県,南アルプス市,桃園１３６１番地１０、２Ｆ,,19,208,4000301,,,,,,,2025-03-18,1,,,,,レジェンダリオスジャパン,0
1990,9100001038392,新規,0,2025-03-18,2025-03-18,株式会社ｃｉｒｃｌｅ,,株式会社,長野県,塩尻市,大字広丘堅石８１７－７,,20,215,3990705,,,,,,,2025-03-18,1,,,,,サークル,0
2004,9120001273715,新規,0,2025-03-18,2025-03-18,株式会社心成興業,,株式会社,大阪府,守口市,梶町４丁目４９番２４号,,27,209,5700015,,,,,,,2025-03-18,1,,,,,シンセイコウギョウ,0
2005,9120001273731,新規,0,2025-03-18,2025-03-18,株式会社建装,,株式会社,大阪府,大阪市淀川区,西三国４丁目３番１１－６０２号,,27,123,5320006,,,,,,,2025-03-18,1,,,,,ケンソウ,0
2006,9120001273764,新規,0,2025-03-18,2025-03-18,株式会社ｓｌｏｗ　Ｌｉｆｅ,,株式会社,大阪府,大阪市淀川区,十三東１丁目１１番１５－Ｂ７０７号,,27,123,5320023,,,,,,,2025-03-18,1,,,,,スローライフ,0
2007,9120001273772,新規,0,2025-03-18,2025-03-18,株式会社ＫＩＺＵＮＡ　ＷＯＲＬＤ,,株式会社,大阪府,大阪市北区,梅田１丁目２番２号大阪駅前第２ビル１２－１２,,27,127,5300001,,,,,,,2025-03-18,1,,,,,キズナワースド,0
2008,9120001273780,新規,0,2025-03-18,2025-03-18,海莉商貿株式会社,,株式会社,大阪府,大阪市住之江区,西住之江１丁目８－２０カーサフェリーチェ２０３,,27,125,5590005,,,,,,,2025-03-18,1,,,,,カイリショウボウ,0
2009,9120001273789,新規,0,2025-03-18,2025-03-18,株式会社Ｔｈｉａｗｅｐ,,株式会社,大阪府,大阪市北区,梅田１丁目２番２号大阪駅前第２ビル１２－１２,,27,127,5300001,,,,,,,2025-03-18,1,,,,,ティアウェップ,0
2010,9120001273806,新規,0,2025-03-18,2025-03-18,株式会社ＩＦＬ,,株式会社,大阪府,大阪市北区,梅田１丁目２番２号大阪駅前第２ビル１２－１２,,27,127,5300001,,,,,,,2025-03-18,1,,,,,アイエフエル,0
2011,9120001273814,新規,0,2025-03-18,2025-03-18,株式会社ＪＬＲ　ＩＮＴＥＲＮＡＴＩＯＮＡＬ,,株式会社,大阪府,枚方市,北山１丁目４７番１３号,,27,210,5730171,,,,,,,2025-03-18,1,,,,,ジェイエルアールインターナショナル,0
2012,9120001273847,新規,0,2025-03-18,2025-03-18,ＷＨ株式会社,,株式会社,大阪府,大阪市東住吉区,矢田１丁目２０番１７号ハイツワールド２Ｄ,,27,121,5460023,,,,,,,2025-03-18,1,,,,,ダブルエッチ,0
2015,9120003028860,新規,0,2025-03-18,2025-03-18,マス管理合同会社,,合同会社,大阪府,大阪市北区,松ケ枝町６番３号,,27,127,5300037,,,,,,,2025-03-18,1,,,,,マスカンリ,0
2016,9120005024833,新規,0,2025-03-18,2025-03-18,一般社団法人ＵＳＨＡ　ＪＡＰＡＮ,,その他の設立登記法人,大阪府,守口市,京阪本通１丁目４番８号,,27,209,5700083,,,,,,,2025-03-18,1,,,,,ウーシャジャパン,0
2024,9120103006329,新規,0,2025-03-18,2025-03-18,合同会社ＨＭ,,合同会社,大阪府,泉佐野市,葵町３丁目６番４２号,,27,213,5980014,,,,,,,2025-03-18,1,,,,,エイチエム,0
2027,9122001038998,新規,0,2025-03-18,2025-03-18,株式会社ＹＡＰ,,株式会社,大阪府,東大阪市,高井田中２丁目２番２５号３Ｆ,,27,227,5770065,,,,,,,2025-03-18,1,,,,,ヤップ,0
2030,9140001137819,新規,0,2025-03-18,2025-03-18,ＡＹＵＤＡ株式会社,,株式会社,兵庫県,伊丹市,口酒井２丁目１番３２号,,28,207,6640844,,,,,,,2025-03-18,1,,,,,アユダ,0
2032,9150001027969,新規,0,2025-03-18,2025-03-18,株式会社まゆみ,,株式会社,奈良県,橿原市,太田市町１１０番地１,,29,205,6340001,,,,,,,2025-03-18,1,,,,,マユミ,0
2034,9150003003530,新規,0,2025-03-18,2025-03-18,ＳＡＺＵＫＥＲＵ合同会社,,合同会社,奈良県,奈良市,朱雀５丁目２番地の２平城朱雀第１住宅３５－４０２,,29,201,6310806,,,,,,,2025-03-18,1,,,,,サズケル,0
2037,9180001165675,新規,0,2025-03-18,2025-03-18,株式会社グローバルトラベルシステム,,株式会社,愛知県,名古屋市中区,錦１丁目７番４２号リアライズ錦２０３号,,23,106,4600003,,,,,,,2025-03-18,1,,,,,グローバルトラベルシステム,0
2038,9180001165832,新規,0,2025-03-18,2025-03-18,株式会社ＣｏｒｅＢｉｚ,,株式会社,愛知県,名古屋市中区,栄２丁目２番１７号名古屋情報センタービル４階,,23,106,4600008,,,,,,,2025-03-18,1,,,,,コアビズ,0
2039,9180001165907,新規,0,2025-03-18,2025-03-18,ＬＢＣホールディングス株式会社,,株式会社,愛知県,名古屋市中区,松原２丁目２番３３号,,23,106,4600017,,,,,,,2025-03-18,1,,,,,エルビーシーホールディングス,0
2040,9180001165915,新規,0,2025-03-18,2025-03-18,株式会社ｌｉｆｅインテリア伊藤,,株式会社,愛知県,名古屋市中川区,伏屋５丁目７０９番地の１,,23,110,4540996,,,,,,,2025-03-18,1,,,,,ライフインテリアイトウ,0
2041,9180001165956,新規,0,2025-03-18,2025-03-18,株式会社ゼロハチ,,株式会社,愛知県,名古屋市中川区,八熊２丁目２番６号リーデンススクエア金山ＷＥＳＴ１０１号,,23,110,4540013,,,,,,,2025-03-18,1,,,,,ゼロハチ,0
2042,9180001165989,新規,0,2025-03-18,2025-03-18,株式会社ＮＥＭ,,株式会社,愛知県,名古屋市中区,栄４丁目１６番１７号,,23,106,4600008,,,,,,,2025-03-18,1,,,,,エヌイーエム,0
2045,9180301039629,新規,0,2025-03-18,2025-03-18,株式会社エムエースエイト,,株式会社,愛知県,豊橋市,駅前大通２丁目８２番地ザ・ハウス豊橋ＷＥＳＴ１６０４,,23,201,4400888,,,,,,,2025-03-18,1,,,,,エムエースエイト,0
2059,9250005008988,新規,0,2025-03-18,2025-03-18,特定非営利活動法人あすなろながと,,その他の設立登記法人,山口県,長門市,東深川１３２４番地１,,35,211,7594101,,,,,,,2025-03-18,1,,,,,アスナロナガト,0
2062,9290001109381,新規,0,2025-03-18,2025-03-18,株式会社ＲＥＴＯＸ,,株式会社,福岡県,久留米市,白山町１８９－６,,40,203,8300041,,,,,,,2025-03-18,1,,,,,レトックス,0
2073,9360003014779,新規,0,2025-03-18,2025-03-18,合同会社ＴＫＧ,,合同会社,沖縄県,南城市,玉城字垣花３２４番地１ハウス虹２０１号室,,47,215,9010601,,,,,,,2025-03-18,1,,,,,ティーケージー,0
2085,9450001014565,新規,0,2025-03-18,2025-03-18,いろえんぴつ株式会社,,株式会社,北海道,旭川市,西御料三条２丁目４－２０,,01,204,0788823,,,,,,,2025-03-18,1,,,,,イロエンピツ,0
