sequenceNumber,corporateNumber,process,correct,updateDate,changeDate,name,nameImageId,kind,prefectureName,cityName,streetNumber,addressImageId,prefectureCode,cityCode,postCode,addressOutside,addressOutsideImageId,closeDate,closeCause,successorCorporateNumber,changeCause,assignmentDate,latest,enName,enPrefectureName,enCityName,enAddressOutside,furigana,hihyoji
5,1010001229883,新規,0,2022-10-06,2022-10-06,株式会社Ｂｅａｃｏｎ　Ｈｏｌｄｉｎｇｓ,,株式会社,東京都,中央区,晴海３丁目１３－１ドゥトゥール２８０９,,13,102,1040053,,,,,,,2022-10-06,1,,,,,ビーコンホールディングス,0
6,1010001229917,新規,0,2022-10-06,2022-10-06,株式会社アルカナ,,株式会社,東京都,中央区,東日本橋２丁目２５番４号第３シラカワビル８階,,13,102,1030004,,,,,,,2022-10-06,1,,,,,アルカナ,0
7,1010001229925,新規,0,2022-10-06,2022-10-06,株式会社オフィスＫ,,株式会社,東京都,中央区,京橋３丁目６番１号秋葉ビル６階,,13,102,1040031,,,,,,,2022-10-06,1,,,,,オフィスケー,0
8,1010001229933,新規,0,2022-10-06,2022-10-06,株式会社ＴＢＪ,,株式会社,東京都,中央区,日本橋蛎殻町１丁目５番６号,,13,102,1030014,,,,,,,2022-10-06,1,,,,,ティービージェイ,0
9,1010001229941,新規,0,2022-10-06,2022-10-06,サイバーレジリエンス株式会社,,株式会社,東京都,中央区,日本橋兜町１７番１号日本橋ロイヤルプラザ７０６,,13,102,1030026,,,,,,,2022-10-06,1,,,,,サイバーレジリエンス,0
10,1010003038705,新規,0,2022-10-06,2022-10-06,合同会社ココベル,,合同会社,東京都,中央区,八丁堀４丁目１０番１号,,13,102,1040032,,,,,,,2022-10-06,1,,,,,ココベル,0
11,1010003038804,新規,0,2022-10-06,2022-10-06,合同会社白馬,,合同会社,東京都,千代田区,霞が関３丁目２番５号,,13,101,1000013,,,,,,,2022-10-06,1,,,,,ハクバ,0
12,1010003038820,新規,0,2022-10-06,2022-10-06,珈士＿合同会社,00128039,合同会社,東京都,中央区,日本橋横山町七丁目１７番９０３号,,13,102,1030003,,,,,,,2022-10-06,1,,,,,カシビ,0
17,1010005035626,新規,0,2022-10-06,2022-10-06,税理士法人町山会計事務所,,その他の設立登記法人,東京都,中央区,銀座１丁目９番６号,,13,102,1040061,,,,,,,2022-10-06,1,,,,,マチヤマカイケイジムショ,0
18,1010005035634,新規,0,2022-10-06,2022-10-06,一般社団法人エルインベストメント,,その他の設立登記法人,東京都,千代田区,神田神保町１丁目１１番地さくら綜合事務所内,,13,101,1010051,,,,,,,2022-10-06,1,,,,,エルインベストメント,0
28,1010401169663,新規,0,2022-10-06,2022-10-06,株式会社ｎｉｎｅｔｙ‐ｅｉｇｈｔ,,株式会社,東京都,港区,六本木５丁目２－６ＴＫビル９階,,13,103,1060032,,,,,,,2022-10-06,1,,,,,ナインティエイト,0
29,1010401170092,新規,0,2022-10-06,2022-10-06,株式会社オフィスＣ,,株式会社,東京都,港区,三田５丁目８番８－１４０４号,,13,103,1080073,,,,,,,2022-10-06,1,,,,,オフィスシー,0
30,1010403028603,新規,0,2022-10-06,2022-10-06,Ｃｈｅｅｒ　Ｃｏａｃｈｉｎｇ合同会社,,合同会社,東京都,港区,南青山２丁目２番１５号,,13,103,1070062,,,,,,,2022-10-06,1,,,,,チアコーチング,0
31,1010405021473,新規,0,2022-10-06,2022-10-06,ＳＣＧ６０一般社団法人,,その他の設立登記法人,東京都,港区,虎ノ門４丁目１番２８号,,13,103,1050001,,,,,,,2022-10-06,1,,,,,エスシージーシックスティ,0
32,1010501049451,新規,0,2022-10-06,2022-10-06,株式会社ＢＰ　Ｉｎｔｅｒｐｒｉｓｅ,,株式会社,東京都,台東区,浅草橋５丁目２０番８号ＣＳタワー１１２号,,13,106,1110053,,,,,,,2022-10-06,1,,,,,ビーピーインタープライズ,0
34,1010605004138,新規,0,2022-10-06,2022-10-06,特定非営利活動法人でぃぐらぶ,,その他の設立登記法人,東京都,江東区,冬木２１番２１号ＧＡＴビル,,13,108,1350041,,,,,,,2022-10-06,1,,,,,ディグラブ,0
39,1010801033329,新規,0,2022-10-06,2022-10-06,株式会社ケアンリフォーム,,株式会社,東京都,大田区,久が原２丁目３番９号ハイネス久が原１０１,,13,111,1460085,,,,,,,2022-10-06,1,,,,,ケアンリフォーム,0
42,1010901051734,新規,0,2022-10-06,2022-10-06,株式会社ｎｅｗ＆ｓ,,株式会社,東京都,世田谷区,豪徳寺１丁目３８番１５号,,13,112,1540021,,,,,,,2022-10-06,1,,,,,ニュアンス,0
46,1011001150039,新規,0,2022-10-06,2022-10-06,ＪＯＹＰＡＲＫ株式会社,,株式会社,東京都,目黒区,上目黒１丁目１６番８号,,13,110,1530051,,,,,,,2022-10-06,1,,,,,ジョイパーク,0
47,1011001150088,新規,0,2022-10-06,2022-10-06,株式会社メディクラウド,,株式会社,東京都,渋谷区,代々木４丁目５９番３号大永初台マンション１１０３,,13,113,1510053,,,,,,,2022-10-06,1,,,,,メディクラウド,0
48,1011001150113,新規,0,2022-10-06,2022-10-06,株式会社ＺＩＮＺＩＢＵ,,株式会社,東京都,渋谷区,神宮前５丁目２５番４号,,13,113,1500001,,,,,,,2022-10-06,1,,,,,ジンジブ,0
49,1011001150138,新規,0,2022-10-06,2022-10-06,株式会社ＳＨＩＮＳＥＫＡＩ　Ｔｅｃｈｎｏｌｏｇｉｅｓ,,株式会社,東京都,渋谷区,恵比寿４丁目２０番４号ガーデンプレイスグラススクエアＢ１,,13,113,1500013,,,,,,,2022-10-06,1,,,,,シンセイカイテクノロジーズ,0
50,1011001150187,新規,0,2022-10-06,2022-10-06,株式会社龍栄堂,,株式会社,東京都,目黒区,緑が丘１丁目１１番３号,,13,110,1520034,,,,,,,2022-10-06,1,,,,,リュウエイドウ,0
51,1011003015446,新規,0,2022-10-06,2022-10-06,Ｇｉｆｔｐｉａ合同会社,,合同会社,東京都,渋谷区,恵比寿ＬｏｎｇＩｓｌａｎｄＥｂｉｓｕ３０５,,13,113,1500000,,,,,,,2022-10-06,1,,,,,ギフトピア,0
52,1011003015470,新規,0,2022-10-06,2022-10-06,Ａｃｃｏｍｐ合同会社,,合同会社,東京都,渋谷区,道玄坂１丁目１０番８号渋谷道玄坂東急ビル２Ｆ－Ｃ,,13,113,1500043,,,,,,,2022-10-06,1,,,,,アカンプ,0
60,1011105010428,新規,0,2022-10-06,2022-10-06,一般社団法人Ｓｐｏｒｔｓ　Ｃａｒｅｓ,,その他の設立登記法人,東京都,新宿区,西新宿３丁目３－１３西新宿水間ビル６Ｆ,,13,104,1600023,,,,,,,2022-10-06,1,,,,,スポーツケアーズ,0
63,1011201024141,新規,0,2022-10-06,2022-10-06,株式会社ゴトラ,,株式会社,東京都,中野区,新井２丁目４６番２１号葵レジデンス１０２,,13,114,1650026,,,,,,,2022-10-06,1,,,,,ゴトラ,0
74,1011601026274,新規,0,2022-10-06,2022-10-06,株式会社ＡＳＫＴ,,株式会社,東京都,練馬区,旭町３丁目９番１５号高橋ビル２０２,,13,120,1790071,,,,,,,2022-10-06,1,,,,,エーエスケーティー,0
78,1011701025671,新規,0,2022-10-06,2022-10-06,株式会社司,,株式会社,東京都,江戸川区,船堀２丁目１０番２号,,13,123,1340091,,,,,,,2022-10-06,1,,,,,ツカサ,0
86,1012401039706,新規,0,2022-10-06,2022-10-06,株式会社コンサーンリバー,,株式会社,東京都,狛江市,岩戸北１丁目１０番３－１０１号,,13,219,2010004,,,,,,,2022-10-06,1,,,,,コンサーンリバー,0
87,1012401039722,新規,0,2022-10-06,2022-10-06,株式会社ライフマルシェ,,株式会社,東京都,府中市,新町２丁目１３番地の３０,,13,206,1830052,,,,,,,2022-10-06,1,,,,,ライフマルシェ,0
93,1012703002551,新規,0,2022-10-06,2022-10-06,合同会社レインボーコーポレーション,,合同会社,東京都,西東京市,ひばりが丘北３丁目５番６号,,13,229,2020002,,,,,,,2022-10-06,1,,,,,レインボーコーポレーション,0
94,1012801021874,新規,0,2022-10-06,2022-10-06,株式会社Ｓ‐ＧＬＡＳＳ,,株式会社,東京都,日野市,大字日野１０７７－１２６,,13,212,1910012,,,,,,,2022-10-06,1,,,,,エスグラス,0
95,1012801021882,新規,0,2022-10-06,2022-10-06,株式会社ｆｏｒｔ,,株式会社,東京都,国分寺市,東恋ヶ窪３丁目３番地１,,13,214,1850014,,,,,,,2022-10-06,1,,,,,フォート,0
100,1020001148380,新規,0,2022-10-06,2022-10-06,株式会社池谷管理,,株式会社,神奈川県,横浜市鶴見区,岸谷４丁目２１番４号,,14,101,2300078,,,,,,,2022-10-06,1,,,,,イケタニカンリ,0
101,1020001148422,新規,0,2022-10-06,2022-10-06,盛和ホールディングス株式会社,,株式会社,神奈川県,横浜市港北区,新吉田東２丁目３番１－４０３号,,14,109,2230058,,,,,,,2022-10-06,1,,,,,セイワホールディングス,0
102,1020001148430,新規,0,2022-10-06,2022-10-06,株式会社ＲＰＳ,,株式会社,神奈川県,横浜市青葉区,あざみ野１丁目２４－１４愛知ビル１Ｆ,,14,117,2250011,,,,,,,2022-10-06,1,,,,,,0
103,1020001148439,新規,0,2022-10-06,2022-10-06,集縁多幸株式会社,,株式会社,神奈川県,横浜市南区,共進町３丁目７８番地２パティオ蒔田４０１号室,,14,105,2320015,,,,,,,2022-10-06,1,,,,,シュウエンタコウ,0
104,1020001148463,新規,0,2022-10-06,2022-10-06,株式会社感謝と努力,,株式会社,神奈川県,横浜市港南区,港南台８丁目７番３３号,,14,111,2340054,,,,,,,2022-10-06,1,,,,,カンシャトドリョク,0
108,1020003022484,新規,0,2022-10-06,2022-10-06,合同会社災害復旧サポートプラス,,合同会社,神奈川県,川崎市麻生区,東百合丘２丁目３９番６号,,14,137,2150012,,,,,,,2022-10-06,1,,,,,サイガイフッキュウサポートプラス,0
109,1020003022526,新規,0,2022-10-06,2022-10-06,山田合同会社,,合同会社,神奈川県,川崎市麻生区,王禅寺西２丁目１４番１号,,14,137,2150017,,,,,,,2022-10-06,1,,,,,ヤマダ,0
113,1021001077099,新規,0,2022-10-06,2022-10-06,株式会社マルヨ,,株式会社,神奈川県,相模原市中央区,上溝２５２４番地,,14,152,2520243,,,,,,,2022-10-06,1,,,,,マルヨ,0
114,1021001077116,新規,0,2022-10-06,2022-10-06,株式会社ＦｏｉＤ,,株式会社,神奈川県,平塚市,宮の前３番７－５０５号,,14,203,2540035,,,,,,,2022-10-06,1,,,,,フォイド,0
116,1021003012211,新規,0,2022-10-06,2022-10-06,ＧＦＥ合同会社,,合同会社,神奈川県,平塚市,平塚１丁目２１番９号,,14,203,2540052,,,,,,,2022-10-06,1,,,,,ジーエフイー,0
117,1030001150385,新規,0,2022-10-06,2022-10-06,株式会社ＯＣＥＡＮ,,株式会社,埼玉県,八潮市,中央２丁目２７番地１ピュアセレスＡ２０２,,11,234,3400816,,,,,,,2022-10-06,1,,,,,オーシャン,0
126,1040001125329,新規,0,2022-10-06,2022-10-06,株式会社大星,,株式会社,千葉県,千葉市緑区,おゆみ野中央７丁目１５番地７,,12,105,2660032,,,,,,,2022-10-06,1,,,,,タイセイ,0
127,1040001125337,新規,0,2022-10-06,2022-10-06,株式会社ジルグラン,,株式会社,千葉県,千葉市中央区,富士見１丁目１３－９千葉センタービル２Ａ,,12,101,2600015,,,,,,,2022-10-06,1,,,,,ジルグラン,0
134,1050001051763,新規,0,2022-10-06,2022-10-06,株式会社ＪＢＴＩｎｔｅｒｎａｔｉｏｎａｌ,,株式会社,茨城県,猿島郡境町,大字蛇池６３０番地３,,08,546,3060403,,,,,,,2022-10-06,1,,,,,ジェイビーティインターナショナル,0
135,1050001051771,新規,0,2022-10-06,2022-10-06,株式会社アムロコム,,株式会社,茨城県,水戸市,笠原町７６７番地１８,,08,201,3100852,,,,,,,2022-10-06,1,,,,,アムロコム,0
143,1080003002885,新規,0,2022-10-06,2022-10-06,合同会社カインド,,合同会社,静岡県,静岡市駿河区,大谷３丁目３０番３７号,,22,102,4228017,,,,,,,2022-10-06,1,,,,,カインド,0
149,1080401026081,新規,0,2022-10-06,2022-10-06,浜松ホトニクス・コーポレート・ベンチャー・キャピタル株式会社,,株式会社,静岡県,浜松市中区,砂山町３２５番地の３４,,22,131,4300926,,,,,,,2022-10-06,1,,,,,ハママツホトニクスコーポレートベンチャーキャピタル,0
158,1100001035760,新規,0,2022-10-06,2022-10-06,株式会社ウエマツ園芸,,株式会社,長野県,諏訪郡富士見町,立沢３５６番地１,,20,362,3990212,,,,,,,2022-10-06,1,,,,,ウエマツエンゲイ,0
159,1100001035769,新規,0,2022-10-06,2022-10-06,株式会社小川板金,,株式会社,長野県,千曲市,大字戸倉３５８番地,,20,218,3890804,,,,,,,2022-10-06,1,,,,,オガワバンキン,0
164,1110001037005,新規,0,2022-10-06,2022-10-06,株式会社富沢左官工業,,株式会社,新潟県,新潟市西蒲区,和納１４３１番地,,15,108,9530125,,,,,,,2022-10-06,1,,,,,トミサワサカンコウギョウ,0
165,1110001037013,新規,0,2022-10-06,2022-10-06,株式会社うるしはら塗装店,,株式会社,新潟県,長岡市,水梨町１１０４番地３,,15,202,9401165,,,,,,,2022-10-06,1,,,,,ウルシハラトソウテン,0
175,1120001249268,新規,0,2022-10-06,2022-10-06,唐風株式会社,,株式会社,大阪府,大阪市中央区,松屋町９番２０号ローレルステート松屋町７０２Ａ,,27,128,5420067,,,,,,,2022-10-06,1,,,,,トウフウ,0
176,1120001249334,新規,0,2022-10-06,2022-10-06,株式会社光工房,,株式会社,大阪府,守口市,大宮通２丁目２０番１５号,,27,209,5700033,,,,,,,2022-10-06,1,,,,,ヒカリコウボウ,0
177,1120001249342,新規,0,2022-10-06,2022-10-06,株式会社ＫＤビルクリーニング,,株式会社,大阪府,大阪市中央区,今橋２丁目４番１０号,,27,128,5410042,,,,,,,2022-10-06,1,,,,,ケーディービルクリーニング,0
178,1120001249383,新規,0,2022-10-06,2022-10-06,株式会社ＢＬＥＮＤ,,株式会社,大阪府,大阪市中央区,宗右衛門町４番６号平の家ビル４０１号,,27,128,5420084,,,,,,,2022-10-06,1,,,,,ブレンド,0
187,1120101066299,新規,0,2022-10-06,2022-10-06,株式会社ホームテックパートナー,,株式会社,大阪府,堺市堺区,向陵中町４丁５番２７号,,27,141,5900024,,,,,,,2022-10-06,1,,,,,ホームテックパートナー,0
190,1120103004868,新規,0,2022-10-06,2022-10-06,アズ２９プランニング合同会社,,合同会社,大阪府,堺市南区,桃山台１丁２２番５号,,27,145,5900141,,,,,,,2022-10-06,1,,,,,アズニクプランニング,0
194,1120903004324,新規,0,2022-10-06,2022-10-06,合同会社３５ｍｍ,,合同会社,大阪府,高槻市,津之江町２丁目１番９号,,27,207,5690822,,,,,,,2022-10-06,1,,,,,サンジュウゴミリ,0
196,1122001036299,新規,0,2022-10-06,2022-10-06,株式会社横沼金型,,株式会社,大阪府,八尾市,新家町１丁目２番地の３,,27,212,5810811,,,,,,,2022-10-06,1,,,,,ヨコヌマカナガタ,0
208,1140001127570,新規,0,2022-10-06,2022-10-06,アンソレイユ株式会社,,株式会社,兵庫県,加古郡播磨町,古田２丁目２８番１３号,,28,382,6750146,,,,,,,2022-10-06,1,,,,,アンソレイユ,0
209,1140001127579,新規,0,2022-10-06,2022-10-06,株式会社ｅｔｅ,,株式会社,兵庫県,尼崎市,東園田町９丁目３５番１号,,28,202,6610953,,,,,,,2022-10-06,1,,,,,エテ,0
216,1160003002687,新規,0,2022-10-06,2022-10-06,合同会社Ｂｉ　Ｏｎｅ,,合同会社,滋賀県,大津市,坂本７丁目２８－３ユニヴェール１０３,,25,201,5200113,,,,,,,2022-10-06,1,,,,,ビーワン,0
217,1160005011125,新規,0,2022-10-06,2022-10-06,社会保険労務士法人四季,,その他の設立登記法人,滋賀県,大津市,坂本５丁目１１番１号,,25,201,5200113,,,,,,,2022-10-06,1,,,,,シキ,0
219,1170003001779,新規,0,2022-10-06,2022-10-06,合同会社ＲＥ．ＢＩＲＴＨ,,合同会社,和歌山県,和歌山市,松江東２丁目１番５７号,,30,201,6408422,,,,,,,2022-10-06,1,,,,,リバース,0
222,1180003012791,新規,0,2022-10-06,2022-10-06,合名会社第一薬局,,合資会社,愛知県,半田市,銀座本町２丁目１０番地,,23,205,4750874,,,,,,,2022-10-06,1,,,,,ダイイチヤッキョク,0
226,1180301036682,新規,0,2022-10-06,2022-10-06,株式会社ビー・ユー・サポート,,株式会社,愛知県,豊橋市,舟原町１１０番地,,23,201,4400813,,,,,,,2022-10-06,1,,,,,ビーユーサポート,0
230,1180303005462,新規,0,2022-10-06,2022-10-06,プレジールガーデン合同会社,,合同会社,愛知県,豊橋市,菰口町３丁目３７番地（５０３）,,23,201,4418011,,,,,,,2022-10-06,1,,,,,プレジールガーデン,0
233,1190001029804,新規,0,2022-10-06,2022-10-06,稲垣内装株式会社,,株式会社,三重県,桑名市,多度町北猪飼３４番地２,,24,205,5110123,,,,,,,2022-10-06,1,,,,,イナガキナイソウ,0
235,1190003004103,新規,0,2022-10-06,2022-10-06,合同会社ＡＹＡ,,合同会社,三重県,津市,香良洲町５９５１番地１,,24,201,5140315,,,,,,,2022-10-06,1,,,,,エーワイエー,0
237,1200001040511,新規,0,2022-10-06,2022-10-06,株式会社堀場電設,,株式会社,岐阜県,大垣市,南頬町３丁目１２０番地,,21,202,5030864,,,,,,,2022-10-06,1,,,,,ホリバデンセツ,0
247,1220001025072,新規,0,2022-10-06,2022-10-06,株式会社Ｓ‐ＤＥＮ,,株式会社,石川県,金沢市,御所町１丁目３８番地,,17,201,9200813,,,,,,,2022-10-06,1,,,,,エスデン,0
253,1240001060431,新規,0,2022-10-06,2022-10-06,金本造園株式会社,,株式会社,広島県,東広島市,西条町寺家４２３９番地１,,34,212,7390041,,,,,,,2022-10-06,1,,,,,カネモトゾウエン,0
254,1240001060472,新規,0,2022-10-06,2022-10-06,株式会社にった,,株式会社,広島県,三原市,宮沖４丁目９番１８号,,34,204,7230016,,,,,,,2022-10-06,1,,,,,ニッタ,0
258,1250001019781,新規,0,2022-10-06,2022-10-06,株式会社マイライフ,,株式会社,山口県,岩国市,由宇町港１丁目１０番１５号,,35,208,7401424,,,,,,,2022-10-06,1,,,,,マイライフ,0
259,1250003003156,新規,0,2022-10-06,2022-10-06,合同会社ふぁんたじーすいーつ,,合同会社,山口県,下松市,大字東豊井１４４７－１,,35,207,7440002,,,,,,,2022-10-06,1,,,,,ファンタジースイーツ,0
260,1260001037295,新規,0,2022-10-06,2022-10-06,株式会社Ｇｒｏｗｔｈ　Ｌｉｎｅ,,株式会社,岡山県,岡山市北区,辛川市場２８２番地７,,33,101,7011214,,,,,,,2022-10-06,1,,,,,グロースライン,0
261,1260001037304,新規,0,2022-10-06,2022-10-06,Ｌｉｂｅｒｔｙ　Ｃｏｍｐａｎｙ株式会社,,株式会社,岡山県,倉敷市,西阿知町７４２番地１,,33,202,7100807,,,,,,,2022-10-06,1,,,,,リバティーカンパニー,0
264,1260005011148,新規,0,2022-10-06,2022-10-06,一般社団法人海と日本プロジェクトｉｎ岡山,,その他の設立登記法人,岡山県,岡山市北区,天神町９番２４号,,33,101,7000814,,,,,,,2022-10-06,1,,,,,ウミトニッポンプロジェクトインオカヤマ,0
265,1280001008798,新規,0,2022-10-06,2022-10-06,株式会社ｎｏｔｏ,,株式会社,島根県,松江市,上乃木８丁目１９番１４号,,32,201,6900015,,,,,,,2022-10-06,1,,,,,ノト,0
270,1290001099077,新規,0,2022-10-06,2022-10-06,株式会社Ｓｙｎｅｒｇｙ,,株式会社,福岡県,福岡市中央区,薬院３丁目１４－２ＳＨＩＮＥＩＢＬＤ．３Ｆ,,40,133,8100022,,,,,,,2022-10-06,1,,,,,シナジー,0
271,1290001099085,新規,0,2022-10-06,2022-10-06,株式会社Ｑｒｅｅｔｅ,,株式会社,福岡県,飯塚市,庄司３５１番地２,,40,205,8200051,,,,,,,2022-10-06,1,,,,,クリート,0
272,1290001099135,新規,0,2022-10-06,2022-10-06,セイドウパートナーズ株式会社,,株式会社,福岡県,福岡市西区,今宿駅前１丁目１５番１８号,,40,135,8190168,,,,,,,2022-10-06,1,,,,,セイドウパートナーズ,0
273,1290001099143,新規,0,2022-10-06,2022-10-06,メタグロース株式会社,,株式会社,福岡県,福岡市南区,野間１丁目１番１９号１２Ｆ,,40,134,8150041,,,,,,,2022-10-06,1,,,,,メタグロース,0
274,1290003013052,新規,0,2022-10-06,2022-10-06,合同会社トライゲート,,合同会社,福岡県,福岡市中央区,平尾２丁目１７‐２０　２０３号室,,40,133,8100014,,,,,,,2022-10-06,1,,,,,トライゲート,0
276,1290005018818,新規,0,2022-10-06,2022-10-06,一般社団法人メディカルジョイント,,その他の設立登記法人,福岡県,福岡市西区,壱岐団地１４２番５号,,40,135,8190042,,,,,,,2022-10-06,1,,,,,メディカルジョイント,0
278,1290801028937,新規,0,2022-10-06,2022-10-06,ＵＫ株式会社,,株式会社,福岡県,北九州市若松区,鴨生田４丁目３番１４－３０３号,,40,103,8080105,,,,,,,2022-10-06,1,,,,,ユーケー,0
283,1330001030169,新規,0,2022-10-06,2022-10-06,株式会社ラビッシュ,,株式会社,熊本県,熊本市南区,白藤１丁目１８番６号,,43,104,8614112,,,,,,,2022-10-06,1,,,,,ラビッシュ,0
284,1330001030177,新規,0,2022-10-06,2022-10-06,株式会社ワイズプラン,,株式会社,熊本県,熊本市南区,八分字町２６６２番地６,,43,104,8615253,,,,,,,2022-10-06,1,,,,,ワイズプラン,0
286,1330003009533,新規,0,2022-10-06,2022-10-06,合同会社トータルコンサルティング,,合同会社,熊本県,宇城市,松橋町曲野２１６３番地１・２Ｆ－Ｃ,,43,213,8690511,,,,,,,2022-10-06,1,,,,,トータルコンサルティング,0
287,1340001025069,新規,0,2022-10-06,2022-10-06,株式会社イナフ,,株式会社,鹿児島県,鹿児島市,宇宿６丁目４０番１－１号,,46,201,8900073,,,,,,,2022-10-06,1,,,,,イナフ,0
288,1340001025085,新規,0,2022-10-06,2022-10-06,株式会社ネクストワン,,株式会社,鹿児島県,鹿児島市,南郡元町３０番１０号,,46,201,8900069,,,,,,,2022-10-06,1,,,,,ネクストワン,0
292,1360003012352,新規,0,2022-10-06,2022-10-06,合同会社ＳｈｉｎｉｎｇＲｏａｄ,,合同会社,沖縄県,浦添市,西原５丁目１－２－８０２号アーバンパレット浦西,,47,208,9012101,,,,,,,2022-10-06,1,,,,,シャイニングロード,0
296,1370005010535,新規,0,2022-10-06,2022-10-06,一般社団法人ぐりっとさぽーと,,その他の設立登記法人,宮城県,仙台市若林区,六丁の目西町３番４１号,,04,103,9840011,,,,,,,2022-10-06,1,,,,,グリットサポート,0
301,1410001013297,新規,0,2022-10-06,2022-10-06,株式会社エスジーワークス,,株式会社,秋田県,潟上市,天王字上狼縁３６番地７１,,05,211,0100201,,,,,,,2022-10-06,1,,,,,エスジーワークス,0
306,1430003014325,新規,0,2022-10-06,2022-10-06,合同会社Ｃｈｉｏｆｒｅｅｅ,,合同会社,北海道,江別市,元江別本町３５番地の１９,,01,217,0670041,,,,,,,2022-10-06,1,,,,,チオフリィイ,0
311,1430005014562,新規,0,2022-10-06,2022-10-06,一般社団法人オアリパ,,その他の設立登記法人,北海道,砂川市,東一条南１丁目１番２３号,,01,226,0730131,,,,,,,2022-10-06,1,,,,,オアリパ,0
312,1460003000917,新規,0,2022-10-06,2022-10-06,合同会社シーズ,,合同会社,北海道,釧路市,昭和中央４丁目２番８号Ｍ＆Ｍ昭和１Ｆ左,,01,206,0840910,,,,,,,2022-10-06,1,,,,,シーズ,0
318,1480001011880,新規,0,2022-10-06,2022-10-06,株式会社ＭＫファーム,,株式会社,徳島県,阿波市,市場町大俣字貞久３００番地７,,36,206,7711613,,,,,,,2022-10-06,1,,,,,エムケーファーム,0
330,2010001229924,新規,0,2022-10-06,2022-10-06,共同事務調査サービス株式会社,,株式会社,東京都,千代田区,大手町２丁目６番４号,,13,101,1000004,,,,,,,2022-10-06,1,,,,,キョウドウジムチョウササービス,0
331,2010001229932,新規,0,2022-10-06,2022-10-06,株式会社ツクリゴト,,株式会社,東京都,文京区,白山１丁目１３番７号アクア白山ビル７Ｆ－１８,,13,105,1130001,,,,,,,2022-10-06,1,,,,,ツクリゴト,0
332,2010001229998,新規,0,2022-10-06,2022-10-06,株式会社ＩＭＤ,,株式会社,東京都,中央区,銀座１丁目１２－４Ｎ＆ＥＢＬＤ．７階,,13,102,1040061,,,,,,,2022-10-06,1,,,,,アイエムディー,0
333,2010001230007,新規,0,2022-10-06,2022-10-06,ナンバーエイト株式会社,,株式会社,東京都,中央区,日本橋小伝馬町７番１２号,,13,102,1030001,,,,,,,2022-10-06,1,,,,,ナンバーエイト,0
339,2010101015349,新規,0,2022-10-06,2022-10-06,正亮貿易株式会社,,株式会社,東京都,八王子市,長沼町１０４番地２ヒルサイドテラス１－４,,13,201,1920907,,,,,,,2022-10-06,1,,,,,セイリョウボウエキ,0
350,2010401170026,新規,0,2022-10-06,2022-10-06,株式会社Ｖｉｓｉｏｎ　Ｄｅ　Ｍｏｎｄｅｓ,,株式会社,東京都,港区,北青山２丁目７番２６号,,13,103,1070061,,,,,,,2022-10-06,1,,,,,ビジョンデモンドズ,0
351,2010401170100,新規,0,2022-10-06,2022-10-06,テニスベア株式会社,,株式会社,東京都,港区,北青山３丁目１０番５号ＳｐｒｉｎｇＴｅｒｒａｃｅＯｍｏｔｅｓａｎｄｏ２Ｆ,,13,103,1070061,,,,,,,2022-10-06,1,,,,,テニスベア,0
353,2010403028635,新規,0,2022-10-06,2022-10-06,合同会社桜道３９,,合同会社,東京都,港区,芝２丁目１２番１３号ＡＳＩＴＩＳ芝ビル２０１,,13,103,1050014,,,,,,,2022-10-06,1,,,,,サクラミチサンジュキュウ,0
358,2010501049450,新規,0,2022-10-06,2022-10-06,株式会社ＴＭコーポレーション,,株式会社,東京都,台東区,台東４丁目２６－３,,13,106,1100016,,,,,,,2022-10-06,1,,,,,テーエムコーポレーション,0
362,2010701043294,新規,0,2022-10-06,2022-10-06,株式会社なぶら研究所,,株式会社,東京都,品川区,東品川１丁目２番５号,,13,109,1400002,,,,,,,2022-10-06,1,,,,,ナブラケンキュウジョ,0
364,2010801033311,新規,0,2022-10-06,2022-10-06,株式会社琥心,,株式会社,東京都,大田区,矢口３丁目２８番８－３０９号,,13,111,1460093,,,,,,,2022-10-06,1,,,,,ココロ,0
372,2011001150038,新規,0,2022-10-06,2022-10-06,株式会社ライフスタイルキャリア,,株式会社,東京都,渋谷区,渋谷２丁目７－１４ＶＯＲＴＡＯＹＡＭＡ３０２,,13,113,1500002,,,,,,,2022-10-06,1,,,,,ライフスタイルキャリア,0
373,2011001150046,新規,0,2022-10-06,2022-10-06,株式会社バローロ,,株式会社,東京都,渋谷区,恵比寿南１丁目２４番２号ＥＢＩＳＵ・ＦＯＲＴ,,13,113,1500022,,,,,,,2022-10-06,1,,,,,バローロ,0
374,2011001150079,新規,0,2022-10-06,2022-10-06,株式会社Ｎｅｓｉａ,,株式会社,東京都,渋谷区,上原１丁目２８番８号代々木上原１２８－２０３ｉ,,13,113,1510064,,,,,,,2022-10-06,1,,,,,,0
375,2011001150112,新規,0,2022-10-06,2022-10-06,株式会社ＳＯ　ＭＯＶＥ,,株式会社,東京都,渋谷区,神宮前５丁目２５番４号,,13,113,1500001,,,,,,,2022-10-06,1,,,,,ソウムブ,0
376,2011001150137,新規,0,2022-10-06,2022-10-06,株式会社ＯＭＮＩＡ　Ｃｏｎｓｕｌｔｉｎｇ,,株式会社,東京都,渋谷区,神南１丁目１８番２号,,13,113,1500041,,,,,,,2022-10-06,1,,,,,オムニアコンサルティング,0
377,2011003015453,新規,0,2022-10-06,2022-10-06,合同会社さくら経営サポート,,合同会社,東京都,目黒区,目黒本町５丁目１２番１３号ベルピア武蔵小山２０３,,13,110,1520002,,,,,,,2022-10-06,1,,,,,サクラケイエイサポート,0
378,2011005009783,新規,0,2022-10-06,2022-10-06,一般財団法人奥谷禮子財団,00128042,その他の設立登記法人,東京都,渋谷区,西原２丁目４７番９号,,13,113,1510066,,,,,,,2022-10-06,1,,,,,オクタニレイコザイダン,0
382,2011201024149,新規,0,2022-10-06,2022-10-06,株式会社田中表具店,,株式会社,東京都,中野区,弥生町１丁目８番２号,,13,114,1640013,,,,,,,2022-10-06,1,,,,,タナカヒョウグテン,0
385,2011403003784,新規,0,2022-10-06,2022-10-06,合同会社ワンブレッド,,合同会社,東京都,板橋区,中台３丁目８番３号,,13,119,1740064,,,,,,,2022-10-06,1,,,,,ワンブレッド,0
386,2011501028527,新規,0,2022-10-06,2022-10-06,株式会社アハ製作所,,株式会社,東京都,荒川区,西日暮里６丁目２２番６号,,13,118,1160013,,,,,,,2022-10-06,1,,,,,アハセイサクジョ,0
387,2011601026281,新規,0,2022-10-06,2022-10-06,新生工業株式会社,,株式会社,東京都,練馬区,春日町２丁目５番３３号,,13,120,1790074,,,,,,,2022-10-06,1,,,,,シンセイコウギョウ,0
389,2011603003709,新規,0,2022-10-06,2022-10-06,合同会社縁,,合同会社,東京都,練馬区,桜台４丁目１７番１９号ＹＫハウス１０１,,13,120,1760002,,,,,,,2022-10-06,1,,,,,エン,0
392,2011701025670,新規,0,2022-10-06,2022-10-06,株式会社Ｗ．Ｓ．Ｒ,,株式会社,東京都,江戸川区,西葛西５丁目１０番２２号,,13,123,1340088,,,,,,,2022-10-06,1,,,,,ダブルエスアール,0
398,2012301013149,新規,0,2022-10-06,2022-10-06,株式会社レッヘンハウス,,株式会社,東京都,町田市,小山町４３４６番地,,13,209,1940212,,,,,,,2022-10-06,1,,,,,レッヘンハウス,0
406,2012701017286,新規,0,2022-10-06,2022-10-06,株式会社リクセル,,株式会社,東京都,清瀬市,竹丘３丁目１０番９号,,13,221,2040023,,,,,,,2022-10-06,1,,,,,リクセル,0
410,2013301049736,新規,0,2022-10-06,2022-10-06,ＬＯＯＯＰ株式会社,,株式会社,東京都,豊島区,南大塚１丁目６０番２０号,,13,116,1700005,,,,,,,2022-10-06,1,,,,,ループ,0
413,2020001148462,新規,0,2022-10-06,2022-10-06,株式会社ＨＡパートナーズ,,株式会社,神奈川県,横浜市中区,桜木町１丁目１番地７ヒューリックみなとみらい１０階,,14,104,2310062,,,,,,,2022-10-06,1,,,,,エイチエイパートナーズ,0
414,2020001148495,新規,0,2022-10-06,2022-10-06,サトウ建匠株式会社,,株式会社,神奈川県,横浜市都筑区,川和町２７０９番地キャストル市ヶ尾ＩＩ１０１号室,00128022,14,118,2240057,,,,,,,2022-10-06,1,,,,,サトウケンショウ,0
415,2020003022491,新規,0,2022-10-06,2022-10-06,ｇｉｒａｓｏｌ合同会社,,合同会社,神奈川県,横浜市鶴見区,生麦５丁目１７番８号,,14,101,2300052,,,,,,,2022-10-06,1,,,,,ヒラソル,0
425,2021001077040,新規,0,2022-10-06,2022-10-06,パーキングサイエンス株式会社,,株式会社,神奈川県,藤沢市,片瀬３丁目２番１号,,14,205,2510032,,,,,,,2022-10-06,1,,,,,パーキングサイエンス,0
429,2021003012210,新規,0,2022-10-06,2022-10-06,Ｍｅｔａｌａｎｄ　Ｔｏｋｙｏ合同会社,,合同会社,神奈川県,相模原市中央区,鹿沼台２丁目４－１５フィオーラ鹿沼台６０３,,14,152,2520233,,,,,,,2022-10-06,1,,,,,メタランドトーキョー,0
435,2030001150343,新規,0,2022-10-06,2022-10-06,開園商事株式会社,,株式会社,埼玉県,越谷市,大字小曽川９６７番地１,,11,222,3430802,,,,,,,2022-10-06,1,,,,,カイエンショウジ,0
436,2030001150376,新規,0,2022-10-06,2022-10-06,株式会社木我防災,,株式会社,埼玉県,新座市,野火止１丁目７番４号,,11,230,3520011,,,,,,,2022-10-06,1,,,,,キガボウサイ,0
437,2030001150392,新規,0,2022-10-06,2022-10-06,武蔵野植木株式会社,,株式会社,埼玉県,朝霞市,溝沼５丁目１５番９号,,11,227,3510023,,,,,,,2022-10-06,1,,,,,ムサシノウエキ,0
448,2040001125229,新規,0,2022-10-06,2022-10-06,株式会社小林製作所,,株式会社,千葉県,銚子市,塚本町６３２番地の２,,12,202,2880868,,,,,,,2022-10-06,1,,,,,コバヤシセイサクショ,0
449,2040001125278,新規,0,2022-10-06,2022-10-06,株式会社ＷＯＲＬＤ通商,,株式会社,千葉県,富里市,中沢字松原３４１番地１,,12,233,2860222,,,,,,,2022-10-06,1,,,,,ワールドツウショウ,0
450,2040001125311,新規,0,2022-10-06,2022-10-06,株式会社イッセイアルガ,,株式会社,千葉県,佐倉市,染井野５丁目２８番地３,,12,212,2850831,,,,,,,2022-10-06,1,,,,,イッセイアルガ,0
455,2040005021746,新規,0,2022-10-06,2022-10-06,みなと税理士法人,,その他の設立登記法人,千葉県,船橋市,印内町６０３番地１田中ビル４２２号室,,12,204,2730025,,,,,,,2022-10-06,1,,,,,ミナト,0
456,2050001051746,新規,0,2022-10-06,2022-10-06,株式会社ＹＦテクノ,,株式会社,茨城県,つくば市,高崎２２１７番地１,,08,220,3001245,,,,,,,2022-10-06,1,,,,,ワイエフテクノ,0
457,2050001051779,新規,0,2022-10-06,2022-10-06,株式会社ＳＡＴＥＩ‐Ｐｒｏ,,株式会社,茨城県,那珂郡東海村,白方中央１丁目１９番５７号,,08,341,3191109,,,,,,,2022-10-06,1,,,,,サテイプロ,0
460,2070001039707,新規,0,2022-10-06,2022-10-06,染谷商事株式会社,,株式会社,群馬県,渋川市,行幸田２９０６番地１,,10,208,3770006,,,,,,,2022-10-06,1,,,,,ソメヤショウジ,0
462,2080101023551,新規,0,2022-10-06,2022-10-06,熱川大和館株式会社,,株式会社,静岡県,賀茂郡東伊豆町,奈良本９８６番地の２,,22,301,4130302,,,,,,,2022-10-06,1,,,,,アタガワヤマトカン,0
466,2080401026089,新規,0,2022-10-06,2022-10-06,株式会社ニテルー,,株式会社,静岡県,浜松市中区,曳馬５丁目７番８号ミューゼＩＩＩ曳馬１０２,00128030,22,131,4300901,,,,,,,2022-10-06,1,,,,,ニテルー,0
471,2110001036996,新規,0,2022-10-06,2022-10-06,株式会社三枝不動産,,株式会社,新潟県,長岡市,四郎丸３丁目５番２号,,15,202,9400046,,,,,,,2022-10-06,1,,,,,サエグサフドウサン,0
472,2110001037012,新規,0,2022-10-06,2022-10-06,株式会社山本鋼業,,株式会社,新潟県,十日町市,川治４５４番地２９,,15,210,9480036,,,,,,,2022-10-06,1,,,,,ヤマモトコウギョウ,0
482,2120001249259,新規,0,2022-10-06,2022-10-06,倪記株式会社,,株式会社,大阪府,大阪市中央区,松屋町９番２０号ローレルステート松屋町１２０６Ａ,,27,128,5420067,,,,,,,2022-10-06,1,,,,,ゲイキ,0
483,2120001249267,新規,0,2022-10-06,2022-10-06,Ｒ＆Ｓ株式会社,,株式会社,大阪府,大阪市東成区,深江北３丁目４番２１号エクラ深江橋８０８Ｂ,,27,115,5370001,,,,,,,2022-10-06,1,,,,,アールアンドエス,0
484,2120001249300,新規,0,2022-10-06,2022-10-06,株式会社食べる,,株式会社,大阪府,大阪市福島区,福島７丁目６番１９号,,27,103,5530003,,,,,,,2022-10-06,1,,,,,タベル,0
485,2120001249309,新規,0,2022-10-06,2022-10-06,森鉄工株式会社,,株式会社,大阪府,大阪市天王寺区,味原本町５番２号,,27,109,5430022,,,,,,,2022-10-06,1,,,,,モリテッコウ,0
486,2120001249333,新規,0,2022-10-06,2022-10-06,株式会社ＬＹＮＫＳ,,株式会社,大阪府,大阪市東淀川区,淡路５丁目１１番１号,,27,114,5330032,,,,,,,2022-10-06,1,,,,,リンクス,0
487,2120001249341,新規,0,2022-10-06,2022-10-06,株式会社ＫＤビルサービス,,株式会社,大阪府,大阪市中央区,今橋２丁目４番１０号,,27,128,5410042,,,,,,,2022-10-06,1,,,,,ケーディービルサービス,0
489,2120003022606,新規,0,2022-10-06,2022-10-06,合同会社コラボックス,,合同会社,大阪府,大阪市北区,芝田２丁目８番１１号共栄ビル３階,,27,127,5300012,,,,,,,2022-10-06,1,,,,,コラボックス,0
490,2120003022630,新規,0,2022-10-06,2022-10-06,合同会社ｅｅｙａｎｋａ,,合同会社,大阪府,枚方市,岡本町７番１号,,27,210,5730031,,,,,,,2022-10-06,1,,,,,エエヤンカ,0
495,2120101066307,新規,0,2022-10-06,2022-10-06,株式会社真誠,,株式会社,大阪府,河内長野市,木戸１丁目８番１－２０５号,,27,216,5860001,,,,,,,2022-10-06,1,,,,,シンセイ,0
496,2120101066315,新規,0,2022-10-06,2022-10-06,スイート株式会社,,株式会社,大阪府,堺市堺区,翁橋町１丁６番１６－６０５号,,27,141,5900061,,,,,,,2022-10-06,1,,,,,スイート,0
497,2120101066331,新規,0,2022-10-06,2022-10-06,株式会社リアルワン,,株式会社,大阪府,堺市北区,常磐町１丁１４番地２,,27,146,5918001,,,,,,,2022-10-06,1,,,,,リアルワン,0
505,2120901046573,新規,0,2022-10-06,2022-10-06,株式会社ＣＱ,,株式会社,大阪府,摂津市,正雀２丁目１３番３１号永和ハイツフローラ２０２号室,,27,224,5660023,,,,,,,2022-10-06,1,,,,,シーキュー,0
506,2120901046581,新規,0,2022-10-06,2022-10-06,株式会社ダイトー建装,,株式会社,大阪府,吹田市,山手町４丁目３６番１－１１０４号,,27,205,5640073,,,,,,,2022-10-06,1,,,,,ダイトーケンソウ,0
512,2120903004323,新規,0,2022-10-06,2022-10-06,Ｃｉプランニング合同会社,,合同会社,大阪府,箕面市,今宮４丁目１４－６７,,27,220,5620033,,,,,,,2022-10-06,1,,,,,シーアイプランニング,0
520,2122003002430,新規,0,2022-10-06,2022-10-06,合同会社ＦＹＴ,,合同会社,大阪府,東大阪市,俊徳町２丁目８番２６号,,27,227,5770831,,,,,,,2022-10-06,1,,,,,エフワイティ,0
527,2140001127529,新規,0,2022-10-06,2022-10-06,徳馨医療機械株式会社,,株式会社,兵庫県,神戸市東灘区,向洋町中１丁目１７アジアワンセンター３０６号室,,28,101,6580032,,,,,,,2022-10-06,1,,,,,トクケイイリョウ,0
528,2140001127553,新規,0,2022-10-06,2022-10-06,株式会社Ｚｅｂｒａ,,株式会社,兵庫県,神戸市中央区,熊内橋通６丁目１番１７号,,28,110,6510055,,,,,,,2022-10-06,1,,,,,ゼブラ,0
529,2140001127669,新規,0,2022-10-06,2022-10-06,株式会社ハウスモード,,株式会社,兵庫県,小野市,中町２８６番地の１イーストＩ＆Ｄ１０３号,,28,218,6751332,,,,,,,2022-10-06,1,,,,,ハウスモード,0
532,2140003018197,新規,0,2022-10-06,2022-10-06,Ａｉｌｅｓ　ＪＰ合同会社,,合同会社,兵庫県,神戸市東灘区,御影本町２丁目８番２０－１４０４号,,28,101,6580046,,,,,,,2022-10-06,1,,,,,エールジェーピー,0
540,2160003002686,新規,0,2022-10-06,2022-10-06,合同会社Ｕ．Ｓモータース,,合同会社,滋賀県,草津市,岡本町２１２－２,,25,206,5250044,,,,,,,2022-10-06,1,,,,,ウエスモータース,0
541,2170001017306,新規,0,2022-10-06,2022-10-06,ＡＨ工業株式会社,,株式会社,和歌山県,和歌山市,野崎２１３番地１３,,30,201,6408402,,,,,,,2022-10-06,1,,,,,エイエイチコウギョウ,0
542,2180001153190,新規,0,2022-10-06,2022-10-06,一結株式会社,,株式会社,愛知県,半田市,青山４丁目１３番地の９ヴィクトワール弐番館５０１号,,23,205,4750836,,,,,,,2022-10-06,1,,,,,イチユ,0
543,2180001153249,新規,0,2022-10-06,2022-10-06,いとふみ株式会社,,株式会社,愛知県,名古屋市中区,栄１丁目１８番１号,,23,106,4600008,,,,,,,2022-10-06,1,,,,,イトフミ,0
551,2190001029803,新規,0,2022-10-06,2022-10-06,株式会社和み住まいサポート,,株式会社,三重県,四日市市,釆女町１９６３番地８,,24,202,5100954,,,,,,,2022-10-06,1,,,,,ナゴミスマイサポート,0
552,2190001029811,新規,0,2022-10-06,2022-10-06,株式会社ミズタニプランツ,,株式会社,三重県,津市,芸濃町椋本２７０９番地６,,24,201,5142211,,,,,,,2022-10-06,1,,,,,ミズタニプランツ,0
554,2200001040527,新規,0,2022-10-06,2022-10-06,株式会社Ｌｉｐｏｓｅ,,株式会社,岐阜県,岐阜市,上土居２丁目３番９－１号,,21,201,5020803,,,,,,,2022-10-06,1,,,,,ライパス,0
559,2200005013396,新規,0,2022-10-06,2022-10-06,一般社団法人新日本運転代行連盟,,その他の設立登記法人,岐阜県,関市,肥田瀬２５４２番地３,,21,205,5013911,,,,,,,2022-10-06,1,,,,,シンニッポンウンテンダイコウレンメイ,0
562,2220001025063,新規,0,2022-10-06,2022-10-06,誠和オフィス株式会社,,株式会社,石川県,野々市市,押越１丁目１０９番地６,,17,212,9218803,,,,,,,2022-10-06,1,,,,,セイワオフィス,0
563,2220001025071,新規,0,2022-10-06,2022-10-06,株式会社アロエ,,株式会社,石川県,河北郡内灘町,字向粟崎５丁目１６番地,,17,365,9200274,,,,,,,2022-10-06,1,,,,,アロエ,0
565,2240001060455,新規,0,2022-10-06,2022-10-06,ＬＩＢＥＲ．株式会社,,株式会社,広島県,福山市,千田町３丁目１８番７号,,34,207,7200017,,,,,,,2022-10-06,1,,,,,リベル,0
574,2280001008797,新規,0,2022-10-06,2022-10-06,株式会社エストミレア,,株式会社,島根県,松江市,春日町２４２番地,,32,201,6900877,,,,,,,2022-10-06,1,,,,,エストミレア,0
576,2280005007507,新規,0,2022-10-06,2022-10-06,税理士法人竹内会計,,その他の設立登記法人,島根県,益田市,あけぼの西町２番地９,,32,204,6980025,,,,,,,2022-10-06,1,,,,,タケウチカイケイ,0
583,2290001099118,新規,0,2022-10-06,2022-10-06,株式会社ＥＭ‐ＩＮＤＵＳＴＲＹ,,株式会社,福岡県,朝倉郡筑前町,東小田３３６８番地１０,,40,447,8380214,,,,,,,2022-10-06,1,,,,,イーエムインダストリー,0
584,2290001099142,新規,0,2022-10-06,2022-10-06,株式会社ミライピース,,株式会社,福岡県,福岡市中央区,赤坂１丁目１４番２２号,,40,133,8100042,,,,,,,2022-10-06,1,,,,,ミライピース,0
586,2290801028944,新規,0,2022-10-06,2022-10-06,令和アンゼン株式会社,,株式会社,福岡県,田川市,大字弓削田６７８番地２,,40,206,8260041,,,,,,,2022-10-06,1,,,,,レイワアンゼン,0
587,2290803004225,新規,0,2022-10-06,2022-10-06,合同会社こはく,,合同会社,福岡県,北九州市小倉北区,黒住町１番１６号,,40,106,8020056,,,,,,,2022-10-06,1,,,,,コハク,0
592,2310001018074,新規,0,2022-10-06,2022-10-06,株式会社セイヒ,,株式会社,長崎県,西海市,西彼町鳥加郷２２８番地１０,,42,212,8513406,,,,,,,2022-10-06,1,,,,,セイヒ,0
593,2310003004460,新規,0,2022-10-06,2022-10-06,元村産業合同会社,,合同会社,長崎県,五島市,上大津町２０３３番地,,42,211,8530013,,,,,,,2022-10-06,1,,,,,モトムラサンギョウ,0
594,2320001019360,新規,0,2022-10-06,2022-10-06,株式会社Ｙ‐ＰＬＡＮ,,株式会社,大分県,大分市,大字下郡字久保３２０９番地の８,,44,201,8700951,,,,,,,2022-10-06,1,,,,,ワイプラン,0
595,2330001030151,新規,0,2022-10-06,2022-10-06,株式会社奥村住宅工房,,株式会社,熊本県,玉名市,岱明町高道１０３１番地１,,43,206,8690202,,,,,,,2022-10-06,1,,,,,オクムラジュウタクコウボウ,0
602,2340001025084,新規,0,2022-10-06,2022-10-06,株式会社カワハラ工務店,,株式会社,鹿児島県,鹿児島市,上福元町６８３４番地１,,46,201,8910116,,,,,,,2022-10-06,1,,,,,カワハラコウムテン,0
605,2340003003930,新規,0,2022-10-06,2022-10-06,合同会社ハッピネス,,合同会社,鹿児島県,鹿児島市,新屋敷町１６番１１３号公社ビル１階,,46,201,8920838,,,,,,,2022-10-06,1,,,,,ハッピネス,0
608,2360003012327,新規,0,2022-10-06,2022-10-06,ＲＥＧＡＴＥ合同会社,,合同会社,沖縄県,島尻郡与那原町,字与那原６０９ファミールサキヤマ３０３,,47,348,9011303,,,,,,,2022-10-06,1,,,,,レガテ,0
610,2370001049114,新規,0,2022-10-06,2022-10-06,株式会社ＥＧＥＮ,,株式会社,宮城県,仙台市泉区,館４丁目２２－９,,04,105,9813214,,,,,,,2022-10-06,1,,,,,エゲン,0
624,2430003014324,新規,0,2022-10-06,2022-10-06,合同会社恵神,,合同会社,北海道,恵庭市,北柏木町１丁目２番２号,,01,231,0611433,,,,,,,2022-10-06,1,,,,,ケイジン,0
627,2470001019288,新規,0,2022-10-06,2022-10-06,椛谷商事株式会社,,株式会社,香川県,東かがわ市,引田８４０番地１,,37,207,7692901,,,,,,,2022-10-06,1,,,,,カバタニショウジ,0
628,2480001011871,新規,0,2022-10-06,2022-10-06,株式会社ＹＧ　ｌｕｓｈ,,株式会社,徳島県,徳島市,東船場町１丁目１２番地,,36,201,7700911,,,,,,,2022-10-06,1,,,,,ワイジーラッシュ,0
629,2500001024516,新規,0,2022-10-06,2022-10-06,株式会社ＶＩＳＱ,,株式会社,愛媛県,新居浜市,泉宮町４番１７－１４０３号,,38,205,7920021,,,,,,,2022-10-06,1,,,,,ビスク,0
630,2500001024524,新規,0,2022-10-06,2022-10-06,株式会社ジープ,,株式会社,愛媛県,松山市,千舟町４丁目６番地９,,38,201,7900011,,,,,,,2022-10-06,1,,,,,ジープ,0
644,3010001229881,新規,0,2022-10-06,2022-10-06,株式会社マニュファクコンサル,,株式会社,東京都,中央区,新川２丁目２１番１０号リードシー八丁堀日本橋新川オフィス２Ｆ－２４号室,,13,102,1040033,,,,,,,2022-10-06,1,,,,,マニュファクコンサル,0
645,3010001229972,新規,0,2022-10-06,2022-10-06,株式会社Ｅｌ　Ｆａｃｔｏｒｙ,,株式会社,東京都,中央区,銀座１丁目１２番４号Ｎ＆ＥＢＬＤ．６Ｆ,,13,102,1040061,,,,,,,2022-10-06,1,,,,,エルファクトリー,0
648,3010003038793,新規,0,2022-10-06,2022-10-06,エスキーム合同会社,,合同会社,東京都,千代田区,富士見１丁目７番１２号,,13,101,1020071,,,,,,,2022-10-06,1,,,,,エスキーム,0
662,3010401170000,新規,0,2022-10-06,2022-10-06,株式会社Ｍ‐ＧＲＡＣＥ,,株式会社,東京都,港区,北青山２丁目７番２０号猪瀬ビル２Ｆ,,13,103,1070061,,,,,,,2022-10-06,1,,,,,エムグレイス,0
663,3010401170033,新規,0,2022-10-06,2022-10-06,株式会社洗濯ブラザーズ,,株式会社,東京都,港区,西新橋２丁目２３番１号８階,,13,103,1050003,,,,,,,2022-10-06,1,,,,,センタクブラザーズ,0
664,3010401170074,新規,0,2022-10-06,2022-10-06,サクシアコーポレート株式会社,,株式会社,東京都,港区,浜松町２丁目１－１２ＶＯＲＴ浜松町ＩＩＩ４Ｆ,00128029,13,103,1050013,,,,,,,2022-10-06,1,,,,,サクシアコーポレート,0
665,3010401170099,新規,0,2022-10-06,2022-10-06,株式会社ＯＨアナリティクス,,株式会社,東京都,港区,浜松町２丁目２番１５号,,13,103,1050013,,,,,,,2022-10-06,1,,,,,オーエイチアナリティクス,0
668,3010403028626,新規,0,2022-10-06,2022-10-06,ｐａｓｓａｇｅ合同会社,,合同会社,東京都,港区,南青山３丁目１番３６号青山丸竹ビル６Ｆ,,13,103,1070062,,,,,,,2022-10-06,1,,,,,パッセージ,0
669,3010403028634,新規,0,2022-10-06,2022-10-06,合同会社桜道３８,,合同会社,東京都,港区,芝２丁目１２番１３号ＡＳＩＴＩＳ芝ビル２０１,,13,103,1050014,,,,,,,2022-10-06,1,,,,,サクラミチサンジュウハチ,0
677,3010801033319,新規,0,2022-10-06,2022-10-06,株式会社エスエフ綜合企画,,株式会社,東京都,大田区,東馬込１丁目３１番１号,,13,111,1430022,,,,,,,2022-10-06,1,,,,,エスエフソウゴウキカク,0
678,3010801033327,新規,0,2022-10-06,2022-10-06,株式会社アサヒヤプロダクツ,,株式会社,東京都,大田区,蒲田１丁目１５番３号,,13,111,1440052,,,,,,,2022-10-06,1,,,,,アサヒヤプロダクツ,0
679,3010803004301,新規,0,2022-10-06,2022-10-06,ＱＬ　Ｄｅｓｉｇｎ合同会社,,合同会社,東京都,大田区,東雪谷４丁目１２－９,,13,111,1450065,,,,,,,2022-10-06,1,,,,,クオリティライフデザイン,0
681,3010901051740,新規,0,2022-10-06,2022-10-06,株式会社アズールモーゲージ,,株式会社,東京都,世田谷区,北沢２丁目２６番２３号ＣＡＳＡ下北沢１０１,,13,112,1550031,,,,,,,2022-10-06,1,,,,,アズールモーゲージ,0
682,3010901051757,新規,0,2022-10-06,2022-10-06,株式会社ＨＯＵＳＥ　ＬＩＮＫ,,株式会社,東京都,世田谷区,池尻４丁目１２－１４Ｆｏｕｒｉｅｒ１Ｆ,,13,112,1540001,,,,,,,2022-10-06,1,,,,,ハウスリンク,0
683,3010903007690,新規,0,2022-10-06,2022-10-06,ＳＥ‐ＴＥＣＨ合同会社,,合同会社,東京都,世田谷区,松原４丁目３４番２０－２０２号,,13,112,1560043,,,,,,,2022-10-06,1,,,,,エスイーテック,0
686,3011001149946,新規,0,2022-10-06,2022-10-06,株式会社Ｗａｋａｐｅｄｉａ,,株式会社,東京都,目黒区,青葉台２丁目１０番１３号,,13,110,1530042,,,,,,,2022-10-06,1,,,,,ワカペディア,0
687,3011001149970,新規,0,2022-10-06,2022-10-06,株式会社サンク,,株式会社,東京都,渋谷区,代々木１丁目５５番１４号,,13,113,1510053,,,,,,,2022-10-06,1,,,,,サンク,0
688,3011001150029,新規,0,2022-10-06,2022-10-06,アスターテ株式会社,,株式会社,東京都,渋谷区,代々木２丁目２３番１号,,13,113,1510053,,,,,,,2022-10-06,1,,,,,アスターテ,0
689,3011001150078,新規,0,2022-10-06,2022-10-06,株式会社Ｓａｕｃｅ,,株式会社,東京都,渋谷区,上原２丁目４８番１２号,,13,113,1510064,,,,,,,2022-10-06,1,,,,,ソース,0
690,3011001150094,新規,0,2022-10-06,2022-10-06,株式会社ＪＧＫ,,株式会社,東京都,目黒区,自由が丘１丁目４番６号,,13,110,1520035,,,,,,,2022-10-06,1,,,,,ジェイジーケー,0
691,3011001150103,新規,0,2022-10-06,2022-10-06,株式会社ＳＨＯＭＩＴ,,株式会社,東京都,渋谷区,道玄坂１丁目１０番８号渋谷道玄坂東急ビル２Ｆ－Ｃ,,13,113,1500043,,,,,,,2022-10-06,1,,,,,ショミット,0
692,3011001150111,新規,0,2022-10-06,2022-10-06,株式会社Ｘ　ＨＯＬＤＩＮＧＳ,,株式会社,東京都,渋谷区,神宮前５丁目２５番４号,,13,113,1500001,,,,,,,2022-10-06,1,,,,,エックスホールディングス,0
693,3011001150160,新規,0,2022-10-06,2022-10-06,Ｒｅｃｏｍ株式会社,,株式会社,東京都,渋谷区,神宮前６丁目２３番４号,,13,113,1500001,,,,,,,2022-10-06,1,,,,,リーコム,0
705,3011105010434,新規,0,2022-10-06,2022-10-06,一般社団法人リニューアブルサンダーズ,,その他の設立登記法人,東京都,新宿区,四谷２丁目９番地１５東京ユナイテッド綜合事務所内,,13,104,1600004,,,,,,,2022-10-06,1,,,,,リニューアブルサンダーズ,0
709,3011401024575,新規,0,2022-10-06,2022-10-06,Ｔ’ｓ株式会社,,株式会社,東京都,板橋区,上板橋２丁目３５番９号,,13,119,1740076,,,,,,,2022-10-06,1,,,,,ティーズ,0
718,3011701025661,新規,0,2022-10-06,2022-10-06,株式会社ＪＮＹ,,株式会社,東京都,江戸川区,東小松川１丁目１２番２０号,,13,123,1320033,,,,,,,2022-10-06,1,,,,,ジェイエヌワイ,0
725,3012303001729,新規,0,2022-10-06,2022-10-06,合同会社エスペニア人財マネジメント,,合同会社,東京都,町田市,森野６丁目３７５番地１,,13,209,1940022,,,,,,,2022-10-06,1,,,,,エスペニアジンザイマネジメント,0
727,3012401039712,新規,0,2022-10-06,2022-10-06,株式会社エックスフォース,,株式会社,東京都,稲城市,平尾４丁目３２番地の１７,,13,225,2060823,,,,,,,2022-10-06,1,,,,,エックスフォース,0
728,3012801021872,新規,0,2022-10-06,2022-10-06,株式会社ユナイト,,株式会社,東京都,立川市,栄町１丁目１８番地の５７,,13,202,1900003,,,,,,,2022-10-06,1,,,,,ユナイト,0
729,3013101009030,新規,0,2022-10-06,2022-10-06,株式会社エフスリー,,株式会社,東京都,青梅市,柚木町３丁目７７２番地の１,,13,205,1980064,,,,,,,2022-10-06,1,,,,,エフスリー,0
743,3021001077114,新規,0,2022-10-06,2022-10-06,株式会社サニーガーデン,,株式会社,神奈川県,相模原市南区,上鶴間本町６丁目２１番１７号,,14,153,2520318,,,,,,,2022-10-06,1,,,,,サニーガーデン,0
744,3021001077122,新規,0,2022-10-06,2022-10-06,伊藤産業テクノロジー株式会社,,株式会社,神奈川県,大和市,深見台１丁目９番２－３号,,14,213,2420013,,,,,,,2022-10-06,1,,,,,イトウサンギョウテクノロジー,0
752,3030001150367,新規,0,2022-10-06,2022-10-06,株式会社幸勝建設,,株式会社,埼玉県,川口市,大字安行原１０３６番地の４,,11,203,3340057,,,,,,,2022-10-06,1,,,,,コウショウケンセツ,0
753,3030001150409,新規,0,2022-10-06,2022-10-06,株式会社ＷＡＶＥ,,株式会社,埼玉県,越谷市,大字弥十郎１２５番地１８,,11,222,3430047,,,,,,,2022-10-06,1,,,,,ウェーブ,0
755,3030005021003,新規,0,2022-10-06,2022-10-06,医療法人ユモトデンタルクリニック,,その他の設立登記法人,埼玉県,さいたま市大宮区,桜木町１丁目１番地４ＴＳ－１１４ＢＬＤＧ．５階,,11,103,3300854,,,,,,,2022-10-06,1,,,,,ユモトデンタルクリニック,0
761,3040001125228,新規,0,2022-10-06,2022-10-06,株式会社すてっぷ,,株式会社,千葉県,旭市,ロ２３４番地５,,12,215,2892516,,,,,,,2022-10-06,1,,,,,ステップ,0
762,3040001125293,新規,0,2022-10-06,2022-10-06,株式会社渡邊会計センター,,株式会社,千葉県,松戸市,東平賀３８番地の２,,12,207,2700003,,,,,,,2022-10-06,1,,,,,ワタナベカイケイセンター,0
767,3040003020963,新規,0,2022-10-06,2022-10-06,ｕｋｉｓｅｉｋｏｕｄｅｓｉｇｎｇａｒｄｅｎ合同会社,,合同会社,千葉県,鎌ケ谷市,東道野辺３丁目１３番４５―３号,,12,224,2730115,,,,,,,2022-10-06,1,,,,,ウキセイコウデザインガーデン,0
768,3040003021012,新規,0,2022-10-06,2022-10-06,まなぶ合同会社,,合同会社,千葉県,松戸市,中和倉１０１―２,,12,207,2700025,,,,,,,2022-10-06,1,,,,,マナブ,0
770,3050001051745,新規,0,2022-10-06,2022-10-06,株式会社常陸の郷,,株式会社,茨城県,高萩市,高浜町３丁目８７番地,,08,214,3180013,,,,,,,2022-10-06,1,,,,,ヒタチノサト,0
773,3050005013155,新規,0,2022-10-06,2022-10-06,医療法人社団医宝会,,その他の設立登記法人,茨城県,水戸市,石川２丁目４０４６番地１,,08,201,3100905,,,,,,,2022-10-06,1,,,,,イホウカイ,0
775,3060001035334,新規,0,2022-10-06,2022-10-06,株式会社和室設備,,株式会社,栃木県,那須塩原市,北和田８７１番地１６,,09,213,3293151,,,,,,,2022-10-06,1,,,,,ワムロセツビ,0
782,3080105006287,新規,0,2022-10-06,2022-10-06,医療法人社団和暢会,,その他の設立登記法人,静岡県,富士市,永田町２丁目２８番地の２,,22,210,4170055,,,,,,,2022-10-06,1,,,,,ワチョウカイ,0
785,3080401026071,新規,0,2022-10-06,2022-10-06,株式会社ｋｏｕｓｈｏｕ,,株式会社,静岡県,浜松市中区,葵西４丁目１番８６号,,22,131,4338111,,,,,,,2022-10-06,1,,,,,コウショウ,0
789,3100001035759,新規,0,2022-10-06,2022-10-06,株式会社Ｅｐｏ　Ｑｕｅｓｔ,,株式会社,長野県,松本市,井川城２丁目１１番１１号,,20,202,3900831,,,,,,,2022-10-06,1,,,,,エポクエスト,0
790,3100001035767,新規,0,2022-10-06,2022-10-06,株式会社ナースター,,株式会社,長野県,長野市,大字稲葉２０３６番地６,,20,201,3800911,,,,,,,2022-10-06,1,,,,,ナースター,0
791,3100003006709,新規,0,2022-10-06,2022-10-06,ｔｒｅｅ　ｗｉｓｅ合同会社,,合同会社,長野県,上伊那郡箕輪町,大字中箕輪１３４２５－１,,20,383,3994601,,,,,,,2022-10-06,1,,,,,ツリーワイズ,0
793,3110001036987,新規,0,2022-10-06,2022-10-06,Ｃｏｍｆｏｒｔａｂｌｅ　ｌｉｖｉｎｇ株式会社,,株式会社,新潟県,長岡市,西津町３８０１番地６,,15,202,9402126,,,,,,,2022-10-06,1,,,,,カンファタブルリビング,0
800,3120001249258,新規,0,2022-10-06,2022-10-06,富盛株式会社,,株式会社,大阪府,大阪市東成区,深江北３丁目４番２１号エクラ深江橋７１２Ｂ,,27,115,5370001,,,,,,,2022-10-06,1,,,,,トミモリ,0
801,3120001249266,新規,0,2022-10-06,2022-10-06,＿晟株式会社,00128020,株式会社,大阪府,大阪市阿倍野区,北畠３丁目４番１２号,,27,119,5450035,,,,,,,2022-10-06,1,,,,,イクセイ,0
802,3120001249299,新規,0,2022-10-06,2022-10-06,株式会社Ｕ‐Ｓｔｙｌｅ,,株式会社,大阪府,大阪市住吉区,苅田５丁目１９番５号,,27,120,5580011,,,,,,,2022-10-06,1,,,,,ユースタイル,0
807,3120005023213,新規,0,2022-10-06,2022-10-06,弁理士法人新大阪国際特許事務所,,その他の設立登記法人,大阪府,大阪市淀川区,宮原５丁目１番３号,,27,123,5320003,,,,,,,2022-10-06,1,,,,,シンオオサカコクサイトッキョジムショ,0
813,3120101066322,新規,0,2022-10-06,2022-10-06,空機工業株式会社,,株式会社,大阪府,堺市西区,下田町２７番６号,,27,144,5938329,,,,,,,2022-10-06,1,,,,,クウキコウギョウ,0
814,3120101066330,新規,0,2022-10-06,2022-10-06,株式会社橋本工業,,株式会社,大阪府,堺市北区,南花田町２４６番地６,,27,146,5918011,,,,,,,2022-10-06,1,,,,,ハシモトコウギョウ,0
818,3122001036289,新規,0,2022-10-06,2022-10-06,株式会社ＫＣ,,株式会社,大阪府,八尾市,東山本新町１丁目１４番３号,,27,212,5810866,,,,,,,2022-10-06,1,,,,,ケーシー,0
826,3130001072733,新規,0,2022-10-06,2022-10-06,株式会社ミズイチ,,株式会社,京都府,京都市右京区,西院松井町１番地１,,26,108,6150013,,,,,,,2022-10-06,1,,,,,ミズイチ,0
830,3140001127569,新規,0,2022-10-06,2022-10-06,株式会社松村工業,,株式会社,兵庫県,姫路市,大津区勘兵衛町２丁目１１１番地,,28,201,6711132,,,,,,,2022-10-06,1,,,,,マツムラコウギョウ,0
831,3140001127602,新規,0,2022-10-06,2022-10-06,株式会社北山プロモーション企画,,株式会社,兵庫県,神戸市中央区,下山手通２丁目１３番３号,,28,110,6500011,,,,,,,2022-10-06,1,,,,,キタヤマプロモーションキカク,0
837,3140003018188,新規,0,2022-10-06,2022-10-06,オルトルイズム合同会社,,合同会社,兵庫県,三木市,志染町吉田１２４１番地の１０１,,28,215,6730501,,,,,,,2022-10-06,1,,,,,オルトルイズム,0
838,3140003018196,新規,0,2022-10-06,2022-10-06,サイエンステクノロジーラボ合同会社,,合同会社,兵庫県,神戸市長田区,細田町５丁目２番２５号,,28,106,6530835,,,,,,,2022-10-06,1,,,,,サイエンステクノロジーラボ,0
839,3140003018205,新規,0,2022-10-06,2022-10-06,合同会社丸中,,合同会社,兵庫県,尼崎市,東難波町３丁目５－２５,,28,202,6600892,,,,,,,2022-10-06,1,,,,,マルナカ,0
842,3160001024541,新規,0,2022-10-06,2022-10-06,株式会社スワングループＧラボ,,株式会社,滋賀県,草津市,西大路町４－３２草津ウエストタワー２Ｆ,,25,206,5250037,,,,,,,2022-10-06,1,,,,,スワングループジーラボ,0
848,3180001153280,新規,0,2022-10-06,2022-10-06,株式会社装飾屋ケン,,株式会社,愛知県,春日井市,味美町３丁目６４番地４,,23,206,4860968,,,,,,,2022-10-06,1,,,,,ソウショクヤケン,0
849,3180001153297,新規,0,2022-10-06,2022-10-06,株式会社ＢＥＶＥＮＴ,,株式会社,愛知県,大府市,横根町坊主山１番地１０４,,23,223,4740011,,,,,,,2022-10-06,1,,,,,ビベント,0
855,3190001029802,新規,0,2022-10-06,2022-10-06,株式会社清水装飾,,株式会社,三重県,三重郡朝日町,大字縄生５２９番地４,,24,343,5108101,,,,,,,2022-10-06,1,,,,,シミズソウショク,0
856,3190001029810,新規,0,2022-10-06,2022-10-06,株式会社ソナタ,,株式会社,三重県,松阪市,久米町１０２３番地１,,24,204,5152122,,,,,,,2022-10-06,1,,,,,ソナタ,0
861,3210001019107,新規,0,2022-10-06,2022-10-06,株式会社エムズ,,株式会社,福井県,吉田郡永平寺町,松岡下合月第１９号２５番地,,18,322,9101104,,,,,,,2022-10-06,1,,,,,エムズ,0
865,3220003003371,新規,0,2022-10-06,2022-10-06,合同会社蒼志,,合同会社,石川県,金沢市,中屋２丁目４７フィーノ２０３号室,,17,201,9200381,,,,,,,2022-10-06,1,,,,,ソウシ,0
868,3240001060446,新規,0,2022-10-06,2022-10-06,株式会社武知,,株式会社,広島県,福山市,日吉台２丁目１６番６号サニーコート日吉台２０１,,34,207,7210972,,,,,,,2022-10-06,1,,,,,タケチ,0
869,3240001060454,新規,0,2022-10-06,2022-10-06,株式会社ＷＥＦＴ,,株式会社,広島県,福山市,坪生町４８３番地１,,34,207,7210903,,,,,,,2022-10-06,1,,,,,ウェフト,0
871,3250003003154,新規,0,2022-10-06,2022-10-06,Ｏ．Ｓ合同会社,,合同会社,山口県,周南市,大字徳山１７９５番地,,35,215,7450851,,,,,,,2022-10-06,1,,,,,オーエス,0
874,3260001037293,新規,0,2022-10-06,2022-10-06,株式会社オーガスター,,株式会社,岡山県,岡山市北区,駅元町１３番１３号應本ビル２０２,,33,101,7000024,,,,,,,2022-10-06,1,,,,,オーガスター,0
875,3260001037310,新規,0,2022-10-06,2022-10-06,まちづくり株式会社,,株式会社,岡山県,都窪郡早島町,早島２４７９番地１０エルディム安原１０１号室,,33,423,7010304,,,,,,,2022-10-06,1,,,,,マチヅクリ,0
876,3260005011146,新規,0,2022-10-06,2022-10-06,一般社団法人ピースミール,,その他の設立登記法人,岡山県,倉敷市,玉島道越１１８７番地,,33,202,7138114,,,,,,,2022-10-06,1,,,,,ピースミール,0
877,3270001008640,新規,0,2022-10-06,2022-10-06,株式会社Ｔ‐Ｃｏｎｎｅｃｔ,,株式会社,鳥取県,鳥取市,新１０８番地２６,,31,201,6800861,,,,,,,2022-10-06,1,,,,,ティーコネクト,0
881,3290001099026,新規,0,2022-10-06,2022-10-06,株式会社ＬＩＮＫ,,株式会社,福岡県,久留米市,野中町１番地３０,,40,203,8390862,,,,,,,2022-10-06,1,,,,,リンク,0
882,3290001099109,新規,0,2022-10-06,2022-10-06,株式会社秘密旗地,,株式会社,福岡県,春日市,上白水２丁目９２番地,,40,218,8160844,,,,,,,2022-10-06,1,,,,,ヒミツキチ,0
883,3290001099133,新規,0,2022-10-06,2022-10-06,株式会社奥村内装,,株式会社,福岡県,福岡市南区,花畑２丁目７番３２号,,40,134,8111356,,,,,,,2022-10-06,1,,,,,オクムラナイソウ,0
884,3290001099141,新規,0,2022-10-06,2022-10-06,都の実業株式会社,,株式会社,福岡県,小郡市,小郡６２０番地１６,,40,216,8380141,,,,,,,2022-10-06,1,,,,,ミヤコノジツギョウ,0
893,3290801028943,新規,0,2022-10-06,2022-10-06,株式会社藤防,,株式会社,福岡県,北九州市八幡西区,春日台３丁目１１番１０号,,40,109,8070844,,,,,,,2022-10-06,1,,,,,フジボウ,0
896,3310001018073,新規,0,2022-10-06,2022-10-06,株式会社吉岡商会,,株式会社,長崎県,大村市,武部町３９番地７,,42,205,8560035,,,,,,,2022-10-06,1,,,,,ヨシオカショウカイ,0
905,3340001025083,新規,0,2022-10-06,2022-10-06,株式会社ＬＩＦＥ＆Ｄ不動産,,株式会社,鹿児島県,鹿児島市,永吉１丁目３４番１１号,,46,201,8900023,,,,,,,2022-10-06,1,,,,,ライフアンドディフドウサン,0
906,3340005009512,新規,0,2022-10-06,2022-10-06,弁護士法人桃木野総合法律事務所,,その他の設立登記法人,鹿児島県,鹿児島市,西千石町１１番２１号ＭＳビル２Ｆ,,46,201,8920847,,,,,,,2022-10-06,1,,,,,モモキノソウゴウホウリツジムショ,0
910,3350003004183,新規,0,2022-10-06,2022-10-06,合同会社Ｋ＆Ｃ企画,,合同会社,宮崎県,都城市,若葉町６９号５番地１,,45,202,8850054,,,,,,,2022-10-06,1,,,,,ケイアンドシーキカク,0
911,3360001031022,新規,0,2022-10-06,2022-10-06,アークメディカルホールディングス株式会社,,株式会社,沖縄県,浦添市,港川２丁目２６番５－１００１号,,47,208,9012134,,,,,,,2022-10-06,1,,,,,アークメディカルホールディングス,0
912,3360001031030,新規,0,2022-10-06,2022-10-06,株式会社大川牧場,,株式会社,沖縄県,石垣市,字名蔵９７５番地４９,,47,207,9070021,,,,,,,2022-10-06,1,,,,,オオカワボクジョウ,0
914,3360003012350,新規,0,2022-10-06,2022-10-06,ＬＤＨ合同会社,,合同会社,沖縄県,石垣市,新栄町７３番地３,,47,207,9070014,,,,,,,2022-10-06,1,,,,,エルディーエイチ,0
917,3380001033157,新規,0,2022-10-06,2022-10-06,株式会社ＬＯＬ,,株式会社,福島県,須賀川市,大町４０３番地の１,,07,207,9620839,,,,,,,2022-10-06,1,,,,,,0
919,3380003005286,新規,0,2022-10-06,2022-10-06,合同会社温泉屋,,合同会社,福島県,福島市,飯坂町字西堀切１４番地の３４,,07,201,9600201,,,,,,,2022-10-06,1,,,,,オンセンヤ,0
922,3400001016019,新規,0,2022-10-06,2022-10-06,株式会社Ｒｕｎ,,株式会社,岩手県,盛岡市,上堂３丁目２番１５号工藤ビル４階,,03,201,0200125,,,,,,,2022-10-06,1,,,,,ラン,0
923,3410001013295,新規,0,2022-10-06,2022-10-06,株式会社チャコール,,株式会社,秋田県,由利本荘市,岩城内道川字馬道２５番地１,,05,210,0181301,,,,,,,2022-10-06,1,,,,,チャコール,0
925,3430001087602,新規,0,2022-10-06,2022-10-06,株式会社ＡＣＳ　Ｈｏｌｄｉｎｇｓ,,株式会社,北海道,札幌市西区,二十四軒一条５丁目６番１号,,01,107,0630801,,,,,,,2022-10-06,1,,,,,エーシーエスホールディングス,0
928,3450001013812,新規,0,2022-10-06,2022-10-06,岡田不動産鑑定株式会社,,株式会社,北海道,旭川市,豊岡四条３丁目７番６号デベックス豊岡４・３　３０５号室,,01,204,0788234,,,,,,,2022-10-06,1,,,,,オカダフドウサンカンテイ,0
934,3470001019287,新規,0,2022-10-06,2022-10-06,株式会社讃岐眼鏡,,株式会社,香川県,高松市,浜ノ町４９番２０号,,37,201,7600011,,,,,,,2022-10-06,1,,,,,サヌキガンキョウ,0
936,3470003002266,新規,0,2022-10-06,2022-10-06,Ｊ‐ａｎｎａｍａｅｔ合同会社,,合同会社,香川県,観音寺市,大野原町萩原１８８０番地３,,37,205,7691614,,,,,,,2022-10-06,1,,,,,ジェイアナメイト,0
937,3480001011870,新規,0,2022-10-06,2022-10-06,株式会社ホットスタッフ徳島,,株式会社,徳島県,徳島市,城東町２丁目８番地１,,36,201,7700862,,,,,,,2022-10-06,1,,,,,ホットスタッフトクシマ,0
939,3700150112042,新規,0,2022-10-06,2022-10-06,ＣＭＡ　ＣＧＭ　ＡＳＩＡ　ＳＨＩＰＰＩＮＧ　ＰＴＥ．ＬＴＤ．,,外国会社等,,,,,,,,９　ＮＯＲＴＨ　ＢＵＯＮＡ　ＶＩＳＴＡ　ＤＲＩＶＥ　＃１４－０１，ＴＨＥ　ＭＥＴＲＯＰＯＬＩＳ，ＳＩＮＧＡＰＯＲＥ（１３８５８８）,,,,,,2022-10-06,1,,,,,シーエムエーシージーエムアジアシッピング,0
952,4010001229963,新規,0,2022-10-06,2022-10-06,株式会社バディデータ,,株式会社,東京都,千代田区,神田猿楽町２丁目１番２号鎌形ビル４階,,13,101,1010064,,,,,,,2022-10-06,1,,,,,バディデータ,0
954,4010003038818,新規,0,2022-10-06,2022-10-06,ＹｏｕｎＧｅｒ合同会社,,合同会社,東京都,千代田区,飯田橋２丁目１６－４九段下コート２Ｆ－２０７号室,,13,101,1020072,,,,,,,2022-10-06,1,,,,,ヤンガー,0
958,4010103002005,新規,0,2022-10-06,2022-10-06,平商事合同会社,,合同会社,東京都,八王子市,大横町８番３コーポ和樂２０３号,,13,201,1920062,,,,,,,2022-10-06,1,,,,,,0
959,4010105002184,新規,0,2022-10-06,2022-10-06,一般社団法人中日教育研究学会,,その他の設立登記法人,東京都,八王子市,丹木町１丁目３２０番地８,,13,201,1920003,,,,,,,2022-10-06,1,,,,,,0
965,4010401169999,新規,0,2022-10-06,2022-10-06,株式会社若林,,株式会社,東京都,港区,南青山４丁目９番３号ＶＩＶＲＥＡＯＹＡＭＡ２Ｆ,,13,103,1070062,,,,,,,2022-10-06,1,,,,,ワカバヤシ,0
966,4010401170057,新規,0,2022-10-06,2022-10-06,株式会社ＭＥＧＬＩＯ,,株式会社,東京都,港区,東新橋１丁目６番３号２４階ＢＩＺｃｏｍｆｏｒｔ,,13,103,1050021,,,,,,,2022-10-06,1,,,,,メリオ,0
970,4010403028625,新規,0,2022-10-06,2022-10-06,合同会社ＶＩＳＩＯＮ　ＥＹＥ,,合同会社,東京都,港区,南青山３丁目１番３６号青山丸竹ビル６Ｆ,,13,103,1070062,,,,,,,2022-10-06,1,,,,,ビジョンアイ,0
971,4010403028633,新規,0,2022-10-06,2022-10-06,合同会社桜道３７,,合同会社,東京都,港区,芝２丁目１２番１３号ＡＳＩＴＩＳ芝ビル２０１,,13,103,1050014,,,,,,,2022-10-06,1,,,,,サクラミチサンジュウナナ,0
976,4010605004135,新規,0,2022-10-06,2022-10-06,特定非営利活動法人江東スポーツ育成協会,,その他の設立登記法人,東京都,墨田区,千歳２丁目５番５号クレイユ両国Ｈ号室,,13,107,1300025,,,,,,,2022-10-06,1,,,,,コウトウスポーツイクセイキョウカイ,0
977,4010801033326,新規,0,2022-10-06,2022-10-06,株式会社ＳＫＧ,,株式会社,東京都,大田区,東糀谷４丁目１番２１－２１０号,,13,111,1440033,,,,,,,2022-10-06,1,,,,,エスケージー,0
982,4010901051723,新規,0,2022-10-06,2022-10-06,株式会社フロッシュ,,株式会社,東京都,世田谷区,等々力６丁目１３番１０号,,13,112,1580082,,,,,,,2022-10-06,1,,,,,フロッシュ,0
983,4010901051756,新規,0,2022-10-06,2022-10-06,株式会社ＰＬＵＳＩＥ,,株式会社,東京都,世田谷区,池尻４丁目１２－１４Ｆｏｕｒｉｅｒ１Ｆ,,13,112,1540001,,,,,,,2022-10-06,1,,,,,プラシエ,0
986,4011001150036,新規,0,2022-10-06,2022-10-06,株式会社Ｙｏ　ＰＲ,,株式会社,東京都,渋谷区,道玄坂１丁目１０番８号渋谷道玄坂東急ビル２Ｆ－Ｃ,,13,113,1500043,,,,,,,2022-10-06,1,,,,,ワイオーピーアール,0
987,4011001150077,新規,0,2022-10-06,2022-10-06,株式会社ＣＲＡＦＴ　ＢＡＳＥ,,株式会社,東京都,渋谷区,神南１丁目１１－３－８階,,13,113,1500041,,,,,,,2022-10-06,1,,,,,クラフトベース,0
988,4011001150143,新規,0,2022-10-06,2022-10-06,株式会社ｎｄｏｔｍ,,株式会社,東京都,渋谷区,代々木４丁目２４番１３号,,13,113,1510053,,,,,,,2022-10-06,1,,,,,エヌドットエム,0
994,4011101100394,新規,0,2022-10-06,2022-10-06,ＡｎｉｍａＡｆｆｅｃｔ株式会社,,株式会社,東京都,新宿区,西新宿３丁目３番１３号６階,,13,104,1600023,,,,,,,2022-10-06,1,,,,,アニマアフェクト,0
998,4011105010433,新規,0,2022-10-06,2022-10-06,税理士法人ＮＳビジネスサポート,,その他の設立登記法人,東京都,新宿区,大久保２丁目７番１号大久保フジビル４０８号,,13,104,1690072,,,,,,,2022-10-06,1,,,,,エヌエスビジネスサポート,0
1000,4011201024147,新規,0,2022-10-06,2022-10-06,志知商店株式会社,,株式会社,東京都,中野区,江古田１丁目３７番１５号,,13,114,1650022,,,,,,,2022-10-06,1,,,,,シチショウテン,0
1005,4011401024582,新規,0,2022-10-06,2022-10-06,株式会社マコト設備,,株式会社,東京都,板橋区,舟渡２丁目１７番５－３１２号,,13,119,1740041,,,,,,,2022-10-06,1,,,,,マコトセツビ,0
1007,4011503005308,新規,0,2022-10-06,2022-10-06,ＭＡＲＵＫＯ合同会社,,合同会社,東京都,北区,赤羽１丁目４８番１青木ビル３０３号,,13,117,1150045,,,,,,,2022-10-06,1,,,,,マルコ,0
1009,4011603003715,新規,0,2022-10-06,2022-10-06,ＥＡＴＭＯ合同会社,,合同会社,東京都,練馬区,石神井町７丁目１０番１４号,,13,120,1770041,,,,,,,2022-10-06,1,,,,,イートモ,0
1013,4012403005612,新規,0,2022-10-06,2022-10-06,合同会社ＩＬＹ,,合同会社,東京都,調布市,下石原１丁目７番地９,,13,208,1820034,,,,,,,2022-10-06,1,,,,,アイリー,0
1015,4012801021871,新規,0,2022-10-06,2022-10-06,株式会社カラーシェル,,株式会社,東京都,昭島市,松原町５丁目２－２１－９０２,,13,207,1960003,,,,,,,2022-10-06,1,,,,,カラーシェル,0
1016,4012805003156,新規,0,2022-10-06,2022-10-06,一般社団法人新記述方式研究協会,,その他の設立登記法人,東京都,東大和市,湖畔２丁目１０４４番地１２４,,13,220,2070002,,,,,,,2022-10-06,1,,,,,シンキジュツホウシキケンキュウキョウカイ,0
1022,4013303006320,新規,0,2022-10-06,2022-10-06,イーストエンド合同会社,,合同会社,東京都,豊島区,目白５丁目２８－３,,13,116,1710031,,,,,,,2022-10-06,1,,,,,イーストエンド,0
1026,4020001148378,新規,0,2022-10-06,2022-10-06,恒洋商事株式会社,,株式会社,神奈川県,横浜市保土ケ谷区,桜ケ丘２丁目３番２２－２号,,14,106,2400011,,,,,,,2022-10-06,1,,,,,コウヨウショウジ,0
1027,4020001148436,新規,0,2022-10-06,2022-10-06,ＤＣマネジメント株式会社,,株式会社,神奈川県,横浜市青葉区,美しが丘５丁目３５番１－４０３号,,14,117,2250002,,,,,,,2022-10-06,1,,,,,ディーシーマネジメント,0
1028,4020003022498,新規,0,2022-10-06,2022-10-06,合同会社ティーアンドディー,,合同会社,神奈川県,横浜市栄区,庄戸５丁目１９番１７号,,14,115,2470022,,,,,,,2022-10-06,1,,,,,ティーアンドディー,0
1029,4020003022515,新規,0,2022-10-06,2022-10-06,合同会社ＤＭＳ,,合同会社,神奈川県,横浜市中区,桜木町１丁目１０１番地１クロスゲート７階,,14,104,2310062,,,,,,,2022-10-06,1,,,,,ディーエムエス,0
1032,4021001077121,新規,0,2022-10-06,2022-10-06,株式会社プロバイド,,株式会社,神奈川県,藤沢市,石川６丁目４番地の６,,14,205,2520815,,,,,,,2022-10-06,1,,,,,プロバイド,0
1033,4030001150283,新規,0,2022-10-06,2022-10-06,株式会社エスバー,,株式会社,埼玉県,草加市,氷川町１４９９番地１ｆｏｒｔｅＢｕｅｎａＶｉｓｔａβ－１１４号,,11,221,3400034,,,,,,,2022-10-06,1,,,,,エスバー,0
1041,4040001125342,新規,0,2022-10-06,2022-10-06,株式会社森澄園,,株式会社,千葉県,八街市,八街に１７８番地４,,12,230,2891103,,,,,,,2022-10-06,1,,,,,モリズミエン,0
1047,4050001051752,新規,0,2022-10-06,2022-10-06,株式会社トータルマネジメントシステム研究所,,株式会社,茨城県,石岡市,正上内１２番１４号,,08,205,3150011,,,,,,,2022-10-06,1,,,,,トータルマネジメントシステムケンキュウジョ,0
1049,4050005013154,新規,0,2022-10-06,2022-10-06,医療法人社団あかつき会,,その他の設立登記法人,茨城県,水戸市,下野町字涸池３１１番地３,,08,201,3190322,,,,,,,2022-10-06,1,,,,,アカツキカイ,0
1050,4060001035325,新規,0,2022-10-06,2022-10-06,株式会社Ｂｌｕｅｌｉｎｅ,,株式会社,栃木県,河内郡上三川町,大字西汗１７４４番地２９２,,09,301,3290607,,,,,,,2022-10-06,1,,,,,ブルーライン,0
1054,4070001039705,新規,0,2022-10-06,2022-10-06,Ａｔｔｅｎｄ　Ｉｎｎｏｖａｔｉｏｎ株式会社,,株式会社,群馬県,伊勢崎市,曲沢町７５０番地１７,,10,204,3792203,,,,,,,2022-10-06,1,,,,,アテンドイノベーション,0
1057,4080003002882,新規,0,2022-10-06,2022-10-06,合同会社ｆｕ,,合同会社,静岡県,静岡市駿河区,泉町２番地５号クレセントコート１階,,22,102,4228066,,,,,,,2022-10-06,1,,,,,フー,0
1059,4080101023558,新規,0,2022-10-06,2022-10-06,環境テイクエナジー株式会社,,株式会社,静岡県,富士市,中央町３丁目２番２号中央町シゲノブビルＩＩ１階Ａ室,00128025,22,210,4170052,,,,,,,2022-10-06,1,,,,,カンキョウテイクエナジー,0
1061,4080401026079,新規,0,2022-10-06,2022-10-06,株式会社カインド,,株式会社,静岡県,浜松市浜北区,宮口３２８８番地,,22,136,4340004,,,,,,,2022-10-06,1,,,,,カインド,0
1063,4090001017799,新規,0,2022-10-06,2022-10-06,株式会社ホットスタッフ山梨,,株式会社,山梨県,甲府市,塩部２丁目２番２０号,,19,201,4000026,,,,,,,2022-10-06,1,,,,,ホットスタッフヤマナシ,0
1064,4090001017808,新規,0,2022-10-06,2022-10-06,株式会社Ｌａａｔｉｋｋｏ,,株式会社,山梨県,北杜市,長坂町長坂上条２２２８番地５,,19,209,4080021,,,,,,,2022-10-06,1,,,,,ラアティッコ,0
1065,4100001035758,新規,0,2022-10-06,2022-10-06,株式会社Ｓ＆Ｓ,,株式会社,長野県,茅野市,ちの６８６番地１,,20,214,3910001,,,,,,,2022-10-06,1,,,,,エスアンドエス,0
1067,4100003006708,新規,0,2022-10-06,2022-10-06,合同会社ＺＥＲＯ,,合同会社,長野県,松本市,大字新村８１４番地１,,20,202,3901241,,,,,,,2022-10-06,1,,,,,ゼロ,0
1073,4110003004883,新規,0,2022-10-06,2022-10-06,ＲＯＸＲＩＶＡ合同会社,,合同会社,新潟県,村上市,堀片７－３１メゾネットはぴねす１０１,,15,212,9580833,,,,,,,2022-10-06,1,,,,,ロックスリバ,0
1081,4120001249265,新規,0,2022-10-06,2022-10-06,高原易株式会社,,株式会社,大阪府,大阪市中央区,松屋町９番２０号ローレルステート松屋町６０７Ａ,,27,128,5420067,,,,,,,2022-10-06,1,,,,,コウゲンエキ,0
1082,4120001249307,新規,0,2022-10-06,2022-10-06,株式会社ｊｕｎｏ,,株式会社,大阪府,大阪市旭区,新森２丁目１番１９号,,27,117,5350022,,,,,,,2022-10-06,1,,,,,ユノ,0
1083,4120001249331,新規,0,2022-10-06,2022-10-06,オーエムホールディングス株式会社,,株式会社,大阪府,大阪市住之江区,北加賀屋３丁目３番４４号,,27,125,5590011,,,,,,,2022-10-06,1,,,,,オーエムホールディングス,0
1086,4120005023229,新規,0,2022-10-06,2022-10-06,税理士法人Ｆｉｖｅ　Ｓｔａｒパートナーズ,,その他の設立登記法人,大阪府,大阪市北区,中崎西２丁目２－１－１０階,,27,127,5300015,,,,,,,2022-10-06,1,,,,,ファイブスターパートナーズ,0
1090,4120103004865,新規,0,2022-10-06,2022-10-06,合同会社ぐぬぬ,,合同会社,大阪府,堺市西区,津久野町３丁２１番２２号,,27,144,5938322,,,,,,,2022-10-06,1,,,,,グヌヌ,0
1092,4120901046555,新規,0,2022-10-06,2022-10-06,株式会社大阪広域福祉サービス,,株式会社,大阪府,池田市,旭丘２丁目１３番２８号,,27,204,5630022,,,,,,,2022-10-06,1,,,,,オオサカコウイキフクシサービス,0
1093,4120901046571,新規,0,2022-10-06,2022-10-06,株式会社プリンセスエフェクト,,株式会社,大阪府,摂津市,正雀４丁目１３番２６－１０２号,,27,224,5660023,,,,,,,2022-10-06,1,,,,,プリンセスエフェクト,0
1094,4120905006381,新規,0,2022-10-06,2022-10-06,一般社団法人日本美容雇用促進協会,,その他の設立登記法人,大阪府,吹田市,豊津町１８番１３号,,27,205,5640051,,,,,,,2022-10-06,1,,,,,ニホンビヨウコヨウソクシンキョウカイ,0
1096,4122001036296,新規,0,2022-10-06,2022-10-06,あすなろ企画株式会社,,株式会社,大阪府,東大阪市,柏田東町２番４号,,27,227,5770833,,,,,,,2022-10-06,1,,,,,アスナロキカク,0
1099,4130001072757,新規,0,2022-10-06,2022-10-06,株式会社片岡設備,,株式会社,京都府,宇治市,菟道車田３４番地の５８,00128032,26,204,6110000,,,,,,,2022-10-06,1,,,,,カタオカセツビ,0
1102,4140001127576,新規,0,2022-10-06,2022-10-06,株式会社やくもファーム,,株式会社,兵庫県,神戸市北区,山田町小河字下ギトラ１９番５,,28,109,6511105,,,,,,,2022-10-06,1,,,,,ヤクモファーム,0
1103,4140001127584,新規,0,2022-10-06,2022-10-06,株式会社松井ブロー,,株式会社,兵庫県,豊岡市,但東町出合５０番地,,28,209,6680311,,,,,,,2022-10-06,1,,,,,マツイブロー,0
1104,4140003018204,新規,0,2022-10-06,2022-10-06,ＡＲＩコンサルティング合同会社,,合同会社,兵庫県,神戸市東灘区,森北町５丁目７番１２号Ｂ－９号,,28,101,6580001,,,,,,,2022-10-06,1,,,,,アリコンサルティング,0
1109,4170001017312,新規,0,2022-10-06,2022-10-06,株式会社伴右衛門,,株式会社,和歌山県,有田郡有田川町,大字奥９６４番地,,30,366,6430022,,,,,,,2022-10-06,1,,,,,バンウエモン,0
1113,4180001153148,新規,0,2022-10-06,2022-10-06,株式会社ｓａｎ,,株式会社,愛知県,名古屋市中川区,三ツ池町２丁目２６番地,,23,110,4540811,,,,,,,2022-10-06,1,,,,,サン,0
1114,4180001153247,新規,0,2022-10-06,2022-10-06,ユアサ・トコエッグ株式会社,,株式会社,愛知県,名古屋市中村区,名駅５丁目２８番１号,,23,105,4500002,,,,,,,2022-10-06,1,,,,,ユアサトコエッグ,0
1115,4180001153255,新規,0,2022-10-06,2022-10-06,株式会社Ｓｏｒａ通,,株式会社,愛知県,名古屋市千種区,仲田２丁目１７番７号池下タワーズ９０１号室,,23,101,4640074,,,,,,,2022-10-06,1,,,,,ソラツウ,0
1116,4180001153263,新規,0,2022-10-06,2022-10-06,株式会社パイク,,株式会社,愛知県,名古屋市中区,丸の内３丁目１７番２４号ヤマシタビル３階,,23,106,4600002,,,,,,,2022-10-06,1,,,,,パイク,0
1118,4180003024322,新規,0,2022-10-06,2022-10-06,オクイメタル合同会社,,合同会社,愛知県,名古屋市港区,東茶屋１丁目６３９番地の２,,23,111,4550851,,,,,,,2022-10-06,1,,,,,オクイメタル,0
1120,4180303005443,新規,0,2022-10-06,2022-10-06,合同会社Ｍ＆Ｋ,,合同会社,愛知県,豊田市,朝日ケ丘３丁目８４番地１１,,23,211,4710858,,,,,,,2022-10-06,1,,,,,エムアンドケイ,0
1122,4190001029801,新規,0,2022-10-06,2022-10-06,株式会社進士ガラス住設,,株式会社,三重県,三重郡菰野町,大字小島１３０３番地４１,,24,341,5101323,,,,,,,2022-10-06,1,,,,,シンジガラスジュウセツ,0
1125,4200001040517,新規,0,2022-10-06,2022-10-06,株式会社エクラコーポレーション,,株式会社,岐阜県,大垣市,北切石町２丁目４６番地１,,21,202,5030915,,,,,,,2022-10-06,1,,,,,エクラコーポレーション,0
1127,4240001060453,新規,0,2022-10-06,2022-10-06,株式会社エスファクトリー,,株式会社,広島県,福山市,御幸町上岩成３２６番地５,,34,207,7210000,,,,,,,2022-10-06,1,,,,,エスファクトリー,0
1128,4240001060461,新規,0,2022-10-06,2022-10-06,株式会社ＰＬＩＶＥ,,株式会社,広島県,三次市,十日市南１丁目６番１５号,,34,209,7280014,,,,,,,2022-10-06,1,,,,,プライブ,0
1130,4240003005836,新規,0,2022-10-06,2022-10-06,合同会社ＮＴＳ,,合同会社,広島県,広島市安佐南区,西原７丁目１５番８号,,34,105,7310113,,,,,,,2022-10-06,1,,,,,エヌティーエス,0
1133,4260001037301,新規,0,2022-10-06,2022-10-06,株式会社楽,,株式会社,岡山県,浅口市,鴨方町小坂西３０４８番地,,33,216,7190231,,,,,,,2022-10-06,1,,,,,ガク,0
1134,4260005011145,新規,0,2022-10-06,2022-10-06,一般社団法人中小企業働き方支援協会,,その他の設立登記法人,岡山県,岡山市南区,福浜町１５番１０号,,33,104,7028035,,,,,,,2022-10-06,1,,,,,チュウショウキギョウハタラキカタシエンキョウカイ,0
1142,4290001099116,新規,0,2022-10-06,2022-10-06,株式会社吉川空調,,株式会社,福岡県,福岡市早良区,内野１丁目８番２８号,,40,137,8111123,,,,,,,2022-10-06,1,,,,,ヨシカワクウチョウ,0
1143,4290001099140,新規,0,2022-10-06,2022-10-06,株式会社ＺａｋＺａｋｋａ,,株式会社,福岡県,福岡市博多区,博多駅東２丁目６番１号,,40,132,8120013,,,,,,,2022-10-06,1,,,,,ザクザッカ,0
1144,4290001099157,新規,0,2022-10-06,2022-10-06,株式会社ＮｉＷＯＲＫＳ,,株式会社,福岡県,春日市,大谷９丁目６８番地,,40,218,8160831,,,,,,,2022-10-06,1,,,,,ニワークス,0
1145,4290003013025,新規,0,2022-10-06,2022-10-06,合同会社ＴＲＡＢＡＮＴ,,合同会社,福岡県,那珂川市,道善３丁目４９番地,,40,231,8111254,,,,,,,2022-10-06,1,,,,,トラバント,0
1146,4290003013033,新規,0,2022-10-06,2022-10-06,イノベイトリンク合同会社,,合同会社,福岡県,福岡市早良区,有田４丁目１４番６号,,40,137,8140033,,,,,,,2022-10-06,1,,,,,イノベイトリンク,0
1153,4290801028942,新規,0,2022-10-06,2022-10-06,株式会社カクテック,,株式会社,福岡県,北九州市八幡西区,御開３丁目３２番１号,,40,109,8070806,,,,,,,2022-10-06,1,,,,,カクテック,0
1154,4290801028950,新規,0,2022-10-06,2022-10-06,株式会社ＢＲＥＡＴＨ,,株式会社,福岡県,北九州市小倉北区,若富士町７番２０号,,40,106,8020063,,,,,,,2022-10-06,1,,,,,ブレス,0
1155,4290803004223,新規,0,2022-10-06,2022-10-06,合同会社永添電気サービス,,合同会社,福岡県,豊前市,大字赤熊１３７９番地２０,,40,214,8280027,,,,,,,2022-10-06,1,,,,,ナガソエデンキサービス,0
1161,4310001018072,新規,0,2022-10-06,2022-10-06,ＢｕｇｓＷｅｌｌＢｒｅｗｉｎｇ株式会社,,株式会社,長崎県,西海市,西彼町亀浦郷１２４３番地,,42,212,8513303,,,,,,,2022-10-06,1,,,,,バグズウェルブリューイング,0
1164,4330001030174,新規,0,2022-10-06,2022-10-06,株式会社ＣＨＡＲＩＴＥ,,株式会社,熊本県,菊池郡菊陽町,武蔵ヶ丘北１丁目８番３０号,,43,404,8691112,,,,,,,2022-10-06,1,,,,,シャリテ,0
1165,4330001030182,新規,0,2022-10-06,2022-10-06,株式会社ＡＳＫＳＥＭＩＸ,,株式会社,熊本県,合志市,御代志１６４８番地１４７,,43,216,8611104,,,,,,,2022-10-06,1,,,,,アスクセミックス,0
1166,4340001025074,新規,0,2022-10-06,2022-10-06,株式会社フクジュテクノ,,株式会社,鹿児島県,大島郡伊仙町,大字糸木名１９０番地５,,46,532,8918324,,,,,,,2022-10-06,1,,,,,フクジュテクノ,0
1167,4340001025082,新規,0,2022-10-06,2022-10-06,株式会社優和工業,,株式会社,鹿児島県,霧島市,隼人町内山田３丁目１番３７号,,46,218,8995106,,,,,,,2022-10-06,1,,,,,ユウワコウギョウ,0
1169,4340003003920,新規,0,2022-10-06,2022-10-06,日新林業合同会社,,合同会社,鹿児島県,薩摩川内市,宮内町１６１２番地３,,46,215,8950065,,,,,,,2022-10-06,1,,,,,ニッシンリンギョウ,0
1170,4340003003929,新規,0,2022-10-06,2022-10-06,合同会社ｓｏｄｅｈｉｋｉ,,合同会社,鹿児島県,鹿児島市,易居町１－２鹿児島市役所みなと大通り別館６階１０号,,46,201,8920815,,,,,,,2022-10-06,1,,,,,ソデヒキ,0
1171,4340005009511,新規,0,2022-10-06,2022-10-06,一般財団法人セランディピティー奄美,,その他の設立登記法人,鹿児島県,大島郡龍郷町,戸口３４３番地２４,,46,527,8940107,,,,,,,2022-10-06,1,,,,,セランディピティーアマミ,0
1172,4350001017979,新規,0,2022-10-06,2022-10-06,株式会社エムツー,,株式会社,宮崎県,都城市,吉尾町８４０番地,,45,202,8850006,,,,,,,2022-10-06,1,,,,,エムツー,0
1176,4360003012341,新規,0,2022-10-06,2022-10-06,合同会社ヤング祐佳,,合同会社,沖縄県,那覇市,首里金城町１丁目３５番地４ファインキャッスル首里２０３,,47,201,9030815,,,,,,,2022-10-06,1,,,,,ヤングユカ,0
1177,4360003012358,新規,0,2022-10-06,2022-10-06,合同会社ムギコ沖縄,,合同会社,沖縄県,沖縄市,胡屋６丁目１２－１,,47,211,9040021,,,,,,,2022-10-06,1,,,,,ムギコオキナワ,0
1184,4370001049129,新規,0,2022-10-06,2022-10-06,フジコムテック株式会社,,株式会社,宮城県,亘理郡亘理町,逢隈上郡字堤ノ内４５番地３６,00128036,04,361,9892381,,,,,,,2022-10-06,1,,,,,フジコムテック,0
1188,4390001017042,新規,0,2022-10-06,2022-10-06,株式会社東亭,,株式会社,山形県,東根市,さくらんぼ駅前１丁目７番１９号,,06,211,9993720,,,,,,,2022-10-06,1,,,,,ヒガシテイ,0
1190,4410001013294,新規,0,2022-10-06,2022-10-06,株式会社住美家,,株式会社,秋田県,秋田市,御野場新町３丁目１１番１７号,,05,201,0101425,,,,,,,2022-10-06,1,,,,,スミカ,0
1197,4430003014330,新規,0,2022-10-06,2022-10-06,合同会社廣木,,合同会社,北海道,札幌市豊平区,美園五条３丁目１番地２９号アーバンスクエア美園１０５号,,01,105,0620005,,,,,,,2022-10-06,1,,,,,ヒロキ,0
1201,4450001013811,新規,0,2022-10-06,2022-10-06,株式会社近江谷自工,,株式会社,北海道,紋別市,上渚滑町７丁目９１番地,,01,219,0995354,,,,,,,2022-10-06,1,,,,,オウミヤジコウ,0
1202,4470001019286,新規,0,2022-10-06,2022-10-06,株式会社ＣＬＡＮＴＥ,,株式会社,香川県,高松市,今里町３９３番地２,,37,201,7600078,,,,,,,2022-10-06,1,,,,,クランテ,0
1209,4700150112041,新規,0,2022-10-06,2022-10-06,リゾートトラスト健康保険組合,,その他,愛知県,名古屋市中区,栄２丁目６番１号ＲＴ白川ビル３階,,23,106,4600008,,,,,,,2022-10-06,1,,,,,リゾートトラストケンコウホケンクミアイ,0
1228,5010001229830,新規,0,2022-10-06,2022-10-06,株式会社イリフ,,株式会社,東京都,中央区,入船１丁目３番９号長崎ビル８階,00128023,13,102,1040042,,,,,,,2022-10-06,1,,,,,イリフ,0
1229,5010001229938,新規,0,2022-10-06,2022-10-06,株式会社アトムメディカルヒューケア,,株式会社,東京都,千代田区,神田猿楽町２丁目１番１５号,,13,101,1010064,,,,,,,2022-10-06,1,,,,,アトムメディカルヒューケア,0
1230,5010001229987,新規,0,2022-10-06,2022-10-06,株式会社Ｇコミュニケーション,,株式会社,東京都,千代田区,神田東松下町２６番地１,,13,101,1010042,,,,,,,2022-10-06,1,,,,,ジーコミュニケーション,0
1231,5010001229995,新規,0,2022-10-06,2022-10-06,ＧＴ　Ｇｌｏｂａｌ　Ｊａｐａｎ株式会社,,株式会社,東京都,中央区,銀座１丁目２２番１１号銀座大竹ビジデンス２階,,13,102,1040061,,,,,,,2022-10-06,1,,,,,ジーティーグローバルジャパン,0
1236,5010401170007,新規,0,2022-10-06,2022-10-06,株式会社ｃｈａｔａ６６,,株式会社,東京都,港区,東麻布１丁目２９番１５号,,13,103,1060044,,,,,,,2022-10-06,1,,,,,チャタロクロク,0
1237,5010401170089,新規,0,2022-10-06,2022-10-06,株式会社Ｆｉｄｅｒｉａ,,株式会社,東京都,港区,南青山３丁目１－３スプライン青山東急ビル４Ｆ・６Ｆ,,13,103,1070062,,,,,,,2022-10-06,1,,,,,フィデリア,0
1238,5010401170122,新規,0,2022-10-06,2022-10-06,三輪Ｆｏｏｄｓ株式会社,,株式会社,東京都,港区,東麻布１丁目１７番１５号ザ・パーク麻布レジデンス１階,,13,103,1060044,,,,,,,2022-10-06,1,,,,,サンワフーズ,0
1240,5010403028574,新規,0,2022-10-06,2022-10-06,ＳＦＲ合同会社,,合同会社,東京都,港区,南青山２丁目２－１５ＷＩＮ青山５３１,,13,103,1070062,,,,,,,2022-10-06,1,,,,,エスエフアール,0
1241,5010403028632,新規,0,2022-10-06,2022-10-06,合同会社桜道３６,,合同会社,東京都,港区,芝２丁目１２番１３号ＡＳＩＴＩＳ芝ビル２０１,,13,103,1050014,,,,,,,2022-10-06,1,,,,,サクラミチサンジュウロク,0
1242,5010405021445,新規,0,2022-10-06,2022-10-06,一般社団法人クラウド型電子署名サービス協議会,,その他の設立登記法人,東京都,港区,六本木４丁目１番４号,,13,103,1060032,,,,,,,2022-10-06,1,,,,,クラウドガタデンシショメイサービスキョウギカイ,0
1243,5010501049456,新規,0,2022-10-06,2022-10-06,株式会社ＰＨＯＮＥＴＩＣ,,株式会社,東京都,台東区,日本堤２丁目１１－５ドラゴンマンション三ノ輪壱番館３０２,,13,106,1110021,,,,,,,2022-10-06,1,,,,,フォネティック,0
1251,5010901051739,新規,0,2022-10-06,2022-10-06,株式会社Ｔ．ｃｏｎｃｉｅｒｇｅ,,株式会社,東京都,世田谷区,池尻４丁目２９番２２号,,13,112,1540001,,,,,,,2022-10-06,1,,,,,ティーコンシェルジュ,0
1252,5011001150051,新規,0,2022-10-06,2022-10-06,Ｍ株式会社,,株式会社,東京都,渋谷区,松濤１丁目２８番２号,,13,113,1500046,,,,,,,2022-10-06,1,,,,,エム,0
1253,5011001150126,新規,0,2022-10-06,2022-10-06,株式会社ｋｏｎｏｋｏ,,株式会社,東京都,渋谷区,代々木５丁目６６番７号,,13,113,1510053,,,,,,,2022-10-06,1,,,,,コノコ,0
1254,5011001150134,新規,0,2022-10-06,2022-10-06,株式会社ＫＥＹ,,株式会社,東京都,渋谷区,渋谷１丁目８番５号,,13,113,1500002,,,,,,,2022-10-06,1,,,,,キー,0
1256,5011003015442,新規,0,2022-10-06,2022-10-06,ｉｉｚｉｉ合同会社,,合同会社,東京都,目黒区,東山３丁目１５－６アン・セコンド東山３０１,,13,110,1530043,,,,,,,2022-10-06,1,,,,,イージー,0
1265,5011101100402,新規,0,2022-10-06,2022-10-06,株式会社リプラスオン,,株式会社,東京都,新宿区,箪笥町１８－３コスモシティ市ヶ谷１０１,,13,104,1620833,,,,,,,2022-10-06,1,,,,,,0
1266,5011101100419,新規,0,2022-10-06,2022-10-06,株式会社ＩＭＰＡＣＴ　Ｐｌｕｓ,,株式会社,東京都,新宿区,西新宿３丁目３－１３西新宿水間ビル６Ｆ,,13,104,1600023,,,,,,,2022-10-06,1,,,,,インパクトプラス,0
1269,5011303004541,新規,0,2022-10-06,2022-10-06,ｍｉｍｉｚｕｎｏＣｏａｃｈｉｎｇ合同会社,,合同会社,東京都,杉並区,高円寺南１丁目３２番２号セクレーテッド２０１,,13,115,1660003,,,,,,,2022-10-06,1,,,,,ミミズノコーチング,0
1273,5011503005307,新規,0,2022-10-06,2022-10-06,鵬程商事合同会社,,合同会社,東京都,荒川区,荒川３丁目６０－５,,13,118,1160002,,,,,,,2022-10-06,1,,,,,ホウテイショウジ,0
1274,5011601026270,新規,0,2022-10-06,2022-10-06,メープル株式会社,,株式会社,東京都,練馬区,下石神井３丁目３６番１号,,13,120,1770042,,,,,,,2022-10-06,1,,,,,メープル,0
1276,5011803005287,新規,0,2022-10-06,2022-10-06,合同会社Ｈ＆Ｈ,,合同会社,東京都,足立区,千住１丁目３‐３金田ビル４０４号,,13,121,1200034,,,,,,,2022-10-06,1,,,,,エイチアンドエイチ,0
1279,5012403005611,新規,0,2022-10-06,2022-10-06,合同会社福和アセットマネジメント,,合同会社,東京都,狛江市,元和泉２丁目１１番２号,,13,219,2010013,,,,,,,2022-10-06,1,,,,,フクワアセットマネジメント,0
1281,5012801021870,新規,0,2022-10-06,2022-10-06,株式会社Ｂ‐Ｐｏｒｔ,,株式会社,東京都,国立市,谷保７丁目２６番地の８エクラージュ国立１０９,,13,215,1860011,,,,,,,2022-10-06,1,,,,,ビーポート,0
1288,5013301049774,新規,0,2022-10-06,2022-10-06,ラフアンドスタイル株式会社,,株式会社,東京都,豊島区,西池袋５丁目１３－１８ＡＴＴＩＣ,,13,116,1710021,,,,,,,2022-10-06,1,,,,,ラフアンドスタイル,0
1290,5013305003389,新規,0,2022-10-06,2022-10-06,税理士法人ＩＲＯＨＡ,,その他の設立登記法人,東京都,豊島区,南池袋２丁目４７番６号パレス南池袋７０４号,,13,116,1710022,,,,,,,2022-10-06,1,,,,,イロハ,0
1295,5020001148385,新規,0,2022-10-06,2022-10-06,株式会社１ｏｒ　ｅｉｇｈｔ,,株式会社,神奈川県,横浜市中区,相生町１丁目２４番地２第二リバースビル３階,,14,104,2310012,,,,,,,2022-10-06,1,,,,,ワンオアエイト,0
1296,5020001148419,新規,0,2022-10-06,2022-10-06,株式会社ビアレフーズ,,株式会社,神奈川県,横浜市金沢区,並木２丁目１３番７号,,14,108,2360005,,,,,,,2022-10-06,1,,,,,ビアレフーズ,0
1297,5020001148443,新規,0,2022-10-06,2022-10-06,株式会社ＫＳアドバンス,,株式会社,神奈川県,横浜市都筑区,池辺町４０３４番地－２Ｆ,,14,118,2240053,,,,,,,2022-10-06,1,,,,,ケーエスアドバンス,0
1298,5020001148476,新規,0,2022-10-06,2022-10-06,株式会社Ｖｉｓａｌ,,株式会社,神奈川県,横浜市中区,扇町１丁目１番地２５キンガビル５０１,,14,104,2310027,,,,,,,2022-10-06,1,,,,,ヴィーザル,0
1304,5020003022480,新規,0,2022-10-06,2022-10-06,合同会社ワイワイスマイル,,合同会社,神奈川県,横浜市港北区,岸根町５０４－７番地,,14,109,2220034,,,,,,,2022-10-06,1,,,,,ワイワイスマイル,0
1308,5021001077112,新規,0,2022-10-06,2022-10-06,株式会社ＰＣＥ,,株式会社,神奈川県,相模原市緑区,大島３２６７番地,,14,151,2520135,,,,,,,2022-10-06,1,,,,,,0
1313,5021003012182,新規,0,2022-10-06,2022-10-06,小泉合同会社,,合同会社,神奈川県,鎌倉市,浄明寺４丁目７－５,,14,204,2480003,,,,,,,2022-10-06,1,,,,,コイズミ,0
1314,5021005012627,新規,0,2022-10-06,2022-10-06,一般社団法人Ｃｒｅａｔｉｖｅ　Ｗｒｉｔｉｎｇ　Ｃｅｎｔｅｒ,,その他の設立登記法人,神奈川県,足柄下郡湯河原町,吉浜６８１番地の３,,14,384,2590312,,,,,,,2022-10-06,1,,,,,クリエイティヴライティングセンター,0
1317,5030001150373,新規,0,2022-10-06,2022-10-06,株式会社石井塗装,,株式会社,埼玉県,川口市,大字安行吉蔵３２６番地の９,,11,203,3340053,,,,,,,2022-10-06,1,,,,,イシイトソウ,0
1318,5030001150381,新規,0,2022-10-06,2022-10-06,株式会社マイシーク,,株式会社,埼玉県,南埼玉郡宮代町,大字和戸２１０３番地３５４,,11,442,3450836,,,,,,,2022-10-06,1,,,,,マイシーク,0
1319,5030001150415,新規,0,2022-10-06,2022-10-06,株式会社Ｐｒｅｃｉｏｕｓ　ｏｎｅ,,株式会社,埼玉県,さいたま市中央区,下落合５丁目３番２０号Ｓｐｅｒａｎｚａ１０２,,11,105,3380002,,,,,,,2022-10-06,1,,,,,プレシャスワン,0
1326,5030003020310,新規,0,2022-10-06,2022-10-06,合同会社棗,,合同会社,埼玉県,上尾市,大字大谷本郷２９３－１６,,11,219,3620044,,,,,,,2022-10-06,1,,,,,ナツメ,0
1327,5030003020335,新規,0,2022-10-06,2022-10-06,きらめき合同会社,,合同会社,埼玉県,さいたま市緑区,東浦和２丁目４３番地６パルシャス３０３,,11,109,3360926,,,,,,,2022-10-06,1,,,,,キラメキ,0
1340,5040001125341,新規,0,2022-10-06,2022-10-06,株式会社スタジオイワノ,,株式会社,千葉県,船橋市,前原西２丁目１４番１ダイアパレス津田沼５０４号,,12,204,2740825,,,,,,,2022-10-06,1,,,,,スタジオイワノ,0
1343,5040003020978,新規,0,2022-10-06,2022-10-06,ＪＬ．サービス合同会社,,合同会社,千葉県,船橋市,緑台１丁目３番６棟５０２号,,12,204,2740818,,,,,,,2022-10-06,1,,,,,ジェーエルサービス,0
1344,5040003020986,新規,0,2022-10-06,2022-10-06,合同会社桐星,,合同会社,千葉県,千葉市中央区,港町４番８ー１１０５号,,12,101,2600831,,,,,,,2022-10-06,1,,,,,トウセイ,0
1346,5050001051768,新規,0,2022-10-06,2022-10-06,アトラベサール株式会社,,株式会社,茨城県,古河市,大山１７３４番地２２カサグランデ・ルビーＣ棟２０１号,,08,204,3060052,,,,,,,2022-10-06,1,,,,,アトラベサール,0
1350,5080001025224,新規,0,2022-10-06,2022-10-06,株式会社南條工務店,,株式会社,静岡県,焼津市,駅北３丁目１４番４号,,22,212,4250028,,,,,,,2022-10-06,1,,,,,ナンジョウコウムテン,0
1351,5080003002881,新規,0,2022-10-06,2022-10-06,合同会社ＺＥＯＮＩＣ,,合同会社,静岡県,静岡市清水区,押切１９７９番地,,22,103,4240008,,,,,,,2022-10-06,1,,,,,ジオニック,0
1359,5100003006698,新規,0,2022-10-06,2022-10-06,合同会社Ｙｅｔ　Ａｎｏｔｈｅｒ　Ｃｏｎｃｅｒｔｏ,,合同会社,長野県,駒ヶ根市,赤穂２０番地１６６,,20,210,3994117,,,,,,,2022-10-06,1,,,,,イエットアナザーコンチェルト,0
1374,5120001249264,新規,0,2022-10-06,2022-10-06,伊藤家インベストメント株式会社,,株式会社,大阪府,大阪市中央区,松屋町９番２０号ローレルステート松屋町６０７Ｂ,,27,128,5420067,,,,,,,2022-10-06,1,,,,,イトウケインベストメント,0
1375,5120001249306,新規,0,2022-10-06,2022-10-06,Ｄｏｍｅｒｙ株式会社,,株式会社,大阪府,大阪市北区,梅田２丁目２－２ヒルトンプラザウエストオフィスタワー１９階,,27,127,5300001,,,,,,,2022-10-06,1,,,,,ドメリー,0
1376,5120001249347,新規,0,2022-10-06,2022-10-06,美美株式会社,,株式会社,大阪府,大阪市中央区,東平２丁目２番７号メゾンルミエール．ウエ６－３０２号,,27,128,5420063,,,,,,,2022-10-06,1,,,,,ビビ,0
1377,5120001249371,新規,0,2022-10-06,2022-10-06,一格株式会社,,株式会社,大阪府,大阪市中央区,瓦屋町１丁目１１番１５号朱栄ビル５０２号,,27,128,5420066,,,,,,,2022-10-06,1,,,,,イッカク,0
1379,5120003022611,新規,0,2022-10-06,2022-10-06,合同会社アルシェスタイル,,合同会社,大阪府,大阪市東住吉区,照ケ丘矢田１丁目１７番２号,,27,121,5460021,,,,,,,2022-10-06,1,,,,,アルシェスタイル,0
1398,5140001127534,新規,0,2022-10-06,2022-10-06,株式会社ＯＮＥ’Ｓ,,株式会社,兵庫県,三田市,下田中５８７－１,,28,219,6691522,,,,,,,2022-10-06,1,,,,,ワンズ,0
1399,5140001127559,新規,0,2022-10-06,2022-10-06,株式会社ｌａｂｏ．ｖｅｒｄｅ,,株式会社,兵庫県,西脇市,黒田庄町船町６１８番地１,,28,213,6790304,,,,,,,2022-10-06,1,,,,,ラボベルデ,0
1400,5140001127600,新規,0,2022-10-06,2022-10-06,株式会社アトリエスピカ,,株式会社,兵庫県,神戸市中央区,花隈町２３番１号ユニーブル花隈５０２,,28,110,6500013,,,,,,,2022-10-06,1,,,,,アトリエスピカ,0
1410,5170001017311,新規,0,2022-10-06,2022-10-06,株式会社たか木,,株式会社,和歌山県,田辺市,新庄町２７４４番地の２５,,30,206,6460011,,,,,,,2022-10-06,1,,,,,タカキ,0
1411,5180001153246,新規,0,2022-10-06,2022-10-06,株式会社高木技商,00128041,株式会社,愛知県,愛西市,鰯江町郷裏９１番地１,,23,232,4960923,,,,,,,2022-10-06,1,,,,,タカギギショウ,0
1412,5180001153262,新規,0,2022-10-06,2022-10-06,株式会社ＮＥＷ・ＰＬＵＳ,,株式会社,愛知県,名古屋市東区,芳野３丁目１０番２５号,,23,102,4610027,,,,,,,2022-10-06,1,,,,,ニュープラス,0
1413,5180001153287,新規,0,2022-10-06,2022-10-06,株式会社橋口工業,,株式会社,愛知県,名古屋市緑区,砂田１丁目３０２番地（リバーヒルＥ＆Ｋ２０１号）,,23,114,4580807,,,,,,,2022-10-06,1,,,,,ハシグチコウギョウ,0
1420,5180005019947,新規,0,2022-10-06,2022-10-06,協同組合やまと,,その他の設立登記法人,愛知県,名古屋市西区,枇杷島３丁目２８番２４号ストーク白菊３Ａ,,23,104,4510053,,,,,,,2022-10-06,1,,,,,ヤマト,0
1421,5180301036687,新規,0,2022-10-06,2022-10-06,株式会社ＳＧＳ,,株式会社,愛知県,豊橋市,瓦町１１４番地,,23,201,4400825,,,,,,,2022-10-06,1,,,,,エスジーエス,0
1422,5180303005459,新規,0,2022-10-06,2022-10-06,合同会社早川組,,合同会社,愛知県,安城市,和泉町向２５番地１,,23,212,4441221,,,,,,,2022-10-06,1,,,,,ハヤカワグミ,0
1429,5200001040508,新規,0,2022-10-06,2022-10-06,株式会社クミタ,,株式会社,岐阜県,岐阜市,美島町２丁目４０番地,,21,201,5020903,,,,,,,2022-10-06,1,,,,,クミタ,0
1430,5200001040516,新規,0,2022-10-06,2022-10-06,株式会社コグチ製作所,,株式会社,岐阜県,美濃市,１７２番地１,,21,207,5013701,,,,,,,2022-10-06,1,,,,,コグチセイサクショ,0
1431,5200001040532,新規,0,2022-10-06,2022-10-06,株式会社ナデモボックス,,株式会社,岐阜県,岐阜市,粟野東１丁目１３５番地６,,21,201,5020002,,,,,,,2022-10-06,1,,,,,ナデモボックス,0
1436,5220001025077,新規,0,2022-10-06,2022-10-06,株式会社福田温熱空調,,株式会社,石川県,白山市,千代野西５丁目７番地６,,17,210,9240072,,,,,,,2022-10-06,1,,,,,フクダオンネツクウチョウ,0
1439,5240001060452,新規,0,2022-10-06,2022-10-06,株式会社グランツ,,株式会社,広島県,広島市中区,榎町８番３号,,34,101,7300851,,,,,,,2022-10-06,1,,,,,グランツ,0
1440,5240001060460,新規,0,2022-10-06,2022-10-06,株式会社ｓａｎｆａｍ．,,株式会社,広島県,尾道市,栗原町９１３３番地１,,34,205,7220022,,,,,,,2022-10-06,1,,,,,サンファム,0
1441,5260001037291,新規,0,2022-10-06,2022-10-06,株式会社ＭＡＴＳＵＮｉＫ,,株式会社,岡山県,岡山市南区,若葉町２１番３０号,,33,104,7028047,,,,,,,2022-10-06,1,,,,,マツニック,0
1453,5290003013032,新規,0,2022-10-06,2022-10-06,ＰＥＡＫ　Ｅｘｅｃｕｔｉｖｅ　Ｓｅａｒｃｈ合同会社,,合同会社,福岡県,太宰府市,青山１丁目１１番２４号,,40,221,8180121,,,,,,,2022-10-06,1,,,,,ピークエグゼキュティブサーチ,0
1454,5290005018822,新規,0,2022-10-06,2022-10-06,一般社団法人ワンヘルスライフ協会,,その他の設立登記法人,福岡県,福岡市博多区,井相田１丁目１０番１－１０２号,,40,132,8120881,,,,,,,2022-10-06,1,,,,,ワンヘルスライフキョウカイ,0
1455,5290801028933,新規,0,2022-10-06,2022-10-06,株式会社エイト,,株式会社,福岡県,北九州市八幡西区,浅川町８－２２－２０１号,,40,109,8070879,,,,,,,2022-10-06,1,,,,,エイト,0
1457,5290803004222,新規,0,2022-10-06,2022-10-06,合同会社Ｓｅｌｆ　Ｍａｋｅ,,合同会社,福岡県,北九州市小倉北区,足原２丁目６番１１－７０２号,,40,106,8020043,,,,,,,2022-10-06,1,,,,,セルフメイク,0
1465,5330001030165,新規,0,2022-10-06,2022-10-06,株式会社有志建設,,株式会社,熊本県,熊本市東区,画図町大字下無田１５９５番地２,,43,102,8620945,,,,,,,2022-10-06,1,,,,,ユウシケンセツ,0
1466,5330001030173,新規,0,2022-10-06,2022-10-06,株式会社ＲＶＴｅｃｈ,,株式会社,熊本県,上益城郡益城町,大字宮園６９４番地２,,43,443,8612241,,,,,,,2022-10-06,1,,,,,アールヴイテック,0
1467,5330001030181,新規,0,2022-10-06,2022-10-06,株式会社ＮＡＭＡＫＯ　ＦＵＤＯ‐ＳＡＮ,,株式会社,熊本県,熊本市中央区,渡鹿７丁目１５番４３号,,43,101,8620970,,,,,,,2022-10-06,1,,,,,ナマコフドーサン,0
1470,5330003009538,新規,0,2022-10-06,2022-10-06,合同会社ＴＡＳＨＩＭＡ,,合同会社,熊本県,熊本市北区,龍田５丁目１２番６８号,,43,105,8618006,,,,,,,2022-10-06,1,,,,,タシマ,0
1471,5330005010568,新規,0,2022-10-06,2022-10-06,税理士法人アニモ,,その他の設立登記法人,熊本県,熊本市中央区,帯山４丁目４４番５－３０１号,,43,101,8620924,,,,,,,2022-10-06,1,,,,,アニモ,0
1474,5340001025073,新規,0,2022-10-06,2022-10-06,株式会社奄美創建,,株式会社,鹿児島県,奄美市,名瀬安勝町８－１１,,46,222,8940011,,,,,,,2022-10-06,1,,,,,アマミソウケン,0
1475,5340001025081,新規,0,2022-10-06,2022-10-06,平谷船舶工業株式会社,,株式会社,鹿児島県,いちき串木野市,日出町１２５番地２,,46,219,8960054,,,,,,,2022-10-06,1,,,,,ヒラタニセンパクコウギョウ,0
1477,5340003003928,新規,0,2022-10-06,2022-10-06,合同会社Ｂｕｄｄｙ,,合同会社,鹿児島県,鹿児島市,武岡２丁目１－１１,,46,201,8900031,,,,,,,2022-10-06,1,,,,,バディ,0
1486,5380001033155,新規,0,2022-10-06,2022-10-06,東双みらいテクノロジー株式会社,,株式会社,福島県,双葉郡大熊町,大字夫沢字北原２２,,07,545,9791301,,,,,,,2022-10-06,1,,,,,トウソウミライテクノロジー,0
1497,5450001013810,新規,0,2022-10-06,2022-10-06,株式会社そら,,株式会社,北海道,紋別市,大山町１丁目４８番１３号,,01,219,0940021,,,,,,,2022-10-06,1,,,,,ソラ,0
1504,5470003002264,新規,0,2022-10-06,2022-10-06,合同会社ペットＷＡＳＨ,,合同会社,香川県,丸亀市,前塩屋町２丁目２番５号,,37,202,7630064,,,,,,,2022-10-06,1,,,,,ペットウォッシュ,0
1505,5480001011869,新規,0,2022-10-06,2022-10-06,ＮＦＴ　ＭＵＳＥＵＭ　ＭＡＮＡＧＥＭＥＮＴ株式会社,,株式会社,徳島県,鳴門市,撫養町林崎字北殿町１４９,,36,202,7720016,,,,,,,2022-10-06,1,,,,,エヌエフティミュージアムマネジメント,0
1509,5490005006864,新規,0,2022-10-06,2022-10-06,一般社団法人インフィニティ,,その他の設立登記法人,高知県,高知市,薊野中町１５番９号高知インターマンション２０１,,39,201,7810013,,,,,,,2022-10-06,1,,,,,インフィニティ,0
1512,5700150112040,新規,0,2022-10-06,2022-10-06,レイズネクスト健康保険組合,,その他,神奈川県,横浜市中区,桜木町１丁目１番地８,,14,104,2310062,,,,,,,2022-10-06,1,,,,,レイズネクストケンコウホケンクミアイ,0
1518,6010001229805,新規,0,2022-10-06,2022-10-06,株式会社ＰＧ,,株式会社,東京都,千代田区,隼町２番１６－３０１号,,13,101,1020092,,,,,,,2022-10-06,1,,,,,ピージー,0
1519,6010001229929,新規,0,2022-10-06,2022-10-06,株式会社ＨＹ’ｓ,,株式会社,東京都,中央区,日本橋茅場町１丁目１番６号,,13,102,1030025,,,,,,,2022-10-06,1,,,,,エイチワイズ,0
1522,6010101015353,新規,0,2022-10-06,2022-10-06,アユラ株式会社,,株式会社,東京都,八王子市,台町４丁目４３番Ｂ－２１１号ローズハイツ八王子,,13,201,1930931,,,,,,,2022-10-06,1,,,,,,0
1523,6010103002003,新規,0,2022-10-06,2022-10-06,合同会社阿川コンサルティング,,合同会社,東京都,八王子市,暁町１丁目４１番２号２,,13,201,1920043,,,,,,,2022-10-06,1,,,,,,0
1526,6010401170088,新規,0,2022-10-06,2022-10-06,株式会社紫陽花,,株式会社,東京都,港区,北青山３丁目６番７号,,13,103,1070061,,,,,,,2022-10-06,1,,,,,アジサイ,0
1528,6010403028631,新規,0,2022-10-06,2022-10-06,合同会社桜道３５,,合同会社,東京都,港区,芝２丁目１２番１３号ＡＳＩＴＩＳ芝ビル２０１,,13,103,1050014,,,,,,,2022-10-06,1,,,,,サクラミチサンジュウゴ,0
1534,6010701043299,新規,0,2022-10-06,2022-10-06,産業リサーチ＆コネクト株式会社,,株式会社,東京都,品川区,南品川２丁目２－２５リードシー南品川ビル２Ｆ,,13,109,1400004,,,,,,,2022-10-06,1,,,,,サンギョウリサーチアンドコネクト,0
1535,6010701043308,新規,0,2022-10-06,2022-10-06,株式会社ＴＫ,,株式会社,東京都,品川区,南大井１丁目１７番７－５１４号,,13,109,1400013,,,,,,,2022-10-06,1,,,,,ティケィ,0
1536,6010703006411,新規,0,2022-10-06,2022-10-06,合同会社ｓｏｆｌｙ,,合同会社,東京都,品川区,大井７丁目２９番２号,,13,109,1400014,,,,,,,2022-10-06,1,,,,,ソーフライ,0
1537,6010801033324,新規,0,2022-10-06,2022-10-06,株式会社ＳＥＡＶＥＲ,,株式会社,東京都,大田区,蒲田本町２丁目２番２３号,,13,111,1440053,,,,,,,2022-10-06,1,,,,,シーバー,0
1541,6010901051754,新規,0,2022-10-06,2022-10-06,モッチー株式会社,,株式会社,東京都,世田谷区,経堂５丁目１３－１５グリーンコーポ１０２,,13,112,1560052,,,,,,,2022-10-06,1,,,,,モッチー,0
1546,6011001150182,新規,0,2022-10-06,2022-10-06,コナージュ株式会社,,株式会社,東京都,目黒区,駒場１丁目２６番１０号,,13,110,1530041,,,,,,,2022-10-06,1,,,,,コナージュ,0
1547,6011003015466,新規,0,2022-10-06,2022-10-06,合同会社ＲＡＹＯＮ,,合同会社,東京都,渋谷区,富ヶ谷２丁目１６番５－５０７号,,13,113,1510063,,,,,,,2022-10-06,1,,,,,レーヨン,0
1548,6011003015474,新規,0,2022-10-06,2022-10-06,合同会社Ａｂｉｌｉｔｙ　ｓｙｓｔｅｍ,,合同会社,東京都,渋谷区,千駄ヶ谷５丁目２３番６号グランスイート代々木６１４,,13,113,1510051,,,,,,,2022-10-06,1,,,,,アビリティシステム,0
1556,6011101100401,新規,0,2022-10-06,2022-10-06,株式会社ＤａｔａＳｔｒｅａｍｓ,,株式会社,東京都,新宿区,西新宿１丁目４番１１号全研プラザビル２階,,13,104,1600023,,,,,,,2022-10-06,1,,,,,データストリームズ,0
1563,6011803005303,新規,0,2022-10-06,2022-10-06,Ｔｈａｉ　Ｗａｔｔｈａｎａ合同会社,,合同会社,東京都,葛飾区,東新小岩７丁目１１番３号,,13,122,1240023,,,,,,,2022-10-06,1,,,,,タイワッタナー,0
1564,6012401039726,新規,0,2022-10-06,2022-10-06,株式会社三鷹伊藤園,,株式会社,東京都,三鷹市,北野３丁目３番２６号,,13,204,1810003,,,,,,,2022-10-06,1,,,,,ミタカイトウエン,0
1565,6012701017290,新規,0,2022-10-06,2022-10-06,株式会社サンエースリフォーム,,株式会社,東京都,東村山市,久米川町２丁目２８番地５,,13,213,1890003,,,,,,,2022-10-06,1,,,,,サンエースリフォーム,0
1568,6012703002547,新規,0,2022-10-06,2022-10-06,合同会社ＭａｎａＬｅａ０,,合同会社,東京都,小平市,花小金井５丁目４５番１６号,,13,211,1870002,,,,,,,2022-10-06,1,,,,,マナレアゼロ,0
1569,6012801021878,新規,0,2022-10-06,2022-10-06,株式会社エイシーピー,,株式会社,東京都,立川市,高松町２丁目３９番１４号アネシア立川７０２号,,13,202,1900011,,,,,,,2022-10-06,1,,,,,エイシーピー,0
1571,6013301049773,新規,0,2022-10-06,2022-10-06,ＣＬＥＴＯ株式会社,,株式会社,東京都,豊島区,南池袋２丁目６－８興一ビル３０１,,13,116,1710022,,,,,,,2022-10-06,1,,,,,クレト,0
1578,6020001148368,新規,0,2022-10-06,2022-10-06,株式会社Ｂｅｌｌ　Ｗｉｎｄｙ,,株式会社,神奈川県,横浜市保土ケ谷区,岩崎町２７番４－４１３号,,14,106,2400015,,,,,,,2022-10-06,1,,,,,ベルウィンディ,0
1579,6020001148401,新規,0,2022-10-06,2022-10-06,株式会社大正出版社,,株式会社,神奈川県,川崎市川崎区,日進町２３番地１日進公団４２１,,14,131,2100024,,,,,,,2022-10-06,1,,,,,タイショウシュッパンシャ,0
1580,6020001148418,新規,0,2022-10-06,2022-10-06,株式会社渡辺鉄筋,,株式会社,神奈川県,横浜市緑区,森の台１２番２－３０６号,,14,113,2260029,,,,,,,2022-10-06,1,,,,,ワタナベテッキン,0
1583,6020003022513,新規,0,2022-10-06,2022-10-06,合同会社ＮＪライティング,,合同会社,神奈川県,横浜市金沢区,釜利谷南１丁目３番Ｉ－２０１号,,14,108,2360045,,,,,,,2022-10-06,1,,,,,エヌジェイライティング,0
1585,6021001077111,新規,0,2022-10-06,2022-10-06,株式会社メアリーホーム,,株式会社,神奈川県,海老名市,中新田１丁目２番コアロードＣ－１５０３号,,14,215,2430422,,,,,,,2022-10-06,1,,,,,メアリーホーム,0
1586,6021001077128,新規,0,2022-10-06,2022-10-06,ファインアイ株式会社,,株式会社,神奈川県,三浦郡葉山町,長柄２９番地１,,14,301,2400113,,,,,,,2022-10-06,1,,,,,ファインアイ,0
1587,6021003012215,新規,0,2022-10-06,2022-10-06,合同会社あいざわ,,合同会社,神奈川県,横須賀市,池上６丁目２番１２号,,14,201,2380035,,,,,,,2022-10-06,1,,,,,アイザワ,0
1588,6030001150372,新規,0,2022-10-06,2022-10-06,株式会社ＭＨ,,株式会社,埼玉県,南埼玉郡宮代町,道佛２丁目１９番９号,,11,442,3450811,,,,,,,2022-10-06,1,,,,,エムエイチ,0
1589,6030001150397,新規,0,2022-10-06,2022-10-06,株式会社サーマルテック,,株式会社,埼玉県,戸田市,喜沢１丁目３３－４０,,11,224,3350013,,,,,,,2022-10-06,1,,,,,サーマルテック,0
1595,6040001125340,新規,0,2022-10-06,2022-10-06,株式会社トライアセットワークス,,株式会社,千葉県,鴨川市,江見青木５８８番地４,,12,223,2992842,,,,,,,2022-10-06,1,,,,,トライアセットワークス,0
1601,6040005021750,新規,0,2022-10-06,2022-10-06,３５８協同組合,,その他の設立登記法人,千葉県,市川市,東菅野５丁目２１番１７号株式会社大和内,,12,203,2720823,,,,,,,2022-10-06,1,,,,,サンゴヤ,0
1604,6050001051750,新規,0,2022-10-06,2022-10-06,フレックス株式会社,,株式会社,茨城県,水戸市,笠原町１７５０番地９,,08,201,3100852,,,,,,,2022-10-06,1,,,,,フレックス,0
1605,6050001051767,新規,0,2022-10-06,2022-10-06,株式会社光石,,株式会社,茨城県,つくば市,大曽根２８８７番地４,,08,220,3003253,,,,,,,2022-10-06,1,,,,,ミツイシ,0
1606,6050005013152,新規,0,2022-10-06,2022-10-06,一般社団法人ローカル鉄道・地域づくり大学,,その他の設立登記法人,茨城県,ひたちなか市,釈迦町２２番２号,,08,221,3111225,,,,,,,2022-10-06,1,,,,,ローカルテツドウチイキヅクリダイガク,0
1608,6080101023556,新規,0,2022-10-06,2022-10-06,株式会社Ｔｃｒａｆｔ,,株式会社,静岡県,富士宮市,星山２３７番地の１１２,,22,207,4180035,,,,,,,2022-10-06,1,,,,,ティークラフト,0
1609,6080103002665,新規,0,2022-10-06,2022-10-06,ｗｈｙｂｅｓ合同会社,,合同会社,静岡県,三島市,沢地９８番地の３,,22,206,4110043,,,,,,,2022-10-06,1,,,,,ホワイベス,0
1611,6080401026077,新規,0,2022-10-06,2022-10-06,株式会社佐藤工業,,株式会社,静岡県,浜松市中区,早出町１２５９番地の３０,,22,131,4350054,,,,,,,2022-10-06,1,,,,,サトウコウギョウ,0
1612,6080403004626,新規,0,2022-10-06,2022-10-06,ダニーマッケンジー合同会社,,合同会社,静岡県,浜松市南区,寺脇町６５６－８,,22,134,4300841,,,,,,,2022-10-06,1,,,,,ダニーマッケンジー,0
1613,6090001017806,新規,0,2022-10-06,2022-10-06,ヒライ電気設備株式会社,,株式会社,山梨県,中央市,下三條８３０番地５,,19,214,4093822,,,,,,,2022-10-06,1,,,,,ヒライデンキセツビ,0
1615,6100001035756,新規,0,2022-10-06,2022-10-06,株式会社Ｒｅフレンズ,,株式会社,長野県,長野市,青木島町大塚１５６１番地１５,,20,201,3812205,,,,,,,2022-10-06,1,,,,,リフレンズ,0
1616,6100001035764,新規,0,2022-10-06,2022-10-06,株式会社野村商事,,株式会社,長野県,諏訪市,諏訪１丁目２１番８号,,20,206,3920004,,,,,,,2022-10-06,1,,,,,ノムラショウジ,0
1617,6100001035772,新規,0,2022-10-06,2022-10-06,株式会社プライテック,,株式会社,長野県,松本市,波田６６４８番地１,,20,202,3901401,,,,,,,2022-10-06,1,,,,,プライテック,0
1618,6100003006706,新規,0,2022-10-06,2022-10-06,合同会社ＡＫコンサルタンツ,,合同会社,長野県,上伊那郡箕輪町,大字中箕輪１４１４３番地５,,20,383,3994601,,,,,,,2022-10-06,1,,,,,エーケーコンサルタンツ,0
1628,6120001249263,新規,0,2022-10-06,2022-10-06,嘉騰株式会社,,株式会社,大阪府,大阪市中央区,松屋町９番２０号ローレルステート松屋町９０５Ｂ,,27,128,5420067,,,,,,,2022-10-06,1,,,,,カトウ,0
1629,6120001249305,新規,0,2022-10-06,2022-10-06,株式会社ジオトラスト,,株式会社,大阪府,大阪市住之江区,南加賀屋３丁目２番６号,,27,125,5590015,,,,,,,2022-10-06,1,,,,,ジオトラスト,0
1630,6120001249313,新規,0,2022-10-06,2022-10-06,株式会社ハイフン,,株式会社,大阪府,大阪市北区,梅田１丁目１番３号大阪駅前第三ビル２９階１－１－１号室,,27,127,5300001,,,,,,,2022-10-06,1,,,,,ハイフン,0
1631,6120001249346,新規,0,2022-10-06,2022-10-06,株式会社伴建設,,株式会社,大阪府,大阪市都島区,都島北通２丁目２１番３３号,,27,102,5340014,,,,,,,2022-10-06,1,,,,,バンケンセツ,0
1634,6120003022544,新規,0,2022-10-06,2022-10-06,合同会社エムビーエフ,,合同会社,大阪府,大阪市住之江区,浜口西１丁目９－３５,,27,125,5590006,,,,,,,2022-10-06,1,,,,,エムビーエフ,0
1635,6120003022602,新規,0,2022-10-06,2022-10-06,合同会社ＹＡＫＵＺＥＲＯ,,合同会社,大阪府,大阪市鶴見区,鶴見１丁目３番４７号,,27,124,5380053,,,,,,,2022-10-06,1,,,,,ヤクゼロ,0
1638,6120101066336,新規,0,2022-10-06,2022-10-06,株式会社足場時間,,株式会社,大阪府,和泉市,大野町２６９番１,,27,219,5941134,,,,,,,2022-10-06,1,,,,,アシバジカン,0
1641,6120901046553,新規,0,2022-10-06,2022-10-06,株式会社ＮＯＷＬＩＶＥ,,株式会社,大阪府,高槻市,津之江町１丁目５９－１３,,27,207,5690822,,,,,,,2022-10-06,1,,,,,ナウライブ,0
1642,6120901046578,新規,0,2022-10-06,2022-10-06,株式会社ＧＡＲＡＧＥ　ＲＩＳＥ,,株式会社,大阪府,豊中市,上野西３丁目１４番１４号１－Ａ,,27,203,5600011,,,,,,,2022-10-06,1,,,,,ガレージライズ,0
1643,6120901046586,新規,0,2022-10-06,2022-10-06,株式会社Ｂｕｓｉｎｅｓｓ　ｆｏｒ　Ｌｉｆｅ,,株式会社,大阪府,茨木市,五日市２丁目１１－１４－１,,27,211,5670005,,,,,,,2022-10-06,1,,,,,ビジネスフォーライフ,0
1656,6140001127558,新規,0,2022-10-06,2022-10-06,株式会社ＲＯＩ,,株式会社,兵庫県,西宮市,大畑町６番１０号テクノ２１ビル,,28,204,6620836,,,,,,,2022-10-06,1,,,,,ロイ,0
1657,6140001127574,新規,0,2022-10-06,2022-10-06,株式会社ＴＫ商事,,株式会社,兵庫県,神戸市須磨区,高倉台２丁目１０番１０号,,28,107,6540081,,,,,,,2022-10-06,1,,,,,ティーケーショウジ,0
1658,6140001127673,新規,0,2022-10-06,2022-10-06,株式会社Ｋ‐Ｐｒｏｔｅｃｔ,,株式会社,兵庫県,神戸市垂水区,西舞子２丁目１番４３号,,28,108,6550048,,,,,,,2022-10-06,1,,,,,ケープロテクト,0
1661,6140003018193,新規,0,2022-10-06,2022-10-06,ＮＣビジョンファンド合同会社,,合同会社,兵庫県,神戸市中央区,浪花町５９番地,,28,110,6500035,,,,,,,2022-10-06,1,,,,,エヌシービジョンファンド,0
1662,6140003018210,新規,0,2022-10-06,2022-10-06,合同会社木澤技術士事務所,,合同会社,兵庫県,加古川市,尾上町養田１９０番地の６,,28,210,6750025,,,,,,,2022-10-06,1,,,,,キザワギジュツシジムショ,0
1664,6160001024539,新規,0,2022-10-06,2022-10-06,株式会社リライズ,,株式会社,滋賀県,愛知郡愛荘町,蚊野６１１番地,,25,425,5291206,,,,,,,2022-10-06,1,,,,,リライズ,0
1666,6170001017319,新規,0,2022-10-06,2022-10-06,株式会社崎下自動車,00128043,株式会社,和歌山県,田辺市,下三栖１４７５番地の７８,,30,206,6460216,,,,,,,2022-10-06,1,,,,,サキシタジドウシャ,0
1670,6180001153278,新規,0,2022-10-06,2022-10-06,株式会社チームＳ,,株式会社,愛知県,西春日井郡豊山町,大字豊場字野田１番地１０,,23,342,4800202,,,,,,,2022-10-06,1,,,,,チームエス,0
1671,6180001153311,新規,0,2022-10-06,2022-10-06,Ｍ‐ｔｅｃｈｎｏ株式会社,,株式会社,愛知県,名古屋市中川区,花塚町２丁目２４番地,,23,110,4540052,,,,,,,2022-10-06,1,,,,,エムテクノ,0
1677,6190001029799,新規,0,2022-10-06,2022-10-06,株式会社ＢＵＤＤＹ　ＳＴＡＦＦ,,株式会社,三重県,伊賀市,服部町２９３番地１,,24,216,5180007,,,,,,,2022-10-06,1,,,,,バディスタッフ,0
1678,6190001029808,新規,0,2022-10-06,2022-10-06,株式会社Ｈａｒｕ　Ｆｌｏｗｅｒ＆Ｇａｒｄｅｎ,,株式会社,三重県,津市,垂水１８番地１３,,24,201,5140821,,,,,,,2022-10-06,1,,,,,ハルフラワーアンドガーデン,0
1680,6200001040507,新規,0,2022-10-06,2022-10-06,株式会社大勝,,株式会社,岐阜県,多治見市,幸町１丁目１４番地,,21,204,5070077,,,,,,,2022-10-06,1,,,,,ダイショウ,0
1681,6200001040531,新規,0,2022-10-06,2022-10-06,株式会社Ｓａｉｋａｓｈｕ,,株式会社,岐阜県,関市,小瀬１０３,,21,205,5013265,,,,,,,2022-10-06,1,,,,,サイカシュウ,0
1682,6200003005697,新規,0,2022-10-06,2022-10-06,合同会社ＬＥＡＶＥＳ,,合同会社,岐阜県,羽島郡笠松町,田代６３０番地６,,21,303,5016062,,,,,,,2022-10-06,1,,,,,リーブス,0
1684,6220001025076,新規,0,2022-10-06,2022-10-06,ＴＫＭ株式会社,,株式会社,石川県,野々市市,矢作１丁目２１０番地,,17,212,9218822,,,,,,,2022-10-06,1,,,,,ティーケーエム,0
1686,6240001060451,新規,0,2022-10-06,2022-10-06,ＴＳＧ　ＨＯＬＤＩＮＧＳ株式会社,,株式会社,広島県,広島市南区,宇品御幸２丁目４番９－３号,,34,103,7340015,,,,,,,2022-10-06,1,,,,,ティーエスジーホールディングス,0
1687,6240001060468,新規,0,2022-10-06,2022-10-06,株式会社森重建装,,株式会社,広島県,廿日市市,物見東２丁目２２番１５号,,34,213,7390426,,,,,,,2022-10-06,1,,,,,モリシゲケンソウ,0
1691,6250001019793,新規,0,2022-10-06,2022-10-06,株式会社キノピオホールディングス,,株式会社,山口県,山口市,黒川７５４番地５,,35,203,7530851,,,,,,,2022-10-06,1,,,,,キノピオホールディングス,0
1692,6260001037299,新規,0,2022-10-06,2022-10-06,ＧＲＥＥＮ　ＧＲＥＥＮ株式会社,,株式会社,岡山県,瀬戸内市,邑久町大窪３３３番地３,,33,212,7014231,,,,,,,2022-10-06,1,,,,,グリーングリーン,0
1701,6290001099089,新規,0,2022-10-06,2022-10-06,ヤマエリアルティ株式会社,,株式会社,福岡県,福岡市博多区,博多駅東２丁目１３番３４号,,40,132,8120013,,,,,,,2022-10-06,1,,,,,ヤマエリアルティ,0
1702,6290001099114,新規,0,2022-10-06,2022-10-06,株式会社ｋｅｄｏｍｏ,,株式会社,福岡県,福岡市西区,愛宕２丁目１番２号,,40,135,8190015,,,,,,,2022-10-06,1,,,,,ケドモ,0
1703,6290001099155,新規,0,2022-10-06,2022-10-06,株式会社セロニアス,,株式会社,福岡県,福岡市早良区,西新２丁目１２番１３号,,40,137,8140002,,,,,,,2022-10-06,1,,,,,セロニアス,0
1705,6290005018821,新規,0,2022-10-06,2022-10-06,一般社団法人ジュニア総合教育学院,,その他の設立登記法人,福岡県,福岡市早良区,西新２丁目６番２号,,40,137,8140002,,,,,,,2022-10-06,1,,,,,ジュニアソウゴウキョウイクガクイン,0
1708,6290801028949,新規,0,2022-10-06,2022-10-06,株式会社コヤノ設備,,株式会社,福岡県,行橋市,行事８丁目９番１７号,,40,213,8240001,,,,,,,2022-10-06,1,,,,,コヤノセツビ,0
1713,6300001013089,新規,0,2022-10-06,2022-10-06,株式会社Ｋａｙａ,,株式会社,佐賀県,佐賀市,兵庫北２丁目３０番３３－１号,,41,201,8490919,,,,,,,2022-10-06,1,,,,,カヤ,0
1717,6310001018070,新規,0,2022-10-06,2022-10-06,株式会社Ｍ‐ＳＰＥＣ,,株式会社,長崎県,西海市,大島町３８１８番地１１,,42,212,8572427,,,,,,,2022-10-06,1,,,,,エムスペック,0
1720,6330001030180,新規,0,2022-10-06,2022-10-06,健ＳＨＯＷ企画株式会社,,株式会社,熊本県,熊本市東区,昭和町１１番２５号,,43,102,8612108,,,,,,,2022-10-06,1,,,,,ケンショウキカク,0
1722,6340001025089,新規,0,2022-10-06,2022-10-06,豊月通商株式会社,,株式会社,鹿児島県,鹿児島市,上之園町１２番１４号,,46,201,8900052,,,,,,,2022-10-06,1,,,,,ホウゲツツウショウ,0
1734,6400001016016,新規,0,2022-10-06,2022-10-06,株式会社Ｏ．Ｔ．Ａ,,株式会社,岩手県,宮古市,末広町４番１号,,03,202,0270084,,,,,,,2022-10-06,1,,,,,オーティーエー,0
1735,6410001013292,新規,0,2022-10-06,2022-10-06,株式会社なかの,,株式会社,秋田県,横手市,大屋新町字新町１７３番地,,05,203,0130051,,,,,,,2022-10-06,1,,,,,ナカノ,0
1739,6470001019284,新規,0,2022-10-06,2022-10-06,株式会社Ｅｉｓｈｏ,,株式会社,香川県,仲多度郡多度津町,大字西白方８８番地２,,37,404,7640037,,,,,,,2022-10-06,1,,,,,エイショウ,0
1740,6470003002263,新規,0,2022-10-06,2022-10-06,合同会社Ｔｒｙｓａｉｌ,,合同会社,香川県,高松市,多肥上町３２０番地８,,37,201,7618076,,,,,,,2022-10-06,1,,,,,トライセイル,0
1742,6490005006863,新規,0,2022-10-06,2022-10-06,特定非営利活動法人エイワントラスト,,その他の設立登記法人,高知県,高知市,介良乙３１３７番地５,,39,201,7815106,,,,,,,2022-10-06,1,,,,,エイワントラスト,0
1745,6500001024529,新規,0,2022-10-06,2022-10-06,株式会社Ｖ‐ａｒｔｉｓｔ,,株式会社,愛媛県,松山市,三番町１丁目１４番地５,,38,201,7900003,,,,,,,2022-10-06,1,,,,,ブイアーティスト,0
1756,7010001229911,新規,0,2022-10-06,2022-10-06,Ｆｒｅｅｌｏｏｐ株式会社,,株式会社,東京都,文京区,本郷３丁目４番３号ヒルズ８８４お茶ノ水ビル５Ｆ,,13,105,1130033,,,,,,,2022-10-06,1,,,,,フリーループ,0
1757,7010001229928,新規,0,2022-10-06,2022-10-06,株式会社アイビーキャピタル,,株式会社,東京都,中央区,湊２丁目１１－１,,13,102,1040043,,,,,,,2022-10-06,1,,,,,アイビーキャピタル,0
1758,7010001229969,新規,0,2022-10-06,2022-10-06,ＰＪＴパートナーズジャパン株式会社,,株式会社,東京都,中央区,日本橋室町４丁目３番９号崋山ビル８階,,13,102,1030022,,,,,,,2022-10-06,1,,,,,ピージェーティーパートナーズジャパン,0
1759,7010001229977,新規,0,2022-10-06,2022-10-06,株式会社マスター,,株式会社,東京都,中央区,日本橋本町２丁目３番１６－３０１号,,13,102,1030023,,,,,,,2022-10-06,1,,,,,マスター,0
1760,7010003038765,新規,0,2022-10-06,2022-10-06,Ｆｌａｒｅ　Ｉｎｖｅｓｔｍｅｎｔ合同会社,,合同会社,東京都,文京区,本郷５丁目２３番１６号石川ビル７階,,13,105,1130033,,,,,,,2022-10-06,1,,,,,フレアインベストメント,0
1761,7010003038815,新規,0,2022-10-06,2022-10-06,バロレックス合同会社,,合同会社,東京都,千代田区,内神田１丁目１３番１２号,,13,101,1010047,,,,,,,2022-10-06,1,,,,,バロレックス,0
1764,7010005035629,新規,0,2022-10-06,2022-10-06,Ｋｎｅｅｓ　ｂｅｅ税理士法人,,その他の設立登記法人,東京都,千代田区,九段北１丁目３番１号ＶＯＲＴ九段下５Ｆ,,13,101,1020073,,,,,,,2022-10-06,1,,,,,ニーズビー,0
1767,7010401170062,新規,0,2022-10-06,2022-10-06,カーボンプランニング株式会社,,株式会社,東京都,港区,南青山２丁目２番１５号,,13,103,1070062,,,,,,,2022-10-06,1,,,,,カーボンプランニング,0
1769,7010403028614,新規,0,2022-10-06,2022-10-06,合同会社ラフレシア,,合同会社,東京都,港区,六本木３丁目１５番２５号,,13,103,1060032,,,,,,,2022-10-06,1,,,,,ラフレシア,0
1771,7010405021402,新規,0,2022-10-06,2022-10-06,一般社団法人青医会,,その他の設立登記法人,東京都,港区,南青山２丁目２２番２号,,13,103,1070062,,,,,,,2022-10-06,1,,,,,セイイカイ,0
1777,7010701043298,新規,0,2022-10-06,2022-10-06,株式会社Ｔ．Ｉ．Ｋ,,株式会社,東京都,品川区,西五反田２丁目９番７号ドルミ五反田アンメゾン４０８,,13,109,1410031,,,,,,,2022-10-06,1,,,,,ティーアイケイ,0
1780,7010801033315,新規,0,2022-10-06,2022-10-06,宮越グループ株式会社,,株式会社,東京都,大田区,大森北１丁目２３番１号,,13,111,1430016,,,,,,,2022-10-06,1,,,,,ミヤコシグループ,0
1781,7010801033323,新規,0,2022-10-06,2022-10-06,株式会社ＴＫマリスコ,,株式会社,東京都,大田区,西蒲田７丁目３４番５－１００１号,,13,111,1440051,,,,,,,2022-10-06,1,,,,,ティケイマリスコ,0
1796,7011403003788,新規,0,2022-10-06,2022-10-06,合同会社ＴＴ　ｍａｒｋｅ,,合同会社,東京都,板橋区,三園１丁目１６－１,,13,119,1750091,,,,,,,2022-10-06,1,,,,,ティティマーケ,0
1801,7011801041357,新規,0,2022-10-06,2022-10-06,株式会社閃,,株式会社,東京都,葛飾区,青戸５丁目３－１３アイコンチェルト葛飾青砥２１３,,13,122,1250062,,,,,,,2022-10-06,1,,,,,ヒラメキ,0
1803,7012401039709,新規,0,2022-10-06,2022-10-06,寺坂波操株式会社,,株式会社,東京都,小金井市,前原町１丁目５番４号,,13,210,1840013,,,,,,,2022-10-06,1,,,,,テラサカハソウ,0
1804,7012401039725,新規,0,2022-10-06,2022-10-06,株式会社スラップスタイル,,株式会社,東京都,稲城市,平尾４丁目１番２号,,13,225,2060823,,,,,,,2022-10-06,1,,,,,スラップスタイル,0
1814,7013301049764,新規,0,2022-10-06,2022-10-06,株式会社ゆとり工房,,株式会社,東京都,豊島区,西巣鴨４丁目１３番５－４０１号,,13,116,1700001,,,,,,,2022-10-06,1,,,,,ユトリコウボウ,0
1824,7020001148359,新規,0,2022-10-06,2022-10-06,株式会社ｆｏｒｅｌｓｋｅｔ,,株式会社,神奈川県,横浜市中区,山下町２５番地２インペリアルビル４０３号室,,14,104,2310023,,,,,,,2022-10-06,1,,,,,フォレルスケット,0
1825,7020001148417,新規,0,2022-10-06,2022-10-06,ＬＦ＆Ｌ株式会社,,株式会社,神奈川県,川崎市幸区,大宮町１４番地３フォレストマインズ２０２,,14,132,2120014,,,,,,,2022-10-06,1,,,,,エルエフアンドエル,0
1826,7020005015679,新規,0,2022-10-06,2022-10-06,一般社団法人エイジケアコンシェルジュ,,その他の設立登記法人,神奈川県,横浜市港南区,港南２丁目５番２４号,,14,111,2330003,,,,,,,2022-10-06,1,,,,,エイジケアコンシェルジュ,0
1830,7021001077119,新規,0,2022-10-06,2022-10-06,株式会社共光通信社,,株式会社,神奈川県,相模原市中央区,共和３丁目９番２７号,,14,152,2520234,,,,,,,2022-10-06,1,,,,,キョウコウツウシンシャ,0
1831,7021001077127,新規,0,2022-10-06,2022-10-06,株式会社きたさと,,株式会社,神奈川県,横須賀市,安浦町３丁目１６番地,,14,201,2380012,,,,,,,2022-10-06,1,,,,,キタサト,0
1832,7021001077143,新規,0,2022-10-06,2022-10-06,株式会社Ｒｕｍｏｒ,,株式会社,神奈川県,茅ヶ崎市,白浜町２番３１号,,14,207,2530036,,,,,,,2022-10-06,1,,,,,ルーマー,0
1835,7021003012206,新規,0,2022-10-06,2022-10-06,合同会社紫音興業,,合同会社,神奈川県,伊勢原市,上粕屋２５３５番地の４,,14,214,2591141,,,,,,,2022-10-06,1,,,,,シオンコウギョウ,0
1838,7030001150330,新規,0,2022-10-06,2022-10-06,株式会社申発製作,,株式会社,埼玉県,越谷市,神明町２丁目３９７－３－２１３,,11,222,3430805,,,,,,,2022-10-06,1,,,,,シンパツセイサク,0
1839,7030001150355,新規,0,2022-10-06,2022-10-06,グッディワールド株式会社,,株式会社,埼玉県,さいたま市大宮区,堀の内町１丁目２０１番地１,,11,103,3300804,,,,,,,2022-10-06,1,,,,,グッディワールド,0
1840,7030001150388,新規,0,2022-10-06,2022-10-06,Ａ・Ｗ株式会社,,株式会社,埼玉県,川口市,芝５丁目１７番３号,,11,203,3330866,,,,,,,2022-10-06,1,,,,,エイダブリュー,0
1842,7030003020333,新規,0,2022-10-06,2022-10-06,合同会社ＬＶＣ,,合同会社,埼玉県,鴻巣市,天神５丁目７番２３号,,11,217,3650036,,,,,,,2022-10-06,1,,,,,エルブイシー,0
1849,7040001125348,新規,0,2022-10-06,2022-10-06,株式会社ユートリオ,,株式会社,千葉県,市川市,南八幡２丁目４番７号,,12,203,2720023,,,,,,,2022-10-06,1,,,,,ユートリオ,0
1859,7050001051725,新規,0,2022-10-06,2022-10-06,Ｍａｎｕｋａ　Ａｕｔｏ　Ｌａｎｋａ株式会社,,株式会社,茨城県,坂東市,生子１９６８番地２,,08,228,3060504,,,,,,,2022-10-06,1,,,,,マヌカオートランカ,0
1860,7050001051758,新規,0,2022-10-06,2022-10-06,株式会社サイバーメカニクス,,株式会社,茨城県,北相馬郡利根町,もえぎ野台３丁目８番３号,,08,564,3001606,,,,,,,2022-10-06,1,,,,,サイバーメカニクス,0
1861,7050001051766,新規,0,2022-10-06,2022-10-06,株式会社やまぶき,,株式会社,茨城県,水戸市,渡里町３２６６番地１,,08,201,3100902,,,,,,,2022-10-06,1,,,,,ヤマブキ,0
1864,7060001035314,新規,0,2022-10-06,2022-10-06,ｎｉｎｅ株式会社,,株式会社,栃木県,芳賀郡益子町,大字大沢２５５５番地２,,09,342,3214104,,,,,,,2022-10-06,1,,,,,ナイン,0
1865,7070001039710,新規,0,2022-10-06,2022-10-06,株式会社ａｒｃｓ,,株式会社,群馬県,藤岡市,神田１１４３番地,,10,209,3750032,,,,,,,2022-10-06,1,,,,,アークス,0
1871,7080001025230,新規,0,2022-10-06,2022-10-06,株式会社レーブフード,,株式会社,静岡県,静岡市葵区,紺屋町１７番地の１,,22,101,4200852,,,,,,,2022-10-06,1,,,,,レーブフード,0
1874,7080101023555,新規,0,2022-10-06,2022-10-06,株式会社ＩＳＴＩＮＡ,,株式会社,静岡県,富士市,中央町３丁目９番２２－１００６号アーバンシティ富士中央町,,22,210,4170052,,,,,,,2022-10-06,1,,,,,イスティナ,0
1875,7080101023563,新規,0,2022-10-06,2022-10-06,株式会社アカハマ外壁,,株式会社,静岡県,沼津市,東原４２５番地の１,,22,203,4100304,,,,,,,2022-10-06,1,,,,,アカハマガイヘキ,0
1878,7080103002664,新規,0,2022-10-06,2022-10-06,合同会社Ｃｏｍｉｎｇ　Ｔｒｕｅ,,合同会社,静岡県,沼津市,大手町５丁目７番１４号アクシスビル２階,,22,203,4100801,,,,,,,2022-10-06,1,,,,,カミングトゥルー,0
1879,7080401026084,新規,0,2022-10-06,2022-10-06,株式会社ふもとの工務社,,株式会社,静岡県,浜松市天竜区,春野町領家９０７番地,,22,137,4370626,,,,,,,2022-10-06,1,,,,,フモトノコウムシャ,0
1884,7090003002177,新規,0,2022-10-06,2022-10-06,らいきちカンパニー合同会社,,合同会社,山梨県,甲府市,蓬沢町９５８番地オーフォレスト２号棟３０２号室,,19,201,4000824,,,,,,,2022-10-06,1,,,,,ライキチカンパニー,0
1886,7100001035755,新規,0,2022-10-06,2022-10-06,株式会社Ｗｅｂｌｉｔ,,株式会社,長野県,飯田市,上郷黒田５５２９,,20,205,3950004,,,,,,,2022-10-06,1,,,,,ウェブリット,0
1887,7100001035763,新規,0,2022-10-06,2022-10-06,株式会社ＨＯＷＡ,,株式会社,長野県,松本市,波田５２６２番１４,,20,202,3901401,,,,,,,2022-10-06,1,,,,,ホウワ,0
1888,7100001035771,新規,0,2022-10-06,2022-10-06,株式会社すわエリアリノベーション社,,株式会社,長野県,諏訪市,小和田３番８号,,20,206,3920024,,,,,,,2022-10-06,1,,,,,スワエリアリノベーションシャ,0
1893,7110003004880,新規,0,2022-10-06,2022-10-06,合同会社スペースＫ,,合同会社,新潟県,長岡市,下々条町１９０８番地１４,,15,202,9400011,,,,,,,2022-10-06,1,,,,,スペースケー,0
1906,7120001249262,新規,0,2022-10-06,2022-10-06,ＬＥＢＯＮ株式会社,,株式会社,大阪府,大阪市生野区,新今里３丁目４番１７号ＯＧビル３０８Ａ,,27,116,5440001,,,,,,,2022-10-06,1,,,,,レボン,0
1907,7120001249279,新規,0,2022-10-06,2022-10-06,林氏兄弟株式会社,,株式会社,大阪府,大阪市生野区,新今里１丁目７番１－３０１号,,27,116,5440001,,,,,,,2022-10-06,1,,,,,リンシキョウダイ,0
1908,7120001249304,新規,0,2022-10-06,2022-10-06,株式会社ＥａｒｌｙＢｉｒｄ,,株式会社,大阪府,大阪市中央区,粉川町２番７－１１１号,,27,128,5400018,,,,,,,2022-10-06,1,,,,,アーリーバード,0
1909,7120001249312,新規,0,2022-10-06,2022-10-06,コーナンビジネスイノベーション株式会社,,株式会社,大阪府,大阪市淀川区,西宮原２丁目２番１７号,,27,123,5320004,,,,,,,2022-10-06,1,,,,,コーナンビジネスイノベーション,0
1910,7120001249337,新規,0,2022-10-06,2022-10-06,株式会社グローリー,,株式会社,大阪府,大阪市北区,梅田１丁目１番３号大阪駅前第３ビル２３０７,,27,127,5300001,,,,,,,2022-10-06,1,,,,,グローリー,0
1911,7120001249361,新規,0,2022-10-06,2022-10-06,ＮＥＸＴクリエート株式会社,,株式会社,大阪府,門真市,御堂町２５番２－１４０６号,,27,223,5710064,,,,,,,2022-10-06,1,,,,,ネクストクリエート,0
1915,7120005023226,新規,0,2022-10-06,2022-10-06,一般社団法人ａｓＴａｓ,,その他の設立登記法人,大阪府,大阪市東住吉区,照ケ丘矢田３丁目６番１号,,27,121,5460021,,,,,,,2022-10-06,1,,,,,アスタス,0
1918,7120101066335,新規,0,2022-10-06,2022-10-06,株式会社ヨシヤ建装,,株式会社,大阪府,泉佐野市,中庄１０７７番地の１３,,27,213,5980002,,,,,,,2022-10-06,1,,,,,ヨシヤケンソウ,0
1922,7120901046536,新規,0,2022-10-06,2022-10-06,株式会社サムコーポレーション,,株式会社,大阪府,茨木市,総持寺駅前町５番２０号２０２号,,27,211,5670802,,,,,,,2022-10-06,1,,,,,サムコーポレーション,0
1923,7120901046577,新規,0,2022-10-06,2022-10-06,株式会社安田製作所,,株式会社,大阪府,豊中市,利倉２丁目２１番２１号,,27,203,5610845,,,,,,,2022-10-06,1,,,,,ヤスダセイサクショ,0
1924,7120901046585,新規,0,2022-10-06,2022-10-06,株式会社リベル,,株式会社,大阪府,高槻市,三島江４丁目３５番１号,,27,207,5690835,,,,,,,2022-10-06,1,,,,,リベル,0
1928,7120903004319,新規,0,2022-10-06,2022-10-06,ビクロイ合同会社,,合同会社,大阪府,豊中市,宮山町１丁目５番３３－２０４号,,27,203,5600056,,,,,,,2022-10-06,1,,,,,ビクロイ,0
1929,7120903004327,新規,0,2022-10-06,2022-10-06,合同会社アシダ,,合同会社,大阪府,吹田市,山田東４丁目４１番２－３１４号,,27,205,5650821,,,,,,,2022-10-06,1,,,,,アシダ,0
1931,7122001036285,新規,0,2022-10-06,2022-10-06,株式会社ヴェンティアンニ,,株式会社,大阪府,八尾市,教興寺５丁目７０番地,,27,212,5810874,,,,,,,2022-10-06,1,,,,,ヴェンティアンニ,0
1936,7130001072696,新規,0,2022-10-06,2022-10-06,株式会社スカイ竹取翁,,株式会社,京都府,京田辺市,三山木直田１０番地,,26,211,6100313,,,,,,,2022-10-06,1,,,,,スカイタケトリオキナ,0
1937,7130001072787,新規,0,2022-10-06,2022-10-06,Ｌｉｎｋ　Ｔｈｅｒａｐｅｕｔｉｃｓ株式会社,,株式会社,京都府,京都市左京区,吉田本町３６番地１,,26,103,6068317,,,,,,,2022-10-06,1,,,,,リンクセラピューティクス,0
1940,7140001127573,新規,0,2022-10-06,2022-10-06,株式会社そしてわになる,,株式会社,兵庫県,神戸市兵庫区,湊町３丁目２番５－８０６号,,28,105,6520812,,,,,,,2022-10-06,1,,,,,ソシテワニナル,0
1942,7140003018218,新規,0,2022-10-06,2022-10-06,スリー・ワイ合同会社,,合同会社,兵庫県,尼崎市,御園町５４番地ローレルタワー尼崎１１０６号,,28,202,6600861,,,,,,,2022-10-06,1,,,,,スリーワイ,0
1954,7180005019953,新規,0,2022-10-06,2022-10-06,一般社団法人ＥＳＤコンソーシアム愛知,,その他の設立登記法人,愛知県,名古屋市東区,徳川２丁目１８番３号徳川第１ビル５階,,23,102,4610025,,,,,,,2022-10-06,1,,,,,イーエスディーコンソーシアムアイチ,0
1955,7180005019961,新規,0,2022-10-06,2022-10-06,一般社団法人青少年芸術文化振興会,,その他の設立登記法人,愛知県,名古屋市東区,泉２丁目２８番８号（宮地楽器株式会社内）,,23,102,4610001,,,,,,,2022-10-06,1,,,,,セイショウネンゲイジュツブンカシンコウカイ,0
1960,7190003004106,新規,0,2022-10-06,2022-10-06,合同会社中村,,合同会社,三重県,伊勢市,辻久留１丁目９番２０号,00128026,24,203,5160066,,,,,,,2022-10-06,1,,,,,ナカムラ,0
1962,7200001040497,新規,0,2022-10-06,2022-10-06,株式会社丸優商事,,株式会社,岐阜県,安八郡安八町,中須５５３番地の１,,21,383,5030126,,,,,,,2022-10-06,1,,,,,マルユウショウジ,0
1963,7200001040506,新規,0,2022-10-06,2022-10-06,株式会社フジキ空調,,株式会社,岐阜県,岐阜市,水海道３丁目１７番１２号,,21,201,5008223,,,,,,,2022-10-06,1,,,,,フジキクウチョウ,0
1964,7200003005696,新規,0,2022-10-06,2022-10-06,合同会社ナガラワークス,,合同会社,岐阜県,郡上市,白鳥町為真１１６３－１,,21,219,5015122,,,,,,,2022-10-06,1,,,,,ナガラワークス,0
1967,7220001025067,新規,0,2022-10-06,2022-10-06,株式会社ｕｎｉｆｉｃａｔｉｏｎ,,株式会社,石川県,白山市,相木町７１７番地１シャトレ２０３号室,,17,210,9240022,,,,,,,2022-10-06,1,,,,,ユーニフィケイション,0
1968,7220001025075,新規,0,2022-10-06,2022-10-06,Ｋインカム株式会社,,株式会社,石川県,金沢市,諸江町上丁６５２番地１,,17,201,9200015,,,,,,,2022-10-06,1,,,,,ケーインカム,0
1970,7230005009263,新規,0,2022-10-06,2022-10-06,弁護士法人山田・中山法律事務所,,その他の設立登記法人,富山県,富山市,西田地方町２丁目６番１０号,,16,201,9398202,,,,,,,2022-10-06,1,,,,,ヤマダナカヤマホウリツジムショ,0
1973,7240001060442,新規,0,2022-10-06,2022-10-06,ＡＩＰ株式会社,,株式会社,広島県,東広島市,八本松町吉川３８７番地２,,34,212,7390152,,,,,,,2022-10-06,1,,,,,エーアイピィー,0
1974,7240001060459,新規,0,2022-10-06,2022-10-06,株式会社亮栄興産,,株式会社,広島県,廿日市市,住吉２丁目１４番１－１０５号,,34,213,7380014,,,,,,,2022-10-06,1,,,,,リョウエイコウサン,0
1975,7240001060467,新規,0,2022-10-06,2022-10-06,株式会社山陽サービス,,株式会社,広島県,福山市,箕島町６６７７番地６,,34,207,7210957,,,,,,,2022-10-06,1,,,,,サンヨウサービス,0
1976,7240001060475,新規,0,2022-10-06,2022-10-06,株式会社Ｓ‐Ｔｅａｍ,,株式会社,広島県,広島市安佐南区,毘沙門台２丁目４０番３号,,34,105,7310152,,,,,,,2022-10-06,1,,,,,スチーム,0
1977,7240003005841,新規,0,2022-10-06,2022-10-06,合同会社グラブ,,合同会社,広島県,広島市安佐南区,山本９丁目４２番７号,,34,105,7310137,,,,,,,2022-10-06,1,,,,,グラブ,0
1979,7250003003159,新規,0,2022-10-06,2022-10-06,合同会社フルサイクル,,合同会社,山口県,山口市,小郡維新町３番１２－２０７号,,35,203,7540029,,,,,,,2022-10-06,1,,,,,フルサイクル,0
1984,7260001037298,新規,0,2022-10-06,2022-10-06,株式会社ＬＥＡＤ,,株式会社,岡山県,瀬戸内市,長船町福里１３９番地７,,33,212,7014275,,,,,,,2022-10-06,1,,,,,リード,0
1988,7290001099105,新規,0,2022-10-06,2022-10-06,株式会社ティーファイブ,,株式会社,福岡県,久留米市,善導寺町木塚４４８番地１,,40,203,8390822,,,,,,,2022-10-06,1,,,,,ティーファイブ,0
1989,7290001099121,新規,0,2022-10-06,2022-10-06,株式会社Ｐｒｉｃａｒ,,株式会社,福岡県,糟屋郡新宮町,緑ケ浜４丁目１５番８号,,40,345,8110119,,,,,,,2022-10-06,1,,,,,プリカル,0
1990,7290001099146,新規,0,2022-10-06,2022-10-06,株式会社Ｆｅｌｉｃｅ　Ｐｅｔ　Ｃｌｉｎｉｃ,,株式会社,福岡県,糟屋郡篠栗町,大字尾仲４２６番地１,,40,342,8112413,,,,,,,2022-10-06,1,,,,,フェリーチェペットクリニック,0
1991,7290001099154,新規,0,2022-10-06,2022-10-06,株式会社ＴＯＨ,,株式会社,福岡県,福岡市早良区,有田４丁目３７番２６号,,40,137,8140033,,,,,,,2022-10-06,1,,,,,ティーオーエイチ,0
1993,7290003013030,新規,0,2022-10-06,2022-10-06,合同会社トラベルケアふくおか,,合同会社,福岡県,福岡市早良区,飯倉６丁目２０番１７－５０３号ＤＯＯＰ飯倉の杜,,40,137,8140161,,,,,,,2022-10-06,1,,,,,トラベルケアフクオカ,0
1997,7290005018820,新規,0,2022-10-06,2022-10-06,一般社団法人海と日本プロジェクトｉｎふくおか,,その他の設立登記法人,福岡県,福岡市早良区,百道浜２丁目３番８号,,40,137,8140001,,,,,,,2022-10-06,1,,,,,ウミトニッポンプロジェクトインフクオカ,0
2000,7290801028948,新規,0,2022-10-06,2022-10-06,株式会社正塗,,株式会社,福岡県,北九州市門司区,白野江３丁目２４番１８号,,40,101,8010802,,,,,,,2022-10-06,1,,,,,マサト,0
2001,7300001013088,新規,0,2022-10-06,2022-10-06,株式会社唐津シーサイドホテル,,株式会社,佐賀県,唐津市,東唐津４丁目１８２番地,,41,202,8470017,,,,,,,2022-10-06,1,,,,,カラツシーサイドホテル,0
2010,7320001010810,新規,0,2022-10-06,2022-10-06,株式会社積善社,,株式会社,大分県,中津市,大字相原３３８１番地,,44,203,8710022,,,,,,,2022-10-06,1,,,,,,0
2013,7340001025088,新規,0,2022-10-06,2022-10-06,株式会社ままりあ農園,,株式会社,鹿児島県,日置市,伊集院町土橋１３２２番地１,,46,216,8992516,,,,,,,2022-10-06,1,,,,,ママリアノウエン,0
2015,7340003003926,新規,0,2022-10-06,2022-10-06,合同会社尾上,,合同会社,鹿児島県,日置市,東市来町長里６０４０番地４,,46,216,8992202,,,,,,,2022-10-06,1,,,,,オノウエ,0
2017,7350001017984,新規,0,2022-10-06,2022-10-06,株式会社Ｒｓカンパニー,,株式会社,宮崎県,宮崎市,大字赤江１６０７番地３,,45,201,8800912,,,,,,,2022-10-06,1,,,,,アールエスカンパニー,0
2020,7360001031027,新規,0,2022-10-06,2022-10-06,株式会社ＫＤＨ,,株式会社,沖縄県,宮古島市,下地字洲鎌９７２番地４,,47,214,9060303,,,,,,,2022-10-06,1,,,,,ケイディエイチ,0
2021,7360001031035,新規,0,2022-10-06,2022-10-06,株式会社ＫＤ　ＧＬＯＢＡＬ　ＬＩＮＫ,,株式会社,沖縄県,那覇市,繁多川２丁目１７番２号,,47,201,9020071,,,,,,,2022-10-06,1,,,,,ケイディーグローバルリンク,0
2032,7380003005290,新規,0,2022-10-06,2022-10-06,Ｓ‐ＥＡＧＬＥ合同会社,,合同会社,福島県,いわき市,平字十五町目１４番地の１,,07,204,9708026,,,,,,,2022-10-06,1,,,,,エスイーグル,0
2037,7410001013291,新規,0,2022-10-06,2022-10-06,ＡＳＴＲＯＮＯＭＩＣＡ株式会社,,株式会社,秋田県,湯沢市,岩崎字岩崎１２４番地,,05,207,0120801,,,,,,,2022-10-06,1,,,,,アストロノミカ,0
2038,7420005007826,新規,0,2022-10-06,2022-10-06,一般社団法人ＷＡＫＯメディア情報活用研究所,,その他の設立登記法人,青森県,東津軽郡平内町,大字小湊字下タ田７番地,,02,301,0393321,,,,,,,2022-10-06,1,,,,,ワコーメディアジョウホウカツヨウケンキュウジョ,0
2040,7430001087598,新規,0,2022-10-06,2022-10-06,ティール株式会社,,株式会社,北海道,札幌市中央区,南一条西１６丁目１番地３２３春野ビル３Ｆ,,01,101,0600061,,,,,,,2022-10-06,1,,,,,ティール,0
2046,7470003002262,新規,0,2022-10-06,2022-10-06,石川合同会社,,合同会社,香川県,高松市,香川町大野１０９６－１,,37,201,7611701,,,,,,,2022-10-06,1,,,,,イシカワ,0
2050,7480003001882,新規,0,2022-10-06,2022-10-06,合同会社アールメンテナンス,,合同会社,徳島県,徳島市,庄町３丁目６１番地の３フィットセル蔵本ＩＩＡ,00128040,36,201,7700044,,,,,,,2022-10-06,1,,,,,アールメンテナンス,0
2054,7500005008527,新規,0,2022-10-06,2022-10-06,一般社団法人家系図作り家宝のやまと,,その他の設立登記法人,愛媛県,東温市,志津川南４丁目９番地１,,38,215,7910206,,,,,,,2022-10-06,1,,,,,カケイズヅクリカホウノヤマト,0
2060,8010001229935,新規,0,2022-10-06,2022-10-06,Ｍｉｒｏｕｐ株式会社,,株式会社,東京都,中央区,銀座１丁目２２番１１号銀座大竹ビジデンス２階,,13,102,1040061,,,,,,,2022-10-06,1,,,,,ミロアップ,0
2071,8010401170004,新規,0,2022-10-06,2022-10-06,ＸＲＯＳＳ　ＰＯＩＮＴ株式会社,,株式会社,東京都,港区,浜松町２丁目２番１５号浜松町ダイヤビル２Ｆ,,13,103,1050013,,,,,,,2022-10-06,1,,,,,クロスポイント,0
2072,8010401170061,新規,0,2022-10-06,2022-10-06,株式会社ＡＫＳハウジング,,株式会社,東京都,港区,赤坂２丁目８番１３－６０１号,,13,103,1070052,,,,,,,2022-10-06,1,,,,,エーケーエスハウジング,0
2073,8010401170086,新規,0,2022-10-06,2022-10-06,株式会社ＤＥＵＳ,,株式会社,東京都,港区,東麻布１丁目２７番１０号,,13,103,1060044,,,,,,,2022-10-06,1,,,,,デウス,0
2074,8010401170094,新規,0,2022-10-06,2022-10-06,株式会社ＮＩＫＡ,,株式会社,東京都,港区,六本木７丁目１８番１５号六本木７１８ビル４Ｆ,,13,103,1060032,,,,,,,2022-10-06,1,,,,,ニカ,0
2076,8010403028596,新規,0,2022-10-06,2022-10-06,合同会社クロガネ,,合同会社,東京都,港区,南青山３丁目１番３６号・青山丸竹ビル６Ｆ,,13,103,1070062,,,,,,,2022-10-06,1,,,,,クロガネ,0
2080,8010503006741,新規,0,2022-10-06,2022-10-06,合同会社アレックス,,合同会社,東京都,台東区,千束２丁目２番２号,,13,106,1110031,,,,,,,2022-10-06,1,,,,,アレックス,0
2083,8010801033314,新規,0,2022-10-06,2022-10-06,株式会社アガペー,,株式会社,東京都,大田区,千鳥１丁目５番４号,,13,111,1460083,,,,,,,2022-10-06,1,,,,,アガペー,0
2084,8010801033322,新規,0,2022-10-06,2022-10-06,株式会社隆盛,,株式会社,東京都,大田区,蒲田５丁目８番１０号,,13,111,1440052,,,,,,,2022-10-06,1,,,,,リュウセイ,0
2086,8010901051736,新規,0,2022-10-06,2022-10-06,株式会社ＳＩＴＯＰ,,株式会社,東京都,世田谷区,玉堤１丁目１４－５,,13,112,1580087,,,,,,,2022-10-06,1,,,,,シトップ,0
2087,8010901051744,新規,0,2022-10-06,2022-10-06,株式会社コトブキ,,株式会社,東京都,世田谷区,上馬３丁目１５番１３－１１０４号,,13,112,1540011,,,,,,,2022-10-06,1,,,,,コトブキ,0
2088,8010903007686,新規,0,2022-10-06,2022-10-06,合同会社Ｅｌｇｉｎ,,合同会社,東京都,世田谷区,三軒茶屋１丁目３４番１１－４０８号,,13,112,1540024,,,,,,,2022-10-06,1,,,,,エルジン,0
2094,8011001150040,新規,0,2022-10-06,2022-10-06,ＦＵＮＤＥＲＬＯＨＥ株式会社,,株式会社,東京都,渋谷区,笹塚３丁目１１－３,,13,113,1510073,,,,,,,2022-10-06,1,,,,,ファンデルロエ,0
2095,8011001150123,新規,0,2022-10-06,2022-10-06,世界マネジメント株式会社,,株式会社,東京都,渋谷区,元代々木町２２－７村世界１Ｆ,,13,113,1510062,,,,,,,2022-10-06,1,,,,,セカイマネジメント,0
2098,8011003015472,新規,0,2022-10-06,2022-10-06,合同会社ＷｏｒｋＰｏｏｌ,,合同会社,東京都,渋谷区,道玄坂１丁目１０番８号渋谷道玄坂東急ビル２Ｆ－Ｃ,,13,113,1500043,,,,,,,2022-10-06,1,,,,,ワークプール,0
2099,8011003015480,新規,0,2022-10-06,2022-10-06,ＮＵＭＢＥＲＳ合同会社,,合同会社,東京都,渋谷区,東２丁目９番２３号,,13,113,1500011,,,,,,,2022-10-06,1,,,,,ナンバーズ,0
2100,8011005009778,新規,0,2022-10-06,2022-10-06,司法書士法人ＰＲＯＯＦ,,その他の設立登記法人,東京都,渋谷区,宇田川町３７番１１号大久保ビル４０５,,13,113,1500042,,,,,,,2022-10-06,1,,,,,プルーフ,0
2105,8011301028135,新規,0,2022-10-06,2022-10-06,株式会社Ｍａｙ,,株式会社,東京都,杉並区,西荻北１丁目１５番７号,,13,115,1670042,,,,,,,2022-10-06,1,,,,,メイ,0
2106,8011401024579,新規,0,2022-10-06,2022-10-06,株式会社板橋塗装,,株式会社,東京都,板橋区,徳丸６丁目１２番２号,,13,119,1750083,,,,,,,2022-10-06,1,,,,,イタバシトソウ,0
2107,8011403003787,新規,0,2022-10-06,2022-10-06,ＢＡＵ　ＮＩＮＨ合同会社,,合同会社,東京都,板橋区,上板橋３丁目２０番８号ＭＯＤＥビル２０１号室,,13,119,1740076,,,,,,,2022-10-06,1,,,,,バウニン,0
2114,8011801041356,新規,0,2022-10-06,2022-10-06,株式会社ライトプロモート,,株式会社,東京都,葛飾区,亀有５丁目４１番１－５０２号ベルメゾン亀有ヴィマルシェ,,13,122,1250061,,,,,,,2022-10-06,1,,,,,ライトプロモート,0
2118,8012401039716,新規,0,2022-10-06,2022-10-06,株式会社Ｓｉｔｗｅｌｌ,,株式会社,東京都,狛江市,東和泉３丁目６番９号開智ビル１Ｆ,,13,219,2010014,,,,,,,2022-10-06,1,,,,,シットウェル,0
2119,8012401039724,新規,0,2022-10-06,2022-10-06,株式会社りのまる,,株式会社,東京都,狛江市,岩戸南１丁目２２番１８号,,13,219,2010005,,,,,,,2022-10-06,1,,,,,リノマル,0
2120,8012801021876,新規,0,2022-10-06,2022-10-06,株式会社Ｍａｒｋｅｔ　Ｂａｓｅ　Ｔｏｋｙｏ,,株式会社,東京都,東大和市,桜が丘１丁目１４２５番地の３ステイツ武蔵野グランパサージュ７１２号,,13,220,2070022,,,,,,,2022-10-06,1,,,,,マーケットベーストウキョウ,0
2132,8020001148374,新規,0,2022-10-06,2022-10-06,株式会社ＰＩＶＯＴＥ,,株式会社,神奈川県,川崎市高津区,末長４丁目１５番１０号７０１号室,,14,134,2130013,,,,,,,2022-10-06,1,,,,,ピボーテ,0
2133,8020001148416,新規,0,2022-10-06,2022-10-06,株式会社ｄａｔａ‐ｂｉ,,株式会社,神奈川県,川崎市幸区,小倉５丁目２－１５,,14,132,2120054,,,,,,,2022-10-06,1,,,,,データビーアイ,0
2135,8020003022494,新規,0,2022-10-06,2022-10-06,合同会社ＥＸＰＬＯＲＥＲ,,合同会社,神奈川県,川崎市高津区,下作延４丁目２８番２９号メイプルガーデン溝の口３０５号,,14,134,2130033,,,,,,,2022-10-06,1,,,,,エクスプローラー,0
2137,8021001077118,新規,0,2022-10-06,2022-10-06,株式会社未来図,,株式会社,神奈川県,相模原市中央区,中央４丁目９番１５号ハイライズ中央２０１,,14,152,2520239,,,,,,,2022-10-06,1,,,,,ミライズ,0
2138,8021001077134,新規,0,2022-10-06,2022-10-06,リーフステージ株式会社,,株式会社,神奈川県,藤沢市,大鋸１丁目９番１３号２０５,,14,205,2510002,,,,,,,2022-10-06,1,,,,,リーフステージ,0
2141,8030001150387,新規,0,2022-10-06,2022-10-06,株式会社ユーシン,,株式会社,埼玉県,川口市,川口２丁目７－１５サンコーポ３０２,,11,203,3320015,,,,,,,2022-10-06,1,,,,,ユーシン,0
2151,8040001125248,新規,0,2022-10-06,2022-10-06,Ｂｅ　Ｂｏｒｎ株式会社,,株式会社,千葉県,旭市,井戸野４５３３番地１０,,12,215,2892531,,,,,,,2022-10-06,1,,,,,ビーボーン,0
2152,8040001125306,新規,0,2022-10-06,2022-10-06,株式会社弘洋ホールディングス,,株式会社,千葉県,柏市,青葉台１丁目２８番１号,,12,217,2770055,,,,,,,2022-10-06,1,,,,,コウヨウホールディングス,0
2153,8040001125339,新規,0,2022-10-06,2022-10-06,株式会社リスバル,,株式会社,千葉県,柏市,若柴２７６番地１中央１５６街区３,,12,217,2770871,,,,,,,2022-10-06,1,,,,,リスバル,0
2156,8040003020991,新規,0,2022-10-06,2022-10-06,合同会社鈴木商店,,合同会社,千葉県,船橋市,前原西２丁目３２番１０号,,12,204,2740825,,,,,,,2022-10-06,1,,,,,スズキショウテン,0
2157,8050001051757,新規,0,2022-10-06,2022-10-06,株式会社輝真工建,,株式会社,茨城県,神栖市,筒井１７２２番地５,,08,232,3140132,,,,,,,2022-10-06,1,,,,,コウシンコウケン,0
2158,8050001051765,新規,0,2022-10-06,2022-10-06,株式会社やよい,,株式会社,茨城県,古河市,北間中橋１７７番地４号,,08,204,3060106,,,,,,,2022-10-06,1,,,,,ヤヨイ,0
2160,8050003006899,新規,0,2022-10-06,2022-10-06,安藏商事合同会社,,合同会社,茨城県,水戸市,堀町２３１７番地の１,,08,201,3100903,,,,,,,2022-10-06,1,,,,,アンゾウショウジ,0
2161,8070001039701,新規,0,2022-10-06,2022-10-06,株式会社ＥＶＥＲ,,株式会社,群馬県,邑楽郡邑楽町,大字中野３０９６番地１フォレストガーデンＷ１０２,,10,525,3700603,,,,,,,2022-10-06,1,,,,,エバー,0
2165,8080101023554,新規,0,2022-10-06,2022-10-06,長谷川興業株式会社,,株式会社,静岡県,富士宮市,宝町１５番１５号,,22,207,4180055,,,,,,,2022-10-06,1,,,,,ハセガワコウギョウ,0
2169,8080401026083,新規,0,2022-10-06,2022-10-06,株式会社ＳＨＩＮ,,株式会社,静岡県,浜松市中区,菅原町１２番１０－３０１号,,22,131,4328041,,,,,,,2022-10-06,1,,,,,シン,0
2174,8100001035762,新規,0,2022-10-06,2022-10-06,株式会社羽尻工務店,,株式会社,長野県,安曇野市,穂高６８５番地１５,,20,220,3998303,,,,,,,2022-10-06,1,,,,,ハジリコウムテン,0
2175,8100001035770,新規,0,2022-10-06,2022-10-06,株式会社石森電気,,株式会社,長野県,佐久市,協和６９３１番地５,,20,217,3842204,,,,,,,2022-10-06,1,,,,,イシモリデンキ,0
2180,8110001037007,新規,0,2022-10-06,2022-10-06,株式会社新潟マテリアルホールディングス,,株式会社,新潟県,長岡市,寺泊竹森１５１０番地株式会社新潟マテリアル内,,15,202,9590161,,,,,,,2022-10-06,1,,,,,ニイガタマテリアルホールディングス,0
2185,8120001249237,新規,0,2022-10-06,2022-10-06,株式会社ケイサポ,,株式会社,大阪府,大阪市城東区,中央２丁目３番２０号,,27,118,5360005,,,,,,,2022-10-06,1,,,,,ケイサポ,0
2186,8120001249402,新規,0,2022-10-06,2022-10-06,福本建装株式会社,,株式会社,大阪府,寝屋川市,本町２４番３号,,27,215,5720832,,,,,,,2022-10-06,1,,,,,フクモトケンソウ,0
2189,8120003022600,新規,0,2022-10-06,2022-10-06,合同会社玉置会計,,合同会社,大阪府,大阪市西区,西本町１丁目６番１４号瀧ビル３Ｆ,,27,106,5500005,,,,,,,2022-10-06,1,,,,,タマキカイケイ,0
2192,8120101066318,新規,0,2022-10-06,2022-10-06,株式会社浩工房,,株式会社,大阪府,岸和田市,包近町１６２番地の１,,27,202,5960101,,,,,,,2022-10-06,1,,,,,ヒロコウボウ,0
2193,8120101066326,新規,0,2022-10-06,2022-10-06,株式会社ＹＤ貿易,,株式会社,大阪府,松原市,南新町３丁目２３５,,27,217,5800023,,,,,,,2022-10-06,1,,,,,ワイディボウエキ,0
2194,8120101066334,新規,0,2022-10-06,2022-10-06,株式会社Ｋ・ＳＹＳＴＥＭ,,株式会社,大阪府,泉北郡忠岡町,高月南１丁目９番１７号,,27,341,5950802,,,,,,,2022-10-06,1,,,,,ケイシステム,0
2199,8120901046576,新規,0,2022-10-06,2022-10-06,株式会社ＤＥＢＵＧ,,株式会社,大阪府,吹田市,元町２８番７号,,27,205,5640031,,,,,,,2022-10-06,1,,,,,デバッグ,0
2200,8120901046584,新規,0,2022-10-06,2022-10-06,株式会社Ｐａｄｄｌｅ,,株式会社,大阪府,吹田市,南吹田２丁目１６番２５号Ｂ,,27,205,5640043,,,,,,,2022-10-06,1,,,,,パドル,0
2203,8122001036284,新規,0,2022-10-06,2022-10-06,株式会社ＣＲＥＳＴ,,株式会社,大阪府,東大阪市,長田中１丁目２番１０号,,27,227,5770013,,,,,,,2022-10-06,1,,,,,クレスト,0
2218,8140001127507,新規,0,2022-10-06,2022-10-06,株式会社デイジー訪問看護ステーション,,株式会社,兵庫県,三木市,志染町広野２丁目９１番地,,28,215,6730541,,,,,,,2022-10-06,1,,,,,デイジーホウモンカンゴステーション,0
2219,8140001127614,新規,0,2022-10-06,2022-10-06,株式会社ライフラック,,株式会社,兵庫県,神戸市兵庫区,兵庫町１丁目４番２６号,,28,105,6520813,,,,,,,2022-10-06,1,,,,,ライフラック,0
2224,8140005026333,新規,0,2022-10-06,2022-10-06,一般社団法人いきいき会,,その他の設立登記法人,兵庫県,神戸市西区,糀台４丁目１６番地の１（４０１－１２０４号）,,28,111,6512273,,,,,,,2022-10-06,1,,,,,イキイキカイ,0
2226,8160001024537,新規,0,2022-10-06,2022-10-06,株式会社マンタロウ,,株式会社,滋賀県,甲賀市,信楽町上朝宮６２７番地１,,25,209,5291841,,,,,,,2022-10-06,1,,,,,マンタロウ,0
2227,8160001024545,新規,0,2022-10-06,2022-10-06,株式会社廣澤工業,00128028,株式会社,滋賀県,栗東市,蜂屋８９４番地（１０３号）,,25,208,5203021,,,,,,,2022-10-06,1,,,,,ヒロサワコウギョウ,0
2228,8160003002689,新規,0,2022-10-06,2022-10-06,合同会社ビーンズ,,合同会社,滋賀県,東近江市,能登川町３３２－１０,,25,213,5211231,,,,,,,2022-10-06,1,,,,,ビーンズ,0
2231,8180001153251,新規,0,2022-10-06,2022-10-06,株式会社ＴＭカンパニー,,株式会社,愛知県,名古屋市港区,小碓１丁目５６９番地,,23,111,4550801,,,,,,,2022-10-06,1,,,,,ティーエムカンパニー,0
2232,8180001153284,新規,0,2022-10-06,2022-10-06,株式会社池田,,株式会社,愛知県,名古屋市緑区,徳重３丁目１０３番地,,23,114,4580815,,,,,,,2022-10-06,1,,,,,イケダ,0
2234,8180003024310,新規,0,2022-10-06,2022-10-06,合同会社エムプロジェクト,,合同会社,愛知県,名古屋市昭和区,鶴舞３丁目１１番１号,,23,107,4660064,,,,,,,2022-10-06,1,,,,,エムプロジェクト,0
2245,8190003004105,新規,0,2022-10-06,2022-10-06,Ｒｉｃｈｅｓｓｅ合同会社,,合同会社,三重県,四日市市,諏訪栄町１１番５号,,24,202,5100086,,,,,,,2022-10-06,1,,,,,リシェス,0
2246,8200001040513,新規,0,2022-10-06,2022-10-06,株式会社ＨＡＰＰＹ　ＬＩＦＥ,,株式会社,岐阜県,岐阜市,北島２丁目７番２号（アーバンライフ１０１）,,21,201,5020911,,,,,,,2022-10-06,1,,,,,ハッピーライフ,0
2247,8200003005695,新規,0,2022-10-06,2022-10-06,合同会社さんほう,,合同会社,岐阜県,大垣市,小野１丁目１１７番地１,,21,202,5030803,,,,,,,2022-10-06,1,,,,,サンホウ,0
2249,8200005013399,新規,0,2022-10-06,2022-10-06,一般社団法人海と日本プロジェクト岐阜,,その他の設立登記法人,岐阜県,岐阜市,橋本町２丁目５２番地岐阜シティ・タワー４３－４階,,21,201,5008856,,,,,,,2022-10-06,1,,,,,ウミトニッポンプロジェクトギフ,0
2251,8220001025074,新規,0,2022-10-06,2022-10-06,Ａｔｔｉｃ　ｄｅｓｉｇｎ株式会社,,株式会社,石川県,白山市,井口町ろ３２番地１,,17,210,9202154,,,,,,,2022-10-06,1,,,,,アティックデザイン,0
2255,8240003005840,新規,0,2022-10-06,2022-10-06,合同会社七色,,合同会社,広島県,福山市,南蔵王町４丁目１７番４０号,,34,207,7210973,,,,,,,2022-10-06,1,,,,,ナナイロ,0
2256,8240005015466,新規,0,2022-10-06,2022-10-06,一般社団法人瀬戸内プロジェクトｉｎ広島,,その他の設立登記法人,広島県,広島市中区,基町２１番３号,,34,101,7300011,,,,,,,2022-10-06,1,,,,,セトウチプロジェクトインヒロシマ,0
2261,8260001037314,新規,0,2022-10-06,2022-10-06,株式会社虹色アセットマネジメント,,株式会社,岡山県,岡山市南区,当新田１１０－９,,33,104,7000956,,,,,,,2022-10-06,1,,,,,ニジイロアセットマネジメント,0
2262,8260003004056,新規,0,2022-10-06,2022-10-06,合同会社クラインバルト,,合同会社,岡山県,岡山市北区,西崎２丁目４番３号,,33,101,7000055,,,,,,,2022-10-06,1,,,,,クラインバルト,0
2267,8290001099013,新規,0,2022-10-06,2022-10-06,株式会社アスムク・セキュリティ,,株式会社,福岡県,福岡市博多区,博多駅前３丁目２３番２０－１００６号ウェルブライト博多ステーション,,40,132,8120011,,,,,,,2022-10-06,1,,,,,アスムクセキュリティ,0
2268,8290001099062,新規,0,2022-10-06,2022-10-06,株式会社倉員土建,,株式会社,福岡県,久留米市,善導寺町飯田３３８番地４,,40,203,8390824,,,,,,,2022-10-06,1,,,,,クラカズドケン,0
2269,8290001099095,新規,0,2022-10-06,2022-10-06,東光クリーンサービス株式会社,,株式会社,福岡県,福岡市博多区,堅粕４丁目２４番１８号安武ビル１Ａ,,40,132,8120043,,,,,,,2022-10-06,1,,,,,トウコウクリーンサービス,0
2270,8290001099104,新規,0,2022-10-06,2022-10-06,ＮＩＫＫＥＮホールディングス株式会社,,株式会社,福岡県,福岡市中央区,六本松３丁目１６番３３号,,40,133,8100044,,,,,,,2022-10-06,1,,,,,ニッケンホールディングス,0
2271,8290001099129,新規,0,2022-10-06,2022-10-06,株式会社ＡＮＤ　ＯＮＥ,,株式会社,福岡県,糟屋郡粕屋町,内橋西２丁目２１番１１号,,40,349,8112321,,,,,,,2022-10-06,1,,,,,アンドワン,0
2272,8290001099145,新規,0,2022-10-06,2022-10-06,株式会社うな善,,株式会社,福岡県,福岡市中央区,高砂１丁目１４番７－１号,,40,133,8100011,,,,,,,2022-10-06,1,,,,,ウナゼン,0
2273,8290001099153,新規,0,2022-10-06,2022-10-06,株式会社ｙａｃｎｅｅ,,株式会社,福岡県,福岡市中央区,大名１丁目４番１号,,40,133,8100041,,,,,,,2022-10-06,1,,,,,ヤクニー,0
2276,8290003013021,新規,0,2022-10-06,2022-10-06,ＴＨＥ　ＣＡＰＩＴＡＬ合同会社,,合同会社,福岡県,福岡市東区,箱崎１丁目２３番２２号イーストワン箱崎宮前２０３号,,40,131,8120053,,,,,,,2022-10-06,1,,,,,ザキャピタル,0
2287,8310001018069,新規,0,2022-10-06,2022-10-06,株式会社川崎ホールディングス,00128038,株式会社,長崎県,南島原市,西有家町須川１４１番地２,,42,214,8592212,,,,,,,2022-10-06,1,,,,,カワサキホールディングス,0
2290,8310005008636,新規,0,2022-10-06,2022-10-06,一般社団法人海と日本プロジェクトｉｎながさき,,その他の設立登記法人,長崎県,長崎市,金屋町１番７号,,42,201,8500037,,,,,,,2022-10-06,1,,,,,ウミトニッポンプロジェクトインナガサキ,0
2293,8330001030170,新規,0,2022-10-06,2022-10-06,株式会社雅美創,,株式会社,熊本県,熊本市東区,新南部６丁目２番１９号,,43,102,8618028,,,,,,,2022-10-06,1,,,,,ミヤビビソウ,0
2296,8340003003925,新規,0,2022-10-06,2022-10-06,合同会社ドリームハート,,合同会社,鹿児島県,鹿児島市,鴨池１丁目３５番１９号２Ｆ,,46,201,8900063,,,,,,,2022-10-06,1,,,,,ドリームハート,0
2298,8350001017983,新規,0,2022-10-06,2022-10-06,株式会社吉田産業,,株式会社,宮崎県,宮崎市,高岡町浦之名２７３２番地１４,,45,201,8802323,,,,,,,2022-10-06,1,,,,,ヨシダサンギョウ,0
2299,8350003004187,新規,0,2022-10-06,2022-10-06,ｔｅｔｏｔｅｏ合同会社,,合同会社,宮崎県,宮崎市,青島６丁目１１番２６号,,45,201,8892162,,,,,,,2022-10-06,1,,,,,テトテヲ,0
2300,8360003012354,新規,0,2022-10-06,2022-10-06,合同会社ミチクリーン,,合同会社,沖縄県,中頭郡嘉手納町,字嘉手納２８９真壁１階西,,47,325,9040203,,,,,,,2022-10-06,1,,,,,ミチクリーン,0
2304,8370001049109,新規,0,2022-10-06,2022-10-06,株式会社サンイチ不動産,,株式会社,宮城県,仙台市太白区,向山２丁目２番２２号,,04,104,9820841,,,,,,,2022-10-06,1,,,,,サンイチフドウサン,0
2305,8370003005844,新規,0,2022-10-06,2022-10-06,合同会社ＩＺＭＫＬ,,合同会社,宮城県,仙台市青葉区,花京院２丁目１－６１アークツリー仙台１Ｆ２Ｆ,,04,101,9800013,,,,,,,2022-10-06,1,,,,,イズミカル,0
2308,8390001017047,新規,0,2022-10-06,2022-10-06,株式会社ミライズ,,株式会社,山形県,山形市,白山１丁目５番２３号フォレスト１１２号室,,06,201,9902446,,,,,,,2022-10-06,1,,,,,ミライズ,0
2309,8390003002006,新規,0,2022-10-06,2022-10-06,とんぼ合同会社,,合同会社,山形県,山形市,小白川町２丁目２番１７号,,06,201,9900021,,,,,,,2022-10-06,1,,,,,トンボ,0
2311,8400001016014,新規,0,2022-10-06,2022-10-06,株式会社ＮＡＮＡＢＩＹＯＲＩ,,株式会社,岩手県,盛岡市,東松園４丁目５番７号,,03,201,0200106,,,,,,,2022-10-06,1,,,,,ナナビヨリ,0
2315,8430001087630,新規,0,2022-10-06,2022-10-06,株式会社キメラ,,株式会社,北海道,札幌市北区,あいの里一条６丁目２番１－６０１号,,01,102,0028071,,,,,,,2022-10-06,1,,,,,キメラ,0
2322,8500001024510,新規,0,2022-10-06,2022-10-06,かんちゃん農園株式会社,,株式会社,愛媛県,西予市,宇和町郷内１６３２番地,,38,214,7970025,,,,,,,2022-10-06,1,,,,,カンチャンノウエン,0
2334,9010001229926,新規,0,2022-10-06,2022-10-06,株式会社セカンドステップ,,株式会社,東京都,中央区,銀座１丁目２２番１１号銀座大竹ビジデンス２階,,13,102,1040061,,,,,,,2022-10-06,1,,,,,セカンドステップ,0
2341,9010003038821,新規,0,2022-10-06,2022-10-06,府中四谷五丁目合同会社,,合同会社,東京都,中央区,日本橋１丁目４番１号,,13,102,1030027,,,,,,,2022-10-06,1,,,,,フチュウヨツヤゴチョウメ,0
2342,9010005035627,新規,0,2022-10-06,2022-10-06,税理士法人田辺綜合会計事務所,,その他の設立登記法人,東京都,文京区,湯島３丁目１６番１２号,,13,105,1130034,,,,,,,2022-10-06,1,,,,,タナベソウゴウカイケイジムショ,0
2343,9010005035635,新規,0,2022-10-06,2022-10-06,一般社団法人タチバナストリート,,その他の設立登記法人,東京都,千代田区,神田神保町１丁目１１番地さくら綜合事務所内,,13,101,1010051,,,,,,,2022-10-06,1,,,,,タチバナストリート,0
2344,9010101015350,新規,0,2022-10-06,2022-10-06,株式会社ココカラホールディングス,,株式会社,東京都,八王子市,寺町６９番地,,13,201,1920073,,,,,,,2022-10-06,1,,,,,ココカラホールディングス,0
2350,9010401170060,新規,0,2022-10-06,2022-10-06,株式会社リブライト,,株式会社,東京都,港区,虎ノ門３丁目１４番１－２１０１号,,13,103,1050001,,,,,,,2022-10-06,1,,,,,リブライト,0
2351,9010401170093,新規,0,2022-10-06,2022-10-06,Ｓｋｙｐｏｒｔｓ株式会社,,株式会社,東京都,港区,元麻布３丁目１番６号,,13,103,1060046,,,,,,,2022-10-06,1,,,,,スカイポーツ,0
2352,9010403028637,新規,0,2022-10-06,2022-10-06,合同会社デジタイズＸ,,合同会社,東京都,港区,虎ノ門５丁目１１番１３号虎ノ門ＲＩＣＨビル５階,,13,103,1050001,,,,,,,2022-10-06,1,,,,,デジタイズエックス,0
2359,9010603009759,新規,0,2022-10-06,2022-10-06,合同会社ＴＲ,,合同会社,東京都,江東区,有明１丁目４番２０－２８０２号,,13,108,1350063,,,,,,,2022-10-06,1,,,,,ティーアール,0
2367,9010803004304,新規,0,2022-10-06,2022-10-06,合同会社インテリア黒川,,合同会社,東京都,大田区,山王２丁目１番８－３１５号,,13,111,1430023,,,,,,,2022-10-06,1,,,,,インテリアクロカワ,0
2369,9010901051735,新規,0,2022-10-06,2022-10-06,株式会社ＴＲＹＦＩＴ,,株式会社,東京都,世田谷区,玉川３丁目２０番４号グランフォレ２Ｄ,,13,112,1580094,,,,,,,2022-10-06,1,,,,,トライフィット,0
2371,9010903007685,新規,0,2022-10-06,2022-10-06,合同会社ＳＴＯＮＥ　ＰＬＵＳ,,合同会社,東京都,世田谷区,深沢４丁目２１番９号,,13,112,1580081,,,,,,,2022-10-06,1,,,,,ストーンプラス,0
2372,9010903007693,新規,0,2022-10-06,2022-10-06,合同会社パキラハウス,,合同会社,東京都,世田谷区,玉川３丁目１番１８－２５０３号,,13,112,1580094,,,,,,,2022-10-06,1,,,,,パキラハウス,0
2374,9011001150031,新規,0,2022-10-06,2022-10-06,株式会社ＳＴＥＥＲ,,株式会社,東京都,目黒区,下目黒２丁目１４番２０号ＷＪＨａｕｓ－５０２,,13,110,1530064,,,,,,,2022-10-06,1,,,,,ステア,0
2375,9011001150122,新規,0,2022-10-06,2022-10-06,株式会社ＳＡＮＤＹＳ,,株式会社,東京都,渋谷区,神宮前３丁目２４番３号桑原ビル２Ｂ,,13,113,1500001,,,,,,,2022-10-06,1,,,,,サンディーズ,0
2383,9011401024586,新規,0,2022-10-06,2022-10-06,株式会社サードキャリア,,株式会社,東京都,板橋区,板橋２丁目６４番２－８０５号,,13,119,1730004,,,,,,,2022-10-06,1,,,,,サードキャリア,0
2387,9011705001752,新規,0,2022-10-06,2022-10-06,司法書士法人ファーストライン,,その他の設立登記法人,東京都,江戸川区,西小岩３丁目１９番８号クレセントマンション４０２,,13,123,1330057,,,,,,,2022-10-06,1,,,,,ファーストライン,0
2389,9012401039723,新規,0,2022-10-06,2022-10-06,株式会社パクトス,,株式会社,東京都,府中市,南町４丁目１５－２,,13,206,1830026,,,,,,,2022-10-06,1,,,,,パクトス,0
2391,9012403005616,新規,0,2022-10-06,2022-10-06,テネメント合同会社,,合同会社,東京都,武蔵野市,吉祥寺東町２丁目３９番８号,,13,203,1800002,,,,,,,2022-10-06,1,,,,,テネメント,0
2393,9012703002552,新規,0,2022-10-06,2022-10-06,スリーコンペティション合同会社,,合同会社,東京都,西東京市,南町２丁目１２番４９－１０１号,,13,229,1880012,,,,,,,2022-10-06,1,,,,,スリーコンペティション,0
2394,9013101009025,新規,0,2022-10-06,2022-10-06,ａｉｍ株式会社,,株式会社,東京都,福生市,東町２番地１五十番ビル３階,,13,218,1970021,,,,,,,2022-10-06,1,,,,,アイム,0
2395,9013105001812,新規,0,2022-10-06,2022-10-06,医療法人社団八重壽,,その他の設立登記法人,東京都,あきる野市,秋川２丁目１番１号壽ビル２階,,13,228,1970804,,,,,,,2022-10-06,1,,,,,ヤエス,0
2397,9013301049754,新規,0,2022-10-06,2022-10-06,日創資本株式会社,,株式会社,東京都,豊島区,巣鴨３丁目２５番２号Ａ．Ｙビル４Ｆ,,13,116,1700002,,,,,,,2022-10-06,1,,,,,ニチソウシホン,0
2398,9013301049762,新規,0,2022-10-06,2022-10-06,株式会社ｌａｕｇｈ．,,株式会社,東京都,豊島区,高田３丁目１４番２９号ＫＤＸ高田馬場ビル５階,,13,116,1710033,,,,,,,2022-10-06,1,,,,,ラフドット,0
2402,9020001148381,新規,0,2022-10-06,2022-10-06,Ｍ．Ｔ株式会社,,株式会社,神奈川県,川崎市幸区,下平間１０７番地１トーコープライム２０１,,14,132,2120053,,,,,,,2022-10-06,1,,,,,エムティ,0
2403,9020001148415,新規,0,2022-10-06,2022-10-06,Ｃ‐ｅｉｇｈｔ株式会社,,株式会社,神奈川県,川崎市川崎区,駅前本町１１番地２川崎フロンティアビル４階,,14,131,2100007,,,,,,,2022-10-06,1,,,,,シーエイト,0
2404,9020001148464,新規,0,2022-10-06,2022-10-06,株式会社じんべいグローバルホールディングス,,株式会社,神奈川県,横浜市戸塚区,戸塚町１６番地１戸塚西口共同ビルＢ４１４,,14,110,2440003,,,,,,,2022-10-06,1,,,,,ジンベイグローバルホールディングス,0
2412,9021003012212,新規,0,2022-10-06,2022-10-06,合同会社アイ・スキャッツ,,合同会社,神奈川県,相模原市南区,相模台２丁目２番２号ガーデンビルＩＩ３階フェルゴ内,00128021,14,153,2520321,,,,,,,2022-10-06,1,,,,,アイスキャッツ,0
2416,9030001150378,新規,0,2022-10-06,2022-10-06,株式会社Ｇｅｎｋｉリレーションズ,,株式会社,埼玉県,さいたま市大宮区,桜木町１丁目１１番地９,,11,103,3300854,,,,,,,2022-10-06,1,,,,,ゲンキリレーションズ,0
2417,9030001150386,新規,0,2022-10-06,2022-10-06,株式会社未来デザインカンパニー,,株式会社,埼玉県,さいたま市大宮区,桜木町４丁目９６６番地,,11,103,3300854,,,,,,,2022-10-06,1,,,,,ミライデザインカンパニー,0
2418,9030001150411,新規,0,2022-10-06,2022-10-06,ヤシオホーム株式会社,,株式会社,埼玉県,八潮市,大字浮塚４１８番地６,,11,234,3400835,,,,,,,2022-10-06,1,,,,,ヤシオホーム,0
2420,9030003020315,新規,0,2022-10-06,2022-10-06,合同会社つばめアセット,,合同会社,埼玉県,熊谷市,新堀７３８番地１,,11,202,3600841,,,,,,,2022-10-06,1,,,,,ツバメアセット,0
2424,9040001125296,新規,0,2022-10-06,2022-10-06,株式会社Ｍａｔｅｓｈｉｐ　Ｉｎｔｅｇｒａｔｅ,,株式会社,千葉県,千葉市中央区,新千葉１丁目７番２号ペリエ＋ｐｌｕｓビル３Ｆ,,12,101,2600031,,,,,,,2022-10-06,1,,,,,マイトシップインテグレート,0
2425,9040001125338,新規,0,2022-10-06,2022-10-06,株式会社ストラボ,,株式会社,千葉県,成田市,公津の杜３丁目６番地４公津タウンビル３Ｆ,,12,211,2860048,,,,,,,2022-10-06,1,,,,,ストラボ,0
2426,9040001125346,新規,0,2022-10-06,2022-10-06,株式会社ハウスアート,,株式会社,千葉県,野田市,西三ケ尾４８４番地の８７,,12,208,2780015,,,,,,,2022-10-06,1,,,,,ハウスアート,0
2431,9050001051756,新規,0,2022-10-06,2022-10-06,株式会社アスリード総合保険事務所,,株式会社,茨城県,北茨城市,中郷町松井１６９番地１７,,08,215,3191557,,,,,,,2022-10-06,1,,,,,アスリードソウゴウホケンジムショ,0
2432,9050003006898,新規,0,2022-10-06,2022-10-06,合同会社ＦＴＳ,,合同会社,茨城県,水戸市,白梅２丁目６番６－７０５号サーパス水戸駅南平和公園,,08,201,3100804,,,,,,,2022-10-06,1,,,,,エフティーエス,0
2438,9060001035329,新規,0,2022-10-06,2022-10-06,丸晴林業株式会社,,株式会社,栃木県,那須塩原市,三区町６３８番地５８,,09,213,3292745,,,,,,,2022-10-06,1,,,,,マルセイリンギョウ,0
2443,9070001039700,新規,0,2022-10-06,2022-10-06,株式会社パワーでんきイノベーション,,株式会社,群馬県,高崎市,中尾町１２９９番地１,,10,202,3700001,,,,,,,2022-10-06,1,,,,,パワーデンキイノベーション,0
2444,9070001039709,新規,0,2022-10-06,2022-10-06,内田圧送株式会社,,株式会社,群馬県,前橋市,上細井町６９２番地１,,10,201,3710051,,,,,,,2022-10-06,1,,,,,ウチダアッソウ,0
2446,9080101023561,新規,0,2022-10-06,2022-10-06,株式会社ＫＭＲ,,株式会社,静岡県,伊東市,川奈１２２８番地の１０８,,22,208,4140044,,,,,,,2022-10-06,1,,,,,ケイエムアール,0
2452,9090001017803,新規,0,2022-10-06,2022-10-06,株式会社ＳＫＹアセットソリューション,,株式会社,山梨県,甲府市,丸の内２丁目１４番１３号ダイタビル５階,,19,201,4000031,,,,,,,2022-10-06,1,,,,,スカイアセットソリューション,0
2455,9100001035753,新規,0,2022-10-06,2022-10-06,ＫＲＡＹＳ株式会社,,株式会社,長野県,上田市,蒼久保４１８番地２,,20,203,3860155,,,,,,,2022-10-06,1,,,,,クレイス,0
2456,9100001035761,新規,0,2022-10-06,2022-10-06,羽入田木工株式会社,,株式会社,長野県,長野市,大字大町１０５３番地８,,20,201,3810004,,,,,,,2022-10-06,1,,,,,ハニュウダモッコウ,0
2461,9110003004887,新規,0,2022-10-06,2022-10-06,合同会社ブルーフェニックス,,合同会社,新潟県,長岡市,呉服町１丁目２番地１,,15,202,9400056,,,,,,,2022-10-06,1,,,,,ブルーフェニックス,0
2475,9120001249269,新規,0,2022-10-06,2022-10-06,Ｈ＆Ｚ株式会社,,株式会社,大阪府,大阪市中央区,松屋町９番２０号ローレルステート松屋町６０４Ａ,,27,128,5420067,,,,,,,2022-10-06,1,,,,,エイチアンドゼット,0
2476,9120001249302,新規,0,2022-10-06,2022-10-06,株式会社リーガル・アセット・マネジメント,,株式会社,大阪府,大阪市北区,梅田１丁目２番２－２００号大阪駅前第２ビル２階３－１－２,,27,127,5300001,,,,,,,2022-10-06,1,,,,,リーガルアセットマネジメント,0
2477,9120001249335,新規,0,2022-10-06,2022-10-06,株式会社ルーセント,,株式会社,大阪府,大阪市西区,靱本町２丁目４－７－４Ｆ,,27,106,5500004,,,,,,,2022-10-06,1,,,,,ルーセント,0
2478,9120001249351,新規,0,2022-10-06,2022-10-06,株式会社かわい,,株式会社,大阪府,大阪市鶴見区,鶴見１丁目７－７－１５０６,,27,124,5380053,,,,,,,2022-10-06,1,,,,,カワイ,0
2484,9120003022566,新規,0,2022-10-06,2022-10-06,ＮＧＯＣ　ＴＨＡＮＨ　ＧＲＯＵＰ合同会社,,合同会社,大阪府,大阪市浪速区,大国３丁目１０番２０－１０１号,,27,111,5560014,,,,,,,2022-10-06,1,,,,,ゴックタングループ,0
2491,9120101066333,新規,0,2022-10-06,2022-10-06,株式会社ケーエムホーム,,株式会社,大阪府,堺市西区,浜寺諏訪森町東２丁１０９番地,,27,144,5928349,,,,,,,2022-10-06,1,,,,,ケーエムホーム,0
2496,9120901046575,新規,0,2022-10-06,2022-10-06,株式会社Ｍ’ｓ　ＢＡＳＥ,,株式会社,大阪府,池田市,槻木町７番１１号２階,,27,204,5630057,,,,,,,2022-10-06,1,,,,,エムズベース,0
2507,9140001127530,新規,0,2022-10-06,2022-10-06,株式会社Ｚ　Ｐｒｏｄｕｃｔｉｏｎｓ,,株式会社,兵庫県,神戸市東灘区,向洋町中１丁目１７アジアワンセンター３０５号室,,28,101,6580032,,,,,,,2022-10-06,1,,,,,ゼットプロダクションス,0
2508,9140001127596,新規,0,2022-10-06,2022-10-06,株式会社志水工務店,,株式会社,兵庫県,神崎郡福崎町,西治４１２番地１０,,28,443,6792215,,,,,,,2022-10-06,1,,,,,シミズコウムテン,0
2512,9140005026332,新規,0,2022-10-06,2022-10-06,一般社団法人つむぎ,,その他の設立登記法人,兵庫県,西宮市,本町９番８号,,28,204,6620914,,,,,,,2022-10-06,1,,,,,ツムギ,0
2515,9160001024536,新規,0,2022-10-06,2022-10-06,株式会社コンフォートフーズふくなが,,株式会社,滋賀県,守山市,守山２丁目３番７号,,25,207,5240022,,,,,,,2022-10-06,1,,,,,コンフォートフーズフクナガ,0
2516,9160001024544,新規,0,2022-10-06,2022-10-06,株式会社ＮＥＸＴ　ＩＮＮＯＶＡＴＩＯＮ,,株式会社,滋賀県,彦根市,高宮町９３－４,,25,202,5220201,,,,,,,2022-10-06,1,,,,,ネクストイノベーション,0
2519,9180001153201,新規,0,2022-10-06,2022-10-06,株式会社ゆいまーる,,株式会社,愛知県,名古屋市千種区,向陽町２丁目１６番地,,23,101,4640062,,,,,,,2022-10-06,1,,,,,ユイマール,0
2520,9180001153259,新規,0,2022-10-06,2022-10-06,株式会社エイト,,株式会社,愛知県,日進市,岩崎台２丁目３１２番地,,23,230,4700135,,,,,,,2022-10-06,1,,,,,エイト,0
2521,9180001153300,新規,0,2022-10-06,2022-10-06,株式会社ＩＴクリエイト,,株式会社,愛知県,一宮市,大和町妙興寺２３５２番地,,23,203,4910922,,,,,,,2022-10-06,1,,,,,アイティクリエイト,0
2530,9190003004104,新規,0,2022-10-06,2022-10-06,合同会社くらし伊勢,,合同会社,三重県,伊勢市,小俣町本町１５１番地,,24,203,5190505,,,,,,,2022-10-06,1,,,,,クラシイセ,0
2532,9200001040512,新規,0,2022-10-06,2022-10-06,株式会社ＢＫ　ＮＥＸＴ,,株式会社,岐阜県,各務原市,川島松倉町２２６８番地３,,21,213,5016022,,,,,,,2022-10-06,1,,,,,ビーケーネクスト,0
2534,9200005013398,新規,0,2022-10-06,2022-10-06,特定非営利活動法人パブリック・プロサポート,,その他の設立登記法人,岐阜県,大垣市,波須２丁目１１４番地,,21,202,5030811,,,,,,,2022-10-06,1,,,,,パブリックプロサポート,0
2536,9220001025057,新規,0,2022-10-06,2022-10-06,株式会社Ｐｏｐｏｉ,,株式会社,石川県,小松市,沖町イ７０番地１‐２０１,,17,203,9230861,,,,,,,2022-10-06,1,,,,,ポポイ,0
2537,9220001025073,新規,0,2022-10-06,2022-10-06,明祥物流株式会社,,株式会社,石川県,金沢市,無量寺町ハ１番地,,17,201,9200332,,,,,,,2022-10-06,1,,,,,メイショウブツリュウ,0
2540,9230005009261,新規,0,2022-10-06,2022-10-06,税理士法人Ｓ．パートナーズ,,その他の設立登記法人,富山県,富山市,天正寺５２８番地１,,16,201,9300955,,,,,,,2022-10-06,1,,,,,エスパートナーズ,0
2543,9240001060457,新規,0,2022-10-06,2022-10-06,株式会社シーエスアド,,株式会社,広島県,広島市西区,南観音３丁目１－４－２０１号室,,34,104,7330035,,,,,,,2022-10-06,1,,,,,シーエスアド,0
2545,9240003005831,新規,0,2022-10-06,2022-10-06,菱秀興産合同会社,,合同会社,広島県,広島市東区,牛田東１丁目１番２４号,,34,102,7320063,,,,,,,2022-10-06,1,,,,,リョウシュウコウサン,0
2550,9260001037305,新規,0,2022-10-06,2022-10-06,株式会社オカフジ,,株式会社,岡山県,美作市,北山１５０７番地２０３号,,33,215,7070014,,,,,,,2022-10-06,1,,,,,オカフジ,0
2551,9260003004055,新規,0,2022-10-06,2022-10-06,合同会社ＯＫＡＳＹＯサービス,,合同会社,岡山県,岡山市中区,江崎７２２番地,,33,102,7028005,,,,,,,2022-10-06,1,,,,,オカショーサービス,0
2552,9260005011149,新規,0,2022-10-06,2022-10-06,特定非営利活動法人ここから井原の会,,その他の設立登記法人,岡山県,井原市,井原町３５４番地５,,33,207,7150019,,,,,,,2022-10-06,1,,,,,ココカライバラノカイ,0
2559,9290001099061,新規,0,2022-10-06,2022-10-06,株式会社ユーズ,,株式会社,福岡県,久留米市,荒木町荒木９５８番地１,,40,203,8300063,,,,,,,2022-10-06,1,,,,,ユーズ,0
2560,9290001099086,新規,0,2022-10-06,2022-10-06,株式会社ティール,,株式会社,福岡県,糸島市,志摩芥屋１０６２番地,,40,230,8191335,,,,,,,2022-10-06,1,,,,,ティール,0
2561,9290001099094,新規,0,2022-10-06,2022-10-06,株式会社ＳＤＩ,,株式会社,福岡県,福岡市南区,大楠２丁目２０番１－５０２号,,40,134,8150082,,,,,,,2022-10-06,1,,,,,エスディアイ,0
2562,9290001099103,新規,0,2022-10-06,2022-10-06,株式会社ＣＡＥＲＡＮＡ,,株式会社,福岡県,福岡市博多区,御供所町１１番３５号,,40,132,8120037,,,,,,,2022-10-06,1,,,,,カエラナ,0
2563,9290001099144,新規,0,2022-10-06,2022-10-06,株式会社オール・コネクション,,株式会社,福岡県,福岡市南区,筑紫丘１丁目１７番３６－１１０号,,40,134,8150036,,,,,,,2022-10-06,1,,,,,オールコネクション,0
2566,9290801028938,新規,0,2022-10-06,2022-10-06,株式会社ＱＵＡＲＩＳ,,株式会社,福岡県,北九州市小倉南区,葛原５丁目６番７号,,40,107,8000251,,,,,,,2022-10-06,1,,,,,クオリス,0
2567,9290801028954,新規,0,2022-10-06,2022-10-06,株式会社ＷＭサポート,,株式会社,福岡県,北九州市若松区,本町２丁目７番１４号,,40,103,8080034,,,,,,,2022-10-06,1,,,,,ダブリューエムサポート,0
2572,9300001013086,新規,0,2022-10-06,2022-10-06,株式会社いっしん,,株式会社,佐賀県,鳥栖市,轟木町１３８１－１,,41,203,8410061,,,,,,,2022-10-06,1,,,,,イッシン,0
2575,9310001018068,新規,0,2022-10-06,2022-10-06,株式会社うらかわ動物病院,,株式会社,長崎県,諫早市,栄田町２７番３０号,,42,204,8540081,,,,,,,2022-10-06,1,,,,,ウラカワドウブツビョウイン,0
2578,9320001019362,新規,0,2022-10-06,2022-10-06,株式会社ジョイナス,,株式会社,大分県,大分市,原新町６番１５号,,44,201,8700912,,,,,,,2022-10-06,1,,,,,ジョイナス,0
2579,9330003009534,新規,0,2022-10-06,2022-10-06,合同会社フォー,,合同会社,熊本県,熊本市中央区,新大江３丁目１４番２８号,,43,101,8620972,,,,,,,2022-10-06,1,,,,,,0
2586,9390001017046,新規,0,2022-10-06,2022-10-06,株式会社エスプロ電気設計,,株式会社,山形県,山形市,早乙女９番地３,,06,201,9900003,,,,,,,2022-10-06,1,,,,,エスプロデンキセッケイ,0
2595,9500001024518,新規,0,2022-10-06,2022-10-06,株式会社ギミックス,,株式会社,愛媛県,松山市,中村１丁目３番４号,,38,201,7900964,,,,,,,2022-10-06,1,,,,,ギミックス,0
2597,9500003002901,新規,0,2022-10-06,2022-10-06,合同会社リロード,,合同会社,愛媛県,西条市,野々市５番地１,,38,206,7930066,,,,,,,2022-10-06,1,,,,,リロード,0
