sequenceNumber,corporateNumber,process,correct,updateDate,changeDate,name,nameImageId,kind,prefectureName,cityName,streetNumber,addressImageId,prefectureCode,cityCode,postCode,addressOutside,addressOutsideImageId,closeDate,closeCause,successorCorporateNumber,changeCause,assignmentDate,latest,enName,enPrefectureName,enCityName,enAddressOutside,furigana,hihyoji
7,1010001109870,登記記録の閉鎖等,0,2021-11-15,2021-11-09,ステラトレーディング株式会社,,株式会社,東京都,中央区,銀座７丁目１２番４号,,13,102,1040061,,,2021-11-09,清算の結了等,,,2015-10-05,1,,,,,,0
13,1010001205091,登記記録の閉鎖等,0,2021-11-15,2021-11-09,株式会社ＴＯＰ,,株式会社,東京都,中央区,銀座３丁目１４番１３号第一厚生館ビル,,13,102,1040061,,,2021-11-09,清算の結了等,,,2019-11-08,1,,,,,ティーオーピー,0
18,1010401031047,登記記録の閉鎖等,0,2021-11-15,2021-11-01,株式会社ブギー・ヴォックス,,株式会社,東京都,港区,南青山１丁目８番１８号,,13,103,1070062,,,2021-11-01,合併による解散等,3010401028594,令和３年１１月１日東京都港区南青山一丁目８番１８号株式会社ミスター・ミュージック（3010401028594）に合併し解散,2015-10-05,1,,,,,ブギーブォックス,0
39,1011001051253,登記記録の閉鎖等,0,2021-11-15,2021-11-08,株式会社フラッグシップ,,株式会社,東京都,狛江市,猪方４丁目３番５号,,13,219,2010015,,,2021-11-08,清算の結了等,,,2015-10-05,1,,,,,フラッグシップ,0
57,1011202006758,登記記録の閉鎖等,0,2021-11-15,2021-11-09,有限会社リバーウェル,,有限会社,東京都,中野区,中央３丁目１番３号,,13,114,1640011,,,2021-11-09,清算の結了等,,,2015-10-05,1,,,,,リバーウェル,0
101,1030002002874,登記記録の閉鎖等,0,2021-11-15,2021-11-09,有限会社大木屋衣料店,,有限会社,埼玉県,さいたま市中央区,大字下落合１７１１番地１１１号,,11,105,3380002,,,2021-11-09,清算の結了等,,,2015-10-05,1,,,,,オオキヤイリョウテン,0
108,1030005010924,登記記録の閉鎖等,0,2021-11-15,2021-10-27,天理教越生分教会,,その他の設立登記法人,埼玉県,入間郡越生町,大字西和田２２１番地,,11,327,3500412,,,2021-10-27,合併による解散等,3030005010988,令和３年１０月２７日埼玉県入間郡毛呂山町大字葛貫１３０番地天理教武藏野分教会（3030005010988）に合併し解散,2015-10-05,1,,,,,テンリキョウオゴセブンキョウカイ,0
109,1030005012004,登記記録の閉鎖等,0,2021-11-15,2021-11-08,塗布型機能デバイス技術研究組合,,その他の設立登記法人,東京都,豊島区,東池袋５丁目７番３号,,13,116,1700013,,,2021-11-08,清算の結了等,,,2015-10-05,1,,,,,トフガタキノウデバイス,0
110,1040001024828,登記記録の閉鎖等,0,2021-11-15,2021-11-05,株式会社泰康,,株式会社,千葉県,船橋市,西船７丁目３番９号,,12,204,2730031,,,2021-11-05,清算の結了等,,,2015-10-05,1,,,,,タイコウ,0
120,1040001072430,登記記録の閉鎖等,0,2021-11-15,2021-11-08,株式会社シリウス・イング,,株式会社,千葉県,野田市,七光台２３７番地の２５,,12,208,2780051,,,2021-11-08,清算の結了等,,,2015-10-05,1,,,,,シリウスイング,0
139,1060002014660,登記記録の閉鎖等,0,2021-11-15,2021-11-08,有限会社井上建設,,有限会社,栃木県,日光市,板橋２０８番地,,09,206,3211102,,,2021-11-08,清算の結了等,,,2015-10-05,1,,,,,イノウエケンセツ,0
146,1080102002126,登記記録の閉鎖等,0,2021-11-15,2021-11-10,有限会社大成堂薬局,,有限会社,静岡県,沼津市,多比１番地の８,,22,203,4100101,,,2021-11-10,清算の結了等,,,2015-10-05,1,,,,,タイセイドウヤッキョク,0
147,1080401014656,登記記録の閉鎖等,0,2021-11-15,2021-11-10,株式会社タカツカ,,株式会社,静岡県,御前崎市,白羽５８３２番地の１,,22,223,4371622,,,2021-11-10,清算の結了等,,,2015-10-05,1,,,,,タカツカ,0
150,1080405006451,登記記録の閉鎖等,0,2021-11-15,2021-11-10,特定非営利活動法人スマートライフ・とおとうみ,,その他の設立登記法人,静岡県,磐田市,城之崎１丁目１２番地６,,22,211,4380084,,,2021-11-10,清算の結了等,,,2015-10-05,1,,,,,スマートライフトオトウミ,0
157,1120001034678,登記記録の閉鎖等,0,2021-11-15,2021-11-10,河内屋乾青果株式会社,,株式会社,大阪府,大阪市福島区,野田１丁目１番８６号,,27,103,5530005,,,2021-11-10,清算の結了等,,,2015-10-05,1,,,,,カワチヤイヌイセイカ,0
159,1120001061879,登記記録の閉鎖等,0,2021-11-15,2021-11-10,株式会社エムアンドティ,,株式会社,大阪府,大阪市北区,鶴野町３番９－２９０５号,,27,127,5300014,,,2021-11-10,清算の結了等,,,2015-10-05,1,,,,,エムアンドティ,0
199,1140002060093,登記記録の閉鎖等,0,2021-11-15,2021-11-10,有限会社オレンジ薬局,,有限会社,兵庫県,西宮市,田中町３番１号,,28,204,6620973,,,2021-11-10,合併による解散等,7430001069398,令和３年１１月１日札幌市白石区東札幌五条二丁目４番３０号株式会社アインファーマシーズ（7430001069398）に合併し解散,2015-10-05,1,,,,,オレンジヤッキョク,0
210,1180001138119,登記記録の閉鎖等,0,2021-11-15,2021-11-10,株式会社アイアール設備,,株式会社,愛知県,名古屋市西区,名駅２丁目３４番１７号セントラル名古屋１１０１,,23,104,4510045,,,2021-11-10,清算の結了等,,,2019-09-13,1,,,,,アイアールセツビ,0
214,1180002036552,登記記録の閉鎖等,0,2021-11-15,2021-11-08,ホースクラッチ有限会社,,有限会社,愛知県,名古屋市中区,栄３丁目２１番２７号,,23,106,4600008,,,2021-11-08,清算の結了等,,,2015-10-05,1,,,,,ホースクラッチ,0
216,1180002066574,登記記録の閉鎖等,0,2021-11-15,2021-11-08,有限会社建物リースセンター,,有限会社,愛知県,春日井市,岩野町１丁目４９番地,,23,206,4860805,,,2021-11-08,清算の結了等,,,2015-10-05,1,,,,,タテモノリースセンター,0
223,1180301017963,登記記録の閉鎖等,0,2021-11-15,2021-11-09,株式会社エヌケイティー,,株式会社,愛知県,名古屋市西区,枇杷島５丁目１９番１６号,,23,104,4510053,,,2021-11-09,清算の結了等,,,2015-10-05,1,,,,,エヌケイティー,0
241,1200005003811,登記記録の閉鎖等,0,2021-11-15,2021-10-29,天理教真昭実分教会,,その他の設立登記法人,岐阜県,羽島市,竹鼻町狐穴３４３７番地の１,,21,209,5016232,,,2021-10-29,合併による解散等,2200005003810,令和３年１０月２９日岐阜県羽島郡笠松町松栄町１０１番地天理教眞昭分教会（2200005003810）に合併し解散,2015-10-05,1,,,,,テンリキョウシンショウジツブンキョウカイ,0
281,1310002015567,登記記録の閉鎖等,0,2021-11-15,2021-11-12,有限会社丸安,,有限会社,長崎県,諫早市,白岩町４４番地８,,42,204,8540077,,,2021-11-12,清算の結了等,,,2015-10-05,1,,,,,マルヤス,0
307,1470003000503,登記記録の閉鎖等,0,2021-11-15,2021-10-29,マルシマ商事合資会社,,合資会社,香川県,小豆郡土庄町,淵崎甲２０７０番地の１,,37,322,7614121,,,2021-10-29,合併による解散等,8470001004648,令和３年１０月２９日香川県小豆郡土庄町淵崎甲２０７０番地の１株式会社パオ・フィール（8470001004648）に合併し解散,2015-10-05,1,,,,,マルシマショウジ,0
313,2010001005862,登記記録の閉鎖等,0,2021-11-15,2021-11-02,日本カリブシツピング株式会社,,株式会社,東京都,港区,芝公園２丁目１１番１号,,13,103,1050011,,,2021-11-02,清算の結了等,,,2015-10-05,1,,,,,ニホンカリブシツピング,0
324,2010001220065,登記記録の閉鎖等,0,2021-11-15,2021-11-10,株式会社高眞商事,00123806,株式会社,東京都,千代田区,麹町３丁目１２番１２号麹町Ｍビル,,13,101,1020083,,,2021-11-10,合併による解散等,3011501000708,令和３年１１月１日東京都北区赤羽一丁目５２番１０号株式会社アップルパーク（3011501000708）に合併し解散,2021-08-02,1,,,,,コウシンショウジ,0
329,2010003029521,登記記録の閉鎖等,0,2021-11-15,2021-11-10,ＦＩＥＬＤ合同会社,,合同会社,東京都,千代田区,東神田１丁目６番８号メゾン・ド・ヴィレ東神田１００５号,,13,101,1010031,,,2021-11-10,清算の結了等,,,2019-03-20,1,,,,,フィールド,0
332,2010401114313,登記記録の閉鎖等,0,2021-11-15,2021-11-04,Ｐｌａｙｔｉｋａ株式会社,,株式会社,東京都,港区,愛宕２丁目５番１号愛宕グリーンヒルズ森タワー３９階,,13,103,1050002,,,2021-11-04,清算の結了等,,,2015-10-05,1,,,,,プレイティカ,0
351,2010403022786,登記記録の閉鎖等,0,2021-11-15,2021-10-28,合同会社オフィス・ノーハドル,,合同会社,東京都,港区,浜松町２丁目２番１５号浜松町ダイヤビル２Ｆ,,13,103,1050013,,,2021-10-28,清算の結了等,,,2020-04-06,1,,,,,オフィスノーハドル,0
368,2010901021554,登記記録の閉鎖等,0,2021-11-15,2021-11-11,株式会社Ｍ,,株式会社,東京都,世田谷区,代沢２丁目１０番５号,,13,112,1550032,,,2021-11-11,清算の結了等,,,2015-10-05,1,,,,,エム,0
384,2011201012764,登記記録の閉鎖等,0,2021-11-15,2021-11-10,株式会社サンテライト,,株式会社,東京都,中野区,中央５丁目１４番４－２０８号,,13,114,1640011,,,2021-11-10,清算の結了等,,,2015-10-05,1,,,,,サンテライト,0
393,2011601016472,登記記録の閉鎖等,0,2021-11-15,2021-11-10,株式会社文教,,株式会社,東京都,練馬区,土支田１丁目６番１６号,,13,120,1790076,,,2021-11-10,清算の結了等,,,2015-10-05,1,,,,,ブンキョウ,0
411,2020002007881,登記記録の閉鎖等,0,2021-11-15,2021-11-10,有限会社国喜商事,,有限会社,神奈川県,横浜市金沢区,谷津町３７６番地,,14,108,2360016,,,2021-11-10,清算の結了等,,,2015-10-05,1,,,,,クニヨシショウジ,0
414,2021001059716,登記記録の閉鎖等,0,2021-11-15,2021-11-11,信和株式会社,,株式会社,神奈川県,平塚市,袖ケ浜１６番８号,,14,203,2540813,,,2021-11-11,清算の結了等,,,2016-07-07,1,,,,,シンワ,0
422,2030001057118,登記記録の閉鎖等,0,2021-11-15,2021-11-08,株式会社澁谷製作所,,株式会社,埼玉県,ふじみ野市,亀久保２１８８番地,,11,245,3560051,,,2021-11-08,清算の結了等,,,2015-10-05,1,,,,,シブヤセイサクショ,0
431,2030002035700,登記記録の閉鎖等,0,2021-11-15,2021-11-08,有限会社にしの園,,有限会社,埼玉県,入間市,大字新久７２６番地,,11,225,3580031,,,2021-11-08,清算の結了等,,,2015-10-05,1,,,,,ニシノエン,0
441,2040003007821,登記記録の閉鎖等,0,2021-11-15,2021-11-08,合同会社クラウドアシスト,,合同会社,千葉県,印西市,若萩３丁目２３番地４,,12,231,2701609,,,2021-11-08,清算の結了等,,,2015-10-21,1,,,,,クラウドアシスト,0
446,2050002001312,登記記録の閉鎖等,0,2021-11-15,2021-11-08,有限会社小林工業,,有限会社,茨城県,水戸市,笠原町１４６９番地３,,08,201,3100852,,,2021-11-08,清算の結了等,,,2015-10-05,1,,,,,コバヤシコウギョウ,0
453,2060002039153,登記記録の閉鎖等,0,2021-11-15,2021-11-08,有限会社スズキ,,有限会社,栃木県,佐野市,犬伏下町２０１１番地,,09,204,3270804,,,2021-11-08,清算の結了等,,,2015-10-05,1,,,,,スズキ,0
463,2090003001027,登記記録の閉鎖等,0,2021-11-15,2021-11-10,儀生Ａ太陽光発電合同会社,,合同会社,山梨県,北杜市,小淵沢町５９９９番地,,19,209,4080044,,,2021-11-10,清算の結了等,,,2015-10-05,1,,,,,,0
464,2100001000037,登記記録の閉鎖等,0,2021-11-15,2021-11-11,株式会社青木石油店,,株式会社,長野県,長野市,安茂里小市１丁目１３番３号,,20,201,3800961,,,2021-11-11,清算の結了等,,,2015-10-05,1,,,,,アオキセキユテン,0
469,2110002002485,登記記録の閉鎖等,0,2021-11-15,2021-11-10,有限会社小堀商店,,有限会社,新潟県,新潟市中央区,緑町３３３１番地１３,,15,103,9518014,,,2021-11-10,清算の結了等,,,2015-10-05,1,,,,,,0
482,2120001190314,登記記録の閉鎖等,0,2021-11-15,2021-11-11,ツインラダー株式会社,,株式会社,大阪府,大阪市北区,天満２丁目３番４号,,27,127,5300043,,,2021-11-11,清算の結了等,,,2015-10-05,1,,,,,ツインラダー,0
483,2120001221531,登記記録の閉鎖等,0,2021-11-15,2021-11-11,株式会社ネクストステージ,,株式会社,大阪府,大阪市北区,天神橋７丁目６番９号,,27,127,5310041,,,2021-11-11,清算の結了等,,,2019-06-06,1,,,,,ネクストステージ,0
494,2120002081974,登記記録の閉鎖等,0,2021-11-15,2021-11-10,有限会社エムアイピー保険,,有限会社,大阪府,守口市,菊水通２丁目４番１６号（守口一号館３０１号）,,27,209,5700032,,,2021-11-10,清算の結了等,,,2015-10-05,1,,,,,,0
501,2130001051556,登記記録の閉鎖等,0,2021-11-15,2021-11-11,株式会社京都環境ネット,,株式会社,京都府,京都市右京区,太秦森ケ東町３８番地の１７,,26,108,6168102,,,2021-11-11,清算の結了等,,,2015-10-05,1,,,,,キョウトカンキョウネット,0
504,2140001102102,登記記録の閉鎖等,0,2021-11-15,2021-11-10,株式会社ＣＯＬＯＲＳ,,株式会社,兵庫県,神戸市中央区,御幸通８丁目１－６神戸国際会館２２階,,28,110,6510087,,,2021-11-10,清算の結了等,,,2016-05-16,1,,,,,カラーズ,0
510,2170002005904,登記記録の閉鎖等,0,2021-11-15,2021-11-10,有限会社コクト,,有限会社,大阪府,大阪市北区,天神橋２丁目北１番２３号,,27,127,5300041,,,2021-11-10,清算の結了等,,,2015-10-05,1,,,,,コクト,0
528,2180303004645,登記記録の閉鎖等,0,2021-11-15,2021-11-11,合同会社Ｇ,,合同会社,愛知県,豊橋市,松井町字松井１６４番地の４,,23,201,4418143,,,2021-11-11,清算の結了等,,,2020-06-03,1,,,,,ジー,0
535,2200001013152,登記記録の閉鎖等,0,2021-11-15,2021-11-11,株式会社浅野,,株式会社,岐阜県,大垣市,新町１丁目３９番地,,21,202,5030872,,,2021-11-11,清算の結了等,,,2015-10-05,1,,,,,アサノ,0
540,2200002019330,登記記録の閉鎖等,0,2021-11-15,2021-11-11,有限会社保険工房Ｊプラス,,有限会社,岐阜県,美濃市,１７５４番地の７,,21,207,5013701,,,2021-11-11,清算の結了等,,,2015-10-05,1,,,,,ホケンコウボウジェイプラス,0
543,2220001001832,登記記録の閉鎖等,0,2021-11-15,2021-11-11,株式会社片山電気商会,,株式会社,石川県,金沢市,野町２丁目４番１号,,17,201,9218031,,,2021-11-11,清算の結了等,,,2015-10-05,1,,,,,カタヤマデンキショウカイ,0
554,2250002016793,登記記録の閉鎖等,0,2021-11-15,2021-11-11,有限会社ブティック愛アットＲＩＫＯ,,有限会社,山口県,周南市,平和通１丁目１４,,35,215,7450015,,,2021-11-11,清算の結了等,,,2015-10-05,1,,,,,ブティックアイアットリコ,0
588,2370002004092,登記記録の閉鎖等,0,2021-11-15,2021-11-08,有限会社山一工業,,有限会社,宮城県,仙台市太白区,柳生字野添６番地,,04,104,9811106,,,2021-11-08,清算の結了等,,,2015-10-05,1,,,,,ヤマイチコウギョウ,0
589,2370603000052,登記記録の閉鎖等,0,2021-11-15,2021-11-08,合資会社仙台屋製麺所,,合資会社,宮城県,塩竈市,新富町１８番２０号,,04,203,9850022,,,2021-11-08,清算の結了等,,,2015-10-05,1,,,,,センダイヤセイメンジョ,0
592,2380003000957,登記記録の閉鎖等,0,2021-11-15,2021-11-09,合名会社永山庄七商店,,合名会社,福島県,いわき市,川前町川前字五林１４番地,,07,204,9793201,,,2021-11-09,清算の結了等,,,2015-10-05,1,,,,,ナガヤマショウシチショウテン,0
598,2410005005926,登記記録の閉鎖等,0,2021-11-15,2021-11-10,特定非営利活動法人ビオチン治療患者の会,,その他の設立登記法人,秋田県,にかほ市,平沢字新町１１０番地,,05,214,0180402,,,2021-11-10,清算の結了等,,,2015-10-05,1,,,,,ビオチンチリョウカンジャノカイ,0
599,2420002013988,登記記録の閉鎖等,0,2021-11-15,2021-11-10,有限会社ビック・リバー,,有限会社,青森県,弘前市,大字城東５丁目１６番地３,,02,202,0368095,,,2021-11-10,清算の結了等,,,2015-10-05,1,,,,,ビックリバー,0
620,3010001150996,登記記録の閉鎖等,0,2021-11-15,2021-11-10,株式会社日本マナップ,,株式会社,岐阜県,海津市,南濃町徳田４６番地１Ａ－１０１,,21,221,5030407,,,2021-11-10,清算の結了等,,,2015-10-05,1,,,,,ニホンマナップ,0
627,3010401161081,登記記録の閉鎖等,0,2021-11-15,2021-11-01,株式会社ＴＭＣ,,株式会社,東京都,港区,東麻布１丁目１０番１２号,,13,103,1060044,,,2021-11-01,合併による解散等,5010401062625,令和３年１０月３１日東京都港区東麻布一丁目１０番１２号株式会社トータルメディアコミュニケーション（5010401062625）に合併し解散,2021-06-28,1,,,,,ティーエムシー,0
636,3010501045523,登記記録の閉鎖等,0,2021-11-15,2021-11-11,株式会社美貌,,株式会社,東京都,台東区,台東１丁目３８番９号イトーピア清洲橋通ビル５Ｆ－４,,13,106,1100016,,,2021-11-11,清算の結了等,,,2020-03-31,1,,,,,ビボウ,0
638,3010502006813,登記記録の閉鎖等,0,2021-11-15,2021-11-11,有限会社タイヘイ化研工業,,有限会社,東京都,台東区,東上野３丁目１２番１１号,,13,106,1100015,,,2021-11-11,清算の結了等,,,2015-10-05,1,,,,,タイヘイカケンコウギョウ,0
639,3010602019351,登記記録の閉鎖等,0,2021-11-15,2021-11-08,有限会社光源氏,,有限会社,東京都,江東区,毛利１丁目１５番３号,,13,108,1350001,,,2021-11-08,清算の結了等,,,2015-10-05,1,,,,,ヒカルゲンジ,0
655,3011301014817,登記記録の閉鎖等,0,2021-11-15,2021-11-12,株式会社光洋,,株式会社,東京都,杉並区,成田東５丁目４２－１５ジョイフルプラザビル２Ｆ,,13,115,1660015,,,2021-11-12,清算の結了等,,,2015-10-05,1,,,,,,0
663,3011501001499,登記記録の閉鎖等,0,2021-11-15,2021-11-09,広和スポーツ株式会社,,株式会社,東京都,北区,王子２丁目５番１号,,13,117,1140002,,,2021-11-09,清算の結了等,,,2015-10-05,1,,,,,コウワスポーツ,0
683,3020001066507,登記記録の閉鎖等,0,2021-11-15,2021-11-11,株式会社高津薬局,,株式会社,神奈川県,川崎市高津区,溝口２丁目１６番８号,,14,134,2130001,,,2021-11-11,清算の結了等,,,2015-10-05,1,,,,,タカツヤッキョク,0
692,3021002059986,登記記録の閉鎖等,0,2021-11-15,2021-11-10,有限会社ヤシロ総合,,有限会社,神奈川県,平塚市,四之宮２丁目１１番４３号,,14,203,2540014,,,2021-11-10,合併による解散等,2021002059987,令和３年１１月９日神奈川県平塚市四之宮二丁目１１番４３号株式会社八代カーリース（2021002059987）に合併し解散,2015-10-05,1,,,,,ヤシロソウゴウ,0
712,3040003002020,登記記録の閉鎖等,0,2021-11-15,2021-11-08,合同会社サンベルト,,合同会社,千葉県,松戸市,松戸１３３３番地の１,,12,207,2710092,,,2021-11-08,清算の結了等,,,2015-10-05,1,,,,,サンベルト,0
720,3050001028248,登記記録の閉鎖等,0,2021-11-15,2021-11-08,株式会社東野鉄工所,,株式会社,茨城県,つくばみらい市,戸崎５６番地２,,08,235,3002322,,,2021-11-08,清算の結了等,,,2015-10-05,1,,,,,ヒガシノテッコウショ,0
728,3060002002886,登記記録の閉鎖等,0,2021-11-15,2021-11-09,有限会社カフェカピアン,,有限会社,栃木県,宇都宮市,長岡町１２５９番地３,,09,201,3200004,,,2021-11-09,清算の結了等,,,2015-10-05,1,,,,,カフェカピアン,0
730,3070001019930,登記記録の閉鎖等,0,2021-11-15,2021-11-11,日本シンコー株式会社,,株式会社,群馬県,邑楽郡大泉町,大字吉田２０７１番地３,,10,524,3700523,,,2021-11-11,清算の結了等,,,2015-10-05,1,,,,,ニホンシンコー,0
734,3080102017584,登記記録の閉鎖等,0,2021-11-15,2021-11-08,有限会社ディーエス企画,,有限会社,静岡県,富士宮市,貫戸１８６番地の９,,22,207,4180024,,,2021-11-08,清算の結了等,,,2015-10-05,1,,,,,ディーエスキカク,0
750,3120002080810,登記記録の閉鎖等,0,2021-11-15,2021-11-08,有限会社東宏印刷,,有限会社,大阪府,守口市,東光町１丁目１１番１３号,,27,209,5700035,,,2021-11-08,清算の結了等,,,2015-10-05,1,,,,,トウコウインサツ,0
759,3130001041993,登記記録の閉鎖等,0,2021-11-15,2021-11-11,株式会社門野産業,,株式会社,京都府,福知山市,大江町在田１番地,,26,201,6200354,,,2021-11-11,清算の結了等,,,2015-10-05,1,,,,,カドノサンギョウ,0
764,3130002001988,登記記録の閉鎖等,0,2021-11-15,2021-11-12,有限会社有吉商店,,有限会社,京都府,京都市上京区,千本通二条下る東入主税町８２６番地の２０,,26,102,6028155,,,2021-11-12,清算の結了等,,,2015-10-05,1,,,,,アリヨシショウテン,0
767,3130002023388,登記記録の閉鎖等,0,2021-11-15,2021-11-10,有限会社京都オリンピア,,有限会社,京都府,京都市中京区,寺町通蛸薬師下る東側町５０２番地,00037724,26,104,6048046,,,2021-11-10,清算の結了等,,,2015-10-05,1,,,,,キョウトオリンピア,0
830,3340002015686,登記記録の閉鎖等,0,2021-11-15,2021-11-10,有限会社川崎電気工事,00099317,有限会社,鹿児島県,姶良市,永池町７番地９,,46,225,8995654,,,2021-11-10,清算の結了等,,,2015-10-05,1,,,,,カワサキデンキコウジ,0
831,3350002012237,登記記録の閉鎖等,0,2021-11-15,2021-11-11,有限会社ソメヤ工芸,,有限会社,宮崎県,延岡市,粟野名町１５７６番地２,,45,203,8820025,,,2021-11-11,清算の結了等,,,2015-10-05,1,,,,,ソメヤコウゲイ,0
852,3430002059889,登記記録の閉鎖等,0,2021-11-15,2021-11-10,有限会社北宣工業,,有限会社,北海道,苫小牧市,しらかば町１丁目１６番８号,,01,213,0530821,,,2021-11-10,清算の結了等,,,2015-10-05,1,,,,,ホクセンコウギョウ,0
856,3450002004587,登記記録の閉鎖等,0,2021-11-15,2021-11-12,有限会社ピーピーエムジャパン,,有限会社,北海道,旭川市,錦町２２丁目２１６３番地の２０,,01,204,0700824,,,2021-11-12,清算の結了等,,,2015-10-05,1,,,,,ピーピーエムジャパン,0
916,4011201003596,登記記録の閉鎖等,0,2021-11-15,2021-11-10,株式会社東京水質研究所,,株式会社,東京都,中野区,中央３丁目５０番９号,,13,114,1640011,,,2021-11-10,合併による解散等,3040001065515,令和３年１１月１日千葉県柏市篠籠田１４５５番地２５ケー・エス環境研究所株式会社（3040001065515）に合併し解散,2015-10-05,1,,,,,トウキョウスイシツケンキュウジョ,0
920,4011302002002,登記記録の閉鎖等,0,2021-11-15,2021-11-11,有限会社小野洋品店,,有限会社,東京都,杉並区,浜田山３丁目３２番２号,,13,115,1680065,,,2021-11-11,清算の結了等,,,2015-10-05,1,,,,,オノヨウヒンテン,0
925,4011701005209,登記記録の閉鎖等,0,2021-11-15,2021-11-08,株式会社ティービーネット,,株式会社,千葉県,千葉市緑区,あすみが丘東４丁目１８番地７,,12,105,2670067,,,2021-11-08,清算の結了等,,,2015-10-05,1,,,,,ティービーネット,0
931,4011805000592,登記記録の閉鎖等,0,2021-11-15,2021-11-11,医療法人社団冨田内科医院,,その他の設立登記法人,東京都,足立区,一ツ家１丁目２０番９号,,13,121,1210075,,,2021-11-11,清算の結了等,,,2015-10-05,1,,,,,トミタナイカイイン,0
934,4012402020835,登記記録の閉鎖等,0,2021-11-15,2021-11-05,有限会社スペースクバ,,有限会社,東京都,三鷹市,新川５丁目１４番２０号,,13,204,1810004,,,2021-11-05,清算の結了等,,,2015-10-05,1,,,,,スペースクバ,0
937,4012405001205,登記記録の閉鎖等,0,2021-11-15,2021-11-09,特定非営利活動法人家族子育て支援親子スペース麦,,その他の設立登記法人,東京都,国分寺市,日吉町４丁目２番地３１,,13,214,1850032,,,2021-11-09,清算の結了等,,,2015-10-05,1,,,,,カゾクコソダテシエンオヤコスペースムギ,0
940,4013301012956,登記記録の閉鎖等,0,2021-11-15,2021-11-08,株式会社山崎商店,,株式会社,東京都,豊島区,南大塚３丁目１２番７号,,13,116,1700005,,,2021-11-08,清算の結了等,,,2015-10-05,1,,,,,ヤマザキショウテン,0
942,4013301042796,登記記録の閉鎖等,0,2021-11-15,2021-11-09,株式会社Ｂｕｓｉｎｅｓｓ　Ｔｒａｄｉｎｇ,,株式会社,東京都,豊島区,東池袋１丁目２８番１号グローリア初穂池袋タクトＴ・Ｏビル７０９,,13,116,1700013,,,2021-11-09,清算の結了等,,,2018-09-12,1,,,,,ビジネストレーディング,0
957,4020005009980,登記記録の閉鎖等,0,2021-11-15,2021-11-11,一般社団法人泉区薬事センター,,その他の設立登記法人,神奈川県,横浜市泉区,和泉中央北５丁目１番５号,,14,116,2450024,,,2021-11-11,清算の結了等,,,2015-10-05,1,,,,,イズミクヤクジセンター,0
998,4100002016055,登記記録の閉鎖等,0,2021-11-15,2021-11-10,有限会社濱企画,,有限会社,長野県,上田市,踏入２丁目７番１７号,,20,203,3860017,,,2021-11-10,清算の結了等,,,2015-10-05,1,,,,,ハマキカク,0
1024,4120901030658,登記記録の閉鎖等,0,2021-11-15,2021-11-10,株式会社Ｅ．Ｌ．ＨＥＡＴ,,株式会社,大阪府,箕面市,彩都粟生北２丁目６番２２６号,,27,220,5620029,,,2021-11-10,清算の結了等,,,2015-10-05,1,,,,,イーエルヒート,0
1031,4122001000756,登記記録の閉鎖等,0,2021-11-15,2021-11-11,植田建設株式会社,,株式会社,大阪府,東大阪市,新上小阪２３番７号,,27,227,5770813,,,2021-11-11,清算の結了等,,,2015-10-05,1,,,,,ウエダケンセツ,0
1041,4140001038848,登記記録の閉鎖等,0,2021-11-15,2021-11-09,ブンセン販売株式会社,,株式会社,兵庫県,たつの市,新宮町新宮４２０番地,,28,229,6794313,,,2021-11-09,清算の結了等,,,2015-10-05,1,,,,,ブンセンハンバイ,0
1054,4140002058077,登記記録の閉鎖等,0,2021-11-15,2021-11-08,有限会社モンマートたなか,,有限会社,兵庫県,西宮市,津門大塚町１１番５８－１０７９号,,28,204,6638241,,,2021-11-08,清算の結了等,,,2015-10-05,1,,,,,モンマートタナカ,0
1067,4180001105322,登記記録の閉鎖等,0,2021-11-15,2021-11-05,株式会社ＲＥＡＤ,,株式会社,愛知県,名古屋市中区,丸の内１丁目１５番２０号ｉｅ丸の内ビルディング３Ｆ,,23,106,4600002,,,2021-11-05,合併による解散等,4010001046525,令和３年１１月１日東京都千代田区有楽町一丁目２番２号株式会社ジェイツ・コンプレックス（4010001046525）に合併し解散,2015-10-05,1,,,,,リード,0
1082,4190001017475,登記記録の閉鎖等,0,2021-11-15,2021-11-12,株式会社樋口製作所,00075752,株式会社,三重県,三重郡菰野町,大字千草字前野６５３番地２,,24,341,5101251,,,2021-11-12,清算の結了等,,,2015-10-05,1,,,,,ヒグチセイサクショ,0
1086,4200002016152,登記記録の閉鎖等,0,2021-11-15,2021-11-08,有限会社豊田プレス,,有限会社,岐阜県,美濃加茂市,加茂野町今泉鎌頭８８４番地の４,,21,211,5050052,,,2021-11-08,清算の結了等,,,2015-10-05,1,,,,,トヨタプレス,0
1087,4200003001252,登記記録の閉鎖等,0,2021-11-15,2021-11-12,合同会社岐北保険サポート,,合同会社,岐阜県,山県市,平井６９番地,,21,215,5012131,,,2021-11-12,清算の結了等,,,2015-10-05,1,,,,,ギホクホケンサポート,0
1093,4230002006704,登記記録の閉鎖等,0,2021-11-15,2021-11-08,有限会社寿屋,,有限会社,富山県,富山市,八尾町福島１５９番地の１,,16,201,9392376,,,2021-11-08,清算の結了等,,,2015-10-05,1,,,,,コトブキヤ,0
1106,4280002008869,登記記録の閉鎖等,0,2021-11-15,2021-11-09,有限会社ゆうひパーク三隅,,有限会社,島根県,浜田市,三隅町折居２２０番地１,,32,202,6993222,,,2021-11-09,清算の結了等,,,2015-10-05,1,,,,,ユウヒパークミスミ,0
1129,4340002008152,登記記録の閉鎖等,0,2021-11-15,2021-11-09,有限会社大海商事,,有限会社,鹿児島県,鹿児島市,小川町１７番１０－３０３,,46,201,8920817,,,2021-11-09,合併による解散等,8010901030161,令和３年１１月１日東京都世田谷区用賀三丁目１０番１０－５０５号株式会社幸佳商事（8010901030161）に合併し解散,2015-10-05,1,,,,,タイカイショウジ,0
1136,4370002018636,登記記録の閉鎖等,0,2021-11-15,2021-11-08,有限会社エコ・コーポレーション,,有限会社,宮城県,仙台市泉区,虹の丘４丁目４番地の１７,,04,105,9818007,,,2021-11-08,清算の結了等,,,2015-10-05,1,,,,,エココーポレーション,0
1140,4390002003248,登記記録の閉鎖等,0,2021-11-15,2021-11-08,有限会社鈴木動物病院,,有限会社,山形県,東村山郡山辺町,大字根際３８６番地,,06,301,9900321,,,2021-11-08,清算の結了等,,,2015-10-05,1,,,,,スズキドウブツビョウイン,0
1143,4410001003147,登記記録の閉鎖等,0,2021-11-15,2021-11-10,株式会社スカイライト・バイオテック,,株式会社,秋田県,秋田市,飯島字砂田１００－４,,05,201,0110911,,,2021-11-10,合併による解散等,8070001009687,令和３年１１月１日群馬県藤岡市中字東田１０９１番地１株式会社免疫生物研究所（8070001009687）に合併し解散,2015-10-05,1,,,,,スカイライトバイオテック,0
1145,4410002009630,登記記録の閉鎖等,0,2021-11-15,2021-11-09,有限会社秋田こがね村,,有限会社,秋田県,大館市,葛原字洞喰向１１番地１５,,05,204,0185606,,,2021-11-09,合併による解散等,7410001006535,令和３年１１月１日秋田県大館市葛原字洞喰向１１番地１５秋田比内や株式会社（7410001006535）に合併し解散,2015-10-05,1,,,,,アキタコガネムラ,0
1151,4430002001073,登記記録の閉鎖等,0,2021-11-15,2021-11-10,有限会社アンフィニ・エスアール,,有限会社,北海道,札幌市清田区,北野三条５丁目１６番１７号,,01,110,0040863,,,2021-11-10,清算の結了等,,,2015-10-05,1,,,,,アンフィニエスアール,0
1155,4430002059013,登記記録の閉鎖等,0,2021-11-15,2021-11-10,有限会社みやび,,有限会社,北海道,沙流郡平取町,字川向７０番地１４,,01,602,0550103,,,2021-11-10,清算の結了等,,,2015-10-05,1,,,,,ミヤビ,0
1158,4450001002541,登記記録の閉鎖等,0,2021-11-15,2021-11-12,株式会社平野組,,株式会社,北海道,上川郡当麻町,四条西３丁目１番４１号,,01,454,0781304,,,2021-11-12,清算の結了等,,,2015-10-05,1,,,,,ヒラノグミ,0
1170,5000020028215,登記記録の閉鎖等,0,2021-11-15,2021-03-31,十和田地区環境整備事務組合,,地方公共団体,青森県,上北郡六戸町,大字折茂字鳥喰谷地１０５－１,,02,405,0392372,,,2021-03-31,その他の清算の結了等,,,2015-10-05,1,,,,,トワダチクカンキョウセイビジムクミアイ,0
1171,5000020028339,登記記録の閉鎖等,0,2021-11-15,2021-06-30,十和田地区食肉処理事務組合,,地方公共団体,青森県,十和田市,西十二番町６番１号,,02,206,0340093,,,2021-06-30,その他の清算の結了等,,,2015-10-05,1,,,,,トワダチクショクニクショリジムクミアイ,0
1173,5010001128041,登記記録の閉鎖等,0,2021-11-15,2021-11-10,エアサイクルハウジング株式会社,,株式会社,東京都,港区,芝２丁目３０番１５号,,13,103,1050014,,,2021-11-10,合併による解散等,3040001056191,令和３年１１月１日千葉県市原市姉崎７３６番地１株式会社ひらい（3040001056191）に合併し解散,2015-10-05,1,,,,,,0
1174,5010001172931,登記記録の閉鎖等,0,2021-11-15,2021-11-10,株式会社ＳＴＯ,,株式会社,東京都,中央区,銀座８丁目６番１８号奥村プラッツビル５階,,13,102,1040061,,,2021-11-10,清算の結了等,,,2016-01-15,1,,,,,エスティオー,0
1191,5010403023410,登記記録の閉鎖等,0,2021-11-15,2021-11-02,霞町インベストメント合同会社,,合同会社,東京都,港区,南青山４丁目１８番８－６０３号,,13,103,1070062,,,2021-11-02,清算の結了等,,,2020-08-07,1,,,,,カスミチョウインベストメント,0
1194,5010405007205,登記記録の閉鎖等,0,2021-11-15,2021-11-02,特定非営利活動法人ＭＥＫＯＧＡ,,その他の設立登記法人,東京都,港区,南青山５丁目９番１２号アイサワビル８０１,,13,103,1070062,,,2021-11-02,清算の結了等,,,2015-10-05,1,,,,,,0
1195,5010405008830,登記記録の閉鎖等,0,2021-11-15,2021-11-02,一般社団法人ふるさとサポート協会,,その他の設立登記法人,東京都,港区,赤坂６丁目５番３８－２０５号,,13,103,1070052,,,2021-11-02,清算の結了等,,,2015-10-05,1,,,,,フルサトサポートキョウカイ,0
1201,5010702013228,登記記録の閉鎖等,0,2021-11-15,2021-11-10,有限会社エフ・クリエイト,,有限会社,東京都,世田谷区,用賀４丁目１１番１４号,,13,112,1580097,,,2021-11-10,清算の結了等,,,2015-10-05,1,,,,,エフクリエイト,0
1218,5011301017198,登記記録の閉鎖等,0,2021-11-15,2021-11-11,株式会社ステアウェイ,,株式会社,東京都,杉並区,下井草２丁目１０番２２号,,13,115,1670022,,,2021-11-11,清算の結了等,,,2015-10-05,1,,,,,,0
1222,5011305002650,登記記録の閉鎖等,0,2021-11-15,2021-11-10,一般社団法人リバーマウス,,その他の設立登記法人,東京都,杉並区,南荻窪４丁目２２番９号,,13,115,1670052,,,2021-11-10,清算の結了等,,,2020-06-03,1,,,,,リバーマウス,0
1259,5030002120697,登記記録の閉鎖等,0,2021-11-15,2021-11-09,有限会社藤倉保険サービス,,有限会社,埼玉県,飯能市,新町１８番１０号,,11,209,3570004,,,2021-11-09,清算の結了等,,,2015-10-05,1,,,,,フジクラホケンサービス,0
1261,5030005010912,登記記録の閉鎖等,0,2021-11-15,2021-10-27,天理教入西分教会,,その他の設立登記法人,埼玉県,坂戸市,大字堀込４３０番地,,11,239,3500263,,,2021-10-27,合併による解散等,3030005010988,令和３年１０月２７日埼玉県入間郡毛呂山町大字葛貫１３０番地天理教武藏野分教会（3030005010988）に合併し解散,2015-10-05,1,,,,,テンリキョウニッサイブンキョウカイ,0
1309,5120002061908,登記記録の閉鎖等,0,2021-11-15,2021-11-10,有限会社旭電工,,有限会社,大阪府,大阪市淀川区,田川北１丁目３番２２号,,27,123,5320021,,,2021-11-10,清算の結了等,,,2015-10-05,1,,,,,アサヒデンコウ,0
1317,5120102022974,登記記録の閉鎖等,0,2021-11-15,2021-10-14,有限会社ヘルスコート南海,,有限会社,大阪府,貝塚市,地藏堂５３番地の７２,,27,208,5970053,,,2021-10-14,清算の結了等,,,2015-10-05,1,,,,,ヘルスコートナンカイ,0
1337,5140003010110,登記記録の閉鎖等,0,2021-11-15,2021-11-10,四九二ソーラー発電合同会社,,合同会社,東京都,千代田区,六番町２番地,,13,101,1020085,,,2021-11-10,合併による解散等,9010001008669,令和３年１０月２８日東京都新宿区北新宿二丁目２１番１号国際航業株式会社（9010001008669）に合併し解散,2015-10-05,1,,,,,ヨンキュウニソーラーハツデン,0
1360,5180003020023,登記記録の閉鎖等,0,2021-11-15,2021-11-09,Ｎ－ＣＲＥＷ合同会社,,合同会社,愛知県,名古屋市天白区,植田本町２丁目１００３番地,,23,116,4680007,,,2021-11-09,清算の結了等,,,2019-05-27,1,,,,,エヌクルー,0
1362,5180005018271,登記記録の閉鎖等,0,2021-11-15,2021-11-09,ＮＰＯ法人リバティ,,その他の設立登記法人,愛知県,常滑市,坂井字水戸狭間８番地の１,,23,216,4790809,,,2021-11-09,清算の結了等,,,2019-05-27,1,,,,,リバティ,0
1380,5240001026882,登記記録の閉鎖等,0,2021-11-15,2021-11-12,株式会社清水家具,,株式会社,広島県,呉市,川尻町東１丁目２０番１９号,,34,202,7372607,,,2021-11-12,清算の結了等,,,2015-10-05,1,,,,,シミズカグ,0
1381,5240002024869,登記記録の閉鎖等,0,2021-11-15,2021-11-11,有限会社ナカキ電工,,有限会社,広島県,広島市安佐南区,中須１丁目１番１２－７０３号,,34,105,7310121,,,2021-11-11,清算の結了等,,,2015-10-05,1,,,,,ナカキデンコウ,0
1383,5250005004198,登記記録の閉鎖等,0,2021-11-15,2021-11-11,医療法人玉那覇医院,,その他の設立登記法人,山口県,下関市,彦島江の浦町９丁目３番１９号,,35,201,7500075,,,2021-11-11,清算の結了等,,,2015-10-05,1,,,,,タマナハイイン,0
1392,5270005003009,登記記録の閉鎖等,0,2021-11-15,2021-10-28,天理教角盤分教会,,その他の設立登記法人,鳥取県,米子市,角盤町４丁目１３６番地,,31,202,6830812,,,2021-10-28,合併による解散等,5280005001036,令和３年１０月２７日島根県松江市八束町遅江７８７番地１天理教蔭島分教会（5280005001036）に合併し解散,2015-10-05,1,,,,,,0
1416,5380002030093,登記記録の閉鎖等,0,2021-11-15,2021-11-09,晨光工業有限会社,,有限会社,福島県,双葉郡浪江町,大字酒田字上原４４番地の１,,07,547,9791504,,,2021-11-09,清算の結了等,,,2015-10-05,1,,,,,,0
1419,5400003000737,登記記録の閉鎖等,0,2021-11-15,2021-11-11,合同会社心花,,合同会社,岩手県,遠野市,宮守町上宮守１５地割６５番地,,03,208,0280301,,,2021-11-11,清算の結了等,,,2015-10-05,1,,,,,,0
1482,6011101089206,登記記録の閉鎖等,0,2021-11-15,2021-11-02,Ｓａｎｎｏ　Ｇｌｏｂａｌ株式会社,,株式会社,東京都,新宿区,西新宿３丁目５番３－２０２号,,13,104,1600023,,,2021-11-02,清算の結了等,,,2019-10-08,1,,,,,サンノーグローバル,0
1489,6011301000442,登記記録の閉鎖等,0,2021-11-15,2021-11-09,株式会社アルトソフト,,株式会社,東京都,杉並区,天沼３丁目１０番９号,,13,115,1670032,,,2021-11-09,清算の結了等,,,2015-10-05,1,,,,,アルトソフト,0
1490,6011301018996,登記記録の閉鎖等,0,2021-11-15,2021-11-12,株式会社ア・ラ・ゼウス,,株式会社,東京都,杉並区,下高井戸４丁目２２番３４号,,13,115,1680073,,,2021-11-12,清算の結了等,,,2015-10-05,1,,,,,アラゼウス,0
1491,6011301024680,登記記録の閉鎖等,0,2021-11-15,2021-11-10,株式会社Ｗｅｌｌ　ｕｐ,,株式会社,東京都,杉並区,上井草１丁目２９番１３号,,13,115,1670023,,,2021-11-10,清算の結了等,,,2018-12-14,1,,,,,ウェルアップ,0
1498,6011702004042,登記記録の閉鎖等,0,2021-11-15,2021-11-08,有限会社高伸技研,,有限会社,東京都,江戸川区,本一色３丁目１１番２１号,,13,123,1330044,,,2021-11-08,清算の結了等,,,2015-10-05,1,,,,,コウシンギケン,0
1536,6030002072475,登記記録の閉鎖等,0,2021-11-15,2021-11-09,有限会社遠藤商事,,有限会社,埼玉県,川越市,旭町３丁目１４番地１９,,11,201,3501126,,,2021-11-09,清算の結了等,,,2015-10-05,1,,,,,エンドウショウジ,0
1541,6040001106778,登記記録の閉鎖等,0,2021-11-15,2021-11-08,株式会社ＪＡＱＵＡ,,株式会社,東京都,墨田区,両国２丁目７番１１号,,13,107,1300026,,,2021-11-08,清算の結了等,,,2018-11-08,1,,,,,ジャクア,0
1556,6080401019840,登記記録の閉鎖等,0,2021-11-15,2021-11-04,ビンクロファーム株式会社,,株式会社,静岡県,浜松市西区,和地町４５２３番地の１,,22,133,4311115,,,2021-11-04,清算の結了等,,,2015-10-05,1,,,,,ビンクロファーム,0
1560,6100001008877,登記記録の閉鎖等,0,2021-11-15,2021-11-11,東信興産株式會社,,株式会社,長野県,北佐久郡軽井沢町,大字追分５５６番地１,,20,321,3890115,,,2021-11-11,清算の結了等,,,2015-10-05,1,,,,,トウシンコウサン,0
1561,6100001012631,登記記録の閉鎖等,0,2021-11-15,2021-11-10,株式会社アクト,,株式会社,長野県,松本市,大字岡田下岡田２５０番地１３,,20,202,3900313,,,2021-11-10,清算の結了等,,,2015-10-05,1,,,,,アクト,0
1573,6120001084768,登記記録の閉鎖等,0,2021-11-15,2021-11-11,ティー・エム・エス株式会社,,株式会社,大阪府,大阪市中央区,上町１丁目７番２０号,,27,128,5400005,,,2021-11-11,清算の結了等,,,2015-10-05,1,,,,,ティーエムエス,0
1591,6120005006990,登記記録の閉鎖等,0,2021-11-15,2021-11-11,関西織物卸商業協同組合,,その他の設立登記法人,大阪府,大阪市中央区,瓦町１丁目３番１５号,,27,128,5410048,,,2021-11-11,清算の結了等,,,2015-10-05,1,,,,,カンサイオリモノオロシショウギョウ,0
1609,6140001057689,登記記録の閉鎖等,0,2021-11-15,2021-11-10,有元電子サービス株式会社,,株式会社,兵庫県,姫路市,花田町小川６１４番地,,28,201,6710255,,,2021-11-10,清算の結了等,,,2015-10-05,1,,,,,アリモトデンシサービス,0
1610,6140001062177,登記記録の閉鎖等,0,2021-11-15,2021-11-10,ユニオンシステム株式会社,,株式会社,兵庫県,たつの市,神岡町横内２８１－１,,28,229,6794106,,,2021-11-10,清算の結了等,,,2015-10-05,1,,,,,ユニオンシステム,0
1611,6140001088486,登記記録の閉鎖等,0,2021-11-15,2021-11-08,株式会社ＭＳＴ,,株式会社,兵庫県,尼崎市,御園１丁目１７番１号,,28,202,6610984,,,2021-11-08,清算の結了等,,,2015-10-05,1,,,,,エムエスティ,0
1619,6140005002063,登記記録の閉鎖等,0,2021-11-15,2021-11-05,医療法人社団東神経内科,,その他の設立登記法人,兵庫県,神戸市長田区,五番町３丁目１０番地３２－３号,,28,106,6530003,,,2021-11-05,清算の結了等,,,2015-10-05,1,,,,,ヒガシシンケイナイカ,0
1628,6180001057272,登記記録の閉鎖等,0,2021-11-15,2021-11-08,クラチナゴヤ株式会社,,株式会社,愛知県,名古屋市千種区,豊年町２番１７号,,23,101,4640076,,,2021-11-08,清算の結了等,,,2015-10-05,1,,,,,クラチナゴヤ,0
1647,6180002020915,登記記録の閉鎖等,0,2021-11-15,2021-11-09,有限会社ヤスヤフードセンター,,有限会社,愛知県,名古屋市熱田区,須賀町２１１番地,,23,109,4560042,,,2021-11-09,清算の結了等,,,2015-10-05,1,,,,,ヤスヤフードセンター,0
1689,6280005003808,登記記録の閉鎖等,0,2021-11-15,2021-11-01,妙現寺,,その他の設立登記法人,島根県,大田市,祖式町２０８１番地第２,,32,205,6940431,,,2021-11-01,合併による解散等,2280005004974,令和３年１１月１日島根県邑智郡川本町大字川本２５３番地妙船寺（2280005004974）に合併し解散,2015-10-05,1,,,,,ミョウゲンジ,0
1706,6310001016891,登記記録の閉鎖等,0,2021-11-15,2021-11-09,株式会社グッドマン,,株式会社,長崎県,西海市,西彼町喰場郷１６７５番地４,,42,212,8513305,,,2021-11-09,清算の結了等,,,2020-10-07,1,,,,,グッドマン,0
1723,6390002001324,登記記録の閉鎖等,0,2021-11-15,2021-11-11,有限会社新綸社,,有限会社,山形県,山形市,双葉町２丁目４番３３号,,06,201,9900828,,,2021-11-11,清算の結了等,,,2015-10-05,1,,,,,シンリンシャ,0
1760,7010002022423,登記記録の閉鎖等,0,2021-11-15,2021-11-09,有限会社千倉,,有限会社,東京都,中央区,銀座７丁目９番１０号,,13,102,1040061,,,2021-11-09,清算の結了等,,,2015-10-05,1,,,,,チクラ,0
1787,7010701039404,登記記録の閉鎖等,0,2021-11-15,2021-11-11,ＤＣＭ商号保全株式会社,,株式会社,東京都,品川区,南大井６丁目２２番７号,,13,109,1400013,,,2021-11-11,清算の結了等,,,2020-06-18,1,,,,,ディーシーエムショウゴウホゼン,0
1805,7011101071030,登記記録の閉鎖等,0,2021-11-15,2021-11-10,プライムソーラー株式会社,,株式会社,東京都,中野区,本町６丁目３６番５－１３０１号,,13,114,1640012,,,2021-11-10,清算の結了等,,,2015-10-05,1,,,,,プライムソーラー,0
1849,7030001019716,登記記録の閉鎖等,0,2021-11-15,2021-11-09,株式会社みのるや,,株式会社,埼玉県,さいたま市岩槻区,大字高曽根１３００番地１,,11,110,3390022,,,2021-11-09,清算の結了等,,,2015-10-05,1,,,,,ミノルヤ,0
1853,7030001068845,登記記録の閉鎖等,0,2021-11-15,2021-11-05,大洋産業株式会社,,株式会社,埼玉県,坂戸市,緑町１番７号,,11,239,3500234,,,2021-11-05,清算の結了等,,,2015-10-05,1,,,,,タイヨウサンギョウ,0
1870,7050002022659,登記記録の閉鎖等,0,2021-11-15,2021-11-11,株式会社武翔総合管理事業本部,,株式会社,東京都,練馬区,石神井町１丁目１－４９,,13,120,1770041,,,2021-11-11,清算の結了等,,,2015-10-05,1,,,,,ブショウソウゴウカンリジギョウホンブ,0
1885,7100002037239,登記記録の閉鎖等,0,2021-11-15,2021-11-11,有限会社福田屋高橋商店,,有限会社,長野県,下伊那郡喬木村,６６４０番３号地,,20,415,3951100,,,2021-11-11,清算の結了等,,,2015-10-05,1,,,,,,0
1901,7120102007239,登記記録の閉鎖等,0,2021-11-15,2021-11-09,有限会社Ｊ＆Ｋ,,有限会社,大阪府,堺市北区,東三国ヶ丘町５丁６－１７あい薬局三国ヶ丘店,,27,146,5918046,,,2021-11-09,清算の結了等,,,2015-10-05,1,,,,,ジェイアンドケー,0
1930,7180001027357,登記記録の閉鎖等,0,2021-11-15,2021-11-09,メイク梶田株式会社,,株式会社,愛知県,名古屋市西区,中小田井３丁目４９番地,,23,104,4520822,,,2021-11-09,清算の結了等,,,2015-10-05,1,,,,,メイクカジタ,0
1938,7180001101541,登記記録の閉鎖等,0,2021-11-15,2021-11-10,チャッティージャパン株式会社,,株式会社,愛知県,名古屋市名東区,よもぎ台１丁目１３０５番地,,23,115,4650091,,,2021-11-10,清算の結了等,,,2015-10-05,1,,,,,チャッティージャパン,0
1954,7190001007903,登記記録の閉鎖等,0,2021-11-15,2021-11-12,株式会社伊勢志摩倶楽部,,株式会社,三重県,伊勢市,船江３丁目３番１６号,,24,203,5160008,,,2021-11-12,清算の結了等,,,2015-10-05,1,,,,,イセシマクラブ,0
1963,7200002025324,登記記録の閉鎖等,0,2021-11-15,2021-11-11,有限会社島田建築,,有限会社,岐阜県,高山市,清見町三日町３９９番地１,,21,203,5060102,,,2021-11-11,清算の結了等,,,2015-10-05,1,,,,,シマダケンチク,0
1966,7210001015440,登記記録の閉鎖等,0,2021-11-15,2021-11-10,株式会社遊笑,,株式会社,福井県,福井市,田原１丁目１１番１２号,,18,201,9100018,,,2021-11-10,清算の結了等,,,2015-10-05,1,,,,,ユウワ,0
1971,7230005009073,登記記録の閉鎖等,0,2021-11-15,2021-11-08,一般社団法人アトリエきらり,,その他の設立登記法人,富山県,下新川郡入善町,横山５００番地５８,,16,342,9390616,,,2021-11-08,清算の結了等,,,2020-04-27,1,,,,,アトリエキラリ,0
2000,7290802017000,登記記録の閉鎖等,0,2021-11-15,2021-11-09,有限会社青山工業,,有限会社,福岡県,遠賀郡水巻町,吉田東３丁目３番８号,,40,382,8070045,,,2021-11-09,清算の結了等,,,2015-10-05,1,,,,,アオヤマコウギョウ,0
2012,7340002023801,登記記録の閉鎖等,0,2021-11-15,2021-11-12,有限会社神戸ホンダ販売,,有限会社,鹿児島県,枕崎市,塩屋南町４０５番地,,46,204,8980042,,,2021-11-12,清算の結了等,,,2015-10-05,1,,,,,,0
2024,7380005008911,登記記録の閉鎖等,0,2021-11-15,2021-10-27,鬼渡神社,,その他の設立登記法人,福島県,河沼郡柳津町,大字冑中字牧１６０８番地,,07,423,9697200,,,2021-10-27,合併による解散等,3380005008931,令和３年１０月２７日福島県河沼郡柳津町大字冑中字宮ノ上４７６番地三島神社（3380005008931）に合併し解散,2015-10-05,1,,,,,,0
2041,7700150070484,登記記録の閉鎖等,0,2021-11-15,2017-09-07,池田興業厚生年金基金,,その他,福岡県,北九州市門司区,大里本町２丁目２－５,,40,101,8000063,,,2017-09-07,その他の清算の結了等,,,2016-02-02,1,,,,,イケダコウギョウコウセイネンキンキキン,0
2043,8010001122818,登記記録の閉鎖等,0,2021-11-15,2021-11-09,株式会社アミタ持続可能経済研究所,,株式会社,京都府,京都市中京区,烏丸通押小路上る秋野々町５３５番地,,26,104,6040847,,,2021-11-09,合併による解散等,7010001076379,令和３年１１月１日東京都千代田区神田鍛冶町三丁目６番地７アミタ株式会社（7010001076379）に合併し解散,2015-10-05,1,,,,,アミタジゾクカノウケイザイケンキュウショ,0
2055,8010003019599,登記記録の閉鎖等,0,2021-11-15,2021-11-10,合同会社モアナ,,合同会社,東京都,千代田区,丸の内３丁目１番１号東京共同会計事務所内,,13,101,1000005,,,2021-11-10,清算の結了等,,,2015-10-05,1,,,,,モアナ,0
2065,8010401149403,登記記録の閉鎖等,0,2021-11-15,2021-11-08,萩の夢株式会社,,株式会社,宮城県,白石市,大鷹沢大町字矢ノ口下５１番地の１,,04,206,9890212,,,2021-11-08,清算の結了等,,,2019-11-25,1,,,,,ハギノユメ,0
2074,8010601054725,登記記録の閉鎖等,0,2021-11-15,2021-11-05,株式会社ＳＩＸフィーリング,,株式会社,東京都,江東区,福住１丁目１７番１１－２０１号,,13,108,1350032,,,2021-11-05,清算の結了等,,,2018-12-06,1,,,,,シックスフィーリング,0
2078,8010801001254,登記記録の閉鎖等,0,2021-11-15,2021-11-08,株式会社上松製作所,,株式会社,東京都,大田区,北馬込１丁目１１番１２号,,13,111,1430021,,,2021-11-08,清算の結了等,,,2015-10-05,1,,,,,ウエマツセイサクジョ,0
2108,8011701013827,登記記録の閉鎖等,0,2021-11-15,2021-11-10,カツデンソーラー株式会社,,株式会社,東京都,江戸川区,西瑞江４丁目１５番地,,13,123,1340015,,,2021-11-10,清算の結了等,,,2015-10-05,1,,,,,カツデンソーラー,0
2109,8011702006284,登記記録の閉鎖等,0,2021-11-15,2021-11-10,有限会社砂口製作所,,有限会社,東京都,江戸川区,南小岩１丁目１０番７号,,13,123,1330056,,,2021-11-10,清算の結了等,,,2015-10-05,1,,,,,スナグチセイサクショ,0
2133,8030001038095,登記記録の閉鎖等,0,2021-11-15,2021-11-09,株式会社愛らんど,,株式会社,埼玉県,草加市,青柳８丁目７番５号,,11,221,3400002,,,2021-11-09,清算の結了等,,,2015-10-05,1,,,,,アイランド,0
2151,8050001045957,登記記録の閉鎖等,0,2021-11-15,2021-11-05,株式会社ＧＫグローバルカンパニー,,株式会社,茨城県,ひたちなか市,柳が丘３４番７,,08,221,3111232,,,2021-11-05,清算の結了等,,,2019-05-16,1,,,,,ジーケーグローバルカンパニー,0
2158,8070001024389,登記記録の閉鎖等,0,2021-11-15,2021-11-11,株式会社橘介護センター,,株式会社,群馬県,前橋市,日輪寺町１６８番地６,,10,201,3710042,,,2021-11-11,清算の結了等,,,2015-10-05,1,,,,,タチバナカイゴセンター,0
2166,8080001004992,登記記録の閉鎖等,0,2021-11-15,2021-10-28,丸仲商事株式会社,,株式会社,静岡県,静岡市葵区,若松町９６番地の２,,22,101,4200006,,,2021-10-28,合併による解散等,9010401159178,令和３年１０月２５日東京都港区港南二丁目１５番３号丸仲ホールディングス株式会社（9010401159178）に合併し解散,2015-10-05,1,,,,,マルナカショウジ,0
2285,8310001001438,登記記録の閉鎖等,0,2021-11-15,2021-11-12,株式会社デンタル・ウイング,,株式会社,長崎県,長崎市,青山町１番５号,,42,201,8528036,,,2021-11-12,清算の結了等,,,2015-10-05,1,,,,,デンタルウイング,0
2306,8420001015534,登記記録の閉鎖等,0,2021-11-15,2021-11-05,株式会社田名部通運,,株式会社,青森県,むつ市,大字田名部字新町５１番地,,02,208,0350021,,,2021-11-05,清算の結了等,,,2017-01-04,1,,,,,タナブツウウン,0
2313,8430005004747,登記記録の閉鎖等,0,2021-11-15,2021-11-10,特定非営利活動法人石狩スポーツクラブ,,その他の設立登記法人,北海道,石狩市,花川北五条２丁目３番地,,01,235,0613215,,,2021-11-10,清算の結了等,,,2015-10-05,1,,,,,イシカリスポーツクラブ,0
2383,9011202003013,登記記録の閉鎖等,0,2021-11-15,2021-11-10,有限会社シューズドクター壱壱九,,有限会社,東京都,中野区,上高田１丁目３１番１１号,,13,114,1640002,,,2021-11-10,清算の結了等,,,2015-10-05,1,,,,,シューズドクターイチイチキュウ,0
2402,9012801008567,登記記録の閉鎖等,0,2021-11-15,2021-11-09,株式会社アルコ,,株式会社,東京都,武蔵村山市,中原２丁目４９番地の１２,,13,223,2080035,,,2021-11-09,清算の結了等,,,2015-10-05,1,,,,,,0
2407,9013301034137,登記記録の閉鎖等,0,2021-11-15,2021-11-09,株式会社クリエゾン,,株式会社,東京都,品川区,北品川１丁目９番７号トップルーム品川１０１５号,,13,109,1400001,,,2021-11-09,清算の結了等,,,2015-10-05,1,,,,,クリエゾン,0
2408,9013301040861,登記記録の閉鎖等,0,2021-11-15,2021-11-10,株式会社フロンティアソリューションズ,,株式会社,東京都,豊島区,西池袋１丁目４４番１号,,13,116,1710021,,,2021-11-10,清算の結了等,,,2017-07-21,1,,,,,フロンティアソリューションズ,0
2411,9013302007950,登記記録の閉鎖等,0,2021-11-15,2021-11-08,有限会社平野電機製作所,,有限会社,東京都,豊島区,上池袋３丁目３７番３号,,13,116,1700012,,,2021-11-08,清算の結了等,,,2015-10-05,1,,,,,ヒラノデンキセイサクショ,0
2419,9020003008757,登記記録の閉鎖等,0,2021-11-15,2021-11-10,イディアル合同会社,,合同会社,神奈川県,横浜市港北区,篠原町９２番地メゾンアルコベール１０５,,14,109,2220026,,,2021-11-10,清算の結了等,,,2015-10-05,1,,,,,イディアル,0
2426,9021002019704,登記記録の閉鎖等,0,2021-11-15,2021-11-08,有限会社黒田洋品店,,有限会社,神奈川県,相模原市中央区,淵野辺３丁目１９番１３号,,14,152,2520206,,,2021-11-08,清算の結了等,,,2015-10-05,1,,,,,クロダヨウヒンテン,0
2436,9040001048539,登記記録の閉鎖等,0,2021-11-15,2021-11-05,株式会社工藤コンサルティング,,株式会社,千葉県,四街道市,美しが丘２丁目１２番５８号,,12,228,2840045,,,2021-11-05,清算の結了等,,,2015-10-05,1,,,,,,0
2441,9040002091959,登記記録の閉鎖等,0,2021-11-15,2021-11-09,有限会社山崎井戸工事,,有限会社,千葉県,柏市,新逆井１丁目４０番１４号,,12,217,2770044,,,2021-11-09,清算の結了等,,,2015-10-05,1,,,,,ヤマザキイドコウジ,0
2461,9100002033384,登記記録の閉鎖等,0,2021-11-15,2021-11-11,有限会社三峰食品,,有限会社,長野県,伊那市,山寺１４７７番地,,20,209,3960023,,,2021-11-11,清算の結了等,,,2015-10-05,1,,,,,ミブショクヒン,0
2471,9120001183798,登記記録の閉鎖等,0,2021-11-15,2021-11-11,株式会社アピスＴＶ,,株式会社,大阪府,大阪市都島区,片町１丁目１番３６号,,27,102,5340025,,,2021-11-11,清算の結了等,,,2015-10-05,1,,,,,,0
2488,9120101059774,登記記録の閉鎖等,0,2021-11-15,2021-11-11,木子商事株式会社,,株式会社,大阪府,和泉市,浦田町２３３番地の１,,27,219,5941103,,,2021-11-11,清算の結了等,,,2019-05-08,1,,,,,ココショウジ,0
2492,9130001050477,登記記録の閉鎖等,0,2021-11-15,2021-11-12,株式会社イントラスト,,株式会社,京都府,京都市伏見区,石田大山町４２－３,,26,109,6011433,,,2021-11-12,清算の結了等,,,2015-10-05,1,,,,,イントラスト,0
2499,9140001020529,登記記録の閉鎖等,0,2021-11-15,2021-11-11,大阪神戸冷食株式会社,,株式会社,兵庫県,神戸市兵庫区,中之島１丁目１番５号４階,,28,105,6520844,,,2021-11-11,清算の結了等,,,2015-10-05,1,,,,,オオサカコウベレイショク,0
2502,9140001033935,登記記録の閉鎖等,0,2021-11-15,2021-11-10,株式会社ソリューション,,株式会社,兵庫県,神戸市西区,玉津町高津橋６１０番地の１・３０１号,,28,111,6512122,,,2021-11-10,清算の結了等,,,2015-10-05,1,,,,,ソリューション,0
2504,9140002059764,登記記録の閉鎖等,0,2021-11-15,2021-11-10,株式会社ダンケ,,株式会社,兵庫県,西宮市,二見町４番２５号,,28,204,6638111,,,2021-11-10,清算の結了等,,,2015-10-05,1,,,,,ダンケ,0
2507,9150001005628,登記記録の閉鎖等,0,2021-11-15,2021-11-15,株式会社大川商店,,株式会社,奈良県,大和郡山市,美濃庄町７１１番地の２こだまビル２Ｆ,,29,203,6391103,,,2021-11-15,清算の結了等,,,2015-10-05,1,,,,,オオカワショウテン,0
2519,9180002033476,登記記録の閉鎖等,0,2021-11-15,2021-11-10,有限会社ライブ・スタジオ,,有限会社,愛知県,名古屋市中区,千代田３丁目１番２７号,,23,106,4600012,,,2021-11-10,清算の結了等,,,2015-10-05,1,,,,,ライブスタジオ,0
2532,9190001011861,登記記録の閉鎖等,0,2021-11-15,2021-11-12,株式会社杉山コーポレーション,,株式会社,三重県,多気郡大台町,小切畑１７６番地２,,24,443,5192504,,,2021-11-12,清算の結了等,,,2015-10-05,1,,,,,スギヤマコーポレーション,0
2534,9190001026125,登記記録の閉鎖等,0,2021-11-15,2021-11-11,スーパーテックジャパン株式会社,,株式会社,三重県,四日市市,南浜田町２番１４号,,24,202,5100066,,,2021-11-11,清算の結了等,,,2019-01-09,1,,,,,スーパーテックジャパン,0
