sequenceNumber,corporateNumber,process,correct,updateDate,changeDate,name,nameImageId,kind,prefectureName,cityName,streetNumber,addressImageId,prefectureCode,cityCode,postCode,addressOutside,addressOutsideImageId,closeDate,closeCause,successorCorporateNumber,changeCause,assignmentDate,latest,enName,enPrefectureName,enCityName,enAddressOutside,furigana,hihyoji
50,1010401183994,登記記録の閉鎖等,0,2024-11-21,2024-11-15,ＬＴＤ株式会社,,株式会社,東京都,港区,六本木１丁目６番１号泉ガーデンタワー１０階,,13,103,1060032,,,2024-11-15,合併による解散等,4011001072940,令和６年１０月１日東京都渋谷区恵比寿四丁目２０番３号恵比寿ガーデンプレイスタワー３５階株式会社アンビションＤＸホールディングス（4011001072940）に合併し解散,2024-07-26,1,,,,,エルティーディー,0
53,1010403012193,登記記録の閉鎖等,0,2024-11-21,2024-11-15,クワトロ合同会社,,合同会社,東京都,港区,南青山３丁目１０番４１号ジュエル青山ビル２０２号,,13,103,1070062,,,2024-11-15,合併による解散等,5010003021748,令和６年１０月３１日東京都中央区東日本橋二丁目２８番４号日本橋ＣＥＴビル２階ファイブプラス合同会社（5010003021748）に合併し解散,2015-10-05,1,,,,,クワトロ,0
55,1010405022406,登記記録の閉鎖等,0,2024-11-21,2024-11-05,一般社団法人ＳＤＬ,,その他の設立登記法人,東京都,港区,芝大門２丁目１２番３号,,13,103,1050012,,,2024-11-05,清算の結了等,,,2023-09-01,1,,,,,エスディーエル,0
71,1010802003198,登記記録の閉鎖等,0,2024-11-21,2024-11-12,有限会社オフィス榎本,,有限会社,神奈川県,川崎市幸区,新塚越１番地２サウザンドシティ１－３１０２,,14,132,2120027,,,2024-11-12,清算の結了等,,,2015-10-05,1,,,,,オフィスエノモト,0
77,1011001004161,登記記録の閉鎖等,0,2024-11-21,2024-10-31,恵比寿機工株式会社,,株式会社,東京都,渋谷区,恵比寿４丁目２７番１２号,,13,113,1500013,,,2024-10-31,清算の結了等,,,2015-10-05,1,,,,,エビスキコウ,0
97,1011402000313,登記記録の閉鎖等,0,2024-11-21,2024-11-14,有限会社アカツキ,,有限会社,東京都,板橋区,仲宿１５番１－４０１号,,13,119,1730005,,,2024-11-14,清算の結了等,,,2015-10-05,1,,,,,アカツキ,0
108,1020001081499,登記記録の閉鎖等,0,2024-11-21,2024-11-11,山商機械株式会社,,株式会社,神奈川県,横浜市鶴見区,獅子ケ谷３丁目１２番地,,14,101,2300073,,,2024-11-11,清算の結了等,,,2015-10-05,1,,,,,ヤマショウキカイ,0
122,1030001017816,登記記録の閉鎖等,0,2024-11-21,2024-11-18,株式会社小原電設,,株式会社,埼玉県,さいたま市岩槻区,大字増長６９６番地の６,,11,110,3390012,,,2024-11-18,清算の結了等,,,2015-10-05,1,,,,,オバラデンセツ,0
124,1030001050783,登記記録の閉鎖等,0,2024-11-21,2024-11-18,株式会社荒木鉄工,,株式会社,千葉県,柏市,五條谷４４６番地３,,12,217,2770913,,,2024-11-18,清算の結了等,,,2015-10-05,1,,,,,アラキテッコウ,0
136,1030005021013,登記記録の閉鎖等,0,2024-11-21,2024-11-19,特定非営利活動法人ＧＳＣ学校サポートクラブ,,その他の設立登記法人,埼玉県,川越市,西小仙波町２丁目２７番地８,,11,201,3500035,,,2024-11-19,清算の結了等,,,2022-10-25,1,,,,,ジーエスシーガッコウサポートクラブ,0
143,1040001110826,登記記録の閉鎖等,0,2024-11-21,2024-11-18,観光企画センター株式会社,,株式会社,山梨県,富士吉田市,上吉田２丁目６－１８,,19,202,4030005,,,2024-11-18,清算の結了等,,,2019-09-26,1,,,,,カンコウキカクセンター,0
150,1040002040799,登記記録の閉鎖等,0,2024-11-21,2024-10-25,ネクスト・ラーニング・メディア株式会社,,株式会社,東京都,渋谷区,渋谷１丁目８番７号,,13,113,1500002,,,2024-10-25,清算の結了等,,,2015-10-05,1,,,,,ネクストラーニングメディア,0
151,1040003006287,登記記録の閉鎖等,0,2024-11-21,2024-11-18,シマショー合同会社,,合同会社,千葉県,白井市,堀込２丁目５番地３棟５０４号,,12,232,2701424,,,2024-11-18,清算の結了等,,,2015-10-05,1,,,,,シマショー,0
157,1050001029405,登記記録の閉鎖等,0,2024-11-21,2024-11-14,三美電気株式会社,,株式会社,茨城県,常総市,水海道橋本町３３６５番地,,08,211,3030003,,,2024-11-14,清算の結了等,,,2015-10-05,1,,,,,サンビデンキ,0
162,1050005000361,登記記録の閉鎖等,0,2024-11-21,2024-11-15,一般財団法人日新塾精神顕揚会,,その他の設立登記法人,東京都,中央区,八重洲１丁目７番２０号川崎定徳株式会社内,,13,102,1030028,,,2024-11-15,清算の結了等,,,2015-10-05,1,,,,,ニッシンジュクセイシンケンヨウカイ,0
165,1070002008554,登記記録の閉鎖等,0,2024-11-21,2024-11-18,有限会社アマダ酒店,,有限会社,群馬県,高崎市,下滝町４４番地の１０,,10,202,3700026,,,2024-11-18,清算の結了等,,,2015-10-05,1,,,,,アマダサケテン,0
173,1110001004120,登記記録の閉鎖等,0,2024-11-21,2024-11-14,新潟マイクロコンピユータ株式会社,,株式会社,新潟県,新潟市中央区,姥ケ山６丁目７番２５号,,15,103,9500923,,,2024-11-14,清算の結了等,,,2015-10-05,1,,,,,ニイガタマイクロコンピユータ,0
174,1110001028301,登記記録の閉鎖等,0,2024-11-21,2024-11-14,緒立ファクトリー株式会社,,株式会社,新潟県,新潟市東区,月見町１番２４号,,15,102,9500061,,,2024-11-14,清算の結了等,,,2015-10-05,1,,,,,オダテファクトリー,0
180,1120001124710,登記記録の閉鎖等,0,2024-11-21,2024-11-18,株式会社ＡＲＴキング,,株式会社,大阪府,大阪市平野区,長吉長原東１丁目７番１６号メゾンカタケ２１１号,,27,126,5470013,,,2024-11-18,清算の結了等,,,2015-10-05,1,,,,,,0
188,1120002018696,登記記録の閉鎖等,0,2024-11-21,2024-11-15,有限会社坂本建築設計事務所,,有限会社,大阪府,吹田市,南金田２丁目２３番２－７０９,,27,205,5640044,,,2024-11-15,清算の結了等,,,2015-10-05,1,,,,,サカモトケンチクセッケイジムショ,0
198,1130001062703,登記記録の閉鎖等,0,2024-11-21,2024-11-18,株式会社永砂,,株式会社,京都府,京丹後市,網野町高橋８２４番地,,26,212,6293131,,,2024-11-18,清算の結了等,,,2018-08-07,1,,,,,ナガスナ,0
203,1140001004084,登記記録の閉鎖等,0,2024-11-21,2024-11-18,株式会社萬力商店,,株式会社,兵庫県,神戸市灘区,新在家北町２丁目４番１１号,,28,102,6570861,,,2024-11-18,清算の結了等,,,2015-10-05,1,,,,,マンリキショウテン,0
206,1140001124659,登記記録の閉鎖等,0,2024-11-21,2024-11-18,株式会社Ｊａｙ　Ｒｅａｌ　Ｅｓｔａｔｅ,,株式会社,兵庫県,西宮市,浜甲子園４丁目１番２４－１７１４号,,28,204,6638154,,,2024-11-18,清算の結了等,,,2022-01-26,1,,,,,ジェイリアルエステート,0
219,1140002057305,登記記録の閉鎖等,0,2024-11-21,2024-11-18,有限会社ナンバーポケット,,有限会社,兵庫県,神戸市灘区,鶴甲２丁目１－３６－２０１,,28,102,6570011,,,2024-11-18,清算の結了等,,,2015-10-05,1,,,,,ナンバーポケット,0
221,1160002005162,登記記録の閉鎖等,0,2024-11-21,2024-11-13,有限会社シンサンフーズ,,有限会社,滋賀県,草津市,渋川２丁目８番１号,,25,206,5250026,,,2024-11-13,清算の結了等,,,2015-10-05,1,,,,,シンサンフーズ,0
223,1180001032338,登記記録の閉鎖等,0,2024-11-21,2024-11-11,株式会社ピーエフシー,,株式会社,愛知県,名古屋市中村区,名駅５丁目１８番６号,,23,105,4500002,,,2024-11-11,清算の結了等,,,2015-10-05,1,,,,,ピーエフシー,0
230,1180002014442,登記記録の閉鎖等,0,2024-11-21,2024-11-13,有限会社成田運輸,,有限会社,愛知県,名古屋市南区,宝生町２丁目１番地,,23,112,4570828,,,2024-11-13,清算の結了等,,,2015-10-05,1,,,,,ナリタウンユ,0
241,1210002004357,登記記録の閉鎖等,0,2024-11-21,2024-11-18,有限会社金森建具製作所,,有限会社,福井県,福井市,新田塚２丁目３２５３番地１,,18,201,9100067,,,2024-11-18,清算の結了等,,,2015-10-05,1,,,,,カナモリタテグセイサクショ,0
263,1290002051805,登記記録の閉鎖等,0,2024-11-21,2024-11-19,有限会社ニッポーオイル,,有限会社,大分県,日田市,大字友田９１０番地,,44,204,8770000,,,2024-11-19,清算の結了等,,,2015-10-05,1,,,,,ニッポーオイル,0
272,1330003007578,登記記録の閉鎖等,0,2024-11-21,2024-11-14,合同会社６Ｌ,,合同会社,熊本県,宇城市,松橋町豊福２０６４－１,,43,213,8690524,,,2024-11-14,清算の結了等,,,2018-07-23,1,,,,,シックスエル,0
295,1410002011498,登記記録の閉鎖等,0,2024-11-21,2024-11-18,有限会社秋南鉄筋工業所,,有限会社,秋田県,大仙市,内小友字宮下１１４番地,,05,212,0140073,,,2024-11-18,清算の結了等,,,2015-10-05,1,,,,,シュウナンテッキンコウギョウショ,0
308,1490001009684,登記記録の閉鎖等,0,2024-11-21,2024-11-18,株式会社Ｋｏｄｅｍａｒｉ,,株式会社,高知県,高知市,本町２丁目３番２２号,,39,201,7800870,,,2024-11-18,清算の結了等,,,2020-10-08,1,,,,,コデマリ,0
382,2010102001711,登記記録の閉鎖等,0,2024-11-21,2024-11-18,有限会社カーライフ寺田,,有限会社,東京都,八王子市,寺田町８０番地,,13,201,1930943,,,2024-11-18,清算の結了等,,,2015-10-05,1,,,,,カーライフテラダ,0
383,2010401098622,登記記録の閉鎖等,0,2024-11-21,2024-10-31,三徳商事株式会社,,株式会社,東京都,渋谷区,桜丘町３１番２号,,13,113,1500031,,,2024-10-31,清算の結了等,,,2015-10-05,1,,,,,サントクショウジ,0
385,2010401183993,登記記録の閉鎖等,0,2024-11-21,2024-11-15,ＳＰＭ株式会社,,株式会社,東京都,港区,六本木１丁目６番１号泉ガーデンタワー１０階,,13,103,1060032,,,2024-11-15,合併による解散等,4011001072940,令和６年１０月１日東京都渋谷区恵比寿四丁目２０番３号恵比寿ガーデンプレイスタワー３５階株式会社アンビションＤＸホールディングス（4011001072940）に合併し解散,2024-07-26,1,,,,,エスピーエム,0
401,2010901025183,登記記録の閉鎖等,0,2024-11-21,2024-11-18,株式会社バンゴハン,,株式会社,東京都,世田谷区,岡本３丁目３０番７号,,13,112,1570076,,,2024-11-18,清算の結了等,,,2015-10-05,1,,,,,バンゴハン,0
402,2010901043268,登記記録の閉鎖等,0,2024-11-21,2024-10-31,株式会社Ｓ・Ｏ,,株式会社,東京都,目黒区,上目黒３丁目３３番１０号,,13,110,1530051,,,2024-10-31,清算の結了等,,,2018-12-10,1,,,,,エスオー,0
408,2011001032038,登記記録の閉鎖等,0,2024-11-21,2024-11-08,株式会社美幸建築企画,,株式会社,東京都,新宿区,四谷４丁目２５番１３号濱庄ビル４階,,13,104,1600004,,,2024-11-08,清算の結了等,,,2015-10-05,1,,,,,ミユキケンチクキカク,0
414,2011001068750,登記記録の閉鎖等,0,2024-11-21,2024-10-29,ソーシャルコマーステクノロジー株式会社,,株式会社,東京都,渋谷区,道玄坂１丁目１４番６号,,13,113,1500043,,,2024-10-29,清算の結了等,,,2015-10-05,1,,,,,ソーシャルコマーステクノロジー,0
424,2011002018060,登記記録の閉鎖等,0,2024-11-21,2024-10-31,有限会社岡田昌浩デザイン事務所,,有限会社,東京都,渋谷区,神宮前２丁目３０番２２号,,13,113,1500001,,,2024-10-31,清算の結了等,,,2015-10-05,1,,,,,オカダマサヒロデザインジムショ,0
435,2011602022701,登記記録の閉鎖等,0,2024-11-21,2024-11-13,有限会社エフ・アール・エフ・三幸,,有限会社,東京都,練馬区,北町８丁目１４番１０号,,13,120,1790081,,,2024-11-13,清算の結了等,,,2015-10-05,1,,,,,,0
438,2011801008154,登記記録の閉鎖等,0,2024-11-21,2024-11-15,株式会社サンテン,,株式会社,東京都,足立区,花畑４丁目２５番１号,,13,121,1210061,,,2024-11-15,清算の結了等,,,2015-10-05,1,,,,,サンテン,0
444,2013202002166,登記記録の閉鎖等,0,2024-11-21,2024-10-31,有限会社グリーンクロス,,有限会社,東京都,目黒区,目黒本町５丁目１５番１号,,13,110,1520002,,,2024-10-31,清算の結了等,,,2015-10-05,1,,,,,グリーンクロス,0
453,2020003006874,登記記録の閉鎖等,0,2024-11-21,2024-11-01,株式会社ピグマリオン・アカデミア,,株式会社,神奈川県,川崎市中原区,中丸子１３番地１７ザ・コスギタワー２６０５,,14,133,2110012,,,2024-11-01,合併による解散等,9020001103626,令和６年１１月１日川崎市中原区新丸子東二丁目９２６番地株式会社一会塾（9020001103626）に合併し解散,2015-10-05,1,,,,,ピグマリオンアカデミア,0
457,2020005003317,登記記録の閉鎖等,0,2024-11-21,2024-11-11,ＪＦＥエンジニアリング労働組合,,その他の設立登記法人,神奈川県,横浜市鶴見区,末広町２丁目,,14,101,2300045,,,2024-11-11,清算の結了等,,,2015-10-05,1,,,,,ジェイエフイーエンジニアリング,0
459,2020005007409,登記記録の閉鎖等,0,2024-11-21,2024-09-12,日蓮宗八紘長妙教会,,その他の設立登記法人,神奈川県,川崎市中原区,宮内１丁目７番４８号,,14,133,2110051,,,2024-09-12,合併による解散等,5020005007224,令和６年９月１２日川崎市高津区子母口２７番地圓融寺（5020005007224）に合併し解散,2015-10-05,1,,,,,ニチレンシュウハッコウチョウショウキョウカイ,0
473,2040001022954,登記記録の閉鎖等,0,2024-11-21,2024-11-18,株式会社劇団銀河鉄道,,株式会社,千葉県,船橋市,北本町２丁目６２番５－６１２号,,12,204,2730864,,,2024-11-18,清算の結了等,,,2015-10-05,1,,,,,ゲキダンギンガテツドウ,0
485,2050001042167,登記記録の閉鎖等,0,2024-11-21,2024-11-14,株式会社菓子工房シェリココ,,株式会社,茨城県,つくば市,大曽根３３７９番地２,,08,220,3003253,,,2024-11-14,清算の結了等,,,2017-01-31,1,,,,,カシコウボウシェリココ,0
489,2050003004867,登記記録の閉鎖等,0,2024-11-21,2024-11-12,Ｍｉｃｈａｅｌ，Ｇａｂｒｉｅｌ＆Ｒａｐｈａｅｌ合同会社,,合同会社,茨城県,つくば市,谷田部１１４４番地３００,,08,220,3050861,,,2024-11-12,清算の結了等,,,2019-10-04,1,,,,,ミカエルガブリエルアンドラファエル,0
493,2060002011533,登記記録の閉鎖等,0,2024-11-21,2024-11-19,有限会社佐宗屋,,有限会社,栃木県,宇都宮市,田下町５５８番地,,09,201,3210343,,,2024-11-19,清算の結了等,,,2015-10-05,1,,,,,サソウヤ,0
494,2060002022308,登記記録の閉鎖等,0,2024-11-21,2024-11-20,有限会社すみれ,,有限会社,栃木県,那須塩原市,本町６番３３号,,09,213,3250056,,,2024-11-20,清算の結了等,,,2015-10-05,1,,,,,スミレ,0
496,2070002009717,登記記録の閉鎖等,0,2024-11-21,2024-11-14,有限会社ケイエステイー,,有限会社,群馬県,高崎市,高浜町２３５０番地２,,10,202,3703333,,,2024-11-14,清算の結了等,,,2015-10-05,1,,,,,ケイエステイー,0
511,2100002033168,登記記録の閉鎖等,0,2024-11-21,2024-11-11,有限会社原商事,,有限会社,長野県,伊那市,御園１２１５番地２,,20,209,3960022,,,2024-11-11,清算の結了等,,,2015-10-05,1,,,,,ハラショウジ,0
514,2120001064914,登記記録の閉鎖等,0,2024-11-21,2024-11-18,株式会社シーズサービス,,株式会社,大阪府,大阪市北区,西天満５丁目９番１１号,,27,127,5300047,,,2024-11-18,清算の結了等,,,2015-10-05,1,,,,,シーズサービス,0
516,2120001115873,登記記録の閉鎖等,0,2024-11-21,2024-11-15,株式会社日本軽貨物,,株式会社,大阪府,吹田市,広芝町８番１２号,,27,205,5640052,,,2024-11-15,清算の結了等,,,2015-10-05,1,,,,,ニホンケイカモツ,0
517,2120001117003,登記記録の閉鎖等,0,2024-11-21,2024-11-19,株式会社イシバシ,,株式会社,東京都,品川区,上大崎３丁目１番１号目黒セントラルスクエア１５階,,13,109,1410021,,,2024-11-19,合併による解散等,2010703007306,令和６年１１月１９日東京都品川区上大崎三丁目１番１号目黒セントラルスクエア１５階Ｉホールディングス合同会社（2010703007306）に合併し解散,2015-10-05,1,,,,,イシバシ,0
520,2120001147388,登記記録の閉鎖等,0,2024-11-21,2024-11-20,イシイ産業株式会社,,株式会社,大阪府,寝屋川市,桜木町２番２号,,27,215,5720041,,,2024-11-20,清算の結了等,,,2015-10-05,1,,,,,イシイサンギョウ,0
527,2120001232207,登記記録の閉鎖等,0,2024-11-21,2024-11-14,株式会社ｂ－ｆｒｅｅ,,株式会社,大阪府,大阪市西区,北堀江１丁目２番１０号菊屋ビル９階,,27,106,5500014,,,2024-11-14,清算の結了等,,,2020-10-05,1,,,,,ビーフリー,0
550,2140001037694,登記記録の閉鎖等,0,2024-11-21,2024-11-15,株式会社ＪＢＳ,,株式会社,兵庫県,明石市,北王子町４番４号,,28,203,6730021,,,2024-11-15,清算の結了等,,,2015-10-05,1,,,,,ジェイビーエス,0
576,2180003007857,登記記録の閉鎖等,0,2024-11-21,2024-11-13,合資会社種久商店,,合資会社,愛知県,名古屋市西区,那古野１丁目２１番１３号,,23,104,4510042,,,2024-11-13,清算の結了等,,,2015-10-05,1,,,,,タネキュウショウテン,0
577,2180003017955,登記記録の閉鎖等,0,2024-11-21,2024-11-07,カネタ田中合同会社,,合同会社,愛知県,一宮市,本町２丁目４番４０号,,23,203,4910859,,,2024-11-07,清算の結了等,,,2017-05-19,1,,,,,カネタタナカ,0
580,2180301016626,登記記録の閉鎖等,0,2024-11-21,2024-11-13,株式会社オカケン,,株式会社,愛知県,刈谷市,池田町１丁目８６５番地,,23,210,4480044,,,2024-11-13,清算の結了等,,,2015-10-05,1,,,,,オカケン,0
583,2190002000762,登記記録の閉鎖等,0,2024-11-21,2024-11-20,有限会社シルク,,有限会社,三重県,津市,雲出島貫町９２４番地の１,,24,201,5140305,,,2024-11-20,清算の結了等,,,2015-10-05,1,,,,,シルク,0
592,2220005007248,登記記録の閉鎖等,0,2024-11-21,2024-11-13,特定非営利活動法人清水育英会,,その他の設立登記法人,石川県,かほく市,高松ム１９番地１,,17,209,9291215,,,2024-11-13,清算の結了等,,,2015-10-05,1,,,,,シミズイクエイカイ,0
594,2230002011796,登記記録の閉鎖等,0,2024-11-21,2024-11-18,有限会社花秀商店,,有限会社,富山県,高岡市,末広町１００３番地,,16,202,9330023,,,2024-11-18,清算の結了等,,,2015-10-05,1,,,,,ハナヒデショウテン,0
602,2290001050468,登記記録の閉鎖等,0,2024-11-21,2024-10-18,トキヤ興産株式会社,,株式会社,福岡県,小郡市,福童３９０番地の７,,40,216,8380137,,,2024-10-18,清算の結了等,,,2015-10-05,1,,,,,トキヤコウサン,0
607,2290005003273,登記記録の閉鎖等,0,2024-11-21,2024-10-24,特定非営利活動法人さくらの会,,その他の設立登記法人,福岡県,福岡市早良区,原７丁目１１番１９号,,40,137,8140022,,,2024-10-24,清算の結了等,,,2015-10-05,1,,,,,サクラノカイ,0
620,2340001002819,登記記録の閉鎖等,0,2024-11-21,2024-11-18,株式会社鶴亀物産,,株式会社,鹿児島県,鹿児島市,下福元町９０９０番地７,,46,201,8910144,,,2024-11-18,清算の結了等,,,2015-10-05,1,,,,,ツルカメブッサン,0
628,2370001045559,登記記録の閉鎖等,0,2024-11-21,2024-11-14,株式会社Ｓ．ｕ．ｔ．ｙ,,株式会社,宮城県,仙台市青葉区,中央１丁目６番２３号鹿島ビル２０２,,04,101,9800021,,,2024-11-14,清算の結了等,,,2020-03-24,1,,,,,スティー,0
639,2390002009429,登記記録の閉鎖等,0,2024-11-21,2024-11-13,有限会社ジェイエイ運輸,,有限会社,山形県,鶴岡市,茅原町１０番１１号,,06,203,9970018,,,2024-11-13,清算の結了等,,,2015-10-05,1,,,,,ジェイエイウンユ,0
646,2430001060741,登記記録の閉鎖等,0,2024-11-21,2024-11-18,株式会社ハウス流通,,株式会社,北海道,札幌市豊平区,平岸四条１３丁目４番１５号,,01,105,0620934,,,2024-11-18,清算の結了等,,,2015-10-05,1,,,,,ハウスリュウツウ,0
666,3010001168312,登記記録の閉鎖等,0,2024-11-21,2024-11-07,Ｄａｔｏｒａｍａ　Ｊａｐａｎ株式会社,,株式会社,東京都,千代田区,丸の内１丁目１番３号,,13,101,1000005,,,2024-11-07,清算の結了等,,,2015-10-05,1,,,,,ダトラマジャパン,0
668,3010001222143,登記記録の閉鎖等,0,2024-11-21,2024-10-31,ＷｈａｌｅＦｉｎ　Ｔｅｃｈｎｏｌｏｇｉｅｓ　Ｊａｐａｎ株式会社,,株式会社,東京都,目黒区,下目黒１丁目８番１号,,13,110,1530064,,,2024-10-31,清算の結了等,,,2021-10-29,1,,,,,ウォールフィンテクノロジーズジャパン,0
714,3010401183992,登記記録の閉鎖等,0,2024-11-21,2024-11-15,ＤＲＳ株式会社,,株式会社,東京都,港区,六本木１丁目６番１号泉ガーデンタワー１０階,,13,103,1060032,,,2024-11-15,合併による解散等,4011001072940,令和６年１０月１日東京都渋谷区恵比寿四丁目２０番３号恵比寿ガーデンプレイスタワー３５階株式会社アンビションＤＸホールディングス（4011001072940）に合併し解散,2024-07-26,1,,,,,ディーアールエス,0
715,3010403027248,登記記録の閉鎖等,0,2024-11-21,2024-11-06,合同会社エスアールディーエム,,合同会社,東京都,港区,赤坂２丁目１０番５号税理士法人赤坂国際会計事務所内,,13,103,1070052,,,2024-11-06,清算の結了等,,,2022-03-11,1,,,,,エスアールディーエム,0
724,3010701020193,登記記録の閉鎖等,0,2024-11-21,2024-11-15,株式会社アダック,,株式会社,東京都,品川区,大崎３丁目６番２８号,,13,109,1410032,,,2024-11-15,清算の結了等,,,2015-10-05,1,,,,,アダック,0
739,3011001143156,登記記録の閉鎖等,0,2024-11-21,2024-10-25,株式会社ｓｉｄｅｌｉｎｅ,,株式会社,東京都,渋谷区,神宮前３丁目４１番５号,,13,113,1500001,,,2024-10-25,清算の結了等,,,2021-10-04,1,,,,,サイドライン,0
755,3011801006289,登記記録の閉鎖等,0,2024-11-21,2024-11-14,永大建材株式会社,,株式会社,東京都,足立区,千住旭町１番２４－１０１号,,13,121,1200026,,,2024-11-14,清算の結了等,,,2015-10-05,1,,,,,エイダイケンザイ,0
765,3013201017305,登記記録の閉鎖等,0,2024-11-21,2024-10-31,株式会社ＲＡＳＰＡＬ,,株式会社,東京都,目黒区,原町２丁目２１番１５号,,13,110,1520011,,,2024-10-31,清算の結了等,,,2015-10-05,1,,,,,ラスパル,0
772,3020001143165,登記記録の閉鎖等,0,2024-11-21,2024-11-11,株式会社レインボーエステート,,株式会社,神奈川県,横浜市港北区,篠原東２丁目１６番７－７０５号,,14,109,2220022,,,2024-11-11,清算の結了等,,,2021-09-28,1,,,,,レインボーエステート,0
778,3020003006378,登記記録の閉鎖等,0,2024-11-21,2024-11-18,日本エーシーイー合同会社,,合同会社,神奈川県,相模原市南区,新磯野４丁目３番５－１０８号,,14,153,2520325,,,2024-11-18,清算の結了等,,,2015-10-05,1,,,,,ニホンエーシーイー,0
787,3021003009627,登記記録の閉鎖等,0,2024-11-21,2024-11-20,ＩＮ　Ａ　ＰＩＮＣＨ合同会社,,合同会社,神奈川県,三浦郡葉山町,一色７７６－４－３０１,,14,301,2400111,,,2024-11-20,清算の結了等,,,2020-08-19,1,,,,,インナピンチ,0
790,3030001049964,登記記録の閉鎖等,0,2024-11-21,2024-11-18,株式会社ワンズリプラスチックス,,株式会社,埼玉県,朝霞市,溝沼２丁目１２番２０号,,11,227,3510023,,,2024-11-18,清算の結了等,,,2015-10-05,1,,,,,ワンズリプラスチックス,0
806,3040005018551,登記記録の閉鎖等,0,2024-11-21,2024-11-19,一般社団法人日本フットバレー協会,,その他の設立登記法人,千葉県,千葉市美浜区,高浜１丁目６番４号,,12,106,2610003,,,2024-11-19,清算の結了等,,,2015-10-05,1,,,,,ニホンフットバレーキョウカイ,0
808,3050001012730,登記記録の閉鎖等,0,2024-11-21,2024-11-12,株式会社ノダファーマ,,株式会社,茨城県,水戸市,自由が丘３番２１号,,08,201,3100042,,,2024-11-12,清算の結了等,,,2015-10-05,1,,,,,ノダファーマ,0
815,3060002008470,登記記録の閉鎖等,0,2024-11-21,2024-11-13,有限会社まさかコンサルタンツ,,有限会社,栃木県,宇都宮市,平出町１６４４番地,,09,201,3210901,,,2024-11-13,清算の結了等,,,2015-10-05,1,,,,,マサカコンサルタンツ,0
816,3060002035663,登記記録の閉鎖等,0,2024-11-21,2024-11-15,有限会社オオノ企画,,有限会社,栃木県,足利市,小曽根町２９４番地１,,09,202,3260326,,,2024-11-15,清算の結了等,,,2015-10-05,1,,,,,オオノキカク,0
819,3070001019526,登記記録の閉鎖等,0,2024-11-21,2024-11-14,株式会社スライブ電気工業,,株式会社,群馬県,太田市,世良田町１２５５番地,,10,205,3700426,,,2024-11-14,清算の結了等,,,2015-10-05,1,,,,,スライブデンキコウギョウ,0
826,3090001012917,登記記録の閉鎖等,0,2024-11-21,2024-11-18,株式会社ＲＢＣカーセールス,,株式会社,山梨県,甲府市,酒折３丁目６番１９号,,19,201,4000805,,,2024-11-18,清算の結了等,,,2015-10-05,1,,,,,アールビーシーカーセールス,0
830,3110001012831,登記記録の閉鎖等,0,2024-11-21,2024-11-14,株式会社二十一世紀,,株式会社,新潟県,新発田市,虎丸字山ノ下４３８番地１,,15,206,9570332,,,2024-11-14,清算の結了等,,,2015-10-05,1,,,,,ニジュウイッセイキ,0
841,3120001245521,登記記録の閉鎖等,0,2024-11-21,2024-11-18,合気株式会社,,株式会社,神奈川県,相模原市中央区,相模原５丁目１１－９日神パレステージ相模原６０６号室,,14,152,2520231,,,2024-11-18,清算の結了等,,,2022-04-27,1,,,,,アイキ,0
866,3130005007116,登記記録の閉鎖等,0,2024-11-21,2024-11-18,特定非営利活動法人レスパイト八坂,,その他の設立登記法人,京都府,宇治市,木幡御蔵山３９番地の６７４,,26,204,6110002,,,2024-11-18,清算の結了等,,,2015-10-05,1,,,,,レスパイトヤサカ,0
868,3140001039145,登記記録の閉鎖等,0,2024-11-21,2024-11-15,株式会社福知渓谷,,株式会社,兵庫県,宍粟市,一宮町福知５６５番地,,28,227,6714122,,,2024-11-15,清算の結了等,,,2015-10-05,1,,,,,フクチケイコク,0
880,3180002086281,登記記録の閉鎖等,0,2024-11-21,2024-11-08,有限会社丸八石油,,有限会社,愛知県,常滑市,金山字石田９８番地の１,,23,216,4790003,,,2024-11-08,清算の結了等,,,2015-10-05,1,,,,,マルハチセキユ,0
881,3180003010686,登記記録の閉鎖等,0,2024-11-21,2024-11-12,合資会社丈山,00073885,合資会社,愛知県,瀬戸市,赤津町６３番地,,23,204,4890022,,,2024-11-12,清算の結了等,,,2015-10-05,1,,,,,ジョウザン,0
885,3180303005923,登記記録の閉鎖等,0,2024-11-21,2024-11-14,合同会社Ａｓｔｙｌｅ,,合同会社,愛知県,豊田市,越戸町安貝戸５８番地１５,,23,211,4700332,,,2024-11-14,清算の結了等,,,2023-12-07,1,,,,,エースタイル,0
904,3270001007080,登記記録の閉鎖等,0,2024-11-21,2024-11-19,ＭＴＳ株式会社,,株式会社,鳥取県,鳥取市,賀露町４００１番地,,31,201,6800905,,,2024-11-19,清算の結了等,,,2016-10-21,1,,,,,エムティーエス,0
906,3290001076396,登記記録の閉鎖等,0,2024-11-21,2024-10-21,地元電力株式会社,,株式会社,福岡県,福岡市東区,香椎２丁目２３番８－１０１号,,40,131,8130011,,,2024-10-21,清算の結了等,,,2017-01-17,1,,,,,ジモトデンリョク,0
914,3290002041746,登記記録の閉鎖等,0,2024-11-21,2024-10-21,有限会社ニューライフ二十一,,有限会社,福岡県,太宰府市,朱雀１丁目８番１０号,,40,221,8180103,,,2024-10-21,清算の結了等,,,2015-10-05,1,,,,,ニューライフニジュウイチ,0
916,3290002052066,登記記録の閉鎖等,0,2024-11-21,2024-10-23,有限会社創,,有限会社,福岡県,三井郡大刀洗町,大字上高橋１２２３番地の２,,40,503,8301222,,,2024-10-23,清算の結了等,,,2015-10-05,1,,,,,ソウ,0
930,3370001044849,登記記録の閉鎖等,0,2024-11-21,2024-11-13,株式会社西城タイル,,株式会社,宮城県,気仙沼市,早稲谷２２８番地,,04,205,9880865,,,2024-11-13,清算の結了等,,,2019-09-20,1,,,,,サイジョウタイル,0
931,3370005000162,登記記録の閉鎖等,0,2024-11-21,2024-11-11,一般財団法人愛知揆一福祉振興会,,その他の設立登記法人,宮城県,仙台市青葉区,米ケ袋１丁目５番２１号,,04,101,9800813,,,2024-11-11,清算の結了等,,,2015-10-05,1,,,,,アイチキイチフクシシンコウカイ,0
935,3380001021129,登記記録の閉鎖等,0,2024-11-21,2024-11-07,株式会社アロゴ,,株式会社,福島県,郡山市,並木１丁目１番地の２１,,07,203,9638026,,,2024-11-07,清算の結了等,,,2015-10-05,1,,,,,アロゴ,0
940,3390001009461,登記記録の閉鎖等,0,2024-11-21,2024-11-05,双葉地質調査株式会社,,株式会社,山形県,東根市,大字蟹沢字楯ノ越１３４１番地ノ２７,,06,211,9993716,,,2024-11-05,清算の結了等,,,2015-10-05,1,,,,,フタバチシツチョウサ,0
943,3410002002173,登記記録の閉鎖等,0,2024-11-21,2024-11-18,有限会社スダ薬局,,有限会社,秋田県,秋田市,保戸野通町１番１４号,,05,201,0100912,,,2024-11-18,清算の結了等,,,2015-10-05,1,,,,,スダヤッキョク,0
950,3440002007112,登記記録の閉鎖等,0,2024-11-21,2024-11-19,有限会社セレクト,,有限会社,北海道,函館市,宮前町２１番３号,,01,202,0400073,,,2024-11-19,清算の結了等,,,2015-10-05,1,,,,,セレクト,0
992,4010003028728,登記記録の閉鎖等,0,2024-11-21,2024-11-07,合同会社ＦＦ１,,合同会社,東京都,中央区,日本橋１丁目４番１号,,13,102,1030027,,,2024-11-07,清算の結了等,,,2018-11-20,1,,,,,エフエフワン,0
1001,4010405018186,登記記録の閉鎖等,0,2024-11-21,2024-11-18,一般社団法人大森,,その他の設立登記法人,岡山県,岡山市北区,田町１丁目１０番１号,,33,101,7000825,,,2024-11-18,清算の結了等,,,2019-10-29,1,,,,,オオモリ,0
1007,4010602011373,登記記録の閉鎖等,0,2024-11-21,2024-11-15,有限会社関工業所,,有限会社,東京都,墨田区,太平４丁目１１番１２号,,13,107,1300012,,,2024-11-15,清算の結了等,,,2015-10-05,1,,,,,,0
1009,4010802016222,登記記録の閉鎖等,0,2024-11-21,2024-11-01,有限会社トリックス,,有限会社,東京都,港区,西麻布４丁目７番１１号,,13,103,1060031,,,2024-11-01,清算の結了等,,,2015-10-05,1,,,,,トリックス,0
1011,4011001059343,登記記録の閉鎖等,0,2024-11-21,2024-11-13,株式会社和宏,,株式会社,東京都,町田市,大蔵町５０２－５ワンルームマンション大蔵２０１号室,,13,209,1950062,,,2024-11-13,清算の結了等,,,2015-10-05,1,,,,,,0
1013,4011001104231,登記記録の閉鎖等,0,2024-11-21,2024-11-18,株式会社ＲＢエージェンシー,,株式会社,東京都,杉並区,松庵２丁目１３番３４号,,13,115,1670054,,,2024-11-18,合併による解散等,7011002036669,令和６年１１月１８日東京都武蔵野市中町１－２２－９小川ビル２階株式会社ＲＢＡ（7011002036669）に合併し解散,2015-10-05,1,,,,,アールビーエージェンシー,0
1015,4011002001304,登記記録の閉鎖等,0,2024-11-21,2024-10-23,有限会社エイディエスティ,,有限会社,東京都,渋谷区,東３丁目１５番２号,,13,113,1500011,,,2024-10-23,清算の結了等,,,2015-10-05,1,,,,,エイディエスティ,0
1025,4011702013094,登記記録の閉鎖等,0,2024-11-21,2024-10-31,吉田メディカルサービス有限会社,,有限会社,東京都,渋谷区,大山町２３番１６号,,13,113,1510065,,,2024-10-31,清算の結了等,,,2015-10-05,1,,,,,ヨシダメディカルサービス,0
1032,4013201016504,登記記録の閉鎖等,0,2024-11-21,2024-10-30,株式会社トラスター,,株式会社,東京都,目黒区,駒場２丁目１番７－２０５号,,13,110,1530041,,,2024-10-30,清算の結了等,,,2015-10-05,1,,,,,トラスター,0
1046,4020002000091,登記記録の閉鎖等,0,2024-11-21,2024-11-12,有限会社井上電器,,有限会社,神奈川県,横浜市栄区,若竹町２７番１６号,,14,115,2470012,,,2024-11-12,清算の結了等,,,2015-10-05,1,,,,,イノウエデンキ,0
1052,4021002028965,登記記録の閉鎖等,0,2024-11-21,2024-11-19,有限会社栄左官,,有限会社,神奈川県,相模原市緑区,三ケ木１５６６番地,,14,151,2520159,,,2024-11-19,清算の結了等,,,2015-10-05,1,,,,,サカエサカン,0
1067,4030002077526,登記記録の閉鎖等,0,2024-11-21,2024-11-19,川島製畳有限会社,,有限会社,埼玉県,比企郡川島町,大字鳥羽井新田４番地,,11,346,3500112,,,2024-11-19,清算の結了等,,,2015-10-05,1,,,,,カワジマセイジョウ,0
1072,4040001048477,登記記録の閉鎖等,0,2024-11-21,2024-11-18,湾岸ケミカル株式会社,,株式会社,千葉県,八街市,八街ろ１４５番地９０,,12,230,2891144,,,2024-11-18,清算の結了等,,,2015-10-05,1,,,,,ワンガンケミカル,0
1073,4040001095214,登記記録の閉鎖等,0,2024-11-21,2024-11-18,株式会社ブイズリンク,,株式会社,千葉県,船橋市,印内町５６５番地３,,12,204,2730025,,,2024-11-18,清算の結了等,,,2016-05-13,1,,,,,ブイズリンク,0
1084,4050005003114,登記記録の閉鎖等,0,2024-11-21,2024-09-30,天理教本安分教会,,その他の設立登記法人,茨城県,土浦市,湖北１丁目９番８号,,08,203,3000032,,,2024-09-30,合併による解散等,4010605000448,令和６年９月２４日東京都墨田区本所一丁目１３番１７号天理教東本大教会（4010605000448）に合併し解散,2015-10-05,1,,,,,,0
1087,4080001013312,登記記録の閉鎖等,0,2024-11-21,2024-11-15,株式会社ミズノ,,株式会社,静岡県,島田市,中河２４４番地,,22,209,4270103,,,2024-11-15,清算の結了等,,,2015-10-05,1,,,,,ミズノ,0
1096,4090002010539,登記記録の閉鎖等,0,2024-11-21,2024-11-18,有限会社ヤナイ・スポーツ,,有限会社,山梨県,都留市,上谷１丁目３番１０号,,19,204,4020053,,,2024-11-18,清算の結了等,,,2015-10-05,1,,,,,ヤナイスポーツ,0
1106,4120001182086,登記記録の閉鎖等,0,2024-11-21,2024-11-18,株式会社Ｄｏｕｂｌｅ　Ｌｉｆｅ,,株式会社,大阪府,大阪市城東区,成育３丁目９番１９号,,27,118,5360007,,,2024-11-18,清算の結了等,,,2015-10-05,1,,,,,,0
1115,4120002065744,登記記録の閉鎖等,0,2024-11-21,2024-11-18,株式会社前田金型製作所,,株式会社,大阪府,大阪市城東区,中浜３丁目５番２２号,,27,118,5360024,,,2024-11-18,清算の結了等,,,2015-10-05,1,,,,,マエダカナガタセイサクショ,0
1126,4120901028900,登記記録の閉鎖等,0,2024-11-21,2024-11-18,Ｈｏｍｅ　Ｄｅｓｉｇｎ　Ｓｕｐｐｏｒｔ株式会社,,株式会社,大阪府,箕面市,箕面５丁目１２番６８号２階,,27,220,5620001,,,2024-11-18,清算の結了等,,,2015-10-05,1,,,,,ホームデザインサポート,0
1129,4130001053856,登記記録の閉鎖等,0,2024-11-21,2024-11-18,株式会社ＧＥＮＥＳＩＳ,,株式会社,京都府,京都市中京区,烏丸通御池下る虎屋町５６６－１井門明治安田生命ビル,,26,104,6048171,,,2024-11-18,清算の結了等,,,2015-10-05,1,,,,,ジェネシス,0
1147,4180001137679,登記記録の閉鎖等,0,2024-11-21,2024-11-12,トランジションマネジメント総研株式会社,,株式会社,愛知県,名古屋市名東区,高社１丁目１３６番地,,23,115,4650095,,,2024-11-12,清算の結了等,,,2019-08-06,1,,,,,トランジションマネジメントソウケン,0
1176,4290001032159,登記記録の閉鎖等,0,2024-11-21,2024-10-22,Ｋ－ＮＥＴ西日本株式会社,,株式会社,福岡県,福岡市早良区,城西２丁目９番１４－３０１号,,40,137,8140003,,,2024-10-22,清算の結了等,,,2015-10-05,1,,,,,ケイネットニシニホン,0
1187,4290805006787,登記記録の閉鎖等,0,2024-11-21,2024-11-08,福照寺,,その他の設立登記法人,福岡県,行橋市,大字津積３７６番地,,40,213,8240047,,,2024-11-08,清算の結了等,,,2015-10-05,1,,,,,フクショウジ,0
1188,4310001000311,登記記録の閉鎖等,0,2024-11-21,2024-11-15,株式会社こづち,,株式会社,長崎県,長崎市,三和町２１８番地４７,,42,201,8500975,,,2024-11-15,清算の結了等,,,2015-10-05,1,,,,,コヅチ,0
1205,4370005009475,登記記録の閉鎖等,0,2024-11-21,2024-11-14,一般社団法人花降る街仙台,,その他の設立登記法人,宮城県,仙台市青葉区,本町２丁目６番３０号,,04,101,9800014,,,2024-11-14,清算の結了等,,,2018-06-08,1,,,,,ハナフルマチセンダイ,0
1207,4380001033073,登記記録の閉鎖等,0,2024-11-21,2024-11-01,株式会社いわき管材,,株式会社,福島県,いわき市,平豊間字洞１９７番地,,07,204,9700224,,,2024-11-01,清算の結了等,,,2022-08-31,1,,,,,イワキカンザイ,0
1208,4380005012825,登記記録の閉鎖等,0,2024-11-21,2024-11-08,ＮＰＯ法人スマイルライフふくしま,,その他の設立登記法人,福島県,須賀川市,森宿字鍛治山１９番地７,,07,207,9620001,,,2024-11-08,清算の結了等,,,2024-04-26,1,,,,,スマイルライフフクシマ,0
1276,5010101007277,登記記録の閉鎖等,0,2024-11-21,2024-11-18,株式会社青木万年堂,,株式会社,東京都,八王子市,寺町３８番地,,13,201,1920073,,,2024-11-18,清算の結了等,,,2015-10-05,1,,,,,アオキマンネンドウ,0
1282,5010405020414,登記記録の閉鎖等,0,2024-11-21,2024-11-06,一般社団法人Ａｂｕｚｕｒｉ,,その他の設立登記法人,東京都,港区,虎ノ門５丁目１番４号,,13,103,1050001,,,2024-11-06,清算の結了等,,,2021-11-11,1,,,,,アブズリ,0
1285,5010601036619,登記記録の閉鎖等,0,2024-11-21,2024-11-15,ウィンフィールド株式会社,,株式会社,東京都,墨田区,江東橋２丁目１９番７号,,13,107,1300022,,,2024-11-15,清算の結了等,,,2015-10-05,1,,,,,ウィンフィールド,0
1300,5011001150035,登記記録の閉鎖等,0,2024-11-21,2024-10-29,株式会社Ｓａｎａｒｅ,,株式会社,東京都,渋谷区,渋谷１丁目１０番３－１００１号,,13,113,1500002,,,2024-10-29,清算の結了等,,,2022-10-03,1,,,,,サナーレ,0
1313,5011202000567,登記記録の閉鎖等,0,2024-11-21,2024-11-19,有限会社いそべ書店,,有限会社,東京都,中野区,中野５丁目６６番８号,,13,114,1640001,,,2024-11-19,清算の結了等,,,2015-10-05,1,,,,,イソベショテン,0
1322,5012403004043,登記記録の閉鎖等,0,2024-11-21,2024-11-19,合同会社Ａｄｅｌａｎｔｅ,,合同会社,東京都,武蔵野市,中町２丁目１番１５号,,13,203,1800006,,,2024-11-19,清算の結了等,,,2019-09-27,1,,,,,アデランテ,0
1343,5021001064713,登記記録の閉鎖等,0,2024-11-21,2024-11-19,株式会社ボディシェイプ,,株式会社,神奈川県,横須賀市,金谷３丁目４番９号,,14,201,2380034,,,2024-11-19,清算の結了等,,,2018-05-17,1,,,,,ボディシェイプ,0
1344,5021001077376,登記記録の閉鎖等,0,2024-11-21,2024-11-15,株式会社建築工房青木,,株式会社,神奈川県,伊勢原市,上粕屋３１４１番地の２,,14,214,2591141,,,2024-11-15,清算の結了等,,,2022-11-08,1,,,,,ケンチクコウボウアオキ,0
1368,5070001023360,登記記録の閉鎖等,0,2024-11-21,2024-11-19,兵藤建設株式会社,,株式会社,群馬県,利根郡昭和村,大字森下４０１番地の１,,10,448,3791204,,,2024-11-19,清算の結了等,,,2015-10-05,1,,,,,ヒョウドウケンセツ,0
1373,5080101006306,登記記録の閉鎖等,0,2024-11-21,2024-11-19,三和化工機株式会社,,株式会社,静岡県,三島市,緑町１４番２３号,,22,206,4110848,,,2024-11-19,清算の結了等,,,2015-10-05,1,,,,,サンワカコウキ,0
1388,5120001165882,登記記録の閉鎖等,0,2024-11-21,2024-11-18,株式会社丸三食品,,株式会社,大阪府,大阪市東住吉区,今林２丁目１３番２９号,,27,121,5460001,,,2024-11-18,清算の結了等,,,2015-10-05,1,,,,,マルミショクヒン,0
1417,5180001022475,登記記録の閉鎖等,0,2024-11-21,2024-11-12,株式会社名古屋光林堂,,株式会社,愛知県,名古屋市熱田区,花表町２０番４１号,,23,109,4560033,,,2024-11-12,清算の結了等,,,2015-10-05,1,,,,,ナゴヤコウリンドウ,0
1421,5180001060806,登記記録の閉鎖等,0,2024-11-21,2024-11-18,佐藤設計株式会社,,株式会社,愛知県,名古屋市熱田区,高蔵町６番１１号,,23,109,4560015,,,2024-11-18,清算の結了等,,,2015-10-05,1,,,,,サトウセッケイ,0
1422,5180001087824,登記記録の閉鎖等,0,2024-11-21,2024-11-12,吉江産業株式会社,,株式会社,愛知県,岩倉市,稲荷町郷廻６０２番地の２,,23,228,4820012,,,2024-11-12,清算の結了等,,,2015-10-05,1,,,,,ヨシエサンギョウ,0
1440,5190002017218,登記記録の閉鎖等,0,2024-11-21,2024-11-18,有限会社ミナミ電子機器,,有限会社,三重県,桑名市,野田２丁目７番地の１２２,,24,205,5110904,,,2024-11-18,清算の結了等,,,2015-10-05,1,,,,,ミナミデンシキキ,0
1442,5220005001462,登記記録の閉鎖等,0,2024-11-21,2024-11-20,石川県金沢ハイタク事業協同組合,,その他の設立登記法人,石川県,金沢市,出雲町イ６３番地１,,17,201,9200056,,,2024-11-20,清算の結了等,,,2015-10-05,1,,,,,イシカワケンカナザワハイタク,0
1444,5240001041601,登記記録の閉鎖等,0,2024-11-21,2024-11-18,株式会社ハンプティ,,株式会社,広島県,広島市中区,幟町３番６２－７０２号,,34,101,7300016,,,2024-11-18,清算の結了等,,,2015-10-05,1,,,,,ハンプティ,0
1477,5380001020640,登記記録の閉鎖等,0,2024-11-21,2024-11-01,株式会社つばめ産業,,株式会社,東京都,港区,南青山６丁目１０番９－３０１号,,13,103,1070062,,,2024-11-01,合併による解散等,5010001120683,令和６年１１月１日東京都港区南青山六丁目１０番９－３０１号株式会社中原ナレッジ（5010001120683）に合併し解散,2015-10-05,1,,,,,ツバメサンギョウ,0
1478,5380002005624,登記記録の閉鎖等,0,2024-11-21,2024-11-06,有限会社イシモリデザインアイランド,,有限会社,福島県,福島市,北沢又字欠ケ１５番地の１８,,07,201,9608251,,,2024-11-06,清算の結了等,,,2015-10-05,1,,,,,イシモリデザインアイランド,0
1481,5390005002345,登記記録の閉鎖等,0,2024-11-21,2024-11-08,特定非営利活動法人あい在宅福祉サービス,,その他の設立登記法人,山形県,山形市,旅篭町１丁目１０番２３号,,06,201,9900047,,,2024-11-08,清算の結了等,,,2015-10-05,1,,,,,アイザイタクフクシサービス,0
1483,5410001010935,登記記録の閉鎖等,0,2024-11-21,2024-11-05,同和住研工業株式会社,,株式会社,秋田県,秋田市,千秋矢留町９番４号,,05,201,0100877,,,2024-11-05,清算の結了等,,,2024-08-16,1,,,,,,0
1485,5410001013434,登記記録の閉鎖等,0,2024-11-21,2024-11-05,株式会社造形舎,,株式会社,秋田県,秋田市,八橋本町４丁目１０番１５号,,05,201,0100973,,,2024-11-05,清算の結了等,,,2023-04-04,1,,,,,,0
1486,5410002005769,登記記録の閉鎖等,0,2024-11-21,2024-11-18,有限会社戸田苑,,有限会社,秋田県,潟上市,天王字江川谷地７４番地７４,,05,211,0100201,,,2024-11-18,清算の結了等,,,2015-10-05,1,,,,,,0
1490,5430002012697,登記記録の閉鎖等,0,2024-11-21,2024-11-15,有限会社千扇,,有限会社,北海道,札幌市北区,北六条西８丁目８番地,,01,102,0600806,,,2024-11-15,清算の結了等,,,2015-10-05,1,,,,,チセン,0
1495,5470001005987,登記記録の閉鎖等,0,2024-11-21,2024-11-18,Ｊ－ネットレンタリース瀬戸株式会社,,株式会社,香川県,高松市,朝日新町２３番２４号,,37,201,7600064,,,2024-11-18,清算の結了等,,,2015-10-05,1,,,,,ジェイネットレンタリースセト,0
1504,6010001131317,登記記録の閉鎖等,0,2024-11-21,2024-11-06,八丈島生コンクリート株式会社,,株式会社,東京都,八丈島八丈町,三根１９５番地１,,13,401,1001511,,,2024-11-06,清算の結了等,,,2015-10-05,1,,,,,,0
1509,6010001206886,登記記録の閉鎖等,0,2024-11-21,2024-11-07,岡田商店株式会社,,株式会社,東京都,文京区,関口１丁目７番５号,,13,105,1120014,,,2024-11-07,清算の結了等,,,2020-01-22,1,,,,,オカダショウテン,0
1559,6010403009532,登記記録の閉鎖等,0,2024-11-21,2024-11-07,Ｈａｎａ合同会社,,合同会社,東京都,千代田区,霞が関３丁目２番５号霞ヶ関国際会計事務所内,,13,101,1000013,,,2024-11-07,清算の結了等,,,2015-10-05,1,,,,,ハナ,0
1560,6010403019201,登記記録の閉鎖等,0,2024-11-21,2024-11-18,合同会社再生不動産,,合同会社,茨城県,日立市,小木津町１丁目３４番１２号,,08,202,3191413,,,2024-11-18,合併による解散等,9010403018745,令和６年１１月１日東京都中央区銀座八丁目１１番１３号ＩＳ銀座レジデンス４０１スクレジャパン合同会社（9010403018745）に合併し解散,2018-08-31,1,,,,,サイセイフドウサン,0
1563,6010405019422,登記記録の閉鎖等,0,2024-11-21,2024-11-06,一般社団法人ＳＡ　ＰＲＯＰＥＲＴＹ４,,その他の設立登記法人,東京都,港区,虎ノ門５丁目１番４号,,13,103,1050001,,,2024-11-06,清算の結了等,,,2021-01-22,1,,,,,エスエープロパティフォー,0
1565,6010601007924,登記記録の閉鎖等,0,2024-11-21,2024-11-14,山越畜産株式会社,,株式会社,東京都,江東区,新大橋２丁目１１番１７－１０２号,,13,108,1350007,,,2024-11-14,清算の結了等,,,2015-10-05,1,,,,,ヤマコシチクサン,0
1569,6010703002328,登記記録の閉鎖等,0,2024-11-21,2024-11-15,合同会社目黒慶應研究会,,合同会社,東京都,品川区,上大崎３丁目４番９号ＳＥＩＷＡビル４０５,,13,109,1410021,,,2024-11-15,清算の結了等,,,2015-10-05,1,,,,,,0
1573,6011001023660,登記記録の閉鎖等,0,2024-11-21,2024-10-22,ヤマニシステム株式会社,,株式会社,東京都,渋谷区,東１丁目４番２７号,,13,113,1500011,,,2024-10-22,清算の結了等,,,2015-10-05,1,,,,,ヤマニシステム,0
1595,6013202007863,登記記録の閉鎖等,0,2024-11-21,2024-10-30,有限会社キャメロット,,有限会社,東京都,目黒区,目黒本町６丁目１８番１８－４０３号,,13,110,1520002,,,2024-10-30,清算の結了等,,,2015-10-05,1,,,,,キャメロット,0
1632,6050002011662,登記記録の閉鎖等,0,2024-11-21,2024-11-13,株式会社秀和,,株式会社,茨城県,土浦市,木田余東台２丁目４番１２号,,08,203,3000027,,,2024-11-13,清算の結了等,,,2015-10-05,1,,,,,シュウワ,0
1634,6060001023451,登記記録の閉鎖等,0,2024-11-21,2024-11-15,株式会社サン・ハイノ,,株式会社,栃木県,佐野市,赤見町２９０９番地１,,09,204,3270104,,,2024-11-15,清算の結了等,,,2015-10-05,1,,,,,サンハイノ,0
1645,6070003005133,登記記録の閉鎖等,0,2024-11-21,2024-11-15,合同会社カンパイワークス,,合同会社,群馬県,藤岡市,藤岡６１９番地,,10,209,3750024,,,2024-11-15,清算の結了等,,,2023-10-17,1,,,,,カンパイワークス,0
1649,6080405006521,登記記録の閉鎖等,0,2024-11-21,2024-11-14,特定非営利活動法人浜松カルチェクラブ,,その他の設立登記法人,静岡県,浜松市中央区,助信町２２番２３号,,22,138,4300903,,,2024-11-14,清算の結了等,,,2015-10-05,1,,,,,ハママツカルチェクラブ,0
1667,6120001261474,登記記録の閉鎖等,0,2024-11-21,2024-11-19,縁信貿易株式会社,,株式会社,大阪府,大阪市西区,阿波座１丁目１１番１９号新興ビル３階Ｃ－４室,,27,106,5500011,,,2024-11-19,清算の結了等,,,2024-01-18,1,,,,,エンシンボウエキ,0
1697,6180001020858,登記記録の閉鎖等,0,2024-11-21,2024-11-12,マキノ工業株式会社,,株式会社,愛知県,名古屋市港区,藤前４丁目２０８番地,,23,111,4550855,,,2024-11-12,清算の結了等,,,2015-10-05,1,,,,,マキノコウギョウ,0
1698,6180001094547,登記記録の閉鎖等,0,2024-11-21,2024-11-12,株式会社フロンティアシステム,,株式会社,愛知県,知多郡阿久比町,大字福住字高根台８番地の１,,23,441,4702202,,,2024-11-12,清算の結了等,,,2015-10-05,1,,,,,フロンティアシステム,0
1708,6200002013560,登記記録の閉鎖等,0,2024-11-21,2024-11-19,有限会社北神モータース,,有限会社,岐阜県,安八郡神戸町,大字丈六道３４５番地の２,,21,381,5032304,,,2024-11-19,清算の結了等,,,2015-10-05,1,,,,,ホクシンモータース,0
1729,6290001008702,登記記録の閉鎖等,0,2024-11-21,2024-10-24,棚橋博多織株式会社,,株式会社,福岡県,福岡市中央区,高砂２丁目２３番１４号,,40,133,8100011,,,2024-10-24,清算の結了等,,,2015-10-05,1,,,,,タナハシハカタオリ,0
1730,6290001037593,登記記録の閉鎖等,0,2024-11-21,2024-10-21,アヤリーシステム株式会社,,株式会社,福岡県,糟屋郡新宮町,湊坂５丁目１番６号,,40,345,8110114,,,2024-10-21,清算の結了等,,,2015-10-05,1,,,,,アヤリーシステム,0
1731,6290001043179,登記記録の閉鎖等,0,2024-11-21,2024-10-16,株式会社アスケン,,株式会社,福岡県,那珂川市,後野１丁目７番７号（ローズィット那珂川１０２号）,,40,231,8111241,,,2024-10-16,清算の結了等,,,2015-10-05,1,,,,,アスケン,0
1760,6360002009873,登記記録の閉鎖等,0,2024-11-21,2024-11-20,株式会社ＷＩＳＥ　ＡＵＴＯＭＯＴＩＶＥ,,株式会社,沖縄県,那覇市,具志３丁目１２－１７かなえマンション３Ｆ,,47,201,9010146,,,2024-11-20,清算の結了等,,,2015-10-05,1,,,,,ワイズオートモーティブ,0
1762,6370002016729,登記記録の閉鎖等,0,2024-11-21,2024-11-14,有限会社創生社,,有限会社,宮城県,仙台市青葉区,愛子中央３丁目１１番３２号,,04,101,9893128,,,2024-11-14,清算の結了等,,,2015-10-05,1,,,,,ソウセイシャ,0
1766,6370402000191,登記記録の閉鎖等,0,2024-11-21,2024-11-13,有限会社福嶋建設,,有限会社,宮城県,登米市,東和町錦織字大舟渡３３番地,,04,212,9870903,,,2024-11-13,清算の結了等,,,2015-10-05,1,,,,,フクシマケンセツ,0
1775,6430001017457,登記記録の閉鎖等,0,2024-11-21,2024-11-15,山立機械商事株式会社,,株式会社,北海道,札幌市西区,西野二条６丁目３番１７号,,01,107,0630032,,,2024-11-15,清算の結了等,,,2015-10-05,1,,,,,サンリツキカイショウジ,0
1783,6430002007424,登記記録の閉鎖等,0,2024-11-21,2024-11-19,有限会社光盛鉄工,,有限会社,北海道,札幌市東区,東苗穂十四条２丁目１５番２７号,,01,103,0070814,,,2024-11-19,清算の結了等,,,2015-10-05,1,,,,,ミツモリテッコウ,0
1788,6490001007709,登記記録の閉鎖等,0,2024-11-21,2024-11-19,株式会社高知フィル,,株式会社,高知県,高知市,廿代町１５番１９－２０３号ダイアパレス追手前,,39,201,7800843,,,2024-11-19,清算の結了等,,,2015-10-05,1,,,,,,0
1793,7010001089967,登記記録の閉鎖等,0,2024-11-21,2024-10-02,テクラ株式会社,,株式会社,東京都,中央区,東日本橋３丁目９番３－１００１号,,13,102,1030004,,,2024-10-02,合併による解散等,5010601027766,令和６年９月３０日東京都江東区住吉二丁目２４番５号遠山株式会社（5010601027766）に合併し解散,2015-10-05,1,,,,,テクラ,0
1796,7010001214475,登記記録の閉鎖等,0,2024-11-21,2024-11-15,日本藤原株式会社,,株式会社,東京都,千代田区,東神田２丁目６番７号６０８,,13,101,1010031,,,2024-11-15,清算の結了等,,,2020-12-17,1,,,,,ニホンフジワラ,0
1826,7010003029145,登記記録の閉鎖等,0,2024-11-21,2024-11-07,オスカーＵＳファンディング１０合同会社,,合同会社,東京都,千代田区,丸の内３丁目１番１号東京共同会計事務所内,,13,101,1000005,,,2024-11-07,清算の結了等,,,2019-01-24,1,,,,,オスカーユーエスファンディングテン,0
1827,7010003044813,登記記録の閉鎖等,0,2024-11-21,2024-11-07,合同会社公明,,合同会社,東京都,中央区,八丁堀２丁目７番１号,,13,102,1040032,,,2024-11-07,合併による解散等,5010001043918,令和６年１１月１日東京都中央区八丁堀二丁目７番１号株式会社公大エージェンシー（5010001043918）に合併し解散,2024-09-20,1,,,,,コウメイ,0
1830,7010005035901,登記記録の閉鎖等,0,2024-11-21,2024-11-15,一般社団法人ＣＣＦ２号,,その他の設立登記法人,東京都,中央区,八丁堀４丁目２番１０号ＡＯＪ税理士法人内,,13,102,1040032,,,2024-11-15,清算の結了等,,,2022-12-13,1,,,,,シーシーエフニゴウ,0
1846,7010403022708,登記記録の閉鎖等,0,2024-11-21,2024-11-12,株式会社エイトマネジメント,,株式会社,東京都,世田谷区,砧１丁目２６番６号,,13,112,1570073,,,2024-11-12,清算の結了等,,,2020-03-26,1,,,,,エイトマネジメント,0
1856,7010801018010,登記記録の閉鎖等,0,2024-11-21,2024-11-01,株式会社ソウル・エッジ,,株式会社,神奈川県,横浜市西区,南幸１丁目５番２４号,,14,103,2200005,,,2024-11-01,合併による解散等,9020002017296,令和６年１１月１日横浜市西区南幸一丁目５番２４号株式会社パソピアード（9020002017296）に合併し解散,2015-10-05,1,,,,,ソウルエッジ,0
1884,7013402002283,登記記録の閉鎖等,0,2024-11-21,2024-11-20,有限会社三力商事,,有限会社,東京都,多摩市,桜ヶ丘１丁目７番地の１２,,13,224,2060013,,,2024-11-20,清算の結了等,,,2015-10-05,1,,,,,,0
1889,7020002080973,登記記録の閉鎖等,0,2024-11-21,2024-11-11,有限会社三洋精密製作所,,有限会社,神奈川県,川崎市幸区,南加瀬５丁目２１番５号,,14,132,2120055,,,2024-11-11,清算の結了等,,,2015-10-05,1,,,,,サンヨウセイミツセイサクジョ,0
1919,7050002032443,登記記録の閉鎖等,0,2024-11-21,2024-11-14,有限会社下山田電機商会,,有限会社,茨城県,北茨城市,磯原町磯原１丁目８８番地,,08,215,3191541,,,2024-11-14,清算の結了等,,,2015-10-05,1,,,,,シモヤマダデンキショウカイ,0
1922,7050003004573,登記記録の閉鎖等,0,2024-11-21,2024-11-14,いさお企画合同会社,,合同会社,茨城県,古河市,磯部１００８番地４,,08,204,3060225,,,2024-11-14,清算の結了等,,,2019-03-18,1,,,,,イサオキカク,0
1932,7080101012418,登記記録の閉鎖等,0,2024-11-21,2024-10-10,株式会社シーキューブ静岡,,株式会社,静岡県,駿東郡清水町,卸団地２６９番地,,22,341,4110912,,,2024-10-10,合併による解散等,2180001097165,令和６年１０月１日愛知県春日井市田楽町字更屋敷１４８５番６株式会社シーキューブ愛知（2180001097165）に合併し解散,2015-10-05,1,,,,,シーキューブシズオカ,0
1948,7120001101539,登記記録の閉鎖等,0,2024-11-21,2024-11-18,株式会社ｂｒｉｄｇｅ,,株式会社,大阪府,大阪市西区,立売堀１丁目９番３９号前田ビル２階,,27,106,5500012,,,2024-11-18,清算の結了等,,,2015-10-05,1,,,,,ブリッジ,0
1952,7120001193188,登記記録の閉鎖等,0,2024-11-21,2024-11-18,株式会社ピース,,株式会社,大阪府,大阪市都島区,都島北通１丁目１番１６号セントアミー都島６０３号,,27,102,5340014,,,2024-11-18,清算の結了等,,,2015-10-05,1,,,,,ピース,0
1962,7120003017989,登記記録の閉鎖等,0,2024-11-21,2024-10-10,合同会社ＨＫ＆フード,,合同会社,大阪府,大阪市中央区,高津３丁目１番１号,,27,128,5420072,,,2024-10-10,合併による解散等,6120001192356,令和６年２月１７日大阪市中央区道頓堀一丁目東５番６号株式会社５５家（6120001192356）に合併し解散,2020-08-26,1,,,,,エイチケーアンドフード,0
1976,7130001061476,登記記録の閉鎖等,0,2024-11-21,2024-11-19,株式会社さくらんぼ,,株式会社,京都府,木津川市,州見台１丁目１９番地１６,,26,214,6190216,,,2024-11-19,清算の結了等,,,2018-02-06,1,,,,,サクランボ,0
1978,7130005015668,登記記録の閉鎖等,0,2024-11-21,2024-11-13,一般社団法人Ｄｉｖｉｎｅ　Ｗｏｒｌｄ　Ｃｏｏｐｅｒａｔｉｏｎ,,その他の設立登記法人,京都府,京都市上京区,宮垣町９１、１０２号室,,26,102,6020853,,,2024-11-13,清算の結了等,,,2019-08-23,1,,,,,ディバインワールドコーポレーション,0
1983,7140001092099,登記記録の閉鎖等,0,2024-11-21,2024-11-19,株式会社高砂屋,,株式会社,兵庫県,多可郡多可町,中区中村町２２４番地５,,28,365,6791113,,,2024-11-19,清算の結了等,,,2015-10-05,1,,,,,タカサゴヤ,0
1990,7140003016964,登記記録の閉鎖等,0,2024-11-21,2024-11-07,合同会社結珠,,合同会社,兵庫県,芦屋市,東山町１１番３７号,,28,206,6590091,,,2024-11-07,清算の結了等,,,2021-11-11,1,,,,,ユジュ,0
1997,7180003019006,登記記録の閉鎖等,0,2024-11-21,2024-11-13,合同会社Ａｔａｋａｎ,,合同会社,愛知県,名古屋市昭和区,明月町１丁目２５番地の１,,23,107,4660034,,,2024-11-13,清算の結了等,,,2018-06-11,1,,,,,アタカン,0
2011,7290001062442,登記記録の閉鎖等,0,2024-11-21,2024-10-16,株式会社エーワンサポート,,株式会社,福岡県,久留米市,東町２６番地１９,,40,203,8300032,,,2024-10-16,清算の結了等,,,2015-10-05,1,,,,,エーワンサポート,0
2012,7290001063077,登記記録の閉鎖等,0,2024-11-21,2024-10-18,株式会社ラクラス,,株式会社,福岡県,福岡市中央区,大手門３丁目４番３号,,40,133,8100074,,,2024-10-18,清算の結了等,,,2015-10-05,1,,,,,ラクラス,0
2016,7290002051948,登記記録の閉鎖等,0,2024-11-21,2024-10-23,有限会社稲益新聞販売店,,有限会社,福岡県,久留米市,北野町金島１１０７番地の１,,40,203,8301103,,,2024-10-23,清算の結了等,,,2015-10-05,1,,,,,イナマスシンブンハンバイテン,0
2026,7340002022992,登記記録の閉鎖等,0,2024-11-21,2024-11-14,有限会社森枝水産,,有限会社,鹿児島県,阿久根市,赤瀬川４４９６番地７,,46,206,8991611,,,2024-11-14,清算の結了等,,,2015-10-05,1,,,,,モリエダスイサン,0
2052,7440002007546,登記記録の閉鎖等,0,2024-11-21,2024-11-19,有限会社山田組,,有限会社,北海道,北斗市,追分４丁目１１番２３号,,01,236,0490101,,,2024-11-19,清算の結了等,,,2015-10-05,1,,,,,ヤマダクミ,0
2055,7460102002115,登記記録の閉鎖等,0,2024-11-21,2024-11-20,辻菱帯広自動車販売有限会社,00091236,有限会社,北海道,帯広市,西四条南３８丁目３番７号,,01,207,0800014,,,2024-11-20,清算の結了等,,,2015-10-05,1,,,,,ツジビシオビヒロジドウシャハンバイ,0
2064,8010001024386,登記記録の閉鎖等,0,2024-11-21,2024-11-07,同朋産業株式会社,,株式会社,東京都,千代田区,外神田２丁目１２番６号,,13,101,1010021,,,2024-11-07,清算の結了等,,,2015-10-05,1,,,,,ドウホウサンギョウ,0
2068,8010001224077,登記記録の閉鎖等,0,2024-11-21,2024-11-07,株式会社ＥＵＧＥＮＩＡ,,株式会社,東京都,中央区,銀座６丁目５番１７号,,13,102,1040061,,,2024-11-07,清算の結了等,,,2022-01-26,1,,,,,,0
2070,8010001238184,登記記録の閉鎖等,0,2024-11-21,2024-11-07,株式会社Ｒａｆｆｌｅｓｉａ,,株式会社,東京都,千代田区,神田和泉町１番地６－１６ヤマトビル４０５,,13,101,1010024,,,2024-11-07,清算の結了等,,,2023-09-06,1,,,,,ラフレシア,0
2110,8010401160731,登記記録の閉鎖等,0,2024-11-21,2024-11-01,株式会社Ａ．ｏ．Ｄ,,株式会社,東京都,港区,三田３丁目２番９号杉浦ビル１Ｆ,,13,103,1080073,,,2024-11-01,清算の結了等,,,2021-06-10,1,,,,,エーオーディー,0
2129,8011002005458,登記記録の閉鎖等,0,2024-11-21,2024-10-29,有限会社岸田不動産鑑定士事務所,,有限会社,東京都,渋谷区,代々木２丁目２３番１号,,13,113,1510053,,,2024-10-29,清算の結了等,,,2015-10-05,1,,,,,キシダフドウサンカンテイシジムショ,0
2139,8011202003195,登記記録の閉鎖等,0,2024-11-21,2024-11-11,有限会社鈴喜内装,,有限会社,東京都,小平市,鈴木町２丁目２０５番地の３８,,13,211,1870011,,,2024-11-11,清算の結了等,,,2015-10-05,1,,,,,スズキナイソウ,0
2173,8020002006655,登記記録の閉鎖等,0,2024-11-21,2024-10-15,中山興業有限会社,,有限会社,神奈川県,横浜市都筑区,富士見が丘３番４２号,,14,118,2240051,,,2024-10-15,清算の結了等,,,2015-10-05,1,,,,,ナカヤマコウギョウ,0
2199,8040002045651,登記記録の閉鎖等,0,2024-11-21,2024-10-25,有限会社こうび不動産,,有限会社,千葉県,松戸市,三矢小台５丁目１７番地の１５,,12,207,2710087,,,2024-10-25,清算の結了等,,,2015-10-05,1,,,,,コウビフドウサン,0
2209,8060003003334,登記記録の閉鎖等,0,2024-11-21,2024-11-08,合同会社ＣＲＥＡＴＯＲＳ,,合同会社,栃木県,小山市,駅南町２丁目２６番１７号,,09,208,3230822,,,2024-11-08,清算の結了等,,,2020-04-14,1,,,,,クリエイターズ,0
2226,8120001006530,登記記録の閉鎖等,0,2024-11-21,2024-11-18,三井工業建材株式会社,,株式会社,大阪府,大阪市淀川区,西宮原３丁目２番１号,,27,123,5320004,,,2024-11-18,清算の結了等,,,2015-10-05,1,,,,,,0
2274,8180001019007,登記記録の閉鎖等,0,2024-11-21,2024-11-12,栄和金属興業株式会社,,株式会社,愛知県,名古屋市中川区,小碓通３丁目２５番地,,23,110,4540856,,,2024-11-12,清算の結了等,,,2015-10-05,1,,,,,エイワキンゾクコウギョウ,0
2285,8180301016109,登記記録の閉鎖等,0,2024-11-21,2024-11-13,株式会社ＦＯＯＴ,,株式会社,愛知県,安城市,新田町新栄８２番地２,,23,212,4460061,,,2024-11-13,清算の結了等,,,2015-10-05,1,,,,,フット,0
2305,8290001080451,登記記録の閉鎖等,0,2024-11-21,2024-10-22,株式会社ＳＩ商事,,株式会社,福岡県,大牟田市,三川町２丁目８２番地,,40,202,8360065,,,2024-10-22,清算の結了等,,,2018-02-05,1,,,,,エスアイショウジ,0
2308,8290003011306,登記記録の閉鎖等,0,2024-11-21,2024-10-21,福岡商事合同会社,,合同会社,福岡県,福岡市博多区,博多駅前２丁目１９番１７号トーカン博多第５ビル内,,40,132,8120011,,,2024-10-21,清算の結了等,,,2021-06-11,1,,,,,フクオカショウジ,0
2315,8330001030212,登記記録の閉鎖等,0,2024-11-21,2024-11-13,株式会社リスタート,,株式会社,熊本県,熊本市東区,東京塚町１番１９号,,43,102,8620923,,,2024-11-13,清算の結了等,,,2022-10-19,1,,,,,リスタート,0
2327,8380002016775,登記記録の閉鎖等,0,2024-11-21,2024-11-08,有限会社エフ企画,,有限会社,福島県,二本松市,本町２丁目８５番地の１,,07,210,9640917,,,2024-11-08,清算の結了等,,,2015-10-05,1,,,,,,0
2330,8390002008664,登記記録の閉鎖等,0,2024-11-21,2024-11-13,有限会社酒田医療看護動物病院,,有限会社,山形県,酒田市,東泉町６丁目１番地の１２,,06,204,9980013,,,2024-11-13,清算の結了等,,,2015-10-05,1,,,,,サカタイリョウカンゴドウブツビョウイン,0
2340,8430002038327,登記記録の閉鎖等,0,2024-11-21,2024-11-15,有限会社ミキテツ企画,,有限会社,北海道,札幌市北区,北二十五条西１５丁目４番３号,,01,102,0010025,,,2024-11-15,清算の結了等,,,2015-10-05,1,,,,,ミキテツキカク,0
2349,8450002002413,登記記録の閉鎖等,0,2024-11-21,2024-11-18,有限会社さくら工芸,,有限会社,北海道,旭川市,東光二条２丁目３番１号,,01,204,0788342,,,2024-11-18,清算の結了等,,,2015-10-05,1,,,,,サクラコウゲイ,0
2352,9010001076195,登記記録の閉鎖等,0,2024-11-21,2024-11-15,日本ウェーブ株式会社,,株式会社,東京都,足立区,東和１丁目１０番１－１０７号,,13,121,1200003,,,2024-11-15,清算の結了等,,,2015-10-05,1,,,,,,0
2391,9010003028797,登記記録の閉鎖等,0,2024-11-21,2024-11-08,Ｋａｎｎａｉ　Ｊａｐａｎ合同会社,,合同会社,東京都,千代田区,霞が関３丁目２番５号霞が関ビル,,13,101,1000013,,,2024-11-08,清算の結了等,,,2018-11-27,1,,,,,カンナイジャパン,0
2404,9010403017912,登記記録の閉鎖等,0,2024-11-21,2024-11-05,合同会社Ｇｒａｔｅｆｕｌ　Ｌｉｆｅ,,合同会社,東京都,港区,高輪３丁目７番７号,,13,103,1080074,,,2024-11-05,清算の結了等,,,2018-01-10,1,,,,,グレイトフルライフ,0
2406,9010501011387,登記記録の閉鎖等,0,2024-11-21,2024-11-15,株式会社ハナカワ,,株式会社,東京都,台東区,上野４丁目７番８号,,13,106,1100005,,,2024-11-15,清算の結了等,,,2015-10-05,1,,,,,ハナカワ,0
2412,9010701002665,登記記録の閉鎖等,0,2024-11-21,2024-11-18,株式会社Ｋｅａｒｔ,,株式会社,東京都,品川区,西五反田２丁目２８番１０号,,13,109,1410031,,,2024-11-18,清算の結了等,,,2015-10-05,1,,,,,ケーアート,0
2413,9010702004462,登記記録の閉鎖等,0,2024-11-21,2024-11-18,有限会社須山米店,,有限会社,東京都,品川区,北品川２丁目２８番１１号,,13,109,1400001,,,2024-11-18,清算の結了等,,,2015-10-05,1,,,,,,0
2449,9011801015433,登記記録の閉鎖等,0,2024-11-21,2024-11-14,株式会社ハッピー企画,,株式会社,東京都,足立区,東保木間１丁目２６番３５号,,13,121,1210063,,,2024-11-14,清算の結了等,,,2015-10-05,1,,,,,ハッピーキカク,0
2504,9080001018356,登記記録の閉鎖等,0,2024-11-21,2024-11-15,株式会社タムラ建設,,株式会社,静岡県,静岡市葵区,沓谷４丁目１６番２号,,22,101,4200816,,,2024-11-15,清算の結了等,,,2015-10-05,1,,,,,タムラケンセツ,0
2523,9110002013864,登記記録の閉鎖等,0,2024-11-21,2024-11-14,有限会社箕廣建設,,有限会社,新潟県,五泉市,駅前２丁目６番２９号,,15,218,9591823,,,2024-11-14,清算の結了等,,,2015-10-05,1,,,,,ミノヒロケンセツ,0
2525,9120001015588,登記記録の閉鎖等,0,2024-11-21,2024-11-18,株式会社ツツイ工務店,,株式会社,大阪府,大阪市城東区,東中浜２丁目９番３号,,27,118,5360023,,,2024-11-18,清算の結了等,,,2015-10-05,1,,,,,,0
2539,9120001257577,登記記録の閉鎖等,0,2024-11-21,2024-11-18,株式会社フォトバース,,株式会社,大阪府,大阪市北区,梅田１丁目１－３大阪駅前第３ビル２９階１－１－１号室,,27,127,5300001,,,2024-11-18,清算の結了等,,,2023-08-23,1,,,,,フォトバース,0
2544,9120003010595,登記記録の閉鎖等,0,2024-11-21,2024-11-18,株式会社ＢＡＳＥ,,株式会社,大阪府,枚方市,印田町２９番９号,,27,210,5730017,,,2024-11-18,清算の結了等,,,2015-10-05,1,,,,,ベース,0
2555,9130002010447,登記記録の閉鎖等,0,2024-11-21,2024-11-18,有限会社安祥,,有限会社,京都府,京都市南区,吉祥院石原南町３４（Ｆ３０４）,,26,107,6018364,,,2024-11-18,清算の結了等,,,2015-10-05,1,,,,,アンショウ,0
2559,9140001077395,登記記録の閉鎖等,0,2024-11-21,2024-11-15,株式会社Ｅ＆Ｔ,,株式会社,兵庫県,加東市,上三草字三草山１１３４番地２１１,,28,228,6731472,,,2024-11-15,清算の結了等,,,2015-10-05,1,,,,,イーアンドティー,0
2572,9180002032239,登記記録の閉鎖等,0,2024-11-21,2024-11-11,有限会社西平食品,,有限会社,愛知県,名古屋市中区,平和２丁目１番５号,,23,106,4600021,,,2024-11-11,清算の結了等,,,2015-10-05,1,,,,,ニシヒラショクヒン,0
2573,9180003001498,登記記録の閉鎖等,0,2024-11-21,2024-11-12,合同会社日米舍,,合同会社,愛知県,名古屋市瑞穂区,薩摩町１丁目３１番地,,23,108,4670812,,,2024-11-12,清算の結了等,,,2015-10-05,1,,,,,ニチベイシャ,0
2604,9290001019572,登記記録の閉鎖等,0,2024-11-21,2024-10-15,ＪＲ九州ホテルズ株式会社,,株式会社,福岡県,福岡市博多区,博多駅前２丁目８番１２号,,40,132,8120011,,,2024-10-15,合併による解散等,9290001100324,令和６年１０月１日福岡市博多区博多駅東一丁目１７番１号ＪＲ九州ホテルズアンドリゾーツ株式会社（9290001100324）に合併し解散,2015-10-05,1,,,,,ジェイアールキュウシュウホテルズ,0
2611,9290001042483,登記記録の閉鎖等,0,2024-11-21,2024-10-22,株式会社三国コーポレーション,,株式会社,福岡県,太宰府市,五条４丁目１２番１６号,,40,221,8180125,,,2024-10-22,清算の結了等,,,2015-10-05,1,,,,,ミクニコーポレーション,0
2616,9290001078908,登記記録の閉鎖等,0,2024-11-21,2024-10-18,株式会社ＨＣアライアンス,,株式会社,福岡県,福岡市中央区,地行４丁目１１番２２－１０１号,,40,133,8100064,,,2024-10-18,清算の結了等,,,2017-08-25,1,,,,,エイチシーアライアンス,0
2625,9290801028475,登記記録の閉鎖等,0,2024-11-21,2024-11-20,クリアエンジ株式会社,,株式会社,福岡県,北九州市八幡東区,高見３丁目５番６号,,40,108,8050016,,,2024-11-20,清算の結了等,,,2022-04-22,1,,,,,クリアエンジ,0
2634,9360001025084,登記記録の閉鎖等,0,2024-11-21,2024-11-20,琉球チム株式会社,,株式会社,沖縄県,那覇市,古波蔵１丁目６番８号,,47,201,9000024,,,2024-11-20,清算の結了等,,,2019-01-11,1,,,,,リュウキュウチム,0
2639,9360002019250,登記記録の閉鎖等,0,2024-11-21,2024-11-14,有限会社三佳住宅,,有限会社,沖縄県,宜野湾市,大謝名５丁目２０番１２号シャトー城北Ｐ１（４－Ａ）,,47,205,9012225,,,2024-11-14,清算の結了等,,,2015-10-05,1,,,,,ミヨシジュウタク,0
2643,9380002014695,登記記録の閉鎖等,0,2024-11-21,2024-11-08,有限会社秋元製作所,,有限会社,福島県,田村市,常葉町常葉字中町４１番地の３,,07,211,9634602,,,2024-11-08,清算の結了等,,,2015-10-05,1,,,,,アキモトセイサクショ,0
2646,9410001003737,登記記録の閉鎖等,0,2024-11-21,2024-11-15,株式会社ＢＬＩＳＳ,,株式会社,秋田県,秋田市,保戸野千代田町１３番７０号,,05,201,0100914,,,2024-11-15,合併による解散等,6410001003995,令和６年１１月１５日秋田市泉字登木４３番地１株式会社サワイ（6410001003995）に合併し解散,2015-10-05,1,,,,,ブリス,0
