sequenceNumber,corporateNumber,process,correct,updateDate,changeDate,name,nameImageId,kind,prefectureName,cityName,streetNumber,addressImageId,prefectureCode,cityCode,postCode,addressOutside,addressOutsideImageId,closeDate,closeCause,successorCorporateNumber,changeCause,assignmentDate,latest,enName,enPrefectureName,enCityName,enAddressOutside,furigana,hihyoji
9,1010001256523,新規,0,2025-07-24,2025-07-24,株式会社リュミエ伊東発電,,株式会社,東京都,中央区,日本橋本石町２丁目１番１号,,13,102,1030021,,,,,,,2025-07-24,1,,,,,リュミエイトウハツデン,0
10,1010001257059,新規,0,2025-07-24,2025-07-24,ＨＡＣ株式会社,,株式会社,東京都,中央区,銀座１丁目２２番１号銀座タワー２１０１,,13,102,1040061,,,,,,,2025-07-24,1,,,,,エイチエイシー,0
11,1010001257067,新規,0,2025-07-24,2025-07-24,株式会社ＲＫコンサルティングジャパン,,株式会社,東京都,中央区,日本橋本町４丁目１３番６－４０３号,,13,102,1030023,,,,,,,2025-07-24,1,,,,,アールケーコンサルティングジャパン,0
12,1010001257075,新規,0,2025-07-24,2025-07-24,株式会社ブリッジフォー,,株式会社,東京都,千代田区,紀尾井町３番３２号紀尾井アートギャラリー４階,,13,101,1020094,,,,,,,2025-07-24,1,,,,,ブリッジフォー,0
13,1010001257083,新規,0,2025-07-24,2025-07-24,株式会社Ｕｎｏｖｉａ　Ｐａｒｔｎｅｒｓ,,株式会社,東京都,中央区,日本橋室町１丁目１１番１２号日本橋水野ビル７階,,13,102,1030022,,,,,,,2025-07-24,1,,,,,ユノビアパートナーズ,0
14,1010001257091,新規,0,2025-07-24,2025-07-24,株式会社菊,,株式会社,東京都,文京区,本駒込３丁目４１番１号Ｂ１Ｆ,,13,105,1130021,,,,,,,2025-07-24,1,,,,,キク,0
15,1010001257100,新規,0,2025-07-24,2025-07-24,株式会社ＡＥアグリゲーション,,株式会社,東京都,千代田区,二番町３番地１１ＶＯＲＴ二番町５Ｆ,,13,101,1020084,,,,,,,2025-07-24,1,,,,,エーイーアグリゲーション,0
17,1010005040329,新規,0,2025-07-24,2025-07-24,一般社団法人北総グリーンエネルギーアライアンス協会,,その他の設立登記法人,東京都,千代田区,飯田橋４丁目６番９号,,13,101,1020072,,,,,,,2025-07-24,1,,,,,ホクソウグリーンエネルギーアライアンスキョウカイ,0
23,1010401191923,新規,0,2025-07-24,2025-07-24,亜台富士Ｊａｐａｎ株式会社,,株式会社,東京都,港区,赤坂２丁目８番１４－４０７号,,13,103,1070052,,,,,,,2025-07-24,1,,,,,アタイフジジャパン,0
24,1010401191948,新規,0,2025-07-24,2025-07-24,株式会社ＦＡＭ,,株式会社,東京都,港区,新橋５丁目１６番１６号スプリュー新橋ビル３Ｆ,,13,103,1050004,,,,,,,2025-07-24,1,,,,,ファム,0
25,1010401191956,新規,0,2025-07-24,2025-07-24,株式会社リセルバイオ,,株式会社,東京都,港区,西新橋３丁目１９番１４号東京建硝ビル２階,,13,103,1050003,,,,,,,2025-07-24,1,,,,,リセルバイオ,0
26,1010401191964,新規,0,2025-07-24,2025-07-24,ＲＣＴ軽井沢０１株式会社,,株式会社,東京都,港区,元赤坂１丁目２番７号赤坂Ｋタワー,,13,103,1070051,,,,,,,2025-07-24,1,,,,,アールシーティーカルイザワゼロワン,0
27,1010401191980,新規,0,2025-07-24,2025-07-24,ケイトラスティ株式会社,,株式会社,東京都,港区,赤坂２丁目１３番２１号,,13,103,1070052,,,,,,,2025-07-24,1,,,,,ケイトラスティ,0
29,1010403035566,新規,0,2025-07-24,2025-07-24,合同会社ＳＥＶＥｎＳ,,合同会社,東京都,港区,麻布台３丁目５－５,,13,103,1060041,,,,,,,2025-07-24,1,,,,,セブンズ,0
30,1010403035599,新規,0,2025-07-24,2025-07-24,合同会社スタジオいちご,,合同会社,東京都,港区,元麻布３丁目１番６号,,13,103,1060046,,,,,,,2025-07-24,1,,,,,スタジオイチゴ,0
31,1010403035632,新規,0,2025-07-24,2025-07-24,ミナギル合同会社,,合同会社,東京都,港区,北青山１丁目３番１号アールキューブ青山３階,,13,103,1070061,,,,,,,2025-07-24,1,,,,,ミナギル,0
32,1010403035640,新規,0,2025-07-24,2025-07-24,合同会社ＨＡＲＭＯＮＩＡ,,合同会社,東京都,港区,北青山１丁目３番１号アールキューブ青山３階,,13,103,1070061,,,,,,,2025-07-24,1,,,,,ハルモニア,0
33,1010403035657,新規,0,2025-07-24,2025-07-24,合同会社ＬＡＸＩＥ,,合同会社,東京都,港区,虎ノ門３丁目１４番１,,13,103,1050001,,,,,,,2025-07-24,1,,,,,ラクシー,0
39,1010701048039,新規,0,2025-07-24,2025-07-24,株式会社ライフワーク,,株式会社,東京都,品川区,東五反田１丁目２３番２号,,13,109,1410022,,,,,,,2025-07-24,1,,,,,ライフワーク,0
41,1010703007827,新規,0,2025-07-24,2025-07-24,Ｐｈａｌａｅｎｏｐｓｉｓ合同会社,,合同会社,東京都,品川区,東五反田２丁目１０番１－４２１３号,,13,109,1410022,,,,,,,2025-07-24,1,,,,,ファレノプシス,0
49,1010901057789,新規,0,2025-07-24,2025-07-24,株式会社Ｒｉｃｃｏ,,株式会社,東京都,世田谷区,上用賀５丁目２番１３号パレドール上用賀１０２,,13,112,1580098,,,,,,,2025-07-24,1,,,,,リッコ,0
52,1010903010110,新規,0,2025-07-24,2025-07-24,合同会社ＥＣＬＳ,,合同会社,東京都,世田谷区,砧１丁目２９番１１号,,13,112,1570073,,,,,,,2025-07-24,1,,,,,エクルス,0
53,1010903010119,新規,0,2025-07-24,2025-07-24,合同会社Ｎｉｐｐｏｎ　Ｂｌｏｏｍ,,合同会社,東京都,世田谷区,弦巻３丁目２４―１８―５０１,,13,112,1540016,,,,,,,2025-07-24,1,,,,,ニッポンブルーム,0
60,1011101112418,新規,0,2025-07-24,2025-07-24,株式会社バズトラベラーズ,,株式会社,東京都,新宿区,住吉町２－１８ウイン四谷１１０７号室,,13,104,1620065,,,,,,,2025-07-24,1,,,,,バズトラベラーズ,0
66,1011301030758,新規,0,2025-07-24,2025-07-24,株式会社ＷＥＢＢ,,株式会社,東京都,杉並区,南荻窪３丁目３－１１,,13,115,1670052,,,,,,,2025-07-24,1,,,,,,0
68,1011401027274,新規,0,2025-07-24,2025-07-24,株式会社ヤスダモデルルーム,,株式会社,東京都,板橋区,大谷口１丁目５３番１０号２階,,13,119,1730035,,,,,,,2025-07-24,1,,,,,ヤスダモデルルーム,0
69,1011403004767,新規,0,2025-07-24,2025-07-24,合同会社４１７,,合同会社,東京都,板橋区,板橋１丁目３０番１－２０１号,,13,119,1730004,,,,,,,2025-07-24,1,,,,,ヨンイチナナ,0
70,1011503006606,新規,0,2025-07-24,2025-07-24,未来ジャパン合同会社,,合同会社,東京都,北区,志茂５丁目３０番２０号１階,,13,117,1150042,,,,,,,2025-07-24,1,,,,,,0
81,1011801046502,新規,0,2025-07-24,2025-07-24,株式会社福生堂,,株式会社,東京都,葛飾区,青戸４丁目１４番５号レガリアシティ青戸プライムコート５０２,,13,122,1250062,,,,,,,2025-07-24,1,,,,,フッサトウ,0
82,1011803006982,新規,0,2025-07-24,2025-07-24,合同会社ラップ,,合同会社,東京都,足立区,新田３丁目３６番３－５０５号,,13,121,1230865,,,,,,,2025-07-24,1,,,,,ラップ,0
87,1012303002191,新規,0,2025-07-24,2025-07-24,合同会社ＰＥＬＴＯ,,合同会社,東京都,町田市,原町田６丁目９－８ＡＥＴＡ町田４階,,13,209,1940013,,,,,,,2025-07-24,1,,,,,ペルト,0
89,1012401043385,新規,0,2025-07-24,2025-07-24,ＡｉｇａＰｌｕｓＡｌｆａ株式会社,,株式会社,東京都,調布市,柴崎１丁目１３番地１２,,13,208,1820014,,,,,,,2025-07-24,1,,,,,アイガプラスアルファ,0
90,1012801024126,新規,0,2025-07-24,2025-07-24,Ｗｏｌｆｆｉａ　Ｅｖｅｎｔ株式会社,,株式会社,東京都,立川市,錦町１丁目４番地の２０オープンオフィス立川ＴＳＣビル６Ｆ,,13,202,1900022,,,,,,,2025-07-24,1,,,,,ウォルフィアイベント,0
92,1013301054638,新規,0,2025-07-24,2025-07-24,オリオ株式会社,,株式会社,東京都,豊島区,東池袋２丁目６３－１東池袋パレス１１０６,,13,116,1700013,,,,,,,2025-07-24,1,,,,,オリオ,0
93,1013301054646,新規,0,2025-07-24,2025-07-24,ＹＰ２Ａ株式会社,,株式会社,東京都,豊島区,池袋３丁目２１番９号大明ビル４０１号,,13,116,1710014,,,,,,,2025-07-24,1,,,,,ワイピートゥーエー,0
94,1013303007775,新規,0,2025-07-24,2025-07-24,月見玖合同会社,,合同会社,東京都,豊島区,南大塚１丁目６０－２０天翔大塚駅前ビル８階Ｓ８１２号,,13,116,1700005,,,,,,,2025-07-24,1,,,,,ツキミキュウ,0
96,1020001163966,新規,0,2025-07-24,2025-07-24,株式会社ＡＳＡＰ,,株式会社,神奈川県,横浜市西区,南軽井沢１３番地３,,14,103,2200002,,,,,,,2025-07-24,1,,,,,アサップ,0
99,1020003028928,新規,0,2025-07-24,2025-07-24,センサーコントロールズＨＤ合同会社,,合同会社,神奈川県,横浜市中区,本町１丁目７番東ビル,,14,104,2310005,,,,,,,2025-07-24,1,,,,,,0
101,1021001085911,新規,0,2025-07-24,2025-07-24,株式会社浦澤工務店,,株式会社,神奈川県,相模原市中央区,上溝７９６番地２３ブローテＩＩ２０１,00140028,14,152,2520243,,,,,,,2025-07-24,1,,,,,ウラサワコウムテン,0
106,1030001167743,新規,0,2025-07-24,2025-07-24,株式会社ツイゲキ,,株式会社,埼玉県,八潮市,大字木曽根１３４８番地センターフィールド１０６,,11,234,3400813,,,,,,,2025-07-24,1,,,,,ツイゲキ,0
110,1040001139782,新規,0,2025-07-24,2025-07-24,株式会社ＮＥＸＴ・ＭＯＶＥ,,株式会社,千葉県,鎌ケ谷市,南鎌ケ谷１丁目４番２９号,,12,224,2730106,,,,,,,2025-07-24,1,,,,,ネクストムーブ,0
115,1040003028083,新規,0,2025-07-24,2025-07-24,ウィローブック合同会社,,合同会社,千葉県,市川市,大和田２丁目９－５１,,12,203,2720025,,,,,,,2025-07-24,1,,,,,ウィローブック,0
117,1040005022828,新規,0,2025-07-24,2025-07-24,一般社団法人仁夕会,,その他の設立登記法人,千葉県,船橋市,本町５丁目２番２０号太郎ベース１階ａ号室,,12,204,2730005,,,,,,,2025-07-24,1,,,,,ジンユウカイ,0
124,1080101025672,新規,0,2025-07-24,2025-07-24,株式会社ここほれわんわん,,株式会社,静岡県,伊東市,新井１丁目４番９号,,22,208,4140043,,,,,,,2025-07-24,1,,,,,ココホレワンワン,0
126,1080401028045,新規,0,2025-07-24,2025-07-24,株式会社ジーク住建,,株式会社,静岡県,浜松市中央区,丸塚町５３３番地の１５,,22,138,4350046,,,,,,,2025-07-24,1,,,,,ジークジュウケン,0
130,1100005013374,新規,0,2025-07-24,2025-07-24,一般社団法人ネパールライブラリー,,その他の設立登記法人,長野県,駒ヶ根市,中央１６番地１８,,20,210,3994112,,,,,,,2025-07-24,1,,,,,ネパールライブラリー,0
138,1120001277789,新規,0,2025-07-24,2025-07-24,株式会社マルク,,株式会社,大阪府,寝屋川市,成田町１６番１６号,,27,215,5720004,,,,,,,2025-07-24,1,,,,,マルク,0
139,1120001278060,新規,0,2025-07-24,2025-07-24,ビジョナリー株式会社,,株式会社,大阪府,大阪市中央区,本町４丁目４番１７号ＲＥ－０１２－５０３号,,27,128,5410053,,,,,,,2025-07-24,1,,,,,ビジョナリー,0
140,1120001278077,新規,0,2025-07-24,2025-07-24,株式会社ＭＯＡＮＡ,,株式会社,大阪府,大阪市北区,天神西町３番１１－４０１号,,27,127,5300045,,,,,,,2025-07-24,1,,,,,モアナ,0
141,1120001278093,新規,0,2025-07-24,2025-07-24,株式会社小兎情報技術研究所,,株式会社,大阪府,大阪市浪速区,下寺３丁目１－１４エクレール夕陽ヶ丘５号２１８号室,,27,111,5560001,,,,,,,2025-07-24,1,,,,,コウサギジョウホウギジュツケンキュウショ,0
144,1120003030031,新規,0,2025-07-24,2025-07-24,ＲｉｓｅＷｏｒｋｓ合同会社,,合同会社,大阪府,大阪市中央区,東心斎橋１丁目９番１９号３０７号室,,27,128,5420083,,,,,,,2025-07-24,1,,,,,ライズワークス,0
145,1120003030048,新規,0,2025-07-24,2025-07-24,Ｃｈａｐｔｅｒ　Ｈａｖｅｎ合同会社,,合同会社,大阪府,大阪市北区,梅田１丁目２番２号大阪駅前第２ビル１２‐１２,,27,127,5300001,,,,,,,2025-07-24,1,,,,,チャプターヘイヴン,0
147,1120101072140,新規,0,2025-07-24,2025-07-24,株式会社Ｋ‐ｃｌａｓｓ,,株式会社,大阪府,河内長野市,南花台１丁目１７番１号,,27,216,5860077,,,,,,,2025-07-24,1,,,,,ケークラス,0
149,1120103006591,新規,0,2025-07-24,2025-07-24,ＰＬＵＳ合同会社,,合同会社,大阪府,松原市,新堂１丁目５１７－１パーゴ店内,,27,217,5800015,,,,,,,2025-07-24,1,,,,,プラス,0
151,1120901051203,新規,0,2025-07-24,2025-07-24,株式会社ＫＲ‐ＴＥＣ,,株式会社,大阪府,高槻市,津之江町１丁目６３番３号の２,,27,207,5690822,,,,,,,2025-07-24,1,,,,,ケーアールテック,0
152,1120901051211,新規,0,2025-07-24,2025-07-24,株式会社ＦｉｖｅＳｔａｒ,,株式会社,大阪府,箕面市,稲２丁目８番１号の１,,27,220,5620015,,,,,,,2025-07-24,1,,,,,ファイブスター,0
153,1120903005768,新規,0,2025-07-24,2025-07-24,合同会社イデア,,合同会社,大阪府,高槻市,津之江町１丁目１０番２号,,27,207,5690822,,,,,,,2025-07-24,1,,,,,イデア,0
160,1130001080151,新規,0,2025-07-24,2025-07-24,株式会社新田左官店,,株式会社,京都府,京都市伏見区,横大路三栖大黒町１２－５９,,26,109,6128205,,,,,,,2025-07-24,1,,,,,ニッタサカンテン,0
166,1140001139368,新規,0,2025-07-24,2025-07-24,株式会社ロッキー,,株式会社,兵庫県,神戸市兵庫区,熊野町２丁目６番１７－１号,,28,105,6520064,,,,,,,2025-07-24,1,,,,,ロッキー,0
167,1140001139376,新規,0,2025-07-24,2025-07-24,株式会社陽良,,株式会社,兵庫県,西宮市,上大市２丁目９番２６号,,28,204,6638003,,,,,,,2025-07-24,1,,,,,タカラ,0
168,1140001139384,新規,0,2025-07-24,2025-07-24,株式会社Ｃａｆｕ,,株式会社,兵庫県,西宮市,相生町３番３３号パルパローレ夙川２階,,28,204,6620063,,,,,,,2025-07-24,1,,,,,カフー,0
171,1140003022332,新規,0,2025-07-24,2025-07-24,合同会社ろんろん,,合同会社,兵庫県,神戸市東灘区,住吉本町１丁目１０番４６－５１４号,,28,101,6580051,,,,,,,2025-07-24,1,,,,,ロンロン,0
173,1160003003553,新規,0,2025-07-24,2025-07-24,ＴＳ合同会社,,合同会社,滋賀県,草津市,大路３丁目２番１２号,,25,206,5250032,,,,,,,2025-07-24,1,,,,,ティーエス,0
174,1170001018726,新規,0,2025-07-24,2025-07-24,株式会社Ｓｏｃｉａｌ　Ｏｒｂｉｔ,,株式会社,和歌山県,和歌山市,坂田５１３番地３２,,30,201,6410003,,,,,,,2025-07-24,1,,,,,ソーシャルオービット,0
180,1180001167761,新規,0,2025-07-24,2025-07-24,株式会社ネクシア,,株式会社,愛知県,名古屋市中村区,名駅４丁目２４番５号第２森ビル４０１,,23,105,4500002,,,,,,,2025-07-24,1,,,,,ネクシア,0
181,1180001167836,新規,0,2025-07-24,2025-07-24,直空調サービス株式会社,,株式会社,愛知県,西春日井郡豊山町,大字豊場字幟立２０番地,,23,342,4800202,,,,,,,2025-07-24,1,,,,,ナオクウチョウサービス,0
185,1180005021171,新規,0,2025-07-24,2025-07-24,一般社団法人医療福祉トラベル支援協会,,その他の設立登記法人,愛知県,名古屋市東区,徳川２丁目２４番３号第２ヤマナカビル４０１号,,23,102,4610025,,,,,,,2025-07-24,1,,,,,イリョウフクシトラベルシエンキョウカイ,0
188,1180301040032,新規,0,2025-07-24,2025-07-24,株式会社アマテラス,,株式会社,愛知県,豊橋市,松葉町１丁目７７番地１,,23,201,4400897,,,,,,,2025-07-24,1,,,,,アマテラス,0
198,1210001020248,新規,0,2025-07-24,2025-07-24,株式会社村西組,,株式会社,福井県,福井市,稲津町第２８号２２番地,,18,201,9102177,,,,,,,2025-07-24,1,,,,,ムラニシグミ,0
207,1240001065249,新規,0,2025-07-24,2025-07-24,ＤＥＬＩＣＩＥ株式会社,,株式会社,広島県,広島市東区,牛田早稲田４丁目１３－１ライオンズヒルズ牛田早稲田１４１０号,,34,102,7320062,,,,,,,2025-07-24,1,,,,,デリシィエ,0
208,1240001065265,新規,0,2025-07-24,2025-07-24,株式会社植木,,株式会社,広島県,広島市西区,竜王町６番９号,,34,104,7330803,,,,,,,2025-07-24,1,,,,,ウエキ,0
227,1290001110818,新規,0,2025-07-24,2025-07-24,株式会社ＢＡＶ,,株式会社,福岡県,福岡市博多区,博多駅東２丁目１５－２０稲西福岡ビル４Ｆ,,40,132,8120013,,,,,,,2025-07-24,1,,,,,ビーエーブイ,0
228,1290003017152,新規,0,2025-07-24,2025-07-24,合同会社ｔ’ｓ　ＢＬＵＥ,,合同会社,福岡県,福岡市中央区,今泉２丁目１－３４－２０２グランバーグ天神,,40,133,8100021,,,,,,,2025-07-24,1,,,,,ティーズブルー,0
233,1330001033411,新規,0,2025-07-24,2025-07-24,株式会社ＮＡＧＩ建設,,株式会社,熊本県,熊本市南区,内田町２６１２番地１,,43,104,8614127,,,,,,,2025-07-24,1,,,,,ナギケンセツ,0
234,1330001033428,新規,0,2025-07-24,2025-07-24,株式会社ＴＣライン,,株式会社,熊本県,天草市,古川町７番２号１階,,43,215,8630025,,,,,,,2025-07-24,1,,,,,ティーシーライン,0
243,1360003015116,新規,0,2025-07-24,2025-07-24,合同会社３８Ｌａｂ,,合同会社,沖縄県,宮古島市,平良字下里１５１５番地,,47,214,9060013,,,,,,,2025-07-24,1,,,,,ミヤラボ,0
255,1420003003163,新規,0,2025-07-24,2025-07-24,合同会社みーと,,合同会社,青森県,南津軽郡田舎館村,大字大袋字松元１９６番地１,,02,367,0381131,,,,,,,2025-07-24,1,,,,,ミート,0
259,1470001020817,新規,0,2025-07-24,2025-07-24,株式会社ハイライフスペース,,株式会社,香川県,高松市,林町２４１番地５,,37,201,7610301,,,,,,,2025-07-24,1,,,,,ハイライフスペース,0
262,1480001012895,新規,0,2025-07-24,2025-07-24,株式会社クラリティア,,株式会社,徳島県,徳島市,南田宮１丁目５番４６号,,36,201,7700004,,,,,,,2025-07-24,1,,,,,クラリティア,0
266,1500001026430,新規,0,2025-07-24,2025-07-24,株式会社ＳＫＥＡジャパン,,株式会社,愛媛県,西宇和郡伊方町,川永田甲１６３番地２,,38,442,7960312,,,,,,,2025-07-24,1,,,,,エスケアジャパン,0
289,2010001256720,新規,0,2025-07-24,2025-07-24,株式会社ａｎｄ,,株式会社,東京都,中央区,銀座１丁目２２番１１号銀座大竹レジデンス２Ｆ,,13,102,1040061,,,,,,,2025-07-24,1,,,,,アンド,0
290,2010001257066,新規,0,2025-07-24,2025-07-24,株式会社Ｓ＆Ｙコーポレーション,,株式会社,東京都,中央区,銀座５丁目５番１６号,,13,102,1040061,,,,,,,2025-07-24,1,,,,,エスアンドワイコーポレーション,0
292,2010003048117,新規,0,2025-07-24,2025-07-24,弁天町プロパティー合同会社,,合同会社,東京都,千代田区,霞が関３丁目２番５号,,13,101,1000013,,,,,,,2025-07-24,1,,,,,ベンテンチョウプロパティー,0
293,2010003048133,新規,0,2025-07-24,2025-07-24,１０８企画合同会社,,合同会社,東京都,中央区,銀座１丁目１２－４Ｎ＆ＥＢＬＤ．７階,,13,102,1040061,,,,,,,2025-07-24,1,,,,,ヒャクハチキカク,0
294,2010005040286,新規,0,2025-07-24,2025-07-24,一般社団法人技術革新推進機構,,その他の設立登記法人,東京都,中央区,銀座１丁目１２番４号Ｎ＆ＥＢＬＤ．６Ｆ,,13,102,1040061,,,,,,,2025-07-24,1,,,,,ギジュツカクシンスイシンキコウ,0
295,2010103002618,新規,0,2025-07-24,2025-07-24,合同会社ｇｏｒｉｃｈｉ,,合同会社,東京都,八王子市,諏訪町１９２２－１松枝住宅２号棟５０５,,13,201,1930812,,,,,,,2025-07-24,1,,,,,ゴリチ,0
301,2010401191848,新規,0,2025-07-24,2025-07-24,株式会社Ｐｌｕｍ　Ｂｌｏｓｓｏｍ　Ｃｏ．,,株式会社,東京都,港区,三田２丁目７番７－６０３号,,13,103,1080073,,,,,,,2025-07-24,1,,,,,プラムブロッサムシーオー,0
304,2010403035598,新規,0,2025-07-24,2025-07-24,Ｚｅｔｕｒｅ合同会社,,合同会社,東京都,港区,虎ノ門１丁目１０番５号ＫＤＸ虎ノ門一丁目ビル１１階,,13,103,1050001,,,,,,,2025-07-24,1,,,,,ゼチュア,0
305,2010403035648,新規,0,2025-07-24,2025-07-24,ＮｏｖａＴａｌｅｎｔ合同会社,,合同会社,東京都,港区,赤坂６丁目１９番４６号,,13,103,1070052,,,,,,,2025-07-24,1,,,,,ノバタレント,0
306,2010403035664,新規,0,2025-07-24,2025-07-24,ＵＩＢ　Ｋｏｎａｎ　Ｋａｎｓａｉ３合同会社,,合同会社,東京都,港区,元赤坂１丁目１番７号,,13,103,1070051,,,,,,,2025-07-24,1,,,,,ユーアイビーコナンカンサイスリー,0
313,2010701048038,新規,0,2025-07-24,2025-07-24,Ｔ４株式会社,,株式会社,東京都,品川区,東五反田２丁目１０－１パークタワーグランスカイ４２１２,,13,109,1410022,,,,,,,2025-07-24,1,,,,,ティーフォー,0
320,2010903010126,新規,0,2025-07-24,2025-07-24,ＫＯＴＡＮ　ＧＲＯＵＰ合同会社,,合同会社,東京都,世田谷区,松原１丁目４９番２号グランパセオ明大前ＩＩＩ１０１,00140030,13,112,1560043,,,,,,,2025-07-24,1,,,,,コタングループ,0
330,2011101112400,新規,0,2025-07-24,2025-07-24,未来リンク株式会社,,株式会社,東京都,新宿区,西新宿３丁目３番１３号西新宿水間ビル２Ｆ,,13,104,1600023,,,,,,,2025-07-24,1,,,,,ミライリンク,0
331,2011101112581,新規,0,2025-07-24,2025-07-24,株式会社ＬＥＶＥＬ　Ｎ,,株式会社,東京都,新宿区,西新宿３丁目３番１３号西新宿水間ビル２Ｆ,,13,104,1600023,,,,,,,2025-07-24,1,,,,,レベルエヌ,0
335,2011401027257,新規,0,2025-07-24,2025-07-24,Ｒｅｌｏｖｅ医研株式会社,,株式会社,東京都,板橋区,中板橋２９－８クリテックビル４Ｆ,,13,119,1730016,,,,,,,2025-07-24,1,,,,,リラブイケン,0
336,2011401027273,新規,0,2025-07-24,2025-07-24,株式会社キャンティ,,株式会社,東京都,板橋区,蓮沼町７２番２－４０６号,,13,119,1740052,,,,,,,2025-07-24,1,,,,,キャンティ,0
338,2011601028831,新規,0,2025-07-24,2025-07-24,ＡＬＬＷＩＮ株式会社,,株式会社,東京都,練馬区,春日町６丁目１６番１１フォーチュン光が丘２２３号室,,13,120,1790074,,,,,,,2025-07-24,1,,,,,オールウィン,0
345,2011801046501,新規,0,2025-07-24,2025-07-24,株式会社Ｖ＆Ｆ,,株式会社,東京都,足立区,本木１丁目１３番９号コレット本木＃０４,,13,121,1230853,,,,,,,2025-07-24,1,,,,,ブイアンドエフ,0
347,2011803006981,新規,0,2025-07-24,2025-07-24,プログアップス合同会社,,合同会社,東京都,葛飾区,亀有１丁目１０番４－３０６号,,13,122,1250061,,,,,,,2025-07-24,1,,,,,プログアップス,0
354,2013303007774,新規,0,2025-07-24,2025-07-24,アップセッターズ合同会社,,合同会社,東京都,豊島区,東池袋２丁目６２番８号ＢＩＧオフィスプラザ池袋１２０６,,13,116,1700013,,,,,,,2025-07-24,1,,,,,アップセッターズ,0
362,2021001085869,新規,0,2025-07-24,2025-07-24,株式会社Ｍｅｒｃｈａｎｔ　Ｄｅｓｉｇｎ,,株式会社,神奈川県,茅ヶ崎市,浜竹４丁目２番４４－７号,,14,207,2530021,,,,,,,2025-07-24,1,,,,,マーチャントデザイン,0
374,2030003027250,新規,0,2025-07-24,2025-07-24,合同会社あん寿,,合同会社,埼玉県,所沢市,大字南永井１９番地の１エステスクエア所沢７０３,,11,208,3590011,,,,,,,2025-07-24,1,,,,,アンジュ,0
382,2040001139674,新規,0,2025-07-24,2025-07-24,株式会社Ｎｕｔｓ,,株式会社,千葉県,市川市,八幡２丁目９番１５号ブラッサムフォーラム市川５４番,,12,203,2720021,,,,,,,2025-07-24,1,,,,,ナッツ,0
383,2040001139781,新規,0,2025-07-24,2025-07-24,Ｂｉｚ　Ｈｏｕｓｅ株式会社,,株式会社,千葉県,野田市,尾崎４９６番地１,,12,208,2700235,,,,,,,2025-07-24,1,,,,,ビズハウス,0
387,2040005022835,新規,0,2025-07-24,2025-07-24,特定非営利活動法人ｒｅ‐ｔａｋｅ,,その他の設立登記法人,千葉県,香取市,虫幡８０２番地１,,12,236,2890341,,,,,,,2025-07-24,1,,,,,リテイク,0
392,2070003006011,新規,0,2025-07-24,2025-07-24,合同会社佐野バイオマス発電,,合同会社,群馬県,館林市,大手町１１番１３号,,10,207,3740023,,,,,,,2025-07-24,1,,,,,サノバイオマスハツデン,0
398,2080003003511,新規,0,2025-07-24,2025-07-24,桜合同会社,,合同会社,静岡県,静岡市清水区,三保１５５０番地の１市営住宅６０３,,22,103,4240901,,,,,,,2025-07-24,1,,,,,サクラ,0
405,2080401028044,新規,0,2025-07-24,2025-07-24,株式会社ｎｕｋ,,株式会社,静岡県,浜松市浜名区,平口５０４０番地の３,,22,139,4340041,,,,,,,2025-07-24,1,,,,,ヌック,0
407,2110001039446,新規,0,2025-07-24,2025-07-24,株式会社リビングフット,,株式会社,新潟県,新潟市秋葉区,美幸町１丁目５番１０号,,15,105,9560023,,,,,,,2025-07-24,1,,,,,リビングフット,0
414,2120001278092,新規,0,2025-07-24,2025-07-24,白樺観光株式会社,,株式会社,大阪府,大阪市生野区,巽北２丁目８番１７号,00140033,27,116,5440004,,,,,,,2025-07-24,1,,,,,シラカバカンコウ,0
418,2120005025053,新規,0,2025-07-24,2025-07-24,一般社団法人日本税育協議会,,その他の設立登記法人,大阪府,大阪市東淀川区,東中島１丁目１７番５－１１５２号,,27,114,5330033,,,,,,,2025-07-24,1,,,,,ニホンゼイイクキョウギカイ,0
423,2120101072131,新規,0,2025-07-24,2025-07-24,株式会社ＪＳＩＯ,,株式会社,大阪府,堺市堺区,甲斐町西１－１－３５サンビル堺２階Ａ室,,27,141,5900000,,,,,,,2025-07-24,1,,,,,ジェイエスアイオー,0
427,2120901051160,新規,0,2025-07-24,2025-07-24,株式会社萬家,,株式会社,大阪府,豊中市,服部本町５丁目９番１５号,,27,203,5610852,,,,,,,2025-07-24,1,,,,,ヨロズヤ,0
428,2120901051210,新規,0,2025-07-24,2025-07-24,株式会社ＫＲＭ　ＦＡＣＴＯＲＹ,,株式会社,大阪府,吹田市,高城町１０番５号,,27,205,5640024,,,,,,,2025-07-24,1,,,,,ケーアールエムファクトリー,0
429,2120903005767,新規,0,2025-07-24,2025-07-24,ラインナビ合同会社,,合同会社,大阪府,高槻市,登町３番Ａ２０－３０４号,,27,207,5690046,,,,,,,2025-07-24,1,,,,,ラインナビ,0
430,2120905006763,新規,0,2025-07-24,2025-07-24,医療法人くろだ整形外科クリニック,,その他の設立登記法人,大阪府,吹田市,桃山台５丁目２番２号アザール桃山台３０１号,,27,205,5650854,,,,,,,2025-07-24,1,,,,,クロダセイケイゲカクリニック,0
431,2122001039490,新規,0,2025-07-24,2025-07-24,株式会社神楽住設,00140025,株式会社,大阪府,八尾市,山城町５丁目２番５６号,,27,212,5810801,,,,,,,2025-07-24,1,,,,,カグラジュウセツ,0
433,2130001080217,新規,0,2025-07-24,2025-07-24,株式会社ＯＫＵＤＡ,,株式会社,京都府,京都市上京区,大宮通寺之内上る４丁目筋違橋町５７０番地,,26,102,6020091,,,,,,,2025-07-24,1,,,,,オクダ,0
446,2140001139326,新規,0,2025-07-24,2025-07-24,株式会社アターブル,,株式会社,兵庫県,姫路市,飾磨区清水２丁目１１３番地,,28,201,6728051,,,,,,,2025-07-24,1,,,,,アターブル,0
447,2140001139391,新規,0,2025-07-24,2025-07-24,株式会社大陽丸,,株式会社,兵庫県,たつの市,御津町苅屋４４２番地５,,28,229,6711321,,,,,,,2025-07-24,1,,,,,タイヨウマル,0
448,2140001139400,新規,0,2025-07-24,2025-07-24,株式会社ｗｅｌｃｏｍｅ,,株式会社,兵庫県,南あわじ市,市円行寺１８７－２,,28,224,6560461,,,,,,,2025-07-24,1,,,,,ウェルカム,0
449,2140003022216,新規,0,2025-07-24,2025-07-24,ＦＯＴＵＳ合同会社,,合同会社,兵庫県,神戸市北区,道場町生野１１７２番地の７６,,28,109,6511503,,,,,,,2025-07-24,1,,,,,フォータス,0
452,2160001026919,新規,0,2025-07-24,2025-07-24,株式会社原田建設,,株式会社,滋賀県,大津市,大江７丁目１４番２２号,,25,201,5202141,,,,,,,2025-07-24,1,,,,,ハラダケンセツ,0
456,2180001167769,新規,0,2025-07-24,2025-07-24,株式会社紫月,,株式会社,愛知県,名古屋市中区,錦３丁目１３番１０号シャイン錦７０１,,23,106,4600003,,,,,,,2025-07-24,1,,,,,シヅキ,0
457,2180001167819,新規,0,2025-07-24,2025-07-24,株式会社渡邉設備,,株式会社,愛知県,名古屋市中村区,八社１丁目１２５番地の１,,23,105,4530863,,,,,,,2025-07-24,1,,,,,ワタナベセツビ,0
458,2180001167835,新規,0,2025-07-24,2025-07-24,株式会社シン設計,,株式会社,愛知県,津島市,宇治町字小船戸６６番地,,23,208,4960008,,,,,,,2025-07-24,1,,,,,シンセッケイ,0
459,2180005021170,新規,0,2025-07-24,2025-07-24,一般社団法人長坂弘法堂新有栄講,,その他の設立登記法人,愛知県,名古屋市緑区,有松６１６番地の１,,23,114,4580924,,,,,,,2025-07-24,1,,,,,ナガサカコウボウドウシンユウエイコウ,0
464,2200001044065,新規,0,2025-07-24,2025-07-24,株式会社友成,,株式会社,岐阜県,可児市,川合３２番地３,,21,214,5090201,,,,,,,2025-07-24,1,,,,,ユウセイ,0
467,2210001020239,新規,0,2025-07-24,2025-07-24,株式会社一乗谷,,株式会社,福井県,福井市,西新町第６号１番地,,18,201,9102157,,,,,,,2025-07-24,1,,,,,イチジョウダニ,0
472,2240001065256,新規,0,2025-07-24,2025-07-24,あかりグローカルディベロップメント株式会社,,株式会社,広島県,竹原市,忠海中町２丁目２１番１号,,34,203,7292316,,,,,,,2025-07-24,1,,,,,アカリグローカルディベロップメント,0
473,2240001065264,新規,0,2025-07-24,2025-07-24,Ｖｏｙａｇｅｒｓ株式会社,,株式会社,広島県,東広島市,西条町下見３３２８番地コーポ村上１０５号,,34,212,7390044,,,,,,,2025-07-24,1,,,,,ヴォヤージャーズ,0
474,2240001065272,新規,0,2025-07-24,2025-07-24,株式会社水龍不動産,,株式会社,広島県,広島市中区,薬研堀１番２２号１階,,34,101,7300027,,,,,,,2025-07-24,1,,,,,スイリュウフドウサン,0
478,2240005015967,新規,0,2025-07-24,2025-07-24,一般社団法人保護犬・保護猫サポート倶楽部,,その他の設立登記法人,広島県,広島市安佐北区,可部１丁目１番１７号,,34,106,7310221,,,,,,,2025-07-24,1,,,,,ホゴケンホゴネコサポートクラブ,0
482,2260005011502,新規,0,2025-07-24,2025-07-24,一般社団法人Ｃｏｒｅ　Ｄｉａｌｏｇｕｅ,,その他の設立登記法人,岡山県,岡山市北区,中山下１丁目１１番１５号新田第１ビル４０２,,33,101,7000821,,,,,,,2025-07-24,1,,,,,コアダイアローグ,0
497,2330001033427,新規,0,2025-07-24,2025-07-24,ＰＦＩ氷川町住宅株式会社,,株式会社,熊本県,八代郡氷川町,鹿島１６１８番地２,,43,468,8694815,,,,,,,2025-07-24,1,,,,,ピーエフアイヒカワチョウジュウタク,0
499,2340001027527,新規,0,2025-07-24,2025-07-24,桜炎株式会社,,株式会社,鹿児島県,鹿児島市,紫原１丁目１番１号ダイアパレスグランビュー紫原５０２号室,,46,201,8900082,,,,,,,2025-07-24,1,,,,,オウエン,0
505,2360003015081,新規,0,2025-07-24,2025-07-24,合同会社ＴＯＭＯＲＲＯＸ,,合同会社,沖縄県,那覇市,壺川１丁目１７－１９－１階,,47,201,9000025,,,,,,,2025-07-24,1,,,,,トゥモロックス,0
508,2370001052869,新規,0,2025-07-24,2025-07-24,株式会社エルボンド,,株式会社,宮城県,仙台市太白区,人来田２丁目３０番２０号,,04,104,9820222,,,,,,,2025-07-24,1,,,,,エルボンド,0
517,2390001018059,新規,0,2025-07-24,2025-07-24,株式会社ｉｄｅｈａ,,株式会社,山形県,山形市,十日町４丁目１番３号,,06,201,9900031,,,,,,,2025-07-24,1,,,,,イデハ,0
525,2460003001063,新規,0,2025-07-24,2025-07-24,合同会社フジタカ,,合同会社,北海道,釧路郡釧路町,曙４丁目４番地３,,01,661,0880616,,,,,,,2025-07-24,1,,,,,フジタカ,0
529,2480001012894,新規,0,2025-07-24,2025-07-24,株式会社ベストサービス,,株式会社,徳島県,徳島市,上八万町西山５６０番地,,36,201,7708041,,,,,,,2025-07-24,1,,,,,ベストサービス,0
539,3010001256496,新規,0,2025-07-24,2025-07-24,株式会社ＭＳ　ＰｒｏＶｉｄｅｎｃｅ,,株式会社,東京都,文京区,小石川２丁目１６番３－４０１号,,13,105,1120002,,,,,,,2025-07-24,1,,,,,エムエスプロビデンス,0
540,3010001257049,新規,0,2025-07-24,2025-07-24,株式会社ＫＧＲＹ,,株式会社,東京都,中央区,日本橋茅場町３丁目４番１号プライムアーバン４０４,,13,102,1030025,,,,,,,2025-07-24,1,,,,,ケージーアールワイ,0
541,3010001257057,新規,0,2025-07-24,2025-07-24,株式会社Ｓａｋａｅ　ＡＩ,,株式会社,東京都,中央区,銀座１丁目１２番４号Ｎ＆ＥＢＬＤ．６Ｆ,,13,102,1040061,,,,,,,2025-07-24,1,,,,,サカエエイアイ,0
542,3010001257073,新規,0,2025-07-24,2025-07-24,株式会社千豊,,株式会社,東京都,中央区,築地３丁目８番１号アネシア築地１４０４号,,13,102,1040045,,,,,,,2025-07-24,1,,,,,センポウ,0
543,3010001257107,新規,0,2025-07-24,2025-07-24,株式会社リュウノスケオカザキ,,株式会社,東京都,中央区,銀座１丁目１２番４号Ｎ＆ＥＢＬＤ．６Ｆ,,13,102,1040061,,,,,,,2025-07-24,1,,,,,リュウノスケオカザキ,0
547,3010003048099,新規,0,2025-07-24,2025-07-24,モロボシ合同会社,,合同会社,東京都,中央区,日本橋室町１丁目１１番１２号日本橋水野ビル７階,,13,102,1030022,,,,,,,2025-07-24,1,,,,,モロボシ,0
548,3010101016783,新規,0,2025-07-24,2025-07-24,株式会社ベルノコ,,株式会社,東京都,八王子市,北野町５５８番地１０ジェイ・スクエア八王子北野２０１号,,13,201,1920906,,,,,,,2025-07-24,1,,,,,ベルノコ,0
549,3010103002617,新規,0,2025-07-24,2025-07-24,ＭＯＢＩＥＣＯ　ＧＬＯＢＡＬ　ＡＵＴＯ合同会社,,合同会社,東京都,八王子市,南陽台３丁目１９－９,,13,201,1920371,,,,,,,2025-07-24,1,,,,,モビコグロバールオート,0
550,3010401191756,新規,0,2025-07-24,2025-07-24,株式会社ＯｎｅＳｅｎｓｅ,,株式会社,東京都,港区,赤坂３丁目２１－５三銀ビル６０２,,13,103,1070052,,,,,,,2025-07-24,1,,,,,ワンセンス,0
551,3010401191855,新規,0,2025-07-24,2025-07-24,シンクドライブ株式会社,,株式会社,東京都,港区,南青山３丁目１番３６号青山丸竹ビル６Ｆ,,13,103,1070062,,,,,,,2025-07-24,1,,,,,シンクドライブ,0
552,3010401191871,新規,0,2025-07-24,2025-07-24,Ｕｎｉｂｏｒｄｅｒ株式会社,,株式会社,東京都,港区,北青山１丁目３－３三橋ビル３階,,13,103,1070061,,,,,,,2025-07-24,1,,,,,ユニボーダー,0
553,3010401191938,新規,0,2025-07-24,2025-07-24,アリカタ株式会社,,株式会社,東京都,港区,麻布台１丁目３番１号,,13,103,1060041,,,,,,,2025-07-24,1,,,,,アリカタ,0
554,3010401191954,新規,0,2025-07-24,2025-07-24,ＳＴＯＮ・ＲＯＢＯＴ株式会社,,株式会社,東京都,港区,麻布台１丁目９番１０号飯倉ＩＴビル７階,,13,103,1060041,,,,,,,2025-07-24,1,,,,,ストンロボット,0
555,3010401191970,新規,0,2025-07-24,2025-07-24,ＢＡＲＯＮ東京株式会社,,株式会社,東京都,港区,南青山２丁目２番１５号ウィン青山１２１４号,,13,103,1070062,,,,,,,2025-07-24,1,,,,,バロントウキョウ,0
556,3010403035580,新規,0,2025-07-24,2025-07-24,ＧＤＣ　ＪＡＰＡＮ合同会社,,合同会社,東京都,港区,南青山２丁目２番８号,,13,103,1070062,,,,,,,2025-07-24,1,,,,,ジーディーシージャパン,0
557,3010403035622,新規,0,2025-07-24,2025-07-24,Ｈｏｒｉｚｏｎ　Ｗｉｓｈ合同会社,,合同会社,東京都,港区,港南３丁目７－１０－２２０３,,13,103,1080075,,,,,,,2025-07-24,1,,,,,ホライゾンウィッシュ,0
558,3010403035639,新規,0,2025-07-24,2025-07-24,ディープスポット合同会社,,合同会社,東京都,港区,南青山２丁目４番１５号Ｓ２０３号室,,13,103,1070062,,,,,,,2025-07-24,1,,,,,ディープスポット,0
559,3010601067599,新規,0,2025-07-24,2025-07-24,ＤＭＧ森精機アジア株式会社,,株式会社,東京都,江東区,潮見２丁目３番２３号,,13,108,1350052,,,,,,,2025-07-24,1,,,,,ディーエムジーモリセイキアジア,0
560,3010701048037,新規,0,2025-07-24,2025-07-24,ストーミーマウンテン株式会社,,株式会社,東京都,品川区,北品川２丁目７番５号,,13,109,1400001,,,,,,,2025-07-24,1,,,,,ストーミーマウンテン,0
561,3010701048061,新規,0,2025-07-24,2025-07-24,株式会社Ｏｃｅａｎｓ,,株式会社,東京都,品川区,東五反田２丁目４－４ロワール島津山南６０５,,13,109,1410022,,,,,,,2025-07-24,1,,,,,オーシャンズ,0
562,3010703007817,新規,0,2025-07-24,2025-07-24,合同会社Ｌｕｎｅｉｇｅ　Ｂｌｏｏｍ,,合同会社,東京都,品川区,東品川３丁目１１番５号パークキューブ東品川６１５,,13,109,1400002,,,,,,,2025-07-24,1,,,,,ルネージュブルーム,0
563,3010703007833,新規,0,2025-07-24,2025-07-24,合同会社ＴＳトラスト不動産,,合同会社,東京都,品川区,南大井４丁目３－１３,,13,109,1400013,,,,,,,2025-07-24,1,,,,,ティエストラストフドウサン,0
569,3010901057787,新規,0,2025-07-24,2025-07-24,株式会社開耶企画,,株式会社,東京都,世田谷区,南烏山２丁目３５番２号,,13,112,1570062,,,,,,,2025-07-24,1,,,,,サクヤキカク,0
570,3010901057795,新規,0,2025-07-24,2025-07-24,正和電工株式会社,,株式会社,東京都,世田谷区,桜丘５丁目４８番１６号,,13,112,1560054,,,,,,,2025-07-24,1,,,,,セイワデンコウ,0
574,3010903010117,新規,0,2025-07-24,2025-07-24,合同会社Ｐｉｐｐｌｏ,,合同会社,東京都,世田谷区,上祖師谷６丁目３－１２,,13,112,1570065,,,,,,,2025-07-24,1,,,,,ピップロ,0
575,3010903010125,新規,0,2025-07-24,2025-07-24,合同会社ＧＸ１２ＯＮＥ,,合同会社,東京都,世田谷区,松原２丁目３２番３２号アークファビラス１階,,13,112,1560043,,,,,,,2025-07-24,1,,,,,ジーエックストゥウェルブワン,0
581,3011003022110,新規,0,2025-07-24,2025-07-24,ＡＫＩＹＡ合同会社,,合同会社,東京都,渋谷区,神泉町１０番１５号アネックス神泉３０１,,13,113,1500045,,,,,,,2025-07-24,1,,,,,アキヤ,0
583,3011101112424,新規,0,2025-07-24,2025-07-24,Ｈｅｒｕｎ　ｔｒａｄｉｎｇ　Ｊａｐａｎ株式会社,,株式会社,東京都,新宿区,中井２丁目７－７エクスクルーシヴ中井１階Ｂ０６号室,,13,104,1610035,,,,,,,2025-07-24,1,,,,,ヘルントレーディングジャパン,0
584,3011203004759,新規,0,2025-07-24,2025-07-24,合同会社ＨＩＮＯＤＥ＆ＣＯ．,,合同会社,東京都,中野区,中野１丁目４２番９号,,13,114,1640001,,,,,,,2025-07-24,1,,,,,ヒノデアンドコー,0
586,3011401027272,新規,0,2025-07-24,2025-07-24,株式会社群健,,株式会社,東京都,板橋区,坂下１丁目３５番３号,,13,119,1740043,,,,,,,2025-07-24,1,,,,,グンケン,0
588,3011403004765,新規,0,2025-07-24,2025-07-24,合同会社ＲＵＵ,,合同会社,東京都,板橋区,弥生町７２番６－１００４号,,13,119,1730021,,,,,,,2025-07-24,1,,,,,ルー,0
589,3011501032338,新規,0,2025-07-24,2025-07-24,思図株式会社,,株式会社,東京都,荒川区,西尾久６丁目２４番３－１０５号,,13,118,1160011,,,,,,,2025-07-24,1,,,,,シト,0
590,3011603004763,新規,0,2025-07-24,2025-07-24,寺社ｆｒｉｅｎｄｓ合同会社,,合同会社,東京都,練馬区,向山３丁目１０－２０,,13,120,1760022,,,,,,,2025-07-24,1,,,,,ジシャフレンズ,0
591,3011603004771,新規,0,2025-07-24,2025-07-24,合同会社ＢＡＣＫＲＯＡＤ,,合同会社,東京都,練馬区,貫井２丁目３１－２４,,13,120,1760021,,,,,,,2025-07-24,1,,,,,バックロード,0
600,3012403007238,新規,0,2025-07-24,2025-07-24,合同会社彩匠,,合同会社,東京都,多摩市,中沢２丁目３－１ライオンズマンション３０２,,13,224,2060036,,,,,,,2025-07-24,1,,,,,サイショウ,0
605,3013303007765,新規,0,2025-07-24,2025-07-24,合同会社Ｇｒａｃｉａｓ　Ａｌｐｈａ,,合同会社,東京都,豊島区,西巣鴨１丁目２４番２５号レオパレスソフィアオオタ２０６号,,13,116,1700001,,,,,,,2025-07-24,1,,,,,グラシアスアルファ,0
610,3020001163964,新規,0,2025-07-24,2025-07-24,株式会社ＩＲＥＮＯＵ,,株式会社,神奈川県,横浜市南区,唐沢６３番地１,,14,105,2320034,,,,,,,2025-07-24,1,,,,,イレノウ,0
613,3021001085802,新規,0,2025-07-24,2025-07-24,株式会社弥栄,,株式会社,神奈川県,相模原市中央区,相模原６丁目２番２０号－１０２,,14,152,2520231,,,,,,,2025-07-24,1,,,,,イヤサカ,0
614,3021001085892,新規,0,2025-07-24,2025-07-24,株式会社山田設計,,株式会社,神奈川県,茅ヶ崎市,円蔵２丁目３番１８号,,14,207,2530084,,,,,,,2025-07-24,1,,,,,ヤマダセッケイ,0
618,3021003016301,新規,0,2025-07-24,2025-07-24,合同会社リング,,合同会社,神奈川県,座間市,小松原２丁目５０－１１－６０８,,14,216,2520002,,,,,,,2025-07-24,1,,,,,リング,0
627,3030001167709,新規,0,2025-07-24,2025-07-24,株式会社ミンナライズ,,株式会社,埼玉県,深谷市,国済寺３７６番地１,,11,218,3660033,,,,,,,2025-07-24,1,,,,,ミンナライズ,0
632,3030005022224,新規,0,2025-07-24,2025-07-24,一般社団法人ＴａｎａＧｏｃｏｒｏ,,その他の設立登記法人,埼玉県,坂戸市,南町５番１４号２Ｆ,,11,239,3500233,,,,,,,2025-07-24,1,,,,,タナゴコロ,0
637,3040001139599,新規,0,2025-07-24,2025-07-24,株式会社エコそうや,,株式会社,千葉県,千葉市美浜区,磯辺５丁目１番２号ザ・レジデンス検見川浜ガーデンズ３２０号,,12,106,2610012,,,,,,,2025-07-24,1,,,,,エコソウヤ,0
646,3060003005649,新規,0,2025-07-24,2025-07-24,合同会社Ｏ．Ｄ．Ｕ　Ｔｒａｄｅ,,合同会社,栃木県,栃木市,大宮町１６３１－２,,09,203,3280011,,,,,,,2025-07-24,1,,,,,オーディユートレード,0
648,3070001043162,新規,0,2025-07-24,2025-07-24,喜楽コンストラクション株式会社,,株式会社,群馬県,前橋市,富士見町小暮字片ノ分２５４８番地９８,,10,201,3710103,,,,,,,2025-07-24,1,,,,,キラクコンストラクション,0
656,3100001038786,新規,0,2025-07-24,2025-07-24,株式会社ＫＥＮ,,株式会社,長野県,岡谷市,中央町３丁目７番１４号,,20,204,3940027,,,,,,,2025-07-24,1,,,,,ケン,0
662,3120001277787,新規,0,2025-07-24,2025-07-24,株式会社ラフテル,,株式会社,大阪府,大阪市都島区,片町２丁目１１－６片町コート３０５号,,27,102,5340025,,,,,,,2025-07-24,1,,,,,ラフテル,0
663,3120001278026,新規,0,2025-07-24,2025-07-24,株式会社ＤＥＳＩＧＮ　ＲＯＯＭ　Ｈ,,株式会社,大阪府,大阪市中央区,本町４丁目５番２０号北村ビル２階,,27,128,5410053,,,,,,,2025-07-24,1,,,,,デザインルームアッシュ,0
664,3120001278042,新規,0,2025-07-24,2025-07-24,株式会社俊果秀糧,,株式会社,大阪府,大阪市城東区,今福西６丁目８番２－４０４号,,27,118,5360004,,,,,,,2025-07-24,1,,,,,シュンカシュウトウ,0
665,3120001278216,新規,0,2025-07-24,2025-07-24,ミライトレイズ株式会社,,株式会社,大阪府,大阪市北区,梅田１丁目２‐２大阪駅前第２ビル１２‐１２,,27,127,5300001,,,,,,,2025-07-24,1,,,,,ミライトレイズ,0
672,3120105010045,新規,0,2025-07-24,2025-07-24,医療法人桜和会,,その他の設立登記法人,大阪府,堺市西区,鳳東町１丁４番地３１Ｋ’ｓビル１階,,27,144,5938324,,,,,,,2025-07-24,1,,,,,オウワカイ,0
674,3120901051201,新規,0,2025-07-24,2025-07-24,株式会社きたのき,,株式会社,大阪府,吹田市,円山町２８番３０号,,27,205,5640061,,,,,,,2025-07-24,1,,,,,キタノキ,0
675,3120903005766,新規,0,2025-07-24,2025-07-24,合同会社このは,,合同会社,大阪府,吹田市,末広町２６－３コアティ岡本２０２,,27,205,5640022,,,,,,,2025-07-24,1,,,,,コノハ,0
676,3120905006762,新規,0,2025-07-24,2025-07-24,医療法人海春会,,その他の設立登記法人,大阪府,豊中市,岡町北３丁目１番２２号,,27,203,5610884,,,,,,,2025-07-24,1,,,,,カイシュンカイ,0
682,3130001080133,新規,0,2025-07-24,2025-07-24,株式会社天祥屋,,株式会社,京都府,亀岡市,篠町野条イカノ辻南１番地１,00140026,26,206,6210822,,,,,,,2025-07-24,1,,,,,テンショウヤ,0
689,3140001139374,新規,0,2025-07-24,2025-07-24,マッスグ株式会社,,株式会社,兵庫県,神戸市西区,森友４丁目９８番２号,,28,111,6512132,,,,,,,2025-07-24,1,,,,,マッスグ,0
698,3160001026918,新規,0,2025-07-24,2025-07-24,株式会社ラポール,,株式会社,滋賀県,野洲市,小篠原１２３６番地,,25,210,5202331,,,,,,,2025-07-24,1,,,,,ラポール,0
701,3180001167594,新規,0,2025-07-24,2025-07-24,株式会社キャリアプロット,,株式会社,愛知県,名古屋市東区,東桜１丁目１０番４号,,23,102,4610005,,,,,,,2025-07-24,1,,,,,キャリアプロット,0
702,3180001167826,新規,0,2025-07-24,2025-07-24,株式会社宙風,,株式会社,愛知県,名古屋市千種区,北千種１丁目４番１０号,,23,101,4640083,,,,,,,2025-07-24,1,,,,,ソラカゼ,0
705,3180003028729,新規,0,2025-07-24,2025-07-24,合同会社シェイクハンド,,合同会社,愛知県,名古屋市中村区,稲葉地町７丁目３－８,,23,105,4530841,,,,,,,2025-07-24,1,,,,,シェイクハンド,0
706,3180003028753,新規,0,2025-07-24,2025-07-24,ＡＩＭ　ＥＮＴＥＲＰＲＩＳＥＳ合同会社,,合同会社,愛知県,名古屋市東区,大幸２丁目５番地１７号寿荘２号,,23,102,4610043,,,,,,,2025-07-24,1,,,,,エーアイエムエンタープライズ,0
707,3180301040039,新規,0,2025-07-24,2025-07-24,いぶきグロース株式会社,,株式会社,愛知県,岡崎市,葵町１番地１０ＳＩＦセンタービル１０１,,23,202,4440913,,,,,,,2025-07-24,1,,,,,イブキグロース,0
708,3180303006665,新規,0,2025-07-24,2025-07-24,タクミ合同会社,,合同会社,愛知県,みよし市,莇生町藤塚６番地１５９,,23,236,4700206,,,,,,,2025-07-24,1,,,,,タクミ,0
716,3210001020246,新規,0,2025-07-24,2025-07-24,株式会社給与計算ラボ北陸,,株式会社,福井県,福井市,高木中央１丁目２１０９番地フォーラムハウスＦ号室,,18,201,9100804,,,,,,,2025-07-24,1,,,,,キュウヨケイサンラボホクリク,0
730,3240005015958,新規,0,2025-07-24,2025-07-24,一般社団法人Ｒｅ．Ｂｏｒｎ,,その他の設立登記法人,広島県,広島市中区,大手町１丁目７番２１号ＴＨＥＣＵＢＥＯＴＥＭＡＣＨＩ４階,,34,101,7300051,,,,,,,2025-07-24,1,,,,,,0
736,3290003017118,新規,0,2025-07-24,2025-07-24,合同会社Ｙｕ＆Ｍｉ,,合同会社,福岡県,福岡市西区,野方６丁目１－５８,,40,135,8190043,,,,,,,2025-07-24,1,,,,,ユーアンドミー,0
737,3290003017134,新規,0,2025-07-24,2025-07-24,合同会社ＳＳ０,,合同会社,福岡県,福岡市博多区,博多駅前４丁目１８－２３テトラッド４０３,,40,132,8120011,,,,,,,2025-07-24,1,,,,,エスエスゼロ,0
738,3290003017142,新規,0,2025-07-24,2025-07-24,合同会社Ｄｅｆｙ,,合同会社,福岡県,小郡市,小板井５４３－１,,40,216,8380143,,,,,,,2025-07-24,1,,,,,ディファイ,0
741,3290801031732,新規,0,2025-07-24,2025-07-24,株式会社ＮｅｏＬｕｘ,,株式会社,福岡県,遠賀郡岡垣町,海老津２丁目１３番７号,,40,383,8114231,,,,,,,2025-07-24,1,,,,,ネオラックス,0
746,3350003004984,新規,0,2025-07-24,2025-07-24,合同会社あおい不動産,,合同会社,宮崎県,児湯郡川南町,大字川南１３２２８番地１８,,45,405,8891301,,,,,,,2025-07-24,1,,,,,アオイフドウサン,0
751,3360003015114,新規,0,2025-07-24,2025-07-24,合同会社ＹＯＫＡ,,合同会社,沖縄県,沖縄市,美里５丁目７番２０号,,47,211,9042153,,,,,,,2025-07-24,1,,,,,ヨカ,0
753,3380001035475,新規,0,2025-07-24,2025-07-24,株式会社ｎａｔｕｒａｌｕｍ,,株式会社,福島県,福島市,大森字西ノ内８８番地の２パールヒルズ大森１０５,,07,201,9601101,,,,,,,2025-07-24,1,,,,,ナチュラルウム,0
756,3380003006103,新規,0,2025-07-24,2025-07-24,合同会社虎丸理研,,合同会社,福島県,郡山市,並木５丁目１４番地の１６プレミアムレジデンス２０１,,07,203,9638026,,,,,,,2025-07-24,1,,,,,トラマルリケン,0
758,3390001018058,新規,0,2025-07-24,2025-07-24,株式会社ＡＸＬ,,株式会社,山形県,東田川郡三川町,大字押切新田字茨谷地１７番地１,,06,426,9971321,,,,,,,2025-07-24,1,,,,,アクセル,0
762,3420003003161,新規,0,2025-07-24,2025-07-24,合同会社ダイヤ,,合同会社,青森県,青森市,浪岡大字浪岡字若松３４番地３,,02,201,0381311,,,,,,,2025-07-24,1,,,,,ダイヤ,0
763,3430001094879,新規,0,2025-07-24,2025-07-24,株式会社ＢＮＧ運送,,株式会社,北海道,石狩市,花川北六条３丁目１４４－Ａ,,01,235,0613216,,,,,,,2025-07-24,1,,,,,ビーエヌジーウンソウ,0
771,3490005006998,新規,0,2025-07-24,2025-07-24,しまんと川来たや協同組合,,その他の設立登記法人,高知県,四万十市,西土佐江川崎２８２４番地１０,,39,210,7871601,,,,,,,2025-07-24,1,,,,,シマントガワキタヤ,0
772,3500001026420,新規,0,2025-07-24,2025-07-24,株式会社あすぱら,,株式会社,愛媛県,松山市,針田町９５番地１５,,38,201,7900055,,,,,,,2025-07-24,1,,,,,アスパラ,0
779,4010001257072,新規,0,2025-07-24,2025-07-24,株式会社Ｔｒｅａｓｕｒｅｓｔ　Ｃａｐｉｔａｌ,,株式会社,東京都,中央区,明石町１番３１－５０９号,,13,102,1040044,,,,,,,2025-07-24,1,,,,,トレジュアレストキャピタル,0
780,4010001257106,新規,0,2025-07-24,2025-07-24,ＤＡＤＡ　ＶＩＳＩＯＮ株式会社,,株式会社,東京都,中央区,銀座１丁目１２番４号Ｎ＆Ｅ－ＢＬＤ．６Ｆ,,13,102,1040061,,,,,,,2025-07-24,1,,,,,ダダビジョン,0
783,4010101016774,新規,0,2025-07-24,2025-07-24,ニコアス株式会社,,株式会社,東京都,八王子市,小宮町１２５５－１,,13,201,1920031,,,,,,,2025-07-24,1,,,,,ニコアス,0
785,4010401191805,新規,0,2025-07-24,2025-07-24,ラボ株式会社,,株式会社,東京都,港区,南青山２丁目２番１５号ウィン青山９４２,,13,103,1070062,,,,,,,2025-07-24,1,,,,,ラボ,0
786,4010401191994,新規,0,2025-07-24,2025-07-24,株式会社Ｎｏｒｄ,,株式会社,東京都,港区,北青山１丁目３―３三橋ビル３階,,13,103,1070061,,,,,,,2025-07-24,1,,,,,ノール,0
789,4010403035621,新規,0,2025-07-24,2025-07-24,合同会社ＶＩＲＩＳＥ,,合同会社,東京都,港区,六本木３丁目１６番１２号六本木ＫＳビル５Ｆ,,13,103,1060032,,,,,,,2025-07-24,1,,,,,ヴィライズ,0
796,4010701048036,新規,0,2025-07-24,2025-07-24,株式会社ＭＡＫＩＳＨＩＮ,,株式会社,東京都,品川区,中延４丁目１６番１５号,,13,109,1420053,,,,,,,2025-07-24,1,,,,,マキシン,0
797,4010701048060,新規,0,2025-07-24,2025-07-24,皆我海運株式会社,,株式会社,東京都,品川区,東品川２丁目５番８号,,13,109,1400002,,,,,,,2025-07-24,1,,,,,ミナガカイウン,0
799,4010703007824,新規,0,2025-07-24,2025-07-24,ＯＨＡＮＡ　ｌａｎｉ合同会社,,合同会社,東京都,品川区,上大崎１丁目２０－１８リベルテ池田山２０３,,13,109,1410021,,,,,,,2025-07-24,1,,,,,オハナラニ,0
803,4010901057786,新規,0,2025-07-24,2025-07-24,株式会社ムサシ管商,,株式会社,東京都,世田谷区,玉川台２丁目３番１８号,,13,112,1580096,,,,,,,2025-07-24,1,,,,,ムサシカンショウ,0
804,4010901057794,新規,0,2025-07-24,2025-07-24,株式会社リリウムアンド,,株式会社,東京都,世田谷区,太子堂５丁目６番１４号ディアレイシャス三軒茶屋４０６,,13,112,1540004,,,,,,,2025-07-24,1,,,,,リリウムアンド,0
806,4010903010124,新規,0,2025-07-24,2025-07-24,ＨＩＴＳ合同会社,,合同会社,東京都,世田谷区,瀬田４丁目７番１１号９０７号室,,13,112,1580095,,,,,,,2025-07-24,1,,,,,ヒッツ,0
814,4011005011093,新規,0,2025-07-24,2025-07-24,一般社団法人Ｂｅａｃｏｎ　Ｌａｂｓ,,その他の設立登記法人,東京都,渋谷区,道玄坂１丁目１０番８号渋谷道玄坂東急ビル２Ｆ－Ｃ,,13,113,1500043,,,,,,,2025-07-24,1,,,,,ビーコンラボズ,0
822,4011401027271,新規,0,2025-07-24,2025-07-24,株式会社アスベル,,株式会社,東京都,板橋区,若木３丁目１６番４号,,13,119,1740065,,,,,,,2025-07-24,1,,,,,アスベル,0
825,4011701028564,新規,0,2025-07-24,2025-07-24,オフィスエム株式会社,,株式会社,東京都,江戸川区,西葛西６丁目２７番１２号,,13,123,1340088,,,,,,,2025-07-24,1,,,,,オフィスエム,0
826,4011701028572,新規,0,2025-07-24,2025-07-24,株式会社Ｂｅｌｌｅ,,株式会社,東京都,江戸川区,谷河内１丁目１５―２２,,13,123,1320002,,,,,,,2025-07-24,1,,,,,ベル,0
827,4011801046499,新規,0,2025-07-24,2025-07-24,株式会社ミクト,,株式会社,東京都,足立区,梅島３丁目２０－１５,,13,121,1210816,,,,,,,2025-07-24,1,,,,,ミクト,0
829,4012303002197,新規,0,2025-07-24,2025-07-24,ＺＵＧＵＲＯ＆ＣＯＭＰＡＮＹ合同会社,,合同会社,東京都,町田市,金森東４丁目２３－１６,,13,209,1940015,,,,,,,2025-07-24,1,,,,,ズグロアンドカンパニー,0
831,4012403007245,新規,0,2025-07-24,2025-07-24,ｎｕｕｎ．合同会社,,合同会社,東京都,武蔵野市,吉祥寺本町３丁目２６－１１,,13,203,1800004,,,,,,,2025-07-24,1,,,,,ヌーン,0
839,4021001085859,新規,0,2025-07-24,2025-07-24,株式会社ｓｈａｈ,,株式会社,神奈川県,平塚市,徳延５６４番地の５,,14,203,2540902,,,,,,,2025-07-24,1,,,,,シャー,0
840,4021001085875,新規,0,2025-07-24,2025-07-24,ＨＩＤＲＡＧＯＮ　ＣＡＰＩＴＡＬ株式会社,,株式会社,神奈川県,秦野市,南矢名２２２３番地の４東海ビル２０８Ｂ,,14,211,2570003,,,,,,,2025-07-24,1,,,,,ヒドラゴンキャピタル,0
843,4030003027240,新規,0,2025-07-24,2025-07-24,ＪＡＹＡ　ＩＮＴＥＲＮＡＴＩＯＮＡＬ合同会社,,合同会社,埼玉県,羽生市,大字羽生アトリエ羽生１５４Ｂ棟,,11,216,3480055,,,,,,,2025-07-24,1,,,,,ジャヤインターナショナル,0
844,4030003027257,新規,0,2025-07-24,2025-07-24,合同会社Ｍｉｎｕｍａグローバル経営研究所,,合同会社,埼玉県,さいたま市見沼区,大字大谷８０４番地－７０,,11,104,3370014,,,,,,,2025-07-24,1,,,,,ミヌマグローバルケイエイケンキュウジョ,0
873,4100001038785,新規,0,2025-07-24,2025-07-24,株式会社ＡＬＬ　ＧＩＦＴ　ＨＥＡＲＴ,,株式会社,長野県,上田市,前山７１０番地２,,20,203,3861436,,,,,,,2025-07-24,1,,,,,オールギフトハート,0
874,4100003008308,新規,0,2025-07-24,2025-07-24,合同会社ＡＴＥＬＩＥＲ２６,,合同会社,長野県,松本市,大字笹賀２９５０番地,,20,202,3990033,,,,,,,2025-07-24,1,,,,,アトリエニジュウロク,0
880,4120001278058,新規,0,2025-07-24,2025-07-24,株式会社エムシステム,,株式会社,大阪府,大阪市西淀川区,姫島３丁目２番８号３０１,,27,113,5550033,,,,,,,2025-07-24,1,,,,,エムシステム,0
884,4120003030086,新規,0,2025-07-24,2025-07-24,Ｆｕｊｉ　Ｎｅｌｌｙ合同会社,,合同会社,大阪府,大阪市福島区,吉野５丁目９番２２昭和グランドハイツ吉野３０４号,,27,103,5530006,,,,,,,2025-07-24,1,,,,,フジネリー,0
885,4120003030111,新規,0,2025-07-24,2025-07-24,合同会社大阪ワークス,,合同会社,大阪府,大阪市淀川区,宮原１丁目３‐２０‐５０１,,27,123,5320003,,,,,,,2025-07-24,1,,,,,オオサカワークス,0
889,4120101072138,新規,0,2025-07-24,2025-07-24,ＴｅｃｈＫＡＮＤＡ株式会社,,株式会社,大阪府,羽曳野市,大黒２７７番地の２９,,27,222,5830847,,,,,,,2025-07-24,1,,,,,テックカンダ,0
890,4120101072154,新規,0,2025-07-24,2025-07-24,甲和株式会社,,株式会社,大阪府,堺市北区,南花田町４１７番３－２１９号,,27,146,5918011,,,,,,,2025-07-24,1,,,,,コウワ,0
891,4120105010044,新規,0,2025-07-24,2025-07-24,医療法人純生会,,その他の設立登記法人,大阪府,堺市北区,金岡町１３８２番地１なかもずクエストコート２階,,27,146,5918022,,,,,,,2025-07-24,1,,,,,ジュンセイカイ,0
894,4120905006761,新規,0,2025-07-24,2025-07-24,医療法人いでハート,,その他の設立登記法人,大阪府,吹田市,藤白台５丁目７番６５号ＲＹＯ－千里藤白台ビル２０２号,,27,205,5650873,,,,,,,2025-07-24,1,,,,,イデハート,0
901,4140001139349,新規,0,2025-07-24,2025-07-24,株式会社シバタ,,株式会社,兵庫県,神戸市東灘区,深江北町１丁目５－１－１００１,,28,101,6580013,,,,,,,2025-07-24,1,,,,,シバタ,0
902,4140001139357,新規,0,2025-07-24,2025-07-24,株式会社赤松興産,,株式会社,兵庫県,神戸市西区,岩岡町岩岡２０２９番地の１,,28,111,6512401,,,,,,,2025-07-24,1,,,,,アカマツコウサン,0
910,4160001026925,新規,0,2025-07-24,2025-07-24,アートセレモニー白鳩株式会社,,株式会社,滋賀県,守山市,今浜町２６２０番地１０２琵琶湖アーバンリゾートＩＩ番館４１２号,00140041,25,207,5240101,,,,,,,2025-07-24,1,,,,,アートセレモニーシロバト,0
916,4180001167899,新規,0,2025-07-24,2025-07-24,株式会社ＶＡＧＡＲＹ．,,株式会社,愛知県,名古屋市中村区,名駅３丁目４－１０アルティメイト名駅１ｓｔ２階,,23,105,4500002,,,,,,,2025-07-24,1,,,,,ベイガリー,0
918,4180003028769,新規,0,2025-07-24,2025-07-24,合同会社ファーストリバー,,合同会社,愛知県,一宮市,三条字屋敷５８４番地５,,23,203,4940003,,,,,,,2025-07-24,1,,,,,ファーストリバー,0
927,4210001020245,新規,0,2025-07-24,2025-07-24,株式会社Ｌｉｔｚ,,株式会社,福井県,あわら市,大溝２丁目１７番２０号,,18,208,9190628,,,,,,,2025-07-24,1,,,,,リッツ,0
933,4240001065270,新規,0,2025-07-24,2025-07-24,株式会社ブランディックス,,株式会社,広島県,広島市安佐南区,大町東２丁目５番２４－２号,,34,105,7310124,,,,,,,2025-07-24,1,,,,,ブランディックス,0
939,4260001040395,新規,0,2025-07-24,2025-07-24,株式会社ＧＸコンストラクション,,株式会社,岡山県,岡山市北区,青江１丁目２０番２６号,,33,101,7000941,,,,,,,2025-07-24,1,,,,,ジーエックスコンストラクション,0
944,4290001110856,新規,0,2025-07-24,2025-07-24,株式会社Ｔｉｍｅｌｅｓｓ　Ｔａｌｅｓ,,株式会社,福岡県,福岡市中央区,天神４丁目６－２８いちご天神ノースビル７階,,40,133,8100001,,,,,,,2025-07-24,1,,,,,タイムレステイルズ,0
946,4290803005114,新規,0,2025-07-24,2025-07-24,合同会社ＦＲＯＮＴＵＰ,,合同会社,福岡県,北九州市八幡東区,川淵町１２番２号,,40,108,8050012,,,,,,,2025-07-24,1,,,,,フロントアップ,0
954,4320001021224,新規,0,2025-07-24,2025-07-24,ＤＩＲＥＣＴ株式会社,,株式会社,大分県,大分市,田室町９番３０号,,44,201,8700816,,,,,,,2025-07-24,1,,,,,ダイレクト,0
956,4330001033425,新規,0,2025-07-24,2025-07-24,株式会社サンライズ,,株式会社,熊本県,熊本市東区,上南部２丁目９番４３号,,43,102,8618010,,,,,,,2025-07-24,1,,,,,サンライズ,0
972,4370003007209,新規,0,2025-07-24,2025-07-24,合同会社ＦＵＫＵ,,合同会社,宮城県,仙台市青葉区,錦ケ丘４丁目２２－９,,04,101,9893123,,,,,,,2025-07-24,1,,,,,フク,0
973,4380001035474,新規,0,2025-07-24,2025-07-24,株式会社ＭＫ,,株式会社,福島県,いわき市,平字田町３３番地横田ビル２Ｆ,,07,204,9708026,,,,,,,2025-07-24,1,,,,,エムケー,0
975,4380003006077,新規,0,2025-07-24,2025-07-24,合同会社Ｔｕｍｂｌｅ　＆　Ｅｎｏｕｇｈ,,合同会社,福島県,喜多方市,塩川町小府根字利根川２７番地,,07,208,9693532,,,,,,,2025-07-24,1,,,,,タンブルアンドイナッフ,0
982,4420001019217,新規,0,2025-07-24,2025-07-24,株式会社ハリーウェン,,株式会社,青森県,十和田市,東十四番町６番４３－４号,,02,206,0340024,,,,,,,2025-07-24,1,,,,,ハリーウェン,0
993,4490001011118,新規,0,2025-07-24,2025-07-24,ｅａｓｔ電工株式会社,,株式会社,高知県,高知市,上本宮町２２０番地７３,,39,201,7800946,,,,,,,2025-07-24,1,,,,,イーストデンコウ,0
996,4500003003557,新規,0,2025-07-24,2025-07-24,合同会社オフィスタマル,,合同会社,愛媛県,宇和島市,丸穂甲１０６４番地２,,38,203,7980038,,,,,,,2025-07-24,1,,,,,オフィスタマル,0
1000,5010001256866,新規,0,2025-07-24,2025-07-24,宝珞株式会社,,株式会社,東京都,千代田区,四番町４番地９新東京国際リーガル内,,13,101,1020081,,,,,,,2025-07-24,1,,,,,ホウラク,0
1001,5010001257055,新規,0,2025-07-24,2025-07-24,東京後楽堂株式会社,,株式会社,東京都,文京区,小石川１丁目５番１－１５０６号,,13,105,1120002,,,,,,,2025-07-24,1,,,,,トウキョウゴラクドウ,0
1002,5010001257063,新規,0,2025-07-24,2025-07-24,株式会社ＡｃｃｅｌＳａｌｅｓ,,株式会社,東京都,千代田区,神田和泉町１番地６―１６ヤマトビル４０５,,13,101,1010024,,,,,,,2025-07-24,1,,,,,アクセルセールス,0
1003,5010001257096,新規,0,2025-07-24,2025-07-24,斉信株式会社,,株式会社,東京都,中央区,銀座５丁目１５－１９銀座三真ビル６Ｆ,,13,102,1040061,,,,,,,2025-07-24,1,,,,,サイシン,0
1005,5010003048031,新規,0,2025-07-24,2025-07-24,日商海外実業Ｂ共同合同会社,,合同会社,東京都,中央区,入船２丁目３番７号６階,,13,102,1040042,,,,,,,2025-07-24,1,,,,,ニッショウカイガイジツギョウビーキョウドウ,0
1006,5010003048097,新規,0,2025-07-24,2025-07-24,合同会社ＳＩＮＮＡＬＩＮ,,合同会社,東京都,中央区,銀座１丁目１２番４号Ｎ＆ＥＢＬＤ．６Ｆ,,13,102,1040061,,,,,,,2025-07-24,1,,,,,シンナリン,0
1012,5010401191564,新規,0,2025-07-24,2025-07-24,ＨＯＬＤ．Ｄ．ＨＯＬＤＩＮＧＳ株式会社,,株式会社,東京都,港区,六本木３丁目１番３０号,,13,103,1060032,,,,,,,2025-07-24,1,,,,,ホールディーホールディングス,0
1013,5010401191853,新規,0,2025-07-24,2025-07-24,株式会社Ｒａｍｐａｒｔ　Ｍａｎａｇｅｍｅｎｔ,,株式会社,東京都,港区,北青山１丁目３番１号アールキューブ青山３階,,13,103,1070061,,,,,,,2025-07-24,1,,,,,ランパートマネジメント,0
1014,5010401191911,新規,0,2025-07-24,2025-07-24,株式会社Ｉｄｅａｌ,,株式会社,東京都,港区,六本木７丁目７番７号Ｔｒｉ－ＳｅｖｅｎＲｏｐｐｏｎｇｉ８階,,13,103,1060032,,,,,,,2025-07-24,1,,,,,アイデアル,0
1015,5010401191936,新規,0,2025-07-24,2025-07-24,株式会社ＤｅｅｐＳｔｏｃｋ,,株式会社,東京都,港区,六本木６丁目１０番１号六本木ヒルズ森タワー１７階,,13,103,1060032,,,,,,,2025-07-24,1,,,,,ディープストック,0
1018,5010405024596,新規,0,2025-07-24,2025-07-24,ＵＩＢ　Ｋｏｎａｎ　Ｋａｎｓａｉ３一般社団法人,,その他の設立登記法人,東京都,港区,元赤坂１丁目１番７号,,13,103,1070051,,,,,,,2025-07-24,1,,,,,ユーアイビーコナンカンサイスリー,0
1022,5010601067663,新規,0,2025-07-24,2025-07-24,株式会社ＫｔｏＲ,,株式会社,東京都,江東区,南砂１丁目２１番１０－５０５号,,13,108,1360076,,,,,,,2025-07-24,1,,,,,ケイトゥーアール,0
1023,5010701048043,新規,0,2025-07-24,2025-07-24,大空設備工業株式会社,,株式会社,東京都,品川区,東五反田２丁目８番５号ＫＮビル６階,,13,109,1410022,,,,,,,2025-07-24,1,,,,,オオゾラセツビコウギョウ,0
1025,5010901057785,新規,0,2025-07-24,2025-07-24,Ｑｕａｙｓｔｏｎｅ株式会社,,株式会社,東京都,世田谷区,岡本１丁目８―１３,,13,112,1570076,,,,,,,2025-07-24,1,,,,,キーストーン,0
1034,5011101112430,新規,0,2025-07-24,2025-07-24,株式会社ＢＥＹＭ,,株式会社,東京都,新宿区,新宿１丁目３６－２新宿第七葉山ビル３Ｆ,,13,104,1600022,,,,,,,2025-07-24,1,,,,,ベイム,0
1035,5011101112595,新規,0,2025-07-24,2025-07-24,株式会社誠,,株式会社,東京都,新宿区,新宿２丁目２－１０,,13,104,1600022,,,,,,,2025-07-24,1,,,,,マコト,0
1037,5011103016126,新規,0,2025-07-24,2025-07-24,合同会社ＤＭＫ,,合同会社,東京都,新宿区,新宿５丁目３番７号ＡＸＩＳ新宿３０１,,13,104,1600022,,,,,,,2025-07-24,1,,,,,ディーエムケー,0
1039,5011601028829,新規,0,2025-07-24,2025-07-24,株式会社プローブエッジ,,株式会社,東京都,練馬区,下石神井１丁目５番２号ボヌール,,13,120,1770042,,,,,,,2025-07-24,1,,,,,プローブエッジ,0
1040,5011801046498,新規,0,2025-07-24,2025-07-24,株式会社パノラマ,,株式会社,東京都,葛飾区,東金町７丁目３２番１６号,,13,122,1250041,,,,,,,2025-07-24,1,,,,,パノラマ,0
1045,5012801024122,新規,0,2025-07-24,2025-07-24,Ｓ＆Ｄヒューマンウェア株式会社,,株式会社,東京都,立川市,緑町３番地１Ｅ１,,13,202,1900014,,,,,,,2025-07-24,1,,,,,エスアンドディーヒューマンウェア,0
1048,5013301054618,新規,0,2025-07-24,2025-07-24,Ｈａｒｍｏｎｉａ　ＧｌｕＴｅｃｈ株式会社,,株式会社,東京都,豊島区,東池袋１丁目３１番１０号,,13,116,1700013,,,,,,,2025-07-24,1,,,,,ハルモニアグルテック,0
1049,5013301054634,新規,0,2025-07-24,2025-07-24,ＡＵＲＥＯ株式会社,,株式会社,東京都,豊島区,東池袋１丁目７番１２号日産ビルディング６Ｆ,,13,116,1700013,,,,,,,2025-07-24,1,,,,,アウレオ,0
1050,5013301054650,新規,0,2025-07-24,2025-07-24,株式会社ＫＡＲＡＤＡ,,株式会社,東京都,豊島区,南池袋２丁目４７番１４号,,13,116,1710022,,,,,,,2025-07-24,1,,,,,カラダ,0
1054,5020001163806,新規,0,2025-07-24,2025-07-24,株式会社ＫＲＥ,,株式会社,神奈川県,横浜市青葉区,榎が丘２０番地３２,,14,117,2270063,,,,,,,2025-07-24,1,,,,,ケイアールイー,0
1059,5021001085890,新規,0,2025-07-24,2025-07-24,株式会社グラッド,,株式会社,神奈川県,藤沢市,鵠沼海岸１丁目１０番１－４０９号,,14,205,2510037,,,,,,,2025-07-24,1,,,,,グラッド,0
1060,5021001085908,新規,0,2025-07-24,2025-07-24,株式会社エスジオ,,株式会社,神奈川県,相模原市南区,東林間６丁目２７－１１,,14,153,2520311,,,,,,,2025-07-24,1,,,,,エスジオ,0
1065,5021003016299,新規,0,2025-07-24,2025-07-24,ルチル合同会社,,合同会社,神奈川県,三浦郡葉山町,一色１６８－１９,,14,301,2400111,,,,,,,2025-07-24,1,,,,,ルチル,0
1070,5030001167764,新規,0,2025-07-24,2025-07-24,谷口地所株式会社,,株式会社,埼玉県,さいたま市桜区,西堀６丁目５番７号,,11,106,3380832,,,,,,,2025-07-24,1,,,,,タニグチジショ,0
1071,5030001167797,新規,0,2025-07-24,2025-07-24,ＩＣＪプロパティーズ株式会社,,株式会社,埼玉県,加須市,栄４５１番地１,,11,210,3491213,,,,,,,2025-07-24,1,,,,,アイシージェイプロパティーズ,0
1077,5030005022222,新規,0,2025-07-24,2025-07-24,一般社団法人行田こども居場所ネットワーク・おしまる,,その他の設立登記法人,埼玉県,行田市,忍２丁目１７番１４号,,11,206,3610077,,,,,,,2025-07-24,1,,,,,ギョウダコドモイバショネットワークオシマル,0
1089,5060001038418,新規,0,2025-07-24,2025-07-24,株式会社荒川建築設計事務所,,株式会社,栃木県,小山市,駅南町４丁目２７番６号恵真ビル３階,,09,208,3230822,,,,,,,2025-07-24,1,,,,,アラカワケンチクセッケイジムショ,0
1096,5080101025669,新規,0,2025-07-24,2025-07-24,おやま菅沼住宅パートナーズ株式会社,,株式会社,静岡県,駿東郡小山町,藤曲３４１番地５,,22,344,4101304,,,,,,,2025-07-24,1,,,,,オヤマスガヌマジュウタクパートナーズ,0
1098,5080403005311,新規,0,2025-07-24,2025-07-24,合同会社オートル,,合同会社,静岡県,袋井市,国本１３３８番地の２,,22,216,4370012,,,,,,,2025-07-24,1,,,,,オートル,0
1103,5090005007721,新規,0,2025-07-24,2025-07-24,一般社団法人Ｏｎｅ　ｄｒｏｐ,,その他の設立登記法人,山梨県,富士吉田市,上吉田７丁目１２番１６号,,19,202,4030005,,,,,,,2025-07-24,1,,,,,ワンドロップ,0
1105,5100003008307,新規,0,2025-07-24,2025-07-24,ＭＴＮ合同会社,,合同会社,長野県,飯山市,大字豊田５８６８番地,,20,213,3892411,,,,,,,2025-07-24,1,,,,,エムティーエヌ,0
1106,5110003005807,新規,0,2025-07-24,2025-07-24,奥斑尾合同会社,,合同会社,新潟県,妙高市,大字樽本丙１１０１番地９１,,15,217,9492223,,,,,,,2025-07-24,1,,,,,オクマダラオ,0
1115,5120001278008,新規,0,2025-07-24,2025-07-24,株式会社ＡｂｄｏＪａｐａｎＴｒａｄｉｎｇＣｏ．,,株式会社,大阪府,大阪市西成区,花園北１丁目７－３,,27,122,5570016,,,,,,,2025-07-24,1,,,,,アブドジャパントレーディングカンパニー,0
1116,5120001278189,新規,0,2025-07-24,2025-07-24,福興株式会社,,株式会社,大阪府,大阪市大正区,平尾４丁目１１－７－３０６号,,27,108,5510012,,,,,,,2025-07-24,1,,,,,フクコウ,0
1118,5120003029961,新規,0,2025-07-24,2025-07-24,合同会社ブルーフォース,,合同会社,大阪府,大阪市北区,野崎町７－８梅田パークビル３階,,27,127,5300055,,,,,,,2025-07-24,1,,,,,ブルーフォース,0
1119,5120003030085,新規,0,2025-07-24,2025-07-24,合同会社ＭＰ‐ＧＲＯＵＰ,,合同会社,大阪府,寝屋川市,萱島東１丁目９番２１－１０３号室,,27,215,5720824,,,,,,,2025-07-24,1,,,,,エムピーグループ,0
1120,5120101072137,新規,0,2025-07-24,2025-07-24,エコサービスせんなん株式会社,,株式会社,大阪府,阪南市,尾崎町５３２番地の１,,27,232,5990201,,,,,,,2025-07-24,1,,,,,エコサービスセンナン,0
1121,5120105010043,新規,0,2025-07-24,2025-07-24,一般社団法人つながるちから,,その他の設立登記法人,大阪府,藤井寺市,道明寺２丁目９番１号,,27,226,5830012,,,,,,,2025-07-24,1,,,,,ツナガルチカラ,0
1122,5120901051208,新規,0,2025-07-24,2025-07-24,株式会社尚龍,,株式会社,大阪府,池田市,鉢塚３丁目９番２５－４０１号,,27,204,5630024,,,,,,,2025-07-24,1,,,,,ショウリュウ,0
1123,5120901051216,新規,0,2025-07-24,2025-07-24,株式会社ＨＡＮＡＫＩ,,株式会社,大阪府,茨木市,沢良宜浜３丁目１番９号,,27,211,5670864,,,,,,,2025-07-24,1,,,,,ハナキ,0
1124,5120901051224,新規,0,2025-07-24,2025-07-24,株式会社ｕｍｕ,,株式会社,大阪府,摂津市,鳥飼上２丁目２番４号,,27,224,5660062,,,,,,,2025-07-24,1,,,,,ウム,0
1128,5120903005764,新規,0,2025-07-24,2025-07-24,合同会社ＮＮコーポレーション,,合同会社,大阪府,池田市,西本町６－７,,27,204,5630059,,,,,,,2025-07-24,1,,,,,エヌエヌコーポレーション,0
1129,5120905006760,新規,0,2025-07-24,2025-07-24,医療法人三天会,,その他の設立登記法人,大阪府,吹田市,山田西２丁目１番１３号金陵メディカルビル２階,,27,205,5650824,,,,,,,2025-07-24,1,,,,,サンテンカイ,0
1133,5130001080172,新規,0,2025-07-24,2025-07-24,株式会社セブンサミット,,株式会社,京都府,向日市,森本町天神森３番地７,,26,208,6170003,,,,,,,2025-07-24,1,,,,,セブンサミット,0
1136,5130003010565,新規,0,2025-07-24,2025-07-24,Ｔｕｒｎ　Ｃａｐ合同会社,,合同会社,京都府,京都市下京区,小稲荷町８５－２Ｇｒａｎｄ－Ｋ京都駅前ビル２０１,,26,106,6008208,,,,,,,2025-07-24,1,,,,,ターンキャップ,0
1138,5130005017402,新規,0,2025-07-24,2025-07-24,特定非営利活動法人Ｃｈｅｆ’ｓ　Ｌｅｎｓ,,その他の設立登記法人,京都府,京都市東山区,鞘町通五条下る鞘町１丁目３９７番地グランドラティス鞘町２０２,,26,105,6050902,,,,,,,2025-07-24,1,,,,,シェフズレンズ,0
1143,5140001139348,新規,0,2025-07-24,2025-07-24,株式会社ＱＵＡＤＲＩＦＯＧＬＩＯ,,株式会社,兵庫県,神戸市灘区,岩屋北町７丁目２番地１８ダンディライオン灘４０４号室,,28,102,6570846,,,,,,,2025-07-24,1,,,,,クアードリフォリオ,0
1151,5180001167725,新規,0,2025-07-24,2025-07-24,株式会社ラクメドＡＩ,,株式会社,愛知県,名古屋市千種区,内山３丁目１８番５号ｃｏｕｌｅｕｒｓＮＯＩＲ３Ａ号室,,23,101,4640075,,,,,,,2025-07-24,1,,,,,ラクメドエーアイ,0
1152,5180001167758,新規,0,2025-07-24,2025-07-24,株式会社Ｋｈａｌｅ,,株式会社,愛知県,名古屋市中区,新栄１丁目２０－２５ファインブルーム新栄６０１号,,23,106,4600007,,,,,,,2025-07-24,1,,,,,ケイリー,0
1153,5180001167774,新規,0,2025-07-24,2025-07-24,瑞銀国際株式会社,,株式会社,愛知県,名古屋市守山区,小六町９－１６,,23,113,4630054,,,,,,,2025-07-24,1,,,,,ズイギンコクサイ,0
1154,5180001167799,新規,0,2025-07-24,2025-07-24,株式会社ｆａｍｉｌｉａｒ,,株式会社,愛知県,名古屋市昭和区,八事富士見４０２番地,,23,107,4660812,,,,,,,2025-07-24,1,,,,,ファミリア,0
1155,5180001167832,新規,0,2025-07-24,2025-07-24,株式会社ＨＩＧＨ　ＬＩＦＥ,,株式会社,愛知県,名古屋市中区,新栄２丁目４０番６号グランルクレ新栄ウエスト６０９号,,23,106,4600007,,,,,,,2025-07-24,1,,,,,ハイライフ,0
1159,5180301039987,新規,0,2025-07-24,2025-07-24,株式会社ＲＫＫ,,株式会社,愛知県,刈谷市,八幡町２丁目５番地１１,,23,210,4480832,,,,,,,2025-07-24,1,,,,,アールケーケー,0
1160,5180301040037,新規,0,2025-07-24,2025-07-24,株式会社スポットバイト,,株式会社,愛知県,豊橋市,藤沢町１４１番地,,23,201,4418061,,,,,,,2025-07-24,1,,,,,スポットバイト,0
1175,5270001009249,新規,0,2025-07-24,2025-07-24,株式会社ＨａｋｕＡ,,株式会社,鳥取県,境港市,栄町２０‐１Ｆ,,31,204,6840006,,,,,,,2025-07-24,1,,,,,ハクア,0
1181,5290003017140,新規,0,2025-07-24,2025-07-24,合同会社Ａｏｓｔａｔｅ,,合同会社,福岡県,福岡市西区,愛宕南１丁目３－２０－６０３,,40,135,8190007,,,,,,,2025-07-24,1,,,,,アオステート,0
1182,5290005019787,新規,0,2025-07-24,2025-07-24,一般社団法人ＦＮＧライフサポート,,その他の設立登記法人,福岡県,福岡市南区,高木１丁目１６番２７号,,40,134,8150004,,,,,,,2025-07-24,1,,,,,エフエヌジーライフサポート,0
1183,5290801031730,新規,0,2025-07-24,2025-07-24,ＡＣＡＩ　ＴＯＫＹＯ株式会社,,株式会社,福岡県,北九州市小倉北区,宇佐町２丁目３－５　３０１号,,40,106,8020016,,,,,,,2025-07-24,1,,,,,アサイートーキョー,0
1184,5290803005113,新規,0,2025-07-24,2025-07-24,合同会社ＣＬＡＲＩＴＹ,,合同会社,福岡県,北九州市八幡東区,宮の町１丁目７番１５号,,40,108,8050023,,,,,,,2025-07-24,1,,,,,クラリティ,0
1185,5300001014286,新規,0,2025-07-24,2025-07-24,株式会社山下板金,,株式会社,佐賀県,武雄市,武雄町大字武雄４０５番地７,,41,206,8430022,,,,,,,2025-07-24,1,,,,,ヤマシタバンキン,0
1188,5330001033424,新規,0,2025-07-24,2025-07-24,株式会社肥田,,株式会社,熊本県,熊本市北区,楡木３丁目２番４７号,,43,105,8618083,,,,,,,2025-07-24,1,,,,,ヒダ,0
1191,5340001027524,新規,0,2025-07-24,2025-07-24,株式会社福永不動産,,株式会社,鹿児島県,奄美市,名瀬浦上町２２番地１,,46,222,8940068,,,,,,,2025-07-24,1,,,,,フクナガフドウサン,0
1192,5340001027532,新規,0,2025-07-24,2025-07-24,株式会社ポテトアルファ,,株式会社,鹿児島県,大島郡知名町,大字上平川３３番地,,46,534,8919204,,,,,,,2025-07-24,1,,,,,ポテトアルファ,0
1199,5360005007256,新規,0,2025-07-24,2025-07-24,一般社団法人沖縄セルフケア協会,,その他の設立登記法人,沖縄県,那覇市,首里石嶺町４丁目９４番地コーポマルエイ１階,,47,201,9030804,,,,,,,2025-07-24,1,,,,,オキナワセルフケアキョウカイ,0
1200,5370001052858,新規,0,2025-07-24,2025-07-24,株式会社アロメディカ,,株式会社,宮城県,石巻市,渡波字栄田２５シーサイドリッチ１０２号室,,04,202,9862135,,,,,,,2025-07-24,1,,,,,アロメディカ,0
1207,5390003002421,新規,0,2025-07-24,2025-07-24,合同会社ＹＡＭＡＧＡＴＡ　Ｌｉｎｋ,,合同会社,山形県,南陽市,赤湯２９６７番地の４パークプレッソ２０１号室,,06,213,9992211,,,,,,,2025-07-24,1,,,,,,0
1211,5420001019216,新規,0,2025-07-24,2025-07-24,株式会社ＩＮ　ＣＲＡＦＴ,,株式会社,青森県,八戸市,柏崎２丁目１番１６号ｓｔｕｄｉｏ・ｚｏｏｍ,,02,203,0310081,,,,,,,2025-07-24,1,,,,,インクラフト,0
1218,5430001094877,新規,0,2025-07-24,2025-07-24,株式会社ＯＴＡＳ．,,株式会社,北海道,札幌市中央区,南五条西２丁目９－２ＬＣ拾七番館２Ｆ,,01,101,0640805,,,,,,,2025-07-24,1,,,,,オータス,0
1219,5430001094893,新規,0,2025-07-24,2025-07-24,株式会社九十九,,株式会社,北海道,札幌市西区,琴似二条４丁目１番２４号ヤマチビル２階,,01,107,0630812,,,,,,,2025-07-24,1,,,,,ツクモ,0
1223,5430003017893,新規,0,2025-07-24,2025-07-24,マタリヤ合同会社,,合同会社,北海道,虻田郡倶知安町,北一条西１丁目９番地まるたかビル,,01,400,0440051,,,,,,,2025-07-24,1,,,,,マタリヤ,0
1224,5430003017902,新規,0,2025-07-24,2025-07-24,合同会社Ｒｉｔａ,,合同会社,北海道,札幌市西区,西野七条５丁目９番１２号グリーブ西野１０１号,,01,107,0630037,,,,,,,2025-07-24,1,,,,,リタ,0
1228,5470001020813,新規,0,2025-07-24,2025-07-24,株式会社丸亀企画,,株式会社,香川県,丸亀市,本町２７番地１,,37,202,7630023,,,,,,,2025-07-24,1,,,,,マルガメキカク,0
1229,5470005006635,新規,0,2025-07-24,2025-07-24,労住協第３０ビル管理組合法人,,その他の設立登記法人,香川県,仲多度郡多度津町,本通２丁目６番３９号,,37,404,7640014,,,,,,,2025-07-24,1,,,,,ロウジュウキョウダイサンジュウビル,0
1241,6010001257046,新規,0,2025-07-24,2025-07-24,株式会社リアライズエステート,,株式会社,東京都,千代田区,神田神保町１丁目３番地５寿ビル８Ｆ,,13,101,1010051,,,,,,,2025-07-24,1,,,,,リアライズエステート,0
1243,6010003048030,新規,0,2025-07-24,2025-07-24,日商海外実業Ａ共同合同会社,,合同会社,東京都,中央区,入船２丁目３番７号６階,,13,102,1040042,,,,,,,2025-07-24,1,,,,,ニッショウカイガイジツギョウエーキョウドウ,0
1244,6010003048039,新規,0,2025-07-24,2025-07-24,合同会社Ｖ西麻布,,合同会社,東京都,千代田区,霞が関３丁目２番５号,,13,101,1000013,,,,,,,2025-07-24,1,,,,,ブイニシアザブ,0
1245,6010003048096,新規,0,2025-07-24,2025-07-24,合同会社Ｔａｍｉｎｇ　Ｌａｂ　Ｊａｐａｎ,,合同会社,東京都,千代田区,神田須田町１丁目７番８号ＶＯＲＴ秋葉原ＩＶ２Ｆ,00140043,13,101,1010041,,,,,,,2025-07-24,1,,,,,テイミングラボジヤパン,0
1248,6010005040381,新規,0,2025-07-24,2025-07-24,一般財団法人田中孝典記念教育財団,,その他の設立登記法人,東京都,千代田区,平河町１丁目７番３号,,13,101,1020093,,,,,,,2025-07-24,1,,,,,タナカタカノリキネンキョウイクザイダン,0
1249,6010005040407,新規,0,2025-07-24,2025-07-24,弁護士法人今西総合法律事務所,,その他の設立登記法人,東京都,千代田区,九段南２丁目３番２１号,,13,101,1020074,,,,,,,2025-07-24,1,,,,,イマニシソウゴウホウリツジムショ,0
1251,6010401191869,新規,0,2025-07-24,2025-07-24,ＫＩＴ株式会社,,株式会社,東京都,港区,南青山２丁目５番１７号ＰＯＬＡ青山ビルディング５階ポーラオルビスキャピタル内,,13,103,1070062,,,,,,,2025-07-24,1,,,,,キット,0
1252,6010401191902,新規,0,2025-07-24,2025-07-24,モンスターバンク株式会社,,株式会社,東京都,港区,六本木７丁目７－７Ｔｒｉ－ＳｅｖｅｎＲｏｐｐｏｎｇｉ８階,,13,103,1060032,,,,,,,2025-07-24,1,,,,,モンスターバンク,0
1253,6010401191910,新規,0,2025-07-24,2025-07-24,ＰＷＰ葉山株式会社,,株式会社,東京都,港区,六本木５丁目１４番２３－４０４号,,13,103,1060032,,,,,,,2025-07-24,1,,,,,ピーダブリューピーハヤマ,0
1254,6010401191927,新規,0,2025-07-24,2025-07-24,株式会社Ｄｕｚｚｌｅ,,株式会社,東京都,港区,南青山３丁目１番３６号青山丸竹ビル６Ｆ,,13,103,1070062,,,,,,,2025-07-24,1,,,,,ダズル,0
1255,6010401192000,新規,0,2025-07-24,2025-07-24,株式会社ＰＩＮＯＫ,,株式会社,東京都,港区,北青山１丁目３番１号アールキューブ青山３階,,13,103,1070061,,,,,,,2025-07-24,1,,,,,ピノック,0
1259,6010403035644,新規,0,2025-07-24,2025-07-24,ＲＭＣジャパン合同会社,,合同会社,東京都,港区,赤坂４丁目８番１９号赤坂フロントタウン３階,,13,103,1070052,,,,,,,2025-07-24,1,,,,,アールエムシージャパン,0
1263,6010701048050,新規,0,2025-07-24,2025-07-24,ＢＭＦ株式会社,,株式会社,東京都,品川区,西五反田２丁目２２番６号アトラスタワー五反田３００２,,13,109,1410031,,,,,,,2025-07-24,1,,,,,ビーエムエフ,0
1276,6011101112421,新規,0,2025-07-24,2025-07-24,株式会社カタマキ,,株式会社,東京都,新宿区,富久町３４番２３号,,13,104,1620067,,,,,,,2025-07-24,1,,,,,カタマキ,0
1277,6011101112438,新規,0,2025-07-24,2025-07-24,株式会社ＮｅｘｕｓＡｄ,,株式会社,東京都,新宿区,西新宿３丁目２番９号新宿ワシントンビル本館２Ｆ,,13,104,1600023,,,,,,,2025-07-24,1,,,,,ネクサスアド,0
1280,6011203004772,新規,0,2025-07-24,2025-07-24,ピッチエンジン合同会社,,合同会社,東京都,中野区,本町４丁目１５番５号アーバンプレイス新中野Ｖ２０１,,13,114,1640012,,,,,,,2025-07-24,1,,,,,ピッチエンジン,0
1281,6011303005638,新規,0,2025-07-24,2025-07-24,合同会社Ａｇｎｅ,,合同会社,東京都,杉並区,西荻北４丁目２２番１２号,,13,115,1670042,,,,,,,2025-07-24,1,,,,,アグネ,0
1283,6011601028828,新規,0,2025-07-24,2025-07-24,ＬｉｖｅＬａｂ　Ｍｅｄｉａ　ＪＰ株式会社,,株式会社,東京都,練馬区,向山４丁目２６番１０号,,13,120,1760022,,,,,,,2025-07-24,1,,,,,ライブラボメディアジェイピー,0
1285,6011605002663,新規,0,2025-07-24,2025-07-24,一般社団法人見守り協会,,その他の設立登記法人,東京都,練馬区,旭町３丁目１番８号,,13,120,1790071,,,,,,,2025-07-24,1,,,,,ミマモリキョウカイ,0
1286,6011701028554,新規,0,2025-07-24,2025-07-24,ＴｈｅＢｒａｉｎｚ株式会社,,株式会社,東京都,江戸川区,上一色３丁目８番６号平井ビル１Ｆ,,13,123,1330041,,,,,,,2025-07-24,1,,,,,ザブレインズ,0
1288,6011801046506,新規,0,2025-07-24,2025-07-24,株式会社千成,,株式会社,東京都,足立区,西新井本町４丁目２９番１１－５０４号,,13,121,1230845,,,,,,,2025-07-24,1,,,,,センナリ,0
1289,6012301014465,新規,0,2025-07-24,2025-07-24,株式会社ｏｏ　ｓｏｐｈｉａｎｎｅ,,株式会社,東京都,町田市,小山ヶ丘６丁目５－１－１１３３,,13,209,1940215,,,,,,,2025-07-24,1,,,,,オオソフィアンヌ,0
1292,6012403007251,新規,0,2025-07-24,2025-07-24,ＤＹネクスト合同会社,,合同会社,東京都,稲城市,若葉台４丁目３０番地の３１,,13,225,2060824,,,,,,,2025-07-24,1,,,,,ディーワイネクスト,0
1297,6013301054633,新規,0,2025-07-24,2025-07-24,ＷＥＬＵＸ株式会社,,株式会社,東京都,豊島区,東池袋１丁目７番１２号日産ビルディング６Ｆ,,13,116,1700013,,,,,,,2025-07-24,1,,,,,ウェラックス,0
1298,6013303007779,新規,0,2025-07-24,2025-07-24,仟錦合同会社,,合同会社,東京都,豊島区,西池袋３丁目２２番４パレステュディオ立教通り９０４,,13,116,1710021,,,,,,,2025-07-24,1,,,,,センキン,0
1306,6021001085808,新規,0,2025-07-24,2025-07-24,富澤商事株式会社,,株式会社,神奈川県,海老名市,中央２丁目５番２８号,,14,215,2430432,,,,,,,2025-07-24,1,,,,,トミサワショウジ,0
1307,6021001085849,新規,0,2025-07-24,2025-07-24,株式会社ＴＯＷＡホールディングス,,株式会社,神奈川県,小田原市,本町３丁目６番２０号,,14,206,2500012,,,,,,,2025-07-24,1,,,,,トーワホールディングス,0
1310,6021003016307,新規,0,2025-07-24,2025-07-24,対話アート鑑賞合同会社,,合同会社,神奈川県,茅ヶ崎市,東海岸南３丁目８番３１－５０４号,,14,207,2530054,,,,,,,2025-07-24,1,,,,,,0
1316,6030001167796,新規,0,2025-07-24,2025-07-24,株式会社パーシモン,,株式会社,埼玉県,草加市,柿木町１９２８番地,,11,221,3400001,,,,,,,2025-07-24,1,,,,,パーシモン,0
1317,6030001167805,新規,0,2025-07-24,2025-07-24,株式会社エスペランサコラボレーション,,株式会社,埼玉県,川口市,芝西１丁目２３番３号,,11,203,3330855,,,,,,,2025-07-24,1,,,,,エスペランサコラボレーション,0
1318,6030003027230,新規,0,2025-07-24,2025-07-24,合同会社中苗,,合同会社,埼玉県,川口市,大字東本郷１０００番地の１０,,11,203,3340063,,,,,,,2025-07-24,1,,,,,ナカナエ,0
1319,6030003027255,新規,0,2025-07-24,2025-07-24,合同会社ＥＭＯ‐ＰＲＯ,,合同会社,埼玉県,入間市,大字仏子６０３－１入間リバーサイド１４－１０３,,11,225,3580053,,,,,,,2025-07-24,1,,,,,エモプロ,0
1326,6040001139563,新規,0,2025-07-24,2025-07-24,株式会社キャリアクラフトコンサルティング,,株式会社,千葉県,市川市,八幡３丁目３番２－１４１２号,,12,203,2720021,,,,,,,2025-07-24,1,,,,,キャリアクラフトコンサルティング,0
1330,6050003009441,新規,0,2025-07-24,2025-07-24,Ｍｉｌｃｈｓｃｈａｕｍ合同会社,,合同会社,茨城県,つくば市,みどりの東２３番地１８,,08,220,3050883,,,,,,,2025-07-24,1,,,,,ミルヒシャオム,0
1332,6070001043176,新規,0,2025-07-24,2025-07-24,リフォームのＴＡＫＥＵＣＨＩ株式会社,,株式会社,群馬県,高崎市,上大類町７６７番地２,,10,202,3700031,,,,,,,2025-07-24,1,,,,,リフォームノタケウチ,0
1336,6080101025668,新規,0,2025-07-24,2025-07-24,株式会社勝亦組,,株式会社,静岡県,伊豆の国市,韮山山木６４４番地の３,,22,225,4102141,,,,,,,2025-07-24,1,,,,,カツマタグミ,0
1351,6120001277933,新規,0,2025-07-24,2025-07-24,株式会社東洋安信,,株式会社,大阪府,大阪市西成区,天下茶屋３丁目１７番１８号,,27,122,5570014,,,,,,,2025-07-24,1,,,,,トウヨウアンシン,0
1352,6120001278023,新規,0,2025-07-24,2025-07-24,株式会社らいちょう,,株式会社,大阪府,大阪市北区,天神西町５番９－５０５号,,27,127,5300045,,,,,,,2025-07-24,1,,,,,ライチョウ,0
1353,6120001278056,新規,0,2025-07-24,2025-07-24,株式会社Ａｌｌ　ｉｎ,,株式会社,大阪府,枚方市,南中振１丁目６３－２０－１０９,,27,210,5730094,,,,,,,2025-07-24,1,,,,,オールイン,0
1354,6120001278213,新規,0,2025-07-24,2025-07-24,恩加島テクノウッズ株式会社,,株式会社,大阪府,大阪市住之江区,北加賀屋５丁目４番４１号,,27,125,5590011,,,,,,,2025-07-24,1,,,,,オカジマテクノウッズ,0
1355,6120003029960,新規,0,2025-07-24,2025-07-24,合同会社ライフキャリア,,合同会社,大阪府,大阪市北区,野崎町７－８梅田パークビル３階,,27,127,5300055,,,,,,,2025-07-24,1,,,,,ライフキャリア,0
1359,6120101072152,新規,0,2025-07-24,2025-07-24,株式会社ｅｃｌａｉｒ,,株式会社,大阪府,堺市中区,東山３４０番地１,,27,142,5998247,,,,,,,2025-07-24,1,,,,,エクレール,0
1361,6120103006587,新規,0,2025-07-24,2025-07-24,合同会社ＨＡＰＰＹ,,合同会社,大阪府,貝塚市,津田北町１７番１５号,,27,208,5970013,,,,,,,2025-07-24,1,,,,,ハッピー,0
1362,6120105010042,新規,0,2025-07-24,2025-07-24,医療法人清宏会,,その他の設立登記法人,大阪府,羽曳野市,はびきの３丁目７番４号ウェルビーイングはびきの１階,,27,222,5830872,,,,,,,2025-07-24,1,,,,,セイコウカイ,0
1364,6120901051223,新規,0,2025-07-24,2025-07-24,株式会社ルミエール,,株式会社,大阪府,豊中市,新千里南町３丁目１７番７号,,27,203,5600084,,,,,,,2025-07-24,1,,,,,ルミエール,0
1371,6130001080155,新規,0,2025-07-24,2025-07-24,株式会社縁紡,,株式会社,京都府,京都市山科区,勧修寺柴山８番地９６,,26,110,6078242,,,,,,,2025-07-24,1,,,,,ツムグ,0
1373,6130003010614,新規,0,2025-07-24,2025-07-24,合同会社たいこやま,,合同会社,京都府,相楽郡和束町,大字釜塚小字神上５５番地,00140027,26,365,6191212,,,,,,,2025-07-24,1,,,,,タイコヤマ,0
1374,6130003010655,新規,0,2025-07-24,2025-07-24,合同会社ドリームＫ３,,合同会社,京都府,京都市下京区,朱雀宝蔵町４４番地協栄ビル２階京都朱雀スタジオＡＲ－４０１,,26,106,6008846,,,,,,,2025-07-24,1,,,,,ドリームケースリー,0
1376,6140003022336,新規,0,2025-07-24,2025-07-24,合同会社ＡＶＥＬＬＡ,,合同会社,兵庫県,神戸市中央区,中山手通３丁目１１番１０－８０３号,,28,110,6500004,,,,,,,2025-07-24,1,,,,,アヴェラ,0
1378,6140005027572,新規,0,2025-07-24,2025-07-24,一般社団法人若狭野陣屋記念館,,その他の設立登記法人,兵庫県,相生市,若狭野町若狭野７８８,,28,208,6780081,,,,,,,2025-07-24,1,,,,,,0
1380,6150003003665,新規,0,2025-07-24,2025-07-24,合同会社ゴーディド,,合同会社,奈良県,奈良市,三条町４７５松田ビル２Ｆ、ＹＡＭＡＴＯＢＡＳＥ,,29,201,6308244,,,,,,,2025-07-24,1,,,,,ゴーディド,0
1384,6170003002244,新規,0,2025-07-24,2025-07-24,合同会社リンク,,合同会社,和歌山県,橋本市,東家１丁目４－３,,30,203,6480072,,,,,,,2025-07-24,1,,,,,リンク,0
1385,6170003002252,新規,0,2025-07-24,2025-07-24,合同会社味楽,,合同会社,和歌山県,岩出市,清水１８５番地の２（Ｄ－Ｄ号）,,30,209,6496227,,,,,,,2025-07-24,1,,,,,ミラク,0
1389,6180001167815,新規,0,2025-07-24,2025-07-24,株式会社クラス,,株式会社,愛知県,津島市,神守町字東高島１１０番地,,23,208,4960005,,,,,,,2025-07-24,1,,,,,クラス,0
1390,6180001167831,新規,0,2025-07-24,2025-07-24,株式会社ＳＯＬＡＲＹ,,株式会社,愛知県,東海市,名和町秋葉７番地６,,23,222,4760002,,,,,,,2025-07-24,1,,,,,ソラリー,0
1400,6180301040036,新規,0,2025-07-24,2025-07-24,株式会社エスリー,,株式会社,愛知県,安城市,新田町小山西１０１番地１,,23,212,4460061,,,,,,,2025-07-24,1,,,,,エスリー,0
1401,6180303006662,新規,0,2025-07-24,2025-07-24,合同会社旭コネクト,,合同会社,愛知県,豊田市,竹生町４丁目１９番地,,23,211,4710077,,,,,,,2025-07-24,1,,,,,アサヒコネクト,0
1410,6240003007319,新規,0,2025-07-24,2025-07-24,合同会社Ｋａｎ　Ｇｙｏ　Ｃｏｍｍｏｎｓ,,合同会社,広島県,呉市,豊町久比２３１２,,34,202,7340304,,,,,,,2025-07-24,1,,,,,カンギョウコモンズ,0
1419,6290005019794,新規,0,2025-07-24,2025-07-24,一般社団法人Ｔａｍｅｎａｓ,,その他の設立登記法人,福岡県,久留米市,津福今町２７３番地３,,40,203,8300061,,,,,,,2025-07-24,1,,,,,タメナス,0
1424,6300001014285,新規,0,2025-07-24,2025-07-24,ＮＳ　ＩＮＴＥＲＮＡＴＩＯＮＡＬ株式会社,,株式会社,佐賀県,武雄市,朝日町大字中野４９０８,,41,206,8430002,,,,,,,2025-07-24,1,,,,,エヌエスインターナショナル,0
1432,6330001033423,新規,0,2025-07-24,2025-07-24,えみたす株式会社,,株式会社,熊本県,玉名郡和水町,野田１５３番地１,,43,369,8610925,,,,,,,2025-07-24,1,,,,,エミタス,0
1437,6330003011113,新規,0,2025-07-24,2025-07-24,合同会社Ｒｏｙｌａｎｃｅ,,合同会社,熊本県,熊本市中央区,新屋敷２丁目２７－１７ハウスロフティ５０２号室,,43,101,8620975,,,,,,,2025-07-24,1,,,,,ロイランス,0
1439,6340001027515,新規,0,2025-07-24,2025-07-24,喜美田株式会社,,株式会社,鹿児島県,指宿市,十町１５３０番地２０,,46,210,8910402,,,,,,,2025-07-24,1,,,,,キミタ,0
1440,6340005009889,新規,0,2025-07-24,2025-07-24,特定非営利活動法人ＹＯＳＥＮＡＢＥ,,その他の設立登記法人,鹿児島県,鹿児島市,山田町４１５番地７,,46,201,8910104,,,,,,,2025-07-24,1,,,,,ヨセナベ,0
1442,6360003015086,新規,0,2025-07-24,2025-07-24,合同会社むすび,,合同会社,沖縄県,沖縄市,与儀１丁目３０番２８号,,47,211,9042174,,,,,,,2025-07-24,1,,,,,ムスビ,0
1446,6380001035480,新規,0,2025-07-24,2025-07-24,ＳＥＮＧＯＫＵ　ＪＰ株式会社,,株式会社,福島県,郡山市,巳六段３番地ａｖｅｎｕｅｓｑｕａｒｅ２０１号,,07,203,9630119,,,,,,,2025-07-24,1,,,,,センゴクジェイピー,0
1451,6420001019215,新規,0,2025-07-24,2025-07-24,ＳＢカーズ株式会社,,株式会社,青森県,弘前市,大字南大町１丁目１番３号,,02,202,0368006,,,,,,,2025-07-24,1,,,,,エスビーカーズ,0
1456,6430003017901,新規,0,2025-07-24,2025-07-24,合同会社あすわず,,合同会社,北海道,北広島市,大曲並木３丁目６番地１４,,01,234,0611279,,,,,,,2025-07-24,1,,,,,アスワズ,0
1459,6480001012882,新規,0,2025-07-24,2025-07-24,株式会社Ｎ企画,,株式会社,徳島県,阿南市,富岡町今福寺４３番地５,,36,204,7740030,,,,,,,2025-07-24,1,,,,,エヌキカク,0
1460,6480001012899,新規,0,2025-07-24,2025-07-24,株式会社岡本研磨,,株式会社,徳島県,徳島市,渋野町岩鼻８２番地の８２,,36,201,7714267,,,,,,,2025-07-24,1,,,,,オカモトケンマ,0
1470,7010001257053,新規,0,2025-07-24,2025-07-24,森源エナジー株式会社,,株式会社,東京都,中央区,銀座１丁目１２－４Ｎ＆ＥＢＬＤ．７階,,13,102,1040061,,,,,,,2025-07-24,1,,,,,シンゲンエナジー,0
1474,7010003048038,新規,0,2025-07-24,2025-07-24,ｒｅｎｇａ第１号合同会社,,合同会社,東京都,千代田区,霞が関３丁目２番５号,,13,101,1000013,,,,,,,2025-07-24,1,,,,,レンガダイイチゴウ,0
1475,7010003048120,新規,0,2025-07-24,2025-07-24,Ｎｅｘｔ　Ｓｔｒａｎｄ　Ｐａｒｔｎｅｒｓ合同会社,,合同会社,東京都,中央区,銀座１丁目１２番４号,,13,102,1040061,,,,,,,2025-07-24,1,,,,,ネクストストランドパートナーズ,0
1476,7010005040372,新規,0,2025-07-24,2025-07-24,ＡＡＪ　Ｊ特定目的会社,,その他の設立登記法人,東京都,千代田区,霞が関３丁目２番５号,,13,101,1000013,,,,,,,2025-07-24,1,,,,,エーエージェージェー,0
1477,7010005040414,新規,0,2025-07-24,2025-07-24,一般社団法人日本特定技能教育支援協会,,その他の設立登記法人,東京都,中央区,日本橋蛎殻町１丁目３０番５号,,13,102,1030014,,,,,,,2025-07-24,1,,,,,ニホントクテイギノウキョウイクシエンキョウカイ,0
1481,7010401191686,新規,0,2025-07-24,2025-07-24,株式会社Ｈａｌｕｋｉｍｏｎｏ　ｄｒｅｓｓｉｎｇ,,株式会社,東京都,港区,六本木３丁目３番２８－１０３号,,13,103,1060032,,,,,,,2025-07-24,1,,,,,ハルキモノドレッシング,0
1482,7010401191918,新規,0,2025-07-24,2025-07-24,株式会社シンドージャパン,,株式会社,東京都,港区,新橋４丁目２５番６号ヤスヰビル２・５階,,13,103,1050004,,,,,,,2025-07-24,1,,,,,シンドージャパン,0
1483,7010401191967,新規,0,2025-07-24,2025-07-24,株式会社ＨＥＲ　ＳＰＡＣＥ,,株式会社,東京都,港区,南青山３丁目１番３６号青山丸竹ビル６Ｆ,,13,103,1070062,,,,,,,2025-07-24,1,,,,,ハースペース,0
1484,7010401191991,新規,0,2025-07-24,2025-07-24,株式会社ジャレント・アンド・エリングループ,,株式会社,東京都,港区,六本木３丁目１６番１２号六本木ＫＳビル５Ｆ,,13,103,1060032,,,,,,,2025-07-24,1,,,,,ジャレントアンドエリングループ,0
1504,7010901057791,新規,0,2025-07-24,2025-07-24,株式会社ｏｆｆｅｎｈａｕｓ,,株式会社,東京都,世田谷区,北沢４丁目７番２号北沢ハイム１０３,,13,112,1550031,,,,,,,2025-07-24,1,,,,,オッフェンハウス,0
1514,7011103016124,新規,0,2025-07-24,2025-07-24,合同会社トゥデイシップ,,合同会社,東京都,新宿区,西新宿３丁目３番１３号西新宿水間ビル２Ｆ,,13,104,1600023,,,,,,,2025-07-24,1,,,,,トゥデイシップ,0
1515,7011103016173,新規,0,2025-07-24,2025-07-24,合同会社おぷがる,,合同会社,東京都,新宿区,西新宿２丁目３番３号ＫＤＤＩアネックスビル１ＦＢＩＺｃｏｍｆｏｒｔ西新宿Ｃ２９,,13,104,1600023,,,,,,,2025-07-24,1,,,,,オプガル,0
1519,7011401027260,新規,0,2025-07-24,2025-07-24,柳葉会医療株式会社,,株式会社,東京都,板橋区,蓮根２丁目２７番１２号,,13,119,1740046,,,,,,,2025-07-24,1,,,,,ヤナギバカイイリョウ,0
1520,7011601028827,新規,0,2025-07-24,2025-07-24,潤禾株式会社,,株式会社,東京都,練馬区,北町５丁目５－７かぼちゃの馬車平和台Ｖ１０５号室,,13,120,1790081,,,,,,,2025-07-24,1,,,,,ジュンカ,0
1525,7011801046463,新規,0,2025-07-24,2025-07-24,ＤＥＷＥＮ株式会社,,株式会社,東京都,足立区,西新井本町２丁目２２番６－３０５号,,13,121,1230845,,,,,,,2025-07-24,1,,,,,ディウェン,0
1529,7012401043388,新規,0,2025-07-24,2025-07-24,株式会社ＫｏＫｏ,,株式会社,東京都,三鷹市,野崎２丁目１１番９号プライヴェル三鷹野崎３０９,,13,204,1810014,,,,,,,2025-07-24,1,,,,,ココ,0
1531,7012701018981,新規,0,2025-07-24,2025-07-24,株式会社一宇,,株式会社,東京都,小平市,花小金井５丁目１７番２３号,,13,211,1870002,,,,,,,2025-07-24,1,,,,,イチウ,0
1532,7012805003351,新規,0,2025-07-24,2025-07-24,特定非営利活動法人保護猫ひろばラブハピ,,その他の設立登記法人,東京都,日野市,程久保３丁目１９番地の１２,,13,212,1910042,,,,,,,2025-07-24,1,,,,,ホゴネコヒロバラブハピ,0
1533,7013301054632,新規,0,2025-07-24,2025-07-24,ＬＩＶＡＮＣＥ株式会社,,株式会社,東京都,豊島区,東池袋１丁目７番１２号日産ビルディング６Ｆ,,13,116,1700013,,,,,,,2025-07-24,1,,,,,リヴァンス,0
1536,7021001085807,新規,0,2025-07-24,2025-07-24,富澤不動産株式会社,,株式会社,神奈川県,海老名市,中央２丁目５番２８号,,14,215,2430432,,,,,,,2025-07-24,1,,,,,トミサワフドウサン,0
1537,7021001085906,新規,0,2025-07-24,2025-07-24,株式会社フジフラット,,株式会社,神奈川県,大和市,中央林間３丁目２１番２３号,,14,213,2420007,,,,,,,2025-07-24,1,,,,,フジフラット,0
1548,7030003027254,新規,0,2025-07-24,2025-07-24,合同会社ＳＵＮＯＵＴ,,合同会社,埼玉県,さいたま市南区,鹿手袋２丁目２１番１４号１０３,,11,108,3360031,,,,,,,2025-07-24,1,,,,,サンアウト,0
1561,7060003005653,新規,0,2025-07-24,2025-07-24,合同会社キーパー,,合同会社,栃木県,足利市,堀込町２５８７番地１サンハイツ堀込２ＦＡ,,09,202,3260831,,,,,,,2025-07-24,1,,,,,キーパー,0
1562,7080001027053,新規,0,2025-07-24,2025-07-24,グローバルアセット株式会社,,株式会社,静岡県,焼津市,西小川１丁目９番地の４,,22,212,4250036,,,,,,,2025-07-24,1,,,,,グローバルアセット,0
1578,7100001038774,新規,0,2025-07-24,2025-07-24,株式会社ハクカー,,株式会社,長野県,北安曇郡白馬村,大字神城１０７９,,20,485,3999211,,,,,,,2025-07-24,1,,,,,ハクカー,0
1579,7100001038790,新規,0,2025-07-24,2025-07-24,株式会社白鴉,,株式会社,長野県,北安曇郡白馬村,大字北城９４６４番地３９４,,20,485,3999301,,,,,,,2025-07-24,1,,,,,シロカラス,0
1580,7100003008305,新規,0,2025-07-24,2025-07-24,合同会社Ｙ．Ｌ　ＮＯＲＡ,,合同会社,長野県,駒ヶ根市,赤穂９２７１－２,,20,210,3994117,,,,,,,2025-07-24,1,,,,,ワイエルノラ,0
1584,7110005017253,新規,0,2025-07-24,2025-07-24,一般社団法人アルフェラッツ,,その他の設立登記法人,新潟県,糸魚川市,大字寺地２１２番地５,,15,216,9490304,,,,,,,2025-07-24,1,,,,,アルフェラッツ,0
1592,7120001278047,新規,0,2025-07-24,2025-07-24,株式会社ＳＫＭ管財,,株式会社,大阪府,大阪市中央区,西心斎橋２丁目１０番１３－７０６号,,27,128,5420086,,,,,,,2025-07-24,1,,,,,エスケーエムカンザイ,0
1593,7120001278055,新規,0,2025-07-24,2025-07-24,株式会社結,,株式会社,大阪府,大阪市淀川区,塚本２丁目８番１４－４０１号,,27,123,5320026,,,,,,,2025-07-24,1,,,,,ユイ,0
1594,7120001278071,新規,0,2025-07-24,2025-07-24,＿澤国際株式会社,00140024,株式会社,大阪府,大阪市東住吉区,東田辺３丁目１－１－３Ｆ－Ｃ,,27,121,5460032,,,,,,,2025-07-24,1,,,,,シンサワコクサイ,0
1596,7120003030042,新規,0,2025-07-24,2025-07-24,シエラ合同会社,,合同会社,大阪府,大阪市北区,梅田１丁目２番２号大阪駅前第２ビル１２－１２,,27,127,5300001,,,,,,,2025-07-24,1,,,,,シエラ,0
1599,7120005025016,新規,0,2025-07-24,2025-07-24,特定非営利活動法人谷町みらいデザイン,,その他の設立登記法人,大阪府,大阪市中央区,谷町５丁目３－８ＢＥＬＬＡＶＩＳＴＡ２階,,27,128,5400012,,,,,,,2025-07-24,1,,,,,タニマチミライデザイン,0
1603,7120101072143,新規,0,2025-07-24,2025-07-24,Ｄｒｅａｍ　Ｂｏｘｅｓ株式会社,,株式会社,大阪府,阪南市,光陽台２丁目１９番２５号,,27,232,5990223,,,,,,,2025-07-24,1,,,,,ドリームボックス,0
1604,7120101072151,新規,0,2025-07-24,2025-07-24,株式会社おひさま,,株式会社,大阪府,泉大津市,下条町１２－１２,,27,206,5950027,,,,,,,2025-07-24,1,,,,,オヒサマ,0
1605,7120103006586,新規,0,2025-07-24,2025-07-24,合同会社盛業商会,,合同会社,大阪府,羽曳野市,野６８８番地の３,,27,222,5830884,,,,,,,2025-07-24,1,,,,,セイギョウショウカイ,0
1608,7120901051197,新規,0,2025-07-24,2025-07-24,昭建株式会社,,株式会社,大阪府,豊中市,緑丘２丁目１５番２７号,,27,203,5600002,,,,,,,2025-07-24,1,,,,,ショウケン,0
1609,7120901051206,新規,0,2025-07-24,2025-07-24,株式会社ＲＡＫ,,株式会社,大阪府,箕面市,桜２丁目５番４３号,,27,220,5620041,,,,,,,2025-07-24,1,,,,,アールエーケー,0
1614,7130003010646,新規,0,2025-07-24,2025-07-24,スタジオタナカ合同会社,,合同会社,京都府,京都市下京区,七条通油小路東入大黒町２２７番地第２キョートビル４０２,,26,106,6008223,,,,,,,2025-07-24,1,,,,,スタジオタナカ,0
1616,7130005017409,新規,0,2025-07-24,2025-07-24,一般社団法人七道,,その他の設立登記法人,京都府,京都市上京区,今出川通御前通東入社家長屋町６７５番地の２,,26,102,6028395,,,,,,,2025-07-24,1,,,,,シチドウ,0
1620,7140001139346,新規,0,2025-07-24,2025-07-24,＿禾株式会社,00140039,株式会社,兵庫県,神戸市中央区,下山手通５丁目８－１４山手ダイヤハイツＢ棟５０６号,,28,110,6500011,,,,,,,2025-07-24,1,,,,,チンカ,0
1624,7140003022335,新規,0,2025-07-24,2025-07-24,合同会社ＮＫファーム,,合同会社,兵庫県,神戸市西区,高塚台６丁目２番地の２,,28,111,6512271,,,,,,,2025-07-24,1,,,,,エヌケーファーム,0
1625,7150001028259,新規,0,2025-07-24,2025-07-24,株式会社全伸貿易,,株式会社,奈良県,奈良市,学園中３丁目１３４４－８,,29,201,6310035,,,,,,,2025-07-24,1,,,,,ゼンシンボウエキ,0
1626,7150001028283,新規,0,2025-07-24,2025-07-24,株式会社彩,,株式会社,奈良県,大和郡山市,小南町４８８番地１４８,,29,203,6391023,,,,,,,2025-07-24,1,,,,,イロドリ,0
1633,7180003028741,新規,0,2025-07-24,2025-07-24,舟橋企画合同会社,,合同会社,愛知県,小牧市,外堀２丁目６９番地,,23,219,4850039,,,,,,,2025-07-24,1,,,,,フナハシキカク,0
1635,7180301040035,新規,0,2025-07-24,2025-07-24,株式会社大庭興業,,株式会社,愛知県,高浜市,論地町３丁目７番地９２,,23,227,4441314,,,,,,,2025-07-24,1,,,,,オオバコウギョウ,0
1645,7200001044060,新規,0,2025-07-24,2025-07-24,株式会社ヨシカク,,株式会社,岐阜県,可児郡御嵩町,上恵土１７１番地１２,,21,521,5050126,,,,,,,2025-07-24,1,,,,,ヨシカク,0
1652,7240003007318,新規,0,2025-07-24,2025-07-24,Ｐｕｌａｍａ合同会社,,合同会社,広島県,広島市中区,八丁堀６番１１号,,34,101,7300013,,,,,,,2025-07-24,1,,,,,プラマ,0
1658,7260001040392,新規,0,2025-07-24,2025-07-24,春陽マリンクルー株式会社,,株式会社,岡山県,備前市,穂浪１１５番地１,,33,211,7050033,,,,,,,2025-07-24,1,,,,,シュンヨウマリンクルー,0
1664,7290001110829,新規,0,2025-07-24,2025-07-24,株式会社バースリンク,,株式会社,福岡県,福岡市博多区,博多駅前１丁目２３番２号ＰａｒｋＦｒｏｎｔ博多駅前１丁目５Ｆ－Ｂ,,40,132,8120011,,,,,,,2025-07-24,1,,,,,バースリンク,0
1665,7290001110837,新規,0,2025-07-24,2025-07-24,相思創造研究所株式会社,,株式会社,福岡県,福岡市中央区,天神４丁目６－２８いちご天神ノースビル７階,,40,133,8100001,,,,,,,2025-07-24,1,,,,,ソウシソウゾウケンキュウジョ,0
1670,7290003017155,新規,0,2025-07-24,2025-07-24,合同会社ちきゅうの恵,,合同会社,福岡県,福岡市博多区,奈良屋町７番４号,,40,132,8120023,,,,,,,2025-07-24,1,,,,,チキュウノメグミ,0
1671,7290801031729,新規,0,2025-07-24,2025-07-24,株式会社オートグラスサミット,,株式会社,福岡県,中間市,桜台２丁目２５番２６号,,40,215,8090017,,,,,,,2025-07-24,1,,,,,オートグラスサミット,0
1676,7330001033406,新規,0,2025-07-24,2025-07-24,株式会社Ｍｉｎａｒｉｓ,,株式会社,熊本県,山鹿市,南島１９１０番地,,43,208,8610535,,,,,,,2025-07-24,1,,,,,ミナリス,0
1677,7330001033422,新規,0,2025-07-24,2025-07-24,株式会社美里町つどう不動産,,株式会社,熊本県,下益城郡美里町,三和２３８番地１,,43,348,8614732,,,,,,,2025-07-24,1,,,,,ミサトマチツドウフドウサン,0
1679,7340001027530,新規,0,2025-07-24,2025-07-24,株式会社よかＴＥＣＨ,,株式会社,鹿児島県,鹿児島市,下荒田１丁目１８番４号リバーサイド３０１号,,46,201,8900056,,,,,,,2025-07-24,1,,,,,ヨカテック,0
1680,7350001019659,新規,0,2025-07-24,2025-07-24,スパイラル産業株式会社,,株式会社,宮崎県,宮崎市,清水３丁目７番２２号ロイヤルシャーメゾンプレミアム２０２号,,45,201,8800021,,,,,,,2025-07-24,1,,,,,スパイラルサンギョウ,0
1688,7360001035531,新規,0,2025-07-24,2025-07-24,我那覇組株式会社,,株式会社,沖縄県,宜野湾市,長田１丁目９番２１号,,47,205,9012212,,,,,,,2025-07-24,1,,,,,ガナハグミ,0
1689,7360003015110,新規,0,2025-07-24,2025-07-24,合同会社Ｈａｎａｓａｒａ,,合同会社,沖縄県,浦添市,牧港２丁目５０番３－１２０４号,,47,208,9012131,,,,,,,2025-07-24,1,,,,,ハナサラ,0
1692,7370001052856,新規,0,2025-07-24,2025-07-24,Ｙハヤサカ株式会社,,株式会社,宮城県,仙台市青葉区,上杉４丁目４番１号,,04,101,9800011,,,,,,,2025-07-24,1,,,,,ワイハヤサカ,0
1705,7480001012898,新規,0,2025-07-24,2025-07-24,株式会社フィールドエミネンス,,株式会社,徳島県,鳴門市,里浦町里浦字坂田６６番地,,36,202,7720021,,,,,,,2025-07-24,1,,,,,フィールドエミネンス,0
1707,7480003002294,新規,0,2025-07-24,2025-07-24,合同会社Ａｗｅｓｏｍｅ,,合同会社,徳島県,徳島市,八万町新貝１０２番地の３,,36,201,7708070,,,,,,,2025-07-24,1,,,,,オースン,0
1710,7500001026433,新規,0,2025-07-24,2025-07-24,株式会社Ｉｎｎｅｒ　Ｊａｐａｎ,,株式会社,愛媛県,今治市,大三島町宮浦５７１４番地３,,38,202,7941304,,,,,,,2025-07-24,1,,,,,インナージャパン,0
1717,8010001255881,新規,0,2025-07-24,2025-07-24,株式会社Ａｌｅｘａｎｄｒｉａ　Ｊａｐａｎ,,株式会社,東京都,千代田区,神田錦町２丁目９大新ビル５０１,,13,101,1010054,,,,,,,2025-07-24,1,,,,,アレクサンドリアジャパン,0
1718,8010001257028,新規,0,2025-07-24,2025-07-24,Ｋｅｙｓｔｏｎｅ　Ｃａｔａｌｙｓｔ　Ｊａｐａｎ株式会社,,株式会社,東京都,千代田区,丸の内１丁目６番２号新丸の内センタービル２１階,,13,101,1000005,,,,,,,2025-07-24,1,,,,,キーストーンカタリストジャパン,0
1719,8010001257110,新規,0,2025-07-24,2025-07-24,イノ・ホールディングス株式会社,,株式会社,東京都,中央区,銀座１丁目１２番４号Ｎ＆ＥＢＬＤ．６Ｆ,,13,102,1040061,,,,,,,2025-07-24,1,,,,,イノホールディングス,0
1726,8010401191751,新規,0,2025-07-24,2025-07-24,Ｔｏｋｅｎ　Ｊａｐａｎ株式会社,,株式会社,東京都,港区,西新橋１丁目１９－８ＡＣＮ虎ノ門ビル６階,,13,103,1050003,,,,,,,2025-07-24,1,,,,,トークンジャパン,0
1727,8010401191859,新規,0,2025-07-24,2025-07-24,アウルクラフト株式会社,,株式会社,東京都,港区,赤坂２丁目８‐５若林ビル２Ｆ,,13,103,1070052,,,,,,,2025-07-24,1,,,,,アウルクラフト,0
1728,8010401191883,新規,0,2025-07-24,2025-07-24,ＧＩＮＺＡＺ株式会社,,株式会社,東京都,港区,新橋１丁目５番６号銀座第三誠和ビル７階,,13,103,1050004,,,,,,,2025-07-24,1,,,,,ギンザゼット,0
1729,8010401191891,新規,0,2025-07-24,2025-07-24,株式会社Ｅｖｏｌｖｅアカウンティング,,株式会社,東京都,港区,北青山１丁目３番１号アールキューブ青山３階,,13,103,1070061,,,,,,,2025-07-24,1,,,,,エボルブアカウンティング,0
1730,8010401191933,新規,0,2025-07-24,2025-07-24,株式会社ｉｔ’ｓ　ｓｏ　ｙｏｕ,,株式会社,東京都,港区,高輪４丁目６番－３３－２０１号,,13,103,1080074,,,,,,,2025-07-24,1,,,,,イッツソーユー,0
1731,8010403035642,新規,0,2025-07-24,2025-07-24,合同会社ＣｏｒｅＢｅｌｌｅ,,合同会社,東京都,港区,白金１丁目２番１－Ｅ４４１０号,,13,103,1080072,,,,,,,2025-07-24,1,,,,,コアベル,0
1732,8010403035675,新規,0,2025-07-24,2025-07-24,合同会社Ｍｅｌｏｆｙ,,合同会社,東京都,港区,北青山１丁目３番１号アールキューブ青山３階,,13,103,1070061,,,,,,,2025-07-24,1,,,,,メロフィー,0
1740,8010701048049,新規,0,2025-07-24,2025-07-24,株式会社Ｔ．Ｈコーポレーション,,株式会社,東京都,品川区,中延２丁目６番１２号３０１,,13,109,1420053,,,,,,,2025-07-24,1,,,,,ティーエイチコーポレーション,0
1742,8010703007820,新規,0,2025-07-24,2025-07-24,合同会社アンディアモハマ,,合同会社,東京都,品川区,東五反田１丁目８－１１,,13,109,1410022,,,,,,,2025-07-24,1,,,,,アンディアモハマ,0
1755,8011201026528,新規,0,2025-07-24,2025-07-24,株式会社ユトリア,,株式会社,東京都,中野区,南台３丁目４４－７さくら館３０３,,13,114,1640014,,,,,,,2025-07-24,1,,,,,ユトリア,0
1757,8011501032341,新規,0,2025-07-24,2025-07-24,株式会社ライフファースト,,株式会社,東京都,北区,赤羽２丁目４２番１０－２０２号株式会社ビルドアップホーム内,,13,117,1150045,,,,,,,2025-07-24,1,,,,,ライフファースト,0
1764,8012401043395,新規,0,2025-07-24,2025-07-24,株式会社ｐｒｏｂａｂｉｌｉｔｙ,,株式会社,東京都,府中市,緑町１丁目１７番地の１３ミオカステーロ府中緑町ＩＩ５０４,00140040,13,206,1830006,,,,,,,2025-07-24,1,,,,,プロバビリティ,0
1767,8013301054631,新規,0,2025-07-24,2025-07-24,京貿株式会社,,株式会社,東京都,豊島区,東池袋１丁目７番１２号日産ビルディング６Ｆ,,13,116,1700013,,,,,,,2025-07-24,1,,,,,ケイボー,0
1768,8013301054648,新規,0,2025-07-24,2025-07-24,株式会社プリズムレイン,,株式会社,東京都,豊島区,東池袋２丁目６２番８号ＢＩＧオフィスプラザ池袋１２０６,,13,116,1700013,,,,,,,2025-07-24,1,,,,,プリズムレイン,0
1770,8020001163968,新規,0,2025-07-24,2025-07-24,株式会社ＨＩＭＩＴＡ,,株式会社,神奈川県,横浜市金沢区,釜利谷西３丁目４９番１９号,,14,108,2360046,,,,,,,2025-07-24,1,,,,,ヒミタ,0
1773,8020005016932,新規,0,2025-07-24,2025-07-24,一般社団法人子ども心理発達支援センターすこやか,,その他の設立登記法人,神奈川県,横浜市神奈川区,金港町５番地１４クアドリフォリオ８階,,14,102,2210056,,,,,,,2025-07-24,1,,,,,コドモシンリハッタツシエンセンタースコヤカ,0
1776,8021001085806,新規,0,2025-07-24,2025-07-24,富澤総研株式会社,,株式会社,神奈川県,海老名市,中央２丁目５番２８号,,14,215,2430432,,,,,,,2025-07-24,1,,,,,トミサワソウケン,0
1777,8021001085839,新規,0,2025-07-24,2025-07-24,ＡＵＴＯ　ＦＬＥＸ株式会社,,株式会社,神奈川県,藤沢市,葛原１３４番地,,14,205,2520822,,,,,,,2025-07-24,1,,,,,オートフレックス,0
1778,8021001085855,新規,0,2025-07-24,2025-07-24,株式会社トイトグ,,株式会社,神奈川県,逗子市,新宿２丁目１３－６逗子シーサイドハイツ１０１,,14,208,2490007,,,,,,,2025-07-24,1,,,,,トイトグ,0
1779,8021003016313,新規,0,2025-07-24,2025-07-24,合同会社Ｎ．Ｆ．Ｌａｂｏ,,合同会社,神奈川県,平塚市,徳延６０２－４,,14,203,2540902,,,,,,,2025-07-24,1,,,,,エヌエフラボ,0
1787,8030001167786,新規,0,2025-07-24,2025-07-24,株式会社ＡＮＥＣＴＡ,,株式会社,埼玉県,所沢市,上新井４丁目１５－４７,,11,208,3591142,,,,,,,2025-07-24,1,,,,,アネクタ,0
1788,8030001167794,新規,0,2025-07-24,2025-07-24,株式会社コネクト,,株式会社,埼玉県,越谷市,谷中町１丁目９２番地２,,11,222,3430856,,,,,,,2025-07-24,1,,,,,コネクト,0
1789,8030001167811,新規,0,2025-07-24,2025-07-24,Ｒａｄｉａｎｃｅ株式会社,,株式会社,埼玉県,坂戸市,泉町１９番地４,,11,239,3500231,,,,,,,2025-07-24,1,,,,,ラディアンス,0
1797,8040001139792,新規,0,2025-07-24,2025-07-24,ミライフ株式会社,,株式会社,千葉県,浦安市,当代島２丁目６番５０号マンション浦安１０５号,,12,227,2790001,,,,,,,2025-07-24,1,,,,,ミライフ,0
1805,8080001027052,新規,0,2025-07-24,2025-07-24,三和シャーリング株式会社,,株式会社,静岡県,藤枝市,築地７０８番地の１,,22,214,4260031,,,,,,,2025-07-24,1,,,,,サンワシャーリング,0
1808,8080401028047,新規,0,2025-07-24,2025-07-24,株式会社ＳＫＹ‐Ｇ,,株式会社,静岡県,浜松市中央区,細島町１４番地の４ＢＬステージ壱番館１０１,,22,138,4350045,,,,,,,2025-07-24,1,,,,,スカイジー,0
1811,8090003002861,新規,0,2025-07-24,2025-07-24,合同会社３６９シグマ,,合同会社,山梨県,富士吉田市,中曽根２丁目６番２３－Ａ号,,19,202,4030007,,,,,,,2025-07-24,1,,,,,ミロクシグマ,0
1812,8090005007719,新規,0,2025-07-24,2025-07-24,一般社団法人早川伝統野菜保存会,,その他の設立登記法人,山梨県,南巨摩郡早川町,保７３６－１,,19,364,4092713,,,,,,,2025-07-24,1,,,,,ハヤカワデントウヤサイホゾンカイ,0
1813,8100001038781,新規,0,2025-07-24,2025-07-24,いとし株式会社,,株式会社,長野県,北佐久郡軽井沢町,大字発地１２４５番地９,,20,321,3890113,,,,,,,2025-07-24,1,,,,,イトシ,0
1819,8120001278046,新規,0,2025-07-24,2025-07-24,ＭＯＲＰＨＥＵＳ　ＣＯＮＳＵＬＴＩＮＧ株式会社,,株式会社,大阪府,大阪市北区,堂島２丁目２番８,,27,127,5300003,,,,,,,2025-07-24,1,,,,,モルフェウスコンサルティング,0
1820,8120001278054,新規,0,2025-07-24,2025-07-24,株式会社サイリス,,株式会社,大阪府,大阪市阿倍野区,播磨町１丁目２３－１５,,27,119,5450022,,,,,,,2025-07-24,1,,,,,サイリス,0
1823,8120003030066,新規,0,2025-07-24,2025-07-24,合同会社ＺＯＮ,,合同会社,大阪府,大阪市平野区,加美西１丁目９番２４号,,27,126,5470005,,,,,,,2025-07-24,1,,,,,ゾン,0
1828,8120101072134,新規,0,2025-07-24,2025-07-24,株式会社西埜設備,,株式会社,大阪府,堺市南区,赤坂台１丁６０番８号,,27,145,5900144,,,,,,,2025-07-24,1,,,,,ニシノセツビ,0
1830,8120103006593,新規,0,2025-07-24,2025-07-24,合同会社ホワイト,,合同会社,大阪府,藤井寺市,国府２丁目１番１０号,,27,226,5830006,,,,,,,2025-07-24,1,,,,,ホワイト,0
1836,8120901051196,新規,0,2025-07-24,2025-07-24,株式会社ＢＲＡＩＺＥ,,株式会社,大阪府,豊中市,上野坂１丁目１８番４１号,,27,203,5600012,,,,,,,2025-07-24,1,,,,,ブレイズ,0
1837,8120901051221,新規,0,2025-07-24,2025-07-24,株式会社イナン建設,,株式会社,大阪府,箕面市,粟生新家３丁目１９番１号,,27,220,5620024,,,,,,,2025-07-24,1,,,,,イナンケンセツ,0
1838,8120901051238,新規,0,2025-07-24,2025-07-24,株式会社ＡＳＪ,,株式会社,大阪府,豊能郡豊能町,希望ケ丘６丁目１３番地の３,,27,321,5630214,,,,,,,2025-07-24,1,,,,,エーエスジェイ,0
1848,8140001139345,新規,0,2025-07-24,2025-07-24,株式会社家ログ,,株式会社,兵庫県,姫路市,久保町１５５番地,,28,201,6700916,,,,,,,2025-07-24,1,,,,,イエログ,0
1849,8140001139361,新規,0,2025-07-24,2025-07-24,株式会社真善,,株式会社,兵庫県,神戸市長田区,丸山町４丁目１４－１６,,28,106,6530875,,,,,,,2025-07-24,1,,,,,シンゼン,0
1850,8140001139378,新規,0,2025-07-24,2025-07-24,株式会社ＮＡＧＩ,,株式会社,兵庫県,尼崎市,上坂部３丁目３３番１号,,28,202,6610979,,,,,,,2025-07-24,1,,,,,ナギ,0
1855,8140005027570,新規,0,2025-07-24,2025-07-24,一般社団法人広吉国際平和センター,,その他の設立登記法人,兵庫県,神戸市中央区,磯辺通１丁目１番１８号カサベラ国際プラザビル７０７号室,,28,110,6510084,,,,,,,2025-07-24,1,,,,,ヒロヨシコクサイヘイワセンター,0
1857,8150001028282,新規,0,2025-07-24,2025-07-24,スマイルリンク株式会社,,株式会社,奈良県,橿原市,北妙法寺町２３番地の１０,,29,205,6340843,,,,,,,2025-07-24,1,,,,,スマイルリンク,0
1866,8180001167813,新規,0,2025-07-24,2025-07-24,株式会社Ｂｒｏｔｈｅｒ　Ｂｕｉｌｄ,,株式会社,愛知県,名古屋市中区,大須４丁目３番４６号プレサンス久屋大通公園エアリー７０４号,,23,106,4600011,,,,,,,2025-07-24,1,,,,,ブラザービルド,0
1867,8180001167862,新規,0,2025-07-24,2025-07-24,株式会社ＳＲＫマネジメント,,株式会社,愛知県,名古屋市緑区,鳴丘２丁目３１８番地,,23,114,4580005,,,,,,,2025-07-24,1,,,,,エスアールケイマネジメント,0
1869,8180301040034,新規,0,2025-07-24,2025-07-24,株式会社プレミアム,,株式会社,愛知県,豊橋市,松葉町１丁目３９番地,,23,201,4400897,,,,,,,2025-07-24,1,,,,,プレミアム,0
1875,8200003006933,新規,0,2025-07-24,2025-07-24,合同会社ａｉキャスト,,合同会社,岐阜県,瑞穂市,穂積７８２番地６,,21,216,5010223,,,,,,,2025-07-24,1,,,,,エーアイキャスト,0
1876,8220005008983,新規,0,2025-07-24,2025-07-24,一般社団法人蜂須賀医療福祉研究,,その他の設立登記法人,石川県,金沢市,駅西本町１丁目１３番２３号,,17,201,9200025,,,,,,,2025-07-24,1,,,,,ハチスカイリョウフクシケンキュウ,0
1882,8240001065267,新規,0,2025-07-24,2025-07-24,株式会社ｅＮｊｉｎ,,株式会社,広島県,広島市南区,大州５丁目５番３１号３階,,34,103,7320802,,,,,,,2025-07-24,1,,,,,エンジン,0
1890,8270001009238,新規,0,2025-07-24,2025-07-24,株式会社ヤドカリ,,株式会社,鳥取県,境港市,福定町１８０２番地２２,,31,204,6840042,,,,,,,2025-07-24,1,,,,,ヤドカリ,0
1891,8290001110803,新規,0,2025-07-24,2025-07-24,株式会社Ｍｔｈｒｅｅ,,株式会社,福岡県,福岡市博多区,博多駅前１丁目２３番２号ＰａｒｋＦｒｏｎｔ博多駅前１丁目５Ｆ－Ｂ,,40,132,8120011,,,,,,,2025-07-24,1,,,,,エムスリー,0
1894,8290003017146,新規,0,2025-07-24,2025-07-24,ＦＵＪＩＫＯ　ＤＯ　ＳＴＹＬＥ合同会社,,合同会社,福岡県,福岡市東区,馬出６丁目２１番３０号,,40,131,8120054,,,,,,,2025-07-24,1,,,,,フジコドゥスタイル,0
1896,8290005019792,新規,0,2025-07-24,2025-07-24,一般社団法人学童保育くるめ,,その他の設立登記法人,福岡県,久留米市,櫛原町８０番地１,00140042,40,203,8300013,,,,,,,2025-07-24,1,,,,,ガクドウホイククルメ,0
1901,8330001033421,新規,0,2025-07-24,2025-07-24,株式会社水守‐ＭＩＮＡＫＡＭＩ,,株式会社,熊本県,阿蘇郡南阿蘇村,大字両併２８１３番地４,,43,433,8691501,,,,,,,2025-07-24,1,,,,,ミナカミ,0
1902,8330005010937,新規,0,2025-07-24,2025-07-24,一般社団法人ひいらぎ資産管理,,その他の設立登記法人,熊本県,球磨郡あさぎり町,上南３２０５番地,,43,514,8680423,,,,,,,2025-07-24,1,,,,,ヒイラギシサンカンリ,0
1905,8340001027521,新規,0,2025-07-24,2025-07-24,株式会社水鶴総建,,株式会社,鹿児島県,鹿児島市,西紫原町２７番地１ヒルサイド１０２号,,46,201,8900083,,,,,,,2025-07-24,1,,,,,ミツルソウケン,0
1908,8350001019658,新規,0,2025-07-24,2025-07-24,株式会社えびのワイルドミート工房,,株式会社,宮崎県,えびの市,大字栗下１１７番地３,,45,209,8894221,,,,,,,2025-07-24,1,,,,,ワイルドミートコウボウ,0
1909,8350001019666,新規,0,2025-07-24,2025-07-24,株式会社ＡＬＣ宮崎,,株式会社,宮崎県,宮崎市,大字田吉４４２８番地２１,,45,201,8800911,,,,,,,2025-07-24,1,,,,,エーエルシーミヤザキ,0
1910,8360001035464,新規,0,2025-07-24,2025-07-24,株式会社サムライホーム,,株式会社,沖縄県,沖縄市,泡瀬１丁目１５番５４号バームオーシャン１０１,,47,211,9042172,,,,,,,2025-07-24,1,,,,,サムライホーム,0
1918,8390003002419,新規,0,2025-07-24,2025-07-24,合同会社夢現社,,合同会社,山形県,新庄市,沖の町２番１５号,,06,205,9960023,,,,,,,2025-07-24,1,,,,,ムゲンシャ,0
1920,8430001094882,新規,0,2025-07-24,2025-07-24,株式会社ノースライブ,,株式会社,北海道,札幌市中央区,南二条西５丁目３１番地１ＲＭＢｌｄ．７０１,,01,101,0600062,,,,,,,2025-07-24,1,,,,,ノースライブ,0
1921,8450001014681,新規,0,2025-07-24,2025-07-24,株式会社マコト不動産,,株式会社,北海道,旭川市,永山七条１２丁目１番６号,,01,204,0798417,,,,,,,2025-07-24,1,,,,,マコトフドウサン,0
1924,8460301005306,新規,0,2025-07-24,2025-07-24,株式会社Ｃｏｎｔａｃｔ　Ｓｏｌｕｔｉｏｎ,,株式会社,北海道,北見市,とん田西町３７８番地２３あいおいビル,,01,208,0900834,,,,,,,2025-07-24,1,,,,,コンタクトソリューション,0
1945,9010001257035,新規,0,2025-07-24,2025-07-24,Ｅｌｉｘｅｎｃｅ株式会社,,株式会社,東京都,中央区,銀座１丁目１５番４号７Ｆ,,13,102,1040061,,,,,,,2025-07-24,1,,,,,エリクセンス,0
1946,9010001257051,新規,0,2025-07-24,2025-07-24,株式会社リゾルヴィア,,株式会社,東京都,中央区,銀座１丁目１２番４号Ｎ＆ＥＢＬＤ．６Ｆ,,13,102,1040061,,,,,,,2025-07-24,1,,,,,リゾルヴィア,0
1947,9010001257068,新規,0,2025-07-24,2025-07-24,株式会社らしく,,株式会社,東京都,千代田区,飯田橋３丁目１１－３０千代田街ビル３０７号室,,13,101,1020072,,,,,,,2025-07-24,1,,,,,ラシク,0
1948,9010001257084,新規,0,2025-07-24,2025-07-24,株式会社エスデジタルソリューションズ,,株式会社,東京都,千代田区,丸の内２丁目７番２号ＪＰタワー２３階,,13,101,1000005,,,,,,,2025-07-24,1,,,,,エスデジタルソリューションズ,0
1952,9010003048102,新規,0,2025-07-24,2025-07-24,合同会社Ｃｅｒａ,,合同会社,東京都,文京区,音羽２丁目４番４－４０４号,,13,105,1120013,,,,,,,2025-07-24,1,,,,,ケーラ,0
1954,9010005040338,新規,0,2025-07-24,2025-07-24,一般社団法人ＣＹＢＥＲ　ＳＨＩＥＬＤ　ＪＡＰＡＮ,,その他の設立登記法人,東京都,中央区,日本橋蛎殻町１丁目３０番１２号太閤ビルディング２０５号,,13,102,1030014,,,,,,,2025-07-24,1,,,,,サイバーシールドジャパン,0
1955,9010005040404,新規,0,2025-07-24,2025-07-24,一般社団法人心の健康投資推進コンソーシアム,,その他の設立登記法人,東京都,文京区,湯島３丁目１９番１１号,,13,105,1130034,,,,,,,2025-07-24,1,,,,,ココロノケンコウトウシスイシンコンソーシアム,0
1956,9010101016761,新規,0,2025-07-24,2025-07-24,ネクスブリッジ株式会社,,株式会社,東京都,八王子市,大塚１１９番地１,,13,201,1920352,,,,,,,2025-07-24,1,,,,,ネクスブリッジ,0
1959,9010401191809,新規,0,2025-07-24,2025-07-24,株式会社ＬＥＯ　Ｐａｒｔｎｅｒｓ,,株式会社,東京都,港区,海岸３丁目１９番２号,,13,103,1080022,,,,,,,2025-07-24,1,,,,,レオパートナーズ,0
1960,9010401191874,新規,0,2025-07-24,2025-07-24,株式会社Ｅｘｖａｌｕｅ,,株式会社,東京都,港区,北青山１丁目３－３三橋ビル３階,,13,103,1070061,,,,,,,2025-07-24,1,,,,,エクスバリュー,0
1961,9010401191882,新規,0,2025-07-24,2025-07-24,Ｌ　Ｔｈｅｏｒｉｅ＆Ｃｏ．株式会社,,株式会社,東京都,港区,浜松町１丁目２－１９パラシオン浜松町１００３号室,,13,103,1050013,,,,,,,2025-07-24,1,,,,,エルテオリーアンドカンパニー,0
1962,9010401191949,新規,0,2025-07-24,2025-07-24,株式会社ペイシャス,,株式会社,東京都,港区,芝大門１丁目１０番１１号芝大門センタービル１０Ｆ,,13,103,1050012,,,,,,,2025-07-24,1,,,,,ペイシャス,0
1963,9010401191957,新規,0,2025-07-24,2025-07-24,株式会社ポリグロット,,株式会社,東京都,港区,南青山２丁目４－４－３０２,,13,103,1070062,,,,,,,2025-07-24,1,,,,,ポリグロット,0
1964,9010401191965,新規,0,2025-07-24,2025-07-24,Ｅｎｔｅｗｉｌｌｅ株式会社,,株式会社,東京都,港区,南麻布２丁目１０番１９－１１０１号,,13,103,1060047,,,,,,,2025-07-24,1,,,,,エンテヴィレ,0
1965,9010403035600,新規,0,2025-07-24,2025-07-24,ｃｏｍｐｏｕｎｄ合同会社,,合同会社,東京都,港区,南青山２丁目２番１５号,,13,103,1070062,,,,,,,2025-07-24,1,,,,,コンパウンド,0
1966,9010403035609,新規,0,2025-07-24,2025-07-24,ＳｐａｒｋＲａｙｓ　Ｃｏｎｓｕｌｔｉｎｇ合同会社,,合同会社,東京都,港区,浜松町２丁目７番１７号,,13,103,1050013,,,,,,,2025-07-24,1,,,,,スパークレイズコンサルティング,0
1967,9010403035617,新規,0,2025-07-24,2025-07-24,合同会社Ｋａｏｌｉｆｅ,,合同会社,東京都,港区,白金３丁目１番１３号日恵ビル２階,,13,103,1080072,,,,,,,2025-07-24,1,,,,,カオライフ,0
1968,9010403035641,新規,0,2025-07-24,2025-07-24,エスシーワークス合同会社,,合同会社,東京都,港区,北青山１丁目３－３三橋ビル３階,,13,103,1070061,,,,,,,2025-07-24,1,,,,,エスシーワークス,0
1973,9010505003612,新規,0,2025-07-24,2025-07-24,一般社団法人国際教育推進機構,,その他の設立登記法人,東京都,台東区,下谷２丁目１０番１３－１１０１号,,13,106,1100004,,,,,,,2025-07-24,1,,,,,コクサイキョウイクスイシンキコウ,0
1975,9010703007828,新規,0,2025-07-24,2025-07-24,アクセルブリッジ合同会社,,合同会社,東京都,品川区,南大井２丁目１０番６－１０１２号,,13,109,1400013,,,,,,,2025-07-24,1,,,,,アクセルブリッジ,0
1981,9011101112550,新規,0,2025-07-24,2025-07-24,株式会社ＡＣＥ,,株式会社,東京都,新宿区,西新宿４丁目１９番１２号,,13,104,1600023,,,,,,,2025-07-24,1,,,,,エース,0
1986,9011401027275,新規,0,2025-07-24,2025-07-24,株式会社Ｔ　ｔｒｉｂｅ,,株式会社,東京都,板橋区,大谷口北町５９番５号,,13,119,1730031,,,,,,,2025-07-24,1,,,,,ティートライブ,0
1990,9011803006975,新規,0,2025-07-24,2025-07-24,合同会社ネクサスコア,,合同会社,東京都,足立区,西新井栄町２丁目１１番１０－４０１号,,13,121,1230843,,,,,,,2025-07-24,1,,,,,ネクサスコア,0
1991,9011803006983,新規,0,2025-07-24,2025-07-24,合同会社ルミエール,,合同会社,東京都,足立区,西伊興１丁目１３番２４号,,13,121,1210824,,,,,,,2025-07-24,1,,,,,ルミエール,0
1994,9012305002141,新規,0,2025-07-24,2025-07-24,一般社団法人ＴＨａｎｋＳ　Ｖｉｓｉｏｎａｒｙ　Ｓｐｏｒｔｓ　Ｉｎｓｔｉｔｕｔｅ,,その他の設立登記法人,東京都,町田市,玉川学園５丁目１６番６号,,13,209,1940041,,,,,,,2025-07-24,1,,,,,サンクスビジョナリースポーツインスティテュート,0
2007,9013301054630,新規,0,2025-07-24,2025-07-24,東信ホールディングス株式会社,,株式会社,東京都,豊島区,東池袋１丁目７番１２号日産ビルディング６Ｆ,,13,116,1700013,,,,,,,2025-07-24,1,,,,,トーシンホールディングス,0
2008,9013301054647,新規,0,2025-07-24,2025-07-24,太平株式会社,,株式会社,東京都,豊島区,池袋４丁目２９番１１－５０２号,,13,116,1710014,,,,,,,2025-07-24,1,,,,,タイヘイ,0
2012,9021001085747,新規,0,2025-07-24,2025-07-24,株式会社Ｉｎｔｅｇｒｙ,,株式会社,神奈川県,大和市,中央林間２丁目１１番１９号プルミエエトワール２０５号室,,14,213,2420007,,,,,,,2025-07-24,1,,,,,,0
2013,9021001085805,新規,0,2025-07-24,2025-07-24,富澤企画株式会社,,株式会社,神奈川県,海老名市,中央２丁目５番２８号,,14,215,2430432,,,,,,,2025-07-24,1,,,,,トミサワキカク,0
2014,9021001085821,新規,0,2025-07-24,2025-07-24,あさぎ生活支援事業株式会社,,株式会社,神奈川県,相模原市南区,相模台１丁目１４－１０あとりゑ２０１,,14,153,2520321,,,,,,,2025-07-24,1,,,,,アサギセイカツシエンジギョウ,0
2020,9030001167728,新規,0,2025-07-24,2025-07-24,繋和商事株式会社,,株式会社,埼玉県,越谷市,花田３丁目１１番地１８－１０２号室,,11,222,3430015,,,,,,,2025-07-24,1,,,,,ツナワショウジ,0
2021,9030001167793,新規,0,2025-07-24,2025-07-24,株式会社Ｄｅｌｉｇｈｔ,,株式会社,埼玉県,大里郡寄居町,大字藤田１９７－２,,11,408,3691204,,,,,,,2025-07-24,1,,,,,ディライト,0
2027,9040001139783,新規,0,2025-07-24,2025-07-24,株式会社ＥＲＥＷＡ　ＪＡＰＡＮ,,株式会社,千葉県,船橋市,三山６丁目６－５,,12,204,2740072,,,,,,,2025-07-24,1,,,,,エレワジャパン,0
2028,9040001139791,新規,0,2025-07-24,2025-07-24,株式会社ＯＷＬ,,株式会社,千葉県,富里市,七栄７２８番地２５,,12,233,2860221,,,,,,,2025-07-24,1,,,,,オウル,0
2033,9040003028134,新規,0,2025-07-24,2025-07-24,トムボーイ合同会社,,合同会社,千葉県,佐倉市,染井野５丁目５６番地４,,12,212,2850831,,,,,,,2025-07-24,1,,,,,トムボーイ,0
2038,9060003005651,新規,0,2025-07-24,2025-07-24,合同会社フェリーチェ,,合同会社,栃木県,足利市,堀込町２５８７番地１サンハイツ堀込２ＦＢ,,09,202,3260831,,,,,,,2025-07-24,1,,,,,フェリーチェ,0
2040,9080001027051,新規,0,2025-07-24,2025-07-24,株式会社Ｓｕｎｌｉｎｅ　ｃａｐｉｔａｌ,,株式会社,静岡県,藤枝市,南新屋２６０番地の１５,,22,214,4260072,,,,,,,2025-07-24,1,,,,,サンラインキャピタル,0
2043,9080401028046,新規,0,2025-07-24,2025-07-24,株式会社ＯＳＡＭ　Ｗｏｒｋｓ,,株式会社,静岡県,浜松市中央区,坪井町１０４番地の２,,22,138,4310202,,,,,,,2025-07-24,1,,,,,オーサムワークス,0
2045,9100001038789,新規,0,2025-07-24,2025-07-24,憶品株式会社,,株式会社,長野県,北安曇郡白馬村,大字北城９４６４番地３１,,20,485,3999301,,,,,,,2025-07-24,1,,,,,オクヒン,0
2050,9110003005828,新規,0,2025-07-24,2025-07-24,Ｗｅ　Ｌｏｖｅ　Ｍｙｏｋｏ合同会社,,合同会社,新潟県,妙高市,大字関山２０６１番地１,,15,217,9492235,,,,,,,2025-07-24,1,,,,,ウィーラブミョウコウ,0
2067,9120001277906,新規,0,2025-07-24,2025-07-24,正道株式会社,,株式会社,大阪府,大阪市浪速区,恵美須西２丁目１２番１９－４０３号,,27,111,5560003,,,,,,,2025-07-24,1,,,,,セイドウ,0
2068,9120001278053,新規,0,2025-07-24,2025-07-24,株式会社ＴＫコンサルティング,,株式会社,大阪府,大阪市福島区,福島７丁目４－２２,,27,103,5530003,,,,,,,2025-07-24,1,,,,,ティーケーコンサルティング,0
2072,9120003030032,新規,0,2025-07-24,2025-07-24,ＮｅｔＤａｔａ合同会社,,合同会社,大阪府,大阪市北区,堂島１丁目１－５関電不動産梅田新道ビルＢ２Ｆ,,27,127,5300003,,,,,,,2025-07-24,1,,,,,ネットデータ,0
2074,9120101072141,新規,0,2025-07-24,2025-07-24,株式会社杉さん,,株式会社,大阪府,堺市東区,石原町３丁１３２番地３,,27,143,5998102,,,,,,,2025-07-24,1,,,,,スギサン,0
2076,9120103006592,新規,0,2025-07-24,2025-07-24,合同会社ＳＫＹリフォーム,,合同会社,大阪府,堺市東区,草尾３１１番地４ひまわりメゾン２０１,,27,143,5998127,,,,,,,2025-07-24,1,,,,,エスケーワイリフォーム,0
2077,9120901051204,新規,0,2025-07-24,2025-07-24,株式会社澪標,,株式会社,大阪府,高槻市,松が丘３丁目１７番８号,,27,207,5691031,,,,,,,2025-07-24,1,,,,,ミオツクシ,0
2078,9120901051220,新規,0,2025-07-24,2025-07-24,株式会社フューチャーリンクス,,株式会社,大阪府,吹田市,佐竹台３丁目１３番１号,,27,205,5650855,,,,,,,2025-07-24,1,,,,,フューチャーリンクス,0
2081,9140001139360,新規,0,2025-07-24,2025-07-24,株式会社和,,株式会社,兵庫県,姫路市,飾磨区妻鹿１７０番地３０,,28,201,6728031,,,,,,,2025-07-24,1,,,,,カズ,0
2082,9140001139369,新規,0,2025-07-24,2025-07-24,株式会社ＥＮＵＭ,,株式会社,兵庫県,尼崎市,常光寺１丁目７番１７－１０２号,,28,202,6600811,,,,,,,2025-07-24,1,,,,,イーナム,0
2083,9140001139377,新規,0,2025-07-24,2025-07-24,株式会社Ｂｏｒａｍ,,株式会社,兵庫県,西宮市,西宮浜４丁目８－６－５０１,,28,204,6620934,,,,,,,2025-07-24,1,,,,,ボラム,0
2086,9140003022333,新規,0,2025-07-24,2025-07-24,ＡＢ貿易合同会社,,合同会社,兵庫県,明石市,林崎町１丁目７番８号３階,,28,203,6730033,,,,,,,2025-07-24,1,,,,,エービーボウエキ,0
2089,9150001028281,新規,0,2025-07-24,2025-07-24,美鹿株式会社,,株式会社,奈良県,生駒市,美鹿の台９番９号,,29,209,6300116,,,,,,,2025-07-24,1,,,,,ミカ,0
2090,9160001026929,新規,0,2025-07-24,2025-07-24,株式会社ＱＲＥＩＶＥ,,株式会社,滋賀県,草津市,平井２丁目１３番５号１０２号室,,25,206,5250023,,,,,,,2025-07-24,1,,,,,クレイヴ,0
2092,9170001018727,新規,0,2025-07-24,2025-07-24,株式会社ＳＴＡＹわかやま,,株式会社,和歌山県,和歌山市,関戸３丁目３番４０号,,30,201,6410035,,,,,,,2025-07-24,1,,,,,ステイワカヤマ,0
2097,9180001167770,新規,0,2025-07-24,2025-07-24,グランシャリオ株式会社,,株式会社,愛知県,名古屋市千種区,月ケ丘３丁目５番７１号,,23,101,4640043,,,,,,,2025-07-24,1,,,,,グランシャリオ,0
2098,9180001167812,新規,0,2025-07-24,2025-07-24,株式会社ＲＩＴ,,株式会社,愛知県,一宮市,丹羽字井端１２６２番地３４,,23,203,4910083,,,,,,,2025-07-24,1,,,,,リット,0
2099,9180001167845,新規,0,2025-07-24,2025-07-24,株式会社ほっぷ,,株式会社,愛知県,知多郡武豊町,字北中根１丁目７番地１,,23,447,4702385,,,,,,,2025-07-24,1,,,,,ホップ,0
2101,9180003028715,新規,0,2025-07-24,2025-07-24,合同会社きらくや,,合同会社,愛知県,江南市,高屋町大門９２番地,,23,217,4838035,,,,,,,2025-07-24,1,,,,,キラクヤ,0
2102,9180005021172,新規,0,2025-07-24,2025-07-24,一般社団法人ＳＫＹ　ＷＥＢ　ＦＡＭＩＬＩＡ,,その他の設立登記法人,愛知県,犬山市,大字塔野地字東屋敷２９番地４２,,23,215,4840094,,,,,,,2025-07-24,1,,,,,スカイウェブファミリア,0
2111,9200001044067,新規,0,2025-07-24,2025-07-24,ＫＩＮＯ屋株式会社,,株式会社,岐阜県,羽島市,江吉良町９８８番地１,,21,209,5016236,,,,,,,2025-07-24,1,,,,,キノヤ,0
2113,9220003004083,新規,0,2025-07-24,2025-07-24,合同会社Ｂｌｕｅ　Ｍｏｏｎ,,合同会社,石川県,金沢市,岸川町チ４３番地,,17,201,9200102,,,,,,,2025-07-24,1,,,,,ブルームーン,0
2114,9220005008982,新規,0,2025-07-24,2025-07-24,一般社団法人ＩＳＡＷＡ,,その他の設立登記法人,石川県,金沢市,松村４丁目４６２番地,,17,201,9200348,,,,,,,2025-07-24,1,,,,,イサワ,0
2124,9240001065258,新規,0,2025-07-24,2025-07-24,株式会社ＹＫオフィス,,株式会社,広島県,広島市中区,大手町１丁目１－２６,,34,101,7300051,,,,,,,2025-07-24,1,,,,,ワイケーオフィス,0
2129,9260003005276,新規,0,2025-07-24,2025-07-24,合同会社ＰＯＰ　ＩＮＮＯＶＡＴＩＯＮ,,合同会社,岡山県,笠岡市,富岡４１３番地４４,,33,205,7140092,,,,,,,2025-07-24,1,,,,,ポップイノベーション,0
2133,9280001009467,新規,0,2025-07-24,2025-07-24,ガーデンプラン株式会社,,株式会社,島根県,出雲市,斐川町沖洲１６８６番地５,,32,203,6990551,,,,,,,2025-07-24,1,,,,,ガーデンプラン,0
2137,9290001110827,新規,0,2025-07-24,2025-07-24,株式会社３ＣＳ,,株式会社,福岡県,福岡市南区,横手２丁目４番１３号Ｋ－ＨＯＵＳＥ１Ｆ,,40,134,8111311,,,,,,,2025-07-24,1,,,,,スリーシーエス,0
2138,9290001110835,新規,0,2025-07-24,2025-07-24,株式会社ａｓｃｅｎｄ‐ｏｎｅ,,株式会社,福岡県,福岡市博多区,博多駅東２丁目４番１４号第２ヤマトビル５Ｆ,,40,132,8120013,,,,,,,2025-07-24,1,,,,,アシェンドワン,0
2139,9290001110851,新規,0,2025-07-24,2025-07-24,株式会社ドリームテレコム,,株式会社,福岡県,福岡市早良区,四箇６丁目２５番１１号,,40,137,8111103,,,,,,,2025-07-24,1,,,,,ドリームテレコム,0
2143,9290003017153,新規,0,2025-07-24,2025-07-24,２２２ＴＲＡＤＩＮＧ合同会社,,合同会社,福岡県,大牟田市,大字櫟野３０６２番地１１,,40,202,8360893,,,,,,,2025-07-24,1,,,,,ニニニトレーディング,0
2147,9330001033420,新規,0,2025-07-24,2025-07-24,朗斉株式会社,,株式会社,熊本県,熊本市中央区,辛島町４－３５ラ・シック辛島１０階１０１０号室,,43,101,8600804,,,,,,,2025-07-24,1,,,,,ロウセイ,0
2151,9330003011135,新規,0,2025-07-24,2025-07-24,合同会社ＲｅｈａｂＬｉｎｋ,,合同会社,熊本県,熊本市中央区,神水２丁目７番３号キャッスル神水３０３,,43,101,8620954,,,,,,,2025-07-24,1,,,,,リハブリンク,0
2152,9340001027529,新規,0,2025-07-24,2025-07-24,貴プレイス株式会社,,株式会社,鹿児島県,大島郡龍郷町,浦５７２番地２,,46,527,8940104,,,,,,,2025-07-24,1,,,,,タカプレイス,0
2154,9350003004987,新規,0,2025-07-24,2025-07-24,合同会社ＪＦＰ,,合同会社,宮崎県,宮崎市,大字本郷南方２６８３－４,,45,201,8800921,,,,,,,2025-07-24,1,,,,,ジェーエフピー,0
2161,9370001052870,新規,0,2025-07-24,2025-07-24,株式会社Ｈ＆Ｃ,,株式会社,宮城県,仙台市宮城野区,岩切字入山１５番地の１,,04,102,9830821,,,,,,,2025-07-24,1,,,,,エイチアンドシー,0
2168,9380005012993,新規,0,2025-07-24,2025-07-24,一般社団法人地方創生まちづくり機構,,その他の設立登記法人,福島県,会津若松市,東栄町５番１９号,,07,202,9650872,,,,,,,2025-07-24,1,,,,,チホウソウセイマチヅクリキコウ,0
