sequenceNumber,corporateNumber,process,correct,updateDate,changeDate,name,nameImageId,kind,prefectureName,cityName,streetNumber,addressImageId,prefectureCode,cityCode,postCode,addressOutside,addressOutsideImageId,closeDate,closeCause,successorCorporateNumber,changeCause,assignmentDate,latest,enName,enPrefectureName,enCityName,enAddressOutside,furigana,hihyoji
20,1010401132844,登記記録の閉鎖等,0,2024-12-06,2024-11-18,株式会社Ｌ’ＯＲＩＧＩＮＥ　ＤＵ　ＭＯＮＤＥ,,株式会社,東京都,港区,麻布十番２丁目２１番６号,,13,103,1060045,,,2024-11-18,清算の結了等,,,2017-07-31,1,,,,,ロリジンデュモンド,0
36,1010801023164,登記記録の閉鎖等,0,2024-12-06,2024-11-26,株式会社アムルテクニカ,,株式会社,東京都,大田区,東蒲田２丁目２９番１４号ＴＳＳ第２ビル１Ｆ,,13,111,1440031,,,2024-11-26,清算の結了等,,,2015-10-05,1,,,,,アムルテクニカ,0
37,1010805001876,登記記録の閉鎖等,0,2024-12-06,2024-11-27,特定非営利活動法人コミュニティ・ケア・ネットワーク,,その他の設立登記法人,東京都,大田区,鵜の木２丁目４５番３号,,13,111,1460091,,,2024-11-27,清算の結了等,,,2015-10-05,1,,,,,コミュニティケアネットワーク,0
51,1011701026835,登記記録の閉鎖等,0,2024-12-06,2024-12-03,アイセット株式会社,,株式会社,東京都,江戸川区,中葛西４丁目９―１８ｉ・ｅビル８階,,13,123,1340083,,,2024-12-03,清算の結了等,,,2023-12-08,1,,,,,アイセット,0
54,1011801027188,登記記録の閉鎖等,0,2024-12-06,2024-12-04,株式会社ＳＰプロテクションズ,,株式会社,東京都,足立区,竹の塚３丁目１０番１号,,13,121,1210813,,,2024-12-04,清算の結了等,,,2015-10-05,1,,,,,エスピープロテクションズ,0
57,1012801000886,登記記録の閉鎖等,0,2024-12-06,2024-11-27,多摩消費者住宅株式会社,,株式会社,東京都,立川市,西砂町６丁目３７番１１号,,13,202,1900034,,,2024-11-27,清算の結了等,,,2015-10-05,1,,,,,タマショウヒシャジュウタク,0
97,1040001073718,登記記録の閉鎖等,0,2024-12-06,2024-12-02,株式会社安房自然村,,株式会社,千葉県,館山市,布良６００番地,,12,205,2940234,,,2024-12-02,清算の結了等,,,2015-10-05,1,,,,,アワシゼンムラ,0
104,1040002060500,登記記録の閉鎖等,0,2024-12-06,2024-11-29,有限会社川本商事,,有限会社,千葉県,佐倉市,宮前３丁目４５番地１１,,12,212,2850005,,,2024-11-29,清算の結了等,,,2015-10-05,1,,,,,カワモトショウジ,0
108,1050001037762,登記記録の閉鎖等,0,2024-12-06,2024-11-29,字彫のイワブチ株式会社,,株式会社,茨城県,桜川市,真壁町原方１１６３番地２,,08,231,3004421,,,2024-11-29,清算の結了等,,,2015-10-05,1,,,,,ジホリノイワブチ,0
114,1060001022615,登記記録の閉鎖等,0,2024-12-06,2024-12-02,株式会社丸石ホーム,,株式会社,栃木県,下都賀郡野木町,大字友沼５９１２番地１４,,09,364,3290101,,,2024-12-02,清算の結了等,,,2015-10-05,1,,,,,マルイシホーム,0
120,1070001035806,登記記録の閉鎖等,0,2024-12-06,2024-12-04,株式会社ｄｒｅａＭ’ｓ,,株式会社,群馬県,高崎市,貝沢町５９５番地深沢ビル１Ｆ,,10,202,3700042,,,2024-12-04,清算の結了等,,,2019-06-06,1,,,,,ドリームス,0
122,1070002030789,登記記録の閉鎖等,0,2024-12-06,2024-12-03,有限会社藤鉄工,,有限会社,群馬県,太田市,東新町６３０番地２,,10,205,3730015,,,2024-12-03,清算の結了等,,,2015-10-05,1,,,,,フジテッコウ,0
123,1080005004186,登記記録の閉鎖等,0,2024-12-06,2024-12-02,御前崎港外材協同組合,,その他の設立登記法人,静岡県,静岡市葵区,瀬名川１丁目９番８号,,22,101,4200913,,,2024-12-02,清算の結了等,,,2015-10-05,1,,,,,オマエザキコウガイザイ,0
128,1080402020001,登記記録の閉鎖等,0,2024-12-06,2024-12-03,有限会社ベリッセ,,有限会社,静岡県,磐田市,西貝塚３６５６番地２１,,22,211,4380026,,,2024-12-03,清算の結了等,,,2015-10-05,1,,,,,ベリッセ,0
134,1100002014912,登記記録の閉鎖等,0,2024-12-06,2024-11-29,有限会社八千代堂,,有限会社,長野県,上田市,大屋４７９番地,,20,203,3860152,,,2024-11-29,清算の結了等,,,2015-10-05,1,,,,,ヤチヨドウ,0
177,1130002016328,登記記録の閉鎖等,0,2024-12-06,2024-12-03,有限会社小林工務店,,有限会社,京都府,京都市中京区,西ノ京月輪町１０番地の７,,26,104,6048444,,,2024-12-03,清算の結了等,,,2015-10-05,1,,,,,コバヤシコウムテン,0
178,1130003005684,登記記録の閉鎖等,0,2024-12-06,2024-12-03,合同会社クラウドビューティーテック,,合同会社,京都府,京都市右京区,嵯峨大覚寺門前井頭町９番地の８,,26,108,6168416,,,2024-12-03,清算の結了等,,,2018-10-05,1,,,,,クラウドビューティーテック,0
197,1160002009254,登記記録の閉鎖等,0,2024-12-06,2024-12-02,松尾建材有限会社,,有限会社,滋賀県,愛知郡愛荘町,愛知川７９６番地７,,25,425,5291331,,,2024-12-02,合併による解散等,4160001008865,令和６年１２月１日滋賀県愛知郡愛荘町愛知川７９６番地の７株式会社安田組（4160001008865）に合併し解散,2015-10-05,1,,,,,マツオケンザイ,0
211,1190001024499,登記記録の閉鎖等,0,2024-12-06,2024-12-02,株式会社ナカハ,,株式会社,三重県,伊勢市,小俣町相合１１０９番２号,,24,203,5190502,,,2024-12-02,清算の結了等,,,2017-03-31,1,,,,,ナカハ,0
219,1220001015437,登記記録の閉鎖等,0,2024-12-06,2024-11-19,七尾酒販株式会社,,株式会社,石川県,七尾市,寿町４０番地,,17,202,9260861,,,2024-11-19,清算の結了等,,,2015-10-05,1,,,,,ナナオシュハン,0
221,1220002013480,登記記録の閉鎖等,0,2024-12-06,2024-11-29,有限会社ＩＳＳ,,有限会社,石川県,加賀市,黒瀬町６３番地３,,17,206,9220823,,,2024-11-29,清算の結了等,,,2015-10-05,1,,,,,アイエスエス,0
247,1340002009698,登記記録の閉鎖等,0,2024-12-06,2024-12-03,有限会社メセナ,,有限会社,鹿児島県,大島郡天城町,大字岡前１７８１番地,,46,531,8917603,,,2024-12-03,清算の結了等,,,2015-10-05,1,,,,,メセナ,0
254,1370002004589,登記記録の閉鎖等,0,2024-12-06,2024-12-02,有限会社エーアイカンパニー,,有限会社,宮城県,仙台市若林区,荒井５丁目２１番地の４,,04,103,9840032,,,2024-12-02,清算の結了等,,,2015-10-05,1,,,,,エーアイカンパニー,0
260,1420002009252,登記記録の閉鎖等,0,2024-12-06,2024-12-02,有限会社米内口建設,,有限会社,青森県,八戸市,下長５丁目８番８号,,02,203,0391164,,,2024-12-02,清算の結了等,,,2015-10-05,1,,,,,ヨナイグチケンセツ,0
268,1430002021116,登記記録の閉鎖等,0,2024-12-06,2024-12-02,有限会社ユニテクノ,,有限会社,北海道,岩見沢市,幌向北一条１丁目６０１番地１００,,01,210,0690381,,,2024-12-02,清算の結了等,,,2015-10-05,1,,,,,ユニテクノ,0
274,1480001011170,登記記録の閉鎖等,0,2024-12-06,2024-12-03,株式会社Ｂｕｉｌｄｅｘ,,株式会社,徳島県,徳島市,南常三島町１丁目２－５里見ビル１０２号,,36,201,7700814,,,2024-12-03,清算の結了等,,,2020-11-13,1,,,,,ビルデックス,0
278,1700150112457,登記記録の閉鎖等,0,2024-12-06,2024-05-31,ＥＭＩＴ　ＣＲＯＷＤ,,その他,東京都,世田谷区,代田４丁目１８－５コパルタージュＫ２０２,,13,112,1550033,,,2024-05-31,その他の清算の結了等,,,2022-11-01,1,,,,,エミツトクラウド,0
281,2010001023674,登記記録の閉鎖等,0,2024-12-06,2024-11-25,株式会社テレマックス,,株式会社,東京都,中央区,日本橋浜町３丁目３５番５号,,13,102,1030007,,,2024-11-25,清算の結了等,,,2015-10-05,1,,,,,,0
321,2010802017800,登記記録の閉鎖等,0,2024-12-06,2024-11-11,有限会社ＷＡＮＴＥＤ,,有限会社,東京都,渋谷区,恵比寿４丁目９－８ＥＢＯＸ１ビル３Ｆ,,13,113,1500013,,,2024-11-11,清算の結了等,,,2015-10-05,1,,,,,ウォンテッド,0
326,2011001066457,登記記録の閉鎖等,0,2024-12-06,2024-12-03,株式会社ＣＰＳ東京,,株式会社,東京都,八王子市,石川町７０８番地の１０,,13,201,1920032,,,2024-12-03,清算の結了等,,,2015-10-05,1,,,,,シーピーエストウキョウ,0
328,2011001131442,登記記録の閉鎖等,0,2024-12-06,2024-12-02,株式会社アワーフラッグ,,株式会社,東京都,江戸川区,西小岩２丁目２番１３号,,13,123,1330057,,,2024-12-02,合併による解散等,2011701011217,令和６年１１月１日東京都渋谷区道玄坂二丁目１１番１号ＪＭＦビル渋谷０３－５階ＭＭＯＬ　Ｈｏｌｄｉｎｇｓ株式会社（2011701011217）に合併し解散,2019-12-17,1,,,,,アワーフラッグ,0
363,2012701007592,登記記録の閉鎖等,0,2024-12-06,2024-11-27,株式会社耐炎木材東京,,株式会社,東京都,小平市,鈴木町２丁目１７９番地の５,,13,211,1870011,,,2024-11-27,清算の結了等,,,2015-10-05,1,,,,,タイエンモクザイトウキョウ,0
374,2020001128836,登記記録の閉鎖等,0,2024-12-06,2024-11-27,ＨＡＮＤＳ　ＪＡＰＡＮ株式会社,,株式会社,神奈川県,横浜市中区,山下町２番地産業貿易センタービル２階,,14,104,2310023,,,2024-11-27,清算の結了等,,,2018-11-21,1,,,,,ハンズジャパン,0
375,2020001154460,登記記録の閉鎖等,0,2024-12-06,2024-11-26,関東水道設備株式会社,,株式会社,神奈川県,横浜市南区,堀ノ内町２丁目１４４－４,,14,105,2320042,,,2024-11-26,清算の結了等,,,2023-11-14,1,,,,,カントウスイドウセツビ,0
382,2020005005098,登記記録の閉鎖等,0,2024-12-06,2024-11-27,特定非営利活動法人フミヱ記念援助会,,その他の設立登記法人,神奈川県,横浜市金沢区,釜利谷西２丁目３２番２２号,,14,108,2360046,,,2024-11-27,清算の結了等,,,2015-10-05,1,,,,,フミエキネンエンジョカイ,0
391,2030001077446,登記記録の閉鎖等,0,2024-12-06,2024-12-04,株式会社ムゲンデザイン,,株式会社,埼玉県,川口市,並木２丁目１７番４号,,11,203,3320034,,,2024-12-04,清算の結了等,,,2015-10-05,1,,,,,ムゲンデザイン,0
400,2030003023571,登記記録の閉鎖等,0,2024-12-06,2024-12-02,ＴＨＡＩ　ＦＥＳＴＩＶＡＬ　ＪＡＰＡＮ合同会社,,合同会社,埼玉県,川口市,西川口６丁目８－４飯島第三コーポ１階,,11,203,3320021,,,2024-12-02,清算の結了等,,,2024-02-07,1,,,,,タイフェスティバルジャパン,0
406,2040001133132,登記記録の閉鎖等,0,2024-12-06,2024-12-02,ＭＡＨＤＩ株式会社,,株式会社,千葉県,佐倉市,表町１丁目８－１０第３長沢コーポ２－Ｄ,,12,212,2850811,,,2024-12-02,清算の結了等,,,2024-04-15,1,,,,,マハディ,0
413,2050001009026,登記記録の閉鎖等,0,2024-12-06,2024-12-02,株式会社岡野工務店,,株式会社,茨城県,土浦市,真鍋１丁目１８番１７号岡野ビル,,08,203,3000051,,,2024-12-02,清算の結了等,,,2015-10-05,1,,,,,オカノコウムテン,0
414,2050001023092,登記記録の閉鎖等,0,2024-12-06,2024-12-02,共和運輸株式会社,,株式会社,茨城県,日立市,旭町３丁目１２番９号,,08,202,3170074,,,2024-12-02,清算の結了等,,,2015-10-05,1,,,,,キョウワウンユ,0
421,2070001000214,登記記録の閉鎖等,0,2024-12-06,2024-12-04,株式会社荒木電気工業,,株式会社,群馬県,前橋市,下小出町３丁目７番地の５,,10,201,3710031,,,2024-12-04,清算の結了等,,,2015-10-05,1,,,,,アラキデンキコウギョウ,0
435,2080401020546,登記記録の閉鎖等,0,2024-12-06,2024-12-02,ビラックス高薗株式会社,,株式会社,静岡県,浜松市浜名区,高薗３８１番地,,22,139,4340023,,,2024-12-02,合併による解散等,4080401010280,令和６年１２月１日静岡県浜松市浜名区新堀７０番地の６浜名梱包輸送株式会社（4080401010280）に合併し解散,2015-10-05,1,,,,,ビラックスタカゾノ,0
440,2110001013954,登記記録の閉鎖等,0,2024-12-06,2024-12-02,株式会社小川洋装店,,株式会社,新潟県,三条市,本町３丁目６番２４号,,15,204,9550071,,,2024-12-02,清算の結了等,,,2015-10-05,1,,,,,オガワヨウソウテン,0
441,2110002017483,登記記録の閉鎖等,0,2024-12-06,2024-11-29,新潟三南経営有限会社,,有限会社,新潟県,三条市,西四日町１丁目４番２７号,,15,204,9550851,,,2024-11-29,清算の結了等,,,2015-10-05,1,,,,,ニイガタサンナンケイエイ,0
445,2120001076950,登記記録の閉鎖等,0,2024-12-06,2024-12-04,カナヤ株式会社,,株式会社,大阪府,大阪市中央区,船場中央２丁目２番５－１２４号,,27,128,5410055,,,2024-12-04,清算の結了等,,,2024-08-26,1,,,,,カナヤ,0
456,2120005021110,登記記録の閉鎖等,0,2024-12-06,2024-12-04,社会保険労務士法人多田労務管理事務所,,その他の設立登記法人,大阪府,大阪市中央区,谷町９丁目１番２２号,,27,128,5420012,,,2024-12-04,清算の結了等,,,2019-09-04,1,,,,,タダロウムカンリジムショ,0
457,2120101000075,登記記録の閉鎖等,0,2024-12-06,2024-12-03,株式会社アーデント,,株式会社,大阪府,堺市堺区,竜神橋町２丁３番１－３０２号,,27,141,5900972,,,2024-12-03,清算の結了等,,,2015-10-05,1,,,,,アーデント,0
459,2120101064509,登記記録の閉鎖等,0,2024-12-06,2024-12-03,株式会社Ｃｏｎｎｅｘｉｏｎ,,株式会社,大阪府,岸和田市,地蔵浜町７番地の３,,27,202,5960015,,,2024-12-03,清算の結了等,,,2021-10-19,1,,,,,コネクション,0
468,2122002015094,登記記録の閉鎖等,0,2024-12-06,2024-12-02,有限会社山西産業,,有限会社,大阪府,八尾市,太田新町２丁目３３番地,,27,212,5810039,,,2024-12-02,清算の結了等,,,2015-10-05,1,,,,,ヤマニシサンギョウ,0
493,2180302008622,登記記録の閉鎖等,0,2024-12-06,2024-11-27,有限会社東光印刷所,,有限会社,愛知県,豊橋市,吾妻町２９４番地,,23,201,4400045,,,2024-11-27,清算の結了等,,,2015-10-05,1,,,,,トウコウインサツショ,0
528,2320002000484,登記記録の閉鎖等,0,2024-12-06,2024-12-04,有限会社アーバンライフサービス,,有限会社,大分県,大分市,碩田町２丁目１番３２号アーバンリブ碩田４０１,,44,201,8700048,,,2024-12-04,清算の結了等,,,2015-10-05,1,,,,,,0
548,2400002010021,登記記録の閉鎖等,0,2024-12-06,2024-11-19,有限会社日高見工務店,,有限会社,岩手県,北上市,大堤西１丁目９番１４号,,03,206,0240053,,,2024-11-19,清算の結了等,,,2015-10-05,1,,,,,ヒタカミコウムテン,0
550,2420001016397,登記記録の閉鎖等,0,2024-12-06,2024-11-29,日本フィッシャリーサポート株式会社,,株式会社,青森県,西津軽郡深浦町,大字岩崎字松原１９３番地２,,02,323,0382202,,,2024-11-29,清算の結了等,,,2018-11-09,1,,,,,ニホンフィッシャリーサポート,0
558,2470002003794,登記記録の閉鎖等,0,2024-12-06,2024-12-02,有限会社スガーズ,,有限会社,香川県,高松市,今新町３番１０,,37,201,7600043,,,2024-12-02,清算の結了等,,,2015-10-05,1,,,,,スガーズ,0
562,2490002012372,登記記録の閉鎖等,0,2024-12-06,2024-12-04,有限会社石原機械販売,,有限会社,高知県,長岡郡本山町,本山８２番地２,,39,341,7813601,,,2024-12-04,清算の結了等,,,2015-10-05,1,,,,,イシハラキカイハンバイ,0
564,2700150105534,登記記録の閉鎖等,0,2024-12-06,2024-05-31,あづみ野サウンドスケープ,,その他,長野県,安曇野市,穂高３９８７－８,,20,220,3998303,,,2024-05-31,その他の清算の結了等,,,2021-10-29,1,,,,,アヅミノサウンドスケープ,0
567,3010001094896,登記記録の閉鎖等,0,2024-12-06,2024-11-25,農林統計出版株式会社,,株式会社,東京都,千代田区,神田三崎町３丁目３番３号木下ビル４階,,13,101,1010061,,,2024-11-25,清算の結了等,,,2015-10-05,1,,,,,ノウリントウケイシュッパン,0
607,3011101094935,登記記録の閉鎖等,0,2024-12-06,2024-11-29,株式会社デジタルサイン,,株式会社,東京都,新宿区,大久保２丁目５番２３号,,13,104,1690072,,,2024-11-29,合併による解散等,1011101105586,令和６年１１月２９日東京都新宿区大久保二丁目５番２３号キャンバスエッジ株式会社（1011101105586）に合併し解散,2021-04-27,1,,,,,デジタルサイン,0
612,3011301008777,登記記録の閉鎖等,0,2024-12-06,2024-12-04,トジインターナショナル株式会社,,株式会社,東京都,杉並区,荻窪５丁目１３番５号緑ビル,,13,115,1670051,,,2024-12-04,清算の結了等,,,2015-10-05,1,,,,,トジインターナショナル,0
624,3012701018093,登記記録の閉鎖等,0,2024-12-06,2024-11-27,株式会社南南,,株式会社,東京都,小平市,鈴木町１丁目２１４番地の１５,,13,211,1870011,,,2024-11-27,清算の結了等,,,2024-02-20,1,,,,,ナンナン,0
636,3020002065243,登記記録の閉鎖等,0,2024-12-06,2024-11-28,有限会社グランツ,,有限会社,神奈川県,横浜市保土ケ谷区,上菅田町９００番地の６,,14,106,2400051,,,2024-11-28,清算の結了等,,,2015-10-05,1,,,,,グランツ,0
639,3020002079276,登記記録の閉鎖等,0,2024-12-06,2024-11-28,有限会社藤和サービス港北,,有限会社,神奈川県,横浜市都筑区,東方町１８８,,14,118,2240045,,,2024-11-28,清算の結了等,,,2015-10-05,1,,,,,トウワサービスコウホク,0
643,3021001080225,登記記録の閉鎖等,0,2024-12-06,2024-12-05,株式会社ユウキ,,株式会社,神奈川県,横須賀市,武２丁目２番１１－３０２号,,14,201,2380313,,,2024-12-05,清算の結了等,,,2023-09-20,1,,,,,ユウキ,0
658,3040001082923,登記記録の閉鎖等,0,2024-12-06,2024-11-25,株式会社ＴＭ商事,,株式会社,千葉県,千葉市花見川区,犢橋町６３５番地の２,,12,102,2620013,,,2024-11-25,清算の結了等,,,2015-10-05,1,,,,,ティーエムショウジ,0
672,3050001034634,登記記録の閉鎖等,0,2024-12-06,2024-12-02,株式会社ワールドカップ,,株式会社,茨城県,水戸市,渡里町２６１８番地,,08,201,3100902,,,2024-12-02,清算の結了等,,,2015-10-05,1,,,,,ワールドカップ,0
676,3050003008660,登記記録の閉鎖等,0,2024-12-06,2024-12-02,飯山電気合同会社,,合同会社,茨城県,古河市,久能３０５番地１,,08,204,3060212,,,2024-12-02,清算の結了等,,,2024-09-06,1,,,,,イイヤマデンキ,0
679,3070001030549,登記記録の閉鎖等,0,2024-12-06,2024-12-02,株式会社マーズマーケティング,,株式会社,茨城県,牛久市,牛久町１２１－２,,08,219,3001221,,,2024-12-02,清算の結了等,,,2015-10-05,1,,,,,マーズマーケティング,0
685,3080401012534,登記記録の閉鎖等,0,2024-12-06,2024-12-02,株式会社スプラウト,,株式会社,静岡県,浜松市中央区,下石田町１７４６番地の１,,22,138,4350006,,,2024-12-02,合併による解散等,3080401027301,令和６年１２月１日静岡県浜松市中央区下石田町１８４１番地の１株式会社オグショー（3080401027301）に合併し解散,2015-10-05,1,,,,,スプラウト,0
689,3080402018852,登記記録の閉鎖等,0,2024-12-06,2024-12-03,有限会社ＣＯＭＥＣＯＭＥワーカース,,有限会社,静岡県,御前崎市,白羽６１４９番地の３０,,22,223,4371622,,,2024-12-03,清算の結了等,,,2015-10-05,1,,,,,カムカムワーカース,0
690,3110001011825,登記記録の閉鎖等,0,2024-12-06,2024-12-02,株式会社加藤生コン,,株式会社,新潟県,五泉市,上木越甲１３９４番地２,,15,218,9591708,,,2024-12-02,清算の結了等,,,2015-10-05,1,,,,,カトウナマコン,0
720,3130003003315,登記記録の閉鎖等,0,2024-12-06,2024-12-03,合同会社Ｍｕｎｄｙ’ｓ　Ａｓｉａ　Ｇａｌｌｅｒｉｅｓ,,合同会社,京都府,京都市左京区,浄土寺西田町８２－４,,26,103,6068417,,,2024-12-03,清算の結了等,,,2015-10-05,1,,,,,マンディーズアジアギャラリーズ,0
727,3140002069075,登記記録の閉鎖等,0,2024-12-06,2024-12-02,有限会社八洲,,有限会社,兵庫県,洲本市,炬口２４７番地,00041485,28,205,6560011,,,2024-12-02,清算の結了等,,,2015-10-05,1,,,,,ヤシマ,0
728,3140003008197,登記記録の閉鎖等,0,2024-12-06,2024-12-02,合同会社アール・シー・エス,,合同会社,兵庫県,川西市,清和台西３丁目４番地の５８,,28,217,6660143,,,2024-12-02,清算の結了等,,,2015-10-05,1,,,,,アールシーエス,0
738,3180302017531,登記記録の閉鎖等,0,2024-12-06,2024-12-02,有限会社サンアール,,有限会社,愛知県,安城市,東栄町４丁目１１－８－１０１,,23,212,4460007,,,2024-12-02,清算の結了等,,,2015-10-05,1,,,,,サンアール,0
742,3180303004215,登記記録の閉鎖等,0,2024-12-06,2024-11-29,合同会社こころ手,,合同会社,愛知県,豊川市,豊川町止通２５番地５,,23,207,4420033,,,2024-11-29,清算の結了等,,,2018-12-04,1,,,,,ココロテ,0
787,3360002021831,登記記録の閉鎖等,0,2024-12-06,2024-12-04,有限会社アジアント沖縄,,有限会社,沖縄県,石垣市,字宮良山内１８１２番地６４,,47,207,9070243,,,2024-12-04,清算の結了等,,,2015-10-05,1,,,,,アジアントオキナワ,0
792,3370801001289,登記記録の閉鎖等,0,2024-12-06,2024-12-02,株式会社光代ホンダ,,株式会社,宮城県,名取市,手倉田字八幡２７８番地,,04,207,9811231,,,2024-12-02,清算の結了等,,,2015-10-05,1,,,,,ミツヨホンダ,0
793,3380001027010,登記記録の閉鎖等,0,2024-12-06,2024-11-27,株式会社ココスフィア,,株式会社,福島県,会津若松市,高野町大字上高野字村内８８番地の１,,07,202,9650077,,,2024-11-27,清算の結了等,,,2016-06-14,1,,,,,ココスフィア,0
795,3380002020146,登記記録の閉鎖等,0,2024-12-06,2024-11-25,有限会社濱田屋商店,,有限会社,福島県,須賀川市,北町１１８番地,,07,207,9620856,,,2024-11-25,清算の結了等,,,2015-10-05,1,,,,,ハマダヤショウテン,0
806,3430001004631,登記記録の閉鎖等,0,2024-12-06,2024-12-02,協進機械株式会社,,株式会社,北海道,札幌市白石区,北郷２３８０番３２,,01,104,0030849,,,2024-12-02,合併による解散等,9430001076186,令和６年１２月１日北海道江別市東野幌町４４番地１マテハンエンジニアリング株式会社（9430001076186）に合併し解散,2015-10-05,1,,,,,キョウシンキカイ,0
814,3450001013060,登記記録の閉鎖等,0,2024-12-06,2024-12-03,アシスト＆カンパニー株式会社,,株式会社,北海道,上川郡美瑛町,字美瑛原野５６７番地３,,01,459,0710239,,,2024-12-03,清算の結了等,,,2020-07-10,1,,,,,アシストアンドカンパニー,0
816,3700150109518,登記記録の閉鎖等,0,2024-12-06,2024-05-31,Ｃｈｅｅｋｙ☆Ｑｕｅｅｎｓ,,その他,大阪府,大阪市浪速区,日本橋東２丁目９－１６オリエンタル日本橋Ｂ１－１　ＳＴＡＲ☆ＪＡＣＫＳオフィス内,,27,111,5560006,,,2024-05-31,その他の清算の結了等,,,2022-06-13,1,,,,,チーキークイーンズ,0
829,4010005033313,登記記録の閉鎖等,0,2024-12-06,2024-12-03,一般社団法人オルニャン,,その他の設立登記法人,東京都,千代田区,丸の内３丁目１番１号東京共同会計事務所内,,13,101,1000005,,,2024-12-03,清算の結了等,,,2021-04-30,1,,,,,オルニャン,0
831,4010005037578,登記記録の閉鎖等,0,2024-12-06,2024-12-04,エスティサッポロ一般社団法人,,その他の設立登記法人,東京都,千代田区,丸の内３丁目１番１号東京共同会計事務所内,,13,101,1000005,,,2024-12-04,清算の結了等,,,2023-11-28,1,,,,,エスティサッポロ,0
863,4011101027646,登記記録の閉鎖等,0,2024-12-06,2024-12-02,株式会社マニトバ,,株式会社,千葉県,市原市,徳氏２番地１,,12,219,2900544,,,2024-12-02,合併による解散等,8040001001201,令和６年１２月１日千葉市中央区問屋町１番３５号株式会社京葉商事（8040001001201）に合併し解散,2015-10-05,1,,,,,マニトバ,0
874,4011301021721,登記記録の閉鎖等,0,2024-12-06,2024-12-04,株式会社ケーエスフード,,株式会社,東京都,杉並区,高井戸東１丁目１１番５号,,13,115,1680072,,,2024-12-04,清算の結了等,,,2015-10-16,1,,,,,ケーエスフード,0
886,4012402003435,登記記録の閉鎖等,0,2024-12-06,2024-11-28,有限会社クニコーポレーション,,有限会社,東京都,国分寺市,戸倉２丁目１６番地３,,13,214,1850003,,,2024-11-28,清算の結了等,,,2015-10-05,1,,,,,クニコーポレーション,0
887,4012702003309,登記記録の閉鎖等,0,2024-12-06,2024-11-26,有限会社ネダテ企画,,有限会社,東京都,東村山市,栄町２丁目２１番地２,,13,213,1890013,,,2024-11-26,清算の結了等,,,2015-10-05,1,,,,,ネダテキカク,0
891,4012802000404,登記記録の閉鎖等,0,2024-12-06,2024-11-27,有限会社エム・アンド・エル,,有限会社,東京都,立川市,錦町５丁目１６番８号,,13,202,1900022,,,2024-11-27,清算の結了等,,,2015-10-05,1,,,,,,0
906,4020002017623,登記記録の閉鎖等,0,2024-12-06,2024-11-28,有限会社村山電気,,有限会社,神奈川県,横浜市西区,東久保町１１番１２号,,14,103,2200062,,,2024-11-28,清算の結了等,,,2015-10-05,1,,,,,ムラヤマデンキ,0
937,4050002000403,登記記録の閉鎖等,0,2024-12-06,2024-12-03,有限会社インナベル,,有限会社,茨城県,水戸市,五軒町２丁目１番１０－１２０１号レーベンハイム五軒町レジデンス,,08,201,3100063,,,2024-12-03,清算の結了等,,,2015-10-05,1,,,,,インナベル,0
943,4100001000811,登記記録の閉鎖等,0,2024-12-06,2024-11-22,株式会社共立コンサルタンツ,,株式会社,長野県,長野市,大字鶴賀緑町１６０５番地１４,,20,201,3800813,,,2024-11-22,清算の結了等,,,2015-10-05,1,,,,,キョウリツコンサルタンツ,0
951,4110005014724,登記記録の閉鎖等,0,2024-12-06,2024-11-29,一般社団法人新潟県国際農業交流協会,,その他の設立登記法人,新潟県,新潟市中央区,東中通１番町８６番地５１新潟東中通ビル４階,,15,103,9518116,,,2024-11-29,清算の結了等,,,2015-10-05,1,,,,,ニイガタケンコクサイノウギョウコウリュウキョウカイ,0
970,4130001015476,登記記録の閉鎖等,0,2024-12-06,2024-12-05,株式会社美友社,,株式会社,京都府,京都市伏見区,桃山町泰長老９６番地,,26,109,6128034,,,2024-12-05,清算の結了等,,,2015-10-05,1,,,,,ビユウシャ,0
973,4130001070620,登記記録の閉鎖等,0,2024-12-06,2024-12-02,Ｅｔｈｒｅｅ株式会社,,株式会社,京都府,久世郡久御山町,森村東４０５番１,,26,322,6130024,,,2024-12-02,清算の結了等,,,2021-11-30,1,,,,,イースリー,0
979,4140001009064,登記記録の閉鎖等,0,2024-12-06,2024-12-03,株式会社大蓄,,株式会社,兵庫県,神戸市中央区,元町通１丁目６番１２号,,28,110,6500022,,,2024-12-03,清算の結了等,,,2015-10-05,1,,,,,ダイチク,0
982,4140001040795,登記記録の閉鎖等,0,2024-12-06,2024-12-03,株式会社Ｎプレイン,,株式会社,兵庫県,姫路市,辻井６丁目１７番１号,00039536,28,201,6700083,,,2024-12-03,清算の結了等,,,2015-10-05,1,,,,,エヌプレイン,0
997,4180001020694,登記記録の閉鎖等,0,2024-12-06,2024-12-02,尾州産業株式会社,,株式会社,愛知県,あま市,坂牧日吉３６番地,,23,237,4901115,,,2024-12-02,清算の結了等,,,2015-10-05,1,,,,,ビシュウサンギョウ,0
1000,4180001098434,登記記録の閉鎖等,0,2024-12-06,2024-11-28,株式会社豊田,,株式会社,愛知県,あま市,木田南四丁目１番地７,,23,237,4901222,,,2024-11-28,清算の結了等,,,2015-10-05,1,,,,,トヨタ,0
1016,4190002022739,登記記録の閉鎖等,0,2024-12-06,2024-12-03,有限会社ワタベ製作所,,有限会社,三重県,四日市市,川北１丁目１０番２４号,,24,202,5108031,,,2024-12-03,清算の結了等,,,2015-10-05,1,,,,,ワタベセイサクショ,0
1019,4220001015392,登記記録の閉鎖等,0,2024-12-06,2024-11-28,大得水産株式会社,,株式会社,石川県,七尾市,府中町２５３番地,,17,202,9260041,,,2024-11-28,清算の結了等,,,2015-10-05,1,,,,,ダイトクスイサン,0
1028,4260001011479,登記記録の閉鎖等,0,2024-12-06,2024-12-04,タケマサ運送株式会社,,株式会社,岡山県,赤磐市,桜が丘西２丁目８番６号,,33,213,7090802,,,2024-12-04,清算の結了等,,,2015-10-05,1,,,,,タケマサウンソウ,0
1031,4280002011006,登記記録の閉鎖等,0,2024-12-06,2024-12-04,有限会社ボングループ,,有限会社,島根県,隠岐郡隠岐の島町,栄町４００番地,,32,528,6850011,,,2024-12-04,清算の結了等,,,2015-10-05,1,,,,,ボングループ,0
1054,4370302000979,登記記録の閉鎖等,0,2024-12-06,2024-12-02,有限会社國永東北,,有限会社,宮城県,東松島市,赤井字南新町６番地の１０,,04,214,9810501,,,2024-12-02,清算の結了等,,,2015-10-05,1,,,,,コクエイトウホク,0
1071,4460305001288,登記記録の閉鎖等,0,2024-12-06,2024-12-05,特定非営利活動法人北海道理美容福祉訪問協会,,その他の設立登記法人,北海道,北見市,美芳町７丁目２番２０号,,01,208,0900064,,,2024-12-05,清算の結了等,,,2015-10-05,1,,,,,ホッカイドウリビヨウフクシホウモンキョウカイ,0
1074,4490001002158,登記記録の閉鎖等,0,2024-12-06,2024-12-03,株式会社森澤,,株式会社,高知県,高知市,長浜７２１番地,,39,201,7810270,,,2024-12-03,清算の結了等,,,2015-10-05,1,,,,,モリサワ,0
1079,4700150109517,登記記録の閉鎖等,0,2024-12-06,2024-05-31,ＳＴＡＲ☆ＪＡＣＫＳ,,その他,大阪府,大阪市浪速区,日本橋東２丁目９－１６オリエンタル日本橋Ｂ１－１,,27,111,5560006,,,2024-05-31,その他の清算の結了等,,,2022-06-13,1,,,,,スタージヤツクス,0
1122,5010701032286,登記記録の閉鎖等,0,2024-12-06,2024-11-27,株式会社アクストリーム,,株式会社,神奈川県,川崎市宮前区,有馬８丁目２番３号ホワイトレジデンス鷺沼３階,,14,136,2160003,,,2024-11-27,清算の結了等,,,2016-04-12,1,,,,,アクストリーム,0
1127,5011001030419,登記記録の閉鎖等,0,2024-12-06,2024-11-29,テルモ・ビーエスエヌ株式会社,,株式会社,東京都,新宿区,西新宿３丁目２０番２号,,13,104,1600023,,,2024-11-29,清算の結了等,,,2015-10-05,1,,,,,テルモビーエスエヌ,0
1128,5011001034634,登記記録の閉鎖等,0,2024-12-06,2024-12-02,株式会社久和,,株式会社,東京都,世田谷区,用賀３丁目２４番３－４０３号,,13,112,1580097,,,2024-12-02,清算の結了等,,,2015-10-05,1,,,,,ヒサワ,0
1145,5011501016545,登記記録の閉鎖等,0,2024-12-06,2024-12-04,スマートハウス株式会社,,株式会社,東京都,豊島区,西池袋１丁目９番１１－７０６号,,13,116,1710021,,,2024-12-04,清算の結了等,,,2015-10-05,1,,,,,スマートハウス,0
1151,5012701008720,登記記録の閉鎖等,0,2024-12-06,2024-11-26,株式会社トランスプライム,,株式会社,東京都,国分寺市,本町２丁目２３番５号ラフィネ込山ＮＯ．３・６０２号,,13,214,1850012,,,2024-11-26,清算の結了等,,,2015-10-05,1,,,,,トランスプライム,0
1161,5013402004496,登記記録の閉鎖等,0,2024-12-06,2024-12-04,有限会社気象環境サービス,,有限会社,東京都,多摩市,貝取２丁目２番地１－４０３,,13,224,2060012,,,2024-12-04,清算の結了等,,,2015-10-05,1,,,,,キショウカンキョウサービス,0
1164,5020001084003,登記記録の閉鎖等,0,2024-12-06,2024-11-22,株式会社サーフェス,,株式会社,神奈川県,川崎市幸区,南加瀬３丁目３１番８号,,14,132,2120055,,,2024-11-22,清算の結了等,,,2015-10-05,1,,,,,サーフェス,0
1174,5020003023339,登記記録の閉鎖等,0,2024-12-06,2024-11-27,Ｆｕｎｃｔｅｒｙ合同会社,,合同会社,神奈川県,横浜市神奈川区,沢渡２１番地１９グリーンメゾン沢渡２０８号,,14,102,2210844,,,2024-11-27,清算の結了等,,,2023-02-21,1,,,,,ファンクテリー,0
1180,5021002038550,登記記録の閉鎖等,0,2024-12-06,2024-12-03,有限会社双葉工作所,,有限会社,神奈川県,秦野市,南が丘４丁目５番地の３１,,14,211,2570013,,,2024-12-03,清算の結了等,,,2015-10-05,1,,,,,フタバコウサクショ,0
1181,5021002055728,登記記録の閉鎖等,0,2024-12-06,2024-12-04,有限会社池谷建設,,有限会社,神奈川県,足柄上郡山北町,川西１１０５番地,,14,364,2580124,,,2024-12-04,清算の結了等,,,2015-10-05,1,,,,,イケヤケンセツ,0
1191,5030003007654,登記記録の閉鎖等,0,2024-12-06,2024-12-04,合同会社中国料理将ちゃん,,合同会社,埼玉県,朝霞市,根岸台６丁目４番１０号,,11,227,3510005,,,2024-12-04,清算の結了等,,,2015-10-05,1,,,,,チュウゴクリョウリショウチャン,0
1200,5040002000502,登記記録の閉鎖等,0,2024-12-06,2024-11-29,有限会社アイピーエス,,有限会社,千葉県,千葉市美浜区,高洲１丁目１番４号,,12,106,2610004,,,2024-11-29,清算の結了等,,,2015-10-05,1,,,,,アイピーエス,0
1220,5080402014321,登記記録の閉鎖等,0,2024-12-06,2024-12-02,有限会社Ｗｅｂ　ＯＧＵｓｈｏｗ,,有限会社,静岡県,浜松市中央区,下石田町１８４１番地の１,,22,138,4350006,,,2024-12-02,合併による解散等,3080401027301,令和６年１２月１日静岡県浜松市中央区下石田町１８４１番地の１株式会社オグショー（3080401027301）に合併し解散,2015-10-05,1,,,,,ウェブオグショー,0
1225,5100001022706,登記記録の閉鎖等,0,2024-12-06,2024-12-02,株式会社ビーエルエス,,株式会社,長野県,飯田市,上郷飯沼７３９番地１,,20,205,3950002,,,2024-12-02,清算の結了等,,,2015-10-05,1,,,,,ビーエルエス,0
1230,5110002009016,登記記録の閉鎖等,0,2024-12-06,2024-11-13,有限会社マサル工業,,有限会社,新潟県,新潟市東区,上木戸４丁目１５番８号,,15,102,9500891,,,2024-11-13,清算の結了等,,,2015-10-05,1,,,,,マサルコウギョウ,0
1231,5110002010089,登記記録の閉鎖等,0,2024-12-06,2024-12-02,有限会社熊倉高蔵商店,,有限会社,新潟県,新潟市南区,臼井１４２０番地甲,,15,106,9501412,,,2024-12-02,清算の結了等,,,2015-10-05,1,,,,,クマクラタカゾウショウテン,0
1252,5120901028651,登記記録の閉鎖等,0,2024-12-06,2024-11-28,株式会社ネクスト住宅販売,,株式会社,大阪府,豊中市,中桜塚２丁目２３番９号,,27,203,5610881,,,2024-11-28,清算の結了等,,,2015-10-05,1,,,,,ネクストジュウタクハンバイ,0
1261,5140001004510,登記記録の閉鎖等,0,2024-12-06,2024-12-02,あさひエステート株式会社,,株式会社,兵庫県,神戸市北区,松が枝町２丁目２４番地の１,,28,109,6511232,,,2024-12-02,清算の結了等,,,2015-10-05,1,,,,,アサヒエステート,0
1265,5140001083802,登記記録の閉鎖等,0,2024-12-06,2024-12-02,株式会社橋本設計,,株式会社,兵庫県,伊丹市,西野６丁目３３番地の１－８１２,,28,207,6640028,,,2024-12-02,清算の結了等,,,2015-10-05,1,,,,,ハシモトセッケイ,0
1271,5160002005588,登記記録の閉鎖等,0,2024-12-06,2024-12-04,有限会社滋賀ポートリー,,有限会社,滋賀県,甲賀市,甲南町池田字又木谷１３４３番地,,25,209,5203302,,,2024-12-04,清算の結了等,,,2015-10-05,1,,,,,シガポートリー,0
1275,5180002015098,登記記録の閉鎖等,0,2024-12-06,2024-11-29,有限会社薬師,,有限会社,愛知県,名古屋市南区,薬師通２丁目２７番地,,23,112,4570041,,,2024-11-29,清算の結了等,,,2015-10-05,1,,,,,ヤクシ,0
1301,5340001009076,登記記録の閉鎖等,0,2024-12-06,2024-12-02,株式会社ミクラ商事,,株式会社,鹿児島県,薩摩川内市,上川内町３３０２番地１,,46,215,8950067,,,2024-12-02,合併による解散等,6340001015619,令和６年１２月１日鹿児島県薩摩川内市上川内町３３０２番地１株式会社ミクラクリエイト（6340001015619）に合併し解散,2015-10-05,1,,,,,ミクラショウジ,0
1317,5380001015062,登記記録の閉鎖等,0,2024-12-06,2024-11-26,ＧＯＬＤＥＮ　ＦＯＲＴＵＮＥ株式会社,,株式会社,福島県,いわき市,郷ケ丘４丁目１９番地の２８,,07,204,9708045,,,2024-11-26,清算の結了等,,,2015-10-05,1,,,,,ゴールデンフォーチューン,0
1323,5390001005780,登記記録の閉鎖等,0,2024-12-06,2024-12-02,株式会社ピンテック,,株式会社,東京都,品川区,南大井６丁目２２番７号,,13,109,1400013,,,2024-12-02,清算の結了等,,,2015-10-05,1,,,,,ピンテック,0
1328,5420002003177,登記記録の閉鎖等,0,2024-12-06,2024-12-03,有限会社リンクス,,有限会社,青森県,青森市,造道１丁目４番４９号,,02,201,0300911,,,2024-12-03,清算の結了等,,,2015-10-05,1,,,,,リンクス,0
1333,5430002045887,登記記録の閉鎖等,0,2024-12-06,2024-12-03,有限会社成田鉄工,,有限会社,北海道,江別市,向ケ丘４６番地の８,,01,217,0670075,,,2024-12-03,清算の結了等,,,2015-10-05,1,,,,,ナリタテッコウ,0
1335,5450002001756,登記記録の閉鎖等,0,2024-12-06,2024-12-04,有限会社旭都,,有限会社,北海道,旭川市,新富二条１丁目１３番９号,,01,204,0700002,,,2024-12-04,清算の結了等,,,2015-10-05,1,,,,,キョクト,0
1339,5480005005322,登記記録の閉鎖等,0,2024-12-06,2024-12-03,医療法人西条産婦人科,,その他の設立登記法人,徳島県,美馬市,脇町字西赤谷２０４番地,,36,207,7793742,,,2024-12-03,清算の結了等,,,2015-10-05,1,,,,,サイジョウサンフジンカ,0
1340,5500002004489,登記記録の閉鎖等,0,2024-12-06,2024-12-02,椿アルミ建材有限会社,,有限会社,愛媛県,松山市,居相１丁目３番１号,,38,201,7900934,,,2024-12-02,合併による解散等,6500001015949,令和６年１２月１日愛媛県宇和島市丸之内五丁目４番７号株式会社シンツ（6500001015949）に合併し解散,2015-10-05,1,,,,,ツバキアルミケンザイ,0
1342,5700150051445,登記記録の閉鎖等,0,2024-12-06,2024-05-30,広島県中小企業家同友会,,その他,広島県,広島市中区,中町８－１８ヒロシマクリスタルプラザ８Ｆ,,34,101,7300037,,,2024-05-30,その他の清算の結了等,,,2015-10-09,1,,,,,ヒロシマケンチユウシヨウキギヨウカドウユウカイ,0
1344,6010001002773,登記記録の閉鎖等,0,2024-12-06,2024-11-25,株式会社コスモワ,,株式会社,東京都,文京区,後楽２丁目１番８号,,13,105,1120004,,,2024-11-25,清算の結了等,,,2015-10-05,1,,,,,,0
1359,6010401132443,登記記録の閉鎖等,0,2024-12-06,2024-11-19,株式会社クリーム,,株式会社,東京都,港区,西麻布２丁目２５番１９号,,13,103,1060031,,,2024-11-19,清算の結了等,,,2017-07-12,1,,,,,クリーム,0
1367,6010403019309,登記記録の閉鎖等,0,2024-12-06,2024-11-18,合同会社Ｂｌｏｏｍ８８,,合同会社,東京都,港区,浜松町２丁目２番１５号浜松町ダイヤビル２Ｆ,,13,103,1050013,,,2024-11-18,清算の結了等,,,2018-09-13,1,,,,,ブルームエイティエイト,0
1375,6010601038291,登記記録の閉鎖等,0,2024-12-06,2024-12-03,株式会社日比野モータース,,株式会社,東京都,江東区,東砂５丁目１６番２号,,13,108,1360074,,,2024-12-03,清算の結了等,,,2015-10-05,1,,,,,ヒビノモータース,0
1378,6010603009010,登記記録の閉鎖等,0,2024-12-06,2024-12-04,Ａｓｈ合同会社,,合同会社,東京都,江東区,亀戸４丁目３４番１０号クレアンＫ２０１,,13,108,1360071,,,2024-12-04,清算の結了等,,,2021-06-25,1,,,,,アッシュ,0
1392,6011101040069,登記記録の閉鎖等,0,2024-12-06,2024-12-02,株式会社Ｅｍｉｌｙ,,株式会社,山梨県,甲斐市,富竹新田１１２８－３ハイツなとりＡ棟１０１,,19,210,4000113,,,2024-12-02,清算の結了等,,,2015-10-05,1,,,,,エミリー,0
1393,6011101060587,登記記録の閉鎖等,0,2024-12-06,2024-11-29,株式会社結婚情報センター,,株式会社,東京都,新宿区,西新宿１丁目２５番１号新宿センタービル４４階,,13,104,1600023,,,2024-11-29,清算の結了等,,,2015-10-05,1,,,,,ケッコンジョウホウセンター,0
1405,6011802022563,登記記録の閉鎖等,0,2024-12-06,2024-12-04,有限会社大恵,,有限会社,東京都,足立区,千住大川町１３番１２号,,13,121,1200031,,,2024-12-04,清算の結了等,,,2015-10-05,1,,,,,,0
1407,6012402016749,登記記録の閉鎖等,0,2024-12-06,2024-12-05,有限会社寿ビル,,有限会社,東京都,小金井市,東町４丁目１７番１０号,,13,210,1840011,,,2024-12-05,清算の結了等,,,2015-10-05,1,,,,,コトブキビル,0
1409,6012802001879,登記記録の閉鎖等,0,2024-12-06,2024-11-27,有限会社ハッピィエステイト,,有限会社,東京都,立川市,幸町４丁目２２番地の４,,13,202,1900002,,,2024-11-27,清算の結了等,,,2015-10-05,1,,,,,ハッピィエステイト,0
1429,6020001118577,登記記録の閉鎖等,0,2024-12-06,2024-11-28,ＯＮＥ－Ｂ株式会社,,株式会社,神奈川県,横浜市港北区,新羽町１２０４番,,14,109,2230057,,,2024-11-28,清算の結了等,,,2016-11-08,1,,,,,ワンビー,0
1450,6030001127057,登記記録の閉鎖等,0,2024-12-06,2024-12-02,株式会社長谷川ホルモン,,株式会社,埼玉県,さいたま市岩槻区,加倉４丁目２４番１３号,,11,110,3390056,,,2024-12-02,合併による解散等,1030001083131,令和６年１２月１日埼玉県さいたま市岩槻区加倉四丁目２４番１３号株式会社ビッグベアー（1030001083131）に合併し解散,2018-08-17,1,,,,,ハセガワホルモン,0
1458,6030002035795,登記記録の閉鎖等,0,2024-12-06,2024-12-02,有限会社樋口業務店,00016483,有限会社,埼玉県,入間市,久保稲荷１丁目８番地１（５－２０３）,,11,225,3580024,,,2024-12-02,清算の結了等,,,2015-10-05,1,,,,,ヒグチギョウムテン,0
1459,6030002091293,登記記録の閉鎖等,0,2024-12-06,2024-12-03,有限会社森田工務店,,有限会社,埼玉県,越谷市,大字下間久里５７２番地７,,11,222,3430045,,,2024-12-03,清算の結了等,,,2015-10-05,1,,,,,モリタコウムテン,0
1465,6030005008328,登記記録の閉鎖等,0,2024-12-06,2024-12-03,協同組合川越専門店会,,その他の設立登記法人,埼玉県,川越市,中原町１丁目９番地１,,11,201,3500042,,,2024-12-03,清算の結了等,,,2015-10-05,1,,,,,カワゴエセンモンテンカイ,0
1485,6060002029670,登記記録の閉鎖等,0,2024-12-06,2024-12-03,有限会社渡辺工務店,,有限会社,栃木県,小山市,東間々田１丁目１７番１７号,,09,208,3290206,,,2024-12-03,清算の結了等,,,2015-10-05,1,,,,,ワタナベコウムテン,0
1486,6070001013451,登記記録の閉鎖等,0,2024-12-06,2024-12-02,正田塗装株式会社,,株式会社,群馬県,伊勢崎市,波志江町１７９９番地１,,10,204,3720001,,,2024-12-02,清算の結了等,,,2015-10-05,1,,,,,ショウダトソウ,0
1492,6080401005873,登記記録の閉鎖等,0,2024-12-06,2024-12-03,株式会社連尺すみたや,,株式会社,静岡県,浜松市中央区,連尺町３０９番地の２,,22,138,4300939,,,2024-12-03,清算の結了等,,,2015-10-05,1,,,,,レンジャクスミタヤ,0
1505,6110002016143,登記記録の閉鎖等,0,2024-12-06,2024-12-02,有限会社共栄開発,,有限会社,新潟県,胎内市,つつじが丘下３１５番地６７,,15,227,9592635,,,2024-12-02,清算の結了等,,,2015-10-05,1,,,,,キョウエイカイハツ,0
1506,6110005000722,登記記録の閉鎖等,0,2024-12-06,2024-12-02,医療法人社団広橋産婦人科クリニック,,その他の設立登記法人,新潟県,新潟市西区,坂井砂山３丁目７番１号,,15,107,9502044,,,2024-12-02,清算の結了等,,,2015-10-05,1,,,,,ヒロハシサンフジンカクリニック,0
1516,6120005007626,登記記録の閉鎖等,0,2024-12-06,2024-12-04,特定非営利活動法人大阪国際柔道友好会,,その他の設立登記法人,大阪府,大阪市生野区,巽北３丁目２０番１５号かねみつ整骨院内,,27,116,5440004,,,2024-12-04,清算の結了等,,,2015-10-05,1,,,,,オオサカコクサイジュウドウユウコウカイ,0
1538,6140003011396,登記記録の閉鎖等,0,2024-12-06,2024-12-02,合同会社ＬＡ．ＴＡＫＵＭＩ,,合同会社,兵庫県,たつの市,揖保川町野田２４９番１号,,28,229,6711602,,,2024-12-02,清算の結了等,,,2016-05-20,1,,,,,ラタクミ,0
1542,6180001131572,登記記録の閉鎖等,0,2024-12-06,2024-12-03,オールウェイズ株式会社,,株式会社,愛知県,名古屋市東区,東桜１丁目９番２６号,,23,102,4610005,,,2024-12-03,合併による解散等,5180001046788,令和６年１２月１日名古屋市東区東桜一丁目１０番３３号株式会社アイジーユナイト（5180001046788）に合併し解散,2018-03-22,1,,,,,オールウェイズ,0
1544,6180003022654,登記記録の閉鎖等,0,2024-12-06,2024-11-29,ナムとり合同会社,,合同会社,愛知県,名古屋市名東区,牧の原２丁目１１２牧の原マンション１０２号室,,23,115,4650072,,,2024-11-29,清算の結了等,,,2021-06-21,1,,,,,ナムトリ,0
1553,6190002001575,登記記録の閉鎖等,0,2024-12-06,2024-12-03,三重住建有限会社,,有限会社,三重県,津市,阿漕町津興１０３４番地の１,,24,201,5140811,,,2024-12-03,清算の結了等,,,2015-10-05,1,,,,,ミエジュウケン,0
1572,6290001101886,登記記録の閉鎖等,0,2024-12-06,2024-11-08,株式会社Ｅｖｅｎｌｙ,,株式会社,福岡県,福岡市博多区,博多駅前２丁目１番１号福岡朝日ビル１階,,40,132,8120011,,,2024-11-08,清算の結了等,,,2023-06-09,1,,,,,イーブンリー,0
1576,6290802017174,登記記録の閉鎖等,0,2024-12-06,2024-12-03,藤森塗研有限会社,,有限会社,福岡県,遠賀郡水巻町,二東１丁目１４番１４号,,40,382,8070054,,,2024-12-03,清算の結了等,,,2015-10-05,1,,,,,フジモリトケン,0
1577,6290803002745,登記記録の閉鎖等,0,2024-12-06,2024-12-02,合同会社Ｓ．Ｍ．Ｃ,,合同会社,福岡県,北九州市八幡東区,前田３丁目９番３号Ｓ．Ｋ．ｃｉｔｙ八幡,,40,108,8050069,,,2024-12-02,合併による解散等,3290803001411,令和６年１２月１日北九州市八幡東区前田三丁目９番３号Ｓ．Ｋ．ｃｉｔｙ八幡２０５号合同会社Ｓ．Ｋ．Ｃ（3290803001411）に合併し解散,2016-09-12,1,,,,,エスエムシー,0
1584,6330001000679,登記記録の閉鎖等,0,2024-12-06,2024-12-02,株式会社大森エンジニアリング,,株式会社,熊本県,熊本市北区,武蔵ケ丘５丁目１番３号,,43,105,8618001,,,2024-12-02,清算の結了等,,,2015-10-05,1,,,,,オオモリエンジニアリング,0
1590,6340002015626,登記記録の閉鎖等,0,2024-12-06,2024-12-02,有限会社奥野商事,,有限会社,鹿児島県,姶良市,加治木町木田２０６５番地４,,46,225,8995241,,,2024-12-02,清算の結了等,,,2015-10-05,1,,,,,オクノショウジ,0
1592,6360001009346,登記記録の閉鎖等,0,2024-12-06,2024-12-04,沖縄三協立山アルミ株式会社,,株式会社,沖縄県,中頭郡読谷村,字伊良皆１１５番地,,47,324,9040303,,,2024-12-04,清算の結了等,,,2015-10-05,1,,,,,オキナワサンキョウタテヤマアルミ,0
1601,6380002032205,登記記録の閉鎖等,0,2024-12-06,2024-12-02,有限会社スズコウ,,有限会社,福島県,会津若松市,河東町郡山字一揆塚１１番地,,07,202,9693481,,,2024-12-02,合併による解散等,2380001018976,令和６年１２月１日福島県会津若松市河東町郡山字一揆塚１番地株式会社スズコウエンジニアリング（2380001018976）に合併し解散,2015-10-05,1,,,,,スズコウ,0
1625,6700150009863,登記記録の閉鎖等,0,2024-12-06,2023-10-13,東京モーターサイクルショー協会,,その他,東京都,豊島区,南大塚２丁目２５－１５Ｓｏｕｔｈ新大塚ビル７Ｆ,,13,116,1700005,,,2023-10-13,その他の清算の結了等,,,2015-10-09,1,,,,,トウキヨウモーターサイクルシヨーキヨウカイ,0
1626,6700150048985,登記記録の閉鎖等,0,2024-12-06,2024-07-26,みぼろ湖オートキャンプサイト施設管理組合,,その他,岐阜県,高山市,荘川町中野２６２－１,,21,203,5015424,,,2024-07-26,その他の清算の結了等,,,2015-10-09,1,,,,,ミボロコオートキヤンプサイトシセツカンリクミアイ,0
1634,7010001237476,登記記録の閉鎖等,0,2024-12-06,2024-11-18,ＳＨＯＷ株式会社,,株式会社,東京都,渋谷区,代々木２丁目１番１号新宿マインズタワー８Ｆ,,13,113,1510053,,,2024-11-18,合併による解散等,8010001237475,令和６年１０月３１日東京都渋谷区代々木二丁目１番１号新宿マインズタワー８Ｆ株式会社ＯＭＯＴ（8010001237475）に合併し解散,2023-08-15,1,,,,,ショウ,0
1648,7010401146847,登記記録の閉鎖等,0,2024-12-06,2024-11-18,株式会社ＩＯＲＩ　ｅｎｔｅｒｔａｉｎｍｅｎｔ,,株式会社,東京都,港区,六本木３丁目１０番１０号７階,,13,103,1060032,,,2024-11-18,清算の結了等,,,2019-07-17,1,,,,,イオリエンターテイメント,0
1659,7010402009103,登記記録の閉鎖等,0,2024-12-06,2024-12-02,有限会社トゥリ,,有限会社,東京都,世田谷区,上北沢１丁目２１－１７－１０６,,13,112,1560057,,,2024-12-02,清算の結了等,,,2015-10-05,1,,,,,トゥリ,0
1684,7011001137187,登記記録の閉鎖等,0,2024-12-06,2024-12-04,株式会社Ｔａｕｒｕｓ　Ｇｌｏｂａｌ　Ｍａｒｋｅｔｓ,,株式会社,東京都,渋谷区,神南１丁目１３番８号,,13,113,1500041,,,2024-12-04,合併による解散等,6011001129318,令和６年１１月１９日東京都港区南青山三丁目１１番１３号株式会社ｅｎｅｃｈａｉｎ（6011001129318）に合併し解散,2020-12-01,1,,,,,トーラスグローバルマーケッツ,0
1689,7011005007502,登記記録の閉鎖等,0,2024-12-06,2024-11-12,特定非営利活動法人ＮＡＮＯＢＡＴＯＮ,,その他の設立登記法人,東京都,渋谷区,代々木１丁目３７番７号勝栄ビル６０１号室,,13,113,1510053,,,2024-11-12,清算の結了等,,,2018-01-17,1,,,,,ナノバトン,0
1699,7011501006610,登記記録の閉鎖等,0,2024-12-06,2024-12-03,三協株式会社,,株式会社,東京都,荒川区,南千住２丁目１２番３号,,13,118,1160003,,,2024-12-03,清算の結了等,,,2015-10-05,1,,,,,,0
1700,7011501028662,登記記録の閉鎖等,0,2024-12-06,2024-12-02,株式会社モバイルチケット,,株式会社,東京都,北区,赤羽２丁目２番２－１１０８号,,13,117,1150045,,,2024-12-02,清算の結了等,,,2022-11-14,1,,,,,モバイルチケット,0
1713,7012701005154,登記記録の閉鎖等,0,2024-12-06,2024-11-27,西伸産業株式会社,,株式会社,東京都,東村山市,恩多町１丁目２０番１８号,,13,213,1890011,,,2024-11-27,清算の結了等,,,2015-10-05,1,,,,,セイシンサンギョウ,0
1729,7020002037453,登記記録の閉鎖等,0,2024-12-06,2024-11-27,有限会社小川精工,,有限会社,神奈川県,横浜市鶴見区,梶山２丁目３７番２５号,,14,101,2300072,,,2024-11-27,清算の結了等,,,2015-10-05,1,,,,,オガワセイコウ,0
1738,7021002046733,登記記録の閉鎖等,0,2024-12-06,2024-12-03,有限会社服部,,有限会社,神奈川県,綾瀬市,吉岡２３８３番地３０,,14,218,2521124,,,2024-12-03,清算の結了等,,,2015-10-05,1,,,,,ハットリ,0
1744,7030001151907,登記記録の閉鎖等,0,2024-12-06,2024-12-03,株式会社アイワ,,株式会社,埼玉県,行田市,大字堤根１０６９番地１,,11,206,3610035,,,2024-12-03,清算の結了等,,,2023-01-12,1,,,,,アイワ,0
1749,7030002039052,登記記録の閉鎖等,0,2024-12-06,2024-12-02,有限会社加藤電化,,有限会社,埼玉県,久喜市,菖蒲町下栢間２７３２番地１,,11,232,3460113,,,2024-12-02,合併による解散等,9030002039026,令和６年１２月１日埼玉県久喜市菖蒲町下栢間２７３２番地２株式会社本郷興産（9030002039026）に合併し解散,2015-10-05,1,,,,,カトウデンカ,0
1760,7040002042609,登記記録の閉鎖等,0,2024-12-06,2024-11-29,有限会社イエロードラゴン,,有限会社,千葉県,鎌ケ谷市,道野辺本町１丁目３番１号カーラシティ１０１－２号,,12,224,2730137,,,2024-11-29,清算の結了等,,,2015-10-05,1,,,,,イエロードラゴン,0
1770,7050002007288,登記記録の閉鎖等,0,2024-12-06,2024-12-02,有限会社エイム,,有限会社,茨城県,那珂市,額田南郷２４５８番地,,08,226,3110107,,,2024-12-02,清算の結了等,,,2015-10-05,1,,,,,エイム,0
1780,7080401012266,登記記録の閉鎖等,0,2024-12-06,2024-11-27,ドリームゲート株式会社,,株式会社,神奈川県,横浜市栄区,庄戸１丁目１２番２号,,14,115,2470022,,,2024-11-27,清算の結了等,,,2015-10-05,1,,,,,ドリームゲート,0
1781,7080402001755,登記記録の閉鎖等,0,2024-12-06,2024-12-02,有限会社オグショー,,有限会社,静岡県,浜松市中央区,下石田町１８４１番地の１,,22,138,4350006,,,2024-12-02,合併による解散等,3080401027301,令和６年１２月１日静岡県浜松市中央区下石田町１８４１番地の１株式会社オグショー（3080401027301）に合併し解散,2015-10-05,1,,,,,オグショー,0
1782,7080402016571,登記記録の閉鎖等,0,2024-12-06,2024-12-03,有限会社シビルコンサルタント,,有限会社,静岡県,浜松市天竜区,佐久間町中部５０４番地の８,,22,140,4313908,,,2024-12-03,清算の結了等,,,2015-10-05,1,,,,,シビルコンサルタント,0
1788,7100002016969,登記記録の閉鎖等,0,2024-12-06,2024-11-18,有限会社環境企画,,有限会社,長野県,小県郡長和町,大門字小茂谷３３９３番地６６５,,20,350,3860601,,,2024-11-18,清算の結了等,,,2015-10-05,1,,,,,カンキョウキカク,0
1793,7110002005161,登記記録の閉鎖等,0,2024-12-06,2024-12-02,有限会社野沢書店,,有限会社,新潟県,新潟市中央区,学校町通２番町５３０８番地,,15,103,9518126,,,2024-12-02,清算の結了等,,,2015-10-05,1,,,,,ノザワショテン,0
1814,7120901007067,登記記録の閉鎖等,0,2024-12-06,2024-11-29,株式会社千寿興産,,株式会社,大阪府,吹田市,江坂町４丁目２９番１号,,27,205,5640063,,,2024-11-29,清算の結了等,,,2015-10-05,1,,,,,センジュコウサン,0
1843,7180001001741,登記記録の閉鎖等,0,2024-12-06,2024-11-29,株式会社泰地ホーム,,株式会社,愛知県,名古屋市名東区,一社１丁目５０番地,,23,115,4650093,,,2024-11-29,清算の結了等,,,2015-10-05,1,,,,,タイチホーム,0
1847,7180001139375,登記記録の閉鎖等,0,2024-12-06,2024-11-29,東方株式会社,,株式会社,愛知県,名古屋市中川区,八剱町３丁目４９,,23,110,4540054,,,2024-11-29,清算の結了等,,,2019-12-25,1,,,,,トウホウ,0
1855,7190001003720,登記記録の閉鎖等,0,2024-12-06,2024-12-03,株式会社ネクストステップ,,株式会社,三重県,亀山市,関町会下１３６０番地の４６,,24,210,5191106,,,2024-12-03,清算の結了等,,,2015-10-05,1,,,,,ネクストステップ,0
1858,7190001022687,登記記録の閉鎖等,0,2024-12-06,2024-12-04,伊勢乾物販売株式会社,,株式会社,三重県,伊勢市,大世古２丁目９番６号,,24,203,5160079,,,2024-12-04,清算の結了等,,,2015-10-05,1,,,,,イセカンブツハンバイ,0
1872,7220002011982,登記記録の閉鎖等,0,2024-12-06,2024-12-02,有限会社ナカノ,,有限会社,石川県,小松市,一針町リ９２番地,,17,203,9230043,,,2024-12-02,清算の結了等,,,2015-10-05,1,,,,,ナカノ,0
1875,7240001034132,登記記録の閉鎖等,0,2024-12-06,2024-12-02,井本商事株式会社,,株式会社,広島県,府中市,中須町２４４番地,,34,208,7260012,,,2024-12-02,清算の結了等,,,2015-10-05,1,,,,,イモトショウジ,0
1877,7240001059360,登記記録の閉鎖等,0,2024-12-06,2024-12-04,株式会社アール・アンド・エイチ,,株式会社,広島県,広島市中区,田中町４番１４号,,34,101,7300026,,,2024-12-04,清算の結了等,,,2022-02-21,1,,,,,アールアンドエイチ,0
1884,7240005007852,登記記録の閉鎖等,0,2024-12-06,2024-12-02,医療法人ひかり眼科,,その他の設立登記法人,広島県,福山市,東深津町１丁目９番４５号みのり荘２号,,34,207,7210974,,,2024-12-02,清算の結了等,,,2015-10-05,1,,,,,ヒカリガンカ,0
1902,7360001015673,登記記録の閉鎖等,0,2024-12-06,2024-12-04,アールプラン株式会社,,株式会社,沖縄県,浦添市,伊祖２丁目３番１号－４０３,,47,208,9012132,,,2024-12-04,清算の結了等,,,2015-10-05,1,,,,,アールプラン,0
1909,7370502001320,登記記録の閉鎖等,0,2024-12-06,2024-11-29,有限会社歩建設,,有限会社,宮城県,気仙沼市,東中才３９３番地,,04,205,9880804,,,2024-11-29,清算の結了等,,,2015-10-05,1,,,,,アユミケンセツ,0
1911,7380002020910,登記記録の閉鎖等,0,2024-12-06,2024-11-26,有限会社菜華,,有限会社,福島県,石川郡石川町,大字双里字桜町２０番地,,07,501,9637808,,,2024-11-26,清算の結了等,,,2015-10-05,1,,,,,サイカ,0
1912,7390001014631,登記記録の閉鎖等,0,2024-12-06,2024-12-02,株式会社クラフィット,,株式会社,山形県,酒田市,本町１丁目５番３１号,,06,204,9980043,,,2024-12-02,合併による解散等,6390001007231,令和６年１２月１日山形県酒田市本町一丁目５番３１号株式会社東洋開発（6390001007231）に合併し解散,2016-09-12,1,,,,,クラフィット,0
1913,7390001015844,登記記録の閉鎖等,0,2024-12-06,2024-12-02,株式会社よしだ,,株式会社,山形県,米沢市,大字竹井２１７０番地の１,,06,202,9920116,,,2024-12-02,清算の結了等,,,2019-10-09,1,,,,,ヨシダ,0
1918,7410002009966,登記記録の閉鎖等,0,2024-12-06,2024-12-02,有限会社和美寿,,有限会社,秋田県,鹿角市,花輪字中花輪６８番地,,05,209,0185201,,,2024-12-02,清算の結了等,,,2015-10-05,1,,,,,ワビス,0
1922,7430001062650,登記記録の閉鎖等,0,2024-12-06,2024-12-02,株式会社旭観光ビル,,株式会社,北海道,札幌市中央区,南六条西６丁目７番地１,,01,101,0640806,,,2024-12-02,合併による解散等,3430001000622,令和６年１２月１日札幌市南区藤野８２６番地３株式会社旭観光リース（3430001000622）に合併し解散,2015-10-05,1,,,,,アサヒカンコウビル,0
1923,7430001088555,登記記録の閉鎖等,0,2024-12-06,2024-12-03,株式会社エーチーム,,株式会社,北海道,札幌市白石区,菊水上町三条３丁目３７番８号,,01,104,0030813,,,2024-12-03,清算の結了等,,,2023-03-03,1,,,,,エーチーム,0
1930,7460101006224,登記記録の閉鎖等,0,2024-12-06,2024-12-02,株式会社オークスホールディングス,,株式会社,北海道,河東郡鹿追町,笹川北８線１２番地９,,01,634,0810204,,,2024-12-02,清算の結了等,,,2017-09-08,1,,,,,オークスホールディングス,0
1933,7470002007535,登記記録の閉鎖等,0,2024-12-06,2024-12-04,有限会社レテ・アイリス,,有限会社,香川県,高松市,福田町９番地１５,,37,201,7600048,,,2024-12-04,清算の結了等,,,2015-10-05,1,,,,,レテアイリス,0
1942,8010001007936,登記記録の閉鎖等,0,2024-12-06,2024-11-22,株式会社ヤスダトーラー,,株式会社,東京都,文京区,千駄木５丁目１３番６号,,13,105,1130022,,,2024-11-22,清算の結了等,,,2015-10-05,1,,,,,ヤスダトーラー,0
1957,8010401026230,登記記録の閉鎖等,0,2024-12-06,2024-12-02,ブライトリング・アジア株式会社,,株式会社,東京都,港区,芝公園２丁目２番２２号,,13,103,1050011,,,2024-12-02,合併による解散等,7010401026231,令和６年１２月１日東京都港区芝公園二丁目２番２２号ブライトリング・ジャパン株式会社（7010401026231）に合併し解散,2015-10-05,1,,,,,ブライトリングアジア,0
1984,8010902002432,登記記録の閉鎖等,0,2024-12-06,2024-12-02,有限会社エスアール,,有限会社,東京都,世田谷区,大蔵１丁目９番１１号,,13,112,1570074,,,2024-12-02,清算の結了等,,,2015-10-05,1,,,,,エスアール,0
2046,8020002069644,登記記録の閉鎖等,0,2024-12-06,2024-11-27,有限会社ＫＹエンジニアリング,,有限会社,神奈川県,横浜市金沢区,東朝比奈１丁目１６番３１号,,14,108,2360033,,,2024-11-27,清算の結了等,,,2015-10-05,1,,,,,ケイワイエンジニアリング,0
2051,8020003019227,登記記録の閉鎖等,0,2024-12-06,2024-11-26,Ｓ．ＦＬＩＸ合同会社,,合同会社,神奈川県,横浜市保土ケ谷区,和田１丁目１８番３０号３０４,,14,106,2400065,,,2024-11-26,清算の結了等,,,2021-02-09,1,,,,,エスフリックス,0
2054,8021001079428,登記記録の閉鎖等,0,2024-12-06,2024-12-04,株式会社新成,,株式会社,神奈川県,相模原市中央区,淵野辺本町２丁目３２番２０号,,14,152,2520202,,,2024-12-04,清算の結了等,,,2023-06-29,1,,,,,シンセイ,0
2056,8021002045569,登記記録の閉鎖等,0,2024-12-06,2024-12-04,有限会社藤田機型製作所,,有限会社,神奈川県,海老名市,本郷３４８番地１１,,14,215,2430417,,,2024-12-04,清算の結了等,,,2015-10-05,1,,,,,,0
2058,8030001074280,登記記録の閉鎖等,0,2024-12-06,2024-12-02,株式会社海洋技術計画,,株式会社,埼玉県,川口市,朝日３丁目１２番１２号,,11,203,3320001,,,2024-12-02,清算の結了等,,,2015-10-05,1,,,,,カイヨウギジュツケイカク,0
2080,8040002015737,登記記録の閉鎖等,0,2024-12-06,2024-12-02,有限会社オプト,,有限会社,千葉県,千葉市緑区,平山町１９１５番地３,,12,105,2660002,,,2024-12-02,清算の結了等,,,2015-10-05,1,,,,,オプト,0
2086,8050001017650,登記記録の閉鎖等,0,2024-12-06,2024-11-29,株式会社オネスティ,,株式会社,茨城県,つくば市,東２丁目１１番２６号ルミナス東１０２号室,,08,220,3050046,,,2024-11-29,清算の結了等,,,2015-10-05,1,,,,,オネスティ,0
2096,8060002029454,登記記録の閉鎖等,0,2024-12-06,2024-12-03,有限会社メイワ,,有限会社,栃木県,小山市,神鳥谷１丁目８番２２号,,09,208,3230034,,,2024-12-03,清算の結了等,,,2015-10-05,1,,,,,メイワ,0
2099,8070002004258,登記記録の閉鎖等,0,2024-12-06,2024-12-02,葉住アート有限会社,,有限会社,群馬県,前橋市,天川町２番地５,,10,201,3710802,,,2024-12-02,清算の結了等,,,2015-10-05,1,,,,,ハズミアート,0
2133,8122001024090,登記記録の閉鎖等,0,2024-12-06,2024-12-05,株式会社益田運送,,株式会社,大阪府,東大阪市,衣摺５丁目１４番５号,,27,227,5770827,,,2024-12-05,清算の結了等,,,2015-10-05,1,,,,,,0
2143,8140001028597,登記記録の閉鎖等,0,2024-12-06,2024-12-02,株式会社バダック・ラボ・ジャパン,,株式会社,兵庫県,神戸市中央区,古湊通２丁目２番１３,,28,110,6500026,,,2024-12-02,清算の結了等,,,2015-10-05,1,,,,,バダックラボジャパン,0
2147,8140001130048,登記記録の閉鎖等,0,2024-12-06,2024-12-02,株式会社レッドストーン,,株式会社,兵庫県,神戸市中央区,中山手通６丁目８番７号,,28,110,6500004,,,2024-12-02,合併による解散等,4140001111539,令和６年１２月１日神戸市中央区中山手通六丁目８番７号株式会社ＮＥＷＧＡＴＥ（4140001111539）に合併し解散,2023-05-09,1,,,,,レッドストーン,0
2154,8140003003697,登記記録の閉鎖等,0,2024-12-06,2024-12-02,合資会社四ッ井工作所,,合資会社,兵庫県,神戸市須磨区,若木町１丁目６番２６号,,28,107,6540014,,,2024-12-02,合併による解散等,8140001014498,令和６年１２月１日神戸市兵庫区大開通五丁目２番２１号株式会社四ツ井工作所（8140001014498）に合併し解散,2015-10-05,1,,,,,ヨツイコウサクショ,0
2157,8140005005898,登記記録の閉鎖等,0,2024-12-06,2024-12-03,特定非営利活動法人緑の応援団,,その他の設立登記法人,兵庫県,明石市,西明石南町２丁目２２番３号ＫＦビル２階,,28,203,6730041,,,2024-12-03,清算の結了等,,,2015-10-05,1,,,,,ミドリノオウエンダン,0
2160,8180001127585,登記記録の閉鎖等,0,2024-12-06,2024-11-29,セルコム株式会社,,株式会社,愛知県,名古屋市中区,丸の内３丁目１３番１１号,,23,106,4600002,,,2024-11-29,清算の結了等,,,2017-04-28,1,,,,,セルコム,0
2173,8200001039084,登記記録の閉鎖等,0,2024-12-06,2024-12-02,株式会社ｂ３,,株式会社,岐阜県,岐阜市,八代２丁目６番１３号,,21,201,5020812,,,2024-12-02,合併による解散等,6200001000477,令和６年１２月１日岐阜市八代二丁目６番１３号株式会社ウエーヴジャパン（6200001000477）に合併し解散,2021-09-02,1,,,,,ビースリー,0
2175,8210001018343,登記記録の閉鎖等,0,2024-12-06,2024-12-05,株式会社ツールベストクオーレ,,株式会社,福井県,福井市,文京４丁目２番８号,,18,201,9100017,,,2024-12-05,清算の結了等,,,2021-03-04,1,,,,,ツールベストクオーレ,0
2184,8260005009920,登記記録の閉鎖等,0,2024-12-06,2024-12-04,一般社団法人池田動物園をおうえんする会,,その他の設立登記法人,岡山県,岡山市南区,福成３丁目１０－４３－１,,33,104,7028022,,,2024-12-04,清算の結了等,,,2015-10-05,1,,,,,イケダドウブツエンヲオウエンスルカイ,0
2195,8310002008325,登記記録の閉鎖等,0,2024-12-06,2024-12-02,有限会社リカーズ城栄,,有限会社,長崎県,西彼杵郡長与町,岡郷１４７４番地１５,,42,307,8512121,,,2024-12-02,合併による解散等,8310002008085,令和６年１２月１日長崎県西彼杵郡長与町岡郷１４７４番地１５株式会社酒のパワーズ（8310002008085）に合併し解散,2015-10-05,1,,,,,,0
2201,8330002013645,登記記録の閉鎖等,0,2024-12-06,2024-12-02,有限会社ヘスク,,有限会社,熊本県,熊本市中央区,下通１丁目５番２２号,,43,101,8600807,,,2024-12-02,合併による解散等,3330001022354,令和６年１２月１日熊本市中央区上通町５－２０上通セントラルハイツ２０３号株式会社ＳＨＡＬＩＭＡＲＳ（3330001022354）に合併し解散,2015-10-05,1,,,,,ヘスク,0
2209,8370001018071,登記記録の閉鎖等,0,2024-12-06,2024-12-02,株式会社庄栄興業,,株式会社,宮城県,仙台市泉区,長命ケ丘３丁目９番１号,,04,105,9813212,,,2024-12-02,清算の結了等,,,2015-10-05,1,,,,,ショウエイコウギョウ,0
2212,8370602001285,登記記録の閉鎖等,0,2024-12-06,2024-11-29,有限会社司精機,,有限会社,宮城県,多賀城市,新田字初向８４番地の５,,04,209,9850854,,,2024-11-29,清算の結了等,,,2015-10-05,1,,,,,ツカサセイキ,0
2216,8390005000726,登記記録の閉鎖等,0,2024-12-06,2024-12-02,山形市中央建具協同組合,,その他の設立登記法人,山形県,山形市,宮町２丁目１３番２９号,,06,201,9900057,,,2024-12-02,清算の結了等,,,2015-10-05,1,,,,,ヤマガタシチュウオウタテグ,0
2223,8450002002355,登記記録の閉鎖等,0,2024-12-06,2024-12-04,栄宅建有限会社,,有限会社,北海道,旭川市,東光八条４丁目４番１５号,,01,204,0788348,,,2024-12-04,清算の結了等,,,2015-10-05,1,,,,,サカエタクケン,0
2224,8450002010044,登記記録の閉鎖等,0,2024-12-06,2024-12-04,有限会社西村,,有限会社,北海道,上川郡下川町,錦町２１番地,,01,468,0981207,,,2024-12-04,清算の結了等,,,2015-10-05,1,,,,,ニシムラ,0
2230,9010001063012,登記記録の閉鎖等,0,2024-12-06,2024-11-25,株式会社テクノメディア,,株式会社,東京都,中央区,八丁堀１丁目３番７号双鶴八重洲ビル４階,,13,102,1040032,,,2024-11-25,清算の結了等,,,2015-10-05,1,,,,,テクノメディア,0
2234,9010001244578,登記記録の閉鎖等,0,2024-12-06,2024-12-03,Ｉｒｉｓホールディングス株式会社,,株式会社,東京都,千代田区,丸の内１丁目９番２号,,13,101,1000005,,,2024-12-03,合併による解散等,5120001077351,令和６年１１月６日東京都港区六本木三丁目１番１号イトキン株式会社（5120001077351）に合併し解散,2024-05-07,1,,,,,アイリスホールディングス,0
2247,9010501000183,登記記録の閉鎖等,0,2024-12-06,2024-11-29,株式会社秋山タイル店,,株式会社,東京都,台東区,西浅草３丁目２９番８号,,13,106,1110035,,,2024-11-29,清算の結了等,,,2015-10-05,1,,,,,アキヤマタイルテン,0
2248,9010501037267,登記記録の閉鎖等,0,2024-12-06,2024-12-02,株式会社ユニオンプロダクツ,,株式会社,岡山県,倉敷市,連島町連島１４２番地の２８９,,33,202,7128011,,,2024-12-02,清算の結了等,,,2015-10-05,1,,,,,ユニオンプロダクツ,0
2253,9010701009776,登記記録の閉鎖等,0,2024-12-06,2024-12-02,森和電気株式会社,,株式会社,東京都,品川区,西大井４丁目６番２０号,,13,109,1400015,,,2024-12-02,清算の結了等,,,2015-10-05,1,,,,,シンワデンキ,0
2256,9010801026655,登記記録の閉鎖等,0,2024-12-06,2024-11-28,株式会社光栄産業,,株式会社,東京都,大田区,東六郷２丁目８番２０号,,13,111,1440046,,,2024-11-28,清算の結了等,,,2016-04-28,1,,,,,,0
2268,9011001149899,登記記録の閉鎖等,0,2024-12-06,2024-11-11,日本森田医薬科技株式会社,,株式会社,東京都,渋谷区,代々木２丁目２３番１号,,13,113,1510053,,,2024-11-11,清算の結了等,,,2022-09-27,1,,,,,ニホンモリタイヤクカギ,0
2297,9013301039986,登記記録の閉鎖等,0,2024-12-06,2024-12-03,株式会社ＡＬＬ　ｏｎｅ,,株式会社,埼玉県,志木市,柏町１丁目１３番２０号,,11,228,3530007,,,2024-12-03,清算の結了等,,,2017-01-26,1,,,,,オールワン,0
2301,9020001054976,登記記録の閉鎖等,0,2024-12-06,2024-11-22,株式会社ＡＭＢＣ,,株式会社,神奈川県,横浜市都筑区,北山田２丁目２７番１－９０９号,,14,118,2240021,,,2024-11-22,清算の結了等,,,2015-10-05,1,,,,,エーエムビーシー,0
2351,9070002018802,登記記録の閉鎖等,0,2024-12-06,2024-12-02,有限会社ギャラリーライム,,有限会社,群馬県,伊勢崎市,東本町１５番地２,,10,204,3720025,,,2024-12-02,清算の結了等,,,2015-10-05,1,,,,,ギャラリーライム,0
2357,9080105002231,登記記録の閉鎖等,0,2024-12-06,2024-12-02,職業訓練法人国際ホテル・レストランアソシエーション,,その他の設立登記法人,静岡県,三島市,一番町１５番２９号,,22,206,4110036,,,2024-12-02,清算の結了等,,,2015-10-05,1,,,,,コクサイホテルレストランアソシエーション,0
2358,9080402006364,登記記録の閉鎖等,0,2024-12-06,2024-12-02,有限会社パナックひらの,,有限会社,静岡県,浜松市中央区,中郡町８３８番地の７,,22,138,4313111,,,2024-12-02,清算の結了等,,,2015-10-05,1,,,,,パナックヒラノ,0
2365,9110001006547,登記記録の閉鎖等,0,2024-12-06,2024-11-29,株式会社ヤマト不動産,,株式会社,新潟県,新潟市江南区,北山２８９番地３,,15,104,9500116,,,2024-11-29,清算の結了等,,,2015-10-05,1,,,,,ヤマトフドウサン,0
2376,9120001160640,登記記録の閉鎖等,0,2024-12-06,2024-12-02,株式会社ゼロ・コーポレーション,,株式会社,大阪府,門真市,上野口町５７番１１号,,27,223,5710070,,,2024-12-02,清算の結了等,,,2015-10-05,1,,,,,ゼロコーポレーション,0
2377,9120001193054,登記記録の閉鎖等,0,2024-12-06,2024-12-04,株式会社ＥＮサービス,,株式会社,大阪府,大阪市北区,西天満３丁目６－２２日宝北大阪屋ビル９０６,,27,127,5300047,,,2024-12-04,清算の結了等,,,2015-10-05,1,,,,,イーエヌサービス,0
2391,9140001111476,登記記録の閉鎖等,0,2024-12-06,2024-12-02,株式会社Ｐｕｍｐ　Ｆａｃｔｏｒｙ,,株式会社,兵庫県,尼崎市,七松町１丁目２０番２３号ＡＫＣビル２Ｆ,,28,202,6600052,,,2024-12-02,清算の結了等,,,2018-10-04,1,,,,,パンプファクトリー,0
2410,9180301024003,登記記録の閉鎖等,0,2024-12-06,2024-12-04,城南ハウジング株式会社,,株式会社,愛知県,新城市,富岡字門原野１６４番地,,23,221,4411335,,,2024-12-04,清算の結了等,,,2015-10-05,1,,,,,,0
2413,9190001029301,登記記録の閉鎖等,0,2024-12-06,2024-12-03,伊勢志摩企画株式会社,,株式会社,三重県,志摩市,阿児町鵜方２１６４,,24,215,5170501,,,2024-12-03,清算の結了等,,,2022-04-11,1,,,,,イセシマキカク,0
2416,9210001001926,登記記録の閉鎖等,0,2024-12-06,2024-12-05,株式会社鈴屋建設営繕,,株式会社,福井県,福井市,上野本町１丁目１９０５番地,,18,201,9100134,,,2024-12-05,清算の結了等,,,2015-10-05,1,,,,,スズヤケンセツエイゼン,0
2419,9220002016212,登記記録の閉鎖等,0,2024-12-06,2024-12-03,有限会社吉商会,00078547,有限会社,石川県,珠洲市,宝立町柏原ハ字５３番地,,17,205,9271228,,,2024-12-03,清算の結了等,,,2015-10-05,1,,,,,ヨシショウカイ,0
2429,9260002011969,登記記録の閉鎖等,0,2024-12-06,2024-12-02,有限会社競売コンサルタント,,有限会社,岡山県,岡山市北区,駅前町１丁目７番１８号,,33,101,7000023,,,2024-12-02,清算の結了等,,,2015-10-05,1,,,,,ケイバイコンサルタント,0
2436,9290801024169,登記記録の閉鎖等,0,2024-12-06,2024-12-02,株式会社フロムサーティ,,株式会社,福岡県,北九州市小倉北区,木町４丁目２番２号,,40,106,8030851,,,2024-12-02,合併による解散等,2290001067818,令和６年１２月１日北九州市小倉北区木町四丁目２番２号株式会社不動産のアスティー（2290001067818）に合併し解散,2017-12-05,1,,,,,フロムサーティ,0
2438,9300001000695,登記記録の閉鎖等,0,2024-12-06,2024-12-02,株式会社ビジネス・サービス,,株式会社,佐賀県,佐賀市,栄町２番８号,,41,201,8400803,,,2024-12-02,合併による解散等,4300001005303,令和６年１２月１日佐賀県武雄市北方町大字大崎１１００番地８株式会社ヒューテック（4300001005303）に合併し解散,2015-10-05,1,,,,,ビジネスサービス,0
2443,9330001030153,登記記録の閉鎖等,0,2024-12-06,2024-12-02,株式会社ルーズヴェルトＧ,,株式会社,熊本県,熊本市中央区,船場町２丁目４１番,,43,101,8600019,,,2024-12-02,合併による解散等,1330003005045,令和６年１２月１日熊本県上天草市大矢野町上８２３番地７４シーズンズ・インベストメント合同会社（1330003005045）に合併し解散,2022-10-07,1,,,,,ルーズヴェルトジー,0
2470,9430001016266,登記記録の閉鎖等,0,2024-12-06,2024-12-02,株式会社マネージメント総研,,株式会社,北海道,札幌市中央区,大通西５丁目１１番１号電通恒産札幌ビル３階,,01,101,0600042,,,2024-12-02,清算の結了等,,,2015-10-05,1,,,,,マネージメントソウケン,0
2480,9450002004540,登記記録の閉鎖等,0,2024-12-06,2024-12-04,有限会社フジワラ,,有限会社,北海道,旭川市,豊岡八条６丁目１番１６号,,01,204,0788238,,,2024-12-04,清算の結了等,,,2015-10-05,1,,,,,フジワラ,0
2483,9470001010133,登記記録の閉鎖等,0,2024-12-06,2024-12-02,株式会社ユーシー,,株式会社,香川県,観音寺市,柞田町甲４８６番地１,,37,205,7680040,,,2024-12-02,合併による解散等,4470001004866,令和６年１２月２日香川県高松市春日町１６４０番地３株式会社エヌプラス（4470001004866）に合併し解散,2015-10-05,1,,,,,ユーシー,0
2484,9470001011503,登記記録の閉鎖等,0,2024-12-06,2024-12-03,三好機械産業株式会社,,株式会社,香川県,東かがわ市,小海３０４８番地５,,37,207,7692908,,,2024-12-03,合併による解散等,2120001044197,令和６年１２月１日大阪市西区阿波座二丁目１番１号株式会社ＪＲＣ（2120001044197）に合併し解散,2015-10-05,1,,,,,ミヨシキカイサンギョウ,0
2487,9480003001864,登記記録の閉鎖等,0,2024-12-06,2024-12-03,合同会社凛,,合同会社,徳島県,徳島市,万代町７丁目１番地の６サーパス万代町４０２号室,,36,201,7700941,,,2024-12-03,清算の結了等,,,2022-08-09,1,,,,,リン,0
2489,9700150061845,登記記録の閉鎖等,0,2024-12-06,2024-07-31,世知原活性化施設利用者協議会,,その他,長崎県,佐世保市,世知原町開作７１－１,,42,202,8596405,,,2024-07-31,その他の清算の結了等,,,2015-10-09,1,,,,,セチバルカツセイカシセツリヨウシヤキヨウギカイ,0
2490,9700150095835,登記記録の閉鎖等,0,2024-12-06,2024-07-08,たっこ産直友の会,,その他,青森県,三戸郡田子町,大字田子字田子１７－１,,02,443,0390201,,,2024-07-08,その他の清算の結了等,,,2019-09-02,1,,,,,タツコサンチヨクトモノカイ,0
2491,9700150116814,登記記録の閉鎖等,0,2024-12-06,2024-06-28,武蔵野市体育協会,,その他,東京都,武蔵野市,吉祥寺北町５丁目１１－２０武蔵野総合体育館３Ｆ,,13,203,1800001,,,2024-06-28,その他の清算の結了等,,,2023-06-02,1,,,,,ムサシノシタイイクキヨウカイ,0
