sequenceNumber,corporateNumber,process,correct,updateDate,changeDate,name,nameImageId,kind,prefectureName,cityName,streetNumber,addressImageId,prefectureCode,cityCode,postCode,addressOutside,addressOutsideImageId,closeDate,closeCause,successorCorporateNumber,changeCause,assignmentDate,latest,enName,enPrefectureName,enCityName,enAddressOutside,furigana,hihyoji
10,1010001234157,新規,0,2023-04-20,2023-04-20,株式会社ヴァニア・グローバル・マーケッツ・ジャパン,,株式会社,東京都,千代田区,丸の内１丁目６番５号,,13,101,1000005,,,,,,,2023-04-20,1,,,,,ヴァニアグローバルマーケッツジャパン,0
11,1010001234660,新規,0,2023-04-20,2023-04-20,インフィニットリサーチ株式会社,,株式会社,東京都,千代田区,岩本町１丁目５－１３－３０６,,13,101,1010032,,,,,,,2023-04-20,1,,,,,インフィニットリサーチ,0
22,1010401173855,新規,0,2023-04-20,2023-04-20,株式会社ダダダ,,株式会社,東京都,港区,虎ノ門１丁目１番２１号虎ノ門実業会館５階,,13,103,1050001,,,,,,,2023-04-20,1,,,,,ダダダ,0
23,1010401173863,新規,0,2023-04-20,2023-04-20,株式会社Ｋｉｎｇｓ　Ｊａｐａｎ,,株式会社,東京都,港区,六本木１丁目９番１８号アークヒルズ仙谷山森タワー７０３,,13,103,1060032,,,,,,,2023-04-20,1,,,,,キングスジャパン,0
24,1010401173921,新規,0,2023-04-20,2023-04-20,株式会社エクタシス,,株式会社,東京都,港区,新橋５丁目１２番１１－９０５号,,13,103,1050004,,,,,,,2023-04-20,1,,,,,エクタシス,0
27,1010403029980,新規,0,2023-04-20,2023-04-20,花菱合同会社,,合同会社,東京都,港区,西新橋１丁目１番１号ＥＰコンサルティングサービス内,,13,103,1050003,,,,,,,2023-04-20,1,,,,,ハナビシ,0
29,1010405021985,新規,0,2023-04-20,2023-04-20,ＶＦＭ社会保険労務士法人,,その他の設立登記法人,東京都,港区,芝５丁目１番１号河田ビル３Ｆ,,13,103,1080014,,,,,,,2023-04-20,1,,,,,ブイエフエム,0
35,1010601062973,新規,0,2023-04-20,2023-04-20,株式会社ａＬＬｗ,,株式会社,東京都,江東区,白河３丁目５－５－４階,,13,108,1350021,,,,,,,2023-04-20,1,,,,,オール,0
51,1010901052897,新規,0,2023-04-20,2023-04-20,株式会社ａｏ,,株式会社,東京都,世田谷区,松原４丁目１３番１６号,,13,112,1560043,,,,,,,2023-04-20,1,,,,,,0
52,1010901052906,新規,0,2023-04-20,2023-04-20,株式会社ＣＣＸ,,株式会社,東京都,世田谷区,北沢２丁目１２番２号,,13,112,1550031,,,,,,,2023-04-20,1,,,,,シーシーエックス,0
53,1010901052914,新規,0,2023-04-20,2023-04-20,株式会社Ｗｈｉｔｅ　Ｌａｋｅ,,株式会社,東京都,世田谷区,上馬４丁目２番２４－２０１号,,13,112,1540011,,,,,,,2023-04-20,1,,,,,ホワイトレイク,0
58,1011001153933,新規,0,2023-04-20,2023-04-20,株式会社ＴＳＵＧ,,株式会社,東京都,目黒区,目黒本町１丁目１２番１２－１０１号,,13,110,1520002,,,,,,,2023-04-20,1,,,,,ツグ,0
59,1011001153941,新規,0,2023-04-20,2023-04-20,株式会社フクキタル,,株式会社,東京都,渋谷区,千駄ヶ谷２丁目３４番８号テラス外苑１０４号,,13,113,1510051,,,,,,,2023-04-20,1,,,,,フクキタル,0
68,1011103012946,新規,0,2023-04-20,2023-04-20,ＮＯＯＲＩＭＯＡ合同会社,,合同会社,東京都,新宿区,若松町８番８－４０４号,,13,104,1620056,,,,,,,2023-04-20,1,,,,,ヌリモア,0
71,1011303004727,新規,0,2023-04-20,2023-04-20,旭合同会社,,合同会社,東京都,杉並区,荻窪２丁目３４番２６号,,13,115,1670051,,,,,,,2023-04-20,1,,,,,アサヒ,0
73,1011403003975,新規,0,2023-04-20,2023-04-20,合同会社ブルースカイブルー,,合同会社,東京都,板橋区,南常盤台１丁目１１番６号レフア南常盤台１０１号室,,13,119,1740072,,,,,,,2023-04-20,1,,,,,ブルースカイブルー,0
77,1011703003444,新規,0,2023-04-20,2023-04-20,合同会社ライブフィールド,,合同会社,東京都,江戸川区,春江町４丁目１７番地１２藤和シティコープ一之江３０６,,13,123,1340003,,,,,,,2023-04-20,1,,,,,ライブフィールド,0
93,1013301050595,新規,0,2023-04-20,2023-04-20,株式会社ＢＯＡ　ＳＯＲＴＥ,,株式会社,東京都,豊島区,池袋２丁目６２－１－３０５号,,13,116,1710014,,,,,,,2023-04-20,1,,,,,ボアソルチ,0
94,1013301050629,新規,0,2023-04-20,2023-04-20,株式会社オフィスＭ,,株式会社,東京都,豊島区,南長崎５丁目１２番１０号,,13,116,1710052,,,,,,,2023-04-20,1,,,,,オフィスエム,0
95,1013301050637,新規,0,2023-04-20,2023-04-20,株式会社ＲＥＤ,,株式会社,東京都,豊島区,高田３丁目２１番５号キャスル高田馬場１０２号,,13,116,1710033,,,,,,,2023-04-20,1,,,,,レッド,0
100,1020001151186,新規,0,2023-04-20,2023-04-20,株式会社ライズ鉄工,,株式会社,神奈川県,横浜市港南区,上永谷５丁目１５番４号,,14,111,2330012,,,,,,,2023-04-20,1,,,,,ライズテッコウ,0
101,1020001151211,新規,0,2023-04-20,2023-04-20,株式会社ｂｒａｖｅｌｉｎｋ,,株式会社,神奈川県,横浜市西区,浅間町１丁目４－３－４０２,,14,103,2200072,,,,,,,2023-04-20,1,,,,,ブレイブリンク,0
102,1020001151269,新規,0,2023-04-20,2023-04-20,株式会社ＬＩＶＥ　ＮＥＴ,,株式会社,神奈川県,横浜市保土ケ谷区,仏向町１１９５番地,,14,106,2400044,,,,,,,2023-04-20,1,,,,,ライブネット,0
103,1020003023763,新規,0,2023-04-20,2023-04-20,ライトマック合同会社,,合同会社,神奈川県,横浜市泉区,上飯田町１２５５番地４,,14,116,2450018,,,,,,,2023-04-20,1,,,,,ライトマック,0
111,1030001153438,新規,0,2023-04-20,2023-04-20,株式会社Ｎ・ＭＯＴＯＲ,,株式会社,埼玉県,比企郡吉見町,大字上細谷１４９番地,,11,347,3550165,,,,,,,2023-04-20,1,,,,,エヌモーター,0
112,1030001153462,新規,0,2023-04-20,2023-04-20,株式会社チャンカ,,株式会社,埼玉県,川口市,南前川２丁目２５番１２号今井コーポ２０１,,11,203,3330846,,,,,,,2023-04-20,1,,,,,チャンカ,0
115,1040001128034,新規,0,2023-04-20,2023-04-20,Ｃａｍａｙａ　Ｓｎｏｗ　Ｊａｐａｎ株式会社,,株式会社,千葉県,千葉市美浜区,真砂３丁目１３番１２号,,12,106,2610011,,,,,,,2023-04-20,1,,,,,カマヤスノージャパン,0
117,1050001052737,新規,0,2023-04-20,2023-04-20,株式会社ＳＯＲＡ,,株式会社,茨城県,水戸市,姫子２丁目３３８－４,,08,201,3114151,,,,,,,2023-04-20,1,,,,,ソラ,0
123,1050003007433,新規,0,2023-04-20,2023-04-20,合同会社タテＸヨコ,,合同会社,茨城県,つくば市,桜３丁目８－６ユニヴェール桜３０３号室,,08,220,3050003,,,,,,,2023-04-20,1,,,,,タテヨコ,0
131,1070003004916,新規,0,2023-04-20,2023-04-20,ＤＯＮＧ　ＴＩＥＮ　ＴＵ合同会社,,合同会社,群馬県,前橋市,城東町２丁目１０番５－６０１号フィフティストームマンション５ｔｈ,,10,201,3710016,,,,,,,2023-04-20,1,,,,,ドンティエントゥ,0
137,1080101023924,新規,0,2023-04-20,2023-04-20,影山グループホールディングス株式会社,,株式会社,静岡県,沼津市,西間門２８番地の３,,22,203,4100871,,,,,,,2023-04-20,1,,,,,カゲヤマグループホールディングス,0
138,1080101023932,新規,0,2023-04-20,2023-04-20,株式会社３９ＴＯＫＹＯ　ＳＡＮ,,株式会社,静岡県,熱海市,上多賀１０２７番地の８,,22,205,4130101,,,,,,,2023-04-20,1,,,,,サーティーナイントーキョーサン,0
139,1080101023940,新規,0,2023-04-20,2023-04-20,株式会社内田カッター工業,,株式会社,静岡県,熱海市,下多賀７８８番地の８,,22,205,4130102,,,,,,,2023-04-20,1,,,,,ウチダカッターコウギョウ,0
164,1120001254144,新規,0,2023-04-20,2023-04-20,株式会社Ａ‐ＳＴＡＲＴ,,株式会社,大阪府,大阪市北区,西天満５丁目６－１０,,27,127,5300047,,,,,,,2023-04-20,1,,,,,エースタート,0
165,1120001254193,新規,0,2023-04-20,2023-04-20,飲羽株式会社,,株式会社,大阪府,大阪市天王寺区,生玉町１１－２９朝日プラザ高津第一１３０８号室,,27,109,5430071,,,,,,,2023-04-20,1,,,,,インウ,0
166,1120001254202,新規,0,2023-04-20,2023-04-20,株式会社フラワーエステート,,株式会社,大阪府,大阪市淀川区,野中南１丁目１１番２５－５０１号,,27,123,5320022,,,,,,,2023-04-20,1,,,,,フラワーエステート,0
167,1120001254210,新規,0,2023-04-20,2023-04-20,株式会社共鳴部,,株式会社,大阪府,大阪市北区,大淀南１丁目３番５－３０３号,,27,127,5310075,,,,,,,2023-04-20,1,,,,,キョウメイブ,0
168,1120001254235,新規,0,2023-04-20,2023-04-20,西遠特鋼株式会社,,株式会社,大阪府,大阪市天王寺区,東高津町３－３１タケオレジデンス２階Ｂ号室,,27,109,5430021,,,,,,,2023-04-20,1,,,,,セイエントッコウ,0
169,1120001254243,新規,0,2023-04-20,2023-04-20,株式会社フラットライン,,株式会社,大阪府,大阪市北区,鶴野町４番１１号朝日プラザ梅田２４６,,27,127,5300014,,,,,,,2023-04-20,1,,,,,フラットライン,0
174,1120003023885,新規,0,2023-04-20,2023-04-20,合同会社スタック・オリエンテーション,,合同会社,大阪府,大阪市西区,南堀江４丁目９－３６ジョエロ堀江１Ｆ,,27,106,5500015,,,,,,,2023-04-20,1,,,,,スタックオリエンテーション,0
178,1120101067413,新規,0,2023-04-20,2023-04-20,株式会社ＯＳＣ,,株式会社,大阪府,堺市西区,浜寺石津町中２丁１番３７－５０８号,,27,144,5928334,,,,,,,2023-04-20,1,,,,,オーエスシー,0
183,1122001036902,新規,0,2023-04-20,2023-04-20,寿建設株式会社,,株式会社,大阪府,東大阪市,源氏ケ丘１３番２７号,,27,227,5770822,,,,,,,2023-04-20,1,,,,,コトブキケンセツ,0
185,1130001074137,新規,0,2023-04-20,2023-04-20,株式会社ＪＩＮ,,株式会社,京都府,京都市下京区,河原町通松原上る二丁目富永町３５６番地京都四条河原町ビル３０２号,,26,106,6000000,,,,,,,2023-04-20,1,,,,,ジン,0
186,1130001074153,新規,0,2023-04-20,2023-04-20,株式会社３ＲＩＳＥ　ＰＲＯＤＵＣＴＩＯＮ,,株式会社,京都府,京都市左京区,松ケ崎雲路町１７番地１,,26,103,6060955,,,,,,,2023-04-20,1,,,,,サンライズプロダクション,0
200,1150001026326,新規,0,2023-04-20,2023-04-20,株式会社カナタ工務店,,株式会社,奈良県,大和高田市,大字曽大根１４４番地,,29,202,6350054,,,,,,,2023-04-20,1,,,,,カナタコウムテン,0
201,1150001026334,新規,0,2023-04-20,2023-04-20,ブライトライツホーム株式会社,,株式会社,奈良県,奈良市,高畑町７３５番地,,29,201,6308301,,,,,,,2023-04-20,1,,,,,ブライトライツホーム,0
206,1170003001861,新規,0,2023-04-20,2023-04-20,合同会社アイサン,,合同会社,和歌山県,橋本市,野４３６番地,,30,203,6480074,,,,,,,2023-04-20,1,,,,,アイサン,0
214,1180001155948,新規,0,2023-04-20,2023-04-20,株式会社アクサレンティア,,株式会社,愛知県,日進市,赤池４丁目５０４番地５,,23,230,4700125,,,,,,,2023-04-20,1,,,,,アクサレンティア,0
217,1180003025133,新規,0,2023-04-20,2023-04-20,ツードリーマーズ合同会社,,合同会社,愛知県,名古屋市東区,大幸４丁目６番１７号プレステージイルドＡ号,,23,102,4610043,,,,,,,2023-04-20,1,,,,,ツードリーマーズ,0
218,1180301037334,新規,0,2023-04-20,2023-04-20,株式会社シアリーチ,,株式会社,愛知県,岡崎市,明大寺町字池下６０番地,,23,202,4440864,,,,,,,2023-04-20,1,,,,,シアリーチ,0
221,1190001030349,新規,0,2023-04-20,2023-04-20,株式会社Ｎｅｘｔ　Ｌａｎｄ,,株式会社,三重県,四日市市,白須賀２丁目６番２号,,24,202,5100018,,,,,,,2023-04-20,1,,,,,ネクストランド,0
229,1200001041204,新規,0,2023-04-20,2023-04-20,岐阜フィルムコミッション株式会社,,株式会社,岐阜県,岐阜市,菅生１丁目４番３号,,21,201,5020914,,,,,,,2023-04-20,1,,,,,ギフフィルムコミッション,0
241,1240001061405,新規,0,2023-04-20,2023-04-20,株式会社Ｓ‐ＴＷＥＮＴＹＳＥＶＥＮ,,株式会社,広島県,広島市中区,河原町１番２４－１１０１号,,34,101,7300856,,,,,,,2023-04-20,1,,,,,エストゥエンティーセブン,0
242,1240005015563,新規,0,2023-04-20,2023-04-20,一般社団法人サタケ従業員持株会,,その他の設立登記法人,広島県,東広島市,西条西本町２番３０号,,34,212,7390043,,,,,,,2023-04-20,1,,,,,サタケジュウギョウインモチカブカイ,0
247,1270001008766,新規,0,2023-04-20,2023-04-20,株式会社常成工業,,株式会社,鳥取県,鳥取市,浜坂６丁目１６番２５－８号,,31,201,6800001,,,,,,,2023-04-20,1,,,,,ジョウセイコウギョウ,0
258,1290003013804,新規,0,2023-04-20,2023-04-20,合同会社ＢＨ,,合同会社,福岡県,柳川市,佃町２６４番地１１の１,,40,207,8320051,,,,,,,2023-04-20,1,,,,,ビーエイチ,0
259,1290003013820,新規,0,2023-04-20,2023-04-20,合同会社ＥＢＯＳ,,合同会社,福岡県,福岡市博多区,比恵町１－１８トーカン第２キャステール９０６号,,40,132,8120014,,,,,,,2023-04-20,1,,,,,イーボス,0
260,1290005019007,新規,0,2023-04-20,2023-04-20,一般社団法人滝沢克己記念館,,その他の設立登記法人,福岡県,福岡市東区,名島４丁目２４番１０号,,40,131,8130043,,,,,,,2023-04-20,1,,,,,タキザワカツミキネンカン,0
263,1320001019700,新規,0,2023-04-20,2023-04-20,株式会社藤誠建設工業,,株式会社,大分県,臼杵市,大字臼杵字新町６２７番地１,,44,206,8750041,,,,,,,2023-04-20,1,,,,,トウセイケンセツコウギョウ,0
270,1360001031916,新規,0,2023-04-20,2023-04-20,株式会社輝聖,,株式会社,沖縄県,うるま市,石川１丁目４８番４６号,,47,213,9041106,,,,,,,2023-04-20,1,,,,,キセイ,0
271,1360003012897,新規,0,2023-04-20,2023-04-20,合同会社琉球不動産,,合同会社,沖縄県,那覇市,首里大名町３丁目４番地,,47,201,9030802,,,,,,,2023-04-20,1,,,,,リュウキュウフドウサン,0
272,1360003012906,新規,0,2023-04-20,2023-04-20,オーシャンビュー石垣合同会社,,合同会社,沖縄県,石垣市,字川平１２１６番地６２７,,47,207,9070453,,,,,,,2023-04-20,1,,,,,オーシャンビューイシガキ,0
273,1360005006831,新規,0,2023-04-20,2023-04-20,一般社団法人ｋｏｋｕａ,,その他の設立登記法人,沖縄県,宜野湾市,宇地泊１丁目７番地２０号レキオススクエア宇地泊２階Ｄ,,47,205,9012227,,,,,,,2023-04-20,1,,,,,コクア,0
280,1380001015116,新規,0,2023-04-20,2023-04-20,南電機株式会社,,株式会社,福島県,いわき市,好間町大利字井田木１４０番地,,07,204,9701147,,,,,,,2023-04-20,1,,,,,ミナミデンキ,0
294,1430001088866,新規,0,2023-04-20,2023-04-20,株式会社和工,,株式会社,北海道,札幌市白石区,菊水元町五条２丁目５番９号,,01,104,0030825,,,,,,,2023-04-20,1,,,,,ワコウ,0
295,1430001088890,新規,0,2023-04-20,2023-04-20,株式会社Ｈ．Ｍ．Ｒ．,,株式会社,北海道,札幌市中央区,南三条東４丁目３番地１３ラ・クラッセ札幌シティイースト３０２号,,01,101,0600053,,,,,,,2023-04-20,1,,,,,エイチエムアール,0
296,1430001088957,新規,0,2023-04-20,2023-04-20,芳紀株式会社,,株式会社,北海道,石狩市,花川北五条２丁目１２４番地,,01,235,0613215,,,,,,,2023-04-20,1,,,,,ヨシキ,0
299,1450003002328,新規,0,2023-04-20,2023-04-20,合同会社エスケイ緑化,,合同会社,北海道,旭川市,末広東一条１０丁目６番２０号,,01,204,0718121,,,,,,,2023-04-20,1,,,,,,0
306,1480001012078,新規,0,2023-04-20,2023-04-20,株式会社ＨＡＳＩＢＵＮＥ,,株式会社,徳島県,徳島市,川内町大松９００番地の１９,,36,201,7710131,,,,,,,2023-04-20,1,,,,,ハシブネ,0
312,1700150115014,新規,0,2023-04-20,2023-03-28,住吉・城東地区町づくり協議会,,その他,徳島県,徳島市,住吉４丁目４－２５,,36,201,7700861,,,,,,,2023-03-28,1,,,,,スミヨシジヨウトウチクマチヅクリキヨウギカイ,0
313,1700150115311,新規,0,2023-04-20,2023-04-11,ラポルテ北館住宅一部管理組合,,その他,兵庫県,芦屋市,船戸町４－１－５０２,,28,206,6590093,,,,,,,2023-04-11,1,,,,,ラポルテキタカンジユウタクイチブカンリクミアイ,0
314,1700150115609,新規,0,2023-04-20,2023-04-20,Ｔａｉｚｈｏｕ　Ｄｏｎｇｘｉａｏ　Ｓｈａｎｇｍａｏ　Ｙｏｕｘｉａｎｚｅｒｅｎｇｏｎｇｓｉ,,外国会社等,,,,,,,,Ｔｈｅ　１ｓｔ　Ｒｏｏｍ　ｔｏ　ｔｈｅ　ｗｅｓｔ　ｏｆ　Ｂｕｉｌｄｉｎｇ　１３，Ｄｉｓｔｒｉｃｔ　２　Ｓｈａｎｘｉａｌａｎｇ　Ｖｉｌｌａｇｅ，Ｊｉａｎｇｋｏｕ　Ｓｔｒｅｅｔ，Ｈｕａｎｇｙａｎ　Ｄｉｓｔｒｉｃｔ，Ｔａｉｚｈｏｕ　Ｃｉｔｙ　Ｚｈｅｊｉａｎｇ　Ｐｒｏｖｉｎｃｅ　３１８０２０　ＣＮ,,,,,,2023-04-20,1,,,,,タイジョウドンシャオシャンマオヨウシエンゾーレンゴンスー,0
321,2010001234635,新規,0,2023-04-20,2023-04-20,イズミ株式会社,,株式会社,東京都,中央区,新富１丁目１５番１１－６０３号,,13,102,1040041,,,,,,,2023-04-20,1,,,,,イズミ,0
323,2010003040404,新規,0,2023-04-20,2023-04-20,Ｈｉｎｔｅｒ　Ｄｒａｃｈｅｎ合同会社,,合同会社,東京都,中央区,銀座１丁目１２番４号Ｎ＆ＥＢＬＤ．６Ｆ,,13,102,1040061,,,,,,,2023-04-20,1,,,,,ヒンタードラーヘン,0
324,2010005036549,新規,0,2023-04-20,2023-04-20,一般社団法人Ｄｏｃｔｏｃｋ,,その他の設立登記法人,東京都,中央区,銀座１丁目１２番４号Ｎ＆ＥＢＬＤ．６Ｆ,,13,102,1040061,,,,,,,2023-04-20,1,,,,,ドックトック,0
325,2010101015596,新規,0,2023-04-20,2023-04-20,株式会社ＲＹ　Ｔｒａｄｅ,,株式会社,東京都,八王子市,叶谷町１７０６番地１２,,13,201,1930815,,,,,,,2023-04-20,1,,,,,アールワイトレード,0
333,2010401173895,新規,0,2023-04-20,2023-04-20,株式会社Ｔｅ　ｉｕｂｅｓｃ,,株式会社,東京都,港区,南青山２丁目２－１５,,13,103,1070062,,,,,,,2023-04-20,1,,,,,テユベスク,0
336,2010405022017,新規,0,2023-04-20,2023-04-20,一般社団法人加飾技術研究会,,その他の設立登記法人,東京都,港区,西新橋２丁目８番１号,,13,103,1050003,,,,,,,2023-04-20,1,,,,,カショクギジュツケンキュウカイ,0
338,2010501050326,新規,0,2023-04-20,2023-04-20,株式会社パラミツ,,株式会社,東京都,台東区,柳橋１丁目２７番７号プレセンスサカ４０１,,13,106,1110052,,,,,,,2023-04-20,1,,,,,パラミツ,0
339,2010501050334,新規,0,2023-04-20,2023-04-20,株式会社クラウドワン,,株式会社,東京都,台東区,東上野４丁目１７番７号藤和上野コープ５０６号,,13,106,1100015,,,,,,,2023-04-20,1,,,,,クラウドワン,0
344,2010601062964,新規,0,2023-04-20,2023-04-20,株式会社ＬＤＫ,,株式会社,東京都,江東区,豊洲３丁目４番１－３３０１号,,13,108,1350061,,,,,,,2023-04-20,1,,,,,エルディーケー,0
345,2010601062980,新規,0,2023-04-20,2023-04-20,株式会社キャリング,,株式会社,東京都,墨田区,立花６丁目１番７号,,13,107,1310043,,,,,,,2023-04-20,1,,,,,キャリング,0
352,2010901052896,新規,0,2023-04-20,2023-04-20,株式会社ＺＩＧＥＮ,,株式会社,東京都,世田谷区,喜多見９丁目６番１号,,13,112,1570067,,,,,,,2023-04-20,1,,,,,,0
353,2010901052913,新規,0,2023-04-20,2023-04-20,株式会社Ｒｅ‐Ｎｅｃｔ,,株式会社,東京都,世田谷区,代沢５丁目８－１３クリークス代沢レジデンス４０１号,,13,112,1550032,,,,,,,2023-04-20,1,,,,,,0
358,2011001153916,新規,0,2023-04-20,2023-04-20,株式会社リユースプラス,,株式会社,東京都,渋谷区,道玄坂１丁目１０番８号渋谷道玄坂東急ビル２Ｆ－Ｃ,,13,113,1500043,,,,,,,2023-04-20,1,,,,,リユースプラス,0
359,2011001153940,新規,0,2023-04-20,2023-04-20,株式会社ＵＮＩＴＥＤ　ＣＯＤＥ,,株式会社,東京都,渋谷区,代々木４丁目２２－１２,,13,113,1510053,,,,,,,2023-04-20,1,,,,,ユナイテッドコード,0
362,2011101102525,新規,0,2023-04-20,2023-04-20,株式会社ＩＴＬプランニング,,株式会社,東京都,新宿区,西新宿３丁目３番１３号西新宿水間ビル２Ｆ,,13,104,1600023,,,,,,,2023-04-20,1,,,,,アイティエルプランニング,0
363,2011101102599,新規,0,2023-04-20,2023-04-20,日本早稲田製薬株式会社,,株式会社,東京都,新宿区,百人町２丁目１番４５号赤煉瓦２３７,,13,104,1690073,,,,,,,2023-04-20,1,,,,,ニホンワセダセイヤク,0
364,2011201024594,新規,0,2023-04-20,2023-04-20,フェニックス電子株式会社,,株式会社,東京都,中野区,中央３丁目３番５号,,13,114,1640011,,,,,,,2023-04-20,1,,,,,フェニックスデンシ,0
370,2011401025070,新規,0,2023-04-20,2023-04-20,株式会社Ｓｔａｒｒｉｖｅｒｓｅ,,株式会社,東京都,板橋区,高島平９丁目５番１０－５０２号,,13,119,1750082,,,,,,,2023-04-20,1,,,,,スターリバース,0
374,2011501029194,新規,0,2023-04-20,2023-04-20,青花貿易株式会社,,株式会社,東京都,北区,浮間１丁目１番１４号リムジンビル１０１,,13,117,1150051,,,,,,,2023-04-20,1,,,,,アオバナボウエキ,0
378,2011701026165,新規,0,2023-04-20,2023-04-20,株式会社ｓｔｙｌｅ,,株式会社,東京都,江戸川区,春江町３丁目２１－５－１階,,13,123,1320003,,,,,,,2023-04-20,1,,,,,スタイル,0
382,2012301013388,新規,0,2023-04-20,2023-04-20,株式会社プラナスサポート,,株式会社,東京都,町田市,相原町７３７番地,,13,209,1940211,,,,,,,2023-04-20,1,,,,,プラナスサポート,0
390,2013301050611,新規,0,2023-04-20,2023-04-20,ＧＬデジタルソリューションズ株式会社,,株式会社,東京都,豊島区,南大塚３丁目４４番１３号,,13,116,1700005,,,,,,,2023-04-20,1,,,,,ジーエルデジタルソリューションズ,0
391,2013301050644,新規,0,2023-04-20,2023-04-20,株式会社日本トレカセンター,,株式会社,東京都,豊島区,東池袋１丁目１２番１３号,,13,116,1700013,,,,,,,2023-04-20,1,,,,,ニホントレカセンター,0
392,2013303006594,新規,0,2023-04-20,2023-04-20,合同会社Ｔｏｌｉｌｉｅｎエンターテイメント,,合同会社,東京都,豊島区,上池袋４丁目２番地１号,,13,116,1700012,,,,,,,2023-04-20,1,,,,,トリリエンエンターテイメント,0
401,2020001151210,新規,0,2023-04-20,2023-04-20,株式会社川崎不動産コンサルティング,,株式会社,神奈川県,川崎市幸区,幸町３丁目１３番地４１,,14,132,2120011,,,,,,,2023-04-20,1,,,,,カワサキフドウサンコンサルティング,0
405,2020003023762,新規,0,2023-04-20,2023-04-20,Ｙｏｕ　Ｃｏｒｐｏｒａｔｉｏｎ合同会社,,合同会社,神奈川県,横浜市中区,吉田町２番７号ＶＡＬＳ吉田町３０３,,14,104,2310041,,,,,,,2023-04-20,1,,,,,ユウコーポレーション,0
406,2020005015956,新規,0,2023-04-20,2023-04-20,協栄会建設協同組合,,その他の設立登記法人,神奈川県,横浜市港北区,北新横浜１丁目７番地８,,14,109,2230059,,,,,,,2023-04-20,1,,,,,キョウエイカイケンセツ,0
417,2030001153437,新規,0,2023-04-20,2023-04-20,ラーナ株式会社,,株式会社,埼玉県,北本市,本宿５丁目１５３番地２０,,11,233,3640005,,,,,,,2023-04-20,1,,,,,ラーナ,0
418,2030001153511,新規,0,2023-04-20,2023-04-20,株式会社スリースターズ,,株式会社,埼玉県,さいたま市西区,大字内野本郷４２４番地１０３,,11,101,3310045,,,,,,,2023-04-20,1,,,,,スリースターズ,0
419,2030001153544,新規,0,2023-04-20,2023-04-20,株式会社エイチティー,,株式会社,埼玉県,所沢市,弥生町１８７６番地の２３,,11,208,3590043,,,,,,,2023-04-20,1,,,,,エイチティー,0
420,2030003021617,新規,0,2023-04-20,2023-04-20,合同会社シトリン,,合同会社,埼玉県,さいたま市浦和区,領家５丁目１２番１６‐１号,,11,107,3300072,,,,,,,2023-04-20,1,,,,,シトリン,0
423,2040001128025,新規,0,2023-04-20,2023-04-20,陽なたスマイルケア株式会社,,株式会社,千葉県,船橋市,宮本１丁目２２番１０オネスティ船橋五番館１１０２号,,12,204,2730003,,,,,,,2023-04-20,1,,,,,ヒナタスマイルケア,0
424,2040001128058,新規,0,2023-04-20,2023-04-20,株式会社プローゼン・コンサルティング,,株式会社,千葉県,千葉市美浜区,中瀬２丁目６番地１,,12,106,2610023,,,,,,,2023-04-20,1,,,,,プローゼンコンサルティング,0
426,2050001052694,新規,0,2023-04-20,2023-04-20,株式会社メディウェルフ,,株式会社,茨城県,神栖市,大野原４丁目２番５８－８号,,08,232,3140144,,,,,,,2023-04-20,1,,,,,メディウェルフ,0
427,2050001052728,新規,0,2023-04-20,2023-04-20,拓跳株式会社,,株式会社,茨城県,水戸市,酒門町３９８０番地の６３,,08,201,3100841,,,,,,,2023-04-20,1,,,,,タクト,0
431,2060001035905,新規,0,2023-04-20,2023-04-20,株式会社大澤建材,,株式会社,栃木県,佐野市,富岡町１６０７番地２,,09,204,3270844,,,,,,,2023-04-20,1,,,,,オオサワケンザイ,0
434,2070001040334,新規,0,2023-04-20,2023-04-20,株式会社ＰａＭ,,株式会社,群馬県,利根郡みなかみ町,羽場１２３６,,10,449,3791412,,,,,,,2023-04-20,1,,,,,,0
435,2070001040359,新規,0,2023-04-20,2023-04-20,ＳＫＩ株式会社,,株式会社,群馬県,高崎市,本町１４番地１ＫＴビル２Ｆ,,10,202,3700813,,,,,,,2023-04-20,1,,,,,エスケイアイ,0
436,2080101023923,新規,0,2023-04-20,2023-04-20,株式会社アセットシード６ｔｈ,,株式会社,静岡県,駿東郡長泉町,東野１４３番地の１９,,22,342,4110931,,,,,,,2023-04-20,1,,,,,アセットシードシックス,0
437,2080101023931,新規,0,2023-04-20,2023-04-20,株式会社３９ＴＯＫＹＯ　ＮＩ,,株式会社,静岡県,熱海市,上多賀１０２７番地の８,,22,205,4130101,,,,,,,2023-04-20,1,,,,,サーティーナイントーキョーニ,0
441,2080401026444,新規,0,2023-04-20,2023-04-20,峯商事株式会社,,株式会社,静岡県,磐田市,森下９８番地１－１０１号,,22,211,4380834,,,,,,,2023-04-20,1,,,,,ミネショウジ,0
456,2120001253946,新規,0,2023-04-20,2023-04-20,ジェアンドシー・ケミカル株式会社,,株式会社,大阪府,大阪市阿倍野区,阿倍野筋５丁目３－１３,,27,119,5450052,,,,,,,2023-04-20,1,,,,,ジェアンドシーケミカル,0
457,2120001254192,新規,0,2023-04-20,2023-04-20,株式会社ＦｏｒＳｅｎｉｏｒ,,株式会社,大阪府,大阪市中央区,難波２丁目３番７号,,27,128,5420076,,,,,,,2023-04-20,1,,,,,フォーシニア,0
458,2120001254218,新規,0,2023-04-20,2023-04-20,株式会社コミニケ・ケアサービス,,株式会社,大阪府,大阪市北区,天満４丁目１番２号,,27,127,5300043,,,,,,,2023-04-20,1,,,,,コミニケケアサービス,0
459,2120001254226,新規,0,2023-04-20,2023-04-20,株式会社オーシャンエス,,株式会社,大阪府,大阪市北区,梅田１丁目２番２号大阪駅前第２ビル１２－１２,,27,127,5300001,,,,,,,2023-04-20,1,,,,,オーシャンエス,0
460,2120001254234,新規,0,2023-04-20,2023-04-20,株式会社ＵＩＵ,,株式会社,大阪府,大阪市阿倍野区,昭和町５丁目１番４号,,27,119,5450011,,,,,,,2023-04-20,1,,,,,ユーアイユー,0
461,2120001254242,新規,0,2023-04-20,2023-04-20,株式会社ＭＢＴ　ＳＥＣＵＲＩＴＹ,,株式会社,大阪府,大阪市中央区,淡路町４丁目３番５号,,27,128,5410047,,,,,,,2023-04-20,1,,,,,エムビーティセキュリティ,0
468,2120101067395,新規,0,2023-04-20,2023-04-20,日本宇宙総合商事株式会社,,株式会社,大阪府,泉南郡田尻町,吉見１０７０番２２,,27,362,5980092,,,,,,,2023-04-20,1,,,,,ニホンウチュウソウゴウショウジ,0
469,2120101067412,新規,0,2023-04-20,2023-04-20,株式会社ケイズテック,,株式会社,大阪府,岸和田市,八幡町１７－５,,27,202,5960023,,,,,,,2023-04-20,1,,,,,ケイズテック,0
471,2122001036901,新規,0,2023-04-20,2023-04-20,ＫＩＳＩ株式会社,,株式会社,大阪府,八尾市,高美町５丁目６－８５,,27,212,5810017,,,,,,,2023-04-20,1,,,,,キシ,0
479,2130001074136,新規,0,2023-04-20,2023-04-20,株式会社藤井設備工事,,株式会社,京都府,京都市中京区,西ノ京馬代町８番地１,,26,104,6048457,,,,,,,2023-04-20,1,,,,,フジイセツビコウジ,0
480,2130001074144,新規,0,2023-04-20,2023-04-20,株式会社アポロ,,株式会社,京都府,京都市中京区,伊勢屋町３５４番地１,,26,104,6048066,,,,,,,2023-04-20,1,,,,,アポロ,0
481,2130001074152,新規,0,2023-04-20,2023-04-20,ＳＨＯ’Ｓ　ＬＩＦＥ株式会社,,株式会社,京都府,京都市山科区,椥辻西浦町４１番地８５椥辻団地Ａ－７１０,00130189,26,110,6078169,,,,,,,2023-04-20,1,,,,,ショーズライフ,0
482,2130003008678,新規,0,2023-04-20,2023-04-20,合同会社エンデュランス,,合同会社,京都府,京都市中京区,御幸町通竹屋町上る毘沙門町５３５番地,,26,104,6040981,,,,,,,2023-04-20,1,,,,,エンデュランス,0
488,2140001129830,新規,0,2023-04-20,2023-04-20,株式会社こじま設備,,株式会社,兵庫県,姫路市,五軒邸１丁目５１番地,,28,201,6700854,,,,,,,2023-04-20,1,,,,,コジマセツビ,0
489,2140001129847,新規,0,2023-04-20,2023-04-20,ＹＵ‐ＫＹＯ建設株式会社,,株式会社,兵庫県,姫路市,広畑区才８３９番地５アスリートハイツ２０２号,,28,201,6711104,,,,,,,2023-04-20,1,,,,,ユーキョーケンセツ,0
490,2140001129855,新規,0,2023-04-20,2023-04-20,株式会社モデル・エレクトロニック,,株式会社,兵庫県,神戸市灘区,摩耶海岸通２丁目３番１３号,,28,102,6570855,,,,,,,2023-04-20,1,,,,,モデルエレクトロニック,0
498,2150001026325,新規,0,2023-04-20,2023-04-20,株式会社肉のコメダ,,株式会社,奈良県,御所市,大字玉手３３１番地の１,,29,208,6392247,,,,,,,2023-04-20,1,,,,,ニクノコメダ,0
509,2180301037333,新規,0,2023-04-20,2023-04-20,株式会社ルシュクル,,株式会社,愛知県,豊橋市,羽根井本町１２４番地,,23,201,4418029,,,,,,,2023-04-20,1,,,,,ルシュクル,0
511,2190001030348,新規,0,2023-04-20,2023-04-20,株式会社コマハウス,,株式会社,三重県,鈴鹿市,北江島町３２番２０号,,24,207,5100232,,,,,,,2023-04-20,1,,,,,コマハウス,0
524,2240001061404,新規,0,2023-04-20,2023-04-20,株式会社結ホールディングス,,株式会社,広島県,広島市南区,東駅町１番６－６,,34,103,7320801,,,,,,,2023-04-20,1,,,,,ユイホールディングス,0
526,2240003006076,新規,0,2023-04-20,2023-04-20,ミロク合同会社,,合同会社,広島県,呉市,吉浦本町１丁目６番１８号,,34,202,7370861,,,,,,,2023-04-20,1,,,,,ミロク,0
543,2290001101205,新規,0,2023-04-20,2023-04-20,株式会社オモイノチカラ,,株式会社,福岡県,福岡市博多区,博多駅東３丁目１番４号タカ福岡ビル５階,,40,132,8120013,,,,,,,2023-04-20,1,,,,,オモイノチカラ,0
544,2290001101221,新規,0,2023-04-20,2023-04-20,株式会社サンワ工建,,株式会社,福岡県,福岡市西区,周船寺３丁目２２番１８号,,40,135,8190373,,,,,,,2023-04-20,1,,,,,サンワコウケン,0
545,2290001101270,新規,0,2023-04-20,2023-04-20,株式会社Ａ＆Ａ　ＩＮＴＥＲＮＡＴＩＯＮＡＬ　ＣＯＮＳＵＬＴＩＮＧ,,株式会社,福岡県,福岡市博多区,博多駅前２丁目１９番１７号トーカン博多第５ビル３１２号室,,40,132,8120011,,,,,,,2023-04-20,1,,,,,エーアンドエーインターナショナルコンサルティング,0
552,2320001019699,新規,0,2023-04-20,2023-04-20,株式会社イントラスト,,株式会社,大分県,大分市,大字八幡１６４９番地の１,,44,201,8700100,,,,,,,2023-04-20,1,,,,,イントラスト,0
557,2330005010653,新規,0,2023-04-20,2023-04-20,一般社団法人太陽福祉会,,その他の設立登記法人,熊本県,水俣市,袋３６５番５,,43,205,8670034,,,,,,,2023-04-20,1,,,,,タイヨウフクシカイ,0
566,2370001049873,新規,0,2023-04-20,2023-04-20,株式会社東北フリーランス,,株式会社,宮城県,仙台市青葉区,国分町３丁目３番１号定禅寺ヒルズ５階,,04,101,9800803,,,,,,,2023-04-20,1,,,,,トウホクフリーランス,0
571,2380001033637,新規,0,2023-04-20,2023-04-20,株式会社Ｅｌｉｇｉｔｅｌ,,株式会社,福島県,いわき市,常磐下湯長谷町２丁目１８番地,,07,204,9728317,,,,,,,2023-04-20,1,,,,,エリジテル,0
575,2400005008327,新規,0,2023-04-20,2023-04-20,医療法人啓仁会,,その他の設立登記法人,岩手県,盛岡市,神明町１０番３５号,,03,201,0200884,,,,,,,2023-04-20,1,,,,,ケイジンカイ,0
582,2430001088898,新規,0,2023-04-20,2023-04-20,エイチスリー株式会社,,株式会社,北海道,札幌市北区,北四十条西４丁目２番７号,,01,102,0010040,,,,,,,2023-04-20,1,,,,,エイチスリー,0
583,2430001088948,新規,0,2023-04-20,2023-04-20,株式会社Ｓｕｐｅｒ　Ｆａｓｔ　Ａｃｔｉｏｎ,,株式会社,北海道,札幌市西区,西野五条２丁目８番１８号,,01,107,0630035,,,,,,,2023-04-20,1,,,,,スーパーファストアクション,0
587,2430003014943,新規,0,2023-04-20,2023-04-20,合同会社ｑｕａｎ２３,,合同会社,北海道,札幌市清田区,平岡二条２丁目７－５　１０３,,01,110,0040872,,,,,,,2023-04-20,1,,,,,クオンニジューサン,0
588,2430003014992,新規,0,2023-04-20,2023-04-20,合同会社カリン,,合同会社,北海道,札幌市東区,中沼町６０番４７,,01,103,0070890,,,,,,,2023-04-20,1,,,,,カリン,0
591,2450003002327,新規,0,2023-04-20,2023-04-20,合同会社羽衣製麺,00130196,合同会社,北海道,上川郡東川町,東町２丁目３－１７,,01,458,0711423,,,,,,,2023-04-20,1,,,,,ハゴロモセイメン,0
600,2500002013336,新規,0,2023-04-20,2023-04-20,太陽建設有限会社,,有限会社,愛媛県,西宇和郡伊方町,釜木２２２番地１,,38,442,7960815,,,,,,,2023-04-20,1,,,,,タイヨウケンセツ,0
604,2700150115310,新規,0,2023-04-20,2023-04-11,ラポルテ西館管理組合店舗部会,,その他,兵庫県,芦屋市,船戸町４－１－５０２,,28,206,6590093,,,,,,,2023-04-11,1,,,,,ラポルテニシカンカンリクミアイテンポブカイ,0
605,2700150115608,新規,0,2023-04-20,2023-04-20,Ｓｈｅｎｚｈｅｎ　Ｌｕｙｕｅ　Ｓｉｌｉｃｏｎｅ　Ｐｒｏｄｕｃｔｓ　Ｔｅｃｈ　Ｃｏ．，ＬＴＤ,,外国会社等,,,,,,,,１７Ａ０８　Ｃ　Ａｒｅａ　ＮＯ．２　Ｂｕｉｌｄｉｎｇ　１ｓｔ　Ｈｕａｎａｎ　Ｒｏａｄ　Ｐｉｎｇｈｕ　ｔｏｗｎ　Ｓｈｅｎｚｈｅｎ　Ｇｕａｎｇｄｏｎｇ　５１８１１１　ＣＮ,,,,,,2023-04-20,1,,,,,シェンジェンシールーユエグイジャオジーピンコージーヨウシエンゴンスー,0
611,3010005036515,新規,0,2023-04-20,2023-04-20,一般財団法人世界イマーシブラーニング推進協会,,その他の設立登記法人,東京都,中央区,日本橋兜町９番５号,,13,102,1030026,,,,,,,2023-04-20,1,,,,,セカイイマーシブラーニングスイシンキョウカイ,0
620,3010401173853,新規,0,2023-04-20,2023-04-20,株式会社シルキースタイルＧＢ,,株式会社,東京都,港区,浜松町２丁目１３番１２号,,13,103,1050013,,,,,,,2023-04-20,1,,,,,シルキースタイルジービー,0
621,3010401173894,新規,0,2023-04-20,2023-04-20,株式会社８Ｋ８エンタテインメント,,株式会社,東京都,港区,赤坂４丁目８番１９号赤坂フロントタウン３階,,13,103,1070052,,,,,,,2023-04-20,1,,,,,エイトケーエイトエンタテインメント,0
624,3010403029954,新規,0,2023-04-20,2023-04-20,Ａｃｃｅｓｓ合同会社,,合同会社,東京都,港区,芝公園１丁目２番１７号,,13,103,1050011,,,,,,,2023-04-20,1,,,,,アクセス,0
625,3010403029979,新規,0,2023-04-20,2023-04-20,南天合同会社,,合同会社,東京都,港区,西新橋１丁目１番１号ＥＰコンサルティングサービス内,,13,103,1050003,,,,,,,2023-04-20,1,,,,,ナンテン,0
628,3010501050333,新規,0,2023-04-20,2023-04-20,株式会社トロピカルハウス,,株式会社,東京都,台東区,浅草橋５丁目２－３鈴和ビル２Ｆ,,13,106,1110053,,,,,,,2023-04-20,1,,,,,トロピカルハウス,0
633,3010603010111,新規,0,2023-04-20,2023-04-20,日野原合同会社,,合同会社,東京都,墨田区,八広２丁目５３番６－１００１号アイルグランデ押上イースト,,13,107,1310041,,,,,,,2023-04-20,1,,,,,ヒノハラ,0
637,3010901052895,新規,0,2023-04-20,2023-04-20,株式会社Ｒｕｎｎｅｒ　ＵＰ　Ｐｌｕｓ,,株式会社,東京都,世田谷区,若林１丁目１６－１ティーガーデン６０１,,13,112,1540023,,,,,,,2023-04-20,1,,,,,,0
643,3011001153816,新規,0,2023-04-20,2023-04-20,株式会社ウル,,株式会社,東京都,渋谷区,渋谷２丁目１９番１５宮益坂ビルディング６０９,,13,113,1500002,,,,,,,2023-04-20,1,,,,,ウル,0
644,3011001153832,新規,0,2023-04-20,2023-04-20,株式会社ＥＸＥＲＴＩＯＮ,,株式会社,東京都,渋谷区,道玄坂１丁目１０番８号渋谷道玄坂東急ビル２Ｆ－Ｃ,,13,113,1500043,,,,,,,2023-04-20,1,,,,,エグザシオン,0
645,3011001153915,新規,0,2023-04-20,2023-04-20,株式会社ＯＫ２,,株式会社,東京都,渋谷区,神宮前６丁目２３番４号桑野ビル２Ｆ,,13,113,1500001,,,,,,,2023-04-20,1,,,,,オーケーツー,0
646,3011001153956,新規,0,2023-04-20,2023-04-20,株式会社しんめ,,株式会社,東京都,渋谷区,道玄坂１丁目１０番８号渋谷道玄坂東急ビル２Ｆ－Ｃ,,13,113,1500043,,,,,,,2023-04-20,1,,,,,シンメ,0
648,3011005010039,新規,0,2023-04-20,2023-04-20,特定非営利活動法人ＺＥＫＫＡ,,その他の設立登記法人,東京都,渋谷区,神宮前６丁目２３番４号桑野ビル２Ｆ,,13,113,1500001,,,,,,,2023-04-20,1,,,,,ゼッカ,0
655,3011101102598,新規,0,2023-04-20,2023-04-20,株式会社Ｋ＆Ｓパートナーズ,,株式会社,東京都,新宿区,歌舞伎町２丁目１１番２号,,13,104,1600021,,,,,,,2023-04-20,1,,,,,ケイアンドエスパートナーズ,0
656,3011101102607,新規,0,2023-04-20,2023-04-20,株式会社ｒｅｆｉｎｅ,,株式会社,東京都,新宿区,西新宿７丁目５番８号ＧＯＷＡ西新宿５階,,13,104,1600023,,,,,,,2023-04-20,1,,,,,リファイン,0
657,3011103012960,新規,0,2023-04-20,2023-04-20,合同会社Ｐｉｓｃｅｓ　Ｅｉｇｈｔ,,合同会社,東京都,新宿区,新宿６丁目２７番２９－８０８号コンフォリア新宿イーストサイドタワー,,13,104,1600022,,,,,,,2023-04-20,1,,,,,パイシーズエイト,0
659,3011201024593,新規,0,2023-04-20,2023-04-20,株式会社アールプランニング,,株式会社,東京都,中野区,中央１丁目２１番２,,13,114,1640011,,,,,,,2023-04-20,1,,,,,アールプランニング,0
661,3011303004733,新規,0,2023-04-20,2023-04-20,合同会社羽音,,合同会社,東京都,杉並区,善福寺２丁目２－１４,,13,115,1670041,,,,,,,2023-04-20,1,,,,,ウタ,0
673,3011703003450,新規,0,2023-04-20,2023-04-20,ベンチャーエクスプレス合同会社,,合同会社,東京都,江戸川区,東葛西５丁目１１番１５号,,13,123,1340084,,,,,,,2023-04-20,1,,,,,ベンチャーエクスプレス,0
675,3011801042268,新規,0,2023-04-20,2023-04-20,株式会社モノリンク,,株式会社,東京都,足立区,東和４丁目２３番１０号,,13,121,1200003,,,,,,,2023-04-20,1,,,,,,0
681,3012703002673,新規,0,2023-04-20,2023-04-20,上水南町合同会社,,合同会社,東京都,小平市,上水南町１丁目１番１６号,,13,211,1870021,,,,,,,2023-04-20,1,,,,,ジョウスイミナミチョウ,0
684,3013301050602,新規,0,2023-04-20,2023-04-20,株式会社エイト,,株式会社,東京都,豊島区,東池袋２丁目６３番１号東池袋パレス４０８号室,,13,116,1700013,,,,,,,2023-04-20,1,,,,,エイト,0
689,3020001151102,新規,0,2023-04-20,2023-04-20,株式会社卜部総業,,株式会社,神奈川県,横浜市都筑区,加賀原１丁目２１番６号ルミエールＦ１０２号室,,14,118,2240055,,,,,,,2023-04-20,1,,,,,ウラベソウギョウ,0
690,3020001151127,新規,0,2023-04-20,2023-04-20,株式会社エンジョイ,,株式会社,神奈川県,川崎市多摩区,菅仙谷３丁目２番１５号ジュネスヒヤマ１０５,,14,135,2140006,,,,,,,2023-04-20,1,,,,,エンジョイ,0
691,3020001151201,新規,0,2023-04-20,2023-04-20,株式会社ワイズパッケージ,,株式会社,神奈川県,横浜市都筑区,池辺町４７０４番４０３－２号,,14,118,2240053,,,,,,,2023-04-20,1,,,,,ワイズパッケージ,0
695,3020003023720,新規,0,2023-04-20,2023-04-20,ＫＹＭ合同会社,,合同会社,神奈川県,横浜市都筑区,荏田東１丁目２３―３３,,14,118,2240006,,,,,,,2023-04-20,1,,,,,ケーワイエム,0
696,3020005015955,新規,0,2023-04-20,2023-04-20,ＮＰＯ法人ラオン,,その他の設立登記法人,神奈川県,横浜市西区,浜松町１０番地２号,,14,103,2200055,,,,,,,2023-04-20,1,,,,,ラオン,0
698,3021001078780,新規,0,2023-04-20,2023-04-20,七福ホテルマネジメント株式会社,,株式会社,神奈川県,足柄下郡箱根町,元箱根１５９番地の７１箱根七福荘１００号室,,14,382,2500522,,,,,,,2023-04-20,1,,,,,シチフクホテルマネジメント,0
699,3021001078797,新規,0,2023-04-20,2023-04-20,Ｔｅｃｈ　Ｉｎｆｉｎｉｔｙ株式会社,,株式会社,神奈川県,相模原市中央区,相模原５丁目６番３号セレッソ１０２,,14,152,2520231,,,,,,,2023-04-20,1,,,,,テックインフィニティ,0
704,3021003012993,新規,0,2023-04-20,2023-04-20,合同会社ＲＩＶＥＲ　ＳＯＵＮＤ,,合同会社,神奈川県,大和市,上和田８１４番地,,14,213,2420014,,,,,,,2023-04-20,1,,,,,リバーサウンド,0
709,3030001153444,新規,0,2023-04-20,2023-04-20,株式会社ルーフィン,,株式会社,埼玉県,新座市,畑中１丁目１６番４１号,,11,230,3520012,,,,,,,2023-04-20,1,,,,,ルーフィン,0
710,3030001153452,新規,0,2023-04-20,2023-04-20,株式会社ＬＯＴＵＳ,,株式会社,埼玉県,春日部市,六軒町３１６番地リバーサイドＹＫＩＩ２０２,00130190,11,214,3440012,,,,,,,2023-04-20,1,,,,,ロータス,0
711,3030001153535,新規,0,2023-04-20,2023-04-20,株式会社萬田,,株式会社,埼玉県,北葛飾郡杉戸町,大字才羽１４７７番地,,11,464,3450014,,,,,,,2023-04-20,1,,,,,マンダ,0
714,3030005021218,新規,0,2023-04-20,2023-04-20,医療法人杏済会,,その他の設立登記法人,埼玉県,行田市,中央１３番１２号,,11,206,3610078,,,,,,,2023-04-20,1,,,,,キョウサイカイ,0
715,3030005021226,新規,0,2023-04-20,2023-04-20,医療法人一茶会,,その他の設立登記法人,埼玉県,狭山市,新狭山３丁目１２番地１新狭山駅１階,,11,215,3501331,,,,,,,2023-04-20,1,,,,,イッサカイ,0
717,3040003022448,新規,0,2023-04-20,2023-04-20,合同会社Ｍ‐ｈｏｍｅ,,合同会社,千葉県,茂原市,中部６番地２３,,12,210,2970027,,,,,,,2023-04-20,1,,,,,エムホーム,0
723,3060001035920,新規,0,2023-04-20,2023-04-20,サンコーロジ株式会社,,株式会社,栃木県,佐野市,堀米町７２３番地２,,09,204,3270843,,,,,,,2023-04-20,1,,,,,サンコーロジ,0
729,3080101023922,新規,0,2023-04-20,2023-04-20,株式会社アセットシード５ｔｈ,,株式会社,静岡県,駿東郡長泉町,東野１４３番地の１９,,22,342,4110931,,,,,,,2023-04-20,1,,,,,アセットシードフィフス,0
730,3080101023930,新規,0,2023-04-20,2023-04-20,株式会社３９ＴＯＫＹＯ　ＩＣＨＩ,,株式会社,静岡県,熱海市,上多賀１０２７番地の８,,22,205,4130101,,,,,,,2023-04-20,1,,,,,サーティーナイントーキョーイチ,0
731,3080101023939,新規,0,2023-04-20,2023-04-20,株式会社ＫＹＯＥＩ,,株式会社,静岡県,沼津市,大岡２５７２番地の５,,22,203,4100022,,,,,,,2023-04-20,1,,,,,キョウエイ,0
733,3100003006972,新規,0,2023-04-20,2023-04-20,合同会社ヒューマン・リソースＪ,,合同会社,長野県,佐久市,御馬寄１３５１番地１２,,20,217,3842103,,,,,,,2023-04-20,1,,,,,ヒューマンリソースジェイ,0
734,3100005013001,新規,0,2023-04-20,2023-04-20,一般社団法人長野県新産業振興協議会,,その他の設立登記法人,長野県,長野市,大字長野往生地１４０１番地２,,20,201,3800867,,,,,,,2023-04-20,1,,,,,ナガノケンシンサンギョウシンコウキョウギカイ,0
748,3120001254200,新規,0,2023-04-20,2023-04-20,ＮＯＮＳ　ＫＡＭ株式会社,,株式会社,大阪府,大阪市東淀川区,東淡路４丁目２４－３９Ｐ－ＰＯＩＮＴ４０２号室,,27,114,5330023,,,,,,,2023-04-20,1,,,,,ノンズカム,0
749,3120001254217,新規,0,2023-04-20,2023-04-20,東立工業株式会社,,株式会社,大阪府,大阪市都島区,中野町１丁目３番２２－４０３号,,27,102,5340027,,,,,,,2023-04-20,1,,,,,トウリツコウギョウ,0
753,3120003023883,新規,0,2023-04-20,2023-04-20,経営デザインエクサル合同会社,,合同会社,大阪府,大阪市東淀川区,東淡路４丁目１７－１５Ｒｅ：ｚｏｎｅ淡路２０１,,27,114,5330023,,,,,,,2023-04-20,1,,,,,ケイエイデザインエクサル,0
754,3120003023891,新規,0,2023-04-20,2023-04-20,ヒビキミュージック合同会社,,合同会社,大阪府,大阪市北区,西天満４丁目１２番１１号プラザ梅新別館９階,,27,127,5300047,,,,,,,2023-04-20,1,,,,,ヒビキミュージック,0
755,3120101067403,新規,0,2023-04-20,2023-04-20,株式会社スカイ工業,,株式会社,大阪府,岸和田市,今木町２４番地の２アーカソニー２０１号,,27,202,5960804,,,,,,,2023-04-20,1,,,,,スカイコウギョウ,0
756,3120101067411,新規,0,2023-04-20,2023-04-20,株式会社ＬＩＮＫ,,株式会社,大阪府,堺市北区,南長尾町４丁２番４－１０１０号,,27,146,5918045,,,,,,,2023-04-20,1,,,,,リンク,0
761,3122001036900,新規,0,2023-04-20,2023-04-20,ＭＩＮＭＩＮ株式会社,,株式会社,大阪府,東大阪市,小阪２丁目１０番２８号ＪＰ小阪４階Ｂ号室,,27,227,5770801,,,,,,,2023-04-20,1,,,,,ミンミン,0
764,3130001074151,新規,0,2023-04-20,2023-04-20,株式会社ＡＭＮＫ,,株式会社,京都府,京都市左京区,田中東高原町４９番地３,,26,103,6068243,,,,,,,2023-04-20,1,,,,,エーエムエヌケー,0
775,3140001129838,新規,0,2023-04-20,2023-04-20,神戸インターナショナル株式会社,,株式会社,兵庫県,神戸市西区,見津が丘２丁目３番４号,,28,111,6512228,,,,,,,2023-04-20,1,,,,,コウベインターナショナル,0
776,3140001129862,新規,0,2023-04-20,2023-04-20,株式会社丹波ささやま商会,,株式会社,兵庫県,丹波篠山市,今田町上小野原９５番地４,,28,221,6692132,,,,,,,2023-04-20,1,,,,,タンバササヤマショウカイ,0
777,3150001026324,新規,0,2023-04-20,2023-04-20,株式会社ヒロセイ,,株式会社,奈良県,五條市,田園４丁目４６番地の５,,29,207,6370093,,,,,,,2023-04-20,1,,,,,ヒロセイ,0
779,3150003002942,新規,0,2023-04-20,2023-04-20,合同会社豊光,,合同会社,奈良県,宇陀市,菟田野古市場１３６８番地,,29,212,6332226,,,,,,,2023-04-20,1,,,,,ホウコウ,0
781,3170001017560,新規,0,2023-04-20,2023-04-20,株式会社ＧＬＳ,,株式会社,和歌山県,和歌山市,手平２丁目５－４７フレグランス手平２０１号,,30,201,6408319,,,,,,,2023-04-20,1,,,,,ジーエルエス,0
786,3180001155987,新規,0,2023-04-20,2023-04-20,株式会社ロジックス,,株式会社,愛知県,名古屋市中川区,富田町大字榎津字袋尻３９８番地の１,,23,110,4540953,,,,,,,2023-04-20,1,,,,,ロジックス,0
792,3180005020196,新規,0,2023-04-20,2023-04-20,一般社団法人ＳＣＡＮＰ,,その他の設立登記法人,愛知県,名古屋市東区,徳川町２７１７番地,,23,102,4610023,,,,,,,2023-04-20,1,,,,,スキャンプ,0
797,3200001041210,新規,0,2023-04-20,2023-04-20,株式会社Ｍ,,株式会社,岐阜県,多治見市,窯町５番地１,,21,204,5070821,,,,,,,2023-04-20,1,,,,,エム,0
803,3230001019807,新規,0,2023-04-20,2023-04-20,株式会社旅とも,,株式会社,富山県,富山市,下新北町１７－２９,,16,201,9300802,,,,,,,2023-04-20,1,,,,,タビトモ,0
805,3240001061403,新規,0,2023-04-20,2023-04-20,株式会社毛利,,株式会社,広島県,広島市南区,向洋新町１丁目２４番１２号,,34,103,7340055,,,,,,,2023-04-20,1,,,,,モウリ,0
824,3290001101220,新規,0,2023-04-20,2023-04-20,株式会社タビーロード,,株式会社,福岡県,福岡市中央区,天神４丁目６番２８号天神ファーストビル７階,,40,133,8100001,,,,,,,2023-04-20,1,,,,,タビーロード,0
825,3290001101261,新規,0,2023-04-20,2023-04-20,株式会社０１０,,株式会社,福岡県,福岡市博多区,住吉１丁目４番１７号,,40,132,8120018,,,,,,,2023-04-20,1,,,,,ゼロイチゼロ,0
827,3290003013819,新規,0,2023-04-20,2023-04-20,合同会社御天,,合同会社,福岡県,福岡市西区,橋本１丁目４番３３号,,40,135,8190031,,,,,,,2023-04-20,1,,,,,オテン,0
828,3290005019021,新規,0,2023-04-20,2023-04-20,一般社団法人ＣｏｌｏｒＦｕｌ‐ＨａｐｐｙＦｕｌｌ,,その他の設立登記法人,福岡県,春日市,須玖北５丁目１５５,,40,218,8160864,,,,,,,2023-04-20,1,,,,,カラフルハピフル,0
831,3290801029487,新規,0,2023-04-20,2023-04-20,大誠株式会社,,株式会社,福岡県,北九州市小倉南区,星和台２丁目１３番９号,,40,107,8020973,,,,,,,2023-04-20,1,,,,,タイセイ,0
835,3300001013273,新規,0,2023-04-20,2023-04-20,株式会社ＮＩＮＪＡ　ＳＹＳＴＥＭＳ,,株式会社,佐賀県,藤津郡太良町,大字大浦丙９７７番地３,,41,441,8491613,,,,,,,2023-04-20,1,,,,,ニンジャシステム,0
836,3320001019698,新規,0,2023-04-20,2023-04-20,株式会社ＬＥＡＰＦＲＯＧ,,株式会社,大分県,大分市,敷戸台２丁目１５番４号,,44,201,8701106,,,,,,,2023-04-20,1,,,,,リープフロッグ,0
838,3330005010652,新規,0,2023-04-20,2023-04-20,一般社団法人高度情報技術研究会,,その他の設立登記法人,熊本県,熊本市中央区,上通町２番１７号,,43,101,8600845,,,,,,,2023-04-20,1,,,,,,0
842,3350005006153,新規,0,2023-04-20,2023-04-20,特定非営利活動法人九州ゴルフジュニアサーキット,,その他の設立登記法人,宮崎県,宮崎市,大字本郷北方４０７７－４池田ファミリーゼーションＦ棟１０２,,45,201,8800925,,,,,,,2023-04-20,1,,,,,キュウシュウゴルフジュニアサーキット,0
846,3370001049856,新規,0,2023-04-20,2023-04-20,株式会社岩永,,株式会社,宮城県,仙台市青葉区,赤坂２丁目７番地の６,,04,101,9893211,,,,,,,2023-04-20,1,,,,,イワナガ,0
857,3400005008326,新規,0,2023-04-20,2023-04-20,一般社団法人ＲＯＨＡＣＨＩ,,その他の設立登記法人,岩手県,盛岡市,永井２０地割５番地４２,,03,201,0200834,,,,,,,2023-04-20,1,,,,,ロハチ,0
861,3430001088872,新規,0,2023-04-20,2023-04-20,株式会社レイボーン,,株式会社,北海道,札幌市中央区,北四条西２５丁目１番２８－７０２号,,01,101,0640824,,,,,,,2023-04-20,1,,,,,レイボーン,0
862,3430001088897,新規,0,2023-04-20,2023-04-20,雲夏コンサルティング株式会社,,株式会社,北海道,札幌市北区,北三十二条西５丁目２－２８,,01,102,0010032,,,,,,,2023-04-20,1,,,,,ウンカコンサルティング,0
870,3450003002326,新規,0,2023-04-20,2023-04-20,合同会社しもかわ森のブルワリー,,合同会社,北海道,上川郡下川町,錦町２４番地１,,01,468,0981207,,,,,,,2023-04-20,1,,,,,シモカワモリノブルワリー,0
871,3460001005791,新規,0,2023-04-20,2023-04-20,株式会社Ｂｅａｎｓ,,株式会社,北海道,釧路郡釧路町,国誉１丁目６番地４,,01,661,0880614,,,,,,,2023-04-20,1,,,,,ビーンズ,0
876,3700150114451,新規,0,2023-04-20,2023-02-22,住友金属鉱山安全衛生協力会,,その他,愛媛県,新居浜市,西原町３丁目５番３号,,38,205,7920011,,,,,,,2023-02-22,1,,,,,スミトモキンゾクコウザンアンゼンエイセイキヨウリヨクカイ,0
877,3700150115607,新規,0,2023-04-20,2023-04-20,ｓｈｅｎｚｈｅｎｐｉｎｃｈｉｍａｏｙｉｙｏｕｘｉａｎｇｏｎｇｓｉ,,外国会社等,,,,,,,,ｌｏｎｇｈｕａｑｕｌｏｎｇｈｕａｊｉｅｄａｏｊｉｎｇｌｏｎｇｓｈｅｑｕｌｏｎｇｈｕａｄａｄａｏ３６３９ｈａｏ　ｙｉｃｈｅｎｇｚｈｏｎｇｘｉｎｈｕａｙｕａｎｓａｎｑｕＢｄｏｎｇ２３０１　ｓｈｅｎｚｈｅｎ　ｇｕａｎｇｄｏｎｇ　５１８０００　ＣＮ,,,,,,2023-04-20,1,,,,,シェンジェンピンチーマオイーヨウシエンゴンスー,0
886,4010001234716,新規,0,2023-04-20,2023-04-20,株式会社ベンサム,,株式会社,東京都,千代田区,神田佐久間町１丁目１６番地１大橋ビル５０３,,13,101,1010025,,,,,,,2023-04-20,1,,,,,ベンサム,0
888,4010003040385,新規,0,2023-04-20,2023-04-20,合同会社ユニークボックス,,合同会社,東京都,千代田区,東神田１丁目２－２－２０８,,13,101,1010031,,,,,,,2023-04-20,1,,,,,ユニークボックス,0
891,4010005036539,新規,0,2023-04-20,2023-04-20,一般社団法人姫路蓄電所,,その他の設立登記法人,東京都,千代田区,丸の内３丁目１番１号東京共同会計事務所内,,13,101,1000005,,,,,,,2023-04-20,1,,,,,ヒメジチクデンショ,0
892,4010101015611,新規,0,2023-04-20,2023-04-20,株式会社クークル,,株式会社,東京都,八王子市,東浅川町５４９番地,,13,201,1930834,,,,,,,2023-04-20,1,,,,,クークル,0
896,4010401173910,新規,0,2023-04-20,2023-04-20,ＤｉＺＡｓｏｕｎｄ株式会社,,株式会社,東京都,港区,愛宕１丁目１番１号虎ノ門ヒルズレジデンシャルタワー８階,,13,103,1050002,,,,,,,2023-04-20,1,,,,,ディザサウンド,0
897,4010403029986,新規,0,2023-04-20,2023-04-20,マモフ合同会社,,合同会社,東京都,港区,南青山２丁目２番１５号,,13,103,1070062,,,,,,,2023-04-20,1,,,,,マモフ,0
898,4010405021990,新規,0,2023-04-20,2023-04-20,一般社団法人デジタル広域推進機構,,その他の設立登記法人,東京都,港区,南青山２丁目２番１５号,,13,103,1070062,,,,,,,2023-04-20,1,,,,,デジタルコウイキスイシンキコウ,0
901,4010501050316,新規,0,2023-04-20,2023-04-20,株式会社みなみ工務店,,株式会社,東京都,台東区,浅草７丁目７番５号１Ｆ,,13,106,1110032,,,,,,,2023-04-20,1,,,,,ミナミコウムテン,0
902,4010501050332,新規,0,2023-04-20,2023-04-20,Ｓｔａｎｄ　Ｕｐ　Ｊａｐａｎ株式会社,,株式会社,東京都,台東区,北上野２丁目２１番１２号２階,,13,106,1100014,,,,,,,2023-04-20,1,,,,,スタンドアップジャパン,0
905,4010701044142,新規,0,2023-04-20,2023-04-20,さんばる株式会社,,株式会社,東京都,品川区,北品川５丁目８番１５－８１２号,,13,109,1410001,,,,,,,2023-04-20,1,,,,,サンバル,0
906,4010701044150,新規,0,2023-04-20,2023-04-20,株式会社Ｋｅｉ‐ＣＯＮ’Ｓ,,株式会社,東京都,品川区,豊町２丁目２番２号,,13,109,1420042,,,,,,,2023-04-20,1,,,,,ケイコンズ,0
907,4010703006669,新規,0,2023-04-20,2023-04-20,合同会社Ｗａｌｋ　ｏｎ,,合同会社,東京都,品川区,大井１丁目４３番１０号第１丸英ビル３０５,,13,109,1400014,,,,,,,2023-04-20,1,,,,,ウォークオン,0
913,4010901052911,新規,0,2023-04-20,2023-04-20,株式会社ＣＡＭＯ　ＰＲＩＭＥ,,株式会社,東京都,世田谷区,世田谷１丁目２４－１ＳＥＴＡＧＡＹＡＭＩＺＵＮＯビル２階,,13,112,1540017,,,,,,,2023-04-20,1,,,,,,0
920,4011001153939,新規,0,2023-04-20,2023-04-20,貴代通商株式会社,,株式会社,東京都,渋谷区,渋谷２丁目１９ー１５宮益坂ビルディング６０９,,13,113,1500002,,,,,,,2023-04-20,1,,,,,キダイツウショウ,0
921,4011003016697,新規,0,2023-04-20,2023-04-20,クールインサイト合同会社,,合同会社,東京都,渋谷区,恵比寿３丁目３８番２５号,,13,113,1500013,,,,,,,2023-04-20,1,,,,,クールインサイト,0
927,4011203004056,新規,0,2023-04-20,2023-04-20,合同会社マックス,,合同会社,東京都,中野区,若宮２丁目６番３号アイム若宮１０３,,13,114,1650033,,,,,,,2023-04-20,1,,,,,マックス,0
928,4011301028634,新規,0,2023-04-20,2023-04-20,ＤＵＸ株式会社,,株式会社,東京都,杉並区,西荻南３丁目４番９号,,13,115,1670053,,,,,,,2023-04-20,1,,,,,デュクス,0
932,4011503005571,新規,0,2023-04-20,2023-04-20,合同会社ＦＯＣＵＳ,,合同会社,東京都,北区,中里３丁目２３番１号,,13,117,1140015,,,,,,,2023-04-20,1,,,,,フォーカス,0
942,4013301050626,新規,0,2023-04-20,2023-04-20,株式会社ＧＯＯＤ　ＨＯＵＳＩＮＧ,,株式会社,東京都,豊島区,西巣鴨１丁目１９番１８号,,13,116,1700001,,,,,,,2023-04-20,1,,,,,グッドハウジング,0
943,4013301050634,新規,0,2023-04-20,2023-04-20,株式会社Ｒｏｍａｘ,,株式会社,東京都,豊島区,西池袋３丁目２５番１５号４階,,13,116,1710021,,,,,,,2023-04-20,1,,,,,ロマックス,0
944,4013303006592,新規,0,2023-04-20,2023-04-20,合同会社ブルータイガー,,合同会社,東京都,豊島区,池袋２丁目１２－１４－６階,,13,116,1710014,,,,,,,2023-04-20,1,,,,,ブルータイガー,0
955,4020001151126,新規,0,2023-04-20,2023-04-20,株式会社スマイル,,株式会社,神奈川県,川崎市多摩区,菅仙谷３丁目２番１５号ジュネスヒヤマ１０５,,14,135,2140006,,,,,,,2023-04-20,1,,,,,スマイル,0
956,4020001151175,新規,0,2023-04-20,2023-04-20,株式会社ＳｕｉＪｏｈ　Ｊａｐａｎ,,株式会社,神奈川県,横浜市磯子区,岡村４丁目１番地２１号,,14,107,2350021,,,,,,,2023-04-20,1,,,,,スイジョージャパン,0
957,4020001151217,新規,0,2023-04-20,2023-04-20,株式会社ナガサキ工業,,株式会社,神奈川県,横浜市港南区,日野１丁目１番１号岡本ビル３０３号室,,14,111,2340051,,,,,,,2023-04-20,1,,,,,ナガサキコウギョウ,0
963,4020003023703,新規,0,2023-04-20,2023-04-20,合同会社ＮＥＸＴ　ＳＴＡＧＥ,,合同会社,神奈川県,横浜市神奈川区,三ツ沢東町七丁目９番,,14,102,2210853,,,,,,,2023-04-20,1,,,,,,0
964,4020003023785,新規,0,2023-04-20,2023-04-20,合同会社ＷｅＦｏｒ,,合同会社,神奈川県,横浜市南区,三春台５４番地２７,,14,105,2320002,,,,,,,2023-04-20,1,,,,,ウィフォー,0
968,4021001078805,新規,0,2023-04-20,2023-04-20,株式会社ＥＮＭＥＲＯＳ,,株式会社,神奈川県,鎌倉市,七里ガ浜１丁目１番１号Ｗｅｅｋｅｎｄ．ｈｏｕｓｅ．ａｌｌｅｙ１０５,,14,204,2480026,,,,,,,2023-04-20,1,,,,,エンメローズ,0
969,4021001078813,新規,0,2023-04-20,2023-04-20,株式会社元右衛門,,株式会社,神奈川県,藤沢市,藤沢３丁目１番８号,,14,205,2510052,,,,,,,2023-04-20,1,,,,,モトウエモン,0
977,4030001153435,新規,0,2023-04-20,2023-04-20,株式会社ＨＯＫＵＳＨＩＮ,,株式会社,埼玉県,川越市,大字今福２７４番地４,,11,201,3501151,,,,,,,2023-04-20,1,,,,,ホクシン,0
978,4030001153443,新規,0,2023-04-20,2023-04-20,株式会社Ｌｉｎｋ　Ｌｅａｆ　Ｌｅａｒｎｉｎｇ,,株式会社,埼玉県,さいたま市西区,大字植田谷本１３７番地１加茂川団地２－４０４,,11,101,3310053,,,,,,,2023-04-20,1,,,,,リンクリーフラーニング,0
982,4030005021217,新規,0,2023-04-20,2023-04-20,医療法人社団かまた内科クリニック,,その他の設立登記法人,埼玉県,志木市,本町４丁目１１番１５号第二高橋ビル２階,,11,228,3530004,,,,,,,2023-04-20,1,,,,,カマタナイカクリニック,0
986,4040001127990,新規,0,2023-04-20,2023-04-20,株式会社ＡＮＤ　ＮＩＣＥＮＥＳＳ,,株式会社,千葉県,千葉市花見川区,幕張本郷４丁目１６番２号,,12,102,2620033,,,,,,,2023-04-20,1,,,,,アンドナイスネス,0
987,4040001128056,新規,0,2023-04-20,2023-04-20,滝谷商事株式会社,,株式会社,千葉県,市川市,田尻２丁目３－３２,,12,203,2720014,,,,,,,2023-04-20,1,,,,,タキヤショウジ,0
988,4040003022331,新規,0,2023-04-20,2023-04-20,合同会社八八,,合同会社,千葉県,大網白里市,細草１８１３番地,,12,239,2993211,,,,,,,2023-04-20,1,,,,,ハチハチ,0
989,4040003022447,新規,0,2023-04-20,2023-04-20,合同会社ＤＯＧ,,合同会社,千葉県,木更津市,東太田４丁目２番８号,,12,206,2920043,,,,,,,2023-04-20,1,,,,,ディーオージー,0
994,4050001052610,新規,0,2023-04-20,2023-04-20,株式会社ＩＦＡ　ＴＲＡＤＩＮＧ,,株式会社,茨城県,常総市,相野谷町字四ツ谷前６７５－１,,08,211,3030002,,,,,,,2023-04-20,1,,,,,アイエフエートレーディング,0
995,4050001052718,新規,0,2023-04-20,2023-04-20,株式会社ＪＮＢ　ＴＲＡＤＩＮＧ,,株式会社,茨城県,結城市,みどり町２丁目５－２５ウエストコート結城１０８号室,,08,207,3070004,,,,,,,2023-04-20,1,,,,,ジェエンビトレーディング,0
997,4050003007439,新規,0,2023-04-20,2023-04-20,Ａｋｉｏ　Ｇｌｏｂａｌ　Ｓｏｌｕｔｉｏｎｓ合同会社,,合同会社,茨城県,坂東市,寺久字中原１００６番地２,,08,228,3060656,,,,,,,2023-04-20,1,,,,,アキオグローバルソリューションズ,0
999,4070001040349,新規,0,2023-04-20,2023-04-20,株式会社ラペシェ,,株式会社,群馬県,渋川市,有馬１３５１番地３,,10,208,3770005,,,,,,,2023-04-20,1,,,,,ラペシェ,0
1000,4070001040357,新規,0,2023-04-20,2023-04-20,株式会社エンジニ屋,,株式会社,群馬県,館林市,本町３丁目９番３号井野口ビル２階,,10,207,3740024,,,,,,,2023-04-20,1,,,,,エンジニヤ,0
1001,4070003004913,新規,0,2023-04-20,2023-04-20,合同会社Ｔｅｅｐ,,合同会社,群馬県,甘楽郡甘楽町,大字小幡９０５－１０,,10,384,3702202,,,,,,,2023-04-20,1,,,,,,0
1006,4090003002304,新規,0,2023-04-20,2023-04-20,合同会社ｋｅｙａｋｉ　ｍａｒｋｅｔ,,合同会社,山梨県,笛吹市,八代町竹居１９８４,,19,211,4060832,,,,,,,2023-04-20,1,,,,,ケヤキマーケット,0
1017,4120001254224,新規,0,2023-04-20,2023-04-20,株式会社親孝行エンターテイメント,,株式会社,大阪府,大阪市浪速区,日本橋西１丁目７番２７号２階,,27,111,5560004,,,,,,,2023-04-20,1,,,,,オヤコウコウエンターテイメント,0
1019,4120003023882,新規,0,2023-04-20,2023-04-20,Ｒｅｂｏｚｕ合同会社,,合同会社,大阪府,大阪市西区,本田２丁目６番４号,,27,106,5500022,,,,,,,2023-04-20,1,,,,,リボーズ,0
1025,4120101067402,新規,0,2023-04-20,2023-04-20,株式会社Ｐａｐｅｒ＆Ｂｒｉｄｇｅ,,株式会社,大阪府,岸和田市,小松里町８６３番２－１０１号,,27,202,5960821,,,,,,,2023-04-20,1,,,,,ペーパーアンドブリッジ,0
1026,4120101067410,新規,0,2023-04-20,2023-04-20,株式会社ＦＥＲＮＡＶＡＩＬ,,株式会社,大阪府,堺市堺区,榎元町４丁１－２９,,27,141,5900027,,,,,,,2023-04-20,1,,,,,フェルナベイル,0
1028,4120103005186,新規,0,2023-04-20,2023-04-20,ゆう癒合同会社,,合同会社,大阪府,貝塚市,福田１０４１－１,,27,208,5970023,,,,,,,2023-04-20,1,,,,,ユウイヤシ,0
1032,4122005003672,新規,0,2023-04-20,2023-04-20,一般社団法人ｉｒｏｄｏｒｉ．,,その他の設立登記法人,大阪府,東大阪市,大蓮南４丁目９番１５号,,27,227,5770825,,,,,,,2023-04-20,1,,,,,イロドリ,0
1034,4130001074035,新規,0,2023-04-20,2023-04-20,株式会社ＫＲｅＳｔ,,株式会社,京都府,京都市伏見区,向島丸町２番地３,,26,109,6128131,,,,,,,2023-04-20,1,,,,,クレスト,0
1039,4140001129820,新規,0,2023-04-20,2023-04-20,株式会社ＨＲＳ,,株式会社,兵庫県,姫路市,花田町勅旨４０４番地３,,28,201,6710254,,,,,,,2023-04-20,1,,,,,エイチアールエス,0
1040,4140001129861,新規,0,2023-04-20,2023-04-20,株式会社ミツクラ,,株式会社,兵庫県,神戸市長田区,浜添通６丁目１番１５号,,28,106,6530024,,,,,,,2023-04-20,1,,,,,ミツクラ,0
1042,4150001026331,新規,0,2023-04-20,2023-04-20,株式会社エムプラス,,株式会社,奈良県,大和高田市,大字神楽２５４－１ＳＴＵＤＹビル,,29,202,6350026,,,,,,,2023-04-20,1,,,,,エムプラス,0
1043,4150003002941,新規,0,2023-04-20,2023-04-20,合同会社ＫＯＨＡＳＨＩ,,合同会社,奈良県,奈良市,南京終町６６６番地,,29,201,6308141,,,,,,,2023-04-20,1,,,,,コハシ,0
1044,4150005009472,新規,0,2023-04-20,2023-04-20,一般社団法人森未来かみきた,,その他の設立登記法人,奈良県,吉野郡上北山村,大字河合１０７番地,,29,451,6393701,,,,,,,2023-04-20,1,,,,,シンミライカミキタ,0
1049,4160001024986,新規,0,2023-04-20,2023-04-20,株式会社森辻牧場,00130197,株式会社,滋賀県,蒲生郡日野町,大字西大路２９７８番地,,25,383,5291628,,,,,,,2023-04-20,1,,,,,モリツジボクジョウ,0
1056,4180001155961,新規,0,2023-04-20,2023-04-20,株式会社ＨＯＲＩＺＯＮ,,株式会社,愛知県,名古屋市中川区,西日置町１０丁目１１２番地の２,,23,110,4540005,,,,,,,2023-04-20,1,,,,,ホライゾン,0
1059,4180003025114,新規,0,2023-04-20,2023-04-20,合同会社ディーポック,,合同会社,愛知県,名古屋市瑞穂区,苗代町２８番２０号,,23,108,4670841,,,,,,,2023-04-20,1,,,,,ディーポック,0
1060,4180003025147,新規,0,2023-04-20,2023-04-20,合同会社カグラシステム,,合同会社,愛知県,名古屋市中村区,名駅４丁目２４番５号第２森ビル４０１,,23,105,4500002,,,,,,,2023-04-20,1,,,,,カグラシステム,0
1061,4180005020187,新規,0,2023-04-20,2023-04-20,社会保険労務士法人そら,,その他の設立登記法人,愛知県,名古屋市中区,栄１丁目１３番４号みその大林ビル３ＦＡ,,23,106,4600008,,,,,,,2023-04-20,1,,,,,ソラ,0
1070,4200001041218,新規,0,2023-04-20,2023-04-20,Ｉ＆Ｈ株式会社,,株式会社,岐阜県,多治見市,錦町４丁目６５番地,,21,204,5070835,,,,,,,2023-04-20,1,,,,,アイアンドエイチ,0
1076,4230001019806,新規,0,2023-04-20,2023-04-20,株式会社マサダ工業,,株式会社,富山県,砺波市,春日町５番２３号,,16,208,9391378,,,,,,,2023-04-20,1,,,,,マサダコウギョウ,0
1095,4290001101269,新規,0,2023-04-20,2023-04-20,株式会社ユナイテッドギアーズ,,株式会社,福岡県,福岡市東区,多の津４丁目７番５号ＫＮセンタービル,,40,131,8130034,,,,,,,2023-04-20,1,,,,,ユナイテッドギアーズ,0
1099,4290801029486,新規,0,2023-04-20,2023-04-20,株式会社ＵＩ電通,,株式会社,福岡県,北九州市小倉北区,東港１丁目６番１－２０３号,,40,106,8030802,,,,,,,2023-04-20,1,,,,,ユウアイデンツウ,0
1101,4310001018378,新規,0,2023-04-20,2023-04-20,株式会社太陽クリーン工業,,株式会社,長崎県,長崎市,若草町１３番１５号本田ビル２０２,,42,201,8528023,,,,,,,2023-04-20,1,,,,,タイヨウクリーンコウギョウ,0
1102,4320001019697,新規,0,2023-04-20,2023-04-20,株式会社麻成,,株式会社,大分県,大分市,大字津留２０１１番地の４,,44,201,8700930,,,,,,,2023-04-20,1,,,,,アサナリ,0
1113,4350001018291,新規,0,2023-04-20,2023-04-20,アグリヴ不動産株式会社,,株式会社,宮崎県,都城市,下水流町３４８５番地１,,45,202,8851102,,,,,,,2023-04-20,1,,,,,アグリヴフドウサン,0
1115,4360001031871,新規,0,2023-04-20,2023-04-20,株式会社國吉興業,,株式会社,沖縄県,糸満市,字照屋１２０８番地の１,,47,210,9010315,,,,,,,2023-04-20,1,,,,,クニヨシコウギョウ,0
1116,4360001031905,新規,0,2023-04-20,2023-04-20,株式会社リベルテ,,株式会社,沖縄県,中頭郡北谷町,字桑江６３５番地１アルファステイツ北谷ヒルズ６０６号室,,47,326,9040103,,,,,,,2023-04-20,1,,,,,リベルテ,0
1120,4360003012903,新規,0,2023-04-20,2023-04-20,合同会社キャスティング沖縄,,合同会社,沖縄県,中頭郡北中城村,字島袋４７８番地ビュープラザ喜納２０２号,,47,327,9012301,,,,,,,2023-04-20,1,,,,,キャスティングオキナワ,0
1121,4370001049847,新規,0,2023-04-20,2023-04-20,株式会社ルミテック,,株式会社,宮城県,刈田郡蔵王町,大字平沢字寺前８１番地,,04,301,9890831,,,,,,,2023-04-20,1,,,,,ルミテック,0
1124,4370003006078,新規,0,2023-04-20,2023-04-20,合資会社相談支援事業所リーヴ,,合資会社,宮城県,亘理郡亘理町,字五日町４３,,04,361,9892351,,,,,,,2023-04-20,1,,,,,ソウダンシエンジギョウショリーヴ,0
1125,4370003006086,新規,0,2023-04-20,2023-04-20,エステートアツミ合同会社,,合同会社,宮城県,東松島市,矢本字河戸３３番地３３,,04,214,9810503,,,,,,,2023-04-20,1,,,,,エステートアツミ,0
1139,4430001088896,新規,0,2023-04-20,2023-04-20,株式会社エイティーン,,株式会社,北海道,石狩市,親船東一条１丁目１番地,,01,235,0613365,,,,,,,2023-04-20,1,,,,,エイティーン,0
1142,4440001009249,新規,0,2023-04-20,2023-04-20,株式会社ｕｓａｂｉｔ．,,株式会社,北海道,函館市,小安町５４１番地４,,01,202,0410251,,,,,,,2023-04-20,1,,,,,,0
1151,4500001024885,新規,0,2023-04-20,2023-04-20,株式会社ＮＧＳマーケティング,,株式会社,愛媛県,喜多郡内子町,知清４８７－１,,38,422,7913322,,,,,,,2023-04-20,1,,,,,エヌジーエスマーケティング,0
1152,4500003003020,新規,0,2023-04-20,2023-04-20,佐藤自動車鈑金塗装合同会社,,合同会社,愛媛県,新居浜市,菊本町２丁目８番２５号,,38,205,7920801,,,,,,,2023-04-20,1,,,,,サトウジドウシャバンキントソウ,0
1159,4700150115606,新規,0,2023-04-20,2023-04-20,ＺＩＢＯ　ＮＡＪＩＡ　ＴＥＸＴＩＬＥ　ＣＯ．，ＬＴＤ,,外国会社等,,,,,,,,ＳＩＣＨＯＵ　ＲＯＡＤ　ＮＯ．２９９９　ＺＩＢＯ　ＺＨＯＵＣＵＮ　ＳＨＡＮＤＯＮＧ　２５５３００　ＣＮ,,,,,,2023-04-20,1,,,,,ズーボーナージャーファンジーピンヨウシエンゴンスー,0
1164,5010001234673,新規,0,2023-04-20,2023-04-20,セントラル株式会社,,株式会社,東京都,千代田区,神田三崎町２丁目９番５号,,13,101,1010061,,,,,,,2023-04-20,1,,,,,セントラル,0
1165,5010001234731,新規,0,2023-04-20,2023-04-20,フェノメックスジャパン株式会社,,株式会社,東京都,千代田区,丸の内１丁目９番１号丸の内中央ビル１１階,,13,101,1000005,,,,,,,2023-04-20,1,,,,,フェノメックスジャパン,0
1167,5010003040351,新規,0,2023-04-20,2023-04-20,合同会社スワンボート,,合同会社,東京都,文京区,大塚６丁目２２番４号エレガンス大塚１０２,,13,105,1120012,,,,,,,2023-04-20,1,,,,,スワンボート,0
1168,5010003040384,新規,0,2023-04-20,2023-04-20,日本エナジーグループ合同会社,,合同会社,東京都,千代田区,丸の内１丁目８番３号丸の内トラストタワー本館２０階,,13,101,1000005,,,,,,,2023-04-20,1,,,,,ニッポンエナジーグループ,0
1169,5010003040401,新規,0,2023-04-20,2023-04-20,Ｎｔｅｃｈ１号合同会社,,合同会社,東京都,中央区,築地３丁目１１番６号築地スクエアビル９階,,13,102,1040045,,,,,,,2023-04-20,1,,,,,エヌテックイチゴウ,0
1170,5010005036538,新規,0,2023-04-20,2023-04-20,一般社団法人ＫＫ,,その他の設立登記法人,東京都,千代田区,丸の内３丁目１番１号東京共同会計事務所内,,13,101,1000005,,,,,,,2023-04-20,1,,,,,ケーケー,0
1180,5010501050323,新規,0,2023-04-20,2023-04-20,東洋通商株式会社,,株式会社,東京都,台東区,台東３丁目１５番３号６階,,13,106,1100016,,,,,,,2023-04-20,1,,,,,トウヨウツウショウ,0
1183,5010701044125,新規,0,2023-04-20,2023-04-20,株式会社ＷＥＢ‐ＳＵＩＴＥ,,株式会社,東京都,品川区,西五反田７丁目１３番５号,,13,109,1410031,,,,,,,2023-04-20,1,,,,,ウェブスイート,0
1184,5010703006668,新規,0,2023-04-20,2023-04-20,合同会社ハウスアンドアドベンチャー,,合同会社,東京都,品川区,勝島１丁目３番７－５０７号,,13,109,1400012,,,,,,,2023-04-20,1,,,,,ハウスアンドアドベンチャー,0
1194,5010901052902,新規,0,2023-04-20,2023-04-20,株式会社オルライトスタジオ,,株式会社,東京都,世田谷区,若林２丁目１７－７光ビル２０２号室,,13,112,1540023,,,,,,,2023-04-20,1,,,,,,0
1195,5010901052910,新規,0,2023-04-20,2023-04-20,株式会社Ｃｒｅａｒｅ,,株式会社,東京都,世田谷区,世田谷１丁目２４－１ＳＥＴＡＧＡＹＡＭＩＺＵＮＯビル２階,,13,112,1540017,,,,,,,2023-04-20,1,,,,,クレアーレ,0
1209,5011101102605,新規,0,2023-04-20,2023-04-20,株式会社Ｏｆｆｉｃｅ３７・アセット・マネジメント,,株式会社,東京都,新宿区,新宿３丁目３５番６号新宿ＡＵＮビル７階,,13,104,1600022,,,,,,,2023-04-20,1,,,,,オフィスサンナナアセットマネジメント,0
1221,5011503005570,新規,0,2023-04-20,2023-04-20,アジアＨＧ合同会社,,合同会社,東京都,荒川区,東尾久６丁目５１番１７号,,13,118,1160012,,,,,,,2023-04-20,1,,,,,アジアエイチジー,0
1229,5011701026170,新規,0,2023-04-20,2023-04-20,シナジーワークス株式会社,,株式会社,東京都,江戸川区,平井７丁目４番１－２０３号,,13,123,1320035,,,,,,,2023-04-20,1,,,,,シナジーワークス,0
1231,5011703003449,新規,0,2023-04-20,2023-04-20,合同会社ＶＪ　Ｊａｐａｎ,,合同会社,東京都,江戸川区,西瑞江３丁目１６番地７２,,13,123,1320015,,,,,,,2023-04-20,1,,,,,ブイジェー,0
1233,5012301013410,新規,0,2023-04-20,2023-04-20,株式会社Ａ．Ｒ．Ｃ,,株式会社,東京都,町田市,小山町１９１番地１クレストール・Ｋ１０２,,13,209,1940212,,,,,,,2023-04-20,1,,,,,エーアールシー,0
1241,5013301050633,新規,0,2023-04-20,2023-04-20,株式会社ＮｏＬｉｍｉｔ,,株式会社,東京都,豊島区,東池袋１丁目１８番１号ＨａｒｅｚａＴｏｗｅｒ２０階,,13,116,1700013,,,,,,,2023-04-20,1,,,,,ノーリミット,0
1243,5013303006591,新規,0,2023-04-20,2023-04-20,合同会社Ｎ．Ｋ．ＶＩＴＡ,,合同会社,東京都,豊島区,上池袋４丁目２２－８ゴールデンハイツ上池２０４号室,,13,116,1700012,,,,,,,2023-04-20,1,,,,,エヌケーヴィータ,0
1246,5020001151125,新規,0,2023-04-20,2023-04-20,株式会社イブ,,株式会社,神奈川県,横浜市保土ケ谷区,新桜ケ丘１丁目２５番１９号,,14,106,2400036,,,,,,,2023-04-20,1,,,,,イブ,0
1247,5020001151257,新規,0,2023-04-20,2023-04-20,久創電子株式会社,,株式会社,神奈川県,横浜市港北区,箕輪町２丁目２０番３２－１０１号,,14,109,2230051,,,,,,,2023-04-20,1,,,,,キュウソウデンシ,0
1259,5030001153475,新規,0,2023-04-20,2023-04-20,株式会社インベスターズ・メタ,,株式会社,埼玉県,草加市,新里１３９７－４,,11,221,3400000,,,,,,,2023-04-20,1,,,,,インベスターズメタ,0
1261,5030003021597,新規,0,2023-04-20,2023-04-20,ＭＳ　ＴＲＡＤＩＮＧ合同会社,,合同会社,埼玉県,羽生市,大字桑崎２４５番地,,11,216,3480043,,,,,,,2023-04-20,1,,,,,エムエストレーディング,0
1262,5030005021216,新規,0,2023-04-20,2023-04-20,医療法人晃山会,,その他の設立登記法人,埼玉県,深谷市,上柴町東４丁目１３番地１０,,11,218,3660051,,,,,,,2023-04-20,1,,,,,コウザンカイ,0
1267,5040001128055,新規,0,2023-04-20,2023-04-20,慎徳堂東京株式会社,,株式会社,千葉県,野田市,山崎１３２４－３鳳鳴マンション４０４室,,12,208,2780022,,,,,,,2023-04-20,1,,,,,シントクドウトウキョウ,0
1268,5040003022446,新規,0,2023-04-20,2023-04-20,合同会社レモクル,,合同会社,千葉県,千葉市緑区,高田町４００番地４６,,12,105,2660003,,,,,,,2023-04-20,1,,,,,レモクル,0
1273,5050003007438,新規,0,2023-04-20,2023-04-20,合同会社ＥａｓｔＯｃｅａｎ,,合同会社,茨城県,那珂郡東海村,東海１丁目１６番２号ｇｕｐｌｕｓ１０１,,08,341,3191117,,,,,,,2023-04-20,1,,,,,イーストオーシャン,0
1275,5060001035910,新規,0,2023-04-20,2023-04-20,ＵＰＤＲＡＦＴ株式会社,,株式会社,栃木県,真岡市,上大沼２丁目６番地９,,09,209,3214355,,,,,,,2023-04-20,1,,,,,アップドラフト,0
1284,5070001040348,新規,0,2023-04-20,2023-04-20,株式会社ひとコミ開発,,株式会社,群馬県,前橋市,三河町１丁目１番１号,,10,201,3710015,,,,,,,2023-04-20,1,,,,,ヒトコミカイハツ,0
1286,5070003004912,新規,0,2023-04-20,2023-04-20,合同会社歩っぽ,,合同会社,群馬県,太田市,尾島町４７１番地１０ハイブービル１階,,10,205,3700401,,,,,,,2023-04-20,1,,,,,,0
1289,5080103002781,新規,0,2023-04-20,2023-04-20,Ｇｒｅｅｎ　Ｒｉｓｉｎｇ合同会社,,合同会社,静岡県,裾野市,富沢４１４番地の１スウィートＴ‐１０２,,22,220,4101125,,,,,,,2023-04-20,1,,,,,グリーンライジング,0
1290,5080403004775,新規,0,2023-04-20,2023-04-20,ビューティアベニュー合同会社,,合同会社,静岡県,浜松市中区,鴨江２丁目５５番１４号,,22,131,4328023,,,,,,,2023-04-20,1,,,,,ビューティアベニュー,0
1307,5120003023865,新規,0,2023-04-20,2023-04-20,合同会社ひまわり,,合同会社,大阪府,大阪市北区,天神橋６丁目６番１１号－５階,,27,127,5300041,,,,,,,2023-04-20,1,,,,,ヒマワリ,0
1309,5120103005185,新規,0,2023-04-20,2023-04-20,ＡＮＹＷＨＥＲＥ　ＤＯＯＲ合同会社,,合同会社,大阪府,貝塚市,麻生中８５番地１０,,27,208,5970081,,,,,,,2023-04-20,1,,,,,エニウェアドア,0
1327,5140001129860,新規,0,2023-04-20,2023-04-20,株式会社ＡＬＬ,,株式会社,兵庫県,朝来市,山東町滝田６３番地１,,28,225,6695101,,,,,,,2023-04-20,1,,,,,オール,0
1328,5140003018995,新規,0,2023-04-20,2023-04-20,ＣＫ合同会社,,合同会社,兵庫県,神戸市中央区,八雲通３丁目１番２１－１０１号Ａ室,,28,110,6510078,,,,,,,2023-04-20,1,,,,,シーケー,0
1331,5150001026339,新規,0,2023-04-20,2023-04-20,アルティザン食品株式会社,,株式会社,奈良県,奈良市,東登美ヶ丘２丁目１８番１２号,,29,201,6310002,,,,,,,2023-04-20,1,,,,,アルティザンショクヒン,0
1342,5180001155969,新規,0,2023-04-20,2023-04-20,株式会社鶴商,,株式会社,愛知県,名古屋市守山区,小幡太田１番８号アーバンラフレ小幡６号棟１００３号,,23,113,4630051,,,,,,,2023-04-20,1,,,,,ツルショウ,0
1343,5180002009711,新規,0,2023-04-20,2023-04-20,鈴木ビル有限会社,,有限会社,愛知県,名古屋市瑞穂区,汐路町１丁目３４番地の４,,23,108,4670003,,,,,,,2023-04-20,1,,,,,スズキビル,0
1350,5190003004306,新規,0,2023-04-20,2023-04-20,合同会社ＩＫＴ,,合同会社,三重県,津市,河芸町上野１４５番地１,,24,201,5100304,,,,,,,2023-04-20,1,,,,,アイケイティ,0
1354,5200001041217,新規,0,2023-04-20,2023-04-20,株式会社サンセラー企業,,株式会社,岐阜県,岐阜市,福富町田２３９番地２,,21,201,5012567,,,,,,,2023-04-20,1,,,,,サンセラーキギョウ,0
1358,5210001019278,新規,0,2023-04-20,2023-04-20,株式会社プロテクティブ高志,,株式会社,福井県,福井市,米松２丁目５番８号,,18,201,9100851,,,,,,,2023-04-20,1,,,,,プロテクティブコシ,0
1359,5210001019286,新規,0,2023-04-20,2023-04-20,Ａｒｔ２３株式会社,,株式会社,福井県,あわら市,瓜生第２１号１９番地,,18,208,9190742,,,,,,,2023-04-20,1,,,,,アートニジュウサン,0
1369,5240001061401,新規,0,2023-04-20,2023-04-20,信愛トータルサービス株式会社,,株式会社,広島県,広島市中区,舟入中町９番１２号,,34,101,7300842,,,,,,,2023-04-20,1,,,,,シンアイトータルサービス,0
1374,5240003006107,新規,0,2023-04-20,2023-04-20,ＦＦＩ　ＳＹＳＴＥＭＳ合同会社,,合同会社,広島県,福山市,春日池３番３０号,,34,207,7210917,,,,,,,2023-04-20,1,,,,,エフエフアイシステムズ,0
1380,5290001101227,新規,0,2023-04-20,2023-04-20,株式会社ＴＲＩＡＮＧＬＥ,,株式会社,福岡県,福岡市中央区,警固３丁目２番１４－２０１号,,40,133,8100023,,,,,,,2023-04-20,1,,,,,トライアングル,0
1381,5290001101268,新規,0,2023-04-20,2023-04-20,株式会社ＣＴ,,株式会社,福岡県,福岡市西区,今津５９０３番地,,40,135,8190165,,,,,,,2023-04-20,1,,,,,シーティー,0
1385,5290003013817,新規,0,2023-04-20,2023-04-20,合同会社アクシスイノベーション,,合同会社,福岡県,福岡市中央区,春吉２丁目９－２５ラ・レジダンス・ド・レーヌ５１１号,,40,133,8100003,,,,,,,2023-04-20,1,,,,,アクシスイノベーション,0
1389,5310001018377,新規,0,2023-04-20,2023-04-20,株式会社ＹＹ,,株式会社,長崎県,佐世保市,大塔町６４８番地１１,,42,202,8571161,,,,,,,2023-04-20,1,,,,,ワイワイ,0
1403,5360001031879,新規,0,2023-04-20,2023-04-20,株式会社ＫＡＬＥＥ　ＷＯＲＬＤ　ＥＮＴＥＲＰＲＩＳＥ,,株式会社,沖縄県,那覇市,壺屋１丁目１番１号,,47,201,9020065,,,,,,,2023-04-20,1,,,,,カリーワールドエンタープライズ,0
1404,5360001031887,新規,0,2023-04-20,2023-04-20,株式会社トリプルエイト宮古島,,株式会社,沖縄県,宮古島市,上野字宮国８８８番地２,,47,214,9060203,,,,,,,2023-04-20,1,,,,,トリプルエイトミヤコジマ,0
1405,5360003012902,新規,0,2023-04-20,2023-04-20,合同会社彩ｓｔｙｌｅ　ｏｋｉｎａｗａ,,合同会社,沖縄県,浦添市,沢岻１丁目４６番５号,,47,208,9012112,,,,,,,2023-04-20,1,,,,,アヤスタイルオキナワ,0
1406,5360005006811,新規,0,2023-04-20,2023-04-20,農事組合法人みらい農畜産組合,,その他の設立登記法人,沖縄県,国頭郡東村,字有銘５５３番地,,47,303,9051206,,,,,,,2023-04-20,1,,,,,ミライノウチクサンクミアイ,0
1409,5370001049846,新規,0,2023-04-20,2023-04-20,ヤドリギ株式会社,,株式会社,宮城県,伊具郡丸森町,大張川張字腰当１４番地２,,04,341,9812302,,,,,,,2023-04-20,1,,,,,ヤドリギ,0
1410,5370001049870,新規,0,2023-04-20,2023-04-20,ＡＮＫＩＴＡ株式会社,,株式会社,宮城県,仙台市青葉区,中江１丁目１番２号ラビットハイツＩＩＩ‐１０１,00130187,04,101,9800001,,,,,,,2023-04-20,1,,,,,アンキタ,0
1413,5370003006093,新規,0,2023-04-20,2023-04-20,虹夢合同会社,,合同会社,宮城県,石巻市,小船越字舟形１７６番地１,,04,202,9860132,,,,,,,2023-04-20,1,,,,,コウム,0
1414,5370005010622,新規,0,2023-04-20,2023-04-20,特定非営利活動法人スポットライト,,その他の設立登記法人,宮城県,仙台市宮城野区,幸町２丁目９番８号,,04,102,9830836,,,,,,,2023-04-20,1,,,,,スポットライト,0
1419,5390003002082,新規,0,2023-04-20,2023-04-20,合同会社ＹＭアカデミーサポート,,合同会社,山形県,山形市,飯田１丁目１番８号,,06,201,9902332,,,,,,,2023-04-20,1,,,,,ワイエムアカデミーサポート,0
1426,5410001013467,新規,0,2023-04-20,2023-04-20,株式会社北日本鉄工,,株式会社,秋田県,北秋田市,米内沢字中島１１番地,,05,213,0184301,,,,,,,2023-04-20,1,,,,,キタニホンテッコウ,0
1428,5420001018234,新規,0,2023-04-20,2023-04-20,株式会社トラスト,,株式会社,青森県,青森市,大字駒込字月見野５３３番地１,,02,201,0300954,,,,,,,2023-04-20,1,,,,,トラスト,0
1432,5420003002707,新規,0,2023-04-20,2023-04-20,ＹＡＭＡＢＥ合同会社,,合同会社,青森県,三戸郡五戸町,字狐森１０番地９,,02,442,0391531,,,,,,,2023-04-20,1,,,,,ヤマベ,0
1434,5430001088862,新規,0,2023-04-20,2023-04-20,Ｚｅｋｋｅｉ　Ｆｕｄｏｓａｎ株式会社,,株式会社,北海道,札幌市中央区,北五条西８丁目１番１－１１０６号,,01,101,0600005,,,,,,,2023-04-20,1,,,,,ゼッケイフドサン,0
1435,5430001088887,新規,0,2023-04-20,2023-04-20,株式会社ディスティナ,,株式会社,北海道,札幌市東区,北十条東６丁目１番１６－９０４号,,01,103,0650010,,,,,,,2023-04-20,1,,,,,ディスティナ,0
1437,5430003014949,新規,0,2023-04-20,2023-04-20,合同会社早勢制作所,,合同会社,北海道,空知郡南幌町,美園４丁目２－９,,01,423,0690234,,,,,,,2023-04-20,1,,,,,ハヤセセイサクショ,0
1441,5450003002324,新規,0,2023-04-20,2023-04-20,合同会社ＢＵＤＤＹ,,合同会社,北海道,旭川市,春光台二条６丁目５番３号春光台２・６ハイツ１Ｆ,,01,204,0718142,,,,,,,2023-04-20,1,,,,,バディ,0
1443,5460101007372,新規,0,2023-04-20,2023-04-20,白井建設株式会社,,株式会社,北海道,帯広市,西二十一条南２丁目３１番１号,,01,207,0802471,,,,,,,2023-04-20,1,,,,,シライケンセツ,0
1447,5500001024884,新規,0,2023-04-20,2023-04-20,株式会社シーエスデポ,,株式会社,愛媛県,伊予市,上吾川甲５４４番地６,,38,210,7993112,,,,,,,2023-04-20,1,,,,,シーエスデポ,0
1453,5700150115605,新規,0,2023-04-20,2023-04-20,ＧＩＡＮＴＩＮＯ　ＣＯＲＰＯＲＡＴＩＯＮ,,外国会社等,,,,,,,,３Ｆ．，Ｎｏ．３０，Ｐｅｎｇｌａｉ　Ｒｄ．，Ｗｕｇｕ　Ｄｉｓｔ．，Ｎｅｗ　Ｔａｉｐｅｉ　Ｃｉｔｙ　２４８，Ｔａｉｗａｎ（Ｒ．Ｏ．Ｃ）,,,,,,2023-04-20,1,,,,,ジューヤンヨウシエンゴンスー,0
1472,6010001234697,新規,0,2023-04-20,2023-04-20,Ｔｏｋｙｏ‐２ＧＰ株式会社,,株式会社,東京都,千代田区,丸の内１丁目９番２号,,13,101,1000005,,,,,,,2023-04-20,1,,,,,トーキョーツージーピー,0
1473,6010003040292,新規,0,2023-04-20,2023-04-20,合同会社コネクトフォー,,合同会社,東京都,千代田区,九段南１丁目５番６号りそな九段ビル５階ＫＳフロア,,13,101,1020074,,,,,,,2023-04-20,1,,,,,コネクトフォー,0
1475,6010005036537,新規,0,2023-04-20,2023-04-20,特定非営利活動法人ＮＰＯ日本人材育成支援機構,,その他の設立登記法人,東京都,千代田区,九段南１丁目５番６号りそな九段ビル５階,,13,101,1020074,,,,,,,2023-04-20,1,,,,,,0
1476,6010005036545,新規,0,2023-04-20,2023-04-20,司法書士法人東京第一パートナーズ,,その他の設立登記法人,東京都,千代田区,神田錦町１丁目５番地５ＯＺＩＯ大手町５Ｆ,,13,101,1010054,,,,,,,2023-04-20,1,,,,,トウキョウダイイチパートナーズ,0
1487,6010401173792,新規,0,2023-04-20,2023-04-20,株式会社ｌｉｂｅｒｔｅ．,,株式会社,東京都,港区,南青山３丁目１番３６号青山丸竹ビル６Ｆ,,13,103,1070062,,,,,,,2023-04-20,1,,,,,リベルテ,0
1488,6010405022054,新規,0,2023-04-20,2023-04-20,一般社団法人アフリカンラグーン,,その他の設立登記法人,東京都,港区,新橋４丁目３０番６号京急中はらビル５Ｆ,,13,103,1050004,,,,,,,2023-04-20,1,,,,,アフリカンラグーン,0
1496,6010603010100,新規,0,2023-04-20,2023-04-20,将軍ＴＲＡＤＥ合同会社,,合同会社,東京都,江東区,辰巳２丁目１番５６－８０８号,,13,108,1350053,,,,,,,2023-04-20,1,,,,,ショウグントレード,0
1497,6010805003018,新規,0,2023-04-20,2023-04-20,一般財団法人Ｎｏｂｅｌ　Ｓｕｓｔａｉｎａｂｉｌｉｔｙ　Ｔｒｕｓｔ　Ｊａｐａｎ,,その他の設立登記法人,東京都,大田区,西馬込２丁目１番５号,,13,111,1430026,,,,,,,2023-04-20,1,,,,,ノーベルサステイナビリティトラストジャパン,0
1504,6011001153929,新規,0,2023-04-20,2023-04-20,株式会社ＡＺＥＲＥＳＴ,,株式会社,東京都,渋谷区,本町３丁目４３番３号パレステュディオ渋谷本町７０３,,13,113,1510071,,,,,,,2023-04-20,1,,,,,アゼレスト,0
1505,6011003016695,新規,0,2023-04-20,2023-04-20,タイソンキャピタル３号合同会社,,合同会社,東京都,渋谷区,上原１丁目１７番１４号,,13,113,1510064,,,,,,,2023-04-20,1,,,,,タイソンキャピタルサンゴウ,0
1512,6011101102595,新規,0,2023-04-20,2023-04-20,株式会社東凱,,株式会社,東京都,新宿区,大久保３丁目８番１－６０６号,,13,104,1690072,,,,,,,2023-04-20,1,,,,,トウガイ,0
1513,6011103012966,新規,0,2023-04-20,2023-04-20,Ｄａｉｂａｎ　Ｈｏｔｅｌ　Ｏｎｅ合同会社,,合同会社,東京都,新宿区,四谷２丁目９番地１５東京ユナイテッド綜合事務所内,,13,104,1600004,,,,,,,2023-04-20,1,,,,,ダイバンホテルワン,0
1514,6011105010638,新規,0,2023-04-20,2023-04-20,Ｄａｉｂａｎ　Ｈｏｔｅｌ　Ｏｎｅ一般社団法人,,その他の設立登記法人,東京都,新宿区,四谷２丁目９番地１５東京ユナイテッド綜合事務所内,,13,104,1600004,,,,,,,2023-04-20,1,,,,,ダイバンホテルワン,0
1519,6011501029158,新規,0,2023-04-20,2023-04-20,和キャピタル株式会社,,株式会社,東京都,北区,中十条２丁目１６－８オーリンハウス,,13,117,1140032,,,,,,,2023-04-20,1,,,,,ナゴミキャピタル,0
1526,6011701026178,新規,0,2023-04-20,2023-04-20,株式会社菊工業,,株式会社,東京都,江戸川区,清新町２丁目４番１１－４０３号,,13,123,1340087,,,,,,,2023-04-20,1,,,,,キクコウギョウ,0
1528,6011703003448,新規,0,2023-04-20,2023-04-20,合同会社菊太楼事務局,,合同会社,東京都,江戸川区,南葛西２丁目１４番１８‐４０１号,,13,123,1340085,,,,,,,2023-04-20,1,,,,,キクタロウジムキョク,0
1529,6011801042232,新規,0,2023-04-20,2023-04-20,株式会社ＮＡＮＡＭＡＸ,,株式会社,東京都,足立区,谷在家１丁目１９番１９号,,13,121,1230863,,,,,,,2023-04-20,1,,,,,ナナマックス,0
1535,6013301050640,新規,0,2023-04-20,2023-04-20,株式会社Ｈａｎｄ　Ｐｉｃｋｓ,,株式会社,東京都,豊島区,池袋３丁目７番１３号,,13,116,1710014,,,,,,,2023-04-20,1,,,,,ハンドピックス,0
1536,6013303006590,新規,0,2023-04-20,2023-04-20,音音工房合同会社,,合同会社,東京都,豊島区,東池袋１丁目３４番５号６階,,13,116,1700013,,,,,,,2023-04-20,1,,,,,オトネコウボウ,0
1542,6021001078811,新規,0,2023-04-20,2023-04-20,株式会社ＴＭＲ,,株式会社,神奈川県,茅ヶ崎市,松浪２丁目２番３２号,,14,207,2530022,,,,,,,2023-04-20,1,,,,,ティーエムアール,0
1552,6030001153441,新規,0,2023-04-20,2023-04-20,ＭＫ株式会社,,株式会社,埼玉県,熊谷市,弥藤吾２１９２番地５,,11,202,3600203,,,,,,,2023-04-20,1,,,,,エムケイ,0
1553,6030001153474,新規,0,2023-04-20,2023-04-20,株式会社玖松,,株式会社,埼玉県,川口市,芝富士２丁目３－２３,,11,203,3330854,,,,,,,2023-04-20,1,,,,,クマツ,0
1554,6030001153532,新規,0,2023-04-20,2023-04-20,株式会社ＳＴＵＤ,,株式会社,埼玉県,草加市,氷川町２１５２番地２クレドール草加１０６号,,11,221,3400034,,,,,,,2023-04-20,1,,,,,スタッド,0
1560,6030003021596,新規,0,2023-04-20,2023-04-20,合同会社売却ラボ,,合同会社,埼玉県,川越市,大字下広谷８６０番地４５,,11,201,3500804,,,,,,,2023-04-20,1,,,,,バイキャクラボ,0
1561,6030005021215,新規,0,2023-04-20,2023-04-20,医療法人社団エトワール,,その他の設立登記法人,埼玉県,深谷市,人見４４５番地１,,11,218,3660811,,,,,,,2023-04-20,1,,,,,エトワール,0
1562,6030005021223,新規,0,2023-04-20,2023-04-20,医療法人葵大会,,その他の設立登記法人,埼玉県,越谷市,南越谷１丁目１９番地２アバンセ南越谷５階,,11,222,3430845,,,,,,,2023-04-20,1,,,,,アオイカイ,0
1563,6040001128046,新規,0,2023-04-20,2023-04-20,クラリー株式会社,,株式会社,千葉県,鎌ケ谷市,南初富３丁目７番３５号,,12,224,2730123,,,,,,,2023-04-20,1,,,,,クラリー,0
1564,6040001128054,新規,0,2023-04-20,2023-04-20,株式会社らしく,,株式会社,千葉県,袖ケ浦市,蔵波２９０３番地７４,,12,229,2990243,,,,,,,2023-04-20,1,,,,,ラシク,0
1568,6040003022429,新規,0,2023-04-20,2023-04-20,合同会社フィールドアセット,,合同会社,千葉県,船橋市,上山町１丁目２３６番地１ザ・ガーデンプレミアム１４０１号,,12,204,2730046,,,,,,,2023-04-20,1,,,,,フィールドアセット,0
1569,6040003022445,新規,0,2023-04-20,2023-04-20,ワイエスケーコンサルティング合同会社,,合同会社,千葉県,浦安市,高洲８丁目１番Ｂ－７１４号,,12,227,2790023,,,,,,,2023-04-20,1,,,,,ワイエスケーコンサルティング,0
1572,6050001052716,新規,0,2023-04-20,2023-04-20,株式会社飯島青果,,株式会社,茨城県,つくば市,九万坪４８番地３２,,08,220,3001262,,,,,,,2023-04-20,1,,,,,イイジマセイカ,0
1573,6050001052724,新規,0,2023-04-20,2023-04-20,藤建工業株式会社,,株式会社,茨城県,久慈郡大子町,大字上野宮４４９－２,,08,364,3193704,,,,,,,2023-04-20,1,,,,,フジケンコウギョウ,0
1574,6050001052732,新規,0,2023-04-20,2023-04-20,株式会社ジョイント８３,,株式会社,茨城県,牛久市,神谷１丁目５２番地４,,08,219,3001216,,,,,,,2023-04-20,1,,,,,ジョイントハチサン,0
1575,6050003007437,新規,0,2023-04-20,2023-04-20,合同会社Ｎｅｘｔ　ｉｎｎｏｖａｔｉｏｎ,,合同会社,茨城県,那珂郡東海村,東海１丁目１６番２号ｇｕｐｌｕｓ１０１,,08,341,3191117,,,,,,,2023-04-20,1,,,,,ネクストイノベーション,0
1580,6070003004911,新規,0,2023-04-20,2023-04-20,ＤＧ　ＬＡＮＤ合同会社,,合同会社,群馬県,前橋市,上佐鳥町１５－１,,10,201,3710816,,,,,,,2023-04-20,1,,,,,,0
1586,6080103002780,新規,0,2023-04-20,2023-04-20,合同会社Ｎｕｍａｚｕ　Ｈａｌａｌ　Ｓｕｐｐｌｉｅｒｓ,,合同会社,静岡県,沼津市,錦町３番地の１,,22,203,4100807,,,,,,,2023-04-20,1,,,,,ヌマズハラールサプライヤーズ,0
1595,6100002031572,新規,0,2023-04-20,2023-04-20,有限会社南信ヤマキ,,有限会社,長野県,岡谷市,東銀座１丁目１４番１５号,,20,204,3940023,,,,,,,2023-04-20,1,,,,,ナンシンヤマキ,0
1607,6120001254115,新規,0,2023-04-20,2023-04-20,株式会社ｓａｍｒｋ,,株式会社,大阪府,大阪市生野区,新今里３丁目１２番５号スカイプラザＩＩ５０２号,00130182,27,116,5440001,,,,,,,2023-04-20,1,,,,,スマーク,0
1608,6120001254222,新規,0,2023-04-20,2023-04-20,株式会社Ｓｅｃｏｎｄ　ｅｆｆｏｒｔ,,株式会社,大阪府,大阪市中央区,内平野町２丁目２－７大阪文化会館５０５,,27,128,5400037,,,,,,,2023-04-20,1,,,,,セカンドエフォート,0
1609,6120001254247,新規,0,2023-04-20,2023-04-20,株式会社ＭＩＲＡＩホールディングス,,株式会社,大阪府,大阪市中央区,平野町３丁目１番６号,,27,128,5410046,,,,,,,2023-04-20,1,,,,,ミライホールディングス,0
1610,6120001254255,新規,0,2023-04-20,2023-04-20,青坂商事グループ株式会社,,株式会社,大阪府,大阪市旭区,清水５丁目５番１８号ロイヤルコート清水３０２号室,,27,117,5350021,,,,,,,2023-04-20,1,,,,,アオサカショウジグループ,0
1618,6120003023880,新規,0,2023-04-20,2023-04-20,ＨｅｌｌｏＳｅａｒｃｈ合同会社,,合同会社,大阪府,大阪市北区,梅田１丁目２番２号大阪駅前第２ビル１２－１２,,27,127,5300001,,,,,,,2023-04-20,1,,,,,ハローサーチ,0
1623,6120101067400,新規,0,2023-04-20,2023-04-20,株式会社井上シール,,株式会社,大阪府,富田林市,本町１７番８号,,27,214,5840093,,,,,,,2023-04-20,1,,,,,イノウエシール,0
1624,6120101067409,新規,0,2023-04-20,2023-04-20,はるか不動産株式会社,,株式会社,大阪府,堺市南区,新檜尾台３丁６番３,,27,145,5900143,,,,,,,2023-04-20,1,,,,,ハルカフドウサン,0
1630,6130001074140,新規,0,2023-04-20,2023-04-20,株式会社ＳＭＹＲ,,株式会社,京都府,宇治市,琵琶台２丁目４番地の１０,,26,204,6110024,,,,,,,2023-04-20,1,,,,,スマイル,0
1631,6130001074149,新規,0,2023-04-20,2023-04-20,株式会社ジュウン,,株式会社,京都府,京都市伏見区,石田森西６１－３,,26,109,6011437,,,,,,,2023-04-20,1,,,,,ジュウン,0
1636,6140001129843,新規,0,2023-04-20,2023-04-20,ＳＯＲＡＥ株式会社,,株式会社,兵庫県,西宮市,西宮浜４丁目１２番４－３０８号,,28,204,6620934,,,,,,,2023-04-20,1,,,,,ソラエ,0
1637,6140001129876,新規,0,2023-04-20,2023-04-20,株式会社Ｄ・ＯＮＥ,,株式会社,兵庫県,神戸市東灘区,向洋町中１丁目１７ＡｓｉａＯｎｅＣｅｎｔｅｒ１Ｆ,,28,101,6580032,,,,,,,2023-04-20,1,,,,,ディワン,0
1642,6140003019002,新規,0,2023-04-20,2023-04-20,合同会社ライフデザイナーズ,,合同会社,兵庫県,神戸市灘区,倉石通５丁目１番５－８０３号,,28,102,6570826,,,,,,,2023-04-20,1,,,,,ライフデザイナーズ,0
1646,6150001026338,新規,0,2023-04-20,2023-04-20,シンエイ精工株式会社,,株式会社,奈良県,奈良市,鹿野園町８５０番地,,29,201,6308425,,,,,,,2023-04-20,1,,,,,シンエイセイコウ,0
1658,6180001155976,新規,0,2023-04-20,2023-04-20,株式会社ティーエス・ビージー,,株式会社,愛知県,名古屋市守山区,金屋１丁目２５番３号,,23,113,4630072,,,,,,,2023-04-20,1,,,,,ティーエスビージー,0
1662,6180003025145,新規,0,2023-04-20,2023-04-20,合同会社ＭＨ　ＣＯＭＰＡＮＹ,,合同会社,愛知県,豊明市,三崎町中ノ坪１３－１３サン服部２階Ｅ号室,,23,229,4701125,,,,,,,2023-04-20,1,,,,,エムエッチカンパニー,0
1675,6210001019285,新規,0,2023-04-20,2023-04-20,みんなの海株式会社,,株式会社,福井県,坂井市,三国町浜地第３０号１３番地２,,18,210,9130005,,,,,,,2023-04-20,1,,,,,ミンナノウミ,0
1676,6230001019804,新規,0,2023-04-20,2023-04-20,ルブ・オートモーティブプロダクツ株式会社,,株式会社,富山県,富山市,草島２３５番地４４,,16,201,9302201,,,,,,,2023-04-20,1,,,,,ルブオートモーティブプロダクツ,0
1679,6240001061400,新規,0,2023-04-20,2023-04-20,株式会社ＬＡＮＤ　ＣＯＮＳＵＬＴＩＮＧ,,株式会社,広島県,広島市南区,松原町５番２－２６１２号,,34,103,7320822,,,,,,,2023-04-20,1,,,,,ランドコンサルティング,0
1682,6240003006106,新規,0,2023-04-20,2023-04-20,合同会社ゴリラ,,合同会社,広島県,東広島市,八本松町飯田１４９番地１６,,34,212,7390141,,,,,,,2023-04-20,1,,,,,ゴリラ,0
1686,6250001020058,新規,0,2023-04-20,2023-04-20,株式会社Ｒｏｏｍ６１,,株式会社,山口県,宇部市,中央町２丁目４番７号ＴＫビルルナーレ７Ｆ,,35,202,7550045,,,,,,,2023-04-20,1,,,,,ルームムイチ,0
1690,6290001101250,新規,0,2023-04-20,2023-04-20,ＡＲＴ不動産株式会社,,株式会社,福岡県,筑紫野市,武蔵３丁目５番１８号,,40,217,8180052,,,,,,,2023-04-20,1,,,,,アートフドウサン,0
1691,6290001101267,新規,0,2023-04-20,2023-04-20,Ｇｅｎｙｏｕｓｈａ株式会社,,株式会社,福岡県,福岡市博多区,金の隈２丁目３番５０号,,40,132,8120863,,,,,,,2023-04-20,1,,,,,ゲンヨウシャ,0
1692,6290001101275,新規,0,2023-04-20,2023-04-20,株式会社ＹＣＵ,,株式会社,福岡県,福岡市博多区,住吉３丁目９番１６―８０２号,,40,132,8120018,,,,,,,2023-04-20,1,,,,,ワイシーユー,0
1693,6290003013774,新規,0,2023-04-20,2023-04-20,Ｍｉｃｈｅｌｌｅ　Ａｕｔｏ合同会社,,合同会社,福岡県,福岡市南区,皿山２丁目１番８号,,40,134,8111365,,,,,,,2023-04-20,1,,,,,ミッシェルオート,0
1694,6290003013799,新規,0,2023-04-20,2023-04-20,でんきの駅合同会社,,合同会社,福岡県,福岡市博多区,博多駅前３丁目３０番２３号,,40,132,8120011,,,,,,,2023-04-20,1,,,,,デンキノエキ,0
1696,6290801029476,新規,0,2023-04-20,2023-04-20,株式会社ＨＡＬ‐ＴＥＱ,,株式会社,福岡県,田川市,大字川宮７７９‐１３,,40,206,8260042,,,,,,,2023-04-20,1,,,,,ハルテック,0
1697,6320001019695,新規,0,2023-04-20,2023-04-20,株式会社Ｒｉｒｉ’ｓ,,株式会社,大分県,別府市,石垣東４丁目４番４７号Ａｃｔｙ石垣東Ｂ１０５号,,44,202,8740919,,,,,,,2023-04-20,1,,,,,リリズ,0
1708,6360001031894,新規,0,2023-04-20,2023-04-20,株式会社ＳＬＫ,,株式会社,沖縄県,那覇市,宇栄原６丁目１４－５ヒロマンション１０１号室,,47,201,9010153,,,,,,,2023-04-20,1,,,,,エスエルケイ,0
1713,6380001033625,新規,0,2023-04-20,2023-04-20,株式会社たんせい,,株式会社,福島県,いわき市,平字倉前１１２番地の５,,07,204,9708026,,,,,,,2023-04-20,1,,,,,タンセイ,0
1717,6400001016214,新規,0,2023-04-20,2023-04-20,株式会社佐々木工業,,株式会社,岩手県,紫波郡紫波町,中島字桜田６５番地３,,03,321,0283301,,,,,,,2023-04-20,1,,,,,ササキコウギョウ,0
1720,6410005006516,新規,0,2023-04-20,2023-04-20,一般社団法人ＬＥＩ,,その他の設立登記法人,秋田県,秋田市,千秋明徳町１番５６号,,05,201,0100875,,,,,,,2023-04-20,1,,,,,エルイーアイ,0
1723,6420003002706,新規,0,2023-04-20,2023-04-20,合同会社みさきファーム,,合同会社,青森県,南津軽郡田舎館村,大字東光寺字村上７６番地,,02,367,0381101,,,,,,,2023-04-20,1,,,,,ミサキファーム,0
1730,6430001088878,新規,0,2023-04-20,2023-04-20,株式会社リウムアーキテクツ,,株式会社,北海道,札幌市白石区,東札幌五条１丁目１番１号,,01,104,0030005,,,,,,,2023-04-20,1,,,,,リウムアーキテクツ,0
1732,6430003014948,新規,0,2023-04-20,2023-04-20,合同会社吉田技工,,合同会社,北海道,江別市,緑町東３丁目１１１番地の１,,01,217,0670003,,,,,,,2023-04-20,1,,,,,ヨシダギコウ,0
1738,6460102003997,新規,0,2023-04-20,2023-04-20,有限会社エム・ティ・ケー・ケー,,有限会社,北海道,帯広市,西二十五条南３丁目２４番地１６,,01,207,0802475,,,,,,,2023-04-20,1,,,,,エムティケーケー,0
1739,6460105002261,新規,0,2023-04-20,2023-04-20,一般社団法人たすけあい憩いの里愛生会,,その他の設立登記法人,北海道,帯広市,広野町２１０番地,,01,207,0802335,,,,,,,2023-04-20,1,,,,,タスケアイイコイノサトアイセイカイ,0
1755,7010001234481,新規,0,2023-04-20,2023-04-20,株式会社Ｒ４,,株式会社,東京都,中央区,銀座１丁目２２番１１号銀座大竹ビジデンス２階,,13,102,1040061,,,,,,,2023-04-20,1,,,,,アールフォー,0
1756,7010001234630,新規,0,2023-04-20,2023-04-20,株式会社Ｍａｔｅｒｉａｌ　Ｉｎｆｉｎｉｔｙ,,株式会社,東京都,文京区,本郷６丁目２５番１４号,,13,105,1130033,,,,,,,2023-04-20,1,,,,,マテリアルインフィニティ,0
1766,7010401173858,新規,0,2023-04-20,2023-04-20,ＯＦＦＥＫＴ株式会社,,株式会社,東京都,港区,元麻布３丁目１番６号,,13,103,1060046,,,,,,,2023-04-20,1,,,,,オフェクト,0
1767,7010403029950,新規,0,2023-04-20,2023-04-20,ヘキサ・エネルギーサービス合同会社,,合同会社,東京都,港区,元麻布３丁目１番６号,,13,103,1060046,,,,,,,2023-04-20,1,,,,,ヘキサエネルギーサービス,0
1768,7010403029959,新規,0,2023-04-20,2023-04-20,ＦＦコンサルティング合同会社,,合同会社,東京都,港区,浜松町２丁目２番１５号浜松町ダイヤビル２Ｆ,,13,103,1050013,,,,,,,2023-04-20,1,,,,,エフエフコンサルティング,0
1773,7010503006965,新規,0,2023-04-20,2023-04-20,合同会社Ｆ’ｓ　Ｃｏｍｐａｎｙ,,合同会社,東京都,台東区,千束４丁目２３－１０,,13,106,1110031,,,,,,,2023-04-20,1,,,,,エフズカンパニー,0
1782,7010703006666,新規,0,2023-04-20,2023-04-20,合同会社ファントムワークス,,合同会社,東京都,品川区,西五反田２丁目９番７号,,13,109,1410031,,,,,,,2023-04-20,1,,,,,ファントムワークス,0
1786,7011001153911,新規,0,2023-04-20,2023-04-20,株式会社Ｇｕｔｉ,,株式会社,東京都,目黒区,東山３丁目１番１９号,,13,110,1530043,,,,,,,2023-04-20,1,,,,,グティ,0
1787,7011001153928,新規,0,2023-04-20,2023-04-20,ＴＲＥＮＤＬＩＮＫＳ株式会社,,株式会社,東京都,渋谷区,道玄坂１丁目１０番８号渋谷道玄坂東急ビル２Ｆ－Ｃ,,13,113,1500043,,,,,,,2023-04-20,1,,,,,トレンドリンクス,0
1794,7011101102594,新規,0,2023-04-20,2023-04-20,株式会社ＫＩＫＵ,,株式会社,東京都,新宿区,西新宿３丁目３番１３号西新宿水間ビル２Ｆ,,13,104,1600023,,,,,,,2023-04-20,1,,,,,キク,0
1795,7011103012949,新規,0,2023-04-20,2023-04-20,合同会社Ｆｏｖａｒ,,合同会社,東京都,新宿区,西新宿３丁目３番１３号西新宿水間ビル６階,,13,104,1600023,,,,,,,2023-04-20,1,,,,,フォバー,0
1796,7011103012965,新規,0,2023-04-20,2023-04-20,東申合同会社,,合同会社,東京都,新宿区,榎町３４－３榎町ビル７階－１１室,,13,104,1620806,,,,,,,2023-04-20,1,,,,,トウシン,0
1801,7011205002550,新規,0,2023-04-20,2023-04-20,一般社団法人東京演劇集団風研究所,,その他の設立登記法人,東京都,中野区,東中野１丁目２番４号,,13,114,1640003,,,,,,,2023-04-20,1,,,,,トウキョウエンゲキシュウダンカゼケンキュウジョ,0
1807,7011501029181,新規,0,2023-04-20,2023-04-20,株式会社アルファ・ワン・ハウジング,,株式会社,東京都,荒川区,西日暮里２丁目２９番６号秋山ビル３階,,13,118,1160013,,,,,,,2023-04-20,1,,,,,アルファワンハウジング,0
1812,7011701026177,新規,0,2023-04-20,2023-04-20,株式会社北川工務店,,株式会社,東京都,江戸川区,西葛西８丁目１番２２号,,13,123,1340088,,,,,,,2023-04-20,1,,,,,キタガワコウムテン,0
1816,7011801042256,新規,0,2023-04-20,2023-04-20,株式会社グローバルパック,,株式会社,東京都,足立区,鹿浜６丁目１４番６号,,13,121,1230864,,,,,,,2023-04-20,1,,,,,グローバルパック,0
1817,7011801042272,新規,0,2023-04-20,2023-04-20,東城株式会社,,株式会社,東京都,葛飾区,堀切４丁目８番１２号１Ｆ,,13,122,1240006,,,,,,,2023-04-20,1,,,,,トウジョウ,0
1827,7020001151247,新規,0,2023-04-20,2023-04-20,株式会社すみれホーム,,株式会社,神奈川県,横浜市港南区,大久保２丁目８番２６号,,14,111,2330007,,,,,,,2023-04-20,1,,,,,スミレホーム,0
1828,7020001151255,新規,0,2023-04-20,2023-04-20,株式会社カシータ,,株式会社,神奈川県,横浜市西区,北幸１丁目５番３号アーバンヨコハマビル９階,,14,103,2200004,,,,,,,2023-04-20,1,,,,,カシータ,0
1832,7020003023725,新規,0,2023-04-20,2023-04-20,合同会社いぶき,,合同会社,神奈川県,川崎市多摩区,枡形２丁目１８番５号,,14,135,2140032,,,,,,,2023-04-20,1,,,,,イブキ,0
1833,7020003023766,新規,0,2023-04-20,2023-04-20,合同会社ＬＵＰＩＲＯＵＳ,,合同会社,神奈川県,横浜市西区,浅間町１丁目４番３号ウィザードビル４０２,,14,103,2200072,,,,,,,2023-04-20,1,,,,,ルピラス,0
1834,7020005015927,新規,0,2023-04-20,2023-04-20,一般社団法人オーシャン太郎,,その他の設立登記法人,神奈川県,川崎市高津区,坂戸３丁目２番１号,,14,134,2130012,,,,,,,2023-04-20,1,,,,,オーシャンタロウ,0
1844,7030001153465,新規,0,2023-04-20,2023-04-20,東宇株式会社,,株式会社,埼玉県,川口市,芝西１丁目２４番２６－１号,,11,203,3330855,,,,,,,2023-04-20,1,,,,,トウウ,0
1845,7030005021214,新規,0,2023-04-20,2023-04-20,医療法人社団真誠の樹,,その他の設立登記法人,埼玉県,春日部市,小渕１５９３番地１,,11,214,3440007,,,,,,,2023-04-20,1,,,,,シンセイノキ,0
1855,7050001052715,新規,0,2023-04-20,2023-04-20,ＡＭＥＲ　ＩＮＴＥＲＮＡＴＩＯＮＡＬ株式会社,,株式会社,茨城県,古河市,尾崎１９８７番地６,,08,204,3060101,,,,,,,2023-04-20,1,,,,,アメルインターナショナル,0
1857,7050003007436,新規,0,2023-04-20,2023-04-20,合同会社Ａｃｅ　Ｏｕｔ,,合同会社,茨城県,那珂郡東海村,東海１丁目１６番２号ｇｕｐｌｕｓ１０１,,08,341,3191117,,,,,,,2023-04-20,1,,,,,エースアウト,0
1858,7050003007444,新規,0,2023-04-20,2023-04-20,ストレージ合同会社,,合同会社,茨城県,神栖市,息栖３０３１番地９８,,08,232,3140133,,,,,,,2023-04-20,1,,,,,ストレージ,0
1859,7060003004523,新規,0,2023-04-20,2023-04-20,合同会社ザイン,,合同会社,栃木県,宇都宮市,富士見が丘３丁目２５－３グレース富士見ヶ丘１０１,,09,201,3200011,,,,,,,2023-04-20,1,,,,,ザイン,0
1865,7080101023927,新規,0,2023-04-20,2023-04-20,株式会社ＭＲＹホールディングス,,株式会社,静岡県,富士市,厚原２３２番地の２,,22,210,4190201,,,,,,,2023-04-20,1,,,,,エムアールワイホールディングス,0
1866,7080101023935,新規,0,2023-04-20,2023-04-20,株式会社アイセイドー,,株式会社,静岡県,伊東市,富戸１３１７番地の３７８５大室高原４‐７５３,,22,208,4130231,,,,,,,2023-04-20,1,,,,,アイセイドー,0
1867,7080101023943,新規,0,2023-04-20,2023-04-20,株式会社筒井牧場,,株式会社,静岡県,富士宮市,村山１２７１番地の８,,22,207,4180012,,,,,,,2023-04-20,1,,,,,ツツイボクジョウ,0
1869,7090003002301,新規,0,2023-04-20,2023-04-20,北杜世ヰ合同会社ますべ,,合同会社,山梨県,北杜市,長坂町字大八田４６０２番地,,19,209,4080000,,,,,,,2023-04-20,1,,,,,ホクトセイマスベ,0
1884,7120001254114,新規,0,2023-04-20,2023-04-20,株式会社ｂｒｉｇｈｔ　ｆｕｔｕｒｅ,,株式会社,大阪府,大阪市淀川区,新北野１丁目１１番１９号東洋プラザ新北野３０６号,,27,123,5320025,,,,,,,2023-04-20,1,,,,,ブライトフューチャー,0
1885,7120001254171,新規,0,2023-04-20,2023-04-20,株式会社ＳＫＲ,,株式会社,大阪府,大阪市浪速区,戎本町２丁目４番８－２０２号,,27,111,5560013,,,,,,,2023-04-20,1,,,,,エスケイアール,0
1886,7120001254262,新規,0,2023-04-20,2023-04-20,日本電気保安サービス株式会社,,株式会社,大阪府,大阪市生野区,巽中１丁目１１番２６号,00130195,27,116,5440013,,,,,,,2023-04-20,1,,,,,ニホンデンキホアンサービス,0
1891,7120003023871,新規,0,2023-04-20,2023-04-20,合同会社Ｒ．ｌｅａｄ,,合同会社,大阪府,大阪市都島区,都島本通２丁目１２番９号,,27,102,5340021,,,,,,,2023-04-20,1,,,,,アールリード,0
1892,7120003023888,新規,0,2023-04-20,2023-04-20,合同会社デジヤク,,合同会社,大阪府,門真市,幸福町２１番地１,,27,223,5710066,,,,,,,2023-04-20,1,,,,,デジヤク,0
1893,7120003023896,新規,0,2023-04-20,2023-04-20,合同会社ＪＯＡＴ,,合同会社,大阪府,枚方市,藤阪元町２丁目３４番４号,,27,210,5730157,,,,,,,2023-04-20,1,,,,,ジョート,0
1896,7120101067358,新規,0,2023-04-20,2023-04-20,株式会社エースファクトリー,,株式会社,大阪府,堺市西区,津久野町１丁６番３５号８１４,,27,144,5938322,,,,,,,2023-04-20,1,,,,,エースファクトリー,0
1897,7120101067408,新規,0,2023-04-20,2023-04-20,株式会社ＡＰＯＬＬＯ,,株式会社,大阪府,松原市,高見の里３丁目１２番１６号,,27,217,5800021,,,,,,,2023-04-20,1,,,,,アポロ,0
1901,7122001036905,新規,0,2023-04-20,2023-04-20,エイリョー株式会社,,株式会社,大阪府,東大阪市,瓜生堂２丁目７番１１号,,27,227,5780946,,,,,,,2023-04-20,1,,,,,エイリョー,0
1925,7140001129875,新規,0,2023-04-20,2023-04-20,株式会社ＷＡＧＮＥＲ　ＭｏｔｏｒＳｐｏｒｔｓ,,株式会社,兵庫県,神戸市西区,伊川谷町潤和２３８－３５６－１Ｆ,,28,111,6512124,,,,,,,2023-04-20,1,,,,,ワグナーモータースポーツ,0
1927,7150001026329,新規,0,2023-04-20,2023-04-20,株式会社歩・ＡＹＵＭＵ,,株式会社,奈良県,天理市,富堂町２１３番地４,,29,204,6320072,,,,,,,2023-04-20,1,,,,,アユム,0
1928,7150001026337,新規,0,2023-04-20,2023-04-20,株式会社ゆとろぎ珈琲,,株式会社,奈良県,吉野郡大淀町,大字北野１３３番地１９,,29,442,6393125,,,,,,,2023-04-20,1,,,,,ユトロギコーヒー,0
1938,7180001155967,新規,0,2023-04-20,2023-04-20,株式会社ｃｏｃｏｎ,,株式会社,愛知県,名古屋市瑞穂区,汐路町２丁目１７番地の１アイルシティ汐路４０１号,,23,108,4670003,,,,,,,2023-04-20,1,,,,,ココン,0
1952,7200001041215,新規,0,2023-04-20,2023-04-20,型宮産業株式会社,,株式会社,岐阜県,多治見市,赤坂町８丁目１７５番地の１,,21,204,5070057,,,,,,,2023-04-20,1,,,,,カタミヤサンギョウ,0
1959,7230001019803,新規,0,2023-04-20,2023-04-20,株式会社ネクストプラス,,株式会社,富山県,富山市,城北町２番３６号,,16,201,9300854,,,,,,,2023-04-20,1,,,,,ネクストプラス,0
1960,7230003002006,新規,0,2023-04-20,2023-04-20,合同会社いみずみらい,,合同会社,富山県,射水市,二口１１８３番地１５,,16,211,9390234,,,,,,,2023-04-20,1,,,,,イミズミライ,0
1966,7240001061390,新規,0,2023-04-20,2023-04-20,株式会社Ｂｅｌｌ　Ｗｏｏｄ,,株式会社,広島県,広島市安佐南区,長束西４丁目４２番４,,34,105,7310136,,,,,,,2023-04-20,1,,,,,ベルウッド,0
1967,7240001061399,新規,0,2023-04-20,2023-04-20,株式会社Ｙ．Ｃ,,株式会社,広島県,広島市安芸区,上瀬野町２４５７番地２,,34,107,7390302,,,,,,,2023-04-20,1,,,,,ワイシー,0
1968,7240005015566,新規,0,2023-04-20,2023-04-20,一般社団法人Ａｎｎｏｕｎｃｉｎｇ,,その他の設立登記法人,広島県,広島市中区,大手町１丁目１－２０相生橋ビル７階Ａ号室,,34,101,7300051,,,,,,,2023-04-20,1,,,,,アナウンシング,0
1974,7260003004288,新規,0,2023-04-20,2023-04-20,合同会社Ｈｏｕｓｅ＆Ｅａｒｔｈ,,合同会社,岡山県,備前市,吉永町神根本５８３番地,,33,211,7090212,,,,,,,2023-04-20,1,,,,,ハウスアンドアース,0
1983,7290803004393,新規,0,2023-04-20,2023-04-20,合同会社ＹＫ,,合同会社,福岡県,北九州市八幡西区,穴生３丁目１１番２７－１０３号,,40,109,8060049,,,,,,,2023-04-20,1,,,,,ワイケー,0
1984,7290803004402,新規,0,2023-04-20,2023-04-20,合同会社ＭＡＳＡＹＯ,,合同会社,福岡県,田川郡香春町,大字香春１５９８番地,,40,601,8221406,,,,,,,2023-04-20,1,,,,,マサヨ,0
1990,7320001019694,新規,0,2023-04-20,2023-04-20,株式会社ｓａｒｉｄａ,,株式会社,大分県,別府市,元町６番１４号,,44,202,8740944,,,,,,,2023-04-20,1,,,,,サリダ,0
1991,7320001019703,新規,0,2023-04-20,2023-04-20,ＩＳＯＴＯＢ株式会社,,株式会社,大分県,別府市,大字南立石２１６９番地の１４６,,44,202,8740000,,,,,,,2023-04-20,1,,,,,アイエスオーティーオービー,0
1992,7320003004067,新規,0,2023-04-20,2023-04-20,合同会社職人ＡＲＥＡ,,合同会社,大分県,大分市,大字千歳３００番地の１,,44,201,8700132,,,,,,,2023-04-20,1,,,,,ショクニンエリア,0
2003,7370001049844,新規,0,2023-04-20,2023-04-20,株式会社光条,,株式会社,宮城県,仙台市若林区,五橋３丁目１番３－１８０１号,,04,103,9840022,,,,,,,2023-04-20,1,,,,,コウジョウ,0
2004,7370001049860,新規,0,2023-04-20,2023-04-20,株式会社ｙａｍａｋａフーズ,,株式会社,宮城県,仙台市青葉区,宮町２丁目１番５２号,,04,101,9800004,,,,,,,2023-04-20,1,,,,,ヤマカフーズ,0
2005,7370001049869,新規,0,2023-04-20,2023-04-20,株式会社ゆう,,株式会社,宮城県,仙台市青葉区,落合１丁目６番３０号,,04,101,9893126,,,,,,,2023-04-20,1,,,,,ユウ,0
2013,7430001088893,新規,0,2023-04-20,2023-04-20,株式会社ニューサクセス,,株式会社,北海道,苫小牧市,矢代町１丁目７番２２号,,01,213,0530803,,,,,,,2023-04-20,1,,,,,ニューサクセス,0
2014,7430001088902,新規,0,2023-04-20,2023-04-20,株式会社ＦＩＮＬＡＮＤ,,株式会社,北海道,札幌市西区,発寒七条５丁目４番１３号,,01,107,0630827,,,,,,,2023-04-20,1,,,,,フィンランド,0
2016,7430003014947,新規,0,2023-04-20,2023-04-20,Ａｄｖｅｎｔｕｒｅ　Ｓｍｉｌｅ合同会社,,合同会社,北海道,虻田郡倶知安町,字高砂８４番地３２,,01,400,0440076,,,,,,,2023-04-20,1,,,,,アドベンチャースマイル,0
2017,7430003014963,新規,0,2023-04-20,2023-04-20,合同会社大井工業,,合同会社,北海道,札幌市東区,北四十六条東７丁目３番１３号,,01,103,0070846,,,,,,,2023-04-20,1,,,,,オオイコウギョウ,0
2030,7700150115314,新規,0,2023-04-20,2023-04-11,ラポルテ東館店舗一部管理組合,,その他,兵庫県,芦屋市,船戸町４－１－５０２,,28,206,6590093,,,,,,,2023-04-11,1,,,,,ラポルテヒガシカンテンポイチブカンリクミアイ,0
2039,8010001234596,新規,0,2023-04-20,2023-04-20,株式会社ツーリンクス,,株式会社,東京都,千代田区,鍛冶町１丁目１０番８号石川第２ＬＫビル４Ｆ,,13,101,1010044,,,,,,,2023-04-20,1,,,,,ツーリンクス,0
2040,8010001234729,新規,0,2023-04-20,2023-04-20,カラロ株式会社,,株式会社,東京都,文京区,関口１丁目３２番１１号,,13,105,1120014,,,,,,,2023-04-20,1,,,,,カラロ,0
2042,8010003040381,新規,0,2023-04-20,2023-04-20,エム・アール・イー合同会社,,合同会社,東京都,千代田区,丸の内３丁目１番１号東京共同会計事務所内,,13,101,1000005,,,,,,,2023-04-20,1,,,,,エムアールイー,0
2043,8010003040398,新規,0,2023-04-20,2023-04-20,合同会社バッテリーパーク１,,合同会社,東京都,千代田区,大手町１丁目９番２号大手町フィナンシャルシティグランキューブ１８階１８１２号室,,13,101,1000004,,,,,,,2023-04-20,1,,,,,バッテリーパークイチ,0
2044,8010003040423,新規,0,2023-04-20,2023-04-20,ＣＪリゾート３合同会社,,合同会社,東京都,千代田区,神田錦町１丁目２１番１号,,13,101,1010054,,,,,,,2023-04-20,1,,,,,シージェーリゾートスリー,0
2046,8010005036527,新規,0,2023-04-20,2023-04-20,一般社団法人Ｓｃｈｏｏｌ　Ｔｒａｎｓｆｏｒｍａｔｉｏｎ　Ｎｅｔｗｏｒｋｉｎｇ,,その他の設立登記法人,東京都,中央区,銀座１丁目２２番１１号銀座大竹ビジデンス２階,,13,102,1040061,,,,,,,2023-04-20,1,,,,,スクールトランスフォーメーションネットワーキング,0
2047,8010103002125,新規,0,2023-04-20,2023-04-20,ケア・サポート快合同会社,,合同会社,東京都,八王子市,北野台３丁目３６番１２号,,13,201,1920913,,,,,,,2023-04-20,1,,,,,ケアサポートカイ,0
2052,8010401173774,新規,0,2023-04-20,2023-04-20,株式会社日進商会,,株式会社,東京都,港区,北青山１丁目４番１号ランジェ青山４０７号室,,13,103,1070061,,,,,,,2023-04-20,1,,,,,ニッシンショウカイ,0
2057,8010501050329,新規,0,2023-04-20,2023-04-20,株式会社ｈｙｂｒｉｄ,,株式会社,東京都,台東区,浅草橋１丁目７番７号,,13,106,1110053,,,,,,,2023-04-20,1,,,,,ハイブリッド,0
2058,8010501050337,新規,0,2023-04-20,2023-04-20,本郷商事株式会社,,株式会社,東京都,台東区,浅草橋５丁目７－１クレイシア秋葉原ＥＡＳＴ１００４,,13,106,1110053,,,,,,,2023-04-20,1,,,,,ホンゴウショウジ,0
2063,8010601062975,新規,0,2023-04-20,2023-04-20,株式会社ＪＬＰＭ,,株式会社,東京都,江東区,白河１丁目２番１０－６０５号,,13,108,1350021,,,,,,,2023-04-20,1,,,,,ジェーエルピーエム,0
2069,8010801033859,新規,0,2023-04-20,2023-04-20,Ｐ‐Ａｃｔｉｏｎ株式会社,,株式会社,東京都,大田区,西馬込２丁目２８番２号,,13,111,1430026,,,,,,,2023-04-20,1,,,,,ピーアクション,0
2070,8010803004511,新規,0,2023-04-20,2023-04-20,合同会社Ｉ．Ｉ．ＦＯＯＤＳ,,合同会社,東京都,大田区,上池台３丁目２４－１４スターハイツ洗足池ＩＩ２０２,00130181,13,111,1450064,,,,,,,2023-04-20,1,,,,,アイアイフーズ,0
2079,8011001153935,新規,0,2023-04-20,2023-04-20,ＴＯＫＹＯ　ＲＯＣＫ　ＳＴＵＤＩＯ株式会社,,株式会社,東京都,渋谷区,東３丁目１６番３号,,13,113,1500011,,,,,,,2023-04-20,1,,,,,トーキョーロックスタジオ,0
2080,8011001153943,新規,0,2023-04-20,2023-04-20,株式会社ｆｏｒＣｒｅａｔｏｒｓ,,株式会社,東京都,渋谷区,道玄坂１丁目１０番８号渋谷道玄坂東急ビル２Ｆ－Ｃ,,13,113,1500043,,,,,,,2023-04-20,1,,,,,フォークリエイターズ,0
2096,8011401025065,新規,0,2023-04-20,2023-04-20,株式会社ＥＡＢ　Ｊａｐａｎ,,株式会社,東京都,板橋区,大山町４７－５吉岡屋ビル６階,,13,119,1730023,,,,,,,2023-04-20,1,,,,,イーエイビージャパン,0
2098,8011403003977,新規,0,2023-04-20,2023-04-20,トヨデザインスタジオ合同会社,,合同会社,東京都,板橋区,東新町２丁目１９番１９号,,13,119,1740074,,,,,,,2023-04-20,1,,,,,トヨデザインスタジオ,0
2100,8011501029189,新規,0,2023-04-20,2023-04-20,千波株式会社,,株式会社,東京都,北区,王子本町１丁目２２番１号ＫＳＧビル１０５,,13,117,1140022,,,,,,,2023-04-20,1,,,,,チナミ,0
2106,8011801042263,新規,0,2023-04-20,2023-04-20,株式会社Ａｓｌａｎ,,株式会社,東京都,足立区,西新井１丁目３３番２－４０４,,13,121,1230841,,,,,,,2023-04-20,1,,,,,アスラン,0
2107,8011801042271,新規,0,2023-04-20,2023-04-20,スタンバイ株式会社,,株式会社,東京都,葛飾区,東新小岩１丁目１番１－７０１号,,13,122,1240023,,,,,,,2023-04-20,1,,,,,スタンバイ,0
2111,8012701017611,新規,0,2023-04-20,2023-04-20,株式会社ｉｎ　Ｆｉｔ,,株式会社,東京都,清瀬市,野塩４丁目３７番地１シュキュールＢ２０１号室,,13,221,2040004,,,,,,,2023-04-20,1,,,,,インフィット,0
2113,8012801022263,新規,0,2023-04-20,2023-04-20,環境工販株式会社,,株式会社,東京都,国立市,北３丁目４０番３,,13,215,1860001,,,,,,,2023-04-20,1,,,,,カンキョウコウハン,0
2114,8012801022296,新規,0,2023-04-20,2023-04-20,株式会社ブライトンパートナーズ,,株式会社,東京都,立川市,柏町４丁目３４番地の４,,13,202,1900004,,,,,,,2023-04-20,1,,,,,ブライトンパートナーズ,0
2115,8013301050630,新規,0,2023-04-20,2023-04-20,株式会社ＲＡＳ,,株式会社,東京都,豊島区,池袋２丁目１０番３号第Ｉ絆ビル地下１階,00130180,13,116,1710014,,,,,,,2023-04-20,1,,,,,ラス,0
2116,8013301050639,新規,0,2023-04-20,2023-04-20,株式会社Ｊａｐａｎ　Ｐｏｋｅｒ　Ｒｅｓｏｒｔ,,株式会社,東京都,豊島区,池袋３丁目７番１３号,,13,116,1710014,,,,,,,2023-04-20,1,,,,,ジャパンポーカーリゾート,0
2120,8020001151188,新規,0,2023-04-20,2023-04-20,ｐｌｕｓ　ｃｏｎｎｅｃｔ株式会社,,株式会社,神奈川県,横浜市神奈川区,松見町２丁目３８１番地,,14,102,2210005,,,,,,,2023-04-20,1,,,,,プラスコネクト,0
2123,8020003023765,新規,0,2023-04-20,2023-04-20,合同会社プラネット・ウェイブス,,合同会社,神奈川県,横浜市西区,浅間町１丁目４番３号ウィザードビル４０２,,14,103,2200072,,,,,,,2023-04-20,1,,,,,プラネットウェイブス,0
2129,8030001153423,新規,0,2023-04-20,2023-04-20,株式会社ＨＶＳ,,株式会社,埼玉県,越谷市,花田７丁目９番地１メゾンラフォーレＩＩ２０１,00130191,11,222,3430015,,,,,,,2023-04-20,1,,,,,エイチブイエス,0
2130,8030001153456,新規,0,2023-04-20,2023-04-20,株式会社ＣｏＡ,,株式会社,埼玉県,さいたま市見沼区,大字丸ヶ崎１２２０ベンチャーオフィスＫ－１－２０７号,,11,104,3370001,,,,,,,2023-04-20,1,,,,,コア,0
2131,8030001153472,新規,0,2023-04-20,2023-04-20,高山株式会社,,株式会社,埼玉県,蕨市,南町２丁目１４番１８号,,11,223,3350003,,,,,,,2023-04-20,1,,,,,タカヤマ,0
2137,8040003022427,新規,0,2023-04-20,2023-04-20,ＭＩＮ合同会社,,合同会社,千葉県,成田市,上町５５８番地１,,12,211,2860032,,,,,,,2023-04-20,1,,,,,ミン,0
2141,8050003007435,新規,0,2023-04-20,2023-04-20,合同会社神楽,,合同会社,茨城県,那珂郡東海村,東海１丁目１６番２号ｇｕｐｌｕｓ１０１,,08,341,3191117,,,,,,,2023-04-20,1,,,,,カグラ,0
2151,8080101023918,新規,0,2023-04-20,2023-04-20,康株式会社,,株式会社,静岡県,沼津市,大岡１１００番地の１８,,22,203,4100022,,,,,,,2023-04-20,1,,,,,ヤス,0
2152,8080101023926,新規,0,2023-04-20,2023-04-20,株式会社Ｒ,,株式会社,静岡県,富士市,横割本町１－１,,22,210,4160923,,,,,,,2023-04-20,1,,,,,アール,0
2153,8080101023934,新規,0,2023-04-20,2023-04-20,ＡＣＡＯ　ＲＥＳＯＲＴ　ＭＡＮＡＧＥＭＥＮＴ株式会社,,株式会社,静岡県,熱海市,上多賀１０２７番地の８,,22,205,4130101,,,,,,,2023-04-20,1,,,,,アカオリゾートマネージメント,0
2154,8080101023942,新規,0,2023-04-20,2023-04-20,株式会社スカイウォーク,,株式会社,静岡県,三島市,笹原新田３１３番地,,22,206,4110012,,,,,,,2023-04-20,1,,,,,スカイウォーク,0
2155,8080103002779,新規,0,2023-04-20,2023-04-20,合同会社ＴＨＥ３２４,,合同会社,静岡県,富士市,下横割２１９番地の３,,22,210,4160943,,,,,,,2023-04-20,1,,,,,ザサンニーヨン,0
2177,8120001254113,新規,0,2023-04-20,2023-04-20,株式会社ｃｌａｓｓｐｅｄｉａ,,株式会社,大阪府,大阪市都島区,東野田町３丁目１番５号アメニティ京橋２０２号,,27,102,5340024,,,,,,,2023-04-20,1,,,,,クラスペディア,0
2178,8120001254195,新規,0,2023-04-20,2023-04-20,加集株式会社,,株式会社,大阪府,大阪市東成区,東小橋１丁目１７－３１グランドハイツ東小橋２０１号室,,27,115,5370024,,,,,,,2023-04-20,1,,,,,カシュウ,0
2179,8120001254204,新規,0,2023-04-20,2023-04-20,株式会社ウル,,株式会社,大阪府,大阪市福島区,玉川２丁目３番１６－６１８号,,27,103,5530004,,,,,,,2023-04-20,1,,,,,ウル,0
2180,8120001254245,新規,0,2023-04-20,2023-04-20,ＧＬＯＢＡＬ　ＲＩＨＥ株式会社,,株式会社,大阪府,大阪市西成区,千本南１丁目６番１４－３０３号,,27,122,5570055,,,,,,,2023-04-20,1,,,,,グローバルリヘ,0
2181,8120001254253,新規,0,2023-04-20,2023-04-20,大貴株式会社,,株式会社,大阪府,大阪市浪速区,難波中３丁目７番１７－５０１号,,27,111,5560011,,,,,,,2023-04-20,1,,,,,ダイキ,0
2183,8120003023846,新規,0,2023-04-20,2023-04-20,カニヤスーパー合同会社,,合同会社,大阪府,大阪市東成区,大今里南６丁目２８番１２号,,27,115,5370013,,,,,,,2023-04-20,1,,,,,カニヤスーパー,0
2184,8120003023870,新規,0,2023-04-20,2023-04-20,合同会社きずなグループ光,,合同会社,大阪府,大阪市北区,中崎西４丁目３番３２号,,27,127,5300015,,,,,,,2023-04-20,1,,,,,キズナグループヒカリ,0
2185,8120003023887,新規,0,2023-04-20,2023-04-20,合同会社ＥＶＯＬＶＥＲ‐Ｘ,,合同会社,大阪府,大阪市都島区,都島本通３丁目２４番６号西田ビル２１２号室,,27,102,5340021,,,,,,,2023-04-20,1,,,,,エボロバーエックス,0
2189,8120101067407,新規,0,2023-04-20,2023-04-20,株式会社Ｍ＆ＴＨ,,株式会社,大阪府,河内長野市,本町２９番２６号,,27,216,5860015,,,,,,,2023-04-20,1,,,,,エムアンドティーエイチ,0
2194,8120903004607,新規,0,2023-04-20,2023-04-20,合同会社樹,,合同会社,大阪府,高槻市,野田３丁目１０番２３号の１,,27,207,5690013,,,,,,,2023-04-20,1,,,,,イツキ,0
2199,8130001074097,新規,0,2023-04-20,2023-04-20,株式会社タケショウ,,株式会社,京都府,京都市山科区,東野舞台町４７番地３,,26,110,6078146,,,,,,,2023-04-20,1,,,,,タケショウ,0
2200,8130001074147,新規,0,2023-04-20,2023-04-20,Ｔａｋｕｍｉ　Ｍｏｔｉｏｎ　Ｃｏｎｔｒｏｌｓ株式会社,,株式会社,京都府,京都市西京区,川島莚田町９番地３ＳＨＡＲＥ　ＤＥＰＡＲＴＭＥＮＴ（Ｂ－２）,,26,111,6158105,,,,,,,2023-04-20,1,,,,,タクミモーションコントロールズ,0
2201,8130001074155,新規,0,2023-04-20,2023-04-20,株式会社西村印刷所,,株式会社,京都府,京都市左京区,新柳馬場通仁王門下る菊鉾町３２２番地２,,26,103,6068364,,,,,,,2023-04-20,1,,,,,ニシムラインサツショ,0
2209,8140003018869,新規,0,2023-04-20,2023-04-20,合同会社Ｙｏｓｈｉｙｕｋｉ,,合同会社,兵庫県,高砂市,金ケ田町５－３－３,,28,216,6760816,,,,,,,2023-04-20,1,,,,,ヨシユキ,0
2213,8150001026336,新規,0,2023-04-20,2023-04-20,オオシマ建販株式会社,,株式会社,奈良県,北葛城郡広陵町,馬見南４丁目１番５－５号,,29,426,6350833,,,,,,,2023-04-20,1,,,,,オオシマケンパン,0
2227,8180005020191,新規,0,2023-04-20,2023-04-20,学校法人英宝学園,,その他の設立登記法人,愛知県,知多市,旭南５丁目１１２番地,,23,224,4780034,,,,,,,2023-04-20,1,,,,,エイホウガクエン,0
2239,8210003001636,新規,0,2023-04-20,2023-04-20,合同会社マシモ,,合同会社,福井県,福井市,花堂東１丁目１８番２６号,,18,201,9188013,,,,,,,2023-04-20,1,,,,,マシモ,0
2243,8230003002005,新規,0,2023-04-20,2023-04-20,合同会社ＮＬＲ,,合同会社,富山県,富山市,今泉西部町５番地１アーバンシティ富山今泉４０３号,,16,201,9398281,,,,,,,2023-04-20,1,,,,,エヌエルアール,0
2250,8240001061398,新規,0,2023-04-20,2023-04-20,株式会社Ｒ２,,株式会社,広島県,広島市東区,上大須賀町１４番２１号,,34,102,7320056,,,,,,,2023-04-20,1,,,,,アールツー,0
2252,8240005015565,新規,0,2023-04-20,2023-04-20,特定非営利活動法人もみじの郷,,その他の設立登記法人,広島県,三原市,高坂町許山・高坂自然休養村管理センター,,34,204,7290471,,,,,,,2023-04-20,1,,,,,モミジノサト,0
2275,8290001101265,新規,0,2023-04-20,2023-04-20,ｓｕｎ　ｍｕ株式会社,,株式会社,福岡県,三井郡大刀洗町,大字山隈１３１４－３,,40,503,8301226,,,,,,,2023-04-20,1,,,,,サンミュー,0
2278,8290005019017,新規,0,2023-04-20,2023-04-20,一般社団法人そらまめ会,,その他の設立登記法人,福岡県,朝倉郡筑前町,依井８０９番地,,40,447,8380813,,,,,,,2023-04-20,1,,,,,ソラマメカイ,0
2282,8300005007135,新規,0,2023-04-20,2023-04-20,一般社団法人ボーダレス・ベースボール協会,,その他の設立登記法人,佐賀県,鳥栖市,本鳥栖町１８４３番地,,41,203,8410026,,,,,,,2023-04-20,1,,,,,ボーダレスベースボールキョウカイ,0
2283,8310003004554,新規,0,2023-04-20,2023-04-20,愛工業合同会社,,合同会社,長崎県,佐世保市,大和町５番地５,,42,202,8571165,,,,,,,2023-04-20,1,,,,,,0
2284,8320003004066,新規,0,2023-04-20,2023-04-20,合同会社Ｔ‐ｍｉｎｅ,,合同会社,大分県,別府市,石垣東２丁目９番２４号,,44,202,8740919,,,,,,,2023-04-20,1,,,,,ティーマイン,0
2290,8350001018288,新規,0,2023-04-20,2023-04-20,株式会社ルミエール日向,,株式会社,宮崎県,日向市,本町１１番１号,,45,206,8830045,,,,,,,2023-04-20,1,,,,,ルミエールヒュウガ,0
2292,8350005006149,新規,0,2023-04-20,2023-04-20,特定非営利活動法人Ｒｉｍ‐Ｌｉｎｋ,,その他の設立登記法人,宮崎県,日向市,上町２番１８号長友テナント１階１号室,,45,206,8830044,,,,,,,2023-04-20,1,,,,,リムリンク,0
2295,8360005006809,新規,0,2023-04-20,2023-04-20,一般社団法人国際ボディプランナー協会,,その他の設立登記法人,沖縄県,那覇市,字小禄２４３番地,,47,201,9010152,,,,,,,2023-04-20,1,,,,,コクサイボディプランナーキョウカイ,0
2296,8360005006833,新規,0,2023-04-20,2023-04-20,おきなわ仕事と介護両立サポート協同組合,,その他の設立登記法人,沖縄県,沖縄市,胡屋７丁目４番５号,,47,211,9040021,,,,,,,2023-04-20,1,,,,,オキナワシゴトトカイゴリョウリツサポート,0
2304,8400001016220,新規,0,2023-04-20,2023-04-20,岩手総合住宅株式会社,,株式会社,岩手県,釜石市,定内町３丁目１２番３９号,,03,211,0260053,,,,,,,2023-04-20,1,,,,,,0
2305,8400003003068,新規,0,2023-04-20,2023-04-20,合同会社ファームアニマルケアセンター,,合同会社,岩手県,滝沢市,狼久保１１４２番地３５,,03,216,0200627,,,,,,,2023-04-20,1,,,,,,0
2313,8430001088868,新規,0,2023-04-20,2023-04-20,Ｎテックス株式会社,,株式会社,北海道,登別市,中央町２丁目２０番地１７,,01,230,0590012,,,,,,,2023-04-20,1,,,,,エヌテックス,0
2325,8700150107203,新規,0,2023-04-20,2022-02-28,船出の会,,その他,岐阜県,各務原市,各務東町４丁目６７番地１,,21,213,5090103,,,,,,,2022-02-28,1,,,,,フナデノカイ,0
2326,8700150114463,新規,0,2023-04-20,2023-02-24,宮城県雇用労働保険事務協会,,その他,宮城県,仙台市宮城野区,岩切字三所南８０－１リリカハウスＩ－１０２,00129387,04,102,9830821,,,,,,,2023-02-24,1,,,,,ミヤギケンコヨウロウドウホケンジムキヨウカイ,0
2327,8700150115313,新規,0,2023-04-20,2023-04-11,ラポルテ本館管理組合,,その他,兵庫県,芦屋市,船戸町４－１－５０２,,28,206,6590093,,,,,,,2023-04-11,1,,,,,ラポルテホンカンカンリクミアイ,0
2328,8700150115610,新規,0,2023-04-20,2023-04-20,Ｓｈｅｎｚｈｅｎｓｈｉ　Ｓｅｎｌｉｎｇｋｅｊｉ　Ｙｏｕｘｉａｎｇｏｎｇｓｉ,,外国会社等,,,,,,,,Ｓｈｅｎｚｈｅｎｓｈｉ　ｂａｏａｎｑｕ　ｆｕｙｏｎｇｊｉｅｄａｏ　ｆｕｙｏｎｇｓｈｅｑｕ　ｆｕｈａｉｄａｄａｏ２４ｈａｏ　ｚｈｏｎｇｙａｎｇｓｈａｎｇｗｕｄａｓｈａ５２０,,,,,,2023-04-20,1,,,,,シェンジェンシーセンリンコージーヨウシエンゴンスー,0
2340,9010001234513,新規,0,2023-04-20,2023-04-20,株式会社ＦｏＧｌａｂｏ,,株式会社,東京都,千代田区,神田須田町１丁目１４番地１ヒューリック神田須田町ビル１階,,13,101,1010041,,,,,,,2023-04-20,1,,,,,エフオージーラボ,0
2341,9010001234777,新規,0,2023-04-20,2023-04-20,株式会社トゥモロー,,株式会社,東京都,千代田区,丸の内１丁目９番２号,,13,101,1000005,,,,,,,2023-04-20,1,,,,,トゥモロー,0
2345,9010003040315,新規,0,2023-04-20,2023-04-20,合同会社Ｅｄｏ　Ｓｕｎ,,合同会社,東京都,千代田区,霞が関３丁目２番５号,,13,101,1000013,,,,,,,2023-04-20,1,,,,,エドサン,0
2350,9010005036542,新規,0,2023-04-20,2023-04-20,一般社団法人Ｎｔｅｃｈパートナーズ,,その他の設立登記法人,東京都,中央区,築地３丁目１１番６号築地スクエアビル９階,,13,102,1040045,,,,,,,2023-04-20,1,,,,,エヌテックパートナーズ,0
2351,9010005036550,新規,0,2023-04-20,2023-04-20,一般社団法人Ｈａｐｐｙ　Ｈｏｒｓｅ　Ｃｒｅａｔｏｒｓ,,その他の設立登記法人,東京都,中央区,銀座１丁目２２番１１号銀座大竹ビジデンス２Ｆ,,13,102,1040061,,,,,,,2023-04-20,1,,,,,ハッピーホースクリエイターズ,0
2355,9010401173757,新規,0,2023-04-20,2023-04-20,株式会社ジョシュアイングリッシュアカデミー,,株式会社,東京都,港区,六本木４丁目６－４第五一越ビル３階,,13,103,1060032,,,,,,,2023-04-20,1,,,,,ジョシュアイングリッシュアカデミー,0
2356,9010401173930,新規,0,2023-04-20,2023-04-20,株式会社ｎｕｎａ１９８３,,株式会社,東京都,港区,虎ノ門４丁目１番１号神谷町トラストタワー２３階,,13,103,1050001,,,,,,,2023-04-20,1,,,,,ヌナナインティーンエイティスリー,0
2359,9010403029957,新規,0,2023-04-20,2023-04-20,合同会社力石アートロボティクス,,合同会社,東京都,港区,高輪４丁目２３番６号ハイホーム高輪７０８,,13,103,1080074,,,,,,,2023-04-20,1,,,,,チカライシアートロボティクス,0
2360,9010403029965,新規,0,2023-04-20,2023-04-20,合同会社あか松ビル,,合同会社,東京都,港区,新橋４丁目２７番１号セントラルビル,,13,103,1050004,,,,,,,2023-04-20,1,,,,,アカマツビル,0
2363,9010601062974,新規,0,2023-04-20,2023-04-20,東日昇株式会社,,株式会社,東京都,墨田区,東駒形２丁目２－１３－２０１室,,13,107,1300005,,,,,,,2023-04-20,1,,,,,トウニツシヨウ,0
2364,9010601062982,新規,0,2023-04-20,2023-04-20,株式会社リマネ,,株式会社,東京都,墨田区,業平３丁目６番８－１０１号,,13,107,1300002,,,,,,,2023-04-20,1,,,,,リマネ,0
2370,9010901052881,新規,0,2023-04-20,2023-04-20,株式会社パドルシップ,,株式会社,東京都,世田谷区,桜丘４丁目２４番２１号,,13,112,1560054,,,,,,,2023-04-20,1,,,,,パドルシップ,0
2371,9010901052907,新規,0,2023-04-20,2023-04-20,株式会社ＡＴＴＥＭＰＴ,,株式会社,東京都,世田谷区,上祖師谷２丁目３２－３５,,13,112,1570065,,,,,,,2023-04-20,1,,,,,,0
2375,9011001153942,新規,0,2023-04-20,2023-04-20,株式会社Ｇａｒｏｏｐ,,株式会社,東京都,渋谷区,恵比寿２丁目２８－１０－３２８３,,13,113,1500013,,,,,,,2023-04-20,1,,,,,ガループ,0
2386,9011303004728,新規,0,2023-04-20,2023-04-20,ＴＭｌａｂｏ合同会社,,合同会社,東京都,杉並区,高円寺南５丁目１５－１４,,13,115,1660003,,,,,,,2023-04-20,1,,,,,ティーエムラボ,0
2389,9011403003976,新規,0,2023-04-20,2023-04-20,メディアロジック合同会社,,合同会社,東京都,板橋区,大山西町１９番１－４０３号,,13,119,1730033,,,,,,,2023-04-20,1,,,,,メディアロジック,0
2391,9011601026762,新規,0,2023-04-20,2023-04-20,東建株式会社,,株式会社,東京都,練馬区,南大泉４丁目５４番１３号,,13,120,1780064,,,,,,,2023-04-20,1,,,,,トウケン,0
2398,9012303001814,新規,0,2023-04-20,2023-04-20,合同会社ヴァイオレット,,合同会社,東京都,町田市,山崎町２１３０番地山崎団地７－２６－４０１,,13,209,1950074,,,,,,,2023-04-20,1,,,,,ヴァイオレット,0
2399,9012405004855,新規,0,2023-04-20,2023-04-20,特定非営利活動法人ありのままでいいんだよ,,その他の設立登記法人,東京都,調布市,深大寺東町５丁目４番地７プラナスペルシア１０１,,13,208,1820012,,,,,,,2023-04-20,1,,,,,アリノママデイインダヨ,0
2400,9012801022295,新規,0,2023-04-20,2023-04-20,株式会社エレノア,,株式会社,東京都,立川市,西砂町６丁目４５番地の６０,,13,202,1900034,,,,,,,2023-04-20,1,,,,,エレノア,0
2411,9020003023756,新規,0,2023-04-20,2023-04-20,合同会社Ｒａｉｓｅ,,合同会社,神奈川県,横浜市西区,平沼１丁目１番１３－３０３号,,14,103,2200023,,,,,,,2023-04-20,1,,,,,レイズ,0
2412,9020003023764,新規,0,2023-04-20,2023-04-20,合同会社ｃｏｅｕｒ　ｄｕ　ｃｉｅｌ,,合同会社,神奈川県,川崎市多摩区,枡形５丁目２６番２４号イトーピラ向ヶ丘弐番館５０３,,14,135,2140032,,,,,,,2023-04-20,1,,,,,クールデュシエル,0
2413,9020003023789,新規,0,2023-04-20,2023-04-20,合同会社美真,,合同会社,神奈川県,川崎市川崎区,東田町８番地パレール川崎１１６号室,,14,131,2100005,,,,,,,2023-04-20,1,,,,,ビシン,0
2417,9021001078775,新規,0,2023-04-20,2023-04-20,株式会社ゴーファウンデリット,,株式会社,神奈川県,海老名市,柏ケ谷７１９番地の７,,14,215,2430402,,,,,,,2023-04-20,1,,,,,ゴーファウンデリット,0
2418,9021001078800,新規,0,2023-04-20,2023-04-20,株式会社ＧＤＯ,,株式会社,神奈川県,藤沢市,本町１丁目４－２レジデンシア湘南４０１号室,,14,205,2510053,,,,,,,2023-04-20,1,,,,,ジーディーオー,0
2427,9030001153471,新規,0,2023-04-20,2023-04-20,株式会社ＯＳＫ,,株式会社,埼玉県,さいたま市桜区,栄和４丁目２１番５号,,11,106,3380823,,,,,,,2023-04-20,1,,,,,オーエスケー,0
2433,9040001127978,新規,0,2023-04-20,2023-04-20,株式会社未来コンサルティング,,株式会社,千葉県,市川市,市川１丁目２２番６号青山ビル５０１,,12,203,2720034,,,,,,,2023-04-20,1,,,,,ミライコンサルティング,0
2434,9040001128035,新規,0,2023-04-20,2023-04-20,Ｃａｍａｙａ　Ｓｎｏｗ　Ｒｅｓｏｒｔ　Ｊａｐａｎ株式会社,,株式会社,千葉県,千葉市美浜区,真砂３丁目１３番１２号,,12,106,2610011,,,,,,,2023-04-20,1,,,,,カマヤスノーリゾートジャパン,0
2437,9050001052705,新規,0,2023-04-20,2023-04-20,株式会社イナセカンパニー,,株式会社,茨城県,那珂市,後台３１３４番地８,,08,226,3110111,,,,,,,2023-04-20,1,,,,,イナセカンパニー,0
2439,9050003007434,新規,0,2023-04-20,2023-04-20,合同会社Ｅ＆Ｔ,,合同会社,茨城県,那珂郡東海村,東海１丁目１６番２号ｇｕｐｌｕｓ１０１,,08,341,3191117,,,,,,,2023-04-20,1,,,,,イーアンドティー,0
2449,9070001040360,新規,0,2023-04-20,2023-04-20,Ｄｅｆ　Ｓｐａｃｅ株式会社,,株式会社,群馬県,桐生市,末広町７番２５号,,10,203,3760045,,,,,,,2023-04-20,1,,,,,デフスペース,0
2454,9080001025583,新規,0,2023-04-20,2023-04-20,株式会社ＫＭＨ,,株式会社,静岡県,焼津市,八楠３丁目１３番５号,,22,212,4250091,,,,,,,2023-04-20,1,,,,,ケーエムエイチ,0
2459,9080101023933,新規,0,2023-04-20,2023-04-20,株式会社３９ＴＯＫＹＯ　ＧＯ,,株式会社,静岡県,熱海市,上多賀１０２７番地の８,,22,205,4130101,,,,,,,2023-04-20,1,,,,,サーティーナイントーキョーゴ,0
2460,9080101023941,新規,0,2023-04-20,2023-04-20,株式会社負動産研究所,,株式会社,静岡県,富士市,中央町３丁目２番１号,,22,210,4170052,,,,,,,2023-04-20,1,,,,,フドウサンケンキュウジョ,0
2465,9090001018090,新規,0,2023-04-20,2023-04-20,株式会社ＵＲＵＳＨＩＮＡＳＨＩＫＡ　ＧＬＯＢＡＬ,,株式会社,山梨県,甲府市,朝気３丁目８番２０号,,19,201,4000862,,,,,,,2023-04-20,1,,,,,ウルシナシカグローバル,0
2487,9120001254038,新規,0,2023-04-20,2023-04-20,海毅株式会社,,株式会社,大阪府,大阪市生野区,巽北１丁目１番１号３Ｆ－Ｃ,,27,116,5440004,,,,,,,2023-04-20,1,,,,,カイキ,0
2488,9120001254070,新規,0,2023-04-20,2023-04-20,ＮｅｗＭＡ株式会社,,株式会社,大阪府,大阪市北区,中之島３丁目６番３２号ダイビル本館,,27,127,5300005,,,,,,,2023-04-20,1,,,,,ニューマ,0
2489,9120001254186,新規,0,2023-04-20,2023-04-20,未来株式会社,,株式会社,大阪府,大阪市西成区,千本北１丁目１０番３号エリートパレス天下茶屋ＩＩ１０１室,00130179,27,122,5570053,,,,,,,2023-04-20,1,,,,,ミライ,0
2490,9120001254194,新規,0,2023-04-20,2023-04-20,株式会社ＳＥＮＭＡＮ,,株式会社,大阪府,大阪市浪速区,元町３丁目１－１３エムワイなんば２Ｆ,,27,111,5560016,,,,,,,2023-04-20,1,,,,,センマン,0
2491,9120001254244,新規,0,2023-04-20,2023-04-20,株式会社ＡＫＡＴＳＵＫＩ,,株式会社,大阪府,大阪市北区,鶴野町４番１１号朝日プラザ梅田２４６,,27,127,5300014,,,,,,,2023-04-20,1,,,,,アカツキ,0
2495,9120003023878,新規,0,2023-04-20,2023-04-20,大新合同会社,,合同会社,大阪府,大阪市東成区,大今里南１丁目１８番７号大宝今里ロイヤルハイツ３０２号室,,27,115,5370013,,,,,,,2023-04-20,1,,,,,ダイシン,0
2496,9120003023894,新規,0,2023-04-20,2023-04-20,合同会社ｃｉｅｌ,,合同会社,大阪府,大阪市此花区,朝日２丁目１８番８号３Ｆ－４８９,,27,104,5540011,,,,,,,2023-04-20,1,,,,,シエル,0
2501,9120101067406,新規,0,2023-04-20,2023-04-20,森商店株式会社,,株式会社,大阪府,藤井寺市,林６丁目２番５７号,,27,226,5830007,,,,,,,2023-04-20,1,,,,,モリショウテン,0
2503,9120103005165,新規,0,2023-04-20,2023-04-20,合同会社エスエナジー,,合同会社,大阪府,阪南市,尾崎町８丁目８番７号,,27,232,5990201,,,,,,,2023-04-20,1,,,,,エスエナジー,0
2505,9122001036903,新規,0,2023-04-20,2023-04-20,株式会社ＭＣコーポ,,株式会社,大阪府,東大阪市,菱屋東３丁目１番１１号,,27,227,5780948,,,,,,,2023-04-20,1,,,,,エムシーコーポ,0
2507,9130001074154,新規,0,2023-04-20,2023-04-20,株式会社健工業,,株式会社,京都府,京都市伏見区,横大路天王前４１番地１７,,26,109,6128294,,,,,,,2023-04-20,1,,,,,ケンコウギョウ,0
2515,9140001129857,新規,0,2023-04-20,2023-04-20,ナビック株式会社,,株式会社,兵庫県,神戸市中央区,中島通２丁目４番６－３号,,28,110,6510052,,,,,,,2023-04-20,1,,,,,ナビック,0
2516,9140001129873,新規,0,2023-04-20,2023-04-20,おたいちアミューズ株式会社,,株式会社,兵庫県,加古川市,加古川町溝之口２５９番地の１,,28,210,6750064,,,,,,,2023-04-20,1,,,,,オタイチアミューズ,0
2519,9150001026327,新規,0,2023-04-20,2023-04-20,株式会社ＮＡＧＡＴＡＮＩ,,株式会社,奈良県,葛城市,兵家１４５６番地１７,,29,211,6392154,,,,,,,2023-04-20,1,,,,,ナガタニ,0
2520,9150001026335,新規,0,2023-04-20,2023-04-20,河野建築株式会社,,株式会社,奈良県,大和郡山市,美濃庄町４８－３,,29,203,6391103,,,,,,,2023-04-20,1,,,,,カワノケンチク,0
2535,9180001155973,新規,0,2023-04-20,2023-04-20,株式会社アイティ,,株式会社,愛知県,名古屋市北区,大野町３丁目５番地の３,,23,103,4620035,,,,,,,2023-04-20,1,,,,,アイティ,0
2547,9180003025142,新規,0,2023-04-20,2023-04-20,合同会社Ｋａｎｏｎ,,合同会社,愛知県,一宮市,起字西生出８番地１,,23,203,4940006,,,,,,,2023-04-20,1,,,,,カノン,0
2558,9200001041213,新規,0,2023-04-20,2023-04-20,株式会社Ｐｌｕｓ　ＵＡ,,株式会社,岐阜県,各務原市,川島北山町３２番地１,,21,213,5016029,,,,,,,2023-04-20,1,,,,,プラスユーエー,0
2561,9210001019282,新規,0,2023-04-20,2023-04-20,株式会社とくおか,,株式会社,福井県,敦賀市,山泉３９号５番地の１レジデンスコスモＣ－２０３,,18,202,9140035,,,,,,,2023-04-20,1,,,,,トクオカ,0
2562,9210003001635,新規,0,2023-04-20,2023-04-20,合同会社Ｓｋｙ　ｐｏｎｄ,,合同会社,福井県,福井市,天池町第３４号９番地３,,18,201,9100124,,,,,,,2023-04-20,1,,,,,スカイポンド,0
2564,9220003003498,新規,0,2023-04-20,2023-04-20,合同会社健美,,合同会社,石川県,野々市市,白山町１０番２３号木野ビル３０７号,,17,212,9218821,,,,,,,2023-04-20,1,,,,,ケンビ,0
2565,9220005008751,新規,0,2023-04-20,2023-04-20,医療法人社団木戸歯科医院,,その他の設立登記法人,石川県,白山市,鶴来本町３丁目ヲ７０,,17,210,9202121,,,,,,,2023-04-20,1,,,,,キドシカイイン,0
2568,9230005009294,新規,0,2023-04-20,2023-04-20,農事組合法人利賀ファーム,,その他の設立登記法人,富山県,南砺市,利賀村百瀬川１８５番地,,16,210,9392511,,,,,,,2023-04-20,1,,,,,トガファーム,0
2572,9240001061406,新規,0,2023-04-20,2023-04-20,株式会社ケイスタイル,,株式会社,広島県,廿日市市,地御前５丁目２０番１号,,34,213,7380042,,,,,,,2023-04-20,1,,,,,ケイスタイル,0
2578,9250005008815,新規,0,2023-04-20,2023-04-20,医療法人鈴川内科クリニック,,その他の設立登記法人,山口県,岩国市,門前町３丁目１１番３号,,35,208,7400031,,,,,,,2023-04-20,1,,,,,スズカワナイカクリニック,0
2586,9260003004286,新規,0,2023-04-20,2023-04-20,Ａｌｌ　ＨＥＲＯｓ合同会社,,合同会社,岡山県,岡山市北区,津島南１丁目７－２９－７,,33,101,7000085,,,,,,,2023-04-20,1,,,,,オールヒーローズ,0
2590,9290001101223,新規,0,2023-04-20,2023-04-20,株式会社Ｃｌｅｅｎ　Ｂ,,株式会社,福岡県,福岡市博多区,下呉服町２番６－６０３号,,40,132,8120034,,,,,,,2023-04-20,1,,,,,クリーンビー,0
2591,9290001101231,新規,0,2023-04-20,2023-04-20,株式会社ｓｔｅｒｅｏｔｙｐｅ,,株式会社,福岡県,福岡市中央区,渡辺通２丁目３番２７号待鳥ビル４０７,,40,133,8100004,,,,,,,2023-04-20,1,,,,,ステレオタイプ,0
2592,9290001101248,新規,0,2023-04-20,2023-04-20,株式会社ＧＡＢＡＤＡＳ,,株式会社,福岡県,福岡市中央区,大名１丁目８番３６号,,40,133,8100041,,,,,,,2023-04-20,1,,,,,ガバダス,0
2593,9290001101264,新規,0,2023-04-20,2023-04-20,株式会社ｌｉｔｍｕｓ,,株式会社,福岡県,福岡市中央区,警固１丁目９番２－９０１号,,40,133,8100023,,,,,,,2023-04-20,1,,,,,リトマス,0
2594,9290803004400,新規,0,2023-04-20,2023-04-20,合同会社廣財,,合同会社,福岡県,遠賀郡岡垣町,旭台５丁目６番７号,,40,383,8114215,,,,,,,2023-04-20,1,,,,,コウザイ,0
2600,9310003004553,新規,0,2023-04-20,2023-04-20,合同会社マルテリ,,合同会社,長崎県,南島原市,有家町石田８番地,,42,214,8592121,,,,,,,2023-04-20,1,,,,,マルテリ,0
2601,9310005008676,新規,0,2023-04-20,2023-04-20,島原半島ＣＮＧ事業協同組合,,その他の設立登記法人,長崎県,島原市,有明町大三東乙１１３８番地２,,42,203,8591412,,,,,,,2023-04-20,1,,,,,シマバラハントウシーエヌジー,0
2602,9320003004065,新規,0,2023-04-20,2023-04-20,合同会社Ｙ＆Ｋ,,合同会社,大分県,大分市,大字生石２３３番地の７,,44,201,8700003,,,,,,,2023-04-20,1,,,,,ワイアンドケイ,0
2603,9350001018304,新規,0,2023-04-20,2023-04-20,株式会社８ｃｏｍｐａｎｙ,,株式会社,宮崎県,宮崎市,大塚町柳ケ迫３７９３番地８,,45,201,8800951,,,,,,,2023-04-20,1,,,,,エイトカンパニー,0
2606,9370001049867,新規,0,2023-04-20,2023-04-20,ＨＡＲＴ株式会社,,株式会社,宮城県,名取市,那智が丘２丁目２番１０号,,04,207,9811244,,,,,,,2023-04-20,1,,,,,ハート,0
2607,9370003006098,新規,0,2023-04-20,2023-04-20,ジェルマン合同会社,,合同会社,宮城県,加美郡加美町,字矢越２８８－１フォレスト矢越Ｆ－３号,,04,445,9814265,,,,,,,2023-04-20,1,,,,,ジェルマン,0
2609,9380001033630,新規,0,2023-04-20,2023-04-20,株式会社日建コーポレーション,,株式会社,福島県,郡山市,字賀庄８２番地の４,,07,203,9638844,,,,,,,2023-04-20,1,,,,,ニッケンコーポレーション,0
2610,9390001017236,新規,0,2023-04-20,2023-04-20,株式会社高橋果樹園,,株式会社,山形県,天童市,大字山元３５０番地,,06,210,9940021,,,,,,,2023-04-20,1,,,,,タカハシカジュエン,0
2616,9430001088883,新規,0,2023-04-20,2023-04-20,ＮＩＣＥホールディングス株式会社,,株式会社,北海道,札幌市東区,東苗穂五条３丁目２番５号,,01,103,0070805,,,,,,,2023-04-20,1,,,,,ナイスホールディングス,0
2617,9430001088900,新規,0,2023-04-20,2023-04-20,株式会社カスタマーフロント,,株式会社,北海道,札幌市北区,屯田五条８丁目１番３４－２号,,01,102,0020855,,,,,,,2023-04-20,1,,,,,カスタマーフロント,0
2623,9480001012079,新規,0,2023-04-20,2023-04-20,株式会社１０ｃａｒａ,,株式会社,徳島県,阿南市,見能林町青木２１０番地１,,36,204,7740017,,,,,,,2023-04-20,1,,,,,ジュッカラ,0
2624,9480003001971,新規,0,2023-04-20,2023-04-20,合同会社青雲,,合同会社,徳島県,吉野川市,川島町川島２７３番地,,36,205,7793301,,,,,,,2023-04-20,1,,,,,セイウン,0
2632,9700150115312,新規,0,2023-04-20,2023-04-11,ラポルテ東館住宅一部管理組合,,その他,兵庫県,芦屋市,船戸町４－１－５０２,,28,206,6590093,,,,,,,2023-04-11,1,,,,,ラポルテヒガシカンジユウタクイチブカンリクミアイ,0
