sequenceNumber,corporateNumber,process,correct,updateDate,changeDate,name,nameImageId,kind,prefectureName,cityName,streetNumber,addressImageId,prefectureCode,cityCode,postCode,addressOutside,addressOutsideImageId,closeDate,closeCause,successorCorporateNumber,changeCause,assignmentDate,latest,enName,enPrefectureName,enCityName,enAddressOutside,furigana,hihyoji
1,1000020119075,新規,0,2022-08-01,2022-08-01,行田羽生資源環境組合,,地方公共団体,埼玉県,行田市,本丸２番５号,,11,206,3610052,,,,,,,2022-08-01,1,,,,,ギョウダハニュウシゲンカンキョウクミアイ,0
11,1010001228398,新規,0,2022-08-01,2022-08-01,株式会社出願代行サービス,,株式会社,東京都,千代田区,神田北乗物町１６柴崎ビル３階,,13,101,1010036,,,,,,,2022-08-01,1,,,,,シュツガンダイコウサービス,0
14,1010003038300,新規,0,2022-08-01,2022-08-01,合同会社オルタナ１４,,合同会社,東京都,千代田区,丸の内３丁目１番１号東京共同会計事務所内,,13,101,1000005,,,,,,,2022-08-01,1,,,,,オルタナフォーティーン,0
16,1010005035337,新規,0,2022-08-01,2022-08-01,一般社団法人スティーラス・プロトコル,,その他の設立登記法人,東京都,中央区,銀座８丁目１６番６号ときわぎ館２階,,13,102,1040061,,,,,,,2022-08-01,1,,,,,スティーラスプロトコル,0
25,1010401168748,新規,0,2022-08-01,2022-08-01,株式会社ｆＡｉｒ　Ｊａｐａｎ,,株式会社,東京都,港区,浜松町２丁目２番１５号浜松町ダイヤビル２Ｆ,,13,103,1050013,,,,,,,2022-08-01,1,,,,,フェアージャパン,0
29,1010503006673,新規,0,2022-08-01,2022-08-01,合同会社テスティングリサーチ,,合同会社,東京都,台東区,下谷２丁目１１番１４号,,13,106,1100004,,,,,,,2022-08-01,1,,,,,テスティングリサーチ,0
35,1010801033163,新規,0,2022-08-01,2022-08-01,株式会社内藤,,株式会社,東京都,大田区,久が原５丁目１１番１８号,,13,111,1460085,,,,,,,2022-08-01,1,,,,,ナイトウ,0
36,1010803004245,新規,0,2022-08-01,2022-08-01,合同会社ＭＲＭ,,合同会社,東京都,大田区,羽田４丁目１０番７－２０２号,,13,111,1440043,,,,,,,2022-08-01,1,,,,,エムアールエム,0
39,1010901051313,新規,0,2022-08-01,2022-08-01,株式会社ジェネシス,,株式会社,東京都,世田谷区,等々力４丁目１２番１０－４０５号,,13,112,1580082,,,,,,,2022-08-01,1,,,,,ジェネシス,0
52,1011101099696,新規,0,2022-08-01,2022-08-01,パーラマネジメント株式会社,,株式会社,東京都,新宿区,山吹町３３４番地,,13,104,1620801,,,,,,,2022-08-01,1,,,,,パーラマネジメント,0
53,1011101099705,新規,0,2022-08-01,2022-08-01,サイバーセキュリティジャパン株式会社,,株式会社,東京都,新宿区,高田馬場４丁目４０番１１号ユニゾ高田馬場看山ビル１０Ｆ,,13,104,1690075,,,,,,,2022-08-01,1,,,,,サイバーセキュリティジャパン,0
56,1011301027985,新規,0,2022-08-01,2022-08-01,ＮｉＥＷ株式会社,,株式会社,東京都,杉並区,久我山５丁目３３番２８号,,13,115,1680082,,,,,,,2022-08-01,1,,,,,ニュー,0
58,1011401024445,新規,0,2022-08-01,2022-08-01,株式会社Ｄｅｎｖａｔｉｏｎ,,株式会社,東京都,板橋区,赤塚６丁目３５番１４号,,13,119,1750092,,,,,,,2022-08-01,1,,,,,デンベーション,0
60,1011601026142,新規,0,2022-08-01,2022-08-01,株式会社Ｐｏｋｅｒ　Ａｇｅｎｔ,,株式会社,東京都,練馬区,大泉町２丁目３２－２３私奥道の戸建,,13,120,1780062,,,,,,,2022-08-01,1,,,,,ポーカーエージェント,0
64,1012301013083,新規,0,2022-08-01,2022-08-01,株式会社ローセル,,株式会社,東京都,町田市,三輪町５３０番地１,,13,209,1950054,,,,,,,2022-08-01,1,,,,,ローセル,0
70,1012403005516,新規,0,2022-08-01,2022-08-01,ＫＪ合同会社,,合同会社,東京都,三鷹市,上連雀９丁目２３番５号,,13,204,1810012,,,,,,,2022-08-01,1,,,,,ケイジェイ,0
74,1012805003134,新規,0,2022-08-01,2022-08-01,一般社団法人礼楽舎,,その他の設立登記法人,東京都,国分寺市,東元町２丁目２０番１０号ライオンズマンション１０２号室,,13,214,1850022,,,,,,,2022-08-01,1,,,,,レイガクシャ,0
84,1020001147498,新規,0,2022-08-01,2022-08-01,株式会社ＯＮＥ’Ｓ　ＲＯＯＴＳ．,,株式会社,神奈川県,横浜市青葉区,もえぎ野３番地３６,,14,117,2270044,,,,,,,2022-08-01,1,,,,,ワンズルーツ,0
85,1020001147515,新規,0,2022-08-01,2022-08-01,株式会社ＳＧＴ,,株式会社,神奈川県,横浜市緑区,長津田みなみ台１丁目２４番地３３,,14,113,2260018,,,,,,,2022-08-01,1,,,,,エスジーティー,0
88,1020005015610,新規,0,2022-08-01,2022-08-01,一般社団法人ワーカーズ・コレクティブはっぴいさん,,その他の設立登記法人,神奈川県,横浜市中区,南仲通４丁目３９番地石橋ビル３階,,14,104,2310006,,,,,,,2022-08-01,1,,,,,ワーカーズコレクティブハッピイサン,0
99,1030001149444,新規,0,2022-08-01,2022-08-01,株式会社ＳＩＯＮ　ＴＲＡＤＩＮＧ,,株式会社,埼玉県,北葛飾郡松伏町,大字大川戸３０１番地１,,11,465,3430106,,,,,,,2022-08-01,1,,,,,シオントレーディング,0
100,1030001149452,新規,0,2022-08-01,2022-08-01,株式会社新夢,,株式会社,埼玉県,川口市,大字芝６９９０番地の７４,,11,203,3330866,,,,,,,2022-08-01,1,,,,,シンユメ,0
101,1030001149460,新規,0,2022-08-01,2022-08-01,株式会社ＬＩＮＫＴＨ,,株式会社,埼玉県,比企郡嵐山町,大字志賀５５５番地１２,,11,342,3550214,,,,,,,2022-08-01,1,,,,,リンクス,0
106,1030003019901,新規,0,2022-08-01,2022-08-01,合同会社篤,,合同会社,埼玉県,朝霞市,溝沼４丁目１０番１６号,,11,227,3510023,,,,,,,2022-08-01,1,,,,,アツ,0
116,1040003020528,新規,0,2022-08-01,2022-08-01,合同会社ＩＳＳＡ,,合同会社,千葉県,木更津市,大和３丁目４番３号グランポート木更津５０２号室,,12,206,2920805,,,,,,,2022-08-01,1,,,,,イッサ,0
123,1050001051466,新規,0,2022-08-01,2022-08-01,株式会社ＴＡＧ,,株式会社,茨城県,龍ケ崎市,高須町４０２２番地１,,08,208,3010026,,,,,,,2022-08-01,1,,,,,ティーエージー,0
142,1080401025975,新規,0,2022-08-01,2022-08-01,リソニックワーク株式会社,,株式会社,静岡県,浜松市中区,幸３丁目１６番５７号,,22,131,4338123,,,,,,,2022-08-01,1,,,,,リソニックワーク,0
143,1090001017694,新規,0,2022-08-01,2022-08-01,株式会社Ｃｕｌｔｉｖａｔｅ　Ｍｅｔａｂｏｌｉｓｍ,,株式会社,山梨県,北杜市,武川町柳澤３９７１－２５,,19,209,4080307,,,,,,,2022-08-01,1,,,,,カルチベイトメタボリズム,0
145,1100001035562,新規,0,2022-08-01,2022-08-01,株式会社Ｏｃｅａｎ　Ｏｎｅ,,株式会社,長野県,飯田市,鼎中平２４０５番地２,,20,205,3950801,,,,,,,2022-08-01,1,,,,,オーシャンワン,0
151,1110003004829,新規,0,2022-08-01,2022-08-01,合同会社イノベーションＬＡＢ上越,,合同会社,新潟県,上越市,高土町１丁目８番１号,,15,222,9430823,,,,,,,2022-08-01,1,,,,,イノベーションラボジョウエツ,0
166,1120001247718,新規,0,2022-08-01,2022-08-01,Ｐａｖｏ　Ｓｔｕｄｉｏ株式会社,,株式会社,大阪府,大阪市東成区,神路４丁目３－１０スターレジデンス新深江３０４号室,,27,115,5370003,,,,,,,2022-08-01,1,,,,,パボスタジオ,0
167,1120001247775,新規,0,2022-08-01,2022-08-01,株式会社ＩＤＥＡＬ,,株式会社,大阪府,大阪市北区,梅田１丁目１－３大阪駅前第３ビル２９階１－１－１号室,,27,127,5300001,,,,,,,2022-08-01,1,,,,,アイディアル,0
168,1120001247866,新規,0,2022-08-01,2022-08-01,株式会社ＬＩＦＩＸ,,株式会社,大阪府,大阪市中央区,谷町５丁目３番１２号２Ｆ,,27,128,5400012,,,,,,,2022-08-01,1,,,,,リフィックス,0
174,1120101065978,新規,0,2022-08-01,2022-08-01,ティーアンドエム株式会社,,株式会社,大阪府,岸和田市,池尻町６８８番地の１,,27,202,5960813,,,,,,,2022-08-01,1,,,,,ティーアンドエム,0
175,1120101065986,新規,0,2022-08-01,2022-08-01,株式会社オプミッド,,株式会社,大阪府,堺市北区,金岡町１９４５番地５,,27,146,5918022,,,,,,,2022-08-01,1,,,,,オプミッド,0
178,1120903004233,新規,0,2022-08-01,2022-08-01,合同会社ＫＵ　ｆｏｏｄ,,合同会社,大阪府,吹田市,出口町２６－１,,27,205,5640072,,,,,,,2022-08-01,1,,,,,ケーユーフード,0
183,1130001072289,新規,0,2022-08-01,2022-08-01,滴翠株式会社,,株式会社,京都府,京都市北区,紫野西野町２９－５,,26,101,6038233,,,,,,,2022-08-01,1,,,,,テキスイ,0
184,1130001072306,新規,0,2022-08-01,2022-08-01,株式会社四季暦,,株式会社,京都府,綴喜郡宇治田原町,緑苑坂４４番地の４,,26,344,6100202,,,,,,,2022-08-01,1,,,,,シキゴヨミ,0
193,1140001126886,新規,0,2022-08-01,2022-08-01,株式会社Ｌａｎｇｅｌｏ,,株式会社,兵庫県,神戸市東灘区,向洋町中３丁目１番地の１０、３番館２０３号,,28,101,6580032,,,,,,,2022-08-01,1,,,,,ランジェロ,0
202,1170003001754,新規,0,2022-08-01,2022-08-01,合同会社岡本事務所,,合同会社,和歌山県,御坊市,熊野３７５番地,,30,205,6440033,,,,,,,2022-08-01,1,,,,,オカモトジムショ,0
203,1170005006966,新規,0,2022-08-01,2022-08-01,吉礼総合ストア協同組合,,その他の設立登記法人,和歌山県,和歌山市,吉礼５３５番地の３,,30,201,6400351,,,,,,,2022-08-01,1,,,,,,0
207,1180001152383,新規,0,2022-08-01,2022-08-01,ＴＧＳＧインベストメント株式会社,,株式会社,愛知県,名古屋市中区,千代田５丁目４番１６号,,23,106,4600012,,,,,,,2022-08-01,1,,,,,ティージーエスジーインベストメント,0
208,1180001152409,新規,0,2022-08-01,2022-08-01,株式会社リバイオール,,株式会社,愛知県,名古屋市瑞穂区,市丘町１丁目２１番地の１－４０８,,23,108,4670063,,,,,,,2022-08-01,1,,,,,リバイオール,0
209,1180003024093,新規,0,2022-08-01,2022-08-01,合同会社ブルー,,合同会社,愛知県,名古屋市中区,丸の内１丁目１７番１９号,,23,106,4600002,,,,,,,2022-08-01,1,,,,,ブルー,0
212,1180303005363,新規,0,2022-08-01,2022-08-01,ＫＲ合同会社,,合同会社,愛知県,岡崎市,城南町３丁目８番地６石川ハイツ１０２,,23,202,4440835,,,,,,,2022-08-01,1,,,,,ケイアル,0
228,1250003003123,新規,0,2022-08-01,2022-08-01,合同会社明日葉,,合同会社,山口県,下関市,新垢田東町２丁目３番４号,,35,201,7510843,,,,,,,2022-08-01,1,,,,,アシタバ,0
243,1290001098426,新規,0,2022-08-01,2022-08-01,ヒロ総合電設株式会社,,株式会社,福岡県,春日市,春日原南町２丁目３２－４,,40,218,8160803,,,,,,,2022-08-01,1,,,,,ヒロデンセツ,0
252,1340003003857,新規,0,2022-08-01,2022-08-01,合同会社夢大,,合同会社,鹿児島県,鹿屋市,笠之原町３８番３３号,,46,203,8930023,,,,,,,2022-08-01,1,,,,,ムゲン,0
255,1360001030744,新規,0,2022-08-01,2022-08-01,株式会社ＹＨ興産,,株式会社,沖縄県,沖縄市,園田３丁目８番１３号,,47,211,9040022,,,,,,,2022-08-01,1,,,,,ワイエイチコウサン,0
256,1360003012121,新規,0,2022-08-01,2022-08-01,合同会社Ｆａｍｉｌｙ　ｍｅｍｏｒｉｅｓ,,合同会社,沖縄県,中頭郡読谷村,字古堅８６７番地８,,47,324,9040314,,,,,,,2022-08-01,1,,,,,ファミリーメモリーズ,0
261,1370001048851,新規,0,2022-08-01,2022-08-01,株式会社ナースケア東北,,株式会社,宮城県,仙台市太白区,富沢西５丁目１２番地の２８ＰＡＳＳＩＯＮＥＩＶ,00127373,04,104,9820037,,,,,,,2022-08-01,1,,,,,ナースケアトウホク,0
262,1370001048876,新規,0,2022-08-01,2022-08-01,株式会社Ｋ’ｓ　ＢＥＮＣＨ,,株式会社,宮城県,仙台市宮城野区,岩切１丁目２番２７号,,04,102,9830821,,,,,,,2022-08-01,1,,,,,ケイズベンチ,0
263,1370003005776,新規,0,2022-08-01,2022-08-01,合同会社イタバシケ,,合同会社,宮城県,仙台市泉区,鶴が丘１丁目３０番地の３,,04,105,9813109,,,,,,,2022-08-01,1,,,,,イタバシケ,0
277,1430003014151,新規,0,2022-08-01,2022-08-01,合同会社イージス,,合同会社,北海道,札幌市中央区,北三条西２４丁目１番１０－３０５号,,01,101,0640823,,,,,,,2022-08-01,1,,,,,イージス,0
278,1430005014521,新規,0,2022-08-01,2022-08-01,一般社団法人登別アドベンチャー協会,,その他の設立登記法人,北海道,登別市,登別温泉町１０９番地Ｂ１０２,,01,230,0590551,,,,,,,2022-08-01,1,,,,,ノボリベツアドベンチャーキョウカイ,0
283,1700150107820,新規,0,2022-08-01,2022-04-11,ひろさき芸術舞踊実行委員会,,その他,青森県,弘前市,大字山道町１０－１,,02,202,0368181,,,,,,,2022-04-11,1,,,,,ヒロサキゲイジユツブヨウジツコウイインカイ,0
300,2010003038051,新規,0,2022-08-01,2022-08-01,合同会社アーカトルシュ,,合同会社,東京都,千代田区,神田東松下町１０－１,,13,101,1010042,,,,,,,2022-08-01,1,,,,,,0
301,2010003038274,新規,0,2022-08-01,2022-08-01,ニッポン・ウエルス・ＡＭＡＭＯ合同会社,,合同会社,東京都,中央区,日本橋室町１丁目１３番７号,,13,102,1030022,,,,,,,2022-08-01,1,,,,,ニッポンウエルスアマモ,0
303,2010005035336,新規,0,2022-08-01,2022-08-01,一般社団法人メタ振興ファーム,,その他の設立登記法人,東京都,千代田区,一番町６番地１ロイアル一番町Ａー６０３号,,13,101,1020082,,,,,,,2022-08-01,1,,,,,メタシンコウファーム,0
323,2010601061586,新規,0,2022-08-01,2022-08-01,インサーネ株式会社,,株式会社,東京都,江東区,越中島２丁目１－３２プラウドシティ越中島１０２,,13,108,1350044,,,,,,,2022-08-01,1,,,,,インサーネ,0
331,2010901051304,新規,0,2022-08-01,2022-08-01,株式会社ワイズプラス,,株式会社,東京都,世田谷区,南烏山４丁目１０番３ＫＳビル３０１,,13,112,1570062,,,,,,,2022-08-01,1,,,,,ワイズプラス,0
334,2010903007551,新規,0,2022-08-01,2022-08-01,ＶＤＭ‐Ｅ合同会社,,合同会社,東京都,世田谷区,用賀１丁目１３番２３－４０４号,,13,112,1580097,,,,,,,2022-08-01,1,,,,,ブイディエムイー,0
339,2011001148858,新規,0,2022-08-01,2022-08-01,ＮＦＴマーケティング株式会社,,株式会社,東京都,渋谷区,渋谷３丁目９番９号東京建物渋谷ビル８階,,13,113,1500002,,,,,,,2022-08-01,1,,,,,エヌエフティーマーケティング,0
340,2011001148882,新規,0,2022-08-01,2022-08-01,株式会社イミセンス,,株式会社,東京都,渋谷区,神宮前６丁目２３番４号桑野ビル２階,,13,113,1500001,,,,,,,2022-08-01,1,,,,,イミセンス,0
341,2011001148890,新規,0,2022-08-01,2022-08-01,株式会社ドウガマニア,,株式会社,東京都,渋谷区,桜丘町１７番１２号渋谷ジョンソンビル４０１,,13,113,1500031,,,,,,,2022-08-01,1,,,,,ドウガマニア,0
344,2011003015107,新規,0,2022-08-01,2022-08-01,合同会社ＮＯ．８,,合同会社,東京都,目黒区,青葉台３丁目１７番７号佐藤マンション１Ｆ,,13,110,1530042,,,,,,,2022-08-01,1,,,,,ナンバーエイト,0
345,2011005009676,新規,0,2022-08-01,2022-08-01,弁理士法人Ｉｎｔｇｒｏｗ　Ｌｏｕｎｇｅ,,その他の設立登記法人,東京都,渋谷区,渋谷３丁目６番２号,,13,113,1500002,,,,,,,2022-08-01,1,,,,,イントグローラウンジ,0
349,2011101099687,新規,0,2022-08-01,2022-08-01,株式会社Ｐｒｅｃｉｏｕｓ,,株式会社,東京都,新宿区,西新宿７丁目３番１号三光パークビル４Ｆ,,13,104,1600023,,,,,,,2022-08-01,1,,,,,プレシャス,0
354,2011403003735,新規,0,2022-08-01,2022-08-01,合同会社三共トラスト,,合同会社,東京都,板橋区,四葉１丁目３－１０ＢｅｖｅｒｌｙＨｏｍｅｓ下赤塚１０５号,,13,119,1750084,,,,,,,2022-08-01,1,,,,,サンキョウトラスト,0
358,2011703003204,新規,0,2022-08-01,2022-08-01,合同会社Ｘｅｎａ,,合同会社,東京都,江戸川区,北小岩２丁目１４番地２号京成サンコーポ小岩１０１号室,,13,123,1330051,,,,,,,2022-08-01,1,,,,,ジーナ,0
362,2012401039473,新規,0,2022-08-01,2022-08-01,株式会社フェアズフェア,,株式会社,東京都,三鷹市,新川１丁目５番５号,,13,204,1810004,,,,,,,2022-08-01,1,,,,,フェアズフェア,0
368,2020001147464,新規,0,2022-08-01,2022-08-01,株式会社ことのはラーニング,,株式会社,神奈川県,横浜市港北区,篠原町７２番地２－３－２０５,,14,109,2220026,,,,,,,2022-08-01,1,,,,,コトノハラーニング,0
369,2020001147522,新規,0,2022-08-01,2022-08-01,株式会社トーマ,,株式会社,神奈川県,川崎市川崎区,宮前町７番２号シェリールプレイス川崎５０１号,,14,131,2100012,,,,,,,2022-08-01,1,,,,,トーマ,0
380,2030001149451,新規,0,2022-08-01,2022-08-01,株式会社キーパーズ,,株式会社,埼玉県,川越市,大字扇河岸１０５番地６,,11,201,3501134,,,,,,,2022-08-01,1,,,,,キーパーズ,0
387,2030003019900,新規,0,2022-08-01,2022-08-01,合同会社ディール,,合同会社,埼玉県,八潮市,大字大原４４９番地スタシィオン参番館１０２,,11,234,3400825,,,,,,,2022-08-01,1,,,,,ディール,0
393,2040001124429,新規,0,2022-08-01,2022-08-01,株式会社幸成,,株式会社,千葉県,八千代市,萱田１１５６番地１,,12,221,2760043,,,,,,,2022-08-01,1,,,,,,0
397,2040003020527,新規,0,2022-08-01,2022-08-01,三金合同会社,,合同会社,千葉県,千葉市稲毛区,作草部町１２６５,,12,103,2630014,,,,,,,2022-08-01,1,,,,,サンキン,0
408,2070003004576,新規,0,2022-08-01,2022-08-01,トレシーズ合同会社,,合同会社,群馬県,高崎市,新町３１８２番１３号,,10,202,3701301,,,,,,,2022-08-01,1,,,,,トレシーズ,0
409,2080001025103,新規,0,2022-08-01,2022-08-01,株式会社盛大,,株式会社,静岡県,静岡市駿河区,西脇５１２番地の３,,22,102,4228044,,,,,,,2022-08-01,1,,,,,セイダイ,0
416,2100001035561,新規,0,2022-08-01,2022-08-01,株式会社ＳＨＡＲＥ’Ｓ,,株式会社,長野県,松本市,南松本２丁目１－１５－１ａｐａｉｓｅｒ,,20,202,3900832,,,,,,,2022-08-01,1,,,,,シェアーズ,0
418,2110001036848,新規,0,2022-08-01,2022-08-01,株式会社ｆｉｔｓ,,株式会社,新潟県,新潟市東区,山木戸４丁目７番１２号,,15,102,9500871,,,,,,,2022-08-01,1,,,,,フィッツ,0
419,2110001036856,新規,0,2022-08-01,2022-08-01,株式会社市藤,,株式会社,新潟県,新潟市中央区,女池２丁目２番２１号,,15,103,9500941,,,,,,,2022-08-01,1,,,,,イチフジ,0
420,2110003004828,新規,0,2022-08-01,2022-08-01,合同会社イノベーションＬＡＢ新潟,,合同会社,新潟県,新潟市中央区,南笹口１丁目５番６号,,15,103,9500912,,,,,,,2022-08-01,1,,,,,イノベーションラボニイガタ,0
433,2120001247717,新規,0,2022-08-01,2022-08-01,金霖株式会社,,株式会社,大阪府,大阪市東成区,神路４丁目３－１０スターレジデンス新深江３０８号室,,27,115,5370003,,,,,,,2022-08-01,1,,,,,キンリン,0
434,2120001247790,新規,0,2022-08-01,2022-08-01,株式会社Ｄｏｃｔｏｒ’ｓ　Ｆｉｔｎｅｓｓ,,株式会社,大阪府,大阪市東淀川区,東中島１丁目２０番１９号新大阪ヒカリビル９階,,27,114,5330033,,,,,,,2022-08-01,1,,,,,ドクターズフィットネス,0
435,2120001247816,新規,0,2022-08-01,2022-08-01,ＲＩＮ　ＳＨＩＰＰＩＮＧ株式会社,,株式会社,大阪府,大阪市港区,福崎２丁目８番３９号,,27,107,5520013,,,,,,,2022-08-01,1,,,,,リンシッピング,0
441,2120003022192,新規,0,2022-08-01,2022-08-01,合同会社キタヤマ,,合同会社,大阪府,大阪市阿倍野区,松崎町３丁目１３番３５－１００３号,,27,119,5450053,,,,,,,2022-08-01,1,,,,,キタヤマ,0
443,2120005023098,新規,0,2022-08-01,2022-08-01,医療法人たかはし内科・循環器内科クリニック,,その他の設立登記法人,大阪府,寝屋川市,大利町２１番２号寝屋川大利メディカルガーデンズ３階,,27,215,5720048,,,,,,,2022-08-01,1,,,,,タカハシナイカジュンカンキナイカクリニック,0
447,2120101065977,新規,0,2022-08-01,2022-08-01,株式会社ＢｏＤＹ　ＬＩＮＫ,,株式会社,大阪府,岸和田市,木材町９番地の１５,,27,202,5960011,,,,,,,2022-08-01,1,,,,,ボディリンク,0
448,2120103004801,新規,0,2022-08-01,2022-08-01,合同会社一期,,合同会社,大阪府,羽曳野市,古市７丁目９番５号,,27,222,5830852,,,,,,,2022-08-01,1,,,,,イッキ,0
451,2122001036109,新規,0,2022-08-01,2022-08-01,株式会社政秀,,株式会社,大阪府,東大阪市,菱江４丁目５番２１号,,27,227,5780984,,,,,,,2022-08-01,1,,,,,セイシュウ,0
462,2140001126885,新規,0,2022-08-01,2022-08-01,株式会社Ｏ．Ｋ不動産,,株式会社,兵庫県,姫路市,飾磨区清水３丁目７０番地,,28,201,6728051,,,,,,,2022-08-01,1,,,,,オーケイフドウサン,0
463,2140001126893,新規,0,2022-08-01,2022-08-01,株式会社ＭＩＮＯＬＩＮＯ,,株式会社,兵庫県,神戸市西区,櫨谷町栃木１３８番地の１,,28,111,6512236,,,,,,,2022-08-01,1,,,,,ミノリノ,0
471,2140003017975,新規,0,2022-08-01,2022-08-01,ｏｆｆｉｃｅ．ＬＯＶＩＮＳＯＮ合同会社,,合同会社,兵庫県,姫路市,大塩町２８５番地１１,,28,201,6710101,,,,,,,2022-08-01,1,,,,,オフィスロビンソン,0
472,2140005026264,新規,0,2022-08-01,2022-08-01,一般社団法人紡,,その他の設立登記法人,兵庫県,多可郡多可町,中区門前３３３－２,,28,365,6791101,,,,,,,2022-08-01,1,,,,,ツムギ,0
481,2180001152366,新規,0,2022-08-01,2022-08-01,株式会社ＷＥＥＤ　ＪＡＰＡＮ,,株式会社,愛知県,名古屋市中区,大須１丁目７－１４パークＩＭビル２Ｆ,,23,106,4600011,,,,,,,2022-08-01,1,,,,,ウィードジャパン,0
484,2180003024092,新規,0,2022-08-01,2022-08-01,合同会社オリーブ,,合同会社,愛知県,名古屋市中区,丸の内１丁目１７番１９号,,23,106,4600002,,,,,,,2022-08-01,1,,,,,オリーブ,0
487,2180303005412,新規,0,2022-08-01,2022-08-01,合同会社Ｗｅｂｕｌａｌ,,合同会社,愛知県,岡崎市,大平町字ゼッポウ９番地３,,23,202,4440007,,,,,,,2022-08-01,1,,,,,ウェブラル,0
507,2230005009243,新規,0,2022-08-01,2022-08-01,一般社団法人Ｄ‐ｌｉｖｅ,,その他の設立登記法人,富山県,氷見市,伊勢大町１丁目２６７番地１６,,16,205,9350015,,,,,,,2022-08-01,1,,,,,ディーライブ,0
519,2320001019245,新規,0,2022-08-01,2022-08-01,株式会社アニングトラスト,,株式会社,大分県,別府市,石垣東７丁目１番３６号ＢＭマンション,,44,202,8740919,,,,,,,2022-08-01,1,,,,,アニングトラスト,0
521,2330001029961,新規,0,2022-08-01,2022-08-01,株式会社プラスワン,,株式会社,熊本県,熊本市北区,八景水谷２丁目７番１０号,,43,105,8618064,,,,,,,2022-08-01,1,,,,,プラスワン,0
528,2360001030743,新規,0,2022-08-01,2022-08-01,Ｏ．ＨＩＫＥ株式会社,,株式会社,沖縄県,那覇市,前島３丁目２５番２号泊ポートビル５Ｆ,,47,201,9000016,,,,,,,2022-08-01,1,,,,,オーハイク,0
530,2370001048867,新規,0,2022-08-01,2022-08-01,株式会社ＤＥ仙台,,株式会社,宮城県,仙台市宮城野区,榴岡１丁目５番１８メゾン長喜城３０５号,,04,102,9830852,,,,,,,2022-08-01,1,,,,,デイーイーセンダイ,0
532,2370003005791,新規,0,2022-08-01,2022-08-01,ＥＭＰＯＲＩＵＭ　ＭＯＴＯＲＳ合同会社,,合同会社,宮城県,仙台市青葉区,山手町９番３２号ＩＩ－１０１,00127370,04,101,9810967,,,,,,,2022-08-01,1,,,,,エンポリアムモーターズ,0
536,2400001015954,新規,0,2022-08-01,2022-08-01,株式会社明戸珈琲,,株式会社,岩手県,盛岡市,内丸４番７号,,03,201,0200023,,,,,,,2022-08-01,1,,,,,アケトコーヒー,0
544,2430001087157,新規,0,2022-08-01,2022-08-01,株式会社北海道日信,,株式会社,北海道,札幌市豊平区,美園十二条７丁目７番６号,,01,105,0620012,,,,,,,2022-08-01,1,,,,,ホッカイドウニッシン,0
545,2430001087181,新規,0,2022-08-01,2022-08-01,ＧＥＯ・ＷＯＲＫ株式会社,,株式会社,北海道,札幌市白石区,東米里２１２４番地１１８,,01,104,0030876,,,,,,,2022-08-01,1,,,,,ジオワーク,0
548,2430003014134,新規,0,2022-08-01,2022-08-01,合同会社アイビス,,合同会社,北海道,札幌市中央区,南十八条西１４丁目３－３２－２０３,,01,101,0640918,,,,,,,2022-08-01,1,,,,,アイビス,0
549,2430003014142,新規,0,2022-08-01,2022-08-01,合同会社愛,,合同会社,北海道,札幌市西区,西野八条３丁目１１番１号,,01,107,0630038,,,,,,,2022-08-01,1,,,,,アイ,0
571,3010001228421,新規,0,2022-08-01,2022-08-01,Ｎｐｌｕｓ株式会社,,株式会社,東京都,千代田区,神田三崎町２丁目１４番５号３Ｂ,,13,101,1010061,,,,,,,2022-08-01,1,,,,,エヌプラス,0
572,3010001228495,新規,0,2022-08-01,2022-08-01,株式会社ＥｎＺｏ,,株式会社,東京都,千代田区,外神田２丁目１８番１３号東郷ビル４Ｆ,,13,101,1010021,,,,,,,2022-08-01,1,,,,,,0
573,3010005035335,新規,0,2022-08-01,2022-08-01,税理士法人日本アップパートナーズ,,その他の設立登記法人,東京都,千代田区,丸の内３丁目４－１新国際ビル８階,,13,101,1000005,,,,,,,2022-08-01,1,,,,,ニホンアップパートナーズ,0
583,3010403028171,新規,0,2022-08-01,2022-08-01,合同会社Ｄｒｉｐ　Ｃａｐｅ　Ｄｉｇｉｔａｌ,,合同会社,東京都,港区,元麻布３丁目１番６号ＢＬＩＮＫ・ＳＭＡＲＴ・ＷＯＲＫＳＰＡＣＥ,,13,103,1060046,,,,,,,2022-08-01,1,,,,,ドリップケープデジタル,0
584,3010503006671,新規,0,2022-08-01,2022-08-01,小山ＬＵＫＡ温泉合同会社,,合同会社,東京都,台東区,浅草５丁目４６－９－３０１,,13,106,1110032,,,,,,,2022-08-01,1,,,,,オヤマルカオンセン,0
587,3010601061536,新規,0,2022-08-01,2022-08-01,ＮＫプランニング株式会社,,株式会社,東京都,墨田区,千歳３丁目３－３,,13,107,1300025,,,,,,,2022-08-01,1,,,,,エヌケープランニング,0
600,3011001148881,新規,0,2022-08-01,2022-08-01,株式会社聡輝,,株式会社,東京都,渋谷区,桜丘町２９ー５石島ビル３０１号,,13,113,1500031,,,,,,,2022-08-01,1,,,,,ソウキ,0
601,3011001148898,新規,0,2022-08-01,2022-08-01,株式会社ｄｉｓｈ　ｗｏｒｋｓ,,株式会社,東京都,渋谷区,本町３丁目１２番１号,,13,113,1510071,,,,,,,2022-08-01,1,,,,,ディッシュワークス,0
603,3011101099661,新規,0,2022-08-01,2022-08-01,株式会社Ｅｎｏ’ｓ,,株式会社,東京都,新宿区,西落合２丁目１２番２号,,13,104,1610031,,,,,,,2022-08-01,1,,,,,エノーズ,0
604,3011101099694,新規,0,2022-08-01,2022-08-01,株式会社ＩＴ共創,,株式会社,東京都,新宿区,高田馬場１丁目２８番１０号,,13,104,1690075,,,,,,,2022-08-01,1,,,,,アイティーキョウソウ,0
605,3011103012011,新規,0,2022-08-01,2022-08-01,合同会社ＣＡＳＤＡＹ,,合同会社,東京都,新宿区,新宿５丁目１番１号,,13,104,1600022,,,,,,,2022-08-01,1,,,,,キャスデイ,0
608,3011301027983,新規,0,2022-08-01,2022-08-01,株式会社ＳＨＯ‐ＳＡＮ,,株式会社,東京都,杉並区,阿佐谷南１丁目１８番６号第７スカイビル３０１号室,,13,115,1660004,,,,,,,2022-08-01,1,,,,,ショーサン,0
612,3011501028344,新規,0,2022-08-01,2022-08-01,ＴｈｉｎｋＳｔａｒ株式会社,,株式会社,東京都,荒川区,町屋５丁目１８,,13,118,1160001,,,,,,,2022-08-01,1,,,,,シンクスター,0
618,3012403005514,新規,0,2022-08-01,2022-08-01,ｍａｓａｆｕｍｉ合同会社,,合同会社,東京都,調布市,国領町５丁目３３番地４７ＴＯＫＩＯ国領１０３号室,,13,208,1820022,,,,,,,2022-08-01,1,,,,,マサフミ,0
630,3020001147505,新規,0,2022-08-01,2022-08-01,ステップオファー株式会社,,株式会社,神奈川県,横浜市港北区,新横浜３丁目１７番１２号（アルファスペース新横浜）ビステーション新横浜内,,14,109,2220033,,,,,,,2022-08-01,1,,,,,ステップオファー,0
633,3020005015609,新規,0,2022-08-01,2022-08-01,一般社団法人笑楽,,その他の設立登記法人,神奈川県,横浜市旭区,中白根２丁目３０番８号,,14,112,2410004,,,,,,,2022-08-01,1,,,,,ワラク,0
642,3030001149450,新規,0,2022-08-01,2022-08-01,株式会社さぼてん,,株式会社,埼玉県,さいたま市緑区,道祖土１丁目２６番５号サイドエクセル２０１号室,,11,109,3360907,,,,,,,2022-08-01,1,,,,,サボテン,0
648,3030003019890,新規,0,2022-08-01,2022-08-01,合同会社ＬｉｅＮａｒｃ,,合同会社,埼玉県,さいたま市浦和区,常盤９丁目１９番１９号サンシティ２０１号,,11,107,3300061,,,,,,,2022-08-01,1,,,,,リエナルク,0
654,3040003020518,新規,0,2022-08-01,2022-08-01,合同会社タツケン,,合同会社,千葉県,印西市,戸神台２丁目１番地２棟８１５号,,12,231,2701349,,,,,,,2022-08-01,1,,,,,タツケン,0
660,3050003006739,新規,0,2022-08-01,2022-08-01,合同会社Ｅ＆Ｍ,,合同会社,茨城県,つくば市,豊里の杜２丁目３６番地５,,08,220,3002648,,,,,,,2022-08-01,1,,,,,イーアンドエム,0
670,3080103002627,新規,0,2022-08-01,2022-08-01,合同会社ＭＩＣＨＩＴＯＳＯＲＡ,,合同会社,静岡県,富士市,松本１４３番地の２６,,22,210,4160903,,,,,,,2022-08-01,1,,,,,ミチトソラ,0
675,3100001035569,新規,0,2022-08-01,2022-08-01,株式会社ブッソール,,株式会社,長野県,東筑摩郡山形村,２７０９番地２,,20,450,3901301,,,,,,,2022-08-01,1,,,,,ブッソール,0
679,3110001036847,新規,0,2022-08-01,2022-08-01,株式会社ムラヤマ自動車販売,,株式会社,新潟県,南魚沼市,島新田３１１番地３,,15,226,9496407,,,,,,,2022-08-01,1,,,,,ムラヤマジドウシャハンバイ,0
680,3110005016837,新規,0,2022-08-01,2022-08-01,特定非営利活動法人闘牛と錦鯉の伝統文化を守る会,,その他の設立登記法人,新潟県,長岡市,豊詰町２１９番地２０,,15,202,9401142,,,,,,,2022-08-01,1,,,,,トウギュウトニシキゴイノデントウブンカヲマモルカイ,0
698,3120001247716,新規,0,2022-08-01,2022-08-01,新華株式会社,,株式会社,大阪府,大阪市東成区,神路４丁目３－１０スターレジデンス新深江３０３号室,,27,115,5370003,,,,,,,2022-08-01,1,,,,,シンカ,0
702,3120101065976,新規,0,2022-08-01,2022-08-01,Ｌｕｍｉｎａ株式会社,,株式会社,大阪府,堺市中区,毛穴町１２６番地１,,27,142,5998266,,,,,,,2022-08-01,1,,,,,ルミナ,0
703,3120105009608,新規,0,2022-08-01,2022-08-01,一般社団法人和泉公共施設サポート,,その他の設立登記法人,大阪府,和泉市,仏並町８４番地の２,,27,219,5941136,,,,,,,2022-08-01,1,,,,,イズミコウキョウシセツサポート,0
706,3120901046309,新規,0,2022-08-01,2022-08-01,株式会社ＭＡＰＬＥ,,株式会社,大阪府,箕面市,桜ケ丘２丁目１番２７号,,27,220,5620046,,,,,,,2022-08-01,1,,,,,メイプル,0
707,3120903004256,新規,0,2022-08-01,2022-08-01,合同会社ＯＫ‐２,,合同会社,大阪府,箕面市,桜井１丁目１９番６号,,27,220,5620043,,,,,,,2022-08-01,1,,,,,オーケーツー,0
714,3130001072295,新規,0,2022-08-01,2022-08-01,株式会社メンタルアシスト,,株式会社,京都府,京都市下京区,玉津島町２９４,,26,106,6008427,,,,,,,2022-08-01,1,,,,,メンタルアシスト,0
723,3140001126884,新規,0,2022-08-01,2022-08-01,株式会社ＳＯＬＩＤ,,株式会社,兵庫県,神戸市中央区,栄町通１丁目１番１２号,,28,110,6500023,,,,,,,2022-08-01,1,,,,,ソリッド,0
725,3140003017966,新規,0,2022-08-01,2022-08-01,合同会社みのり訪問看護ステーションみのり,,合同会社,兵庫県,西宮市,小松東町１丁目２番９号,,28,204,6638123,,,,,,,2022-08-01,1,,,,,ミノリホウモンカンゴステーションミノリ,0
735,3180001152365,新規,0,2022-08-01,2022-08-01,株式会社ＡＴＨ,,株式会社,愛知県,名古屋市中区,富士見町１３番１９号,,23,106,4600014,,,,,,,2022-08-01,1,,,,,エーティーエイチ,0
738,3180003024091,新規,0,2022-08-01,2022-08-01,合同会社グリーン,,合同会社,愛知県,名古屋市中区,丸の内１丁目１７番１９号,,23,106,4600002,,,,,,,2022-08-01,1,,,,,グリーン,0
743,3180303005411,新規,0,2022-08-01,2022-08-01,合同会社ドリームホープマーケット,,合同会社,愛知県,岡崎市,鴨田町字猿堂１９番地２,,23,202,4442121,,,,,,,2022-08-01,1,,,,,ドリームホープマーケット,0
758,3240001060132,新規,0,2022-08-01,2022-08-01,株式会社Ｄ・Ｓ・Ｐ,,株式会社,広島県,福山市,幕山台２丁目６番２１号,,34,207,7210913,,,,,,,2022-08-01,1,,,,,ディーエスピー,0
770,3290003012787,新規,0,2022-08-01,2022-08-01,ＹＭ＆Ｃｏｍｐａｎｙ合同会社,,合同会社,福岡県,福岡市早良区,藤崎１丁目５番３１号,,40,137,8140013,,,,,,,2022-08-01,1,,,,,ワイエムアンドカンパニー,0
772,3290803004174,新規,0,2022-08-01,2022-08-01,合同会社エクシア,,合同会社,福岡県,北九州市小倉南区,若園４丁目１１番６号,,40,107,8020816,,,,,,,2022-08-01,1,,,,,エクシア,0
774,3330001029977,新規,0,2022-08-01,2022-08-01,株式会社ＧＯＫＩＧＥＮ,,株式会社,熊本県,熊本市中央区,下通１丁目７番２４号,,43,101,8600807,,,,,,,2022-08-01,1,,,,,ゴキゲン,0
775,3330003009465,新規,0,2022-08-01,2022-08-01,合同会社アイエス・セミソリューション,,合同会社,熊本県,上益城郡益城町,大字田原２０８１番地１０,,43,443,8612202,,,,,,,2022-08-01,1,,,,,アイエスセミソリューション,0
776,3350001017880,新規,0,2022-08-01,2022-08-01,株式会社ひなた,,株式会社,宮崎県,東諸県郡綾町,大字南俣６２２番地３,,45,383,8801303,,,,,,,2022-08-01,1,,,,,ヒナタ,0
780,3360003002236,新規,0,2022-08-01,2022-08-01,合資会社高良住宅,,合資会社,沖縄県,那覇市,字田原２８９番地３,,47,201,9010156,,,,,,,2022-08-01,1,,,,,,0
786,3390001016978,新規,0,2022-08-01,2022-08-01,株式会社森のファーム山形,,株式会社,山形県,長井市,五十川６１９６番地１,,06,209,9930072,,,,,,,2022-08-01,1,,,,,モリノファームヤマガタ,0
794,3430001087172,新規,0,2022-08-01,2022-08-01,明和装業株式会社,,株式会社,北海道,空知郡南幌町,南１２線西１３番地,,01,423,0690212,,,,,,,2022-08-01,1,,,,,メイワソウギョウ,0
795,3430001087222,新規,0,2022-08-01,2022-08-01,ＬＩＦＥデザイン北海道株式会社,,株式会社,北海道,札幌市北区,新琴似町７７１番地５,,01,102,0010915,,,,,,,2022-08-01,1,,,,,ライフデザインホッカイドウ,0
798,3440001009126,新規,0,2022-08-01,2022-08-01,株式会社ハピネスライフ武,,株式会社,北海道,函館市,美原３丁目３３番１３－１０１号,,01,202,0410806,,,,,,,2022-08-01,1,,,,,ハピネスライフタケシ,0
801,3490001010244,新規,0,2022-08-01,2022-08-01,株式会社中平パーク,,株式会社,高知県,高知市,神田１７５３番地３６,,39,201,7808040,,,,,,,2022-08-01,1,,,,,ナカヒラパーク,0
811,4010001228494,新規,0,2022-08-01,2022-08-01,Ｒｅｄ　Ｗａｌｌｅｔ株式会社,,株式会社,東京都,千代田区,大手町１丁目７番２号東京サンケイビル２７Ｆ,,13,101,1000004,,,,,,,2022-08-01,1,,,,,レッドウオレット,0
828,4010403028063,新規,0,2022-08-01,2022-08-01,エヌの合同会社,,合同会社,東京都,港区,北青山２丁目１２番４号,,13,103,1070061,,,,,,,2022-08-01,1,,,,,エヌノ,0
829,4010403028113,新規,0,2022-08-01,2022-08-01,ティーシーソフト合同会社,,合同会社,東京都,港区,浜松町２丁目２番１５号浜松町ダイヤビル２Ｆ,,13,103,1050013,,,,,,,2022-08-01,1,,,,,ティーシーソフト,0
831,4010505003328,新規,0,2022-08-01,2022-08-01,一般社団法人グローバル人材情報センター,,その他の設立登記法人,東京都,台東区,台東１丁目５番２６号２Ｆ,,13,106,1100016,,,,,,,2022-08-01,1,,,,,グローバルジンザイジョウホウセンター,0
835,4010601061568,新規,0,2022-08-01,2022-08-01,株式会社瀬川,,株式会社,東京都,墨田区,太平２丁目１９番４号ファーストハイツ２０２号室,,13,107,1300012,,,,,,,2022-08-01,1,,,,,セガワ,0
848,4011101099693,新規,0,2022-08-01,2022-08-01,伊格賦株式会社,,株式会社,東京都,新宿区,西五軒町７番１２プラティーク神楽坂４０１号,,13,104,1620812,,,,,,,2022-08-01,1,,,,,イガフ,0
849,4011101099710,新規,0,2022-08-01,2022-08-01,株式会社アキエース,,株式会社,東京都,新宿区,西新宿３丁目３番１３号西新宿水間ビル６階,,13,104,1600023,,,,,,,2022-08-01,1,,,,,アキエース,0
850,4011101099719,新規,0,2022-08-01,2022-08-01,株式会社アラバト,,株式会社,東京都,新宿区,西新宿３丁目３番１３号,,13,104,1600023,,,,,,,2022-08-01,1,,,,,アラバト,0
853,4011303004484,新規,0,2022-08-01,2022-08-01,合同会社カプサイシン大好き,,合同会社,東京都,杉並区,西荻南２丁目７番１０－４０１号,,13,115,1670053,,,,,,,2022-08-01,1,,,,,カプサイシンダイスキ,0
854,4011305002841,新規,0,2022-08-01,2022-08-01,一般社団法人日本電気自動車レース招致委員会,,その他の設立登記法人,東京都,杉並区,永福１丁目１６番４号,,13,115,1680064,,,,,,,2022-08-01,1,,,,,ニホンデンキジドウシャレースショウチイインカイ,0
862,4011501028335,新規,0,2022-08-01,2022-08-01,株式会社ＹＬＳ,,株式会社,東京都,北区,豊島５丁目２番２０－１３１８号,,13,117,1140003,,,,,,,2022-08-01,1,,,,,ワイエルエス,0
867,4011701025495,新規,0,2022-08-01,2022-08-01,株式会社ドリズインターナショナル,,株式会社,東京都,江戸川区,南小岩７丁目２６－１６リバティ小岩４Ｆ,,13,123,1330056,,,,,,,2022-08-01,1,,,,,ドリズインターナショナル,0
868,4011803005197,新規,0,2022-08-01,2022-08-01,合同会社ＵＮＩＣＯ,,合同会社,東京都,足立区,西新井６丁目４０番５号,,13,121,1230841,,,,,,,2022-08-01,1,,,,,ウニコ,0
877,4020001147529,新規,0,2022-08-01,2022-08-01,株式会社コアラ川崎,,株式会社,神奈川県,川崎市中原区,下小田中２丁目９番５号,,14,133,2110041,,,,,,,2022-08-01,1,,,,,コアラカワサキ,0
881,4020003022168,新規,0,2022-08-01,2022-08-01,ＴＨＩＥＮ　ＫＩＭ　ＧＲＯＵＰ合同会社,,合同会社,神奈川県,川崎市川崎区,東田町１０番地３０ＫＳビル２０２,,14,131,2100005,,,,,,,2022-08-01,1,,,,,センキムグループ,0
882,4020003022176,新規,0,2022-08-01,2022-08-01,合同会社さんちょうめ,,合同会社,神奈川県,横浜市中区,曙町３丁目４０番地,,14,104,2310057,,,,,,,2022-08-01,1,,,,,サンチョウメ,0
888,4030001149391,新規,0,2022-08-01,2022-08-01,株式会社秩父フードクリエイツ,,株式会社,埼玉県,秩父市,中町１１番２号,,11,207,3680043,,,,,,,2022-08-01,1,,,,,チチブフードクリエイツ,0
893,4030003019865,新規,0,2022-08-01,2022-08-01,合同会社ｅｖｅｒ　ｆｒｅｅ,,合同会社,埼玉県,深谷市,本田４４０６番地,,11,218,3691105,,,,,,,2022-08-01,1,,,,,エバーフリー,0
899,4040003020517,新規,0,2022-08-01,2022-08-01,合同会社今関商会,,合同会社,千葉県,八街市,沖１０１４－１,,12,230,2891126,,,,,,,2022-08-01,1,,,,,イマゼキショウカイ,0
900,4040003020525,新規,0,2022-08-01,2022-08-01,合同会社彩賀工業,,合同会社,千葉県,市原市,廿五里１２２７－８,,12,219,2900032,,,,,,,2022-08-01,1,,,,,サイガコウギョウ,0
903,4050001051471,新規,0,2022-08-01,2022-08-01,ＴＡＢＩＫＥ　ＪＡＰＡＮ株式会社,,株式会社,茨城県,常総市,大生郷町１０７０番地２,,08,211,3002521,,,,,,,2022-08-01,1,,,,,タビケジャパン,0
915,4070005010018,新規,0,2022-08-01,2022-08-01,医療法人青樹会,,その他の設立登記法人,群馬県,桐生市,新里町山上字天笠南５００番地１,,10,203,3760125,,,,,,,2022-08-01,1,,,,,セイジュカイ,0
918,4080103002626,新規,0,2022-08-01,2022-08-01,合同会社不動産ガレージ,,合同会社,静岡県,伊東市,湯川４５２番地の１４０,,22,208,4140002,,,,,,,2022-08-01,1,,,,,フドウサンガレージ,0
929,4110001036854,新規,0,2022-08-01,2022-08-01,新発田工房株式会社,,株式会社,新潟県,新発田市,押廻５５７番地,,15,206,9592434,,,,,,,2022-08-01,1,,,,,シバタコウボウ,0
931,4110003004826,新規,0,2022-08-01,2022-08-01,ａｂｓｔｒａｃｔ　ｄｅｓｉｇｎ合同会社,,合同会社,新潟県,新潟市中央区,高志１丁目３番１４号アクシス１,,15,103,9500926,,,,,,,2022-08-01,1,,,,,アブストラクトデザイン,0
947,4120001247715,新規,0,2022-08-01,2022-08-01,Ｔｈｒｅｅｇｅｍ株式会社,,株式会社,大阪府,大阪市東成区,神路４丁目３－１０スターレジデンス新深江８０３号室,,27,115,5370003,,,,,,,2022-08-01,1,,,,,スリージェム,0
948,4120001247756,新規,0,2022-08-01,2022-08-01,大明株式会社,,株式会社,大阪府,大阪市生野区,中川西１丁目５－２０,,27,116,5440032,,,,,,,2022-08-01,1,,,,,ダイメイ,0
949,4120001247789,新規,0,2022-08-01,2022-08-01,アーキデザインアソシエイツ株式会社,,株式会社,大阪府,大阪市西区,西本町２丁目５番３号,,27,106,5500005,,,,,,,2022-08-01,1,,,,,アーキデザインアソシエイツ,0
950,4120001247814,新規,0,2022-08-01,2022-08-01,株式会社イノベーションホーム,,株式会社,大阪府,大阪市天王寺区,六万体町５番２４号ナカイビル５Ｆ,,27,109,5430074,,,,,,,2022-08-01,1,,,,,イノベーションホーム,0
958,4120101065983,新規,0,2022-08-01,2022-08-01,株式会社空想科学具現化工業,,株式会社,大阪府,堺市堺区,神南辺町１丁２８番地４,,27,141,5900984,,,,,,,2022-08-01,1,,,,,クウソウカガクグゲンカコウギョウ,0
960,4120901046308,新規,0,2022-08-01,2022-08-01,ＴＢＣマネジメント株式会社,,株式会社,大阪府,吹田市,山田東２丁目１０番３３－３０１号,,27,205,5650821,,,,,,,2022-08-01,1,,,,,ティービーシーマネジメント,0
962,4122001036107,新規,0,2022-08-01,2022-08-01,同道株式会社,,株式会社,大阪府,東大阪市,高井田１番１０号,,27,227,5770053,,,,,,,2022-08-01,1,,,,,ドウドウ,0
966,4130001072294,新規,0,2022-08-01,2022-08-01,株式会社ＨＮＨＤ,,株式会社,京都府,綾部市,高津町宇州６番地,,26,203,6230045,,,,,,,2022-08-01,1,,,,,エイチエヌエイチディ,0
967,4130001072311,新規,0,2022-08-01,2022-08-01,株式会社中野,,株式会社,京都府,京都市山科区,北花山中道町６１番地８,,26,110,6078481,,,,,,,2022-08-01,1,,,,,ナカノ,0
975,4140001126883,新規,0,2022-08-01,2022-08-01,株式会社ＣＡＳＡ,,株式会社,兵庫県,宝塚市,中山桜台５丁目１番１号,,28,214,6650877,,,,,,,2022-08-01,1,,,,,カーサ,0
979,4140003017973,新規,0,2022-08-01,2022-08-01,ＴＭＴ合同会社,,合同会社,兵庫県,姫路市,花田町小川３３７番地１７,,28,201,6710255,,,,,,,2022-08-01,1,,,,,ティーエムティー,0
986,4180001152348,新規,0,2022-08-01,2022-08-01,ＦＥＥＬ株式会社,,株式会社,愛知県,名古屋市中川区,応仁町１丁目２番地の１,,23,110,4540042,,,,,,,2022-08-01,1,,,,,フィール,0
987,4180001152372,新規,0,2022-08-01,2022-08-01,株式会社ＭａｒｋＡｌｏｎｅ,,株式会社,愛知県,名古屋市東区,白壁５丁目４３番地（マルーン白壁１０１号）,,23,102,4610011,,,,,,,2022-08-01,1,,,,,マークアローン,0
988,4180001152397,新規,0,2022-08-01,2022-08-01,株式会社垣見内装,,株式会社,愛知県,一宮市,木曽川町門間字沼奥３９番地,,23,203,4930002,,,,,,,2022-08-01,1,,,,,カキミナイソウ,0
989,4180001152406,新規,0,2022-08-01,2022-08-01,株式会社ＥＣＯＡＳ,,株式会社,愛知県,名古屋市天白区,大坪２丁目１７１６ハイツエール１０１,,23,116,4680072,,,,,,,2022-08-01,1,,,,,エコーズ,0
1001,4260005011120,新規,0,2022-08-01,2022-08-01,一般財団法人カムナ,,その他の設立登記法人,岡山県,岡山市北区,下石井２丁目１０番３０号杜の街グレース岡山ザ・タワー３３０７,,33,101,7000907,,,,,,,2022-08-01,1,,,,,カムナ,0
1006,4290001098407,新規,0,2022-08-01,2022-08-01,株式会社三ツ星鑑定事務所,,株式会社,福岡県,福岡市中央区,舞鶴１丁目４番２５号プリモパルティーレ８０２,,40,133,8100073,,,,,,,2022-08-01,1,,,,,ミツボシカンテイジムショ,0
1007,4290001098415,新規,0,2022-08-01,2022-08-01,エム・テック株式会社,,株式会社,福岡県,福岡市東区,多の津１丁目１４番１号,,40,131,8130034,,,,,,,2022-08-01,1,,,,,エムテック,0
1008,4290001098423,新規,0,2022-08-01,2022-08-01,株式会社ＲｅＷＯＲＫＳ,,株式会社,福岡県,小郡市,美鈴が丘５丁目１６番地１７,,40,216,8380101,,,,,,,2022-08-01,1,,,,,リワークス,0
1014,4290003012753,新規,0,2022-08-01,2022-08-01,合同会社ＡＤＥＬＩＳＳ,,合同会社,福岡県,福岡市中央区,天神２丁目３番１０号天神パインクレスト７１９号,,40,133,8100001,,,,,,,2022-08-01,1,,,,,アデリス,0
1017,4290005018765,新規,0,2022-08-01,2022-08-01,一般社団法人ことりＦＰ相続センター,,その他の設立登記法人,福岡県,福岡市博多区,諸岡３丁目１７番２１号,,40,132,8120894,,,,,,,2022-08-01,1,,,,,コトリエフピーソウゾクセンター,0
1025,4330003009464,新規,0,2022-08-01,2022-08-01,合同会社ひまわり縁,,合同会社,熊本県,熊本市中央区,中央街２番５号アストラルハイム４０５,,43,101,8600802,,,,,,,2022-08-01,1,,,,,ヒマワリエン,0
1030,4360001030741,新規,0,2022-08-01,2022-08-01,ＵＦＫｏｆｆｉｃｅ株式会社,,株式会社,沖縄県,中頭郡西原町,字千原１６６番地の２（ブルームＫｉｋｕ１－２０７号）,,47,329,9030129,,,,,,,2022-08-01,1,,,,,ユーエフケイオフィス,0
1051,4430001087163,新規,0,2022-08-01,2022-08-01,大成みずの建設株式会社,,株式会社,北海道,石狩市,花川北四条２丁目２２番地１８,,01,235,0613214,,,,,,,2022-08-01,1,,,,,タイセイミズノケンセツ,0
1052,4430001087171,新規,0,2022-08-01,2022-08-01,ＪＯＩＮＴ株式会社,,株式会社,北海道,札幌市北区,麻生町６丁目１０－８－１０２,,01,102,0010045,,,,,,,2022-08-01,1,,,,,ジョイント,0
1057,4500001024365,新規,0,2022-08-01,2022-08-01,株式会社Ｌ’ＡＵＢＥ,,株式会社,愛媛県,松山市,太山寺町１３０５番地２,,38,201,7992662,,,,,,,2022-08-01,1,,,,,ローブ,0
1059,4700150110094,新規,0,2022-08-01,2022-06-20,東京都ラグビーフットボール協会,,その他,東京都,港区,北青山２丁目８－３５,,13,103,1070061,,,,,,,2022-06-20,1,,,,,トウキヨウトラグビーフツトボールキヨウカイ,0
1062,5010001228460,新規,0,2022-08-01,2022-08-01,Ｋｖｅｌｌ株式会社,,株式会社,東京都,中央区,銀座７丁目１３番６号サガミビル２階,,13,102,1040061,,,,,,,2022-08-01,1,,,,,クヴェル,0
1063,5010001228493,新規,0,2022-08-01,2022-08-01,株式会社Ｙａｍａ,,株式会社,東京都,文京区,大塚４丁目５１番１号,00127376,13,105,1120012,,,,,,,2022-08-01,1,,,,,ヤマ,0
1074,5010401168827,新規,0,2022-08-01,2022-08-01,Ｊ．Ｐｒｉｖｅｅ株式会社,,株式会社,東京都,港区,六本木６丁目１０番１号,,13,103,1060032,,,,,,,2022-08-01,1,,,,,ジェイプリヴェ,0
1078,5010403028153,新規,0,2022-08-01,2022-08-01,Ｍｉｒａｂｅｌｌｅ合同会社,,合同会社,東京都,港区,南青山３丁目１５番９号ＭＩＮＯＷＡ表参道３Ｆ,,13,103,1070062,,,,,,,2022-08-01,1,,,,,ミラベル,0
1079,5010403028186,新規,0,2022-08-01,2022-08-01,ＥＦＣＪサービス合同会社,,合同会社,東京都,港区,西新橋１丁目２２―１４,,13,103,1050003,,,,,,,2022-08-01,1,,,,,イーエフシージェーサービス,0
1083,5010501049167,新規,0,2022-08-01,2022-08-01,新成株式会社,,株式会社,東京都,台東区,東上野６丁目２４番７香川ビル３Ｆ,,13,106,1100015,,,,,,,2022-08-01,1,,,,,シンセイ,0
1098,5011003015129,新規,0,2022-08-01,2022-08-01,合同会社紫インベストメント,,合同会社,東京都,渋谷区,神宮前６丁目２３番４号桑野ビル２階,,13,113,1500001,,,,,,,2022-08-01,1,,,,,ムラサキインベストメント,0
1107,5011101099718,新規,0,2022-08-01,2022-08-01,株式会社ＰＴＦ,,株式会社,東京都,新宿区,富久町３６番１７－４号,,13,104,1620067,,,,,,,2022-08-01,1,,,,,ピーティーエフ,0
1108,5011103012026,新規,0,2022-08-01,2022-08-01,合同会社Ｊ２Ｆ,,合同会社,東京都,新宿区,南元町１４－２,,13,104,1600012,,,,,,,2022-08-01,1,,,,,ジェツーエフ,0
1115,5011501028334,新規,0,2022-08-01,2022-08-01,ＣＥＹＨ株式会社,,株式会社,東京都,北区,神谷１丁目１２番２－２０７号東十条ダイカンプラザ,,13,117,1150043,,,,,,,2022-08-01,1,,,,,シーイーワイエイチ,0
1117,5011601026139,新規,0,2022-08-01,2022-08-01,株式会社ＯＣＴオクト,,株式会社,東京都,練馬区,中村南３丁目２６番７－２０３号,,13,120,1760025,,,,,,,2022-08-01,1,,,,,オクト,0
1119,5011701025494,新規,0,2022-08-01,2022-08-01,株式会社Ｄｉｏ　Ｇｒｅｅｎ,,株式会社,東京都,江戸川区,東小松川４丁目４５番１０－６０３号,,13,123,1320033,,,,,,,2022-08-01,1,,,,,ディオグリーン,0
1131,5013301049444,新規,0,2022-08-01,2022-08-01,東斉株式会社,,株式会社,東京都,豊島区,池袋３丁目６９番１号パレ・ドール池袋ＩＩ３０５室,00127374,13,116,1710014,,,,,,,2022-08-01,1,,,,,トウセイ,0
1136,5020001147494,新規,0,2022-08-01,2022-08-01,株式会社インペラトーレ,,株式会社,神奈川県,川崎市幸区,中幸町４丁目４５番地５－１３０４,,14,132,2120012,,,,,,,2022-08-01,1,,,,,インペラトーレ,0
1137,5020001147544,新規,0,2022-08-01,2022-08-01,株式会社ＴＲＯＹ,,株式会社,神奈川県,横浜市中区,北仲通５丁目５７番地２ザ・タワー横浜北仲１３０３号室,,14,104,2310003,,,,,,,2022-08-01,1,,,,,トロイ,0
1147,5030001149358,新規,0,2022-08-01,2022-08-01,株式会社サマサマ,,株式会社,埼玉県,入間市,向陽台１丁目１番地１７駅前プラザ１３－１０３,,11,225,3580001,,,,,,,2022-08-01,1,,,,,サマサマ,0
1148,5030001149440,新規,0,2022-08-01,2022-08-01,株式会社Ｒｏｏｔｉｎｇ,,株式会社,埼玉県,桶川市,西１丁目５番３号,,11,231,3630017,,,,,,,2022-08-01,1,,,,,ルーティング,0
1149,5030001149449,新規,0,2022-08-01,2022-08-01,久喜環境テクノロジー株式会社,,株式会社,埼玉県,久喜市,菖蒲町台９５７番地,,11,232,3460103,,,,,,,2022-08-01,1,,,,,クキカンキョウテクノロジー,0
1165,5050003006737,新規,0,2022-08-01,2022-08-01,合同会社アントワーク,,合同会社,茨城県,ひたちなか市,大字東石川２４５０－５２,,08,221,3120052,,,,,,,2022-08-01,1,,,,,アントワーク,0
1177,5100001010479,新規,0,2022-08-01,2022-08-01,株式会社ヤマミ,,株式会社,長野県,小県郡青木村,大字村松３８番地１,,20,349,3861602,,,,,,,2022-08-01,1,,,,,ヤマミ,0
1181,5110001036853,新規,0,2022-08-01,2022-08-01,株式会社エムズ,,株式会社,新潟県,柏崎市,大字芋川２４３３番地１,,15,205,9451114,,,,,,,2022-08-01,1,,,,,エムズ,0
1197,5120001247631,新規,0,2022-08-01,2022-08-01,松大株式会社,,株式会社,大阪府,大阪市天王寺区,空清町４－１１杉野ビル本館１０８号室,,27,109,5430018,,,,,,,2022-08-01,1,,,,,マツダイ,0
1198,5120001247714,新規,0,2022-08-01,2022-08-01,新本合株式会社,,株式会社,大阪府,大阪市東成区,神路４丁目３－１０スターレジデンス新深江３０６号室,,27,115,5370003,,,,,,,2022-08-01,1,,,,,シンホンゴウ,0
1199,5120001247755,新規,0,2022-08-01,2022-08-01,株式会社金洋,,株式会社,大阪府,大阪市淀川区,田川北２丁目５－３４・Ｅ棟２０１号室,,27,123,5320021,,,,,,,2022-08-01,1,,,,,キンヨ,0
1200,5120001247796,新規,0,2022-08-01,2022-08-01,株式会社クロスリアル,,株式会社,大阪府,大阪市北区,芝田１丁目１番４号阪急ターミナルビル１６Ｆ,,27,127,5300012,,,,,,,2022-08-01,1,,,,,クロスリアル,0
1201,5120001247821,新規,0,2022-08-01,2022-08-01,株式会社頭皮ｌａｂｏ,,株式会社,大阪府,大阪市北区,紅梅町２番３号,,27,127,5300038,,,,,,,2022-08-01,1,,,,,トウヒラボ,0
1204,5120003022181,新規,0,2022-08-01,2022-08-01,ギードゾル合同会社,,合同会社,大阪府,大阪市北区,天神橋３丁目２番１９号ドエル南森町１００３号室,,27,127,5300041,,,,,,,2022-08-01,1,,,,,ギードゾル,0
1206,5120005023120,新規,0,2022-08-01,2022-08-01,一般社団法人国際介護士協会,,その他の設立登記法人,大阪府,大阪市住吉区,苅田７丁目１２番１９－３１８号,,27,120,5580011,,,,,,,2022-08-01,1,,,,,コクサイカイゴシキョウカイ,0
1208,5120101065982,新規,0,2022-08-01,2022-08-01,株式会社横山建材,,株式会社,大阪府,泉佐野市,長滝３２７０番地の１３,,27,213,5980034,,,,,,,2022-08-01,1,,,,,ヨコヤマケンザイ,0
1217,5130001072293,新規,0,2022-08-01,2022-08-01,株式会社ＪＳ　Ｕｎｉｖｅｒｓｅ,,株式会社,京都府,木津川市,城山台１１丁目１０番地１４,,26,214,6190218,,,,,,,2022-08-01,1,,,,,ジェイズユニバース,0
1218,5130001072310,新規,0,2022-08-01,2022-08-01,株式会社ナカジマ,,株式会社,京都府,京都市伏見区,羽束師鴨川町２番地２３,,26,109,6128484,,,,,,,2022-08-01,1,,,,,ナカジマ,0
1229,5140001126882,新規,0,2022-08-01,2022-08-01,株式会社ＥＳＴＯＢＩ,,株式会社,兵庫県,尼崎市,東塚口町１丁目１１番１号,,28,202,6610011,,,,,,,2022-08-01,1,,,,,エストビ,0
1230,5140001126916,新規,0,2022-08-01,2022-08-01,株式会社ｆｏｏｄ．ｃｏｍ,,株式会社,兵庫県,明石市,本町１丁目６－１３中浜ビル１階,,28,203,6730892,,,,,,,2022-08-01,1,,,,,フードドットコム,0
1233,5140003017956,新規,0,2022-08-01,2022-08-01,ＮＯＡＫ合同会社,,合同会社,兵庫県,神戸市北区,上津台２丁目１６番６号,,28,109,6511515,,,,,,,2022-08-01,1,,,,,ノアック,0
1234,5150003002742,新規,0,2022-08-01,2022-08-01,Ｔ‐ｆｅａｎ合同会社,,合同会社,奈良県,奈良市,三条本町９番２１号ＪＲ奈良伝宝ビル４Ｆ,,29,201,6308122,,,,,,,2022-08-01,1,,,,,ティーフィーン,0
1237,5170001017212,新規,0,2022-08-01,2022-08-01,株式会社Ｍ‐ｓｔｙｌｅ,,株式会社,和歌山県,和歌山市,下三毛７４３番地７５,,30,201,6496263,,,,,,,2022-08-01,1,,,,,エムスタイル,0
1248,5180001152371,新規,0,2022-08-01,2022-08-01,株式会社メイク,,株式会社,愛知県,愛知郡東郷町,大字春木字白土２番地２５,,23,302,4700162,,,,,,,2022-08-01,1,,,,,メイク,0
1261,5180301036464,新規,0,2022-08-01,2022-08-01,株式会社ＷＴ,,株式会社,愛知県,知立市,栄２丁目１５番地,,23,225,4720037,,,,,,,2022-08-01,1,,,,,ダブリューティー,0
1265,5200003005632,新規,0,2022-08-01,2022-08-01,合同会社Ｋコンサルタント,,合同会社,岐阜県,本巣市,仏生寺８８２番地３,,21,218,5010407,,,,,,,2022-08-01,1,,,,,ケイコンサルタント,0
1268,5240001060139,新規,0,2022-08-01,2022-08-01,株式会社ＮＳパワーキャピタル,,株式会社,広島県,広島市中区,東千田町２丁目９番５７号広電タワービル,,34,101,7300053,,,,,,,2022-08-01,1,,,,,エヌエスパワーキャピタル,0
1269,5240001060147,新規,0,2022-08-01,2022-08-01,株式会社ＳＡＫ,,株式会社,広島県,広島市安佐南区,大町西１丁目４２番２４号,,34,105,7310125,,,,,,,2022-08-01,1,,,,,エスエーケー,0
1272,5250001019687,新規,0,2022-08-01,2022-08-01,株式会社ふらっとＣＯＭＭ．,,株式会社,山口県,山口市,小郡船倉町３番１１号,,35,203,7540012,,,,,,,2022-08-01,1,,,,,フラットコム,0
1277,5290001098422,新規,0,2022-08-01,2022-08-01,株式会社ＧＯＯＤ　ＷＥＳＴ,,株式会社,福岡県,福岡市西区,福重４丁目１７番７号,,40,135,8190022,,,,,,,2022-08-01,1,,,,,グッドウエスト,0
1278,5290003012785,新規,0,2022-08-01,2022-08-01,合同会社チャイルド,,合同会社,福岡県,福岡市城南区,片江３丁目２２番１７号ビバリーヒルズ片江Ｉ・Ａ２０５号,00127371,40,136,8140142,,,,,,,2022-08-01,1,,,,,チャイルド,0
1281,5290801028768,新規,0,2022-08-01,2022-08-01,株式会社Ｅｎｈａｎｃｅ,,株式会社,福岡県,北九州市小倉北区,紺屋町１４番３１号２Ｆ,,40,106,8020081,,,,,,,2022-08-01,1,,,,,エンハンス,0
1286,5330001029975,新規,0,2022-08-01,2022-08-01,株式会社Ｂｏｎｄ　ｏｆ　Ｌｏｖｅ,,株式会社,熊本県,熊本市中央区,内坪井町３番８号プレステージュ坪井２０３号,,43,101,8600077,,,,,,,2022-08-01,1,,,,,ボンドオブラブ,0
1294,5350001017879,新規,0,2022-08-01,2022-08-01,仲村設備工業株式会社,,株式会社,宮崎県,児湯郡新富町,大字上富田３７１９番地１,,45,402,8891403,,,,,,,2022-08-01,1,,,,,ナカムラセツビコウギョウ,0
1309,5430001087162,新規,0,2022-08-01,2022-08-01,株式会社ＺＥＮ,,株式会社,北海道,札幌市中央区,南六条西７丁目５番２号,,01,101,0640806,,,,,,,2022-08-01,1,,,,,ゼン,0
1310,5430003014148,新規,0,2022-08-01,2022-08-01,合同会社ＹＳエネルギー,,合同会社,北海道,札幌市中央区,南一条西８丁目１４番地３札幌第二スカイビル５階,,01,101,0600061,,,,,,,2022-08-01,1,,,,,ワイエスエネルギー,0
1314,5470001019178,新規,0,2022-08-01,2022-08-01,株式会社ネプチューン・ジャパン,,株式会社,香川県,坂出市,府中町５４１１番地１,,37,203,7620024,,,,,,,2022-08-01,1,,,,,ネプチューンジャパン,0
1317,5490003001685,新規,0,2022-08-01,2022-08-01,合同会社ななつ,,合同会社,高知県,高知市,横浜１４５番地１７,,39,201,7810240,,,,,,,2022-08-01,1,,,,,ナナツ,0
1322,5700150110993,新規,0,2022-08-01,2022-08-01,マーキュリー健康保険組合,,その他,東京都,新宿区,百人町１丁目２２－１７,,13,104,1690073,,,,,,,2022-08-01,1,,,,,マーキュリーケンコウホケンクミアイ,0
1334,6010001227734,新規,0,2022-08-01,2022-08-01,株式会社振動制御研究所,,株式会社,東京都,中央区,銀座１丁目２１－５ＪＫビル２Ｆ,,13,102,1040061,,,,,,,2022-08-01,1,,,,,シンドウセイギョケンキュウジョ,0
1349,6010403028152,新規,0,2022-08-01,2022-08-01,ＬｅａｆＫ合同会社,,合同会社,東京都,港区,浜松町２丁目２番１５号浜松町ダイヤビル２Ｆ,,13,103,1050013,,,,,,,2022-08-01,1,,,,,リーフケイ,0
1351,6010501049174,新規,0,2022-08-01,2022-08-01,正利株式会社,,株式会社,東京都,台東区,東上野３丁目１０番４号グローシア上野２０１,,13,106,1100015,,,,,,,2022-08-01,1,,,,,マサトシ,0
1353,6010601061574,新規,0,2022-08-01,2022-08-01,株式会社ＪＳ技術サービス,,株式会社,東京都,墨田区,江東橋１丁目１６番２号,,13,107,1300022,,,,,,,2022-08-01,1,,,,,ジェイエスギジュツサービス,0
1356,6010603009662,新規,0,2022-08-01,2022-08-01,合同会社ｖｉｅｗ,,合同会社,東京都,江東区,豊洲１丁目２－８－８１３,,13,108,1350061,,,,,,,2022-08-01,1,,,,,ヴュー,0
1360,6010701043019,新規,0,2022-08-01,2022-08-01,株式会社ＫＳトータルサービス,,株式会社,東京都,品川区,東五反田５丁目２１番１３－６０２号,,13,109,1410022,,,,,,,2022-08-01,1,,,,,ケーエストータルサービス,0
1362,6010801033159,新規,0,2022-08-01,2022-08-01,株式会社ＳＣＩＥＮＴＡ・ＮＯＶＡ,,株式会社,東京都,大田区,北千束１丁目６０番９号,,13,111,1450062,,,,,,,2022-08-01,1,,,,,スキエンタノーバ,0
1363,6010801033167,新規,0,2022-08-01,2022-08-01,株式会社ＮＦホールディングス,,株式会社,東京都,大田区,田園調布３丁目６番４号,,13,111,1450071,,,,,,,2022-08-01,1,,,,,エヌエフホールディングス,0
1368,6010903007548,新規,0,2022-08-01,2022-08-01,合同会社ＳＫＹＹ,,合同会社,東京都,世田谷区,松原６丁目３９番７号,,13,112,1560043,,,,,,,2022-08-01,1,,,,,スカイ,0
1374,6011003015111,新規,0,2022-08-01,2022-08-01,合同会社ｓｕｃｃｅｓｓ,,合同会社,東京都,渋谷区,神宮前６丁目２３番４号,,13,113,1500001,,,,,,,2022-08-01,1,,,,,サクセス,0
1376,6011101099700,新規,0,2022-08-01,2022-08-01,梅宮商事株式会社,,株式会社,東京都,新宿区,新宿７丁目３番１６号,,13,104,1600022,,,,,,,2022-08-01,1,,,,,ウメミヤショウジ,0
1380,6011501028333,新規,0,2022-08-01,2022-08-01,株式会社伊藤不動産,,株式会社,東京都,荒川区,荒川３丁目３３番３号,,13,118,1160002,,,,,,,2022-08-01,1,,,,,イトウフドウサン,0
1381,6011501028341,新規,0,2022-08-01,2022-08-01,塔羅亜日本株式会社,,株式会社,東京都,荒川区,南千住８丁目８番１－１８１０号,,13,118,1160003,,,,,,,2022-08-01,1,,,,,タロヤニホン,0
1384,6011801041077,新規,0,2022-08-01,2022-08-01,サニーテク株式会社,,株式会社,東京都,足立区,扇１丁目１５番７－９０４号,,13,121,1230873,,,,,,,2022-08-01,1,,,,,サニーテク,0
1385,6012305002020,新規,0,2022-08-01,2022-08-01,一般社団法人カラダのフローラ研究所,,その他の設立登記法人,東京都,町田市,成瀬が丘１丁目８番地７,,13,209,1940011,,,,,,,2022-08-01,1,,,,,カラダノフローラケンキュウショ,0
1387,6012403005511,新規,0,2022-08-01,2022-08-01,Ｓｔｒｉｎｇｓ　Ａｕｄｉｏ　Ｌａｂ合同会社,,合同会社,東京都,狛江市,東野川３丁目１２番３１号,,13,219,2010002,,,,,,,2022-08-01,1,,,,,ストリングスオーディオラボ,0
1390,6012801021754,新規,0,2022-08-01,2022-08-01,株式会社トータル・ライフ,,株式会社,東京都,昭島市,宮沢町３丁目３番９号,,13,207,1960024,,,,,,,2022-08-01,1,,,,,トータルライフ,0
1410,6020001147510,新規,0,2022-08-01,2022-08-01,株式会社Ａｓｐｉｒｉｎｇ　ｌｉｆｅ,,株式会社,神奈川県,川崎市川崎区,渡田向町２０番１５－１０３号,,14,131,2100841,,,,,,,2022-08-01,1,,,,,アスピリングライフ,0
1423,6030001149448,新規,0,2022-08-01,2022-08-01,Ａ警備株式会社,,株式会社,埼玉県,新座市,野寺２丁目１５番２４号,,11,230,3520034,,,,,,,2022-08-01,1,,,,,エーケイビ,0
1424,6030001149472,新規,0,2022-08-01,2022-08-01,株式会社タカヤ,,株式会社,埼玉県,志木市,幸町１丁目７番３２号,,11,228,3530005,,,,,,,2022-08-01,1,,,,,タカヤ,0
1433,6050003006736,新規,0,2022-08-01,2022-08-01,合同会社ＰＡＲＴＹｘＰＡＲＴＹ,,合同会社,茨城県,日立市,多賀町１丁目１５番１号谷川ビルＢ１Ｆ,,08,202,3160003,,,,,,,2022-08-01,1,,,,,パーティーパーティー,0
1457,6100001035558,新規,0,2022-08-01,2022-08-01,株式会社ＧＡＳＴ技研本社,,株式会社,長野県,伊那市,伊那部２８３３番地６伊那サテライトセンター,,20,209,3960011,,,,,,,2022-08-01,1,,,,,ガストギケンホンシャ,0
1461,6110001036852,新規,0,2022-08-01,2022-08-01,株式会社宗村熔接工業,,株式会社,新潟県,燕市,八王寺１３８６番地,,15,213,9591264,,,,,,,2022-08-01,1,,,,,ムネムラヨウセツコウギョウ,0
1475,6120001247440,新規,0,2022-08-01,2022-08-01,株式会社Ｇｉｆｔｙ,,株式会社,大阪府,大阪市北区,梅田１丁目２番２－２００号大阪駅前第２ビル２階３－１－２,,27,127,5300001,,,,,,,2022-08-01,1,,,,,ギフティ,0
1476,6120001247713,新規,0,2022-08-01,2022-08-01,閲士株式会社,,株式会社,大阪府,大阪市西区,江戸堀１丁目１０－１１マルイト江戸堀ビル２０２号室,,27,106,5500002,,,,,,,2022-08-01,1,,,,,エツシ,0
1477,6120001247762,新規,0,2022-08-01,2022-08-01,株式会社ＶＥＮＵＳ,,株式会社,大阪府,大阪市中央区,高津３丁目１４番３４号インペリアル高津１０２,,27,128,5420072,,,,,,,2022-08-01,1,,,,,ヴィーナス,0
1478,6120001247770,新規,0,2022-08-01,2022-08-01,ＣＹＣＮ株式会社,,株式会社,大阪府,大阪市東住吉区,西今川１丁目１番１６号,,27,121,5460042,,,,,,,2022-08-01,1,,,,,シーワイシーエヌ,0
1479,6120001247779,新規,0,2022-08-01,2022-08-01,株式会社ブライトテクノロジーズ,,株式会社,大阪府,大阪市中央区,博労町１丁目４番１０号,,27,128,5410059,,,,,,,2022-08-01,1,,,,,ブライトテクノロジーズ,0
1480,6120001247812,新規,0,2022-08-01,2022-08-01,株式会社レクサス,,株式会社,大阪府,大阪市東成区,中本１丁目１４番１－９０１号,,27,115,5370022,,,,,,,2022-08-01,1,,,,,レクサス,0
1481,6120001247820,新規,0,2022-08-01,2022-08-01,株式会社リライフ,,株式会社,大阪府,大阪市北区,本庄東２丁目２番３０号,,27,127,5310074,,,,,,,2022-08-01,1,,,,,リライフ,0
1483,6120003022172,新規,0,2022-08-01,2022-08-01,合同会社えんじん,,合同会社,大阪府,大阪市福島区,福島３丁目５－２１－２０１,,27,103,5530003,,,,,,,2022-08-01,1,,,,,エンジン,0
1484,6120003022180,新規,0,2022-08-01,2022-08-01,合同会社Ｏａ　ｏａ,,合同会社,大阪府,大阪市北区,梅田１丁目１－３大阪駅前第３ビル２９階１－１－１,,27,127,5300001,,,,,,,2022-08-01,1,,,,,オアオア,0
1485,6120003022189,新規,0,2022-08-01,2022-08-01,合同会社ｍａｎｕｓ,,合同会社,大阪府,大阪市天王寺区,寺田町１丁目７番７－６０５号,,27,109,5430045,,,,,,,2022-08-01,1,,,,,マヌス,0
1490,6120101065981,新規,0,2022-08-01,2022-08-01,株式会社翔,,株式会社,大阪府,泉佐野市,野出町１２番２７号,,27,213,5980041,,,,,,,2022-08-01,1,,,,,ハバタキ,0
1491,6120103004806,新規,0,2022-08-01,2022-08-01,ＲＴ合同会社,,合同会社,大阪府,和泉市,伯太町１丁目１３番１０号,,27,219,5940023,,,,,,,2022-08-01,1,,,,,レインボータイガー,0
1493,6120905006363,新規,0,2022-08-01,2022-08-01,医療法人はしクリニック,,その他の設立登記法人,大阪府,豊中市,少路２丁目３番２２号ＪＭＬクリニックビル豊中２階,,27,203,5600004,,,,,,,2022-08-01,1,,,,,ハシクリニック,0
1498,6130001072284,新規,0,2022-08-01,2022-08-01,株式会社ベルコンピューティングシステム,,株式会社,京都府,京都市下京区,松原通烏丸西入ル玉津島町２９４,,26,106,6000000,,,,,,,2022-08-01,1,,,,,ベルコンピューティングシステム,0
1508,6140001126881,新規,0,2022-08-01,2022-08-01,株式会社ＫＲ　Ｃｏａｔ,,株式会社,兵庫県,尼崎市,塚口町４丁目２６番地の７市隆ハイツ塚口５０Ｈ,,28,202,6610002,,,,,,,2022-08-01,1,,,,,ケーアールコート,0
1509,6140001126898,新規,0,2022-08-01,2022-08-01,Ｔライン株式会社,,株式会社,兵庫県,伊丹市,中野西１丁目１６６番地,,28,207,6640023,,,,,,,2022-08-01,1,,,,,ティライン,0
1511,6140005026269,新規,0,2022-08-01,2022-08-01,一般財団法人ＪＡＳＰＥＣ,,その他の設立登記法人,兵庫県,神戸市中央区,港島中町３丁目１番地４１号棟６０５号室,,28,110,6500046,,,,,,,2022-08-01,1,,,,,ジャスペック,0
1516,6180001152395,新規,0,2022-08-01,2022-08-01,株式会社来光ホールディングス,,株式会社,愛知県,西春日井郡豊山町,大字豊場字大山６９番地１,,23,342,4800202,,,,,,,2022-08-01,1,,,,,ライコウホールディングス,0
1517,6180001152404,新規,0,2022-08-01,2022-08-01,株式会社ＷＥＳＴ,,株式会社,愛知県,長久手市,坊の後９０３番地,,23,238,4801168,,,,,,,2022-08-01,1,,,,,ウエスト,0
1518,6180001152420,新規,0,2022-08-01,2022-08-01,株式会社ＩＮＯＶ,,株式会社,愛知県,名古屋市守山区,翠松園２丁目１８１２番地,,23,113,4630010,,,,,,,2022-08-01,1,,,,,イノーヴ,0
1523,6180003024089,新規,0,2022-08-01,2022-08-01,合同会社ＣＨＡＭＢＥＲＳ,,合同会社,愛知県,名古屋市天白区,八事山４３５,,23,116,4680077,,,,,,,2022-08-01,1,,,,,チェンバース,0
1529,6180303005391,新規,0,2022-08-01,2022-08-01,合同会社ＫＵ　ｔｅｃｈｎｏｌｏｇｙ,,合同会社,愛知県,西尾市,羽塚本郷４４―１,,23,213,4450000,,,,,,,2022-08-01,1,,,,,ケーユーテクノロジー,0
1541,6240001060146,新規,0,2022-08-01,2022-08-01,株式会社ＬＯＯＰ,,株式会社,広島県,広島市安佐北区,口田南７丁目６番２９号,,34,106,7391733,,,,,,,2022-08-01,1,,,,,ループ,0
1556,6290003012784,新規,0,2022-08-01,2022-08-01,合同会社ＫＡＮＡＤＥＲＵ,,合同会社,福岡県,福岡市東区,香椎浜３丁目３番５－２６１５号,,40,131,8130016,,,,,,,2022-08-01,1,,,,,カナデル,0
1557,6290801028767,新規,0,2022-08-01,2022-08-01,株式会社スマイルライフ,,株式会社,福岡県,北九州市小倉南区,東貫３丁目３番２１号,,40,107,8000224,,,,,,,2022-08-01,1,,,,,スマイルライフ,0
1558,6290801028775,新規,0,2022-08-01,2022-08-01,株式会社太田古鐵商店,,株式会社,福岡県,京都郡苅田町,港町２０番地１６,,40,621,8000315,,,,,,,2022-08-01,1,,,,,オオタフルテツショウテン,0
1562,6330001029958,新規,0,2022-08-01,2022-08-01,株式会社古月,,株式会社,熊本県,熊本市北区,植木町伊知坊８８６番地１,,43,105,8610113,,,,,,,2022-08-01,1,,,,,コゲツ,0
1573,6360005006694,新規,0,2022-08-01,2022-08-01,一般社団法人かふうなー,,その他の設立登記法人,沖縄県,那覇市,上之屋１丁目３番２５－１００１号コンフォート新都心,,47,201,9000011,,,,,,,2022-08-01,1,,,,,カフウナー,0
1574,6370001048871,新規,0,2022-08-01,2022-08-01,株式会社桂ホールディングス,,株式会社,宮城県,黒川郡大和町,テクノヒルズ３１,,04,421,9813629,,,,,,,2022-08-01,1,,,,,カツラホールディングス,0
1594,6430001087211,新規,0,2022-08-01,2022-08-01,株式会社ＯＳＴ,,株式会社,北海道,札幌市豊平区,平岸四条１２丁目１２番２７号,,01,105,0620934,,,,,,,2022-08-01,1,,,,,オーエスティー,0
1597,6470001019177,新規,0,2022-08-01,2022-08-01,株式会社ＧＥＮＪＩ,,株式会社,香川県,高松市,木太町１１５３番地１木太マンション３０４号,,37,201,7600080,,,,,,,2022-08-01,1,,,,,ゲンジ,0
1598,6480001011810,新規,0,2022-08-01,2022-08-01,株式会社オカベホールディングス,,株式会社,徳島県,美馬郡つるぎ町,半田字東毛田４８番地,,36,468,7794407,,,,,,,2022-08-01,1,,,,,オカベホールディングス,0
1601,6500001024363,新規,0,2022-08-01,2022-08-01,株式会社ＨＯＲＩＭＯＴＯ,,株式会社,愛媛県,今治市,大正町７丁目１番６１号,,38,202,7940025,,,,,,,2022-08-01,1,,,,,ホリモト,0
1617,7010001228475,新規,0,2022-08-01,2022-08-01,ＫＡＪＩコンサルティング株式会社,,株式会社,東京都,千代田区,丸の内２丁目５番１号丸の内二丁目ビル,,13,101,1000005,,,,,,,2022-08-01,1,,,,,カジコンサルティング,0
1641,7010901051324,新規,0,2022-08-01,2022-08-01,株式会社カレーだし,,株式会社,東京都,世田谷区,三宿２丁目４－１０,,13,112,1540005,,,,,,,2022-08-01,1,,,,,カレーダシ,0
1647,7011003015102,新規,0,2022-08-01,2022-08-01,合同会社ＨＥＮＡＭＡ,,合同会社,東京都,渋谷区,円山町２４番４号メゾンブランシュ渋谷１０１号室,,13,113,1500044,,,,,,,2022-08-01,1,,,,,ヒナマ,0
1648,7011003015127,新規,0,2022-08-01,2022-08-01,合同会社ＹＡ１,,合同会社,東京都,目黒区,柿の木坂３丁目１１番４－３０２号,,13,110,1520022,,,,,,,2022-08-01,1,,,,,ワイエーワン,0
1651,7011101099716,新規,0,2022-08-01,2022-08-01,スペンモ・テクノロジー・ジャパン株式会社,,株式会社,東京都,新宿区,西新宿３丁目３番１３号西新宿水間ビル６Ｆ,,13,104,1600023,,,,,,,2022-08-01,1,,,,,スペンモテクノロジージャパン,0
1653,7011103012024,新規,0,2022-08-01,2022-08-01,合同会社ＴＫＳ,,合同会社,東京都,新宿区,四谷本塩町１１番２号,,13,104,1600003,,,,,,,2022-08-01,1,,,,,ティーケイエス,0
1654,7011301027988,新規,0,2022-08-01,2022-08-01,株式会社ｃｏｎｎｅｃＴｒｕｓｔ,,株式会社,東京都,杉並区,下井草３丁目７番１２号,,13,115,1670022,,,,,,,2022-08-01,1,,,,,コネクトラスト,0
1657,7011401024431,新規,0,2022-08-01,2022-08-01,株式会社小野研究所,,株式会社,東京都,板橋区,桜川２丁目５－７－３Ｆ,,13,119,1740075,,,,,,,2022-08-01,1,,,,,オノケンキュウジョ,0
1658,7011501028340,新規,0,2022-08-01,2022-08-01,株式会社ＮｅｘｔＴｅａｃｈｅｒｓ,,株式会社,東京都,北区,中十条４丁目１番１４－１１０３号ドゥーエ東十条,,13,117,1140032,,,,,,,2022-08-01,1,,,,,ネクストティーチャーズ,0
1664,7012405004766,新規,0,2022-08-01,2022-08-01,特定非営利活動法人日本国際中小企業振興機構,,その他の設立登記法人,東京都,府中市,府中町２丁目６番地の１３,,13,206,1830055,,,,,,,2022-08-01,1,,,,,ニホンコクサイチュウショウキギョウシンコウキコウ,0
1665,7012701017174,新規,0,2022-08-01,2022-08-01,株式会社陶粧,,株式会社,東京都,東久留米市,滝山７丁目２番２号,,13,222,2030033,,,,,,,2022-08-01,1,,,,,トウショウ,0
1674,7020003022165,新規,0,2022-08-01,2022-08-01,Ｂｉｚｚ合同会社,,合同会社,神奈川県,横浜市泉区,岡津町２６９９－１,,14,116,2450003,,,,,,,2022-08-01,1,,,,,ビズ,0
1684,7030001149439,新規,0,2022-08-01,2022-08-01,株式会社ヒロテック,,株式会社,埼玉県,草加市,柳島町３番地９,,11,221,3400033,,,,,,,2022-08-01,1,,,,,ヒロテック,0
1685,7030001149455,新規,0,2022-08-01,2022-08-01,株式会社アールシーソリューション,,株式会社,埼玉県,川越市,大字砂新田４１４番地３,,11,201,3501137,,,,,,,2022-08-01,1,,,,,アールシーソリューション,0
1686,7030001149463,新規,0,2022-08-01,2022-08-01,リエート株式会社,,株式会社,埼玉県,さいたま市岩槻区,上野１丁目１６番地９マルイチコーポ１０２外山方,,11,110,3390073,,,,,,,2022-08-01,1,,,,,リエート,0
1687,7030001149471,新規,0,2022-08-01,2022-08-01,株式会社信尚,,株式会社,埼玉県,三郷市,高洲三丁目２２７番地５,,11,237,3410000,,,,,,,2022-08-01,1,,,,,シンショウ,0
1693,7040001124374,新規,0,2022-08-01,2022-08-01,印旛開発土木株式会社,,株式会社,千葉県,佐倉市,石川５３９番地６,,12,212,2850813,,,,,,,2022-08-01,1,,,,,インバカイハツドボク,0
1694,7040001124399,新規,0,2022-08-01,2022-08-01,株式会社ＭＲ　ＴＲＡＤＩＮＧ,,株式会社,千葉県,香取郡多古町,十余三３３８番地９,,12,347,2892306,,,,,,,2022-08-01,1,,,,,エムアールトレーディング,0
1697,7040003020522,新規,0,2022-08-01,2022-08-01,合同会社ＫＤＯ　Ｔｒａｄｉｎｇ,,合同会社,千葉県,白井市,七次台３丁目８番２号,,12,232,2701436,,,,,,,2022-08-01,1,,,,,ケーディーオートレーディング,0
1702,7050001051460,新規,0,2022-08-01,2022-08-01,ＨＳＪ株式会社,,株式会社,茨城県,つくば市,学園南３丁目６３番地１２ファミ－ユＡ棟１０２号,,08,220,3050818,,,,,,,2022-08-01,1,,,,,エイチエスジェイ,0
1703,7050003006735,新規,0,2022-08-01,2022-08-01,合同会社ＲＵＢＡＮ,,合同会社,茨城県,日立市,多賀町１丁目１５番１号谷川ビル１０２,,08,202,3160003,,,,,,,2022-08-01,1,,,,,リュバン,0
1708,7060003004168,新規,0,2022-08-01,2022-08-01,ＫＥＳＨＡＶ合同会社,,合同会社,栃木県,宇都宮市,鶴田町３４１７番地１６,,09,201,3200851,,,,,,,2022-08-01,1,,,,,ケシャブ,0
1710,7070001039470,新規,0,2022-08-01,2022-08-01,アイリス株式会社,,株式会社,群馬県,伊勢崎市,太田町４００－５９,,10,204,3720006,,,,,,,2022-08-01,1,,,,,アイリス,0
1714,7080005007472,新規,0,2022-08-01,2022-08-01,一般社団法人ネット依存支援協会,,その他の設立登記法人,静岡県,静岡市駿河区,みずほ３丁目３番地の１８,,22,102,4210115,,,,,,,2022-08-01,1,,,,,ネットイゾンシエンキョウカイ,0
1736,7120001247828,新規,0,2022-08-01,2022-08-01,株式会社ＨＡＭＴＷＯ,,株式会社,大阪府,大阪市住吉区,千躰１丁目４番３８号住吉スカイハイツ１０５号室,,27,120,5580047,,,,,,,2022-08-01,1,,,,,ハムツー,0
1738,7120003022196,新規,0,2022-08-01,2022-08-01,合同会社ｃｈｅｅｍｙ,,合同会社,大阪府,大阪市西区,南堀江１丁目２１番１６号,,27,106,5500015,,,,,,,2022-08-01,1,,,,,チーミー,0
1741,7120103004796,新規,0,2022-08-01,2022-08-01,合同会社ＮＴ,,合同会社,大阪府,泉南郡熊取町,新野田２丁目２１番１０号,,27,361,5900454,,,,,,,2022-08-01,1,,,,,エヌティ,0
1742,7120103004805,新規,0,2022-08-01,2022-08-01,合同会社ヒデキコーポレーション,,合同会社,大阪府,松原市,岡３丁目２番１２号,,27,217,5800014,,,,,,,2022-08-01,1,,,,,ヒデキコーポレーション,0
1745,7130001072300,新規,0,2022-08-01,2022-08-01,株式会社エメポワール,,株式会社,京都府,八幡市,下奈良宮ノ道８番地の２,,26,210,6148131,,,,,,,2022-08-01,1,,,,,エメポワール,0
1748,7130005016542,新規,0,2022-08-01,2022-08-01,一般財団法人東邦人財育成・社会貢献財団,,その他の設立登記法人,京都府,京都市中京区,壬生御所ノ内町３２番地,,26,104,6048872,,,,,,,2022-08-01,1,,,,,トウホウジンザイイクセイシャカイコウケンザイダン,0
1752,7140001126897,新規,0,2022-08-01,2022-08-01,株式会社松村,,株式会社,兵庫県,神戸市兵庫区,熊野町３丁目５番５号,,28,105,6520064,,,,,,,2022-08-01,1,,,,,マツムラ,0
1757,7150005009412,新規,0,2022-08-01,2022-08-01,一般社団法人もっくる,,その他の設立登記法人,奈良県,奈良市,藤ノ木台１丁目８番２８－１０１号,,29,201,6310044,,,,,,,2022-08-01,1,,,,,モックル,0
1758,7170001017210,新規,0,2022-08-01,2022-08-01,株式会社Ｂｅｅ　Ｊａｐａｎ,,株式会社,和歌山県,田辺市,今福町９８番地１階,,30,206,6460043,,,,,,,2022-08-01,1,,,,,ビージャパン,0
1759,7180001012581,新規,0,2022-08-01,2022-08-01,株式会社ダイジュホーム,,株式会社,愛知県,名古屋市瑞穂区,彌富通５丁目４２番地ユニーブル弥富通７０１号,,23,108,4670064,,,,,,,2022-08-01,1,,,,,ダイジュホーム,0
1760,7180001152312,新規,0,2022-08-01,2022-08-01,株式会社ＳＴＡＴＩＯＮ,,株式会社,愛知県,名古屋市中村区,大宮町２丁目３６－２エムズ大宮町２Ｆ,,23,105,4530821,,,,,,,2022-08-01,1,,,,,ステーション,0
1761,7180001152378,新規,0,2022-08-01,2022-08-01,ＮＩＳＳＯキャピタル株式会社,,株式会社,愛知県,名古屋市中区,千代田３丁目１１番１４号プレサンスロジェ鶴舞駅前１００２号,,23,106,4600012,,,,,,,2022-08-01,1,,,,,ニッソウキャピタル,0
1778,7260001037100,新規,0,2022-08-01,2022-08-01,株式会社Ｔ‐Ｄｅｃｏｒａｔｉｎｇ,,株式会社,岡山県,岡山市北区,吉備津７３７番地,,33,101,7011341,,,,,,,2022-08-01,1,,,,,ティデコレーティング,0
1786,7290001098420,新規,0,2022-08-01,2022-08-01,ＧＲＡＮＤ　ＢＲＥＥＺＥ株式会社,,株式会社,福岡県,福岡市中央区,渡辺通３丁目１０番３９－１３０２号,,40,133,8100004,,,,,,,2022-08-01,1,,,,,グランドブリーズ,0
1787,7290001098429,新規,0,2022-08-01,2022-08-01,株式会社ＤＥＮ農,,株式会社,福岡県,福岡市中央区,大名２丁目６番１１号,,40,133,8100041,,,,,,,2022-08-01,1,,,,,デンノウ,0
1789,7290003012791,新規,0,2022-08-01,2022-08-01,合同会社ＡＯＺＯＲＡ,,合同会社,福岡県,福岡市博多区,神屋町４－２ウエスタンビル１Ｆ,,40,132,8120022,,,,,,,2022-08-01,1,,,,,アオゾラ,0
1792,7290801028766,新規,0,2022-08-01,2022-08-01,温心看護株式会社,,株式会社,福岡県,北九州市小倉南区,横代北町３丁目１６番３０号２,,40,107,8020821,,,,,,,2022-08-01,1,,,,,ココロカンゴ,0
1796,7320001019249,新規,0,2022-08-01,2022-08-01,日東電線工業九州株式会社,,株式会社,大分県,宇佐市,大字下高家２０５８番地,,44,211,8790308,,,,,,,2022-08-01,1,,,,,ニットウデンセンコウギョウキュウシュウ,0
1806,7370001048862,新規,0,2022-08-01,2022-08-01,株式会社Ｓｔｒａｔｅｇｉｃ　Ｌｉｆｅ,,株式会社,宮城県,仙台市青葉区,中山３丁目４番２０号,,04,101,9810952,,,,,,,2022-08-01,1,,,,,ストラテジックライフ,0
1821,7430001023818,新規,0,2022-08-01,2022-08-01,丸吉鐵工株式会社,,株式会社,北海道,札幌市西区,発寒十二条１３丁目１番１号,,01,107,0630832,,,,,,,2022-08-01,1,,,,,マルヨシテッコウ,0
1823,7430001087177,新規,0,2022-08-01,2022-08-01,株式会社カムイ,,株式会社,北海道,札幌市中央区,南七条西４丁目４２４番地１２すすきのプラザビル７０８号,,01,101,0640807,,,,,,,2022-08-01,1,,,,,カムイ,0
1831,7430003014146,新規,0,2022-08-01,2022-08-01,ニセコ総業合同会社,,合同会社,北海道,磯谷郡蘭越町,字湯里１０２－８,,01,394,0481321,,,,,,,2022-08-01,1,,,,,ニセコソウギョウ,0
1834,7470001019184,新規,0,2022-08-01,2022-08-01,株式会社豊之助,,株式会社,香川県,さぬき市,津田町鶴羽２１８０番地３,,37,206,7692402,,,,,,,2022-08-01,1,,,,,トヨノスケ,0
1856,8010001228466,新規,0,2022-08-01,2022-08-01,株式会社ｊｏｉａ,,株式会社,東京都,中央区,銀座７丁目１３－６サガミビル２Ｆ,,13,102,1040061,,,,,,,2022-08-01,1,,,,,ジョイア,0
1857,8010001228474,新規,0,2022-08-01,2022-08-01,ＥＴフロンティア株式会社,,株式会社,東京都,中央区,月島２丁目２番１０号クエスト正徳５０３号室,,13,102,1040052,,,,,,,2022-08-01,1,,,,,イーティーフロンティア,0
1875,8010401168824,新規,0,2022-08-01,2022-08-01,ｔｏＢＥ　Ｔｅｃｈ株式会社,,株式会社,東京都,港区,六本木３丁目４番３３号,,13,103,1060032,,,,,,,2022-08-01,1,,,,,トゥービーテック,0
1877,8010403028183,新規,0,2022-08-01,2022-08-01,合同会社ＡｉｎｏＤｅｓｉｇｎ,,合同会社,東京都,港区,南青山２丁目２番１５号,,13,103,1070062,,,,,,,2022-08-01,1,,,,,アイノデザイン,0
1879,8010701043025,新規,0,2022-08-01,2022-08-01,株式会社イリス,,株式会社,東京都,品川区,南品川５丁目１３－１５モア南品川２０２,,13,109,1400004,,,,,,,2022-08-01,1,,,,,イリス,0
1882,8010903007554,新規,0,2022-08-01,2022-08-01,合同会社ＴＹＳコンサルティング,,合同会社,東京都,世田谷区,船橋４丁目１－１４,,13,112,1560055,,,,,,,2022-08-01,1,,,,,ティーワイエスコンサルティング,0
1890,8011003015126,新規,0,2022-08-01,2022-08-01,合同会社ＹＡ２,,合同会社,東京都,目黒区,柿の木坂３丁目１１番４－３０２号,,13,110,1520022,,,,,,,2022-08-01,1,,,,,ワイエーツー,0
1891,8011003015134,新規,0,2022-08-01,2022-08-01,合同会社Ｌａｐａｎ,,合同会社,東京都,渋谷区,道玄坂１丁目１６－６二葉ビル８ｂ,,13,113,1500043,,,,,,,2022-08-01,1,,,,,ラパン,0
1899,8011101099698,新規,0,2022-08-01,2022-08-01,株式会社福井商事,,株式会社,東京都,新宿区,大久保２丁目１－９日興ユニパリス大久保１００１,,13,104,1690072,,,,,,,2022-08-01,1,,,,,フクイショウジ,0
1900,8011101099715,新規,0,2022-08-01,2022-08-01,株式会社Ｄｉａｆａ,,株式会社,東京都,新宿区,戸山３丁目２１番５号ロータスコート西早稲田６０１,,13,104,1620052,,,,,,,2022-08-01,1,,,,,ディアファ,0
1908,8011601026144,新規,0,2022-08-01,2022-08-01,株式会社ラフ,,株式会社,東京都,練馬区,豊玉北５丁目６番１１号ミグハウス２０２,,13,120,1760012,,,,,,,2022-08-01,1,,,,,ラフ,0
1913,8012403005518,新規,0,2022-08-01,2022-08-01,ＩＫＤＣ合同会社,,合同会社,東京都,調布市,小島町１丁目２７－１－２０５,,13,208,1820026,,,,,,,2022-08-01,1,,,,,アイケーディーシー,0
1916,8012805003136,新規,0,2022-08-01,2022-08-01,特定非営利活動法人立川災害ボランティアネット,,その他の設立登記法人,東京都,立川市,栄町１丁目３０番地の３,,13,202,1900003,,,,,,,2022-08-01,1,,,,,タチカワサイガイボランティアネット,0
1917,8013101008985,新規,0,2022-08-01,2022-08-01,ＵＳエンジニアリング株式会社,,株式会社,東京都,青梅市,友田町２丁目７０２番地の２,,13,205,1980051,,,,,,,2022-08-01,1,,,,,ユーエスエンジニアリング,0
1935,8030001149446,新規,0,2022-08-01,2022-08-01,株式会社アジア物産ＱＨＤ,,株式会社,埼玉県,さいたま市岩槻区,大字浮谷２４４０番地１３,,11,110,3390037,,,,,,,2022-08-01,1,,,,,アジアブッサンキューエイチディー,0
1936,8030001149462,新規,0,2022-08-01,2022-08-01,株式会社ｋｅｙ,,株式会社,埼玉県,さいたま市見沼区,春岡３丁目３７番地２,,11,104,3370008,,,,,,,2022-08-01,1,,,,,キー,0
1938,8030003019894,新規,0,2022-08-01,2022-08-01,吉優藍合同会社,,合同会社,埼玉県,春日部市,南３丁目３－１２,,11,214,3440064,,,,,,,2022-08-01,1,,,,,ヨシユウラン,0
1939,8030003019903,新規,0,2022-08-01,2022-08-01,九州合同会社,,合同会社,埼玉県,さいたま市見沼区,大字東新井７１０番地２９の２０１号室,,11,104,3370032,,,,,,,2022-08-01,1,,,,,キュウシュウ,0
1944,8040001124489,新規,0,2022-08-01,2022-08-01,株式会社ＷＩＳＥ　ＵＰ,,株式会社,千葉県,船橋市,海神町南１丁目１６１０番地１エルフィーノ西船橋パークテラス１００４号,,12,204,2730024,,,,,,,2022-08-01,1,,,,,ワイズアップ,0
1951,8050003006734,新規,0,2022-08-01,2022-08-01,合同会社百式,,合同会社,茨城県,常陸大宮市,田子内町３２３５番地の２,,08,225,3192256,,,,,,,2022-08-01,1,,,,,ヒャクシキ,0
1956,8070003004579,新規,0,2022-08-01,2022-08-01,プライマリーソリューションジャパン合同会社,,合同会社,群馬県,前橋市,国領町１丁目１２番２２号,,10,201,3710033,,,,,,,2022-08-01,1,,,,,プライマリーソリューションジャパン,0
1957,8080001025097,新規,0,2022-08-01,2022-08-01,株式会社Ｅｃｃｅｌｌｅｎｔｅ,,株式会社,静岡県,藤枝市,高洲５５番地の１,,22,214,4260046,,,,,,,2022-08-01,1,,,,,エクセレンテ,0
1965,8110001036850,新規,0,2022-08-01,2022-08-01,株式会社関工務店,,株式会社,新潟県,魚沼市,根小屋１３３７番地乙,,15,225,9497403,,,,,,,2022-08-01,1,,,,,セキコウムテン,0
1980,8120001247604,新規,0,2022-08-01,2022-08-01,株式会社ＲＥＬＹ,,株式会社,大阪府,枚方市,南楠葉１丁目６５番２－１０１号,,27,210,5731105,,,,,,,2022-08-01,1,,,,,リライ,0
1981,8120001247802,新規,0,2022-08-01,2022-08-01,株式会社Ｙｕｔａｋａｅ,,株式会社,大阪府,大阪市浪速区,元町３丁目１１番２１号ＣＯＺＹ４０１号,,27,111,5560016,,,,,,,2022-08-01,1,,,,,ユタカエ,0
1982,8120001247810,新規,0,2022-08-01,2022-08-01,株式会社ＧＲＡＶＩＴＹ,,株式会社,大阪府,大阪市中央区,平野町３丁目１番７号,,27,128,5410046,,,,,,,2022-08-01,1,,,,,グラビティ,0
1983,8120001247843,新規,0,2022-08-01,2022-08-01,株式会社ディライトビューティ,,株式会社,大阪府,大阪市東成区,神路２丁目９番６号,,27,115,5370003,,,,,,,2022-08-01,1,,,,,ディライトビューティ,0
1985,8120003022195,新規,0,2022-08-01,2022-08-01,家具レンタルファースト合同会社,,合同会社,大阪府,大阪市中央区,南本町３丁目３番１４号貴田ビル５階,,27,128,5410054,,,,,,,2022-08-01,1,,,,,カグレンタルファースト,0
1993,8130001072299,新規,0,2022-08-01,2022-08-01,株式会社キュウハン,,株式会社,京都府,京都市山科区,大塚西浦町３４,,26,110,6078125,,,,,,,2022-08-01,1,,,,,キュウハン,0
1994,8130001072308,新規,0,2022-08-01,2022-08-01,株式会社ａｎ’ｎａｔｕｒｅ,,株式会社,京都府,京都市右京区,太秦馬塚町２０番地３５,00127379,26,108,6160000,,,,,,,2022-08-01,1,,,,,アンナチュレ,0
1995,8130003008078,新規,0,2022-08-01,2022-08-01,合同会社田中製作所,,合同会社,京都府,宇治市,槇島町一ノ坪７,,26,204,6110041,,,,,,,2022-08-01,1,,,,,タナカセイサクショ,0
1996,8130003008086,新規,0,2022-08-01,2022-08-01,合同会社エドエックス・ラボ京都,,合同会社,京都府,木津川市,木津小川１５番地１木津川ＰＯＲＴ,,26,214,6190214,,,,,,,2022-08-01,1,,,,,エドエックスラボキョウト,0
2002,8140001126418,新規,0,2022-08-01,2022-08-01,株式会社コットンバスケット,,株式会社,兵庫県,川西市,水明台３丁目６番地の３３,,28,217,6660116,,,,,,,2022-08-01,1,,,,,コットンバスケット,0
2003,8140001126913,新規,0,2022-08-01,2022-08-01,株式会社ＢＥＴＯＵＰＥ,,株式会社,兵庫県,神戸市長田区,松野通１丁目７番６－７０３号,,28,106,6530841,,,,,,,2022-08-01,1,,,,,ベトゥープ,0
2007,8140003017961,新規,0,2022-08-01,2022-08-01,合同会社神戸コネクト,,合同会社,兵庫県,神戸市中央区,磯上通８丁目１－２９カサベラビルＣ＆Ｍビル４０３,,28,110,6510086,,,,,,,2022-08-01,1,,,,,コウベコネクト,0
2022,8180001152352,新規,0,2022-08-01,2022-08-01,十三不動産株式会社,,株式会社,愛知県,名古屋市昭和区,村雲町１６番１１号,,23,107,4660052,,,,,,,2022-08-01,1,,,,,トミフドウサン,0
2023,8180001152369,新規,0,2022-08-01,2022-08-01,ＭＫ株式会社,,株式会社,愛知県,名古屋市中村区,竹橋町１４－２ブランドブラン１階Ａ号室,,23,105,4530016,,,,,,,2022-08-01,1,,,,,エムケー,0
2024,8180001152377,新規,0,2022-08-01,2022-08-01,株式会社スタックカラー名古屋北,,株式会社,愛知県,名古屋市東区,徳川２丁目１７番１６号,,23,102,4610025,,,,,,,2022-08-01,1,,,,,スタックカラーナゴヤキタ,0
2025,8180001152385,新規,0,2022-08-01,2022-08-01,株式会社アースアイ,,株式会社,愛知県,名古屋市西区,菊井２丁目７番８号,,23,104,4510044,,,,,,,2022-08-01,1,,,,,アースアイ,0
2026,8180001152402,新規,0,2022-08-01,2022-08-01,株式会社みどりメディカルサポート,,株式会社,愛知県,名古屋市緑区,篭山１丁目１０９番地の１シティコーポ小坂南１０１号,,23,114,4580007,,,,,,,2022-08-01,1,,,,,ミドリメディカルサポート,0
2029,8180003024046,新規,0,2022-08-01,2022-08-01,合同会社アークエクスプレス,,合同会社,愛知県,名古屋市天白区,一本松１丁目１１１２番地（アスピリア一本松１０１号）,,23,116,4680008,,,,,,,2022-08-01,1,,,,,アークエクスプレス,0
2041,8200001040315,新規,0,2022-08-01,2022-08-01,アリ・トレーディング株式会社,,株式会社,岐阜県,不破郡垂井町,宮代字市場５５５番地１,,21,361,5032124,,,,,,,2022-08-01,1,,,,,アリトレーディング,0
2042,8200001040323,新規,0,2022-08-01,2022-08-01,株式会社ｆｅｍｔｏ,,株式会社,岐阜県,大垣市,丸の内２丁目５０番地パサージュ大垣８０４,,21,202,5030888,,,,,,,2022-08-01,1,,,,,フェムト,0
2054,8240001060144,新規,0,2022-08-01,2022-08-01,ＫＧモーターズ株式会社,,株式会社,広島県,東広島市,志和町七条椛坂１６９８－３,,34,212,7390264,,,,,,,2022-08-01,1,,,,,ケージーモーターズ,0
2057,8250001019684,新規,0,2022-08-01,2022-08-01,株式会社浅原工業,,株式会社,山口県,周南市,大字呼坂１１００番地の１２８,,35,215,7450612,,,,,,,2022-08-01,1,,,,,アサハラコウギョウ,0
2087,8290001098411,新規,0,2022-08-01,2022-08-01,ＨＡＩ　ＲＡＭＯＳ株式会社,,株式会社,福岡県,福岡市博多区,比恵町１－１８東カン福岡第二キャステール７１８,,40,132,8120014,,,,,,,2022-08-01,1,,,,,ハイラモス,0
2088,8290001098428,新規,0,2022-08-01,2022-08-01,株式会社家族チキンファミリー,,株式会社,福岡県,福岡市中央区,薬院１丁目６番５－６０３号,,40,133,8100022,,,,,,,2022-08-01,1,,,,,カゾクチキンファミリー,0
2090,8290003012790,新規,0,2022-08-01,2022-08-01,合同会社Ｏｎｅ２,,合同会社,福岡県,福岡市博多区,銀天町３丁目６番２９－５０５号ヒューマインド南福岡かえで通り,,40,132,8120879,,,,,,,2022-08-01,1,,,,,ワンフ,0
2092,8290801028765,新規,0,2022-08-01,2022-08-01,株式会社ＢＬＡＮＣＯ,,株式会社,福岡県,北九州市八幡西区,大浦２丁目１２番１６号,,40,109,8070874,,,,,,,2022-08-01,1,,,,,ブランコ,0
2095,8330001029956,新規,0,2022-08-01,2022-08-01,アグファーム株式会社,,株式会社,熊本県,菊池市,泗水町吉富１７３番地５４,,43,210,8611201,,,,,,,2022-08-01,1,,,,,アグファーム,0
2096,8330003009460,新規,0,2022-08-01,2022-08-01,合同会社直土建,,合同会社,熊本県,上益城郡益城町,大字安永１４９７番地,,43,443,8612231,,,,,,,2022-08-01,1,,,,,ナオドケン,0
2100,8360001030754,新規,0,2022-08-01,2022-08-01,株式会社ＧＩＤ　Ｔａｌｋ,,株式会社,沖縄県,那覇市,前島３丁目２５番２号泊ポートビル５Ｆ,,47,201,9000016,,,,,,,2022-08-01,1,,,,,ジーアイディートーク,0
2123,8700150020901,新規,0,2022-08-01,2015-10-09,丸塩青果生産組合,,その他,長野県,長野市,篠ノ井塩崎３９３７,,20,201,3888014,,,,,,,2015-10-09,1,,,,,マルシオセイカセイサンクミアイ,0
2132,9010001228449,新規,0,2022-08-01,2022-08-01,株式会社ｇ,,株式会社,東京都,千代田区,紀尾井町４番１号,,13,101,1020094,,,,,,,2022-08-01,1,,,,,ジー,0
2140,9010401168740,新規,0,2022-08-01,2022-08-01,株式会社ＳＢＬａｂ,,株式会社,東京都,港区,六本木７丁目３番８－５１８号,,13,103,1060032,,,,,,,2022-08-01,1,,,,,エスビーラボ,0
2141,9010401168798,新規,0,2022-08-01,2022-08-01,株式会社地域エネルギー開発,,株式会社,東京都,港区,六本木１丁目６番１号,,13,103,1060032,,,,,,,2022-08-01,1,,,,,チイキエネルギーカイハツ,0
2142,9010401168831,新規,0,2022-08-01,2022-08-01,株式会社クロスウィン,,株式会社,東京都,港区,赤坂４丁目３番１５号ＦＳＫ赤坂ビル２Ｆ,,13,103,1070052,,,,,,,2022-08-01,1,,,,,クロスウィン,0
2149,9010701043016,新規,0,2022-08-01,2022-08-01,株式会社ファイブリゲート,,株式会社,東京都,品川区,西五反田１丁目２４番４号,,13,109,1410031,,,,,,,2022-08-01,1,,,,,ファイブリゲート,0
2150,9010803004246,新規,0,2022-08-01,2022-08-01,ＴＲＡＹＤ＆Ｃｏ．合同会社,,合同会社,東京都,大田区,中馬込１丁目１１番１６号,,13,111,1430027,,,,,,,2022-08-01,1,,,,,トライドアンドコーカンパニー,0
2161,9011001148892,新規,0,2022-08-01,2022-08-01,株式会社クレイジーコミュニティカンパニー,,株式会社,東京都,渋谷区,東３丁目１２番８号ｅｓｔ３,,13,113,1500011,,,,,,,2022-08-01,1,,,,,クレイジーコミュニティカンパニー,0
2165,9011003015075,新規,0,2022-08-01,2022-08-01,合同会社ｒｅｓｕｍｅ,,合同会社,東京都,渋谷区,道玄坂１丁目１０番８号渋谷道玄坂東急ビル２Ｆ－Ｃ,,13,113,1500043,,,,,,,2022-08-01,1,,,,,リズーム,0
2168,9011101099714,新規,0,2022-08-01,2022-08-01,株式会社ＢＩＮＡＵＲＡＬ,,株式会社,東京都,新宿区,新宿６丁目２番４号,,13,104,1600022,,,,,,,2022-08-01,1,,,,,バイノーラル,0
2170,9011301027986,新規,0,2022-08-01,2022-08-01,株式会社ＣＡＬＹＸＲＯＢＥ,,株式会社,東京都,杉並区,和田３丁目５７番８号,,13,115,1660012,,,,,,,2022-08-01,1,,,,,カリクスローブ,0
2183,9012401039475,新規,0,2022-08-01,2022-08-01,株式会社日橋商会,,株式会社,東京都,調布市,布田３丁目３０番地１,,13,208,1820024,,,,,,,2022-08-01,1,,,,,ニッパシショウカイ,0
2185,9012801021735,新規,0,2022-08-01,2022-08-01,株式会社Ｕ＆Ｉ,,株式会社,東京都,立川市,錦町２丁目１番２３号,,13,202,1900022,,,,,,,2022-08-01,1,,,,,ユーアンドアイ,0
2194,9020001147499,新規,0,2022-08-01,2022-08-01,Ｘ　Ｄｅｔｅｃｔ株式会社,,株式会社,神奈川県,川崎市中原区,井田２丁目５番４号,,14,133,2110035,,,,,,,2022-08-01,1,,,,,エックスディテクト,0
2195,9020001147516,新規,0,2022-08-01,2022-08-01,株式会社豊紫園,,株式会社,神奈川県,横浜市都筑区,早渕３丁目１１番８－２号,,14,118,2240025,,,,,,,2022-08-01,1,,,,,ホウシエン,0
2196,9020001147549,新規,0,2022-08-01,2022-08-01,株式会社スペリオルワン,,株式会社,神奈川県,横浜市青葉区,千草台３８番地８－４０２号,,14,117,2270051,,,,,,,2022-08-01,1,,,,,スペリオルワン,0
2212,9030001149412,新規,0,2022-08-01,2022-08-01,ＨＯＫＩ　ＰＬＡＮＥＴ株式会社,,株式会社,埼玉県,川口市,栄町１丁目８番６号,,11,203,3320017,,,,,,,2022-08-01,1,,,,,ホーキプラネット,0
2213,9030001149453,新規,0,2022-08-01,2022-08-01,株式会社トラシアス,,株式会社,埼玉県,川口市,鳩ヶ谷緑町１丁目５－１１,,11,203,3340015,,,,,,,2022-08-01,1,,,,,トラシアス,0
2219,9030003019844,新規,0,2022-08-01,2022-08-01,久久合同会社,,合同会社,埼玉県,草加市,神明１丁目９番２６号,,11,221,3400012,,,,,,,2022-08-01,1,,,,,クク,0
2220,9030003019877,新規,0,2022-08-01,2022-08-01,クローバー合同会社,,合同会社,埼玉県,草加市,金明町２３６番地９ベルドゥムール草加金明２０４,,11,221,3400052,,,,,,,2022-08-01,1,,,,,クローバー,0
2221,9030003019902,新規,0,2022-08-01,2022-08-01,合同会社Ｆｒｅｅｄｏｍ,,合同会社,埼玉県,草加市,手代１丁目８番１４号,,11,221,3400021,,,,,,,2022-08-01,1,,,,,フリーダム,0
2222,9030005020940,新規,0,2022-08-01,2022-08-01,一般社団法人ＦＣ　ＥＴＨＥＲＬＩＧＨＴ,,その他の設立登記法人,埼玉県,入間郡毛呂山町,前久保南４丁目４０番地４１,,11,326,3500463,,,,,,,2022-08-01,1,,,,,フリーカンパニーエーテルライト,0
2229,9040001124406,新規,0,2022-08-01,2022-08-01,株式会社ＨＡＮＳＨＩＮ　ＪＡＰＡＮ,,株式会社,千葉県,市川市,八幡１丁目１６番５号本八幡パークハウス５０４号,,12,203,2720021,,,,,,,2022-08-01,1,,,,,ハンシンジャパン,0
2230,9040003020529,新規,0,2022-08-01,2022-08-01,合同会社ＡＳサポート,,合同会社,千葉県,市川市,南八幡５丁目２１番１０号３階,,12,203,2720023,,,,,,,2022-08-01,1,,,,,アスサポート,0
2235,9050003006733,新規,0,2022-08-01,2022-08-01,外山法務合同会社,,合同会社,茨城県,土浦市,真鍋新町８番２２号,,08,203,3000053,,,,,,,2022-08-01,1,,,,,トヤマホウム,0
2236,9050003006741,新規,0,2022-08-01,2022-08-01,ウエルファームフード合同会社,,合同会社,茨城県,土浦市,富士崎１丁目８番１７号,,08,203,3000813,,,,,,,2022-08-01,1,,,,,ウエルファームフード,0
2243,9080101023454,新規,0,2022-08-01,2022-08-01,株式会社ベルベットアーツ,,株式会社,静岡県,御殿場市,神山平３丁目４番地の４,,22,215,4120029,,,,,,,2022-08-01,1,,,,,ベルベットアーツ,0
2248,9100001035563,新規,0,2022-08-01,2022-08-01,株式会社ジオプロテクト,,株式会社,長野県,長野市,大字金箱２８２番地７,,20,201,3810007,,,,,,,2022-08-01,1,,,,,ジオプロテクト,0
2266,9120001247768,新規,0,2022-08-01,2022-08-01,芙楽株式会社,,株式会社,大阪府,大阪市東淀川区,西淡路１丁目１－９ビジネス新大阪７０７号室,,27,114,5330031,,,,,,,2022-08-01,1,,,,,フウラク,0
2267,9120001247776,新規,0,2022-08-01,2022-08-01,株式会社Ｔ＆Ｈ,,株式会社,大阪府,大阪市中央区,安土町２丁目２－１５,,27,128,5410052,,,,,,,2022-08-01,1,,,,,ティーアンドエイチ,0
2268,9120001247784,新規,0,2022-08-01,2022-08-01,株式会社Ｔｈｅ　ＲｅＢｒａｎｄ,,株式会社,大阪府,大阪市中央区,今橋３丁目２番２－５０１号,,27,128,5410042,,,,,,,2022-08-01,1,,,,,ザリブランド,0
2269,9120001247792,新規,0,2022-08-01,2022-08-01,株式会社ｕｎｉｔｅｄ　ｍｅｄｉｃａｌｓ,,株式会社,大阪府,大阪市旭区,新森２丁目３番２号ラリュー・デュボアＡ１０２,,27,117,5350022,,,,,,,2022-08-01,1,,,,,ユナイテッドメディカルズ,0
2270,9120001247818,新規,0,2022-08-01,2022-08-01,株式会社ＴＡＭ,,株式会社,大阪府,大阪市平野区,平野北１丁目７番２０号,,27,126,5470041,,,,,,,2022-08-01,1,,,,,ティーエーエム,0
2271,9120001247826,新規,0,2022-08-01,2022-08-01,株式会社ｈａａｗｉ,,株式会社,大阪府,大阪市東淀川区,柴島３丁目７番３８号,,27,114,5330024,,,,,,,2022-08-01,1,,,,,ハーヴィ,0
2272,9120001247867,新規,0,2022-08-01,2022-08-01,株式会社Ｐａｌｅｔｔｅ,,株式会社,大阪府,大阪市城東区,関目３丁目３番１６号,,27,118,5360008,,,,,,,2022-08-01,1,,,,,パレット,0
2277,9120005023117,新規,0,2022-08-01,2022-08-01,一般社団法人Ｒ＆Ｙ,,その他の設立登記法人,大阪府,大阪市北区,梅田１丁目１－３大阪駅前第３ビル２９階１－１－１号室,,27,127,5300001,,,,,,,2022-08-01,1,,,,,アールアンドワイ,0
2278,9120005023125,新規,0,2022-08-01,2022-08-01,一般社団法人ＴＯＫＳ,,その他の設立登記法人,大阪府,大阪市中央区,本町１丁目５番６号大阪山甚ビル,,27,128,5410053,,,,,,,2022-08-01,1,,,,,トックス,0
2283,9120101065979,新規,0,2022-08-01,2022-08-01,株式会社未来建築工房,,株式会社,大阪府,藤井寺市,大井４丁目１１番５０号,,27,226,5830008,,,,,,,2022-08-01,1,,,,,ミライケンチクコウボウ,0
2288,9122003002390,新規,0,2022-08-01,2022-08-01,Ｑ＆Ｋ合同会社,,合同会社,大阪府,柏原市,玉手町４－２９－１０１,,27,221,5820028,,,,,,,2022-08-01,1,,,,,キューアンドケー,0
2290,9130001072307,新規,0,2022-08-01,2022-08-01,株式会社シロウトニケ,,株式会社,京都府,京丹後市,網野町島津４５８番地,,26,212,6293121,,,,,,,2022-08-01,1,,,,,シロウトニケ,0
2291,9130001072315,新規,0,2022-08-01,2022-08-01,株式会社ＡＸＩＳ,,株式会社,京都府,京都市右京区,西京極堤下町３番地１イニシア桂大橋１１６号室,,26,108,6150835,,,,,,,2022-08-01,1,,,,,アクシス,0
2315,9180001152384,新規,0,2022-08-01,2022-08-01,株式会社えんや,,株式会社,愛知県,名古屋市東区,白壁２丁目１４番２７号,,23,102,4610011,,,,,,,2022-08-01,1,,,,,エンヤ,0
2316,9180001152392,新規,0,2022-08-01,2022-08-01,株式会社アベニール,,株式会社,愛知県,名古屋市中村区,二瀬町８６番地,,23,105,4530837,,,,,,,2022-08-01,1,,,,,アベニール,0
2317,9180001152401,新規,0,2022-08-01,2022-08-01,株式会社ＩＳＨＩＫＯ,,株式会社,愛知県,名古屋市名東区,豊が丘１４０４番地アーバンイシコ１０２号,,23,115,4650035,,,,,,,2022-08-01,1,,,,,イシコ,0
2322,9180003024094,新規,0,2022-08-01,2022-08-01,ＨＩＫＡＲＵ　ＡＳＳＥＴ合同会社,,合同会社,愛知県,名古屋市千種区,神田町４番５号,,23,101,4640077,,,,,,,2022-08-01,1,,,,,ヒカルアセット,0
2324,9180301036485,新規,0,2022-08-01,2022-08-01,かわい電工株式会社,,株式会社,愛知県,豊川市,国府南３丁目１１番地２,,23,207,4420852,,,,,,,2022-08-01,1,,,,,カワイデンコウ,0
2326,9190003004046,新規,0,2022-08-01,2022-08-01,ボテロワール合同会社,,合同会社,三重県,多気郡多気町,前村１２６番地,,24,441,5192175,,,,,,,2022-08-01,1,,,,,ボテロワール,0
2330,9200001040322,新規,0,2022-08-01,2022-08-01,株式会社アイテムコネクト,,株式会社,岐阜県,可児市,川合２２番地１,,21,214,5090201,,,,,,,2022-08-01,1,,,,,アイテムコネクト,0
2332,9210001019027,新規,0,2022-08-01,2022-08-01,株式会社ＴＥＡＭ　Ｚｅｎ,,株式会社,福井県,吉田郡永平寺町,松岡薬師２丁目９２番地,,18,322,9101118,,,,,,,2022-08-01,1,,,,,チームゼン,0
2341,9250001019683,新規,0,2022-08-01,2022-08-01,イーワン工業株式会社,,株式会社,山口県,下松市,藤光町１丁目１９番１６号,,35,207,7440028,,,,,,,2022-08-01,1,,,,,イーワンコウギョウ,0
2344,9260003003998,新規,0,2022-08-01,2022-08-01,Ｓｅｄｉｍｅｎｔ合同会社,,合同会社,岡山県,岡山市北区,磨屋町１－２磨屋町ビル２棟２階,,33,101,7000826,,,,,,,2022-08-01,1,,,,,セディメント,0
2353,9290001098410,新規,0,2022-08-01,2022-08-01,Ｄｉｇｉｍｅｉｓｔｅｒ株式会社,,株式会社,福岡県,福岡市中央区,大宮１丁目２番２５号,,40,133,8100013,,,,,,,2022-08-01,1,,,,,デジマイスター,0
2356,9320003003868,新規,0,2022-08-01,2022-08-01,合同会社Ａｎｙ　Ｒｏａｄ,,合同会社,大分県,別府市,上人ケ浜町３番２０号,,44,202,8740023,,,,,,,2022-08-01,1,,,,,エニーロード,0
2365,9350001017875,新規,0,2022-08-01,2022-08-01,美葵株式会社,,株式会社,宮崎県,日向市,大字幸脇１１５５番地１,,45,206,8891112,,,,,,,2022-08-01,1,,,,,ミイア,0
2370,9370001048869,新規,0,2022-08-01,2022-08-01,株式会社徳和,00127372,株式会社,宮城県,仙台市若林区,木ノ下１丁目２４番１７号,,04,103,9840047,,,,,,,2022-08-01,1,,,,,トクワ,0
2386,9430001087167,新規,0,2022-08-01,2022-08-01,株式会社カキテツ,,株式会社,北海道,苫小牧市,木場町２丁目３番３２号,,01,213,0530033,,,,,,,2022-08-01,1,,,,,カキテツ,0
2389,9460001005720,新規,0,2022-08-01,2022-08-01,ＩＫＥ株式会社,,株式会社,北海道,釧路市,幸町５丁目６番地,,01,206,0850017,,,,,,,2022-08-01,1,,,,,アイケイイー,0
2392,9700150109958,新規,0,2022-08-01,2022-06-16,東京都日本歯科大学校友会,,その他,東京都,千代田区,富士見１丁目７－６飯田橋ニュー東和ビル３階,,13,101,1020071,,,,,,,2022-06-16,1,,,,,トウキヨウトニホンシカダイガクコウユウカイ,0
