sequenceNumber,corporateNumber,process,correct,updateDate,changeDate,name,nameImageId,kind,prefectureName,cityName,streetNumber,addressImageId,prefectureCode,cityCode,postCode,addressOutside,addressOutsideImageId,closeDate,closeCause,successorCorporateNumber,changeCause,assignmentDate,latest,enName,enPrefectureName,enCityName,enAddressOutside,furigana,hihyoji
4,1010001165096,登記記録の閉鎖等,0,2021-09-21,2021-09-09,株式会社Ｇｌｏｂａｌ　Ｎｅｗ　Ｅｎｅｒｇｙ　Ｔｓｕｎｏ,,株式会社,東京都,千代田区,内神田２丁目２番６号５階あすな会計事務所内,,13,101,1010047,,,2021-09-09,合併による解散等,3010003029157,令和３年９月７日東京都千代田区内神田二丁目２番６号５階あすな会計事務所内ＡＣ１６合同会社（3010003029157）に合併し解散,2015-10-05,1,,,,,グローバルニューエナジーツノ,0
7,1010001185086,登記記録の閉鎖等,0,2021-09-21,2021-09-15,株式会社クラージュ,,株式会社,東京都,北区,上十条３丁目１９番８号,,13,117,1140034,,,2021-09-15,清算の結了等,,,2017-07-26,1,,,,,クラージュ,0
9,1010002012826,登記記録の閉鎖等,0,2021-09-21,2021-09-10,有限会社トップキャット,,有限会社,東京都,千代田区,神田神保町１丁目１５番地,,13,101,1010051,,,2021-09-10,清算の結了等,,,2015-10-05,1,,,,,トップキャット,0
23,1010403020551,登記記録の閉鎖等,0,2021-09-21,2021-09-09,大阪インベストメンツ１合同会社,,合同会社,東京都,港区,六本木１丁目６番１号泉ガーデンタワー,,13,103,1060032,,,2021-09-09,清算の結了等,,,2019-04-10,1,,,,,オオサカインベストメンツワン,0
31,1010602026993,登記記録の閉鎖等,0,2021-09-21,2021-09-06,有限会社天野刺繍,,有限会社,東京都,江東区,白河１丁目７番１３－８０３号,,13,108,1350021,,,2021-09-06,清算の結了等,,,2015-10-05,1,,,,,アマノシシュウ,0
52,1011103009348,登記記録の閉鎖等,0,2021-09-21,2021-09-13,ＬＡＧＩ合同会社,,合同会社,東京都,新宿区,西新宿１丁目２６－２新宿野村ビル３２階,,13,104,1600023,,,2021-09-13,清算の結了等,,,2019-12-25,1,,,,,ラギ,0
57,1011602004320,登記記録の閉鎖等,0,2021-09-21,2021-09-16,有限会社坂本和服裁縫所,,有限会社,東京都,練馬区,春日町２丁目２８番２５号,,13,120,1790074,,,2021-09-16,清算の結了等,,,2015-10-05,1,,,,,サカモトワフクサイホウショ,0
81,1030001018095,登記記録の閉鎖等,0,2021-09-21,2021-09-08,株式会社ナガステック,,株式会社,埼玉県,さいたま市岩槻区,上野４丁目６番１７号,,11,110,3390073,,,2021-09-08,清算の結了等,,,2015-10-05,1,,,,,ナガステック,0
92,1030002092362,登記記録の閉鎖等,0,2021-09-21,2021-09-07,高山商事有限会社,,有限会社,埼玉県,坂戸市,本町３番２６号,,11,239,3500226,,,2021-09-07,清算の結了等,,,2015-10-05,1,,,,,コウヤマショウジ,0
117,1060003003084,登記記録の閉鎖等,0,2021-09-21,2021-09-14,合同会社ＭＵＧＩ,,合同会社,栃木県,宇都宮市,江曽島町１４５３番地１,,09,201,3210102,,,2021-09-14,清算の結了等,,,2019-03-26,1,,,,,ムギ,0
134,1110002029942,登記記録の閉鎖等,0,2021-09-21,2021-09-03,有限会社エイケン堂薬局,,有限会社,新潟県,長岡市,曙３丁目４番地２０,00071056,15,202,9400832,,,2021-09-03,清算の結了等,,,2015-10-05,1,,,,,エイケンドウヤッキョク,0
140,1120002051012,登記記録の閉鎖等,0,2021-09-21,2021-09-17,有限会社ヴォイステック,,有限会社,大阪府,吹田市,片山町１丁目１番地２９０４号,,27,205,5640082,,,2021-09-17,清算の結了等,,,2015-10-05,1,,,,,ヴォイステック,0
147,1120005015617,登記記録の閉鎖等,0,2021-09-21,2021-09-16,ＮＰＯ法人はるかぜ,,その他の設立登記法人,大阪府,大阪市平野区,喜連東５丁目１４番２－４０１号,,27,126,5470021,,,2021-09-16,清算の結了等,,,2015-10-05,1,,,,,ハルカゼ,0
149,1120101049535,登記記録の閉鎖等,0,2021-09-21,2021-09-10,株式会社ウエヨシ,,株式会社,大阪府,岸和田市,地蔵浜町１１番地,,27,202,5960015,,,2021-09-10,清算の結了等,,,2015-10-05,1,,,,,ウエヨシ,0
171,1140001104958,登記記録の閉鎖等,0,2021-09-21,2021-09-15,株式会社レリックサービス,,株式会社,兵庫県,神戸市西区,桜が丘西町１丁目２番１７号,,28,111,6512227,,,2021-09-15,清算の結了等,,,2017-02-03,1,,,,,レリックサービス,0
176,1140005012042,登記記録の閉鎖等,0,2021-09-21,2021-08-18,隼人生産森林組合,,その他の設立登記法人,兵庫県,美方郡香美町,香住区隼人２１５番地,,28,585,6696424,,,2021-08-18,清算の結了等,,,2015-10-05,1,,,,,ハヤト,0
188,1180002006051,登記記録の閉鎖等,0,2021-09-21,2021-09-15,有限会社ひかり荘,,有限会社,愛知県,名古屋市千種区,東山元町４丁目２３番地５,,23,101,4640804,,,2021-09-15,清算の結了等,,,2015-10-05,1,,,,,ヒカリソウ,0
199,1180302014753,登記記録の閉鎖等,0,2021-09-21,2021-09-16,有限会社イズミフレーム,,有限会社,愛知県,豊川市,中条町１丁目８番地,,23,207,4420818,,,2021-09-16,清算の結了等,,,2015-10-05,1,,,,,イズミフレーム,0
202,1200001033176,登記記録の閉鎖等,0,2021-09-21,2021-09-16,株式会社大道,,株式会社,岐阜県,本巣郡北方町,小柳１丁目１６番地,,21,421,5010434,,,2021-09-16,清算の結了等,,,2016-08-16,1,,,,,オオミチ,0
207,1200002002584,登記記録の閉鎖等,0,2021-09-21,2021-09-17,有限会社ソーイングピアス,,有限会社,岐阜県,岐阜市,西荘１丁目９番７号,,21,201,5008362,,,2021-09-17,清算の結了等,,,2015-10-05,1,,,,,ソーイングピアス,0
217,1240001039178,登記記録の閉鎖等,0,2021-09-21,2021-09-15,株式会社ウメオ,,株式会社,広島県,尾道市,因島三庄町２２２０番地１９,,34,205,7222322,,,2021-09-15,清算の結了等,,,2015-10-05,1,,,,,ウメオ,0
227,1260002002125,登記記録の閉鎖等,0,2021-09-21,2021-09-16,有限会社岡個商事,,有限会社,岡山県,岡山市南区,浜野４丁目２番３８号,,33,104,7000845,,,2021-09-16,清算の結了等,,,2015-10-05,1,,,,,オカコショウジ,0
229,1290001006149,登記記録の閉鎖等,0,2021-09-21,2021-09-01,株式会社アミー製薬,,株式会社,福岡県,福岡市中央区,大宮２丁目１番１号Ｖビル５０３,,40,133,8100013,,,2021-09-01,合併による解散等,5290001006351,令和３年９月１日福岡市中央区大宮二丁目１番１号株式会社ヴェントゥーノ（5290001006351）に合併し解散,2015-10-05,1,,,,,,0
251,1350005002567,登記記録の閉鎖等,0,2021-09-21,2021-08-04,天理教美都郷分教会,,その他の設立登記法人,宮崎県,日向市,東郷町山陰乙２１３１番地,,45,206,8830101,,,2021-08-04,合併による解散等,3140005009490,令和３年７月２９日兵庫県加古郡稲美町蛸草１１１４番地の１天理教加古大教会（3140005009490）に合併し解散,2015-10-05,1,,,,,テンリキョウミツゴウブンキョウカイ,0
307,2010401064442,登記記録の閉鎖等,0,2021-09-21,2021-09-10,オリカジャパン株式会社,,株式会社,東京都,港区,虎ノ門３丁目７番１１号神谷町アネックス２号館７階,,13,103,1050001,,,2021-09-10,清算の結了等,,,2015-10-05,1,,,,,オリカジャパン,0
312,2010401140499,登記記録の閉鎖等,0,2021-09-21,2021-09-10,クリプトベンチャー株式会社,,株式会社,東京都,港区,虎ノ門４丁目３番１号城山トラストタワー２７階,,13,103,1050001,,,2021-09-10,清算の結了等,,,2018-08-30,1,,,,,クリプトベンチャー,0
320,2010501004595,登記記録の閉鎖等,0,2021-09-21,2021-09-13,株式会社坂井屋商店,,株式会社,東京都,台東区,三筋１丁目１番１１号,,13,106,1110055,,,2021-09-13,清算の結了等,,,2015-10-05,1,,,,,サカイヤショウテン,0
346,2011702017519,登記記録の閉鎖等,0,2021-09-21,2021-09-13,有限会社三美,,有限会社,東京都,江戸川区,西小岩１丁目１７番１２号,,13,123,1330057,,,2021-09-13,清算の結了等,,,2015-10-05,1,,,,,サンビ,0
357,2013302017799,登記記録の閉鎖等,0,2021-09-21,2021-09-13,有限会社テクノサービス,,有限会社,東京都,豊島区,南池袋１丁目１番９号,,13,116,1710022,,,2021-09-13,清算の結了等,,,2015-10-05,1,,,,,テクノサービス,0
368,2020002001686,登記記録の閉鎖等,0,2021-09-21,2021-09-13,有限会社黒葛原設備,00010116,有限会社,神奈川県,横浜市瀬谷区,上瀬谷町１２番地５５,,14,114,2460006,,,2021-09-13,清算の結了等,,,2015-10-05,1,,,,,ツヅラハラセツビ,0
375,2020005010750,登記記録の閉鎖等,0,2021-09-21,2021-09-14,特定非営利活動法人Ｉｎｓｔｉｔｕｔｅ　ｆｏｒ　Ｉｎｔｅｇｒａｔｅｄ　Ｍｅｔｈｏｄｓ　ｏｆ　Ａｕｄｉｏ－ｖｅｒｂａｌ　Ｉｎｔｅｒｃｏｍｍｕｎｉｃａｔｉｏｎｓ,,その他の設立登記法人,神奈川県,横浜市神奈川区,松本町２丁目１３番地６ＤＥＡＲ横浜反町６０１,,14,102,2210841,,,2021-09-14,清算の結了等,,,2015-10-05,1,,,,,インスティテュートフォーインテグレイティッドメソッヅオブオーディオバーバルインターコミュニケーションズ,0
387,2030001104695,登記記録の閉鎖等,0,2021-09-21,2021-09-08,株式会社サンプラス,,株式会社,埼玉県,越谷市,蒲生１丁目５番１号,,11,222,3430838,,,2021-09-08,合併による解散等,1030001063802,令和３年９月１日埼玉県越谷市蒲生一丁目５番１号株式会社神谷燃料（1030001063802）に合併し解散,2015-10-05,1,,,,,サンプラス,0
391,2030002049972,登記記録の閉鎖等,0,2021-09-21,2021-09-08,有限会社三郷機械,,有限会社,埼玉県,三郷市,彦成３丁目８番１３－２０３号,,11,237,3410003,,,2021-09-08,清算の結了等,,,2015-10-05,1,,,,,,0
416,2080102002546,登記記録の閉鎖等,0,2021-09-21,2021-09-13,有限会社藤和製作所,,有限会社,静岡県,沼津市,西沢田３０６番地の４,,22,203,4100007,,,2021-09-13,清算の結了等,,,2015-10-05,1,,,,,トウワセイサクショ,0
421,2100001029753,登記記録の閉鎖等,0,2021-09-21,2021-09-16,株式会社ＣＳ・１,,株式会社,長野県,小諸市,大字和田７９２番地３,,20,208,3840093,,,2021-09-16,清算の結了等,,,2016-11-08,1,,,,,シーエスワン,0
430,2120001147743,登記記録の閉鎖等,0,2021-09-21,2021-09-10,倉津工業株式会社,,株式会社,大阪府,寝屋川市,高柳６丁目６番７号,,27,215,5720051,,,2021-09-10,清算の結了等,,,2015-10-05,1,,,,,クラツコウギョウ,0
431,2120001182138,登記記録の閉鎖等,0,2021-09-21,2021-09-10,株式会社ＪＩＮＳＰＯＲＴＳ,,株式会社,大阪府,大阪市浪速区,塩草３丁目３－２２,,27,111,5560024,,,2021-09-10,清算の結了等,,,2015-10-05,1,,,,,ジンスポーツ,0
441,2120101050566,登記記録の閉鎖等,0,2021-09-21,2021-09-15,ＪＡＰＡＮ総合ファーム株式会社,,株式会社,大阪府,阪南市,鳥取中３８２番地の１,,27,232,5990211,,,2021-09-15,清算の結了等,,,2015-10-05,1,,,,,ジャパンソウゴウファーム,0
442,2120101061976,登記記録の閉鎖等,0,2021-09-21,2021-09-16,ジャパンヘルスビューティー株式会社,,株式会社,大阪府,堺市南区,若松台３丁２２番１６号,,27,145,5900116,,,2021-09-16,清算の結了等,,,2020-07-21,1,,,,,ジャパンヘルスビューティー,0
456,2130005009245,登記記録の閉鎖等,0,2021-09-21,2021-09-15,特定非営利活動法人八幡情報社会生活支援センター,,その他の設立登記法人,京都府,八幡市,橋本石ケ谷４９番地の２８,,26,210,6148326,,,2021-09-15,清算の結了等,,,2015-10-05,1,,,,,ヤワタジョウホウシャカイセイカツシエンセンター,0
479,2200001023011,登記記録の閉鎖等,0,2021-09-21,2021-09-14,株式会社ＣＦノベルストーン,,株式会社,岐阜県,多治見市,生田町４丁目４６番地,,21,204,5070807,,,2021-09-14,合併による解散等,3020001031989,令和３年９月１日横浜市戸塚区吉田町１３３番地２株式会社セラミックワン（3020001031989）に合併し解散,2015-10-05,1,,,,,シーエフノベルストーン,0
481,2200002008580,登記記録の閉鎖等,0,2021-09-21,2021-09-17,株式会社セラーテクノロジー,,株式会社,岐阜県,岐阜市,諏訪山１丁目１１番５号,,21,201,5013142,,,2021-09-17,清算の結了等,,,2015-10-05,1,,,,,セラーテクノロジー,0
517,2320005009894,登記記録の閉鎖等,0,2021-09-21,2021-09-16,一般社団法人おおいた高齢者身元保証センター,,その他の設立登記法人,大分県,大分市,大字上宗方３９０番地の１あいあるＰＬＡＣＥ１０２号,,44,201,8701152,,,2021-09-16,清算の結了等,,,2021-05-07,1,,,,,オオイタコウレイシャミモトホショウセンター,0
522,2340001004542,登記記録の閉鎖等,0,2021-09-21,2021-09-13,株式会社吉見工務店,,株式会社,鹿児島県,鹿児島市,荒田１丁目５０番１８号,,46,201,8900054,,,2021-09-13,清算の結了等,,,2015-10-05,1,,,,,ヨシミコウムテン,0
539,2430001020745,登記記録の閉鎖等,0,2021-09-21,2021-09-07,株式会社第一北日本総建,,株式会社,北海道,札幌市東区,北三十六条東２３丁目８番６号,,01,103,0070836,,,2021-09-07,清算の結了等,,,2015-10-05,1,,,,,ダイイチキタニホンソウケン,0
567,3010401109048,登記記録の閉鎖等,0,2021-09-21,2021-09-10,ＡＳＥＬＴＡ　Ｎａｎｏｇｒａｐｈｉｃｓ株式会社,,株式会社,東京都,港区,赤坂１丁目１２番３２号アーク森ビル,,13,103,1070052,,,2021-09-10,清算の結了等,,,2015-10-05,1,,,,,アセルタナノグラフィックス,0
569,3010401133626,登記記録の閉鎖等,0,2021-09-21,2021-09-10,株式会社ユナイズ,,株式会社,東京都,港区,南青山２丁目２２番１４号フォンテ青山１００３号,,13,103,1070062,,,2021-09-10,清算の結了等,,,2017-09-11,1,,,,,ユナイズ,0
572,3010402017159,登記記録の閉鎖等,0,2021-09-21,2021-08-31,有限会社サカ・マネジメントオフィス,,有限会社,東京都,港区,麻布台１丁目１１番１０号,,13,103,1060041,,,2021-08-31,清算の結了等,,,2015-10-05,1,,,,,サカマネジメントオフィス,0
582,3010901023401,登記記録の閉鎖等,0,2021-09-21,2021-09-14,株式会社スタビリティー,,株式会社,東京都,世田谷区,船橋３丁目４番１５号,,13,112,1560055,,,2021-09-14,清算の結了等,,,2015-10-05,1,,,,,スタビリティー,0
618,3020002006395,登記記録の閉鎖等,0,2021-09-21,2021-09-14,有限会社大天海,,有限会社,神奈川県,横浜市都筑区,東山田２丁目２８番１号,,14,118,2240023,,,2021-09-14,清算の結了等,,,2015-10-05,1,,,,,ダイテンシン,0
619,3020002059559,登記記録の閉鎖等,0,2021-09-21,2021-09-14,ホン・プランニング有限会社,,有限会社,神奈川県,横浜市神奈川区,六角橋１丁目４番３号,,14,102,2210802,,,2021-09-14,清算の結了等,,,2015-10-05,1,,,,,ホンプランニング,0
626,3020005005758,登記記録の閉鎖等,0,2021-09-21,2021-09-14,特定非営利活動法人地球市民ＡＣＴかながわ,,その他の設立登記法人,神奈川県,横浜市中区,本牧原３番１－２０３号,,14,104,2310821,,,2021-09-14,清算の結了等,,,2015-10-05,1,,,,,,0
632,3021002063402,登記記録の閉鎖等,0,2021-09-21,2021-09-15,有限会社小川製作所,,有限会社,神奈川県,横須賀市,大矢部３丁目４番１８号,,14,201,2380024,,,2021-09-15,清算の結了等,,,2015-10-05,1,,,,,オガワセイサクジョ,0
634,3021002073871,登記記録の閉鎖等,0,2021-09-21,2021-09-15,有限会社カトレア宝飾,,有限会社,神奈川県,平塚市,東八幡１丁目１０番２８号,,14,203,2540016,,,2021-09-15,清算の結了等,,,2021-08-12,1,,,,,カトレアホウショク,0
643,3030002048214,登記記録の閉鎖等,0,2021-09-21,2021-09-09,有限会社アドシーエスネットワーク,,有限会社,埼玉県,三郷市,栄１丁目３３０番地５,,11,237,3410043,,,2021-09-09,清算の結了等,,,2015-10-05,1,,,,,アドシーエスネットワーク,0
649,3040002080975,登記記録の閉鎖等,0,2021-09-21,2021-09-13,有限会社鬼島ドライ産業,,有限会社,千葉県,茂原市,高師７６番地,,12,210,2970029,,,2021-09-13,清算の結了等,,,2015-10-05,1,,,,,キジマドライサンギョウ,0
655,3050002043576,登記記録の閉鎖等,0,2021-09-21,2021-09-10,有限会社冨田呉服店,,有限会社,茨城県,筑西市,海老ヶ島１６０４番地,,08,227,3004517,,,2021-09-10,清算の結了等,,,2015-10-05,1,,,,,トミタゴフクテン,0
694,3120103002259,登記記録の閉鎖等,0,2021-09-21,2021-09-16,合同会社シャイン,,合同会社,大阪府,松原市,天美我堂２丁目２０５番地の２９,,27,217,5800026,,,2021-09-16,清算の結了等,,,2015-10-05,1,,,,,シャイン,0
773,3290802016658,登記記録の閉鎖等,0,2021-09-21,2021-09-06,有限会社太平新行,,有限会社,福岡県,遠賀郡岡垣町,東山田１丁目１番１４－２０１号,,40,383,8114220,,,2021-09-06,清算の結了等,,,2015-10-05,1,,,,,タイヘイシンコウ,0
783,3330002030637,登記記録の閉鎖等,0,2021-09-21,2021-09-15,有限会社渡辺商店,,有限会社,熊本県,球磨郡錦町,大字一武１５７４番地の２,,43,501,8680302,,,2021-09-15,清算の結了等,,,2015-10-05,1,,,,,ワタナベショウテン,0
793,3360002012137,登記記録の閉鎖等,0,2021-09-21,2021-09-13,仲元商事有限会社,,有限会社,沖縄県,沖縄市,美里２丁目１６番２４号,,47,211,9042153,,,2021-09-13,清算の結了等,,,2015-10-05,1,,,,,ナカモトシヨウジ,0
806,3380001016450,登記記録の閉鎖等,0,2021-09-21,2021-09-14,株式会社上田本家,,株式会社,福島県,双葉郡浪江町,大字幾世橋字辻前５９番地,00083248,07,547,9791513,,,2021-09-14,清算の結了等,,,2015-10-05,1,,,,,ウエダホンケ,0
819,3430001043638,登記記録の閉鎖等,0,2021-09-21,2021-07-13,株式会社美味往来,,株式会社,北海道,千歳市,美々９８７番地７６,,01,224,0660012,,,2021-07-13,合併による解散等,1430001024268,令和３年７月１日札幌市中央区大通西六丁目１０番地１セントラルリーシングシステム株式会社（1430001024268）に合併し解散,2015-10-05,1,,,,,ビミオウライ,0
823,3430002032895,登記記録の閉鎖等,0,2021-09-21,2021-09-14,有限会社ダイナミック企画,,有限会社,北海道,札幌市手稲区,西宮の沢一条３丁目２番１８号,,01,109,0060001,,,2021-09-14,清算の結了等,,,2015-10-05,1,,,,,ダイナミックキカク,0
825,3450002001072,登記記録の閉鎖等,0,2021-09-21,2021-09-17,有限会社さきがけ興産リース,,有限会社,北海道,旭川市,永山北一条７丁目２６番地の４,,01,204,0798451,,,2021-09-17,清算の結了等,,,2015-10-05,1,,,,,サキガケコウサンリース,0
829,3500002000366,登記記録の閉鎖等,0,2021-09-21,2021-09-17,有限会社吉井プロパン,,有限会社,愛媛県,松山市,土手内１１７番地７,,38,201,7992432,,,2021-09-17,清算の結了等,,,2015-10-05,1,,,,,ヨシイプロパン,0
831,4010001031774,登記記録の閉鎖等,0,2021-09-21,2021-07-09,株式会社ＮＳウェルデックス,,株式会社,東京都,江東区,東陽２丁目４番２号,,13,108,1350016,,,2021-07-09,合併による解散等,9010601041953,令和３年７月１日東京都江東区東陽二丁目４番２号日鉄溶接工業株式会社（9010601041953）に合併し解散,2015-10-05,1,,,,,エヌエスウェルデックス,0
833,4010001054271,登記記録の閉鎖等,0,2021-09-21,2021-09-10,株式会社林ビジネスコーポレーション,,株式会社,東京都,中央区,銀座２丁目８番８号,,13,102,1040061,,,2021-09-10,清算の結了等,,,2015-10-05,1,,,,,ハヤシビジネスコーポレーション,0
841,4010002031864,登記記録の閉鎖等,0,2021-09-21,2021-09-16,有限会社シップス,,有限会社,神奈川県,鎌倉市,山崎１３９０番地,,14,204,2470066,,,2021-09-16,清算の結了等,,,2015-10-05,1,,,,,シップス,0
853,4010401122611,登記記録の閉鎖等,0,2021-09-21,2021-08-26,ＡＰＰＬＥ　ＶＡＣＡＴＩＯＮＳ　ＪＡＰＡＮ株式会社,,株式会社,東京都,新宿区,新宿２丁目１０－６,,13,104,1600022,,,2021-08-26,清算の結了等,,,2016-01-25,1,,,,,アップルバケーションズジャパン,0
854,4010401123493,登記記録の閉鎖等,0,2021-09-21,2021-09-10,ＪＭＡマネージメントセンター株式会社,,株式会社,東京都,港区,三田２丁目７番７号,,13,103,1080073,,,2021-09-10,清算の結了等,,,2016-03-09,1,,,,,ジェイエムエイマネージメントセンター,0
863,4010601007422,登記記録の閉鎖等,0,2021-09-21,2021-09-06,ワイエスケー企画株式会社,,株式会社,東京都,江東区,門前仲町１丁目１８番３号,,13,108,1350048,,,2021-09-06,清算の結了等,,,2015-10-05,1,,,,,ワイエスケーキカク,0
866,4010602019879,登記記録の閉鎖等,0,2021-09-21,2021-09-06,有限会社ミナミ商会,,有限会社,東京都,江東区,門前仲町１丁目６番１４－７０２号,,13,108,1350048,,,2021-09-06,清算の結了等,,,2015-10-05,1,,,,,ミナミショウカイ,0
884,4011101079638,登記記録の閉鎖等,0,2021-09-21,2021-09-10,株式会社アライズ,,株式会社,東京都,新宿区,歌舞伎町２丁目２８番１３号第一和幸ビル地下１階,,13,104,1600021,,,2021-09-10,清算の結了等,,,2017-02-20,1,,,,,アライズ,0
913,4030001064970,登記記録の閉鎖等,0,2021-09-21,2021-09-07,株式会社ライフデザイン,,株式会社,埼玉県,越谷市,蒲生東町６番２８号,,11,222,3430841,,,2021-09-07,清算の結了等,,,2015-10-05,1,,,,,ライフデザイン,0
960,4130003004502,登記記録の閉鎖等,0,2021-09-21,2021-09-07,Ｍ＆Ｓプランニング合同会社,,合同会社,京都府,綴喜郡宇治田原町,緑苑坂１２番地の９,,26,344,6100202,,,2021-09-07,清算の結了等,,,2016-01-14,1,,,,,エムアンドエスプランニング,0
968,4140002031067,登記記録の閉鎖等,0,2021-09-21,2021-09-14,有限会社トモエモーター,,有限会社,兵庫県,三木市,平田１０１番地の６,,28,215,6730405,,,2021-09-14,清算の結了等,,,2015-10-05,1,,,,,トモエモーター,0
972,4150001011250,登記記録の閉鎖等,0,2021-09-21,2021-09-15,奈良明治フローズン株式会社,,株式会社,奈良県,磯城郡田原本町,大字今里３２番地の５,,29,363,6360224,,,2021-09-15,清算の結了等,,,2015-10-05,1,,,,,ナラメイジフローズン,0
981,4180001098302,登記記録の閉鎖等,0,2021-09-21,2021-09-14,タカラ工業株式会社,,株式会社,愛知県,あま市,七宝町遠島泉水８４８番地２,,23,237,4970002,,,2021-09-14,清算の結了等,,,2015-10-05,1,,,,,タカラコウギョウ,0
999,4200002028065,登記記録の閉鎖等,0,2021-09-21,2021-09-16,有限会社鷲見建築,,有限会社,岐阜県,郡上市,八幡町旭字尾山１２３２番地の１,,21,219,5014204,,,2021-09-16,清算の結了等,,,2015-10-05,1,,,,,スミケンチク,0
1001,4210003000930,登記記録の閉鎖等,0,2021-09-21,2021-09-14,合同会社つづき,,合同会社,福井県,福井市,浜住町第１７号２３番地,,18,201,9103377,,,2021-09-14,清算の結了等,,,2016-06-08,1,,,,,ツヅキ,0
1008,4240001025745,登記記録の閉鎖等,0,2021-09-21,2021-09-15,呉整備株式会社,,株式会社,広島県,呉市,三条２丁目１４番９－２０３号,,34,202,7370821,,,2021-09-15,清算の結了等,,,2015-10-05,1,,,,,クレセイビ,0
1023,4290802012326,登記記録の閉鎖等,0,2021-09-21,2021-09-07,浅井砂利有限会社,,有限会社,福岡県,北九州市八幡西区,上上津役４丁目２１番１５号,,40,109,8070072,,,2021-09-07,清算の結了等,,,2015-10-05,1,,,,,アサイジャリ,0
1025,4300002007959,登記記録の閉鎖等,0,2021-09-21,2021-09-15,有限会社中山食品,,有限会社,佐賀県,伊万里市,二里町大里乙２０１番地１,,41,205,8480035,,,2021-09-15,清算の結了等,,,2015-10-05,1,,,,,ナカヤマショクヒン,0
1030,4330001002231,登記記録の閉鎖等,0,2021-09-21,2021-09-10,茂村住宅株式会社,,株式会社,熊本県,熊本市中央区,桜町１番２８－７０４号,,43,101,8600805,,,2021-09-10,清算の結了等,,,2015-10-05,1,,,,,シゲムラジュウタク,0
1036,4330002026213,登記記録の閉鎖等,0,2021-09-21,2021-09-16,有限会社長谷川商会,,有限会社,熊本県,八代市,平山新町４９７７番地,,43,202,8660074,,,2021-09-16,清算の結了等,,,2015-10-05,1,,,,,ハセガワショウカイ,0
1053,4400001000038,登記記録の閉鎖等,0,2021-09-21,2021-09-13,青山交通株式会社,,株式会社,岩手県,盛岡市,三ツ割５丁目１７番１０号,,03,201,0200011,,,2021-09-13,清算の結了等,,,2015-10-05,1,,,,,アオヤマコウツウ,0
1056,4410002005885,登記記録の閉鎖等,0,2021-09-21,2021-09-17,有限会社松本建設,,有限会社,秋田県,潟上市,天王字長沼１４４番地６０,,05,211,0100101,,,2021-09-17,清算の結了等,,,2015-10-05,1,,,,,マツモトケンセツ,0
1066,4490002009284,登記記録の閉鎖等,0,2021-09-21,2021-09-16,有限会社田中工務店,,有限会社,高知県,幡多郡大月町,大字平山３７５番地４７,,39,424,7880341,,,2021-09-16,清算の結了等,,,2015-10-05,1,,,,,タナカコウムテン,0
1070,4500002024199,登記記録の閉鎖等,0,2021-09-21,2021-09-16,有限会社ケア・サポート太陽,,有限会社,愛媛県,南宇和郡愛南町,御荘平城４５７８番地,,38,506,7984110,,,2021-09-16,清算の結了等,,,2015-10-05,1,,,,,ケアサポートタイヨウ,0
1084,5010002010537,登記記録の閉鎖等,0,2021-09-21,2021-09-16,有限会社松林舎,,有限会社,東京都,千代田区,神田淡路町２丁目４番地,,13,101,1010063,,,2021-09-16,清算の結了等,,,2015-10-05,1,,,,,ショウリンシャ,0
1090,5010401038781,登記記録の閉鎖等,0,2021-09-21,2021-09-10,株式会社弘道館,,株式会社,東京都,港区,南青山４丁目２０番３号,,13,103,1070062,,,2021-09-10,清算の結了等,,,2015-10-05,1,,,,,コウドウカン,0
1097,5010403025638,登記記録の閉鎖等,0,2021-09-21,2021-09-15,合同会社ＹＣＨ８,,合同会社,東京都,港区,南青山２丁目２番１５－８２５号,,13,103,1070062,,,2021-09-15,合併による解散等,1010401127984,令和３年９月１５日東京都港区南青山二丁目２番１５－８２５号株式会社遊友（1010401127984）に合併し解散,2021-06-30,1,,,,,ワイシーエイチエイト,0
1098,5010501014294,登記記録の閉鎖等,0,2021-09-21,2021-09-13,吉田商事株式会社,,株式会社,東京都,台東区,台東３丁目３０番１２号,,13,106,1100016,,,2021-09-13,清算の結了等,,,2015-10-05,1,,,,,ヨシダショウジ,0
1129,5011501003659,登記記録の閉鎖等,0,2021-09-21,2021-09-15,株式会社日産フアマシー,,株式会社,東京都,北区,豊島２丁目５番１１号,,13,117,1140003,,,2021-09-15,清算の結了等,,,2015-10-05,1,,,,,ニッサンフアマシー,0
1141,5013301015339,登記記録の閉鎖等,0,2021-09-21,2021-09-13,株式会社ジョブネット,,株式会社,東京都,豊島区,雑司が谷３丁目３番２５の２１２号,,13,116,1710032,,,2021-09-13,清算の結了等,,,2015-10-05,1,,,,,ジョブネット,0
1146,5020001002542,登記記録の閉鎖等,0,2021-09-21,2021-09-14,豊電気工事株式会社,,株式会社,神奈川県,横浜市緑区,霧が丘４丁目９番地１,,14,113,2260016,,,2021-09-14,清算の結了等,,,2015-10-05,1,,,,,ユタカデンキコウジ,0
1150,5020001091197,登記記録の閉鎖等,0,2021-09-21,2021-09-13,株式会社ＴＳＴ,,株式会社,神奈川県,横浜市磯子区,森６丁目２３番６号,,14,107,2350023,,,2021-09-13,清算の結了等,,,2015-10-05,1,,,,,ティエスティ,0
1170,5030001062296,登記記録の閉鎖等,0,2021-09-21,2021-09-08,松山振興株式会社,,株式会社,埼玉県,さいたま市南区,鹿手袋２丁目１５番１号,,11,108,3360031,,,2021-09-08,清算の結了等,,,2015-10-05,1,,,,,,0
1186,5040002079520,登記記録の閉鎖等,0,2021-09-21,2021-09-13,有限会社山武観光バス,,有限会社,千葉県,山武市,蓮沼ハ５５４７番１１,,12,237,2891806,,,2021-09-13,清算の結了等,,,2015-10-05,1,,,,,,0
1200,5080001013220,登記記録の閉鎖等,0,2021-09-21,2021-09-16,中野製茶株式会社,,株式会社,静岡県,島田市,旭１丁目１４番１８号,,22,209,4270018,,,2021-09-16,清算の結了等,,,2015-10-05,1,,,,,ナカノセイチャ,0
1213,5110001002013,登記記録の閉鎖等,0,2021-09-21,2021-09-10,株式会社後藤不動産,,株式会社,新潟県,新潟市中央区,万代６丁目１番３０号,,15,103,9500088,,,2021-09-10,清算の結了等,,,2017-02-03,1,,,,,ゴトウフドウサン,0
1214,5110001023174,登記記録の閉鎖等,0,2021-09-21,2021-09-15,株式会社長世,,株式会社,新潟県,長岡市,藤沢１丁目９番１４号,,15,202,9402011,,,2021-09-15,清算の結了等,,,2015-10-05,1,,,,,ナガセ,0
1235,5120102025110,登記記録の閉鎖等,0,2021-09-21,2021-09-15,有限会社片桐プレス,,有限会社,大阪府,和泉市,芦部町４５１番地,00032988,27,219,5940053,,,2021-09-15,清算の結了等,,,2015-10-05,1,,,,,カタギリプレス,0
1251,5140002034523,登記記録の閉鎖等,0,2021-09-21,2021-09-07,有限会社シャトー,,有限会社,兵庫県,丹波市,柏原町上小倉３５６番地,,28,223,6693304,,,2021-09-07,清算の結了等,,,2015-10-05,1,,,,,シャトー,0
1276,5200001037867,登記記録の閉鎖等,0,2021-09-21,2021-09-16,株式会社ウエストンケアサービス,,株式会社,岐阜県,岐阜市,柳津町高桑１丁目４８番地,,21,201,5016122,,,2021-09-16,清算の結了等,,,2020-10-01,1,,,,,ウエストンケアサービス,0
1298,5280001000578,登記記録の閉鎖等,0,2021-09-21,2021-09-16,株式会社八興電機,,株式会社,島根県,松江市,古志原３丁目９番１号,,32,201,6900012,,,2021-09-16,清算の結了等,,,2015-10-05,1,,,,,ハッコウデンキ,0
1303,5300001008619,登記記録の閉鎖等,0,2021-09-21,2021-09-15,株式会社ＢＬＡＮＫＥＹ,,株式会社,佐賀県,鳥栖市,原古賀町７５２番地１２,,41,203,8410071,,,2021-09-15,清算の結了等,,,2015-10-05,1,,,,,ブランキー,0
1304,5310002008600,登記記録の閉鎖等,0,2021-09-21,2021-09-10,有限会社ＡＮ,,有限会社,長崎県,長崎市,ダイヤランド１丁目９番１８号,,42,201,8500963,,,2021-09-10,清算の結了等,,,2015-10-05,1,,,,,エーエヌ,0
1306,5330001026543,登記記録の閉鎖等,0,2021-09-21,2021-09-16,株式会社フォース,,株式会社,熊本県,合志市,須屋２８４８番地６,,43,216,8611102,,,2021-09-16,清算の結了等,,,2019-07-05,1,,,,,フォース,0
1309,5340002012789,登記記録の閉鎖等,0,2021-09-21,2021-09-17,有限会社マリーン技建,,有限会社,鹿児島県,日置市,吹上町中之里１４９９番地１,,46,216,8993302,,,2021-09-17,清算の結了等,,,2015-10-05,1,,,,,マリーンギケン,0
1320,5380005012048,登記記録の閉鎖等,0,2021-09-21,2021-09-13,特定非営利活動法人福島ＵＳＯくらぶ,,その他の設立登記法人,福島県,会津若松市,一箕町大字亀賀字藤原４１７番地の３,,07,202,9650005,,,2021-09-13,清算の結了等,,,2018-06-11,1,,,,,フクシマウソクラブ,0
1325,5400005001015,登記記録の閉鎖等,0,2021-09-21,2021-09-17,特定非営利活動法人ａｃｔ　ｌａｂ,,その他の設立登記法人,岩手県,盛岡市,手代森１４地割１６番地２４１,,03,201,0200401,,,2021-09-17,清算の結了等,,,2015-10-05,1,,,,,アクトラボ,0
1328,5400601000907,登記記録の閉鎖等,0,2021-09-21,2021-09-16,株式会社光栄産業,,株式会社,岩手県,奥州市,胆沢南都田字田中２４番地１,,03,215,0230401,,,2021-09-16,清算の結了等,,,2015-10-05,1,,,,,コウエイサンギョウ,0
1334,5450001000701,登記記録の閉鎖等,0,2021-09-21,2021-09-17,小椋興業株式会社,,株式会社,北海道,上川郡上川町,字共進１５６番地の２１,,01,457,0781732,,,2021-09-17,清算の結了等,,,2015-10-05,1,,,,,オグラコウギョウ,0
1344,6010001131829,登記記録の閉鎖等,0,2021-09-21,2021-09-15,株式会社水野美隆写真事務所,,株式会社,東京都,中央区,勝どき２丁目８番１２－１２３６号,,13,102,1040054,,,2021-09-15,清算の結了等,,,2015-10-05,1,,,,,ミズノヨシタカシャシンジムショ,0
1349,6010003027249,登記記録の閉鎖等,0,2021-09-21,2021-09-17,合同会社ＡＬＥＲＯ３４,,合同会社,東京都,千代田区,神田美土代町９番１号,,13,101,1010053,,,2021-09-17,清算の結了等,,,2018-03-30,1,,,,,アレーロサーティーフォー,0
1350,6010003030351,登記記録の閉鎖等,0,2021-09-21,2021-09-13,合同会社Ｈｅｐｔａｇｏｎ,,合同会社,東京都,千代田区,飯田橋４丁目７番１号結和税理士法人内,,13,101,1020072,,,2021-09-13,清算の結了等,,,2019-08-02,1,,,,,ヘプタゴン,0
1366,6010502020472,登記記録の閉鎖等,0,2021-09-21,2021-09-10,有限会社斎藤鮮魚,,有限会社,東京都,台東区,下谷２丁目９番７号,,13,106,1100004,,,2021-09-10,清算の結了等,,,2015-10-05,1,,,,,サイトウセンギョ,0
1367,6010601025959,登記記録の閉鎖等,0,2021-09-21,2021-09-03,株式会社丸井製作所,,株式会社,東京都,墨田区,押上２丁目３８番３号,,13,107,1310045,,,2021-09-03,清算の結了等,,,2015-10-05,1,,,,,,0
1393,6011101089296,登記記録の閉鎖等,0,2021-09-21,2021-09-10,ＰＯＷＥＲＳ　ＢＥＡＵＴＹ株式会社,,株式会社,東京都,新宿区,西新宿１丁目２６番２号新宿野村ビル３２Ｆ,,13,104,1600023,,,2021-09-10,清算の結了等,,,2019-10-21,1,,,,,パワーズビューティ,0
1423,6020003005229,登記記録の閉鎖等,0,2021-09-21,2021-09-14,合同会社Ｇ．Ｈ．ＣＡＲＲＩＥＲＥ＆Ｃｏ．,,合同会社,神奈川県,横浜市鶴見区,馬場３丁目１番２８号,,14,101,2300076,,,2021-09-14,清算の結了等,,,2015-10-05,1,,,,,ジーエイチカリエールカンパニー,0
1427,6021003003346,登記記録の閉鎖等,0,2021-09-21,2021-09-15,合名会社梅鉢屋,,合名会社,神奈川県,横須賀市,安浦町３丁目２番地,,14,201,2380012,,,2021-09-15,清算の結了等,,,2015-10-05,1,,,,,ウメバチヤ,0
1451,6070001024481,登記記録の閉鎖等,0,2021-09-21,2021-09-14,株式会社エムケイシステム,,株式会社,群馬県,伊勢崎市,富塚町２２１番地１２Ｗー１Ａ,,10,204,3720833,,,2021-09-14,清算の結了等,,,2015-10-05,1,,,,,エムケイシステム,0
1453,6070002023425,登記記録の閉鎖等,0,2021-09-21,2021-09-14,有限会社小島平吉商店,,有限会社,群馬県,桐生市,宮前町１丁目６番１４号,,10,203,3760046,,,2021-09-14,清算の結了等,,,2015-10-05,1,,,,,コジマヘイキチショウテン,0
1487,6122001018144,登記記録の閉鎖等,0,2021-09-21,2021-09-16,株式会社神田屋,,株式会社,大阪府,八尾市,恩智南町４丁目１０３番地,,27,212,5810884,,,2021-09-16,清算の結了等,,,2015-10-05,1,,,,,カンダヤ,0
1490,6140001014244,登記記録の閉鎖等,0,2021-09-21,2021-09-15,株式会社丸南青果,,株式会社,兵庫県,神戸市兵庫区,中之島１丁目１番１号,,28,105,6520844,,,2021-09-15,清算の結了等,,,2015-10-05,1,,,,,,0
1492,6140001032675,登記記録の閉鎖等,0,2021-09-21,2021-09-14,株式会社ナレッジネットワーク,,株式会社,兵庫県,芦屋市,潮見町２７－２,,28,206,6590043,,,2021-09-14,清算の結了等,,,2015-10-05,1,,,,,ナレッジネットワーク,0
1495,6140003012873,登記記録の閉鎖等,0,2021-09-21,2021-09-15,合同会社タイヤセンター兵庫,,合同会社,兵庫県,美方郡香美町,小代区大谷５２５番地,,28,585,6671503,,,2021-09-15,清算の結了等,,,2018-03-26,1,,,,,タイヤセンターヒョウゴ,0
1505,6170001001041,登記記録の閉鎖等,0,2021-09-21,2021-09-17,楠本株式会社,,株式会社,和歌山県,和歌山市,栗栖１０番地の５,,30,201,6408305,,,2021-09-17,清算の結了等,,,2015-10-05,1,,,,,クスモト,0
1509,6180001135012,登記記録の閉鎖等,0,2021-09-21,2021-09-13,株式会社アイティーオー,,株式会社,愛知県,常滑市,森西町１丁目２８番地メゾネットパーク森西Ａ１０５号,,23,216,4790845,,,2021-09-13,清算の結了等,,,2019-01-11,1,,,,,アイティーオー,0
1528,6240001048372,登記記録の閉鎖等,0,2021-09-21,2021-09-16,株式会社ププレエイド,,株式会社,広島県,福山市,西新涯町２丁目１０番１１号,,34,207,7210958,,,2021-09-16,清算の結了等,,,2015-10-27,1,,,,,ププレエイド,0
1537,6260001007442,登記記録の閉鎖等,0,2021-09-21,2021-09-16,池上自動車工業株式会社,,株式会社,岡山県,岡山市北区,御津宇垣１４４０番地,,33,101,7092121,,,2021-09-16,清算の結了等,,,2015-10-05,1,,,,,イケガミジドウシャコウギョウ,0
1551,6300002001852,登記記録の閉鎖等,0,2021-09-21,2021-09-15,有限会社マルイ,,有限会社,佐賀県,佐賀市,川副町大字西古賀９５５番地１,,41,201,8402204,,,2021-09-15,清算の結了等,,,2015-10-05,1,,,,,マルイ,0
1556,6320001011487,登記記録の閉鎖等,0,2021-09-21,2021-09-16,株式会社アルカディア,,株式会社,大分県,別府市,野口元町３番３５号,,44,202,8740933,,,2021-09-16,清算の結了等,,,2015-10-05,1,,,,,アルカディア,0
1577,6400502001417,登記記録の閉鎖等,0,2021-09-21,2021-09-10,有限会社みやたり農園,,有限会社,岩手県,一関市,藤沢町砂子田字高田１０１番地,,03,209,0293403,,,2021-09-10,清算の結了等,,,2015-10-05,1,,,,,ミヤタリノウエン,0
1583,6430001020634,登記記録の閉鎖等,0,2021-09-21,2021-09-14,株式会社中央トレース,,株式会社,北海道,札幌市南区,南三十条西８丁目２番１０号,,01,106,0050030,,,2021-09-14,清算の結了等,,,2015-10-05,1,,,,,チュウオウトレース,0
1600,7010001151207,登記記録の閉鎖等,0,2021-09-21,2021-09-13,リーディングスタイル株式会社,,株式会社,東京都,文京区,小石川２丁目２２番２号,,13,105,1120002,,,2021-09-13,清算の結了等,,,2015-10-05,1,,,,,リーディングスタイル,0
1616,7010002018116,登記記録の閉鎖等,0,2021-09-21,2021-09-13,有限会社小畑電機商会,,有限会社,東京都,中央区,京橋３丁目９番９号,,13,102,1040031,,,2021-09-13,清算の結了等,,,2015-10-05,1,,,,,オバタデンキショウカイ,0
1619,7010005032948,登記記録の閉鎖等,0,2021-09-21,2021-09-15,美作ソーラー一般社団法人,,その他の設立登記法人,東京都,千代田区,丸の内３丁目１番１号東京共同会計事務所内,,13,101,1000005,,,2021-09-15,清算の結了等,,,2021-02-16,1,,,,,ミマサカソーラー,0
1620,7010101001393,登記記録の閉鎖等,0,2021-09-21,2021-09-16,株式会社サンクス・ワダ,,株式会社,東京都,八王子市,暁町１丁目１５番１３号,,13,201,1920043,,,2021-09-16,清算の結了等,,,2015-10-05,1,,,,,サンクスワダ,0
1622,7010401131700,登記記録の閉鎖等,0,2021-09-21,2021-09-10,株式会社プラザホーム・マネジメント,,株式会社,東京都,港区,高輪３丁目２３番１４号,,13,103,1080074,,,2021-09-10,清算の結了等,,,2017-05-29,1,,,,,プラザホームマネジメント,0
1640,7011001090972,登記記録の閉鎖等,0,2021-09-21,2021-09-09,株式会社Ａｌｃｏｃｋ,,株式会社,東京都,中野区,弥生町３丁目１８番３号ドエールヒルズ４０２号,,13,114,1640013,,,2021-09-09,清算の結了等,,,2015-10-05,1,,,,,オルコック,0
1661,7011402007286,登記記録の閉鎖等,0,2021-09-21,2021-09-16,有限会社ハヤサカ機工,,有限会社,東京都,板橋区,赤塚６丁目３６番１号,00066218,13,119,1750092,,,2021-09-16,清算の結了等,,,2015-10-05,1,,,,,,0
1664,7011602000925,登記記録の閉鎖等,0,2021-09-21,2021-09-16,有限会社伊藤商店,,有限会社,東京都,練馬区,豊玉上２丁目２５番１２号,,13,120,1760011,,,2021-09-16,清算の結了等,,,2015-10-05,1,,,,,イトウショウテン,0
1675,7020001032208,登記記録の閉鎖等,0,2021-09-21,2021-09-14,電成リエンジ株式会社,,株式会社,神奈川県,横浜市神奈川区,松本町６丁目４３番地３,,14,102,2210841,,,2021-09-14,合併による解散等,4020001023804,令和３年９月１日横浜市神奈川区松本町六丁目４３番地３電成テクノ株式会社（4020001023804）に合併し解散,2015-10-05,1,,,,,デンセイリエンジ,0
1685,7020001111424,登記記録の閉鎖等,0,2021-09-21,2021-09-13,株式会社ＴＭＣ,,株式会社,神奈川県,川崎市川崎区,渡田向町２７番１１号,,14,131,2100841,,,2021-09-13,清算の結了等,,,2015-10-05,1,,,,,ティーエムシー,0
1696,7020003018634,登記記録の閉鎖等,0,2021-09-21,2021-09-14,合同会社Ｃｅｒｔａｉｎｔｙ,,合同会社,神奈川県,横浜市神奈川区,片倉５丁目７番３３－４０４号,,14,102,2210865,,,2021-09-14,清算の結了等,,,2020-10-13,1,,,,,サートゥンティ,0
1712,7040001035373,登記記録の閉鎖等,0,2021-09-21,2021-09-13,コウダイ文具株式会社,,株式会社,千葉県,松戸市,六高台４丁目９２番地,,12,207,2702203,,,2021-09-13,清算の結了等,,,2015-10-05,1,,,,,コウダイブング,0
1713,7040001048350,登記記録の閉鎖等,0,2021-09-21,2021-09-09,株式会社スガハラテック,,株式会社,千葉県,八街市,八街は９番地４,,12,230,2891107,,,2021-09-09,清算の結了等,,,2015-10-05,1,,,,,スガハラテック,0
1717,7040002070915,登記記録の閉鎖等,0,2021-09-21,2021-09-13,有限会社朝日屋商店,,有限会社,千葉県,富津市,千種新田３６０番地の１,,12,226,2930036,,,2021-09-13,清算の結了等,,,2015-10-05,1,,,,,アサヒヤショウテン,0
1737,7080002005677,登記記録の閉鎖等,0,2021-09-21,2021-09-16,有限会社三河屋宗蔵,,有限会社,静岡県,静岡市葵区,水落町１６番１６号,,22,101,4200831,,,2021-09-16,清算の結了等,,,2015-10-05,1,,,,,,0
1753,7120002072985,登記記録の閉鎖等,0,2021-09-21,2021-09-10,有限会社藤田,,有限会社,大阪府,寝屋川市,御幸東町２３番４６号,,27,215,5720055,,,2021-09-10,清算の結了等,,,2015-10-05,1,,,,,,0
1758,7120105004183,登記記録の閉鎖等,0,2021-09-21,2021-09-15,医療法人遠藤医院,,その他の設立登記法人,大阪府,大阪狭山市,金剛１丁目１１番３１号,,27,231,5890006,,,2021-09-15,清算の結了等,,,2015-10-05,1,,,,,エンドウイイン,0
1759,7120105008878,登記記録の閉鎖等,0,2021-09-21,2021-09-16,税理士法人杉本・正月,,その他の設立登記法人,大阪府,堺市中区,深井清水町３２８５番地,,27,142,5998273,,,2021-09-16,清算の結了等,,,2018-06-12,1,,,,,スギモトショウゲツ,0
1797,7220001005028,登記記録の閉鎖等,0,2021-09-21,2021-09-15,新田商事株式会社,,株式会社,石川県,金沢市,武蔵町１６番１２号,,17,201,9200855,,,2021-09-15,清算の結了等,,,2015-10-05,1,,,,,ニッタショウジ,0
1805,7240001051375,登記記録の閉鎖等,0,2021-09-21,2021-09-16,アースドリーム・セブン株式会社,,株式会社,広島県,広島市中区,上幟町５番１号,,34,101,7300014,,,2021-09-16,清算の結了等,,,2017-07-12,1,,,,,アースドリームセブン,0
1829,7290005007815,登記記録の閉鎖等,0,2021-09-21,2021-09-14,さくら運輸事業協同組合,,その他の設立登記法人,福岡県,嘉麻市,山野１４３番地の６,,40,227,8200202,,,2021-09-14,清算の結了等,,,2015-10-05,1,,,,,サクラウンユ,0
1834,7300003000737,登記記録の閉鎖等,0,2021-09-21,2021-09-14,合同会社　企画工房　ＲＥＰＲＯ,,合同会社,佐賀県,佐賀市,多布施１丁目１１番３号,,41,201,8400842,,,2021-09-14,清算の結了等,,,2015-10-05,1,,,,,キカクコウボウリプロ,0
1841,7360005003352,登記記録の閉鎖等,0,2021-09-21,2021-09-07,サンセツトヒル管理組合法人,,その他の設立登記法人,沖縄県,国頭郡恩納村,字仲泊１３２７番地３,,47,311,9040415,,,2021-09-07,清算の結了等,,,2015-10-05,1,,,,,サンセットヒル,0
1846,7380001026685,登記記録の閉鎖等,0,2021-09-21,2021-09-15,株式会社未来くるファーム,,株式会社,福島県,西白河郡矢吹町,根宿７０８番地,,07,466,9690263,,,2021-09-15,清算の結了等,,,2016-04-11,1,,,,,ミライクルファーム,0
1850,7390002000969,登記記録の閉鎖等,0,2021-09-21,2021-09-14,有限会社コリアフードサービス,,有限会社,山形県,山形市,南栄町１丁目２番２８号,,06,201,9902445,,,2021-09-14,清算の結了等,,,2015-10-05,1,,,,,コリアフードサービス,0
1852,7390002013525,登記記録の閉鎖等,0,2021-09-21,2021-09-14,有限会社淀屋,,有限会社,山形県,米沢市,中央４丁目１０番４１号,,06,202,9920045,,,2021-09-14,清算の結了等,,,2015-10-05,1,,,,,ヨドヤ,0
1863,7430001005717,登記記録の閉鎖等,0,2021-09-21,2021-09-14,高信興業株式会社,,株式会社,北海道,札幌市白石区,菊水三条４丁目２番４号,,01,104,0030803,,,2021-09-14,清算の結了等,,,2015-10-05,1,,,,,コウシンコウギョウ,0
1873,7500001004827,登記記録の閉鎖等,0,2021-09-21,2021-09-17,伊豫ガス株式会社,,株式会社,愛媛県,伊予郡松前町,大字浜８００番地の１,,38,401,7913110,,,2021-09-17,清算の結了等,,,2015-10-05,1,,,,,イヨガス,0
1879,8010001033759,登記記録の閉鎖等,0,2021-09-21,2021-09-07,日本ミユウ株式会社,,株式会社,東京都,江東区,白河１丁目７番１８－３０７号,,13,108,1350021,,,2021-09-07,清算の結了等,,,2015-10-05,1,,,,,ニホンミユウ,0
1890,8010002037610,登記記録の閉鎖等,0,2021-09-21,2021-09-16,有限会社メディアユニ,,有限会社,東京都,中央区,築地３丁目１番４号,,13,102,1040045,,,2021-09-16,清算の結了等,,,2015-10-05,1,,,,,メディアユニ,0
1897,8010401087248,登記記録の閉鎖等,0,2021-09-21,2021-09-10,株式会社絆郷,,株式会社,東京都,港区,東新橋１丁目１０番１－４５０１号,,13,103,1050021,,,2021-09-10,清算の結了等,,,2015-10-05,1,,,,,キズナゴウ,0
1906,8010602021609,登記記録の閉鎖等,0,2021-09-21,2021-09-06,有限会社セブンアンクル,,有限会社,東京都,墨田区,石原３丁目３１番９号,,13,107,1300011,,,2021-09-06,清算の結了等,,,2015-10-05,1,,,,,セブンアンクル,0
1927,8011001116586,登記記録の閉鎖等,0,2021-09-21,2021-05-21,株式会社ＳＭＩＬＥ　ＪＡＰＡＮ,,株式会社,東京都,渋谷区,渋谷１丁目１９番１８号３０７,,13,113,1500002,,,2021-05-21,清算の結了等,,,2017-05-31,1,,,,,スマイルジャパン,0
1967,8021002053448,登記記録の閉鎖等,0,2021-09-21,2021-09-15,有限会社山谷木工所,,有限会社,神奈川県,小田原市,栢山６６３番地,,14,206,2500852,,,2021-09-15,清算の結了等,,,2015-10-05,1,,,,,ヤマタニモッコウジョ,0
1968,8021002071763,登記記録の閉鎖等,0,2021-09-21,2021-09-15,有限会社丸十商店,,有限会社,神奈川県,三浦市,向ケ崎町３番１５号,,14,210,2380233,,,2021-09-15,清算の結了等,,,2015-10-05,1,,,,,マルジュウショウテン,0
1974,8030001106752,登記記録の閉鎖等,0,2021-09-21,2021-08-05,株式会社シンカ埼玉,,株式会社,埼玉県,上尾市,大字平方領々家４０１番地１,,11,219,3620055,,,2021-08-05,合併による解散等,9013101006930,令和３年８月１日東京都西多磨郡日の出町平井２２番地７株式会社シンカ東京（9013101006930）に合併し解散,2015-10-05,1,,,,,シンカサイタマ,0
2001,8080102004792,登記記録の閉鎖等,0,2021-09-21,2021-09-15,有限会社スプラット,,有限会社,静岡県,沼津市,青野２６４番地の５,,22,203,4100307,,,2021-09-15,清算の結了等,,,2015-10-05,1,,,,,スプラット,0
2006,8100003005986,登記記録の閉鎖等,0,2021-09-21,2021-09-16,合同会社ｆｌｏｒ,,合同会社,長野県,茅野市,金沢５７７４番地３２,,20,214,3910012,,,2021-09-16,清算の結了等,,,2021-02-24,1,,,,,フロル,0
2015,8120001095053,登記記録の閉鎖等,0,2021-09-21,2021-09-13,株式会社ユウープランプロジェクト,,株式会社,大阪府,大阪市西区,京町堀１丁目８番３１号,,27,106,5500003,,,2021-09-13,清算の結了等,,,2015-10-05,1,,,,,ユウープランプロジェクト,0
2018,8120001172728,登記記録の閉鎖等,0,2021-09-21,2021-09-08,ハジメけあ株式会社,,株式会社,大阪府,大阪市淀川区,西三国１丁目２１番４３－７１１号,,27,123,5320006,,,2021-09-08,清算の結了等,,,2015-10-05,1,,,,,ハジメケア,0
2035,8130005012342,登記記録の閉鎖等,0,2021-09-21,2021-09-15,一般社団法人直違橋十一丁目地蔵会,,その他の設立登記法人,京都府,京都市伏見区,深草直違橋１１丁目１２６番地１,,26,109,6120889,,,2021-09-15,清算の結了等,,,2015-10-05,1,,,,,スジカイバシジュウイッチョウメジゾウカイ,0
2042,8150002011329,登記記録の閉鎖等,0,2021-09-21,2021-09-15,有限会社福翁運送,,有限会社,奈良県,吉野郡吉野町,大字新子３３０番地の１,,29,441,6393433,,,2021-09-15,清算の結了等,,,2015-10-05,1,,,,,フクオウウンソウ,0
2049,8180001103982,登記記録の閉鎖等,0,2021-09-21,2021-09-15,ｉｎ未来株式会社,,株式会社,愛知県,半田市,清城町１丁目１１,,23,205,4750917,,,2021-09-15,清算の結了等,,,2015-10-05,1,,,,,,0
2061,8190001027289,登記記録の閉鎖等,0,2021-09-21,2021-09-16,株式会社ＹＨＫ,,株式会社,三重県,鈴鹿市,算所町７８３番地の１,,24,207,5130805,,,2021-09-16,清算の結了等,,,2020-04-13,1,,,,,ワイエイチケイ,0
2063,8200001004864,登記記録の閉鎖等,0,2021-09-21,2021-09-17,株式会社まつや,,株式会社,岐阜県,岐阜市,加納黒木町１丁目３３番地,,21,201,5008461,,,2021-09-17,清算の結了等,,,2015-10-05,1,,,,,マツヤ,0
2068,8200002017130,登記記録の閉鎖等,0,2021-09-21,2021-09-16,有限会社大藤工業,,有限会社,岐阜県,可児市,大森１５０１番地の２７７１,,21,214,5090238,,,2021-09-16,清算の結了等,,,2015-10-05,1,,,,,オオフジコウギョウ,0
2072,8210005005247,登記記録の閉鎖等,0,2021-09-21,2021-09-14,畝市野々ファーム農事組合法人,,その他の設立登記法人,福井県,あわら市,畝市野々第１３号９５番地,,18,208,9190722,,,2021-09-14,清算の結了等,,,2015-10-05,1,,,,,ウネイチノノファーム,0
2102,8330003005633,登記記録の閉鎖等,0,2021-09-21,2021-09-15,合同会社柊マネージメント,,合同会社,熊本県,熊本市南区,富合町田尻２９４番地１,,43,104,8614156,,,2021-09-15,合併による解散等,1330001008669,令和３年９月１５日熊本県熊本市南区富合町田尻２９４番地１株式会社柊調剤（1330001008669）に合併し解散,2015-10-05,1,,,,,ヒイラギマネージメント,0
2114,8390002012328,登記記録の閉鎖等,0,2021-09-21,2021-09-14,有限会社小関塗装店,,有限会社,山形県,東根市,大字東根甲４１７８番地の１,,06,211,9993701,,,2021-09-14,清算の結了等,,,2015-10-05,1,,,,,コセキトソウテン,0
2130,8500001018454,登記記録の閉鎖等,0,2021-09-21,2021-09-17,東温ガス株式会社,,株式会社,愛媛県,東温市,北方２１７６番地,,38,215,7910303,,,2021-09-17,清算の結了等,,,2015-10-05,1,,,,,トウオンガス,0
2133,9010001067236,登記記録の閉鎖等,0,2021-09-21,2021-09-09,エコまちづくりフォーラム株式会社,,株式会社,東京都,千代田区,外神田５丁目２番２号,,13,101,1010021,,,2021-09-09,清算の結了等,,,2015-10-05,1,,,,,エコマチヅクリフォーラム,0
2134,9010001097472,登記記録の閉鎖等,0,2021-09-21,2021-09-10,Ｂ．Ｒ．Ｃ．ＪＡＰＡＮ株式会社,,株式会社,東京都,千代田区,神田駿河台１丁目５番６－２０５号,,13,101,1010062,,,2021-09-10,清算の結了等,,,2015-10-05,1,,,,,ビーアールシージャパン,0
2148,9010003002133,登記記録の閉鎖等,0,2021-09-21,2021-08-02,合名会社竹内薬局,,合名会社,東京都,文京区,本郷３丁目２５番１３号,,13,105,1130033,,,2021-08-02,合併による解散等,6010001107432,令和３年７月３１日東京都文京区本郷三丁目２５番１３号株式会社竹内調剤薬局（6010001107432）に合併して解散,2015-10-05,1,,,,,タケウチヤッキョク,0
2162,9010403021823,登記記録の閉鎖等,0,2021-09-21,2021-09-10,合同会社としま,,合同会社,東京都,港区,元赤坂１丁目１番８号赤坂コミュニティビル４階,,13,103,1070051,,,2021-09-10,清算の結了等,,,2019-11-20,1,,,,,トシマ,0
2169,9010902008791,登記記録の閉鎖等,0,2021-09-21,2021-09-13,有限会社宗尚,,有限会社,東京都,世田谷区,成城３丁目７番１９号,,13,112,1570066,,,2021-09-13,清算の結了等,,,2015-10-05,1,,,,,ソウショウ,0
2183,9011101025422,登記記録の閉鎖等,0,2021-09-21,2021-09-13,株式会社コムコン,,株式会社,東京都,新宿区,百人町２丁目２番２号,,13,104,1690073,,,2021-09-13,清算の結了等,,,2015-10-05,1,,,,,コムコン,0
2201,9013303004864,登記記録の閉鎖等,0,2021-09-21,2021-09-13,合同会社ＳＵＮ,,合同会社,東京都,豊島区,東池袋２丁目１２番３号メゾン清栄２０３号,,13,116,1700013,,,2021-09-13,清算の結了等,,,2019-10-29,1,,,,,サン,0
2209,9020002092942,登記記録の閉鎖等,0,2021-09-21,2021-09-14,有限会社中川電気商会,,有限会社,神奈川県,川崎市多摩区,宿河原４丁目２９番１号,,14,135,2140021,,,2021-09-14,清算の結了等,,,2015-10-05,1,,,,,ナカガワデンキショウカイ,0
2218,9030001103947,登記記録の閉鎖等,0,2021-09-21,2021-09-10,株式会社フラット・クラフト,,株式会社,福岡県,福岡市中央区,大手門１丁目４番７号,,40,133,8100074,,,2021-09-10,合併による解散等,4290001093515,令和３年９月１日福岡市中央区大手門一丁目４番７号株式会社フラット・クラフト準備会社（4290001093515）に合併し解散,2015-10-05,1,,,,,フラットクラフト,0
2225,9040001014334,登記記録の閉鎖等,0,2021-09-21,2021-08-03,株式会社エエム物流,,株式会社,千葉県,習志野市,東習志野６丁目２番９号,,12,216,2750001,,,2021-08-03,清算の結了等,,,2015-10-05,1,,,,,エエムブツリュウ,0
2235,9060002001585,登記記録の閉鎖等,0,2021-09-21,2021-09-09,有限会社宇都宮プリンスホテル,,有限会社,栃木県,宇都宮市,京町１１番１３号,,09,201,3200842,,,2021-09-09,清算の結了等,,,2015-10-05,1,,,,,ウツノミヤプリンスホテル,0
2236,9060002017425,登記記録の閉鎖等,0,2021-09-21,2021-09-10,有限会社大勝建築,,有限会社,栃木県,真岡市,小林１８０３番地,,09,209,3214321,,,2021-09-10,清算の結了等,,,2015-10-05,1,,,,,ダイショウケンチク,0
2245,9110001016422,登記記録の閉鎖等,0,2021-09-21,2021-09-15,株式会社八百半商店,,株式会社,新潟県,燕市,宮町３番４号,,15,213,9591257,,,2021-09-15,清算の結了等,,,2015-10-05,1,,,,,ヤオハンショウテン,0
2248,9110002013336,登記記録の閉鎖等,0,2021-09-21,2021-09-14,西潟陶管工業有限会社,,有限会社,新潟県,阿賀野市,六野瀬８２７番地,,15,223,9592215,,,2021-09-14,清算の結了等,,,2015-10-05,1,,,,,ニシガタトウカンコウギョウ,0
2249,9110005012038,登記記録の閉鎖等,0,2021-09-21,2021-09-14,特定非営利活動法人グリニッシュ,,その他の設立登記法人,新潟県,長岡市,西新町２丁目２番４７号,,15,202,9400024,,,2021-09-14,清算の結了等,,,2015-10-05,1,,,,,グリニッシュ,0
2289,9200001009854,登記記録の閉鎖等,0,2021-09-21,2021-09-16,株式会社岐健,,株式会社,岐阜県,本巣市,上真桑糸貫川通北畑２２５９番地の５,,21,218,5010461,,,2021-09-16,清算の結了等,,,2015-10-05,1,,,,,ギケン,0
2298,9240001033652,登記記録の閉鎖等,0,2021-09-21,2021-09-16,宮原建設株式会社,,株式会社,広島県,福山市,新市町大字宮内１４３６番地,,34,207,7293104,,,2021-09-16,清算の結了等,,,2015-10-05,1,,,,,ミヤハラケンセツ,0
2306,9240002044509,登記記録の閉鎖等,0,2021-09-21,2021-09-16,有限会社メディコひまわり,,有限会社,広島県,福山市,西新涯町２丁目１０番１１号,,34,207,7210958,,,2021-09-16,清算の結了等,,,2015-10-05,1,,,,,メディコヒマワリ,0
2310,9240005006357,登記記録の閉鎖等,0,2021-09-21,2021-09-16,協業組合呉カードック,,その他の設立登記法人,広島県,呉市,広徳丸町２３番２５号,,34,202,7370102,,,2021-09-16,清算の結了等,,,2015-10-05,1,,,,,クレカードック,0
2319,9290003010232,登記記録の閉鎖等,0,2021-09-21,2021-09-15,合同会社山下,,合同会社,佐賀県,鳥栖市,牛原町９２０番地,,41,203,8410086,,,2021-09-15,清算の結了等,,,2020-07-22,1,,,,,ヤマシタ,0
2323,9310001003301,登記記録の閉鎖等,0,2021-09-21,2021-09-15,株式会社シオヤ,,株式会社,長崎県,西彼杵郡時津町,日並郷３７６１番地,,42,308,8512108,,,2021-09-15,合併による解散等,7290001036652,令和３年９月１日福岡県古賀市青柳１１８７番地７日本厨房株式会社（7290001036652）に合併し解散,2015-10-05,1,,,,,シオヤ,0
2332,9360005003243,登記記録の閉鎖等,0,2021-09-21,2021-09-10,医療法人あけみおの会,,その他の設立登記法人,沖縄県,名護市,東江４丁目６番１７号,,47,209,9050021,,,2021-09-10,清算の結了等,,,2015-10-05,1,,,,,アケミオノカイ,0
2333,9370001014730,登記記録の閉鎖等,0,2021-09-21,2021-09-09,Ｄ．Ｃ．Ｔ新興工材東北株式会社,,株式会社,宮城県,仙台市宮城野区,出花１丁目１５番３号,,04,102,9830012,,,2021-09-09,清算の結了等,,,2015-10-05,1,,,,,ディーシーティーシンコウコウザイトウホク,0
2337,9370102002106,登記記録の閉鎖等,0,2021-09-21,2021-09-10,菊地タイル有限会社,,有限会社,宮城県,刈田郡蔵王町,遠刈田温泉字七日原１１５番地,,04,301,9890916,,,2021-09-10,清算の結了等,,,2015-10-05,1,,,,,キクチタイル,0
2342,9380002032359,登記記録の閉鎖等,0,2021-09-21,2021-09-16,有限会社高橋製パン店,,有限会社,福島県,会津若松市,相生町２番８号,,07,202,9650031,,,2021-09-16,清算の結了等,,,2015-10-05,1,,,,,タカハシセイパンテン,0
2353,9430002012371,登記記録の閉鎖等,0,2021-09-21,2021-09-15,有限会社段坂板金工業,,有限会社,北海道,札幌市清田区,真栄五条４丁目６番１５号,,01,110,0040835,,,2021-09-15,清算の結了等,,,2015-10-05,1,,,,,ダンサカバンキンコウギョウ,0
2359,9470005006251,登記記録の閉鎖等,0,2021-09-21,2021-09-16,協同組合ＣＯＳＭＯ,,その他の設立登記法人,香川県,三豊市,三野町下高瀬１０１５番地１,,37,208,7670032,,,2021-09-16,清算の結了等,,,2020-03-09,1,,,,,コスモ,0
