sequenceNumber,corporateNumber,process,correct,updateDate,changeDate,name,nameImageId,kind,prefectureName,cityName,streetNumber,addressImageId,prefectureCode,cityCode,postCode,addressOutside,addressOutsideImageId,closeDate,closeCause,successorCorporateNumber,changeCause,assignmentDate,latest,enName,enPrefectureName,enCityName,enAddressOutside,furigana,hihyoji
2,1010001048490,登記記録の閉鎖等,0,2021-10-27,2021-10-26,株式会社総合企画センター,,株式会社,東京都,中央区,銀座７丁目１２番４号,,13,102,1040061,,,2021-10-26,清算の結了等,,,2015-10-05,1,,,,,ソウゴウキカクセンター,0
4,1010001160477,登記記録の閉鎖等,0,2021-10-27,2021-10-20,テスナエナジー株式会社,,株式会社,東京都,千代田区,神田多町２丁目５番地,,13,101,1010046,,,2021-10-20,清算の結了等,,,2015-10-05,1,,,,,テスナエナジー,0
17,1010002006968,登記記録の閉鎖等,0,2021-10-27,2021-10-26,有限会社アークスコム,,有限会社,東京都,千代田区,神田佐久間町１丁目１６番地大橋ビル５０３,,13,101,1010025,,,2021-10-26,清算の結了等,,,2015-10-05,1,,,,,アークスコム,0
24,1010401141267,登記記録の閉鎖等,0,2021-10-27,2021-10-22,エイジェックマーケティングリサーチ株式会社,,株式会社,東京都,港区,港南２丁目１６番４号品川グランドセントラルタワー７階,,13,103,1080075,,,2021-10-22,合併による解散等,3011101036128,令和３年１０月１日東京都新宿区西新宿一丁目２５番１号新宿センタービル４６階株式会社エイジェック（3011101036128）に合併し解散,2018-10-10,1,,,,,エイジェックマーケティングリサーチ,0
28,1010502008803,登記記録の閉鎖等,0,2021-10-27,2021-10-21,有限会社根津丘ハイツ管理亊務所,,有限会社,東京都,台東区,谷中２丁目８番５号,,13,106,1100001,,,2021-10-21,清算の結了等,,,2015-10-05,1,,,,,ネヅオカハイツカンリジムショ,0
33,1010902009483,登記記録の閉鎖等,0,2021-10-27,2021-10-25,有限会社タツ・トレーナー,,有限会社,東京都,世田谷区,豪徳寺１丁目５４番３号,,13,112,1540021,,,2021-10-25,清算の結了等,,,2015-10-05,1,,,,,タツトレーナー,0
38,1011001105026,登記記録の閉鎖等,0,2021-10-27,2021-10-12,株式会社ｎｏｏｂ,,株式会社,東京都,渋谷区,恵比寿南１丁目１番１号ヒューマックス恵比寿ビル８Ｆ,,13,113,1500022,,,2021-10-12,清算の結了等,,,2015-10-05,1,,,,,ヌーヴ,0
43,1011001118853,登記記録の閉鎖等,0,2021-10-27,2021-10-26,ビルダーコンサルティング株式会社,,株式会社,東京都,渋谷区,道玄坂２丁目１０番７号新大宗ビル１号館３－３０３,,13,113,1500043,,,2021-10-26,清算の結了等,,,2017-10-25,1,,,,,ビルダーコンサルティング,0
46,1011003006288,登記記録の閉鎖等,0,2021-10-27,2021-10-12,テゾーロ合同会社,,合同会社,東京都,渋谷区,代官山町２０番９号,,13,113,1500034,,,2021-10-12,清算の結了等,,,2015-10-09,1,,,,,テゾーロ,0
55,1011101077594,登記記録の閉鎖等,0,2021-10-27,2021-10-25,株式会社エビス,,株式会社,東京都,新宿区,西新宿７丁目２２番１１号,,13,104,1600023,,,2021-10-25,清算の結了等,,,2016-07-13,1,,,,,エビス,0
73,1011803001133,登記記録の閉鎖等,0,2021-10-27,2021-10-26,ラーニングキャビネット合同会社,,合同会社,東京都,足立区,西綾瀬１丁目１番１６－３０５号,,13,121,1200014,,,2021-10-26,清算の結了等,,,2015-10-05,1,,,,,,0
97,1021001068619,登記記録の閉鎖等,0,2021-10-27,2021-10-25,株式会社ＡｕｔｏＭａｇｉｃ,,株式会社,神奈川県,藤沢市,辻堂元町３丁目９番５号,,14,205,2510043,,,2021-10-25,合併による解散等,8011001100978,令和３年１０月１日東京都渋谷区広尾一丁目３番１８号スクエアワン株式会社（8011001100978）に合併し解散,2019-11-14,1,,,,,オートマジック,0
157,1110003004036,登記記録の閉鎖等,0,2021-10-27,2021-10-25,合同会社ビフレスト,,合同会社,新潟県,新潟市西区,小針４丁目１６番１７号,,15,107,9502022,,,2021-10-25,清算の結了等,,,2019-11-06,1,,,,,ビフレスト,0
190,1140005024731,登記記録の閉鎖等,0,2021-10-27,2021-10-18,社会保険労務士法人トータル人事・労務オフィス,,その他の設立登記法人,兵庫県,芦屋市,東山町１８番１号,,28,206,6590091,,,2021-10-18,清算の結了等,,,2019-08-05,1,,,,,トータルジンジロウムオフィス,0
195,1170001006929,登記記録の閉鎖等,0,2021-10-27,2021-10-25,株式会社アイ・ケアセンター,,株式会社,和歌山県,和歌山市,船所１４番地の８,,30,201,6408461,,,2021-10-25,清算の結了等,,,2015-10-05,1,,,,,アイケアセンター,0
199,1180002091829,登記記録の閉鎖等,0,2021-10-27,2021-10-25,有限会社名兼,,有限会社,愛知県,あま市,森５丁目９番地１０,,23,237,4901107,,,2021-10-25,清算の結了等,,,2015-10-05,1,,,,,メイケン,0
218,1250003002273,登記記録の閉鎖等,0,2021-10-27,2021-10-25,合同会社植中制御設計,,合同会社,山口県,岩国市,由宇町神東１３２０番地,,35,208,7401432,,,2021-10-25,清算の結了等,,,2018-06-01,1,,,,,ウエナカセイギョセッケイ,0
276,1700150104784,削除,,2021-10-27,,,,,,,,,,,,,,,,,,,,,,,,,
279,2010001118854,登記記録の閉鎖等,0,2021-10-27,2021-10-20,株式会社ビー・エイチ・ピー,,株式会社,東京都,中央区,東日本橋２丁目９番４号,,13,102,1030004,,,2021-10-20,清算の結了等,,,2015-10-05,1,,,,,ビーエイチピー,0
294,2010401141266,登記記録の閉鎖等,0,2021-10-27,2021-10-22,株式会社ジャパンＩ＆Ｃテクノロジー,,株式会社,東京都,港区,港南２丁目１６番４号品川グランドセントラルタワー７階,,13,103,1080075,,,2021-10-22,合併による解散等,3011101036128,令和３年１０月１日東京都新宿区西新宿一丁目２５番１号新宿センタービル４６階株式会社エイジェック（3011101036128）に合併し解散,2018-10-10,1,,,,,ジャパンアイアンドシーテクノロジー,0
295,2010401149004,登記記録の閉鎖等,0,2021-10-27,2021-10-13,玄盛株式会社,,株式会社,東京都,港区,赤坂９丁目１番７－２５９号,,13,103,1070052,,,2021-10-13,清算の結了等,,,2019-11-13,1,,,,,ゲンセイカブシキガイシャ,0
302,2010501037950,登記記録の閉鎖等,0,2021-10-27,2021-10-13,株式会社エムケイテック,,株式会社,東京都,墨田区,吾妻橋１丁目９番地１０号ユナイテッドグロー浅草３０３,,13,107,1300001,,,2021-10-13,清算の結了等,,,2015-10-05,1,,,,,エムケイテック,0
305,2010701019113,登記記録の閉鎖等,0,2021-10-27,2021-10-26,曙光株式会社,,株式会社,東京都,品川区,荏原７丁目１２番１６－２０１,,13,109,1420063,,,2021-10-26,清算の結了等,,,2015-10-05,1,,,,,ショコウ,0
306,2010802014888,登記記録の閉鎖等,0,2021-10-27,2021-10-22,有限会社山勝,,有限会社,東京都,大田区,大森南１丁目１５番１５号,,13,111,1430013,,,2021-10-22,清算の結了等,,,2015-10-05,1,,,,,ヤマカツ,0
307,2010901023113,登記記録の閉鎖等,0,2021-10-27,2021-10-25,株式会社ＮＯＲＩＫＯ　ＦＵＫＵＳＨＩＭＡ,,株式会社,香川県,綾歌郡宇多津町,浜六番丁７７－１１,,37,386,7690206,,,2021-10-25,清算の結了等,,,2015-10-05,1,,,,,ノリコフクシマ,0
320,2011301002764,登記記録の閉鎖等,0,2021-10-27,2021-10-22,株式会社三栄,,株式会社,東京都,杉並区,阿佐谷北３丁目９番４号,,13,115,1660001,,,2021-10-22,清算の結了等,,,2015-10-05,1,,,,,サンエイ,0
321,2011301018785,登記記録の閉鎖等,0,2021-10-27,2021-10-26,カテスア株式会社,,株式会社,東京都,台東区,柳橋１丁目２３番３号ＶＯＲＴ浅草橋駅前３階,,13,106,1110052,,,2021-10-26,清算の結了等,,,2015-10-05,1,,,,,カテスア,0
327,2011601002670,登記記録の閉鎖等,0,2021-10-27,2021-10-25,三信テック株式会社,,株式会社,東京都,練馬区,氷川台４丁目５０番１４号,,13,120,1790084,,,2021-10-25,清算の結了等,,,2015-10-05,1,,,,,サンシンテック,0
339,2012701015199,登記記録の閉鎖等,0,2021-10-27,2021-10-22,株式会社Ｍｉｃｈｉｋｕｓａ,,株式会社,東京都,清瀬市,竹丘３丁目７番１号,,13,221,2040023,,,2021-10-22,清算の結了等,,,2019-02-08,1,,,,,,0
340,2012701015389,登記記録の閉鎖等,0,2021-10-27,2021-10-25,株式会社河波,,株式会社,東京都,小平市,学園東町３９５番地の４アーガスヒルズ６２－１０１,,13,211,1870043,,,2021-10-25,清算の結了等,,,2019-06-06,1,,,,,カワナミ,0
342,2012802003433,登記記録の閉鎖等,0,2021-10-27,2021-10-21,有限会社つつみ工業,,有限会社,東京都,昭島市,中神町３丁目６番４号,,13,207,1960022,,,2021-10-21,清算の結了等,,,2015-10-05,1,,,,,,0
344,2013202006704,登記記録の閉鎖等,0,2021-10-27,2021-10-11,有限会社ユニグラ,,有限会社,東京都,目黒区,目黒本町５丁目３２番１３号,,13,110,1520002,,,2021-10-11,清算の結了等,,,2015-10-05,1,,,,,ユニグラ,0
354,2020002039900,登記記録の閉鎖等,0,2021-10-27,2021-10-21,有限会社フジショウ,,有限会社,神奈川県,横浜市鶴見区,馬場７丁目１０番１号,,14,101,2300076,,,2021-10-21,清算の結了等,,,2015-10-05,1,,,,,フジショウ,0
357,2020003016568,登記記録の閉鎖等,0,2021-10-27,2021-10-25,ＲＡＫＡ合同会社,,合同会社,神奈川県,横浜市鶴見区,梶山２丁目６番４７－９号,,14,101,2300072,,,2021-10-25,清算の結了等,,,2019-08-23,1,,,,,ラカ,0
359,2020005006690,登記記録の閉鎖等,0,2021-10-27,2021-10-25,特定非営利活動法人横浜市障害者スポーツ協会,,その他の設立登記法人,神奈川県,横浜市泉区,領家４丁目２２番地１グランパティオ２棟１０２号,,14,116,2450004,,,2021-10-25,清算の結了等,,,2015-10-05,1,,,,,ヨコハマシショウガイシャスポーツキョウカイ,0
395,2080001002291,登記記録の閉鎖等,0,2021-10-27,2021-10-26,株式会社スズハ,,株式会社,静岡県,静岡市葵区,車町１４番地,,22,101,4200022,,,2021-10-26,清算の結了等,,,2015-10-05,1,,,,,スズハ,0
396,2080001002399,登記記録の閉鎖等,0,2021-10-27,2021-10-26,株式会社駿河屋山葵店,,株式会社,静岡県,静岡市葵区,八千代町６１番地,,22,101,4200013,,,2021-10-26,清算の結了等,,,2015-10-05,1,,,,,スルガヤワサビテン,0
399,2080101015367,登記記録の閉鎖等,0,2021-10-27,2021-10-15,株式会社富士建装,,株式会社,静岡県,富士市,富士見台６丁目４番地の５,,22,210,4170851,,,2021-10-15,清算の結了等,,,2015-10-05,1,,,,,フジケンソウ,0
406,2080402008549,登記記録の閉鎖等,0,2021-10-27,2021-10-25,有限会社ヤマダ電装,,有限会社,静岡県,浜松市中区,西伊場町１５番５－１０６号,,22,131,4328038,,,2021-10-25,清算の結了等,,,2015-10-05,1,,,,,ヤマダデンソウ,0
431,2130001049914,登記記録の閉鎖等,0,2021-10-27,2021-10-22,株式会社アグリテック丹後,,株式会社,京都府,京丹後市,大宮町周枳１８０番地,,26,212,6292503,,,2021-10-22,清算の結了等,,,2015-10-05,1,,,,,アグリテックタンゴ,0
449,2180001005706,登記記録の閉鎖等,0,2021-10-27,2021-10-21,株式会社森自動車商会,,株式会社,愛知県,名古屋市千種区,内山２丁目１７番１１号,,23,101,4640075,,,2021-10-21,清算の結了等,,,2015-10-05,1,,,,,モリジドウシャショウカイ,0
450,2180001050974,登記記録の閉鎖等,0,2021-10-27,2021-10-22,株式会社ケーエスケー,,株式会社,愛知県,名古屋市緑区,古鳴海２丁目５７番地,,23,114,4580047,,,2021-10-22,清算の結了等,,,2015-10-05,1,,,,,ケーエスケー,0
470,2250003001316,登記記録の閉鎖等,0,2021-10-27,2021-10-25,合同会社ラッキー商会,,合同会社,山口県,防府市,国衙２丁目６番３６号,,35,206,7470024,,,2021-10-25,清算の結了等,,,2015-10-05,1,,,,,ラッキーショウカイ,0
471,2250005008292,登記記録の閉鎖等,0,2021-10-27,2021-10-21,農事組合法人沖台営農組合,,その他の設立登記法人,山口県,下関市,菊川町大字吉賀１４７０番地１,,35,201,7500316,,,2021-10-21,清算の結了等,,,2017-03-09,1,,,,,オキダイエイノウクミアイ,0
487,2290002021526,登記記録の閉鎖等,0,2021-10-27,2021-10-20,有限会社武田店舗設計事務所,,有限会社,福岡県,福岡市博多区,麦野２丁目１７番１８号,,40,132,8120882,,,2021-10-20,清算の結了等,,,2015-10-05,1,,,,,タケダテンポセッケイジムショ,0
492,2290801024877,登記記録の閉鎖等,0,2021-10-27,2021-10-11,アフター建装株式会社,,株式会社,福岡県,北九州市若松区,西畑町９番１５号,,40,103,8080043,,,2021-10-11,清算の結了等,,,2018-08-20,1,,,,,アフターケンソウ,0
494,2290803003292,登記記録の閉鎖等,0,2021-10-27,2021-10-01,合同会社エターナル,,合同会社,福岡県,北九州市八幡西区,陣原３丁目２４番１１－２０８号,,40,109,8070821,,,2021-10-01,合併による解散等,7290801021481,令和３年１０月１日北九州市八幡西区鉄王一丁目７番１４号株式会社ペルソナ（7290801021481）に合併し解散,2019-02-18,1,,,,,エターナル,0
506,2340002017857,登記記録の閉鎖等,0,2021-10-27,2021-10-22,有限会社坂元鮮魚店,,有限会社,鹿児島県,いちき串木野市,本浜町２５３番地,,46,219,8960042,,,2021-10-22,清算の結了等,,,2015-10-05,1,,,,,サカモトセンギョテン,0
508,2360001008649,登記記録の閉鎖等,0,2021-10-27,2021-10-21,沖住研株式会社,,株式会社,沖縄県,宜野湾市,字宇地泊２７３番地,,47,205,9012227,,,2021-10-21,清算の結了等,,,2015-10-05,1,,,,,オキジュウケン,0
534,3010001048992,登記記録の閉鎖等,0,2021-10-27,2021-10-20,大利株式会社,,株式会社,東京都,中央区,日本橋堀留町２丁目９番１２号,,13,102,1030012,,,2021-10-20,清算の結了等,,,2015-10-05,1,,,,,ダイリ,0
536,3010001090549,登記記録の閉鎖等,0,2021-10-27,2021-10-21,株式会社Ｉ．Ｋ．Ｊａｐａｎ,,株式会社,東京都,中央区,八丁堀４丁目１４番７号,,13,102,1040032,,,2021-10-21,清算の結了等,,,2015-10-05,1,,,,,,0
544,3010002004598,登記記録の閉鎖等,0,2021-10-27,2021-10-22,有限会社ニトミロン,,有限会社,東京都,文京区,小日向２丁目１０番２０号,,13,105,1120006,,,2021-10-22,清算の結了等,,,2015-10-05,1,,,,,ニトミロン,0
557,3010402022753,登記記録の閉鎖等,0,2021-10-27,2021-10-20,有限会社アーバインワークス,,有限会社,千葉県,習志野市,谷津５丁目１０番１９－３０１号,,12,216,2750026,,,2021-10-20,清算の結了等,,,2015-10-05,1,,,,,アーバインワークス,0
558,3010402025698,登記記録の閉鎖等,0,2021-10-27,2021-10-13,有限会社ＡＫＩＮＩ,,有限会社,東京都,港区,赤坂３丁目１１番１９号,,13,103,1070052,,,2021-10-13,清算の結了等,,,2015-10-05,1,,,,,,0
591,3011102023323,登記記録の閉鎖等,0,2021-10-27,2021-10-25,株式会社サトー,,株式会社,東京都,新宿区,西新宿４丁目３１番３－９０４号,,13,104,1600023,,,2021-10-25,清算の結了等,,,2015-10-05,1,,,,,サトー,0
601,3011601023492,登記記録の閉鎖等,0,2021-10-27,2021-10-12,株式会社ＡＯＡ,,株式会社,東京都,渋谷区,恵比寿３丁目３番３号,,13,113,1500013,,,2021-10-12,清算の結了等,,,2019-07-10,1,,,,,エーオーエー,0
626,3020002030032,登記記録の閉鎖等,0,2021-10-27,2021-10-13,有限会社作清,,有限会社,神奈川県,横浜市南区,大橋町３丁目６５番地,,14,105,2320054,,,2021-10-13,清算の結了等,,,2015-10-05,1,,,,,サクセイ,0
627,3020002055896,登記記録の閉鎖等,0,2021-10-27,2021-10-14,有限会社ワイ・エー,,有限会社,神奈川県,横浜市中区,曙町５丁目７２番地,00011138,14,104,2310057,,,2021-10-14,清算の結了等,,,2015-10-05,1,,,,,ワイエー,0
646,3040001035591,登記記録の閉鎖等,0,2021-10-27,2021-10-20,株式会社三友恒産,,株式会社,千葉県,松戸市,二十世紀が丘戸山町１１８番地,,12,207,2710082,,,2021-10-20,清算の結了等,,,2015-10-05,1,,,,,サンユウコウサン,0
648,3040001085918,登記記録の閉鎖等,0,2021-10-27,2021-08-27,株式会社スター商会,,株式会社,千葉県,千葉市緑区,おゆみ野南１丁目２０番地６,,12,105,2660033,,,2021-08-27,清算の結了等,,,2015-10-05,1,,,,,スターショウカイ,0
649,3040002026771,登記記録の閉鎖等,0,2021-10-27,2021-10-18,有限会社テレサポート,,有限会社,千葉県,船橋市,本中山２丁目２２番１５号,,12,204,2730035,,,2021-10-18,清算の結了等,,,2015-10-05,1,,,,,テレサポート,0
651,3040003005948,登記記録の閉鎖等,0,2021-10-27,2021-10-13,合同会社ライズエンタープライズ,,合同会社,千葉県,千葉市美浜区,幕張西１丁目１４番１号,,12,106,2610026,,,2021-10-13,清算の結了等,,,2015-10-05,1,,,,,ライズエンタープライズ,0
669,3080401017665,登記記録の閉鎖等,0,2021-10-27,2021-10-22,株式会社Ｋ－ＭＩＣＲＯ,,株式会社,静岡県,袋井市,堀越１６７３番地の２２,,22,216,4370065,,,2021-10-22,清算の結了等,,,2015-10-05,1,,,,,ケイーマイクロ,0
676,3110001026071,登記記録の閉鎖等,0,2021-10-27,2021-10-25,勝俣重機工業株式会社,,株式会社,新潟県,長岡市,長倉南町２２２番地６,,15,202,9400848,,,2021-10-25,清算の結了等,,,2015-10-05,1,,,,,カツマタジュウキコウギョウ,0
680,3110005006235,登記記録の閉鎖等,0,2021-10-27,2021-10-25,燕大通商店街振興組合,,その他の設立登記法人,新潟県,燕市,仲町２９７５番地,,15,213,9591258,,,2021-10-25,清算の結了等,,,2015-10-05,1,,,,,ツバメオオドオリ,0
690,3120001167294,登記記録の閉鎖等,0,2021-10-27,2021-10-26,株式会社ミライエ,,株式会社,大阪府,大阪市鶴見区,焼野２丁目１０番３５号,,27,124,5380037,,,2021-10-26,清算の結了等,,,2015-10-05,1,,,,,,0
713,3140001009197,登記記録の閉鎖等,0,2021-10-27,2021-10-25,株式会社高橋新聞舗,,株式会社,兵庫県,神戸市中央区,橘通２丁目３番１４号,,28,110,6500016,,,2021-10-25,清算の結了等,,,2015-10-05,1,,,,,タカハシシンブンホ,0
719,3140002022934,登記記録の閉鎖等,0,2021-10-27,2021-10-22,有限会社ライス,,有限会社,兵庫県,神戸市兵庫区,馬場町１５番１１号,,28,105,6520016,,,2021-10-22,清算の結了等,,,2015-10-05,1,,,,,ライス,0
724,3160001011936,登記記録の閉鎖等,0,2021-10-27,2021-10-25,株式会社ジェイエイアシスト,,株式会社,滋賀県,高島市,新旭町旭１９６０番地の１,,25,212,5201501,,,2021-10-25,清算の結了等,,,2015-10-05,1,,,,,ジェイエイアシスト,0
727,3180001033879,登記記録の閉鎖等,0,2021-10-27,2021-10-22,株式会社アスカ建築設計事務所,,株式会社,愛知県,名古屋市中区,千代田３丁目１８番７号,,23,106,4600012,,,2021-10-22,清算の結了等,,,2015-10-05,1,,,,,アスカケンチクセッケイジムショ,0
729,3180005003886,登記記録の閉鎖等,0,2021-10-27,2021-10-25,愛知県紙加工業協同組合,,その他の設立登記法人,愛知県,名古屋市天白区,塩釜口１丁目１３２番地,,23,116,4680073,,,2021-10-25,清算の結了等,,,2015-10-05,1,,,,,アイチケンカミカコウギョウ,0
730,3180005019321,登記記録の閉鎖等,0,2021-10-27,2021-10-25,一般社団法人らいぷ,,その他の設立登記法人,愛知県,名古屋市北区,清水５丁目２０番９号,,23,103,4620844,,,2021-10-25,清算の結了等,,,2021-06-15,1,,,,,ライプ,0
758,3290001006989,登記記録の閉鎖等,0,2021-10-27,2021-10-20,九州電気商事株式会社,,株式会社,福岡県,福岡市中央区,渡辺通２丁目１番８２号,,40,133,8100004,,,2021-10-20,清算の結了等,,,2015-10-05,1,,,,,キュウシュウデンキショウジ,0
778,3310005000242,登記記録の閉鎖等,0,2021-10-27,2021-10-25,森谷事業協同組合,,その他の設立登記法人,長崎県,長崎市,平間町１３６１番地,,42,201,8510136,,,2021-10-25,清算の結了等,,,2015-10-05,1,,,,,モリタニ,0
822,3460102002556,登記記録の閉鎖等,0,2021-10-27,2021-10-25,有限会社西帯特装,,有限会社,北海道,帯広市,西二十三条南１丁目１２３番地２５,,01,207,0802473,,,2021-10-25,清算の結了等,,,2015-10-05,1,,,,,ニシオビトクソウ,0
823,3480001001327,登記記録の閉鎖等,0,2021-10-27,2021-10-25,株式会社ティーケイバンザイ企画,,株式会社,徳島県,徳島市,川内町榎瀬４７０番地の５,,36,201,7710144,,,2021-10-25,清算の結了等,,,2015-10-05,1,,,,,ティーケイバンザイキカク,0
827,3490003001035,登記記録の閉鎖等,0,2021-10-27,2021-10-27,合同会社司,,合同会社,高知県,高知市,瀬戸南町１丁目１番７号ファミリーコーポＡ５０２,,39,201,7810253,,,2021-10-27,清算の結了等,,,2016-02-26,1,,,,,ツカサ,0
835,4010001208001,登記記録の閉鎖等,0,2021-10-27,2021-10-20,株式会社ＰＬＵＳ　ＯＮＥ　ＰＯＩＮＴ,,株式会社,東京都,千代田区,九段南１丁目５番６号りそな九段ビル５階ＫＳフロア,,13,101,1020074,,,2021-10-20,清算の結了等,,,2020-03-16,1,,,,,プラスワンポイント,0
874,4010703003229,登記記録の閉鎖等,0,2021-10-27,2021-10-25,Ｅマネージハウス合同会社,,合同会社,東京都,品川区,北品川１丁目９番７号トップルーム品川１０１５号室,,13,109,1400001,,,2021-10-25,合併による解散等,6010701027310,令和３年１０月１日東京都目黒区目黒一丁目４番１６号目黒Ｇビル７階Ｅマネージ株式会社（6010701027310）に合併し解散,2016-08-16,1,,,,,,0
880,4010902008128,登記記録の閉鎖等,0,2021-10-27,2021-10-25,有限会社すずき室内工房,,有限会社,東京都,世田谷区,千歳台２丁目１３番８号,,13,112,1570071,,,2021-10-25,清算の結了等,,,2015-10-05,1,,,,,スズキシツナイコウボウ,0
882,4011001001247,登記記録の閉鎖等,0,2021-10-27,2021-10-11,株式会社アダムス．アドバタイジング,,株式会社,東京都,渋谷区,広尾１丁目１番３５号,,13,113,1500012,,,2021-10-11,清算の結了等,,,2015-10-05,1,,,,,アダムスアドバタイジング,0
947,4030002107118,登記記録の閉鎖等,0,2021-10-27,2021-10-20,有限会社松浦良治商店,,有限会社,埼玉県,川口市,大字峯１０６８番地,,11,203,3340056,,,2021-10-20,清算の結了等,,,2015-10-05,1,,,,,マツウラリョウジショウテン,0
950,4030005016745,登記記録の閉鎖等,0,2021-10-27,2021-10-13,特定非営利活動法人命と子育て応援隊ＦＡＤ,,その他の設立登記法人,埼玉県,入間市,大字下藤沢１０８３番地１４,,11,225,3580011,,,2021-10-13,清算の結了等,,,2015-10-05,1,,,,,イノチトコソダテオウエンタイファッド,0
958,4040001106169,登記記録の閉鎖等,0,2021-10-27,2021-10-13,株式会社ＩＢＰ,,株式会社,千葉県,船橋市,飯山満町３丁目１５８２－２－２－２０６,,12,204,2740822,,,2021-10-13,清算の結了等,,,2018-09-21,1,,,,,アイビーピー,0
966,4070001023782,登記記録の閉鎖等,0,2021-10-27,2021-10-25,株式会社吾東設計,,株式会社,群馬県,吾妻郡東吾妻町,大字岡崎１１４番地の１,,10,429,3770302,,,2021-10-25,清算の結了等,,,2015-10-05,1,,,,,ゴトウセッケイ,0
968,4080001019160,登記記録の閉鎖等,0,2021-10-27,2021-10-25,株式会社保険センター,,株式会社,静岡県,藤枝市,下青島２８３番地の８,,22,214,4260035,,,2021-10-25,清算の結了等,,,2015-10-05,1,,,,,ホケンセンター,0
969,4080002011166,登記記録の閉鎖等,0,2021-10-27,2021-10-26,有限会社豊光木工,,有限会社,静岡県,静岡市清水区,三保１２０８番地,,22,103,4240901,,,2021-10-26,清算の結了等,,,2015-10-05,1,,,,,,0
983,4100002037084,登記記録の閉鎖等,0,2021-10-27,2021-10-25,有限会社林技研,,有限会社,長野県,飯田市,上郷黒田１４３７番地１,,20,205,3950004,,,2021-10-25,清算の結了等,,,2015-10-05,1,,,,,ハヤシギケン,0
988,4120001207776,登記記録の閉鎖等,0,2021-10-27,2021-10-20,株式会社ビーアイ・ダイナミクス,,株式会社,大阪府,大阪市城東区,成育３丁目５番２１号,,27,118,5360007,,,2021-10-20,清算の結了等,,,2017-09-05,1,,,,,ビーアイダイナミクス,0
1001,4120102005476,登記記録の閉鎖等,0,2021-10-27,2021-10-21,有限会社スエヨシ,,有限会社,大阪府,高石市,東羽衣３丁目１７番２号,,27,225,5920003,,,2021-10-21,清算の結了等,,,2015-10-05,1,,,,,スエヨシ,0
1005,4130001034740,登記記録の閉鎖等,0,2021-10-27,2021-10-25,株式会社ｏｆｆｉｃｅ－Ｗ,,株式会社,京都府,京都市中京区,元竹田町６５１藤川ビル３階,,26,104,6048145,,,2021-10-25,清算の結了等,,,2015-10-05,1,,,,,オフィスダブル,0
1012,4140001059308,登記記録の閉鎖等,0,2021-10-27,2021-10-22,進精鋼業株式会社,,株式会社,兵庫県,姫路市,別所町佐土１０３７番地,,28,201,6710224,,,2021-10-22,清算の結了等,,,2015-10-05,1,,,,,シンセイコウギョウ,0
1033,4180002019026,登記記録の閉鎖等,0,2021-10-27,2021-10-25,有限会社ハープアンドミュージックヤマダ,,有限会社,愛知県,名古屋市中川区,花塚町１丁目１６番地,00080565,23,110,4540052,,,2021-10-25,清算の結了等,,,2015-10-05,1,,,,,ハープアンドミュージックヤマダ,0
1037,4180302015708,登記記録の閉鎖等,0,2021-10-27,2021-10-22,有限会社中野尊昭建築設計工房,,有限会社,愛知県,蒲郡市,三谷町若宮１２８番地,,23,214,4430021,,,2021-10-22,清算の結了等,,,2015-10-05,1,,,,,ナカノタカアキケンチクセッケイコウボウ,0
1040,4180305008840,登記記録の閉鎖等,0,2021-10-27,2021-10-26,特定非営利活動法人ｅｘｐａｎｄｏ　ｏｎｅ’ｓ花,,その他の設立登記法人,愛知県,豊橋市,下地町字門１４３番地の１,,23,201,4400086,,,2021-10-26,清算の結了等,,,2018-11-01,1,,,,,エクスパンドワンズハナ,0
1054,4240002035958,登記記録の閉鎖等,0,2021-10-27,2021-10-25,有限会社松本商店,,有限会社,広島県,江田島市,大柿町大原６０２５番地,,34,215,7372213,,,2021-10-25,清算の結了等,,,2015-10-05,1,,,,,マツモトショウテン,0
1055,4250002020810,登記記録の閉鎖等,0,2021-10-27,2021-10-21,有限会社ブルースカイ,,有限会社,山口県,下関市,小月本町２丁目１５番２０号,,35,201,7501142,,,2021-10-21,清算の結了等,,,2021-10-19,1,,,,,ブルースカイ,0
1066,4290001022556,登記記録の閉鎖等,0,2021-10-27,2021-10-18,株式会社サクセスワン,,株式会社,福岡県,福岡市東区,名島４丁目６４番１５号,,40,131,8130043,,,2021-10-18,清算の結了等,,,2015-10-05,1,,,,,,0
1092,4360005002943,登記記録の閉鎖等,0,2021-10-27,2021-09-07,沖縄南部卸売酒販組合,,その他の設立登記法人,沖縄県,浦添市,勢理客３丁目３番１２号那覇酒類販売（株）内,,47,208,9012122,,,2021-09-07,合併による解散等,9360005006510,令和３年９月７日沖縄県沖縄市住吉二丁目２８番３０号沖縄卸売酒販組合（8360005002089）と沖縄県名護市大南四丁目１１番１３号名護卸売酒販組合（4360005003272）と沖縄県宮古島市平良字下里８１２番地宮古島酒販組合（6360005003774）と沖縄県石垣市美崎町７番地１１石垣卸売酒販組合（8360005003649）と合併して沖縄県那覇市前島三丁目４番１６号（有）喜屋武商店内沖縄県卸売酒販組合（9360005006510）を設立し解散,2015-10-05,1,,,,,オキナワナンブオロシウリ,0
1094,4360005003272,登記記録の閉鎖等,0,2021-10-27,2021-09-07,名護卸売酒販組合,,その他の設立登記法人,沖縄県,名護市,大南４丁目１１番１３号,,47,209,9050015,,,2021-09-07,合併による解散等,9360005006510,令和３年９月７日沖縄県浦添市勢理客三丁目３番１２号那覇酒類販売（株）内沖縄南部卸売酒販組合（4360005002943）と沖縄県沖縄市住吉二丁目２８番３０号沖縄卸売酒販組合（8360005002089）と沖縄県宮古島市平良字下里８１２番地宮古島酒販組合（6360005003774）と沖縄県石垣市美崎町７番地１１石垣卸売酒販組合（8360005003649）と合併して沖縄県那覇市前島三丁目４番１６号（有）喜屋武商店内沖縄県卸売酒販組合（9360005006510）を設立し解散,2015-10-05,1,,,,,ナゴオロシウリ,0
1100,4370501000326,登記記録の閉鎖等,0,2021-10-27,2021-10-19,株式会社千葉鶴,,株式会社,宮城県,気仙沼市,要害６１番地１,,04,205,9880634,,,2021-10-19,清算の結了等,,,2015-10-05,1,,,,,,0
1105,4390002014823,登記記録の閉鎖等,0,2021-10-27,2021-10-22,有限会社いなば,,有限会社,山形県,長井市,栄町２番２９号,,06,209,9930084,,,2021-10-22,清算の結了等,,,2015-10-05,1,,,,,,0
1133,5010005012035,登記記録の閉鎖等,0,2021-10-27,2021-10-25,一般社団法人アークハーバー０７,,その他の設立登記法人,東京都,千代田区,丸の内３丁目１番１号東京共同会計事務所内,,13,101,1000005,,,2021-10-25,清算の結了等,,,2015-10-05,1,,,,,アークハーバーゼロナナ,0
1151,5010801022204,登記記録の閉鎖等,0,2021-10-27,2021-10-22,株式会社すてきレジデンス,,株式会社,東京都,大田区,西蒲田８丁目４番５号,,13,111,1440051,,,2021-10-22,清算の結了等,,,2015-10-05,1,,,,,ステキレジデンス,0
1160,5011001098159,登記記録の閉鎖等,0,2021-10-27,2021-10-25,吉澤リアルエステートホールディングス株式会社,,株式会社,東京都,渋谷区,千駄ヶ谷１丁目３番１０号,,13,113,1510051,,,2021-10-25,合併による解散等,3060001025608,令和３年１０月１日栃木県佐野市葛生東一丁目１２番７号吉澤保全ホールディングス株式会社（3060001025608）に合併し解散,2015-10-05,1,,,,,ヨシザワリアルエステートホールディングス,0
1171,5011103004725,登記記録の閉鎖等,0,2021-10-27,2021-10-25,合同会社デザインタス,,合同会社,東京都,台東区,台東２丁目１７番１－３０４号スターハイツ台東,,13,106,1100016,,,2021-10-25,清算の結了等,,,2015-10-05,1,,,,,デザインタス,0
1193,5012801009197,登記記録の閉鎖等,0,2021-10-27,2021-10-19,株式会社ペットのお店ＷＡＮピース,,株式会社,東京都,武蔵村山市,学園５丁目１番地の２,,13,223,2080011,,,2021-10-19,清算の結了等,,,2015-10-05,1,,,,,,0
1195,5013401006816,登記記録の閉鎖等,0,2021-10-27,2021-10-18,株式会社フェニックスプラン,,株式会社,東京都,多摩市,唐木田１丁目４７番地の３,,13,224,2060035,,,2021-10-18,清算の結了等,,,2015-10-05,1,,,,,フェニックスプラン,0
1213,5030001065217,登記記録の閉鎖等,0,2021-10-27,2021-10-20,株式会社オーラウェーブ,,株式会社,埼玉県,越谷市,相模町２丁目１４１番地２,,11,222,3430823,,,2021-10-20,清算の結了等,,,2015-10-05,1,,,,,オーラウェーブ,0
1215,5030001122307,登記記録の閉鎖等,0,2021-10-27,2021-10-14,アンゼン工業株式会社,,株式会社,東京都,墨田区,立花５丁目２１番１１号,,13,107,1310043,,,2021-10-14,清算の結了等,,,2017-09-27,1,,,,,アンゼンコウギョウ,0
1218,5030002038097,登記記録の閉鎖等,0,2021-10-27,2021-10-20,有限会社彩栄企画,,有限会社,埼玉県,久喜市,上町１１番８号,,11,232,3460006,,,2021-10-20,清算の結了等,,,2015-10-05,1,,,,,サイエイキカク,0
1224,5040001072369,登記記録の閉鎖等,0,2021-10-27,2021-10-19,株式会社坂本屋,,株式会社,千葉県,野田市,中野台１９５番地,,12,208,2780035,,,2021-10-19,清算の結了等,,,2015-10-05,1,,,,,サカモトヤ,0
1232,5040005014466,登記記録の閉鎖等,0,2021-10-27,2021-10-20,野田市中里排水処理協同組合,,その他の設立登記法人,千葉県,野田市,中里３１６７番地,,12,208,2700237,,,2021-10-20,清算の結了等,,,2015-10-05,1,,,,,ノダシナカザトハイスイショリ,0
1250,5120001139176,登記記録の閉鎖等,0,2021-10-27,2021-10-25,三光産業株式会社,,株式会社,大阪府,大阪市生野区,田島６丁目１６番２７号,,27,116,5440011,,,2021-10-25,清算の結了等,,,2015-10-05,1,,,,,サンコウサンギョウ,0
1286,5180001066332,登記記録の閉鎖等,0,2021-10-27,2021-10-22,株式会社ハイコクリエイト,,株式会社,愛知県,名古屋市緑区,篠の風２丁目３０２番地,,23,114,4580015,,,2021-10-22,清算の結了等,,,2015-10-05,1,,,,,ハイコクリエイト,0
1303,5200005008138,登記記録の閉鎖等,0,2021-10-27,2021-10-25,特定非営利活動法人ＲＳＳバングラに愛の学校を,,その他の設立登記法人,岐阜県,岐阜市,切通３丁目１１番４号,,21,201,5008237,,,2021-10-25,清算の結了等,,,2015-10-05,1,,,,,アールエスエスバングラニアイノガッコウヲ,0
1307,5210002000716,登記記録の閉鎖等,0,2021-10-27,2021-10-22,有限会社大久保印刷,,有限会社,福井県,福井市,西木田５丁目６番１１号,,18,201,9188004,,,2021-10-22,清算の結了等,,,2015-10-05,1,,,,,オオクボインサツ,0
1346,5360002011500,登記記録の閉鎖等,0,2021-10-27,2021-10-20,有限会社沖縄ディスプレー,,有限会社,沖縄県,宜野湾市,野嵩１丁目３１番７号,,47,205,9012203,,,2021-10-20,清算の結了等,,,2015-10-05,1,,,,,オキナワディスプレー,0
1348,5370001043072,登記記録の閉鎖等,0,2021-10-27,2021-10-19,メルカート東北株式会社,,株式会社,宮城県,石巻市,新境町２丁目２番地５ピエス新境Ａ２０１号,,04,202,9860864,,,2021-10-19,清算の結了等,,,2018-05-29,1,,,,,,0
1352,5370005010069,登記記録の閉鎖等,0,2021-10-27,2021-10-18,サンブリッジ協同組合,,その他の設立登記法人,宮城県,仙台市宮城野区,日の出町３丁目８番３号,,04,102,9830035,,,2021-10-18,清算の結了等,,,2020-02-21,1,,,,,サンブリッジ,0
1366,5490005001849,登記記録の閉鎖等,0,2021-10-27,2021-10-26,特定非営利活動法人世界平和の祈り,,その他の設立登記法人,高知県,高知市,神田１６７６番地,,39,201,7808040,,,2021-10-26,清算の結了等,,,2015-10-05,1,,,,,セカイヘイワノイノリ,0
1370,6010001019578,登記記録の閉鎖等,0,2021-10-27,2021-10-22,株式会社シェ・シーマ,,株式会社,神奈川県,横浜市保土ケ谷区,瀬戸ケ谷町１９０番地１－３１６号,,14,106,2400024,,,2021-10-22,清算の結了等,,,2015-10-05,1,,,,,シェシーマ,0
1374,6010001126853,登記記録の閉鎖等,0,2021-10-27,2021-10-22,株式会社ＮＳＣ,,株式会社,東京都,中央区,勝どき３丁目１２番１２－１５０２号,,13,102,1040054,,,2021-10-22,清算の結了等,,,2015-10-05,1,,,,,エヌエスシー,0
1397,6010901001379,登記記録の閉鎖等,0,2021-10-27,2021-10-25,株式会社ウォーター・リサーチ,,株式会社,東京都,世田谷区,若林１丁目７番１２号,,13,112,1540023,,,2021-10-25,清算の結了等,,,2015-10-05,1,,,,,ウォーターリサーチ,0
1426,6011801012128,登記記録の閉鎖等,0,2021-10-27,2021-10-25,丸金自動車販売株式会社,,株式会社,東京都,足立区,舎人４丁目１番２１号,,13,121,1210831,,,2021-10-25,清算の結了等,,,2015-10-05,1,,,,,マルキンジドウシャハンバイ,0
1440,6020001068814,登記記録の閉鎖等,0,2021-10-27,2021-10-22,株式会社アン,,株式会社,神奈川県,川崎市中原区,新城５丁目４番１号,,14,133,2110044,,,2021-10-22,清算の結了等,,,2015-10-05,1,,,,,アン,0
1457,6030001053716,登記記録の閉鎖等,0,2021-10-27,2021-10-15,ＣＰＭソリューション株式会社,,株式会社,埼玉県,春日部市,粕壁東６丁目２番５－２０５号,,11,214,3440062,,,2021-10-15,清算の結了等,,,2015-10-05,1,,,,,シーピーエムソリューション,0
1465,6030003003116,登記記録の閉鎖等,0,2021-10-27,2021-10-01,合資会社帳票総合システム,,合資会社,埼玉県,北本市,石戸５丁目９８番地,,11,233,3640024,,,2021-10-01,清算の結了等,,,2015-10-05,1,,,,,チョウヒョウソウゴウシステム,0
1473,6040002032370,登記記録の閉鎖等,0,2021-10-27,2021-10-08,有限会社市川水道工業所,,有限会社,千葉県,市川市,宮久保３丁目３番２４号,,12,203,2720822,,,2021-10-08,清算の結了等,,,2015-10-05,1,,,,,イチカワスイドウコウギョウショ,0
1478,6060002016099,登記記録の閉鎖等,0,2021-10-27,2021-10-19,有限会社サトウ,,有限会社,栃木県,日光市,鬼怒川温泉大原８９５番地１４,,09,206,3212522,,,2021-10-19,清算の結了等,,,2015-10-05,1,,,,,サトウ,0
1485,6080102000257,登記記録の閉鎖等,0,2021-10-27,2021-10-18,有限会社五十嵐給食センター,,有限会社,静岡県,沼津市,岡宮１０４２番地４,,22,203,4100011,,,2021-10-18,清算の結了等,,,2015-10-05,1,,,,,イガラシキュウショクセンター,0
1486,6080102007954,登記記録の閉鎖等,0,2021-10-27,2021-10-18,伊豆トヨタ有限会社,,有限会社,静岡県,伊豆市,修善寺１３番地の１,,22,222,4102416,,,2021-10-18,清算の結了等,,,2015-10-05,1,,,,,イズトヨタ,0
1487,6080102008226,登記記録の閉鎖等,0,2021-10-27,2021-10-14,有限会社小嶋工業,,有限会社,静岡県,伊豆の国市,田京２８７番地の１０,,22,225,4102315,,,2021-10-14,清算の結了等,,,2015-10-05,1,,,,,コジマコウギョウ,0
1520,6120105004671,登記記録の閉鎖等,0,2021-10-27,2021-10-25,特定非営利活動法人大阪共同治験ネットワーク,,その他の設立登記法人,大阪府,大阪市中央区,瓦町４丁目８番５号ＮＫビル２階,,27,128,5410048,,,2021-10-25,清算の結了等,,,2015-10-05,1,,,,,オオサカキョウドウチケンネットワーク,0
1536,6140001013147,登記記録の閉鎖等,0,2021-10-27,2021-10-25,サンヨー装備株式会社,,株式会社,兵庫県,神戸市兵庫区,七宮町１丁目１番５号,,28,105,6520831,,,2021-10-25,清算の結了等,,,2015-10-05,1,,,,,サンヨーソウビ,0
1538,6140001037955,登記記録の閉鎖等,0,2021-10-27,2021-10-22,株式会社コトブキ地所,,株式会社,兵庫県,明石市,太寺４丁目９番７号,,28,203,6730845,,,2021-10-22,清算の結了等,,,2015-10-05,1,,,,,コトブキジショ,0
1544,6160002004894,登記記録の閉鎖等,0,2021-10-27,2021-10-25,有限会社スペースエージ,,有限会社,京都府,京都市山科区,御陵上御廟野町１番地ディアステージ御陵２０３号,,26,110,6078425,,,2021-10-25,清算の結了等,,,2015-10-05,1,,,,,スペースエージ,0
1546,6180001052265,登記記録の閉鎖等,0,2021-10-27,2021-10-20,株式会社喜作,,株式会社,愛知県,西春日井郡豊山町,大字青山字金剛１００番地,,23,342,4800201,,,2021-10-20,清算の結了等,,,2015-10-05,1,,,,,キサク,0
1547,6180001061869,登記記録の閉鎖等,0,2021-10-27,2021-10-22,株式会社エヌ・ティー,,株式会社,愛知県,名古屋市港区,惟信町６丁目４番地の４,,23,111,4550823,,,2021-10-22,清算の結了等,,,2015-10-05,1,,,,,エヌティー,0
1551,6180002063996,登記記録の閉鎖等,0,2021-10-27,2021-10-21,有限会社栄重機,,有限会社,愛知県,豊明市,新栄町４丁目１７６番地,,23,229,4701154,,,2021-10-21,清算の結了等,,,2015-10-05,1,,,,,サカエジュウキ,0
1569,6210001011548,登記記録の閉鎖等,0,2021-10-27,2021-10-22,カツキ住建株式会社,,株式会社,福井県,越前市,家久町１丁目１０番地,,18,209,9150801,,,2021-10-22,清算の結了等,,,2015-10-05,1,,,,,カツキジュウケン,0
1585,6280002008859,登記記録の閉鎖等,0,2021-10-27,2021-10-26,有限会社三隅葬儀社,,有限会社,島根県,浜田市,三隅町岡見２７８番地１,,32,202,6993226,,,2021-10-26,清算の結了等,,,2015-10-05,1,,,,,ミスミソウギシャ,0
1607,6330005007539,登記記録の閉鎖等,0,2021-10-27,2021-10-22,医療法人社団新生会,,その他の設立登記法人,熊本県,人吉市,鬼木町５６２番地の５,,43,203,8680021,,,2021-10-22,清算の結了等,,,2015-10-05,1,,,,,シンセイカイ,0
1615,6360001012845,登記記録の閉鎖等,0,2021-10-27,2021-10-20,株式会社赤坂共同ＢＰＯ,,株式会社,沖縄県,名護市,字宮里４５３番地の７ゆがふＨＤビル２階,,47,209,9050011,,,2021-10-20,合併による解散等,8010401069287,令和３年９月１日東京都港区赤坂二丁目２３番１号アークヒルズフロントタワー株式会社赤坂共同事務所（8010401069287）に合併し解散,2015-10-05,1,,,,,アカサカキョウドウビーピーオー,0
1621,6360005003774,登記記録の閉鎖等,0,2021-10-27,2021-09-07,宮古島酒販組合,,その他の設立登記法人,沖縄県,宮古島市,平良字下里８１２番地,,47,214,9060013,,,2021-09-07,合併による解散等,9360005006510,令和３年９月７日沖縄県浦添市勢理客三丁目３番１２号那覇酒類販売（株）内沖縄南部卸売酒販組合（4360005002943）と沖縄県沖縄市住吉二丁目２８番３０号沖縄卸売酒販組合（8360005002089）と沖縄県名護市大南四丁目１１番１３号名護卸売酒販組合（4360005003272）と沖縄県石垣市美崎町７番地１１石垣卸売酒販組合（8360005003649）と合併して沖縄県那覇市前島三丁目４番１６号（有）喜屋武商店内沖縄県卸売酒販組合（9360005006510）を設立し解散,2015-10-05,1,,,,,ミヤコジマ,0
1635,6420003000536,登記記録の閉鎖等,0,2021-10-27,2021-10-21,合同会社ナナセ,,合同会社,青森県,三戸郡南部町,大字上名久井字大渋民山２３番地９１,,02,445,0390501,,,2021-10-21,清算の結了等,,,2015-10-05,1,,,,,ナナセ,0
1646,7010001044311,登記記録の閉鎖等,0,2021-10-27,2021-10-20,三栄海運株式会社,,株式会社,東京都,中央区,日本橋２丁目１３番１０号日本橋サンライズビル,,13,102,1030027,,,2021-10-20,清算の結了等,,,2015-10-05,1,,,,,サンエイカイウン,0
1649,7010001085495,登記記録の閉鎖等,0,2021-10-27,2021-10-20,株式会社ジェイズネット,,株式会社,埼玉県,川口市,前川３丁目２９番２号熊木ハイム１０１号,,11,203,3330842,,,2021-10-20,清算の結了等,,,2015-10-05,1,,,,,ジェイズネット,0
1654,7010002026317,登記記録の閉鎖等,0,2021-10-27,2021-10-14,有限会社喜鶴,,有限会社,東京都,江東区,豊洲６丁目５番１号,,13,108,1350061,,,2021-10-14,清算の結了等,,,2015-10-05,1,,,,,キカク,0
1669,7010901040418,登記記録の閉鎖等,0,2021-10-27,2021-10-25,ＥＺＳｐｅａｋＪＡＰＡＮ株式会社,,株式会社,東京都,世田谷区,北沢５丁目３２番１７号ベール・ドゥーズ１０２,,13,112,1550031,,,2021-10-25,清算の結了等,,,2017-07-05,1,,,,,イージースピークジャパン,0
1674,7011002009113,登記記録の閉鎖等,0,2021-10-27,2021-10-19,有限会社鳥岡,,有限会社,埼玉県,さいたま市桜区,大字大久保領家４５６番地２１,,11,106,3380826,,,2021-10-19,清算の結了等,,,2015-10-05,1,,,,,トリオカ,0
1699,7012701015987,登記記録の閉鎖等,0,2021-10-27,2021-10-25,株式会社ＵＯＭＯ　ＦＩＮＩＴＯ,,株式会社,東京都,東久留米市,中央町３丁目２３番１２号コーポ鈴木２０３号,,13,222,2030054,,,2021-10-25,清算の結了等,,,2020-07-27,1,,,,,ウオームフェニート,0
1704,7020001020179,登記記録の閉鎖等,0,2021-10-27,2021-10-18,株式会社小西建築計画工房,,株式会社,神奈川県,横浜市西区,浅間町１丁目９番地２０,,14,103,2200072,,,2021-10-18,清算の結了等,,,2015-10-05,1,,,,,コニシケンチクケイカクコウボウ,0
1729,7030002013643,登記記録の閉鎖等,0,2021-10-27,2021-10-18,有限会社モン・ドール,,有限会社,埼玉県,さいたま市南区,根岸５丁目１０番４号,,11,108,3360024,,,2021-10-18,清算の結了等,,,2015-10-05,1,,,,,モンドール,0
1730,7030002071286,登記記録の閉鎖等,0,2021-10-27,2021-10-15,有限会社アスレ,,有限会社,埼玉県,春日部市,備後西１丁目４番５６号,,11,214,3440033,,,2021-10-15,清算の結了等,,,2015-10-05,1,,,,,アスレ,0
1731,7030002103444,登記記録の閉鎖等,0,2021-10-27,2021-10-21,有限会社新郷機械,,有限会社,埼玉県,川口市,本蓮４丁目５番２４号,00017684,11,203,3340076,,,2021-10-21,清算の結了等,,,2015-10-05,1,,,,,シンゴウキカイ,0
1749,7060001029159,登記記録の閉鎖等,0,2021-10-27,2021-10-21,株式会社エコライン,,株式会社,栃木県,小山市,大字羽川４６３番地４,,09,208,3230012,,,2021-10-21,清算の結了等,,,2017-03-09,1,,,,,エコライン,0
1796,7150001005316,登記記録の閉鎖等,0,2021-10-27,2021-10-22,五光貿易株式会社,,株式会社,奈良県,生駒市,東生駒４丁目５００番地６,,29,209,6300213,,,2021-10-22,清算の結了等,,,2015-10-05,1,,,,,ゴコウボウエキ,0
1803,7180302003379,登記記録の閉鎖等,0,2021-10-27,2021-10-20,有限会社大隅工業,,有限会社,愛知県,額田郡幸田町,大字深溝字西稲葉１６番地１,,23,501,4440124,,,2021-10-20,清算の結了等,,,2015-10-05,1,,,,,オオスミコウギョウ,0
1810,7190001023669,登記記録の閉鎖等,0,2021-10-27,2021-10-26,株式会社スタディーロード,,株式会社,三重県,四日市市,内堀町２０７番地,,24,202,5100872,,,2021-10-26,清算の結了等,,,2016-05-13,1,,,,,スタディーロード,0
1813,7190005005119,登記記録の閉鎖等,0,2021-10-27,2021-10-26,伊勢ポイントカード協同組合,,その他の設立登記法人,三重県,伊勢市,岩渕１丁目７番１７号,,24,203,5160037,,,2021-10-26,清算の結了等,,,2015-10-05,1,,,,,イセポイントカード,0
1816,7200001017925,登記記録の閉鎖等,0,2021-10-27,2021-10-19,大昇建設株式会社,,株式会社,岐阜県,可児市,中恵土１９３６番地の１,,21,214,5090202,,,2021-10-19,清算の結了等,,,2015-10-05,1,,,,,ダイショウケンセツ,0
1820,7210002007412,登記記録の閉鎖等,0,2021-10-27,2021-10-22,有限会社ヤマナ,,有限会社,福井県,あわら市,下金屋第３２号１番地８６,,18,208,9190727,,,2021-10-22,清算の結了等,,,2015-10-05,1,,,,,ヤマナ,0
1823,7230005003753,登記記録の閉鎖等,0,2021-10-27,2021-10-21,農事組合法人荻生育苗組合,,その他の設立登記法人,富山県,黒部市,荻生８２７番地,,16,207,9380801,,,2021-10-21,清算の結了等,,,2015-10-05,1,,,,,オギュウイクビョウクミアイ,0
1827,7240001045352,登記記録の閉鎖等,0,2021-10-27,2021-10-20,バロン株式会社,,株式会社,広島県,安芸郡熊野町,平谷２丁目５番１０号,,34,307,7314229,,,2021-10-20,清算の結了等,,,2015-10-05,1,,,,,バロン,0
1829,7240003004356,登記記録の閉鎖等,0,2021-10-27,2021-10-25,合同会社自然環境電力事業会,,合同会社,広島県,広島市中区,南吉島１丁目２番３７号,,34,101,7300826,,,2021-10-25,清算の結了等,,,2019-08-14,1,,,,,シゼンカンキョウデンリョクジギョウカイ,0
1837,7260001035327,登記記録の閉鎖等,0,2021-10-27,2021-10-26,株式会社チコラシステム,,株式会社,岡山県,加賀郡吉備中央町,岨谷３７１２番地,,33,681,7161552,,,2021-10-26,清算の結了等,,,2021-03-31,1,,,,,チコラシステム,0
1842,7290001004535,登記記録の閉鎖等,0,2021-10-27,2021-10-18,株式会社コイン興産,,株式会社,福岡県,福岡市中央区,大手門１丁目４番１５－２０４号,,40,133,8100074,,,2021-10-18,清算の結了等,,,2015-10-05,1,,,,,コインコウサン,0
1847,7290001069561,登記記録の閉鎖等,0,2021-10-27,2021-10-18,株式会社ＹＳカンパニー,,株式会社,福岡県,大野城市,御笠川２丁目１２－１４,,40,219,8160912,,,2021-10-18,清算の結了等,,,2015-10-05,1,,,,,,0
1859,7290805009341,登記記録の閉鎖等,0,2021-10-27,2021-10-06,一般社団法人妊娠こどもＳＯＳローズステーション,,その他の設立登記法人,福岡県,北九州市若松区,青葉台西３丁目８番１３号,,40,103,8080143,,,2021-10-06,清算の結了等,,,2020-08-28,1,,,,,ニンシンコドモエスオウエスローズステーション,0
1861,7310001013401,登記記録の閉鎖等,0,2021-10-27,2021-10-25,弥永工業株式会社,,株式会社,長崎県,長崎市,大浜町６５０番地９５,,42,201,8500066,,,2021-10-25,清算の結了等,,,2015-10-05,1,,,,,ヤナガコウギョウ,0
1873,7370001009162,登記記録の閉鎖等,0,2021-10-27,2021-10-25,株式会社千登勢,,株式会社,宮城県,仙台市青葉区,小田原６丁目３番８号,,04,101,9800003,,,2021-10-25,清算の結了等,,,2015-10-05,1,,,,,チトセ,0
1875,7370002020580,登記記録の閉鎖等,0,2021-10-27,2021-10-19,有限会社皆川重機工業,,有限会社,宮城県,黒川郡大郷町,川内字長福寺山４７番地,,04,422,9813514,,,2021-10-19,清算の結了等,,,2015-10-05,1,,,,,ミナガワジュウキコウギョウ,0
1876,7380001005284,登記記録の閉鎖等,0,2021-10-27,2021-10-25,株式会社三幸建機,,株式会社,福島県,郡山市,大槻町字天正坦２番地の４８,,07,203,9630201,,,2021-10-25,清算の結了等,,,2015-10-05,1,,,,,サンコウケンキ,0
1891,8010001141982,登記記録の閉鎖等,0,2021-10-27,2021-10-21,エスピイ企画株式会社,,株式会社,東京都,千代田区,神田紺屋町１１番地,,13,101,1010035,,,2021-10-21,清算の結了等,,,2015-10-05,1,,,,,エスピイキカク,0
1901,8010401144296,登記記録の閉鎖等,0,2021-10-27,2021-10-13,株式会社ＦｉｎｄＳｃｏｐｅ,,株式会社,東京都,港区,東麻布２丁目３５番１号ＫＣビル６Ｆ,,13,103,1060044,,,2021-10-13,清算の結了等,,,2019-03-11,1,,,,,ファインドスコープ,0
1923,8011003008724,登記記録の閉鎖等,0,2021-10-27,2021-10-12,サンクスレコード合同会社,,合同会社,東京都,渋谷区,代官山町２０番９号,,13,113,1500034,,,2021-10-12,清算の結了等,,,2018-04-20,1,,,,,サンクスレコード,0
1938,8011701009874,登記記録の閉鎖等,0,2021-10-27,2021-10-22,株式会社アイドマドットコム,,株式会社,東京都,江戸川区,西瑞江４丁目１２番地,,13,123,1340015,,,2021-10-22,清算の結了等,,,2015-10-05,1,,,,,アイドマドットコム,0
1940,8011702001005,登記記録の閉鎖等,0,2021-10-27,2021-10-22,有限会社泉製作所,,有限会社,東京都,江戸川区,船堀７丁目１２番３号,,13,123,1340091,,,2021-10-22,清算の結了等,,,2015-10-05,1,,,,,イズミセイサクショ,0
1960,8020005003658,登記記録の閉鎖等,0,2021-10-27,2021-10-22,神奈川県家具工業組合,,その他の設立登記法人,神奈川県,横浜市中区,伊勢佐木町７丁目１５５番地７,,14,104,2310045,,,2021-10-22,清算の結了等,,,2015-10-05,1,,,,,カナガワケンカグ,0
1966,8021002038564,登記記録の閉鎖等,0,2021-10-27,2021-10-22,有限会社古谷製作所,,有限会社,神奈川県,秦野市,菩提２番地の４,,14,211,2591302,,,2021-10-22,清算の結了等,,,2015-10-05,1,,,,,フルヤセイサクジョ,0
1969,8030001038970,登記記録の閉鎖等,0,2021-10-27,2021-10-20,株式会社ＬＯＦＴ,,株式会社,埼玉県,八潮市,大字大曽根９５番地２,,11,234,3400834,,,2021-10-20,清算の結了等,,,2015-10-05,1,,,,,,0
1977,8030002008758,登記記録の閉鎖等,0,2021-10-27,2021-10-20,有限会社タカママ,,有限会社,埼玉県,さいたま市見沼区,染谷１丁目２４番地,,11,104,3370026,,,2021-10-20,清算の結了等,,,2015-10-05,1,,,,,タカママ,0
1984,8030005002320,登記記録の閉鎖等,0,2021-10-27,2021-10-20,特定非営利活動法人ＨＥＲＩＴＡＧＥ,,その他の設立登記法人,埼玉県,さいたま市南区,別所４丁目１３番２０号,,11,108,3360021,,,2021-10-20,清算の結了等,,,2015-10-05,1,,,,,ヘリテイジ,0
1985,8040001006530,登記記録の閉鎖等,0,2021-10-27,2021-10-18,フジインダストリー株式会社,,株式会社,千葉県,千葉市稲毛区,黒砂台１丁目１６番１２号,,12,103,2630041,,,2021-10-18,清算の結了等,,,2015-10-05,1,,,,,フジインダストリー,0
1994,8040005009199,登記記録の閉鎖等,0,2021-10-27,2021-10-21,医療法人社団治生会,,その他の設立登記法人,千葉県,市原市,迎田３９番地１０,,12,219,2990116,,,2021-10-21,清算の結了等,,,2015-10-05,1,,,,,ジセイカイ,0
1998,8050001035974,登記記録の閉鎖等,0,2021-10-27,2021-10-26,株式会社クラージュ,,株式会社,東京都,西東京市,西原町５丁目３番３０－３０３号,,13,229,1880004,,,2021-10-26,清算の結了等,,,2015-10-05,1,,,,,,0
2010,8080402004848,登記記録の閉鎖等,0,2021-10-27,2021-10-22,有限会社宝工房,,有限会社,静岡県,浜松市東区,篠ケ瀬町７０番地の１,,22,132,4350042,,,2021-10-22,清算の結了等,,,2015-10-05,1,,,,,タカラコウボウ,0
2020,8120001216815,登記記録の閉鎖等,0,2021-10-27,2021-10-25,アメージングハピネス株式会社,,株式会社,大阪府,大阪市浪速区,元町２丁目１番４号,,27,111,5560016,,,2021-10-25,清算の結了等,,,2018-11-02,1,,,,,アメージングハピネス,0
2026,8120002048860,登記記録の閉鎖等,0,2021-10-27,2021-10-26,有限会社ラッセル２１,,有限会社,大阪府,寝屋川市,高柳２丁目３８番５号アメニティコート２０６号,,27,215,5720051,,,2021-10-26,清算の結了等,,,2015-10-05,1,,,,,,0
2030,8120102018268,削除,,2021-10-27,,,,,,,,,,,,,,,,,,,,,,,,,
2036,8130001018211,登記記録の閉鎖等,0,2021-10-27,2021-10-22,株式会社図書印刷同朋舎,,株式会社,京都府,京都市下京区,中堂寺鍵田町２番地,,26,106,6008805,,,2021-10-22,清算の結了等,,,2015-10-05,1,,,,,,0
2047,8160002009198,登記記録の閉鎖等,0,2021-10-27,2021-10-26,有限会社ツジオート,,有限会社,滋賀県,愛知郡愛荘町,石橋２２番地,,25,425,5291311,,,2021-10-26,清算の結了等,,,2015-10-05,1,,,,,,0
2060,8180005016124,登記記録の閉鎖等,0,2021-10-27,2021-10-18,ＮＰＯ法人ウィッシュネット,,その他の設立登記法人,愛知県,江南市,古知野町久保見８０番地,,23,217,4838275,,,2021-10-18,清算の結了等,,,2015-10-05,1,,,,,ウィッシュネット,0
2075,8230002012517,登記記録の閉鎖等,0,2021-10-27,2021-10-19,有限会社翠光,,有限会社,富山県,高岡市,荒屋敷４８３番地２,,16,202,9330319,,,2021-10-19,清算の結了等,,,2015-10-05,1,,,,,,0
2093,8290005016195,登記記録の閉鎖等,0,2021-10-27,2021-10-22,一般社団法人インターナショナルカービングアソシェーション,,その他の設立登記法人,福岡県,久留米市,東合川３丁目１０番１５号,,40,203,8390809,,,2021-10-22,清算の結了等,,,2016-12-12,1,,,,,インターナショナルカービングアソシェーション,0
2096,8290802006729,登記記録の閉鎖等,0,2021-10-27,2021-10-12,有限会社有和ハウス工業,,有限会社,福岡県,北九州市小倉南区,沼本町１丁目７番１８号,,40,107,8000208,,,2021-10-12,清算の結了等,,,2015-10-05,1,,,,,ユウワハウスコウギョウ,0
2108,8360005002089,登記記録の閉鎖等,0,2021-10-27,2021-09-07,沖縄卸売酒販組合,,その他の設立登記法人,沖縄県,沖縄市,住吉２丁目２８番３０号,,47,211,9040003,,,2021-09-07,合併による解散等,9360005006510,令和３年９月７日沖縄県浦添市勢理客三丁目３番１２号那覇酒類販売（株）内沖縄南部卸売酒販組合（4360005002943）と沖縄県名護市大南四丁目１１番１３号名護卸売酒販組合（4360005003272）と沖縄県宮古島市平良字下里８１２番地宮古島酒販組合（6360005003774）と沖縄県石垣市美崎町７番地１１石垣卸売酒販組合（8360005003649）と合併して沖縄県那覇市前島三丁目４番１６号（有）喜屋武商店内沖縄県卸売酒販組合（9360005006510）を設立し解散,2015-10-05,1,,,,,オキナワオロシウリ,0
2109,8360005003649,登記記録の閉鎖等,0,2021-10-27,2021-09-07,石垣卸売酒販組合,,その他の設立登記法人,沖縄県,石垣市,美崎町７番地１１,,47,207,9070012,,,2021-09-07,合併による解散等,9360005006510,令和３年９月７日沖縄県浦添市勢理客三丁目３番１２号那覇酒類販売（株）内沖縄南部卸売酒販組合（4360005002943）と沖縄県沖縄市住吉二丁目２８番３０号沖縄卸売酒販組合（8360005002089）と沖縄県名護市大南四丁目１１番１３号名護卸売酒販組合（4360005003272）と沖縄県宮古島市平良字下里８１２番地宮古島酒販組合（6360005003774）と合併して沖縄県那覇市前島三丁目４番１６号（有）喜屋武商店内沖縄県卸売酒販組合（9360005006510）を設立し解散,2015-10-05,1,,,,,イシガキオロシウリ,0
2115,8400005005343,登記記録の閉鎖等,0,2021-10-27,2021-10-22,一般社団法人ＫＡＩ　ＯＴＳＵＣＨＩ,,その他の設立登記法人,岩手県,上閉伊郡大槌町,大ケ口１丁目２３番９号,,03,461,0281132,,,2021-10-22,清算の結了等,,,2015-10-05,1,,,,,カイオオツチ,0
2118,8460002003204,登記記録の閉鎖等,0,2021-10-27,2021-10-25,有限会社森商店,,有限会社,北海道,釧路市,新橋大通８丁目１番地の１２,,01,206,0850046,,,2021-10-25,清算の結了等,,,2015-10-05,1,,,,,モリショウテン,0
2141,9010003030638,登記記録の閉鎖等,0,2021-10-27,2021-10-26,日本橋ホテル合同会社,,合同会社,東京都,千代田区,内神田２丁目２番６号５階あすな会計事務所内,,13,101,1010047,,,2021-10-26,清算の結了等,,,2019-09-19,1,,,,,ニホンバシホテル,0
2149,9010401141268,登記記録の閉鎖等,0,2021-10-27,2021-10-22,エイジェックＲ＆Ｄ株式会社,,株式会社,東京都,港区,港南２丁目１６番４号品川グランドセントラルタワー７階,,13,103,1080075,,,2021-10-22,合併による解散等,3011101036128,令和３年１０月１日東京都新宿区西新宿一丁目２５番１号新宿センタービル４６階株式会社エイジェック（3011101036128）に合併し解散,2018-10-10,1,,,,,エイジェックアールアンドディー,0
2151,9010401147208,登記記録の閉鎖等,0,2021-10-27,2021-10-22,株式会社総合監査センター,,株式会社,東京都,港区,港南２丁目１６番４号品川グランドセントラルタワー,,13,103,1080075,,,2021-10-22,合併による解散等,3011101036128,令和３年１０月１日東京都新宿区西新宿一丁目２５番１号新宿センタービル４６階株式会社エイジェック（3011101036128）に合併し解散,2019-08-06,1,,,,,ソウゴウカンサセンター,0
2180,9011002030348,登記記録の閉鎖等,0,2021-10-27,2021-10-12,有限会社Ｂｕｔｔｅｒｏ　Ｊａｐａｎ,,有限会社,東京都,渋谷区,神宮前５丁目４５番２号,,13,113,1500001,,,2021-10-12,清算の結了等,,,2015-10-05,1,,,,,ブッテロジャパン,0
2185,9011101091209,登記記録の閉鎖等,0,2021-10-27,2021-10-21,株式会社ＭＲコーポレーション,,株式会社,東京都,新宿区,北新宿１丁目３１番３号２Ｆ,,13,104,1690074,,,2021-10-21,清算の結了等,,,2020-05-12,1,,,,,エムアールコーポレーション,0
2187,9011105008613,登記記録の閉鎖等,0,2021-10-27,2021-10-19,一般社団法人相続終活検定協会,,その他の設立登記法人,東京都,新宿区,四谷三栄町１２番５号ライラック三栄Ｂ１階,,13,104,1600008,,,2021-10-19,清算の結了等,,,2018-12-17,1,,,,,ソウゾクシュウカツケンテイキョウカイ,0
2190,9011301019942,登記記録の閉鎖等,0,2021-10-27,2021-10-20,株式会社ニューニュー,,株式会社,東京都,中央区,築地５丁目３番３号,,13,102,1040045,,,2021-10-20,清算の結了等,,,2015-10-05,1,,,,,ニューニュー,0
2214,9020002077852,登記記録の閉鎖等,0,2021-10-27,2021-10-22,有限会社ハルサービス,,有限会社,神奈川県,横浜市青葉区,市ケ尾町１１７５番地１２,,14,117,2250024,,,2021-10-22,清算の結了等,,,2015-10-05,1,,,,,ハルサービス,0
2226,9030001107972,登記記録の閉鎖等,0,2021-10-27,2021-10-20,株式会社すまい,,株式会社,埼玉県,さいたま市浦和区,高砂４丁目３番１９号,,11,107,3300063,,,2021-10-20,清算の結了等,,,2015-10-05,1,,,,,スマイ,0
2236,9030002083593,登記記録の閉鎖等,0,2021-10-27,2021-10-20,有限会社ボディショップハセガワ,,有限会社,埼玉県,北本市,宮内５丁目１９９番地１,,11,233,3640002,,,2021-10-20,清算の結了等,,,2015-10-05,1,,,,,ボディショップハセガワ,0
2238,9030002089772,登記記録の閉鎖等,0,2021-10-27,2021-10-20,有限会社レインボー,,有限会社,埼玉県,北葛飾郡松伏町,田中１丁目１１番地６,,11,465,3430117,,,2021-10-20,清算の結了等,,,2015-10-05,1,,,,,レインボー,0
2255,9050002011073,登記記録の閉鎖等,0,2021-10-27,2021-10-21,有限会社魚総,,有限会社,茨城県,土浦市,小松１丁目２２番２３号,,08,203,3000823,,,2021-10-21,清算の結了等,,,2015-10-05,1,,,,,ウオソウ,0
2263,9070001029115,登記記録の閉鎖等,0,2021-10-27,2021-10-25,龍和株式会社,,株式会社,群馬県,高崎市,箕郷町矢原１８９７番地１２,,10,202,3703107,,,2021-10-25,清算の結了等,,,2015-10-05,1,,,,,リュウワ,0
2271,9080402006744,登記記録の閉鎖等,0,2021-10-27,2021-10-25,有限会社ビューティーやよい,,有限会社,静岡県,浜松市東区,笠井町１３６番地の１,,22,132,4313107,,,2021-10-25,清算の結了等,,,2015-10-05,1,,,,,ビューティーヤヨイ,0
2273,9090002006318,登記記録の閉鎖等,0,2021-10-27,2021-10-22,有限会社駅前サービス,,有限会社,山梨県,甲府市,城東５丁目１番１１号,,19,201,4000861,,,2021-10-22,清算の結了等,,,2015-10-05,1,,,,,エキマエサービス,0
2284,9120001062457,登記記録の閉鎖等,0,2021-10-27,2021-10-25,株式会社環境総合研究所,,株式会社,大阪府,大阪市北区,鶴野町４番１１－１２０６号,,27,127,5300014,,,2021-10-25,清算の結了等,,,2015-10-05,1,,,,,カンキョウソウゴウケンキュウショ,0
2321,9140001068106,登記記録の閉鎖等,0,2021-10-27,2021-10-25,株式会社エスケイワイ電子,,株式会社,兵庫県,西宮市,屋敷町４－１５東棟,,28,204,6620963,,,2021-10-25,清算の結了等,,,2015-10-05,1,,,,,,0
2338,9180001075098,登記記録の閉鎖等,0,2021-10-27,2021-10-22,株式会社モノリス,,株式会社,愛知県,名古屋市瑞穂区,茨木町８０番地,,23,108,4670045,,,2021-10-22,清算の結了等,,,2015-10-05,1,,,,,モノリス,0
2340,9180001116579,登記記録の閉鎖等,0,2021-10-27,2021-10-01,株式会社ジャパンフードスピリッツ,,株式会社,岐阜県,岐阜市,柳津町東塚２丁目５番地２,,21,201,5016102,,,2021-10-01,合併による解散等,5200001001856,令和３年１０月１日岐阜市薮田南一丁目７番２２号株式会社敬愛（5200001001856）に合併し解散,2015-10-05,1,,,,,ジャパンフードスピリッツ,0
2359,9280005003838,登記記録の閉鎖等,0,2021-10-27,2021-10-26,金皇寺,,その他の設立登記法人,島根県,大田市,仁摩町大国６０８番地,,32,205,6992303,,,2021-10-26,清算の結了等,,,2015-10-05,1,,,,,コンコウジ,0
2371,9300001006503,登記記録の閉鎖等,0,2021-10-27,2021-10-20,株式会社ワールドシステム,,株式会社,佐賀県,三養基郡上峰町,大字堤３９７１番地３,,41,345,8490124,,,2021-10-20,清算の結了等,,,2015-10-05,1,,,,,ワールドシステム,0
2380,9340002010310,登記記録の閉鎖等,0,2021-10-27,2021-10-25,有限会社米玉利建設,,有限会社,鹿児島県,鹿児島市,下福元町１１１７９番地２,,46,201,8910144,,,2021-10-25,清算の結了等,,,2015-10-05,1,,,,,ヨネタマリケンセツ,0
2396,9430001005137,登記記録の閉鎖等,0,2021-10-27,2021-10-22,株式会社グローバル社会経済研究所,,株式会社,北海道,札幌市厚別区,上野幌三条６丁目２番１号,,01,108,0040033,,,2021-10-22,清算の結了等,,,2015-10-05,1,,,,,グローバルシャカイケイザイケンキュウショ,0
2405,9480002006022,登記記録の閉鎖等,0,2021-10-27,2021-10-25,有限会社未来舎,,有限会社,徳島県,徳島市,佐古五番町１２番１１号,,36,201,7700025,,,2021-10-25,清算の結了等,,,2015-10-05,1,,,,,ミライシャ,0
