sequenceNumber,corporateNumber,process,correct,updateDate,changeDate,name,nameImageId,kind,prefectureName,cityName,streetNumber,addressImageId,prefectureCode,cityCode,postCode,addressOutside,addressOutsideImageId,closeDate,closeCause,successorCorporateNumber,changeCause,assignmentDate,latest,enName,enPrefectureName,enCityName,enAddressOutside,furigana,hihyoji
30,1010403007235,登記記録の閉鎖等,0,2024-05-24,2024-05-07,株式会社天野屋,,株式会社,東京都,港区,三田３丁目７番１５号,,13,103,1080073,,,2024-05-07,清算の結了等,,,2015-10-05,1,,,,,アマノヤ,0
49,1011001057242,登記記録の閉鎖等,0,2024-05-24,2024-05-08,株式会社創栄プランニング,,株式会社,東京都,渋谷区,松濤１丁目２８番８号,,13,113,1500046,,,2024-05-08,清算の結了等,,,2015-10-05,1,,,,,ソウエイプランニング,0
56,1011002024407,登記記録の閉鎖等,0,2024-05-24,2024-05-08,有限会社イーエスティー,,有限会社,東京都,渋谷区,松濤１丁目２８番８号,,13,113,1500046,,,2024-05-08,清算の結了等,,,2015-10-05,1,,,,,イーエスティー,0
77,1012401031290,登記記録の閉鎖等,0,2024-05-24,2024-05-15,株式会社Ｅ’ｓ,,株式会社,東京都,武蔵野市,吉祥寺北町３丁目７番５号１３,,13,203,1800001,,,2024-05-15,清算の結了等,,,2016-04-15,1,,,,,イーズ,0
80,1013301011366,登記記録の閉鎖等,0,2024-05-24,2024-05-15,美咲企画株式会社,,株式会社,東京都,豊島区,南大塚１丁目５１番７号,,13,116,1700005,,,2024-05-15,合併による解散等,4013301011371,令和６年５月１５日東京都豊島区南大塚一丁目５１番７号美咲ナショナル電器販売株式会社（4013301011371）に合併し解散,2015-10-05,1,,,,,ミサキキカク,0
91,1021002065722,登記記録の閉鎖等,0,2024-05-24,2024-05-23,有限会社テス研,,有限会社,神奈川県,横須賀市,ハイランド２丁目１９番１４号,,14,201,2390833,,,2024-05-23,清算の結了等,,,2015-10-05,1,,,,,,0
93,1030001002017,登記記録の閉鎖等,0,2024-05-24,2024-05-15,株式会社釜屋金物店,,株式会社,埼玉県,さいたま市見沼区,大和田町１丁目１９７０番地,,11,104,3370053,,,2024-05-15,清算の結了等,,,2015-10-05,1,,,,,カマヤカナモノテン,0
111,1040002101270,登記記録の閉鎖等,0,2024-05-24,2024-05-14,有限会社花まる観光自動車,,有限会社,千葉県,南房総市,岩糸２５９９番地の１,,12,234,2992512,,,2024-05-14,清算の結了等,,,2015-10-05,1,,,,,ハナマルカンコウジドウシャ,0
117,1050003000520,登記記録の閉鎖等,0,2024-05-24,2024-05-21,合同会社Ｉｓ,,合同会社,茨城県,ひたちなか市,大字津田１８４６番地３,,08,221,3120032,,,2024-05-21,清算の結了等,,,2015-10-05,1,,,,,アイズ,0
132,1120001167164,登記記録の閉鎖等,0,2024-05-24,2024-05-22,佐野スペースデザイン株式会社,,株式会社,大阪府,堺市美原区,さつき野東３丁目１０番地６,,27,147,5870032,,,2024-05-22,清算の結了等,,,2015-10-05,1,,,,,サノスペースデザイン,0
144,1140001015841,登記記録の閉鎖等,0,2024-05-24,2024-05-21,株式会社奥田工務店,,株式会社,兵庫県,神戸市長田区,菅原通４丁目７５番地,,28,106,6530015,,,2024-05-21,清算の結了等,,,2015-10-05,1,,,,,オクダコウムテン,0
152,1150001006526,登記記録の閉鎖等,0,2024-05-24,2024-05-20,新生グラビア株式会社,,株式会社,秋田県,能代市,河戸川字南西山１８番地５,,05,202,0160171,,,2024-05-20,清算の結了等,,,2015-10-05,1,,,,,シンセイグラビア,0
169,1180002053060,登記記録の閉鎖等,0,2024-05-24,2024-05-17,有限会社サクセスコーポレーション,,有限会社,愛知県,名古屋市中村区,野上町４９番地の１,,23,105,4530859,,,2024-05-17,清算の結了等,,,2015-10-05,1,,,,,サクセスコーポレーション,0
175,1210002010702,登記記録の閉鎖等,0,2024-05-24,2024-05-20,有限会社まつもと不動産,,有限会社,福井県,敦賀市,呉竹町１丁目１８番９号,,18,202,9140802,,,2024-05-20,清算の結了等,,,2015-10-05,1,,,,,マツモトフドウサン,0
183,1230005002281,登記記録の閉鎖等,0,2024-05-24,2024-05-23,常得寺,,その他の設立登記法人,富山県,中新川郡上市町,広野３６７番地,,16,322,9300412,,,2024-05-23,清算の結了等,,,2015-10-05,1,,,,,ジョウトクジ,0
188,1260002010581,登記記録の閉鎖等,0,2024-05-24,2024-05-20,有限会社吉弘建設,00003486,有限会社,岡山県,岡山市中区,平井５丁目２番５号,,33,102,7038282,,,2024-05-20,清算の結了等,,,2015-10-05,1,,,,,ヨシヒロケンセツ,0
191,1290001030586,登記記録の閉鎖等,0,2024-05-24,2024-04-23,ＦＴホールディングス株式会社,,株式会社,福岡県,福岡市中央区,大宮２丁目５番１９号,,40,133,8100013,,,2024-04-23,清算の結了等,,,2015-10-05,1,,,,,,0
200,1290002022418,登記記録の閉鎖等,0,2024-05-24,2024-04-24,有限会社エムケー,,有限会社,福岡県,福岡市東区,舞松原３丁目１４番１７号,,40,131,8130042,,,2024-04-24,清算の結了等,,,2015-10-05,1,,,,,エムケー,0
244,1430002057457,登記記録の閉鎖等,0,2024-05-24,2024-05-13,有限会社大石鉄工所,,有限会社,北海道,岩内郡岩内町,字万代４０番地の９,,01,402,0450003,,,2024-05-13,清算の結了等,,,2015-10-05,1,,,,,,0
257,2010001098873,登記記録の閉鎖等,0,2024-05-24,2024-05-10,野村ヘルスケア・サポート＆アドバイザリー株式会社,,株式会社,東京都,千代田区,大手町２丁目２番２号,,13,101,1000004,,,2024-05-10,合併による解散等,6010001074037,令和６年５月１日東京都中央区日本橋一丁目１３番１号野村證券株式会社（6010001074037）に合併し解散,2015-10-05,1,,,,,ノムラヘルスケアサポートアンドアドバイザリー,0
261,2010002004665,登記記録の閉鎖等,0,2024-05-24,2024-05-09,有限会社ゼクス・クリエイティブ,,有限会社,東京都,港区,浜松町２丁目２番１５号,,13,103,1050013,,,2024-05-09,清算の結了等,,,2015-10-05,1,,,,,ゼクスクリエイティブ,0
335,2020002105875,登記記録の閉鎖等,0,2024-05-24,2024-05-15,有限会社ジャスト,,有限会社,神奈川県,横浜市南区,別所中里台１２番３３号,,14,105,2320065,,,2024-05-15,清算の結了等,,,2015-10-05,1,,,,,ジャスト,0
344,2021002054047,登記記録の閉鎖等,0,2024-05-24,2024-05-23,有限会社平塚興産,,有限会社,神奈川県,小田原市,堀之内１９６番地,,14,206,2500853,,,2024-05-23,清算の結了等,,,2015-10-05,1,,,,,ヒラツカコウサン,0
349,2030002066167,登記記録の閉鎖等,0,2024-05-24,2024-05-20,有限会社アン・ウエルス,,有限会社,埼玉県,和光市,白子２丁目１４番５６号,,11,229,3510101,,,2024-05-20,清算の結了等,,,2015-10-05,1,,,,,アンウエルス,0
350,2030002119858,登記記録の閉鎖等,0,2024-05-24,2024-05-22,有限会社マルキ材木店,,有限会社,埼玉県,飯能市,柳町３番６号,,11,209,3570035,,,2024-05-22,清算の結了等,,,2015-10-05,1,,,,,マルキザイモクテン,0
418,2180001136039,登記記録の閉鎖等,0,2024-05-24,2024-05-17,株式会社ブエナビスタ,,株式会社,愛知県,津島市,大字古川字上割５９８番地６,,23,208,4960043,,,2024-05-17,清算の結了等,,,2019-04-04,1,,,,,ブエナビスタ,0
470,2370301003423,登記記録の閉鎖等,0,2024-05-24,2024-05-20,株式会社マル幸商事,,株式会社,宮城県,石巻市,小渕浜泥沢上町２番１,,04,202,9862415,,,2024-05-20,清算の結了等,,,2015-10-05,1,,,,,,0
503,3010001191999,登記記録の閉鎖等,0,2024-05-24,2024-05-14,株式会社ナナハチバナナ,,株式会社,千葉県,香取市,沢１８６９番地,,12,236,2870105,,,2024-05-14,清算の結了等,,,2018-05-23,1,,,,,ナナハチバナナ,0
510,3010002020604,登記記録の閉鎖等,0,2024-05-24,2024-05-13,有限会社シモツー,,有限会社,東京都,中央区,日本橋本町１丁目２番８号,,13,102,1030023,,,2024-05-13,清算の結了等,,,2015-10-05,1,,,,,シモツー,0
513,3010005029642,登記記録の閉鎖等,0,2024-05-24,2024-05-13,ＡＣ１５一般社団法人,,その他の設立登記法人,東京都,板橋区,上板橋１丁目１９番１６号,,13,119,1740076,,,2024-05-13,清算の結了等,,,2019-01-25,1,,,,,エーシーフィフティーン,0
527,3010403026282,登記記録の閉鎖等,0,2024-05-24,2024-05-08,合同会社ＧＫ０５１,,合同会社,東京都,港区,虎ノ門３丁目２２番１０－２０１号,,13,103,1050001,,,2024-05-08,清算の結了等,,,2021-10-08,1,,,,,ジーケイゼロファイブワン,0
529,3010501021929,登記記録の閉鎖等,0,2024-05-24,2024-05-20,株式会社サントラスト,,株式会社,東京都,台東区,今戸２丁目１７番１０号,,13,106,1110024,,,2024-05-20,清算の結了等,,,2015-10-05,1,,,,,,0
535,3010505002280,登記記録の閉鎖等,0,2024-05-24,2024-05-15,一般社団法人絵封筒協会,,その他の設立登記法人,神奈川県,横浜市港北区,日吉４丁目３番２号,,14,109,2230061,,,2024-05-15,清算の結了等,,,2015-10-05,1,,,,,エフウトウキョウカイ,0
546,3010901005655,登記記録の閉鎖等,0,2024-05-24,2024-05-22,株式会社昭伸,,株式会社,東京都,世田谷区,経堂４丁目９番２号,,13,112,1560052,,,2024-05-22,清算の結了等,,,2015-10-05,1,,,,,ショウシン,0
549,3011001112359,登記記録の閉鎖等,0,2024-05-24,2024-05-21,株式会社ラクシア,,株式会社,東京都,新宿区,新宿２丁目１０番７号,,13,104,1600022,,,2024-05-21,合併による解散等,6011001051257,令和６年５月１日東京都港区南青山二丁目１２番１５号株式会社Ｙ．Ｓ．Ｅ（6011001051257）に合併し解散,2016-08-18,1,,,,,ラクシア,0
575,3020001143033,登記記録の閉鎖等,0,2024-05-24,2024-05-15,株式会社プログレス,,株式会社,神奈川県,横浜市港南区,笹下６丁目３８番５３号芙蓉ハイツ２０１,,14,111,2340052,,,2024-05-15,清算の結了等,,,2021-09-16,1,,,,,プログレス,0
579,3020002034479,登記記録の閉鎖等,0,2024-05-24,2024-05-16,有限会社ディーエーアイ,,有限会社,神奈川県,横浜市港北区,新横浜３丁目１３番地２クレッセント新横浜７０１号室,,14,109,2220033,,,2024-05-16,清算の結了等,,,2015-10-05,1,,,,,ディーエーアイ,0
600,3040001014736,登記記録の閉鎖等,0,2024-05-24,2024-05-14,不二装備工業株式会社,,株式会社,千葉県,習志野市,大久保４丁目３番８号,,12,216,2750011,,,2024-05-14,清算の結了等,,,2015-10-05,1,,,,,フジソウビコウギョウ,0
622,3060001021846,登記記録の閉鎖等,0,2024-05-24,2024-05-16,株式会社ＳＡホームサービス,,株式会社,栃木県,小山市,駅東通り１丁目２８番５号田中ビルＮｏ．３　２Ｆ西号室,,09,208,3230022,,,2024-05-16,清算の結了等,,,2015-10-05,1,,,,,エスエーホームサービス,0
627,3080102011083,登記記録の閉鎖等,0,2024-05-24,2024-05-21,有限会社戸塚理容,,有限会社,静岡県,三島市,中央町６番１３号,,22,206,4110858,,,2024-05-21,清算の結了等,,,2015-10-05,1,,,,,トツカリヨウ,0
650,3120101024073,登記記録の閉鎖等,0,2024-05-24,2024-04-23,株式会社グラン,,株式会社,福岡県,福岡市中央区,大名２丁目１０番３８号,,40,133,8100041,,,2024-04-23,清算の結了等,,,2015-10-05,1,,,,,グラン,0
678,3180001088304,登記記録の閉鎖等,0,2024-05-24,2024-05-16,株式会社先望,,株式会社,愛知県,西春日井郡豊山町,大字豊場字高前１９４番地３,,23,342,4800202,,,2024-05-16,清算の結了等,,,2015-10-05,1,,,,,センボウ,0
688,3180301014620,登記記録の閉鎖等,0,2024-05-24,2024-05-20,株式会社Ａｄｖａｎｃｅｄ　Ｄｒｉｖｅｒ　Ｉｎｆｏｒｍａｔｉｏｎ　Ｔｅｃｈｎｏｌｏｇｙ,,株式会社,愛知県,刈谷市,昭和町１丁目１番地,,23,210,4480029,,,2024-05-20,清算の結了等,,,2015-10-05,1,,,,,アドバンストドライバーインフォメーションテクノロジー,0
695,3190001027070,登記記録の閉鎖等,0,2024-05-24,2024-05-23,株式会社藤二建工,,株式会社,三重県,四日市市,東富田町１４番４号リビエールＮ弐番館１０３号,,24,202,5108006,,,2024-05-23,清算の結了等,,,2020-01-30,1,,,,,フジケンコウ,0
725,3290002009603,登記記録の閉鎖等,0,2024-05-24,2024-05-10,有限会社トミーエステート,,有限会社,福岡県,福岡市早良区,田隈１丁目２３番１０号,,40,137,8140174,,,2024-05-10,清算の結了等,,,2015-10-05,1,,,,,トミーエステート,0
757,3470001016656,登記記録の閉鎖等,0,2024-05-24,2024-04-11,株式会社ＤｏｃｔｏｒＬａｂｏ,,株式会社,香川県,観音寺市,大野原町大野原３１０４番地１０,,37,205,7691611,,,2024-04-11,清算の結了等,,,2017-12-22,1,,,,,,0
768,4010001135146,登記記録の閉鎖等,0,2024-05-24,2024-05-10,野村アグリプランニング＆アドバイザリー株式会社,,株式会社,東京都,千代田区,大手町２丁目２番２号,,13,101,1000004,,,2024-05-10,合併による解散等,6010001074037,令和６年５月１日東京都中央区日本橋一丁目１３番１号野村證券株式会社（6010001074037）に合併し解散,2015-10-05,1,,,,,ノムラアグリプランニングアンドアドバイザリー,0
774,4010002037192,登記記録の閉鎖等,0,2024-05-24,2024-05-14,日本オブキャット有限会社,,有限会社,東京都,中央区,佃２丁目１９番１－５０２号,,13,102,1040051,,,2024-05-14,清算の結了等,,,2015-10-05,1,,,,,ニホンオブキャット,0
792,4010505001455,登記記録の閉鎖等,0,2024-05-24,2024-05-20,特定非営利活動法人日本健脳協会,,その他の設立登記法人,東京都,台東区,上野５丁目１７番２号,,13,106,1100005,,,2024-05-20,清算の結了等,,,2015-10-05,1,,,,,ニホンケンノウキョウカイ,0
810,4011101090041,登記記録の閉鎖等,0,2024-05-24,2024-05-17,ＶＲ　Ｐｏｓｔ株式会社,,株式会社,東京都,新宿区,西新宿３丁目３－１３西新宿水間ビル２Ｆ,,13,104,1600023,,,2024-05-17,清算の結了等,,,2020-01-09,1,,,,,ブイアールポスト,0
829,4012402019134,登記記録の閉鎖等,0,2024-05-24,2024-05-21,有限会社第一技研,,有限会社,東京都,武蔵野市,吉祥寺南町５丁目１２番６号,,13,203,1800003,,,2024-05-21,清算の結了等,,,2015-10-05,1,,,,,ダイイチギケン,0
834,4012702006402,登記記録の閉鎖等,0,2024-05-24,2024-05-22,有限会社加藤商店,,有限会社,東京都,東久留米市,幸町５丁目７番４号,,13,222,2030052,,,2024-05-22,清算の結了等,,,2015-10-05,1,,,,,カトウショウテン,0
842,4020001105189,登記記録の閉鎖等,0,2024-05-24,2024-05-17,株式会社みらい協育,,株式会社,神奈川県,横浜市保土ケ谷区,仏向町９４２番地１２,,14,106,2400044,,,2024-05-17,清算の結了等,,,2015-10-05,1,,,,,ミライキョウイク,0
860,4030001144582,登記記録の閉鎖等,0,2024-05-24,2024-05-22,株式会社Ｓｍｉｌｅ　Ｓｕｎｎｙ,,株式会社,埼玉県,さいたま市大宮区,仲町３丁目５８番地Ｔ＆Ｔ２０１号,,11,103,3300845,,,2024-05-22,清算の結了等,,,2021-10-05,1,,,,,スマイルサニー,0
883,4050003003009,登記記録の閉鎖等,0,2024-05-24,2024-05-22,名揚合同会社,,合同会社,茨城県,稲敷郡阿見町,大字阿見４２８４－２３,,08,443,3000331,,,2024-05-22,清算の結了等,,,2015-10-05,1,,,,,メイヨウ,0
888,4070002006035,登記記録の閉鎖等,0,2024-05-24,2024-05-21,有限会社福祉移送そよかぜ,,有限会社,群馬県,前橋市,文京町１丁目４００番地１,,10,201,3710801,,,2024-05-21,清算の結了等,,,2015-10-05,1,,,,,フクシイソウソヨカゼ,0
889,4070002025976,登記記録の閉鎖等,0,2024-05-24,2024-05-20,有限会社生方保温板金,,有限会社,群馬県,渋川市,上白井５５３番地の１,,10,208,3770201,,,2024-05-20,清算の結了等,,,2015-10-05,1,,,,,ウブカタホオンバンキン,0
894,4100002021476,登記記録の閉鎖等,0,2024-05-24,2024-05-10,有限会社ポニイ,,有限会社,長野県,松本市,蟻ケ崎５丁目１番７－１３号,,20,202,3900861,,,2024-05-10,清算の結了等,,,2015-10-05,1,,,,,ポニイ,0
897,4110001016682,登記記録の閉鎖等,0,2024-05-24,2024-05-21,株式会社コム・メディカル,,株式会社,新潟県,新潟市中央区,湖南２４番地２,,15,103,9501151,,,2024-05-21,合併による解散等,7430001069398,令和６年５月１日札幌市白石区東札幌五条二丁目４番３０号株式会社アインファーマシーズ（7430001069398）に合併し解散,2015-10-05,1,,,,,コムメディカル,0
928,4180001063636,登記記録の閉鎖等,0,2024-05-24,2024-05-20,株式会社シンシア,,株式会社,愛知県,名古屋市名東区,藤が丘１７６番地藤栄ビル１階,,23,115,4650032,,,2024-05-20,清算の結了等,,,2015-10-05,1,,,,,シンシア,0
929,4180001130080,登記記録の閉鎖等,0,2024-05-24,2024-05-20,株式会社新實住建,,株式会社,愛知県,名古屋市中川区,高畑５丁目３４番地の５,,23,110,4540911,,,2024-05-20,清算の結了等,,,2017-11-10,1,,,,,ニイミジュウケン,0
939,4180301005049,登記記録の閉鎖等,0,2024-05-24,2024-05-23,株式会社井口,,株式会社,愛知県,豊橋市,花園町９５番地,,23,201,4400895,,,2024-05-23,清算の結了等,,,2015-10-05,1,,,,,,0
942,4180301026904,登記記録の閉鎖等,0,2024-05-24,2024-05-16,株式会社エコ・アースドットコム,,株式会社,愛知県,豊明市,西川町島原１番地１,,23,229,4701121,,,2024-05-16,清算の結了等,,,2015-10-05,1,,,,,エコアースドットコム,0
945,4190001011759,登記記録の閉鎖等,0,2024-05-24,2024-05-23,株式会社Ｒｅ．Ｌｉｆｅ,,株式会社,三重県,松阪市,平成町７６番地６,,24,204,5150824,,,2024-05-23,清算の結了等,,,2015-10-05,1,,,,,,0
947,4190002008853,登記記録の閉鎖等,0,2024-05-24,2024-05-23,三共建設有限会社,,有限会社,三重県,伊勢市,磯町１４０３番地１,,24,203,5150504,,,2024-05-23,清算の結了等,,,2015-10-05,1,,,,,サンキョウケンセツ,0
957,4240001026223,登記記録の閉鎖等,0,2024-05-24,2024-05-22,株式会社手島工業所,,株式会社,広島県,呉市,本通６丁目１０番８号,,34,202,7370045,,,2024-05-22,清算の結了等,,,2015-10-05,1,,,,,テシマコウギョウショ,0
961,4240005004539,登記記録の閉鎖等,0,2024-05-24,2024-05-23,企業組合とごうち味彩紀行,,その他の設立登記法人,広島県,山県郡安芸太田町,大字戸河内６７０番地の６,,34,368,7313810,,,2024-05-23,清算の結了等,,,2015-10-05,1,,,,,トゴウチアジサイキコウ,0
979,4290801009554,登記記録の閉鎖等,0,2024-05-24,2024-05-22,株式会社アダルト企画,,株式会社,福岡県,北九州市八幡東区,中尾３丁目１４番３号,,40,108,8050025,,,2024-05-22,合併による解散等,3290801001677,令和６年３月３１日北九州市八幡東区大蔵一丁目１番２１－２０１号株式会社サン商事（3290801001677）に合併し解散,2015-10-05,1,,,,,アダルトキカク,0
988,4350003002871,登記記録の閉鎖等,0,2024-05-24,2024-05-22,合同会社夢路,,合同会社,宮崎県,宮崎市,天満３丁目４番２１号,,45,201,8800936,,,2024-05-22,清算の結了等,,,2017-04-10,1,,,,,ユメジ,0
1000,4390001001731,登記記録の閉鎖等,0,2024-05-24,2024-05-17,株式会社ナダウ,,株式会社,山形県,山形市,十日町１丁目１番３５号,,06,201,9900031,,,2024-05-17,清算の結了等,,,2015-10-05,1,,,,,ナダウ,0
1001,4390001004255,登記記録の閉鎖等,0,2024-05-24,2024-05-17,株式会社ウイニング,,株式会社,山形県,山形市,馬見ケ崎１丁目２番２９号,,06,201,9900810,,,2024-05-17,清算の結了等,,,2015-10-05,1,,,,,ウイニング,0
1032,5010001158427,登記記録の閉鎖等,0,2024-05-24,2024-05-14,ＥＥＤ株式会社,,株式会社,東京都,中央区,日本橋１丁目２番１９号,,13,102,1030027,,,2024-05-14,清算の結了等,,,2015-10-05,1,,,,,イーイーデイー,0
1036,5010001190099,登記記録の閉鎖等,0,2024-05-24,2024-05-13,株式会社ブリリオ,,株式会社,東京都,中央区,勝どき６丁目３－１－２２１８,,13,102,1040054,,,2024-05-13,清算の結了等,,,2018-03-05,1,,,,,ブリリオ,0
1055,5010405020067,登記記録の閉鎖等,0,2024-05-24,2024-05-08,一般社団法人ＳＨ０５１,,その他の設立登記法人,東京都,港区,虎ノ門３丁目２２番１０－２０１号,,13,103,1050001,,,2024-05-08,清算の結了等,,,2021-08-11,1,,,,,エスエイチゼロファイブワン,0
1056,5010501006044,登記記録の閉鎖等,0,2024-05-24,2024-05-21,株式会社ジャンパール,,株式会社,東京都,台東区,浅草橋１丁目９番２号,,13,106,1110053,,,2024-05-21,合併による解散等,8010501000738,令和６年５月２１日東京都台東区浅草橋一丁目９番２号株式会社井田コーポレーション（8010501000738）に合併し解散,2015-10-05,1,,,,,ジャンパール,0
1088,5012702008100,登記記録の閉鎖等,0,2024-05-24,2024-05-21,有限会社林ビジネスコンサルタント,,有限会社,東京都,清瀬市,中里２丁目１３７７番地の１２,,13,221,2040003,,,2024-05-21,清算の結了等,,,2015-10-05,1,,,,,ハヤシビジネスコンサルタント,0
1100,5021001024808,登記記録の閉鎖等,0,2024-05-24,2024-05-23,株式会社金岡設備工業,,株式会社,神奈川県,相模原市中央区,上矢部５丁目１２番３‐１０号,,14,152,2520201,,,2024-05-23,清算の結了等,,,2015-10-05,1,,,,,カナオカセツビコウギョウ,0
1104,5030001032266,登記記録の閉鎖等,0,2024-05-24,2024-05-22,株式会社ダコール,,株式会社,埼玉県,久喜市,栗原１丁目１１番地４０,,11,232,3460012,,,2024-05-22,清算の結了等,,,2015-10-05,1,,,,,ダコール,0
1132,5080001018839,登記記録の閉鎖等,0,2024-05-24,2024-05-22,株式会社Ｃ４Ｃ,,株式会社,静岡県,静岡市駿河区,丸子６丁目４－３５,,22,102,4210103,,,2024-05-22,清算の結了等,,,2015-10-05,1,,,,,シーフォーシー,0
1136,5100001023068,登記記録の閉鎖等,0,2024-05-24,2024-05-10,株式会社高森豊丘新聞店,,株式会社,長野県,下伊那郡高森町,吉田２３３１番地７,,20,403,3993102,,,2024-05-10,清算の結了等,,,2015-10-05,1,,,,,タカモリトヨオカシンブンテン,0
1143,5110005009698,登記記録の閉鎖等,0,2024-05-24,2024-05-22,農事組合法人ほんどう,,その他の設立登記法人,新潟県,上越市,大字本道１８８６番地１,,15,222,9430184,,,2024-05-22,清算の結了等,,,2015-10-05,1,,,,,ホンドウ,0
1165,5120101054498,登記記録の閉鎖等,0,2024-05-24,2024-05-22,株式会社もみの樹,,株式会社,大阪府,堺市東区,草尾５６２番地１,,27,143,5998127,,,2024-05-22,清算の結了等,,,2016-03-24,1,,,,,モミノキ,0
1168,5120901048088,登記記録の閉鎖等,0,2024-05-24,2024-05-21,ＧＨＥＲＡＲＤＩＮＩ　ＪＡＰＡＮ株式会社,,株式会社,大阪府,箕面市,船場東２丁目１番１３号,,27,220,5620035,,,2024-05-21,清算の結了等,,,2023-09-27,1,,,,,ゲラルディーニジャパン,0
1186,5180001154260,登記記録の閉鎖等,0,2024-05-24,2024-05-17,株式会社ラーソ,,株式会社,愛知県,名古屋市天白区,池場２丁目６０５番地グリーンハウスマキＢ１０１号,,23,116,4680055,,,2024-05-17,清算の結了等,,,2022-12-20,1,,,,,ラーソ,0
1205,5210005009176,登記記録の閉鎖等,0,2024-05-24,2024-05-21,農事組合法人古木営農,,その他の設立登記法人,福井県,南条郡南越前町,古木第１４号５番地,,18,404,9190116,,,2024-05-21,清算の結了等,,,2015-10-05,1,,,,,フルキエイノウ,0
1220,5290001053286,登記記録の閉鎖等,0,2024-05-24,2024-04-26,株式会社山口製菓,,株式会社,福岡県,大川市,大字新田３１２番地,,40,212,8310043,,,2024-04-26,清算の結了等,,,2015-10-05,1,,,,,ヤマグチセイカ,0
1243,5340005009411,登記記録の閉鎖等,0,2024-05-24,2024-05-17,一般社団法人あいがて,,その他の設立登記法人,鹿児島県,鹿児島市,松陽台町７１番地４,,46,201,8992707,,,2024-05-17,清算の結了等,,,2022-02-18,1,,,,,アイガテ,0
1248,5380001019518,登記記録の閉鎖等,0,2024-05-24,2024-05-21,株式会社ディスクヴィレッジ,,株式会社,福島県,南会津郡下郷町,大字沢田字宅地続甲２５番地,,07,362,9695344,,,2024-05-21,清算の結了等,,,2015-10-05,1,,,,,ディスクヴィレッジ,0
1302,6010501006794,登記記録の閉鎖等,0,2024-05-24,2024-05-20,政和株式会社,,株式会社,東京都,台東区,三筋２丁目２３番４号,,13,106,1110055,,,2024-05-20,清算の結了等,,,2015-10-05,1,,,,,セイワ,0
1304,6010501045165,登記記録の閉鎖等,0,2024-05-24,2024-05-15,ｉＲＩＳクリニカルパートナーズ株式会社,,株式会社,東京都,台東区,上野１丁目１番１０号,,13,106,1100005,,,2024-05-15,合併による解散等,2010501042439,令和６年５月１日東京都台東区上野一丁目１番１０号ｉＲＩＳ株式会社（2010501042439）に合併し解散,2020-01-16,1,,,,,アイリスクリニカルパートナーズ,0
1312,6011001024618,登記記録の閉鎖等,0,2024-05-24,2024-05-13,株式会社渡辺タイル工事店,,株式会社,東京都,渋谷区,代々木３丁目８番１号２０６,,13,113,1510053,,,2024-05-13,清算の結了等,,,2015-10-05,1,,,,,ワタナベタイルコウジテン,0
1341,6011802017233,登記記録の閉鎖等,0,2024-05-24,2024-05-21,有限会社箱石工業所,,有限会社,東京都,足立区,小台２丁目１１番２号,,13,121,1200046,,,2024-05-21,清算の結了等,,,2015-10-05,1,,,,,ハコイシコウギョウショ,0
1356,6021001036876,登記記録の閉鎖等,0,2024-05-24,2024-05-23,太平洋建設株式会社,,株式会社,神奈川県,平塚市,片岡１１９０番地の１０,,14,203,2591213,,,2024-05-23,清算の結了等,,,2015-10-05,1,,,,,タイヘイヨウケンセツ,0
1359,6021001055488,登記記録の閉鎖等,0,2024-05-24,2024-05-22,ニューファウンド株式会社,,株式会社,神奈川県,藤沢市,鵠沼橘２丁目１４番１号,,14,205,2510024,,,2024-05-22,清算の結了等,,,2015-10-05,1,,,,,ニューファウンド,0
1375,6030003012570,登記記録の閉鎖等,0,2024-05-24,2024-05-02,合同会社アンドＭ,,合同会社,茨城県,筑西市,乙８７武蔵屋ビル１階,,08,227,3080041,,,2024-05-02,清算の結了等,,,2018-10-17,1,,,,,アンドエム,0
1390,6050005010612,登記記録の閉鎖等,0,2024-05-24,2024-05-21,特定非営利活動法人ＳＵＣＣＥＳＳ,,その他の設立登記法人,茨城県,龍ケ崎市,根町３３６４番地松崎ハイツ１０５号室,,08,208,3010837,,,2024-05-21,清算の結了等,,,2015-10-05,1,,,,,サクセス,0
1437,6170005002390,登記記録の閉鎖等,0,2024-05-24,2024-05-23,特定非営利活動法人ＡＩＥＬ言語・国際教育協会,,その他の設立登記法人,和歌山県,和歌山市,友田町４丁目８９番地,,30,201,6408342,,,2024-05-23,清算の結了等,,,2015-10-05,1,,,,,アイエルゲンゴコクサイキョウイクキョウカイ,0
1438,6180001013242,登記記録の閉鎖等,0,2024-05-24,2024-05-20,株式会社ビー・アンド・ディー,,株式会社,愛知県,名古屋市北区,丸新町３４番地,,23,103,4620063,,,2024-05-20,合併による解散等,1430001010672,令和６年５月１６日札幌市東区北二十四条東二十丁目１番２１号株式会社ツルハ（1430001010672）に合併し解散,2015-10-05,1,,,,,ビーアンドディー,0
1440,6180001143576,登記記録の閉鎖等,0,2024-05-24,2024-05-16,株式会社光和総建,,株式会社,愛知県,東海市,富木島町伏見３丁目１番地５５,,23,222,4760012,,,2024-05-16,清算の結了等,,,2020-11-11,1,,,,,コウワソウケン,0
1454,6180301035052,登記記録の閉鎖等,0,2024-05-24,2024-05-22,ＳｕｐｅｒＶｉｓｔａ　Ｊａｐａｎ株式会社,,株式会社,愛知県,豊川市,中央通２丁目１３番地,,23,207,4420051,,,2024-05-22,清算の結了等,,,2021-06-14,1,,,,,スーパービスタジャパン,0
1465,6260002020551,登記記録の閉鎖等,0,2024-05-24,2024-04-25,有限会社浜田屋,,有限会社,福岡県,福岡市中央区,天神２丁目３番１０号天神パインクレスト７１９号,,40,133,8100001,,,2024-04-25,清算の結了等,,,2015-10-05,1,,,,,ハマダヤ,0
1466,6290001027248,登記記録の閉鎖等,0,2024-05-24,2024-04-24,ゼンソフトウエア株式会社,,株式会社,福岡県,福岡市博多区,博多駅前３丁目７番３号,,40,132,8120011,,,2024-04-24,清算の結了等,,,2015-10-05,1,,,,,,0
1479,6290003007751,登記記録の閉鎖等,0,2024-05-24,2024-04-22,合同会社翔心,,合同会社,福岡県,飯塚市,長尾１３１０番地５,,40,205,8200701,,,2024-04-22,清算の結了等,,,2018-01-17,1,,,,,ショウシン,0
1503,6430001005189,登記記録の閉鎖等,0,2024-05-24,2024-05-23,株式会社クラス・ハーモニー,,株式会社,北海道,札幌市白石区,中央一条２丁目１１番１号,,01,104,0030011,,,2024-05-23,清算の結了等,,,2015-10-05,1,,,,,クラスハーモニー,0
1508,6460301003369,登記記録の閉鎖等,0,2024-05-24,2024-05-23,株式会社日下部藥局,,株式会社,北海道,網走市,南四条東１丁目１０番地の４,,01,211,0930004,,,2024-05-23,清算の結了等,,,2015-10-05,1,,,,,クサカベヤッキョク,0
1509,6460305000354,登記記録の閉鎖等,0,2024-05-24,2024-05-22,医療法人社団秀峰会,,その他の設立登記法人,北海道,北見市,春光町２丁目１３９番３号,,01,208,0900801,,,2024-05-22,清算の結了等,,,2015-10-05,1,,,,,シュウホウカイ,0
1529,7010001188397,登記記録の閉鎖等,0,2024-05-24,2024-05-14,株式会社ＦＬＯＷ１,,株式会社,東京都,千代田区,永田町２丁目１２番４号,,13,101,1000014,,,2024-05-14,清算の結了等,,,2017-12-18,1,,,,,フローワン,0
1542,7010003038410,登記記録の閉鎖等,0,2024-05-24,2024-04-19,合同会社ＮＩＴＲＯ,,合同会社,東京都,中央区,日本橋２丁目２－３,,13,102,1030027,,,2024-04-19,清算の結了等,,,2022-08-16,1,,,,,ニトロ,0
1545,7010005016050,登記記録の閉鎖等,0,2024-05-24,2024-05-10,弁護士法人西和総合法律事務所,,その他の設立登記法人,東京都,新宿区,四谷三栄町２番１４号,,13,104,1600008,,,2024-05-10,清算の結了等,,,2015-10-05,1,,,,,セイワソウゴウホウリツジムショ,0
1564,7010501028400,登記記録の閉鎖等,0,2024-05-24,2024-05-20,株式会社大芝,,株式会社,東京都,台東区,北上野２丁目３２番３号ＣＯＶＡ北上野１０１号室,,13,106,1100014,,,2024-05-20,清算の結了等,,,2015-10-05,1,,,,,オオシバ,0
1603,7011801020880,登記記録の閉鎖等,0,2024-05-24,2024-04-03,株式会社フレイ,,株式会社,東京都,葛飾区,白鳥２丁目２０番２８号,,13,122,1250063,,,2024-04-03,清算の結了等,,,2015-10-05,1,,,,,フレイ,0
1604,7011801025938,登記記録の閉鎖等,0,2024-05-24,2024-05-20,株式会社ゼットフラッグ,,株式会社,東京都,台東区,松が谷３丁目１番１２号,,13,106,1110036,,,2024-05-20,清算の結了等,,,2015-10-05,1,,,,,ゼットフラッグ,0
1606,7011802013719,登記記録の閉鎖等,0,2024-05-24,2024-05-22,有限会社シンコダ,,有限会社,東京都,足立区,花畑６丁目７番１号,,13,121,1210061,,,2024-05-22,清算の結了等,,,2015-10-05,1,,,,,シンコダ,0
1622,7021001066476,登記記録の閉鎖等,0,2024-05-24,2024-05-22,株式会社ｇｌｅｅ,,株式会社,神奈川県,秦野市,堀西４６２番地の３,,14,211,2591331,,,2024-05-22,清算の結了等,,,2019-01-22,1,,,,,グリー,0
1624,7030001019006,登記記録の閉鎖等,0,2024-05-24,2024-04-23,タケダ株式会社,,株式会社,福岡県,宗像市,池田１６２５番地１,,40,220,8113515,,,2024-04-23,清算の結了等,,,2015-10-05,1,,,,,タケダ,0
1626,7030001090428,登記記録の閉鎖等,0,2024-05-24,2024-05-22,株式会社ＢＲＡＮＤ,,株式会社,埼玉県,ふじみ野市,新駒林３丁目６番１１号,,11,245,3560030,,,2024-05-22,清算の結了等,,,2015-10-05,1,,,,,ブランド,0
1633,7040001088966,登記記録の閉鎖等,0,2024-05-24,2024-05-07,株式会社ライフイズム,,株式会社,千葉県,浦安市,北栄２丁目９番地１５号,,12,227,2790002,,,2024-05-07,清算の結了等,,,2015-10-05,1,,,,,ライフイズム,0
1635,7040001101209,登記記録の閉鎖等,0,2024-05-24,2024-05-15,株式会社奥寺建設,,株式会社,千葉県,白井市,復４０番地,,12,232,2701422,,,2024-05-15,清算の結了等,,,2017-08-01,1,,,,,,0
1644,7040003009292,登記記録の閉鎖等,0,2024-05-24,2024-05-15,ＪＡＭ合同会社,,合同会社,千葉県,柏市,東１丁目３番２０号,,12,217,2770014,,,2024-05-15,清算の結了等,,,2016-11-11,1,,,,,ジェーエーエム,0
1652,7060001030752,登記記録の閉鎖等,0,2024-05-24,2024-05-17,株式会社ＮＣＲ,,株式会社,栃木県,鹿沼市,千渡１０２５番地３８,,09,205,3220002,,,2024-05-17,清算の結了等,,,2018-07-24,1,,,,,エヌシーアール,0
1662,7100001022613,登記記録の閉鎖等,0,2024-05-24,2024-05-13,ＴＭ商事株式会社,,株式会社,東京都,中央区,月島４丁目１７番１－３２３号,,13,102,1040052,,,2024-05-13,清算の結了等,,,2015-10-05,1,,,,,ティーエムショウジ,0
1673,7120001215405,登記記録の閉鎖等,0,2024-05-24,2024-05-23,株式会社なかはら,,株式会社,大阪府,大阪市東成区,中本３丁目１２－６,,27,115,5370022,,,2024-05-23,清算の結了等,,,2018-08-20,1,,,,,ナカハラ,0
1718,7180003022612,登記記録の閉鎖等,0,2024-05-24,2024-05-17,合同会社カルペディエム・セレクト,,合同会社,愛知県,名古屋市瑞穂区,瑞穂通７丁目８番地の３,,23,108,4670806,,,2024-05-17,清算の結了等,,,2021-06-21,1,,,,,カルペディエムセレクト,0
1727,7230002008532,登記記録の閉鎖等,0,2024-05-24,2024-05-23,有限会社水島自動車,,有限会社,富山県,下新川郡朝日町,月山９７３番地,,16,343,9390733,,,2024-05-23,清算の結了等,,,2015-10-05,1,,,,,ミズシマジドウシャ,0
1754,7290002029201,登記記録の閉鎖等,0,2024-05-24,2024-05-20,有限会社西豊興業,,有限会社,佐賀県,小城市,牛津町乙柳３６８番地１,,41,208,8490301,,,2024-05-20,清算の結了等,,,2015-10-05,1,,,,,セイホウコウギョウ,0
1764,7330003006038,登記記録の閉鎖等,0,2024-05-24,2024-05-17,合同会社ＹＯＫＡＹＯくまもと,,合同会社,熊本県,熊本市中央区,下通１丁目１２－２７ＣＯＲＥ２１下通ビル５Ｆ,,43,101,8600807,,,2024-05-17,清算の結了等,,,2015-10-05,1,,,,,ヨカヨクマモト,0
1773,7370001010343,登記記録の閉鎖等,0,2024-05-24,2024-05-21,株式会社マイホームセンター,,株式会社,宮城県,仙台市青葉区,宮町３丁目５番１７号,,04,101,9800004,,,2024-05-21,清算の結了等,,,2015-10-05,1,,,,,マイホームセンター,0
1786,7430001078944,登記記録の閉鎖等,0,2024-05-24,2024-05-22,株式会社Ｍ・Ｓｔｙｌｅ,,株式会社,北海道,札幌市北区,屯田六条１丁目１番４３号,,01,102,0020856,,,2024-05-22,清算の結了等,,,2019-05-10,1,,,,,エムスタイル,0
1811,8010001188990,登記記録の閉鎖等,0,2024-05-24,2024-05-14,株式会社エコロジスト,,株式会社,東京都,中央区,日本橋３丁目２番１４号新槇町ビル別館第一１階,,13,102,1030027,,,2024-05-14,清算の結了等,,,2018-01-17,1,,,,,エコロジスト,0
1835,8010601060723,登記記録の閉鎖等,0,2024-05-24,2024-05-23,株式会社金地興業,,株式会社,東京都,江東区,亀戸５丁目４３番１３号,,13,108,1360071,,,2024-05-23,清算の結了等,,,2022-02-22,1,,,,,キンジコウギョウ,0
1840,8010703005535,登記記録の閉鎖等,0,2024-05-24,2024-05-15,小沢ホールディングス合同会社,,合同会社,東京都,品川区,上大崎３丁目１番１号目黒セントラルスクエア１５階,,13,109,1410021,,,2024-05-15,清算の結了等,,,2020-12-03,1,,,,,オザワホールディングス,0
1856,8011101002562,登記記録の閉鎖等,0,2024-05-24,2024-04-15,株式会社エアトリインターナショナル,,株式会社,東京都,港区,愛宕２丁目５番１号,,13,103,1050002,,,2024-04-15,合併による解散等,6010401072978,令和６年４月１日東京都港区愛宕二丁目５番１号株式会社エアトリ（6010401072978）に合併し解散,2015-10-05,1,,,,,エアトリインターナショナル,0
1894,8020001065231,登記記録の閉鎖等,0,2024-05-24,2024-05-17,株式会社三幸,,株式会社,神奈川県,川崎市麻生区,五力田３丁目１６番１０号,,14,137,2150025,,,2024-05-17,清算の結了等,,,2015-10-05,1,,,,,サンコウ,0
1912,8030005002130,登記記録の閉鎖等,0,2024-05-24,2024-05-22,特定非営利活動法人埼玉・住まいの会,,その他の設立登記法人,埼玉県,さいたま市浦和区,元町２丁目３８番２号パークプラザ元町２０４,,11,107,3300073,,,2024-05-22,清算の結了等,,,2015-10-05,1,,,,,サイタマスマイノカイ,0
1914,8040001090384,登記記録の閉鎖等,0,2024-05-24,2024-05-13,Ｈｏｔ　Ｂａｌａｎｃｅ株式会社,,株式会社,千葉県,松戸市,松戸１８３６番地メグロビル２Ｆ,,12,207,2710092,,,2024-05-13,清算の結了等,,,2015-10-05,1,,,,,ホットバランス,0
1923,8040002015019,登記記録の閉鎖等,0,2024-05-24,2024-05-14,有限会社ピーピーエム,,有限会社,千葉県,千葉市稲毛区,稲毛東５丁目１０番４号,,12,103,2630031,,,2024-05-14,清算の結了等,,,2015-10-05,1,,,,,ピーピーエム,0
1934,8060001011891,登記記録の閉鎖等,0,2024-05-24,2024-05-16,塩那防災電設株式会社,,株式会社,栃木県,那須塩原市,関谷２０５１番地１６,,09,213,3292801,,,2024-05-16,清算の結了等,,,2015-10-05,1,,,,,エンナボウサイデンセツ,0
1946,8110005016436,登記記録の閉鎖等,0,2024-05-24,2024-05-21,一般社団法人新潟ＥＣ協会,,その他の設立登記法人,新潟県,長岡市,大山１丁目１４番地４,,15,202,9402113,,,2024-05-21,清算の結了等,,,2019-08-23,1,,,,,ニイガタイーシーキョウカイ,0
1961,8120005015651,登記記録の閉鎖等,0,2024-05-24,2024-05-23,ＮＰＯ法人ふれあいすばる,,その他の設立登記法人,大阪府,大阪市住吉区,苅田１丁目５番２５号,,27,120,5580011,,,2024-05-23,清算の結了等,,,2015-10-05,1,,,,,フレアイスバル,0
1962,8120101055989,登記記録の閉鎖等,0,2024-05-24,2024-05-20,株式会社恵興業,,株式会社,大阪府,堺市堺区,松屋町２丁６７番地１,,27,141,5900903,,,2024-05-20,清算の結了等,,,2017-01-30,1,,,,,,0
1979,8180001020451,登記記録の閉鎖等,0,2024-05-24,2024-05-20,名古屋メクトロン株式会社,,株式会社,愛知県,名古屋市中川区,十一番町２丁目６番地,,23,110,4540056,,,2024-05-20,清算の結了等,,,2015-10-05,1,,,,,ナゴヤメクトロン,0
1997,8180301038326,登記記録の閉鎖等,0,2024-05-24,2024-05-22,株式会社サンヨーＳＰＣ,,株式会社,愛知県,西尾市,徳次町上十五夜３６番地１,,23,213,4450072,,,2024-05-22,合併による解散等,8190001006680,令和６年５月１６日三重県伊勢市竹ケ鼻町１７０番地１サンヨーバルブ株式会社（8190001006680）に合併し解散,2024-02-16,1,,,,,サンヨーエスピーシー,0
1998,8180302007362,登記記録の閉鎖等,0,2024-05-24,2024-05-23,株式会社ｋｏｕｗａグローバルビュー,,株式会社,愛知県,豊橋市,下五井町沖田６１番地１,,23,201,4400091,,,2024-05-23,清算の結了等,,,2015-10-05,1,,,,,コウワグローバルビュー,0
2000,8190005011487,登記記録の閉鎖等,0,2024-05-24,2024-05-22,一般社団法人臓器移植ドナー家族の会くすのきの会,,その他の設立登記法人,三重県,三重郡川越町,大字高松９９５番地１モンクレッシュ６０３,,24,344,5108121,,,2024-05-22,清算の結了等,,,2020-09-18,1,,,,,ゾウキイショクドナーカゾクノカイクスノキノカイ,0
2018,8290002032501,登記記録の閉鎖等,0,2024-05-24,2024-04-24,有限会社キャス企画,,有限会社,福岡県,福岡市中央区,伊崎６番１２号,,40,133,8100067,,,2024-04-24,清算の結了等,,,2015-10-05,1,,,,,キャスキカク,0
2019,8290002055031,登記記録の閉鎖等,0,2024-05-24,2024-04-23,大牟田貨物急配有限会社,,有限会社,福岡県,大牟田市,四山町８０番地の７２,,40,202,8360067,,,2024-04-23,清算の結了等,,,2015-10-05,1,,,,,,0
2020,8290002055287,登記記録の閉鎖等,0,2024-05-24,2024-04-23,有限会社三畑不動産,,有限会社,福岡県,大牟田市,浄真町１０番地,,40,202,8360844,,,2024-04-23,清算の結了等,,,2015-10-05,1,,,,,ミハタフドウサン,0
2033,8370001010722,登記記録の閉鎖等,0,2024-05-24,2024-05-17,株式会社ＹＫＨ,,株式会社,宮城県,仙台市青葉区,本町２丁目７番３号,,04,101,9800014,,,2024-05-17,清算の結了等,,,2015-10-05,1,,,,,ワイケーエイチ,0
2034,8370001025605,登記記録の閉鎖等,0,2024-05-24,2024-05-20,株式会社加藤建設,,株式会社,宮城県,仙台市青葉区,宮町２丁目２－１６－２０１,,04,101,9800004,,,2024-05-20,清算の結了等,,,2015-10-05,1,,,,,カトウケンセツ,0
2036,8370001041387,登記記録の閉鎖等,0,2024-05-24,2024-05-17,株式会社共栄工業,,株式会社,宮城県,柴田郡村田町,大字村田字反町３７番地,,04,322,9891305,,,2024-05-17,清算の結了等,,,2017-05-02,1,,,,,キョウエイコウギョウ,0
2062,9010001015269,登記記録の閉鎖等,0,2024-05-24,2024-05-13,株式会社グリーンオーナーズ会議,,株式会社,東京都,千代田区,九段南３丁目７番７号九段南グリーンビル８階,,13,101,1020074,,,2024-05-13,清算の結了等,,,2015-10-05,1,,,,,グリーンオーナーズカイギ,0
2082,9010005032046,登記記録の閉鎖等,0,2024-05-24,2024-05-20,一般社団法人日本カンナビス協会,,その他の設立登記法人,東京都,千代田区,岩本町２丁目７番１２号ビルックスＮｏ３，２Ｆ,,13,101,1010032,,,2024-05-20,清算の結了等,,,2020-07-15,1,,,,,ニホンカンナビスキョウカイ,0
2086,9010401148503,登記記録の閉鎖等,0,2024-05-24,2024-05-14,株式会社ミルキー・ウェイ,,株式会社,東京都,中央区,日本橋本石町２丁目１番１号アスパ日本橋オフィス２０７,,13,102,1030021,,,2024-05-14,清算の結了等,,,2019-10-04,1,,,,,ミルキーウェイ,0
2088,9010405013620,登記記録の閉鎖等,0,2024-05-24,2024-05-07,ザオウ一般社団法人,,その他の設立登記法人,東京都,港区,虎ノ門３丁目２２番１０－２０１号,,13,103,1050001,,,2024-05-07,清算の結了等,,,2015-10-05,1,,,,,ザオウ,0
2090,9010501043950,登記記録の閉鎖等,0,2024-05-24,2024-05-15,インテリムチャイナ株式会社,,株式会社,東京都,台東区,上野１丁目１番１０号,,13,106,1100005,,,2024-05-15,合併による解散等,2010501042439,令和６年５月１日東京都台東区上野一丁目１番１０号ｉＲＩＳ株式会社（2010501042439）に合併し解散,2019-04-05,1,,,,,インテリムチャイナ,0
2155,9040001066854,登記記録の閉鎖等,0,2024-05-24,2024-05-14,システム総研株式会社,,株式会社,千葉県,我孫子市,湖北台１０丁目２番１１号,,12,222,2701132,,,2024-05-14,清算の結了等,,,2015-10-05,1,,,,,システムソウケン,0
2175,9060005009741,登記記録の閉鎖等,0,2024-05-24,2024-05-20,特定非営利活動法人だいじ,,その他の設立登記法人,栃木県,下野市,緑６丁目２５番地６,,09,216,3290433,,,2024-05-20,清算の結了等,,,2020-04-16,1,,,,,ダイジ,0
2195,9120003019216,登記記録の閉鎖等,0,2024-05-24,2024-05-22,合同会社ＯＶＥＲＬＡＰ３,,合同会社,大阪府,大阪市西区,北堀江１丁目３番１０号１００３,,27,106,5500014,,,2024-05-22,清算の結了等,,,2021-04-12,1,,,,,オーバーラップスリー,0
2225,9180001005765,登記記録の閉鎖等,0,2024-05-24,2024-05-13,友好木材株式会社,,株式会社,愛知県,名古屋市千種区,下方町６丁目６７番地,,23,101,4640096,,,2024-05-13,清算の結了等,,,2015-10-05,1,,,,,ユウコウモクザイ,0
2247,9210001002131,登記記録の閉鎖等,0,2024-05-24,2024-05-16,株式会社テクノプランニング,,株式会社,福井県,福井市,成和１丁目１１１番地,,18,201,9188239,,,2024-05-16,合併による解散等,4210001003489,令和６年４月１日福井市成和一丁目１１１番地富士フソー株式会社（4210001003489）に合併し解散,2015-10-05,1,,,,,テクノプランニング,0
2255,9260001036769,登記記録の閉鎖等,0,2024-05-24,2024-05-20,ＴＲＵＳＴ　ＷＯＲＫ株式会社,,株式会社,岡山県,岡山市北区,御津新庄３１７０番地１,,33,101,7092106,,,2024-05-20,清算の結了等,,,2022-04-19,1,,,,,トラストワーク,0
2257,9260002026067,登記記録の閉鎖等,0,2024-05-24,2024-05-17,有限会社八木向陽堂,,有限会社,岡山県,井原市,美星町三山１０７０番地,,33,207,7141406,,,2024-05-17,清算の結了等,,,2024-04-02,1,,,,,ヤギコウヨウドウ,0
2262,9290001002768,登記記録の閉鎖等,0,2024-05-24,2024-04-23,小川乳業株式会社,,株式会社,福岡県,福岡市東区,松島２丁目１番３２号,,40,131,8120062,,,2024-04-23,清算の結了等,,,2015-10-05,1,,,,,オガワニュウギョウ,0
2288,9360002022485,登記記録の閉鎖等,0,2024-05-24,2024-05-22,有限会社トロピカルランドすがま,,有限会社,沖縄県,宮古島市,城辺字下里添９９１番地７,,47,214,9060109,,,2024-05-22,清算の結了等,,,2015-10-05,1,,,,,トロピカルランドスガマ,0
2293,9370001013534,登記記録の閉鎖等,0,2024-05-24,2024-05-21,ハクヨウコンサルタンツ株式会社,,株式会社,宮城県,仙台市青葉区,上杉２丁目３番７号,,04,101,9800011,,,2024-05-21,清算の結了等,,,2015-10-05,1,,,,,ハクヨウコンサルタンツ,0
2319,9490002005064,登記記録の閉鎖等,0,2024-05-24,2024-05-22,有限会社ミヤザキ計算管理センター,,有限会社,高知県,高知市,杉井流２７番２４号,,39,201,7800072,,,2024-05-22,清算の結了等,,,2015-10-05,1,,,,,ミヤザキケイサンカンリセンター,0
2320,9500001000709,登記記録の閉鎖等,0,2024-05-24,2024-05-22,愛媛県漁協観光株式会社,,株式会社,愛媛県,松山市,勝山町１丁目１２番地８,,38,201,7900878,,,2024-05-22,清算の結了等,,,2015-10-05,1,,,,,エヒメケンギョキョウカンコウ,0
