sequenceNumber,corporateNumber,process,correct,updateDate,changeDate,name,nameImageId,kind,prefectureName,cityName,streetNumber,addressImageId,prefectureCode,cityCode,postCode,addressOutside,addressOutsideImageId,closeDate,closeCause,successorCorporateNumber,changeCause,assignmentDate,latest,enName,enPrefectureName,enCityName,enAddressOutside,furigana,hihyoji
1,1010001001821,登記記録の閉鎖等,0,2025-12-15,2025-11-27,株式会社加藤工業所,,株式会社,東京都,文京区,白山１丁目２７番６号,,13,105,1130001,,,2025-11-27,清算の結了等,,,2015-10-05,1,,,,,カトウコウギョウショ,0
2,1010001104368,登記記録の閉鎖等,0,2025-12-15,2025-11-25,株式会社アークイズム,,株式会社,東京都,千代田区,神田小川町３丁目１１番地２－１１０２号,,13,101,1010052,,,2025-11-25,清算の結了等,,,2015-10-05,1,,,,,アークイズム,0
9,1010001253339,登記記録の閉鎖等,0,2025-12-15,2025-12-09,株式会社Ｊ‐ＦＵＮ１６,,株式会社,東京都,千代田区,丸の内１丁目８番２号,,13,101,1000005,,,2025-12-09,合併による解散等,8010601019959,令和７年１２月１日東京都江東区福住二丁目２番９号株式会社桜井グラフィックシステムズ（8010601019959）に合併し解散,2025-03-21,1,,,,,ジェイファンジュウロク,0
19,1010101007677,登記記録の閉鎖等,0,2025-12-15,2025-12-11,株式会社セブン,,株式会社,東京都,八王子市,左入町６９５番地１,,13,201,1920012,,,2025-12-11,清算の結了等,,,2015-10-05,1,,,,,セブン,0
32,1010501043297,登記記録の閉鎖等,0,2025-12-15,2025-12-09,株式会社高橋建築積算,,株式会社,東京都,荒川区,西尾久１丁目１２番８号野崎Ｋビル５０１,,13,118,1160011,,,2025-12-09,清算の結了等,,,2018-11-07,1,,,,,タカハシケンチクセキサン,0
36,1010705002504,登記記録の閉鎖等,0,2025-12-15,2025-12-04,一般社団法人日本樹木葬管理センター,,その他の設立登記法人,東京都,品川区,大井１丁目２７番８号株式会社ソメヤデザイン内,,13,109,1400014,,,2025-12-04,清算の結了等,,,2016-08-15,1,,,,,ニホンジュモクソウカンリセンター,0
44,1011002026163,登記記録の閉鎖等,0,2025-12-15,2025-12-01,有限会社アネラ,,有限会社,神奈川県,鎌倉市,今泉台３丁目１－９,,14,204,2470053,,,2025-12-01,清算の結了等,,,2015-10-05,1,,,,,アネラ,0
64,1012401042536,登記記録の閉鎖等,0,2025-12-15,2025-12-10,株式会社ＡＭＣ‐２,,株式会社,東京都,武蔵野市,中町１丁目１２番１０‐１５０６号,,13,203,1800006,,,2025-12-10,合併による解散等,9011101108887,令和７年１１月１日東京都港区六本木一丁目３番５０号株式会社Ａｂｉｔｏ（9011101108887）に合併し解散,2024-12-09,1,,,,,エイエムシーツー,0
67,1012403001283,登記記録の閉鎖等,0,2025-12-15,2025-12-08,エフピーリテラ合同会社,,合同会社,東京都,武蔵野市,吉祥寺南町４丁目１２番１８号,,13,203,1800003,,,2025-12-08,清算の結了等,,,2015-10-05,1,,,,,エフピーリテラ,0
69,1012702009894,登記記録の閉鎖等,0,2025-12-15,2025-12-03,有限会社ジャパン・ライフ・ライティング,,有限会社,東京都,小平市,鈴木町２丁目７２２番地,,13,211,1870011,,,2025-12-03,清算の結了等,,,2015-10-05,1,,,,,ジャパンライフライティング,0
71,1013201000626,登記記録の閉鎖等,0,2025-12-15,2025-11-20,株式会社市松,,株式会社,東京都,目黒区,原町１丁目１８番１２号,,13,110,1520011,,,2025-11-20,清算の結了等,,,2015-10-05,1,,,,,イチマツ,0
86,1020003021164,登記記録の閉鎖等,0,2025-12-15,2025-11-21,Ｂｅａｒ　Ｐｒｏｆｉｔ　Ｍａｎａｇｅｍｅｎｔ合同会社,,合同会社,東京都,港区,浜松町２丁目２－１５浜松町ダイヤビル２Ｆ,,13,103,1050013,,,2025-11-21,清算の結了等,,,2022-01-18,1,,,,,ベアープロフィットマネジメント,0
95,1021005003836,登記記録の閉鎖等,0,2025-12-15,2025-11-26,厚木ビルメンテナンス協同組合,,その他の設立登記法人,神奈川県,厚木市,寿町３丁目１５番２０号,,14,212,2430003,,,2025-11-26,清算の結了等,,,2015-10-05,1,,,,,アツギビルメンテナンス,0
111,1040002039453,登記記録の閉鎖等,0,2025-12-15,2025-11-25,有限会社中澤スチールサービス,,有限会社,千葉県,市川市,田尻４丁目２番１９－５０１号,,12,203,2720014,,,2025-11-25,清算の結了等,,,2015-10-05,1,,,,,ナカザワスチールサービス,0
125,1080003003066,登記記録の閉鎖等,0,2025-12-15,2025-12-10,駿河宮合同会社,,合同会社,静岡県,島田市,高砂町６２４３番地の１,,22,209,4270054,,,2025-12-10,清算の結了等,,,2023-10-10,1,,,,,スルガミヤ,0
128,1080402019324,登記記録の閉鎖等,0,2025-12-15,2025-12-02,有限会社システムプランニング,,有限会社,静岡県,菊川市,高橋５５２番地の１,,22,224,4371505,,,2025-12-02,清算の結了等,,,2015-10-05,1,,,,,システムプランニング,0
135,1090005003757,登記記録の閉鎖等,0,2025-12-15,2025-10-07,社会福祉法人いずみ会,,その他の設立登記法人,山梨県,山梨市,東後屋敷６３５番地１,,19,205,4050012,,,2025-10-07,合併による解散等,9090005001761,令和７年１０月７日山梨県甲府市若松町６番３５号社会福祉法人やまなし勤労者福祉会（9090005001761）に合併し解散,2015-10-05,1,,,,,イズミカイ,0
142,1110002021040,登記記録の閉鎖等,0,2025-12-15,2025-12-03,有限会社村山配管工業,,有限会社,新潟県,柏崎市,南半田６番４号,,15,205,9450813,,,2025-12-03,清算の結了等,,,2015-10-05,1,,,,,ムラヤマハイカンコウギョウ,0
144,1120001000473,登記記録の閉鎖等,0,2025-12-15,2025-11-28,株式会社佐藤商店,,株式会社,大阪府,大阪市旭区,中宮１丁目７番１６号,,27,117,5350003,,,2025-11-28,清算の結了等,,,2015-10-05,1,,,,,サトウショウテン,0
151,1120001257444,登記記録の閉鎖等,0,2025-12-15,2025-12-10,株式会社Ｇｅｎｅｃｙ,,株式会社,大阪府,枚方市,伊加賀緑町５番２０－１号,,27,210,5730067,,,2025-12-10,清算の結了等,,,2023-08-21,1,,,,,ジェネシー,0
176,1130001022723,登記記録の閉鎖等,0,2025-12-15,2025-12-11,丸宮株式会社,,株式会社,京都府,京都市上京区,石薬師通中筋東入大猪熊町３５５番地,,26,102,6020849,,,2025-12-11,清算の結了等,,,2015-10-05,1,,,,,マルミヤ,0
178,1130001042119,登記記録の閉鎖等,0,2025-12-15,2025-12-11,株式会社サンスイ保険事務所,,株式会社,京都府,福知山市,字上大内１３６番地,,26,201,6200911,,,2025-12-11,清算の結了等,,,2015-10-05,1,,,,,サンスイホケンジムショ,0
182,1140001083194,登記記録の閉鎖等,0,2025-12-15,2025-12-09,株式会社ユニテ,,株式会社,兵庫県,宝塚市,中山桜台４丁目２２番１０号,,28,214,6650877,,,2025-12-09,清算の結了等,,,2015-10-05,1,,,,,ユニテ,0
189,1170001017546,登記記録の閉鎖等,0,2025-12-15,2025-12-12,株式会社Ｍ＆Ｍサービス,,株式会社,和歌山県,岩出市,中黒４２９番地１,,30,209,6496248,,,2025-12-12,清算の結了等,,,2023-04-10,1,,,,,エムアンドエムサービス,0
196,1180002075583,登記記録の閉鎖等,0,2025-12-15,2025-12-08,有限会社安達木材,,有限会社,愛知県,一宮市,浅井町大日比野２１０９番地,,23,203,4910105,,,2025-12-08,清算の結了等,,,2015-10-05,1,,,,,アダチモクザイ,0
198,1180301035585,登記記録の閉鎖等,0,2025-12-15,2025-12-12,株式会社フレンドリー,,株式会社,愛知県,豊橋市,向山町字伝馬２３番地５Ｄｒｏｏｍ向山２０１,,23,201,4400864,,,2025-12-12,清算の結了等,,,2021-11-04,1,,,,,フレンドリー,0
199,1190001020853,登記記録の閉鎖等,0,2025-12-15,2025-12-10,株式会社内海家,,株式会社,三重県,鳥羽市,堅神町７３４番地１,,24,211,5170014,,,2025-12-10,清算の結了等,,,2015-10-05,1,,,,,ウツミヤ,0
206,1200005006351,登記記録の閉鎖等,0,2025-12-15,2025-12-09,特定非営利活動法人サークル飛鳥,,その他の設立登記法人,岐阜県,揖斐郡揖斐川町,谷汲神原１２１３番地,00077428,21,401,5011317,,,2025-12-09,清算の結了等,,,2015-10-05,1,,,,,サークルアスカ,0
207,1210001004481,登記記録の閉鎖等,0,2025-12-15,2025-12-10,渡辺冷凍食品株式会社,,株式会社,福井県,福井市,松本４丁目１８番２６号,,18,201,9100003,,,2025-12-10,清算の結了等,,,2015-10-05,1,,,,,ワタナベレイトウショクヒン,0
212,1240001052552,登記記録の閉鎖等,0,2025-12-15,2025-12-09,アドバンストスタイル株式会社,,株式会社,広島県,呉市,天応東久保１丁目８番３号,,34,202,7370882,,,2025-12-09,清算の結了等,,,2018-03-27,1,,,,,アドバンストスタイル,0
213,1250003003247,登記記録の閉鎖等,0,2025-12-15,2025-12-10,合同会社内山板金,,合同会社,山口県,宇部市,昭和町４丁目１１番４５－７０４号,,35,202,7550011,,,2025-12-10,清算の結了等,,,2023-04-07,1,,,,,ウチヤマバンキン,0
214,1260002023864,登記記録の閉鎖等,0,2025-12-15,2025-12-11,有限会社寺尾電器総社営業所,,有限会社,岡山県,総社市,泉７番地の１４,,33,208,7191106,,,2025-12-11,清算の結了等,,,2015-10-05,1,,,,,テラオデンキソウジャエイギョウショ,0
227,1310001004050,登記記録の閉鎖等,0,2025-12-15,2025-12-12,日通長崎運輸株式会社,,株式会社,長崎県,諫早市,津久葉町５番地９２,,42,204,8540065,,,2025-12-12,清算の結了等,,,2015-10-05,1,,,,,ニッツウナガサキウンユ,0
233,1340005003483,登記記録の閉鎖等,0,2025-12-15,2025-08-05,一の宮神社,,その他の設立登記法人,鹿児島県,薩摩川内市,樋脇町塔之原５１２１番地,00100142,46,215,8951202,,,2025-08-05,合併による解散等,7340005003486,令和７年８月５日鹿児島県薩摩川内市樋脇町市比野２８１２番地受持神社（7340005003486）に合併し解散,2015-10-05,1,,,,,イチノミヤジンジャ,0
247,1370202000017,登記記録の閉鎖等,0,2025-12-15,2025-12-05,有限会社浅周洋品店,,有限会社,宮城県,大崎市,古川台町１０番３号,,04,215,9896163,,,2025-12-05,清算の結了等,,,2015-10-05,1,,,,,アサシュウヨウヒンテン,0
261,1460301004669,登記記録の閉鎖等,0,2025-12-15,2025-12-12,株式会社Ｐｉｎｅｓ,,株式会社,北海道,網走郡美幌町,字高野９９番地の１１,,01,543,0920001,,,2025-12-12,清算の結了等,,,2018-01-30,1,,,,,パインズ,0
263,1470002011030,登記記録の閉鎖等,0,2025-12-15,2025-12-10,有限会社グランディス,,有限会社,香川県,木田郡三木町,大字鹿庭２７３５番地,,37,341,7610821,,,2025-12-10,清算の結了等,,,2015-10-05,1,,,,,グランディス,0
264,1500002012537,登記記録の閉鎖等,0,2025-12-15,2025-12-09,有限会社平田興産,,有限会社,愛媛県,西予市,野村町阿下６号１２３番地,,38,214,7971211,,,2025-12-09,清算の結了等,,,2015-10-05,1,,,,,ヒラタコウサン,0
265,1500002023947,登記記録の閉鎖等,0,2025-12-15,2025-12-11,有限会社エムユー,,有限会社,愛媛県,南宇和郡愛南町,蓮乗寺５８番地２,,38,506,7984341,,,2025-12-11,清算の結了等,,,2015-10-05,1,,,,,エムユー,0
284,2010401113612,登記記録の閉鎖等,0,2025-12-15,2025-11-25,株式会社テラハット,,株式会社,東京都,港区,南麻布５丁目２番９号インスタイル南麻布ビルディングＲ館,,13,103,1060047,,,2025-11-25,清算の結了等,,,2015-10-05,1,,,,,,0
290,2010403012366,登記記録の閉鎖等,0,2025-12-15,2025-12-01,合同会社ＴＳＭ１１９,,合同会社,東京都,港区,元赤坂１丁目１番７号,,13,103,1070051,,,2025-12-01,清算の結了等,,,2015-10-05,1,,,,,ティーエスエムヒャクジュウキュウ,0
291,2010601006649,登記記録の閉鎖等,0,2025-12-15,2025-12-08,株式会社牡丹屋,,株式会社,東京都,江東区,新大橋３丁目９番１号,,13,108,1350007,,,2025-12-08,清算の結了等,,,2015-10-05,1,,,,,,0
293,2010601046158,登記記録の閉鎖等,0,2025-12-15,2025-12-08,株式会社ｓｔａｎｄ　ｕｐ　Ａ　ｇｕｙ’ｓ,,株式会社,東京都,墨田区,東向島４丁目２６番６号－７０２,,13,107,1310032,,,2025-12-08,清算の結了等,,,2015-10-05,1,,,,,スタンドアップガイズ,0
301,2011001069559,登記記録の閉鎖等,0,2025-12-15,2025-12-11,株式会社アラントレイディング,,株式会社,東京都,渋谷区,代々木５丁目４４番４号,,13,113,1510053,,,2025-12-11,合併による解散等,7010001172104,令和７年１２月１日東京都文京区千石四丁目４２番１４号株式会社タップクリエイト（7010001172104）に合併し解散,2015-10-05,1,,,,,アラントレイディング,0
304,2011001136193,登記記録の閉鎖等,0,2025-12-15,2025-11-18,株式会社パズルピース,,株式会社,東京都,渋谷区,神南１丁目１２番１４号,,13,113,1500041,,,2025-11-18,清算の結了等,,,2020-10-07,1,,,,,パズルピース,0
330,2011501019220,登記記録の閉鎖等,0,2025-12-15,2025-12-10,株式会社松幸,,株式会社,東京都,北区,赤羽２丁目１３番２号かのやビル６階,,13,117,1150045,,,2025-12-10,清算の結了等,,,2015-10-05,1,,,,,,0
332,2011603002826,登記記録の閉鎖等,0,2025-12-15,2025-12-12,石井商事合同会社,,合同会社,東京都,新宿区,西新宿３丁目３番１３号西新宿水間ビル６階,,13,104,1600023,,,2025-12-12,清算の結了等,,,2020-01-07,1,,,,,イシイショウジ,0
346,2012803003746,登記記録の閉鎖等,0,2025-12-15,2025-12-04,合同会社青鉄,,合同会社,東京都,立川市,幸町２丁目５５番１４,,13,202,1900002,,,2025-12-04,清算の結了等,,,2025-05-26,1,,,,,アオテツ,0
367,2020001141772,登記記録の閉鎖等,0,2025-12-15,2025-12-08,Ｚｅｎｔｅｘ株式会社,,株式会社,神奈川県,横浜市保土ケ谷区,西谷１丁目５番８号,,14,106,2400054,,,2025-12-08,清算の結了等,,,2021-06-15,1,,,,,ゼンテックス,0
382,2021002047769,登記記録の閉鎖等,0,2025-12-15,2025-12-03,有限会社ワイビエス,,有限会社,神奈川県,大和市,中央林間西３丁目２番４６号,,14,213,2420008,,,2025-12-03,合併による解散等,2021001026591,令和７年１２月１日神奈川県大和市中央林間西三丁目２番４６号株式会社大和ビケサービス（2021001026591）に合併し解散,2015-10-05,1,,,,,ワイビエス,0
388,2030001075466,登記記録の閉鎖等,0,2025-12-15,2025-12-05,正和建設株式会社,,株式会社,埼玉県,川口市,幸町１丁目３番１４号,,11,203,3320016,,,2025-12-05,清算の結了等,,,2015-10-05,1,,,,,セイワケンセツ,0
389,2030001087593,登記記録の閉鎖等,0,2025-12-15,2025-12-05,株式会社深谷植物運輸,,株式会社,埼玉県,深谷市,大塚島９８番地５,,11,218,3660838,,,2025-12-05,清算の結了等,,,2015-10-05,1,,,,,フカヤショクブツウンユ,0
394,2030002021510,登記記録の閉鎖等,0,2025-12-15,2025-12-09,有限会社東朋設備,,有限会社,埼玉県,さいたま市岩槻区,上野４丁目５番地１０号,,11,110,3390073,,,2025-12-09,清算の結了等,,,2015-10-05,1,,,,,トウホウセツビ,0
397,2040001050204,登記記録の閉鎖等,0,2025-12-15,2025-11-25,株式会社スマイル３６５,,株式会社,千葉県,市川市,北方１丁目１３番９号,,12,203,2720815,,,2025-11-25,清算の結了等,,,2015-10-05,1,,,,,スマイルサンロクゴ,0
400,2040002044808,登記記録の閉鎖等,0,2025-12-15,2025-11-21,有限会社オート・ファッションコジマ,,有限会社,千葉県,松戸市,古ケ崎１２３番地,,12,207,2710068,,,2025-11-21,清算の結了等,,,2015-10-05,1,,,,,オートファッションコジマ,0
402,2040002062000,登記記録の閉鎖等,0,2025-12-15,2025-11-21,岡村サービス有限会社,,有限会社,千葉県,四街道市,さちが丘１丁目１５番２号,,12,228,2840025,,,2025-11-21,清算の結了等,,,2015-10-05,1,,,,,オカムラサービス,0
426,2110001029273,登記記録の閉鎖等,0,2025-12-15,2025-12-08,日鉄直江津チタン株式会社,,株式会社,新潟県,上越市,港町２丁目１２番１号,,15,222,9420011,,,2025-12-08,清算の結了等,,,2015-10-05,1,,,,,ニッテツナオエツチタン,0
461,2150001002053,登記記録の閉鎖等,0,2025-12-15,2025-12-11,株式会社フォレスト,,株式会社,奈良県,奈良市,北之庄町８６番地の３,,29,201,6308451,,,2025-12-11,清算の結了等,,,2015-10-05,1,,,,,フォレスト,0
473,2180301033118,登記記録の閉鎖等,0,2025-12-15,2025-12-05,株式会社フレンドシップ,,株式会社,愛知県,刈谷市,日高町４丁目５１０番地,,23,210,4480046,,,2025-12-05,合併による解散等,6180301013909,令和７年１１月２７日愛知県刈谷市日高町四丁目５１０番地共同設備工業株式会社（6180301013909）に合併し解散,2019-11-08,1,,,,,フレンドシップ,0
475,2190001000912,登記記録の閉鎖等,0,2025-12-15,2025-12-11,株式会社フォニックス,,株式会社,三重県,津市,一志町八太１５４１番地２,,24,201,5152515,,,2025-12-11,清算の結了等,,,2015-10-05,1,,,,,フォニックス,0
481,2220001008282,登記記録の閉鎖等,0,2025-12-15,2025-12-11,株式会社ノックス,,株式会社,石川県,金沢市,彦三町２丁目６番１３号,,17,201,9200901,,,2025-12-11,清算の結了等,,,2015-10-05,1,,,,,ノックス,0
491,2230002013925,登記記録の閉鎖等,0,2025-12-15,2025-12-11,有限会社エイエーエフ,,有限会社,富山県,射水市,土合１５３７番地の５,,16,211,9390251,,,2025-12-11,清算の結了等,,,2015-10-05,1,,,,,エイエーエフ,0
495,2240002035638,登記記録の閉鎖等,0,2025-12-15,2025-12-09,有限会社オキヨシ,,有限会社,広島県,呉市,阿賀中央４丁目５番２３号,,34,202,7370003,,,2025-12-09,合併による解散等,6030001066965,令和７年１１月１日大阪府茨木市西駅前町１３番２５号株式会社ウィーズ（6030001066965）に合併し解散,2015-10-05,1,,,,,オキヨシ,0
500,2270001008030,登記記録の閉鎖等,0,2025-12-15,2025-12-01,株式会社芳哲,,株式会社,東京都,東村山市,本町２丁目２４番地３７ソレイユ鷹の道１０１,,13,213,1890014,,,2025-12-01,清算の結了等,,,2020-06-25,1,,,,,ヨシテツ,0
531,2340002007338,登記記録の閉鎖等,0,2025-12-15,2025-12-08,有限会社西元産業,,有限会社,鹿児島県,鹿児島市,甲突町２６番１２号,,46,201,8920837,,,2025-12-08,清算の結了等,,,2015-10-05,1,,,,,ニシモトサンギョウ,0
540,2390005006679,登記記録の閉鎖等,0,2025-12-15,2025-08-18,稲荷神社,,その他の設立登記法人,山形県,南陽市,羽付字稲荷山８８４番地,,06,213,9920475,,,2025-08-18,合併による解散等,7390005006682,令和７年８月１８日山形県南陽市漆山字新山１７５３の１番地漆山神社（7390005006682）に合併し解散,2015-10-05,1,,,,,,0
542,2420001016307,登記記録の閉鎖等,0,2025-12-15,2025-12-08,株式会社オフィス加藤,,株式会社,青森県,青森市,八重田４丁目６番４号,,02,201,0300912,,,2025-12-08,清算の結了等,,,2018-08-27,1,,,,,オフィスカトウ,0
543,2420001017296,登記記録の閉鎖等,0,2025-12-15,2025-12-04,株式会社オオヤ設計スタジオ,,株式会社,青森県,八戸市,新井田西３丁目４番５号,,02,203,0310816,,,2025-12-04,清算の結了等,,,2021-01-15,1,,,,,オオヤセッケイスタジオ,0
546,2430001087388,登記記録の閉鎖等,0,2025-12-15,2025-12-09,株式会社どんぐりちゃん,,株式会社,北海道,札幌市中央区,南一条西１０丁目南大通ビルアネックス６階,,01,101,0600061,,,2025-12-09,清算の結了等,,,2022-08-30,1,,,,,ドングリチャン,0
550,2430005002467,登記記録の閉鎖等,0,2025-12-15,2025-12-10,協同組合北海道造園資材卸センター,,その他の設立登記法人,北海道,札幌市清田区,真栄４３６番２５,,01,110,0040839,,,2025-12-10,清算の結了等,,,2015-10-05,1,,,,,ホッカイドウゾウエンシザイオロシセンター,0
556,2480002007588,登記記録の閉鎖等,0,2025-12-15,2025-12-12,株式会社折目産業,,株式会社,徳島県,徳島市,国府町矢野２７番地１,,36,201,7793126,,,2025-12-12,清算の結了等,,,2015-10-05,1,,,,,オリメサンギョウ,0
560,2490003000979,登記記録の閉鎖等,0,2025-12-15,2025-12-11,合同会社Ｈａｒｕｎａ,,合同会社,高知県,高知市,介良乙１１８５番地１プラスＡ,,39,201,7815106,,,2025-12-11,清算の結了等,,,2015-10-05,1,,,,,ハルナ,0
571,3010001191421,登記記録の閉鎖等,0,2025-12-15,2025-12-01,アイブレーンホールディングス株式会社,,株式会社,東京都,千代田区,神田鍛冶町３丁目３番９号,,13,101,1010045,,,2025-12-01,合併による解散等,2010001076441,令和７年１２月１日東京都千代田区神田鍛冶町三丁目３番９号アイブレーン株式会社（2010001076441）に合併し解散,2018-05-01,1,,,,,アイブレーンホールディングス,0
580,3010005033041,登記記録の閉鎖等,0,2025-12-15,2025-12-12,一般社団法人リキッドウェアハウス,,その他の設立登記法人,東京都,千代田区,丸の内１丁目４番１号東京共同会計事務所内,,13,101,1000005,,,2025-12-12,清算の結了等,,,2021-03-09,1,,,,,リキッドウェアハウス,0
583,3010401171188,登記記録の閉鎖等,0,2025-12-15,2025-12-01,Ｃ’ｅｓｔ　ｄｕ　ｎａｎａｎ　ｄｅｓｉｇｎ株式会社,,株式会社,東京都,港区,麻布台１丁目１０番６号,,13,103,1060041,,,2025-12-01,清算の結了等,,,2022-12-08,1,,,,,セデュナナンデザイン,0
588,3010403015194,登記記録の閉鎖等,0,2025-12-15,2025-10-30,ビセンテ合同会社,,合同会社,東京都,港区,南青山２丁目２番６号７０２号室,,13,103,1070062,,,2025-10-30,合併による解散等,3030003008869,令和７年９月３０日埼玉県草加市松原一丁目８番１８－１１１２号プラビダ合同会社（3030003008869）に合併し解散,2016-08-17,1,,,,,,0
589,3010403028543,登記記録の閉鎖等,0,2025-12-15,2025-11-25,合同会社ｎａｎｏ’ｓ　ｇｒｏｕｐ,,合同会社,東京都,港区,新橋５丁目３１番８号ル・グラシエルＢＬＤＧ３２－２０１,,13,103,1050004,,,2025-11-25,清算の結了等,,,2022-09-22,1,,,,,ナノズグループ,0
598,3010801010788,登記記録の閉鎖等,0,2025-12-15,2025-12-03,株式会社紅雀,,株式会社,東京都,大田区,大森北３丁目１３番１１号,,13,111,1430016,,,2025-12-03,清算の結了等,,,2015-10-05,1,,,,,ベニスズメ,0
628,3012402004351,登記記録の閉鎖等,0,2025-12-15,2025-12-09,有限会社諸井商店,,有限会社,東京都,国分寺市,光町１丁目２３番地２,,13,214,1850034,,,2025-12-09,清算の結了等,,,2015-10-05,1,,,,,モロイショウテン,0
630,3013201013923,登記記録の閉鎖等,0,2025-12-15,2025-11-20,株式会社Ｗａｙ,,株式会社,東京都,目黒区,中央町２丁目３８番１６－２１０号,,13,110,1520001,,,2025-11-20,清算の結了等,,,2015-10-05,1,,,,,ウェイ,0
635,3020002023787,登記記録の閉鎖等,0,2025-12-15,2025-12-10,有限会社三和自動車商会,,有限会社,神奈川県,横浜市南区,中里３丁目２０番３６号,,14,105,2320063,,,2025-12-10,清算の結了等,,,2015-10-05,1,,,,,サンワジドウシャショウカイ,0
645,3021002009264,登記記録の閉鎖等,0,2025-12-15,2025-11-27,有限会社アクト,,有限会社,神奈川県,高座郡寒川町,一之宮４丁目１９番３２号,,14,321,2530111,,,2025-11-27,清算の結了等,,,2015-10-05,1,,,,,アクト,0
648,3030001039767,登記記録の閉鎖等,0,2025-12-15,2025-12-08,株式会社スペースクリエイト,,株式会社,埼玉県,草加市,瀬崎３丁目３６番７号,,11,221,3400022,,,2025-12-08,清算の結了等,,,2015-10-05,1,,,,,スペースクリエイト,0
653,3030002043578,登記記録の閉鎖等,0,2025-12-15,2025-12-08,有限会社大関フードセンター,,有限会社,埼玉県,草加市,金明町２８５番地の２,,11,221,3400052,,,2025-12-08,清算の結了等,,,2015-10-05,1,,,,,オオゼキフードセンター,0
654,3030002044510,登記記録の閉鎖等,0,2025-12-15,2025-12-08,有限会社秀和書房,,有限会社,埼玉県,草加市,谷塚町５８３番地１,,11,221,3400023,,,2025-12-08,清算の結了等,,,2015-10-05,1,,,,,シュウワショボウ,0
662,3040001096964,登記記録の閉鎖等,0,2025-12-15,2025-11-21,株式会社宮嶋新聞,,株式会社,千葉県,香取市,小見川２４２番地,,12,236,2890313,,,2025-11-21,清算の結了等,,,2016-09-21,1,,,,,ミヤジマシンブン,0
682,3090001006150,登記記録の閉鎖等,0,2025-12-15,2025-12-09,株式会社アクティブ・サポート・２４Ｈ,,株式会社,山梨県,笛吹市,境川町藤垈字八乙女３２７０番地５,,19,211,4060853,,,2025-12-09,合併による解散等,2090001001838,令和７年１２月９日山梨県甲府市山宮町２７５０番地１株式会社福島運輸（2090001001838）に合併し解散,2015-10-05,1,,,,,アクティブサポートニジュウヨンエイチ,0
689,3110002020197,登記記録の閉鎖等,0,2025-12-15,2025-12-08,有限会社アキヤマ,,有限会社,新潟県,三島郡出雲崎町,大字尼瀬１０７番地,,15,405,9494308,,,2025-12-08,清算の結了等,,,2015-10-05,1,,,,,アキヤマ,0
692,3120001128362,登記記録の閉鎖等,0,2025-12-15,2025-12-11,株式会社ケアネットワーク,,株式会社,大阪府,大阪市中央区,東平２丁目５番７号上六ビル６０３,,27,128,5420063,,,2025-12-11,清算の結了等,,,2015-10-05,1,,,,,ケアネットワーク,0
693,3120001204832,登記記録の閉鎖等,0,2025-12-15,2025-12-11,メリープロモーション株式会社,,株式会社,大阪府,大阪市北区,東天満１丁目４番８号,,27,127,5300044,,,2025-12-11,清算の結了等,,,2017-04-11,1,,,,,メリープロモーション,0
702,3120001262302,登記記録の閉鎖等,0,2025-12-15,2025-12-11,京都書画院株式会社,,株式会社,京都府,京都市左京区,静市市原町９１０番地６７,,26,103,6011123,,,2025-12-11,清算の結了等,,,2024-02-15,1,,,,,キョウトショガイン,0
703,3120001267235,登記記録の閉鎖等,0,2025-12-15,2025-12-04,株式会社布袋,,株式会社,大阪府,大阪市中央区,南船場２丁目４番８号,,27,128,5420081,,,2025-12-04,合併による解散等,8120001242670,令和７年１２月１日大阪市中央区南船場二丁目４番８号株式会社ベネフィットＭ＆Ａコンサルタンツ（8120001242670）に合併し解散,2024-07-31,1,,,,,ホテイ,0
726,3130001055242,登記記録の閉鎖等,0,2025-12-15,2025-12-11,株式会社正庵,,株式会社,京都府,京都市上京区,大宮鞍馬口下る筋違橋町５７６番地,,26,102,6020000,,,2025-12-11,清算の結了等,,,2015-10-05,1,,,,,ショウアン,0
736,3160001004147,登記記録の閉鎖等,0,2025-12-15,2025-12-10,株式会社スカイライトチューブ滋賀,,株式会社,滋賀県,守山市,杉江町６３０番地１,,25,207,5240062,,,2025-12-10,清算の結了等,,,2015-10-05,1,,,,,スカイライトチューブシガ,0
749,3190002010050,登記記録の閉鎖等,0,2025-12-15,2025-12-09,有限会社ワイエー精機,,有限会社,三重県,伊勢市,植山町４９番地,,24,203,5150506,,,2025-12-09,清算の結了等,,,2015-10-05,1,,,,,ワイエーセイキ,0
759,3220002008917,登記記録の閉鎖等,0,2025-12-15,2025-12-11,有限会社ウィケット,,有限会社,石川県,白山市,宮永市町６５７番地１,,17,210,9240016,,,2025-12-11,清算の結了等,,,2015-10-05,1,,,,,ウィケット,0
762,3240001030077,登記記録の閉鎖等,0,2025-12-15,2025-12-09,葦陽薬品株式会社,,株式会社,広島県,呉市,阿賀中央４丁目５番２３号,,34,202,7370003,,,2025-12-09,合併による解散等,6030001066965,令和７年１１月１日大阪府茨木市西駅前町１３番２５号株式会社ウィーズ（6030001066965）に合併し解散,2015-10-05,1,,,,,イヨウヤクヒン,0
764,3240002051213,登記記録の閉鎖等,0,2025-12-15,2025-12-09,有限会社林原電気工事,,有限会社,広島県,尾道市,向島町１０７６番地の２,,34,205,7220073,,,2025-12-09,清算の結了等,,,2015-10-05,1,,,,,ハヤシバラデンキコウジ,0
778,3290802012112,登記記録の閉鎖等,0,2025-12-15,2025-12-08,有限会社ストーリーズ,,有限会社,福岡県,北九州市小倉北区,馬借２丁目７番１５－８０４号,,40,106,8020077,,,2025-12-08,清算の結了等,,,2015-10-05,1,,,,,ストーリーズ,0
781,3310002009146,登記記録の閉鎖等,0,2025-12-15,2025-12-09,有限会社石橋商店,,有限会社,長崎県,佐世保市,皆瀬町２１番地の１２,,42,202,8570144,,,2025-12-09,清算の結了等,,,2015-10-05,1,,,,,イシバシショウテン,0
782,3330001003783,登記記録の閉鎖等,0,2025-12-15,2025-12-08,株式会社ハッスル九州,,株式会社,熊本県,熊本市中央区,渡鹿７丁目１４番２３号,,43,101,8620970,,,2025-12-08,清算の結了等,,,2015-10-05,1,,,,,ハッスルキュウシュウ,0
789,3330002026065,登記記録の閉鎖等,0,2025-12-15,2025-12-08,有限会社田中建設,,有限会社,熊本県,八代市,水島町２５８１番地,,43,202,8695155,,,2025-12-08,清算の結了等,,,2015-10-05,1,,,,,タナカケンセツ,0
795,3360002005743,登記記録の閉鎖等,0,2025-12-15,2025-12-11,有限会社ビーンズ広告社,,有限会社,沖縄県,那覇市,首里石嶺町４丁目４５５番地２２,,47,201,9030804,,,2025-12-11,清算の結了等,,,2015-10-05,1,,,,,ビーンズコウコクシャ,0
804,3380001005404,登記記録の閉鎖等,0,2025-12-15,2025-12-09,株式会社佐藤会計センター,,株式会社,福島県,郡山市,桑野４丁目７番５号,,07,203,9638025,,,2025-12-09,清算の結了等,,,2015-10-05,1,,,,,サトウカイケイセンター,0
813,3420002001455,登記記録の閉鎖等,0,2025-12-15,2025-12-09,有限会社神米穀店,,有限会社,青森県,青森市,桜川６丁目２２番６号,,02,201,0300945,,,2025-12-09,清算の結了等,,,2015-10-05,1,,,,,ジンベイコクテン,0
823,3470002008017,登記記録の閉鎖等,0,2025-12-15,2025-12-11,有限会社セラグローバル,,有限会社,香川県,高松市,屋島西町１１３４番地５４,,37,201,7610113,,,2025-12-11,清算の結了等,,,2015-10-05,1,,,,,セラグローバル,0
834,4010005033379,登記記録の閉鎖等,0,2025-12-15,2025-12-12,ジェイエルシティ一般社団法人,,その他の設立登記法人,東京都,千代田区,丸の内１丁目４番１号東京共同会計事務所内,,13,101,1000005,,,2025-12-12,清算の結了等,,,2021-05-20,1,,,,,ジェイエルシティ,0
836,4010101010067,登記記録の閉鎖等,0,2025-12-15,2025-12-11,株式会社ＮＩＮＥ,,株式会社,東京都,八王子市,左入町９２１番地１,,13,201,1920012,,,2025-12-11,清算の結了等,,,2015-10-05,1,,,,,ナイン,0
838,4010401063236,登記記録の閉鎖等,0,2025-12-15,2025-11-25,株式会社ソリッドアセットマネジメント,,株式会社,東京都,港区,六本木７丁目１５番１３号,,13,103,1060032,,,2025-11-25,清算の結了等,,,2015-10-05,1,,,,,ソリッドアセットマネジメント,0
848,4010801031107,登記記録の閉鎖等,0,2025-12-15,2025-12-05,宏源株式会社,,株式会社,東京都,大田区,矢口１丁目１６－１９コスモビルＩＩ３０５,00120419,13,111,1460093,,,2025-12-05,清算の結了等,,,2020-08-06,1,,,,,コウゲン,0
872,4011402004831,登記記録の閉鎖等,0,2025-12-15,2025-12-11,有限会社菅井工業,,有限会社,東京都,板橋区,大谷口北町２４番１０号,,13,119,1730031,,,2025-12-11,清算の結了等,,,2015-10-05,1,,,,,スガイコウギョウ,0
897,4030001087575,登記記録の閉鎖等,0,2025-12-15,2025-12-04,株式会社清水Ｒ,,株式会社,埼玉県,熊谷市,久保島１１２５番地,,11,202,3600831,,,2025-12-04,合併による解散等,6030002113956,令和７年１２月１日埼玉県熊谷市久保島１１２５番地株式会社パインウッドゴルフガーデン（6030002113956）に合併し解散,2015-10-05,1,,,,,シミズアール,0
913,4050001044987,登記記録の閉鎖等,0,2025-12-15,2025-12-09,株式会社民警,,株式会社,茨城県,水戸市,緑町１丁目４番３６号,,08,201,3100034,,,2025-12-09,清算の結了等,,,2018-09-28,1,,,,,ミンケイ,0
916,4050002035738,登記記録の閉鎖等,0,2025-12-15,2025-12-08,有限会社中田新聞販売店,,有限会社,茨城県,常陸大宮市,野口１０９９番地,,08,225,3114503,,,2025-12-08,清算の結了等,,,2015-10-05,1,,,,,ナカタシンブンハンバイテン,0
919,4060002027040,登記記録の閉鎖等,0,2025-12-15,2025-12-11,有限会社新栄ホーム,,有限会社,栃木県,矢板市,幸岡４９２番地,,09,211,3292151,,,2025-12-11,清算の結了等,,,2015-10-05,1,,,,,シンエイホーム,0
921,4060003004674,登記記録の閉鎖等,0,2025-12-15,2025-12-10,株式会社土地技研,,株式会社,栃木県,さくら市,松山新田１９２番地１,,09,214,3291302,,,2025-12-10,清算の結了等,,,2023-08-09,1,,,,,トチギケン,0
925,4080101001043,登記記録の閉鎖等,0,2025-12-15,2025-12-10,株式会社ダイワシステムインテリア,,株式会社,静岡県,沼津市,本白銀町４８７番地,,22,203,4100867,,,2025-12-10,清算の結了等,,,2015-10-05,1,,,,,ダイワシステムインテリア,0
931,4090002006289,登記記録の閉鎖等,0,2025-12-15,2025-12-09,有限会社エフ・エフ・シー,,有限会社,山梨県,笛吹市,境川町藤垈字八乙女３２７０番地１２,,19,211,4060853,,,2025-12-09,合併による解散等,2090001001838,令和７年１２月９日山梨県甲府市山宮町２７５０番地１株式会社福島運輸（2090001001838）に合併し解散,2015-10-05,1,,,,,エフエフシー,0
932,4090005007144,登記記録の閉鎖等,0,2025-12-15,2025-10-07,社会福祉法人あすなろ福祉会,,その他の設立登記法人,山梨県,甲府市,上石田４丁目５番１８号,,19,201,4000041,,,2025-10-07,合併による解散等,9090005001761,令和７年１０月７日山梨県甲府市若松町６番３５号社会福祉法人やまなし勤労者福祉会（9090005001761）に合併し解散,2018-02-15,1,,,,,アスナロフクシカイ,0
934,4100001005760,登記記録の閉鎖等,0,2025-12-15,2025-12-11,株式会社盛寝,,株式会社,長野県,須坂市,大字小山２５５４番地４,,20,207,3820912,,,2025-12-11,清算の結了等,,,2015-10-05,1,,,,,モリシン,0
970,4140001001285,登記記録の閉鎖等,0,2025-12-15,2025-12-08,金井商事株式会社,,株式会社,兵庫県,神戸市東灘区,本山北町４丁目７番４８号,,28,101,6580003,,,2025-12-08,清算の結了等,,,2015-10-05,1,,,,,カナイショウジ,0
979,4180001133463,登記記録の閉鎖等,0,2025-12-15,2025-12-01,株式会社ＪＡＰＡＮ　ｂｅａｕｔｙ,,株式会社,東京都,中央区,銀座８丁目１５番１０号,,13,102,1040061,,,2025-12-01,清算の結了等,,,2018-08-17,1,,,,,ジャパンビューティー,0
995,4240001044522,登記記録の閉鎖等,0,2025-12-15,2025-12-10,株式会社東明建設,,株式会社,広島県,東広島市,黒瀬楢原東３丁目１１番１１号,00000653,34,212,7392628,,,2025-12-10,清算の結了等,,,2015-10-05,1,,,,,,0
999,4250001018343,登記記録の閉鎖等,0,2025-12-15,2025-12-10,柳井工業株式会社,,株式会社,山口県,玖珂郡和木町,和木１丁目６番１３－３号,,35,321,7400061,,,2025-12-10,清算の結了等,,,2020-07-06,1,,,,,ヤナイコウギョウ,0
1001,4260002011354,登記記録の閉鎖等,0,2025-12-15,2025-12-10,有限会社松熊鮮魚店,,有限会社,岡山県,岡山市東区,瀬戸町瀬戸３９８番地の１,,33,103,7090861,,,2025-12-10,清算の結了等,,,2015-10-05,1,,,,,マツクマセンギョテン,0
1021,4360001024751,登記記録の閉鎖等,0,2025-12-15,2025-12-09,株式会社龍華,,株式会社,沖縄県,中頭郡北谷町,字伊平４２１番地１,,47,326,9040102,,,2025-12-09,清算の結了等,,,2018-10-24,1,,,,,リュウカ,0
1022,4360001029379,登記記録の閉鎖等,0,2025-12-15,2025-12-01,株式会社北斗販売,,株式会社,沖縄県,うるま市,石川曙２丁目２２番１号,,47,213,9041107,,,2025-12-01,合併による解散等,1360001011595,令和７年１２月１日沖縄県浦添市西原二丁目３番５号２階株式会社北斗（1360001011595）に合併し解散,2021-09-16,1,,,,,ホクトハンバイ,0
1032,4390002008156,登記記録の閉鎖等,0,2025-12-15,2025-12-11,有限会社エーティー管工,,有限会社,山形県,飽海郡遊佐町,吹浦字西楯３１番地の１,,06,461,9998521,,,2025-12-11,清算の結了等,,,2015-10-05,1,,,,,エーティーカンコウ,0
1037,4430005010749,登記記録の閉鎖等,0,2025-12-15,2025-12-08,一般社団法人日高管内漁業振興協会,,その他の設立登記法人,北海道,浦河郡浦河町,浦河港埋立地,,01,607,0570000,,,2025-12-08,清算の結了等,,,2015-10-05,1,,,,,ヒダカカンナイギョギョウシンコウキョウカイ,0
1041,4470003000863,登記記録の閉鎖等,0,2025-12-15,2025-12-05,グッドショア合同会社,,合同会社,大阪府,豊中市,本町４丁目８番４０号,,27,203,5600021,,,2025-12-05,清算の結了等,,,2015-10-05,1,,,,,グッドショア,0
1061,5010003043908,登記記録の閉鎖等,0,2025-12-15,2025-11-28,ソーラーデメル合同会社,,合同会社,東京都,中央区,京橋２丁目１２番６号ＡＯＪ税理士法人内,,13,102,1040031,,,2025-11-28,清算の結了等,,,2024-06-06,1,,,,,ソーラーデメル,0
1070,5010401138631,登記記録の閉鎖等,0,2025-12-15,2025-12-09,プラスワンソリューションズ株式会社,,株式会社,沖縄県,浦添市,城間１丁目３２番７号ハロービル４Ｆ,,47,208,9012133,,,2025-12-09,合併による解散等,4011001133197,令和７年１１月１日東京都目黒区上目黒二丁目１番１号株式会社ＬＩＴＡＬＩＣＯ（4011001133197）に合併し解散,2018-05-28,1,,,,,,0
1072,5010401188560,登記記録の閉鎖等,0,2025-12-15,2025-11-21,ＨＪ　ｃｏｍｐａｎｙ株式会社,,株式会社,東京都,港区,北青山２丁目１２番７号３階,,13,103,1070061,,,2025-11-21,清算の結了等,,,2025-03-07,1,,,,,エイチジェイカンパニー,0
1079,5010502000302,登記記録の閉鎖等,0,2025-12-15,2025-12-05,有限会社アヅマ,,有限会社,東京都,台東区,日本堤２丁目３４番３号,,13,106,1110021,,,2025-12-05,清算の結了等,,,2015-10-05,1,,,,,アヅマ,0
1081,5010601023377,登記記録の閉鎖等,0,2025-12-15,2025-12-04,株式会社ユー・クリエイツ,,株式会社,東京都,江東区,森下５丁目８番６号２Ｆ,,13,108,1350004,,,2025-12-04,清算の結了等,,,2015-10-05,1,,,,,,0
1085,5010601040694,登記記録の閉鎖等,0,2025-12-15,2025-11-27,株式会社力丸,,株式会社,神奈川県,藤沢市,本藤沢５丁目７番１～７１５号,,14,205,2510875,,,2025-11-27,清算の結了等,,,2015-10-05,1,,,,,リキマル,0
1100,5010901027838,登記記録の閉鎖等,0,2025-12-15,2025-12-05,株式会社カワセデザインスタジオ,,株式会社,東京都,世田谷区,上野毛３丁目１９番１９号,,13,112,1580093,,,2025-12-05,清算の結了等,,,2015-10-05,1,,,,,カワセデザインスタジオ,0
1109,5011002000370,登記記録の閉鎖等,0,2025-12-15,2025-12-11,有限会社アトリエ・シェリールー,,有限会社,東京都,世田谷区,上馬１丁目１－７－２０９,,13,112,1540011,,,2025-12-11,清算の結了等,,,2015-10-05,1,,,,,アトリエシェリールー,0
1137,5012701003465,登記記録の閉鎖等,0,2025-12-15,2025-12-05,株式会社孝平工務店,,株式会社,東京都,東久留米市,本町４丁目１９番９号,,13,222,2030053,,,2025-12-05,清算の結了等,,,2015-10-05,1,,,,,タカヒラコウムテン,0
1145,5020002007045,登記記録の閉鎖等,0,2025-12-15,2025-12-09,有限会社マルセン,,有限会社,神奈川県,横浜市港北区,新吉田町５５７３番地２,,14,109,2230056,,,2025-12-09,清算の結了等,,,2015-10-05,1,,,,,マルセン,0
1151,5020005008932,登記記録の閉鎖等,0,2025-12-15,2025-12-08,特定非営利活動法人日本ツーリズムオペレーション,,その他の設立登記法人,神奈川県,川崎市川崎区,中瀬３丁目４－２,,14,131,2100818,,,2025-12-08,清算の結了等,,,2015-10-05,1,,,,,ニホンツーリズムオペレーション,0
1152,5021001009841,登記記録の閉鎖等,0,2025-12-15,2025-12-01,フィーウェル株式会社,,株式会社,神奈川県,鎌倉市,台１９１７番地,,14,204,2470061,,,2025-12-01,合併による解散等,8021002015076,令和７年１２月１日神奈川県鎌倉市台１９１７番地アイ株式会社（8021002015076）に合併し解散,2015-10-05,1,,,,,フィーウェル,0
1154,5021001033222,登記記録の閉鎖等,0,2025-12-15,2025-12-01,モリタ薬品産業株式会社,,株式会社,神奈川県,小田原市,寿町１丁目９番３３号,,14,206,2500002,,,2025-12-01,清算の結了等,,,2015-10-05,1,,,,,,0
1165,5030002078102,登記記録の閉鎖等,0,2025-12-15,2025-12-05,有限会社細沼会計,,有限会社,埼玉県,川越市,東田町８番地１２,,11,201,3501114,,,2025-12-05,清算の結了等,,,2015-10-05,1,,,,,ホソヌマカイケイ,0
1167,5040001036241,登記記録の閉鎖等,0,2025-12-15,2025-11-18,東亜オフィス株式会社,,株式会社,千葉県,松戸市,高塚新田５９３番地４３,,12,207,2702222,,,2025-11-18,清算の結了等,,,2015-10-05,1,,,,,トウアオフィス,0
1173,5040003024236,登記記録の閉鎖等,0,2025-12-15,2025-11-26,合同会社ステップアップ,,合同会社,千葉県,市原市,五井東１丁目９番地１１,,12,219,2900055,,,2025-11-26,清算の結了等,,,2024-02-01,1,,,,,ステップアップ,0
1178,5050001037073,登記記録の閉鎖等,0,2025-12-15,2025-12-08,株式会社ＳＴアソシエーツ,,株式会社,茨城県,那珂市,菅谷２３３０番地１２,,08,226,3110105,,,2025-12-08,清算の結了等,,,2015-10-05,1,,,,,エスティアソシエーツ,0
1195,5110001001295,登記記録の閉鎖等,0,2025-12-15,2025-12-03,株式会社一興,,株式会社,新潟県,新潟市中央区,沼垂東６丁目１番１９号,,15,103,9500075,,,2025-12-03,清算の結了等,,,2015-10-05,1,,,,,イッコウ,0
1198,5110002026481,登記記録の閉鎖等,0,2025-12-15,2025-12-08,有限会社丸山瓦工業,,有限会社,新潟県,糸魚川市,大字大沢５５６番地２３,,15,216,9491331,,,2025-12-08,清算の結了等,,,2015-10-05,1,,,,,マルヤマカワラコウギョウ,0
1205,5120001140514,登記記録の閉鎖等,0,2025-12-15,2025-12-11,株式会社マック,,株式会社,大阪府,大阪市中央区,博労町２丁目６番７号,,27,128,5410059,,,2025-12-11,清算の結了等,,,2015-10-05,1,,,,,マック,0
1226,5120901037710,登記記録の閉鎖等,0,2025-12-15,2025-12-09,株式会社アドバン,,株式会社,大阪府,高槻市,城北町１丁目１４番１７号プレステージＩＩ城北２０２号室,00108478,27,207,5690071,,,2025-12-09,合併による解散等,5120901011343,令和７年１２月１日大阪府高槻市須賀町５８番９号株式会社伸英開発（5120901011343）に合併し解散,2016-11-22,1,,,,,アドバン,0
1233,5130001024534,登記記録の閉鎖等,0,2025-12-15,2025-12-01,株式会社滋賀ワインダー,,株式会社,京都府,京都市北区,紫野南舟岡町３６番地,,26,101,6038225,,,2025-12-01,合併による解散等,4130001004660,令和７年１１月３０日京都市北区紫野南舟岡町３６番地日下部株式会社（4130001004660）に合併し解散,2015-10-05,1,,,,,シガワインダー,0
1240,5140001041165,登記記録の閉鎖等,0,2025-12-15,2025-12-09,株式会社タカハシ,,株式会社,兵庫県,丹波市,柏原町下小倉３８２番地,,28,223,6693305,,,2025-12-09,清算の結了等,,,2015-10-05,1,,,,,タカハシ,0
1246,5140002050181,登記記録の閉鎖等,0,2025-12-15,2025-12-10,有限会社ハト美容室,,有限会社,兵庫県,姫路市,呉服町５番地,,28,201,6700923,,,2025-12-10,清算の結了等,,,2015-10-05,1,,,,,ハトビヨウシツ,0
1251,5150002005597,登記記録の閉鎖等,0,2025-12-15,2025-12-11,有限会社石丸サービス,,有限会社,奈良県,天理市,内馬場町３８９番地,,29,204,6320031,,,2025-12-11,清算の結了等,,,2015-10-05,1,,,,,イシマルサービス,0
1256,5170003001156,登記記録の閉鎖等,0,2025-12-15,2025-12-12,スタイラッテ合同会社,,合同会社,和歌山県,和歌山市,紀三井寺１０６３番地,,30,201,6410012,,,2025-12-12,清算の結了等,,,2017-08-14,1,,,,,スタイラッテ,0
1261,5180002067874,登記記録の閉鎖等,0,2025-12-15,2025-12-09,有限会社フォトアイチ,,有限会社,愛知県,春日井市,藤山台１０丁目１番地の７,,23,206,4870035,,,2025-12-09,清算の結了等,,,2015-10-05,1,,,,,フォトアイチ,0
1274,5220002011448,登記記録の閉鎖等,0,2025-12-15,2025-12-11,有限会社あじの牧場丸太小舎,,有限会社,石川県,能美市,大長野町ル２４番地,,17,211,9231115,,,2025-12-11,清算の結了等,,,2015-10-05,1,,,,,アジノマキバマルタゴヤ,0
1280,5240001029530,登記記録の閉鎖等,0,2025-12-15,2025-12-08,株式会社福山熱管,,株式会社,広島県,福山市,神辺町大字上竹田８５５番地の１,,34,207,7202114,,,2025-12-08,清算の結了等,,,2015-10-05,1,,,,,フクヤマネツカン,0
1282,5240002009845,登記記録の閉鎖等,0,2025-12-15,2025-12-09,有限会社宝商事,,有限会社,広島県,広島市中区,幟町１１番４号,,34,101,7300016,,,2025-12-09,清算の結了等,,,2015-10-05,1,,,,,タカラショウジ,0
1286,5260002026673,登記記録の閉鎖等,0,2025-12-15,2025-12-09,有限会社ＣＳサポート,,有限会社,岡山県,小田郡矢掛町,横谷３９６９番地,,33,461,7141212,,,2025-12-09,清算の結了等,,,2015-10-05,1,,,,,シーエスサポート,0
1301,5290005003171,登記記録の閉鎖等,0,2025-12-15,2025-12-01,フクオカ西部建設協同組合,,その他の設立登記法人,福岡県,福岡市西区,今宿１丁目８番７号,,40,135,8190167,,,2025-12-01,清算の結了等,,,2015-10-05,1,,,,,フクオカセイブケンセツ,0
1315,5380002000856,登記記録の閉鎖等,0,2025-12-15,2025-12-08,カドウ幌内張有限会社,,有限会社,福島県,福島市,鎌田字町東４番地の１１,,07,201,9600102,,,2025-12-08,清算の結了等,,,2015-10-05,1,,,,,カドウホロウチバリ,0
1317,5390001011143,登記記録の閉鎖等,0,2025-12-15,2025-11-27,株式会社長井農産加工センター,,株式会社,山形県,長井市,今泉５６３番地,,06,209,9930033,,,2025-11-27,清算の結了等,,,2015-10-05,1,,,,,ナガイノウサンカコウセンター,0
1318,5390001017454,登記記録の閉鎖等,0,2025-12-15,2025-12-10,株式会社東昇,,株式会社,山形県,山形市,大野目４丁目２番７号,,06,201,9900073,,,2025-12-10,清算の結了等,,,2023-12-21,1,,,,,トウショウ,0
1320,5390002007074,登記記録の閉鎖等,0,2025-12-15,2025-12-11,有限会社エス・エス,,有限会社,山形県,酒田市,下安町３番地の１７,,06,204,9980012,,,2025-12-11,清算の結了等,,,2015-10-05,1,,,,,エスエス,0
1330,6010001023290,登記記録の閉鎖等,0,2025-12-15,2025-12-01,株式会社ティーアールエス,,株式会社,東京都,千代田区,外神田５丁目６番１６号,,13,101,1010021,,,2025-12-01,清算の結了等,,,2015-10-05,1,,,,,ティーアールエス,0
1345,6010401048441,登記記録の閉鎖等,0,2025-12-15,2025-11-25,ＭＭコンサルタント株式会社,,株式会社,東京都,港区,西新橋１丁目２２番７号,,13,103,1050003,,,2025-11-25,清算の結了等,,,2015-10-05,1,,,,,エムエムコンサルタント,0
1359,6010601014375,登記記録の閉鎖等,0,2025-12-15,2025-12-08,株式会社フエニツクス,,株式会社,東京都,墨田区,両国２丁目２番１０号,,13,107,1300026,,,2025-12-08,清算の結了等,,,2015-10-05,1,,,,,フエニツクス,0
1364,6010705003695,登記記録の閉鎖等,0,2025-12-15,2025-11-25,社会保険労務士法人うれしくインターナショナルコンサルティング,,その他の設立登記法人,東京都,品川区,戸越５丁目４番３号アズ品川ビル４Ｆ,,13,109,1420041,,,2025-11-25,清算の結了等,,,2024-11-05,1,,,,,ウレシクインターナショナルコンサルティング,0
1365,6010801015743,登記記録の閉鎖等,0,2025-12-15,2025-12-04,株式会社ユニークマン,,株式会社,長野県,上田市,蒼久保８７９番地,,20,203,3860155,,,2025-12-04,清算の結了等,,,2015-10-05,1,,,,,ユニークマン,0
1367,6010801018481,登記記録の閉鎖等,0,2025-12-15,2025-12-03,株式会社ダッチカンパニー,,株式会社,東京都,大田区,大森本町１丁目８番１０－１４０１号,,13,111,1430011,,,2025-12-03,清算の結了等,,,2015-10-05,1,,,,,ダッチカンパニー,0
1399,6011601015727,登記記録の閉鎖等,0,2025-12-15,2025-12-09,株式会社コストカットラボ,,株式会社,東京都,練馬区,氷川台４丁目４７番１８号,,13,120,1790084,,,2025-12-09,清算の結了等,,,2015-10-05,1,,,,,,0
1406,6011801036416,登記記録の閉鎖等,0,2025-12-15,2025-12-11,ＫＡＲＩＭ株式会社,,株式会社,東京都,板橋区,南常盤台１丁目３８番２号,,13,119,1740072,,,2025-12-11,清算の結了等,,,2019-07-25,1,,,,,カリム,0
1410,6013102005678,登記記録の閉鎖等,0,2025-12-15,2025-12-15,有限会社伊藤製作所,,有限会社,東京都,青梅市,河辺町３丁目１１３０番地の４,,13,205,1980036,,,2025-12-15,清算の結了等,,,2015-10-05,1,,,,,イトウセイサクジョ,0
1418,6020001142627,登記記録の閉鎖等,0,2025-12-15,2025-12-02,株式会社華団,,株式会社,神奈川県,小田原市,成田１２番地の２０,,14,206,2500862,,,2025-12-02,合併による解散等,8021001061187,令和７年１１月２９日神奈川県鎌倉市大船一丁目２３番１１号松岡大船ビル２Ｆ株式会社楽笑（8021001061187）に合併し解散,2021-08-19,1,,,,,ハナダン,0
1433,6040001132601,登記記録の閉鎖等,0,2025-12-15,2025-11-25,株式会社天道家,,株式会社,千葉県,鴨川市,粟斗１０７０,,12,223,2960031,,,2025-11-25,清算の結了等,,,2024-03-12,1,,,,,テンドウヤ,0
1443,6050002032262,登記記録の閉鎖等,0,2025-12-15,2025-12-05,有限会社ワタナベ,,有限会社,茨城県,高萩市,大字安良川２５１番地の５,,08,214,3180021,,,2025-12-05,清算の結了等,,,2015-10-05,1,,,,,ワタナベ,0
1448,6080401024329,登記記録の閉鎖等,0,2025-12-15,2025-12-03,株式会社ＨＭＣＣ,,株式会社,静岡県,浜松市中央区,舞阪町弁天島３２８５番地１－２０５,,22,138,4310214,,,2025-12-03,清算の結了等,,,2020-05-29,1,,,,,エイチエムシーシー,0
1449,6100001028578,登記記録の閉鎖等,0,2025-12-15,2025-12-10,株式会社来福,,株式会社,長野県,松本市,宮渕３丁目８番２号,,20,202,3900862,,,2025-12-10,清算の結了等,,,2015-10-05,1,,,,,ライフ,0
1472,6130001036306,登記記録の閉鎖等,0,2025-12-15,2025-12-11,株式会社ライフ・デポ,,株式会社,京都府,京都市伏見区,下鳥羽南三町８２,,26,109,6128478,,,2025-12-11,清算の結了等,,,2015-10-05,1,,,,,ライフデポ,0
1482,6140002065402,登記記録の閉鎖等,0,2025-12-15,2025-12-08,有限会社エムツーコーポレーション,,有限会社,兵庫県,川辺郡猪名川町,伏見台１丁目２番地５８,,28,301,6660262,,,2025-12-08,清算の結了等,,,2015-10-05,1,,,,,エムツーコーポレーション,0
1485,6160003001305,登記記録の閉鎖等,0,2025-12-15,2025-12-08,ＪＢ＆Ｂ合同会社,,合同会社,京都府,京都市伏見区,東大路町３５,,26,109,6120000,,,2025-12-08,清算の結了等,,,2015-10-05,1,,,,,ジェービーアンドビー,0
1499,6180003013538,登記記録の閉鎖等,0,2025-12-15,2025-12-09,丸庄産業合名会社,,合名会社,愛知県,海部郡蟹江町,城２丁目２２７番地,,23,425,4970040,,,2025-12-09,清算の結了等,,,2015-10-05,1,,,,,マルショウサンギョウ,0
1502,6180301023668,登記記録の閉鎖等,0,2025-12-15,2025-12-09,株式会社加藤造景,,株式会社,愛知県,西尾市,上羽角町郷内１１９番地,,23,213,4450011,,,2025-12-09,清算の結了等,,,2015-10-05,1,,,,,カトウゾウケイ,0
1503,6200001002630,登記記録の閉鎖等,0,2025-12-15,2025-12-11,村克株式会社,,株式会社,岐阜県,岐阜市,岩崎９４３番地２,,21,201,5020005,,,2025-12-11,清算の結了等,,,2015-10-05,1,,,,,ムラカツ,0
1509,6220002001695,登記記録の閉鎖等,0,2025-12-15,2025-12-11,有限会社奥村サッシ商会,,有限会社,石川県,金沢市,窪４丁目５６７番地２,,17,201,9218151,,,2025-12-11,清算の結了等,,,2015-10-05,1,,,,,オクムラサッシショウカイ,0
1510,6240001012824,登記記録の閉鎖等,0,2025-12-15,2025-12-09,株式会社光吉工務店,00000143,株式会社,広島県,広島市東区,牛田南１丁目４番１３号,,34,102,7320064,,,2025-12-09,清算の結了等,,,2015-10-05,1,,,,,ミツヨシコウムテン,0
1514,6240002028836,登記記録の閉鎖等,0,2025-12-15,2025-12-08,有限会社西日本キョーワ,,有限会社,広島県,東広島市,三永３丁目１番６号,,34,212,7390026,,,2025-12-08,合併による解散等,7030001018461,令和７年１１月３０日埼玉県蓮田市大字井沼６２０番地２８株式会社トーヨー精工（7030001018461）に合併し解散,2015-10-05,1,,,,,ニシニホンキョーワ,0
1515,6240002042341,登記記録の閉鎖等,0,2025-12-15,2025-12-09,有限会社羽田鉄工所,,有限会社,広島県,福山市,鞆町後地２６番地の６１,00001415,34,207,7200202,,,2025-12-09,清算の結了等,,,2015-10-05,1,,,,,ハダテッコウショ,0
1539,6340002006121,登記記録の閉鎖等,0,2025-12-15,2025-12-05,有限会社田渕製菓,,有限会社,鹿児島県,鹿児島市,上本町１６番１０号,,46,201,8920818,,,2025-12-05,清算の結了等,,,2015-10-05,1,,,,,タブチセイカ,0
1557,6380001013024,登記記録の閉鎖等,0,2025-12-15,2025-12-08,株式会社ＴＲＫ,,株式会社,福島県,いわき市,平字五色町３８番地,,07,204,9708026,,,2025-12-08,清算の結了等,,,2015-10-05,1,,,,,ティーアールケー,0
1562,6400001010068,登記記録の閉鎖等,0,2025-12-15,2025-12-05,不動産事業準備株式会社,,株式会社,岩手県,盛岡市,津志田中央１丁目３番２８号,,03,201,0200838,,,2025-12-05,清算の結了等,,,2015-10-05,1,,,,,フドウサンジギョウジュンビ,0
1572,6430005003412,登記記録の閉鎖等,0,2025-12-15,2025-12-09,医療法人社団美しが丘眼科,,その他の設立登記法人,北海道,札幌市清田区,美しが丘一条６丁目２番１号,,01,110,0040811,,,2025-12-09,清算の結了等,,,2015-10-05,1,,,,,ウツクシガオカガンカ,0
1578,6460102007627,登記記録の閉鎖等,0,2025-12-15,2025-12-11,有限会社テクサス,,有限会社,北海道,河東郡音更町,柳町南区１１番地９,,01,631,0800123,,,2025-12-11,清算の結了等,,,2015-10-05,1,,,,,テクサス,0
1587,7010001086089,登記記録の閉鎖等,0,2025-12-15,2025-12-01,株式会社物流二十四,,株式会社,東京都,文京区,湯島３丁目２６番７号,,13,105,1130034,,,2025-12-01,合併による解散等,5010001087238,令和７年１２月１日東京都中央区京橋三丁目１番１号株式会社メディセオ（5010001087238）に合併し解散,2015-10-05,1,,,,,ブツリュウニジュウヨン,0
1623,7010502002957,登記記録の閉鎖等,0,2025-12-15,2025-12-08,有限会社共立総合紙工,,有限会社,東京都,台東区,三ノ輪１丁目６番９号,,13,106,1100011,,,2025-12-08,清算の結了等,,,2015-10-05,1,,,,,キョウリツソウゴウシコウ,0
1627,7010703004422,登記記録の閉鎖等,0,2025-12-15,2025-11-25,ＣＨＩＨＩＲＯ＆ＶＩＣＴＯＲＩＡ合同会社,,合同会社,東京都,港区,芝浦４丁目１５番１号,,13,103,1080023,,,2025-11-25,清算の結了等,,,2018-08-30,1,,,,,チヒロアンドビクトリア,0
1630,7010901012557,登記記録の閉鎖等,0,2025-12-15,2025-12-10,株式会社ヨシコー,,株式会社,東京都,世田谷区,世田谷１丁目１３番２２号,,13,112,1540017,,,2025-12-10,清算の結了等,,,2015-10-05,1,,,,,ヨシコー,0
1663,7013303006193,登記記録の閉鎖等,0,2025-12-15,2025-12-03,アイビス・プラネット合同会社,,合同会社,東京都,豊島区,南大塚２丁目１１－１０ミモザビル３Ｆ,,13,116,1700005,,,2025-12-03,清算の結了等,,,2022-06-20,1,,,,,アイビスプラネット,0
1670,7021001052204,登記記録の閉鎖等,0,2025-12-15,2025-12-09,株式会社大洋クラウドサービス,,株式会社,神奈川県,高座郡寒川町,倉見１７５５番地１,,14,321,2530101,,,2025-12-09,合併による解散等,5040003008180,令和７年１１月１日東京都港区南青山一丁目１番１号西館８階フリーダム株式会社（5040003008180）に合併し解散,2015-10-05,1,,,,,タイヨウクラウドサービス,0
1678,7021003015745,登記記録の閉鎖等,0,2025-12-15,2025-11-27,合同会社ＷＡＬＬＳ,,合同会社,神奈川県,相模原市緑区,中野１９３０番地３,,14,151,2520157,,,2025-11-27,清算の結了等,,,2025-04-01,1,,,,,ウォールズ,0
1693,7040001063184,登記記録の閉鎖等,0,2025-12-15,2025-11-21,株式会社伊東組,,株式会社,千葉県,旭市,三川６６６９番地１,,12,215,2892714,,,2025-11-21,清算の結了等,,,2015-10-05,1,,,,,イトウグミ,0
1698,7040002067044,登記記録の閉鎖等,0,2025-12-15,2025-11-25,有限会社成和工業,,有限会社,千葉県,木更津市,請西１７０８,,12,206,2920801,,,2025-11-25,清算の結了等,,,2015-10-05,1,,,,,セイワコウギョウ,0
1701,7050001018278,登記記録の閉鎖等,0,2025-12-15,2025-12-05,株式会社イワキ,,株式会社,茨城県,古河市,東１丁目４番２０号,,08,204,3060011,,,2025-12-05,清算の結了等,,,2015-10-05,1,,,,,イワキ,0
1706,7060001017816,登記記録の閉鎖等,0,2025-12-15,2025-12-11,五大総合建設株式会社,,株式会社,栃木県,栃木市,城内町２丁目３９番２号,,09,203,3280033,,,2025-12-11,清算の結了等,,,2015-10-05,1,,,,,ゴダイソウゴウケンセツ,0
1721,7090002004926,登記記録の閉鎖等,0,2025-12-15,2025-12-10,有限会社東興エレベーターエンジニアリング,,有限会社,山梨県,甲斐市,竜王新町１６３３番地６,,19,210,4000111,,,2025-12-10,清算の結了等,,,2015-10-05,1,,,,,,0
1727,7110001004131,登記記録の閉鎖等,0,2025-12-15,2025-12-09,株式会社ニイガタメデカルサービス,,株式会社,新潟県,新潟市西区,寺尾３１番２８号,,15,107,9502052,,,2025-12-09,清算の結了等,,,2015-10-05,1,,,,,ニイガタメデカルサービス,0
1731,7120001032478,登記記録の閉鎖等,0,2025-12-15,2025-12-10,株式会社木原工務店,,株式会社,大阪府,大阪市住吉区,墨江１丁目７番３２号,,27,120,5580043,,,2025-12-10,清算の結了等,,,2015-10-05,1,,,,,キハラコウムテン,0
1735,7120001126791,登記記録の閉鎖等,0,2025-12-15,2025-12-11,井藤商会株式会社,,株式会社,大阪府,大阪市浪速区,恵美須西２丁目５番４号ヒラソール恵美須５０２号室,,27,111,5560003,,,2025-12-11,清算の結了等,,,2015-10-05,1,,,,,,0
1736,7120001191068,登記記録の閉鎖等,0,2025-12-15,2025-12-09,株式会社ホスティングリセラー,,株式会社,愛知県,名古屋市中区,大須１丁目５番２７号,,23,106,4600011,,,2025-12-09,合併による解散等,6180001073559,令和７年１２月９日名古屋市中区大須四丁目１１番４４号チサンマンション上前津８階８０３号室株式会社ホスリセプラス（6180001073559）に合併し解散,2015-10-05,1,,,,,ホスティングリセラー,0
1746,7120003023888,登記記録の閉鎖等,0,2025-12-15,2025-12-11,合同会社デジヤク,,合同会社,大阪府,門真市,幸福町２１番地１,,27,223,5710066,,,2025-12-11,清算の結了等,,,2023-04-20,1,,,,,デジヤク,0
1749,7120903001241,登記記録の閉鎖等,0,2025-12-15,2025-11-25,合同会社サクセスエモーション,,合同会社,東京都,港区,南青山２丁目２－１５ウィン青山９４２,,13,103,1070062,,,2025-11-25,清算の結了等,,,2015-10-05,1,,,,,サクセスエモーション,0
1760,7130005011915,登記記録の閉鎖等,0,2025-12-15,2025-12-08,医療法人りんご会,,その他の設立登記法人,京都府,舞鶴市,字引土３２４番地,,26,202,6240841,,,2025-12-08,清算の結了等,,,2015-10-05,1,,,,,リンゴカイ,0
1782,7180002006731,登記記録の閉鎖等,0,2025-12-15,2025-12-05,有限会社土古鈴木新聞店,,有限会社,愛知県,名古屋市港区,土古町１丁目３１番地,,23,111,4550068,,,2025-12-05,清算の結了等,,,2015-10-05,1,,,,,ドンコスズキシンブンテン,0
1798,7240002005462,登記記録の閉鎖等,0,2025-12-15,2025-12-09,有限会社ケイ・ユー,,有限会社,広島県,広島市安佐南区,長束西５丁目１０番２２号,,34,105,7310136,,,2025-12-09,清算の結了等,,,2015-10-05,1,,,,,ケイユー,0
1814,7320001004886,登記記録の閉鎖等,0,2025-12-15,2025-12-11,株式会社湯布院倶楽部,,株式会社,福岡県,北九州市小倉北区,竪町１丁目６番３０号,,40,106,8030818,,,2025-12-11,清算の結了等,,,2015-10-05,1,,,,,ユフインクラブ,0
1815,7330005004502,登記記録の閉鎖等,0,2025-12-15,2025-12-11,大自然教会,,その他の設立登記法人,熊本県,荒尾市,四ツ山町１丁目１０番１５号,,43,204,8640052,,,2025-12-11,清算の結了等,,,2015-10-05,1,,,,,ダイシゼンキョウカイ,0
1819,7350002015814,登記記録の閉鎖等,0,2025-12-15,2025-12-09,有限会社有川総合事務所,,有限会社,宮崎県,都城市,都島町９０１番地２,,45,202,8850083,,,2025-12-09,清算の結了等,,,2015-10-05,1,,,,,アリカワソウゴウジムショ,0
1830,7380001012925,登記記録の閉鎖等,0,2025-12-15,2025-12-08,株式会社作山茂七商店,,株式会社,福島県,いわき市,江名字風越６９番地,,07,204,9700311,,,2025-12-08,清算の結了等,,,2015-10-05,1,,,,,サクヤマモシチショウテン,0
1834,7390002015488,登記記録の閉鎖等,0,2025-12-15,2025-12-10,有限会社安孫子石材店,,有限会社,山形県,寒河江市,大字寒河江字古河江４３番の２,,06,206,9910041,,,2025-12-10,清算の結了等,,,2015-10-05,1,,,,,アビコセキザイテン,0
1838,7450001009435,登記記録の閉鎖等,0,2025-12-15,2025-12-10,株式会社セントラル商事,,株式会社,北海道,紋別市,本町４丁目３５番地,,01,219,0940004,,,2025-12-10,清算の結了等,,,2015-10-05,1,,,,,セントラルショウジ,0
1852,7500002007556,登記記録の閉鎖等,0,2025-12-15,2025-12-10,有限会社写楽,,有限会社,愛媛県,松山市,溝辺町甲２９５番地５,,38,201,7910101,,,2025-12-10,清算の結了等,,,2015-10-05,1,,,,,シャラク,0
1869,8010401113978,登記記録の閉鎖等,0,2025-12-15,2025-11-25,株式会社ケン・ホテルマネジメント神戸,,株式会社,東京都,港区,西麻布１丁目２番７号,,13,103,1060031,,,2025-11-25,清算の結了等,,,2015-10-05,1,,,,,ケンホテルマネジメントコウベ,0
1873,8010401138744,登記記録の閉鎖等,0,2025-12-15,2025-11-25,グアム・エアー東京株式会社,,株式会社,東京都,港区,西麻布１丁目２番７号,,13,103,1060031,,,2025-11-25,清算の結了等,,,2018-06-01,1,,,,,グアムエアートウキョウ,0
1875,8010401164740,登記記録の閉鎖等,0,2025-12-15,2025-12-01,株式会社ＴＴＫ２ホールディングス,,株式会社,東京都,千代田区,紀尾井町４番１号ニューオータニガーデンコート９階,,13,101,1020094,,,2025-12-01,合併による解散等,2010001254716,令和７年１１月３０日東京都千代田区紀尾井町４番１号ニューオータニガーデンコート９階株式会社ＴＴＫホールディングス（2010001254716）に合併し解散,2022-01-06,1,,,,,ティーティーケーツーホールディングス,0
1927,8020002037832,登記記録の閉鎖等,0,2025-12-15,2025-12-10,有限会社久保田商店,,有限会社,神奈川県,横浜市鶴見区,市場大和町６番３号,,14,101,2300025,,,2025-12-10,清算の結了等,,,2015-10-05,1,,,,,クボタショウテン,0
1928,8020002060272,登記記録の閉鎖等,0,2025-12-15,2025-12-10,有限会社石田エンジニアリング,,有限会社,神奈川県,横浜市鶴見区,生麦１丁目１０番１号,,14,101,2300052,,,2025-12-10,清算の結了等,,,2015-10-05,1,,,,,イシダエンジニアリング,0
1929,8020002084544,登記記録の閉鎖等,0,2025-12-15,2025-12-10,有限会社永田商店,,有限会社,神奈川県,川崎市中原区,小杉町２丁目２０５番地,,14,133,2110063,,,2025-12-10,清算の結了等,,,2015-10-05,1,,,,,ナガタショウテン,0
1932,8021001045669,登記記録の閉鎖等,0,2025-12-15,2025-11-27,株式会社じょいふるミュージック,,株式会社,神奈川県,厚木市,旭町１丁目８番６号,,14,212,2430014,,,2025-11-27,清算の結了等,,,2015-10-05,1,,,,,ジョイフルミュージック,0
1936,8021002029712,登記記録の閉鎖等,0,2025-12-15,2025-11-28,有限会社平栗,,有限会社,神奈川県,相模原市緑区,久保沢１丁目１番７号,,14,151,2520105,,,2025-11-28,清算の結了等,,,2015-10-05,1,,,,,ヒラクリ,0
1939,8030001121999,登記記録の閉鎖等,0,2025-12-15,2025-12-08,株式会社フロー,,株式会社,埼玉県,入間市,大字下藤沢１０４５番地４,,11,225,3580011,,,2025-12-08,清算の結了等,,,2017-08-31,1,,,,,フロー,0
1944,8030002068926,登記記録の閉鎖等,0,2025-12-15,2025-12-05,豊春解体有限会社,,有限会社,埼玉県,春日部市,増富７２９番地１,,11,214,3440041,,,2025-12-05,清算の結了等,,,2015-10-05,1,,,,,トヨハルカイタイ,0
1960,8080401013255,登記記録の閉鎖等,0,2025-12-15,2025-12-03,株式会社Ｂｒａｎｄｉｎｇｆｏｒ,,株式会社,静岡県,浜松市中央区,砂山町３２８番地の８,,22,138,4300926,,,2025-12-03,清算の結了等,,,2015-10-05,1,,,,,ブランディングフォー,0
1961,8080402002645,登記記録の閉鎖等,0,2025-12-15,2025-12-02,有限会社倉田誠建築設計室,,有限会社,静岡県,浜松市中央区,伊左地町２１６０番地,,22,138,4311111,,,2025-12-02,清算の結了等,,,2015-10-05,1,,,,,クラタマコトケンチクセッケイシツ,0
1965,8100001027231,登記記録の閉鎖等,0,2025-12-15,2025-12-09,株式会社ガトゥ・デ・クロシェット,,株式会社,群馬県,吾妻郡草津町,大字草津字泉水５０５番地,,10,426,3771711,,,2025-12-09,清算の結了等,,,2015-10-05,1,,,,,ガトゥデクロシェット,0
1967,8100002038228,登記記録の閉鎖等,0,2025-12-15,2025-12-10,有限会社須甲建築設計積算事務所,,有限会社,長野県,下伊那郡松川町,元大島３２３６番地５,,20,402,3993303,,,2025-12-10,清算の結了等,,,2015-10-05,1,,,,,スコウケンチクセッケイセキサンジムショ,0
1981,8120002037558,登記記録の閉鎖等,0,2025-12-15,2025-12-09,有限会社中西会計データサービス,,有限会社,大阪府,大阪市中央区,玉造２丁目３番２７号,,27,128,5400004,,,2025-12-09,清算の結了等,,,2015-10-05,1,,,,,,0
1987,8120103002741,登記記録の閉鎖等,0,2025-12-15,2025-12-10,合同会社ｆｏａｎｉｍ,,合同会社,沖縄県,那覇市,辻１丁目１６－９サングリーンビル１階,00119581,47,201,9000037,,,2025-12-10,清算の結了等,,,2017-05-17,1,,,,,フォアニーム,0
1992,8120902000136,登記記録の閉鎖等,0,2025-12-15,2025-12-08,有限会社アン・シュリット,,有限会社,大阪府,茨木市,沢良宜浜１丁目９番３号,,27,211,5670864,,,2025-12-08,清算の結了等,,,2015-10-05,1,,,,,アンシュリット,0
1995,8130005016888,登記記録の閉鎖等,0,2025-12-15,2025-12-08,特定非営利活動法人と・な・りの愛,,その他の設立登記法人,京都府,舞鶴市,字浜１１５１－２アリュールビル３０２,,26,202,6250036,,,2025-12-08,清算の結了等,,,2023-09-29,1,,,,,トナリノアイ,0
2013,8180301034944,登記記録の閉鎖等,0,2025-12-15,2025-12-12,株式会社まいすたープレイス,,株式会社,愛知県,刈谷市,泉田町山畑３番地１,,23,210,4480004,,,2025-12-12,清算の結了等,,,2021-05-19,1,,,,,マイスタープレイス,0
2015,8200001026025,登記記録の閉鎖等,0,2025-12-15,2025-12-09,株式会社マルヒ,,株式会社,岐阜県,下呂市,金山町金山２６９０番地の１,,21,220,5091622,,,2025-12-09,清算の結了等,,,2015-10-05,1,,,,,マルヒ,0
2024,8260001000239,登記記録の閉鎖等,0,2025-12-15,2025-12-11,株式会社あすか産業,,株式会社,岡山県,岡山市中区,山崎３６６番地の１０,,33,102,7038267,,,2025-12-11,清算の結了等,,,2015-10-05,1,,,,,アスカサンギョウ,0
2038,8290802002653,登記記録の閉鎖等,0,2025-12-15,2025-12-11,山陽機工有限会社,,有限会社,福岡県,北九州市小倉北区,砂津３丁目５番３２号,,40,106,8020014,,,2025-12-11,清算の結了等,,,2015-10-05,1,,,,,サンヨウキコウ,0
2041,8310002007112,登記記録の閉鎖等,0,2025-12-15,2025-12-12,有限会社新栄自動車,,有限会社,長崎県,長崎市,女の都４丁目３番７号,,42,201,8528144,,,2025-12-12,清算の結了等,,,2015-10-05,1,,,,,シンエイジドウシャ,0
2061,8470001011330,登記記録の閉鎖等,0,2025-12-15,2025-12-09,株式会社キーストン,,株式会社,香川県,東かがわ市,松原６１９番地２,,37,207,7692702,,,2025-12-09,清算の結了等,,,2015-10-05,1,,,,,キーストン,0
2074,9010005026510,登記記録の閉鎖等,0,2025-12-15,2025-11-19,一般社団法人ウェルネスウェンズデー協会,,その他の設立登記法人,東京都,新宿区,西新宿３丁目３番１３号西新宿水間ビル６階,,13,104,1600023,,,2025-11-19,清算の結了等,,,2017-03-06,1,,,,,ウェルネスウェンズデーキョウカイ,0
2075,9010005032822,登記記録の閉鎖等,0,2025-12-15,2025-12-05,一般社団法人たくす,,その他の設立登記法人,東京都,西東京市,富士町６丁目５番２６号カインドネス西武柳沢ＩＩ１０４号,00134141,13,229,2020014,,,2025-12-05,清算の結了等,,,2021-01-22,1,,,,,タクス,0
2080,9010401182576,登記記録の閉鎖等,0,2025-12-15,2025-11-25,株式会社Ｐ・Ｆ・Ｊ,,株式会社,東京都,港区,虎ノ門１丁目１７番１号虎ノ門ヒルズビジネスタワー,,13,103,1050001,,,2025-11-25,清算の結了等,,,2024-05-23,1,,,,,ピーエフジェー,0
2092,9010702011260,登記記録の閉鎖等,0,2025-12-15,2025-12-09,有限会社エフアンドダブリュウ,,有限会社,東京都,品川区,西五反田６丁目２１番１０号サンライト宮田１０２,,13,109,1410031,,,2025-12-09,清算の結了等,,,2015-10-05,1,,,,,エフアンドダブリュウ,0
2094,9010801023909,登記記録の閉鎖等,0,2025-12-15,2025-12-05,Ｅ－Ｂｉｏ株式会社,,株式会社,群馬県,太田市,由良町１１２番１号,,10,205,3730036,,,2025-12-05,清算の結了等,,,2015-10-05,1,,,,,イーバイオ,0
2098,9010801026820,登記記録の閉鎖等,0,2025-12-15,2025-12-02,株式会社Ｅｓｔａｂｌｉｓｈ　ｗｉｌｌ,,株式会社,東京都,大田区,田園調布３丁目２８番１０号,,13,111,1450071,,,2025-12-02,清算の結了等,,,2016-06-22,1,,,,,エスタブリッシュウィル,0
2100,9010802014725,登記記録の閉鎖等,0,2025-12-15,2025-12-03,有限会社八百正商店,,有限会社,東京都,大田区,蒲田３丁目１７番２７号,,13,111,1440052,,,2025-12-03,清算の結了等,,,2015-10-05,1,,,,,ヤオショウショウテン,0
2101,9010805001373,登記記録の閉鎖等,0,2025-12-15,2025-12-03,税理士法人高橋事務所,,その他の設立登記法人,東京都,大田区,久が原６丁目１７番７号,,13,111,1460085,,,2025-12-03,清算の結了等,,,2015-10-05,1,,,,,タカハシジムショ,0
2125,9012401022712,登記記録の閉鎖等,0,2025-12-15,2025-12-08,株式会社ドリームライフ,,株式会社,東京都,武蔵村山市,三ツ木１丁目３４番地の８陽だまりの詩こぶし２０１号,,13,223,2080032,,,2025-12-08,清算の結了等,,,2015-10-05,1,,,,,ドリームライフ,0
2126,9012401033593,登記記録の閉鎖等,0,2025-12-15,2025-12-12,アクシュ株式会社,,株式会社,東京都,武蔵野市,吉祥寺南町２丁目８番６号,,13,203,1800003,,,2025-12-12,清算の結了等,,,2018-01-24,1,,,,,アクシュ,0
2131,9012801010309,登記記録の閉鎖等,0,2025-12-15,2025-12-10,株式会社Ｎｏ．１立川,,株式会社,東京都,立川市,錦町２丁目６番２４号,,13,202,1900022,,,2025-12-10,合併による解散等,8010001136248,令和７年１１月１２日東京都千代田区内幸町一丁目５番２号株式会社Ｎｏ．１（8010001136248）に合併し解散,2015-10-05,1,,,,,ナンバーワンタチカワ,0
2132,9013401006416,登記記録の閉鎖等,0,2025-12-15,2025-12-12,株式会社アウラ,,株式会社,東京都,多摩市,中沢２丁目２４番地の８ストーク・ド・サンヒル３０１,,13,224,2060036,,,2025-12-12,清算の結了等,,,2015-10-05,1,,,,,アウラ,0
2136,9020001157382,登記記録の閉鎖等,0,2025-12-15,2025-12-10,ｍｉｌｅ株式会社,,株式会社,神奈川県,横浜市神奈川区,金港町５番地１４クアドリフォリオ８階,,14,102,2210056,,,2025-12-10,清算の結了等,,,2024-05-31,1,,,,,マイル,0
2154,9030005018852,登記記録の閉鎖等,0,2025-12-15,2025-12-08,ＮＰＯ法人にこにこｍａｍａ’ｓ,,その他の設立登記法人,埼玉県,鴻巣市,ひばり野１丁目１番１５号,,11,217,3650031,,,2025-12-08,清算の結了等,,,2018-01-30,1,,,,,ニコニコママズ,0
2161,9050001030306,登記記録の閉鎖等,0,2025-12-15,2025-12-08,株式会社いのせ内装,,株式会社,茨城県,常総市,舘方８３番地１,,08,211,3002704,,,2025-12-08,清算の結了等,,,2015-10-05,1,,,,,イノセナイソウ,0
2170,9060001006461,登記記録の閉鎖等,0,2025-12-15,2025-12-11,株式会社みさき,,株式会社,栃木県,芳賀郡市貝町,大字市塙２００５番地３,,09,344,3213423,,,2025-12-11,清算の結了等,,,2015-10-05,1,,,,,ミサキ,0
2196,9120001156028,登記記録の閉鎖等,0,2025-12-15,2025-12-08,株式会社セラティ,,株式会社,大阪府,豊中市,新千里北町１丁目２１番９号,,27,203,5600081,,,2025-12-08,清算の結了等,,,2015-10-05,1,,,,,セラティ,0
2215,9120901039166,登記記録の閉鎖等,0,2025-12-15,2025-12-01,株式会社Ｌｅｔ　ｉｔ　Ｂｅ,,株式会社,大阪府,摂津市,三島３丁目１４番４５号,,27,224,5660022,,,2025-12-01,合併による解散等,9120903001280,令和７年１１月３０日大阪府摂津市東正雀１７番５０号株式会社ゆらら（9120903001280）に合併し解散,2017-11-08,1,,,,,レットイットビー,0
2222,9140001010562,登記記録の閉鎖等,0,2025-12-15,2025-12-10,株式会社福吉建設,,株式会社,兵庫県,神戸市中央区,坂口通７丁目１番１９－１号,,28,110,6510062,,,2025-12-10,清算の結了等,,,2015-10-05,1,,,,,フクヨシケンセツ,0
2242,9180001164272,登記記録の閉鎖等,0,2025-12-15,2025-12-09,株式会社ＮＥＸＳＴＲ,,株式会社,愛知県,清須市,鍋片３丁目７６番地,,23,233,4520907,,,2025-12-09,清算の結了等,,,2024-11-25,1,,,,,ネクスター,0
2254,9210001017617,登記記録の閉鎖等,0,2025-12-15,2025-12-10,株式会社幸電機,,株式会社,福井県,福井市,今市町第１５号３番地,,18,201,9188152,,,2025-12-10,清算の結了等,,,2019-07-03,1,,,,,ミユキデンキ,0
2261,9240001009685,登記記録の閉鎖等,0,2025-12-15,2025-12-09,広島螺旋株式会社,,株式会社,広島県,広島市安佐南区,祇園３丁目１３番１０号,,34,105,7310138,,,2025-12-09,清算の結了等,,,2015-10-05,1,,,,,ヒロシマラセン,0
2262,9240001031458,登記記録の閉鎖等,0,2025-12-15,2025-12-09,東和住設株式会社,,株式会社,広島県,福山市,熊野町甲２２２９番地,,34,207,7200411,,,2025-12-09,清算の結了等,,,2015-10-05,1,,,,,トウワジュウセツ,0
2275,9290002028110,登記記録の閉鎖等,0,2025-12-15,2025-12-09,有限会社ＹａｎｄＳ,,有限会社,宮崎県,都城市,都北町５９４２番地,,45,202,8850004,,,2025-12-09,清算の結了等,,,2015-10-05,1,,,,,ワイアンドエス,0
2278,9290802002925,登記記録の閉鎖等,0,2025-12-15,2025-12-12,有限会社三和建具製作所,,有限会社,福岡県,北九州市小倉北区,霧ケ丘３丁目９番７号,,40,106,8020052,,,2025-12-12,清算の結了等,,,2015-10-05,1,,,,,サンワタテグセイサクショ,0
2286,9330005008815,登記記録の閉鎖等,0,2025-12-15,2025-12-02,ＮＰＯ法人正氣術普及会,,その他の設立登記法人,熊本県,熊本市中央区,本荘６丁目１－３大栄ビル１階,,43,101,8600811,,,2025-12-02,清算の結了等,,,2015-10-05,1,,,,,ショウキジュツフキュウカイ,0
2293,9360002015506,登記記録の閉鎖等,0,2025-12-15,2025-12-09,有限会社キラクおおしろ,,有限会社,沖縄県,名護市,字宇茂佐１６５４番地ル・ソレイユ４０２号室,,47,209,9050006,,,2025-12-09,清算の結了等,,,2015-10-05,1,,,,,キラクオオシロ,0
2307,9430002008650,登記記録の閉鎖等,0,2025-12-15,2025-12-08,有限会社佐藤砥研工業,,有限会社,北海道,札幌市手稲区,前田五条６丁目５番１３号,,01,109,0060815,,,2025-12-08,清算の結了等,,,2015-10-05,1,,,,,サトウトケンコウギョウ,0
2309,9500002014419,登記記録の閉鎖等,0,2025-12-15,2025-12-11,ひうち設備有限会社,,有限会社,愛媛県,西条市,樋之口１４番地の３,00008033,38,206,7930043,,,2025-12-11,清算の結了等,,,2015-10-05,1,,,,,ヒウチセツビ,0
