sequenceNumber,corporateNumber,process,correct,updateDate,changeDate,name,nameImageId,kind,prefectureName,cityName,streetNumber,addressImageId,prefectureCode,cityCode,postCode,addressOutside,addressOutsideImageId,closeDate,closeCause,successorCorporateNumber,changeCause,assignmentDate,latest,enName,enPrefectureName,enCityName,enAddressOutside,furigana,hihyoji
5,1010001259996,新規,0,2025-11-12,2025-11-12,ＴＡＩＬＯＮＧ株式会社,,株式会社,東京都,中央区,銀座１丁目１２－４Ｎ＆ＥＢＬＤ．７階,,13,102,1040061,,,,,,,2025-11-12,1,,,,,タイロン,0
6,1010001260120,新規,0,2025-11-12,2025-11-12,翔裕株式会社,,株式会社,東京都,中央区,晴海５丁目４－１Ａ棟９１１室,,13,102,1040053,,,,,,,2025-11-12,1,,,,,ショウユウ,0
7,1010001260236,新規,0,2025-11-12,2025-11-12,株式会社ＡＬＭ,,株式会社,東京都,千代田区,神田須田町２丁目１７番地１８クリスタルビル９階,,13,101,1010041,,,,,,,2025-11-12,1,,,,,アルム,0
8,1010001260244,新規,0,2025-11-12,2025-11-12,株式会社ブラッシュアップ,,株式会社,東京都,文京区,本郷２丁目３０番３号,,13,105,1130033,,,,,,,2025-11-12,1,,,,,ブラッシュアップ,0
9,1010001260252,新規,0,2025-11-12,2025-11-12,サンウェイトラスト株式会社,,株式会社,東京都,千代田区,神田岩本町１番地７ＢｉｚＦｅｅｌＡＫＩＨＡＢＡＲＡ９階,,13,101,1010033,,,,,,,2025-11-12,1,,,,,サンウェイトラスト,0
10,1010001260269,新規,0,2025-11-12,2025-11-12,株式会社マクモフ,,株式会社,東京都,千代田区,神田須田町１丁目７番地８,,13,101,1010041,,,,,,,2025-11-12,1,,,,,マクモフ,0
12,1010003049396,新規,0,2025-11-12,2025-11-12,合同会社青海キャンバス,,合同会社,東京都,千代田区,平河町１丁目６番１５号シルスフィア会計事務所内,,13,101,1020093,,,,,,,2025-11-12,1,,,,,アオミキャンバス,0
13,1010005040915,新規,0,2025-11-12,2025-11-12,一般社団法人マルチアングル工法協会,,その他の設立登記法人,東京都,中央区,八丁堀４丁目８番２号いちご桜橋ビル６階,,13,102,1040032,,,,,,,2025-11-12,1,,,,,マルチアングルコウホウキョウカイ,0
14,1010005040931,新規,0,2025-11-12,2025-11-12,Ｊａｐａｎ　Ｌｏｇｉｓｔｉｃｓ　ＤＨ５一般社団法人,,その他の設立登記法人,東京都,千代田区,丸の内１丁目４番１号東京共同会計事務所内,,13,101,1000005,,,,,,,2025-11-12,1,,,,,ジャパンロジスティックスディーエイチファイブ,0
19,1010105002352,新規,0,2025-11-12,2025-11-12,特定非営利活動法人Ｌａｕｇｈ　Ｔａｌｅ,,その他の設立登記法人,東京都,八王子市,丸山町１８番地１７,,13,201,1920021,,,,,,,2025-11-12,1,,,,,ラフテイル,0
32,1010501055012,新規,0,2025-11-12,2025-11-12,ＭＫパートナーズ株式会社,,株式会社,東京都,台東区,東上野４丁目２０番１号,,13,106,1100015,,,,,,,2025-11-12,1,,,,,エムケーパトナーズ,0
37,1010701048559,新規,0,2025-11-12,2025-11-12,株式会社ＰｉｎＰ　Ｓｔｕｄｉｏ　ＪＡＰＡＮ,,株式会社,東京都,品川区,西五反田８丁目１番１３号ＧＢＳ－Ａ－５号,,13,109,1410031,,,,,,,2025-11-12,1,,,,,ピーインピースタジオジャパン,0
38,1010701048609,新規,0,2025-11-12,2025-11-12,Ｂｏｕｎｄａｒｙ　Ｃｏｍｍｕｎｉｃａｔｉｏｎｓ株式会社,,株式会社,東京都,品川区,上大崎１丁目３番１１号,,13,109,1410021,,,,,,,2025-11-12,1,,,,,バウンダリーコミュニケーションズ,0
60,1011001173460,新規,0,2025-11-12,2025-11-12,株式会社もみじ,,株式会社,東京都,渋谷区,道玄坂１丁目１０番８号渋谷道玄坂東急ビル２Ｆ－Ｃ,,13,113,1500043,,,,,,,2025-11-12,1,,,,,モミジ,0
61,1011001173485,新規,0,2025-11-12,2025-11-12,株式会社Ｌｉｌｙｕｓ,,株式会社,東京都,渋谷区,恵比寿西１丁目１５番２号アパルトマンイトウ３０８,,13,113,1500021,,,,,,,2025-11-12,1,,,,,リリアス,0
62,1011001173510,新規,0,2025-11-12,2025-11-12,株式会社ｃｕｒｖｅ,,株式会社,東京都,渋谷区,神泉町２０番２１号,,13,113,1500045,,,,,,,2025-11-12,1,,,,,カーブ,0
64,1011003022888,新規,0,2025-11-12,2025-11-12,合同会社ＣＢＭ,,合同会社,東京都,目黒区,駒場４丁目１番２号ベルファース駒場５０１,,13,110,1530041,,,,,,,2025-11-12,1,,,,,シービーエム,0
66,1011101113845,新規,0,2025-11-12,2025-11-12,株式会社ゼゼヒヒ,,株式会社,東京都,新宿区,西新宿３丁目３番１３号西新宿水間ビル６階,,13,104,1600023,,,,,,,2025-11-12,1,,,,,ゼゼヒヒ,0
68,1011103016699,新規,0,2025-11-12,2025-11-12,レオ・ノマドライフ研究所合同会社,,合同会社,東京都,新宿区,西早稲田１丁目９番６－８０３号,,13,104,1690051,,,,,,,2025-11-12,1,,,,,レオノマドライフケンキュウジョ,0
73,1011403004932,新規,0,2025-11-12,2025-11-12,合同会社ななわ,,合同会社,東京都,板橋区,板橋４丁目７番１２号,,13,119,1730004,,,,,,,2025-11-12,1,,,,,ナナワ,0
74,1011501032802,新規,0,2025-11-12,2025-11-12,株式会社ＧＲＯＷＴＨ,,株式会社,東京都,荒川区,東日暮里３丁目７番７号ハイム吉川３０５,00141501,13,118,1160014,,,,,,,2025-11-12,1,,,,,グロース,0
97,1020003029736,新規,0,2025-11-12,2025-11-12,合同会社ｕ．ｇ．ｐａｒｔｎｅｒｓ,,合同会社,神奈川県,横浜市港北区,菊名２丁目１４－４ガーデンプラム２０３,,14,109,2220011,,,,,,,2025-11-12,1,,,,,ユージーパートナーズ,0
127,1040001141367,新規,0,2025-11-12,2025-11-12,ＬＭ　ＳＯＬＵＴＩＯＮＳ株式会社,,株式会社,千葉県,富里市,日吉台２丁目２０－１５第１長谷工ビル１階,,12,233,2860201,,,,,,,2025-11-12,1,,,,,エルエムソリューションズ,0
130,1040003028926,新規,0,2025-11-12,2025-11-12,エムアールサービス合同会社,,合同会社,千葉県,市原市,君塚４丁目２－５－１１０,,12,219,2900051,,,,,,,2025-11-12,1,,,,,エムアールサービス,0
140,1070001043536,新規,0,2025-11-12,2025-11-12,株式会社ＭＹＯＮＥ,,株式会社,群馬県,前橋市,千代田町２丁目７番２０号,,10,201,3710022,,,,,,,2025-11-12,1,,,,,エムワイワン,0
165,1110001039694,新規,0,2025-11-12,2025-11-12,Ｗｉｌｌ　Ｓｍｉｌｅ株式会社,,株式会社,新潟県,新潟市中央区,東湊町通１ノ町２５８９番地５,,15,103,9518028,,,,,,,2025-11-12,1,,,,,ウィルスマイル,0
169,1110003005967,新規,0,2025-11-12,2025-11-12,合同会社Ｒｉｎｅｘ,,合同会社,新潟県,新潟市中央区,上所中１丁目１３番２０号,,15,103,9500993,,,,,,,2025-11-12,1,,,,,リネクス,0
181,1120001281733,新規,0,2025-11-12,2025-11-12,株式会社エンタープライズ,,株式会社,大阪府,大阪市淀川区,三国本町１丁目１４番３２－１２０３号,,27,123,5320005,,,,,,,2025-11-12,1,,,,,エンタープライズ,0
182,1120001281898,新規,0,2025-11-12,2025-11-12,株式会社２１１０,,株式会社,大阪府,大阪市北区,梅田１丁目１－３大阪駅前第３ビル２９階１－１－１号室,,27,127,5300001,,,,,,,2025-11-12,1,,,,,ニイチマル,0
186,1120003031228,新規,0,2025-11-12,2025-11-12,合同会社ＰＬＡＮＮＩＮＧ　ＧＯ,,合同会社,大阪府,大阪市東淀川区,下新庄３丁目９番２５－７０６号,,27,114,5330021,,,,,,,2025-11-12,1,,,,,プランニングゴウ,0
188,1120101072735,新規,0,2025-11-12,2025-11-12,株式会社ターキーズ,,株式会社,大阪府,堺市中区,福田６２６番地６,,27,142,5998241,,,,,,,2025-11-12,1,,,,,ターキーズ,0
189,1120101072776,新規,0,2025-11-12,2025-11-12,ｉｔｒａｄｅ株式会社,,株式会社,大阪府,堺市西区,鳳北町７丁９１－３０３,,27,144,5938328,,,,,,,2025-11-12,1,,,,,アイトレード,0
194,1120901051764,新規,0,2025-11-12,2025-11-12,ロバストマネジメント株式会社,,株式会社,大阪府,豊中市,本町２丁目４番２８号,,27,203,5600021,,,,,,,2025-11-12,1,,,,,ロバストマネジメント,0
195,1120903005941,新規,0,2025-11-12,2025-11-12,オモテック合同会社,,合同会社,大阪府,吹田市,寿町２丁目２３番１２号,,27,205,5640036,,,,,,,2025-11-12,1,,,,,オモテック,0
198,1122001039913,新規,0,2025-11-12,2025-11-12,株式会社コスモステージ,,株式会社,大阪府,八尾市,沼４丁目６４番１号,,27,212,5810036,,,,,,,2025-11-12,1,,,,,コスモステージ,0
205,1130001080993,新規,0,2025-11-12,2025-11-12,飛翔不動産株式会社,,株式会社,京都府,京都市伏見区,羽束師菱川町５４４－５,,26,109,6128487,,,,,,,2025-11-12,1,,,,,ヒショウフドウサン,0
206,1130001081001,新規,0,2025-11-12,2025-11-12,株式会社ＩＮＮ,,株式会社,京都府,亀岡市,追分町薮ノ下２９番地１６,,26,206,6210804,,,,,,,2025-11-12,1,,,,,アイエヌエヌ,0
218,1140001140706,新規,0,2025-11-12,2025-11-12,株式会社翔栄,,株式会社,兵庫県,丹波市,氷上町常楽１０２３番地５,,28,223,6693602,,,,,,,2025-11-12,1,,,,,ショウエイ,0
219,1140001140714,新規,0,2025-11-12,2025-11-12,株式会社クリア,,株式会社,兵庫県,姫路市,大津区天神町２丁目６２番地２堤ハイツ１０２,,28,201,6711131,,,,,,,2025-11-12,1,,,,,クリア,0
220,1140001140771,新規,0,2025-11-12,2025-11-12,ｉＴｅｃｈＪａｐａｎ株式会社,,株式会社,兵庫県,神戸市中央区,港島中町３丁目２番地の１ポートアイランド団地６６棟１０２号,,28,110,6500046,,,,,,,2025-11-12,1,,,,,アイテックジャパン,0
225,1150001028545,新規,0,2025-11-12,2025-11-12,株式会社優駿の会,,株式会社,奈良県,北葛城郡広陵町,馬見北７丁目１番１３－１６号,,29,426,6350831,,,,,,,2025-11-12,1,,,,,ユウシュンノカイ,0
226,1160001027216,新規,0,2025-11-12,2025-11-12,株式会社ブローカーリンク,,株式会社,滋賀県,栗東市,小平井１丁目１４－８－５,,25,208,5203034,,,,,,,2025-11-12,1,,,,,ブローカーリンク,0
239,1180003029332,新規,0,2025-11-12,2025-11-12,そう合同会社,,合同会社,愛知県,名古屋市熱田区,古新町２丁目５２番地カルティア熱田六番町７０４号室,,23,109,4560064,,,,,,,2025-11-12,1,,,,,ソウ,0
246,1190001032675,新規,0,2025-11-12,2025-11-12,株式会社アンドＣ,,株式会社,三重県,桑名市,大字西別所字新山畑２００３番地１,,24,205,5110851,,,,,,,2025-11-12,1,,,,,アンドシー,0
255,1240001065760,新規,0,2025-11-12,2025-11-12,株式会社都市エコシステム,,株式会社,広島県,廿日市市,上平良１１３３番地６,,34,213,7380026,,,,,,,2025-11-12,1,,,,,トシエコシステム,0
258,1260001040720,新規,0,2025-11-12,2025-11-12,株式会社ライフプラス,,株式会社,岡山県,備前市,西片上５１番地１３,,33,211,7050021,,,,,,,2025-11-12,1,,,,,ライフプラス,0
262,1280005007672,新規,0,2025-11-12,2025-11-12,一般財団法人美術館と花の教会,,その他の設立登記法人,島根県,出雲市,塩冶町１５８８番地３,,32,203,6930021,,,,,,,2025-11-12,1,,,,,ビジュツカントハナノキョウカイ,0
264,1290001112095,新規,0,2025-11-12,2025-11-12,株式会社ｗｉｎｋ,,株式会社,福岡県,福岡市博多区,諸岡３丁目９番３１号,,40,132,8120894,,,,,,,2025-11-12,1,,,,,ウィンク,0
265,1290001112153,新規,0,2025-11-12,2025-11-12,株式会社フェイバリットチューン,,株式会社,福岡県,福岡市中央区,舞鶴１丁目３－１４小榎ビル５－Ａ,,40,133,8100073,,,,,,,2025-11-12,1,,,,,フェイバリットチューン,0
279,1360001036015,新規,0,2025-11-12,2025-11-12,株式会社ＴＨＥ・ＳＨＵＲＩ,,株式会社,沖縄県,那覇市,首里池端町１番地,,47,201,9030824,,,,,,,2025-11-12,1,,,,,ザシュリ,0
280,1360001036023,新規,0,2025-11-12,2025-11-12,株式会社筋肉晩餐会,,株式会社,沖縄県,那覇市,久茂地３丁目２６番３２号ＹＳＣビル２０２,,47,201,9000015,,,,,,,2025-11-12,1,,,,,キンニクバンサンカイ,0
285,1370001053232,新規,0,2025-11-12,2025-11-12,株式会社カラナビ,,株式会社,宮城県,仙台市青葉区,中央２丁目１１－１９仙南ビル４階－Ａ,,04,101,9800021,,,,,,,2025-11-12,1,,,,,カタナビ,0
297,1410001014320,新規,0,2025-11-12,2025-11-12,東端ホールディングス株式会社,,株式会社,秋田県,大仙市,高梨字田茂木１番地,,05,212,0140805,,,,,,,2025-11-12,1,,,,,トウタンホールディングス,0
298,1410003004179,新規,0,2025-11-12,2025-11-12,合同会社キャリアグロースパートナーズ,,合同会社,秋田県,秋田市,泉菅野１丁目１６番１４号,,05,201,0100817,,,,,,,2025-11-12,1,,,,,キャリアグロースパートナーズ,0
300,1420001019335,新規,0,2025-11-12,2025-11-12,株式会社インテリアりん,,株式会社,青森県,青森市,金沢４丁目１０番７号,,02,201,0300853,,,,,,,2025-11-12,1,,,,,インテリアリン,0
305,1430001095648,新規,0,2025-11-12,2025-11-12,株式会社Ｔ　Ｇｒｏｕｐ,,株式会社,北海道,小樽市,銭函３丁目３３１番１,,01,203,0470261,,,,,,,2025-11-12,1,,,,,ティーグループ,0
310,1460303000889,新規,0,2025-11-12,2025-11-12,合同会社ＯＯＩＮＡＲＵ,,合同会社,北海道,斜里郡斜里町,ウトロ中島１４４番地３,,01,545,0994353,,,,,,,2025-11-12,1,,,,,オオイナル,0
312,1480001013002,新規,0,2025-11-12,2025-11-12,ＧＲＡＣＥ　ＧＡＲＤＥＮ株式会社,,株式会社,徳島県,名西郡石井町,藍畑字西覚円１２１５番地１０,,36,341,7793211,,,,,,,2025-11-12,1,,,,,グレイスガーデン,0
315,1500001026620,新規,0,2025-11-12,2025-11-12,株式会社藤総建,,株式会社,愛媛県,松山市,権現町甲８３１番地１,,38,201,7992653,,,,,,,2025-11-12,1,,,,,フジソウケン,0
316,1700150132926,新規,0,2025-11-12,2025-11-12,上海ショウ高信息科技有限公司,,外国会社等,神奈川県,横浜市中区,吉田町４８番地タクエー吉田町ビル８階Ｃ,,14,104,2310041,中華人民共和国上海市閔行区龍呉路３３８９号６２０室,,,,,,2025-11-12,1,,,,,シヤンハイシヨウコウシンソクカギユウゲンコウシ,0
320,2010001260086,新規,0,2025-11-12,2025-11-12,株式会社マタキテネ,,株式会社,東京都,千代田区,神田猿楽町２丁目８番１１号ＶＯＲＴ水道橋ＩＩＩ,00141502,13,101,1010064,,,,,,,2025-11-12,1,,,,,マタキテネ,0
321,2010001260227,新規,0,2025-11-12,2025-11-12,株式会社ＴＯＰ　ＢＩＺ,,株式会社,東京都,中央区,京橋１丁目１４番６号京橋宏陽ビル４Ｆ,,13,102,1040031,,,,,,,2025-11-12,1,,,,,トップビズ,0
322,2010003049379,新規,0,2025-11-12,2025-11-12,Ｆｉｅｌｄｂｅｓｉｄｅ合同会社,,合同会社,東京都,中央区,晴海５丁目３番２Ｂ７１４号,,13,102,1040053,,,,,,,2025-11-12,1,,,,,フィールドビサイド,0
326,2010401194297,新規,0,2025-11-12,2025-11-12,株式会社ＬｏｎｇＷｅｌｌ,,株式会社,東京都,港区,芝浦４丁目１２－３６,,13,103,1080023,,,,,,,2025-11-12,1,,,,,ロングウェル,0
327,2010401194339,新規,0,2025-11-12,2025-11-12,Ｆｏｒｇｒａｎｄテクジャパン株式会社,,株式会社,東京都,港区,赤坂２丁目８番１４－５０４号,,13,103,1070052,,,,,,,2025-11-12,1,,,,,フォーグランドテクジャパン,0
328,2010401194479,新規,0,2025-11-12,2025-11-12,株式会社ビイ・ロード,,株式会社,東京都,港区,西新橋１丁目５番５号,,13,103,1050003,,,,,,,2025-11-12,1,,,,,ビイロード,0
330,2010501055028,新規,0,2025-11-12,2025-11-12,株式会社ＯＨＡＳＩＳ,,株式会社,東京都,台東区,清川１丁目１２番５号,,13,106,1110022,,,,,,,2025-11-12,1,,,,,オアシス,0
341,2010901058423,新規,0,2025-11-12,2025-11-12,株式会社アドリブ,,株式会社,東京都,世田谷区,上馬５丁目５番１０号,,13,112,1540011,,,,,,,2025-11-12,1,,,,,アドリブ,0
347,2011001173451,新規,0,2025-11-12,2025-11-12,株式会社Ｒｅｓｏｌｖｅ＆Ｇｒｏｗｔｈ,,株式会社,東京都,渋谷区,神宮前２丁目３１番１１号,,13,113,1500001,,,,,,,2025-11-12,1,,,,,リゾルブアンドグロウス,0
348,2011001173468,新規,0,2025-11-12,2025-11-12,株式会社ＳＪＰＲＯＳＰＥＲＩＴＹ,,株式会社,東京都,渋谷区,桜丘町８番１１号,,13,113,1500031,,,,,,,2025-11-12,1,,,,,エスジェイプロスペリティ,0
349,2011001173501,新規,0,2025-11-12,2025-11-12,株式会社ＮＯＸ,,株式会社,東京都,渋谷区,広尾１丁目１１番５号,,13,113,1500012,,,,,,,2025-11-12,1,,,,,ノックス,0
352,2011005011244,新規,0,2025-11-12,2025-11-12,一般社団法人頸椎科学研究所,,その他の設立登記法人,東京都,渋谷区,千駄ヶ谷３丁目５番８号,,13,113,1510051,,,,,,,2025-11-12,1,,,,,ケイツイカガクケンキュウジョ,0
355,2011101113943,新規,0,2025-11-12,2025-11-12,株式会社マネジメント,,株式会社,東京都,新宿区,北新宿４丁目９番１８号,,13,104,1690074,,,,,,,2025-11-12,1,,,,,マネジメント,0
362,2011401027562,新規,0,2025-11-12,2025-11-12,株式会社ＲＤＤ,,株式会社,東京都,板橋区,小茂根１丁目１７番３号４０７号室,,13,119,1730037,,,,,,,2025-11-12,1,,,,,アールディディ,0
363,2011501032801,新規,0,2025-11-12,2025-11-12,株式会社日本運昇,,株式会社,東京都,荒川区,荒川２丁目１番５号,,13,118,1160002,,,,,,,2025-11-12,1,,,,,ニホンウンショウ,0
364,2011601029144,新規,0,2025-11-12,2025-11-12,ミツケル株式会社,,株式会社,東京都,練馬区,大泉町６丁目２９番２０号学園スカイマンション２０５号室,,13,120,1780062,,,,,,,2025-11-12,1,,,,,ミツケル,0
369,2011801047004,新規,0,2025-11-12,2025-11-12,福吉株式会社,,株式会社,東京都,葛飾区,新宿６丁目２番１－１６１２号シティタワー金町タワー棟,,13,122,1250051,,,,,,,2025-11-12,1,,,,,フクヨシ,0
370,2011801047029,新規,0,2025-11-12,2025-11-12,株式会社三美,,株式会社,東京都,足立区,竹の塚６丁目２４番１号リバティハイツ２０１,,13,121,1210813,,,,,,,2025-11-12,1,,,,,サンビ,0
382,2020001165730,新規,0,2025-11-12,2025-11-12,株式会社渡邉塗装,,株式会社,神奈川県,川崎市宮前区,野川台１丁目１５番１１号,,14,136,2160043,,,,,,,2025-11-12,1,,,,,ワタナベトソウ,0
383,2020001165788,新規,0,2025-11-12,2025-11-12,株式会社Ｌｕｐｕｒｅ,,株式会社,神奈川県,横浜市中区,山下町３０番地１パークコート山下公園８０６号室,,14,104,2310023,,,,,,,2025-11-12,1,,,,,ルピュア,0
386,2020003029792,新規,0,2025-11-12,2025-11-12,合同会社吉四六,,合同会社,神奈川県,横浜市中区,千代崎町２丁目７１番地７ヴェレーナグラン山手５１２号,,14,104,2310864,,,,,,,2025-11-12,1,,,,,キッチョム,0
391,2021003016780,新規,0,2025-11-12,2025-11-12,合同会社ＴＥＮＧＥＲ,,合同会社,神奈川県,相模原市南区,相武台１丁目１６－９相武台プリンスマンション３０５,,14,153,2520324,,,,,,,2025-11-12,1,,,,,テンガー,0
402,2030001169573,新規,0,2025-11-12,2025-11-12,輝マネジメント株式会社,,株式会社,埼玉県,さいたま市緑区,大字三室７２２２番地３,,11,109,3360911,,,,,,,2025-11-12,1,,,,,カガヤキマネジメント,0
403,2030001169607,新規,0,2025-11-12,2025-11-12,株式会社トコット,,株式会社,埼玉県,所沢市,御幸町６番１号サンライズ所沢２０６,,11,208,3591115,,,,,,,2025-11-12,1,,,,,トコット,0
404,2030001169664,新規,0,2025-11-12,2025-11-12,株式会社ＨＡＲＵＫＡ,,株式会社,埼玉県,志木市,上宗岡４丁目１番３７号,,11,228,3530001,,,,,,,2025-11-12,1,,,,,ハルカ,0
412,2030003028059,新規,0,2025-11-12,2025-11-12,合同会社タイムベール,,合同会社,埼玉県,越谷市,越ヶ谷２丁目７－２１スリーホーク内藤１０３,,11,222,3430813,,,,,,,2025-11-12,1,,,,,タイムベール,0
413,2030005022332,新規,0,2025-11-12,2025-11-12,一般社団法人ＨＯＳＡＮＮＡ,,その他の設立登記法人,埼玉県,鶴ヶ島市,大字上広谷６６６番地７,,11,241,3502203,,,,,,,2025-11-12,1,,,,,ホサンナ,0
419,2040001141291,新規,0,2025-11-12,2025-11-12,株式会社Ｋ＆Ｋ,,株式会社,千葉県,野田市,木間ケ瀬５０６６－１,,12,208,2700222,,,,,,,2025-11-12,1,,,,,ケーアンドケー,0
420,2040001141325,新規,0,2025-11-12,2025-11-12,ｌｉｂｅｒｔｙ　ｊａｐａｎ株式会社,,株式会社,千葉県,千葉市中央区,新田町１番１０号千葉テクノプラザ３階,,12,101,2600027,,,,,,,2025-11-12,1,,,,,リバティージャパン,0
421,2040001141366,新規,0,2025-11-12,2025-11-12,株式会社レイブル,,株式会社,千葉県,四街道市,栗山６６０番地１,,12,228,2840027,,,,,,,2025-11-12,1,,,,,レイブル,0
436,2080001027264,新規,0,2025-11-12,2025-11-12,株式会社Ｆｅｅｌｉｎ　ｇｏｏｄ,,株式会社,静岡県,静岡市駿河区,南町５番２９号,,22,102,4228067,,,,,,,2025-11-12,1,,,,,フィーリングッド,0
439,2080101025894,新規,0,2025-11-12,2025-11-12,株式会社Ｈｏｕｓｅ　ｏｆ　Ｇｒｅｅｎ　ｓｅｅｄｓ,,株式会社,静岡県,田方郡函南町,平井１７５３番地の８１７,,22,325,4190107,,,,,,,2025-11-12,1,,,,,ハウスオブグリーンシーズ,0
445,2080403005388,新規,0,2025-11-12,2025-11-12,合同会社ｔｒｙ　ｆｏｕｒ,,合同会社,静岡県,浜松市中央区,葵西３丁目８番２４号,,22,138,4338111,,,,,,,2025-11-12,1,,,,,トライフォー,0
469,2120001281765,新規,0,2025-11-12,2025-11-12,Ａｍｏｕｒ株式会社,,株式会社,大阪府,大阪市中央区,松屋町住吉５番２３－１００７号,,27,128,5400017,,,,,,,2025-11-12,1,,,,,アムール,0
470,2120001281872,新規,0,2025-11-12,2025-11-12,株式会社Ａｉｂａｎ,,株式会社,大阪府,大阪市西区,北堀江２丁目７番７号,,27,106,5500014,,,,,,,2025-11-12,1,,,,,アイバン,0
471,2120001281880,新規,0,2025-11-12,2025-11-12,株式会社ナニワ経営,,株式会社,大阪府,大阪市中央区,天満橋京町２番６号天満橋八千代ビル別館４階名和会計事務所内,,27,128,5400032,,,,,,,2025-11-12,1,,,,,ナニワケイエイ,0
472,2120001281906,新規,0,2025-11-12,2025-11-12,ミライルート株式会社,,株式会社,大阪府,大阪市淀川区,十三本町１丁目１８－７クリオプラザ十三パート２－２０４,,27,123,5320024,,,,,,,2025-11-12,1,,,,,ミライルート,0
473,2120001281914,新規,0,2025-11-12,2025-11-12,株式会社ＣＡＭＯＮ　ＰＬＵＳ,,株式会社,大阪府,大阪市西成区,鶴見橋３丁目６番２０号,,27,122,5570031,,,,,,,2025-11-12,1,,,,,カモンプラス,0
474,2120001281922,新規,0,2025-11-12,2025-11-12,株式会社みゅーずエデュケア,,株式会社,大阪府,大阪市阿倍野区,帝塚山１丁目１３番４号,00141480,27,119,5450037,,,,,,,2025-11-12,1,,,,,ミューズエデュケア,0
475,2120001281930,新規,0,2025-11-12,2025-11-12,株式会社Ｎｏｔｒａ,,株式会社,大阪府,枚方市,岡本町７番１号,,27,210,5730031,,,,,,,2025-11-12,1,,,,,ノトラ,0
476,2120003030749,新規,0,2025-11-12,2025-11-12,合同会社Ｆｕｔｕｒｅ　Ｇａｔｅ,,合同会社,大阪府,大阪市北区,野崎町７－８梅田パークビル３階,,27,127,5300055,,,,,,,2025-11-12,1,,,,,ヒューチャーゲート,0
477,2120003031177,新規,0,2025-11-12,2025-11-12,合同会社Ｐａｉｎｕ　Ｏｓａｋａ,,合同会社,大阪府,大阪市浪速区,日本橋西１丁目８番２７号レオンコンフォート難波サウスゲート１３０２号室,,27,111,5560004,,,,,,,2025-11-12,1,,,,,パイヌオオサカ,0
478,2120003031219,新規,0,2025-11-12,2025-11-12,合同会社ｉＭｏ,,合同会社,大阪府,大阪市北区,野崎町１‐３０‐１１１６,,27,127,5300055,,,,,,,2025-11-12,1,,,,,イモ,0
479,2120005025235,新規,0,2025-11-12,2025-11-12,一般社団法人リベ大アニマルレスキュー,,その他の設立登記法人,大阪府,大阪市北区,太融寺町３番３０－１１０５号,,27,127,5300051,,,,,,,2025-11-12,1,,,,,リベダイアニマルレスキュー,0
480,2120005025243,新規,0,2025-11-12,2025-11-12,学校法人美昇学園,,その他の設立登記法人,大阪府,大阪市中央区,谷町５丁目３番２０号,,27,128,5400012,,,,,,,2025-11-12,1,,,,,ビショウガクエン,0
489,2120901051788,新規,0,2025-11-12,2025-11-12,株式会社フォレストライフ,,株式会社,大阪府,箕面市,桜ケ丘５丁目６－３１,,27,220,5620046,,,,,,,2025-11-12,1,,,,,フォレストライフ,0
490,2122001039887,新規,0,2025-11-12,2025-11-12,株式会社Ｈａｃｈｉｄａｉ　Ｌａｂ．,,株式会社,大阪府,東大阪市,吉田下島１０番２号,,27,227,5780983,,,,,,,2025-11-12,1,,,,,ハチダイラボ,0
494,2130001080919,新規,0,2025-11-12,2025-11-12,三都建設株式会社,,株式会社,京都府,京都市左京区,松ケ崎小脇町１番地５,,26,103,6060957,,,,,,,2025-11-12,1,,,,,サントケンセツ,0
495,2130001081000,新規,0,2025-11-12,2025-11-12,株式会社ティー・アール・ワイ,,株式会社,京都府,京都市上京区,下立売通七本松西入西東町３８８－２,,26,102,6028354,,,,,,,2025-11-12,1,,,,,ティーアールワイ,0
496,2130001081009,新規,0,2025-11-12,2025-11-12,甍株式会社,,株式会社,京都府,京都市右京区,嵯峨釈迦堂門前瀬戸川町１２番地１シャンルート・ビアン２０２,,26,108,6168421,,,,,,,2025-11-12,1,,,,,イラカ,0
505,2140003022819,新規,0,2025-11-12,2025-11-12,ＴＲＡＮＥＸＩＯＮ合同会社,,合同会社,兵庫県,芦屋市,翠ケ丘町２０番１６－１０７号,,28,206,6590014,,,,,,,2025-11-12,1,,,,,トラネクシオン,0
509,2160001027207,新規,0,2025-11-12,2025-11-12,株式会社くじら,,株式会社,滋賀県,大津市,中央１丁目５番１０－１０５号,,25,201,5200043,,,,,,,2025-11-12,1,,,,,クジラ,0
518,2180001169377,新規,0,2025-11-12,2025-11-12,株式会社Ｎｅｗｓｔａｙ,,株式会社,愛知県,春日井市,上条町４丁目１９番地３,,23,206,4860833,,,,,,,2025-11-12,1,,,,,ニューステイ,0
519,2180001169484,新規,0,2025-11-12,2025-11-12,国保住建株式会社,,株式会社,愛知県,小牧市,曙町３１番地３,00141485,23,219,4850047,,,,,,,2025-11-12,1,,,,,コクボジュウケン,0
520,2180001169518,新規,0,2025-11-12,2025-11-12,ＬｅｍｏｎＢｏｔｔｌｅＪａｐａｎ株式会社,,株式会社,愛知県,名古屋市東区,徳川１丁目１４番１号４階,,23,102,4610025,,,,,,,2025-11-12,1,,,,,レモンボトルジャパン,0
523,2180301040403,新規,0,2025-11-12,2025-11-12,株式会社豊成ホールディングス,,株式会社,愛知県,豊川市,宿町寺前１０５番地１,,23,207,4410101,,,,,,,2025-11-12,1,,,,,ホウセイホールディングス,0
526,2190001032575,新規,0,2025-11-12,2025-11-12,株式会社ＳＬＯＮＥ　ＳＬＡＶＥ,,株式会社,三重県,四日市市,楠町北五味塚１７５２番地６Ｍａｉｓｏｎｅｔｔｅｌａｎｄ北楠駅Ｂ‐１０５,,24,202,5100103,,,,,,,2025-11-12,1,,,,,スローンスレイブ,0
531,2200003007136,新規,0,2025-11-12,2025-11-12,合同会社Ｍｈｕｉｔ,,合同会社,岐阜県,可児市,桜ケ丘６丁目８８番地,,21,214,5090235,,,,,,,2025-11-12,1,,,,,エムユイット,0
532,2210001020379,新規,0,2025-11-12,2025-11-12,結の杜株式会社,,株式会社,福井県,小浜市,新保５９号３－２,,18,204,9170222,,,,,,,2025-11-12,1,,,,,ユイノモリ,0
534,2210003001971,新規,0,2025-11-12,2025-11-12,Ｍｏｏｎｌｉｇｈｔ月光合同会社,,合同会社,福井県,越前市,氷坂町第３３号１８番地,,18,209,9150892,,,,,,,2025-11-12,1,,,,,ムーンライトゲッコウ,0
536,2220001027019,新規,0,2025-11-12,2025-11-12,ｌｉｒｙ　ｒｏｏｍ株式会社,,株式会社,石川県,金沢市,此花町５番６号－６０１Ａ号室,,17,201,9200852,,,,,,,2025-11-12,1,,,,,リリールーム,0
537,2240001065768,新規,0,2025-11-12,2025-11-12,株式会社ハルモナ,,株式会社,広島県,広島市安佐南区,東原１丁目８番８号,,34,105,7310112,,,,,,,2025-11-12,1,,,,,ハルモナ,0
538,2240001065776,新規,0,2025-11-12,2025-11-12,Ｎｉｃｏ株式会社,,株式会社,広島県,広島市佐伯区,八幡１丁目２１番２４号城山みとＡ棟２０１号室,,34,108,7315116,,,,,,,2025-11-12,1,,,,,ニコ,0
552,2290001112103,新規,0,2025-11-12,2025-11-12,株式会社大誠,,株式会社,福岡県,筑後市,大字長浜２４０５番地３,,40,211,8330005,,,,,,,2025-11-12,1,,,,,タイセイ,0
554,2290003017688,新規,0,2025-11-12,2025-11-12,合同会社ＩＫＥ,,合同会社,福岡県,糟屋郡宇美町,貴船３丁目１０番２４号,,40,341,8112131,,,,,,,2025-11-12,1,,,,,アイケーイー,0
555,2290003017705,新規,0,2025-11-12,2025-11-12,合同会社糸島ＳｔａｙＰｌａｎｎｉｎｇ,,合同会社,福岡県,糸島市,南風台８丁目２,,40,230,8191137,,,,,,,2025-11-12,1,,,,,イトシマステイプランニング,0
568,2330003011315,新規,0,2025-11-12,2025-11-12,合同会社ｔｈｏｕｓａｎｄ,,合同会社,熊本県,熊本市中央区,下通１丁目４番３号熊本ビル５階３号,,43,101,8600807,,,,,,,2025-11-12,1,,,,,サウザンド,0
570,2340001027741,新規,0,2025-11-12,2025-11-12,株式会社どすこい農場,,株式会社,鹿児島県,鹿屋市,吾平町麓３６３８番地３,,46,203,8931103,,,,,,,2025-11-12,1,,,,,ドスコイノウジョウ,0
571,2340001027758,新規,0,2025-11-12,2025-11-12,株式会社南農園,,株式会社,鹿児島県,指宿市,山川利永４４３番地,,46,210,8910621,,,,,,,2025-11-12,1,,,,,ミナミノウエン,0
574,2360001036030,新規,0,2025-11-12,2025-11-12,株式会社ＫＩＲＡＭＥＫＩ　ＨＯＬＤＩＮＧＳ,,株式会社,沖縄県,中頭郡嘉手納町,字嘉手納２３９番地,,47,325,9040203,,,,,,,2025-11-12,1,,,,,キラメキホールディングス,0
581,2400003003560,新規,0,2025-11-12,2025-11-12,合同会社ＣＲＥＳＴ,,合同会社,岩手県,花巻市,東宮野目第１０地割７８番地３,,03,205,0250003,,,,,,,2025-11-12,1,,,,,クレスト,0
584,2420003003204,新規,0,2025-11-12,2025-11-12,合同会社ＬＩＢＥＲＴＹ　ＣＡＲ’Ｓ,,合同会社,青森県,下北郡東通村,大字目名字向野１２２－１３,,02,424,0350002,,,,,,,2025-11-12,1,,,,,リバティーカーズ,0
586,2430001095622,新規,0,2025-11-12,2025-11-12,株式会社アイノマド,,株式会社,北海道,石狩郡当別町,幸町１１８番地,,01,303,0610217,,,,,,,2025-11-12,1,,,,,アイノマド,0
587,2430001095630,新規,0,2025-11-12,2025-11-12,株式会社森田建設,,株式会社,北海道,札幌市白石区,栄通５丁目１番３号,,01,104,0030021,,,,,,,2025-11-12,1,,,,,モリタケンセツ,0
588,2430001095639,新規,0,2025-11-12,2025-11-12,株式会社ケンゴウ資産設計,,株式会社,北海道,札幌市豊平区,月寒東三条１８丁目２番６号,,01,105,0620053,,,,,,,2025-11-12,1,,,,,ケンゴウシサンセッケイ,0
589,2430001095655,新規,0,2025-11-12,2025-11-12,株式会社レゴリス,,株式会社,北海道,札幌市東区,東雁来十三条２丁目４番２３号,,01,103,0070033,,,,,,,2025-11-12,1,,,,,レゴリス,0
590,2430003018317,新規,0,2025-11-12,2025-11-12,合同会社ビル管理,,合同会社,北海道,札幌市西区,山の手三条７丁目１番４３号２Ｆ－Ａ,,01,107,0630003,,,,,,,2025-11-12,1,,,,,ビルカンリ,0
591,2430005015353,新規,0,2025-11-12,2025-11-12,一般社団法人松ぼっくりプロジェクトセンター,,その他の設立登記法人,北海道,札幌市豊平区,豊平一条６丁目２番６－１号,,01,105,0620901,,,,,,,2025-11-12,1,,,,,マツボックリプロジェクトセンター,0
604,2700150070877,新規,0,2025-11-12,2016-02-17,平野自治会,,その他,愛媛県,大洲市,平野町平地２５番地３,,38,207,7950022,,,,,,,2016-02-17,1,,,,,ヒラノジチカイ,0
605,2700150070885,新規,0,2025-11-12,2016-02-17,八多喜自治会,,その他,愛媛県,大洲市,八多喜町甲６３番地２,,38,207,7950041,,,,,,,2016-02-17,1,,,,,ハタキジチカイ,0
606,2700150070893,新規,0,2025-11-12,2016-02-17,大和自治会,,その他,愛媛県,大洲市,長浜町下須戒甲６６８番地１,,38,207,7993441,,,,,,,2016-02-17,1,,,,,ヤマトジチカイ,0
607,2700150070902,新規,0,2025-11-12,2016-02-17,河辺自治会,,その他,愛媛県,大洲市,河辺町植松５４７番地１,,38,207,7971601,,,,,,,2016-02-17,1,,,,,カワベジチカイ,0
609,2700150132735,新規,0,2025-11-12,2025-10-28,プロジェクションマッピング国際アワードＴＯＫＹＯ実行委員会,,その他,東京都,新宿区,西新宿２丁目８－１第一本庁舎１９階,,13,104,1600023,,,,,,,2025-10-28,1,,,,,プロジエクシヨンマツピングコクサイアワードトーキヨージツコウイインカイ,0
610,2700150132925,新規,0,2025-11-12,2025-11-12,Ｓｔａｒ　Ａｌｌｉａｎｃｅ　Ｉｎｖｅｓｔｍｅｎｔ　Ｌｉｍｉｔｅｄ,,外国会社等,,,,,,,,１５／Ｇ，Ｔｏｗｅｒ３，ＴｈｅＷａｔｅｒｆｒｏｎｔ１ＡｕｓｔｉｎＲｏａｄＷｅｓｔＴｓｉｍＳｈａＴｓｕｉＫｏｗｌｏｏｎＨｏｎｇｋｏｎｇ,,,,,,2025-11-12,1,,,,,スターアライアンスインベストメントリミテツド,0
613,3010001259631,新規,0,2025-11-12,2025-11-12,株式会社プロメド,,株式会社,東京都,中央区,日本橋室町１丁目１１番１２号日本橋水野ビル７階,,13,102,1030022,,,,,,,2025-11-12,1,,,,,プロメド,0
614,3010001259821,新規,0,2025-11-12,2025-11-12,ＭＡＲＵ株式会社,,株式会社,東京都,千代田区,岩本町２丁目１番８号ＳＯＵＳＩＡ神田ビル６階,,13,101,1010032,,,,,,,2025-11-12,1,,,,,マル,0
615,3010001260275,新規,0,2025-11-12,2025-11-12,株式会社Ｉｎｔｅｇｒａｌ,,株式会社,東京都,中央区,銀座６丁目１３番１６号銀座ＷａｌｌビルＵＣＦ５階,,13,102,1040061,,,,,,,2025-11-12,1,,,,,インテグラル,0
630,3010501055019,新規,0,2025-11-12,2025-11-12,キー・パートナーズ株式会社,,株式会社,東京都,台東区,浅草５丁目４０番１１－６０１号アデニウム浅草,,13,106,1110032,,,,,,,2025-11-12,1,,,,,キーパートナーズ,0
631,3010503008073,新規,0,2025-11-12,2025-11-12,合同会社白,,合同会社,東京都,台東区,根岸１丁目２－１２坂本ビル２０２号室,,13,106,1100003,,,,,,,2025-11-12,1,,,,,ハク,0
632,3010601068259,新規,0,2025-11-12,2025-11-12,ＪＤフォトニクス株式会社,,株式会社,東京都,江東区,潮見２丁目７番１－８１５号,,13,108,1350052,,,,,,,2025-11-12,1,,,,,ジェイディフォトニクス,0
647,3010903010406,新規,0,2025-11-12,2025-11-12,合同会社ホテルズ,,合同会社,東京都,世田谷区,太子堂２丁目１７－５シークラウド三軒茶屋３階,,13,112,1540004,,,,,,,2025-11-12,1,,,,,ホテルズ,0
651,3011001173491,新規,0,2025-11-12,2025-11-12,ＢＲＵＳＡ　Ｅｌｅｋｔｒｏｎｉｋ　Ｊａｐａｎ株式会社,,株式会社,東京都,渋谷区,恵比寿２丁目２４番４号リ・プレゼ恵比寿５０１,,13,113,1500013,,,,,,,2025-11-12,1,,,,,ブルサエレクトロニクジャパン,0
652,3011001173500,新規,0,2025-11-12,2025-11-12,ｆａｒｖｅｒ株式会社,,株式会社,東京都,目黒区,中目黒３丁目１３番３１号１階,,13,110,1530061,,,,,,,2025-11-12,1,,,,,ファーバー,0
653,3011001173509,新規,0,2025-11-12,2025-11-12,ＳｅｅＴａｏ株式会社,,株式会社,東京都,渋谷区,道玄坂１丁目１０番８号,,13,113,1500043,,,,,,,2025-11-12,1,,,,,シータオ,0
654,3011001173533,新規,0,2025-11-12,2025-11-12,株式会社ＷＩＰ　Ｕｎｉｏｎ,,株式会社,東京都,渋谷区,幡ヶ谷１丁目１番２号,,13,113,1510072,,,,,,,2025-11-12,1,,,,,ウィップユニオン,0
657,3011005011243,新規,0,2025-11-12,2025-11-12,一般社団法人プーク人形劇場,,その他の設立登記法人,東京都,渋谷区,代々木２丁目１２番３号,,13,113,1510053,,,,,,,2025-11-12,1,,,,,プークニンギョウゲキジョウ,0
662,3011103016656,新規,0,2025-11-12,2025-11-12,合同会社Ｌｕｍｉｌｅｉｇｈｔ,,合同会社,東京都,新宿区,西新宿３丁目３番１３号西新宿水間ビル６階,,13,104,1600023,,,,,,,2025-11-12,1,,,,,ルミレイト,0
663,3011103016672,新規,0,2025-11-12,2025-11-12,Ｂｒｉｇｈｔ　Ｆｌｉｇｈｔ合同会社,,合同会社,東京都,新宿区,大京町１６－２０グランドール寿大京町２０２,,13,104,1600015,,,,,,,2025-11-12,1,,,,,ブライトフライト,0
664,3011105011663,新規,0,2025-11-12,2025-11-12,一般社団法人Ｃｈｅｒｒｙ,,その他の設立登記法人,東京都,新宿区,四谷２丁目９番地１５東京ユナイテッド綜合事務所内,,13,104,1600004,,,,,,,2025-11-12,1,,,,,チェリー,0
676,3011801047044,新規,0,2025-11-12,2025-11-12,株式会社流鏑馬,,株式会社,東京都,足立区,東伊興２丁目１１番９号,,13,121,1210801,,,,,,,2025-11-12,1,,,,,ヤブサメ,0
680,3012701019182,新規,0,2025-11-12,2025-11-12,株式会社Ａ２,,株式会社,東京都,清瀬市,松山１丁目７番１３号,,13,221,2040022,,,,,,,2025-11-12,1,,,,,エーツー,0
692,3020001165696,新規,0,2025-11-12,2025-11-12,株式会社ＩＰＥＸホールディングス,,株式会社,神奈川県,川崎市中原区,宮内２丁目２６番１７号,,14,133,2110051,,,,,,,2025-11-12,1,,,,,アイペックスホールディングス,0
693,3020001165713,新規,0,2025-11-12,2025-11-12,竹田商事株式会社,,株式会社,神奈川県,川崎市多摩区,枡形５丁目１９番１６号,,14,135,2140032,,,,,,,2025-11-12,1,,,,,タケダショウジ,0
697,3020003029742,新規,0,2025-11-12,2025-11-12,合同会社ＲＳ,,合同会社,神奈川県,横浜市港北区,高田東３丁目２３番２７号,,14,109,2230065,,,,,,,2025-11-12,1,,,,,アールエス,0
705,3021001086767,新規,0,2025-11-12,2025-11-12,サーヴでんき株式会社,,株式会社,神奈川県,小田原市,千代１６５番地,,14,206,2500215,,,,,,,2025-11-12,1,,,,,サーヴデンキ,0
721,3030003028058,新規,0,2025-11-12,2025-11-12,合同会社Ｄａｄｄｙ　Ａｕｔｏｓ,,合同会社,埼玉県,川越市,大字中福９０３－２－２階,,11,201,3501156,,,,,,,2025-11-12,1,,,,,ダディーオートス,0
732,3050003009741,新規,0,2025-11-12,2025-11-12,合同会社ほっぷとむぎ,,合同会社,茨城県,北茨城市,中郷町松井４０４番地１,,08,215,3191557,,,,,,,2025-11-12,1,,,,,ホップトムギ,0
736,3060001038758,新規,0,2025-11-12,2025-11-12,シーエルテック株式会社,,株式会社,栃木県,足利市,今福町９０２－６,,09,202,3260842,,,,,,,2025-11-12,1,,,,,シーエルテック,0
737,3060003005839,新規,0,2025-11-12,2025-11-12,合同会社湯煙屋,,合同会社,栃木県,下都賀郡壬生町,大字羽生田１０２３番地３,,09,361,3210234,,,,,,,2025-11-12,1,,,,,ユケムリヤ,0
738,3070001043550,新規,0,2025-11-12,2025-11-12,青果資材株式会社,,株式会社,群馬県,前橋市,上増田町９９６番地３,,10,201,3792114,,,,,,,2025-11-12,1,,,,,セイカシザイ,0
749,3080403005387,新規,0,2025-11-12,2025-11-12,ＳＥＲＧ合同会社,,合同会社,静岡県,浜松市浜名区,引佐町伊平１５５１番地の１,,22,139,4312205,,,,,,,2025-11-12,1,,,,,シーグ,0
752,3090001019607,新規,0,2025-11-12,2025-11-12,株式会社萩原商会,,株式会社,山梨県,山梨市,牧丘町倉科３４５番地５,,19,205,4040003,,,,,,,2025-11-12,1,,,,,ハギワラショウカイ,0
755,3090003002932,新規,0,2025-11-12,2025-11-12,合同会社スバル,,合同会社,山梨県,南都留郡山中湖村,山中８６５－１８０,,19,425,4010501,,,,,,,2025-11-12,1,,,,,スバル,0
756,3090005007748,新規,0,2025-11-12,2025-11-12,一般社団法人ナカノグミ,,その他の設立登記法人,山梨県,北杜市,高根町清里３５４５番地２８７３,,19,209,4070301,,,,,,,2025-11-12,1,,,,,ナカノグミ,0
757,3100001039108,新規,0,2025-11-12,2025-11-12,株式会社シーマテック,,株式会社,長野県,松本市,埋橋１丁目１番３３号,,20,202,3900813,,,,,,,2025-11-12,1,,,,,シーマテック,0
761,3110001039718,新規,0,2025-11-12,2025-11-12,株式会社メディカルサポート佐渡,,株式会社,新潟県,佐渡市,下久知７０９番地,,15,224,9523424,,,,,,,2025-11-12,1,,,,,メディカルサポートサド,0
779,3120001281847,新規,0,2025-11-12,2025-11-12,京福サービス株式会社,,株式会社,大阪府,大阪市中央区,安土町２丁目５番１号角丸ビル,,27,128,5410052,,,,,,,2025-11-12,1,,,,,ケイフクサービス,0
780,3120001281863,新規,0,2025-11-12,2025-11-12,クラウドワイズ株式会社,,株式会社,大阪府,大阪市北区,梅田１丁目１番３号大阪駅前第３ビル２９階１－１－１号室,,27,127,5300001,,,,,,,2025-11-12,1,,,,,クラウドワイズ,0
781,3120001281896,新規,0,2025-11-12,2025-11-12,富貴莱株式会社,,株式会社,大阪府,大阪市西成区,岸里２丁目２番４－３０６号,,27,122,5570041,,,,,,,2025-11-12,1,,,,,フキライ,0
782,3120001281938,新規,0,2025-11-12,2025-11-12,株式会社ＮＳＤ,,株式会社,大阪府,大阪市住之江区,北島３丁目９番２３号,,27,125,5590014,,,,,,,2025-11-12,1,,,,,エヌエスディー,0
783,3120001281946,新規,0,2025-11-12,2025-11-12,レミグローバル株式会社,,株式会社,大阪府,大阪市平野区,加美南４丁目４番２８号ハピネス加美５１５号室,,27,126,5470003,,,,,,,2025-11-12,1,,,,,レミグローバル,0
785,3120003030748,新規,0,2025-11-12,2025-11-12,合同会社Ｇｌｏｂａｌ　Ｌｉｎｋ,,合同会社,大阪府,大阪市北区,野崎町７－８梅田パークビル３階,,27,127,5300055,,,,,,,2025-11-12,1,,,,,グローバルリンク,0
786,3120003031226,新規,0,2025-11-12,2025-11-12,ＰＵＬＬＹ合同会社,,合同会社,大阪府,大阪市北区,東天満１丁目１２－１１大北ビル３０２,,27,127,5300044,,,,,,,2025-11-12,1,,,,,プリー,0
802,3130001080959,新規,0,2025-11-12,2025-11-12,株式会社Ｅｂｅｒｔａｌｌｅｅ,,株式会社,京都府,京都市下京区,七条通油小路東入大黒町２２７番地第２キョートビル４０２,,26,106,6008223,,,,,,,2025-11-12,1,,,,,エベタリー,0
809,3140001140695,新規,0,2025-11-12,2025-11-12,一ソ十株式会社,,株式会社,兵庫県,神戸市中央区,元町通６丁目１番８号,,28,110,6500022,,,,,,,2025-11-12,1,,,,,イソジュウ,0
810,3140001140745,新規,0,2025-11-12,2025-11-12,株式会社サングローリー,,株式会社,兵庫県,明石市,魚住町鴨池１番地の１０,,28,203,6740073,,,,,,,2025-11-12,1,,,,,サングローリー,0
816,3140005027690,新規,0,2025-11-12,2025-11-12,一般社団法人ｓｏｍｅ,,その他の設立登記法人,兵庫県,豊岡市,中陰６４７番地の５,,28,209,6680013,,,,,,,2025-11-12,1,,,,,サム,0
817,3150001028543,新規,0,2025-11-12,2025-11-12,エーワイエーエー不動産株式会社,,株式会社,奈良県,橿原市,八木町１丁目８番２０号八木吉田ビル５０３北,,29,205,6340078,,,,,,,2025-11-12,1,,,,,エーワイエーエーフドウサン,0
818,3150001028551,新規,0,2025-11-12,2025-11-12,株式会社ケーズテックマシン,,株式会社,奈良県,御所市,大字本馬１７６番地１９,,29,208,6392242,,,,,,,2025-11-12,1,,,,,ケーズテックマシン,0
838,3180005021302,新規,0,2025-11-12,2025-11-12,一般社団法人よつば,,その他の設立登記法人,愛知県,名古屋市中村区,名駅３丁目４番１０号アルティメイト名駅１ｓｔ２階,,23,105,4500002,,,,,,,2025-11-12,1,,,,,ヨツバ,0
840,3180301040410,新規,0,2025-11-12,2025-11-12,株式会社ＨＭＳ,,株式会社,愛知県,豊川市,蔵子７丁目６１番地５,,23,207,4420842,,,,,,,2025-11-12,1,,,,,エイチエムエス,0
842,3180303006806,新規,0,2025-11-12,2025-11-12,合同会社ＬＥＡ,,合同会社,愛知県,豊田市,東山町２丁目１０５５番地１,,23,211,4710014,,,,,,,2025-11-12,1,,,,,,0
847,3210001020386,新規,0,2025-11-12,2025-11-12,株式会社ＷＩＮＤ,,株式会社,福井県,鯖江市,吉江町６０５番地,,18,207,9160001,,,,,,,2025-11-12,1,,,,,ウインド,0
849,3210005010235,新規,0,2025-11-12,2025-11-12,一般社団法人南越前町建設業会,,その他の設立登記法人,福井県,南条郡南越前町,今庄第７４号３番地の１,,18,404,9190131,,,,,,,2025-11-12,1,,,,,ミナミエチゼンチョウケンセツギョウカイ,0
850,3220001027018,新規,0,2025-11-12,2025-11-12,株式会社コマテックＨＤ,,株式会社,石川県,小松市,串町工業団地１番地２,,17,203,9230965,,,,,,,2025-11-12,1,,,,,コマテックホールディングス,0
851,3220003004163,新規,0,2025-11-12,2025-11-12,合同会社神村,,合同会社,石川県,野々市市,本町１丁目１５番１３号,,17,212,9218815,,,,,,,2025-11-12,1,,,,,カミムラ,0
853,3240001065775,新規,0,2025-11-12,2025-11-12,株式会社蜀風マーラータン,,株式会社,広島県,広島市西区,商工センター１丁目１０番８号,,34,104,7330833,,,,,,,2025-11-12,1,,,,,ショクフウマーラータン,0
861,3260001040719,新規,0,2025-11-12,2025-11-12,付華株式会社,,株式会社,岡山県,倉敷市,新田２４１５番地１ジェイシティ倉敷８０４号,,33,202,7100038,,,,,,,2025-11-12,1,,,,,フカ,0
862,3260005011542,新規,0,2025-11-12,2025-11-12,杜の街グレース岡山ザ・タワー管理組合法人,,その他の設立登記法人,岡山県,岡山市北区,下石井２丁目１０番３０号,,33,101,7000907,,,,,,,2025-11-12,1,,,,,モリノマチグレースオカヤマザタワー,0
869,3290001111748,新規,0,2025-11-12,2025-11-12,株式会社ナインワールド,,株式会社,福岡県,福岡市中央区,高砂２丁目１番４号オーキッドプレイス天神南５Ｆ,,40,133,8100011,,,,,,,2025-11-12,1,,,,,ナインワールド,0
870,3290001112110,新規,0,2025-11-12,2025-11-12,株式会社明,,株式会社,福岡県,福岡市東区,箱崎４丁目２番１５号,,40,131,8120053,,,,,,,2025-11-12,1,,,,,アカリ,0
871,3290001112119,新規,0,2025-11-12,2025-11-12,株式会社禅,,株式会社,福岡県,糟屋郡志免町,志免中央３丁目１番２０号清原ビル１０６,,40,343,8112244,,,,,,,2025-11-12,1,,,,,ゼン,0
872,3290001112127,新規,0,2025-11-12,2025-11-12,株式会社ワンウエスト,,株式会社,福岡県,福岡市南区,柏原４丁目２７番５号,,40,134,8111353,,,,,,,2025-11-12,1,,,,,ワンウエスト,0
873,3290001112151,新規,0,2025-11-12,2025-11-12,株式会社ＧＬＡＹ,,株式会社,福岡県,福岡市城南区,神松寺３丁目１９－３,,40,136,8140121,,,,,,,2025-11-12,1,,,,,グレイ,0
875,3290003017679,新規,0,2025-11-12,2025-11-12,合同会社ＡＲＴ　Ｃａｐｉｔａｌ,,合同会社,福岡県,福岡市中央区,天神４丁目６－２８・いちご天神ノースビル７階,,40,133,8100001,,,,,,,2025-11-12,1,,,,,アートキャピタル,0
876,3290003017695,新規,0,2025-11-12,2025-11-12,合同会社コスメワールド,,合同会社,福岡県,福岡市西区,今津４７５４番地１３,,40,135,8190165,,,,,,,2025-11-12,1,,,,,コスメワールド,0
888,3330001033748,新規,0,2025-11-12,2025-11-12,株式会社縁満,,株式会社,熊本県,八代市,福正町９５５番地３,,43,202,8660821,,,,,,,2025-11-12,1,,,,,エンマン,0
890,3330003011289,新規,0,2025-11-12,2025-11-12,合同会社ベストパートナーサポートクラハラ,,合同会社,熊本県,熊本市東区,戸島１丁目１４番５６号,,43,102,8618041,,,,,,,2025-11-12,1,,,,,ベストパートナーサポートクラハラ,0
891,3330003011314,新規,0,2025-11-12,2025-11-12,合同会社ＹＧプランニング,,合同会社,熊本県,菊池市,隈府１０１０番地,,43,210,8611331,,,,,,,2025-11-12,1,,,,,ワイジープランニング,0
893,3360001036021,新規,0,2025-11-12,2025-11-12,株式会社上一組,,株式会社,沖縄県,中頭郡読谷村,字渡具知１８１番地３,,47,324,9040315,,,,,,,2025-11-12,1,,,,,ウエイチグミ,0
898,3360003015394,新規,0,2025-11-12,2025-11-12,合同会社川かみ鮮魚,,合同会社,沖縄県,那覇市,松尾２丁目１０－２０金城商事ビル１Ｆ,,47,201,9000014,,,,,,,2025-11-12,1,,,,,カワカミセンギョ,0
909,3380005013031,新規,0,2025-11-12,2025-11-12,一般社団法人高橋家住宅保存会,,その他の設立登記法人,福島県,伊達郡川俣町,字瓦町２８番地,,07,308,9601453,,,,,,,2025-11-12,1,,,,,タカハシケジュウタクホゾンカイ,0
914,3420001019325,新規,0,2025-11-12,2025-11-12,株式会社ＢＡＳＩＣ,,株式会社,青森県,青森市,古川１丁目１７番２３号スノーランドビル２、２階,,02,201,0300862,,,,,,,2025-11-12,1,,,,,ベーシック,0
915,3420001019333,新規,0,2025-11-12,2025-11-12,株式会社あずまし,,株式会社,青森県,上北郡野辺地町,字有戸鳥井平４番地１,,02,401,0393105,,,,,,,2025-11-12,1,,,,,アズマシ,0
916,3420003003203,新規,0,2025-11-12,2025-11-12,合同会社兵吾,,合同会社,青森県,弘前市,大字五代字早稲田５５７－３,,02,202,0361331,,,,,,,2025-11-12,1,,,,,ヒョウゴ,0
921,3430001095646,新規,0,2025-11-12,2025-11-12,ヤナセプランニング株式会社,,株式会社,北海道,札幌市西区,発寒六条５丁目３番４８号,,01,107,0630826,,,,,,,2025-11-12,1,,,,,ヤナセプランニング,0
922,3430001095662,新規,0,2025-11-12,2025-11-12,株式会社もりとそら,,株式会社,北海道,札幌市北区,新琴似五条２丁目１番２－７０９号,,01,102,0010905,,,,,,,2025-11-12,1,,,,,モリトソラ,0
929,3470005006661,新規,0,2025-11-12,2025-11-12,農事組合法人ラポメーズ・デュ・ミエルデュー,,その他の設立登記法人,香川県,高松市,郷東町７７９番地２８０,,37,201,7618031,,,,,,,2025-11-12,1,,,,,ラポメーズデュミエルデュー,0
931,3700150070876,新規,0,2025-11-12,2016-02-17,たいら自治会,,その他,愛媛県,大洲市,徳森２２８０番地２,,38,207,7950061,,,,,,,2016-02-17,1,,,,,タイラジチカイ,0
932,3700150070892,新規,0,2025-11-12,2016-02-17,出海自治会,,その他,愛媛県,大洲市,長浜町出海甲１２６４番地１,,38,207,7993455,,,,,,,2016-02-17,1,,,,,イズミジチカイ,0
933,3700150070901,新規,0,2025-11-12,2016-02-17,予子林自治会,,その他,愛媛県,大洲市,肱川町予子林１８６０番地,,38,207,7971505,,,,,,,2016-02-17,1,,,,,ヨコハヤシジチカイ,0
941,4010001259993,新規,0,2025-11-12,2025-11-12,Ａ９ｔｉｏｎ株式会社,,株式会社,東京都,千代田区,神田鍛冶町３丁目３－３、２階,,13,101,1010045,,,,,,,2025-11-12,1,,,,,アクション,0
942,4010001260126,新規,0,2025-11-12,2025-11-12,株式会社ＲＬＳ‐Ｈｏｌｄｉｎｇｓ,,株式会社,東京都,中央区,銀座１丁目１２番４号Ｎ＆Ｅ・ＢＬＤ．６Ｆ,,13,102,1040061,,,,,,,2025-11-12,1,,,,,アールエルエスホールディングス,0
943,4010003049393,新規,0,2025-11-12,2025-11-12,Ｐｒｅｃｉｏｕｓ合同会社,,合同会社,東京都,文京区,千石１丁目１２番１４号３０２,,13,105,1120011,,,,,,,2025-11-12,1,,,,,プレシャス,0
944,4010003049419,新規,0,2025-11-12,2025-11-12,マカロンプロパティ合同会社２,,合同会社,東京都,千代田区,丸の内１丁目４番１号東京共同会計事務所内,,13,101,1000005,,,,,,,2025-11-12,1,,,,,マカロンプロパティニ,0
948,4010401194048,新規,0,2025-11-12,2025-11-12,株式会社輝石商事,,株式会社,東京都,港区,浜松町２丁目２番１５号浜松町ダイヤビル２Ｆ,,13,103,1050013,,,,,,,2025-11-12,1,,,,,キセキショウジ,0
949,4010401194411,新規,0,2025-11-12,2025-11-12,株式会社ひろりん,,株式会社,東京都,港区,六本木１丁目３番４０－１１０２号,,13,103,1060032,,,,,,,2025-11-12,1,,,,,,0
951,4010403036446,新規,0,2025-11-12,2025-11-12,ＣＳ岩手一関ＥＳＳ合同会社,,合同会社,東京都,港区,虎ノ門２丁目４番７号Ｔ－ＬＩＴＥ１３階,,13,103,1050001,,,,,,,2025-11-12,1,,,,,シーエスイワテイチノセキイーエスエス,0
954,4010501054993,新規,0,2025-11-12,2025-11-12,株式会社だいち,,株式会社,東京都,台東区,上野桜木１丁目１２番１０号ＨＪ・ＰＬＡＣＥ・ＵＥＮＯ２０１,,13,106,1100002,,,,,,,2025-11-12,1,,,,,ダイチ,0
960,4010701048589,新規,0,2025-11-12,2025-11-12,株式会社マッシュグロウ,,株式会社,東京都,品川区,大崎１丁目１１番２号,,13,109,1410032,,,,,,,2025-11-12,1,,,,,マッシュグロウ,0
961,4010701048597,新規,0,2025-11-12,2025-11-12,威騰電気国際株式会社,,株式会社,東京都,品川区,大崎２丁目７番１２号,,13,109,1410032,,,,,,,2025-11-12,1,,,,,ウイテンデンキコクサイ,0
967,4010801036774,新規,0,2025-11-12,2025-11-12,株式会社美和,,株式会社,東京都,大田区,田園調布南１８番１８号田園調布南ビル１０１号,,13,111,1450076,,,,,,,2025-11-12,1,,,,,ミワ,0
977,4011001173532,新規,0,2025-11-12,2025-11-12,リンクベイ株式会社,,株式会社,東京都,渋谷区,道玄坂１丁目１０番８号渋谷道玄坂東急ビル２Ｆ－Ｃ,,13,113,1500043,,,,,,,2025-11-12,1,,,,,リンクベイ,0
979,4011001173672,新規,0,2025-11-12,2025-11-12,ＧＭＯ　Ｏｐｔｉｃａｌ　Ｉｎｖｅｓｔｍｅｎｔ株式会社,,株式会社,東京都,渋谷区,桜丘町２６番１号,,13,113,1500031,,,,,,,2025-11-12,1,,,,,ジーエムオーオプティカルインベストメント,0
980,4011001173697,新規,0,2025-11-12,2025-11-12,株式会社ｍｏｔｔｅｋｉｔｅ,,株式会社,東京都,渋谷区,道玄坂１丁目１０番８号渋谷道玄坂東急ビル２Ｆ－Ｃ,,13,113,1500043,,,,,,,2025-11-12,1,,,,,モッテキテ,0
983,4011003022885,新規,0,2025-11-12,2025-11-12,Ｌｅａｄ　ｔｈｅ　Ｆ．Ａ．Ｃ．Ｔ合同会社,,合同会社,東京都,渋谷区,円山町５番５号Ｎａｖｉ渋谷Ｖ３階,,13,113,1500044,,,,,,,2025-11-12,1,,,,,リードザファクト,0
986,4011101113850,新規,0,2025-11-12,2025-11-12,株式会社シュレディンガーズ,,株式会社,東京都,新宿区,西新宿３丁目３番１３号西新宿水間ビル６階,,13,104,1600023,,,,,,,2025-11-12,1,,,,,シュレディンガーズ,0
987,4011101113859,新規,0,2025-11-12,2025-11-12,株式会社Ｍｉｄｄｌｅ　Ｎｏｔｅ,,株式会社,東京都,新宿区,西新宿３丁目３番１３号西新宿水間ビル２Ｆ,,13,104,1600023,,,,,,,2025-11-12,1,,,,,ミドルノート,0
988,4011101113925,新規,0,2025-11-12,2025-11-12,株式会社Ａ＆Ｐ,,株式会社,東京都,新宿区,西新宿３丁目８番４号,,13,104,1600023,,,,,,,2025-11-12,1,,,,,エーアンドピー,0
991,4011103016671,新規,0,2025-11-12,2025-11-12,合同会社ＴＲＣ,,合同会社,東京都,新宿区,西新宿３丁目３番１３号西新宿水間ビル６階,,13,104,1600023,,,,,,,2025-11-12,1,,,,,ティーアールシー,0
993,4011201026770,新規,0,2025-11-12,2025-11-12,株式会社ＶＯＹＡＮＫＥＹ,,株式会社,東京都,中野区,本町２丁目２９番１２号,,13,114,1640012,,,,,,,2025-11-12,1,,,,,ボヤンキー,0
995,4011401027569,新規,0,2025-11-12,2025-11-12,ＨＡＣＨＩＳＴＡ株式会社,,株式会社,東京都,板橋区,四葉１丁目２８番６号アネックス藤幸３０１,,13,119,1750084,,,,,,,2025-11-12,1,,,,,ハチスタ,0
998,4011503006776,新規,0,2025-11-12,2025-11-12,Ａｓ　Ｇｒａｎｉｃｏ合同会社,,合同会社,東京都,荒川区,東日暮里５丁目１１－４メインステージ東日暮里１２０１,,13,118,1160014,,,,,,,2025-11-12,1,,,,,アズグラニコ,0
1000,4011601029159,新規,0,2025-11-12,2025-11-12,大葉株式会社,,株式会社,東京都,練馬区,旭町１丁目８番１号,,13,120,1790071,,,,,,,2025-11-12,1,,,,,タイヨウ,0
1002,4011701028928,新規,0,2025-11-12,2025-11-12,グリーンライン株式会社,,株式会社,東京都,江戸川区,瑞江２丁目３番１１号２階,,13,123,1320011,,,,,,,2025-11-12,1,,,,,グリーンライン,0
1008,4013301055261,新規,0,2025-11-12,2025-11-12,株式会社東京レジデンシャル,,株式会社,東京都,豊島区,東池袋３丁目１番１号,,13,116,1700013,,,,,,,2025-11-12,1,,,,,トウキョウレジデンシャル,0
1021,4020001165753,新規,0,2025-11-12,2025-11-12,株式会社ＭＹ２,,株式会社,神奈川県,横浜市港北区,大倉山７丁目１７番３号,,14,109,2220037,,,,,,,2025-11-12,1,,,,,エムワイツー,0
1022,4020001165786,新規,0,2025-11-12,2025-11-12,株式会社Ｐｅａｋ　Ｈｉｌｌｓ,,株式会社,神奈川県,横浜市都筑区,中川中央１丁目２１番３号２０１,,14,118,2240003,,,,,,,2025-11-12,1,,,,,ピークヒルズ,0
1024,4020005017042,新規,0,2025-11-12,2025-11-12,一般社団法人ホピアス,,その他の設立登記法人,神奈川県,横浜市西区,北幸２丁目１０番４８号むつみビル３階,,14,103,2200004,,,,,,,2025-11-12,1,,,,,ホピアス,0
1027,4021001086766,新規,0,2025-11-12,2025-11-12,株式会社サーヴ,,株式会社,神奈川県,小田原市,桑原６３６番地の３,,14,206,2500861,,,,,,,2025-11-12,1,,,,,サーヴ,0
1029,4021003016787,新規,0,2025-11-12,2025-11-12,サーヴＯＮＥ合同会社,,合同会社,神奈川県,小田原市,桑原６３６番地の３,,14,206,2500861,,,,,,,2025-11-12,1,,,,,サーヴワン,0
1039,4030001169638,新規,0,2025-11-12,2025-11-12,株式会社るーぺ,,株式会社,埼玉県,川越市,富士見町１２番地７（センチュリー川越ＩＩ３０２号室）,00141487,11,201,3500033,,,,,,,2025-11-12,1,,,,,ルーペ,0
1040,4030001169662,新規,0,2025-11-12,2025-11-12,Ｓ＆Ｋ設備株式会社,,株式会社,埼玉県,川口市,大字久左衛門新田５４番地ノートル・リアンＩ２０２,00141488,11,203,3330804,,,,,,,2025-11-12,1,,,,,エスアンドケーセツビ,0
1047,4040001141356,新規,0,2025-11-12,2025-11-12,株式会社作佐部水道工務店,,株式会社,千葉県,香取市,桐谷６３５番地,,12,236,2890422,,,,,,,2025-11-12,1,,,,,サクサベスイドウコウムテン,0
1048,4040001141364,新規,0,2025-11-12,2025-11-12,株式会社プライム,,株式会社,千葉県,浦安市,高洲３丁目２６番１６号,,12,227,2790023,,,,,,,2025-11-12,1,,,,,プライム,0
1051,4040003028948,新規,0,2025-11-12,2025-11-12,合同会社ＡＬＵＮＡ,,合同会社,千葉県,千葉市稲毛区,作草部町１２６０－１－３１１,,12,103,2630014,,,,,,,2025-11-12,1,,,,,アルナ,0
1058,4050001057568,新規,0,2025-11-12,2025-11-12,学術企画Ｗｕｎｄｅｒ株式会社,,株式会社,茨城県,つくば市,天王台１丁目１番１筑波大学生物農林学系棟,,08,220,3050006,,,,,,,2025-11-12,1,,,,,ガクジュツキカクヴンダー,0
1061,4060003005846,新規,0,2025-11-12,2025-11-12,合同会社ＩＳＡマネジメント,,合同会社,栃木県,宇都宮市,中央１丁目５番１１号,,09,201,3200806,,,,,,,2025-11-12,1,,,,,アイエスエーマネジメント,0
1065,4080103003467,新規,0,2025-11-12,2025-11-12,合同会社タンナ自動車,,合同会社,静岡県,田方郡函南町,丹那字向畑毛１１３３番地の１,,22,325,4190105,,,,,,,2025-11-12,1,,,,,タンナジドウシャ,0
1066,4080401028257,新規,0,2025-11-12,2025-11-12,樂見テック株式会社,,株式会社,静岡県,浜松市中央区,海老塚１丁目９番ハイレジデンス浜松１０６号,,22,138,4328033,,,,,,,2025-11-12,1,,,,,ラクミテック,0
1084,4120001281870,新規,0,2025-11-12,2025-11-12,龍興貿易株式会社,,株式会社,大阪府,大阪市東淀川区,西淡路３丁目１５－４ブライクルマンション４０１号,,27,114,5330031,,,,,,,2025-11-12,1,,,,,リュウコウボウエキ,0
1088,4120003031183,新規,0,2025-11-12,2025-11-12,合同会社命成,,合同会社,大阪府,大阪市淀川区,十三元今里２丁目９番６号,,27,123,5320028,,,,,,,2025-11-12,1,,,,,メイセイ,0
1099,4130001081015,新規,0,2025-11-12,2025-11-12,株式会社アイエムホールディングス,,株式会社,京都府,京都市東山区,祇園町北側３４７－３９ＲｅＣｕｂｅビルＢ１,,26,105,6050073,,,,,,,2025-11-12,1,,,,,アイエムホールディングス,0
1107,4140001140711,新規,0,2025-11-12,2025-11-12,株式会社ウィーヴィーアイレックス,,株式会社,兵庫県,神戸市中央区,二宮町２丁目６番１５号,,28,110,6510093,,,,,,,2025-11-12,1,,,,,ウィーヴィーアイレックス,0
1112,4140003022841,新規,0,2025-11-12,2025-11-12,合同会社まめだいふく,,合同会社,兵庫県,神戸市北区,鹿の子台南町３丁目３番２８号,,28,109,6511514,,,,,,,2025-11-12,1,,,,,マメダイフク,0
1113,4150003003741,新規,0,2025-11-12,2025-11-12,合同会社クロスロード,,合同会社,奈良県,生駒郡斑鳩町,小吉田２丁目１１番１１号,00141481,29,344,6360142,,,,,,,2025-11-12,1,,,,,クロスロード,0
1123,4180001169400,新規,0,2025-11-12,2025-11-12,新和ホールディングス株式会社,,株式会社,愛知県,弥富市,東末広９丁目１８番地２,,23,235,4980063,,,,,,,2025-11-12,1,,,,,シンワホールディングス,0
1124,4180001169466,新規,0,2025-11-12,2025-11-12,三好金属株式会社,,株式会社,愛知県,名古屋市港区,東茶屋１丁目５８２番地の１,,23,111,4550851,,,,,,,2025-11-12,1,,,,,ミヨシキンゾク,0
1131,4180003029346,新規,0,2025-11-12,2025-11-12,合同会社Ｎｏｂｌｅ　Ｌｉｎｋ,,合同会社,愛知県,名古屋市中区,栄４丁目２０番２４号栄ワールドビル４階Ａ号室,,23,106,4600008,,,,,,,2025-11-12,1,,,,,ノーブルリンク,0
1132,4180003029354,新規,0,2025-11-12,2025-11-12,言の葉ＬＡＰＩＮ合同会社,,合同会社,愛知県,犬山市,大字犬山字南笠屋３番地１,,23,215,4840081,,,,,,,2025-11-12,1,,,,,コトノハラパン,0
1136,4180301040418,新規,0,2025-11-12,2025-11-12,株式会社ＨＧＩ,,株式会社,愛知県,岡崎市,羽根町字小豆坂１８３番地,,23,202,4440814,,,,,,,2025-11-12,1,,,,,エイチジーアイ,0
1142,4190005012084,新規,0,2025-11-12,2025-11-12,一般社団法人ＨＥＭＰ　ＨＵＢ,,その他の設立登記法人,三重県,多気郡明和町,大字中村１２７２番地１,,24,442,5150348,,,,,,,2025-11-12,1,,,,,ヘンプハブ,0
1145,4200001044419,新規,0,2025-11-12,2025-11-12,株式会社ａｌｌｍａｔｅ,,株式会社,岐阜県,各務原市,前渡西町７丁目８９番地４,,21,213,5040923,,,,,,,2025-11-12,1,,,,,オールメイト,0
1147,4200005013816,新規,0,2025-11-12,2025-11-12,特定非営利活動法人つながりサポートぽかぽか,,その他の設立登記法人,岐阜県,海津市,南濃町山崎１３２１番地１,,21,221,5030415,,,,,,,2025-11-12,1,,,,,ツナガリサポートポカポカ,0
1150,4220003004154,新規,0,2025-11-12,2025-11-12,合同会社金沢畑憲司事務所,,合同会社,石川県,金沢市,広岡１丁目１３－２６カーザデルソーレ４０２,,17,201,9200031,,,,,,,2025-11-12,1,,,,,カナザワハタケンジジムショ,0
1156,4240001065766,新規,0,2025-11-12,2025-11-12,株式会社安穏,,株式会社,広島県,廿日市市,玖島３９９４番地２,,34,213,7380205,,,,,,,2025-11-12,1,,,,,アンノン,0
1157,4240001065774,新規,0,2025-11-12,2025-11-12,株式会社ｅｖｅｒｙｏｎｅ,,株式会社,広島県,安芸郡海田町,大正町８番１－２０１号,,34,304,7360041,,,,,,,2025-11-12,1,,,,,エブリイワン,0
1160,4240003007477,新規,0,2025-11-12,2025-11-12,合同会社タナカファミリーオフィス,,合同会社,広島県,広島市中区,東千田町１丁目１番１０４－３－２９０１号,,34,101,7300053,,,,,,,2025-11-12,1,,,,,タナカファミリーオフィス,0
1167,4260003005413,新規,0,2025-11-12,2025-11-12,合同会社馬車馬テクノロジーズ,,合同会社,岡山県,岡山市北区,中山下２丁目２－７６,,33,101,7000821,,,,,,,2025-11-12,1,,,,,バシャウマテクノロジーズ,0
1171,4290001112150,新規,0,2025-11-12,2025-11-12,株式会社新西興業,,株式会社,福岡県,糟屋郡須惠町,大字上須惠２２６番地１,,40,344,8112114,,,,,,,2025-11-12,1,,,,,シンセイコウギョウ,0
1172,4290003017694,新規,0,2025-11-12,2025-11-12,合同会社雲水書房,,合同会社,福岡県,福岡市城南区,七隈１丁目１４番２５号,,40,136,8140133,,,,,,,2025-11-12,1,,,,,ウンスイショボウ,0
1176,4300001014411,新規,0,2025-11-12,2025-11-12,株式会社アイムノート,,株式会社,佐賀県,三養基郡みやき町,大字天建寺１９２７番地２,,41,346,8401102,,,,,,,2025-11-12,1,,,,,アイムノート,0
1177,4310001019847,新規,0,2025-11-12,2025-11-12,株式会社一艘,,株式会社,長崎県,長崎市,大浦町１番３３－８０８号,,42,201,8500918,,,,,,,2025-11-12,1,,,,,イッソウ,0
1179,4330001033730,新規,0,2025-11-12,2025-11-12,株式会社Ｃｈｒｏｎｉｃａ,,株式会社,熊本県,山鹿市,山鹿１６６４番地１フォレストビル１Ｆ,,43,208,8610501,,,,,,,2025-11-12,1,,,,,クロニカ,0
1180,4330001033739,新規,0,2025-11-12,2025-11-12,株式会社米ｏｒｉｚａ,,株式会社,熊本県,宇城市,松橋町松橋１２３５番地,,43,213,8690502,,,,,,,2025-11-12,1,,,,,コメオリザ,0
1181,4330003011313,新規,0,2025-11-12,2025-11-12,合同会社大龍,,合同会社,熊本県,熊本市中央区,水前寺１丁目１８番３－４０２号,,43,101,8620950,,,,,,,2025-11-12,1,,,,,タイリュウ,0
1182,4340001027772,新規,0,2025-11-12,2025-11-12,株式会社コミュニス,,株式会社,鹿児島県,出水市,野田町下名６９１１,,46,208,8990502,,,,,,,2025-11-12,1,,,,,コミュニス,0
1185,4360001036012,新規,0,2025-11-12,2025-11-12,株式会社旭ＳＹＳＴＥＭ,,株式会社,沖縄県,名護市,字旭川４１７番地,,47,209,9050003,,,,,,,2025-11-12,1,,,,,アサヒシステム,0
1187,4360003015377,新規,0,2025-11-12,2025-11-12,合同会社Ｎａｍｏ　Ｂｕｄｄｈａ,,合同会社,沖縄県,那覇市,辻２丁目１番５号１階,00141483,47,201,9000037,,,,,,,2025-11-12,1,,,,,ナモブッタ,0
1195,4370003007365,新規,0,2025-11-12,2025-11-12,合同会社あまねけあ,,合同会社,宮城県,大崎市,古川江合錦町２丁目７番２８号,,04,215,9896104,,,,,,,2025-11-12,1,,,,,アマネケア,0
1205,4430001095629,新規,0,2025-11-12,2025-11-12,株式会社ｓｅｎａＲｙ,,株式会社,北海道,札幌市中央区,宮の森二条６丁目４番１号１０１号,,01,101,0640952,,,,,,,2025-11-12,1,,,,,セナリー,0
1206,4430001095637,新規,0,2025-11-12,2025-11-12,株式会社Ｓ‐Ｌａｂ,,株式会社,北海道,札幌市中央区,南十二条西１３丁目１番２４‐５０２号,,01,101,0640912,,,,,,,2025-11-12,1,,,,,エスラボ,0
1220,4700150070867,新規,0,2025-11-12,2016-02-17,久米自治会,,その他,愛媛県,大洲市,阿蔵甲４６６番地２,,38,207,7950025,,,,,,,2016-02-17,1,,,,,クメジチカイ,0
1221,4700150070875,新規,0,2025-11-12,2016-02-17,田口地区自治会,,その他,愛媛県,大洲市,田口甲２２４０番地,,38,207,7950063,,,,,,,2016-02-17,1,,,,,タノクチチクジチカイ,0
1222,4700150070883,新規,0,2025-11-12,2016-02-17,新谷自治会,,その他,愛媛県,大洲市,新谷乙１５０７番地３,,38,207,7950071,,,,,,,2016-02-17,1,,,,,ニイヤジチカイ,0
1223,4700150070891,新規,0,2025-11-12,2016-02-17,櫛生地域自治会,,その他,愛媛県,大洲市,長浜町櫛生甲１９６番地３,,38,207,7993452,,,,,,,2016-02-17,1,,,,,クシユウチイキジチカイ,0
1235,5010001259745,新規,0,2025-11-12,2025-11-12,株式会社つぼみ,,株式会社,東京都,千代田区,五番町４－５五番町コスモビル３階,,13,101,1020076,,,,,,,2025-11-12,1,,,,,ツボミ,0
1236,5010001259992,新規,0,2025-11-12,2025-11-12,株式会社シミセー,,株式会社,東京都,中央区,銀座１丁目２２番１１号銀座大竹ビジデンス２Ｆ,,13,102,1040061,,,,,,,2025-11-12,1,,,,,シミセー,0
1237,5010001260026,新規,0,2025-11-12,2025-11-12,株式会社ＺｅｒｏＥｒｒ,,株式会社,東京都,中央区,日本橋室町１丁目１１番１２号日本橋水野ビル７階,,13,102,1030022,,,,,,,2025-11-12,1,,,,,ゼロエラー,0
1238,5010001260224,新規,0,2025-11-12,2025-11-12,アント・イノベーションズ株式会社,,株式会社,東京都,千代田区,大手町１丁目９番２号大手町フィナンシャルシティグランキューブ３階ＧｌｏｂａｌＢｕｓｉｎｅｓｓＨｕｂＴｏｋｙｏ,,13,101,1000004,,,,,,,2025-11-12,1,,,,,アントイノベーションズ,0
1239,5010001260240,新規,0,2025-11-12,2025-11-12,株式会社ＷＯＳＣＯホールディングス,,株式会社,東京都,中央区,日本橋小舟町１３番３号日本橋ＩＰビル２階,,13,102,1030024,,,,,,,2025-11-12,1,,,,,ウォスコホールディングス,0
1241,5010003049269,新規,0,2025-11-12,2025-11-12,セッションベース合同会社,,合同会社,東京都,千代田区,神田神保町３丁目１１番６号神保町ビル１０階,,13,101,1010051,,,,,,,2025-11-12,1,,,,,セッションベース,0
1242,5010003049368,新規,0,2025-11-12,2025-11-12,ＦＣＳ　ＬＶ‐５合同会社,,合同会社,東京都,中央区,銀座６丁目１０番１号,,13,102,1040061,,,,,,,2025-11-12,1,,,,,エフシーエスエルブイファイブ,0
1243,5010003049392,新規,0,2025-11-12,2025-11-12,ＳＭＬ　Ｅａｓｔ　Ａｓｉａ　Ｖｅｎｔｕｒｅｓ合同会社,,合同会社,東京都,中央区,新川１丁目１７番１８号,,13,102,1040033,,,,,,,2025-11-12,1,,,,,エスエムエルイーストアジアベンチャーズ,0
1244,5010005040837,新規,0,2025-11-12,2025-11-12,一般社団法人更年期健康経営協会,,その他の設立登記法人,東京都,文京区,本郷３丁目４番３号,,13,105,1130033,,,,,,,2025-11-12,1,,,,,コウネンキケンコウケイエイキョウカイ,0
1245,5010005040928,新規,0,2025-11-12,2025-11-12,ＤＧＦ１号一般社団法人,,その他の設立登記法人,東京都,中央区,日本橋１丁目４番１号日本橋一丁目ビルディング,,13,102,1030027,,,,,,,2025-11-12,1,,,,,ディージーエフイチゴウ,0
1255,5010401194162,新規,0,2025-11-12,2025-11-12,東京ミライデザイン株式会社,,株式会社,東京都,港区,西麻布３丁目２４－２１ヴィレッジ山村３０２号室,,13,103,1060031,,,,,,,2025-11-12,1,,,,,トウキョウミライデザイン,0
1256,5010401194352,新規,0,2025-11-12,2025-11-12,ＳＭＢＡ株式会社,,株式会社,東京都,港区,六本木４丁目８番７号六本木嶋田ビル５Ｆ,,13,103,1060032,,,,,,,2025-11-12,1,,,,,エスエムビーエー,0
1257,5010401194402,新規,0,2025-11-12,2025-11-12,株式会社ｎｏａ,,株式会社,東京都,港区,虎ノ門１丁目１６番６号虎ノ門ＲＡＰＯ－ＴＯビルＵＤＦ７階,,13,103,1050001,,,,,,,2025-11-12,1,,,,,ノア,0
1258,5010401194410,新規,0,2025-11-12,2025-11-12,株式会社ともりん,,株式会社,東京都,港区,六本木１丁目３番４０－１１０２号,,13,103,1060032,,,,,,,2025-11-12,1,,,,,,0
1263,5010403036445,新規,0,2025-11-12,2025-11-12,ＣＳ岩手一関合同会社,,合同会社,東京都,港区,虎ノ門２丁目４番７号Ｔ－ＬＩＴＥ１３階,,13,103,1050001,,,,,,,2025-11-12,1,,,,,シーエスイワテイチノセキ,0
1265,5010405024902,新規,0,2025-11-12,2025-11-12,一般社団法人東京ユニコーンサミット,,その他の設立登記法人,東京都,港区,北青山１丁目３番１号アールキューブ青山３階,,13,103,1070061,,,,,,,2025-11-12,1,,,,,トウキョウユニコーンサミット,0
1266,5010501055009,新規,0,2025-11-12,2025-11-12,勗亨恒利投資株式会社,,株式会社,東京都,台東区,台東１丁目２９－３イースタンクロスアキバ８０６号室,,13,106,1100016,,,,,,,2025-11-12,1,,,,,キョクキョウコウリトウシ,0
1271,5010601068273,新規,0,2025-11-12,2025-11-12,株式会社アトム,,株式会社,東京都,江東区,東雲１丁目９－４,,13,108,1350062,,,,,,,2025-11-12,1,,,,,アトム,0
1273,5010603011909,新規,0,2025-11-12,2025-11-12,ｒａｍｉｎｕ合同会社,,合同会社,東京都,江東区,有明１丁目３番１４－２３０７号,,13,108,1350063,,,,,,,2025-11-12,1,,,,,ラムイヌ,0
1275,5010701048539,新規,0,2025-11-12,2025-11-12,東日昇ホールディングス株式会社,,株式会社,東京都,品川区,西五反田２丁目９－７ドルミ五反田４０７号,,13,109,1410031,,,,,,,2025-11-12,1,,,,,ヒガシニッショウホールディングス,0
1287,5010903010412,新規,0,2025-11-12,2025-11-12,合同会社ＧａｋｕｈａＬｉｎｋ,,合同会社,東京都,世田谷区,玉川２丁目１１―６,,13,112,1580094,,,,,,,2025-11-12,1,,,,,ガクハリンク,0
1293,5011001173515,新規,0,2025-11-12,2025-11-12,外苑キャピタル株式会社,,株式会社,東京都,渋谷区,道玄坂１丁目１０番８号渋谷道玄坂東急ビル２Ｆ－Ｃ,,13,113,1500043,,,,,,,2025-11-12,1,,,,,ガイエンキャピタル,0
1294,5011003022975,新規,0,2025-11-12,2025-11-12,ＡＲＩＳＡＮＦＩＴ　ＨＯＬＤＩＮＧＳ合同会社,,合同会社,東京都,渋谷区,代々木３丁目５７―１０プロシード参宮橋６０３,,13,113,1510053,,,,,,,2025-11-12,1,,,,,アリサンフィットホールディングス,0
1296,5011101113833,新規,0,2025-11-12,2025-11-12,株式会社ＸＳＴＯＮＥ　Ａｓｉａ,,株式会社,東京都,新宿区,荒木町５－７－１４０１,,13,104,1600007,,,,,,,2025-11-12,1,,,,,エックスストーンアジア,0
1297,5011101113890,新規,0,2025-11-12,2025-11-12,ＡＲＫ　Ｒｉｓｅ株式会社,,株式会社,東京都,新宿区,西新宿３丁目３番１３号西新宿水間ビル２Ｆ,,13,104,1600023,,,,,,,2025-11-12,1,,,,,アークライズ,0
1300,5011301031034,新規,0,2025-11-12,2025-11-12,株式会社ベターハーベスト,,株式会社,東京都,杉並区,善福寺２丁目３６番１７号,,13,115,1670041,,,,,,,2025-11-12,1,,,,,ベターハーベスト,0
1303,5011603004919,新規,0,2025-11-12,2025-11-12,合同会社ムーンサービス商会,,合同会社,東京都,練馬区,春日町２丁目２８番２３号,,13,120,1790074,,,,,,,2025-11-12,1,,,,,ムーンサービスショウカイ,0
1305,5011703004455,新規,0,2025-11-12,2025-11-12,合同会社Ｌｏｃａ　Ｆａｍｉｌｉａ,,合同会社,東京都,江戸川区,中葛西３丁目３５－３こうや天忠ビル２Ｆ,,13,123,1340083,,,,,,,2025-11-12,1,,,,,ロカファミリア,0
1333,5021003016778,新規,0,2025-11-12,2025-11-12,合同会社Ｖｅｌｖｅｔ　Ｆｌｏｗ,,合同会社,神奈川県,鎌倉市,大船１丁目１２番１２号カサハラビル大船ＩＩ２０２号室,00141500,14,204,2470056,,,,,,,2025-11-12,1,,,,,ベルベットフロー,0
1334,5021003016786,新規,0,2025-11-12,2025-11-12,Ｇｏｏｄ　Ｍａｃｈｉｎｅ　Ｓｅｒｖｉｃｅ合同会社,,合同会社,神奈川県,平塚市,豊田小嶺３４８－６,,14,203,2540083,,,,,,,2025-11-12,1,,,,,,0
1341,5030001169661,新規,0,2025-11-12,2025-11-12,株式会社タタ,,株式会社,埼玉県,川口市,幸町２丁目７－２６シミズビル,,11,203,3320016,,,,,,,2025-11-12,1,,,,,タタ,0
1348,5030003028048,新規,0,2025-11-12,2025-11-12,合同会社ネクサード,,合同会社,埼玉県,ふじみ野市,上福岡１丁目４－２３－４０３,,11,245,3560004,,,,,,,2025-11-12,1,,,,,ネクサード,0
1354,5040001141272,新規,0,2025-11-12,2025-11-12,株式会社Ｕ‐ＮＥＮＴ,,株式会社,千葉県,浦安市,日の出２丁目９番９号,,12,227,2790013,,,,,,,2025-11-12,1,,,,,ユーネント,0
1355,5040001141355,新規,0,2025-11-12,2025-11-12,株式会社シスコムネットダイレクト,,株式会社,千葉県,千葉市緑区,古市場町６９１番地１,,12,105,2660026,,,,,,,2025-11-12,1,,,,,シスコムネットダイレクト,0
1358,5040003028947,新規,0,2025-11-12,2025-11-12,ＤＲＥＡＭ　ＣＯＮＮＥＣＴＩＯＮ合同会社,,合同会社,千葉県,成田市,吾妻１丁目２３番地ビレッジハウス成田吾妻タワー１４１２号,,12,211,2860018,,,,,,,2025-11-12,1,,,,,ドリームコネクション,0
1365,5060001038756,新規,0,2025-11-12,2025-11-12,ＦＵＮ　ＬＯＣＡＬ　Ｐａｒｔｎｅｒｓ株式会社,,株式会社,栃木県,宇都宮市,錦２丁目４番３号,,09,201,3210967,,,,,,,2025-11-12,1,,,,,ファンローカルパートナーズ,0
1370,5070001043516,新規,0,2025-11-12,2025-11-12,株式会社村岡商事,,株式会社,群馬県,太田市,東金井町３３３番地,,10,205,3730022,,,,,,,2025-11-12,1,,,,,ムラオカショウジ,0
1371,5070001043549,新規,0,2025-11-12,2025-11-12,株式会社アイ・クリエイト,,株式会社,群馬県,太田市,本町４６番３３号,,10,205,3730057,,,,,,,2025-11-12,1,,,,,アイクリエイト,0
1386,5100003008471,新規,0,2025-11-12,2025-11-12,合同会社松原商店,,合同会社,長野県,松本市,大字島立２６７番地２,,20,202,3900852,,,,,,,2025-11-12,1,,,,,マツバラショウテン,0
1404,5120001281878,新規,0,2025-11-12,2025-11-12,株式会社ファースト,,株式会社,大阪府,大阪市西成区,玉出東２丁目２番２４号２０２号,,27,122,5570043,,,,,,,2025-11-12,1,,,,,ファースト,0
1405,5120001281886,新規,0,2025-11-12,2025-11-12,株式会社ＲＩＳＥ,,株式会社,大阪府,大阪市浪速区,敷津西２丁目１番９－８０１号,,27,111,5560015,,,,,,,2025-11-12,1,,,,,ライズ,0
1406,5120001281903,新規,0,2025-11-12,2025-11-12,株式会社Ｇ,,株式会社,大阪府,大阪市都島区,東野田町５丁目２番２３号７０３号室,,27,102,5340024,,,,,,,2025-11-12,1,,,,,ジー,0
1407,5120001281911,新規,0,2025-11-12,2025-11-12,株式会社薪火,,株式会社,大阪府,大阪市中央区,島之内２丁目１０－１２－７１５号室,,27,128,5420082,,,,,,,2025-11-12,1,,,,,マキビ,0
1408,5120001281936,新規,0,2025-11-12,2025-11-12,株式会社Ｓｏｅｌｌ,,株式会社,大阪府,大阪市中央区,南船場３丁目２番２２号おおきに南船場ビル２０５,,27,128,5420081,,,,,,,2025-11-12,1,,,,,ソエル,0
1410,5120003031190,新規,0,2025-11-12,2025-11-12,Ｋ‐Ｆｅｎｇ　Ｔｅｃｈ合同会社,,合同会社,大阪府,大阪市港区,市岡元町１丁目６番１１－７０１号,,27,107,5520002,,,,,,,2025-11-12,1,,,,,カホウテック,0
1411,5120003031199,新規,0,2025-11-12,2025-11-12,合同会社ＭＡＲＵ,,合同会社,大阪府,大阪市天王寺区,南河堀町３番１６－４０２号,,27,109,5430054,,,,,,,2025-11-12,1,,,,,マル,0
1412,5120003031224,新規,0,2025-11-12,2025-11-12,合同会社ＢＡＭＪ　ｃｏｍｐａｎｙ,,合同会社,大阪府,大阪市中央区,北久宝寺町４丁目３番８号本町アーバンライフ５０８号,,27,128,5410057,,,,,,,2025-11-12,1,,,,,バムジェカンパニー,0
1428,5130001080998,新規,0,2025-11-12,2025-11-12,株式会社天音,,株式会社,京都府,京都市中京区,三条通神泉苑西入今新在家西町２５番地２,,26,104,6048801,,,,,,,2025-11-12,1,,,,,アマネ,0
1443,5140001140669,新規,0,2025-11-12,2025-11-12,株式会社ＵＮＴＩＴＬＥＤ,,株式会社,兵庫県,南あわじ市,潮美台２丁目１３番２号,,28,224,6560521,,,,,,,2025-11-12,1,,,,,アンタイトル,0
1444,5140001140677,新規,0,2025-11-12,2025-11-12,株式会社Ｋ．Ｍリンクス,,株式会社,兵庫県,加古川市,尾上町口里５１３番地の７,,28,210,6750022,,,,,,,2025-11-12,1,,,,,ケイエムリンクス,0
1454,5140005027680,新規,0,2025-11-12,2025-11-12,一般社団法人いやし乃,,その他の設立登記法人,兵庫県,神戸市須磨区,白川字平丁４０５番地,,28,107,6540101,,,,,,,2025-11-12,1,,,,,イヤシノ,0
1468,5180001169440,新規,0,2025-11-12,2025-11-12,株式会社カントナＦＣ,,株式会社,愛知県,名古屋市中区,栄３丁目３５番２２号ゴードン栄ビル５Ｆ,,23,106,4600008,,,,,,,2025-11-12,1,,,,,カントナエフシー,0
1469,5180001169481,新規,0,2025-11-12,2025-11-12,株式会社イーリス,,株式会社,愛知県,名古屋市中村区,城屋敷町２丁目２１番地の５,,23,105,4530058,,,,,,,2025-11-12,1,,,,,イーリス,0
1474,5200001044418,新規,0,2025-11-12,2025-11-12,株式会社善泉,,株式会社,岐阜県,可児市,下恵土３４２５番地１６,,21,214,5090203,,,,,,,2025-11-12,1,,,,,ゼンセン,0
1477,5200003007141,新規,0,2025-11-12,2025-11-12,合同会社ｔｅｃｈ,,合同会社,岐阜県,岐阜市,薮田南１丁目７－１６第一岐阜県ビル７０７－２,,21,201,5008384,,,,,,,2025-11-12,1,,,,,テック,0
1478,5210001020384,新規,0,2025-11-12,2025-11-12,株式会社直ｗｏｒｋｓ,,株式会社,福井県,越前市,稲寄町第１７号１２番地,,18,209,9150095,,,,,,,2025-11-12,1,,,,,チョクワークス,0
1486,5240001065765,新規,0,2025-11-12,2025-11-12,株式会社ＡＬＰＨＡＩＮ,,株式会社,広島県,広島市西区,南観音町１１番１９号,,34,104,7330034,,,,,,,2025-11-12,1,,,,,アルファイン,0
1492,5260001040683,新規,0,2025-11-12,2025-11-12,ｄａｎ株式会社,,株式会社,岡山県,岡山市南区,大福１９６－１２,,33,104,7010204,,,,,,,2025-11-12,1,,,,,ダン,0
1493,5260001040717,新規,0,2025-11-12,2025-11-12,ｋａｋｏｈａｃｈｉ株式会社,,株式会社,岡山県,岡山市南区,新保６８５番地１１,,33,104,7000945,,,,,,,2025-11-12,1,,,,,カコハチ,0
1494,5260001040725,新規,0,2025-11-12,2025-11-12,株式会社雪花造園,,株式会社,岡山県,岡山市東区,金田８１４番地３,,33,103,7048196,,,,,,,2025-11-12,1,,,,,ユキハナゾウエン,0
1499,5280001009545,新規,0,2025-11-12,2025-11-12,株式会社Ｃｌａｎ,,株式会社,島根県,益田市,あけぼの本町１０番地１１セルーラアケボノ１階,,32,204,6980026,,,,,,,2025-11-12,1,,,,,クラン,0
1504,5290001112117,新規,0,2025-11-12,2025-11-12,メインパーク株式会社,,株式会社,福岡県,糟屋郡志免町,王子１丁目２７番７号,,40,343,8112209,,,,,,,2025-11-12,1,,,,,メインパーク,0
1505,5290001112125,新規,0,2025-11-12,2025-11-12,株式会社八咫烏,,株式会社,福岡県,福岡市博多区,住吉３丁目８番３０－１４１０号エンクレスト博多ＳＴＹＬＥ,,40,132,8120018,,,,,,,2025-11-12,1,,,,,ヤタガラス,0
1506,5290001112141,新規,0,2025-11-12,2025-11-12,株式会社オプティマ伊都,,株式会社,福岡県,福岡市西区,泉１丁目２１番１０号,,40,135,8190381,,,,,,,2025-11-12,1,,,,,オプティマイト,0
1514,5300001014410,新規,0,2025-11-12,2025-11-12,株式会社松永造船所,,株式会社,佐賀県,唐津市,呼子町殿ノ浦１６７８番地,,41,202,8470304,,,,,,,2025-11-12,1,,,,,マツナガゾウセンジョ,0
1524,5350001019801,新規,0,2025-11-12,2025-11-12,株式会社Ｍｅａ　Ｓｔｅｌｌａ,,株式会社,宮崎県,都城市,姫城町１６街区１１号,,45,202,8850073,,,,,,,2025-11-12,1,,,,,ミアステラ,0
1529,5360003015384,新規,0,2025-11-12,2025-11-12,合同会社結心設備,,合同会社,沖縄県,宮古島市,平良字東仲宗根添１５２０番地６,,47,214,9060011,,,,,,,2025-11-12,1,,,,,ユイセツビ,0
1530,5360003015392,新規,0,2025-11-12,2025-11-12,名護産業合同会社,,合同会社,沖縄県,名護市,港１丁目１２番１－２０２号渡久地アパート,,47,209,9050014,,,,,,,2025-11-12,1,,,,,ナゴサンギョウ,0
1531,5370001053229,新規,0,2025-11-12,2025-11-12,株式会社ＡＩＲ　ＴＥＣＨ,,株式会社,宮城県,仙台市青葉区,折立４丁目６番２５号,,04,101,9893161,,,,,,,2025-11-12,1,,,,,エアテック,0
1534,5370003007364,新規,0,2025-11-12,2025-11-12,合同会社ほんわか,,合同会社,宮城県,石巻市,東中里１丁目１２番８号コーポサンライズＩＩ１０１号室,00141486,04,202,9860812,,,,,,,2025-11-12,1,,,,,ホンワカ,0
1536,5390001018155,新規,0,2025-11-12,2025-11-12,株式会社イワナロボティクス,,株式会社,山形県,鶴岡市,本町２丁目２－７,,06,203,9970034,,,,,,,2025-11-12,1,,,,,イワナロボティクス,0
1542,5420001019331,新規,0,2025-11-12,2025-11-12,株式会社建築工房相内,,株式会社,青森県,八戸市,大字湊町字館鼻２５番地２,,02,203,0310812,,,,,,,2025-11-12,1,,,,,ケンチクコウボウアイナイ,0
1545,5430001095644,新規,0,2025-11-12,2025-11-12,株式会社ウェルチューンド,,株式会社,北海道,岩見沢市,鳩が丘２丁目１７‐７,,01,210,0680828,,,,,,,2025-11-12,1,,,,,ウェルチューンド,0
1549,5460001006045,新規,0,2025-11-12,2025-11-12,株式会社八,,株式会社,北海道,釧路市,昭和中央１丁目３０番１８号,,01,206,0840910,,,,,,,2025-11-12,1,,,,,ハチ,0
1552,5470003003015,新規,0,2025-11-12,2025-11-12,合同会社好好,,合同会社,香川県,高松市,福岡町３丁目２６番７号,,37,201,7600066,,,,,,,2025-11-12,1,,,,,ハオハオ,0
1553,5480003002346,新規,0,2025-11-12,2025-11-12,Ａｃｈｉｅｖｅ合同会社,,合同会社,徳島県,徳島市,南昭和町３丁目３６番地１シャーメゾン清洋Ａ２０２号室,,36,201,7700944,,,,,,,2025-11-12,1,,,,,アチーブ,0
1554,5490001011208,新規,0,2025-11-12,2025-11-12,株式会社高知トランスポートホールディングス,,株式会社,高知県,高知市,仁井田４４８０番地３,,39,201,7810112,,,,,,,2025-11-12,1,,,,,コウチトランスポートホールディングス,0
1555,5500001026625,新規,0,2025-11-12,2025-11-12,株式会社ＯｎｅＦｉｅｌｄ,,株式会社,愛媛県,今治市,朝倉上甲１５４３番地,,38,202,7991607,,,,,,,2025-11-12,1,,,,,ワンフィールド,0
1557,5700150057368,新規,0,2025-11-12,2015-10-09,豊茂自治会,,その他,愛媛県,大洲市,豊茂甲５３２番地,,38,207,7993461,,,,,,,2015-10-09,1,,,,,トヨシゲジチカイ,0
1558,5700150070890,新規,0,2025-11-12,2016-02-17,今坊自治会,,その他,愛媛県,大洲市,長浜町今坊甲２０５４番地,,38,207,7993411,,,,,,,2016-02-17,1,,,,,コンボウジチカイ,0
1559,5700150070899,新規,0,2025-11-12,2016-02-17,岩谷地域自治会,,その他,愛媛県,大洲市,肱川町山鳥坂２５９２番地,,38,207,7971504,,,,,,,2016-02-17,1,,,,,イワヤチイキジチカイ,0
1568,6010001259942,新規,0,2025-11-12,2025-11-12,株式会社ＳＧ　Ｒｏａｄ,,株式会社,東京都,千代田区,神田須田町１丁目７番８号ＶＯＲＴ秋葉原ＩＶ２Ｆ,00141489,13,101,1010041,,,,,,,2025-11-12,1,,,,,エスジーロード,0
1569,6010001259959,新規,0,2025-11-12,2025-11-12,株式会社Ｔａｂｅｒｉａ,,株式会社,東京都,千代田区,神田三崎町３丁目６、１ＢＡＣＨビル２Ｆ,,13,101,1010061,,,,,,,2025-11-12,1,,,,,タベリア,0
1570,6010001260116,新規,0,2025-11-12,2025-11-12,京華株式会社,,株式会社,東京都,中央区,晴海５丁目４－１Ａ棟９１１室,,13,102,1040053,,,,,,,2025-11-12,1,,,,,キョウカ,0
1571,6010001260256,新規,0,2025-11-12,2025-11-12,株式会社プロダクト・レジストリ・サービス,,株式会社,東京都,千代田区,内幸町２丁目１番６号,,13,101,1000011,,,,,,,2025-11-12,1,,,,,プロダクトレジストリサービス,0
1574,6010003049094,新規,0,2025-11-12,2025-11-12,合同会社ノヴァス,,合同会社,東京都,中央区,銀座１丁目２２－１１,,13,102,1040061,,,,,,,2025-11-12,1,,,,,ノヴァス,0
1575,6010003049292,新規,0,2025-11-12,2025-11-12,Ｓｈｏｒｅｎｊｉ‐２ＢＥＳＳ合同会社,,合同会社,東京都,千代田区,霞が関３丁目２番６号東京倶楽部ビルディング１１階,,13,101,1000013,,,,,,,2025-11-12,1,,,,,ショウレンジツーベス,0
1576,6010003049383,新規,0,2025-11-12,2025-11-12,Ｔ＆Ｗ合同会社,,合同会社,東京都,千代田区,九段南３丁目７番１０－１１０１号,,13,101,1020074,,,,,,,2025-11-12,1,,,,,ティーアンドダブリュー,0
1577,6010003049391,新規,0,2025-11-12,2025-11-12,合同会社龍宝,,合同会社,東京都,中央区,銀座１丁目１２番４号Ｎ＆ＥＢＬＤ．６Ｆ,,13,102,1040061,,,,,,,2025-11-12,1,,,,,リュウホウ,0
1578,6010005040919,新規,0,2025-11-12,2025-11-12,永和商会一般社団法人,,その他の設立登記法人,東京都,千代田区,大手町１丁目７番２号東京サンケイビル２７階,,13,101,1000004,,,,,,,2025-11-12,1,,,,,エイワショウカイ,0
1590,6010401194450,新規,0,2025-11-12,2025-11-12,ＩＰ　Ｃｅｎｔｒａｌ株式会社,,株式会社,東京都,港区,西新橋３丁目５番２号,,13,103,1050003,,,,,,,2025-11-12,1,,,,,アイピーセントラル,0
1595,6010403036444,新規,0,2025-11-12,2025-11-12,ＣＳ北海道中ノ沢合同会社,,合同会社,東京都,港区,虎ノ門２丁目４番７号Ｔ－ＬＩＴＥ１３階,,13,103,1050001,,,,,,,2025-11-12,1,,,,,シーエスホッカイドウナカノサワ,0
1602,6010501054983,新規,0,2025-11-12,2025-11-12,株式会社シャルムココ,,株式会社,東京都,台東区,蔵前４丁目３１番１０号,,13,106,1110051,,,,,,,2025-11-12,1,,,,,シャルムココ,0
1603,6010501055016,新規,0,2025-11-12,2025-11-12,茜空メディア株式会社,,株式会社,東京都,台東区,柳橋１丁目１６番３号２Ｆ－Ａ,,13,106,1110052,,,,,,,2025-11-12,1,,,,,アカネソラメディア,0
1605,6010503008079,新規,0,2025-11-12,2025-11-12,合同会社ＦＣＦ,,合同会社,東京都,台東区,下谷１丁目１３番７－５０１号レジディア入谷,,13,106,1100004,,,,,,,2025-11-12,1,,,,,エフシーエフ,0
1608,6010801036772,新規,0,2025-11-12,2025-11-12,田中工機株式会社,,株式会社,東京都,大田区,西六郷２丁目４８番１０号,,13,111,1440056,,,,,,,2025-11-12,1,,,,,タナカコウキ,0
1610,6010901058436,新規,0,2025-11-12,2025-11-12,株式会社ＳＹＫ,,株式会社,東京都,世田谷区,砧４丁目１２番１２号マイステージ世田谷砧３０２号室,,13,112,1570073,,,,,,,2025-11-12,1,,,,,エスワイケー,0
1617,6011001173497,新規,0,2025-11-12,2025-11-12,株式会社エアノーツ,,株式会社,東京都,渋谷区,道玄坂１丁目１０番８号渋谷道玄坂東急ビル２Ｆ－Ｃ,,13,113,1500043,,,,,,,2025-11-12,1,,,,,エアノーツ,0
1618,6011001173514,新規,0,2025-11-12,2025-11-12,ＩＮＮＥＸＴ株式会社,,株式会社,東京都,渋谷区,円山町５番３号ＭＩＥＵＸ渋谷ビル８階,,13,113,1500044,,,,,,,2025-11-12,1,,,,,インネクスト,0
1621,6011101113832,新規,0,2025-11-12,2025-11-12,株式会社ＦＵＫＵＬＩＮＫ,,株式会社,東京都,新宿区,西新宿３丁目３番１３号西新宿水間ビル２階,,13,104,1600023,,,,,,,2025-11-12,1,,,,,フクリンク,0
1622,6011101113849,新規,0,2025-11-12,2025-11-12,株式会社アフロムーブ,,株式会社,東京都,新宿区,西早稲田２丁目２０－１２－１２０４,,13,104,1690051,,,,,,,2025-11-12,1,,,,,アフロムーブ,0
1624,6011105011644,新規,0,2025-11-12,2025-11-12,特定非営利活動法人Ｈｕｍａｎ　Ｈｉｓｔｏｒｉｅｓ,,その他の設立登記法人,東京都,新宿区,早稲田鶴巻町５７５番地１早稲田鶴巻町パークホームズ６０２,,13,104,1620041,,,,,,,2025-11-12,1,,,,,ヒューマンヒストリーズ,0
1627,6011301031041,新規,0,2025-11-12,2025-11-12,リバーアンドサンズ株式会社,,株式会社,東京都,杉並区,高円寺南４丁目７番３サンシャイン高円寺８０３号,,13,115,1660003,,,,,,,2025-11-12,1,,,,,リバーアンドサンズ,0
1629,6011501032797,新規,0,2025-11-12,2025-11-12,スマッシュサポート株式会社,,株式会社,東京都,北区,豊島１丁目３０－２飛鳥ハイム４０６,,13,117,1140003,,,,,,,2025-11-12,1,,,,,スマッシュサポート,0
1634,6012401043810,新規,0,2025-11-12,2025-11-12,株式会社ＵＴＵＬＩ建築設計,,株式会社,東京都,小金井市,梶野町２丁目２番１２号,,13,210,1840002,,,,,,,2025-11-12,1,,,,,ウツリケンチクセッケイ,0
1648,6020001165743,新規,0,2025-11-12,2025-11-12,株式会社ＡＭＣ　Ｉｂｕｋｉ,,株式会社,神奈川県,横浜市港北区,新横浜２丁目５番１０号楓第２ビル９階Ｂ室,,14,109,2220033,,,,,,,2025-11-12,1,,,,,エーエムシーイブキ,0
1653,6020003029748,新規,0,2025-11-12,2025-11-12,合同会社ＩＰ　Ｏｒｃｈｅｓｔｒａｔｅ,,合同会社,神奈川県,横浜市都筑区,高山１９番３－９１２号,,14,118,2240065,,,,,,,2025-11-12,1,,,,,アイピーオーケストレイト,0
1654,6020003029789,新規,0,2025-11-12,2025-11-12,合同会社Ｏ‐ＣＨＡＮ,,合同会社,神奈川県,川崎市宮前区,宮前平３丁目１１番地２７－３０６,,14,136,2160006,,,,,,,2025-11-12,1,,,,,オチャン,0
1665,6021003016785,新規,0,2025-11-12,2025-11-12,合同会社Ｔｏｋｎｉｘ,,合同会社,神奈川県,厚木市,森の里４丁目８－４,,14,212,2430122,,,,,,,2025-11-12,1,,,,,,0
1686,6040001141296,新規,0,2025-11-12,2025-11-12,ＡＲＥＹＯＵＧＯＩＮＧ株式会社,,株式会社,千葉県,銚子市,猿田町９５８番地,,12,202,2880855,,,,,,,2025-11-12,1,,,,,アーユーゴーイング,0
1687,6040001141338,新規,0,2025-11-12,2025-11-12,ユーコー産業株式会社,,株式会社,千葉県,市川市,原木３丁目１７番２４号リアライズ原木・７０５,,12,203,2720004,,,,,,,2025-11-12,1,,,,,ユーコー,0
1688,6040001141362,新規,0,2025-11-12,2025-11-12,株式会社Ｅｌａｖｉｓ,,株式会社,千葉県,千葉市中央区,宮崎町６２３番地１、３０２号,,12,101,2600805,,,,,,,2025-11-12,1,,,,,エラヴィス,0
1689,6040001141387,新規,0,2025-11-12,2025-11-12,株式会社ＳＨＩＲＯ,,株式会社,千葉県,我孫子市,新木３１７４番地の１３,,12,222,2701112,,,,,,,2025-11-12,1,,,,,シロ,0
1692,6040003028905,新規,0,2025-11-12,2025-11-12,合同会社ＤＵＰ,,合同会社,千葉県,船橋市,小室町２６８７番地,,12,204,2701471,,,,,,,2025-11-12,1,,,,,ディーユーピー,0
1703,6080401028255,新規,0,2025-11-12,2025-11-12,株式会社こてつ,,株式会社,静岡県,磐田市,上大之郷３６６番地３,,22,211,4380051,,,,,,,2025-11-12,1,,,,,コテツ,0
1706,6090001019595,新規,0,2025-11-12,2025-11-12,株式会社Ｔｙｍｒｙ　Ｏｆｆｉｃｅ,,株式会社,山梨県,富士吉田市,上暮地３丁目９－１,,19,202,4030001,,,,,,,2025-11-12,1,,,,,タイムリーオフィス,0
1707,6090001019604,新規,0,2025-11-12,2025-11-12,Ｖｉｎｅａ株式会社,,株式会社,山梨県,中央市,西新居１５６番地１グリーンプラザ４０５号室,,19,214,4093802,,,,,,,2025-11-12,1,,,,,ヴィネア,0
1710,6100001039105,新規,0,2025-11-12,2025-11-12,Ａｍｕｓａｎｔ株式会社,,株式会社,長野県,佐久市,原４０９番地１,,20,217,3850052,,,,,,,2025-11-12,1,,,,,アミュゾン,0
1713,6110001039715,新規,0,2025-11-12,2025-11-12,株式会社タナック工芸,,株式会社,新潟県,長岡市,小国町小国沢２５５６番地,,15,202,9495333,,,,,,,2025-11-12,1,,,,,タナックコウゲイ,0
1728,6120001281646,新規,0,2025-11-12,2025-11-12,株式会社ユニ・リンク,,株式会社,大阪府,大阪市中央区,南本町２丁目３番１２号ＥＤＧＥ本町ビル３階,,27,128,5410054,,,,,,,2025-11-12,1,,,,,ユニリンク,0
1729,6120001281704,新規,0,2025-11-12,2025-11-12,株式会社ＳＴＥＬＬＡ‐ＷＯＲＫＳ,,株式会社,大阪府,大阪市西区,立売堀５丁目６番１５号,,27,106,5500012,,,,,,,2025-11-12,1,,,,,ステラワークス,0
1730,6120001281794,新規,0,2025-11-12,2025-11-12,株式会社Ｕｎｉｔｙ　Ｌｉｎｋ,,株式会社,大阪府,守口市,橋波東之町３丁目４番３－４０２号,,27,209,5700031,,,,,,,2025-11-12,1,,,,,ユニティリンク,0
1731,6120001281844,新規,0,2025-11-12,2025-11-12,株式会社槙埜設備,,株式会社,大阪府,大阪市平野区,喜連東１丁目４番２６号,,27,126,5470021,,,,,,,2025-11-12,1,,,,,マキノセツビ,0
1732,6120001281869,新規,0,2025-11-12,2025-11-12,京信株式会社,,株式会社,大阪府,大阪市北区,豊崎４丁目４－８－１２０１,,27,127,5310072,,,,,,,2025-11-12,1,,,,,キョウシン,0
1733,6120001281885,新規,0,2025-11-12,2025-11-12,株式会社グランメール大阪,,株式会社,大阪府,大阪市天王寺区,北山町３番１６号,,27,109,5430035,,,,,,,2025-11-12,1,,,,,グランメールオオサカ,0
1734,6120001281893,新規,0,2025-11-12,2025-11-12,株式会社Ｏｃｔｏｐｕｓ,,株式会社,大阪府,大阪市中央区,内本町２丁目１番１９号内本町松屋ビル１０－３０１号,,27,128,5400026,,,,,,,2025-11-12,1,,,,,オクトパス,0
1735,6120001281902,新規,0,2025-11-12,2025-11-12,株式会社Ｕ,,株式会社,大阪府,大阪市都島区,東野田町５丁目２番２３号７０３号室,,27,102,5340024,,,,,,,2025-11-12,1,,,,,ユー,0
1736,6120001281910,新規,0,2025-11-12,2025-11-12,イノベマトリクス株式会社,,株式会社,大阪府,大阪市福島区,海老江２丁目１０－２２アクティ福島５Ｂ,,27,103,5530001,,,,,,,2025-11-12,1,,,,,イノベマトリクス,0
1737,6120001281919,新規,0,2025-11-12,2025-11-12,株式会社わんｌｉｆｅ,,株式会社,大阪府,大阪市淀川区,木川西３丁目５番１３－７０５号,,27,123,5320013,,,,,,,2025-11-12,1,,,,,ワンライフ,0
1743,6120003031082,新規,0,2025-11-12,2025-11-12,合同会社Ｗａｌｋｉｎ,,合同会社,大阪府,門真市,四宮３丁目５番４号,,27,223,5710017,,,,,,,2025-11-12,1,,,,,ウォーキン,0
1747,6120901051776,新規,0,2025-11-12,2025-11-12,たかつき共創パートナーズ株式会社,,株式会社,大阪府,高槻市,北大樋町４５番３号,,27,207,5690041,,,,,,,2025-11-12,1,,,,,タカツキキョウソウパートナーズ,0
1765,6140001140684,新規,0,2025-11-12,2025-11-12,株式会社やまでん,,株式会社,兵庫県,神戸市垂水区,舞多聞西８丁目７番２０号,,28,108,6550051,,,,,,,2025-11-12,1,,,,,ヤマデン,0
1766,6140001140791,新規,0,2025-11-12,2025-11-12,株式会社ＤＥ　ＣＲＥＡＴＩＶＥ,,株式会社,兵庫県,神戸市中央区,北長狭通３丁目１１－２グランパレ元町トアウエスト２０２,,28,110,6500012,,,,,,,2025-11-12,1,,,,,ディークリエイティブ,0
1782,6180003029344,新規,0,2025-11-12,2025-11-12,合同会社ＹＵＧＥ,,合同会社,愛知県,名古屋市千種区,春岡通７丁目３５‐９,,23,101,4640847,,,,,,,2025-11-12,1,,,,,ユゲ,0
1783,6180005021299,新規,0,2025-11-12,2025-11-12,一般社団法人ｐｌａｎｔ　ｔｈｅ　ＷＨＹ,,その他の設立登記法人,愛知県,あま市,甚目寺八尻１１２番地１,,23,237,4901111,,,,,,,2025-11-12,1,,,,,プラントザワイ,0
1784,6180005021308,新規,0,2025-11-12,2025-11-12,社会保険労務士法人Ｔ＆Ｍ　Ｎａｇｏｙａ,,その他の設立登記法人,愛知県,名古屋市中区,丸の内２丁目１４番４号,,23,106,4600002,,,,,,,2025-11-12,1,,,,,ティーアンドエムナゴヤ,0
1786,6180301040382,新規,0,2025-11-12,2025-11-12,株式会社アウラ,,株式会社,愛知県,安城市,緑町１丁目２８番地７,,23,212,4460055,,,,,,,2025-11-12,1,,,,,アウラ,0
1787,6180301040408,新規,0,2025-11-12,2025-11-12,株式会社ララナビア,,株式会社,愛知県,蒲郡市,清田町小栗見１番地９３,,23,214,4430002,,,,,,,2025-11-12,1,,,,,ララナビア,0
1789,6190003005253,新規,0,2025-11-12,2025-11-12,合同会社ジェイアンドビーサポート,,合同会社,三重県,桑名市,長島町大倉１番地２９１,,24,205,5111112,,,,,,,2025-11-12,1,,,,,ジェイアンドビーサポート,0
1792,6200001044417,新規,0,2025-11-12,2025-11-12,株式会社メカネクト,,株式会社,岐阜県,瑞穂市,七崎１４８番地,,21,216,5010301,,,,,,,2025-11-12,1,,,,,メカネクト,0
1794,6200005013814,新規,0,2025-11-12,2025-11-12,一般社団法人丸嘉工業親睦会,,その他の設立登記法人,岐阜県,各務原市,金属団地６８番地,,21,213,5040957,,,,,,,2025-11-12,1,,,,,マルヨシコウギョウシンボクカイ,0
1797,6240003007475,新規,0,2025-11-12,2025-11-12,エアロフォージ合同会社,,合同会社,広島県,広島市安佐南区,西原１丁目５－９－６０７,,34,105,7310113,,,,,,,2025-11-12,1,,,,,エアロフォージ,0
1799,6260001040716,新規,0,2025-11-12,2025-11-12,ｓｕｉｈａｃｈｉ株式会社,,株式会社,岡山県,岡山市南区,新保６８５番地１１,,33,104,7000945,,,,,,,2025-11-12,1,,,,,スイハチ,0
1805,6290001112116,新規,0,2025-11-12,2025-11-12,株式会社宗像動画製作所,,株式会社,福岡県,宗像市,東郷５丁目８番８号,,40,220,8113436,,,,,,,2025-11-12,1,,,,,ムナカタドウガセイサクジョ,0
1806,6290001112124,新規,0,2025-11-12,2025-11-12,テルモプランニング株式会社,,株式会社,福岡県,福岡市中央区,天神１丁目９番１７号福岡天神フコク生命ビル１５階,,40,133,8100001,,,,,,,2025-11-12,1,,,,,テルモプランニング,0
1807,6290001112157,新規,0,2025-11-12,2025-11-12,株式会社Ｇｅｎ　ＣＸＯ　Ｓｔｕｄｉｏ,,株式会社,福岡県,福岡市中央区,大名１丁目３－４１プリオ大名ビル２階,,40,133,8100041,,,,,,,2025-11-12,1,,,,,ジェンシーエックスオースタジオ,0
1816,6290801032026,新規,0,2025-11-12,2025-11-12,アイエーエム株式会社,,株式会社,福岡県,北九州市小倉北区,原町２丁目２番１４号,,40,106,8030815,,,,,,,2025-11-12,1,,,,,アイエーエム,0
1827,6330001033737,新規,0,2025-11-12,2025-11-12,株式会社すゑひろがり,,株式会社,熊本県,球磨郡錦町,大字西字打越７１５番地１６６,,43,501,8680303,,,,,,,2025-11-12,1,,,,,スエヒロガリ,0
1830,6330003011311,新規,0,2025-11-12,2025-11-12,合同会社ＳＥＳＳＩＯＮ,,合同会社,熊本県,上益城郡益城町,大字福富８６５番地１福富団地Ｂ棟１０２号,,43,443,8612235,,,,,,,2025-11-12,1,,,,,セッション,0
1833,6360003015367,新規,0,2025-11-12,2025-11-12,合同会社Ｆｌｙｙｙｙｙ,,合同会社,沖縄県,沖縄市,与儀１丁目３６番２３号ＭａｎｓｉｏｎＯｌｉｖｅ２０１号室,,47,211,9042174,,,,,,,2025-11-12,1,,,,,フライ,0
1834,6360003015391,新規,0,2025-11-12,2025-11-12,ＯＬＩＶＥＲＬＡＮＤ．合同会社,,合同会社,沖縄県,那覇市,具志３丁目２５－３－１階,,47,201,9010146,,,,,,,2025-11-12,1,,,,,オリバーランド,0
1855,6430001095635,新規,0,2025-11-12,2025-11-12,株式会社Ａｕｒａ,,株式会社,北海道,札幌市中央区,北四条西２０丁目２－１Ｎｏｒｄ４２０ビル３０５号室,,01,101,0640824,,,,,,,2025-11-12,1,,,,,オーラ,0
1856,6430001095668,新規,0,2025-11-12,2025-11-12,株式会社ＹＭＴ,,株式会社,北海道,札幌市白石区,川北２２５６番地５３,,01,104,0030859,,,,,,,2025-11-12,1,,,,,ワイエムティー,0
1866,6500001026624,新規,0,2025-11-12,2025-11-12,株式会社ＥｎＣｏｕｎｔｅｒ,,株式会社,愛媛県,東温市,見奈良１４３５番２,,38,215,7910211,,,,,,,2025-11-12,1,,,,,エンカウンター,0
1867,6700150070873,新規,0,2025-11-12,2016-02-17,五郎自治会,,その他,愛媛県,大洲市,五郎甲２０７２番地,,38,207,7950051,,,,,,,2016-02-17,1,,,,,ゴロウジチカイ,0
1868,6700150070881,新規,0,2025-11-12,2016-02-17,大川自治会,,その他,愛媛県,大洲市,森山乙４３７番地７,,38,207,7950087,,,,,,,2016-02-17,1,,,,,オオカワジチカイ,0
1881,7010001260040,新規,0,2025-11-12,2025-11-12,クロスボーダーリアルティ株式会社,,株式会社,東京都,中央区,銀座８丁目８番５号陽栄銀座ビル４階,,13,102,1040061,,,,,,,2025-11-12,1,,,,,クロスボーダーリアルティ,0
1882,7010001260230,新規,0,2025-11-12,2025-11-12,ミライシゲン株式会社,,株式会社,東京都,中央区,日本橋本石町３丁目３－５三友常盤橋ビル,,13,102,1030021,,,,,,,2025-11-12,1,,,,,ミライシゲン,0
1883,7010001260239,新規,0,2025-11-12,2025-11-12,富士エステート株式会社,,株式会社,東京都,文京区,本郷３丁目４２番３号,,13,105,1130033,,,,,,,2025-11-12,1,,,,,フジエステート,0
1887,7010003049291,新規,0,2025-11-12,2025-11-12,ＯＴＤ‐２ＢＥＳＳ合同会社,,合同会社,東京都,千代田区,霞が関３丁目２番６号東京倶楽部ビルディング１１階,,13,101,1000013,,,,,,,2025-11-12,1,,,,,オーティーディーツーベス,0
1888,7010003049374,新規,0,2025-11-12,2025-11-12,ミューブルー合同会社,,合同会社,東京都,中央区,京橋２丁目１２番６号ＡＯＪ税理士法人内,,13,102,1040031,,,,,,,2025-11-12,1,,,,,ミューブルー,0
1892,7010005040918,新規,0,2025-11-12,2025-11-12,一般社団法人ミューブルー,,その他の設立登記法人,東京都,中央区,京橋２丁目１２番６号ＡＯＪ税理士法人内,,13,102,1040031,,,,,,,2025-11-12,1,,,,,ミューブルー,0
1901,7010401194210,新規,0,2025-11-12,2025-11-12,ＲａＹ株式会社,,株式会社,東京都,港区,新橋２丁目１６番１号ニュー新橋ビル９Ｆ,,13,103,1050004,,,,,,,2025-11-12,1,,,,,レイ,0
1902,7010401194318,新規,0,2025-11-12,2025-11-12,株式会社ｓｕｉ,,株式会社,東京都,港区,南青山１丁目１５番１８号,,13,103,1070062,,,,,,,2025-11-12,1,,,,,スイ,0
1903,7010401194409,新規,0,2025-11-12,2025-11-12,株式会社あかりん,,株式会社,東京都,港区,六本木１丁目３番４０－１１０２号,,13,103,1060032,,,,,,,2025-11-12,1,,,,,,0
1907,7010405024974,新規,0,2025-11-12,2025-11-12,一般社団法人赤坂・虎ノ門サステナブルシティコンソーシアム,,その他の設立登記法人,東京都,港区,赤坂１丁目８番１号,,13,103,1070052,,,,,,,2025-11-12,1,,,,,アカサカトラノモンサステナブルシティコンソーシアム,0
1908,7010405024990,新規,0,2025-11-12,2025-11-12,ライツグループ社会保険労務士法人,,その他の設立登記法人,東京都,港区,赤坂８丁目５番４０号,,13,103,1070052,,,,,,,2025-11-12,1,,,,,ライツグループ,0
1909,7010405025007,新規,0,2025-11-12,2025-11-12,Ｉｒｉｄｉｕｍ特定目的会社,,その他の設立登記法人,東京都,港区,六本木１丁目９番１０号アークヒルズ仙石山森タワー４０階,,13,103,1060032,,,,,,,2025-11-12,1,,,,,イリジウム,0
1920,7010901058427,新規,0,2025-11-12,2025-11-12,株式会社Ｔｅｃｅｎｄｌｙ,,株式会社,東京都,世田谷区,太子堂４丁目１８番１５号マガザン三軒茶屋２－３Ｆ－３,,13,112,1540004,,,,,,,2025-11-12,1,,,,,テセンドリー,0
1924,7010903010402,新規,0,2025-11-12,2025-11-12,合同会社なないろ,,合同会社,東京都,世田谷区,下馬４丁目１５番７号,,13,112,1540002,,,,,,,2025-11-12,1,,,,,ナナイロ,0
1932,7011001173488,新規,0,2025-11-12,2025-11-12,株式会社Ｐｒｉｄｅ　Ｓ,,株式会社,東京都,渋谷区,渋谷２丁目１２番１３号八千代ビル８階,,13,113,1500002,,,,,,,2025-11-12,1,,,,,プライドエス,0
1933,7011001173513,新規,0,2025-11-12,2025-11-12,株式会社Ｍｏｇｇ,,株式会社,東京都,渋谷区,西原２丁目３８番１１号ｕｎｃｈａｒｍｅｎｉｓｈｉｈａｒａ１０１,,13,113,1510066,,,,,,,2025-11-12,1,,,,,モグ,0
1934,7011001173595,新規,0,2025-11-12,2025-11-12,Ｃｏｄｅｒｌｅｓｓ株式会社,,株式会社,東京都,渋谷区,代々木２丁目２０番１９－２０２号,,13,113,1510053,,,,,,,2025-11-12,1,,,,,コーダーレス,0
1937,7011101113831,新規,0,2025-11-12,2025-11-12,株式会社ＪＳＤ,,株式会社,東京都,新宿区,大久保１丁目１６－２８第一大久保マンション５０３,,13,104,1690072,,,,,,,2025-11-12,1,,,,,ジェーエスディー,0
1938,7011101113856,新規,0,2025-11-12,2025-11-12,株式会社ＳＯＵＬＩＮＫ　ＳＴＵＤＩＯ,,株式会社,東京都,新宿区,北新宿３丁目１３－１Ｓｓｋマンション１Ｆ,,13,104,1690074,,,,,,,2025-11-12,1,,,,,ソーリンクスタジオ,0
1939,7011103016660,新規,0,2025-11-12,2025-11-12,日の丸航空合同会社,,合同会社,東京都,新宿区,新宿１丁目３６番２号新宿第七葉山ビル３階,,13,104,1600022,,,,,,,2025-11-12,1,,,,,ヒノマルコウクウ,0
1941,7011203004879,新規,0,2025-11-12,2025-11-12,ＡＩクリエイターズ合同会社,,合同会社,東京都,中野区,本町２丁目４６番１号中野坂上サンライトツイン１４階,,13,114,1640012,,,,,,,2025-11-12,1,,,,,エイアイクリエイターズ,0
1945,7011303005769,新規,0,2025-11-12,2025-11-12,Ｍｕｒａｌａｎｄ合同会社,,合同会社,東京都,杉並区,堀ノ内２丁目２０番１５号,,13,115,1660013,,,,,,,2025-11-12,1,,,,,ムラランド,0
1947,7011401027566,新規,0,2025-11-12,2025-11-12,株式会社Ｍｅｒｃｘｉｏｎ,,株式会社,東京都,板橋区,東山町６番１１号,,13,119,1740073,,,,,,,2025-11-12,1,,,,,マークシオン,0
1956,7011701028900,新規,0,2025-11-12,2025-11-12,ラッキー交通株式会社,,株式会社,東京都,江戸川区,春江町２丁目４１番３号,,13,123,1320003,,,,,,,2025-11-12,1,,,,,ラッキーコウツウ,0
1959,7011801047049,新規,0,2025-11-12,2025-11-12,株式会社ネクサス・エステート,,株式会社,東京都,葛飾区,お花茶屋１丁目１３番４号カーサ・ビアンカ２０１号,,13,122,1240003,,,,,,,2025-11-12,1,,,,,ネクサスエステート,0
1967,7012703003412,新規,0,2025-11-12,2025-11-12,合同会社Ｈｉｒａｉ　Ｍｅｄ．Ｃｏｎｓｕｌｔｉｎｇ,,合同会社,東京都,小平市,学園西町２丁目１１‐９‐１,,13,211,1870045,,,,,,,2025-11-12,1,,,,,ヒライメディカルコンサルティング,0
1973,7020001165783,新規,0,2025-11-12,2025-11-12,株式会社プレミアム,,株式会社,神奈川県,川崎市川崎区,本町２丁目１０番１５号トップ川崎第５マンション８０１,,14,131,2100001,,,,,,,2025-11-12,1,,,,,プレミアム,0
1988,7030001169370,新規,0,2025-11-12,2025-11-12,株式会社ＯＲＵＮＥ,,株式会社,埼玉県,越谷市,南町３丁目１５番１４号ブランドールＫ２０３,,11,222,3430832,,,,,,,2025-11-12,1,,,,,オルーネ,0
1989,7030001169593,新規,0,2025-11-12,2025-11-12,株式会社ホモ・ルーデンス,,株式会社,埼玉県,所沢市,けやき台１丁目１５番地の５グランヴィルけやき台５０３,,11,208,3591118,,,,,,,2025-11-12,1,,,,,ホモルーデンス,0
2003,7040001141337,新規,0,2025-11-12,2025-11-12,株式会社Ｋ,,株式会社,千葉県,市原市,五井中央西１丁目２１番地１９,,12,219,2900081,,,,,,,2025-11-12,1,,,,,ケイ,0
2004,7040001141353,新規,0,2025-11-12,2025-11-12,ＮＥＳＴ　ＷＯＲＫＳ株式会社,,株式会社,千葉県,柏市,光ケ丘２丁目９番１４－２号,,12,217,2770065,,,,,,,2025-11-12,1,,,,,ネストワークス,0
2005,7040001141361,新規,0,2025-11-12,2025-11-12,株式会社ヴィガゲームス,,株式会社,千葉県,市川市,入船６番７号,,12,203,2720134,,,,,,,2025-11-12,1,,,,,,0
2010,7040003028912,新規,0,2025-11-12,2025-11-12,合同会社かけわアグリファーム,,合同会社,千葉県,香取市,堀之内２２９８番地,,12,236,2870066,,,,,,,2025-11-12,1,,,,,カケワアグリファーム,0
2021,7060001038754,新規,0,2025-11-12,2025-11-12,株式会社ＫＡＭＡＤＯ　ＬＡＢ,,株式会社,栃木県,芳賀郡芳賀町,大字下高根沢４０２９番地６,,09,345,3213321,,,,,,,2025-11-12,1,,,,,カマドラボ,0
2023,7070001043547,新規,0,2025-11-12,2025-11-12,株式会社すまいる,,株式会社,群馬県,伊勢崎市,波志江町４１５６番地７,,10,204,3720001,,,,,,,2025-11-12,1,,,,,スマイル,0
2024,7080001027268,新規,0,2025-11-12,2025-11-12,株式会社ＴＩＰ,,株式会社,静岡県,藤枝市,平島７１５番地の１,,22,214,4260011,,,,,,,2025-11-12,1,,,,,チップ,0
2026,7080101025898,新規,0,2025-11-12,2025-11-12,株式会社岩間工業,,株式会社,静岡県,富士市,大淵８１９２番地の５,,22,210,4170801,,,,,,,2025-11-12,1,,,,,イワマコウギョウ,0
2033,7100003008478,新規,0,2025-11-12,2025-11-12,合同会社Ｒｅａｌｉｚｅ,,合同会社,長野県,長野市,稲里町中央３丁目３番２７号,,20,201,3812217,,,,,,,2025-11-12,1,,,,,リアライズ,0
2037,7110001039714,新規,0,2025-11-12,2025-11-12,オズ株式会社,,株式会社,新潟県,見附市,上新田町５１３番地１,,15,211,9540112,,,,,,,2025-11-12,1,,,,,オズ,0
2050,7120001281728,新規,0,2025-11-12,2025-11-12,トーヨーＣＬＥＡＮ株式会社,,株式会社,大阪府,大阪市浪速区,戎本町１丁目４－１８,,27,111,5560013,,,,,,,2025-11-12,1,,,,,トーヨークリーニング,0
2051,7120001281785,新規,0,2025-11-12,2025-11-12,株式会社レバリューシェア,,株式会社,大阪府,大阪市中央区,徳井町１丁目２－１４東和ビル２０１号室,,27,128,5400025,,,,,,,2025-11-12,1,,,,,レバリューシェア,0
2052,7120001281802,新規,0,2025-11-12,2025-11-12,株式会社ＣＯＮ‐ＮＥＣＴ,,株式会社,大阪府,大阪市北区,西天満５丁目６番２０－１２０５号,,27,127,5300047,,,,,,,2025-11-12,1,,,,,コンネクト,0
2053,7120001281819,新規,0,2025-11-12,2025-11-12,株式会社ＬＡＮＤＣＲＥＳＴ,,株式会社,大阪府,大阪市北区,鶴野町３番９－３６０４号,,27,127,5300014,,,,,,,2025-11-12,1,,,,,ランドクエスト,0
2054,7120001281843,新規,0,2025-11-12,2025-11-12,慕叡娯樂株式会社,,株式会社,大阪府,大阪市浪速区,恵美須西２丁目１２番１９－４０１号,,27,111,5560003,,,,,,,2025-11-12,1,,,,,ボエイゴラク,0
2055,7120001281901,新規,0,2025-11-12,2025-11-12,株式会社Ｋ,,株式会社,大阪府,大阪市都島区,東野田町５丁目２番２３号７０３号室,,27,102,5340024,,,,,,,2025-11-12,1,,,,,ケー,0
2056,7120003030752,新規,0,2025-11-12,2025-11-12,合同会社Ｆｉｒｓｔ　Ｓｔｅｐ,,合同会社,大阪府,大阪市北区,野崎町７－８梅田パークビル３階,,27,127,5300055,,,,,,,2025-11-12,1,,,,,ファーストステップ,0
2057,7120003031214,新規,0,2025-11-12,2025-11-12,Ｍｏｒｉ　ｎｏ　Ｔｅ合同会社,,合同会社,大阪府,大阪市住之江区,南港北１丁目２５番１０－１６２１号,,27,125,5590034,,,,,,,2025-11-12,1,,,,,モリノテ,0
2065,7120101072762,新規,0,2025-11-12,2025-11-12,株式会社錦,,株式会社,大阪府,岸和田市,尾生町４４３番地,,27,202,5960816,,,,,,,2025-11-12,1,,,,,ニシキ,0
2073,7120901051767,新規,0,2025-11-12,2025-11-12,ＡＳＡＤＡホールディングス株式会社,,株式会社,大阪府,高槻市,大塚町４丁目１２番５号,,27,207,5690034,,,,,,,2025-11-12,1,,,,,アサダホールディングス,0
2074,7120901051783,新規,0,2025-11-12,2025-11-12,株式会社アロー,,株式会社,大阪府,高槻市,柱本新町３番８号,,27,207,5690846,,,,,,,2025-11-12,1,,,,,アロー,0
2100,7140003022822,新規,0,2025-11-12,2025-11-12,合同会社ＲＥＮＯ,,合同会社,兵庫県,川西市,緑台３丁目３番６２号,,28,217,6660129,,,,,,,2025-11-12,1,,,,,リノ,0
2104,7160001027227,新規,0,2025-11-12,2025-11-12,株式会社結,,株式会社,滋賀県,高島市,安曇川町北船木２１２４番地,,25,212,5201232,,,,,,,2025-11-12,1,,,,,ユイ,0
2106,7170001018869,新規,0,2025-11-12,2025-11-12,株式会社ＳＡＮＥＩ,,株式会社,和歌山県,東牟婁郡太地町,大字太地２９７３番地の４－５Ｆ,,30,422,6495171,,,,,,,2025-11-12,1,,,,,サンエイ,0
2116,7190001032686,新規,0,2025-11-12,2025-11-12,株式会社よし六,,株式会社,三重県,志摩市,大王町船越１８２番地１４,,24,215,5170604,,,,,,,2025-11-12,1,,,,,ヨシロク,0
2118,7200001044424,新規,0,2025-11-12,2025-11-12,株式会社あすか,,株式会社,岐阜県,羽島郡岐南町,八剣１丁目１１番地,,21,302,5016012,,,,,,,2025-11-12,1,,,,,アスカ,0
2119,7210001020382,新規,0,2025-11-12,2025-11-12,株式会社ＰＧＲ,,株式会社,福井県,福井市,志比口２丁目３番１３号,,18,201,9100845,,,,,,,2025-11-12,1,,,,,ピージーアール,0
2121,7220001027022,新規,0,2025-11-12,2025-11-12,株式会社ヨシダサービス,,株式会社,石川県,金沢市,四王寺町ル８番地,,17,201,9200166,,,,,,,2025-11-12,1,,,,,ヨシダサービス,0
2128,7230003002534,新規,0,2025-11-12,2025-11-12,合同会社木造住宅耐震改修研究所,,合同会社,富山県,砺波市,太田１８１５番地,,16,208,9391315,,,,,,,2025-11-12,1,,,,,モクゾウジュウタクタイシンカイシュウケンキュウジョ,0
2129,7240001065771,新規,0,2025-11-12,2025-11-12,株式会社ＬｅａＤｒｅａｍ,,株式会社,広島県,広島市西区,竜王町１２番１－６１１号,,34,104,7330803,,,,,,,2025-11-12,1,,,,,リードリーム,0
2130,7240003007482,新規,0,2025-11-12,2025-11-12,ｎｅｘｔｇｅｎ　ｍｅｄｉｃａｌ　ｓｙｓｔｅｍｓ合同会社,,合同会社,広島県,広島市西区,観音新町３丁目１０番３２－２号,,34,104,7330036,,,,,,,2025-11-12,1,,,,,ネクスジェンメディカルシステムズ,0
2131,7250001021427,新規,0,2025-11-12,2025-11-12,株式会社ＩＳＨＩＮ,,株式会社,山口県,下関市,大字吉田１番地１,,35,201,7501101,,,,,,,2025-11-12,1,,,,,イシン,0
2141,7290001112008,新規,0,2025-11-12,2025-11-12,株式会社ＲＡＣ,,株式会社,福岡県,筑紫野市,大字阿志岐２１５５番地,,40,217,8180011,,,,,,,2025-11-12,1,,,,,ラック,0
2142,7290001112131,新規,0,2025-11-12,2025-11-12,株式会社アマル,,株式会社,福岡県,福岡市南区,玉川町６番３１－４０１号Ｒｏｏｘ高宮ＩＩ,00141482,40,134,8150037,,,,,,,2025-11-12,1,,,,,アマル,0
2143,7290001112156,新規,0,2025-11-12,2025-11-12,株式会社ＪＴＳロジ,,株式会社,福岡県,糟屋郡久山町,大字山田１７３２番地１－１０１,,40,348,8112502,,,,,,,2025-11-12,1,,,,,ジェーティーエスロジ,0
2156,7320001021436,新規,0,2025-11-12,2025-11-12,Ｐｈａｒｎｅｘｕｓ株式会社,,株式会社,大分県,津久見市,大字網代９５番地２５,,44,207,8792682,,,,,,,2025-11-12,1,,,,,ファーネクサス,0
2159,7330001033752,新規,0,2025-11-12,2025-11-12,ビベル株式会社,,株式会社,熊本県,熊本市中央区,新市街３－６いしはらビル２階,,43,101,8600803,,,,,,,2025-11-12,1,,,,,ビベル,0
2174,7360003015390,新規,0,2025-11-12,2025-11-12,合同会社Ｎｕａｇｅ　Ｋｉｄｓ,,合同会社,沖縄県,うるま市,字喜屋武６４７番地５,,47,213,9042225,,,,,,,2025-11-12,1,,,,,ニュアージュキッズ,0
2178,7370001053227,新規,0,2025-11-12,2025-11-12,ハタナカ株式会社,,株式会社,宮城県,登米市,迫町佐沼字内町５１番地９,,04,212,9870511,,,,,,,2025-11-12,1,,,,,ハタナカ,0
2182,7380001035686,新規,0,2025-11-12,2025-11-12,しのざき不動産管理株式会社,,株式会社,福島県,郡山市,堤下町５番１号,,07,203,9638878,,,,,,,2025-11-12,1,,,,,シノザキフドウサンカンリ,0
2185,7400005008529,新規,0,2025-11-12,2025-11-12,特定非営利活動法人大船渡市学童保育協会,,その他の設立登記法人,岩手県,大船渡市,盛町字沢川３０番地,,03,203,0220003,,,,,,,2025-11-12,1,,,,,,0
2194,7430001095642,新規,0,2025-11-12,2025-11-12,株式会社ＳＥＣＴ,,株式会社,北海道,札幌市白石区,中央三条５丁目７番３０－３０２号,,01,104,0030013,,,,,,,2025-11-12,1,,,,,セクト,0
2195,7430001095650,新規,0,2025-11-12,2025-11-12,株式会社ＭＫＳ５１,,株式会社,北海道,札幌市中央区,大通西３丁目８番地１,,01,101,0600042,,,,,,,2025-11-12,1,,,,,エムケーエスゴーイチ,0
2196,7430003018262,新規,0,2025-11-12,2025-11-12,合同会社ダイナリ,,合同会社,北海道,札幌市中央区,南一条西１丁目１６番地４－１１０４,,01,101,0600061,,,,,,,2025-11-12,1,,,,,ダイナリ,0
2197,7430003018304,新規,0,2025-11-12,2025-11-12,合同会社グランディール,,合同会社,北海道,札幌市白石区,東米里２５０２番１６,,01,104,0030876,,,,,,,2025-11-12,1,,,,,グランディール,0
2198,7430003018312,新規,0,2025-11-12,2025-11-12,合同会社Ｂ．Ｍ．Ｗ,,合同会社,北海道,札幌市白石区,菊水上町二条１丁目４７番地１７１,,01,104,0030812,,,,,,,2025-11-12,1,,,,,ビーエムダブリュー,0
2199,7440001009709,新規,0,2025-11-12,2025-11-12,中塚ホールディングス株式会社,,株式会社,北海道,松前郡福島町,字三岳７３番地の１,,01,332,0491331,,,,,,,2025-11-12,1,,,,,ナカツカホールディングス,0
2202,7470003003013,新規,0,2025-11-12,2025-11-12,合同会社Ｈｏｎｅｓｔ,,合同会社,香川県,高松市,香西西町２７７番地１,,37,201,7618015,,,,,,,2025-11-12,1,,,,,オネスト,0
2203,7480003002352,新規,0,2025-11-12,2025-11-12,うみとまちの合同会社,,合同会社,徳島県,海部郡美波町,奥河内字寺前１８１黒岩縫製２階,,36,387,7792305,,,,,,,2025-11-12,1,,,,,ウミトマチノ,0
2207,7500001026623,新規,0,2025-11-12,2025-11-12,株式会社フルライズ,,株式会社,愛媛県,松山市,姫原３丁目６番４０号ネオハイツ姫原６０６号,,38,201,7918012,,,,,,,2025-11-12,1,,,,,フルライズ,0
2209,7700150070880,新規,0,2025-11-12,2016-02-17,菅田自治会,,その他,愛媛県,大洲市,菅田町菅田甲７４０番地,,38,207,7950081,,,,,,,2016-02-17,1,,,,,スゲタジチカイ,0
2210,7700150070897,新規,0,2025-11-12,2016-02-17,正山自治会,,その他,愛媛県,大洲市,肱川町名荷谷１８８４番地２,,38,207,7971502,,,,,,,2016-02-17,1,,,,,シヨウザンジチカイ,0
2216,8010001260147,新規,0,2025-11-12,2025-11-12,株式会社たなこラボ,,株式会社,東京都,中央区,佃１丁目５番７号,,13,102,1040051,,,,,,,2025-11-12,1,,,,,タナコラボ,0
2217,8010001260221,新規,0,2025-11-12,2025-11-12,ＳＴホールディングス株式会社,,株式会社,東京都,千代田区,麹町３丁目２番地垣見麹町ビル別館４階,,13,101,1020083,,,,,,,2025-11-12,1,,,,,エスティーホールディングス,0
2218,8010001260295,新規,0,2025-11-12,2025-11-12,株式会社ＩｎｔｅｒＸ　Ｊａｐａｎ,,株式会社,東京都,千代田区,霞が関３丁目２番５号霞が関ビルディング５階ＫＯＴＲＡ内,,13,101,1000013,,,,,,,2025-11-12,1,,,,,インターエックスジャパン,0
2220,8010003049365,新規,0,2025-11-12,2025-11-12,ＦＣＳ　ＬＶ‐１合同会社,,合同会社,東京都,中央区,銀座６丁目１０番１号,,13,102,1040061,,,,,,,2025-11-12,1,,,,,エフシーエスエルブイワン,0
2226,8010401194366,新規,0,2025-11-12,2025-11-12,Ｂｒａｎｄａｒｙ株式会社,,株式会社,東京都,港区,六本木７丁目７番７号ＴＲＩ－ＳＥＶＥＮ・ＲＯＰＰＯＮＧＩ８Ｆ,,13,103,1060032,,,,,,,2025-11-12,1,,,,,ブランダリー,0
2228,8010403036500,新規,0,2025-11-12,2025-11-12,Ｚａｍｍｉｅ合同会社,,合同会社,東京都,港区,北青山１丁目３番３号三橋ビル３階,,13,103,1070061,,,,,,,2025-11-12,1,,,,,ザミー,0
2230,8010501055014,新規,0,2025-11-12,2025-11-12,ディセント株式会社,,株式会社,東京都,台東区,上野１丁目１７番６号広小路ビル８Ｆ－Ｂ,,13,106,1100005,,,,,,,2025-11-12,1,,,,,ディセント,0
2246,8010901058426,新規,0,2025-11-12,2025-11-12,株式会社ＭｏｏＬａｂ,,株式会社,東京都,世田谷区,太子堂４丁目１８－１５マガザン三軒茶屋２－３Ｆ－３,,13,112,1540004,,,,,,,2025-11-12,1,,,,,モオラボ,0
2252,8011001173479,新規,0,2025-11-12,2025-11-12,株式会社Ｎｏｅｒａ　Ｊａｐａｎ,,株式会社,東京都,渋谷区,東２丁目２９番７－７０１号ＳＰＥＲＡＮＺＡ恵比寿,,13,113,1500011,,,,,,,2025-11-12,1,,,,,ノエラジャパン,0
2253,8011001173487,新規,0,2025-11-12,2025-11-12,株式会社ＫＩＮＧ　ＳＥＣＵＲＩＴＹ,,株式会社,東京都,渋谷区,神宮前５丁目３４番５号,,13,113,1500001,,,,,,,2025-11-12,1,,,,,キングセキュリティ,0
2254,8011001173504,新規,0,2025-11-12,2025-11-12,ディオローズ株式会社,,株式会社,東京都,渋谷区,渋谷２丁目３番１９号ローゼ青山ビルＢ１,,13,113,1500002,,,,,,,2025-11-12,1,,,,,ディオローズ,0
2255,8011001173512,新規,0,2025-11-12,2025-11-12,株式会社Ｅｔａｐｅ,,株式会社,東京都,渋谷区,道玄坂１丁目１０番８号渋谷道玄坂東急ビル２Ｆ－Ｃ,,13,113,1500043,,,,,,,2025-11-12,1,,,,,エタップ,0
2263,8011101113839,新規,0,2025-11-12,2025-11-12,株式会社ヒラサワアセットマネジメント,,株式会社,東京都,新宿区,大久保２丁目５番２２号,,13,104,1690072,,,,,,,2025-11-12,1,,,,,ヒラサワアセットマネジメント,0
2265,8011103016676,新規,0,2025-11-12,2025-11-12,合同会社スフィーダ,,合同会社,東京都,新宿区,西新宿３丁目３－１３西新宿水間ビル６階,,13,104,1600023,,,,,,,2025-11-12,1,,,,,スフィーダ,0
2269,8011203004878,新規,0,2025-11-12,2025-11-12,合同会社ハッシュクラウド,,合同会社,東京都,中野区,中野１丁目５２番地１５号,,13,114,1640001,,,,,,,2025-11-12,1,,,,,ハッシュクラウド,0
2271,8011301031031,新規,0,2025-11-12,2025-11-12,ＳＯＣ株式会社,,株式会社,東京都,杉並区,和田１丁目２７番８号ハウス杉並和田２０２,,13,115,1660012,,,,,,,2025-11-12,1,,,,,エスオーシー,0
2274,8011401027557,新規,0,2025-11-12,2025-11-12,株式会社ＫＡＷＡＮＡＧＯ,,株式会社,東京都,板橋区,成増５丁目２番１２号,,13,119,1750094,,,,,,,2025-11-12,1,,,,,カワナゴ,0
2278,8011603004916,新規,0,2025-11-12,2025-11-12,合同会社Ｓ・Ｒ,,合同会社,東京都,練馬区,石神井町２丁目１４番１－１４０３号,,13,120,1770041,,,,,,,2025-11-12,1,,,,,エスアール,0
2285,8012401043800,新規,0,2025-11-12,2025-11-12,株式会社前田エステート,,株式会社,東京都,三鷹市,大沢４丁目５番９号,,13,204,1810015,,,,,,,2025-11-12,1,,,,,マエダエステート,0
2303,8020001165543,新規,0,2025-11-12,2025-11-12,ハートリンク株式会社,,株式会社,神奈川県,横浜市旭区,鶴ケ峰本町２丁目１７番６号,,14,112,2410021,,,,,,,2025-11-12,1,,,,,ハートリンク,0
2304,8020001165659,新規,0,2025-11-12,2025-11-12,ＦＮＤ１号株式会社,,株式会社,神奈川県,横浜市都筑区,茅ケ崎中央２４番７号シャトルセンター南２０１号室,,14,118,2240032,,,,,,,2025-11-12,1,,,,,エフエヌディーイチゴウ,0
2307,8020003029705,新規,0,2025-11-12,2025-11-12,Ｇｅｎｕｉｎｅ　Ｌｉｆｅ合同会社,,合同会社,神奈川県,横浜市西区,北幸２丁目１０番４８号むつみビル３階,,14,103,2200004,,,,,,,2025-11-12,1,,,,,ジェニュインライフ,0
2308,8020003029738,新規,0,2025-11-12,2025-11-12,合同会社ＳＩＭＰＬＥ　ＴＥＣＨ　ＴＯＯＬＳ,,合同会社,神奈川県,横浜市保土ケ谷区,鎌谷町３４７番地７８,,14,106,2400063,,,,,,,2025-11-12,1,,,,,シンプルテックトゥールズ,0
2332,8030003028053,新規,0,2025-11-12,2025-11-12,合同会社Ｓｐａ　Ｍｏａｎｉ,,合同会社,埼玉県,さいたま市大宮区,三橋２丁目７８２番地２,,11,103,3300856,,,,,,,2025-11-12,1,,,,,スパモアニ,0
2333,8030003028061,新規,0,2025-11-12,2025-11-12,合同会社ＳＥＡＨＯＲＳＥ,,合同会社,埼玉県,川口市,柳崎１丁目２０－２８,,11,203,3330861,,,,,,,2025-11-12,1,,,,,シーホース,0
2337,8040001141336,新規,0,2025-11-12,2025-11-12,金子建設株式会社,,株式会社,千葉県,千葉市中央区,問屋町１３番１号シャリエ千葉みなと公園２０５号,,12,101,2600025,,,,,,,2025-11-12,1,,,,,カネコケンセツ,0
2349,8060001038753,新規,0,2025-11-12,2025-11-12,株式会社小倉食鶏,,株式会社,栃木県,足利市,稲岡町８２３番地２,,09,202,3294212,,,,,,,2025-11-12,1,,,,,オグラショッケイ,0
2350,8060001038761,新規,0,2025-11-12,2025-11-12,株式会社Ｂｏｏｍｙ,,株式会社,栃木県,芳賀郡芳賀町,大字東水沼２８２５番地３,,09,345,3213322,,,,,,,2025-11-12,1,,,,,ブーミー,0
2356,8080103003463,新規,0,2025-11-12,2025-11-12,合同会社つむぎ,,合同会社,静岡県,三島市,東大場１丁目２５－１２,,22,206,4110802,,,,,,,2025-11-12,1,,,,,ツムギ,0
2359,8090001019593,新規,0,2025-11-12,2025-11-12,株式会社Ｗａｋｋａ,,株式会社,山梨県,南巨摩郡南部町,本郷６５０７,,19,366,4092217,,,,,,,2025-11-12,1,,,,,ワッカ,0
2360,8100001039094,新規,0,2025-11-12,2025-11-12,株式会社Ｋ．ＴＲＡＤ,,株式会社,長野県,松本市,寿南１丁目２６番１号,,20,202,3990027,,,,,,,2025-11-12,1,,,,,ケートラッド,0
2362,8100003008477,新規,0,2025-11-12,2025-11-12,ＲＩＳＭ合同会社,,合同会社,長野県,上伊那郡辰野町,大字樋口２１９６番地１,,20,382,3990425,,,,,,,2025-11-12,1,,,,,リズム,0
2364,8110001039721,新規,0,2025-11-12,2025-11-12,株式会社四つ葉,,株式会社,新潟県,新発田市,島潟２０８‐１,,15,206,9570011,,,,,,,2025-11-12,1,,,,,ヨツバ,0
2373,8120001281388,新規,0,2025-11-12,2025-11-12,株式会社Ｌｉｌｍｅ,,株式会社,大阪府,大阪市北区,梅田１丁目２－２大阪駅前第２ビル１２－１２,,27,127,5300001,,,,,,,2025-11-12,1,,,,,リルミー,0
2374,8120001281611,新規,0,2025-11-12,2025-11-12,福春水産株式会社,,株式会社,大阪府,大阪市天王寺区,生玉町１０番２０－１００３号,,27,109,5430071,,,,,,,2025-11-12,1,,,,,フクハルスイサン,0
2375,8120001281818,新規,0,2025-11-12,2025-11-12,株式会社なお家,,株式会社,大阪府,大阪市港区,弁天５丁目１番１７－２０２号,,27,107,5520007,,,,,,,2025-11-12,1,,,,,ナオヤ,0
2376,8120001281859,新規,0,2025-11-12,2025-11-12,株式会社ＡＩ　ＮＥＸＴ　Ａｎｓｗｅｒ,,株式会社,大阪府,大阪市東成区,東小橋１丁目４－１２コスモレジデンス玉造５０３,,27,115,5370024,,,,,,,2025-11-12,1,,,,,エーアイネクストアンサー,0
2377,8120001281909,新規,0,2025-11-12,2025-11-12,シンククラフト株式会社,,株式会社,大阪府,大阪市生野区,田島２丁目８－１３,,27,116,5440011,,,,,,,2025-11-12,1,,,,,シンククラフト,0
2381,8120003030751,新規,0,2025-11-12,2025-11-12,合同会社Ｎｅｘｔ　Ｓｔａｇｅ,,合同会社,大阪府,大阪市北区,野崎町７－８梅田パークビル３階,,27,127,5300055,,,,,,,2025-11-12,1,,,,,ネクストステージ,0
2382,8120003031213,新規,0,2025-11-12,2025-11-12,合同会社完世堂,,合同会社,大阪府,大阪市淀川区,野中北２丁目６番１８号,,27,123,5320034,,,,,,,2025-11-12,1,,,,,カンセドウ,0
2383,8120003031221,新規,0,2025-11-12,2025-11-12,合同会社あおぞら,,合同会社,大阪府,大阪市天王寺区,夕陽丘町２－１５Ｊフラット３０３,,27,109,5430075,,,,,,,2025-11-12,1,,,,,アオゾラ,0
2393,8122001039865,新規,0,2025-11-12,2025-11-12,株式会社ｉｎｃｌｏｏｍｉｎｇ,,株式会社,大阪府,大東市,幸町１８－１４,,27,218,5740028,,,,,,,2025-11-12,1,,,,,インクルーミング,0
2398,8130003010926,新規,0,2025-11-12,2025-11-12,合同会社ジャスミン,,合同会社,京都府,京都市左京区,浄土寺上馬場町９６番地１,,26,103,6068416,,,,,,,2025-11-12,1,,,,,ジャスミン,0
2405,8140001140682,新規,0,2025-11-12,2025-11-12,アド・グラベル株式会社,,株式会社,兵庫県,神戸市北区,上津台２丁目３９番,,28,109,6511515,,,,,,,2025-11-12,1,,,,,アドグラベル,0
2408,8140003022821,新規,0,2025-11-12,2025-11-12,合同会社希乃実,,合同会社,兵庫県,川西市,南花屋敷２丁目６番１０－６０号,,28,217,6660026,,,,,,,2025-11-12,1,,,,,キノミ,0
2409,8150001028539,新規,0,2025-11-12,2025-11-12,株式会社光水,,株式会社,奈良県,奈良市,右京４丁目１２番地の１８,,29,201,6310805,,,,,,,2025-11-12,1,,,,,コウスイ,0
2426,8180001169438,新規,0,2025-11-12,2025-11-12,ポラリス株式会社,,株式会社,愛知県,名古屋市中村区,名駅３丁目４‐１０アルティメット名駅１ｓｔ２階,,23,105,4500002,,,,,,,2025-11-12,1,,,,,,0
2427,8180001169454,新規,0,2025-11-12,2025-11-12,スノーベルホールディングス株式会社,,株式会社,愛知県,名古屋市中川区,福船町４丁目１番地２８・１５地先,,23,110,4540836,,,,,,,2025-11-12,1,,,,,スノーベルホールディングス,0
2438,8180005021306,新規,0,2025-11-12,2025-11-12,一般社団法人Ｆｏｓｓａｔｏ　Ｏｃｃｉｄｅｎｔａｌｅ,,その他の設立登記法人,愛知県,名古屋市中村区,名駅１丁目１番４号ＪＲセントラルタワーズ１９階,,23,105,4500002,,,,,,,2025-11-12,1,,,,,フォッサートオッチデンターレ,0
2449,8220001027021,新規,0,2025-11-12,2025-11-12,株式会社Ｅａｓｔ　Ｖａｌｌｅｙ,,株式会社,石川県,輪島市,マリンタウン６番地１マリンタウン第１団地２－９,,17,204,9280008,,,,,,,2025-11-12,1,,,,,イーストバレー,0
2450,8220005009016,新規,0,2025-11-12,2025-11-12,一般社団法人子育て・地域サポートすまいる,,その他の設立登記法人,石川県,野々市市,中林１丁目４２６番地,,17,212,9218834,,,,,,,2025-11-12,1,,,,,コソダテチイキサポートスマイル,0
2457,8240001065770,新規,0,2025-11-12,2025-11-12,株式会社山下不動産,,株式会社,広島県,広島市西区,観音本町１丁目１３番１６－１２０２号,,34,104,7330033,,,,,,,2025-11-12,1,,,,,ヤマシタフドウサン,0
2458,8240001065779,新規,0,2025-11-12,2025-11-12,株式会社トレホ,,株式会社,広島県,広島市佐伯区,利松３丁目２５番４０号,,34,108,7315106,,,,,,,2025-11-12,1,,,,,トレホ,0
2464,8260001040714,新規,0,2025-11-12,2025-11-12,株式会社ＭＩＴ,,株式会社,岡山県,倉敷市,福江１２００番地１０,,33,202,7100145,,,,,,,2025-11-12,1,,,,,エムアイティー,0
2472,8290001112130,新規,0,2025-11-12,2025-11-12,株式会社自在,,株式会社,福岡県,福岡市博多区,東月隈３丁目１番９－２０５号,,40,132,8120854,,,,,,,2025-11-12,1,,,,,ジザイ,0
2477,8290801032024,新規,0,2025-11-12,2025-11-12,株式会社宮叶機工,,株式会社,福岡県,北九州市小倉南区,南方５丁目９番２４号（Ａ－２０２）,,40,107,8020976,,,,,,,2025-11-12,1,,,,,キュウトキコウ,0
2481,8320001021435,新規,0,2025-11-12,2025-11-12,Ｃｒａｆｔｅｄ　Ｇｌｏｗ株式会社,,株式会社,大分県,豊後大野市,千歳町柴山１４９４番地１,,44,212,8797411,,,,,,,2025-11-12,1,,,,,クラフテッドグロウ,0
2486,8330001033735,新規,0,2025-11-12,2025-11-12,エフエスケー株式会社,,株式会社,熊本県,熊本市南区,富合町清藤４６９番地１アングレカムＤ２０３,,43,104,8614151,,,,,,,2025-11-12,1,,,,,エフエスケー,0
2490,8340001027777,新規,0,2025-11-12,2025-11-12,株式会社オフィスサポートＹＣＬｉｎＱ,,株式会社,鹿児島県,鹿児島市,魚見町１１６番地２,,46,201,8910112,,,,,,,2025-11-12,1,,,,,オフィスサポートワイシーリンク,0
2496,8360001036025,新規,0,2025-11-12,2025-11-12,株式会社ｉｎｆｉｎｉｔｙ,,株式会社,沖縄県,浦添市,安波茶１丁目８番１２号,,47,208,9012114,,,,,,,2025-11-12,1,,,,,インフィニティ,0
2497,8370001053226,新規,0,2025-11-12,2025-11-12,株式会社スタートラボ,,株式会社,宮城県,仙台市泉区,南光台東３丁目１６番７号,,04,105,9818001,,,,,,,2025-11-12,1,,,,,スタートラボ,0
2509,8400001017227,新規,0,2025-11-12,2025-11-12,株式会社ゴッコワークス,,株式会社,岩手県,盛岡市,みたけ２丁目９－２０メリージャスミン１０３号室,,03,201,0200122,,,,,,,2025-11-12,1,,,,,ゴッコワークス,0
2514,8420005007981,新規,0,2025-11-12,2025-11-12,あおば税理士法人,,その他の設立登記法人,青森県,八戸市,青葉２丁目２１番２号,,02,203,0310804,,,,,,,2025-11-12,1,,,,,アオバ,0
2521,8430001095600,新規,0,2025-11-12,2025-11-12,株式会社大弘,,株式会社,北海道,札幌市西区,八軒二条東５丁目６番２３号,,01,107,0630862,,,,,,,2025-11-12,1,,,,,オオヒロ,0
2522,8430001095641,新規,0,2025-11-12,2025-11-12,株式会社Ｍｉｚｕｇｉｗａ,,株式会社,北海道,札幌市中央区,宮ケ丘１丁目１番４５号,,01,101,0640959,,,,,,,2025-11-12,1,,,,,ミヅギワ,0
2523,8430001095658,新規,0,2025-11-12,2025-11-12,株式会社Ｅｕｐｈｏｒｉａ,,株式会社,北海道,札幌市豊平区,豊平六条１０丁目５番１２号ＲＩＴＺＧＲＡＮＤＥ豊平公園４０３,,01,105,0620906,,,,,,,2025-11-12,1,,,,,ユーフォリア,0
2524,8430001095666,新規,0,2025-11-12,2025-11-12,株式会社佐藤事業所,,株式会社,北海道,札幌市手稲区,明日風４丁目１２番１５号,,01,109,0060861,,,,,,,2025-11-12,1,,,,,サトウジギョウショ,0
2530,8460303000890,新規,0,2025-11-12,2025-11-12,合同会社Ｒ,,合同会社,北海道,北見市,山下町４丁目７番１８号Ｒｉ－ｒｅ,,01,208,0900037,,,,,,,2025-11-12,1,,,,,アール,0
2532,8480001013004,新規,0,2025-11-12,2025-11-12,株式会社ｙｏｕ　ｏｎｅ,,株式会社,徳島県,徳島市,応神町西貞方字鷹ノ橋８１番地の２,,36,201,7711155,,,,,,,2025-11-12,1,,,,,ユーワン,0
2538,8700150070871,新規,0,2025-11-12,2016-02-17,若宮地域自治会,,その他,愛媛県,大洲市,若宮３５１番地２,,38,207,7950052,,,,,,,2016-02-17,1,,,,,ワカミヤチイキジチカイ,0
2539,8700150070888,新規,0,2025-11-12,2016-02-17,沖浦自治会,,その他,愛媛県,大洲市,長浜町沖浦丙２１９２番地３,,38,207,7993406,,,,,,,2016-02-17,1,,,,,オキウラジチカイ,0
2545,9010001259766,新規,0,2025-11-12,2025-11-12,株式会社ＡＬＴＲＵ,,株式会社,東京都,中央区,銀座３丁目７番１２号王子不動産銀座ビル５Ｆ,,13,102,1040061,,,,,,,2025-11-12,1,,,,,アルトル,0
2546,9010001259824,新規,0,2025-11-12,2025-11-12,金祥商事株式会社,,株式会社,東京都,千代田区,岩本町１丁目４－４マイカ９１ビル３階,,13,101,1010032,,,,,,,2025-11-12,1,,,,,キンショウショウジ,0
2547,9010001260212,新規,0,2025-11-12,2025-11-12,株式会社Ｌｅ　Ｖｉｎ,,株式会社,東京都,中央区,銀座６丁目４番８号曾根ビル,,13,102,1040061,,,,,,,2025-11-12,1,,,,,ルヴァン,0
2548,9010001260220,新規,0,2025-11-12,2025-11-12,株式会社イロドリ,,株式会社,東京都,文京区,向丘１丁目７番１４号,,13,105,1130023,,,,,,,2025-11-12,1,,,,,イロドリ,0
2552,9010003049273,新規,0,2025-11-12,2025-11-12,Ａｈｒｅｆｓ　Ｊａｐａｎ合同会社,,合同会社,東京都,千代田区,霞が関３丁目２番６号東京倶楽部ビルディング１１階,,13,101,1000013,,,,,,,2025-11-12,1,,,,,エイチレフスジャパン,0
2554,9010005040924,新規,0,2025-11-12,2025-11-12,一般社団法人Ｓｌｅｅｐ　Ｉｎｎｏｖａｔｉｏｎ　Ｐｌａｔｆｏｒｍ,,その他の設立登記法人,東京都,中央区,日本橋富沢町８番８号,,13,102,1030006,,,,,,,2025-11-12,1,,,,,スリープイノベーションプラットフォーム,0
2555,9010005040932,新規,0,2025-11-12,2025-11-12,Ｊａｐａｎ　Ｄｅｖｅｌｏｐｍｅｎｔ５一般社団法人,,その他の設立登記法人,東京都,千代田区,丸の内１丁目４番１号東京共同会計事務所内,,13,101,1000005,,,,,,,2025-11-12,1,,,,,ジャパンデベロップメントファイブ,0
2556,9010005040940,新規,0,2025-11-12,2025-11-12,アイランドシティロジ一般社団法人,,その他の設立登記法人,東京都,千代田区,丸の内１丁目４番１号東京共同会計事務所内,,13,101,1000005,,,,,,,2025-11-12,1,,,,,アイランドシティロジ,0
2565,9010401194407,新規,0,2025-11-12,2025-11-12,ＥＮＺＯ　ＪＡＰＡＮ株式会社,,株式会社,東京都,港区,西麻布４丁目１２番１３号２０３号室,,13,103,1060031,,,,,,,2025-11-12,1,,,,,エンツォジャパン,0
2566,9010405025005,新規,0,2025-11-12,2025-11-12,一般社団法人八重山ゲート,,その他の設立登記法人,東京都,港区,西新橋１丁目２番９号メンターキャピタル税理士法人内,,13,103,1050003,,,,,,,2025-11-12,1,,,,,ヤエヤマゲート,0
2568,9010501055013,新規,0,2025-11-12,2025-11-12,藤仁エステート株式会社,,株式会社,東京都,台東区,元浅草１丁目１８番５号ポセイドンアネックス２０２号室,,13,106,1110041,,,,,,,2025-11-12,1,,,,,トウジンエステート,0
2578,9010901058409,新規,0,2025-11-12,2025-11-12,株式会社Ａｄａｔｔｏ,,株式会社,東京都,世田谷区,船橋４丁目７番５号,,13,112,1560055,,,,,,,2025-11-12,1,,,,,アダット,0
2579,9010903010400,新規,0,2025-11-12,2025-11-12,合同会社ＭＡＮＡＶＥ,,合同会社,東京都,世田谷区,赤堤５丁目２８番２２－３０３号,,13,112,1560044,,,,,,,2025-11-12,1,,,,,マナベ,0
2588,9011001173511,新規,0,2025-11-12,2025-11-12,株式会社Ｓｔａｒ　Ａｔｅｌｉｅｒ,,株式会社,東京都,渋谷区,千駄ヶ谷２丁目７番５号,,13,113,1510051,,,,,,,2025-11-12,1,,,,,スターアトリエ,0
2589,9011003022872,新規,0,2025-11-12,2025-11-12,合同会社とじ豆屋,,合同会社,東京都,目黒区,下目黒１丁目１番１４号コノトラビル７Ｆ,,13,110,1530064,,,,,,,2025-11-12,1,,,,,トジマメヤ,0
2590,9011005011262,新規,0,2025-11-12,2025-11-12,一般社団法人１００年ライフデザイン協議会,,その他の設立登記法人,東京都,渋谷区,広尾１丁目４番９号Ｍｙ広尾ビル８階,,13,113,1500012,,,,,,,2025-11-12,1,,,,,ヒャクネンライフデザインキョウギカイ,0
2592,9011201026774,新規,0,2025-11-12,2025-11-12,株式会社ＭＢエコシア,,株式会社,東京都,中野区,大和町２丁目２番１４号,,13,114,1650034,,,,,,,2025-11-12,1,,,,,エムビーエコシア,0
2594,9011303005767,新規,0,2025-11-12,2025-11-12,ＫＩＡＩ合同会社,,合同会社,東京都,杉並区,高円寺北２丁目４番８号メゾン市川３０３,,13,115,1660002,,,,,,,2025-11-12,1,,,,,ケーアイエーアイ,0
2596,9011401027564,新規,0,2025-11-12,2025-11-12,株式会社みかな土地建物,,株式会社,東京都,板橋区,赤塚３丁目２８番３号,,13,119,1750092,,,,,,,2025-11-12,1,,,,,ミカナトチタテモノ,0
2609,9012703003410,新規,0,2025-11-12,2025-11-12,古賀久則保険事務所合同会社,,合同会社,東京都,東村山市,栄町２丁目５－７,,13,213,1890013,,,,,,,2025-11-12,1,,,,,コガヒサノリホケンジムショ,0
2610,9013101009859,新規,0,2025-11-12,2025-11-12,株式会社Ｓｈｏｒｔｓ　Ｒｏｃｋｅｔ　Ｓｙｓｔｅｍ,,株式会社,東京都,羽村市,緑ヶ丘２丁目７―１７ハイム緑ヶ丘１０２,,13,227,2050003,,,,,,,2025-11-12,1,,,,,ショーツロケットシステム,0
2622,9020001165658,新規,0,2025-11-12,2025-11-12,株式会社ＭＫクリーニング,,株式会社,神奈川県,川崎市中原区,市ノ坪６７６番地１７,,14,133,2110016,,,,,,,2025-11-12,1,,,,,エムケイクリーニング,0
2623,9020001165716,新規,0,2025-11-12,2025-11-12,株式会社Ｇｌａｄ’ｓｏｍｅ,,株式会社,神奈川県,川崎市宮前区,土橋２丁目１５番地２１ザ・ヒルズ鷺沼３０３,,14,136,2160005,,,,,,,2025-11-12,1,,,,,グラッサム,0
2624,9020001165749,新規,0,2025-11-12,2025-11-12,株式会社ＯＶＥＲ　ＤＲＩＶＥ,,株式会社,神奈川県,横浜市旭区,下川井町１３７番地４,,14,112,2410806,,,,,,,2025-11-12,1,,,,,オーバードライブ,0
2639,9021003016758,新規,0,2025-11-12,2025-11-12,合同会社エッヂライン,,合同会社,神奈川県,藤沢市,鵠沼石上２丁目５番８,,14,205,2510025,,,,,,,2025-11-12,1,,,,,エッヂライン,0
2648,9030001169633,新規,0,2025-11-12,2025-11-12,株式会社ＡＵＲＩＸ　ＪＡＰＡＮ,,株式会社,埼玉県,吉川市,美南２丁目２０番地１５,,11,243,3420038,,,,,,,2025-11-12,1,,,,,オリクスジャパン,0
2653,9030003028085,新規,0,2025-11-12,2025-11-12,合同会社サステナリンク,,合同会社,埼玉県,上尾市,西宮下３丁目１番地３,,11,219,3620043,,,,,,,2025-11-12,1,,,,,サステナリンク,0
2656,9040001141335,新規,0,2025-11-12,2025-11-12,株式会社岡吉アセット,,株式会社,千葉県,市川市,新田５丁目６－２２－３０１,,12,203,2720035,,,,,,,2025-11-12,1,,,,,オカヨシアセット,0
2657,9040001141351,新規,0,2025-11-12,2025-11-12,株式会社藤総業,,株式会社,千葉県,市原市,能満１７８０番地１２,,12,219,2900011,,,,,,,2025-11-12,1,,,,,フジソウギョウ,0
2666,9050005013728,新規,0,2025-11-12,2025-11-12,一般社団法人高萩シナジー計画,,その他の設立登記法人,茨城県,高萩市,大和町２丁目５１番地,,08,214,3180032,,,,,,,2025-11-12,1,,,,,タカハギシナジーケイカク,0
2667,9060001038752,新規,0,2025-11-12,2025-11-12,株式会社亀田ｆａｒｍ,,株式会社,栃木県,真岡市,上江連４５２番地,,09,209,3214536,,,,,,,2025-11-12,1,,,,,カメダファーム,0
2669,9070005010442,新規,0,2025-11-12,2025-11-12,特定非営利活動法人ふるさとづくり,,その他の設立登記法人,群馬県,利根郡片品村,大字鎌田字磯下３９５２番２８号,,10,443,3780415,,,,,,,2025-11-12,1,,,,,フルサトヅクリ,0
2673,9080401028252,新規,0,2025-11-12,2025-11-12,海博株式会社,,株式会社,静岡県,浜松市中央区,卸本町１９番地,,22,138,4328055,,,,,,,2025-11-12,1,,,,,カイハク,0
2674,9080405007780,新規,0,2025-11-12,2025-11-12,一般社団法人Ｂｒａｚｉｌｉａｎ　Ｂｕｓｉｎｅｓｓ　Ｇｒｏｕｐ　Ｊａｐａｎ,,その他の設立登記法人,静岡県,浜松市中央区,鍛冶町１００番地の１ザザシティ浜松中央館Ｂ１Ｆ,,22,138,4300933,,,,,,,2025-11-12,1,,,,,ブラジリアンビジネスグループジャパン,0
2675,9100001039110,新規,0,2025-11-12,2025-11-12,株式会社睦商事,,株式会社,長野県,長野市,大字栗田１５３９番地－１２０３号,,20,201,3800921,,,,,,,2025-11-12,1,,,,,ムツミショウジ,0
2678,9100003008435,新規,0,2025-11-12,2025-11-12,合同会社ＴＨＥ　ＫＩＳＭＥＴ　ＨＯＬＤＩＮＧＳ,,合同会社,長野県,上田市,大屋２３８番１陽光１階２号室,,20,203,3860152,,,,,,,2025-11-12,1,,,,,ザキスメットホールディングス,0
2679,9100003008476,新規,0,2025-11-12,2025-11-12,Ｆｌａｖｏ合同会社,,合同会社,長野県,須坂市,大字豊丘３６５番地１５ビレッジハウス豊丘１号棟４０５号室,,20,207,3820921,,,,,,,2025-11-12,1,,,,,フラボ,0
2683,9110001039712,新規,0,2025-11-12,2025-11-12,株式会社さかなとねこ,,株式会社,新潟県,魚沼市,福山新田７２９番地２福山住宅２０３号,,15,225,9460207,,,,,,,2025-11-12,1,,,,,サカナトネコ,0
2684,9110001039720,新規,0,2025-11-12,2025-11-12,株式会社高橋工務店,00141499,株式会社,新潟県,加茂市,番田３番１５－３号,,15,209,9591314,,,,,,,2025-11-12,1,,,,,タカハシコウムテン,0
2699,9120001281882,新規,0,2025-11-12,2025-11-12,株式会社Ｒｏｓｅ　ｏｆ　Ｓｈａｒｏｎ,,株式会社,大阪府,大阪市東淀川区,南江口１丁目１番４１号ブランズシティ上新庄８１１号室,,27,114,5330003,,,,,,,2025-11-12,1,,,,,ローズオブシャロン,0
2700,9120001281908,新規,0,2025-11-12,2025-11-12,クラウドウェーブ株式会社,,株式会社,大阪府,大阪市淀川区,十三本町１丁目１８－７クリオプラザ十三パート２－４０２,,27,123,5320024,,,,,,,2025-11-12,1,,,,,クラウドウェーブ,0
2702,9120003030750,新規,0,2025-11-12,2025-11-12,合同会社Ｆｒｏｎｔｉｅｒ　Ｗｏｒｋｓ,,合同会社,大阪府,大阪市北区,野崎町７－８梅田パークビル３階,,27,127,5300055,,,,,,,2025-11-12,1,,,,,フロンティアワークス,0
2703,9120003031212,新規,0,2025-11-12,2025-11-12,合同会社島風企画,,合同会社,大阪府,大阪市中央区,南船場３丁目２番２２号おおきに南船場ビル２０５,,27,128,5420081,,,,,,,2025-11-12,1,,,,,シマカゼキカク,0
2704,9120003031220,新規,0,2025-11-12,2025-11-12,合同会社Ｓｅｌｆ　Ｓｈｉｆｔ　Ｌａｂ,,合同会社,大阪府,大阪市中央区,松屋町住吉３番２号,,27,128,5400017,,,,,,,2025-11-12,1,,,,,セルフシフトラボ,0
2706,9120005025237,新規,0,2025-11-12,2025-11-12,リーパス・アシスト協同組合,,その他の設立登記法人,大阪府,大阪市中央区,和泉町１丁目１番１４号,,27,128,5400019,,,,,,,2025-11-12,1,,,,,リーパスアシスト,0
2711,9120901051765,新規,0,2025-11-12,2025-11-12,株式会社アグレアブルリュー,,株式会社,大阪府,吹田市,長野東２９番３８号,,27,205,5650816,,,,,,,2025-11-12,1,,,,,アグレアブルリュー,0
2713,9120903005950,新規,0,2025-11-12,2025-11-12,合同会社サンクレア,,合同会社,大阪府,茨木市,東奈良２丁目７番Ｂ－１０７号,,27,211,5670861,,,,,,,2025-11-12,1,,,,,サンクレア,0
2715,9122001039864,新規,0,2025-11-12,2025-11-12,Ｐｉｘｅｌ　Ｐｌａｔｅ株式会社,,株式会社,大阪府,東大阪市,上六万寺町６番２６号,,27,227,5798062,,,,,,,2025-11-12,1,,,,,,0
2716,9122001039889,新規,0,2025-11-12,2025-11-12,ヒカリグループ株式会社,,株式会社,大阪府,大東市,新町１０番３号ファーストコート住道１０２号,,27,218,5740037,,,,,,,2025-11-12,1,,,,,ヒカリグループ,0
2721,9122005003858,新規,0,2025-11-12,2025-11-12,一般社団法人ＫＩＴＯＰＩＮ,,その他の設立登記法人,大阪府,東大阪市,東石切町３丁目５番２５号,,27,227,5798011,,,,,,,2025-11-12,1,,,,,キトピン,0
2726,9130001080994,新規,0,2025-11-12,2025-11-12,株式会社Ｅｔｅｒｎｉｔｙ　Ｐｏｗｅｒ２１,,株式会社,京都府,京都市右京区,西院高田町１７番地１ヴェスト・ノーヴァ西院９０３,,26,108,6150031,,,,,,,2025-11-12,1,,,,,エタニティパワーニジュウイチ,0
2739,9140001140681,新規,0,2025-11-12,2025-11-12,関西トラスト株式会社,,株式会社,兵庫県,神戸市兵庫区,築地町３番３０号,,28,105,6520845,,,,,,,2025-11-12,1,,,,,カンサイトラスト,0
2745,9140003022820,新規,0,2025-11-12,2025-11-12,合同会社トータルエンタープライズ,,合同会社,兵庫県,神戸市東灘区,鴨子ケ原１丁目１１番４号,,28,101,6580064,,,,,,,2025-11-12,1,,,,,トータルエンタープライズ,0
2758,9180001169338,新規,0,2025-11-12,2025-11-12,鵬城国際株式会社,,株式会社,愛知県,名古屋市千種区,新西１丁目７番３号‐２,,23,101,4640003,,,,,,,2025-11-12,1,,,,,ホウジョウコクサイ,0
2759,9180001169453,新規,0,2025-11-12,2025-11-12,株式会社ＥＮＮＡ,,株式会社,愛知県,名古屋市中川区,尾頭橋１丁目６番１３号,,23,110,4540012,,,,,,,2025-11-12,1,,,,,エンナ,0
2760,9180001169486,新規,0,2025-11-12,2025-11-12,株式会社空ＥＮＧ,,株式会社,愛知県,名古屋市千種区,東千種台２番３号,,23,101,4640001,,,,,,,2025-11-12,1,,,,,ソライーエヌジー,0
2764,9180003029358,新規,0,2025-11-12,2025-11-12,合同会社ＡＪＭ,,合同会社,愛知県,名古屋市天白区,大根町３８６番地,,23,116,4680024,,,,,,,2025-11-12,1,,,,,エージェーエム,0
2766,9180301040421,新規,0,2025-11-12,2025-11-12,株式会社Ｃ‐ｕｔｅ,,株式会社,愛知県,豊橋市,中野町字平北８８番地６グリーンパーク中野１０５,,23,201,4418149,,,,,,,2025-11-12,1,,,,,,0
2780,9260001040721,新規,0,2025-11-12,2025-11-12,株式会社山本会計,,株式会社,岡山県,岡山市北区,今２丁目７番６号,,33,101,7000975,,,,,,,2025-11-12,1,,,,,ヤマモトカイケイ,0
2792,9290001112154,新規,0,2025-11-12,2025-11-12,株式会社ルミナアセット,,株式会社,福岡県,福岡市中央区,荒戸１丁目３番１８－２０５号,,40,133,8100062,,,,,,,2025-11-12,1,,,,,ルミナアセット,0
2797,9320001021434,新規,0,2025-11-12,2025-11-12,ＫｅｅｐＢｅｔｔｅｒ株式会社,,株式会社,大分県,大分市,三佐６丁目６番１５号,,44,201,8700108,,,,,,,2025-11-12,1,,,,,キープベター,0
2803,9330001033742,新規,0,2025-11-12,2025-11-12,株式会社ももとせ,,株式会社,熊本県,山鹿市,古閑１０８９番地７,,43,208,8610533,,,,,,,2025-11-12,1,,,,,モモトセ,0
2804,9330001033750,新規,0,2025-11-12,2025-11-12,Ｖｉｖａｃｅ株式会社,,株式会社,熊本県,菊池郡大津町,大字杉水３３８３番地２,,43,403,8691236,,,,,,,2025-11-12,1,,,,,ヴィヴァーチェ,0
2805,9330003011317,新規,0,2025-11-12,2025-11-12,リーズンインターナショナル合同会社,,合同会社,熊本県,熊本市北区,植木町広住４番地３,,43,105,8610131,,,,,,,2025-11-12,1,,,,,リーズンインターナショナル,0
2806,9350003005069,新規,0,2025-11-12,2025-11-12,合同会社ｔｈｒｅｅＣ,,合同会社,宮崎県,宮崎市,大橋３丁目１０１－１　３ＵＭＫ宮崎ビル９０６号,,45,201,8800022,,,,,,,2025-11-12,1,,,,,スリーシー,0
2807,9360001036008,新規,0,2025-11-12,2025-11-12,古都首里株式会社,,株式会社,沖縄県,那覇市,首里山川町１丁目５４番地,,47,201,9030825,,,,,,,2025-11-12,1,,,,,コトシュリ,0
2808,9360001036032,新規,0,2025-11-12,2025-11-12,株式会社石垣島マイ,,株式会社,沖縄県,石垣市,字登野城７２やいまーる７０１,,47,207,9070004,,,,,,,2025-11-12,1,,,,,イシガキジママイ,0
2819,9420001019328,新規,0,2025-11-12,2025-11-12,株式会社ｃａｒＴｒａｄｅ．ｃｏｍｐａｎｙ,,株式会社,青森県,八戸市,大字大久保字行人坂３７番地８２,,02,203,0310833,,,,,,,2025-11-12,1,,,,,カートレードカンパニー,0
2820,9420003003206,新規,0,2025-11-12,2025-11-12,合同会社酒のかさい,,合同会社,青森県,青森市,造道２丁目６番２１号,,02,201,0300911,,,,,,,2025-11-12,1,,,,,サケノカサイ,0
2821,9430001095640,新規,0,2025-11-12,2025-11-12,株式会社サクラヴィンヤード,,株式会社,北海道,余市郡余市町,大川町７丁目６９番地３,,01,408,0460004,,,,,,,2025-11-12,1,,,,,サクラヴィンヤード,0
2822,9430003018319,新規,0,2025-11-12,2025-11-12,Ｎｅｓｏ　Ｃｈａｒｉｓ合同会社,,合同会社,北海道,札幌市中央区,南二条西５丁目３１番地１ＲＭＢｌｄ．７０１,,01,101,0600062,,,,,,,2025-11-12,1,,,,,ネソカリス,0
2823,9430005015347,新規,0,2025-11-12,2025-11-12,一般社団法人さっぽろライラック,,その他の設立登記法人,北海道,札幌市中央区,円山西町５丁目７番２号,,01,101,0640944,,,,,,,2025-11-12,1,,,,,サッポロライラック,0
2824,9460103001758,新規,0,2025-11-12,2025-11-12,合同会社Ｍ＆Ｍプランナーズ,,合同会社,北海道,河東郡音更町,南鈴蘭南４丁目１番地１０パークスクエア鈴蘭１０１,,01,631,0800312,,,,,,,2025-11-12,1,,,,,エムアンドエムプランナーズ,0
2827,9700150070870,新規,0,2025-11-12,2016-02-17,肱北地区自治会,,その他,愛媛県,大洲市,中村６１８番地１,,38,207,7950054,,,,,,,2016-02-17,1,,,,,コウホクチクジチカイ,0
2828,9700150070879,新規,0,2025-11-12,2016-02-17,南久米自治会,,その他,愛媛県,大洲市,北只５８番地１,,38,207,7950001,,,,,,,2016-02-17,1,,,,,ミナミクメジチカイ,0
2829,9700150070887,新規,0,2025-11-12,2016-02-17,長浜自治会,,その他,愛媛県,大洲市,長浜甲７２７番地２,,38,207,7993401,,,,,,,2016-02-17,1,,,,,ナガハマジチカイ,0
2830,9700150070895,新規,0,2025-11-12,2016-02-17,肱川中央自治会,,その他,愛媛県,大洲市,肱川町山鳥坂７３番地,,38,207,7971504,,,,,,,2016-02-17,1,,,,,ヒジカワチユウオウジチカイ,0
2831,9700150132927,新規,0,2025-11-12,2025-11-12,台湾日産化学半導体材料股斌有限公司,00141498,外国会社等,大阪府,大阪市中央区,南久宝寺町４丁目１番２号,,27,128,5410058,台湾台北市中山区復興南路一段３６－１０号１０階,,,,,,2025-11-12,1,,,,,タイワンニツサンカガクハンドウタイザイリヨウコフンユウゲンコウシ,0
