sequenceNumber,corporateNumber,process,correct,updateDate,changeDate,name,nameImageId,kind,prefectureName,cityName,streetNumber,addressImageId,prefectureCode,cityCode,postCode,addressOutside,addressOutsideImageId,closeDate,closeCause,successorCorporateNumber,changeCause,assignmentDate,latest,enName,enPrefectureName,enCityName,enAddressOutside,furigana,hihyoji
2,1010001230965,新規,0,2022-11-24,2022-11-24,株式会社ＫＡＮＯＡ,,株式会社,東京都,千代田区,岩本町３丁目４－６トナカイタワーズ５階,,13,101,1010032,,,,,,,2022-11-24,1,,,,,カノア,0
3,1010001230981,新規,0,2022-11-24,2022-11-24,株式会社ＡＺＴＯＲＹ,,株式会社,東京都,千代田区,神田錦町２丁目２－１ＷｅＷｏｒｋＫＡＮＤＡＳＱＵＡＲＥ１１－１０１,,13,101,1010054,,,,,,,2022-11-24,1,,,,,アズトリー,0
4,1010001231047,新規,0,2022-11-24,2022-11-24,株式会社ＳＨＩＰ第４０３号,,株式会社,東京都,千代田区,丸の内２丁目７番２号,,13,101,1000005,,,,,,,2022-11-24,1,,,,,エスエイチアイピーダイヨンヒャクサンゴウ,0
7,1010003039091,新規,0,2022-11-24,2022-11-24,Ａｌｉｃｅ合同会社,,合同会社,東京都,中央区,勝どき５丁目３－１勝どきザ・タワー４９１１,,13,102,1040054,,,,,,,2022-11-24,1,,,,,アリス,0
18,1010405021589,新規,0,2022-11-24,2022-11-24,特定非営利活動法人ソーシャルイノベーション協奏バンク,,その他の設立登記法人,東京都,港区,赤坂４丁目８番１９号赤坂フロントタウン３階,,13,103,1070052,,,,,,,2022-11-24,1,,,,,ソーシャルイノベーションキョウソウバンク,0
19,1010405021614,新規,0,2022-11-24,2022-11-24,いつき監査法人,,その他の設立登記法人,東京都,港区,南青山４丁目９番１８号,,13,103,1070062,,,,,,,2022-11-24,1,,,,,イツキ,0
26,1010703006481,新規,0,2022-11-24,2022-11-24,ｔｏｍｏｙａｒ合同会社,,合同会社,東京都,品川区,西五反田８丁目７番８－３０６号,,13,109,1410031,,,,,,,2022-11-24,1,,,,,トモヤー,0
32,1010901052014,新規,0,2022-11-24,2022-11-24,株式会社ＳＩＬＶＡ,,株式会社,東京都,世田谷区,経堂３丁目２８番１０－１０５号,,13,112,1560052,,,,,,,2022-11-24,1,,,,,シルバ,0
41,1011001151004,新規,0,2022-11-24,2022-11-24,株式会社Ｆｉｌ．,,株式会社,東京都,渋谷区,神宮前５丁目２８番７号ローヤルタウン神宮前５０１,,13,113,1500001,,,,,,,2022-11-24,1,,,,,エフアイエル,0
42,1011001151094,新規,0,2022-11-24,2022-11-24,花美建装株式会社,,株式会社,東京都,渋谷区,道玄坂２丁目１５番１－４１３号,,13,113,1500043,,,,,,,2022-11-24,1,,,,,ハンビケンソウ,0
43,1011001151103,新規,0,2022-11-24,2022-11-24,ｎｏＣｅｌｌ株式会社,,株式会社,東京都,渋谷区,恵比寿３丁目３８番１５－１１０２号ベルファース恵比寿ビジュー,,13,113,1500013,,,,,,,2022-11-24,1,,,,,ノーセル,0
44,1011005009834,新規,0,2022-11-24,2022-11-24,一般社団法人量子力学的マネジメント研究会,,その他の設立登記法人,東京都,渋谷区,渋谷２丁目７番１３号,,13,113,1500002,,,,,,,2022-11-24,1,,,,,リョウシリキガクテキマネジメントケンキュウカイ,0
46,1011101100926,新規,0,2022-11-24,2022-11-24,ホームネットグループ株式会社,,株式会社,東京都,新宿区,西新宿６丁目８番１号新宿オークタワー,,13,104,1600023,,,,,,,2022-11-24,1,,,,,ホームネットグループ,0
48,1011103012418,新規,0,2022-11-24,2022-11-24,合同会社Ｎｅｉｇｅ,,合同会社,東京都,新宿区,新宿４丁目２－２０ＭＫビル３Ｆ,,13,104,1600022,,,,,,,2022-11-24,1,,,,,ネージュ,0
51,1011501028701,新規,0,2022-11-24,2022-11-24,日本森野株式会社,,株式会社,東京都,荒川区,南千住３丁目２７－２浅草ビル５０８号室,,13,118,1160003,,,,,,,2022-11-24,1,,,,,ニホンモリノ,0
60,1012701017361,新規,0,2022-11-24,2022-11-24,株式会社鈴木美建,,株式会社,東京都,小平市,上水新町３丁目９番８号,,13,211,1870023,,,,,,,2022-11-24,1,,,,,スズキビケン,0
71,1020001149115,新規,0,2022-11-24,2022-11-24,株式会社フラワーホーム,,株式会社,神奈川県,横浜市神奈川区,台町１５番地５,,14,102,2210834,,,,,,,2022-11-24,1,,,,,フラワーホーム,0
77,1021001077529,新規,0,2022-11-24,2022-11-24,株式会社ｂｌａｎｃｈｅ,,株式会社,神奈川県,相模原市南区,相模大野８丁目６番６号アエルグラン相模大野７０３,,14,153,2520303,,,,,,,2022-11-24,1,,,,,ブランシェ,0
85,1030003020611,新規,0,2022-11-24,2022-11-24,合同会社サイドメニュー,,合同会社,埼玉県,草加市,吉町５丁目１０番３号,,11,221,3400017,,,,,,,2022-11-24,1,,,,,サイドメニュー,0
86,1030003020636,新規,0,2022-11-24,2022-11-24,合同会社梅ラボ,,合同会社,埼玉県,さいたま市北区,植竹町１丁目５３７,,11,102,3310813,,,,,,,2022-11-24,1,,,,,ウメラボ,0
92,1040001125972,新規,0,2022-11-24,2022-11-24,レイヤード株式会社,,株式会社,千葉県,市原市,姉崎９８９－８,,12,219,2990111,,,,,,,2022-11-24,1,,,,,レイヤード,0
94,1040003021344,新規,0,2022-11-24,2022-11-24,合同会社ＳＩＡＭ　ＳＵＣＣＥＳＳ,,合同会社,千葉県,八千代市,八千代台北１２丁目１９番９号,,12,221,2760031,,,,,,,2022-11-24,1,,,,,サイアムサクセス,0
132,1120001250382,新規,0,2022-11-24,2022-11-24,株式会社Ｓｍｉｌｅ　ｗｏｒｋ　ｊｏｂ,,株式会社,大阪府,大阪市東淀川区,瑞光４丁目７番６号ビスタ瑞光１０１号,,27,114,5330005,,,,,,,2022-11-24,1,,,,,スマイルワークジョブ,0
133,1120001250432,新規,0,2022-11-24,2022-11-24,株式会社旭企画,,株式会社,大阪府,守口市,佐太中町５丁目１番１０号,,27,209,5700002,,,,,,,2022-11-24,1,,,,,アサヒキカク,0
134,1120001250481,新規,0,2022-11-24,2022-11-24,徳商産業株式会社,,株式会社,大阪府,大阪市中央区,南新町１丁目３－３－６Ｆ,,27,128,5400024,,,,,,,2022-11-24,1,,,,,トクショウサンギョウ,0
138,1120005023306,新規,0,2022-11-24,2022-11-24,特定非営利活動法人トライアングルステーション,,その他の設立登記法人,大阪府,門真市,沖町１３番１４号,,27,223,5710022,,,,,,,2022-11-24,1,,,,,トライアングルステーション,0
140,1120101066571,新規,0,2022-11-24,2022-11-24,株式会社ホワイトパワー,,株式会社,大阪府,堺市堺区,南島町１丁１３番地４,,27,141,5900904,,,,,,,2022-11-24,1,,,,,ホワイトパワー,0
143,1122001036431,新規,0,2022-11-24,2022-11-24,Ｔｈｒｅｅ　Ｆｉｅｌｄｓ株式会社,,株式会社,大阪府,東大阪市,長堂１丁目３番１４号,,27,227,5770056,,,,,,,2022-11-24,1,,,,,スリーフィールズ,0
148,1130001073122,新規,0,2022-11-24,2022-11-24,株式会社ボンセル,,株式会社,京都府,京都市上京区,浄福寺通一条下る東西俵屋町６４７番地３ファミーユ千本１０１号,,26,102,6028294,,,,,,,2022-11-24,1,,,,,ボンセル,0
149,1130001073130,新規,0,2022-11-24,2022-11-24,株式会社ＭＭＡＤＯ一級建築士事務所,,株式会社,京都府,京都市左京区,岩倉花園町５４１番地１０９,,26,103,6060024,,,,,,,2022-11-24,1,,,,,エムエムアドイッキュウケンチクシジムショ,0
151,1130003008332,新規,0,2022-11-24,2022-11-24,合同会社和不動産,,合同会社,京都府,京都市伏見区,深草泓ノ壺町３７番地１第一住田屋ビル２０２号,,26,109,6128435,,,,,,,2022-11-24,1,,,,,ナゴミフドウサン,0
153,1140001128156,新規,0,2022-11-24,2022-11-24,長江株式会社,,株式会社,兵庫県,神戸市灘区,大月台１番地の３３,,28,102,6570017,,,,,,,2022-11-24,1,,,,,ナガエ,0
168,1180301036848,新規,0,2022-11-24,2022-11-24,いであらいふ株式会社,,株式会社,愛知県,豊田市,野見町１１丁目５８番地１,,23,211,4710812,,,,,,,2022-11-24,1,,,,,イデアライフ,0
170,1190003004152,新規,0,2022-11-24,2022-11-24,合同会社鴻大,,合同会社,三重県,津市,江戸橋１丁目８２番地１,,24,201,5140001,,,,,,,2022-11-24,1,,,,,コダイ,0
177,1240001060687,新規,0,2022-11-24,2022-11-24,株式会社シブリング,,株式会社,広島県,広島市中区,東白島町１３番１２号,,34,101,7300004,,,,,,,2022-11-24,1,,,,,シブリング,0
180,1260001037428,新規,0,2022-11-24,2022-11-24,Ｇｅｔ　Ｅｖｅｒｙｔｈｉｎｇ株式会社,,株式会社,岡山県,岡山市北区,東古松４丁目４番１号アルバ鹿田町３０１,,33,101,7000921,,,,,,,2022-11-24,1,,,,,ゲットエブリシング,0
181,1260001037436,新規,0,2022-11-24,2022-11-24,株式会社天満屋テニスクラブ,,株式会社,岡山県,岡山市北区,島田本町２丁目６番３５号,,33,101,7000033,,,,,,,2022-11-24,1,,,,,テンマヤテニスクラブ,0
187,1290001099647,新規,0,2022-11-24,2022-11-24,株式会社Ｏ‐ｔｉａｓ,,株式会社,福岡県,福岡市中央区,赤坂１丁目１０番９号,,40,133,8100042,,,,,,,2022-11-24,1,,,,,オーティアス,0
188,1290001099671,新規,0,2022-11-24,2022-11-24,Ｈｅａｒａｂｌｅ株式会社,,株式会社,福岡県,福岡市早良区,野芥３丁目２７番３６－３０２号メゾンドテラス,,40,137,8140171,,,,,,,2022-11-24,1,,,,,ヒアラブル,0
190,1290801029068,新規,0,2022-11-24,2022-11-24,株式会社ｇｌａｄ,,株式会社,福岡県,北九州市八幡西区,浅川日の峯４丁目１４番１０号,,40,109,8070876,,,,,,,2022-11-24,1,,,,,グラッド,0
198,1340001025192,新規,0,2022-11-24,2022-11-24,株式会社Ｋｅｉｔｈｌａｎｄ,,株式会社,鹿児島県,大島郡喜界町,大字赤連２６７５番地４,,46,529,8916201,,,,,,,2022-11-24,1,,,,,キースランド,0
200,1360001031239,新規,0,2022-11-24,2022-11-24,アイワアップ株式会社,,株式会社,沖縄県,宮古島市,平良字西里９８１番地７,,47,214,9060012,,,,,,,2022-11-24,1,,,,,アイワアップ,0
203,1370001049271,新規,0,2022-11-24,2022-11-24,ＫＧＣ株式会社,,株式会社,宮城県,仙台市青葉区,郷六字葛岡下４９－１４－７２０５,,04,101,9893121,,,,,,,2022-11-24,1,,,,,ケージーシー,0
214,1420001018080,新規,0,2022-11-24,2022-11-24,株式会社健心,,株式会社,青森県,青森市,篠田２丁目２０番１７号,,02,201,0380011,,,,,,,2022-11-24,1,,,,,ケンシン,0
217,1430001087926,新規,0,2022-11-24,2022-11-24,エクセンエージェンシー株式会社,,株式会社,北海道,札幌市中央区,南六条西４丁目１番地１１,,01,101,0640806,,,,,,,2022-11-24,1,,,,,エクセンエージェンシー,0
229,1700150107242,新規,0,2022-11-24,2022-03-02,広島楽友協会,,その他,広島県,広島市佐伯区,観音台３丁目１９－８,,34,108,7315157,,,,,,,2022-03-02,1,,,,,ヒロシマガクユウキヨウカイ,0
234,2010001230964,新規,0,2022-11-24,2022-11-24,株式会社アリヴィエボーテ,,株式会社,東京都,中央区,銀座１丁目２２番１１号銀座大竹ビジデンス２階,,13,102,1040061,,,,,,,2022-11-24,1,,,,,アリヴィエボーテ,0
235,2010001230989,新規,0,2022-11-24,2022-11-24,株式会社ゼルペム,,株式会社,東京都,中央区,築地６丁目５番５－１００３号,,13,102,1040045,,,,,,,2022-11-24,1,,,,,ゼルペム,0
236,2010001231021,新規,0,2022-11-24,2022-11-24,株式会社ＢＣＪ‐７０,,株式会社,東京都,千代田区,丸の内１丁目１番１号パレスビル５階,,13,101,1000005,,,,,,,2022-11-24,1,,,,,ビーシージェイセブンティー,0
237,2010001231046,新規,0,2022-11-24,2022-11-24,アイファーム株式会社,,株式会社,東京都,中央区,銀座１丁目２２番１１号銀座大竹ビジデンス２階,,13,102,1040061,,,,,,,2022-11-24,1,,,,,アイファーム,0
244,2010401170950,新規,0,2022-11-24,2022-11-24,ヒデ・アセットマネジメント株式会社,,株式会社,東京都,港区,麻布台３丁目３番１５－５０３号,,13,103,1060041,,,,,,,2022-11-24,1,,,,,ヒデアセットマネジメント,0
247,2010403028916,新規,0,2022-11-24,2022-11-24,前田コミュニケーションズ２号合同会社,,合同会社,東京都,港区,芝浦４丁目２０番２号,,13,103,1080023,,,,,,,2022-11-24,1,,,,,マエダコミュニケーションズニゴウ,0
252,2010501049665,新規,0,2022-11-24,2022-11-24,白沢株式会社,,株式会社,東京都,台東区,上野３丁目１６－２天翔上野末広町ビル５階５０７号室,,13,106,1100005,,,,,,,2022-11-24,1,,,,,シラサワ,0
253,2010505003362,新規,0,2022-11-24,2022-11-24,特定非営利活動法人浅草水曜会,,その他の設立登記法人,東京都,台東区,浅草２丁目１８番４号ライオンズプラザ浅草第二９０３号,,13,106,1110032,,,,,,,2022-11-24,1,,,,,アサクサスイヨウカイ,0
255,2010601062188,新規,0,2022-11-24,2022-11-24,クルミ株式会社,,株式会社,東京都,墨田区,八広１丁目１番１－７０３号藤和曳舟コープ,,13,107,1310041,,,,,,,2022-11-24,1,,,,,クルミ,0
259,2010703006480,新規,0,2022-11-24,2022-11-24,合同会社ＪＹＯＧＥＮ,,合同会社,東京都,品川区,南品川３丁目４番１号パークスクエア南品川９０５号室,,13,109,1400004,,,,,,,2022-11-24,1,,,,,ジョゲン,0
264,2010905004398,新規,0,2022-11-24,2022-11-24,司法書士法人あかつき法務事務所,,その他の設立登記法人,東京都,世田谷区,松原２丁目４６番９－５０４号,,13,112,1560043,,,,,,,2022-11-24,1,,,,,アカツキホウムジムショ,0
267,2011001151093,新規,0,2022-11-24,2022-11-24,ＧＯＭＧＯＭ株式会社,,株式会社,東京都,渋谷区,南平台町１５－１０,,13,113,1500036,,,,,,,2022-11-24,1,,,,,ゴムゴム,0
268,2011001151119,新規,0,2022-11-24,2022-11-24,Ｇｏｏｄ　Ｍｏｕｎｔａｉｎ　Ｌａｂ株式会社,,株式会社,東京都,目黒区,上目黒２丁目４９番２号グリーンロード中目黒１０３,,13,110,1530051,,,,,,,2022-11-24,1,,,,,グッドマウンテンラボ,0
274,2011301028264,新規,0,2022-11-24,2022-11-24,オーマッチ株式会社,,株式会社,東京都,杉並区,高円寺北３丁目３１番５号グラン・シャリオ１０２,,13,115,1660002,,,,,,,2022-11-24,1,,,,,,0
275,2011301028272,新規,0,2022-11-24,2022-11-24,ｔｅｐｇｕ　ｃｏｎｓｕｌｔｉｎｇ株式会社,,株式会社,東京都,杉並区,清水３丁目３１番１０号ＹＡＳＨＩＭＡビル３Ｆ,,13,115,1670033,,,,,,,2022-11-24,1,,,,,テピューコンサルティング,0
278,2011501028700,新規,0,2022-11-24,2022-11-24,沢村株式会社,,株式会社,東京都,荒川区,南千住３丁目２７－２浅草ビル,,13,118,1160003,,,,,,,2022-11-24,1,,,,,ザワムラ,0
282,2012305002032,新規,0,2022-11-24,2022-11-24,特定非営利活動法人リトリト,,その他の設立登記法人,東京都,町田市,中町３丁目１０番６号リーブルマンションマチノワ,,13,209,1940021,,,,,,,2022-11-24,1,,,,,リトリト,0
290,2020001149106,新規,0,2022-11-24,2022-11-24,株式会社小島建設,,株式会社,神奈川県,横浜市緑区,北八朔町１０４９番地１,,14,113,2260021,,,,,,,2022-11-24,1,,,,,コジマケンセツ,0
298,2020003022756,新規,0,2022-11-24,2022-11-24,合同会社右脳イノベーション,,合同会社,神奈川県,横浜市保土ケ谷区,天王町１丁目２３－１１－１Ｆ,,14,106,2400003,,,,,,,2022-11-24,1,,,,,ウノウイノベーション,0
299,2020003022780,新規,0,2022-11-24,2022-11-24,合同会社ｋａｎａｋａ,,合同会社,神奈川県,横浜市鶴見区,上末吉５丁目２番１３号,,14,101,2300011,,,,,,,2022-11-24,1,,,,,カナカ,0
305,2021001077511,新規,0,2022-11-24,2022-11-24,日本模碩精密部品株式会社,,株式会社,神奈川県,相模原市南区,南台５丁目２２番１５号赤塚マンション１０１号,,14,153,2520314,,,,,,,2022-11-24,1,,,,,ニホンモケンセイミツブヒン,0
313,2030001151192,新規,0,2022-11-24,2022-11-24,株式会社花蔵,,株式会社,埼玉県,行田市,門井町２丁目２番地２,,11,206,3610044,,,,,,,2022-11-24,1,,,,,ハナクラ,0
317,2030003020610,新規,0,2022-11-24,2022-11-24,合同会社ｃｏｃｏｊｕ,,合同会社,埼玉県,熊谷市,石原１１０１番地,,11,202,3600816,,,,,,,2022-11-24,1,,,,,ココジュ,0
333,2040003021335,新規,0,2022-11-24,2022-11-24,合同会社鈴木,,合同会社,千葉県,千葉市中央区,春日１丁目２２－１３,,12,101,2600033,,,,,,,2022-11-24,1,,,,,スズキ,0
334,2040003021343,新規,0,2022-11-24,2022-11-24,合同会社ＭＡＬＩＴＨＡ　ＩＮＴＥＲＮＡＴＩＯＮＡＬ,,合同会社,千葉県,八千代市,高津１４８４番地５８レオパレス高津ＩＩＩ１０９,00128565,12,221,2760036,,,,,,,2022-11-24,1,,,,,マリタインターナショナル,0
341,2060005010029,新規,0,2022-11-24,2022-11-24,一般社団法人古河市兵衛記念センター,,その他の設立登記法人,栃木県,日光市,足尾町中才１０番１号,,09,206,3211522,,,,,,,2022-11-24,1,,,,,フルカワイチベエキネンセンター,0
344,2070003004725,新規,0,2022-11-24,2022-11-24,合同会社どんぐりグリーンファーム,,合同会社,群馬県,吾妻郡東吾妻町,大字原町５９０番地３,,10,429,3770801,,,,,,,2022-11-24,1,,,,,ドングリグリーンファーム,0
349,2080401026171,新規,0,2022-11-24,2022-11-24,天野整体グループ株式会社,,株式会社,静岡県,掛川市,旭ケ丘２丁目８番地の６,,22,213,4360062,,,,,,,2022-11-24,1,,,,,アマノセイタイグループ,0
357,2110001037128,新規,0,2022-11-24,2022-11-24,株式会社つなげる不動産,,株式会社,新潟県,新潟市中央区,東大通１丁目２番３０号,,15,103,9500087,,,,,,,2022-11-24,1,,,,,ツナゲルフドウサン,0
360,2110003004919,新規,0,2022-11-24,2022-11-24,合同会社ブルーシュガー,,合同会社,新潟県,魚沼市,原虫野３５１―５,,15,225,9460031,,,,,,,2022-11-24,1,,,,,ブルーシュガー,0
380,2120003022911,新規,0,2022-11-24,2022-11-24,合同会社ｔｅａｎａ．,,合同会社,大阪府,大阪市中央区,南久宝寺町２丁目６番１１号,,27,128,5410058,,,,,,,2022-11-24,1,,,,,ティアナ,0
392,2120901046788,新規,0,2022-11-24,2022-11-24,株式会社小牧工務店,,株式会社,大阪府,豊中市,寺内１丁目１１番１９－２０５号,,27,203,5610872,,,,,,,2022-11-24,1,,,,,コマキコウムテン,0
395,2122001036430,新規,0,2022-11-24,2022-11-24,株式会社ＫＴＴ,,株式会社,大阪府,東大阪市,吉田６丁目６番８号,,27,227,5780924,,,,,,,2022-11-24,1,,,,,ケーティーテイー,0
406,2140001128139,新規,0,2022-11-24,2022-11-24,神戸不動産株式会社,,株式会社,兵庫県,神戸市西区,竜が岡１丁目１５－３,,28,111,6512412,,,,,,,2022-11-24,1,,,,,コウベフドウサン,0
411,2170003001794,新規,0,2022-11-24,2022-11-24,Ｋｕｒｏｅ合同会社,,合同会社,和歌山県,海南市,岡田５６９番地１,,30,202,6420012,,,,,,,2022-11-24,1,,,,,クロエ,0
417,2180005020008,新規,0,2022-11-24,2022-11-24,行政書士法人Ｂｒｉｃｋｓ＆ＵＫ,,その他の設立登記法人,愛知県,名古屋市中区,錦２丁目１３番１９号,,23,106,4600003,,,,,,,2022-11-24,1,,,,,ブリックスアンドユーケー,0
418,2180301036847,新規,0,2022-11-24,2022-11-24,ｉｓｔ株式会社,,株式会社,愛知県,安城市,和泉町庄司作４番地３４,,23,212,4441221,,,,,,,2022-11-24,1,,,,,イスト,0
419,2190005011773,新規,0,2022-11-24,2022-11-24,ＧＬＯＢＡＬ　ＷＩＮ協同組合,,その他の設立登記法人,三重県,伊勢市,吹上１丁目３番２２号,,24,203,5160073,,,,,,,2022-11-24,1,,,,,グローバルウィン,0
429,2220005008717,新規,0,2022-11-24,2022-11-24,小松市造園業協同組合,,その他の設立登記法人,石川県,小松市,古府町亥９０番地,,17,203,9230055,,,,,,,2022-11-24,1,,,,,コマツシゾウエンギョウ,0
430,2230003001929,新規,0,2022-11-24,2022-11-24,合同会社カワカミリスクマネジメント,,合同会社,富山県,魚津市,北鬼江２丁目１番１７号,,16,204,9370066,,,,,,,2022-11-24,1,,,,,カワカミリスクマネジメント,0
434,2240001060686,新規,0,2022-11-24,2022-11-24,株式会社Ｄｏｕｃｅ,,株式会社,広島県,安芸郡海田町,南幸町８番４号,,34,304,7360032,,,,,,,2022-11-24,1,,,,,ドゥース,0
435,2240001060694,新規,0,2022-11-24,2022-11-24,株式会社モノコネクト,,株式会社,広島県,広島市安佐北区,倉掛３丁目３５番２３号,,34,106,7391743,,,,,,,2022-11-24,1,,,,,モノコネクト,0
438,2250001019855,新規,0,2022-11-24,2022-11-24,株式会社ａｖｅｃ　ａｍｏｕｒ,,株式会社,山口県,岩国市,錦見７丁目１番１８号,,35,208,7410061,,,,,,,2022-11-24,1,,,,,アヴェカムール,0
440,2260001037427,新規,0,2022-11-24,2022-11-24,オフィスクラウド株式会社,,株式会社,岡山県,倉敷市,阿知３丁目１３番１－８０６号アトラス倉敷ル・サンク,,33,202,7100055,,,,,,,2022-11-24,1,,,,,オフィスクラウド,0
441,2260001037435,新規,0,2022-11-24,2022-11-24,株式会社ＷＡＮＤＤ,,株式会社,岡山県,倉敷市,児島上の町１丁目９－１１,,33,202,7110907,,,,,,,2022-11-24,1,,,,,ワンド,0
445,2260005011163,新規,0,2022-11-24,2022-11-24,医療法人社団ふくしま矯正歯科,,その他の設立登記法人,岡山県,倉敷市,阿知１丁目６番１０号,,33,202,7100055,,,,,,,2022-11-24,1,,,,,シャダンフクシマキョウセイシカ,0
454,2290001099670,新規,0,2022-11-24,2022-11-24,株式会社ＮＳＫホールディングス,,株式会社,福岡県,久留米市,梅満町３８番地１,,40,203,8300048,,,,,,,2022-11-24,1,,,,,エヌエスケーホールディングス,0
455,2290001099679,新規,0,2022-11-24,2022-11-24,株式会社Ｔｒｕｓｔ　Ａｍｕｓｅｍｅｎｔ,,株式会社,福岡県,福岡市博多区,中洲２丁目６番７号４階１号室,,40,132,8100801,,,,,,,2022-11-24,1,,,,,トラストアミューズメント,0
458,2290003013191,新規,0,2022-11-24,2022-11-24,フクキタル合同会社,,合同会社,福岡県,久留米市,安武町安武本１７１８番地２,,40,203,8300072,,,,,,,2022-11-24,1,,,,,フクキタル,0
459,2290801029075,新規,0,2022-11-24,2022-11-24,株式会社としひろ制作,,株式会社,福岡県,北九州市若松区,高須東１丁目８番２１号,,40,103,8080144,,,,,,,2022-11-24,1,,,,,トシヒロセイサク,0
461,2300003001905,新規,0,2022-11-24,2022-11-24,合同会社障害者総合サポート,,合同会社,佐賀県,佐賀市,今宿町１２番２２号,,41,201,8400052,,,,,,,2022-11-24,1,,,,,ショウガイシャソウゴウサポート,0
462,2310003004485,新規,0,2022-11-24,2022-11-24,合同会社ＳＤＧｓ循環社会研究所,,合同会社,長崎県,佐世保市,若葉町４０番３５,,42,202,8570833,,,,,,,2022-11-24,1,,,,,エスディージーズジュンカンシャカイケンキュウショ,0
465,2330003009598,新規,0,2022-11-24,2022-11-24,合同会社ＢＥリアルエステート,,合同会社,熊本県,熊本市南区,島町２丁目８番１５号,,43,104,8614133,,,,,,,2022-11-24,1,,,,,ビーリアルエステート,0
474,2360001031221,新規,0,2022-11-24,2022-11-24,株式会社リアルオート,,株式会社,沖縄県,中頭郡読谷村,字比謝３３,,47,324,9040311,,,,,,,2022-11-24,1,,,,,リアルオート,0
475,2360001031238,新規,0,2022-11-24,2022-11-24,株式会社パッションフルーツ,,株式会社,沖縄県,中頭郡読谷村,字座喜味３１６５番地プラージュはんたばる３０３,,47,324,9040301,,,,,,,2022-11-24,1,,,,,パッションフルーツ,0
476,2360001031246,新規,0,2022-11-24,2022-11-24,株式会社本村,,株式会社,沖縄県,那覇市,安里３丁目６番１５号,,47,201,9020067,,,,,,,2022-11-24,1,,,,,モトムラ,0
478,2360003012491,新規,0,2022-11-24,2022-11-24,クリエイティブ５合同会社,,合同会社,沖縄県,那覇市,字小禄５２０番地コーポラスマルエイ３－Ｃ,,47,201,9010152,,,,,,,2022-11-24,1,,,,,クリエイティブファイブ,0
490,2430001087925,新規,0,2022-11-24,2022-11-24,コズミックエンタテイメント株式会社,,株式会社,北海道,札幌市中央区,南五条西３丁目１０番地,,01,101,0640805,,,,,,,2022-11-24,1,,,,,コズミックエンタテイメント,0
496,2700150112530,新規,0,2022-11-24,2022-11-02,東京湾海堡ツーリズム機構,,その他,神奈川県,横須賀市,小川町２７番地１６,,14,201,2380004,,,,,,,2022-11-02,1,,,,,トウキヨウワンカイホウツーリズムキコウ,0
503,3010001231012,新規,0,2022-11-24,2022-11-24,ＳＤＮＣ株式会社,,株式会社,東京都,千代田区,神田和泉町１番地７の２０,,13,101,1010024,,,,,,,2022-11-24,1,,,,,エスディーエヌシー,0
504,3010001231020,新規,0,2022-11-24,2022-11-24,株式会社ＢＣＪ‐６９,,株式会社,東京都,千代田区,丸の内１丁目１番１号パレスビル５階,,13,101,1000005,,,,,,,2022-11-24,1,,,,,ビーシージェイシックスティーナイン,0
505,3010001231045,新規,0,2022-11-24,2022-11-24,株式会社ＳＨＩＰ第４０２号,,株式会社,東京都,千代田区,丸の内２丁目７番２号,,13,101,1000005,,,,,,,2022-11-24,1,,,,,エスエイチアイピーダイヨンヒャクニゴウ,0
506,3010001231053,新規,0,2022-11-24,2022-11-24,株式会社ＳＨＩＰ第４０９号,,株式会社,東京都,千代田区,丸の内２丁目７番２号,,13,101,1000005,,,,,,,2022-11-24,1,,,,,エスエイチアイピーダイヨンヒャクキュウゴウ,0
514,3010401170925,新規,0,2022-11-24,2022-11-24,株式会社おいしいカンパニー,,株式会社,東京都,港区,芝大門２丁目３番８号,,13,103,1050012,,,,,,,2022-11-24,1,,,,,オイシイカンパニー,0
515,3010401170933,新規,0,2022-11-24,2022-11-24,株式会社ＰＡＣＡ,,株式会社,東京都,港区,西新橋１丁目７番５号,,13,103,1050003,,,,,,,2022-11-24,1,,,,,パカ,0
516,3010401170958,新規,0,2022-11-24,2022-11-24,株式会社Ｆｕｋｉ,,株式会社,東京都,港区,南青山３丁目１番３６号青山丸竹ビル６Ｆ,,13,103,1070062,,,,,,,2022-11-24,1,,,,,フウキ,0
523,3010701043517,新規,0,2022-11-24,2022-11-24,株式会社薬局経営支援機構,,株式会社,東京都,品川区,東大井５丁目２６番２０－１００２号,,13,109,1400011,,,,,,,2022-11-24,1,,,,,ヤッキョクケイエイシエンキコウ,0
530,3010801033450,新規,0,2022-11-24,2022-11-24,株式会社共栄不動産,,株式会社,東京都,大田区,東海３丁目７番２号果山ビル２階,,13,111,1430001,,,,,,,2022-11-24,1,,,,,キョウエイフドウサン,0
533,3010901052020,新規,0,2022-11-24,2022-11-24,株式会社ルクス国際会計,,株式会社,東京都,世田谷区,砧２丁目１６番１,,13,112,1570073,,,,,,,2022-11-24,1,,,,,,0
534,3010901052029,新規,0,2022-11-24,2022-11-24,株式会社ＧＯＬＤＢＡＮＫ,,株式会社,東京都,世田谷区,奥沢７丁目４番１１号クレスト自由が丘２０２号室,,13,112,1580083,,,,,,,2022-11-24,1,,,,,,0
536,3011001151084,新規,0,2022-11-24,2022-11-24,株式会社Ｔｅｅｎｓ‐Ｖｅｎｔｕｒｅ,,株式会社,東京都,渋谷区,道玄坂１丁目１０番８号渋谷道玄坂東急ビル２Ｆ－Ｃ,,13,113,1500043,,,,,,,2022-11-24,1,,,,,ティーンズベンチャー,0
544,3011101100940,新規,0,2022-11-24,2022-11-24,シィエムテクノ株式会社,,株式会社,東京都,新宿区,弁天町１７４番地,,13,104,1620851,,,,,,,2022-11-24,1,,,,,シィエムテクノ,0
545,3011101100957,新規,0,2022-11-24,2022-11-24,ＬｉＴ株式会社,,株式会社,東京都,新宿区,西新宿６丁目１５番１号セントラルパークタワーラ・トゥール新宿４０９,,13,104,1600023,,,,,,,2022-11-24,1,,,,,リト,0
556,3011103012424,新規,0,2022-11-24,2022-11-24,ＮＬＰｅａｎｕｔｓ合同会社,,合同会社,東京都,新宿区,西新宿３丁目３番１３号西新宿水間ビル２Ｆ,,13,104,1600023,,,,,,,2022-11-24,1,,,,,エヌエルピーナッツ,0
558,3011501028699,新規,0,2022-11-24,2022-11-24,翊ＳＰ株式会社,,株式会社,東京都,荒川区,西尾久６丁目１３－１５,,13,118,1160011,,,,,,,2022-11-24,1,,,,,ヨクエスピー,0
565,3011801041591,新規,0,2022-11-24,2022-11-24,株式会社相楽工業,,株式会社,東京都,葛飾区,堀切４丁目１７番１６号メゾン木下３０２,,13,122,1240006,,,,,,,2022-11-24,1,,,,,サガラコウギョウ,0
576,3013303006370,新規,0,2022-11-24,2022-11-24,ＴＭＴ合同会社,,合同会社,東京都,豊島区,巣鴨２丁目５番９号藤田マンション２０４号,,13,116,1700002,,,,,,,2022-11-24,1,,,,,ティーエムティー,0
585,3020001149105,新規,0,2022-11-24,2022-11-24,株式会社ウィズアス,,株式会社,神奈川県,横浜市神奈川区,沢渡１番地２Ｊプロ高島台ノースビル,,14,102,2210844,,,,,,,2022-11-24,1,,,,,ウィズアス,0
595,3030001151191,新規,0,2022-11-24,2022-11-24,株式会社鳥海設備,,株式会社,埼玉県,さいたま市見沼区,大字南中野１１３３番地３３,,11,104,3370042,,,,,,,2022-11-24,1,,,,,トリウミセツビ,0
602,3040001125954,新規,0,2022-11-24,2022-11-24,株式会社ぬくもり,,株式会社,千葉県,柏市,柏１丁目６番４号鈴木ビル,,12,217,2770005,,,,,,,2022-11-24,1,,,,,ヌクモリ,0
603,3040001125962,新規,0,2022-11-24,2022-11-24,株式会社Ｊｏｈｎｎｙ　ａｎｄ　Ｌｕｋｅ,,株式会社,千葉県,千葉市美浜区,中瀬１丁目３番地幕張テクノガーデンＣＢ棟３階ＭＢＰ,,12,106,2610023,,,,,,,2022-11-24,1,,,,,ジョニーアンドルーク,0
605,3040003021342,新規,0,2022-11-24,2022-11-24,ＡＶＥＮＵＥ　ＴＲＡＤＩＮＧ合同会社,,合同会社,千葉県,大網白里市,大網５１１－６大洋ハイム２０２,,12,239,2993251,,,,,,,2022-11-24,1,,,,,アベニュートレーディング,0
614,3080103002692,新規,0,2022-11-24,2022-11-24,合同会社トライキッズ,,合同会社,静岡県,田方郡函南町,間宮３５３番地の５,,22,325,4190123,,,,,,,2022-11-24,1,,,,,トライキッズ,0
619,3100005012944,新規,0,2022-11-24,2022-11-24,特定非営利活動法人湯の原交流会,,その他の設立登記法人,長野県,松本市,大字里山辺２０４番地３,,20,202,3900221,,,,,,,2022-11-24,1,,,,,ユノハラコウリュウカイ,0
632,3120001250257,新規,0,2022-11-24,2022-11-24,株式会社ショウ蓮誘導,,株式会社,大阪府,大阪市港区,磯路３丁目２６－９三徳船舶ビル３０２,,27,107,5520003,,,,,,,2022-11-24,1,,,,,ショウレンユウドウ,0
633,3120001250505,新規,0,2022-11-24,2022-11-24,株式会社Ｌｅａｄｉｎｇ　Ｇｒｏｕｐ,,株式会社,大阪府,大阪市東成区,深江南１丁目１６番２７号２階２０Ａ号室,,27,115,5370002,,,,,,,2022-11-24,1,,,,,リーディンググループ,0
643,3120101066561,新規,0,2022-11-24,2022-11-24,株式会社ＭＷ商事,,株式会社,大阪府,南河内郡千早赤阪村,大字森屋４４７,,27,383,5850044,,,,,,,2022-11-24,1,,,,,エムダブルショウジ,0
648,3122003002454,新規,0,2022-11-24,2022-11-24,合同会社ｗｅｓｔｂｏｏｋ,,合同会社,大阪府,八尾市,植松町５丁目１１番２４号,,27,212,5810084,,,,,,,2022-11-24,1,,,,,ウエストブック,0
655,3130001073137,新規,0,2022-11-24,2022-11-24,株式会社はじめ商会,,株式会社,京都府,京都市北区,紫竹上園生町２６番地２,,26,101,6038421,,,,,,,2022-11-24,1,,,,,ハジメショウカイ,0
658,3130005016637,新規,0,2022-11-24,2022-11-24,一般社団法人Ｈｉｓ　Ｐｒｅｓｅｎｃｅ　Ｃｈｕｒｃｈ,,その他の設立登記法人,京都府,京都市左京区,吉田泉殿町６８番地３２,,26,103,6068301,,,,,,,2022-11-24,1,,,,,ヒズプレゼンスチャーチ,0
674,3210001019164,新規,0,2022-11-24,2022-11-24,株式会社百華,,株式会社,福井県,福井市,大宮５丁目８番２２号,,18,201,9100016,,,,,,,2022-11-24,1,,,,,ヒャッカ,0
675,3210003001582,新規,0,2022-11-24,2022-11-24,合同会社ＧＲＯＷ　ＵＰ,,合同会社,福井県,福井市,和田東１丁目２２１サン・ボニール１０２,,18,201,9188237,,,,,,,2022-11-24,1,,,,,グロウアップ,0
676,3230001019609,新規,0,2022-11-24,2022-11-24,株式会社クレハ,,株式会社,富山県,富山市,下野９７７番地１,,16,201,9300871,,,,,,,2022-11-24,1,,,,,クレハ,0
679,3240001060693,新規,0,2022-11-24,2022-11-24,株式会社三喜,,株式会社,広島県,広島市東区,牛田本町４丁目２番３５－１０３号,,34,102,7320066,,,,,,,2022-11-24,1,,,,,サンキ,0
682,3260001037426,新規,0,2022-11-24,2022-11-24,株式会社ビビッドカラー,,株式会社,岡山県,倉敷市,東塚６丁目６番１６－Ａ２０３号,,33,202,7128044,,,,,,,2022-11-24,1,,,,,ビビッドカラー,0
683,3260001037434,新規,0,2022-11-24,2022-11-24,株式会社Ｒｅ・Ｒｉｎｇ,,株式会社,岡山県,岡山市北区,津島京町１丁目４番１４号,,33,101,7000087,,,,,,,2022-11-24,1,,,,,リリング,0
684,3260005011162,新規,0,2022-11-24,2022-11-24,医療法人社団暁行会,,その他の設立登記法人,岡山県,岡山市北区,東島田町１丁目４６番地２,,33,101,7000983,,,,,,,2022-11-24,1,,,,,ギョウコウカイ,0
695,3290001099678,新規,0,2022-11-24,2022-11-24,Ａｉｒ　ａｍｕｓｅｍｅｎｔ株式会社,,株式会社,福岡県,福岡市中央区,西中洲５番２９号,,40,133,8100002,,,,,,,2022-11-24,1,,,,,エアーアミューズメント,0
705,3330003009589,新規,0,2022-11-24,2022-11-24,和酒貿易合同会社,,合同会社,熊本県,八代市,海士江町３１０３番地１,,43,202,8660893,,,,,,,2022-11-24,1,,,,,ワシュボウエキ,0
708,3350003004225,新規,0,2022-11-24,2022-11-24,阿部林業合同会社,,合同会社,宮崎県,日南市,南郷町贄波３２７６番地,,45,204,8893211,,,,,,,2022-11-24,1,,,,,アベリンギョウ,0
709,3360001031237,新規,0,2022-11-24,2022-11-24,株式会社グレイトフルトレーディング,,株式会社,沖縄県,豊見城市,字豊崎３－５９－４００７,,47,212,9010225,,,,,,,2022-11-24,1,,,,,グレイトフルトレーディング,0
725,3500001024606,新規,0,2022-11-24,2022-11-24,株式会社Ｖａｌｌｅｙ　ｆａｒｍ,,株式会社,愛媛県,松山市,和泉南１丁目９番３７号,,38,201,7900941,,,,,,,2022-11-24,1,,,,,バリーファーム,0
726,3700150110269,新規,0,2022-11-24,2022-06-22,七葉會,00126824,その他,東京都,文京区,根津１丁目２３－９－３０８,,13,105,1130031,,,,,,,2022-06-22,1,,,,,シチヨウカイ,0
736,4010001230938,新規,0,2022-11-24,2022-11-24,株式会社ＺＧｒｏｕｐＣｏａｃｈｉｎｇ,,株式会社,東京都,文京区,本郷２丁目３０番１６号ＣｈｅｚＲａｐｈａｅｌ１０１,,13,105,1130033,,,,,,,2022-11-24,1,,,,,ゼットグループコーチング,0
737,4010001230946,新規,0,2022-11-24,2022-11-24,株式会社オーエム,,株式会社,東京都,中央区,銀座８丁目５番１９号園枝ビル３階３号室,,13,102,1040061,,,,,,,2022-11-24,1,,,,,オーエム,0
738,4010001230970,新規,0,2022-11-24,2022-11-24,株式会社ロッドマン,,株式会社,東京都,千代田区,神田猿楽町２丁目１番２号鎌形ビル４階,,13,101,1010064,,,,,,,2022-11-24,1,,,,,ロッドマン,0
739,4010001231044,新規,0,2022-11-24,2022-11-24,株式会社ＳＨＩＰ第４０１号,,株式会社,東京都,千代田区,丸の内２丁目７番２号,,13,101,1000005,,,,,,,2022-11-24,1,,,,,エスエイチアイピーダイヨンヒャクイチゴウ,0
740,4010001231052,新規,0,2022-11-24,2022-11-24,株式会社ＳＨＩＰ第４０８号,,株式会社,東京都,千代田区,丸の内２丁目７番２号,,13,101,1000005,,,,,,,2022-11-24,1,,,,,エスエイチアイピーダイヨンヒャクハチゴウ,0
741,4010003039023,新規,0,2022-11-24,2022-11-24,出塚事務所合同会社,,合同会社,東京都,千代田区,九段南１丁目５番６号りそな九段ビル５階ＫＳフロア,,13,101,1020074,,,,,,,2022-11-24,1,,,,,デヅカジムショ,0
742,4010003039147,新規,0,2022-11-24,2022-11-24,パームアカウンティング合同会社,,合同会社,東京都,中央区,日本橋２丁目１番１７号丹生ビル２階,,13,102,1030027,,,,,,,2022-11-24,1,,,,,パームアカウンティング,0
743,4010005035821,新規,0,2022-11-24,2022-11-24,特定非営利活動法人コミュニティサービス,,その他の設立登記法人,東京都,千代田区,飯田橋２丁目９番４号サンパーク千代田１００２号,,13,101,1020072,,,,,,,2022-11-24,1,,,,,コミュニティサービス,0
749,4010401170949,新規,0,2022-11-24,2022-11-24,株式会社ＧＦＫソリューションズ,,株式会社,東京都,港区,白金３丁目４番１－５０２号,,13,103,1080072,,,,,,,2022-11-24,1,,,,,ジーエフケーソリューションズ,0
755,4010501049655,新規,0,2022-11-24,2022-11-24,半夏国際貿易株式会社,,株式会社,東京都,台東区,蔵前４丁目３４番７－９０２号,,13,106,1110051,,,,,,,2022-11-24,1,,,,,ハンゲコクサイボウエキ,0
756,4010501049663,新規,0,2022-11-24,2022-11-24,株式会社ＡＳＡＨＩ教育,,株式会社,東京都,台東区,浅草橋５丁目１番３１号,,13,106,1110053,,,,,,,2022-11-24,1,,,,,アサヒキョウイク,0
757,4010501049671,新規,0,2022-11-24,2022-11-24,タピタル株式会社,,株式会社,東京都,台東区,元浅草４丁目４番１９－７０１号新御徒町アムフラット,,13,106,1110041,,,,,,,2022-11-24,1,,,,,タピタル,0
776,4010901052011,新規,0,2022-11-24,2022-11-24,株式会社三代城,,株式会社,東京都,世田谷区,三宿１丁目７番６号,,13,112,1540005,,,,,,,2022-11-24,1,,,,,サンダイジョウ,0
777,4010901052028,新規,0,2022-11-24,2022-11-24,株式会社アートｏｄａｍｏｔｏ,,株式会社,東京都,世田谷区,奥沢７丁目４番１１号クレスト自由が丘２０２号室,,13,112,1580083,,,,,,,2022-11-24,1,,,,,,0
782,4011001151117,新規,0,2022-11-24,2022-11-24,株式会社ＰＡＵＬＯ　ＧＩＶＳ,,株式会社,東京都,渋谷区,恵比寿西１丁目３３番６号,,13,113,1500021,,,,,,,2022-11-24,1,,,,,パウロギブス,0
784,4011005009848,新規,0,2022-11-24,2022-11-24,一般社団法人ゴールド基金,,その他の設立登記法人,東京都,渋谷区,道玄坂１丁目１０番８号渋谷道玄坂東急ビル２Ｆ－Ｃ,,13,113,1500043,,,,,,,2022-11-24,1,,,,,ゴールドキキン,0
790,4011103012415,新規,0,2022-11-24,2022-11-24,Ａｚｅｎｄｉａｎ　Ｓｏｌｕｔｉｏｎｓ合同会社,,合同会社,東京都,新宿区,新宿２丁目２－１０－６０５,,13,104,1600022,,,,,,,2022-11-24,1,,,,,アゼンディアンソリューションズ,0
802,4011803005395,新規,0,2022-11-24,2022-11-24,合同会社ＫＯＳＩ,,合同会社,東京都,足立区,小台１丁目２４番５－７０６号,,13,121,1200046,,,,,,,2022-11-24,1,,,,,コシ,0
806,4012801021979,新規,0,2022-11-24,2022-11-24,Ｋ‐ＡＩＳ株式会社,,株式会社,東京都,昭島市,朝日町３丁目１４番１６号,,13,207,1960025,,,,,,,2022-11-24,1,,,,,ケーアイズ,0
817,4020001149112,新規,0,2022-11-24,2022-11-24,スマイル警備保障株式会社,,株式会社,神奈川県,横浜市南区,六ツ川３丁目７６番地１－Ｂ５０３,,14,105,2320066,,,,,,,2022-11-24,1,,,,,スマイルケイビホショウ,0
821,4020003022787,新規,0,2022-11-24,2022-11-24,河原企画合同会社,,合同会社,神奈川県,川崎市川崎区,桜本１丁目１９番１６号,,14,131,2100833,,,,,,,2022-11-24,1,,,,,カワハラキカク,0
822,4020005015731,新規,0,2022-11-24,2022-11-24,一般社団法人南モンゴルクリルタイ,,その他の設立登記法人,神奈川県,川崎市麻生区,片平５丁目１９番１号フォートレス五月台２０１号,,14,137,2150023,,,,,,,2022-11-24,1,,,,,ミナミモンゴルクリルタイ,0
824,4021001077526,新規,0,2022-11-24,2022-11-24,株式会社中村造園土木,,株式会社,神奈川県,秦野市,曽屋１７３７番地の１８,,14,211,2570031,,,,,,,2022-11-24,1,,,,,ナカムラゾウエンドボク,0
830,4030001151190,新規,0,2022-11-24,2022-11-24,株式会社ラングレー,,株式会社,埼玉県,春日部市,増富２９５番地１１,,11,214,3440041,,,,,,,2022-11-24,1,,,,,ラングレー,0
842,4040001125961,新規,0,2022-11-24,2022-11-24,スルタンバフー株式会社,,株式会社,千葉県,木更津市,長須賀１９８９番地３,,12,206,2920054,,,,,,,2022-11-24,1,,,,,スルタンバフー,0
844,4040003021341,新規,0,2022-11-24,2022-11-24,合同会社正勝堂,,合同会社,千葉県,市原市,廿五里１５３７番地,,12,219,2900032,,,,,,,2022-11-24,1,,,,,マサカツドウ,0
845,4040005021819,新規,0,2022-11-24,2022-11-24,医療法人社団とみた会,,その他の設立登記法人,千葉県,千葉市花見川区,幕張本郷２丁目９番１号ファーストコーポ幕張本郷２Ｆ,,12,102,2620033,,,,,,,2022-11-24,1,,,,,トミタカイ,0
851,4070003004723,新規,0,2022-11-24,2022-11-24,合同会社Ｃｌａｓｓｉｃ,,合同会社,群馬県,館林市,本町２丁目１４番５号グランコンフォート１階西,,10,207,3740024,,,,,,,2022-11-24,1,,,,,クラシック,0
854,4080101023657,新規,0,2022-11-24,2022-11-24,株式会社マーマルズ,,株式会社,静岡県,下田市,吉佐美１９３７番地の１,,22,219,4150028,,,,,,,2022-11-24,1,,,,,マーマルズ,0
869,4120001250446,新規,0,2022-11-24,2022-11-24,ＶＮＣテック株式会社,,株式会社,大阪府,守口市,大日町４丁目４０番６号,,27,209,5700003,,,,,,,2022-11-24,1,,,,,ヴィーエヌシーテック,0
870,4120001250454,新規,0,2022-11-24,2022-11-24,株式会社ＢＬＵ‐ＴＥＣ,,株式会社,大阪府,大阪市北区,梅田１丁目１－３大阪駅前第３ビル２９階１－１－１号室,,27,127,5300001,,,,,,,2022-11-24,1,,,,,ブルーテック,0
871,4120001250487,新規,0,2022-11-24,2022-11-24,ライラック株式会社,,株式会社,大阪府,大阪市東住吉区,田辺３丁目２１番１３号クローバーソレイユ南田辺５０２号,,27,121,5460031,,,,,,,2022-11-24,1,,,,,ライラック,0
872,4120001250495,新規,0,2022-11-24,2022-11-24,株式会社ｓｔａｎｃｅ,,株式会社,大阪府,大阪市淀川区,西中島５丁目９番５号ＮＬＣ新大阪ビル８０２号室,,27,123,5320011,,,,,,,2022-11-24,1,,,,,スタンス,0
873,4120001250504,新規,0,2022-11-24,2022-11-24,はなまるトレーディング株式会社,,株式会社,大阪府,大阪市住之江区,南港北１丁目１４番１６号,,27,125,5590034,,,,,,,2022-11-24,1,,,,,ハナマルトレーディング,0
879,4120101066577,新規,0,2022-11-24,2022-11-24,株式会社Ｃｒｅａｔｅ,,株式会社,大阪府,羽曳野市,高鷲２丁目３番１９号,,27,222,5830882,,,,,,,2022-11-24,1,,,,,クリエイト,0
886,4130001073152,新規,0,2022-11-24,2022-11-24,株式会社ＳＯ‐ＡＮ,,株式会社,京都府,京都市左京区,一乗寺出口町１番地,,26,103,6068164,,,,,,,2022-11-24,1,,,,,ソウアン,0
891,4140001128145,新規,0,2022-11-24,2022-11-24,株式会社Ｏｎｅ　ｃｏｌｚａ,,株式会社,兵庫県,西宮市,越水町１２番１１－２０３号,,28,204,6620864,,,,,,,2022-11-24,1,,,,,ワンコルザ,0
897,4180001153932,新規,0,2022-11-24,2022-11-24,テトリアサポート株式会社,,株式会社,愛知県,名古屋市天白区,植田山１丁目８０５番地（タウニー植田山Ａ棟２０２号）,,23,116,4680001,,,,,,,2022-11-24,1,,,,,テトリアサポート,0
903,4180301036845,新規,0,2022-11-24,2022-11-24,株式会社インディゴＣＨＩＣＫ,,株式会社,愛知県,岡崎市,上里１丁目６番地３９,,23,202,4442136,,,,,,,2022-11-24,1,,,,,インディゴチック,0
908,4210001019163,新規,0,2022-11-24,2022-11-24,株式会社蓮興業,,株式会社,福井県,福井市,灯明寺２丁目１７０１番地１,,18,201,9100063,,,,,,,2022-11-24,1,,,,,ハスコウギョウ,0
914,4240003005902,新規,0,2022-11-24,2022-11-24,リバーフォレスト合同会社,,合同会社,広島県,広島市安佐南区,西原６丁目８番８号,,34,105,7310113,,,,,,,2022-11-24,1,,,,,リバーフォレスト,0
919,4260001037433,新規,0,2022-11-24,2022-11-24,真栄工業株式会社,,株式会社,岡山県,倉敷市,中島２１６１番地,,33,202,7100803,,,,,,,2022-11-24,1,,,,,シンエイコウギョウ,0
921,4260005011161,新規,0,2022-11-24,2022-11-24,医療法人社団きよたつみ会,,その他の設立登記法人,岡山県,岡山市中区,高島新屋敷７１５番地１,,33,102,7038241,,,,,,,2022-11-24,1,,,,,シャダンキヨタツミカイ,0
927,4290001099669,新規,0,2022-11-24,2022-11-24,Ｗｅｌｌ　Ａｃｔ　Ｊａｐａｎ株式会社,,株式会社,福岡県,福岡市中央区,高砂１丁目２０番１８号,,40,133,8100011,,,,,,,2022-11-24,1,,,,,ウェルアクトジャパン,0
928,4290001099677,新規,0,2022-11-24,2022-11-24,株式会社ヴォア・ラクテ,,株式会社,福岡県,福岡市博多区,中洲５丁目１番２２号松月堂ビル４階ＺＥＲＯＩＣＨＩ,,40,132,8100801,,,,,,,2022-11-24,1,,,,,ヴォアラクテ,0
932,4290801029073,新規,0,2022-11-24,2022-11-24,株式会社やまもと建設,,株式会社,福岡県,豊前市,大字畠中１６５８番地,,40,214,8280001,,,,,,,2022-11-24,1,,,,,ヤマモトケンセツ,0
941,4340001025198,新規,0,2022-11-24,2022-11-24,株式会社ｍｋＭ,,株式会社,鹿児島県,枕崎市,大塚南町２７２番地,,46,204,8980029,,,,,,,2022-11-24,1,,,,,エムケイエム,0
944,4360001031236,新規,0,2022-11-24,2022-11-24,プロレンタ株式会社,,株式会社,沖縄県,中頭郡西原町,字小波津３４２番地１０・２Ｆ,,47,329,9030118,,,,,,,2022-11-24,1,,,,,プロレンタ,0
951,4400005008283,新規,0,2022-11-24,2022-11-24,一般財団法人みらい創造財団朝日のあたる家,,その他の設立登記法人,岩手県,陸前高田市,米崎町字松峰４８番地１,,03,210,0292206,,,,,,,2022-11-24,1,,,,,ミライソウゾウザイダンアサヒノアタルイエ,0
966,4700150111654,新規,0,2022-11-24,2022-11-24,ｔｉａｎｊｉｎ　ｈｕｉｘｉｎｈｅｎｇｔｏｎｇ　ｋｅｊｉ　ｙｏｕｘｉａｎｇｏｎｇｓｉ,,外国会社等,,,,,,,,ｂｅｉｃｈｅｎｚｈｅｎ　ｂｅｉｃｈｅｎｄａｓｈａ　２ｈａｏｌｏｕ１３０２ｓｈｉ　ｔｉａｎｊｉｎ　ｂｅｉｃｈｅｎ　Ｃｈｉｎａ,,,,,,2022-11-24,1,,,,,テンジンフェシンヘントンケジユウケンコウシ,0
971,5010001230945,新規,0,2022-11-24,2022-11-24,Ｐｒｅｓｅｒｖｅ　Ｍｅｄｉｃａｌ　Ｓｃｉｅｎｃｅ株式会社,,株式会社,東京都,文京区,本郷６丁目２５番１４号,,13,105,1130033,,,,,,,2022-11-24,1,,,,,プリザーブメディカルサイエンス,0
972,5010001231035,新規,0,2022-11-24,2022-11-24,トートオーラム株式会社,,株式会社,東京都,千代田区,内神田３丁目３番１４号,,13,101,1010047,,,,,,,2022-11-24,1,,,,,トートオーラム,0
973,5010001231043,新規,0,2022-11-24,2022-11-24,株式会社ＳＨＩＰ第４００号,,株式会社,東京都,千代田区,丸の内２丁目７番２号,,13,101,1000005,,,,,,,2022-11-24,1,,,,,エスエイチアイピーダイヨンヒャクゴウ,0
974,5010001231051,新規,0,2022-11-24,2022-11-24,株式会社ＳＨＩＰ第４０７号,,株式会社,東京都,千代田区,丸の内２丁目７番２号,,13,101,1000005,,,,,,,2022-11-24,1,,,,,エスエイチアイピーダイヨンヒャクナナゴウ,0
976,5010105002191,新規,0,2022-11-24,2022-11-24,一般社団法人オレンジハウス,,その他の設立登記法人,東京都,八王子市,清川町２７番地６,,13,201,1930804,,,,,,,2022-11-24,1,,,,,オレンジハウス,0
989,5010701043515,新規,0,2022-11-24,2022-11-24,株式会社メタソフィア,,株式会社,東京都,品川区,東品川３丁目２２番２０－１３１５号,,13,109,1400002,,,,,,,2022-11-24,1,,,,,メタソフィア,0
990,5010703006478,新規,0,2022-11-24,2022-11-24,Ｅａｍｏｎ合同会社,,合同会社,東京都,品川区,東五反田２丁目５－２・３０６号室,,13,109,1410022,,,,,,,2022-11-24,1,,,,,イーモン,0
996,5010901052019,新規,0,2022-11-24,2022-11-24,株式会社Ｂｏｎｄ,,株式会社,東京都,世田谷区,用賀１丁目１５－１２－２１１,,13,112,1580097,,,,,,,2022-11-24,1,,,,,,0
999,5011001151099,新規,0,2022-11-24,2022-11-24,株式会社Ｃｒｅａｔｉｖｅ　Ｌｏｇｉｃ,,株式会社,東京都,渋谷区,渋谷３丁目２６－１６第５叶ビル５Ｆ,,13,113,1500002,,,,,,,2022-11-24,1,,,,,クリエイティブロジック,0
1000,5011003015764,新規,0,2022-11-24,2022-11-24,ＢＣ合同会社,,合同会社,東京都,渋谷区,代々木１丁目１７番７号,,13,113,1510053,,,,,,,2022-11-24,1,,,,,ビーシー,0
1003,5011101100922,新規,0,2022-11-24,2022-11-24,株式会社Ｊ＆Ｋツアー,,株式会社,東京都,新宿区,上落合２丁目２２番１２号ウインズ落合２０６号室,,13,104,1610034,,,,,,,2022-11-24,1,,,,,ジェイアンドケイツアー,0
1012,5011803005394,新規,0,2022-11-24,2022-11-24,合同会社ｖｉｓｉｔ,,合同会社,東京都,足立区,千住曙町１４－３ルサンク１０１,,13,121,1200023,,,,,,,2022-11-24,1,,,,,ビジット,0
1015,5012303001751,新規,0,2022-11-24,2022-11-24,合同会社ディサイドライフ,,合同会社,東京都,町田市,金森東２丁目９番９号,,13,209,1940015,,,,,,,2022-11-24,1,,,,,ディサイドライフ,0
1030,5020001149103,新規,0,2022-11-24,2022-11-24,株式会社１８ｔｅｃｈｎｏｌｏｇｉｅｓ,,株式会社,神奈川県,横浜市戸塚区,矢部町６９０－１８,,14,110,2440002,,,,,,,2022-11-24,1,,,,,エイティーンテクノロジーズ,0
1036,5020003022786,新規,0,2022-11-24,2022-11-24,合同会社ゲートウェイ,,合同会社,神奈川県,横浜市西区,久保町１５番１６－１０１号,,14,103,2200061,,,,,,,2022-11-24,1,,,,,ゲートウェイ,0
1038,5020005015730,新規,0,2022-11-24,2022-11-24,ＮＰＯ法人リーガーレ,,その他の設立登記法人,神奈川県,横浜市神奈川区,沢渡２３－３３,,14,102,2210844,,,,,,,2022-11-24,1,,,,,リーガーレ,0
1042,5021001077525,新規,0,2022-11-24,2022-11-24,株式会社ｎａｔｕｒｅ,,株式会社,神奈川県,相模原市中央区,上溝４５９８番地５,,14,152,2520243,,,,,,,2022-11-24,1,,,,,ナチュール,0
1044,5021003012414,新規,0,2022-11-24,2022-11-24,ＬＴＦ合同会社,,合同会社,神奈川県,藤沢市,鵠沼石上１丁目７－８ビッグライズビル５Ｆ,,14,205,2510025,,,,,,,2022-11-24,1,,,,,エルティエフ,0
1051,5030001151173,新規,0,2022-11-24,2022-11-24,すみれＸｔｒｅｍｅ株式会社,,株式会社,埼玉県,秩父郡小鹿野町,河原沢１１１７,,11,365,3680113,,,,,,,2022-11-24,1,,,,,スミレエクストリーム,0
1057,5030003020632,新規,0,2022-11-24,2022-11-24,合同会社ｈａｎａｈａｃｏ,,合同会社,埼玉県,ふじみ野市,大原２丁目４番２３号,,11,245,3560003,,,,,,,2022-11-24,1,,,,,ハナハコ,0
1062,5040001125977,新規,0,2022-11-24,2022-11-24,株式会社家元,,株式会社,千葉県,千葉市中央区,松ケ丘町３９４番地,,12,101,2600807,,,,,,,2022-11-24,1,,,,,イエモト,0
1063,5040001125985,新規,0,2022-11-24,2022-11-24,株式会社ＮＩＫＩ,,株式会社,千葉県,千葉市中央区,中央４丁目１２－９ひまわり中央ビル１階,,12,101,2600013,,,,,,,2022-11-24,1,,,,,エヌアイケイアイ,0
1068,5040003021332,新規,0,2022-11-24,2022-11-24,合同会社アルバト,,合同会社,千葉県,千葉市緑区,土気町１５８１番地１４,,12,105,2670061,,,,,,,2022-11-24,1,,,,,アルバト,0
1069,5040003021340,新規,0,2022-11-24,2022-11-24,合同会社ＹＣ,,合同会社,千葉県,松戸市,日暮３９９番地の２７カーサ八柱１０２,,12,207,2702253,,,,,,,2022-11-24,1,,,,,ワイシー,0
1081,5120001250437,新規,0,2022-11-24,2022-11-24,株式会社佳楽,,株式会社,大阪府,大阪市浪速区,大国２丁目２－２３－５Ｆ,,27,111,5560014,,,,,,,2022-11-24,1,,,,,ケイラク,0
1082,5120001250486,新規,0,2022-11-24,2022-11-24,株式会社インターナショナル・トレーディング,,株式会社,大阪府,大阪市北区,西天満３丁目６番２２号日宝北大阪屋ビル９Ｆ４号室,,27,127,5300047,,,,,,,2022-11-24,1,,,,,インターナショナルトレーディング,0
1086,5120003022850,新規,0,2022-11-24,2022-11-24,Ｒｅｇｕｉｌｄ合同会社,,合同会社,大阪府,大阪市浪速区,戎本町１丁目４－１６トゥリオーニＥＢＩＳＵ１００１,,27,111,5560013,,,,,,,2022-11-24,1,,,,,リギルド,0
1100,5140001128160,新規,0,2022-11-24,2022-11-24,株式会社Ｍ＆Ｔ,,株式会社,兵庫県,加古川市,加古川町南備後１１３－１マストコート加古川南Ｅ－１０５,,28,210,6750033,,,,,,,2022-11-24,1,,,,,エムアンドティー,0
1105,5160001024663,新規,0,2022-11-24,2022-11-24,株式会社Ｏｐｔｉｍｉｓｍｏ,,株式会社,滋賀県,大津市,松が丘１丁目３番４号,,25,201,5202102,,,,,,,2022-11-24,1,,,,,オプティミスモ,0
1106,5170001017385,新規,0,2022-11-24,2022-11-24,株式会社ＫＡＩ,,株式会社,和歌山県,御坊市,名田町楠井字内垣内７１４番地４,,30,205,6440021,,,,,,,2022-11-24,1,,,,,カイ,0
1116,5180003024528,新規,0,2022-11-24,2022-11-24,合同会社ライトアップ,,合同会社,愛知県,名古屋市北区,敷島町７７番地,,23,103,4620045,,,,,,,2022-11-24,1,,,,,ライトアップ,0
1132,5260003004109,新規,0,2022-11-24,2022-11-24,ＡＮＴ合同会社,,合同会社,岡山県,倉敷市,白楽町５６５番地はくらくハウス８号,,33,202,7100824,,,,,,,2022-11-24,1,,,,,エーエヌティー,0
1138,5290001099668,新規,0,2022-11-24,2022-11-24,西日本総合サービス株式会社,,株式会社,福岡県,福岡市中央区,警固２丁目６番１６－３０７号,,40,133,8100023,,,,,,,2022-11-24,1,,,,,ニシニホンソウゴウサービス,0
1139,5290001099676,新規,0,2022-11-24,2022-11-24,株式会社田中地所グループ,,株式会社,福岡県,糸島市,加布里５丁目１５番１５号,,40,230,8191124,,,,,,,2022-11-24,1,,,,,タナカジショグループ,0
1153,5340001025197,新規,0,2022-11-24,2022-11-24,アジアＴホールディングス株式会社,,株式会社,鹿児島県,鹿児島市,伊敷台２丁目５番８号,,46,201,8900007,,,,,,,2022-11-24,1,,,,,アジアティーホールディングス,0
1154,5340003003977,新規,0,2022-11-24,2022-11-24,アルファ・オメガ合同会社,,合同会社,鹿児島県,鹿児島市,南新町２７番４８号,,46,201,8900085,,,,,,,2022-11-24,1,,,,,アルファオメガ,0
1156,5360001031227,新規,0,2022-11-24,2022-11-24,株式会社ｅｄｇｅ,,株式会社,沖縄県,那覇市,曙３丁目１８の１９野里ハイム６－Ｃ号室,,47,201,9000002,,,,,,,2022-11-24,1,,,,,エッジ,0
1157,5360001031235,新規,0,2022-11-24,2022-11-24,株式会社Ｙ’ｓ　Ｇａｒｄｅｎ,,株式会社,沖縄県,中頭郡北谷町,字吉原７９３－１２新崎アパートＡ,,47,326,9040105,,,,,,,2022-11-24,1,,,,,ワイズガーデン,0
1178,5410001013327,新規,0,2022-11-24,2022-11-24,株式会社簾宮建工,00128563,株式会社,秋田県,大館市,字観音堂７１４番地３,,05,204,0170042,,,,,,,2022-11-24,1,,,,,スノミヤケンコウ,0
1183,5460101007281,新規,0,2022-11-24,2022-11-24,ＳＰＡＣＥＡＧＥＮＴ株式会社,,株式会社,北海道,広尾郡大樹町,栄通２９番地１９,,01,641,0892140,,,,,,,2022-11-24,1,,,,,スペースエージェント,0
1194,6010001230993,新規,0,2022-11-24,2022-11-24,株式会社ビジョンセリング,,株式会社,東京都,中央区,銀座１丁目２２番１１号銀座大竹ビジデンス２階,,13,102,1040061,,,,,,,2022-11-24,1,,,,,ビジョンセリング,0
1195,6010001231001,新規,0,2022-11-24,2022-11-24,Ｉｎｔｅｒｎａｔｉｏｎａｌ　Ｃａｒ　Ｄｅｓｉｇｎ　Ｃｏｍｐａｎｙ株式会社,,株式会社,東京都,中央区,銀座６丁目１３番１６号銀座ＷａｌｌビルＵＣＦ５０１,,13,102,1040061,,,,,,,2022-11-24,1,,,,,インターナショナルカーデザインカンパニー,0
1196,6010001231034,新規,0,2022-11-24,2022-11-24,文京不動産株式会社,,株式会社,東京都,文京区,小石川２丁目２２番５号,,13,105,1120002,,,,,,,2022-11-24,1,,,,,ブンキョウフドウサン,0
1197,6010001231050,新規,0,2022-11-24,2022-11-24,株式会社ＳＨＩＰ第４０６号,,株式会社,東京都,千代田区,丸の内２丁目７番２号,,13,101,1000005,,,,,,,2022-11-24,1,,,,,エスエイチアイピーダイヨンヒャクロクゴウ,0
1198,6010003039120,新規,0,2022-11-24,2022-11-24,宮古島リゾートホテル合同会社,,合同会社,東京都,千代田区,大手町１丁目１番１号,,13,101,1000004,,,,,,,2022-11-24,1,,,,,ミヤコジマリゾートホテル,0
1199,6010003039153,新規,0,2022-11-24,2022-11-24,竜美堂合同会社,,合同会社,東京都,中央区,銀座８丁目１５－１０,,13,102,1040061,,,,,,,2022-11-24,1,,,,,タツミドウ,0
1205,6010401171012,新規,0,2022-11-24,2022-11-24,株式会社ＪＴｏｋｙｏ,,株式会社,東京都,港区,新橋２丁目５番６号,,13,103,1050004,,,,,,,2022-11-24,1,,,,,ジェイトウキョウ,0
1209,6010501049645,新規,0,2022-11-24,2022-11-24,勝株式会社,,株式会社,東京都,台東区,浅草橋１丁目２０番７朝騰ビル５０２号,,13,106,1110053,,,,,,,2022-11-24,1,,,,,カツ,0
1210,6010601062201,新規,0,2022-11-24,2022-11-24,株式会社ＳＡ‐Ｖ,,株式会社,東京都,墨田区,江東橋２丁目６番１２号三経８５ビル地下１階,,13,107,1300022,,,,,,,2022-11-24,1,,,,,エスエーブイ,0
1226,6011001151123,新規,0,2022-11-24,2022-11-24,株式会社Ｌｉｆｅ　Ｗｏｒｋ　Ｔｅｃｈｎｏｌｏｇｉｅｓ,,株式会社,東京都,渋谷区,渋谷１丁目１番３号,,13,113,1500002,,,,,,,2022-11-24,1,,,,,ライフワークテクノロジーズ,0
1227,6011003015771,新規,0,2022-11-24,2022-11-24,合同会社サクラ,,合同会社,東京都,渋谷区,神宮前６丁目３３番１号ラメゾンドローズ１Ｃ,,13,113,1500001,,,,,,,2022-11-24,1,,,,,サクラ,0
1235,6011501028696,新規,0,2022-11-24,2022-11-24,ＡＰＧＢ株式会社,,株式会社,東京都,北区,豊島７丁目３１番２３号２０７室,,13,117,1140003,,,,,,,2022-11-24,1,,,,,エーピージーピー,0
1240,6011801041589,新規,0,2022-11-24,2022-11-24,広至貿易商会株式会社,,株式会社,東京都,葛飾区,青戸３丁目１３番２１－３０２号,,13,122,1250062,,,,,,,2022-11-24,1,,,,,コウシボウエキショウカイ,0
1271,6030001151189,新規,0,2022-11-24,2022-11-24,ツル不動産株式会社,,株式会社,埼玉県,さいたま市緑区,東浦和４丁目１０番１２号レジデンス立花１０２,,11,109,3360926,,,,,,,2022-11-24,1,,,,,ツルフドウサン,0
1273,6030003020631,新規,0,2022-11-24,2022-11-24,Ｓ＆Ｋ合同会社,,合同会社,埼玉県,鶴ヶ島市,脚折町１丁目３８番３－１０２号ケイコウコーポＩＩＩ,00128557,11,241,3502211,,,,,,,2022-11-24,1,,,,,エスアンドケー,0
1279,6040001125984,新規,0,2022-11-24,2022-11-24,株式会社ＳＯＬＩＤ,,株式会社,千葉県,白井市,七次台３丁目４８番１９号,,12,232,2701436,,,,,,,2022-11-24,1,,,,,ソリッド,0
1286,6040003021331,新規,0,2022-11-24,2022-11-24,合同会社ＮＥＷ　ＲＥＶＩＶＥＲ,,合同会社,千葉県,野田市,山崎１６２９－４,,12,208,2780022,,,,,,,2022-11-24,1,,,,,ニューリバイバー,0
1287,6050001051718,新規,0,2022-11-24,2022-11-24,ニコン興業株式会社,,株式会社,茨城県,稲敷郡阿見町,大字荒川本郷２２６－３,,08,443,3001152,,,,,,,2022-11-24,1,,,,,ニコンコウギョウ,0
1297,6100001035905,新規,0,2022-11-24,2022-11-24,株式会社日興,,株式会社,長野県,佐久市,岩村田２８００番地１１,,20,217,3850022,,,,,,,2022-11-24,1,,,,,ニッコウ,0
1316,6120001250485,新規,0,2022-11-24,2022-11-24,株式会社Ｍａｋｕｒａｇｉ,,株式会社,大阪府,大阪市北区,梅田２丁目４－９ブリーゼタワー１階,,27,127,5300001,,,,,,,2022-11-24,1,,,,,マクラギ,0
1317,6120001250535,新規,0,2022-11-24,2022-11-24,株式会社ケアリーフ,,株式会社,大阪府,大阪市旭区,清水１丁目１７番１５号エアロビル１階,,27,117,5350021,,,,,,,2022-11-24,1,,,,,ケアリーフ,0
1323,6120901046743,新規,0,2022-11-24,2022-11-24,株式会社オクトパス,,株式会社,大阪府,箕面市,粟生間谷西４丁目２番３４－３０２号,,27,220,5620023,,,,,,,2022-11-24,1,,,,,オクトパス,0
1349,6140003018375,新規,0,2022-11-24,2022-11-24,ＰＩＮＯＣＯＬＡ合同会社,,合同会社,兵庫県,西宮市,今津二葉町１－２０,,28,204,6638228,,,,,,,2022-11-24,1,,,,,ピノコラ,0
1350,6150005009438,新規,0,2022-11-24,2022-11-24,一般社団法人ウエストブリッジ研究所,,その他の設立登記法人,奈良県,香芝市,瓦口２０８－１,,29,210,6390225,,,,,,,2022-11-24,1,,,,,ウエストブリッジケンキュウジョ,0
1360,6180301036851,新規,0,2022-11-24,2022-11-24,株式会社アデリーズ,,株式会社,愛知県,豊川市,高見町３丁目１６番地,,23,207,4420883,,,,,,,2022-11-24,1,,,,,アデリーズ,0
1362,6190001029948,新規,0,2022-11-24,2022-11-24,株式会社クロール,,株式会社,三重県,桑名市,大字播磨６０３番地の７,,24,205,5110862,,,,,,,2022-11-24,1,,,,,クロール,0
1366,6200003005747,新規,0,2022-11-24,2022-11-24,合同会社エイチシーエス,,合同会社,岐阜県,可児市,虹ケ丘３丁目９８番地,,21,214,5090261,,,,,,,2022-11-24,1,,,,,エイチシーエス,0
1369,6220001025142,新規,0,2022-11-24,2022-11-24,株式会社ＫＯＵＥＴＳＵ,,株式会社,石川県,金沢市,畝田西４丁目９１番地２,,17,201,9200342,,,,,,,2022-11-24,1,,,,,コウエツ,0
1370,6220003003402,新規,0,2022-11-24,2022-11-24,合同会社ベルメディコ,,合同会社,石川県,金沢市,米泉町１０丁目１番地５０,,17,201,9218044,,,,,,,2022-11-24,1,,,,,ベルメディコ,0
1372,6240001060690,新規,0,2022-11-24,2022-11-24,株式会社トウシンホールディングス,,株式会社,広島県,広島市中区,住吉町２１番１０号,,34,101,7300813,,,,,,,2022-11-24,1,,,,,トウシンホールディングス,0
1379,6260001037431,新規,0,2022-11-24,2022-11-24,株式会社白石工事,,株式会社,岡山県,岡山市南区,並木町２丁目１３番２４号,,33,104,7028058,,,,,,,2022-11-24,1,,,,,シライシコウジ,0
1382,6260003004108,新規,0,2022-11-24,2022-11-24,合同会社ロジャー,,合同会社,岡山県,倉敷市,上富井５７２－５－１０１,,33,202,7100846,,,,,,,2022-11-24,1,,,,,ロジャー,0
1388,6290001099675,新規,0,2022-11-24,2022-11-24,株式会社ＭＭＴ,,株式会社,福岡県,福岡市東区,香椎駅東３丁目１３番７－４０１号,,40,131,8130012,,,,,,,2022-11-24,1,,,,,エムエムティ,0
1401,6320003003953,新規,0,2022-11-24,2022-11-24,合同会社モンシェリ企画社,,合同会社,大分県,別府市,大字鶴見３０４６番地の１３,,44,202,8740840,,,,,,,2022-11-24,1,,,,,モンシェリキカクシャ,0
1406,6340001025196,新規,0,2022-11-24,2022-11-24,株式会社ローデムフーズ,,株式会社,鹿児島県,鹿児島市,田上４丁目７番１８号,,46,201,8900034,,,,,,,2022-11-24,1,,,,,ローデムフーズ,0
1407,6340003003976,新規,0,2022-11-24,2022-11-24,合同会社わの輝き,,合同会社,鹿児島県,鹿児島市,小松原１丁目５番１０号１０３号室,,46,201,8910114,,,,,,,2022-11-24,1,,,,,ワノカガヤキ,0
1410,6360003012471,新規,0,2022-11-24,2022-11-24,合同会社古川商会,,合同会社,沖縄県,那覇市,壺屋１丁目７番１号丸国マーケット３階,,47,201,9020065,,,,,,,2022-11-24,1,,,,,フルカワショウカイ,0
1413,6370001049291,新規,0,2022-11-24,2022-11-24,株式会社ＢＥＮＺＡＩ,,株式会社,宮城県,仙台市太白区,若葉町５番５号,,04,104,9820822,,,,,,,2022-11-24,1,,,,,ベンザイ,0
1426,6470001019350,新規,0,2022-11-24,2022-11-24,株式会社アツメ,,株式会社,香川県,高松市,サンポート２番１号高松シンボルタワー　タワー棟４・５階　情報通信交流館内,,37,201,7600019,,,,,,,2022-11-24,1,,,,,アツメ,0
1433,6500001024611,新規,0,2022-11-24,2022-11-24,ａｓｋ株式会社,,株式会社,愛媛県,松山市,正円寺２丁目５番２５号,,38,201,7900904,,,,,,,2022-11-24,1,,,,,アスク,0
1439,7010001230968,新規,0,2022-11-24,2022-11-24,根本技研株式会社,,株式会社,東京都,千代田区,麹町２丁目１０番地３エキスパートオフィス麹町５０３号室,00128556,13,101,1020083,,,,,,,2022-11-24,1,,,,,ネモトギケン,0
1447,7010401170946,新規,0,2022-11-24,2022-11-24,株式会社ＢｕｚｚＲｅｓｏｕｒｃｅ,,株式会社,東京都,港区,虎ノ門４丁目３番２０号神谷町ＭＴビル１４階,,13,103,1050001,,,,,,,2022-11-24,1,,,,,バズリソース,0
1448,7010401170962,新規,0,2022-11-24,2022-11-24,株式会社Ｗ　ＶＩＳＩＯＮ,,株式会社,東京都,港区,赤坂６丁目８－１４ガーラヒルズ赤坂９０２,,13,103,1070052,,,,,,,2022-11-24,1,,,,,ダブルビジョン,0
1449,7010401170979,新規,0,2022-11-24,2022-11-24,株式会社ワールドグローバルサポート,,株式会社,東京都,港区,東新橋２丁目１４番１号,,13,103,1050021,,,,,,,2022-11-24,1,,,,,ワールドグローバルサポート,0
1460,7010701043513,新規,0,2022-11-24,2022-11-24,Ｂｒｉｓｋ株式会社,,株式会社,東京都,品川区,北品川１丁目９番７号,,13,109,1400001,,,,,,,2022-11-24,1,,,,,ブリスク,0
1468,7010903007786,新規,0,2022-11-24,2022-11-24,合同会社ＣｈｅｓｔＮｕｔ,,合同会社,東京都,世田谷区,池尻４丁目３４－１４ベルファース池尻６０９,,13,112,1540001,,,,,,,2022-11-24,1,,,,,,0
1471,7011001151064,新規,0,2022-11-24,2022-11-24,富澤株式会社,,株式会社,東京都,渋谷区,本町３丁目８番７号ソシエ１０５号室,,13,113,1510071,,,,,,,2022-11-24,1,,,,,トミザワ,0
1472,7011001151080,新規,0,2022-11-24,2022-11-24,フロントデスクジャパン株式会社,,株式会社,東京都,渋谷区,猿楽町２９番６号,,13,113,1500033,,,,,,,2022-11-24,1,,,,,フロントデスクジャパン,0
1473,7011001151097,新規,0,2022-11-24,2022-11-24,株式会社Ｖｅｒａｎｄａｈ,,株式会社,東京都,渋谷区,富ヶ谷２丁目８番２－１４０２号,,13,113,1510063,,,,,,,2022-11-24,1,,,,,ベランダ,0
1474,7011001151114,新規,0,2022-11-24,2022-11-24,株式会社ＤＵＣＫＢＬＵＥ,,株式会社,東京都,渋谷区,神宮前６丁目２３番４号,,13,113,1500001,,,,,,,2022-11-24,1,,,,,ダックブルー,0
1475,7011001151122,新規,0,2022-11-24,2022-11-24,株式会社ｐｕ‐ｅｎｔｅ,,株式会社,東京都,渋谷区,松濤１丁目２８番２号,,13,113,1500046,,,,,,,2022-11-24,1,,,,,プエンテ,0
1477,7011003015770,新規,0,2022-11-24,2022-11-24,合同会社Ｌａｕｎｅｎ,,合同会社,東京都,目黒区,中目黒３丁目６番２号,,13,110,1530061,,,,,,,2022-11-24,1,,,,,ラウネン,0
1483,7011101100862,新規,0,2022-11-24,2022-11-24,株式会社Ｇｏｏｄ　Ｓｐａｃｅ,,株式会社,東京都,新宿区,北新宿１丁目７－１８藤井ビル４階,,13,104,1690074,,,,,,,2022-11-24,1,,,,,グッドスペース,0
1484,7011101100920,新規,0,2022-11-24,2022-11-24,株式会社ライト,,株式会社,東京都,新宿区,大久保１丁目１２番３号カーサ第二新宿７０８,,13,104,1690072,,,,,,,2022-11-24,1,,,,,ライト,0
1485,7011101100945,新規,0,2022-11-24,2022-11-24,株式会社蕾,,株式会社,東京都,新宿区,内藤町１番地２－５０２,,13,104,1600014,,,,,,,2022-11-24,1,,,,,ツボミ,0
1486,7011101100961,新規,0,2022-11-24,2022-11-24,株式会社ことみる,,株式会社,東京都,新宿区,西新宿３丁目３番１３号西新宿水間ビル６階,,13,104,1600023,,,,,,,2022-11-24,1,,,,,コトミル,0
1496,7011801041588,新規,0,2022-11-24,2022-11-24,株式会社シェノンビー,,株式会社,東京都,葛飾区,東水元４丁目６番１５号,,13,122,1250033,,,,,,,2022-11-24,1,,,,,シェノンビー,0
1504,7013305003412,新規,0,2022-11-24,2022-11-24,特定非営利活動法人ＯＯＣ子ども食堂,,その他の設立登記法人,東京都,豊島区,北大塚２丁目４番４－２０１号,,13,116,1700004,,,,,,,2022-11-24,1,,,,,オーオーシーコドモショクドウ,0
1517,7020005015729,新規,0,2022-11-24,2022-11-24,一般社団法人グループリビングおでんせ中の島,,その他の設立登記法人,神奈川県,川崎市多摩区,布田２４番２５号,,14,135,2140011,,,,,,,2022-11-24,1,,,,,グループリビングオデンセナカノシマ,0
1521,7021001077531,新規,0,2022-11-24,2022-11-24,ｔｋｇ株式会社,,株式会社,神奈川県,小田原市,曽比１６３３番地の１３,,14,206,2500851,,,,,,,2022-11-24,1,,,,,ティーケージー,0
1530,7030001151171,新規,0,2022-11-24,2022-11-24,華毅商事株式会社,,株式会社,埼玉県,さいたま市北区,本郷町７５３番地,,11,102,3310802,,,,,,,2022-11-24,1,,,,,カキショウジ,0
1538,7030003020639,新規,0,2022-11-24,2022-11-24,合同会社Ｌｅｏｎｅ　ｓｔｒａｄａ,,合同会社,埼玉県,さいたま市浦和区,北浦和２丁目２１番７号,,11,107,3300074,,,,,,,2022-11-24,1,,,,,レオーネストラーダ,0
1543,7040001125950,新規,0,2022-11-24,2022-11-24,株式会社アバンティア不動産,,株式会社,千葉県,市川市,八幡２丁目４番７号,,12,203,2720021,,,,,,,2022-11-24,1,,,,,アバンティアフドウサン,0
1544,7040001125991,新規,0,2022-11-24,2022-11-24,株式会社夜明け,,株式会社,千葉県,習志野市,津田沼５丁目９番６－１０２号,,12,216,2750016,,,,,,,2022-11-24,1,,,,,ヨアケ,0
1549,7050001052005,新規,0,2022-11-24,2022-11-24,ＭＨＩ原子燃料株式会社,,株式会社,茨城県,那珂郡東海村,大字舟石川６２２番地１,,08,341,3191111,,,,,,,2022-11-24,1,,,,,エムエイチアイゲンシネンリョウ,0
1555,7090001017862,新規,0,2022-11-24,2022-11-24,株式会社ジャパニックス,,株式会社,山梨県,中巨摩郡昭和町,西条新田６９６番地８,,19,384,4093865,,,,,,,2022-11-24,1,,,,,ジャパニックス,0
1556,7090003002202,新規,0,2022-11-24,2022-11-24,合同会社ＭＡＳＡＴＯ,,合同会社,山梨県,甲府市,緑が丘２丁目７番９号,,19,201,4000008,,,,,,,2022-11-24,1,,,,,マサト,0
1571,7120001250484,新規,0,2022-11-24,2022-11-24,Ｙ．Ｔ．Ｂｒｉｄｇｅ株式会社,,株式会社,大阪府,大阪市西淀川区,花川２丁目４番４３－１０１号,,27,113,5550023,,,,,,,2022-11-24,1,,,,,,0
1572,7120001250526,新規,0,2022-11-24,2022-11-24,株式会社Ｙ’Ｓ,,株式会社,大阪府,大阪市北区,堂島２丁目２番３３号ＲＥＳ堂島ビル４Ｆ,,27,127,5300003,,,,,,,2022-11-24,1,,,,,ワイズ,0
1576,7120103004929,新規,0,2022-11-24,2022-11-24,合同会社ｇｒａｃｅ,,合同会社,大阪府,泉南郡熊取町,小谷北１丁目１７番１３号,,27,361,5900434,,,,,,,2022-11-24,1,,,,,グレイス,0
1591,7130001073133,新規,0,2022-11-24,2022-11-24,株式会社八一,,株式会社,京都府,京都市右京区,嵯峨野南浦町１６番地２０,,26,108,6168324,,,,,,,2022-11-24,1,,,,,ハチイチ,0
1598,7140003018382,新規,0,2022-11-24,2022-11-24,合同会社ＬＴ．ＭＥＮ,,合同会社,兵庫県,神戸市中央区,割塚通６丁目２番８号加野ハイツ２０１号,,28,110,6510065,,,,,,,2022-11-24,1,,,,,エルティーメン,0
1599,7140003018399,新規,0,2022-11-24,2022-11-24,星光商事合同会社,,合同会社,兵庫県,神戸市西区,春日台６丁目８番地の３５,,28,111,6512276,,,,,,,2022-11-24,1,,,,,セイコウショウジ,0
1607,7180005020011,新規,0,2022-11-24,2022-11-24,一般社団法人凛,,その他の設立登記法人,愛知県,名古屋市名東区,高間町１３７番地,,23,115,4650081,,,,,,,2022-11-24,1,,,,,リン,0
1612,7190001029947,新規,0,2022-11-24,2022-11-24,株式会社ＣＤＰ,,株式会社,三重県,伊勢市,大世古２丁目２番１３号,,24,203,5160079,,,,,,,2022-11-24,1,,,,,シーディーピー,0
1615,7220001025141,新規,0,2022-11-24,2022-11-24,株式会社オオニシ工務店,,株式会社,石川県,かほく市,高松乙２番７２,,17,209,9291215,,,,,,,2022-11-24,1,,,,,オオニシコウムテン,0
1631,7260001037430,新規,0,2022-11-24,2022-11-24,株式会社Ｙ’ｓ　ｍｅｄｉｃａｌ,,株式会社,岡山県,岡山市南区,芳泉２丁目１７番２３号,,33,104,7028027,,,,,,,2022-11-24,1,,,,,ワイズメディカル,0
1639,7290001099633,新規,0,2022-11-24,2022-11-24,株式会社ロック,,株式会社,福岡県,福岡市中央区,渡辺通１丁目１番１号サンセルコ５階００１号,,40,133,8100004,,,,,,,2022-11-24,1,,,,,ロック,0
1640,7290001099674,新規,0,2022-11-24,2022-11-24,株式会社Ｇｒｅｅｎ　Ｄｉａｍｏｎｄ,,株式会社,福岡県,飯塚市,弁分６１２番地１２,,40,205,8200088,,,,,,,2022-11-24,1,,,,,グリーンダイヤモンド,0
1641,7290001099682,新規,0,2022-11-24,2022-11-24,株式会社エイト,,株式会社,福岡県,福岡市博多区,月隈６丁目１１番２２－１０５号,,40,132,8120858,,,,,,,2022-11-24,1,,,,,エイト,0
1645,7290005018861,新規,0,2022-11-24,2022-11-24,弁護士法人ＳＴＲ法律事務所,,その他の設立登記法人,福岡県,福岡市博多区,博多駅中央街８番１号ＪＲＪＰ博多ビル２階,,40,132,8120012,,,,,,,2022-11-24,1,,,,,エスティアールホウリツジムショ,0
1653,7330001030329,新規,0,2022-11-24,2022-11-24,株式会社ＶＮＪＰ,,株式会社,熊本県,熊本市東区,小山２丁目２０番７号,,43,102,8618045,,,,,,,2022-11-24,1,,,,,ブイエヌジェイピー,0
1667,7430001087912,新規,0,2022-11-24,2022-11-24,ヱル・カンパニー株式会社,,株式会社,北海道,札幌市東区,北三十三条東１８丁目３番１５号,,01,103,0650033,,,,,,,2022-11-24,1,,,,,エルカンパニー,0
1670,7450003002272,新規,0,2022-11-24,2022-11-24,合同会社タチカワ商販,,合同会社,北海道,中川郡音威子府村,字物満内５８番地,,01,470,0982500,,,,,,,2022-11-24,1,,,,,タチカワショウハン,0
1672,7480001011933,新規,0,2022-11-24,2022-11-24,株式会社Ｐｒｏｇｒｅｓｓ,,株式会社,徳島県,海部郡海陽町,中山字石堤１番地１,,36,388,7750305,,,,,,,2022-11-24,1,,,,,プログレス,0
1674,7700150112633,新規,0,2022-11-24,2022-11-08,熊野牛産地化推進協議会,,その他,和歌山県,東牟婁郡串本町,串本２１３７株式会社丸聡内,,30,428,6493503,,,,,,,2022-11-08,1,,,,,クマノウシサンチカスイシンキヨウギカイ,0
1685,8010001230777,新規,0,2022-11-24,2022-11-24,パピユー掃除機株式会社,,株式会社,東京都,中央区,東日本橋２丁目２８番５号５０８,,13,102,1030004,,,,,,,2022-11-24,1,,,,,,0
1686,8010001231024,新規,0,2022-11-24,2022-11-24,株式会社ｉｎｓｉｄｅ　ａｎｄ　ｏｕｔｓｉｄｅ,,株式会社,東京都,中央区,勝どき５丁目３番１－１００３号,,13,102,1040054,,,,,,,2022-11-24,1,,,,,インサイドアンドアウトサイド,0
1687,8010001231049,新規,0,2022-11-24,2022-11-24,株式会社ＳＨＩＰ第４０５号,,株式会社,東京都,千代田区,丸の内２丁目７番２号,,13,101,1000005,,,,,,,2022-11-24,1,,,,,エスエイチアイピーダイヨンヒャクゴゴウ,0
1688,8010001231057,新規,0,2022-11-24,2022-11-24,株式会社ＮｏｒｔｈＶｉｅｗ,,株式会社,東京都,中央区,銀座１丁目１２－４Ｎ＆ＥＢＬＤ．７階,,13,102,1040061,,,,,,,2022-11-24,1,,,,,ノースビュー,0
1718,8010901052016,新規,0,2022-11-24,2022-11-24,株式会社ファミチャーズ,,株式会社,東京都,世田谷区,上馬２丁目２３番１２号,,13,112,1540011,,,,,,,2022-11-24,1,,,,,ファミチャーズ,0
1728,8011101100944,新規,0,2022-11-24,2022-11-24,株式会社ＶＥＮＥＴＩＡＮ,,株式会社,東京都,新宿区,西新宿７丁目５番９－２２０２号,,13,104,1600023,,,,,,,2022-11-24,1,,,,,ベネティアン,0
1729,8011101100960,新規,0,2022-11-24,2022-11-24,株式会社ＹＡＣトラベル,,株式会社,東京都,新宿区,西新宿７丁目１９番２１号,,13,104,1600023,,,,,,,2022-11-24,1,,,,,ワイエーシートラベル,0
1733,8011501028703,新規,0,2022-11-24,2022-11-24,ズムビューティ株式会社,,株式会社,東京都,荒川区,南千住３丁目２７－２浅草ビル,,13,118,1160003,,,,,,,2022-11-24,1,,,,,ズムビューティ,0
1735,8011801041587,新規,0,2022-11-24,2022-11-24,株式会社Ｆｕｋｕｉｋｕ,,株式会社,東京都,足立区,竹の塚２丁目３番１９号,,13,121,1210813,,,,,,,2022-11-24,1,,,,,フクイク,0
1738,8012401039897,新規,0,2022-11-24,2022-11-24,株式会社北幸組,,株式会社,東京都,府中市,是政１丁目２０番地の２６,,13,206,1830014,,,,,,,2022-11-24,1,,,,,ホッコウグミ,0
1740,8012703002586,新規,0,2022-11-24,2022-11-24,エスワイ企画合同会社,,合同会社,東京都,西東京市,向台町２丁目１３番１８号ソレアード２０２,,13,229,1880013,,,,,,,2022-11-24,1,,,,,エスワイキカク,0
1741,8013103001187,新規,0,2022-11-24,2022-11-24,合同会社Ｂｒａｖｅ,,合同会社,東京都,西多摩郡瑞穂町,大字高根８１－８,,13,303,1901203,,,,,,,2022-11-24,1,,,,,ブレイヴ,0
1757,8020001149075,新規,0,2022-11-24,2022-11-24,株式会社ＯＮＥ,,株式会社,神奈川県,川崎市川崎区,大島２丁目８番１３号ガイアサイトウ２０２,,14,131,2100834,,,,,,,2022-11-24,1,,,,,ワン,0
1758,8020001149109,新規,0,2022-11-24,2022-11-24,ハルウィガー株式会社,,株式会社,神奈川県,川崎市川崎区,大島４丁目３番３－１００１号クリオ川崎大島,,14,131,2100834,,,,,,,2022-11-24,1,,,,,ハルウィガー,0
1761,8020003022767,新規,0,2022-11-24,2022-11-24,合同会社ＥＰＡ,,合同会社,神奈川県,川崎市高津区,下作延４丁目２９番１号プリーマ・ヴェラ１０１,,14,134,2130033,,,,,,,2022-11-24,1,,,,,イーピーエー,0
1765,8021001077530,新規,0,2022-11-24,2022-11-24,トラストプラス株式会社,,株式会社,神奈川県,藤沢市,鵠沼海岸７丁目５番３号,00128553,14,205,2510037,,,,,,,2022-11-24,1,,,,,トラストプラス,0
1770,8021003012411,新規,0,2022-11-24,2022-11-24,合同会社ＶａｎａｎａＳｔｕｄｉｏ,,合同会社,神奈川県,茅ヶ崎市,緑が浜８番－４－３号,,14,207,2530034,,,,,,,2022-11-24,1,,,,,バナナスタジオ,0
1783,8040003021313,新規,0,2022-11-24,2022-11-24,エンタリバー合同会社,,合同会社,千葉県,我孫子市,我孫子２丁目４番２１７号シティアＡ棟,,12,222,2701166,,,,,,,2022-11-24,1,,,,,エンタリバー,0
1785,8050005013175,新規,0,2022-11-24,2022-11-24,特定非営利活動法人わわわネット,,その他の設立登記法人,茨城県,小美玉市,堅倉１６９６番地３５,,08,236,3190106,,,,,,,2022-11-24,1,,,,,ワワワネット,0
1789,8070001039858,新規,0,2022-11-24,2022-11-24,株式会社Ｒ’ｔｅｎ,,株式会社,群馬県,太田市,東金井町１３１０番地３Ｂ棟,,10,205,3730022,,,,,,,2022-11-24,1,,,,,ルテン,0
1794,8080001025312,新規,0,2022-11-24,2022-11-24,株式会社岩浪建設技術,,株式会社,静岡県,静岡市清水区,三保１３２７番地の１６,,22,103,4240901,,,,,,,2022-11-24,1,,,,,イワナミケンセツギジュツ,0
1798,8080401026166,新規,0,2022-11-24,2022-11-24,株式会社イスィ,,株式会社,静岡県,浜松市東区,天王町１９９９番地の１１,,22,132,4350052,,,,,,,2022-11-24,1,,,,,イスィ,0
1800,8090001017861,新規,0,2022-11-24,2022-11-24,株式会社吉野建築工房,,株式会社,山梨県,中巨摩郡昭和町,清水新居９６１番地１,,19,384,4093867,,,,,,,2022-11-24,1,,,,,ヨシノケンチクコウボウ,0
1816,8120003022939,新規,0,2022-11-24,2022-11-24,ｏｎｅ　ｓｔｅｐ合同会社,,合同会社,大阪府,守口市,大日東町３４番８―１３０５号,,27,209,5700016,,,,,,,2022-11-24,1,,,,,ワンステップ,0
1819,8120005023308,新規,0,2022-11-24,2022-11-24,特定非営利活動法人よろづ園,,その他の設立登記法人,大阪府,大阪市西淀川区,歌島２丁目９番２９号,,27,113,5550021,,,,,,,2022-11-24,1,,,,,ヨロヅエン,0
1822,8120103004936,新規,0,2022-11-24,2022-11-24,合同会社カルミア,,合同会社,大阪府,堺市中区,土塔町１０８番地１５,,27,142,5998234,,,,,,,2022-11-24,1,,,,,カルミア,0
1823,8120105009644,新規,0,2022-11-24,2022-11-24,一般社団法人端栄相互,,その他の設立登記法人,大阪府,堺市中区,毛穴町９９番地３,,27,142,5998266,,,,,,,2022-11-24,1,,,,,,0
1829,8122005003652,新規,0,2022-11-24,2022-11-24,一般社団法人いろはな,,その他の設立登記法人,大阪府,八尾市,荘内町１丁目２番２０－７０１号,,27,212,5810005,,,,,,,2022-11-24,1,,,,,イロハナ,0
1848,8160001024660,新規,0,2022-11-24,2022-11-24,株式会社ＩＣホールディングス,,株式会社,滋賀県,彦根市,佐和町１１番３０号,,25,202,5220075,,,,,,,2022-11-24,1,,,,,アイシーホールディングス,0
1850,8170005006984,新規,0,2022-11-24,2022-11-24,一般社団法人和歌山フィルハーモニー管弦楽団,,その他の設立登記法人,和歌山県,和歌山市,有家２６１番地９,,30,201,6408316,,,,,,,2022-11-24,1,,,,,ワカヤマフィルハーモニーカンゲンガクダン,0
1863,8190001029946,新規,0,2022-11-24,2022-11-24,株式会社城東,,株式会社,三重県,伊賀市,千歳１１４２番地２,,24,216,5180002,,,,,,,2022-11-24,1,,,,,ジョウトウ,0
1867,8230003001931,新規,0,2022-11-24,2022-11-24,合同会社アブドラトレーディング,,合同会社,富山県,射水市,作道２１４０番地１グローバル４０６,,16,211,9340042,,,,,,,2022-11-24,1,,,,,アブドラトレーディング,0
1870,8240001060680,新規,0,2022-11-24,2022-11-24,株式会社ＷＨＩＳＰＥＲ,,株式会社,広島県,広島市中区,本通３番１０号,,34,101,7300035,,,,,,,2022-11-24,1,,,,,ウイスパー,0
1885,8290001099673,新規,0,2022-11-24,2022-11-24,株式会社グランツ,,株式会社,福岡県,福岡市博多区,上川端町９番１６３号,,40,132,8120026,,,,,,,2022-11-24,1,,,,,グランツ,0
1889,8290803004269,新規,0,2022-11-24,2022-11-24,ＨＨＫ‐Ｌａｂｏ合同会社,,合同会社,福岡県,北九州市八幡西区,森下町２４－２,,40,109,8060046,,,,,,,2022-11-24,1,,,,,エイチエイチケイラボ,0
1900,8360001031240,新規,0,2022-11-24,2022-11-24,株式会社あした天気になあれ,,株式会社,沖縄県,那覇市,長田１丁目２１番１号コーポ長田１０３,,47,201,9020077,,,,,,,2022-11-24,1,,,,,アシタテンキニナアレ,0
1904,8370001049281,新規,0,2022-11-24,2022-11-24,株式会社ＡＯ,,株式会社,宮城県,登米市,迫町佐沼字中江４丁目６番地１,,04,212,9870511,,,,,,,2022-11-24,1,,,,,アオ,0
1922,8460001005746,新規,0,2022-11-24,2022-11-24,株式会社リプルス,,株式会社,北海道,釧路市,駒場町３番５号,,01,206,0850048,,,,,,,2022-11-24,1,,,,,リプルス,0
1931,8700150112483,新規,0,2022-11-24,2022-11-01,Ａｒｔ　Ｐｒｏｊｅｃｔ　ＹＯＴＡ,,その他,東京都,武蔵野市,中町３丁目１８－１１,,13,203,1800006,,,,,,,2022-11-01,1,,,,,アートプロジエクトヨウタ,0
1932,8700150112797,新規,0,2022-11-24,2022-11-11,全東京葬祭業連合会,,その他,東京都,文京区,目白台２丁目１４－１３,,13,105,1120015,,,,,,,2022-11-11,1,,,,,ゼントウキヨウソウサイギヨウレンゴウカイ,0
1940,9010001230982,新規,0,2022-11-24,2022-11-24,株式会社Ｒｅｋｉ　ｄｅｓｉｇｎ,,株式会社,東京都,中央区,日本橋本町４丁目９－４,,13,102,1030023,,,,,,,2022-11-24,1,,,,,レキデザイン,0
1941,9010001231015,新規,0,2022-11-24,2022-11-24,株式会社玲和エステート,,株式会社,東京都,中央区,日本橋小網町３番１８号,,13,102,1030016,,,,,,,2022-11-24,1,,,,,レイワエステート,0
1942,9010001231023,新規,0,2022-11-24,2022-11-24,インターグロウパートナーズ株式会社,,株式会社,東京都,千代田区,外神田３丁目６番４号第一勧業信用組合秋葉原ビル５階,,13,101,1010021,,,,,,,2022-11-24,1,,,,,インターグロウパートナーズ,0
1943,9010001231048,新規,0,2022-11-24,2022-11-24,株式会社ＳＨＩＰ第４０４号,,株式会社,東京都,千代田区,丸の内２丁目７番２号,,13,101,1000005,,,,,,,2022-11-24,1,,,,,エスエイチアイピーダイヨンヒャクヨンゴウ,0
1944,9010003039134,新規,0,2022-11-24,2022-11-24,合同会社エンターハーツ,,合同会社,東京都,中央区,京橋１丁目１８番２号,,13,102,1040031,,,,,,,2022-11-24,1,,,,,エンターハーツ,0
1945,9010005035825,新規,0,2022-11-24,2022-11-24,一般社団法人Ｓａｋａｉ,,その他の設立登記法人,東京都,千代田区,霞が関３丁目２番５号,,13,101,1000013,,,,,,,2022-11-24,1,,,,,サカイ,0
1957,9010403028950,新規,0,2022-11-24,2022-11-24,合同会社Ｔ’ｓサポート,,合同会社,東京都,港区,新橋３丁目１１－８,,13,103,1050004,,,,,,,2022-11-24,1,,,,,ティーズサポート,0
1966,9010903007801,新規,0,2022-11-24,2022-11-24,合同会社テンセグリティ,,合同会社,東京都,世田谷区,奥沢６丁目２３番１６号ヴュ・メゾン自由が丘Ｅ２０１,,13,112,1580083,,,,,,,2022-11-24,1,,,,,,0
1972,9011001151079,新規,0,2022-11-24,2022-11-24,Ｌａ　Ｍａｓｉａ株式会社,,株式会社,東京都,目黒区,柿の木坂１丁目２５番１３－２０１号ＬａＰｅｒｌａＫａｋｉｎｏｋｉｚａｋａ,,13,110,1520022,,,,,,,2022-11-24,1,,,,,ラマシア,0
1973,9011001151120,新規,0,2022-11-24,2022-11-24,ダズディア株式会社,,株式会社,東京都,渋谷区,神宮前２丁目３３番２１号ベルテ原宿１Ｆ,,13,113,1500001,,,,,,,2022-11-24,1,,,,,ダズディア,0
1974,9011003015769,新規,0,2022-11-24,2022-11-24,合同会社ゴールド・マネジメント,,合同会社,東京都,渋谷区,道玄坂１丁目１０番８号渋谷道玄坂東急ビル２Ｆ－Ｃ,,13,113,1500043,,,,,,,2022-11-24,1,,,,,ゴールドマネジメント,0
1978,9011101100919,新規,0,2022-11-24,2022-11-24,Ｐｒｏｔｒｉｓｅ株式会社,,株式会社,東京都,新宿区,新宿１丁目１１番３号エクセル新宿御苑ビル６Ｆ,,13,104,1600022,,,,,,,2022-11-24,1,,,,,プロトライズ,0
1979,9011101100927,新規,0,2022-11-24,2022-11-24,太和株式会社,,株式会社,東京都,新宿区,西新宿４丁目１６番３号－２０５Ａ,,13,104,1600023,,,,,,,2022-11-24,1,,,,,タイワ,0
1980,9011101100951,新規,0,2022-11-24,2022-11-24,東京理科大学インベストメント・アンド・イノベーション・キャピタル株式会社,,株式会社,東京都,新宿区,神楽坂１丁目３番地,,13,104,1620825,,,,,,,2022-11-24,1,,,,,トウキョウリカダイガクインベストメントアンドイノベーションキャピタル,0
1983,9011401024719,新規,0,2022-11-24,2022-11-24,株式会社嘉有,,株式会社,東京都,板橋区,弥生町５５番４号,,13,119,1730021,,,,,,,2022-11-24,1,,,,,カユウ,0
1985,9011501028702,新規,0,2022-11-24,2022-11-24,日本タケハルカ化学株式会社,,株式会社,東京都,荒川区,南千住３丁目２７－２浅草ビル５０８号室,,13,118,1160003,,,,,,,2022-11-24,1,,,,,ニホンタケハルカカガク,0
1990,9011801041594,新規,0,2022-11-24,2022-11-24,Ｓｋｙ　Ｓｏｌａｒ　Ｈｏｌｄｉｎｇｓ株式会社,,株式会社,東京都,足立区,新田１丁目８番２３－１３０３号,,13,121,1230865,,,,,,,2022-11-24,1,,,,,スカイソーラーホールディングス,0
1993,9012405004806,新規,0,2022-11-24,2022-11-24,一般社団法人ＷＩＴＨ　ＰＥＥＲ,,その他の設立登記法人,東京都,小金井市,東町５丁目２６番３号,,13,210,1840011,,,,,,,2022-11-24,1,,,,,ウィズピア,0
1995,9012803002931,新規,0,2022-11-24,2022-11-24,ＡｄＣｏｎｖｅｒｓｉｏｎ合同会社,,合同会社,東京都,東大和市,蔵敷３丁目７２６番地芝中住宅イ７－４０４号,,13,220,2070032,,,,,,,2022-11-24,1,,,,,アドコンバージョン,0
2007,9020001149108,新規,0,2022-11-24,2022-11-24,株式会社アレグレット,,株式会社,神奈川県,横浜市港北区,綱島東２丁目１７番５８号青山コーポＢ２０１,,14,109,2230052,,,,,,,2022-11-24,1,,,,,アレグレット,0
2008,9020001149116,新規,0,2022-11-24,2022-11-24,株式会社リブウィズ,,株式会社,神奈川県,川崎市川崎区,小田２丁目２０番９号,,14,131,2100846,,,,,,,2022-11-24,1,,,,,リブウィズ,0
2016,9020003022782,新規,0,2022-11-24,2022-11-24,ｉｎｎｅｒｐｅａｃｅ　ＬＴＤ合同会社,,合同会社,神奈川県,横浜市西区,浅間町１丁目４番３号,,14,103,2200072,,,,,,,2022-11-24,1,,,,,インナーピースエルティーディー,0
2022,9021005012664,新規,0,2022-11-24,2022-11-24,一般社団法人パラブラ,,その他の設立登記法人,神奈川県,相模原市南区,相武台２丁目２番４３号,,14,153,2520324,,,,,,,2022-11-24,1,,,,,パラブラ,0
2026,9030001151178,新規,0,2022-11-24,2022-11-24,株式会社ビーオーサー,,株式会社,埼玉県,川口市,南鳩ヶ谷８丁目１０－１６,,11,203,3340013,,,,,,,2022-11-24,1,,,,,ビーオーサー,0
2027,9030001151194,新規,0,2022-11-24,2022-11-24,ＫＵＪＩＲＡ国際貿易株式会社,,株式会社,埼玉県,北葛飾郡松伏町,大字松伏２５６６番地１７,,11,465,3430111,,,,,,,2022-11-24,1,,,,,クジラコクサイボウエキ,0
2028,9030001151203,新規,0,2022-11-24,2022-11-24,株式会社Ｋ‐Ｄａｓｈ,,株式会社,埼玉県,春日部市,南５丁目２番１０号,,11,214,3440064,,,,,,,2022-11-24,1,,,,,ケーダッシュ,0
2031,9030003020629,新規,0,2022-11-24,2022-11-24,Ｒｅｇｉｏｎ合同会社,,合同会社,埼玉県,所沢市,北中２丁目２７９番地の１１,,11,208,3591101,,,,,,,2022-11-24,1,,,,,リージョン,0
2032,9030003020637,新規,0,2022-11-24,2022-11-24,合同会社ハイキング・マタンゴ,,合同会社,埼玉県,所沢市,大字北秋津１３番地の３,,11,208,3590038,,,,,,,2022-11-24,1,,,,,ハイキングマタンゴ,0
2039,9040001125973,新規,0,2022-11-24,2022-11-24,株式会社ＷｅｓｔＳｉｄｅ,,株式会社,千葉県,船橋市,高野台５丁目２０番２２号,,12,204,2740801,,,,,,,2022-11-24,1,,,,,ウエストサイド,0
2048,9070001039857,新規,0,2022-11-24,2022-11-24,株式会社イーストブロック,,株式会社,群馬県,前橋市,古市町１丁目７番地２８,,10,201,3710844,,,,,,,2022-11-24,1,,,,,イーストブロック,0
2054,9100001035902,新規,0,2022-11-24,2022-11-24,ＳＡ　ＥＮＴＥＲＰＲＩＳＥ株式会社,,株式会社,長野県,佐久市,協和８１８番地１,,20,217,3842204,,,,,,,2022-11-24,1,,,,,エスエーエンタープライズ,0
2055,9100003006777,新規,0,2022-11-24,2022-11-24,合同会社ＦＥサポート,,合同会社,長野県,上田市,中之条３０７番地１かどやリースビル２０１号室,,20,203,3860034,,,,,,,2022-11-24,1,,,,,エフイーサポート,0
2056,9110003004920,新規,0,2022-11-24,2022-11-24,合同会社エーアールシーサービス,,合同会社,新潟県,阿賀野市,久保１２４４番地１０,,15,223,9592212,,,,,,,2022-11-24,1,,,,,エーアールシーサービス,0
2080,9120001250417,新規,0,2022-11-24,2022-11-24,日本移民法務事務所株式会社,,株式会社,大阪府,大阪市生野区,新今里３丁目４番１７号ＯＧビル２０１Ａ,,27,116,5440001,,,,,,,2022-11-24,1,,,,,ニホンイミンホウムジムショ,0
2081,9120001250433,新規,0,2022-11-24,2022-11-24,ＳＨＥＲＲＹ　ＢＥＡＵＴＹ株式会社,,株式会社,大阪府,大阪市東住吉区,照ケ丘矢田２丁目７番２号淘金ビルＣ号室,,27,121,5460021,,,,,,,2022-11-24,1,,,,,シェリービューティー,0
2082,9120001250474,新規,0,2022-11-24,2022-11-24,いんざパーク株式会社,,株式会社,大阪府,大阪市住吉区,千躰２丁目８番１９号８０４,,27,120,5580047,,,,,,,2022-11-24,1,,,,,インザパーク,0
2083,9120001250490,新規,0,2022-11-24,2022-11-24,ＳＭＡＲＴ　ＵＮＩＯＮ株式会社,,株式会社,大阪府,大阪市港区,八幡屋４丁目１－３ベイサイドハイツＩＩ２０２号室,,27,107,5520014,,,,,,,2022-11-24,1,,,,,スマートユニオン,0
2084,9120001250508,新規,0,2022-11-24,2022-11-24,株式会社ＲＩＢＥＬＯ,,株式会社,大阪府,大阪市中央区,南船場３丁目６番２５号ＩＢＣ心斎橋ｅａｓｔ６階７０２号室,,27,128,5420081,,,,,,,2022-11-24,1,,,,,リベロ,0
2085,9120001250516,新規,0,2022-11-24,2022-11-24,株式会社無我夢中,,株式会社,大阪府,大阪市北区,末広町１番２２号,,27,127,5300053,,,,,,,2022-11-24,1,,,,,ムガムチュウ,0
2091,9120101066572,新規,0,2022-11-24,2022-11-24,株式会社Ｎ‐ＴＥＣ,,株式会社,大阪府,阪南市,尾崎町３丁目５番９号,,27,232,5990201,,,,,,,2022-11-24,1,,,,,エヌテック,0
2092,9120101066580,新規,0,2022-11-24,2022-11-24,株式会社竹野組,,株式会社,大阪府,松原市,柴垣２丁目１番１７号,,27,217,5800017,,,,,,,2022-11-24,1,,,,,タケノグミ,0
2093,9120103004935,新規,0,2022-11-24,2022-11-24,合同会社キズナ,,合同会社,大阪府,岸和田市,松風町２１番２２号,,27,202,5960021,,,,,,,2022-11-24,1,,,,,キズナ,0
2095,9120105009643,新規,0,2022-11-24,2022-11-24,一般財団法人淺野羊子奨学財団,,その他の設立登記法人,大阪府,大阪狭山市,東池尻４丁目１４０２番地の１,,27,231,5890004,,,,,,,2022-11-24,1,,,,,アサノヨウコショウガクザイダン,0
2099,9120903004382,新規,0,2022-11-24,2022-11-24,合同会社瀬川積算事務所,,合同会社,大阪府,豊中市,大島町２丁目８番２号,,27,203,5610824,,,,,,,2022-11-24,1,,,,,セガワセキサンジムショ,0
2101,9122001036432,新規,0,2022-11-24,2022-11-24,株式会社Ｉｒｏｎ　ｗａｌｌ,,株式会社,大阪府,東大阪市,水走２丁目１２番１８号,,27,227,5780921,,,,,,,2022-11-24,1,,,,,アイアンウォール,0
2102,9122005003651,新規,0,2022-11-24,2022-11-24,一般社団法人光,,その他の設立登記法人,大阪府,東大阪市,西岩田３丁目３番１３－１３７,,27,227,5780947,,,,,,,2022-11-24,1,,,,,ヒカリ,0
2115,9170005006983,新規,0,2022-11-24,2022-11-24,特定非営利活動法人ａｍｏｕｒ　ｅｓｐｏｉｒ,,その他の設立登記法人,和歌山県,岩出市,波分２０３番地の１グリーンヒル波分８０６号,,30,209,6496241,,,,,,,2022-11-24,1,,,,,アモーエスポアール,0
2121,9180001153944,新規,0,2022-11-24,2022-11-24,株式会社ツツイマチ,,株式会社,愛知県,名古屋市東区,筒井２丁目３番２号,,23,102,4610003,,,,,,,2022-11-24,1,,,,,ツツイマチ,0
2130,9230001019611,新規,0,2022-11-24,2022-11-24,株式会社ｖｉｔａ,,株式会社,富山県,富山市,音羽町２丁目１番２号,,16,201,9300037,,,,,,,2022-11-24,1,,,,,ヴィータ,0
2143,9290001099648,新規,0,2022-11-24,2022-11-24,ＦＵＫＵＯＫＡピアノ教室株式会社,,株式会社,福岡県,福岡市中央区,天神３丁目６－１８馬場ビル４０１号,,40,133,8100001,,,,,,,2022-11-24,1,,,,,フクオカピアノキョウシツ,0
2144,9290001099664,新規,0,2022-11-24,2022-11-24,株式会社まる制作,,株式会社,福岡県,糸島市,二丈福井２７２８番地,,40,230,8191631,,,,,,,2022-11-24,1,,,,,マルセイサク,0
2145,9290001099672,新規,0,2022-11-24,2022-11-24,株式会社ＭＥＧＡ,,株式会社,福岡県,久留米市,日吉町１３番地３９丸一ビル１階,,40,203,8300017,,,,,,,2022-11-24,1,,,,,メガ,0
2146,9290003013227,新規,0,2022-11-24,2022-11-24,合同会社高安,,合同会社,福岡県,糟屋郡志免町,志免中央４丁目１０番５号,,40,343,8112244,,,,,,,2022-11-24,1,,,,,タカヤス,0
2149,9320001019437,新規,0,2022-11-24,2022-11-24,株式会社ＯＲＩＰＯＫＥ,,株式会社,大分県,大分市,大字鶴崎２８３番地の３,,44,201,8700106,,,,,,,2022-11-24,1,,,,,オリポケ,0
2156,9350001018048,新規,0,2022-11-24,2022-11-24,株式会社アグリパーク二反野,,株式会社,宮崎県,東諸県郡綾町,大字南俣５３２４番地１２６,,45,383,8801303,,,,,,,2022-11-24,1,,,,,アグリパークニタンノ,0
2161,9360001031248,新規,0,2022-11-24,2022-11-24,株式会社Ｂｅｆｏｒｅ　Ｓｕｎｓｅｔ,,株式会社,沖縄県,国頭郡恩納村,字山田３５０番地１,,47,311,9040416,,,,,,,2022-11-24,1,,,,,ビフォアサンセット,0
2171,9370003005901,新規,0,2022-11-24,2022-11-24,合同会社ぐるーぷホームＴＡＭ,,合同会社,宮城県,仙台市青葉区,八幡３丁目５番５号竹葉ハイツＡ棟２０１,,04,101,9800871,,,,,,,2022-11-24,1,,,,,グループホームタム,0
