sequenceNumber,corporateNumber,process,correct,updateDate,changeDate,name,nameImageId,kind,prefectureName,cityName,streetNumber,addressImageId,prefectureCode,cityCode,postCode,addressOutside,addressOutsideImageId,closeDate,closeCause,successorCorporateNumber,changeCause,assignmentDate,latest,enName,enPrefectureName,enCityName,enAddressOutside,furigana,hihyoji
20,1010401189819,新規,0,2025-04-25,2025-04-25,ＥＳＧ経営研究所株式会社,,株式会社,東京都,港区,赤坂３丁目１９番１号,,13,103,1070052,,,,,,,2025-04-25,1,,,,,イーエスジーケイエイケンキュウジョ,0
24,1010503007804,新規,0,2025-04-25,2025-04-25,富田合同会社,,合同会社,東京都,台東区,谷中２丁目１０番４号フォーヴル千駄木１０３,,13,106,1100001,,,,,,,2025-04-25,1,,,,,トミタ,0
30,1010701047585,新規,0,2025-04-25,2025-04-25,翌遠株式会社,,株式会社,東京都,品川区,西五反田８丁目１番１３号ＧＢＳ・Ｅ－３,,13,109,1410031,,,,,,,2025-04-25,1,,,,,ヨクエン,0
34,1010801036091,新規,0,2025-04-25,2025-04-25,新邦株式会社,,株式会社,東京都,大田区,西蒲田７丁目４３番９号ザ・シティ蒲田ＩＩ９階,00138913,13,111,1440051,,,,,,,2025-04-25,1,,,,,シンホウ,0
35,1010903009870,新規,0,2025-04-25,2025-04-25,ケーアイトゥー合同会社,,合同会社,東京都,世田谷区,下馬６丁目１０番３号４０１,,13,112,1540002,,,,,,,2025-04-25,1,,,,,ケーアイトゥー,0
36,1010903009879,新規,0,2025-04-25,2025-04-25,合同会社湖木,,合同会社,東京都,世田谷区,太子堂１丁目１－１１乗鞍ビル１０１,,13,112,1540004,,,,,,,2025-04-25,1,,,,,コボク,0
42,1011001169178,新規,0,2025-04-25,2025-04-25,株式会社ハッピーセレンドテール,,株式会社,東京都,渋谷区,神南１丁目１１番４号ＦＰＧリンクス神南５階,,13,113,1500041,,,,,,,2025-04-25,1,,,,,ハッピーセレンドテール,0
45,1011101111551,新規,0,2025-04-25,2025-04-25,株式会社イノベート,,株式会社,東京都,新宿区,西新宿７丁目１５番１０号井上ビル２０１,,13,104,1600023,,,,,,,2025-04-25,1,,,,,イノベート,0
57,1011501031993,新規,0,2025-04-25,2025-04-25,松宇株式会社,,株式会社,東京都,北区,豊島４丁目１３番１１号,,13,117,1140003,,,,,,,2025-04-25,1,,,,,ショウウ,0
58,1011601028601,新規,0,2025-04-25,2025-04-25,株式会社フォレストビレッジ,,株式会社,東京都,練馬区,大泉町３丁目２３番３６号,,13,120,1780062,,,,,,,2025-04-25,1,,,,,フォレストビレッジ,0
62,1012401043022,新規,0,2025-04-25,2025-04-25,株式会社４ＫＩプロダクション,,株式会社,東京都,小金井市,梶野町４丁目２番２０号,,13,210,1840002,,,,,,,2025-04-25,1,,,,,シキプロダクション,0
69,1020001162480,新規,0,2025-04-25,2025-04-25,百洋株式会社,,株式会社,神奈川県,横浜市南区,中里１丁目１９番１７号,,14,105,2320063,,,,,,,2025-04-25,1,,,,,ヒャクヨウ,0
70,1020001162497,新規,0,2025-04-25,2025-04-25,株式会社ｍｏｄｅｒａｔｉｏｎ,,株式会社,神奈川県,川崎市中原区,小杉一丁目４０３番地２２セイル武蔵小杉ウエスト３０１,,14,133,2110061,,,,,,,2025-04-25,1,,,,,モデレーション,0
71,1020001162530,新規,0,2025-04-25,2025-04-25,株式会社ＹＴＴ,,株式会社,神奈川県,横浜市西区,みなとみらい２丁目２番１号横浜ランドマークプラザ５Ｆ,,14,103,2200012,,,,,,,2025-04-25,1,,,,,ワイティーティー,0
72,1020001162547,新規,0,2025-04-25,2025-04-25,株式会社希望,,株式会社,神奈川県,横浜市泉区,和泉中央北４丁目２８－２４,,14,116,2450024,,,,,,,2025-04-25,1,,,,,キボウ,0
73,1020001162571,新規,0,2025-04-25,2025-04-25,株式会社Ｐｐｉｌｏｔ,,株式会社,神奈川県,川崎市中原区,小杉町３丁目６００番地Ｋ３Ａ４０５,,14,133,2110063,,,,,,,2025-04-25,1,,,,,ピーパイロット,0
77,1021001085044,新規,0,2025-04-25,2025-04-25,株式会社Ｗａｌｋ,,株式会社,神奈川県,平塚市,見附町６番３－８０１号エクセルシオール湘南平塚,,14,203,2540045,,,,,,,2025-04-25,1,,,,,ウォーク,0
78,1021001085060,新規,0,2025-04-25,2025-04-25,株式会社フロアジャパン,,株式会社,神奈川県,高座郡寒川町,倉見２３１４番地５,,14,321,2530101,,,,,,,2025-04-25,1,,,,,フロアジャパン,0
79,1021001085077,新規,0,2025-04-25,2025-04-25,株式会社ＹＨコンサルティング,,株式会社,神奈川県,藤沢市,亀井野５２９番地の１７,,14,205,2520813,,,,,,,2025-04-25,1,,,,,ワイエイチコンサルティング,0
85,1030001166167,新規,0,2025-04-25,2025-04-25,ＬｕｍｉＲｉｓｅ株式会社,,株式会社,埼玉県,三郷市,谷口２３１番地７,,11,237,3410042,,,,,,,2025-04-25,1,,,,,ルミライズ,0
86,1030001166209,新規,0,2025-04-25,2025-04-25,株式会社やさしい手戸田,,株式会社,埼玉県,戸田市,上戸田１丁目１７番２２号ヴィラリンデン５０１,,11,224,3350022,,,,,,,2025-04-25,1,,,,,ヤサシイテトダ,0
87,1030001166225,新規,0,2025-04-25,2025-04-25,株式会社ＳｃａｌｅＦｌｏｗ,,株式会社,埼玉県,戸田市,新曽南３丁目６－１シティテラス戸田公園１５１２号室,,11,224,3350026,,,,,,,2025-04-25,1,,,,,スケールフロー,0
104,1040003027440,新規,0,2025-04-25,2025-04-25,合同会社Ｎ＆Ｋ,,合同会社,千葉県,浦安市,富士見３丁目１５番１３石道ハイツＢ１０１号室,,12,227,2790043,,,,,,,2025-04-25,1,,,,,エヌアンドケー,0
111,1060001038140,新規,0,2025-04-25,2025-04-25,津久井防災株式会社,,株式会社,栃木県,佐野市,小見町９５７番地３,,09,204,3270316,,,,,,,2025-04-25,1,,,,,ツクイボウサイ,0
113,1060003005502,新規,0,2025-04-25,2025-04-25,合同会社Ｒｉｐｌｅｘ,,合同会社,栃木県,宇都宮市,鐺山町２１１７番地４,,09,201,3213235,,,,,,,2025-04-25,1,,,,,リプレックス,0
116,1070001042884,新規,0,2025-04-25,2025-04-25,株式会社大楠公電設,,株式会社,群馬県,太田市,新田村田町１７０５番地７,,10,205,3700312,,,,,,,2025-04-25,1,,,,,ダイナンコウデンセツ,0
125,1100001038540,新規,0,2025-04-25,2025-04-25,株式会社ルミナス,,株式会社,長野県,佐久市,前山７０番地３５,,20,217,3850046,,,,,,,2025-04-25,1,,,,,ルミナス,0
130,1100003008112,新規,0,2025-04-25,2025-04-25,Ｃｈｉｎ　Ｈｏｎ　Ｍｏｔｏｒ　Ｊａｐａｎ合同会社,,合同会社,長野県,小諸市,乙６１３番地４,,20,208,3840802,,,,,,,2025-04-25,1,,,,,チンホンモータージャパン,0
131,1100005013341,新規,0,2025-04-25,2025-04-25,一般社団法人Ｙ’ｓＰＲＯＪＥＣＴ,,その他の設立登記法人,長野県,伊那市,西春近６９５１番地２,,20,209,3994431,,,,,,,2025-04-25,1,,,,,ワイズプロジェクト,0
134,1120001274852,新規,0,2025-04-25,2025-04-25,中野重量株式会社,,株式会社,大阪府,大阪市淀川区,木川東１丁目４番２－２０４号,,27,123,5320012,,,,,,,2025-04-25,1,,,,,ナカノジュウリョウ,0
135,1120001274860,新規,0,2025-04-25,2025-04-25,株式会社Ｓｕｍｉｒｅｐ,,株式会社,大阪府,大阪市淀川区,宮原４丁目４番２－５１３号,,27,123,5320003,,,,,,,2025-04-25,1,,,,,スミレプ,0
136,1120001274877,新規,0,2025-04-25,2025-04-25,華盛国際株式会社,,株式会社,大阪府,大阪市浪速区,恵美須西３丁目１５番７号メゾンラポール丸美３Ｂ,,27,111,5560003,,,,,,,2025-04-25,1,,,,,カセイコクサイ,0
137,1120001274885,新規,0,2025-04-25,2025-04-25,東瀛株式会社,,株式会社,大阪府,大阪市西成区,聖天下１丁目４番２９－１０３号,,27,122,5570012,,,,,,,2025-04-25,1,,,,,トウエイ,0
138,1120001274902,新規,0,2025-04-25,2025-04-25,銀河株式会社,,株式会社,大阪府,大阪市港区,弁天４丁目９番２５－３０２号,,27,107,5520007,,,,,,,2025-04-25,1,,,,,ギンガ,0
139,1120001274919,新規,0,2025-04-25,2025-04-25,＿澤株式会社,00138915,株式会社,大阪府,大阪市東成区,深江北３丁目４番２１号エクラ深江橋７０６Ａ,,27,115,5370001,,,,,,,2025-04-25,1,,,,,コウタク,0
140,1120001274927,新規,0,2025-04-25,2025-04-25,佳燕株式会社,,株式会社,大阪府,大阪市東住吉区,矢田４丁目９番１５－４０２号,,27,121,5460023,,,,,,,2025-04-25,1,,,,,カエン,0
141,1120001274935,新規,0,2025-04-25,2025-04-25,株式会社東洋国際,,株式会社,大阪府,大阪市西成区,橘１丁目１１－２８オフィスポート橘３０５号室,,27,122,5570051,,,,,,,2025-04-25,1,,,,,トウヨウコクサイ,0
142,1120001275330,新規,0,2025-04-25,2025-04-25,株式会社Ｃｏｍｉｎｇ　Ｈｏｍｅ,,株式会社,大阪府,大阪市中央区,南久宝寺町１丁目９番１０号日宝船場ビル４Ｆ１号,,27,128,5410058,,,,,,,2025-04-25,1,,,,,カミングホーム,0
145,1120003029197,新規,0,2025-04-25,2025-04-25,合同会社Ｇ　ａｎｄ　Ｇ,,合同会社,大阪府,大阪市中央区,西心斎橋２丁目１３番１３－４０５号,,27,128,5420086,,,,,,,2025-04-25,1,,,,,ジーアンドジー,0
146,1120003029206,新規,0,2025-04-25,2025-04-25,合同会社ＡＺ,,合同会社,大阪府,大阪市淀川区,宮原４丁目５－３３－１０１０,,27,123,5320003,,,,,,,2025-04-25,1,,,,,アゼット,0
147,1120003029214,新規,0,2025-04-25,2025-04-25,ＡＳＡ　ＧＲＯＵＰ合同会社,,合同会社,大阪府,大阪市西成区,太子２丁目４－１－２０９号,,27,122,5570002,,,,,,,2025-04-25,1,,,,,アサグループ,0
148,1120003029222,新規,0,2025-04-25,2025-04-25,ＳＵＢＥＤＩ合同会社,,合同会社,大阪府,大阪市都島区,都島南通１丁目３番１８号奥村第五マンション５Ｂ号,,27,102,5340023,,,,,,,2025-04-25,1,,,,,スベディ,0
149,1120005024907,新規,0,2025-04-25,2025-04-25,一般社団法人ＬＥライフサポート,,その他の設立登記法人,大阪府,大阪市西区,西本町１丁目１３番３２号,,27,106,5500005,,,,,,,2025-04-25,1,,,,,エルイーライフサポート,0
158,1122001039145,新規,0,2025-04-25,2025-04-25,株式会社ミユキ工芸,,株式会社,大阪府,八尾市,竹渕西３丁目５８番地の３,,27,212,5810051,,,,,,,2025-04-25,1,,,,,ミユキコウゲイ,0
162,1130003010395,新規,0,2025-04-25,2025-04-25,Ｔ‐Ｄａｓｈ合同会社,,合同会社,京都府,京都市中京区,小川通竹屋町下る下丸屋町４４６番地１,,26,104,6040084,,,,,,,2025-04-25,1,,,,,ティーダッシュ,0
170,1140001138304,新規,0,2025-04-25,2025-04-25,株式会社フォーサウス,,株式会社,兵庫県,西宮市,上田西町２番４－３０２号,,28,204,6638135,,,,,,,2025-04-25,1,,,,,フォーサウス,0
172,1140003021961,新規,0,2025-04-25,2025-04-25,合同会社３８,,合同会社,兵庫県,神戸市東灘区,御影山手２丁目１５番６号,,28,101,6580065,,,,,,,2025-04-25,1,,,,,サンエイト,0
173,1140003021986,新規,0,2025-04-25,2025-04-25,ぽこあぽこアカデミー合同会社,,合同会社,兵庫県,西宮市,南越木岩町７番１１号,,28,204,6620075,,,,,,,2025-04-25,1,,,,,ポコアポコアカデミー,0
175,1150001028066,新規,0,2025-04-25,2025-04-25,株式会社アイウォン,,株式会社,奈良県,桜井市,大字阿部６８０番地の２５,,29,206,6330054,,,,,,,2025-04-25,1,,,,,アイウォン,0
177,1150003003587,新規,0,2025-04-25,2025-04-25,Ｂｒｉｄｇｉａ合同会社,,合同会社,奈良県,奈良市,西大寺南町７番１５号グラシア西大寺３０３,,29,201,6310824,,,,,,,2025-04-25,1,,,,,ブリッジア,0
186,1170003002199,新規,0,2025-04-25,2025-04-25,合同会社洋洋,,合同会社,和歌山県,御坊市,湯川町富安１９１３番地１,,30,205,6440014,,,,,,,2025-04-25,1,,,,,ヨウヨウ,0
191,1180001166549,新規,0,2025-04-25,2025-04-25,中部第一商業開発株式会社,,株式会社,愛知県,名古屋市中村区,平池町４丁目６０番地の１２,,23,105,4530872,,,,,,,2025-04-25,1,,,,,チュウブダイイチショウギョウカイハツ,0
192,1180001166565,新規,0,2025-04-25,2025-04-25,株式会社ＯｒａｎｇｅＳｅａ,,株式会社,愛知県,春日井市,白山町５丁目３１番地８,,23,206,4870034,,,,,,,2025-04-25,1,,,,,オレンジシー,0
194,1180003028391,新規,0,2025-04-25,2025-04-25,合同会社ＪＮＳＳ,,合同会社,愛知県,尾張旭市,新居町諏訪南１３３４番地５,,23,226,4880072,,,,,,,2025-04-25,1,,,,,ジェイエヌエスエス,0
204,1220005008957,新規,0,2025-04-25,2025-04-25,税理士法人今西税理士事務所,,その他の設立登記法人,石川県,金沢市,玉鉾２丁目２９番地,,17,201,9218002,,,,,,,2025-04-25,1,,,,,イマニシゼイリシジムショ,0
214,1260003005151,新規,0,2025-04-25,2025-04-25,合同会社ＳＥＣＩラボ,,合同会社,岡山県,岡山市北区,中山下１丁目１１番１５号新田第１ビル４０２,,33,101,7000821,,,,,,,2025-04-25,1,,,,,セキラボ,0
221,1290001109736,新規,0,2025-04-25,2025-04-25,９１９株式会社,,株式会社,福岡県,福岡市博多区,博多駅前１丁目２３番２号５Ｆ－Ｂ,,40,132,8120011,,,,,,,2025-04-25,1,,,,,キューイチキュー,0
222,1290001109802,新規,0,2025-04-25,2025-04-25,株式会社スリーアローズ,,株式会社,福岡県,福岡市中央区,六本松２丁目１０番１７号,,40,133,8100044,,,,,,,2025-04-25,1,,,,,スリーアローズ,0
224,1290003016749,新規,0,2025-04-25,2025-04-25,ＴＡＹＵＫＡＳ合同会社,,合同会社,福岡県,福岡市博多区,博多駅東１丁目１３－１７松岡ビル８階,,40,132,8120013,,,,,,,2025-04-25,1,,,,,タユカス,0
225,1290003016757,新規,0,2025-04-25,2025-04-25,合同会社ヨロズヤ,,合同会社,福岡県,福岡市東区,土井２丁目３６－３５－２０３,,40,131,8130032,,,,,,,2025-04-25,1,,,,,ヨロズヤ,0
228,1310005008849,新規,0,2025-04-25,2025-04-25,医療法人恵史会,,その他の設立登記法人,長崎県,大村市,松並２丁目８８８番２号,,42,205,8560814,,,,,,,2025-04-25,1,,,,,ケイシカイ,0
232,1330003010978,新規,0,2025-04-25,2025-04-25,合同会社小宮建装,,合同会社,熊本県,熊本市南区,川口町４５０１番地１,,43,104,8614123,,,,,,,2025-04-25,1,,,,,コミヤケンソウ,0
242,1380003006022,新規,0,2025-04-25,2025-04-25,合同会社はばたき,,合同会社,福島県,福島市,春日町１０番１０号,,07,201,9608116,,,,,,,2025-04-25,1,,,,,ハバタキ,0
252,1430001094237,新規,0,2025-04-25,2025-04-25,株式会社ＦＲＥＥ　ＲＩＳＥ,,株式会社,北海道,札幌市中央区,南七条西６丁目２８９番地１１８,,01,101,0640807,,,,,,,2025-04-25,1,,,,,フリーライズ,0
253,1430001094245,新規,0,2025-04-25,2025-04-25,インフォセキュアソリューションズ株式会社,,株式会社,北海道,札幌市中央区,南二条西５丁目３１－１ＲＭＢｌｄ．７０１,,01,101,0600062,,,,,,,2025-04-25,1,,,,,インフォセキュアソリューションズ,0
254,1430001094261,新規,0,2025-04-25,2025-04-25,株式会社チーム,,株式会社,北海道,苫小牧市,ウトナイ北７丁目１４番３号,,01,213,0591306,,,,,,,2025-04-25,1,,,,,チーム,0
255,1430001094278,新規,0,2025-04-25,2025-04-25,株式会社トラスト,,株式会社,北海道,札幌市中央区,南二条東１丁目１番地１２,,01,101,0600052,,,,,,,2025-04-25,1,,,,,トラスト,0
262,1470005006622,新規,0,2025-04-25,2025-04-25,一般社団法人ＴｏＢｅ,,その他の設立登記法人,香川県,高松市,松島町２丁目１１－４,,37,201,7600068,,,,,,,2025-04-25,1,,,,,,0
265,1480003002259,新規,0,2025-04-25,2025-04-25,合同会社Ｂｏｕｇｅｒ,,合同会社,徳島県,徳島市,北佐古二番町３－３２,,36,201,7700012,,,,,,,2025-04-25,1,,,,,ブジェ,0
268,1500001026265,新規,0,2025-04-25,2025-04-25,株式会社Ｈａｒｄｙ’ｓ,,株式会社,愛媛県,東温市,南方９０６番地２,,38,215,7910301,,,,,,,2025-04-25,1,,,,,ハーディーズ,0
279,2010005039923,新規,0,2025-04-25,2025-04-25,一般社団法人デザイン経営推進機構,,その他の設立登記法人,東京都,千代田区,紀尾井町３番２９号,,13,101,1020094,,,,,,,2025-04-25,1,,,,,デザインケイエイスイシンキコウ,0
281,2010101016652,新規,0,2025-04-25,2025-04-25,株式会社ＡＮＩＭＡ　Ｄｅｓｉｇｎ,,株式会社,東京都,八王子市,小宮町１２５１番地１０,,13,201,1920031,,,,,,,2025-04-25,1,,,,,アニマデザイン,0
284,2010405024302,新規,0,2025-04-25,2025-04-25,一般社団法人Ｂｅａｕｔｉｆｕｌ　Ｍｉｎｄ,,その他の設立登記法人,東京都,港区,南青山４丁目１５番１－２０１号,,13,103,1070062,,,,,,,2025-04-25,1,,,,,ビューティフルマインド,0
286,2010501053956,新規,0,2025-04-25,2025-04-25,智天株式会社,,株式会社,東京都,台東区,東上野６丁目１番１７号東上野中央ビル７０４号室,,13,106,1100015,,,,,,,2025-04-25,1,,,,,チテン,0
291,2010701047584,新規,0,2025-04-25,2025-04-25,慶祥株式会社,,株式会社,東京都,品川区,西五反田８丁目１番１３号ＧＢＳ・Ｅ－５,,13,109,1410031,,,,,,,2025-04-25,1,,,,,ケイショウ,0
294,2010903009878,新規,0,2025-04-25,2025-04-25,合同会社斑鳩,,合同会社,東京都,世田谷区,世田谷２丁目２３番１６号,,13,112,1540017,,,,,,,2025-04-25,1,,,,,イカルガ,0
303,2011001169185,新規,0,2025-04-25,2025-04-25,株式会社ｄｏｔ　Ｂｌｕｅ,,株式会社,東京都,目黒区,目黒２丁目１１番３号,,13,110,1530063,,,,,,,2025-04-25,1,,,,,ドットブルー,0
304,2011001169202,新規,0,2025-04-25,2025-04-25,株式会社Ｊ‐ＯＣＥＡＮ,,株式会社,東京都,渋谷区,渋谷１丁目１番３号アミーホール３Ｆ,,13,113,1500002,,,,,,,2025-04-25,1,,,,,ジェイオーシャン,0
305,2011003021484,新規,0,2025-04-25,2025-04-25,合同会社ＩＣＨＩＧＵ,,合同会社,東京都,渋谷区,神宮前６丁目２３番４号桑野ビル２階,,13,113,1500001,,,,,,,2025-04-25,1,,,,,イチグ,0
319,2011401027042,新規,0,2025-04-25,2025-04-25,株式会社のばら,,株式会社,東京都,板橋区,南町５８番９号,,13,119,1730027,,,,,,,2025-04-25,1,,,,,ノバラ,0
322,2011601028600,新規,0,2025-04-25,2025-04-25,株式会社Ｒｉｎ＆Ｔｉｅ,,株式会社,東京都,練馬区,練馬１丁目２０番８号日建練馬ビル２Ｆ,,13,120,1760001,,,,,,,2025-04-25,1,,,,,リンアンドタイ,0
323,2011603004681,新規,0,2025-04-25,2025-04-25,ＮＡＳＡＴＡ合同会社,,合同会社,東京都,練馬区,桜台６丁目１１番１３号,,13,120,1760002,,,,,,,2025-04-25,1,,,,,ナサタ,0
327,2011801046030,新規,0,2025-04-25,2025-04-25,株式会社Ａｓｓｅｒｔｉｖｅ,,株式会社,東京都,足立区,西新井６丁目７番４－１０１号,,13,121,1230841,,,,,,,2025-04-25,1,,,,,アサーティブ,0
333,2020001162298,新規,0,2025-04-25,2025-04-25,Ｌ＆Ｍ　Ｊａｐａｎ株式会社,,株式会社,神奈川県,横浜市西区,みなとみらい４丁目２番８号,,14,103,2200012,,,,,,,2025-04-25,1,,,,,エルアンドエムジャパン,0
334,2020001162496,新規,0,2025-04-25,2025-04-25,株式会社Ｇｒａｃｅ　ｏｎｅ,,株式会社,神奈川県,横浜市都筑区,東方町６０番地２,,14,118,2240045,,,,,,,2025-04-25,1,,,,,グレイスワン,0
335,2020001162554,新規,0,2025-04-25,2025-04-25,株式会社竜エステート,,株式会社,神奈川県,横浜市港北区,鳥山町９１番地,,14,109,2220035,,,,,,,2025-04-25,1,,,,,リュウエステート,0
336,2020001162562,新規,0,2025-04-25,2025-04-25,株式会社ＡＦＦＬＡＴＵＳ,,株式会社,神奈川県,横浜市港北区,大倉山４丁目３２番３１号,,14,109,2220037,,,,,,,2025-04-25,1,,,,,アフレイタス,0
337,2020003028349,新規,0,2025-04-25,2025-04-25,ＬｅｏＬｅｏ合同会社,,合同会社,神奈川県,横浜市西区,西戸部町２丁目２０４番地４０,,14,103,2200046,,,,,,,2025-04-25,1,,,,,レオレオ,0
350,2030001166158,新規,0,2025-04-25,2025-04-25,越谷環境事業株式会社,,株式会社,埼玉県,越谷市,レイクタウン１丁目１番地１４,,11,222,3430828,,,,,,,2025-04-25,1,,,,,コシガヤカンキョウジギョウ,0
353,2030003026450,新規,0,2025-04-25,2025-04-25,さんずい合同会社,,合同会社,埼玉県,入間市,東町３丁目３番３６号,,11,225,3580002,,,,,,,2025-04-25,1,,,,,サンズイ,0
361,2040001138478,新規,0,2025-04-25,2025-04-25,株式会社Ｃｏｃｏｌｉｎｋ,,株式会社,千葉県,八千代市,村上南３丁目９番地１ウィズ八千代７０８号,,12,221,2760029,,,,,,,2025-04-25,1,,,,,ココリンク,0
364,2040003027423,新規,0,2025-04-25,2025-04-25,合同会社ＨＯＰＥ,,合同会社,千葉県,松戸市,八ケ崎２丁目１３番地の５サンフォーレ松戸１０１号,,12,207,2700023,,,,,,,2025-04-25,1,,,,,ホープ,0
369,2050003009222,新規,0,2025-04-25,2025-04-25,シエンモウ合同会社,,合同会社,茨城県,北茨城市,関南町神岡下８４６番地,,08,215,3191715,,,,,,,2025-04-25,1,,,,,シエンモウ,0
374,2070003005888,新規,0,2025-04-25,2025-04-25,合同会社杉江工業,,合同会社,群馬県,館林市,成島町３７８番地の１５,,10,207,3740055,,,,,,,2025-04-25,1,,,,,スギエコウギョウ,0
381,2110003005743,新規,0,2025-04-25,2025-04-25,合同会社たまふくワークス,,合同会社,新潟県,新潟市西区,上新栄町１丁目４番２１号リーブル３０２号室,,15,107,9502076,,,,,,,2025-04-25,1,,,,,タマフクワークス,0
392,2120001274843,新規,0,2025-04-25,2025-04-25,株式会社テラシード,,株式会社,大阪府,大阪市中央区,南船場１丁目１２番２２－２１０６号,,27,128,5420081,,,,,,,2025-04-25,1,,,,,テラシード,0
393,2120001274868,新規,0,2025-04-25,2025-04-25,株式会社ＰＬＵＳ　ＪＡＰＡＮ,,株式会社,大阪府,大阪市東淀川区,西淡路１丁目１番９号ビジネス新大阪２２９号室,,27,114,5330031,,,,,,,2025-04-25,1,,,,,プラスジャパン,0
394,2120001274926,新規,0,2025-04-25,2025-04-25,株式会社森能テクノロジー,,株式会社,大阪府,大阪市中央区,船場中央３丁目３番９号船場センタービル９号館２２１号室,,27,128,5410055,,,,,,,2025-04-25,1,,,,,シンノウテクノロジー,0
395,2120001275024,新規,0,2025-04-25,2025-04-25,株式会社エーエヌプランニング,,株式会社,大阪府,大阪市西区,北堀江１丁目１番２７号５ＢＣ,,27,106,5500014,,,,,,,2025-04-25,1,,,,,エーエヌプランニング,0
401,2120103006418,新規,0,2025-04-25,2025-04-25,合同会社ごきげん日和,,合同会社,大阪府,堺市西区,鳳東町３丁２８６番地１ローレル鳳５０２号,,27,144,5938324,,,,,,,2025-04-25,1,,,,,ゴキゲンビヨリ,0
406,2120901050757,新規,0,2025-04-25,2025-04-25,株式会社Ｂｒａｎｃｈ．Ｋ．Ｓｔｒｅａｍ,,株式会社,大阪府,豊中市,新千里東町３丁目３－１２０－４１４,,27,203,5600082,,,,,,,2025-04-25,1,,,,,ブランチケイストリーム,0
408,2120903005627,新規,0,2025-04-25,2025-04-25,合同会社ＣＯＳＭＯＳ,,合同会社,大阪府,吹田市,千里山西３丁目５番１２－５０１号,,27,205,5650851,,,,,,,2025-04-25,1,,,,,コスモス,0
415,2130003010403,新規,0,2025-04-25,2025-04-25,合同会社天清,,合同会社,京都府,京都市下京区,鍛冶屋町２５４番地１０４号,,26,106,6008079,,,,,,,2025-04-25,1,,,,,テンセイ,0
426,2140003021944,新規,0,2025-04-25,2025-04-25,合同会社アトリエオハナ,,合同会社,兵庫県,神戸市東灘区,御影山手１丁目１９番７－３０３号,,28,101,6580065,,,,,,,2025-04-25,1,,,,,アトリエオハナ,0
427,2150001028057,新規,0,2025-04-25,2025-04-25,株式会社Ｆｒｅａｋ　Ｗｏｒｋｓ,,株式会社,奈良県,香芝市,穴虫３２７３番地１,,29,210,6390252,,,,,,,2025-04-25,1,,,,,フリークワークス,0
434,2180001166366,新規,0,2025-04-25,2025-04-25,株式会社リベラルワークス,,株式会社,愛知県,名古屋市熱田区,金山町１丁目３番２号イトーピア紅葉舎金山マンション１００５号,,23,109,4560002,,,,,,,2025-04-25,1,,,,,リベラルワークス,0
435,2180001166548,新規,0,2025-04-25,2025-04-25,株式会社ＭＩＭＰＡ,,株式会社,愛知県,名古屋市中区,栄５丁目１８番１１号プリンセス姫ラグジュアリースイート８Ｆ,,23,106,4600008,,,,,,,2025-04-25,1,,,,,ミンパ,0
436,2180001166564,新規,0,2025-04-25,2025-04-25,株式会社ＯＲＡＮＧＥ　ＲＥＮＴ　Ａ　ＣＡＲＳ,,株式会社,愛知県,春日井市,白山町５丁目３１番地８,,23,206,4870034,,,,,,,2025-04-25,1,,,,,オレンジレンタカーズ,0
442,2180003028382,新規,0,2025-04-25,2025-04-25,合同会社ますだやまだ,,合同会社,愛知県,あま市,甚目寺松山５９第二松本ビル,,23,237,4901111,,,,,,,2025-04-25,1,,,,,マスダヤマダ,0
457,2290001109735,新規,0,2025-04-25,2025-04-25,株式会社エデンホーム,,株式会社,福岡県,福岡市南区,清水２丁目６番１６号,,40,134,8150031,,,,,,,2025-04-25,1,,,,,エデンホーム,0
458,2290001109792,新規,0,2025-04-25,2025-04-25,株式会社ＲＥＴＥＲＲＡＳ,,株式会社,福岡県,糟屋郡粕屋町,内橋東３丁目１１番１８－２１０号,,40,349,8112320,,,,,,,2025-04-25,1,,,,,リテラス,0
459,2290001109818,新規,0,2025-04-25,2025-04-25,株式会社ヒゼンクリーン,,株式会社,福岡県,福岡市早良区,早良７丁目１番６号,,40,137,8111122,,,,,,,2025-04-25,1,,,,,ヒゼンクリーン,0
460,2290001109826,新規,0,2025-04-25,2025-04-25,株式会社銀浪,,株式会社,福岡県,福岡市中央区,桜坂１丁目１番１号,,40,133,8100024,,,,,,,2025-04-25,1,,,,,ギンロウ,0
461,2290001109834,新規,0,2025-04-25,2025-04-25,株式会社ＮｅｘＰａｒｔｎｅｒ,,株式会社,福岡県,福岡市中央区,天神２丁目２番１２号Ｔ＆Ｊビルディング７Ｆ,,40,133,8100001,,,,,,,2025-04-25,1,,,,,ネクスパートナー,0
463,2290003016756,新規,0,2025-04-25,2025-04-25,合同会社ＴＲＡ,,合同会社,福岡県,糟屋郡粕屋町,内橋西２丁目８番６号,,40,349,8112321,,,,,,,2025-04-25,1,,,,,ティーアールエー,0
468,2310001019576,新規,0,2025-04-25,2025-04-25,株式会社ＯＮＥ　ＦＬＡＴ,,株式会社,長崎県,南島原市,加津佐町己２４６９番地２,,42,214,8592601,,,,,,,2025-04-25,1,,,,,ワンフラット,0
469,2320001021069,新規,0,2025-04-25,2025-04-25,株式会社アウロラ,,株式会社,大分県,大分市,花津留２丁目２５番９号,,44,201,8700933,,,,,,,2025-04-25,1,,,,,アウロラ,0
471,2340001027279,新規,0,2025-04-25,2025-04-25,株式会社アザレアエステート,,株式会社,鹿児島県,鹿児島市,荒田２丁目４２－１２－２０５,,46,201,8900054,,,,,,,2025-04-25,1,,,,,アザレアエステート,0
472,2340001027287,新規,0,2025-04-25,2025-04-25,株式会社ＭＩＳＡパートナーズ,,株式会社,鹿児島県,鹿児島市,東千石町５－１２キューブビル６１０号,,46,201,8920842,,,,,,,2025-04-25,1,,,,,ミサパートナーズ,0
478,2380003006021,新規,0,2025-04-25,2025-04-25,合同会社陽美喜,,合同会社,福島県,石川郡石川町,字渡里沢１３９番２号,,07,501,9637863,,,,,,,2025-04-25,1,,,,,ヒビキ,0
492,2490001011029,新規,0,2025-04-25,2025-04-25,高知ホースサービス株式会社,,株式会社,高知県,南国市,大＿甲２０３０番地８,00138918,39,204,7830004,,,,,,,2025-04-25,1,,,,,コウチホースサービス,0
494,2500001026264,新規,0,2025-04-25,2025-04-25,株式会社エンフィールド,,株式会社,愛媛県,松山市,土居田町５９５番地１４,,38,201,7900056,,,,,,,2025-04-25,1,,,,,エンフィールド,0
498,2700150130219,新規,0,2025-04-25,2025-04-25,ＮｅｎｇＬａｎｇＱｉＹｕａｎ（Ｈｅｆｅｉ）Ｔｅｃｈｎｏｌｏｇｙ　Ｃｏ．，ＬＴＤ,,外国会社等,,,,,,,,ＡｎｈｕｉｓｈｅｎｇｈｅｆｅｉｓｈｉｓｈｕｓｈａｎｑｕｘｉｙｏｕｌｕｙｕｑｉａｎｓｈａｎｌｕｊｉａｏｋｏｕｈｕａｒｕｎｄａｓｈａＡｚｕｏ７０３ｓｈｉ,,,,,,2025-04-25,1,,,,,ノンリャンチーユエンホーフェイコージーヨウシエンゴンスー,0
499,2700150130251,新規,0,2025-04-25,2025-04-25,ｚｈａｎｇｓｈｕｓｈｉｑｉｎｚｈｕｏｄｉａｎｚｉｓｈａｎｇｗｕｙｏｕｘｉａｎｇｏｎｇｓｉ,,外国会社等,,,,,,,,ｓｉｔｅｄａｄａｏｘｉｃｅ１８９ｈａｏ（ｚｈａｎｇｓｈｕｓｈｉｓｈｕｎｄａｊｉｄｏｎｇｃｈｅｊｉａｎｃｅｙｏｕｘｉａｎｇｏｎｇｓｉｙｕａｎｎｅｉ）１０５ｈａｏ，ｙｉｃｈｕｎｓｈｉ，ｚｈａｎｇｓｈｕｓｈｉ　Ｊｉａｎｇｘｉ　３３１２００　ＣＮ,,,,,,2025-04-25,1,,,,,ザンスウシチンゾウデンシショウムヨウシエンゴンスー,0
505,3010001254491,新規,0,2025-04-25,2025-04-25,しましまファクトリー株式会社,,株式会社,東京都,中央区,銀座１丁目２２番１１号銀座大竹ビジデンス２Ｆ,,13,102,1040061,,,,,,,2025-04-25,1,,,,,シマシマファクトリー,0
509,3010005039971,新規,0,2025-04-25,2025-04-25,一般社団法人ＰＦＣ　ＡＳＩＡＮＳ,,その他の設立登記法人,東京都,千代田区,神田須田町１丁目７番８号ＶＯＲＴ秋葉原４－２Ｆ,,13,101,1010041,,,,,,,2025-04-25,1,,,,,ピーエフシーエーションズ,0
525,3010401189759,新規,0,2025-04-25,2025-04-25,株式会社Ｇｌｏｂａｌ　Ｔｏｋｙｏ,,株式会社,東京都,港区,南麻布５丁目２番３７号デペッシュモード４階,,13,103,1060047,,,,,,,2025-04-25,1,,,,,グローバルトウキョウ,0
526,3010401189783,新規,0,2025-04-25,2025-04-25,株式会社ネクスエッジ,,株式会社,東京都,港区,新橋４丁目１４番１新橋ＡＵＮＢＬＤＧ４階,,13,103,1050004,,,,,,,2025-04-25,1,,,,,エクスエッジ,0
528,3010405024350,新規,0,2025-04-25,2025-04-25,Ｐｉｓｃｅｓ特定目的会社,,その他の設立登記法人,東京都,港区,虎ノ門５丁目１番４号,,13,103,1050001,,,,,,,2025-04-25,1,,,,,ピスケス,0
530,3010503007802,新規,0,2025-04-25,2025-04-25,辰淳合同会社,,合同会社,東京都,台東区,元浅草１丁目６－１２－４１３,,13,106,1110041,,,,,,,2025-04-25,1,,,,,タツジュン,0
539,3010701047583,新規,0,2025-04-25,2025-04-25,金恒通達株式会社,,株式会社,東京都,品川区,西五反田８丁目１番１３号ＧＢＳ・Ｅ－２,,13,109,1410031,,,,,,,2025-04-25,1,,,,,キンコウツウタツ,0
540,3010803005357,新規,0,2025-04-25,2025-04-25,リアフォンテーヌ合同会社,,合同会社,東京都,大田区,下丸子１丁目１９番４号サーパスシティ下丸子８０１,,13,111,1460092,,,,,,,2025-04-25,1,,,,,リアフォンテーヌ,0
546,3011001169184,新規,0,2025-04-25,2025-04-25,ＬＤＫＤ株式会社,,株式会社,東京都,渋谷区,南平台町１２番９号南平台サニーハイツ４０２,,13,113,1500036,,,,,,,2025-04-25,1,,,,,エルディケーディ,0
547,3011001169218,新規,0,2025-04-25,2025-04-25,株式会社ＤｅＮＡ　ＡＩ　Ｌｉｎｋ,,株式会社,東京都,渋谷区,渋谷２丁目２４番１２号,,13,113,1500002,,,,,,,2025-04-25,1,,,,,ディーエヌエーエーアイリンク,0
551,3011101111558,新規,0,2025-04-25,2025-04-25,株式会社Ｍｏｏｒｅ,,株式会社,東京都,新宿区,片町６番９－８０４号,,13,104,1600001,,,,,,,2025-04-25,1,,,,,ムーア,0
553,3011103015815,新規,0,2025-04-25,2025-04-25,合同会社アスヒ,,合同会社,東京都,新宿区,西新宿３丁目３番１３号西新宿水間ビル２Ｆ,,13,104,1600023,,,,,,,2025-04-25,1,,,,,アスヒ,0
561,3011603004680,新規,0,2025-04-25,2025-04-25,合同会社ガネーシャナイン,,合同会社,東京都,練馬区,旭丘１丁目５３番４号旭丘三和コーポ２０２,,13,120,1760005,,,,,,,2025-04-25,1,,,,,ガネーシャナイン,0
573,3020001162479,新規,0,2025-04-25,2025-04-25,三米株式会社,,株式会社,神奈川県,横浜市金沢区,幸浦２丁目１２番地２－３Ｆ,,14,108,2360003,,,,,,,2025-04-25,1,,,,,サンマイ,0
574,3020001162487,新規,0,2025-04-25,2025-04-25,ＮＡＳ　ＴＲＡＤＩＮＧ株式会社,,株式会社,神奈川県,川崎市川崎区,藤崎４丁目１１番１３号エール藤崎３０５号,,14,131,2100804,,,,,,,2025-04-25,1,,,,,ナストレーディング,0
575,3020001162537,新規,0,2025-04-25,2025-04-25,株式会社シフトリア,,株式会社,神奈川県,横浜市西区,浅間町１丁目４番３号ウィザードビル４０２,,14,103,2200072,,,,,,,2025-04-25,1,,,,,シフトリア,0
576,3020001162545,新規,0,2025-04-25,2025-04-25,株式会社Ｐｒｉｖａｔｅ　Ｐｏｌｉｃｅ,,株式会社,神奈川県,横浜市神奈川区,新子安１丁目２番２－Ｃ１０８号,,14,102,2210013,,,,,,,2025-04-25,1,,,,,プライベートポリス,0
577,3020001162553,新規,0,2025-04-25,2025-04-25,グローバルインフィニティ株式会社,,株式会社,神奈川県,横浜市南区,永田東３丁目８番２１号,,14,105,2320072,,,,,,,2025-04-25,1,,,,,グローバルインフィニティ,0
585,3021003015930,新規,0,2025-04-25,2025-04-25,合同会社Ｓｅａ　ｅｙｅｓ,,合同会社,神奈川県,横須賀市,粟田１丁目４０－１５,,14,201,2390845,,,,,,,2025-04-25,1,,,,,シーアイズ,0
592,3030001166157,新規,0,2025-04-25,2025-04-25,株式会社オレゴリ,,株式会社,埼玉県,入間市,大字上藤沢４９３番地５,,11,225,3580013,,,,,,,2025-04-25,1,,,,,オレゴリ,0
601,3040001138460,新規,0,2025-04-25,2025-04-25,株式会社桜Ｌａｂｏちば,,株式会社,千葉県,千葉市若葉区,みつわ台５丁目３６番１９号,,12,104,2640032,,,,,,,2025-04-25,1,,,,,サクララボチバ,0
604,3040003027422,新規,0,2025-04-25,2025-04-25,合同会社ＫＫ　ＣＯＲＰＯＲＡＴＩＯＮ,,合同会社,千葉県,千葉市中央区,都町８丁目４番３号,,12,101,2600001,,,,,,,2025-04-25,1,,,,,ケイケイコーポレーション,0
606,3040005022743,新規,0,2025-04-25,2025-04-25,医療法人社団ベリタス真正会,,その他の設立登記法人,千葉県,千葉市中央区,宮崎町５６１番地１,,12,101,2600805,,,,,,,2025-04-25,1,,,,,ベリタスシンセイカイ,0
610,3060001038147,新規,0,2025-04-25,2025-04-25,ＥＯＳ．Ｊ株式会社,,株式会社,栃木県,宇都宮市,上小倉町３７３番地２,,09,201,3210401,,,,,,,2025-04-25,1,,,,,イオスジェー,0
617,3080003003444,新規,0,2025-04-25,2025-04-25,合同会社アースリング,,合同会社,静岡県,静岡市葵区,大岩３丁目１９‐２８,,22,101,4200886,,,,,,,2025-04-25,1,,,,,アースリング,0
618,3080005007690,新規,0,2025-04-25,2025-04-25,一般社団法人静岡シビルサポートキャリア,,その他の設立登記法人,静岡県,静岡市駿河区,広野２丁目８番２３号,,22,102,4210121,,,,,,,2025-04-25,1,,,,,シズオカシビルサポートキャリア,0
625,3090001019243,新規,0,2025-04-25,2025-04-25,株式会社アヤメＴＥＣＨ,,株式会社,山梨県,南アルプス市,上宮地１６２７番地,,19,208,4000312,,,,,,,2025-04-25,1,,,,,アヤメテック,0
636,3120001274842,新規,0,2025-04-25,2025-04-25,株式会社タムール,,株式会社,大阪府,大阪市平野区,加美北５丁目９番２－６０７号,,27,126,5470001,,,,,,,2025-04-25,1,,,,,タムール,0
637,3120001274867,新規,0,2025-04-25,2025-04-25,ふたば不動産販売株式会社,,株式会社,大阪府,大阪市天王寺区,上之宮町１１番１０号ワカミズビル４０２,,27,109,5430037,,,,,,,2025-04-25,1,,,,,フタバフドウサンハンバイ,0
638,3120001274875,新規,0,2025-04-25,2025-04-25,如花貿易株式会社,,株式会社,大阪府,大阪市西成区,聖天下１丁目９－１１－１０１,,27,122,5570012,,,,,,,2025-04-25,1,,,,,ニョカボウエキ,0
639,3120001274933,新規,0,2025-04-25,2025-04-25,株式会社ファンブレード,,株式会社,大阪府,大阪市東住吉区,住道矢田１丁目２０番２９－１０５号,,27,121,5460022,,,,,,,2025-04-25,1,,,,,ファンブレード,0
640,3120001274966,新規,0,2025-04-25,2025-04-25,漢徳教育株式会社,,株式会社,大阪府,大阪市城東区,蒲生１丁目３番７号,,27,118,5360016,,,,,,,2025-04-25,1,,,,,カントクキョウイク,0
641,3120003029187,新規,0,2025-04-25,2025-04-25,Ｐａｒｋｓｉｄｅ合同会社,,合同会社,大阪府,大阪市東住吉区,山坂５丁目１４－１０ＫＭ山坂８０２,,27,121,5460035,,,,,,,2025-04-25,1,,,,,パークサイド,0
642,3120003029195,新規,0,2025-04-25,2025-04-25,禾美生活合同会社,,合同会社,大阪府,大阪市西成区,萩之茶屋１丁目１２番７号万葉ビル１０８号室,,27,122,5570004,,,,,,,2025-04-25,1,,,,,カビセイカツ,0
643,3120003029204,新規,0,2025-04-25,2025-04-25,合同会社シナプス,,合同会社,大阪府,大阪市中央区,南船場３丁目２番２２号おおきに南船場ビル２０５,,27,128,5420081,,,,,,,2025-04-25,1,,,,,シナプス,0
653,3130001079514,新規,0,2025-04-25,2025-04-25,こうず株式会社,,株式会社,京都府,京都市東山区,清閑寺霊山町２１番１－６０１号,,26,105,6050861,,,,,,,2025-04-25,1,,,,,コウズ,0
654,3130001079530,新規,0,2025-04-25,2025-04-25,株式会社ＡＮＧＥＬＬ,,株式会社,京都府,京都市左京区,下鴨宮崎町１１９－１,,26,103,6060802,,,,,,,2025-04-25,1,,,,,アンジュール,0
658,3130005017354,新規,0,2025-04-25,2025-04-25,一般社団法人ＵｎｉＶｅｒｓａｌ　Ｃｏｍｐａｎｙ,,その他の設立登記法人,京都府,亀岡市,曾我部町法貴万寿３６番地６号,,26,206,6210000,,,,,,,2025-04-25,1,,,,,ユニバーサルカンパニー,0
671,3140001138277,新規,0,2025-04-25,2025-04-25,株式会社クーランス,,株式会社,兵庫県,西脇市,郷瀬町５３７番地の２,,28,213,6770014,,,,,,,2025-04-25,1,,,,,クーランス,0
672,3140001138302,新規,0,2025-04-25,2025-04-25,株式会社盛達商行,00138920,株式会社,兵庫県,神戸市中央区,栄町通１丁目２番２８号,,28,110,6500023,,,,,,,2025-04-25,1,,,,,モリタツショウコウ,0
673,3140003021976,新規,0,2025-04-25,2025-04-25,リバーサイド合同会社,,合同会社,兵庫県,神戸市垂水区,青山台１丁目１４番１０号,,28,108,6550873,,,,,,,2025-04-25,1,,,,,リバーサイド,0
674,3140003021984,新規,0,2025-04-25,2025-04-25,ｐｕｒｏｓａｎｇｕｅ合同会社,,合同会社,兵庫県,神戸市西区,学園東町６丁目１３番地の５,,28,111,6512102,,,,,,,2025-04-25,1,,,,,プロサングエ,0
681,3180001166448,新規,0,2025-04-25,2025-04-25,株式会社新日エステート,,株式会社,愛知県,名古屋市港区,辰巳町３５番１６号,,23,111,4550003,,,,,,,2025-04-25,1,,,,,シンニチエステート,0
682,3180001166547,新規,0,2025-04-25,2025-04-25,株式会社ＹＣＬＩＮＥ,,株式会社,愛知県,名古屋市港区,小碓２丁目３４７番地,,23,111,4550801,,,,,,,2025-04-25,1,,,,,ワイシーライン,0
691,3190001032186,新規,0,2025-04-25,2025-04-25,株式会社コネクト,,株式会社,三重県,四日市市,白須賀１丁目３番１３号,,24,202,5100018,,,,,,,2025-04-25,1,,,,,コネクト,0
710,3260001040140,新規,0,2025-04-25,2025-04-25,株式会社ＳＨＭ　ＴＲＡＤＩＮＧ,,株式会社,岡山県,総社市,原７３０番地２,,33,208,7191324,,,,,,,2025-04-25,1,,,,,エスエイチエムトレーディング,0
715,3290001109783,新規,0,2025-04-25,2025-04-25,株式会社ＲＥＸＩＭＯ,,株式会社,福岡県,大川市,大字酒見９０－１ロイヤルタワー大川中央１４０７号,,40,212,8310016,,,,,,,2025-04-25,1,,,,,レクシモ,0
716,3290001109791,新規,0,2025-04-25,2025-04-25,株式会社ＳＬエージェント,,株式会社,福岡県,福津市,西福間５丁目３３番１８号,,40,224,8113219,,,,,,,2025-04-25,1,,,,,エスエルエージェント,0
717,3290001109809,新規,0,2025-04-25,2025-04-25,株式会社ミレ商会,,株式会社,福岡県,福岡市博多区,博多駅前１丁目２３番２号ＰａｒｋＦｒｏｎｔ博多駅前１丁目５Ｆ－Ｂ,,40,132,8120011,,,,,,,2025-04-25,1,,,,,ミレショウカイ,0
718,3290001109825,新規,0,2025-04-25,2025-04-25,子どもの未来を明るくする株式会社,,株式会社,福岡県,久留米市,御井旗崎５丁目４番５－２号,,40,203,8390841,,,,,,,2025-04-25,1,,,,,コドモノドモノミライヲアカルクスル,0
719,3290001109841,新規,0,2025-04-25,2025-04-25,ｆａｍ株式会社,,株式会社,福岡県,福岡市博多区,築港本町３番地８号８０８号室,,40,132,8120021,,,,,,,2025-04-25,1,,,,,ファム,0
721,3290003016755,新規,0,2025-04-25,2025-04-25,合同会社ｓｍｉｌｅ　ｕｐ,,合同会社,福岡県,久留米市,東町２５番地２４ファイブサンシャインビル１階,,40,203,8300032,,,,,,,2025-04-25,1,,,,,スマイルアップ,0
722,3290801031484,新規,0,2025-04-25,2025-04-25,株式会社ＳＭＩＬＯＯＰ,,株式会社,福岡県,北九州市八幡西区,黒崎１丁目９番６号４Ｆ,,40,109,8060021,,,,,,,2025-04-25,1,,,,,スマイループ,0
730,3330005010909,新規,0,2025-04-25,2025-04-25,ちんたい共済協同組合,,その他の設立登記法人,熊本県,熊本市中央区,九品寺２丁目６番５７号,,43,101,8620976,,,,,,,2025-04-25,1,,,,,チンタイキョウサイ,0
731,3340003004837,新規,0,2025-04-25,2025-04-25,合同会社南九クリーンエンタープライズ,,合同会社,鹿児島県,鹿児島市,永吉１丁目２番３６号－３Ｆ,,46,201,8900023,,,,,,,2025-04-25,1,,,,,ナンキュウクリーンエンタープライズ,0
739,3410005006642,新規,0,2025-04-25,2025-04-25,農事組合法人よつばファーム,,その他の設立登記法人,秋田県,大仙市,太田町川口字中村６５番地,,05,212,0191615,,,,,,,2025-04-25,1,,,,,,0
747,3450003002648,新規,0,2025-04-25,2025-04-25,合同会社北海カンパニー,,合同会社,北海道,稚内市,大黒４丁目６番３１号,,01,214,0970005,,,,,,,2025-04-25,1,,,,,ホッカイカンパニー,0
749,3480003002257,新規,0,2025-04-25,2025-04-25,合同会社まえだけ,,合同会社,徳島県,徳島市,庄町１丁目４７番地８,,36,201,7700044,,,,,,,2025-04-25,1,,,,,マエダケ,0
750,3490001011028,新規,0,2025-04-25,2025-04-25,株式会社Ｙ’ｓファスト,,株式会社,高知県,南国市,十市４６０２番地２,,39,204,7830085,,,,,,,2025-04-25,1,,,,,ワイズファスト,0
751,3500001026263,新規,0,2025-04-25,2025-04-25,株式会社三嶋技建,,株式会社,愛媛県,松山市,八反地甲５６番地２,,38,201,7992424,,,,,,,2025-04-25,1,,,,,ミシマギケン,0
755,3700150130226,新規,0,2025-04-25,2025-04-25,Ａ．Ｃ．Ａ．ＩＭＰＯＲＴＥＲＳ　ＰＶＴ　ＬＴＤ,,外国会社等,栃木県,日光市,鬼怒川温泉大原１２９７番地１黒図アパートとき３号,,09,206,3212522,スリランカ民主社会主義共和国中央州キャンディー地区カドゥガンナワ、コロンボ通り６３０番地,,,,,,2025-04-25,1,,,,,エーシーエーインポーターズプライベートリミテツド,0
756,3700150130250,新規,0,2025-04-25,2025-04-25,Ｎｉｎｇｂｏ　Ｓｈｉｋｅ　Ｅｌｅｃｔｒｏｎｉｃｓ　Ｃｏ．，Ｌｔｄ．,,外国会社等,,,,,,,,３ｒｄ　Ｆｌｏｏｒ，Ｂｕｉｌｄｉｎｇ　１，Ｎｏ．１　Ｌｉｃｈａｎｇ　Ｒｏａｄ，Ｄａｘｉｅ　Ｄｅｖｅｌｏｐｍｅｎｔ　Ｚｏｎｅ，Ｎｉｎｇｂｏ　Ｃｉｔｙ，Ｚｈｅｊｉａｎｇ　Ｐｒｏｖｉｎｃｅ　３１５８１２　ＣＮ,,,,,,2025-04-25,1,,,,,ニンボーシケイレクトゥロニクスカンパニーリミテッド,0
767,4010003047182,新規,0,2025-04-25,2025-04-25,ＡＦ２０合同会社,,合同会社,東京都,中央区,日本橋１丁目４番１号,,13,102,1030027,,,,,,,2025-04-25,1,,,,,エーエフトゥエンティー,0
771,4010005039979,新規,0,2025-04-25,2025-04-25,一般社団法人ＡＦ２０,,その他の設立登記法人,東京都,中央区,日本橋１丁目４番１号,,13,102,1030027,,,,,,,2025-04-25,1,,,,,エーエフトゥエンティー,0
778,4010401189626,新規,0,2025-04-25,2025-04-25,株式会社ライブコマース,,株式会社,東京都,港区,赤坂４丁目１５番１号,,13,103,1070052,,,,,,,2025-04-25,1,,,,,ライブコマース,0
791,4010903009868,新規,0,2025-04-25,2025-04-25,合同会社Ｓｐｉｄｅｒ　Ｌｉｌｙ,,合同会社,東京都,世田谷区,上馬４丁目３６－１９ベルエアー上馬２０４,,13,112,1540011,,,,,,,2025-04-25,1,,,,,スパイダーリリー,0
792,4010903009876,新規,0,2025-04-25,2025-04-25,イデコ合同会社,,合同会社,東京都,世田谷区,桜１丁目６番１０号,,13,112,1560053,,,,,,,2025-04-25,1,,,,,イデコ,0
800,4011103015814,新規,0,2025-04-25,2025-04-25,合同会社日京,,合同会社,東京都,新宿区,西新宿３丁目３番１３号西新宿水間ビル２Ｆ,,13,104,1600023,,,,,,,2025-04-25,1,,,,,ニッキョウ,0
806,4011303005524,新規,0,2025-04-25,2025-04-25,ｅ５合同会社,,合同会社,東京都,杉並区,成田東３丁目３３番１７号,,13,115,1660015,,,,,,,2025-04-25,1,,,,,イーファイブ,0
818,4012303002148,新規,0,2025-04-25,2025-04-25,Ｍｉｋａｔａ合同会社,,合同会社,東京都,町田市,金井２丁目３３番地７,,13,209,1950072,,,,,,,2025-04-25,1,,,,,ミカタ,0
823,4013301054131,新規,0,2025-04-25,2025-04-25,斎藤商事株式会社,,株式会社,東京都,豊島区,巣鴨４丁目２８番２号東急ドエルアルス巣鴨２０５号,,13,116,1700002,,,,,,,2025-04-25,1,,,,,サイトウショウジ,0
826,4020001162560,新規,0,2025-04-25,2025-04-25,株式会社ディーラーマン,,株式会社,神奈川県,横浜市金沢区,乙舳町９番１８号,,14,108,2360024,,,,,,,2025-04-25,1,,,,,ディーラーマン,0
827,4020001162569,新規,0,2025-04-25,2025-04-25,株式会社Ｒ,,株式会社,神奈川県,横浜市旭区,市沢町１１４番地プレミオ横浜３０２号室,,14,112,2410014,,,,,,,2025-04-25,1,,,,,アール,0
831,4021001085082,新規,0,2025-04-25,2025-04-25,株式会社ＫＡＴＯ,,株式会社,神奈川県,茅ヶ崎市,南湖４丁目１９番１号,,14,207,2530061,,,,,,,2025-04-25,1,,,,,カトウ,0
841,4030001166156,新規,0,2025-04-25,2025-04-25,株式会社ＨＯＮＤＡホーム,,株式会社,埼玉県,新座市,栗原２丁目３番２９号,,11,230,3520035,,,,,,,2025-04-25,1,,,,,ホンダホーム,0
842,4030001166214,新規,0,2025-04-25,2025-04-25,嘉益株式会社,,株式会社,埼玉県,草加市,原町１丁目１２番３４－２号,,11,221,3400048,,,,,,,2025-04-25,1,,,,,カエキ,0
843,4030001166239,新規,0,2025-04-25,2025-04-25,レッドメープル株式会社,,株式会社,埼玉県,さいたま市南区,白幡１丁目１６番２号,,11,108,3360022,,,,,,,2025-04-25,1,,,,,レッドメープル,0
855,4040003027438,新規,0,2025-04-25,2025-04-25,合同会社Ｍ・Ｋケア,,合同会社,千葉県,市原市,五井西３丁目７番地５,,12,219,2900038,,,,,,,2025-04-25,1,,,,,エムケーケア,0
863,4060001038146,新規,0,2025-04-25,2025-04-25,ＮＡＰＰ　Ｖｅｎｔｕｒｅ　Ｃｏｍｐａｎｙ株式会社,,株式会社,栃木県,小山市,神山２丁目５番５号,,09,208,3230828,,,,,,,2025-04-25,1,,,,,ナップベンチャーカンパニー,0
874,4090001019242,新規,0,2025-04-25,2025-04-25,ＴＳホールディングス株式会社,,株式会社,山梨県,韮崎市,龍岡町下條南割６６７番地１,,19,207,4070033,,,,,,,2025-04-25,1,,,,,ティーエスホールディングス,0
879,4110001039213,新規,0,2025-04-25,2025-04-25,株式会社Ｔ．Ｒｉ’Ｓ,,株式会社,新潟県,新潟市中央区,高志１丁目２１番３－１０４号,,15,103,9500926,,,,,,,2025-04-25,1,,,,,トライ,0
889,4120001274817,新規,0,2025-04-25,2025-04-25,筑道株式会社,,株式会社,大阪府,大阪市西淀川区,姫島２丁目４番１０号パークアベニュー２階Ａ室,,27,113,5550033,,,,,,,2025-04-25,1,,,,,チクドウ,0
890,4120001274890,新規,0,2025-04-25,2025-04-25,株式会社ライティングアンド,,株式会社,大阪府,大阪市北区,梅田１丁目２番２号大阪駅前第２ビル１２－１２,,27,127,5300001,,,,,,,2025-04-25,1,,,,,ライティングアンド,0
891,4120001274965,新規,0,2025-04-25,2025-04-25,株式会社スパリオ,,株式会社,大阪府,大阪市都島区,都島北通１丁目５番１号,,27,102,5340014,,,,,,,2025-04-25,1,,,,,スパリオ,0
892,4120001275344,新規,0,2025-04-25,2025-04-25,株式会社Ｌｕｎａｔｔ,,株式会社,大阪府,大阪市住之江区,浜口東２丁目７番２５号,,27,125,5590002,,,,,,,2025-04-25,1,,,,,ルナット,0
894,4120003029228,新規,0,2025-04-25,2025-04-25,合同会社てらりゅう,,合同会社,大阪府,大阪市中央区,淡路町２丁目６番５号４階,,27,128,5410047,,,,,,,2025-04-25,1,,,,,テラリュウ,0
895,4120003029335,新規,0,2025-04-25,2025-04-25,合同会社Ｃｈｏｃｋａ　Ｓｔｕｄｉｏ,,合同会社,大阪府,大阪市旭区,新森３丁目１１‐１４,,27,117,5350022,,,,,,,2025-04-25,1,,,,,チョッカスタジオ,0
911,4130001079505,新規,0,2025-04-25,2025-04-25,京都国際文化交流学院株式会社,,株式会社,京都府,京都市伏見区,深草越後屋敷町６７番地６メゾンタイム墨染３０２号室,,26,109,6128431,,,,,,,2025-04-25,1,,,,,キョウトコクサイブンカコウリュウガクイン,0
912,4130003010401,新規,0,2025-04-25,2025-04-25,合同会社熊谷佳子建築設計事務所,,合同会社,京都府,京都市中京区,河原町通二条上る清水町３５８番地３ジオ御所南河原町二条２０２号,,26,104,6040911,,,,,,,2025-04-25,1,,,,,クマガイヨシコケンチクセッケイジムショ,0
921,4140001138219,新規,0,2025-04-25,2025-04-25,レモンインターナショナル株式会社,,株式会社,兵庫県,たつの市,龍野町片山３７９番地１,,28,229,6794123,,,,,,,2025-04-25,1,,,,,レモンインターナショナル,0
922,4140001138243,新規,0,2025-04-25,2025-04-25,株式会社ＳＩＢ,,株式会社,兵庫県,高砂市,曽根町５４０番地の１,,28,216,6760082,,,,,,,2025-04-25,1,,,,,シブ,0
923,4140001138292,新規,0,2025-04-25,2025-04-25,株式会社サイナス,,株式会社,兵庫県,淡路市,岩屋３５５６番地４７,,28,226,6562401,,,,,,,2025-04-25,1,,,,,サイナス,0
924,4140001138301,新規,0,2025-04-25,2025-04-25,日輝商事株式会社,,株式会社,兵庫県,神戸市中央区,海岸通１丁目１番２－１５０５号,,28,110,6500024,,,,,,,2025-04-25,1,,,,,ニッキショウジ,0
937,4180001166554,新規,0,2025-04-25,2025-04-25,株式会社Ａｉｖｏｒｙ,,株式会社,愛知県,名古屋市港区,畑中２丁目６６０,,23,111,4550879,,,,,,,2025-04-25,1,,,,,アイボリー,0
943,4180003028356,新規,0,2025-04-25,2025-04-25,Ｓ．Ｔ＆Ｍ合同会社,,合同会社,愛知県,津島市,錦町２６番地１,,23,208,4960802,,,,,,,2025-04-25,1,,,,,エスティーアンドエム,0
947,4180301039757,新規,0,2025-04-25,2025-04-25,株式会社Ｌｕｍｉｎｏｒａ,,株式会社,愛知県,豊田市,宮上町７丁目８－８,,23,211,4710038,,,,,,,2025-04-25,1,,,,,ルミノラ,0
955,4220003004014,新規,0,2025-04-25,2025-04-25,合同会社アセット北陸,,合同会社,石川県,金沢市,駅西本町２丁目５番１６号,,17,201,9200025,,,,,,,2025-04-25,1,,,,,,0
966,4250001021116,新規,0,2025-04-25,2025-04-25,Ｔａｎａｋａ株式会社,,株式会社,山口県,周南市,緑町１丁目２番地メゾンブランシェ４０３号,,35,215,7450075,,,,,,,2025-04-25,1,,,,,タナカ,0
970,4260003005149,新規,0,2025-04-25,2025-04-25,合同会社Ｏｆｆｉｃｅ　Ａｒｉｓａ,,合同会社,岡山県,岡山市北区,津高１４４４番地５,,33,101,7011152,,,,,,,2025-04-25,1,,,,,オフィスアリサ,0
971,4270003001741,新規,0,2025-04-25,2025-04-25,合同会社ＯＳＡｉｓｍ,,合同会社,鳥取県,鳥取市,千代水４丁目１番地ベルセーヌビル２Ｆ２０２,,31,201,6800911,,,,,,,2025-04-25,1,,,,,オサイズム,0
979,4290001109790,新規,0,2025-04-25,2025-04-25,株式会社原口建設,,株式会社,福岡県,福岡市博多区,吉塚３丁目３１番６９号,,40,132,8120041,,,,,,,2025-04-25,1,,,,,ハラグチケンセツ,0
980,4290001109832,新規,0,2025-04-25,2025-04-25,株式会社ＧＡＢＵ　ＯＲＩＥＮＴ,,株式会社,福岡県,福岡市東区,馬出１丁目２４番３１－１０２号,,40,131,8120054,,,,,,,2025-04-25,1,,,,,ガブオリエント,0
982,4290003016754,新規,0,2025-04-25,2025-04-25,アズキシステム合同会社,,合同会社,福岡県,太宰府市,通古賀１丁目１２番１サンリヤン都府楼前５０１号,,40,221,8180104,,,,,,,2025-04-25,1,,,,,アズキシステム,0
983,4290801031483,新規,0,2025-04-25,2025-04-25,株式会社栄晟,,株式会社,福岡県,北九州市小倉北区,片野４丁目１番８－３０５号,,40,106,8020064,,,,,,,2025-04-25,1,,,,,エイセイ,0
987,4330003010967,新規,0,2025-04-25,2025-04-25,合同会社中平土木,,合同会社,熊本県,宇土市,花園台町７５７番地６３,,43,211,8690410,,,,,,,2025-04-25,1,,,,,ナカヒラドボク,0
990,4340003004836,新規,0,2025-04-25,2025-04-25,合同会社ＴＡＭＯＴＳＵ家,,合同会社,鹿児島県,大島郡瀬戸内町,大字古仁屋字春日１８番地２０,,46,525,8941504,,,,,,,2025-04-25,1,,,,,タモツケ,0
1015,4700150130225,新規,0,2025-04-25,2025-04-25,Ｓｈｅｎｚｈｅｎ　Ｃｏｃｏｌｉ　Ｔｒａｄｉｎｇ　Ｃｏ．，Ｌｔｄ．,,外国会社等,,,,,,,,Ｃ２７０３，Ｂｕｉｌｄｉｎｇ　２，Ｐｈａｓｅ　２，Ｓｏｕｔｈ　Ｃｈｉｎａ　Ｉｎｔｅｒｎａｔｉｏｎａｌ　Ｐｒｉｎｔｉｎｇ　Ｐａｐｅｒ　Ｐａｃｋａｇｉｎｇ　Ｌｏｇｉｓｔｉｃｓ　Ｚｏｎｅ，Ｎｏ．１　Ｈｕａｎａｎ　Ａｖｅｎｕｅ，Ｈｅｈｕａ　Ｃｏｍｍｕｎｉｔｙ，Ｐｉｎｇｈｕ　Ｓｔｒｅｅｔ，Ｌｏｎｇｇａｎｇ　Ｄｉｓｔｒｉｃｔ，Ｓｈｅｎｚｈｅｎ　Ｃｉｔｙ,,,,,,2025-04-25,1,,,,,シェンジェンシーコーコーリーシャンマオヨウシエンゾーレンゴンスー,0
1027,5010401189906,新規,0,2025-04-25,2025-04-25,株式会社ＯＮＧＡＥＳＨＩ　ＴＲＹ,,株式会社,東京都,港区,芝３丁目１番１４号芝公園阪神ビル５階,,13,103,1050014,,,,,,,2025-04-25,1,,,,,オンガエシトライ,0
1028,5010403034985,新規,0,2025-04-25,2025-04-25,合同会社目指せ脱炭素４号,,合同会社,東京都,港区,南青山４丁目２１番２６号リュエル青山Ｃ棟Ｂ１細谷総合会計事務所内,,13,103,1070062,,,,,,,2025-04-25,1,,,,,メザセダツタンソヨンゴウ,0
1030,5010405024349,新規,0,2025-04-25,2025-04-25,Ａｑｕａｒｉｕｓ特定目的会社,,その他の設立登記法人,東京都,港区,虎ノ門５丁目１番４号,,13,103,1050001,,,,,,,2025-04-25,1,,,,,アクエリアス,0
1042,5010603011520,新規,0,2025-04-25,2025-04-25,銘潤合同会社,,合同会社,東京都,江東区,亀戸９丁目１４番１５－６１２号,,13,108,1360071,,,,,,,2025-04-25,1,,,,,ミイジュン,0
1046,5011001169166,新規,0,2025-04-25,2025-04-25,Ｈ　Ｉｎｔｅｒｎａｔｉｏｎａｌ株式会社,,株式会社,東京都,渋谷区,初台１丁目５４番４－１００４号,,13,113,1510061,,,,,,,2025-04-25,1,,,,,,0
1047,5011001169372,新規,0,2025-04-25,2025-04-25,株式会社ＵＵＭＭＡＡ,,株式会社,東京都,渋谷区,円山町５番３号,,13,113,1500044,,,,,,,2025-04-25,1,,,,,ウーマ,0
1050,5011101111333,新規,0,2025-04-25,2025-04-25,株式会社Ｒ‐ＮＯＤＥ,,株式会社,東京都,新宿区,西新宿３丁目３番１３号西新宿水間ビル２Ｆ,,13,104,1600023,,,,,,,2025-04-25,1,,,,,アールノード,0
1051,5011101111548,新規,0,2025-04-25,2025-04-25,Ｘメディカルグループ株式会社,,株式会社,東京都,新宿区,四谷三栄町１５番６号オグラビル５階,,13,104,1600008,,,,,,,2025-04-25,1,,,,,エックスメディカルグループ,0
1067,5012303002147,新規,0,2025-04-25,2025-04-25,合同会社ＴＯＲＵＫＯ‐ＳＴＹＬＥ,,合同会社,東京都,町田市,山崎町１１４４番地２５,,13,209,1950074,,,,,,,2025-04-25,1,,,,,トルコスタイル,0
1079,5020001162543,新規,0,2025-04-25,2025-04-25,株式会社エスフィールド,,株式会社,神奈川県,横浜市中区,松影町２丁目５番地９,,14,104,2310025,,,,,,,2025-04-25,1,,,,,エスフィールド,0
1080,5020003028354,新規,0,2025-04-25,2025-04-25,ソルウイッシュ合同会社,,合同会社,神奈川県,横浜市青葉区,美しが丘西２丁目２７番地１８,,14,117,2250001,,,,,,,2025-04-25,1,,,,,ソルウイッシュ,0
1100,5040001138509,新規,0,2025-04-25,2025-04-25,株式会社ミラノ,,株式会社,千葉県,流山市,西初石４丁目１４３５番地の４,,12,220,2700121,,,,,,,2025-04-25,1,,,,,ミラノ,0
1105,5040005022717,新規,0,2025-04-25,2025-04-25,社会保険労務士法人パートナーズ・アルク,,その他の設立登記法人,千葉県,柏市,柏２丁目７番２３号コササビル２階,,12,217,2770005,,,,,,,2025-04-25,1,,,,,パートナーズアルク,0
1107,5060001038120,新規,0,2025-04-25,2025-04-25,ｖｉｅ　ｅｃｌａｔ株式会社,,株式会社,栃木県,足利市,堀込町２８６４番地２,,09,202,3260831,,,,,,,2025-04-25,1,,,,,ヴィエクラ,0
1113,5070001042889,新規,0,2025-04-25,2025-04-25,株式会社フェリーチェ,,株式会社,群馬県,高崎市,吉井町吉井３２６番地４,,10,202,3702132,,,,,,,2025-04-25,1,,,,,フェリーチェ,0
1114,5080101025462,新規,0,2025-04-25,2025-04-25,株式会社天眷堂,,株式会社,静岡県,田方郡函南町,平井１７５３番１０４３ラッキークレスト２０３室,,22,325,4190107,,,,,,,2025-04-25,1,,,,,テンケンドウ,0
1115,5090001019241,新規,0,2025-04-25,2025-04-25,株式会社菊島興業,,株式会社,山梨県,山梨市,小原西１１９１番地４７,,19,205,4050006,,,,,,,2025-04-25,1,,,,,キクシマコウギョウ,0
1116,5090003002807,新規,0,2025-04-25,2025-04-25,合同会社４８５,,合同会社,山梨県,富士吉田市,下吉田３丁目１１番１号,,19,202,4030004,,,,,,,2025-04-25,1,,,,,クアットロチェントオットチンクエ,0
1133,5120001274923,新規,0,2025-04-25,2025-04-25,Ｎｏｂｌｅ　Ｖｉｃ株式会社,,株式会社,大阪府,大阪市東成区,深江北３丁目４番２１号エクラ深江橋２１３Ｂ,,27,115,5370001,,,,,,,2025-04-25,1,,,,,ノウブルヴィク,0
1134,5120001275302,新規,0,2025-04-25,2025-04-25,雲海貿易株式会社,,株式会社,大阪府,大阪市北区,豊崎３丁目１５‐５ＴＫビル,,27,127,5310072,,,,,,,2025-04-25,1,,,,,ウンカイボウエキ,0
1135,5120003029210,新規,0,2025-04-25,2025-04-25,極点テクノロジー合同会社,,合同会社,大阪府,大阪市中央区,内久宝寺町３丁目３番１６－３号,,27,128,5400013,,,,,,,2025-04-25,1,,,,,キョクテンテクノロジー,0
1142,5122001039133,新規,0,2025-04-25,2025-04-25,株式会社ＴＩＴＯＮＧ,,株式会社,大阪府,東大阪市,長田東２丁目１番３１号５０５,,27,227,5770012,,,,,,,2025-04-25,1,,,,,タイトン,0
1145,5130001079495,新規,0,2025-04-25,2025-04-25,株式会社ＡｍｉＢＬ,,株式会社,京都府,京都市中京区,西ノ京栂尾町１０３番地ファミール二条ステーションサイド１００５号,,26,104,6048415,,,,,,,2025-04-25,1,,,,,アミブル,0
1146,5130001079529,新規,0,2025-04-25,2025-04-25,株式会社Ｂｌｕｅ　ｈｏｍｅ,,株式会社,京都府,京都市右京区,西京極豆田町５－５１７,,26,108,6150801,,,,,,,2025-04-25,1,,,,,ブルーホーム,0
1152,5140001138267,新規,0,2025-04-25,2025-04-25,株式会社クリーンアーミー,,株式会社,兵庫県,神戸市中央区,山本通４丁目１３－１３－７０６,,28,110,6500003,,,,,,,2025-04-25,1,,,,,クリーンアーミー,0
1153,5140001138300,新規,0,2025-04-25,2025-04-25,嘉祥株式会社,,株式会社,兵庫県,神戸市須磨区,妙法寺字ぬめり石１番１－２０８,,28,107,6540121,,,,,,,2025-04-25,1,,,,,カショウ,0
1154,5140003021966,新規,0,2025-04-25,2025-04-25,合同会社ｖａｒｉｅｔｅｓ　ｄｅ　ｍａｒｉａｇｅ,,合同会社,兵庫県,神戸市須磨区,若木町３丁目７番３１号,,28,107,6540014,,,,,,,2025-04-25,1,,,,,ヴァリエテスドマリアージュ,0
1160,5150001028070,新規,0,2025-04-25,2025-04-25,株式会社ＰＵＧ,,株式会社,奈良県,五條市,新町１丁目８番１８号,,29,207,6370043,,,,,,,2025-04-25,1,,,,,ピーユージー,0
1172,5180003028330,新規,0,2025-04-25,2025-04-25,合同会社思栄,,合同会社,愛知県,名古屋市中川区,富田町大字榎津字東新海１４３０番地の４８,,23,110,4540953,,,,,,,2025-04-25,1,,,,,コトハ,0
1178,5190001032184,新規,0,2025-04-25,2025-04-25,伸栄株式会社,,株式会社,三重県,四日市市,笹川１丁目２５６番地３,,24,202,5100944,,,,,,,2025-04-25,1,,,,,シンエイ,0
1179,5190003005015,新規,0,2025-04-25,2025-04-25,合同会社和実,,合同会社,三重県,四日市市,新正４丁目１４番１号,,24,202,5100064,,,,,,,2025-04-25,1,,,,,ナゴミ,0
1180,5190005012042,新規,0,2025-04-25,2025-04-25,特定非営利活動法人名張空き家相談センター,,その他の設立登記法人,三重県,名張市,鴻之台２番町１９番地,,24,208,5180702,,,,,,,2025-04-25,1,,,,,ナバリアキヤソウダンセンター,0
1194,5260001040147,新規,0,2025-04-25,2025-04-25,株式会社ＳＩＤＥ　ＡＣＴ,,株式会社,岡山県,倉敷市,林１２６１番地３,,33,202,7100142,,,,,,,2025-04-25,1,,,,,サイドアクト,0
1196,5270003001740,新規,0,2025-04-25,2025-04-25,合同会社バズトリ,,合同会社,鳥取県,米子市,東福原４丁目１９番地１０－８０５号室,,31,202,6830802,,,,,,,2025-04-25,1,,,,,バズトリ,0
1200,5290001109798,新規,0,2025-04-25,2025-04-25,株式会社新日食,,株式会社,福岡県,飯塚市,柏の森１５３番地５,,40,205,8200011,,,,,,,2025-04-25,1,,,,,シンニッショク,0
1201,5290001109848,新規,0,2025-04-25,2025-04-25,株式会社パスク,,株式会社,福岡県,宗像市,陵厳寺１丁目３番３号,,40,220,8114145,,,,,,,2025-04-25,1,,,,,パスク,0
1203,5290003016745,新規,0,2025-04-25,2025-04-25,合同会社ハートフェルト,,合同会社,福岡県,福岡市博多区,半道橋１丁目５番２５号,,40,132,8120897,,,,,,,2025-04-25,1,,,,,ハートフェルト,0
1204,5290003016761,新規,0,2025-04-25,2025-04-25,合同会社ＮＳ　ＮＩＰＰＯＮ,,合同会社,福岡県,福岡市東区,箱崎７丁目２０番６－２０１号,,40,131,8120053,,,,,,,2025-04-25,1,,,,,エヌエスニッポン,0
1205,5290801031482,新規,0,2025-04-25,2025-04-25,ラベンダーファーム株式会社,,株式会社,福岡県,北九州市小倉北区,三萩野１丁目８番１３号,,40,106,8020065,,,,,,,2025-04-25,1,,,,,ラベンダーファーム,0
1207,5310001019573,新規,0,2025-04-25,2025-04-25,株式会社ふうりん香,,株式会社,長崎県,長崎市,高尾町４２番２号,,42,201,8528111,,,,,,,2025-04-25,1,,,,,フウリンカ,0
1208,5330001033135,新規,0,2025-04-25,2025-04-25,株式会社ココ,,株式会社,熊本県,天草市,栄町１１－４,,43,215,8630022,,,,,,,2025-04-25,1,,,,,ココ,0
1211,5330003010974,新規,0,2025-04-25,2025-04-25,合同会社平和実業,,合同会社,熊本県,熊本市北区,四方寄町１４５５番地３,,43,105,8615515,,,,,,,2025-04-25,1,,,,,ヘイワジツギョウ,0
1212,5340001027292,新規,0,2025-04-25,2025-04-25,株式会社森川ファーム,,株式会社,鹿児島県,指宿市,池田１４７０番地９,,46,210,8910312,,,,,,,2025-04-25,1,,,,,モリカワファーム,0
1214,5340005009857,新規,0,2025-04-25,2025-04-25,特定非営利活動法人通勤ボランティア猫の手,,その他の設立登記法人,鹿児島県,南さつま市,加世田武田１８２１８番地２,,46,220,8970002,,,,,,,2025-04-25,1,,,,,ツウキンボランティアネコノテ,0
1224,5400005008489,新規,0,2025-04-25,2025-04-25,一般社団法人里山林産,,その他の設立登記法人,岩手県,釜石市,甲子町第５地割７５番地３,,03,211,0260055,,,,,,,2025-04-25,1,,,,,サトヤマリンサン,0
1229,5430001094233,新規,0,2025-04-25,2025-04-25,株式会社ライフサポート,,株式会社,北海道,札幌市厚別区,厚別中央三条６丁目２番２７－６０７号,,01,108,0040053,,,,,,,2025-04-25,1,,,,,ライフサポート,0
1230,5430001094241,新規,0,2025-04-25,2025-04-25,公心株式会社,,株式会社,北海道,札幌市中央区,南二条西５丁目３１番地１,,01,101,0600062,,,,,,,2025-04-25,1,,,,,コウシン,0
1232,5430005015227,新規,0,2025-04-25,2025-04-25,一般社団法人ひきこもり不登校支援人材育成協会,,その他の設立登記法人,北海道,札幌市中央区,南一条東３丁目１番地１大通シティハウス２０１号,,01,101,0600051,,,,,,,2025-04-25,1,,,,,ヒキコモリフトウコウシエンジンザイイクセイキョウカイ,0
1241,5470003002875,新規,0,2025-04-25,2025-04-25,合同会社スペースセキュア,,合同会社,香川県,丸亀市,郡家町１９８８番地１５,,37,202,7630093,,,,,,,2025-04-25,1,,,,,スペースセキュア,0
1245,5700150130224,新規,0,2025-04-25,2025-04-25,Ｆｏｓｈａｎ　Ｙａｈｕｉ　Ｏｆｆｉｃｅ　Ｓｕｐｐｌｉｅｓ　Ｃｏ．，Ｌｔｄ,,外国会社等,,,,,,,,ＤａＺｏｎｇＧｏｎｇＹｅＱｕ２ＨａｏＡＺｕｏ３Ｌｏｕ３０８,,,,,,2025-04-25,1,,,,,フォーシャンシーヤーフイバンゴンヨンピンヨウシエンゴンスー,0
1246,5700150130249,新規,0,2025-04-25,2025-04-25,ｓｈｅｎｚｈｅｎｓｈｉｚｈｏｎｇｙｕａｎｄｉａｎｚｉｓｈａｎｇｗｕｙｏｕｘｉａｎｇｏｎｇｓｉ,,外国会社等,,,,,,,,ｓｈｅｎｚｈｅｎｓｈｉｌｏｎｇｇａｎｇｑｕｐｉｎｇｈｕｊｉｅｄａｏｈｅｈｕａｓｈｅｑｕｈｕａｎａｎｄａｄａｏ１ｈａｏｈｕａｎａｎｇｕｏｊｉｙｉｎｓｈｕａｚｈｉｐｉｎｂａｏｚｈｕａｎｇｗｕｌｉｕｑｕ２ｑｉ２ｈａｏｌｏｕ３Ｄ００５　５１８１００　ＣＮ,,,,,,2025-04-25,1,,,,,シンセンシゾンユェンデンシショウムヨウシエンゴンスー,0
1251,6010005039969,新規,0,2025-04-25,2025-04-25,一般社団法人プラズマ療法研究会,,その他の設立登記法人,東京都,中央区,新富１丁目１４番１号いちご八丁堀ビル６Ｆ,,13,102,1040041,,,,,,,2025-04-25,1,,,,,プラズマリョウホウケンキュウカイ,0
1261,6010501053960,新規,0,2025-04-25,2025-04-25,ＭＯＮＯＴＵＳ株式会社,,株式会社,東京都,台東区,台東３丁目１５番３号Ｍａｒｋｓｑｕａｒｅ５階,,13,106,1100016,,,,,,,2025-04-25,1,,,,,モノタス,0
1262,6010503007799,新規,0,2025-04-25,2025-04-25,ＳｙｓＰｒｏＴｅｃｈＡ合同会社,,合同会社,東京都,台東区,蔵前１丁目７番６－１２０１号グランカーサ蔵前,,13,106,1110051,,,,,,,2025-04-25,1,,,,,シスプロテックエー,0
1271,6010901057248,新規,0,2025-04-25,2025-04-25,株式会社ＴＳＵＮＡ,,株式会社,東京都,世田谷区,野沢４丁目８番８号,,13,112,1540003,,,,,,,2025-04-25,1,,,,,ツナ,0
1281,6011003021530,新規,0,2025-04-25,2025-04-25,合同会社たまごクリエイション,,合同会社,東京都,渋谷区,道玄坂１丁目１０番８号渋谷道玄坂東急ビル２Ｆ－Ｃ,,13,113,1500043,,,,,,,2025-04-25,1,,,,,タマゴクリエイション,0
1291,6011501031989,新規,0,2025-04-25,2025-04-25,株式会社亜澤商事,,株式会社,東京都,北区,浮間３丁目５番１５－２２４号,,13,117,1150051,,,,,,,2025-04-25,1,,,,,アサワショウジ,0
1297,6011801046002,新規,0,2025-04-25,2025-04-25,株式会社Ｄｏｕｘ‐Ｌａｚｏ,,株式会社,東京都,足立区,一ツ家２丁目１７番１０号,,13,121,1210075,,,,,,,2025-04-25,1,,,,,ドゥーラゾ,0
1298,6011801046043,新規,0,2025-04-25,2025-04-25,ローレンス株式会社,,株式会社,東京都,葛飾区,金町６丁目７－６,,13,122,1250042,,,,,,,2025-04-25,1,,,,,ローレンス,0
1307,6020001162534,新規,0,2025-04-25,2025-04-25,リーブル株式会社,,株式会社,神奈川県,横浜市西区,北幸２丁目１０番４８号３階,,14,103,2200004,,,,,,,2025-04-25,1,,,,,リーブル,0
1308,6020001162542,新規,0,2025-04-25,2025-04-25,株式会社サンフューチャー,,株式会社,神奈川県,川崎市中原区,上小田中６丁目２３番８号エトワール中原５階,,14,133,2110053,,,,,,,2025-04-25,1,,,,,サンフューチャー,0
1309,6020001162550,新規,0,2025-04-25,2025-04-25,株式会社スリーウェイベネフィット,,株式会社,神奈川県,横浜市金沢区,富岡東１丁目９番９号,,14,108,2360051,,,,,,,2025-04-25,1,,,,,スリーウェイベネフィット,0
1310,6020001162559,新規,0,2025-04-25,2025-04-25,株式会社Ｓ　Ｓ　ＣＯＲＰＯＲＡＴＩＯＮ,,株式会社,神奈川県,横浜市金沢区,能見台通１番９号東建谷津坂ハイツ１０３,,14,108,2360053,,,,,,,2025-04-25,1,,,,,エスエスコーポレーション,0
1312,6020003028345,新規,0,2025-04-25,2025-04-25,ｂｅｉｎｇ合同会社,,合同会社,神奈川県,横浜市西区,北幸２丁目１０番４８号むつみビル３階,,14,103,2200004,,,,,,,2025-04-25,1,,,,,ビーイング,0
1315,6021001085072,新規,0,2025-04-25,2025-04-25,株式会社３Ｓ,,株式会社,神奈川県,相模原市南区,南台３丁目１１番２１号,,14,153,2520314,,,,,,,2025-04-25,1,,,,,スリーズ,0
1327,6030005022089,新規,0,2025-04-25,2025-04-25,一般社団法人川越ｅスポーツ協会,,その他の設立登記法人,埼玉県,川越市,元町１丁目１５－３,,11,201,3500062,,,,,,,2025-04-25,1,,,,,カワゴエイースポーツキョウカイ,0
1333,6040001138425,新規,0,2025-04-25,2025-04-25,株式会社アークオリエンス,,株式会社,千葉県,習志野市,鷺沼台１丁目１０番地２４号,,12,216,2750015,,,,,,,2025-04-25,1,,,,,アークオリエンス,0
1334,6040001138458,新規,0,2025-04-25,2025-04-25,ＣＳＥ株式会社,,株式会社,千葉県,千葉市若葉区,大草町６３６番地１９,,12,104,2640011,,,,,,,2025-04-25,1,,,,,シーエスイー,0
1335,6040001138508,新規,0,2025-04-25,2025-04-25,プログレッシブ・メディカル株式会社,,株式会社,千葉県,柏市,東２丁目３－１１,,12,217,2770014,,,,,,,2025-04-25,1,,,,,プログレッシブメディカル,0
1337,6040003027361,新規,0,2025-04-25,2025-04-25,ＥＫＫ合同会社,,合同会社,千葉県,船橋市,前原西１丁目１１－１１,,12,204,2740825,,,,,,,2025-04-25,1,,,,,イーケイケイ,0
1339,6050005013623,新規,0,2025-04-25,2025-04-25,一般社団法人日本筑波中南センター,,その他の設立登記法人,茨城県,つくば市,梅園２丁目１番地１５スプリングテックつくばビル４０１,,08,220,3050045,,,,,,,2025-04-25,1,,,,,ニホンツクバチュウナンセンター,0
1345,6070005010387,新規,0,2025-04-25,2025-04-25,Ｒｅｌａｔｅ行政書士法人,,その他の設立登記法人,群馬県,桐生市,広沢町３丁目３５１７番地１３,,10,203,3760013,,,,,,,2025-04-25,1,,,,,リレイト,0
1349,6080401027876,新規,0,2025-04-25,2025-04-25,株式会社Ｉ．Ｐ．Ｄ,,株式会社,静岡県,浜松市中央区,下江町１３番地の６,,22,138,4300825,,,,,,,2025-04-25,1,,,,,アイピーディー,0
1355,6100001038536,新規,0,2025-04-25,2025-04-25,株式会社ＴＯＭＯＳＨＩＢＩ　ｗａｌｌ　ａｒｔ,,株式会社,長野県,北安曇郡小谷村,大字千国乙１２８５６番地１５２,,20,486,3999422,,,,,,,2025-04-25,1,,,,,トモシビウォールアート,0
1357,6100003008116,新規,0,2025-04-25,2025-04-25,Ｒｙｄｅｒ’ｓ合同会社,,合同会社,長野県,北安曇郡白馬村,大字北城２９３７番地１７５,,20,485,3999301,,,,,,,2025-04-25,1,,,,,ライダーズ,0
1364,6120001274699,新規,0,2025-04-25,2025-04-25,創翼株式会社,,株式会社,大阪府,大阪市大正区,三軒家西３丁目４番１６号中山ビル１０２９,,27,108,5510001,,,,,,,2025-04-25,1,,,,,ソウヨク,0
1365,6120001274815,新規,0,2025-04-25,2025-04-25,株式会社リーガル不動産,,株式会社,大阪府,大阪市北区,西天満４丁目８番７号,,27,127,5300047,,,,,,,2025-04-25,1,,,,,リーガルフドウサン,0
1366,6120001274880,新規,0,2025-04-25,2025-04-25,株式会社あおぞらホーム,,株式会社,大阪府,大阪市住吉区,山之内１丁目２７番１３号,,27,120,5580023,,,,,,,2025-04-25,1,,,,,アオゾラホーム,0
1367,6120001274897,新規,0,2025-04-25,2025-04-25,中亜株式会社,,株式会社,大阪府,大阪市平野区,瓜破２丁目１番５０号アビタシオン２３－３０１号,,27,126,5470024,,,,,,,2025-04-25,1,,,,,チュウア,0
1368,6120001274922,新規,0,2025-04-25,2025-04-25,金星株式会社,,株式会社,大阪府,大阪市中央区,松屋町９番２０号ローレルステート松屋町１００５Ｂ,,27,128,5420067,,,,,,,2025-04-25,1,,,,,キンセイ,0
1369,6120001274930,新規,0,2025-04-25,2025-04-25,若海株式会社,,株式会社,大阪府,大阪市北区,天満２丁目１番１２号天満橋ＳＥビル４階,,27,127,5300043,,,,,,,2025-04-25,1,,,,,ワカウミ,0
1370,6120001275334,新規,0,2025-04-25,2025-04-25,Ｌｕｉ’ｓ株式会社,,株式会社,大阪府,大阪市北区,曾根崎新地１丁目３番３３号２Ｆ,,27,127,5300002,,,,,,,2025-04-25,1,,,,,ルイス,0
1371,6120005024910,新規,0,2025-04-25,2025-04-25,一般財団法人田渕育英財団,,その他の設立登記法人,大阪府,大阪市中央区,南船場２丁目３番１１号,,27,128,5420081,,,,,,,2025-04-25,1,,,,,タブチイクエイザイダン,0
1379,6122001039124,新規,0,2025-04-25,2025-04-25,ＴＳ株式会社,,株式会社,大阪府,東大阪市,長田西４丁目４番２０－２０１号,,27,227,5770016,,,,,,,2025-04-25,1,,,,,ティーエス,0
1380,6122001039149,新規,0,2025-04-25,2025-04-25,万諾株式会社,,株式会社,大阪府,東大阪市,小阪２丁目１０番２９－６０５号,,27,227,5770801,,,,,,,2025-04-25,1,,,,,マンダク,0
1383,6130001079478,新規,0,2025-04-25,2025-04-25,禅株式会社,,株式会社,京都府,長岡京市,久貝３丁目１番地１０号,,26,209,6170837,,,,,,,2025-04-25,1,,,,,ゼン,0
1384,6130001079503,新規,0,2025-04-25,2025-04-25,清和設備株式会社,,株式会社,京都府,京都市右京区,鳴滝泉殿町５番地の２９,,26,108,6168241,,,,,,,2025-04-25,1,,,,,セイワセツビ,0
1387,6130003010399,新規,0,2025-04-25,2025-04-25,合同会社ガーネッシュ・ファクトリー,,合同会社,京都府,京都市下京区,夷馬場町４１番地,,26,106,6008837,,,,,,,2025-04-25,1,,,,,ガーネッシュファクトリー,0
1394,6140001138233,新規,0,2025-04-25,2025-04-25,５５ファーム株式会社,,株式会社,兵庫県,丹波市,春日町棚原１３６２番地２,,28,223,6694274,,,,,,,2025-04-25,1,,,,,ゴーゴーファーム,0
1395,6140001138290,新規,0,2025-04-25,2025-04-25,株式会社サンエイト,,株式会社,兵庫県,神戸市東灘区,深江浜町７６番地神戸青果食品商業協同組合会館１０１号,,28,101,6580023,,,,,,,2025-04-25,1,,,,,サンエイト,0
1396,6140001138316,新規,0,2025-04-25,2025-04-25,株式会社Ｐ＆Ｔ,,株式会社,兵庫県,姫路市,福中町３４番地,,28,201,6700017,,,,,,,2025-04-25,1,,,,,ピーアンドティー,0
1399,6140003021940,新規,0,2025-04-25,2025-04-25,合同会社桜来パフォーミング・アーツ,,合同会社,兵庫県,尼崎市,東塚口町１丁目８番１０号キューブ東塚口１１０号室,,28,202,6610011,,,,,,,2025-04-25,1,,,,,サクラパフォーミングアーツ,0
1400,6140003021981,新規,0,2025-04-25,2025-04-25,合同会社Ｆｕｊｉ,,合同会社,兵庫県,西宮市,平松町２－２５ライオンズマンション西宮平松町５０４,,28,204,6620044,,,,,,,2025-04-25,1,,,,,フジ,0
1403,6160001026709,新規,0,2025-04-25,2025-04-25,株式会社重信工務店,,株式会社,滋賀県,湖南市,平松北１丁目４番地,,25,211,5203235,,,,,,,2025-04-25,1,,,,,シゲノブコウムテン,0
1406,6160003003458,新規,0,2025-04-25,2025-04-25,合同会社ＡＳＳＩＳＴ工業,,合同会社,滋賀県,近江八幡市,末広町５７０－２,,25,204,5230005,,,,,,,2025-04-25,1,,,,,アシストコウギョウ,0
1410,6180001166453,新規,0,2025-04-25,2025-04-25,株式会社いろどり貿易,,株式会社,愛知県,知多郡阿久比町,大字卯坂字丸根１４番地,,23,441,4702212,,,,,,,2025-04-25,1,,,,,イロドリボウエキ,0
1411,6180001166552,新規,0,2025-04-25,2025-04-25,株式会社ＰＵＲＰＯＳＥ,,株式会社,愛知県,名古屋市西区,南堀越２丁目１－５アーバングラス１０１号,,23,104,4510054,,,,,,,2025-04-25,1,,,,,パーパス,0
1418,6190001032183,新規,0,2025-04-25,2025-04-25,ＲＭＡ株式会社,,株式会社,三重県,伊勢市,辻久留町５３７番地２,,24,203,5160046,,,,,,,2025-04-25,1,,,,,,0
1419,6190003005014,新規,0,2025-04-25,2025-04-25,合同会社Ｉｒｉａ,,合同会社,三重県,四日市市,中浜田町一番八号,,24,202,5100065,,,,,,,2025-04-25,1,,,,,イリア,0
1422,6210001020144,新規,0,2025-04-25,2025-04-25,株式会社Ｎｅｘｔ　ｉｎｎｏｖａｔｉｏｎ,,株式会社,福井県,福井市,板垣３丁目１８１７－１エウレカドットアイ２０２,,18,201,9188104,,,,,,,2025-04-25,1,,,,,ネクストイノベーション,0
1437,6240001064849,新規,0,2025-04-25,2025-04-25,株式会社ラキール呉,,株式会社,広島県,呉市,中央１丁目６番９号,,34,202,7370051,,,,,,,2025-04-25,1,,,,,ラキールクレ,0
1440,6250001021106,新規,0,2025-04-25,2025-04-25,株式会社あおいのわ,,株式会社,山口県,大島郡周防大島町,大字東三蒲１１３０番地２,,35,305,7422102,,,,,,,2025-04-25,1,,,,,アオイノワ,0
1441,6250001021114,新規,0,2025-04-25,2025-04-25,株式会社エイト,,株式会社,山口県,下関市,大字田倉８１３番地,,35,201,7510883,,,,,,,2025-04-25,1,,,,,エイト,0
1442,6250003003713,新規,0,2025-04-25,2025-04-25,合同会社ＹｏｌｏＳＫ,,合同会社,山口県,下関市,一の宮町２丁目１１－８メゾンドロワール３０７,,35,201,7510806,,,,,,,2025-04-25,1,,,,,ヨロエスケイ,0
1456,6290001109731,新規,0,2025-04-25,2025-04-25,株式会社亜州開発,,株式会社,福岡県,嘉麻市,九郎原２４６２番地,,40,227,8200337,,,,,,,2025-04-25,1,,,,,アシュウカイハツ,0
1457,6290001109806,新規,0,2025-04-25,2025-04-25,株式会社テックビジョン福岡,,株式会社,福岡県,福岡市中央区,天神３丁目２番２２号河村天神荘ビル５階,,40,133,8100001,,,,,,,2025-04-25,1,,,,,テックビジョンフクオカ,0
1458,6290001109814,新規,0,2025-04-25,2025-04-25,ノリキーホールディングス株式会社,,株式会社,福岡県,筑後市,大字新溝８１番地１,,40,211,8330006,,,,,,,2025-04-25,1,,,,,ノリキーホールディングス,0
1459,6290001109830,新規,0,2025-04-25,2025-04-25,株式会社ミライムライン,,株式会社,福岡県,大野城市,中１丁目６番１１号,,40,219,8160906,,,,,,,2025-04-25,1,,,,,ミライムライン,0
1460,6290001109855,新規,0,2025-04-25,2025-04-25,株式会社カネ又田中商店,,株式会社,福岡県,福岡市中央区,長浜３丁目１１番３号（福岡市鮮魚市場市場会館８０４号）,,40,133,8100072,,,,,,,2025-04-25,1,,,,,カネマタタナカショウテン,0
1465,6290801031481,新規,0,2025-04-25,2025-04-25,株式会社Ｃｏｍｂｉｎｅ,,株式会社,福岡県,北九州市小倉北区,中井口３番４４号,,40,106,8030837,,,,,,,2025-04-25,1,,,,,コンバイン,0
1467,6300001014161,新規,0,2025-04-25,2025-04-25,株式会社ＴＩＤＥＷＡＹ　ＪＡＰＡＮ,,株式会社,佐賀県,鳥栖市,儀徳町２２２２番地１１,,41,203,8410066,,,,,,,2025-04-25,1,,,,,タイドウェイジャパン,0
1469,6320001021065,新規,0,2025-04-25,2025-04-25,隼カンパニー株式会社,,株式会社,大分県,大分市,大字鶴崎１１１番地の１６－１０２,,44,201,8700106,,,,,,,2025-04-25,1,,,,,ハヤブサカンパニー,0
1473,6340003004834,新規,0,2025-04-25,2025-04-25,ウィンドラブ合同会社,,合同会社,鹿児島県,霧島市,国分野口西２１番地３１,,46,218,8994343,,,,,,,2025-04-25,1,,,,,ウィンドラブ,0
1481,6430001094240,新規,0,2025-04-25,2025-04-25,株式会社Ｒ＆Ｆ,,株式会社,北海道,札幌市西区,琴似二条６丁目１番５－４０１号,,01,107,0630812,,,,,,,2025-04-25,1,,,,,アールアンドエフ,0
1496,6700150130223,新規,0,2025-04-25,2025-04-25,Ｈｕｉｚｈｏｕ　Ａｏｐａｉ　Ｆｒａｇｒａｎｃｅ　Ｈｏｍｅ　Ｆｕｒｎｉｓｈｉｎｇ　Ｃｏ．，Ｌｔｄ．,,外国会社等,,,,,,,,Ｎｏ．２２，Ｔａｏｙｕａｎ　Ｍｉｄｄｌｅ　Ｒｏａｄ，Ｌｉｎｇｈｕ　Ｖｉｌｌａｇｅ，Ｑｉｕｃｈａｎｇ　Ｓｔｒｅｅｔ，Ｈｕｉｙａｎｇ　Ｄｉｓｔｒｉｃｔ，Ｈｕｉｚｈｏｕ　Ｃｉｔｙ,,,,,,2025-04-25,1,,,,,フイジョウシーアオパイシャンフェンジャージーヨウシエンゴンスー,0
1497,6700150130248,新規,0,2025-04-25,2025-04-25,ＳｈｅｎＺｈｅｎ　Ｃｈｕａｎｇｓｕｔｏｎ　Ｔｅｃｈｎｏｌｏｇｙ　Ｃｏ．，ＬＴＤ,,外国会社等,,,,,,,,Ｒｏｏｍ　４０２，Ｂｕｉｌｄｉｎｇ　３，Ｈｕａｈａｎ　Ｔｅｃｈｎｏｌｏｇｙ　Ｉｎｄｕｓｔｒｉａｌ　Ｐａｒｋ，Ｎｏ．１９，Ｌａｎｊｉｎ　４ｔｈ　Ｒｏａｄ，Ｈｅｐｉｎｇ　Ｃｏｍｍｕｎｉｔｙ，Ｐｉｎｇｓｈａｎ　Ｓｔｒｅｅｔ，Ｐｉｎｇｓｈａｎ　Ｄｉｓｔｒｉｃｔ，Ｓｈｅｎｚｈｅｎ　５１８０００　ＣＮ,,,,,,2025-04-25,1,,,,,シンセンツゥアンストンテクノロジーカンパニーリミテッド,0
1503,7010001254562,新規,0,2025-04-25,2025-04-25,Ｔｈｅ　Ｇｌｏｂａｌ　Ｂｌｏｏｍｉｎｇ株式会社,,株式会社,東京都,中央区,日本橋室町１丁目１１番１２号日本橋水野ビル７階,,13,102,1030022,,,,,,,2025-04-25,1,,,,,ザグローバルブルーミング,0
1504,7010001254595,新規,0,2025-04-25,2025-04-25,ＳＨＯＪＩＮ株式会社,,株式会社,東京都,中央区,日本橋室町１丁目１１番１２号日本橋水野ビル７階,,13,102,1030022,,,,,,,2025-04-25,1,,,,,ショージン,0
1512,7010005039968,新規,0,2025-04-25,2025-04-25,一般社団法人プラネタリーヘルスイニシアティブ,,その他の設立登記法人,東京都,千代田区,丸の内３丁目３番１号新東京ビルヂング４階,,13,101,1000005,,,,,,,2025-04-25,1,,,,,プラネタリーヘルスイニシアティブ,0
1528,7010505003597,新規,0,2025-04-25,2025-04-25,一般社団法人日中ボランティア協会,,その他の設立登記法人,東京都,台東区,台東２丁目６－６陽輪台ビル７０３,,13,106,1100016,,,,,,,2025-04-25,1,,,,,ニッチュウボランティアキョウカイ,0
1545,7011001169370,新規,0,2025-04-25,2025-04-25,株式会社Ｍ,,株式会社,東京都,渋谷区,恵比寿西２丁目８番４号ＥＸ恵比寿西ビル５階,,13,113,1500021,,,,,,,2025-04-25,1,,,,,エム,0
1546,7011001169429,新規,0,2025-04-25,2025-04-25,株式会社ＬｕａａＺ,,株式会社,東京都,渋谷区,神宮前５丁目４６番１号,,13,113,1500001,,,,,,,2025-04-25,1,,,,,ルアーズ,0
1548,7011003021463,新規,0,2025-04-25,2025-04-25,合同会社ＢｅｌｏｎｇＴｏ,,合同会社,東京都,渋谷区,道玄坂１丁目１０番８号渋谷道玄坂東急ビル２Ｆ－Ｃ,,13,113,1500043,,,,,,,2025-04-25,1,,,,,ビロングトゥー,0
1554,7011101111538,新規,0,2025-04-25,2025-04-25,株式会社ＴＨＥＳ,,株式会社,東京都,新宿区,神楽坂３丁目２番４号,,13,104,1620825,,,,,,,2025-04-25,1,,,,,ザエス,0
1555,7011201026297,新規,0,2025-04-25,2025-04-25,株式会社ＳＷＥＥＴ　ＣＯＤＥ,,株式会社,東京都,中野区,中野５丁目２４番２０－６０３号,,13,114,1640001,,,,,,,2025-04-25,1,,,,,スイートコード,0
1561,7011601028612,新規,0,2025-04-25,2025-04-25,株式会社ＭＲプランニング,,株式会社,東京都,練馬区,桜台１丁目１１－１２エスブレス和泉２０１,,13,120,1760002,,,,,,,2025-04-25,1,,,,,エムアールプランニング,0
1565,7011801046034,新規,0,2025-04-25,2025-04-25,株式会社ＯＷ,,株式会社,東京都,葛飾区,細田１丁目４番７号,,13,122,1240021,,,,,,,2025-04-25,1,,,,,オーダブリュ,0
1570,7012401043041,新規,0,2025-04-25,2025-04-25,ＤＲＯＮＥコンサルティング株式会社,,株式会社,東京都,武蔵野市,吉祥寺本町１丁目１２番９号,,13,203,1800004,,,,,,,2025-04-25,1,,,,,ドローンコンサルティング,0
1576,7020001162426,新規,0,2025-04-25,2025-04-25,株式会社ＪＩＧＡ　ＷＯＲＫＳ,,株式会社,神奈川県,横浜市港北区,日吉本町５丁目１９－１３－３,,14,109,2230062,,,,,,,2025-04-25,1,,,,,,0
1577,7020001162525,新規,0,2025-04-25,2025-04-25,株式会社ＮＴ住設,,株式会社,神奈川県,横浜市保土ケ谷区,仏向町１０５９番地８９,,14,106,2400044,,,,,,,2025-04-25,1,,,,,エヌティジュウセツ,0
1578,7020001162558,新規,0,2025-04-25,2025-04-25,ＳＭＩＬＥ株式会社,,株式会社,神奈川県,横浜市鶴見区,鶴見中央４丁目３６番３０－２０１号,,14,101,2300051,,,,,,,2025-04-25,1,,,,,スマイル,0
1579,7020001162566,新規,0,2025-04-25,2025-04-25,株式会社Ｆｒｅｅｚｅ　Ｏｎｅ,,株式会社,神奈川県,横浜市神奈川区,神奈川本町６番地３シティウインズ東神奈川４０５号,,14,102,2210046,,,,,,,2025-04-25,1,,,,,フリーズワン,0
1580,7020001162590,新規,0,2025-04-25,2025-04-25,Ｘ＆Ｍ株式会社,,株式会社,神奈川県,横浜市鶴見区,佃野町１８番６－２０１号,,14,101,2300061,,,,,,,2025-04-25,1,,,,,エックスアンドエム,0
1585,7021003015919,新規,0,2025-04-25,2025-04-25,合同会社ＡＲＦ　ＡＵＴＯ,,合同会社,神奈川県,愛甲郡清川村,煤ヶ谷８６０番地１－２０１号,,14,402,2430112,,,,,,,2025-04-25,1,,,,,エーアールエフオート,0
1597,7030001166236,新規,0,2025-04-25,2025-04-25,銘然株式会社,,株式会社,埼玉県,川口市,幸町２丁目８－２７,,11,203,3320016,,,,,,,2025-04-25,1,,,,,メイゼン,0
1602,7040005022731,新規,0,2025-04-25,2025-04-25,一般社団法人みらいのたね応援団,,その他の設立登記法人,千葉県,流山市,大字東深井８９１番地サワフォンテーヌ３０４,,12,220,2700101,,,,,,,2025-04-25,1,,,,,,0
1606,7050003009192,新規,0,2025-04-25,2025-04-25,ＰＡＫ　ＹＡＲ合同会社,,合同会社,茨城県,結城郡八千代町,大字平塚４８０７－３３８,,08,521,3003561,,,,,,,2025-04-25,1,,,,,パクヤル,0
1608,7060001038135,新規,0,2025-04-25,2025-04-25,株式会社トモリ不動産,,株式会社,栃木県,宇都宮市,長岡町１２０７－４コピスヴィラｎａｇａｏｋａＤ棟,,09,201,3200004,,,,,,,2025-04-25,1,,,,,トモリフドウサン,0
1610,7070001042887,新規,0,2025-04-25,2025-04-25,株式会社せいめい,,株式会社,群馬県,前橋市,上長磯町１１７番地６,,10,201,3792165,,,,,,,2025-04-25,1,,,,,セイメイ,0
1613,7080001026897,新規,0,2025-04-25,2025-04-25,株式会社ＴＭＣ,,株式会社,静岡県,静岡市葵区,沓谷５丁目４番地の１３,,22,101,4200816,,,,,,,2025-04-25,1,,,,,ティーエムシー,0
1620,7080405007733,新規,0,2025-04-25,2025-04-25,ＮＰＯ法人スマジロウ,,その他の設立登記法人,静岡県,浜松市中央区,小豆餅１丁目１４番２号,,22,138,4338113,,,,,,,2025-04-25,1,,,,,スマジロウ,0
1624,7090005007703,新規,0,2025-04-25,2025-04-25,一般社団法人新文明創造推進連合会,,その他の設立登記法人,山梨県,北杜市,明野町上手７１１１番地,,19,209,4080204,,,,,,,2025-04-25,1,,,,,シンブンメイソウゾウスイシンレンゴウカイ,0
1633,7120001274896,新規,0,2025-04-25,2025-04-25,株式会社ＰＲＥＳＴＡＵ,,株式会社,大阪府,大阪市西区,新町２丁目１７－１７,,27,106,5500013,,,,,,,2025-04-25,1,,,,,プレスト,0
1634,7120001274913,新規,0,2025-04-25,2025-04-25,株式会社大徳アニマ,,株式会社,大阪府,大阪市東成区,大今里南６丁目２番６号,,27,115,5370013,,,,,,,2025-04-25,1,,,,,ダイトクアニマ,0
1635,7120001274921,新規,0,2025-04-25,2025-04-25,柏嘉株式会社,,株式会社,大阪府,大阪市中央区,松屋町９番２０号ローレルステート松屋町１２０６Ａ,,27,128,5420067,,,,,,,2025-04-25,1,,,,,ハクカ,0
1645,7122001039123,新規,0,2025-04-25,2025-04-25,株式会社津嶋建装,,株式会社,大阪府,大東市,灰塚５丁目９番８号,,27,218,5740043,,,,,,,2025-04-25,1,,,,,ツシマケンソウ,0
1646,7122001039131,新規,0,2025-04-25,2025-04-25,株式会社Ｃｏｒｅ　Ｉｎｎｏｖａｔｉｏｎ,,株式会社,大阪府,東大阪市,松原１丁目２４番２９号,,27,227,5780922,,,,,,,2025-04-25,1,,,,,コアイノベーション,0
1648,7130001079510,新規,0,2025-04-25,2025-04-25,株式会社エヌエス,,株式会社,京都府,京都市山科区,大宅岩屋殿１番地１１,,26,110,6078172,,,,,,,2025-04-25,1,,,,,エヌエス,0
1655,7140001138273,新規,0,2025-04-25,2025-04-25,株式会社インフィニティエステート,,株式会社,兵庫県,西宮市,羽衣町７番２８号－４Ｆ,,28,204,6620051,,,,,,,2025-04-25,1,,,,,インフィニティエステート,0
1661,7160001026708,新規,0,2025-04-25,2025-04-25,駿傑貿易株式会社,,株式会社,滋賀県,長浜市,口分田町４４４番地６－１Ｆ,,25,203,5260014,,,,,,,2025-04-25,1,,,,,シュンケツボウエキ,0
1663,7160003003457,新規,0,2025-04-25,2025-04-25,Ｅｎｅｒｇｙ　Ｓｔｏｒａｇｅ合同会社,,合同会社,滋賀県,大津市,末広町４番５号ＮＳ大津ビル３０２号,,25,201,5200056,,,,,,,2025-04-25,1,,,,,エナジーストレージ,0
1673,7180001166535,新規,0,2025-04-25,2025-04-25,天華株式会社,,株式会社,愛知県,名古屋市瑞穂区,汐路町４丁目３番地パークレジデンス汐路町３０１,,23,108,4670003,,,,,,,2025-04-25,1,,,,,テンカ,0
1674,7180001166551,新規,0,2025-04-25,2025-04-25,株式会社こころ,,株式会社,愛知県,海部郡大治町,大字花常字中切１２９６番地３,,23,424,4901136,,,,,,,2025-04-25,1,,,,,ココロ,0
1679,7190003005013,新規,0,2025-04-25,2025-04-25,Ｔ３合同会社,,合同会社,三重県,四日市市,釆女町２９９８番地１８,,24,202,5100954,,,,,,,2025-04-25,1,,,,,ティースリー,0
1680,7210001020143,新規,0,2025-04-25,2025-04-25,株式会社Ｌｉｅｎ,,株式会社,福井県,丹生郡越前町,内郡６－１－１５,,18,423,9160147,,,,,,,2025-04-25,1,,,,,リアン,0
1686,7240005015938,新規,0,2025-04-25,2025-04-25,ＮＰＯ法人ＣＬＥＡＲ,,その他の設立登記法人,広島県,東広島市,西条中央６丁目６番１４号仙石ビル,,34,212,7390025,,,,,,,2025-04-25,1,,,,,クリアー,0
1687,7250001021113,新規,0,2025-04-25,2025-04-25,チューケンＨＤ株式会社,,株式会社,山口県,周南市,遠石３丁目９番２０号,,35,215,7450816,,,,,,,2025-04-25,1,,,,,チューケンホールディングス,0
1692,7270003001739,新規,0,2025-04-25,2025-04-25,美杉製作合同会社,,合同会社,鳥取県,鳥取市,永楽温泉町３０１番地５鍾ビル３階,,31,201,6800834,,,,,,,2025-04-25,1,,,,,メイサンセイサク,0
1693,7290001109763,新規,0,2025-04-25,2025-04-25,株式会社ルフト,,株式会社,福岡県,福岡市博多区,中洲５丁目３番８号アクア博多５階,,40,132,8100801,,,,,,,2025-04-25,1,,,,,ルフト,0
1694,7290001109796,新規,0,2025-04-25,2025-04-25,株式会社クリーンサービス,,株式会社,福岡県,福岡市博多区,博多駅南１丁目６番９号,,40,132,8120016,,,,,,,2025-04-25,1,,,,,クリーンサービス,0
1695,7290001109813,新規,0,2025-04-25,2025-04-25,株式会社ＯＮＯ,,株式会社,福岡県,大野城市,山田３丁目１０番２２号,,40,219,8160922,,,,,,,2025-04-25,1,,,,,オノ,0
1696,7290001109838,新規,0,2025-04-25,2025-04-25,株式会社澄花,,株式会社,福岡県,福岡市城南区,別府３丁目７番７号ワイズコート別府１０１,,40,136,8140104,,,,,,,2025-04-25,1,,,,,スミカ,0
1697,7290001109862,新規,0,2025-04-25,2025-04-25,拓悠株式会社,,株式会社,福岡県,福岡市南区,多賀１丁目４－２５,,40,134,8150072,,,,,,,2025-04-25,1,,,,,タクユウ,0
1704,7300001014160,新規,0,2025-04-25,2025-04-25,Ｌｙｎｄインヴェスト株式会社,,株式会社,佐賀県,鳥栖市,儀徳町２２２２番地１１,,41,203,8410066,,,,,,,2025-04-25,1,,,,,リンドインヴェスト,0
1706,7320001021072,新規,0,2025-04-25,2025-04-25,株式会社スマイルエステート,,株式会社,大分県,大分市,王子南町５番２７号ユナイテッドクリエーションビル２０１号,,44,201,8700007,,,,,,,2025-04-25,1,,,,,スマイルエステート,0
1707,7320005010237,新規,0,2025-04-25,2025-04-25,医療法人まつばらデンタルクリニック,,その他の設立登記法人,大分県,大分市,大字三芳字宮畑１８６２番地１,,44,201,8700030,,,,,,,2025-04-25,1,,,,,マツバラデンタルクリニック,0
1710,7330001033109,新規,0,2025-04-25,2025-04-25,スマイルデンソー株式会社,,株式会社,熊本県,熊本市北区,弓削６丁目１０－１３,,43,105,8618002,,,,,,,2025-04-25,1,,,,,スマイルデンソー,0
1712,7330005010905,新規,0,2025-04-25,2025-04-25,一般社団法人いびき無呼吸改善協会,,その他の設立登記法人,熊本県,熊本市東区,三郎１丁目１３番１７号２階,,43,102,8620922,,,,,,,2025-04-25,1,,,,,イビキムコキュウカイゼンキョウカイ,0
1721,7380001035257,新規,0,2025-04-25,2025-04-25,株式会社ＴＲＩＰＬＥ　ＤＩＡＭＯＮＤ,,株式会社,福島県,いわき市,平字五色町６３番地富士一コーポ１０１,,07,204,9708026,,,,,,,2025-04-25,1,,,,,トリプルダイヤモンド,0
1728,7410003004090,新規,0,2025-04-25,2025-04-25,合同会社ネクストライズ,,合同会社,秋田県,秋田市,山手台３丁目１９番地４,,05,201,0101429,,,,,,,2025-04-25,1,,,,,ネクストライズ,0
1732,7430001094223,新規,0,2025-04-25,2025-04-25,株式会社トラストサポート,,株式会社,北海道,札幌市西区,琴似三条４丁目１番３０号,,01,107,0630813,,,,,,,2025-04-25,1,,,,,トランスサポート,0
1741,7480005007085,新規,0,2025-04-25,2025-04-25,一般社団法人オケヤ出羽島,,その他の設立登記法人,徳島県,海部郡牟岐町,大字牟岐浦字出羽島１２番地,,36,383,7750013,,,,,,,2025-04-25,1,,,,,オケヤテバジマ,0
1747,7700150130222,新規,0,2025-04-25,2025-04-25,Ｙｉｗｕ　Ｊｉｅｙａ　Ｔｒａｄｉｎｇ　Ｃｏ．Ｌｔｄ．,,外国会社等,,,,,,,,Ｒｏｏｍ　４０２，Ｕｎｉｔ　１，Ｂｕｉｌｄｉｎｇ　７５，Ｌｉｎｇｙｕｎ　８ｔｈ　Ｄｉｓｔｒｉｃｔ，Ｔａｎｇｔａｎ　Ｖｉｌｌａｇｅ，Ｂｅｉｙｕａｎ　Ｓｔｒｅｅｔ，Ｙｉｗｕ，Ｚｈｅｊｉａｎｇ,,,,,,2025-04-25,1,,,,,イーウーシージエヤーマオイーヨウシエンゴンスー,0
1748,7700150130247,新規,0,2025-04-25,2025-04-25,Ｍｏｕｎｔ　Ｅｖｅｒｅｓｔ　Ｏｒｇａｎｉｃ　Ｃｏｆｆｅｅ　Ｐｒｉｖａｔｅ　Ｌｉｍｉｔｅｄ,,外国会社等,大阪府,岸和田市,並松町１１－１岸和田ハイツ２０２,,27,202,5960052,ネパール国、バグマティ州、カトマンズ郡、カトマンズ大都市１４区、クレソル,,,,,,2025-04-25,1,,,,,マウントエベレストオーガニツクコーヒープライベートリミテツド,0
1755,8010001254421,新規,0,2025-04-25,2025-04-25,株式会社グルメマーク,,株式会社,東京都,中央区,銀座８丁目７番５号,,13,102,1040061,,,,,,,2025-04-25,1,,,,,グルメマーク,0
1757,8010003047179,新規,0,2025-04-25,2025-04-25,エスティ１６合同会社,,合同会社,東京都,千代田区,丸の内１丁目４番１号東京共同会計事務所内,,13,101,1000005,,,,,,,2025-04-25,1,,,,,エスティジュウロク,0
1762,8010103002562,新規,0,2025-04-25,2025-04-25,合同会社イロドリ,,合同会社,東京都,八王子市,南大沢２丁目２２４－３－２０１,,13,201,1920364,,,,,,,2025-04-25,1,,,,,イロドリ,0
1766,8010403034982,新規,0,2025-04-25,2025-04-25,合同会社ａｍｉ,,合同会社,東京都,港区,南青山３丁目１‐３６青山丸竹ビル,,13,103,1070062,,,,,,,2025-04-25,1,,,,,アミ,0
1789,8011001169048,新規,0,2025-04-25,2025-04-25,株式会社Ｅｑｕａｌ,,株式会社,東京都,渋谷区,道玄坂１丁目１０番８号渋谷道玄坂東急ビル２Ｆ－Ｃ,,13,113,1500043,,,,,,,2025-04-25,1,,,,,イクオル,0
1793,8011003021479,新規,0,2025-04-25,2025-04-25,ＲＥＳＩＧＨＴ　ＪＡＰＡＮ合同会社,,合同会社,東京都,渋谷区,道玄坂１丁目１０番８号渋谷道玄坂東急ビル２Ｆ－Ｃ,,13,113,1500043,,,,,,,2025-04-25,1,,,,,リサイトジャパン,0
1794,8011003021504,新規,0,2025-04-25,2025-04-25,合同会社ｃｏｂｏ．,,合同会社,東京都,渋谷区,道玄坂１丁目１０番８号渋谷道玄坂東急ビル２Ｆ―Ｃ,,13,113,1500043,,,,,,,2025-04-25,1,,,,,コボドット,0
1804,8011401027037,新規,0,2025-04-25,2025-04-25,富金堂株式会社,,株式会社,東京都,板橋区,大和町６番１２号板橋本町ビル５０１号室,,13,119,1730012,,,,,,,2025-04-25,1,,,,,フキンドウ,0
1805,8011401027045,新規,0,2025-04-25,2025-04-25,輝盛株式会社,,株式会社,東京都,板橋区,坂下１丁目２８番２号,,13,119,1740043,,,,,,,2025-04-25,1,,,,,テルモリ,0
1809,8011601028611,新規,0,2025-04-25,2025-04-25,株式会社トライハク,,株式会社,東京都,練馬区,旭丘１丁目５５－１４,,13,120,1760005,,,,,,,2025-04-25,1,,,,,トライハク,0
1821,8012703003254,新規,0,2025-04-25,2025-04-25,合同会社Ｃｌｅｖｅｒ,,合同会社,東京都,東久留米市,金山町２丁目１７番１４号,,13,222,2030003,,,,,,,2025-04-25,1,,,,,クレバー,0
1822,8013301054128,新規,0,2025-04-25,2025-04-25,Ｎｅｕｅｒ　Ｆｌｕｓｓ株式会社,,株式会社,東京都,豊島区,高松３丁目１１番５号,,13,116,1710042,,,,,,,2025-04-25,1,,,,,ニュアーフラス,0
1830,8020001162516,新規,0,2025-04-25,2025-04-25,株式会社利文貿易,,株式会社,神奈川県,横浜市中区,伊勢佐木町２丁目６６番地満利屋ビル６Ｆ,,14,104,2310045,,,,,,,2025-04-25,1,,,,,リウェンボウエキ,0
1831,8020001162549,新規,0,2025-04-25,2025-04-25,株式会社ＴＪＰ,,株式会社,神奈川県,横浜市港北区,高田町１９０６番地,,14,109,2230063,,,,,,,2025-04-25,1,,,,,ティージェーピー,0
1837,8021001085046,新規,0,2025-04-25,2025-04-25,株式会社ＴＯＰ,,株式会社,神奈川県,横須賀市,森崎１丁目３番２０－７０２号,,14,201,2380023,,,,,,,2025-04-25,1,,,,,トップ,0
1838,8021003015918,新規,0,2025-04-25,2025-04-25,ＭＡＮＨＡ　ＴＲＡＤＩＮＧ合同会社,,合同会社,神奈川県,愛甲郡清川村,煤ヶ谷８６０番地１－１０１号,,14,402,2430112,,,,,,,2025-04-25,1,,,,,マンハトレーディング,0
1844,8030005022145,新規,0,2025-04-25,2025-04-25,一般社団法人加須市学童クラブの会,,その他の設立登記法人,埼玉県,加須市,飯積５６０番地１,,11,210,3491211,,,,,,,2025-04-25,1,,,,,,0
1846,8040001138448,新規,0,2025-04-25,2025-04-25,株式会社Ｓｅａｐｏｒｔ,,株式会社,千葉県,印西市,牧の原３丁目４番地４１,,12,231,2701331,,,,,,,2025-04-25,1,,,,,シーポート,0
1847,8040001138456,新規,0,2025-04-25,2025-04-25,株式会社喜田村,,株式会社,千葉県,佐倉市,ユーカリが丘７丁目１０番１２号１０１,,12,212,2850858,,,,,,,2025-04-25,1,,,,,キタムラ,0
1848,8040001138506,新規,0,2025-04-25,2025-04-25,株式会社マキシマム,,株式会社,千葉県,浦安市,高洲８丁目１番Ｃ－１３２号,,12,227,2790023,,,,,,,2025-04-25,1,,,,,マキシマム,0
1887,8120001274796,新規,0,2025-04-25,2025-04-25,株式会社Ｌｏｕｉｓ　Ｏｆｆｉｃｅ,,株式会社,大阪府,大阪市東淀川区,豊新１丁目１９－４山田ハイツＩＩ豊新１０３,00138912,27,114,5330014,,,,,,,2025-04-25,1,,,,,ルイオフィス,0
1888,8120001274846,新規,0,2025-04-25,2025-04-25,株式会社トモリアーナ,,株式会社,大阪府,枚方市,樋之上町３番７号,,27,210,5731128,,,,,,,2025-04-25,1,,,,,トモリアーナ,0
1889,8120001274854,新規,0,2025-04-25,2025-04-25,宏科ジャパン株式会社,,株式会社,大阪府,大阪市北区,浮田１丁目３番１６－１１０４号,,27,127,5300021,,,,,,,2025-04-25,1,,,,,コウカジャパン,0
1890,8120001274887,新規,0,2025-04-25,2025-04-25,株式会社ＧＯＥＮ,,株式会社,大阪府,大阪市中央区,平野町２丁目３番７号,,27,128,5410046,,,,,,,2025-04-25,1,,,,,ゴエン,0
1891,8120001274895,新規,0,2025-04-25,2025-04-25,株式会社日向,,株式会社,大阪府,大阪市中央区,南船場１丁目３番１０号５０６,,27,128,5420081,,,,,,,2025-04-25,1,,,,,ヒナタ,0
1892,8120001274920,新規,0,2025-04-25,2025-04-25,和音株式会社,,株式会社,大阪府,大阪市中央区,松屋町９番２０号ローレルステート松屋町１００５Ａ,,27,128,5420067,,,,,,,2025-04-25,1,,,,,ワオン,0
1893,8120001274953,新規,0,2025-04-25,2025-04-25,熙福春和株式会社,,株式会社,大阪府,寝屋川市,池田北町１１番１号サンルート池田４０２号室,,27,215,5720073,,,,,,,2025-04-25,1,,,,,キフクシュンワ,0
1894,8120001275290,新規,0,2025-04-25,2025-04-25,株式会社ＷＩＳＥ　ＷＡＹＮＥ,,株式会社,大阪府,大阪市淀川区,木川東２丁目１５番１３号マキシム西中島４０３号室,,27,123,5320012,,,,,,,2025-04-25,1,,,,,ワイズウェイン,0
1898,8120003029199,新規,0,2025-04-25,2025-04-25,ａｄｏｒｅ合同会社,,合同会社,大阪府,大阪市中央区,南船場３丁目２番２２号おおきに南船場ビル２０５,,27,128,5420081,,,,,,,2025-04-25,1,,,,,アドア,0
1907,8130001079518,新規,0,2025-04-25,2025-04-25,株式会社Ｋ＆Ｉ,,株式会社,京都府,京都市中京区,西ノ京原町３６番地８,,26,104,6048431,,,,,,,2025-04-25,1,,,,,ケーアンドアイ,0
1920,8140001138306,新規,0,2025-04-25,2025-04-25,株式会社ナインスハウス,,株式会社,兵庫県,加古川市,尾上町池田６４２番地播磨第二ビル２Ｆ,,28,210,6750023,,,,,,,2025-04-25,1,,,,,ナインスハウス,0
1924,8150005009691,新規,0,2025-04-25,2025-04-25,特定非営利活動法人フードバンク大和郡山,,その他の設立登記法人,奈良県,大和郡山市,池沢町３３７番地１４,,29,203,6391032,,,,,,,2025-04-25,1,,,,,フードバンクヤマトコオリヤマ,0
1939,8180301039753,新規,0,2025-04-25,2025-04-25,株式会社匠,,株式会社,愛知県,豊橋市,佐藤３丁目３４番地の１２,,23,201,4400853,,,,,,,2025-04-25,1,,,,,タクミ,0
1942,8190001032181,新規,0,2025-04-25,2025-04-25,株式会社小鹿エンタープライズ,,株式会社,三重県,四日市市,水沢町２４０５番地３,,24,202,5121105,,,,,,,2025-04-25,1,,,,,オシカエンタープライズ,0
1943,8190003005012,新規,0,2025-04-25,2025-04-25,合同会社つむじ風グループホーム事業所,,合同会社,三重県,四日市市,下さざらい町５番２０号,,24,202,5108033,,,,,,,2025-04-25,1,,,,,ツムジカゼグループホームジギョウショ,0
1950,8250001021112,新規,0,2025-04-25,2025-04-25,ミノルグループ株式会社,,株式会社,山口県,萩市,大字椿東２８８４番地の１,,35,204,7580011,,,,,,,2025-04-25,1,,,,,ミノルグループ,0
1954,8250003003711,新規,0,2025-04-25,2025-04-25,合同会社レガーレ,,合同会社,山口県,周南市,大字徳山１０５８７番地の４８,,35,215,7450851,,,,,,,2025-04-25,1,,,,,レガーレ,0
1974,8290001109515,新規,0,2025-04-25,2025-04-25,大池イノベーション株式会社,,株式会社,福岡県,福岡市東区,香住ヶ丘２丁目８番２号１０２－４号室,,40,131,8130003,,,,,,,2025-04-25,1,,,,,オオイケイノベーション,0
1975,8290001109721,新規,0,2025-04-25,2025-04-25,株式会社アソビゴト,,株式会社,福岡県,朝倉市,甘木１２８８－２６朝倉インキュベーションセンター内,,40,228,8380068,,,,,,,2025-04-25,1,,,,,アソビゴト,0
1976,8290001109804,新規,0,2025-04-25,2025-04-25,株式会社ＫＵＳＵ　ＨＬＤＧＳ,,株式会社,福岡県,久留米市,通町１０３番地１５,,40,203,8300018,,,,,,,2025-04-25,1,,,,,クスホールディングス,0
1977,8290001109820,新規,0,2025-04-25,2025-04-25,株式会社アストロマインド,,株式会社,福岡県,福岡市西区,姪浜駅南１丁目４番１－２０２号,,40,135,8190006,,,,,,,2025-04-25,1,,,,,アストロマインド,0
1978,8290001109837,新規,0,2025-04-25,2025-04-25,日幸株式会社,,株式会社,福岡県,糟屋郡粕屋町,原町４丁目１０番３８号,,40,349,8112307,,,,,,,2025-04-25,1,,,,,ニッコウ,0
1979,8290003016750,新規,0,2025-04-25,2025-04-25,ストリートステイ合同会社,,合同会社,福岡県,久留米市,善導寺町飯田９０８番地２,,40,203,8390824,,,,,,,2025-04-25,1,,,,,ストリートステイ,0
1981,8290801031488,新規,0,2025-04-25,2025-04-25,株式会社ＸａＸａＸａ,,株式会社,福岡県,北九州市八幡西区,鉄王２丁目１０番２４号,,40,109,8060057,,,,,,,2025-04-25,1,,,,,ザザザ,0
1986,8320003004644,新規,0,2025-04-25,2025-04-25,合同会社エスキューブド,,合同会社,大分県,臼杵市,大字海添２１３番地,,44,206,8750042,,,,,,,2025-04-25,1,,,,,エスキューブド,0
1996,8430001094263,新規,0,2025-04-25,2025-04-25,株式会社遠洋,,株式会社,北海道,札幌市白石区,平和通１０丁目南４番５－３０２号,,01,104,0030028,,,,,,,2025-04-25,1,,,,,エンヨウ,0
1999,8430003017560,新規,0,2025-04-25,2025-04-25,合同会社泰大,,合同会社,北海道,札幌市中央区,南六条西４丁目野口ビル１Ｆ,,01,101,0640806,,,,,,,2025-04-25,1,,,,,ヤスダイ,0
2009,8700150129882,新規,0,2025-04-25,2025-04-10,大阪家事調停協会　本庁会,,その他,大阪府,大阪市中央区,大手前４丁目１－１３　大阪家庭裁判所内,,27,128,5400008,,,,,,,2025-04-10,1,,,,,オオサカカジチヨウテイキヨウカイホンチヨウカイ,0
2010,8700150130221,新規,0,2025-04-25,2025-04-25,ｓｈｅｎｚｈｅｎｓｈｉｈｕａｎｅｎｇｚｈｉｊｉａｋｅｊｉｙｏｕｘｉａｎｇｏｎｇｓｉ,,外国会社等,,,,,,,,Ｒｏｏｍ　５０１，Ｑｉｕｒｕｉ　Ｂｕｉｌｄｉｎｇ，Ｎｏ　２０７　Ｍｉｎｋａｎｇ　Ｒｏａｄ，Ｚｈａｎｇｋｅｎｇ　Ｃｏｍｍｕｎｉｔｙ，Ｍｉｎｚｈｉ　Ｓｕｂｄｉｓｔｒｉｃｔ，Ｌｏｎｇｈｕａ　Ｄｉｓｔｒｉｃｔ，Ｓｈｅｎｚｈｅｎ,,,,,,2025-04-25,1,,,,,シェンジェンシーフワーノンジージャーコージーヨウシエンゴンスー,0
2024,9010005039982,新規,0,2025-04-25,2025-04-25,スザク一般社団法人,,その他の設立登記法人,東京都,千代田区,霞が関３丁目２番５号,,13,101,1000013,,,,,,,2025-04-25,1,,,,,スザク,0
2029,9010403034957,新規,0,2025-04-25,2025-04-25,合同会社ＭＫ５,,合同会社,東京都,港区,港南３丁目９番３３－７１３号,,13,103,1080075,,,,,,,2025-04-25,1,,,,,エムケーファイブ,0
2032,9010503007805,新規,0,2025-04-25,2025-04-25,合同会社ＯＴＡＫＵ　ＢＲＥＷＩＮＧ,,合同会社,東京都,台東区,台東１丁目８－５,,13,106,1100016,,,,,,,2025-04-25,1,,,,,オタクブルーイング,0
2033,9010503007813,新規,0,2025-04-25,2025-04-25,合同会社みかん,,合同会社,東京都,台東区,台東２丁目２９番１４－８０１号御徒町アムフラット,,13,106,1100016,,,,,,,2025-04-25,1,,,,,ミカン,0
2042,9011001168759,新規,0,2025-04-25,2025-04-25,株式会社ＲＥＶＥＮＵＥ　Ｓｈａｒｅ,,株式会社,東京都,渋谷区,恵比寿西２丁目８番４号ＥＸ恵比寿西ビル５階,,13,113,1500021,,,,,,,2025-04-25,1,,,,,レベニューシェア,0
2043,9011001169352,新規,0,2025-04-25,2025-04-25,株式会社ｅｃｃｏｍｉｎ,,株式会社,東京都,渋谷区,東１丁目３番１号カミニート,,13,113,1500011,,,,,,,2025-04-25,1,,,,,エッコミン,0
2046,9011301030536,新規,0,2025-04-25,2025-04-25,株式会社未来,,株式会社,東京都,杉並区,和泉３丁目１４番１６号,,13,115,1680063,,,,,,,2025-04-25,1,,,,,ミルク,0
2048,9011403004677,新規,0,2025-04-25,2025-04-25,合同会社Ｐ‐ｍｉｎｄ,,合同会社,東京都,板橋区,上板橋１丁目１８番８－２０５号,,13,119,1740076,,,,,,,2025-04-25,1,,,,,ピーマインド,0
2051,9011601028593,新規,0,2025-04-25,2025-04-25,株式会社ＹＵＭＩＫＡ,,株式会社,東京都,練馬区,南大泉４丁目５０番５－３０２号,,13,120,1780064,,,,,,,2025-04-25,1,,,,,ユミカ,0
2052,9011603004683,新規,0,2025-04-25,2025-04-25,合同会社ＭＩＺｕＮＡＲＡ,,合同会社,東京都,練馬区,貫井３丁目５１番１号トーキョーベータ富士見台３－２０１号,,13,120,1760021,,,,,,,2025-04-25,1,,,,,ミズナラ,0
2058,9012401043015,新規,0,2025-04-25,2025-04-25,セールスバディ株式会社,,株式会社,東京都,武蔵野市,西久保２丁目１５番５号,,13,203,1800013,,,,,,,2025-04-25,1,,,,,セールスバディ,0
2061,9012403007091,新規,0,2025-04-25,2025-04-25,シナジープロデュース合同会社,,合同会社,東京都,調布市,富士見町１丁目１４番地２０,,13,208,1820033,,,,,,,2025-04-25,1,,,,,シナジープロデュース,0
2062,9012703003253,新規,0,2025-04-25,2025-04-25,Ｈａｒｙホールディングス合同会社,,合同会社,東京都,西東京市,芝久保町２丁目９番４０号エルカミーノ５０５号,,13,229,1880014,,,,,,,2025-04-25,1,,,,,ハリーホールディングス,0
2069,9020003028334,新規,0,2025-04-25,2025-04-25,合同会社ｌｕｌｕ’ｓ　ｃｏｕｔｕｒｅ,,合同会社,神奈川県,横浜市鶴見区,市場大和町２番地１２－２ラ・ヴィータ鶴見２階２０１号室,,14,101,2300025,,,,,,,2025-04-25,1,,,,,ルルズクチュール,0
2073,9021001085078,新規,0,2025-04-25,2025-04-25,津一株式会社,,株式会社,神奈川県,大和市,桜森２丁目１６番２４－１－１０２号室,,14,213,2420028,,,,,,,2025-04-25,1,,,,,シンイチ,0
2075,9021003015917,新規,0,2025-04-25,2025-04-25,ＡＭ　ＴＲＡＤＩＮＧ合同会社,,合同会社,神奈川県,愛甲郡清川村,煤ヶ谷８６０番地１－２０３号,,14,402,2430112,,,,,,,2025-04-25,1,,,,,エーエムトレーディング,0
2096,9040001138323,新規,0,2025-04-25,2025-04-25,納庚エボリス株式会社,,株式会社,千葉県,千葉市若葉区,都賀２丁目１３番１０号タウンコート２０１号,,12,104,2640025,,,,,,,2025-04-25,1,,,,,ノウコウエボリス,0
2097,9040001138455,新規,0,2025-04-25,2025-04-25,ＳＵＢＨＡＭ　ＬＡＸＭＩ株式会社,,株式会社,千葉県,市川市,市川南１丁目１－８－１０７,,12,203,2720033,,,,,,,2025-04-25,1,,,,,,0
2098,9040001138513,新規,0,2025-04-25,2025-04-25,株式会社ＧＯＬＤ,,株式会社,千葉県,千葉市中央区,出洲港７番３７号サンクタス千葉シーサイドアベニュー７０５号,,12,101,2600023,,,,,,,2025-04-25,1,,,,,ゴールド,0
2100,9040003027425,新規,0,2025-04-25,2025-04-25,合同会社クオルコ,,合同会社,千葉県,山武市,白幡２２９４番地９サーフサイドヒルズ九十九里１０５,,12,237,2891306,,,,,,,2025-04-25,1,,,,,クオルコ,0
2101,9040005022746,新規,0,2025-04-25,2025-04-25,一般社団法人ＢＦＰ,,その他の設立登記法人,千葉県,長生郡一宮町,新地１９８９番地３１,,12,421,2994314,,,,,,,2025-04-25,1,,,,,ビーエフピー,0
2105,9050001056573,新規,0,2025-04-25,2025-04-25,ＲＵＮＧ　ＴＨＡＩＦＯＯＤＳ株式会社,,株式会社,茨城県,筑西市,船玉２７８番地６,,08,227,3080121,,,,,,,2025-04-25,1,,,,,,0
2106,9050001056581,新規,0,2025-04-25,2025-04-25,株式会社山刈商店,,株式会社,茨城県,守谷市,本町１６３番地の７,,08,224,3020109,,,,,,,2025-04-25,1,,,,,ヤマガリショウテン,0
2107,9070001042869,新規,0,2025-04-25,2025-04-25,株式会社Ｋｅｙ　Ｔｅｃｈｎｏｌｏｇｙ,,株式会社,群馬県,伊勢崎市,田中島町１４５９番地１０,,10,204,3720802,,,,,,,2025-04-25,1,,,,,キーテクノロジー,0
2108,9070001042885,新規,0,2025-04-25,2025-04-25,株式会社ＬＩＦＥ　ＢＡＳＥ,,株式会社,群馬県,伊勢崎市,稲荷町２７番地４,,10,204,3720804,,,,,,,2025-04-25,1,,,,,ライフベース,0
2109,9080103003297,新規,0,2025-04-25,2025-04-25,ファン合同会社,,合同会社,静岡県,伊東市,川奈１３３４－７,,22,208,4140044,,,,,,,2025-04-25,1,,,,,ファン,0
2131,9120001274812,新規,0,2025-04-25,2025-04-25,湛盧Ｃｈｅｅｒｓ株式会社,,株式会社,大阪府,大阪市天王寺区,伶人町２－３１ＳｔａｒＯｆｆｉｃｅ大阪天王寺北５０１号室,,27,109,5430061,,,,,,,2025-04-25,1,,,,,タンロチアーズ,0
2132,9120001274820,新規,0,2025-04-25,2025-04-25,株式会社ＨＡＫＯＮＯＷＡ,,株式会社,大阪府,大阪市福島区,福島１丁目７番２１号ＢＯＮビル５Ｆ,,27,103,5530003,,,,,,,2025-04-25,1,,,,,ハコノワ,0
2133,9120001274829,新規,0,2025-04-25,2025-04-25,株式会社ＴＨＡＵＭＡＺＥＩＮ,,株式会社,大阪府,大阪市北区,中津６丁目９番５号幸成ビル２Ｆ,,27,127,5310071,,,,,,,2025-04-25,1,,,,,タウマゼイン,0
2134,9120001274878,新規,0,2025-04-25,2025-04-25,株式会社ちゃる,,株式会社,大阪府,大阪市東成区,東中本３丁目１６－１５サニーハイツ緑橋３０９号室,,27,115,5370021,,,,,,,2025-04-25,1,,,,,チャル,0
2135,9120001274903,新規,0,2025-04-25,2025-04-25,株式会社Ｈｅｌｉｏｓ,,株式会社,大阪府,大阪市西区,北堀江２丁目２番２４－９０３号,,27,106,5500014,,,,,,,2025-04-25,1,,,,,ヘリオス,0
2136,9120001274911,新規,0,2025-04-25,2025-04-25,株式会社タスク,,株式会社,大阪府,大阪市生野区,巽中１丁目１１番２５号,00138927,27,116,5440013,,,,,,,2025-04-25,1,,,,,タスク,0
2137,9120001274952,新規,0,2025-04-25,2025-04-25,屈氏国際貿易株式会社,,株式会社,大阪府,大阪市城東区,東中浜８丁目５番２３号２０１室,,27,118,5360023,,,,,,,2025-04-25,1,,,,,クツシコクサイボウエキ,0
2138,9120003029198,新規,0,2025-04-25,2025-04-25,ＭＭ合同会社,,合同会社,大阪府,大阪市北区,天神橋６丁目２番２５号２階Ｂ号室,,27,127,5300041,,,,,,,2025-04-25,1,,,,,エムエム,0
2139,9120003029207,新規,0,2025-04-25,2025-04-25,堂島フードサービス合同会社,,合同会社,大阪府,大阪市大正区,三軒家東４丁目７番８号,,27,108,5510002,,,,,,,2025-04-25,1,,,,,ドウジマフードサービス,0
2146,9120901050791,新規,0,2025-04-25,2025-04-25,株式会社ゴールデンシアター,,株式会社,大阪府,吹田市,山田南２９番３－６１８号,,27,205,5650823,,,,,,,2025-04-25,1,,,,,ゴールデンシアター,0
2148,9120903005629,新規,0,2025-04-25,2025-04-25,合同会社ＶＡＭＯＳ,,合同会社,大阪府,豊中市,浜３丁目１９－１８－６０１,,27,203,5610817,,,,,,,2025-04-25,1,,,,,バモス,0
2152,9130001079509,新規,0,2025-04-25,2025-04-25,アオファン株式会社,,株式会社,京都府,京都市南区,吉祥院長田町５３９,,26,107,6018362,,,,,,,2025-04-25,1,,,,,アオファン,0
2153,9130001079525,新規,0,2025-04-25,2025-04-25,株式会社喜多オフィス,,株式会社,京都府,京都市左京区,川端通夷川上る新生洲町１０６番地サンフェスタ１０２号,,26,103,6068384,,,,,,,2025-04-25,1,,,,,キタオフィス,0
2154,9130003010413,新規,0,2025-04-25,2025-04-25,グローカルコンパス合同会社,,合同会社,京都府,京都市下京区,中堂寺粟田町９３ＫＲＰ４号館,,26,106,6008815,,,,,,,2025-04-25,1,,,,,グローカルコンパス,0
2161,9140001138247,新規,0,2025-04-25,2025-04-25,株式会社ＭＫＫグループみらい観光開発,,株式会社,兵庫県,姫路市,山吹１丁目１１－３７,,28,201,6700085,,,,,,,2025-04-25,1,,,,,エムケイケイグループミライカンコウカイハツ,0
2162,9140001138296,新規,0,2025-04-25,2025-04-25,立徳株式会社,,株式会社,兵庫県,神戸市中央区,磯上通８丁目１番２９号カサベラビルＣ＆Ｍ４０３号室,,28,110,6510086,,,,,,,2025-04-25,1,,,,,リットク,0
2172,9150003003588,新規,0,2025-04-25,2025-04-25,ＭＦＰ合同会社,,合同会社,奈良県,北葛城郡河合町,泉台２丁目２８番１２号,,29,427,6360091,,,,,,,2025-04-25,1,,,,,エムエフピー,0
2173,9150005009690,新規,0,2025-04-25,2025-04-25,一般社団法人Ｈａｎｄｙ　Ｓｅｒｖｉｃｅ,,その他の設立登記法人,奈良県,生駒市,壱分町１４１８番地１,,29,209,6300222,,,,,,,2025-04-25,1,,,,,ハンディーサービス,0
2183,9180001166558,新規,0,2025-04-25,2025-04-25,Ｂｏｏｍｉｘ株式会社,,株式会社,愛知県,名古屋市東区,泉１丁目１８番３号泉ステイトリービル８０１,,23,102,4610001,,,,,,,2025-04-25,1,,,,,ブーミックス,0
2186,9180003028351,新規,0,2025-04-25,2025-04-25,兆泰合同会社,,合同会社,愛知県,名古屋市千種区,猪高町大字猪子石字猪々道１４４番１,,23,101,4640012,,,,,,,2025-04-25,1,,,,,チョウタイ,0
2193,9210003001916,新規,0,2025-04-25,2025-04-25,合同会社ｔｏｍｏｓａｋｉ,,合同会社,福井県,福井市,本堂町第８９号８番地４５,,18,201,9188076,,,,,,,2025-04-25,1,,,,,トモサキ,0
2195,9220003004018,新規,0,2025-04-25,2025-04-25,合同会社クワトロ,,合同会社,石川県,河北郡内灘町,字室ロ７２番地の４,,17,365,9200261,,,,,,,2025-04-25,1,,,,,クワトロ,0
2200,9250003003710,新規,0,2025-04-25,2025-04-25,合同会社オフィス志馬,,合同会社,山口県,宇部市,新天町１丁目６番６号,,35,202,7550029,,,,,,,2025-04-25,1,,,,,オフィスシマ,0
2210,9290001109811,新規,0,2025-04-25,2025-04-25,Ｇｒｏｗｉｔｈ株式会社,,株式会社,福岡県,うきは市,吉井町１２６７番地１２,,40,225,8391321,,,,,,,2025-04-25,1,,,,,グローウィズ,0
2214,9290003016733,新規,0,2025-04-25,2025-04-25,ＫＹＯＵＤＡＩ合同会社,,合同会社,福岡県,福岡市東区,筥松４丁目８番１０号,,40,131,8120061,,,,,,,2025-04-25,1,,,,,キョウダイ,0
2215,9290003016758,新規,0,2025-04-25,2025-04-25,合同会社ＯＮＳ,,合同会社,福岡県,福岡市東区,香住ヶ丘４丁目３５番６－２０２号ハートフル香住ヶ丘,,40,131,8130003,,,,,,,2025-04-25,1,,,,,オーエヌエス,0
2219,9320005010235,新規,0,2025-04-25,2025-04-25,一般社団法人国東地域広域協定,,その他の設立登記法人,大分県,国東市,国東町小原２４９１番地,,44,214,8730511,,,,,,,2025-04-25,1,,,,,クニサキチイキコウイキキョウテイ,0
2222,9330001033098,新規,0,2025-04-25,2025-04-25,株式会社ＴＥＲＡ,,株式会社,熊本県,熊本市東区,健軍３丁目２８番１４－２０３号,,43,102,8620911,,,,,,,2025-04-25,1,,,,,テラ,0
2223,9330001033131,新規,0,2025-04-25,2025-04-25,株式会社ソルナ,,株式会社,熊本県,熊本市西区,池上町１３２４番地２平木ハイツ２号,,43,103,8600048,,,,,,,2025-04-25,1,,,,,ソルナ,0
2233,9330003010979,新規,0,2025-04-25,2025-04-25,合同会社Ｙトレード,,合同会社,熊本県,熊本市南区,野口３丁目１３番１７号,,43,104,8614137,,,,,,,2025-04-25,1,,,,,ワイトレード,0
2235,9340005009853,新規,0,2025-04-25,2025-04-25,一般社団法人ライフサポートよつば,,その他の設立登記法人,鹿児島県,薩摩川内市,天辰町３８０番地,,46,215,8950011,,,,,,,2025-04-25,1,,,,,ライフサポートヨツバ,0
2238,9360003014853,新規,0,2025-04-25,2025-04-25,合同会社ＫＯＫＯ．ＣＨＩ,,合同会社,沖縄県,うるま市,字宮里７１６－２コーポＵ２０３号室,,47,213,9042243,,,,,,,2025-04-25,1,,,,,ココチ,0
2240,9370001052508,新規,0,2025-04-25,2025-04-25,株式会社Ｒｅｃｒｅａｔｉｏｎ,,株式会社,宮城県,仙台市青葉区,中央４丁目４番１９号アーバンネット仙台中央ビル２Ｆ・ＹＵＩＮＯＳ内,,04,101,9800021,,,,,,,2025-04-25,1,,,,,リクリエーション,0
2241,9370001052516,新規,0,2025-04-25,2025-04-25,株式会社ドローンスタディ,,株式会社,宮城県,仙台市太白区,あすと長町１丁目５番４２－９１５号,,04,104,9820007,,,,,,,2025-04-25,1,,,,,ドローンスタディ,0
2244,9390001017970,新規,0,2025-04-25,2025-04-25,株式会社舟生商会,,株式会社,山形県,最上郡真室川町,大字及位７６番地８,,06,364,9995602,,,,,,,2025-04-25,1,,,,,フニュウショウカイ,0
2249,9420001019105,新規,0,2025-04-25,2025-04-25,株式会社歯っち,,株式会社,青森県,八戸市,大字番町１番地２デュオヒルズ八戸ザレジデンス１１０２,,02,203,0310031,,,,,,,2025-04-25,1,,,,,ハッチ,0
2250,9420005007956,新規,0,2025-04-25,2025-04-25,ＮＰＯ法人鮫町蕪島ウミネコｖｉｌｌａｇｅ,,その他の設立登記法人,青森県,八戸市,大字鮫町字鮫９２番,,02,203,0310841,,,,,,,2025-04-25,1,,,,,サメマチカブシマウミネコビレッジ,0
2253,9430003017551,新規,0,2025-04-25,2025-04-25,合同会社住人と色,,合同会社,北海道,岩見沢市,三条西１３丁目９－４－１,,01,210,0680023,,,,,,,2025-04-25,1,,,,,ジュウニントイロ,0
2257,9490001011030,新規,0,2025-04-25,2025-04-25,株式会社下元鉄工,,株式会社,高知県,高知市,池３２１３番地３,,39,201,7810111,,,,,,,2025-04-25,1,,,,,シモモトテッコウ,0
2259,9700150130220,新規,0,2025-04-25,2025-04-25,ＣｈｏｎｇＱｉｎｇＴａｎｇＪｉｅＫｅＪｉＹｏｕＸｉａｎＧｏｎｇＳｉ,,外国会社等,,,,,,,,４０－８＃，Ｂｕｉｌｄｉｎｇ　１，Ｎｏ．３３３　Ｊｉｎｇｗｅｉ　Ａｖｅｎｕｅ，Ｄａｐｉｎｇ　Ｓｔｒｅｅｔ，Ｙｕｚｈｏｎｇ　Ｄｉｓｔｒｉｃｔ，Ｃｈｏｎｇｑｉｎｇ,,,,,,2025-04-25,1,,,,,ジョンチンタンジエコージーヨウシエンゴンスー,0
