sequenceNumber,corporateNumber,process,correct,updateDate,changeDate,name,nameImageId,kind,prefectureName,cityName,streetNumber,addressImageId,prefectureCode,cityCode,postCode,addressOutside,addressOutsideImageId,closeDate,closeCause,successorCorporateNumber,changeCause,assignmentDate,latest,enName,enPrefectureName,enCityName,enAddressOutside,furigana,hihyoji
13,1010003038011,新規,0,2022-06-30,2022-06-30,合同会社パール,,合同会社,東京都,千代田区,丸の内３丁目１番１号東京共同会計事務所内,,13,101,1000005,,,,,,,2022-06-30,1,,,,,パール,0
28,1010401168244,新規,0,2022-06-30,2022-06-30,株式会社ハートホールディングス,,株式会社,東京都,港区,麻布十番３丁目３番１号,,13,103,1060045,,,,,,,2022-06-30,1,,,,,ハートホールディングス,0
29,1010501049014,新規,0,2022-06-30,2022-06-30,株式会社はれのこ,,株式会社,東京都,台東区,東上野２丁目２０－１１日産ビル５Ｆ,,13,106,1100015,,,,,,,2022-06-30,1,,,,,ハレノコ,0
30,1010503006632,新規,0,2022-06-30,2022-06-30,Ｃｏｍｍａ合同会社,,合同会社,東京都,台東区,浅草３丁目１番１号馬道妙見屋ビル４階,,13,106,1110032,,,,,,,2022-06-30,1,,,,,コンマ,0
33,1010601061406,新規,0,2022-06-30,2022-06-30,株式会社ＬＯＧ　ＣＲＥＡＴＥ,,株式会社,東京都,江東区,東雲１丁目１番１６－５０６号,,13,108,1350062,,,,,,,2022-06-30,1,,,,,ログクリエイト,0
34,1010701042883,新規,0,2022-06-30,2022-06-30,ＭＹファーム株式会社,,株式会社,東京都,品川区,東品川２丁目５番６－２００６号,,13,109,1400002,,,,,,,2022-06-30,1,,,,,エムワイファーム,0
41,1011001148363,新規,0,2022-06-30,2022-06-30,株式会社イベキ,,株式会社,東京都,渋谷区,渋谷１丁目１６番９号,,13,113,1500002,,,,,,,2022-06-30,1,,,,,イベキ,0
44,1011101099366,新規,0,2022-06-30,2022-06-30,株式会社ＢＥＡＵＴＹ,,株式会社,東京都,新宿区,西新宿１丁目４番１０号,,13,104,1600023,,,,,,,2022-06-30,1,,,,,ビューティー,0
52,1011603003635,新規,0,2022-06-30,2022-06-30,合同会社ドラゴン,,合同会社,東京都,練馬区,豊玉上２丁目１－６イトーピア豊玉マンション２０３,,13,120,1760011,,,,,,,2022-06-30,1,,,,,ドラゴン,0
56,1012401002317,新規,0,2022-06-30,2022-06-30,株式会社太陽コーポレーション,,株式会社,東京都,国分寺市,南町３丁目１６番６号,,13,214,1850021,,,,,,,2022-06-30,1,,,,,タイヨウコーポレーション,0
59,1013103001144,新規,0,2022-06-30,2022-06-30,＿里樹合同会社,00127053,合同会社,東京都,青梅市,滝ノ上町１２２８－５サンテラス青梅,,13,205,1980085,,,,,,,2022-06-30,1,,,,,センリージュ,0
61,1013301049324,新規,0,2022-06-30,2022-06-30,株式会社ＡＸＩＡ,,株式会社,東京都,豊島区,南大塚２丁目２５番１７－１３０１号,,13,116,1700005,,,,,,,2022-06-30,1,,,,,アクシア,0
67,1020001147102,新規,0,2022-06-30,2022-06-30,株式会社ＣＨＩＬＬＰＯＴ,,株式会社,神奈川県,横浜市鶴見区,本町通４丁目１７３番地２ヴェルメゾンミヨシ２０３,,14,101,2300048,,,,,,,2022-06-30,1,,,,,チルポット,0
70,1020003022022,新規,0,2022-06-30,2022-06-30,合同会社クロシェット,,合同会社,神奈川県,横浜市保土ケ谷区,権太坂２丁目２１番１－２１３号,,14,106,2400026,,,,,,,2022-06-30,1,,,,,クロシェット,0
80,1030001148917,新規,0,2022-06-30,2022-06-30,株式会社聖桜,,株式会社,埼玉県,さいたま市緑区,大字三室３０３２番地１６,,11,109,3360911,,,,,,,2022-06-30,1,,,,,セイラ,0
86,1030005020907,新規,0,2022-06-30,2022-06-30,一般社団法人ラグラス,,その他の設立登記法人,埼玉県,鴻巣市,前砂４２５－８,,11,217,3690132,,,,,,,2022-06-30,1,,,,,ラグラス,0
94,1040003020338,新規,0,2022-06-30,2022-06-30,合同会社ＭＯＴＯ,,合同会社,千葉県,佐倉市,大崎台３丁目１番１３号,,12,212,2850817,,,,,,,2022-06-30,1,,,,,モト,0
113,1120001246967,新規,0,2022-06-30,2022-06-30,株式会社Ｕ・Ｋ工業,,株式会社,大阪府,大阪市東淀川区,大道南３丁目７番５号タツノビル２０２,,27,114,5330012,,,,,,,2022-06-30,1,,,,,ユーケーコウギョウ,0
114,1120001247040,新規,0,2022-06-30,2022-06-30,株式会社ＺＩＴ,,株式会社,大阪府,大阪市福島区,鷺洲５丁目１２番１－２００７号,,27,103,5530002,,,,,,,2022-06-30,1,,,,,ジット,0
125,1122001036019,新規,0,2022-06-30,2022-06-30,株式会社ベルホールディングス,,株式会社,大阪府,東大阪市,吉田下島１４番７号,,27,227,5780983,,,,,,,2022-06-30,1,,,,,ベルホールディングス,0
129,1130003008035,新規,0,2022-06-30,2022-06-30,ＰｏＬａｍ合同会社,,合同会社,京都府,京都市南区,上鳥羽北村山町７８上鳥羽ハイツ３－Ｄ,,26,107,6018187,,,,,,,2022-06-30,1,,,,,ポラム,0
137,1140001126531,新規,0,2022-06-30,2022-06-30,金海株式会社,,株式会社,兵庫県,尼崎市,東難波町５丁目１３番１４号,,28,202,6600892,,,,,,,2022-06-30,1,,,,,キンカイ,0
152,1180003023979,新規,0,2022-06-30,2022-06-30,若者工業合同会社,,合同会社,愛知県,一宮市,大和町馬引字乾出５番地,,23,203,4910931,,,,,,,2022-06-30,1,,,,,ワカモノコウギョウ,0
153,1180003023995,新規,0,2022-06-30,2022-06-30,合同会社Ｒスタイル,,合同会社,愛知県,名古屋市港区,油屋町３丁目５０番地の２フルール３０３号,,23,111,4550815,,,,,,,2022-06-30,1,,,,,アールスタイル,0
154,1180005019819,新規,0,2022-06-30,2022-06-30,一般社団法人優想会,,その他の設立登記法人,愛知県,名古屋市中区,錦３丁目１５番３３号アルティメイト錦大津通ビル６階,,23,106,4600003,,,,,,,2022-06-30,1,,,,,ユウソウカイ,0
177,1240001060002,新規,0,2022-06-30,2022-06-30,株式会社ｃｈｉｃ,,株式会社,広島県,広島市中区,河原町４番１２－３０３号,,34,101,7300856,,,,,,,2022-06-30,1,,,,,シック,0
180,1240005015415,新規,0,2022-06-30,2022-06-30,無限責任来原村宮迫負債整理組合,,その他の設立登記法人,広島県,安芸高田市,高宮町来女木,,34,214,7391806,,,,,,,2022-06-30,1,,,,,クルハラムラミヤサコ,0
183,1250005008756,新規,0,2022-06-30,2022-06-30,一般社団法人なゆた,,その他の設立登記法人,山口県,防府市,大字牟礼３８４－１,,35,206,7470004,,,,,,,2022-06-30,1,,,,,ナユタ,0
189,1290001098070,新規,0,2022-06-30,2022-06-30,株式会社Ａｒｔｙ　ｂｌｏｓｓｏｍ,,株式会社,福岡県,福岡市中央区,警固２丁目１２番１９号,,40,133,8100023,,,,,,,2022-06-30,1,,,,,アーティブロッサム,0
203,1370001048728,新規,0,2022-06-30,2022-06-30,株式会社技巧や,,株式会社,宮城県,石巻市,大街道西１丁目６番２１号,,04,202,9860859,,,,,,,2022-06-30,1,,,,,ギコウヤ,0
204,1370001048736,新規,0,2022-06-30,2022-06-30,Ｊ２Ｐ株式会社,,株式会社,宮城県,仙台市青葉区,一番町２丁目１１番１２号プレジデント一番町５０５号,,04,101,9800811,,,,,,,2022-06-30,1,,,,,ジェイツーピー,0
213,1430001086960,新規,0,2022-06-30,2022-06-30,株式会社光輝工業,,株式会社,北海道,札幌市北区,篠路町上篠路７４番地３４,,01,102,0028052,,,,,,,2022-06-30,1,,,,,ミツキコウギョウ,0
214,1430001086977,新規,0,2022-06-30,2022-06-30,株式会社ＳＫＨ７２,,株式会社,北海道,札幌市中央区,南一条西７丁目１２番地６,,01,101,0600061,,,,,,,2022-06-30,1,,,,,エスケーエイチナナジュウニ,0
217,1430003014060,新規,0,2022-06-30,2022-06-30,合同会社アンドアール,,合同会社,北海道,石狩郡当別町,東町９０３番地１１１,,01,303,0610221,,,,,,,2022-06-30,1,,,,,アンドアール,0
231,2010001227647,新規,0,2022-06-30,2022-06-30,Ｅａｓｏｌ　Ｊａｐａｎ株式会社,,株式会社,東京都,中央区,日本橋茅場町１丁目１３番１３号七宝ビルディング９階,,13,102,1030025,,,,,,,2022-06-30,1,,,,,イーソルジャパン,0
232,2010001227688,新規,0,2022-06-30,2022-06-30,株式会社ＹＳＫ８,,株式会社,東京都,千代田区,麹町１丁目６番地９,,13,101,1020083,,,,,,,2022-06-30,1,,,,,ワイエスケーエイト,0
233,2010001227721,新規,0,2022-06-30,2022-06-30,株式会社ハートエイト・リアルティ,,株式会社,東京都,中央区,銀座１丁目１２番４号Ｎ＆ＥＢＬＤ．６Ｆ,,13,102,1040061,,,,,,,2022-06-30,1,,,,,ハートエイトリアルティ,0
235,2010003037953,新規,0,2022-06-30,2022-06-30,合同会社リニューアブルシステム１３号,,合同会社,東京都,千代田区,紀尾井町３番１０号紀尾井町ガーデンタワー２５０４号（Ｃ／Ｏｓｈｉｍａｄａ－ｏｆｆｉｃｅ）,,13,101,1020094,,,,,,,2022-06-30,1,,,,,リニューアブルシステムジュウサンゴウ,0
236,2010003038019,新規,0,2022-06-30,2022-06-30,合同会社スタジオネコラ,,合同会社,東京都,文京区,白山２丁目１４番１４号,,13,105,1120001,,,,,,,2022-06-30,1,,,,,スタジオネコラ,0
247,2010403028008,新規,0,2022-06-30,2022-06-30,合同会社ノーブルティー,,合同会社,東京都,港区,南麻布１丁目５番１５号,,13,103,1060047,,,,,,,2022-06-30,1,,,,,ノーブルティー,0
261,2011001148164,新規,0,2022-06-30,2022-06-30,株式会社Ｎｉｇｈｔ　Ａｇｅ,,株式会社,東京都,渋谷区,神宮前６丁目２３－４桑野ビル２Ｆ,,13,113,1500001,,,,,,,2022-06-30,1,,,,,ナイトエイジ,0
262,2011001148296,新規,0,2022-06-30,2022-06-30,株式会社ＳＵＴＯ,,株式会社,東京都,渋谷区,広尾１丁目８番２号７階,,13,113,1500012,,,,,,,2022-06-30,1,,,,,スート,0
263,2011001148321,新規,0,2022-06-30,2022-06-30,株式会社ＢＵＮＤＬＥ,,株式会社,東京都,渋谷区,桜丘町２３－３篠田ビル２階,,13,113,1500031,,,,,,,2022-06-30,1,,,,,バンドル,0
264,2011001148379,新規,0,2022-06-30,2022-06-30,株式会社ＡＳセントラル,,株式会社,東京都,渋谷区,渋谷１丁目１０番７号グローリア宮益坂ＩＩＩ２０３号室,00127054,13,113,1500002,,,,,,,2022-06-30,1,,,,,エーエスセントラル,0
265,2011003014901,新規,0,2022-06-30,2022-06-30,合同会社どい,,合同会社,東京都,目黒区,駒場１丁目２番２３号ブリリアントバンズ２０５,,13,110,1530041,,,,,,,2022-06-30,1,,,,,ドイ,0
266,2011103011906,新規,0,2022-06-30,2022-06-30,合同会社コトナ,,合同会社,東京都,新宿区,西落合２丁目８番２６号,,13,104,1610031,,,,,,,2022-06-30,1,,,,,コトナ,0
270,2011501028205,新規,0,2022-06-30,2022-06-30,夢の島株式会社,,株式会社,東京都,北区,豊島５丁目２番２０－１１０８号,,13,117,1140003,,,,,,,2022-06-30,1,,,,,ユメノシマ,0
280,2013301049331,新規,0,2022-06-30,2022-06-30,グローバルワーカー株式会社,,株式会社,東京都,豊島区,池袋２丁目４２番３号,,13,116,1710014,,,,,,,2022-06-30,1,,,,,グローバルワーカー,0
285,2020001147101,新規,0,2022-06-30,2022-06-30,ＣＯＱＳ＆ＣＯ株式会社,,株式会社,神奈川県,川崎市中原区,中丸子５１８番地１,,14,133,2110012,,,,,,,2022-06-30,1,,,,,コックスアンドシーオー,0
293,2030001148932,新規,0,2022-06-30,2022-06-30,盛源商事株式会社,,株式会社,埼玉県,八潮市,八潮４丁目２５番地２７,,11,234,3400815,,,,,,,2022-06-30,1,,,,,セイゲンショウジ,0
296,2030003019702,新規,0,2022-06-30,2022-06-30,合同会社Ａｒｉｇａ燈,,合同会社,埼玉県,越谷市,大字袋山１４９０番地２エムハイツ２０２,,11,222,3430032,,,,,,,2022-06-30,1,,,,,アリガトウ,0
299,2040001124024,新規,0,2022-06-30,2022-06-30,株式会社ライムグリーン・フォレスト,,株式会社,千葉県,千葉市若葉区,加曽利町９６４番地２１,,12,104,2640017,,,,,,,2022-06-30,1,,,,,ライムグリーンフォレスト,0
300,2040001124040,新規,0,2022-06-30,2022-06-30,株式会社Ｌｅｏｎｅ,,株式会社,千葉県,船橋市,旭町１丁目２２番６４号,,12,204,2730041,,,,,,,2022-06-30,1,,,,,レオーネ,0
301,2040001124049,新規,0,2022-06-30,2022-06-30,株式会社Ｓｃｒｉｐｐｓ,,株式会社,千葉県,成田市,橋賀台１丁目１５－２,,12,211,2860037,,,,,,,2022-06-30,1,,,,,スクリプス,0
302,2040003020353,新規,0,2022-06-30,2022-06-30,レプタ合同会社,,合同会社,千葉県,君津市,箕輪１１６３番地１,,12,225,2920453,,,,,,,2022-06-30,1,,,,,レプタ,0
303,2050001051300,新規,0,2022-06-30,2022-06-30,ｃａｎ　ｗｏｏｄ株式会社,,株式会社,茨城県,つくば市,天久保３丁目１２－５ｔａｒａｓｔｅｌｌａ１Ｆ,,08,220,3050005,,,,,,,2022-06-30,1,,,,,キャンウッド,0
305,2050005013098,新規,0,2022-06-30,2022-06-30,社会福祉法人さと山,,その他の設立登記法人,茨城県,つくば市,谷田部７６０番地,,08,220,3050861,,,,,,,2022-06-30,1,,,,,サトヤマ,0
312,2080001025045,新規,0,2022-06-30,2022-06-30,株式会社トレードマスター,,株式会社,静岡県,静岡市清水区,村松３０８番地の１８,,22,103,4240926,,,,,,,2022-06-30,1,,,,,トレードマスター,0
326,2120001247023,新規,0,2022-06-30,2022-06-30,澳利堅株式会社,,株式会社,大阪府,大阪市住吉区,苅田１丁目１５番２７号,,27,120,5580011,,,,,,,2022-06-30,1,,,,,オウリケン,0
327,2120001247056,新規,0,2022-06-30,2022-06-30,株式会社Ｐｌｕｓ　Ｕｌｔｒａ,,株式会社,大阪府,大阪市浪速区,日本橋４丁目１５番９号,,27,111,5560005,,,,,,,2022-06-30,1,,,,,プルスウルトラ,0
332,2120105009583,新規,0,2022-06-30,2022-06-30,一般社団法人幸せな身体づくり協会,,その他の設立登記法人,大阪府,堺市堺区,一条通１５－１５－３０６,,27,141,5900048,,,,,,,2022-06-30,1,,,,,シアワセナカラダヅクリキョウカイ,0
338,2130001072040,新規,0,2022-06-30,2022-06-30,株式会社ブレス・マーゴ,,株式会社,京都府,八幡市,川口高原３番３号,,26,210,6130851,,,,,,,2022-06-30,1,,,,,ブレスマーゴ,0
339,2130001072098,新規,0,2022-06-30,2022-06-30,株式会社ＡＩＲＩＳ,,株式会社,京都府,京都市西京区,桂御所町１番地２４パークシティ桂ジオ１３１号,,26,111,6158087,,,,,,,2022-06-30,1,,,,,アイリス,0
340,2130003008034,新規,0,2022-06-30,2022-06-30,合同会社岡屋,,合同会社,京都府,京都市伏見区,深草ヲカヤ町１７－１７,,26,109,6128403,,,,,,,2022-06-30,1,,,,,ヲカヤ,0
346,2140001126555,新規,0,2022-06-30,2022-06-30,株式会社タカエ技研,,株式会社,兵庫県,神戸市北区,ひよどり台３丁目１０番地１３棟３０３号,,28,109,6511123,,,,,,,2022-06-30,1,,,,,タカエギケン,0
347,2140001126563,新規,0,2022-06-30,2022-06-30,株式会社創生アドバイザリー,,株式会社,兵庫県,宝塚市,仁川高丸２丁目２０－４,,28,214,6650063,,,,,,,2022-06-30,1,,,,,ソウセイアドバイザリー,0
351,2150001025657,新規,0,2022-06-30,2022-06-30,株式会社Ｔ，ｓ　ｖｉｖｅ,,株式会社,奈良県,奈良市,帝塚山６丁目７番１２８号,,29,201,6310062,,,,,,,2022-06-30,1,,,,,ティーズヴィヴ,0
354,2170003001745,新規,0,2022-06-30,2022-06-30,合同会社ミニマルケア,,合同会社,和歌山県,橋本市,清水２９番地の２,,30,203,6480041,,,,,,,2022-06-30,1,,,,,ミニマルケア,0
357,2180001151814,新規,0,2022-06-30,2022-06-30,株式会社Ｕｎｉｔｅ,,株式会社,愛知県,名古屋市港区,木場町２番地の５６スペリアシティ名南アネックスＩ１０６号,00127052,23,111,4550021,,,,,,,2022-06-30,1,,,,,ユナイト,0
358,2180001151921,新規,0,2022-06-30,2022-06-30,株式会社船徳商店,,株式会社,愛知県,江南市,布袋下山町南２１番地,,23,217,4838148,,,,,,,2022-06-30,1,,,,,フナトクショウテン,0
360,2180003023978,新規,0,2022-06-30,2022-06-30,合同会社ｔｗｉｃａｐ,,合同会社,愛知県,名古屋市千種区,本山町３丁目１３番地,,23,101,4640036,,,,,,,2022-06-30,1,,,,,ツウィキャップ,0
382,2240001059992,新規,0,2022-06-30,2022-06-30,門太堂本舗株式会社,,株式会社,広島県,福山市,緑町２番３８－１１０７号,,34,207,7200804,,,,,,,2022-06-30,1,,,,,モンタドウホンポ,0
395,2290001098037,新規,0,2022-06-30,2022-06-30,ＮＯＢＬＥ株式会社,,株式会社,福岡県,福岡市博多区,博多駅東３丁目６番３３,,40,132,8120013,,,,,,,2022-06-30,1,,,,,ノーブル,0
396,2290001098094,新規,0,2022-06-30,2022-06-30,株式会社ＷＷＴ,,株式会社,福岡県,福岡市東区,箱崎５丁目１１番２－７０７号,,40,131,8120053,,,,,,,2022-06-30,1,,,,,ダブリューダブリューティー,0
399,2290003012648,新規,0,2022-06-30,2022-06-30,合同会社ラヴィケア,,合同会社,福岡県,糟屋郡志免町,南里４丁目８番１３‐８０５号,,40,343,8112207,,,,,,,2022-06-30,1,,,,,ラヴィケア,0
400,2290003012672,新規,0,2022-06-30,2022-06-30,マイクログリッド広川合同会社,,合同会社,福岡県,八女市,吉田１６４５番地４,,40,210,8340006,,,,,,,2022-06-30,1,,,,,マイクログリッドヒロカワ,0
401,2290003012680,新規,0,2022-06-30,2022-06-30,合同会社ヤマミカ,,合同会社,福岡県,嘉麻市,大隈１７９番地２,,40,227,8200304,,,,,,,2022-06-30,1,,,,,ヤマミカ,0
408,2320001019162,新規,0,2022-06-30,2022-06-30,株式会社中川工業Ｇｏｏｄ　ｗｏｏｄ　ｌｉｆｅ,,株式会社,大分県,大分市,大字中尾１１４１番地の１２,,44,201,8700862,,,,,,,2022-06-30,1,,,,,ナカガワコウギョウグッドウッドライフ,0
431,2430001086927,新規,0,2022-06-30,2022-06-30,株式会社倶知安ｈａｒｖｅｓｔ,,株式会社,北海道,虻田郡倶知安町,字高見２５８番地,,01,400,0440065,,,,,,,2022-06-30,1,,,,,クッチャンハーヴェスト,0
432,2430001086935,新規,0,2022-06-30,2022-06-30,ヨーネット株式会社,,株式会社,北海道,札幌市東区,北二十三条東２２丁目６番１号サンハイツ１０１号,,01,103,0650023,,,,,,,2022-06-30,1,,,,,ヨーネット,0
434,2430003014051,新規,0,2022-06-30,2022-06-30,合同会社Ｍｔ．ｏｋｕ,,合同会社,北海道,札幌市東区,北三十七条東１０丁目２番１５号,,01,103,0070837,,,,,,,2022-06-30,1,,,,,マウントーク,0
445,2700150110617,新規,0,2022-06-30,2022-06-30,Ｎｏｒｄｅｕｓ　Ｌｉｍｉｔｅｄ,,外国会社等,,,,,,,,３ｒｄ　Ｆｌｏｏｒ，　Ｋｉｌｍｏｒｅ　Ｈｏｕｓｅ，　Ｐａｒｋ　Ｌａｎｅ，　Ｓｐｅｎｃｅｒ　Ｄｏｃｋ，　Ｄｕｂｌｉｎ　１,,,,,,2022-06-30,1,,,,,ノルデウスリミテツド,0
450,3010001227670,新規,0,2022-06-30,2022-06-30,株式会社アメニティ新聞社,,株式会社,東京都,千代田区,神田須田町１丁目２６番２号,,13,101,1010041,,,,,,,2022-06-30,1,,,,,アメニティシンブンシャ,0
451,3010001227687,新規,0,2022-06-30,2022-06-30,株式会社ＹＳＫ７,,株式会社,東京都,千代田区,麹町１丁目６番地９,,13,101,1020083,,,,,,,2022-06-30,1,,,,,ワイエスケーセブン,0
452,3010001227712,新規,0,2022-06-30,2022-06-30,株式会社ＡｔｏｒｉＥ,,株式会社,東京都,千代田区,外神田４丁目１４－１秋葉原ＵＤＸ４Ｆ、ＬＩＦＯＲＫ、ＡＫＩＨＡＢＲＡ、Ｒ０４,,13,101,1010021,,,,,,,2022-06-30,1,,,,,アトリー,0
456,3010003037952,新規,0,2022-06-30,2022-06-30,合同会社リニューアブルシステム１１号,,合同会社,東京都,千代田区,五番町６番地２ＯＡＧ税理士法人内,,13,101,1020076,,,,,,,2022-06-30,1,,,,,リニューアブルシステムジュウイチゴウ,0
464,3010401168226,新規,0,2022-06-30,2022-06-30,ＢＥＳＡＮＴＥ株式会社,,株式会社,東京都,港区,麻布十番１丁目７－１ヨーロッパハウス４Ｆ,,13,103,1060045,,,,,,,2022-06-30,1,,,,,ビサンテ,0
465,3010401168250,新規,0,2022-06-30,2022-06-30,株式会社緑咲,,株式会社,東京都,港区,西新橋３丁目１４番８－１４０３号,,13,103,1050003,,,,,,,2022-06-30,1,,,,,ミドリサキ,0
468,3010403027999,新規,0,2022-06-30,2022-06-30,Ｒｅｄ　Ｄｏｏｒ合同会社,,合同会社,東京都,港区,芝浦４丁目２０番２－３０４号,,13,103,1080023,,,,,,,2022-06-30,1,,,,,レッドドア,0
484,3011001148411,新規,0,2022-06-30,2022-06-30,株式会社ＤｒｉｖｅｎＸ,,株式会社,東京都,渋谷区,恵比寿１丁目１５番９号日宝恵比寿ビル４０３,,13,113,1500013,,,,,,,2022-06-30,1,,,,,ドリブンエックス,0
485,3011003014917,新規,0,2022-06-30,2022-06-30,モリスペクト合同会社,,合同会社,東京都,渋谷区,渋谷２丁目１９－１５宮益坂ビルディング６０９,,13,113,1500002,,,,,,,2022-06-30,1,,,,,モリスペクト,0
486,3011003014933,新規,0,2022-06-30,2022-06-30,ライフイズライフ合同会社,,合同会社,東京都,渋谷区,東１丁目１０番６号,,13,113,1500011,,,,,,,2022-06-30,1,,,,,ライフイズライフ,0
490,3011101099380,新規,0,2022-06-30,2022-06-30,株式会社ＯＦＦＬＩＮＥ,,株式会社,東京都,新宿区,舟町７舟町ビル１Ｆ,,13,104,1600006,,,,,,,2022-06-30,1,,,,,オフライン,0
494,3011105010310,新規,0,2022-06-30,2022-06-30,一般財団法人田中角栄平和祈念財団,,その他の設立登記法人,東京都,新宿区,馬場下町６２番地１８早稲田武蔵野ビル５Ｆ,,13,104,1620045,,,,,,,2022-06-30,1,,,,,タナカカクエイヘイワキネンザイダン,0
495,3011201023918,新規,0,2022-06-30,2022-06-30,株式会社ＣＯＮＮＥＣＴＥＤＧＥ,,株式会社,東京都,中野区,上高田１丁目１番３８号,,13,114,1640002,,,,,,,2022-06-30,1,,,,,コネクテッジ,0
499,3011501028204,新規,0,2022-06-30,2022-06-30,株式会社ＮＡＫＡＧＡＷＡ,,株式会社,東京都,荒川区,東日暮里１丁目９番７号,,13,118,1160014,,,,,,,2022-06-30,1,,,,,ナカガワ,0
508,3013303006197,新規,0,2022-06-30,2022-06-30,合同会社エナジー,,合同会社,東京都,豊島区,池袋本町１丁目４４－６,,13,116,1700011,,,,,,,2022-06-30,1,,,,,エナジー,0
509,3013303006214,新規,0,2022-06-30,2022-06-30,合同会社イノベーション,,合同会社,東京都,豊島区,東池袋１丁目３４番５号,,13,116,1700013,,,,,,,2022-06-30,1,,,,,イノベーション,0
513,3020001147109,新規,0,2022-06-30,2022-06-30,きずな株式会社,,株式会社,神奈川県,横浜市栄区,長沼町５４７番地の１０,,14,115,2440841,,,,,,,2022-06-30,1,,,,,キズナ,0
514,3020001147133,新規,0,2022-06-30,2022-06-30,株式会社共立,,株式会社,神奈川県,川崎市高津区,子母口２３８番地８,,14,134,2130023,,,,,,,2022-06-30,1,,,,,キョウリツ,0
523,3021003011871,新規,0,2022-06-30,2022-06-30,ペガサス合同会社,,合同会社,神奈川県,逗子市,逗子６丁目４－２２サークル６Ｅ,,14,208,2490006,,,,,,,2022-06-30,1,,,,,ペガサス,0
530,3030001148931,新規,0,2022-06-30,2022-06-30,株式会社シゲ・アンド・アソシエイツ,,株式会社,埼玉県,坂戸市,元町２番２号,,11,239,3500228,,,,,,,2022-06-30,1,,,,,シゲアンドアソシエイツ,0
538,3040001124031,新規,0,2022-06-30,2022-06-30,株式会社ベガ,,株式会社,千葉県,柏市,根戸４１４番地６５,,12,217,2770831,,,,,,,2022-06-30,1,,,,,ベガ,0
540,3040003020352,新規,0,2022-06-30,2022-06-30,合同会社ＴＭＲ,,合同会社,千葉県,旭市,ニの８５６番地,,12,215,2892504,,,,,,,2022-06-30,1,,,,,ティーエムアール,0
541,3050003006648,新規,0,2022-06-30,2022-06-30,合同会社大人検索,,合同会社,茨城県,つくば市,吾妻２丁目５番地１つくば市産業振興センター１Ｆ,,08,220,3050031,,,,,,,2022-06-30,1,,,,,,0
548,3070001039383,新規,0,2022-06-30,2022-06-30,駅南タイヤ株式会社,,株式会社,群馬県,吾妻郡中之条町,大字伊勢町１７番地１,,10,421,3770423,,,,,,,2022-06-30,1,,,,,エキナンタイヤ,0
550,3080001025044,新規,0,2022-06-30,2022-06-30,株式会社Ｌａ　Ｅｓｍｅｒａｌｄａ,,株式会社,静岡県,静岡市駿河区,中吉田１０番６２－１０４号,,22,102,4228001,,,,,,,2022-06-30,1,,,,,ラエスメラルダ,0
554,3090001017643,新規,0,2022-06-30,2022-06-30,クボタフルーツ株式会社,,株式会社,山梨県,山梨市,七日市場７５８番地,,19,205,4050007,,,,,,,2022-06-30,1,,,,,クボタフルーツ,0
555,3100001035478,新規,0,2022-06-30,2022-06-30,株式会社石井金属,,株式会社,長野県,長野市,松代町東寺尾２９７１番地１,,20,201,3811225,,,,,,,2022-06-30,1,,,,,イシイキンゾク,0
563,3120001247022,新規,0,2022-06-30,2022-06-30,大阪東誠貿易株式会社,,株式会社,大阪府,大阪市中央区,松屋町住吉５番１５－７０３号,,27,128,5400017,,,,,,,2022-06-30,1,,,,,オオサカトウセイボウエキ,0
564,3120001247030,新規,0,2022-06-30,2022-06-30,桃源株式会社,,株式会社,大阪府,大阪市淀川区,西宮原２丁目６番１６－１０２３号,,27,123,5320004,,,,,,,2022-06-30,1,,,,,トウゲン,0
572,3120103004750,新規,0,2022-06-30,2022-06-30,御和理合同会社,,合同会社,大阪府,阪南市,下出６８５番地の２,,27,232,5990202,,,,,,,2022-06-30,1,,,,,オニギリ,0
578,3130001072106,新規,0,2022-06-30,2022-06-30,株式会社Ｗ　ｓｅｌｅｃｔ,,株式会社,京都府,京都市山科区,日ノ岡鴨土町２４番地,,26,110,6078495,,,,,,,2022-06-30,1,,,,,ダブルセレクト,0
589,3140001126570,新規,0,2022-06-30,2022-06-30,株式会社ケージーワイ,,株式会社,兵庫県,神戸市長田区,梅ケ香町２丁目１番２８号,,28,106,6530021,,,,,,,2022-06-30,1,,,,,ケージーワイ,0
591,3140005026222,新規,0,2022-06-30,2022-06-30,一般社団法人ＣＯｓ,,その他の設立登記法人,兵庫県,豊岡市,寿町７番３号,,28,209,6680024,,,,,,,2022-06-30,1,,,,,シーオーズ,0
593,3180001151961,新規,0,2022-06-30,2022-06-30,株式会社ＬＡＮＤ,,株式会社,愛知県,名古屋市中区,錦３丁目１３番２５号,,23,106,4600003,,,,,,,2022-06-30,1,,,,,ランド,0
611,3290001098069,新規,0,2022-06-30,2022-06-30,株式会社レフバン,,株式会社,福岡県,福岡市博多区,博多駅前２丁目１９番１７号トーカン博多第５ビル３１２号室,,40,132,8120011,,,,,,,2022-06-30,1,,,,,レフバン,0
618,3330001029878,新規,0,2022-06-30,2022-06-30,株式会社富合商事,,株式会社,熊本県,熊本市南区,富合町釈迦堂４４８,,43,104,8614144,,,,,,,2022-06-30,1,,,,,トミアイショウジ,0
620,3340001024845,新規,0,2022-06-30,2022-06-30,つなぐ株式会社,,株式会社,鹿児島県,伊佐市,大口小木原４０４番地１,,46,224,8952631,,,,,,,2022-06-30,1,,,,,ツナグ,0
644,3430001086926,新規,0,2022-06-30,2022-06-30,株式会社Ｔ‐ＬＩＦＥ,,株式会社,北海道,札幌市北区,北十四条西３丁目２番２１号小池ビル４階,,01,102,0010014,,,,,,,2022-06-30,1,,,,,ティーライフ,0
645,3430001086975,新規,0,2022-06-30,2022-06-30,株式会社コンたくと,,株式会社,北海道,三笠市,本郷町６６８番地２,,01,222,0682161,,,,,,,2022-06-30,1,,,,,コンタクト,0
655,3480001011763,新規,0,2022-06-30,2022-06-30,株式会社クラシル,,株式会社,徳島県,徳島市,川内町中島１２７番地の１ウィルコート川内Ｂ－２,,36,201,7710143,,,,,,,2022-06-30,1,,,,,クラシル,0
666,4010001227686,新規,0,2022-06-30,2022-06-30,株式会社ＹＳＫ６,,株式会社,東京都,千代田区,麹町１丁目６番地９,,13,101,1020083,,,,,,,2022-06-30,1,,,,,ワイエスケーシックス,0
667,4010001227711,新規,0,2022-06-30,2022-06-30,株式会社Ｓｅｃｏｎｄ　Ｓｕｎ,,株式会社,東京都,中央区,銀座１丁目１２－４Ｎ＆ＥＢＬＤ．７階,,13,102,1040061,,,,,,,2022-06-30,1,,,,,セカンドサン,0
668,4010001227728,新規,0,2022-06-30,2022-06-30,株式会社Ｎｅｘｔ　Ｏｐｔｉｏｎ,,株式会社,東京都,千代田区,富士見１丁目３－１１富士見デュープレックスＢ’ｓ４Ｆ,,13,101,1020071,,,,,,,2022-06-30,1,,,,,ネクストオプション,0
681,4010401168217,新規,0,2022-06-30,2022-06-30,株式会社ＢＥＦＯＲＴ,,株式会社,東京都,港区,六本木７丁目１１番９号１階,,13,103,1060032,,,,,,,2022-06-30,1,,,,,ビフォート,0
682,4010401168241,新規,0,2022-06-30,2022-06-30,株式会社マテリア,,株式会社,東京都,港区,六本木４丁目３番１１号六本木ユニハウス内,,13,103,1060032,,,,,,,2022-06-30,1,,,,,マテリア,0
683,4010401168266,新規,0,2022-06-30,2022-06-30,株式会社鬼の担々麺,00127051,株式会社,東京都,港区,芝大門１丁目１５番１０号,,13,103,1050012,,,,,,,2022-06-30,1,,,,,オニノタンタンメン,0
684,4010403027998,新規,0,2022-06-30,2022-06-30,Ｒｅｃｒｕｉｔ　Ｃｏｎｓｕｌｔｉｎｇ合同会社,,合同会社,東京都,港区,南青山２丁目２番１５号,,13,103,1070062,,,,,,,2022-06-30,1,,,,,リクルートコンサルティング,0
688,4010601061403,新規,0,2022-06-30,2022-06-30,Ｋｏｕｚｏ株式会社,,株式会社,東京都,墨田区,緑３丁目８番１２号,,13,107,1300021,,,,,,,2022-06-30,1,,,,,コウゾウ,0
689,4010603009615,新規,0,2022-06-30,2022-06-30,Ｍｉｎａｔｏ　Ｔｅｃｈｎｏｌｏｇｙ　Ｓｏｌｕｔｉｏｎｓ合同会社,,合同会社,東京都,江東区,有明２丁目１－３－２５０６号,,13,108,1350063,,,,,,,2022-06-30,1,,,,,ミナトテクノソリューションズ,0
693,4010701042880,新規,0,2022-06-30,2022-06-30,株式会社エグザトラスト,,株式会社,東京都,品川区,西品川３丁目１９番６号リビングライフ大崎ビル,,13,109,1410033,,,,,,,2022-06-30,1,,,,,エグザトラスト,0
697,4010901051137,新規,0,2022-06-30,2022-06-30,株式会社グリーンプロジェクト,,株式会社,東京都,世田谷区,世田谷２丁目４－８,,13,112,1540017,,,,,,,2022-06-30,1,,,,,グリーンプロジャクト,0
699,4010903007491,新規,0,2022-06-30,2022-06-30,合同会社玄葉社,,合同会社,東京都,世田谷区,成城２丁目１７番１３号,,13,112,1570066,,,,,,,2022-06-30,1,,,,,ゲンヨウシャ,0
707,4011001148385,新規,0,2022-06-30,2022-06-30,株式会社ＷｉｔｈＫ,,株式会社,東京都,渋谷区,千駄ヶ谷３丁目６１番７号,,13,113,1510051,,,,,,,2022-06-30,1,,,,,ウィズケー,0
708,4011001148435,新規,0,2022-06-30,2022-06-30,ＪＲＭ株式会社,,株式会社,東京都,渋谷区,松濤１丁目１２番８号１０３,,13,113,1500046,,,,,,,2022-06-30,1,,,,,ジェイアールエム,0
711,4011103011895,新規,0,2022-06-30,2022-06-30,合同会社ＳＴＡＢＬＥＮＴ,,合同会社,東京都,新宿区,西五軒町８－１７岡村ビルＢ１・５号室,,13,104,1620812,,,,,,,2022-06-30,1,,,,,ステーブレント,0
712,4011103011912,新規,0,2022-06-30,2022-06-30,南青山５丁目開発合同会社,,合同会社,東京都,新宿区,四谷４丁目３２番８号ＹＫＢサニービル６階,,13,104,1600004,,,,,,,2022-06-30,1,,,,,ミナミアオヤマゴチョウメカイハツ,0
718,4012401039356,新規,0,2022-06-30,2022-06-30,株式会社アールラボ,,株式会社,東京都,武蔵野市,西久保１丁目５０－１１,,13,203,1800013,,,,,,,2022-06-30,1,,,,,アールラボ,0
723,4013301049288,新規,0,2022-06-30,2022-06-30,頑石ＲＯＣＫ株式会社,,株式会社,東京都,豊島区,池袋４丁目２９－１１トウセン池袋ビル０６０６,,13,116,1710014,,,,,,,2022-06-30,1,,,,,ガンセキロック,0
724,4013301049305,新規,0,2022-06-30,2022-06-30,栄盛国際株式会社,,株式会社,東京都,豊島区,高田３丁目３－１６－２１０,,13,116,1710033,,,,,,,2022-06-30,1,,,,,エイセイコクサイ,0
725,4013301049321,新規,0,2022-06-30,2022-06-30,株式会社ユタカ,,株式会社,東京都,豊島区,北大塚１丁目２番１３号,,13,116,1700004,,,,,,,2022-06-30,1,,,,,ユタカ,0
726,4013303006213,新規,0,2022-06-30,2022-06-30,合同会社サクセス,,合同会社,東京都,豊島区,上池袋１丁目２４－１７,,13,116,1700012,,,,,,,2022-06-30,1,,,,,サクセス,0
731,4020001147099,新規,0,2022-06-30,2022-06-30,株式会社ビズ,,株式会社,神奈川県,横浜市都筑区,南山田３丁目１７番３号,,14,118,2240029,,,,,,,2022-06-30,1,,,,,ビズ,0
735,4021001076379,新規,0,2022-06-30,2022-06-30,株式会社カトマサ,,株式会社,神奈川県,座間市,相模が丘４丁目２０番６号,,14,216,2520001,,,,,,,2022-06-30,1,,,,,カトマサ,0
739,4030001148914,新規,0,2022-06-30,2022-06-30,株式会社早川ビルサービス,,株式会社,埼玉県,鴻巣市,筑波２丁目２番１１号,,11,217,3690114,,,,,,,2022-06-30,1,,,,,ハヤカワビルサービス,0
753,4070001039390,新規,0,2022-06-30,2022-06-30,株式会社清和エステート,,株式会社,群馬県,前橋市,千代田町２丁目４番１４号,,10,201,3710022,,,,,,,2022-06-30,1,,,,,セイワエステート,0
758,4100001035477,新規,0,2022-06-30,2022-06-30,株式会社柏屋企画,,株式会社,長野県,佐久市,望月４２１番地７,,20,217,3842202,,,,,,,2022-06-30,1,,,,,カシワヤキカク,0
770,4120001246980,新規,0,2022-06-30,2022-06-30,株式会社大宇旅行,,株式会社,大阪府,大阪市東淀川区,柴島３丁目９番７号,,27,114,5330024,,,,,,,2022-06-30,1,,,,,ダイウリョコウ,0
771,4120001247062,新規,0,2022-06-30,2022-06-30,株式会社ＬＨＲ,,株式会社,大阪府,大阪市東住吉区,鷹合１丁目１５番２６号,,27,121,5460014,,,,,,,2022-06-30,1,,,,,エルエイチアール,0
782,4120005023014,新規,0,2022-06-30,2022-06-30,一般社団法人ＩＭＲＳ,,その他の設立登記法人,大阪府,寝屋川市,香里本通町５番５－３０４号,,27,215,5720082,,,,,,,2022-06-30,1,,,,,アイエムアールエス,0
791,4130001072096,新規,0,2022-06-30,2022-06-30,株式会社ワンアップ,,株式会社,京都府,京都市右京区,山ノ内苗町１－８内外ビル４Ｆ,,26,108,6150074,,,,,,,2022-06-30,1,,,,,ワンアップ,0
800,4140001126553,新規,0,2022-06-30,2022-06-30,株式会社ＴＯ　ＴＨＥ　ＴＡＢＬＥ,,株式会社,兵庫県,姫路市,井ノ口４５０番地７２,,28,201,6700983,,,,,,,2022-06-30,1,,,,,トゥーザテーブル,0
804,4140003017866,新規,0,2022-06-30,2022-06-30,合同会社ｅｎｓｅｍｂｌｅ,,合同会社,兵庫県,姫路市,香寺町恒屋１５４２番地１,,28,201,6792165,,,,,,,2022-06-30,1,,,,,アンサンブル,0
809,4160003002610,新規,0,2022-06-30,2022-06-30,黄門市長合同会社,,合同会社,滋賀県,湖南市,岩根３７５番地１９,,25,211,5203252,,,,,,,2022-06-30,1,,,,,コウモンシチョウ,0
812,4180001151754,新規,0,2022-06-30,2022-06-30,株式会社ソリノ,,株式会社,愛知県,一宮市,光明寺字天王裏４－６,,23,203,4910135,,,,,,,2022-06-30,1,,,,,ソリノ,0
813,4180001151928,新規,0,2022-06-30,2022-06-30,株式会社永野企画,,株式会社,愛知県,名古屋市中区,松原１丁目１２番９号,,23,106,4600017,,,,,,,2022-06-30,1,,,,,ナガノキカク,0
814,4180001151944,新規,0,2022-06-30,2022-06-30,Ｗｅｌｆｅｃｋ株式会社,,株式会社,愛知県,名古屋市中川区,南脇町３丁目４３番地ベルカーサ南脇２０１号,,23,110,4540817,,,,,,,2022-06-30,1,,,,,ウェルフック,0
815,4180001151969,新規,0,2022-06-30,2022-06-30,株式会社タカラテクノ,,株式会社,愛知県,名古屋市守山区,四軒家２丁目５２５番地,,23,113,4630034,,,,,,,2022-06-30,1,,,,,タカラテクノ,0
818,4180003023992,新規,0,2022-06-30,2022-06-30,合同会社ネクストピース,,合同会社,愛知県,春日井市,如意申町６丁目１２番地２５,,23,206,4860918,,,,,,,2022-06-30,1,,,,,ネクストピース,0
841,4260003003961,新規,0,2022-06-30,2022-06-30,合同会社ヨット,,合同会社,岡山県,岡山市北区,富町１丁目１６番５号,,33,101,7000031,,,,,,,2022-06-30,1,,,,,ヨット,0
848,4290001098076,新規,0,2022-06-30,2022-06-30,株式会社ｍｏｎｏｈａ,,株式会社,福岡県,福岡市早良区,室見２丁目１６番２５－１４０２号ラフィーネグラン室見,,40,137,8140015,,,,,,,2022-06-30,1,,,,,モノハ,0
849,4320001019160,新規,0,2022-06-30,2022-06-30,株式会社ル・メルシット,,株式会社,大分県,中津市,大字上宮永１０２１番地８,,44,203,8710027,,,,,,,2022-06-30,1,,,,,ルメルシット,0
850,4330001029877,新規,0,2022-06-30,2022-06-30,株式会社本田屋,,株式会社,熊本県,熊本市東区,東町２丁目１番２号,,43,102,8620901,,,,,,,2022-06-30,1,,,,,ホンダヤ,0
852,4330003009431,新規,0,2022-06-30,2022-06-30,ＳＯＷＡＫＡ合同会社,,合同会社,熊本県,菊池郡大津町,大字大津１９２４－１３,,43,403,8691233,,,,,,,2022-06-30,1,,,,,ソワカ,0
878,4430001086958,新規,0,2022-06-30,2022-06-30,ＣＦＭホールディングス株式会社,,株式会社,北海道,札幌市中央区,北三条西４丁目１番地１,,01,101,0600003,,,,,,,2022-06-30,1,,,,,シーエフエムホールディングス,0
896,5010003038024,新規,0,2022-06-30,2022-06-30,合同会社ＣＨＲ,,合同会社,東京都,中央区,晴海３丁目１３番２号１００８,,13,102,1040053,,,,,,,2022-06-30,1,,,,,シーエイチアール,0
907,5010405021107,新規,0,2022-06-30,2022-06-30,一般社団法人学生サポートラボ,,その他の設立登記法人,東京都,港区,東新橋１丁目６番３号ザロイヤルパークホテルアイコニック東京汐留２４Ｆ,,13,103,1050021,,,,,,,2022-06-30,1,,,,,ガクセイサポートラボ,0
908,5010503006637,新規,0,2022-06-30,2022-06-30,合同会社ＨＩＦＰ,,合同会社,東京都,台東区,上野３丁目１６番２号,,13,106,1100005,,,,,,,2022-06-30,1,,,,,エイチアイエフピー,0
912,5010603009614,新規,0,2022-06-30,2022-06-30,Ｍｉｒａｃｌｅｓ合同会社,,合同会社,東京都,墨田区,太平３丁目１６番４号,,13,107,1300012,,,,,,,2022-06-30,1,,,,,ミラクルズ,0
926,5011003014898,新規,0,2022-06-30,2022-06-30,ＧＩＡＴＨ合同会社,,合同会社,東京都,渋谷区,道玄坂１丁目１０番８号渋谷道玄坂東急ビル２Ｆ－Ｃ,,13,113,1500043,,,,,,,2022-06-30,1,,,,,ジアス,0
927,5011003014923,新規,0,2022-06-30,2022-06-30,セレクトカンパニー合同会社,,合同会社,東京都,渋谷区,渋谷１丁目１５－１２ＬＡＩＤＯＵＴＳＨＩＢＵＹＡ２０４,,13,113,1500002,,,,,,,2022-06-30,1,,,,,セレクトカンパニー,0
928,5011003014948,新規,0,2022-06-30,2022-06-30,合同会社ＬＯＣ,,合同会社,東京都,渋谷区,元代々木町１１番地１号田中ビル３０３,,13,113,1510062,,,,,,,2022-06-30,1,,,,,ラストワンチャンス,0
948,5013303006212,新規,0,2022-06-30,2022-06-30,東京国際合同会社,,合同会社,東京都,豊島区,東池袋２丁目６０番８－３０３号,,13,116,1700013,,,,,,,2022-06-30,1,,,,,トウキョウコクサイ,0
950,5020001147123,新規,0,2022-06-30,2022-06-30,株式会社ＬＥＡＰ,,株式会社,神奈川県,横浜市戸塚区,上矢部町２１９１番地６,,14,110,2450053,,,,,,,2022-06-30,1,,,,,,0
951,5020001147131,新規,0,2022-06-30,2022-06-30,株式会社Ｂｒｕｌｌｙ,,株式会社,神奈川県,川崎市川崎区,駅前本町１１番地２川崎フロンティアビル４階,,14,131,2100007,,,,,,,2022-06-30,1,,,,,ブルーリー,0
956,5021001076378,新規,0,2022-06-30,2022-06-30,株式会社一,,株式会社,神奈川県,厚木市,泉町６番７号,,14,212,2430013,,,,,,,2022-06-30,1,,,,,イチ,0
957,5021001076394,新規,0,2022-06-30,2022-06-30,株式会社ＬＩＡ,,株式会社,神奈川県,横須賀市,追浜町３丁目５,,14,201,2370064,,,,,,,2022-06-30,1,,,,,リア,0
963,5030003019666,新規,0,2022-06-30,2022-06-30,合同会社Ｍ‐ｎｅｘｕｓ,,合同会社,埼玉県,川口市,大字伊刈２３８番地の１オーキッドリク２０３号,,11,203,3330865,,,,,,,2022-06-30,1,,,,,エムネクサス,0
964,5030003019699,新規,0,2022-06-30,2022-06-30,Ｈｉｒｏコンサルティング合同会社,,合同会社,埼玉県,川越市,大字寺山５５０番地,,11,201,3500827,,,,,,,2022-06-30,1,,,,,ヒロコンサルティング,0
976,5080101023375,新規,0,2022-06-30,2022-06-30,株式会社創研,,株式会社,静岡県,富士市,瓜島町２０３番地,,22,210,4170057,,,,,,,2022-06-30,1,,,,,ソウケン,0
977,5080103002617,新規,0,2022-06-30,2022-06-30,伊豆クリーン合同会社,,合同会社,静岡県,伊豆市,冷川１５２４－１６４５スカイヒルズＥ棟１０８号,,22,222,4102507,,,,,,,2022-06-30,1,,,,,イズクリーン,0
989,5120001246963,新規,0,2022-06-30,2022-06-30,青藤株式会社,,株式会社,大阪府,大阪市西成区,花園南１丁目６－９,,27,122,5570015,,,,,,,2022-06-30,1,,,,,アオフジ,0
992,5120101065818,新規,0,2022-06-30,2022-06-30,株式会社吉崎電気,00127055,株式会社,大阪府,富田林市,伏山３丁目７番１１号,,27,214,5840061,,,,,,,2022-06-30,1,,,,,ヨシザキデンキ,0
1001,5122001036015,新規,0,2022-06-30,2022-06-30,ＰＯＮｓ株式会社,,株式会社,大阪府,八尾市,本町３丁目４番５号,,27,212,5810003,,,,,,,2022-06-30,1,,,,,ポンズ,0
1005,5130001072104,新規,0,2022-06-30,2022-06-30,株式会社こめ,,株式会社,京都府,京都市伏見区,津知橋町６５番地５,,26,109,6128312,,,,,,,2022-06-30,1,,,,,コメ,0
1013,5140001126552,新規,0,2022-06-30,2022-06-30,ミラベル株式会社,,株式会社,兵庫県,西宮市,上ケ原八番町１４番４０号,,28,204,6620882,,,,,,,2022-06-30,1,,,,,ミラベル,0
1014,5140001126560,新規,0,2022-06-30,2022-06-30,ＨＹ株式会社,,株式会社,兵庫県,西宮市,熊野町１５番２号ミルト熊野２１６,,28,204,6638103,,,,,,,2022-06-30,1,,,,,エイチワイ,0
1015,5140001126577,新規,0,2022-06-30,2022-06-30,株式会社麺の力,,株式会社,兵庫県,三田市,南が丘１丁目５１番２号,,28,219,6691535,,,,,,,2022-06-30,1,,,,,メンノチカラ,0
1029,5180001151968,新規,0,2022-06-30,2022-06-30,デザインのミカタ株式会社,,株式会社,愛知県,愛西市,北河田町郷前７１３番地１,,23,232,4968008,,,,,,,2022-06-30,1,,,,,デザインノミカタ,0
1030,5180001151976,新規,0,2022-06-30,2022-06-30,アキ商会株式会社,,株式会社,愛知県,名古屋市港区,藤高２丁目５番地,,23,111,4550854,,,,,,,2022-06-30,1,,,,,アキショウカイ,0
1055,5290001098050,新規,0,2022-06-30,2022-06-30,株式会社ＥＵＮＨＡ,,株式会社,福岡県,福岡市早良区,小田部３丁目２３番３３号Ａ棟２０３,,40,137,8140032,,,,,,,2022-06-30,1,,,,,エンハ,0
1056,5290001098083,新規,0,2022-06-30,2022-06-30,株式会社ＭｉｒａｉＸ,,株式会社,福岡県,糸島市,波多江４５４－２,,40,230,8191104,,,,,,,2022-06-30,1,,,,,ミライエックス,0
1057,5290001098091,新規,0,2022-06-30,2022-06-30,株式会社エース,,株式会社,福岡県,福岡市博多区,中洲１丁目３番２号３階,,40,132,8100801,,,,,,,2022-06-30,1,,,,,エース,0
1065,5330001029884,新規,0,2022-06-30,2022-06-30,株式会社ＵＰＦＩＥＬＤ,,株式会社,熊本県,菊池郡菊陽町,大字辛川６０７番地４,,43,404,8691107,,,,,,,2022-06-30,1,,,,,アップフィールド,0
1070,5370001048732,新規,0,2022-06-30,2022-06-30,株式会社Ｂｅｅｆｕｌｌ　Ｐｌａｃｅ,,株式会社,宮城県,柴田郡柴田町,槻木上町３丁目１３番２３号,,04,323,9891753,,,,,,,2022-06-30,1,,,,,ビーフルプレイス,0
1073,5380001032925,新規,0,2022-06-30,2022-06-30,ＦＵＫＵＳＨＩＭＡアナヴィオスィ株式会社,,株式会社,福島県,相馬市,馬場野字岩穴前２６３番地,,07,209,9760036,,,,,,,2022-06-30,1,,,,,フクシマアナヴィオスィ,0
1074,5380003005210,新規,0,2022-06-30,2022-06-30,ＢｅＨＳ合同会社,,合同会社,福島県,東白川郡塙町,大字片貝字長久木６０７番地,,07,483,9635522,,,,,,,2022-06-30,1,,,,,ビーエイチエス,0
1087,5420001017913,新規,0,2022-06-30,2022-06-30,株式会社未来丸,,株式会社,青森県,西津軽郡深浦町,大字北金ケ沢字塩見形４０６番地３,,02,323,0382504,,,,,,,2022-06-30,1,,,,,ミライマル,0
1092,5430001086932,新規,0,2022-06-30,2022-06-30,株式会社Ｆｉｒｓｔ,,株式会社,北海道,札幌市中央区,南六条西３丁目１０番地セントラルビル　６１３,,01,101,0640806,,,,,,,2022-06-30,1,,,,,ファースト,0
1093,5430001086940,新規,0,2022-06-30,2022-06-30,株式会社ＭＡＮＨＯＯ,,株式会社,北海道,札幌市東区,北丘珠二条２丁目１４番２０号,,01,103,0070882,,,,,,,2022-06-30,1,,,,,マンホー,0
1111,6010401167893,新規,0,2022-06-30,2022-06-30,株式会社ＶＯＷＬ,,株式会社,東京都,港区,南青山２丁目２－１５ＷｉｎＡｏｙａｍａビルＵＣＦ６３５,,13,103,1070062,,,,,,,2022-06-30,1,,,,,ボウル,0
1112,6010401168165,新規,0,2022-06-30,2022-06-30,ＩＮＴＥＮＳＩＶＥ　ＣＯＮＳＥＮＴ株式会社,,株式会社,東京都,港区,六本木３丁目３番１５号麻布台ＴＳタワー６０２,,13,103,1060032,,,,,,,2022-06-30,1,,,,,インテンシブコンセント,0
1113,6010401168215,新規,0,2022-06-30,2022-06-30,東京ＩＴエンジニア株式会社,,株式会社,東京都,港区,海岸３丁目１５番５－１２０３号,,13,103,1080022,,,,,,,2022-06-30,1,,,,,トウキョウアイティーエンジニア,0
1116,6010403028004,新規,0,2022-06-30,2022-06-30,合同会社ファヴール,,合同会社,東京都,港区,北青山３丁目５番１４号５階,,13,103,1070061,,,,,,,2022-06-30,1,,,,,ファヴール,0
1117,6010505003318,新規,0,2022-06-30,2022-06-30,一般社団法人トラストワース再生医療委員会,,その他の設立登記法人,東京都,台東区,浅草４丁目９番５号,,13,106,1110032,,,,,,,2022-06-30,1,,,,,トラストワースサイセイイリョウイインカイ,0
1119,6010603009621,新規,0,2022-06-30,2022-06-30,合同会社３６,,合同会社,東京都,墨田区,錦糸１丁目１７番１０－３２５号パークタウンＩ,00127050,13,107,1300013,,,,,,,2022-06-30,1,,,,,サーティーシックス,0
1128,6011003014939,新規,0,2022-06-30,2022-06-30,合同会社テックジーナス,,合同会社,東京都,渋谷区,道玄坂１丁目１０番８号渋谷道玄坂東急ビル２Ｆ－Ｃ,,13,113,1500043,,,,,,,2022-06-30,1,,,,,テックジーナス,0
1129,6011003014955,新規,0,2022-06-30,2022-06-30,ホトリフ合同会社,,合同会社,東京都,渋谷区,神宮前６丁目２３番４号桑野ビル２階,,13,113,1500001,,,,,,,2022-06-30,1,,,,,ホトリフ,0
1134,6011103011885,新規,0,2022-06-30,2022-06-30,ＤＩＤＯ合同会社,,合同会社,東京都,新宿区,歌舞伎町２丁目４２番１１－１００５号,,13,104,1600021,,,,,,,2022-06-30,1,,,,,ディド,0
1135,6011201023923,新規,0,2022-06-30,2022-06-30,株式会社東京ピアノ調律,,株式会社,東京都,中野区,中央２丁目３９番１４号,,13,114,1640011,,,,,,,2022-06-30,1,,,,,トウキョウピアノチョウリツ,0
1136,6011203003857,新規,0,2022-06-30,2022-06-30,合同会社Ｓｔｒａｉｇｈｔ‐Ｕｐ,,合同会社,東京都,中野区,上高田１丁目２番５１－８０６号,,13,114,1640002,,,,,,,2022-06-30,1,,,,,ストレイトアップ,0
1146,6020001147106,新規,0,2022-06-30,2022-06-30,株式会社ＲＥＸ,,株式会社,神奈川県,横浜市金沢区,能見台３丁目１１番地９,,14,108,2360057,,,,,,,2022-06-30,1,,,,,レクス,0
1147,6020001147122,新規,0,2022-06-30,2022-06-30,Ｃ＆Ｌ株式会社,,株式会社,神奈川県,横浜市鶴見区,駒岡３丁目６番１０号アジャート駒岡１０５,,14,101,2300071,,,,,,,2022-06-30,1,,,,,シーアンドエル,0
1155,6021001076393,新規,0,2022-06-30,2022-06-30,株式会社Ｒａｉｓｅ,,株式会社,神奈川県,横須賀市,平作３丁目４番１０号,,14,201,2380032,,,,,,,2022-06-30,1,,,,,レイズ,0
1156,6021003011877,新規,0,2022-06-30,2022-06-30,インテリア・プラスター合同会社,,合同会社,神奈川県,秦野市,菩提７５４番地の１２,,14,211,2591302,,,,,,,2022-06-30,1,,,,,インテリアプラスター,0
1168,6030001148912,新規,0,2022-06-30,2022-06-30,株式会社ブラニー,,株式会社,埼玉県,飯能市,大字笠縫３４３番地の４,,11,209,3570045,,,,,,,2022-06-30,1,,,,,ブラニー,0
1169,6030001148929,新規,0,2022-06-30,2022-06-30,株式会社ＳＵＮ,,株式会社,埼玉県,越谷市,千間台東１丁目９番地４インペリアルビル３Ｆ,,11,222,3430042,,,,,,,2022-06-30,1,,,,,サン,0
1173,6030003019665,新規,0,2022-06-30,2022-06-30,合同会社ｔａｍａｇｏ　ｂｏｙ,,合同会社,埼玉県,さいたま市浦和区,本太５丁目２６－１７竹前ビル２Ｆ,,11,107,3300052,,,,,,,2022-06-30,1,,,,,タマゴボーイ,0
1174,6030003019673,新規,0,2022-06-30,2022-06-30,中庸商事合同会社,,合同会社,埼玉県,さいたま市大宮区,堀の内町３丁目４７－２５,,11,103,3300804,,,,,,,2022-06-30,1,,,,,チュウヨウショウジ,0
1178,6040001124004,新規,0,2022-06-30,2022-06-30,株式会社ＳＥＮＴＯ　ＢＲＩＤＧＥ,,株式会社,千葉県,野田市,目吹４０２２番地,,12,208,2780001,,,,,,,2022-06-30,1,,,,,セントブリッジ,0
1179,6040001124029,新規,0,2022-06-30,2022-06-30,株式会社シェリー,,株式会社,千葉県,松戸市,小金原８丁目３１番地の２,,12,207,2700021,,,,,,,2022-06-30,1,,,,,シェリー,0
1180,6040001124045,新規,0,2022-06-30,2022-06-30,株式会社エンネア,,株式会社,千葉県,千葉市美浜区,若葉３丁目１番１８号,,12,106,2610014,,,,,,,2022-06-30,1,,,,,エンネア,0
1181,6040001124053,新規,0,2022-06-30,2022-06-30,株式会社ユズルハ,,株式会社,千葉県,成田市,並木町１４１番地３０,,12,211,2860045,,,,,,,2022-06-30,1,,,,,ユズルハ,0
1188,6070001039380,新規,0,2022-06-30,2022-06-30,株式会社輪,,株式会社,群馬県,太田市,藪塚町２９５２番地１９,,10,205,3792301,,,,,,,2022-06-30,1,,,,,リン,0
1189,6070003004523,新規,0,2022-06-30,2022-06-30,合同会社ミント,,合同会社,群馬県,邑楽郡大泉町,北小泉１丁目２４番１４号,,10,524,3700511,,,,,,,2022-06-30,1,,,,,ミント,0
1190,6070005010008,新規,0,2022-06-30,2022-06-30,社会福祉法人さくら会,,その他の設立登記法人,群馬県,高崎市,引間町７０９番地,,10,202,3703517,,,,,,,2022-06-30,1,,,,,サクラカイ,0
1206,6120001246987,新規,0,2022-06-30,2022-06-30,誠田電気株式会社,,株式会社,大阪府,大阪市生野区,巽北１丁目１番１号３Ｆ－Ｇ,,27,116,5440004,,,,,,,2022-06-30,1,,,,,セイタデンキ,0
1221,6130001072094,新規,0,2022-06-30,2022-06-30,株式会社京都わくわくラボ,,株式会社,京都府,京都市上京区,新町通寺之内下る安楽小路町４２６番地２,,26,102,6020064,,,,,,,2022-06-30,1,,,,,キョウトワクワクラボ,0
1222,6130001072103,新規,0,2022-06-30,2022-06-30,株式会社ｅｎｉｓｕｒｕ,,株式会社,京都府,京田辺市,河原１０－４８,,26,211,6100300,,,,,,,2022-06-30,1,,,,,エニスル,0
1225,6140001126568,新規,0,2022-06-30,2022-06-30,株式会社ＶＥＲＴＥＸ,,株式会社,兵庫県,神戸市須磨区,横尾３丁目１８番地の３,,28,107,6540131,,,,,,,2022-06-30,1,,,,,バーテックス,0
1231,6150001025653,新規,0,2022-06-30,2022-06-30,ムーンスターシステムズ株式会社,,株式会社,奈良県,奈良市,肘塚町１４９－４３,,29,201,6308142,,,,,,,2022-06-30,1,,,,,ムーンスターシステムズ,0
1234,6160003002609,新規,0,2022-06-30,2022-06-30,合同会社Ｌｉｂｅｒｔｅ．Ｂ．Ｂ,,合同会社,滋賀県,大津市,黒津１丁目１番２０号レジュール瀬田１０１,,25,201,5202279,,,,,,,2022-06-30,1,,,,,リベルテビービー,0
1235,6180001151959,新規,0,2022-06-30,2022-06-30,ＳＯＮＡＤＯＲ　ＭＯＴＯＲＳ株式会社,,株式会社,愛知県,名古屋市東区,東桜２丁目３番７号東カン名古屋キャステール１０５２号,,23,102,4610005,,,,,,,2022-06-30,1,,,,,ソナドールモータース,0
1264,6310005008621,新規,0,2022-06-30,2022-06-30,特定非営利活動法人グローカル防災教育支援センター,,その他の設立登記法人,長崎県,長崎市,矢上町２０番６－３０３号,,42,201,8510133,,,,,,,2022-06-30,1,,,,,グローカルボウサイキョウイクシエンセンター,0
1271,6370001048723,新規,0,2022-06-30,2022-06-30,株式会社ＣｒａｚｙＷｏｒｋｓ,,株式会社,宮城県,仙台市太白区,東中田１丁目２４番２４－４０３号,,04,104,9811107,,,,,,,2022-06-30,1,,,,,クレイジーワークス,0
1281,6430001086923,新規,0,2022-06-30,2022-06-30,株式会社北海道・マルカワ,,株式会社,北海道,札幌市清田区,平岡二条１丁目１番１号,,01,110,0040872,,,,,,,2022-06-30,1,,,,,ホッカイドウマルカワ,0
1282,6430001086931,新規,0,2022-06-30,2022-06-30,株式会社ティーフード,,株式会社,北海道,札幌市白石区,栄通１１丁目３－１８栄通１１丁目ビル３階,,01,104,0030021,,,,,,,2022-06-30,1,,,,,ティーフード,0
1285,6430003014056,新規,0,2022-06-30,2022-06-30,合同会社Ｙ’ｓ,,合同会社,北海道,札幌市手稲区,前田五条１４丁目６番１０号,,01,109,0060815,,,,,,,2022-06-30,1,,,,,ワイズ,0
1292,6700150110613,新規,0,2022-06-30,2022-06-30,佛山市森江金属制品有限公司,,外国会社等,,,,,,,,Ｐａｒｔ　１２ｒｄ　ｏｆ　Ｎｏ．３　Ｆａｃｔｏｒｙ，　Ｎｏ．２　Ｒｏａｄ　Ｉｎｄｕｓｔｒｉａｌ　Ｚｏｎｅ　Ｂｉｊｉａｎｇ　Ｃｏｍｍｕｎｉｔｙ，　ＢｅｉＪｉａｏＺｈｅｎ　ＳｈｕｎＤｅＱｕ，　ＦｏＳｈａｎ　Ｃｉｔｙ，　ＧｕａｎＤｏｎｇ　Ｐｒｏｖｉｎｃｅ，　Ｃｈｉｎａ,,,,,,2022-06-30,1,,,,,ブツサンシシンコウキンゾクセイヒンユウゲンコウシ,0
1294,7010001227700,新規,0,2022-06-30,2022-06-30,株式会社ｗｈｉｚ,,株式会社,東京都,中央区,銀座１丁目２２番１１号銀座大竹ビジデンス２Ｆ,,13,102,1040061,,,,,,,2022-06-30,1,,,,,ウィズ,0
1295,7010001227709,新規,0,2022-06-30,2022-06-30,ＡＮＱＩ藝能株式会社,,株式会社,東京都,中央区,入船１丁目９番８号ピエノアーク入船ビル３０１,,13,102,1040042,,,,,,,2022-06-30,1,,,,,アンキゲイノウ,0
1299,7010003037949,新規,0,2022-06-30,2022-06-30,合同会社リニューアブルシステム９号,,合同会社,東京都,千代田区,五番町６番地２ＯＡＧ税理士法人内,,13,101,1020076,,,,,,,2022-06-30,1,,,,,リニューアブルシステムキュウゴウ,0
1300,7010003038014,新規,0,2022-06-30,2022-06-30,歌沫合同会社,,合同会社,東京都,中央区,銀座７丁目１３番６号サガミビル２階,,13,102,1040061,,,,,,,2022-06-30,1,,,,,カマツ,0
1304,7010005035190,新規,0,2022-06-30,2022-06-30,一般社団法人パールホールディングス,,その他の設立登記法人,東京都,千代田区,丸の内３丁目１番１号東京共同会計事務所内,,13,101,1000005,,,,,,,2022-06-30,1,,,,,パールホールディングス,0
1318,7010401168239,新規,0,2022-06-30,2022-06-30,株式会社Ｑｕｅｓｔｉｏｎ　Ｍａｒｋｅｔ,,株式会社,東京都,港区,西新橋１丁目９－５－５０３,,13,103,1050003,,,,,,,2022-06-30,1,,,,,クエスションマーケット,0
1322,7010403027995,新規,0,2022-06-30,2022-06-30,Ｎｏｔｉｏｎ　Ｌａｂｓ　Ｊａｐａｎ合同会社,,合同会社,東京都,港区,元麻布３丁目１番６号,,13,103,1060046,,,,,,,2022-06-30,1,,,,,ノーションラブスジャパン,0
1328,7010603009620,新規,0,2022-06-30,2022-06-30,ＭＭＫ合同会社,,合同会社,東京都,江東区,豊洲３丁目６番８－５０５号,,13,108,1350061,,,,,,,2022-06-30,1,,,,,エムエムケイ,0
1343,7011001148366,新規,0,2022-06-30,2022-06-30,株式会社ビーミヤ,,株式会社,東京都,目黒区,中央町１丁目１４番地９号学芸大学スカイハイツ２１４,,13,110,1520001,,,,,,,2022-06-30,1,,,,,,0
1344,7011001148390,新規,0,2022-06-30,2022-06-30,株式会社ＤＯＯＲ　ＨＯＰＥ　ＰＬＡＮＮＩＮＧ,,株式会社,東京都,渋谷区,代々木４丁目４１－１４ハイツ参宮橋Ｂ１０１,,13,113,1510053,,,,,,,2022-06-30,1,,,,,ドアホーププランニング,0
1349,7011101099377,新規,0,2022-06-30,2022-06-30,株式会社ＥＳＰＥＲＡＮＺＡ,,株式会社,東京都,新宿区,西新宿５丁目５番１号ザ・パークハウス西新宿タワー６０－５８１３号室,,13,104,1600023,,,,,,,2022-06-30,1,,,,,エスペランサ,0
1357,7011701025419,新規,0,2022-06-30,2022-06-30,氷宇株式会社,,株式会社,東京都,江戸川区,北小岩１丁目３番１－５０６号,,13,123,1330051,,,,,,,2022-06-30,1,,,,,ヒョウウ,0
1358,7011703003182,新規,0,2022-06-30,2022-06-30,Ｗｏｒｌｄ　Ｃｏｎｅｘｉｏｎ合同会社,,合同会社,東京都,江戸川区,東葛西５丁目３９番９号ブラン・クラシカ１０１,,13,123,1340084,,,,,,,2022-06-30,1,,,,,ワールドコネクション,0
1371,7020001147071,新規,0,2022-06-30,2022-06-30,ＫＣ　Ｐｈａｒｍａｃｅｕｔｉｃａｌｓ株式会社,,株式会社,神奈川県,横浜市港南区,日野南６丁目１番４号,,14,111,2340055,,,,,,,2022-06-30,1,,,,,ケーシーファーマスーティカル,0
1372,7020001147121,新規,0,2022-06-30,2022-06-30,株式会社アルテックジャパン,,株式会社,神奈川県,横浜市西区,浜松町３６番地,,14,103,2200055,,,,,,,2022-06-30,1,,,,,アルテックジャパン,0
1377,7021001076327,新規,0,2022-06-30,2022-06-30,株式会社ジョブオン,,株式会社,神奈川県,相模原市南区,相模台６丁目１５番９号,,14,153,2520321,,,,,,,2022-06-30,1,,,,,ジョブオン,0
1378,7021001076384,新規,0,2022-06-30,2022-06-30,株式会社アズサ建設,,株式会社,神奈川県,相模原市中央区,上溝１６７０番地１２,,14,152,2520243,,,,,,,2022-06-30,1,,,,,アズサケンセツ,0
1380,7021003011876,新規,0,2022-06-30,2022-06-30,合同会社ＡＬＩＶＥ,,合同会社,神奈川県,厚木市,下川入４４３番地７,,14,212,2430206,,,,,,,2022-06-30,1,,,,,アライブ,0
1381,7021005012550,新規,0,2022-06-30,2022-06-30,一般社団法人湘南スポーツクラブ,,その他の設立登記法人,神奈川県,藤沢市,辻堂太平台１丁目１７番１５号,,14,205,2510044,,,,,,,2022-06-30,1,,,,,ショウナンスポーツクラブ,0
1385,7030003019689,新規,0,2022-06-30,2022-06-30,合同会社スリークレーン,,合同会社,埼玉県,和光市,新倉３丁目１番６０号レーベンハイム和光ヒルズ６０３,,11,229,3510115,,,,,,,2022-06-30,1,,,,,スリークレーン,0
1394,7050003006652,新規,0,2022-06-30,2022-06-30,ＢＡＢＵＮＡ・ＴＲＡＤＩＮＧ合同会社,,合同会社,茨城県,下妻市,小島９７８番地３・５号室,,08,210,3040051,,,,,,,2022-06-30,1,,,,,バブナトレーディング,0
1397,7060001035033,新規,0,2022-06-30,2022-06-30,株式会社田村商事,,株式会社,栃木県,栃木市,新井町１００８番地４,,09,203,3280061,,,,,,,2022-06-30,1,,,,,タムラショウジ,0
1398,7070001039371,新規,0,2022-06-30,2022-06-30,株式会社アゲイン,,株式会社,群馬県,前橋市,川原町２丁目１３番地２メルベーユ３０７号,,10,201,3710046,,,,,,,2022-06-30,1,,,,,アゲイン,0
1406,7100003006606,新規,0,2022-06-30,2022-06-30,あいあい合同会社,,合同会社,長野県,北佐久郡軽井沢町,大字長倉１６８９番地１６,,20,321,3890111,,,,,,,2022-06-30,1,,,,,アイアイ,0
1411,7110003004798,新規,0,2022-06-30,2022-06-30,ＴＥＳＨＩＯ合同会社,,合同会社,新潟県,中魚沼郡津南町,大字下船渡戊４４５番地１階,,15,482,9498201,,,,,,,2022-06-30,1,,,,,テシオ,0
1420,7120001247002,新規,0,2022-06-30,2022-06-30,株式会社ｘ‐３,,株式会社,大阪府,大阪市東成区,玉津３丁目４－９,,27,115,5370023,,,,,,,2022-06-30,1,,,,,エックススリー,0
1421,7120001247010,新規,0,2022-06-30,2022-06-30,宗源精密機械株式会社,,株式会社,大阪府,大阪市東成区,神路４丁目３－１０スターレジデンス新深江８０６号室,,27,115,5370003,,,,,,,2022-06-30,1,,,,,ソウゲンセイミツキカイ,0
1430,7120103004755,新規,0,2022-06-30,2022-06-30,東源合同会社,,合同会社,大阪府,泉佐野市,南中樫井６０５番地,,27,213,5980035,,,,,,,2022-06-30,1,,,,,トウゲン,0
1438,7122001036013,新規,0,2022-06-30,2022-06-30,株式会社Ｓ・Ｋ貨物,,株式会社,大阪府,大東市,三箇５丁目７番２１号,,27,218,5740077,,,,,,,2022-06-30,1,,,,,エスケイカモツ,0
1446,7140001126468,新規,0,2022-06-30,2022-06-30,株式会社ＡＲＳ,,株式会社,兵庫県,神戸市中央区,下山手通５丁目１２番４号,,28,110,6500011,,,,,,,2022-06-30,1,,,,,エーアールエス,0
1447,7140001126567,新規,0,2022-06-30,2022-06-30,ブリラロッソ株式会社,,株式会社,兵庫県,芦屋市,宮塚町１２番１９号,,28,206,6590062,,,,,,,2022-06-30,1,,,,,ブリラロッソ,0
1448,7140001126575,新規,0,2022-06-30,2022-06-30,ラッシュ株式会社,,株式会社,兵庫県,神戸市東灘区,向洋町中５丁目１１番地５０２号棟１２０４号室,,28,101,6580032,,,,,,,2022-06-30,1,,,,,ラッシュ,0
1456,7180001151958,新規,0,2022-06-30,2022-06-30,株式会社ＳＵＧＩＹＡＭＡ,,株式会社,愛知県,豊明市,新田町錦１番地９,,23,229,4701113,,,,,,,2022-06-30,1,,,,,スギヤマ,0
1461,7180305009357,新規,0,2022-06-30,2022-06-30,ＮＰＯ法人幸縁,,その他の設立登記法人,愛知県,刈谷市,井ケ谷町中前田４３番地,,23,210,4480001,,,,,,,2022-06-30,1,,,,,シエン,0
1516,7350005006083,新規,0,2022-06-30,2022-06-30,特定非営利活動法人みやざき有機農業協会,,その他の設立登記法人,宮崎県,児湯郡木城町,大字高城１２２７番の１,,45,404,8840101,,,,,,,2022-06-30,1,,,,,ミヤザキユウキノウギョウキョウカイ,0
1532,7430001086922,新規,0,2022-06-30,2022-06-30,株式会社ｅａ．ｓｔ,,株式会社,北海道,札幌市北区,百合が原２丁目３番１４号,,01,102,0028081,,,,,,,2022-06-30,1,,,,,イースト,0
1533,7430001086930,新規,0,2022-06-30,2022-06-30,鹿野塗装株式会社,,株式会社,北海道,白老郡白老町,東町５丁目５番２号,,01,578,0590904,,,,,,,2022-06-30,1,,,,,シカノトソウ,0
1534,7430001086971,新規,0,2022-06-30,2022-06-30,大観株式会社,,株式会社,北海道,虻田郡ニセコ町,字東山４６番７号,,01,395,0481521,,,,,,,2022-06-30,1,,,,,ダイカン,0
1538,7430003014055,新規,0,2022-06-30,2022-06-30,エイケイアジア合同会社,,合同会社,北海道,札幌市南区,澄川五条１３丁目７番２号,,01,106,0050005,,,,,,,2022-06-30,1,,,,,エイケイアジア,0
1547,7490005006854,新規,0,2022-06-30,2022-06-30,医王山延命寺,,その他の設立登記法人,高知県,南国市,植田１４０５番地,,39,204,7830063,,,,,,,2022-06-30,1,,,,,イオウザンエンメイジ,0
1549,7700150110620,新規,0,2022-06-30,2022-06-30,Ｆ５　Ｎｅｔｗｏｒｋｓ　Ｓｉｎｇａｐｏｒｅ　Ｐｔｅ　Ｌｔｄ,,外国会社等,,,,,,,,５　Ｔｅｍａｓｅｋ　Ｂｏｕｌｅｖａｒｄ　＃０８－０１／０２　Ｓｕｎｔｅｃ　Ｔｏｗｅｒ　Ｆｉｖｅ　Ｓｉｎｇａｐｏｒｅ（０３８９８５）,,,,,,2022-06-30,1,,,,,エフフアイブネツトワークスシンガポールピーテイーイーリミテツド,0
1554,8010001227708,新規,0,2022-06-30,2022-06-30,日本狸製傘株式会社,,株式会社,東京都,中央区,東日本橋２丁目２８番５号５０８,,13,102,1030004,,,,,,,2022-06-30,1,,,,,ニホンタヌキセイサン,0
1555,8010001227732,新規,0,2022-06-30,2022-06-30,株式会社ポラリス・アジア,,株式会社,東京都,千代田区,岩本町１丁目１２番３号,,13,101,1010032,,,,,,,2022-06-30,1,,,,,ポラリスアジア,0
1567,8010401168213,新規,0,2022-06-30,2022-06-30,株式会社北極,,株式会社,東京都,港区,東麻布１丁目２４番６号,,13,103,1060044,,,,,,,2022-06-30,1,,,,,ホッキョク,0
1572,8010405021062,新規,0,2022-06-30,2022-06-30,一般社団法人パラ神奈川ＳＣ,,その他の設立登記法人,東京都,港区,浜松町２丁目２番１５号浜松町ダイヤビル２Ｆ,,13,103,1050013,,,,,,,2022-06-30,1,,,,,パラカナガワエスシー,0
1576,8010601061390,新規,0,2022-06-30,2022-06-30,株式会社ＲＨ，ＩＮＴＥＲＮＡＴＩＯＮＡＬ,,株式会社,東京都,墨田区,江東橋２丁目６番９号ＨＢ錦糸町ビル６階,,13,107,1300022,,,,,,,2022-06-30,1,,,,,アールエイチインターナショナル,0
1577,8010601061408,新規,0,2022-06-30,2022-06-30,株式会社ブルドゥレア,,株式会社,東京都,墨田区,東向島５丁目２３番１７号,,13,107,1310032,,,,,,,2022-06-30,1,,,,,ブルドゥレア,0
1579,8010901051001,新規,0,2022-06-30,2022-06-30,ＦＡＭＩＬＹ５株式会社,,株式会社,東京都,世田谷区,三軒茶屋２丁目３－１７－２０６号,,13,112,1540024,,,,,,,2022-06-30,1,,,,,ファミリーファイブ,0
1580,8010905004335,新規,0,2022-06-30,2022-06-30,税理士法人ｂｅｓｔａｘ,,その他の設立登記法人,東京都,世田谷区,奥沢５丁目２４番７－４０３号,,13,112,1580083,,,,,,,2022-06-30,1,,,,,ベスタックス,0
1583,8011001148365,新規,0,2022-06-30,2022-06-30,株式会社サヤリパ,,株式会社,東京都,渋谷区,代官山町１番４号,,13,113,1500034,,,,,,,2022-06-30,1,,,,,サヤリパ,0
1584,8011001148398,新規,0,2022-06-30,2022-06-30,株式会社オネット,,株式会社,東京都,渋谷区,神宮前６丁目２３番４号桑野ビル２階,,13,113,1500001,,,,,,,2022-06-30,1,,,,,オネット,0
1587,8011003014920,新規,0,2022-06-30,2022-06-30,合同会社ファルコンズ,,合同会社,東京都,渋谷区,上原２丁目２６番１８－１０３号ディアナコート上原,,13,113,1510064,,,,,,,2022-06-30,1,,,,,,0
1588,8011003014945,新規,0,2022-06-30,2022-06-30,合同会社ＣＳｔｒｅａｍｓ,,合同会社,東京都,目黒区,大橋１丁目５－１,,13,110,1530044,,,,,,,2022-06-30,1,,,,,シーストリームズ,0
1589,8011003014961,新規,0,2022-06-30,2022-06-30,合同会社ｎｏｂｕｍｅｉ,,合同会社,東京都,渋谷区,道玄坂１丁目１０番８号渋谷道玄坂東急ビル２Ｆ－Ｃ,,13,113,1500043,,,,,,,2022-06-30,1,,,,,ノブメイ,0
1594,8011103011900,新規,0,2022-06-30,2022-06-30,合同会社ＧＳＲ,,合同会社,東京都,新宿区,西新宿３丁目３番１３号西新宿水間ビル６階,,13,104,1600023,,,,,,,2022-06-30,1,,,,,ジーエスアール,0
1596,8011303004456,新規,0,2022-06-30,2022-06-30,つまり合同会社,,合同会社,東京都,杉並区,宮前４丁目７番１１号,,13,115,1680081,,,,,,,2022-06-30,1,,,,,ツマリ,0
1599,8011601026061,新規,0,2022-06-30,2022-06-30,株式会社然ＺＥＮ,,株式会社,東京都,練馬区,南田中３丁目８番２４号タウンハウス富士ＩＩ２０５,00127049,13,120,1770035,,,,,,,2022-06-30,1,,,,,ゼンゼン,0
1605,8011805003187,新規,0,2022-06-30,2022-06-30,中川ビューハイツ管理組合法人,,その他の設立登記法人,東京都,足立区,大谷田１丁目３６番１号中川ビューハイツ管理事務所内,,13,121,1200001,,,,,,,2022-06-30,1,,,,,ナカガワビューハイツ,0
1615,8012801021686,新規,0,2022-06-30,2022-06-30,四葉産業株式会社,,株式会社,東京都,立川市,栄町２丁目１６番地の３３,,13,202,1900003,,,,,,,2022-06-30,1,,,,,ヨツバサンギョウ,0
1618,8013303006201,新規,0,2022-06-30,2022-06-30,合同会社ペルフィキオ,,合同会社,東京都,豊島区,池袋本町１丁目１７－４,,13,116,1700011,,,,,,,2022-06-30,1,,,,,ペルフィキオ,0
1629,8020003022016,新規,0,2022-06-30,2022-06-30,デジタルメンテナンス合同会社,,合同会社,神奈川県,横浜市保土ケ谷区,岩間町１丁目１１番１４号,,14,106,2400004,,,,,,,2022-06-30,1,,,,,デジタルメンテナンス,0
1632,8021003011859,新規,0,2022-06-30,2022-06-30,合同会社シェスター,,合同会社,神奈川県,厚木市,旭町２丁目１０―２５サーパス厚木旭町８０３,,14,212,2430014,,,,,,,2022-06-30,1,,,,,シェスター,0
1648,8040001124043,新規,0,2022-06-30,2022-06-30,株式会社ａｉｒＲｅ,,株式会社,千葉県,千葉市中央区,富士見２丁目１５番３号,,12,101,2600015,,,,,,,2022-06-30,1,,,,,エアリ,0
1649,8040001124051,新規,0,2022-06-30,2022-06-30,株式会社ＲＡＩ‐ＲＩ,,株式会社,千葉県,市原市,島野１８３０番地５,,12,219,2900034,,,,,,,2022-06-30,1,,,,,ライリ,0
1664,8090001017639,新規,0,2022-06-30,2022-06-30,株式会社初志貫徹,,株式会社,山梨県,甲府市,丸の内３丁目１番１０号,,19,201,4000031,,,,,,,2022-06-30,1,,,,,ショシカンテツ,0
1677,8120001246969,新規,0,2022-06-30,2022-06-30,株式会社なみ太郎,,株式会社,大阪府,大阪市福島区,吉野４丁目２７番２３－２０２号,,27,103,5530006,,,,,,,2022-06-30,1,,,,,ミナタロウ,0
1678,8120001246985,新規,0,2022-06-30,2022-06-30,潤京通商株式会社,,株式会社,大阪府,大阪市淀川区,田川北２丁目５－３４・Ｂ棟３０２号室,,27,123,5320021,,,,,,,2022-06-30,1,,,,,ジュンキョウツウショウ,0
1679,8120001247026,新規,0,2022-06-30,2022-06-30,株式会社哲,,株式会社,大阪府,大阪市東成区,大今里西３丁目１８番２２号サンハイツ今里１０１号室,,27,115,5370014,,,,,,,2022-06-30,1,,,,,テツ,0
1692,8122001036012,新規,0,2022-06-30,2022-06-30,株式会社さくらサポート,,株式会社,大阪府,柏原市,法善寺４丁目２７２番地の１１,,27,221,5820005,,,,,,,2022-06-30,1,,,,,サクラサポート,0
1694,8122003002367,新規,0,2022-06-30,2022-06-30,合同会社ムラカツ,,合同会社,大阪府,東大阪市,立花町１１番２号,,27,227,5798023,,,,,,,2022-06-30,1,,,,,ムラカツ,0
1698,8130003008029,新規,0,2022-06-30,2022-06-30,合同会社和田商事,,合同会社,京都府,長岡京市,神足２丁目５番１－７０５号,,26,209,6170833,,,,,,,2022-06-30,1,,,,,ワダショウジ,0
1702,8140003017862,新規,0,2022-06-30,2022-06-30,Ｔ＆Ｃ合同会社,,合同会社,兵庫県,神戸市須磨区,板宿町３丁目１番３２号,,28,107,6540009,,,,,,,2022-06-30,1,,,,,ティーアンドシー,0
1712,8180001151949,新規,0,2022-06-30,2022-06-30,株式会社アールクレスト,,株式会社,愛知県,名古屋市東区,東桜１丁目１０番３６号第４４オーシャンビル２階,,23,102,4610005,,,,,,,2022-06-30,1,,,,,アールクレスト,0
1713,8180001151965,新規,0,2022-06-30,2022-06-30,ヒロックス株式会社,,株式会社,愛知県,名古屋市西区,大金町４丁目５３番地,,23,104,4510082,,,,,,,2022-06-30,1,,,,,ヒロックス,0
1732,8240003005691,新規,0,2022-06-30,2022-06-30,合同会社ＦＫ・Ｓｅｒｖｉｃｅ,,合同会社,広島県,広島市安佐南区,上安１丁目１番８号,,34,105,7310154,,,,,,,2022-06-30,1,,,,,エフケーサービス,0
1739,8260003003958,新規,0,2022-06-30,2022-06-30,合同会社リブランド,,合同会社,岡山県,岡山市東区,西幸西２３０番地,,33,103,7048136,,,,,,,2022-06-30,1,,,,,リブランド,0
1750,8290001098089,新規,0,2022-06-30,2022-06-30,株式会社桜の喜,,株式会社,福岡県,福岡市城南区,長尾４丁目７番１号,,40,136,8140123,,,,,,,2022-06-30,1,,,,,サクラノキ,0
1751,8290001098097,新規,0,2022-06-30,2022-06-30,アシガル工務店株式会社,,株式会社,福岡県,福岡市東区,大字志賀島４１７番地１,,40,131,8110323,,,,,,,2022-06-30,1,,,,,アシガルコウムテン,0
1753,8290003012675,新規,0,2022-06-30,2022-06-30,合同会社能登屋,,合同会社,福岡県,福岡市早良区,高取２丁目１―１５―２Ｆ,,40,137,8140011,,,,,,,2022-06-30,1,,,,,ノトヤ,0
1761,8360001030606,新規,0,2022-06-30,2022-06-30,株式会社長嶺土木,,株式会社,沖縄県,糸満市,西崎１丁目２２番３－４０２号大一ビル,,47,210,9010305,,,,,,,2022-06-30,1,,,,,ナガミネドボク,0
1762,8360003012115,新規,0,2022-06-30,2022-06-30,有機農業法人もとぶファーム合同会社,,合同会社,沖縄県,国頭郡本部町,字石川１４５番地,,47,308,9050206,,,,,,,2022-06-30,1,,,,,ユウキノウギョウホウジンモトブファーム,0
1773,8410003003678,新規,0,2022-06-30,2022-06-30,康立来合同会社,,合同会社,秋田県,湯沢市,三梨町字下猿城３６番地１,,05,207,0120106,,,,,,,2022-06-30,1,,,,,,0
1778,8430001086938,新規,0,2022-06-30,2022-06-30,ロフマンズ株式会社,,株式会社,北海道,札幌市中央区,南四条東４丁目１番地４マインヴィラ札幌５０５号,,01,101,0600054,,,,,,,2022-06-30,1,,,,,ロフマンズ,0
1787,8700150110611,新規,0,2022-06-30,2022-06-30,Ｎａｎｏｓｙｓ，Ｉｎｃ．,,外国会社等,,,,,,,,２３３　Ｓｏｕｔｈ　Ｈｉｌｌｖｉｅｗ　Ｄｒｉｖｅ　Ｍｉｌｐｉｔａｓ，　ＣＡ　９５０３５　ＵＳＡ,,,,,,2022-06-30,1,,,,,ナノシスインク,0
1789,9010005035189,新規,0,2022-06-30,2022-06-30,エスティイズモ一般社団法人,,その他の設立登記法人,東京都,千代田区,丸の内３丁目１番１号東京共同会計事務所内,,13,101,1000005,,,,,,,2022-06-30,1,,,,,エスティイズモ,0
1790,9010401013707,新規,0,2022-06-30,2022-06-30,株式会社尚栄,,株式会社,東京都,港区,東新橋２丁目１０番１０号,,13,103,1050021,,,,,,,2022-06-30,1,,,,,,0
1799,9010401168212,新規,0,2022-06-30,2022-06-30,株式会社Ａ．Ｓ．クリエーション,,株式会社,東京都,港区,南青山２丁目２番１５号,,13,103,1070062,,,,,,,2022-06-30,1,,,,,エーエスクリエーション,0
1802,9010601061407,新規,0,2022-06-30,2022-06-30,Ｄ＆Ｉ　Ｓｏｌｕｔｉｏｎｓ株式会社,,株式会社,東京都,江東区,新大橋３丁目６番７号,,13,108,1350007,,,,,,,2022-06-30,1,,,,,ディーアンドアイソリューションズ,0
1806,9010801033081,新規,0,2022-06-30,2022-06-30,株式会社ｓｅｓｅｒｉ,,株式会社,東京都,大田区,新蒲田３丁目１８番１０号,,13,111,1440054,,,,,,,2022-06-30,1,,,,,セセリ,0
1811,9010905004334,新規,0,2022-06-30,2022-06-30,医療法人社団郁勇会,,その他の設立登記法人,東京都,世田谷区,経堂５丁目３５番２０－１０３号,,13,112,1560052,,,,,,,2022-06-30,1,,,,,イクユウカイ,0
1817,9011105010305,新規,0,2022-06-30,2022-06-30,スリーエー税理士法人,,その他の設立登記法人,東京都,新宿区,矢来町２４－３３マリオン神楽坂２階,,13,104,1620805,,,,,,,2022-06-30,1,,,,,,0
1818,9011201023920,新規,0,2022-06-30,2022-06-30,株式会社Ｎａｔｓｕｍｅ,,株式会社,東京都,中野区,大和町３丁目２８－６,,13,114,1650034,,,,,,,2022-06-30,1,,,,,ナツメ,0
1822,9011501028207,新規,0,2022-06-30,2022-06-30,株式会社一力工業,,株式会社,東京都,北区,田端新町２丁目１６番３号,,13,117,1140012,,,,,,,2022-06-30,1,,,,,イチリキコウギョウ,0
1829,9012401039351,新規,0,2022-06-30,2022-06-30,株式会社栄田フーズ,,株式会社,東京都,多摩市,落合５丁目８番地１１－５,,13,224,2060033,,,,,,,2022-06-30,1,,,,,サカエダフーズ,0
1830,9012701017123,新規,0,2022-06-30,2022-06-30,株式会社ＴＥＲＲＡ,,株式会社,東京都,小平市,学園東町３丁目７－３４－２０３,,13,211,1870043,,,,,,,2022-06-30,1,,,,,テラ,0
1831,9012703002486,新規,0,2022-06-30,2022-06-30,合同会社Ｋａｎｄｏ,,合同会社,東京都,東村山市,久米川町２丁目６番地１ボナール３０１,,13,213,1890003,,,,,,,2022-06-30,1,,,,,カンド,0
1832,9012801021685,新規,0,2022-06-30,2022-06-30,株式会社ＮＵＭＢＥＲＳ,,株式会社,東京都,立川市,羽衣町２丁目１８番９号,,13,202,1900021,,,,,,,2022-06-30,1,,,,,ナンバーズ,0
1837,9020001147136,新規,0,2022-06-30,2022-06-30,株式会社Ｃｒｅａｔｉｏｎ　ａｔ　Ｄｒｅａｍ,,株式会社,神奈川県,横浜市戸塚区,戸塚町３６３０番地２５戸塚ヒルズ５０５号,,14,110,2440003,,,,,,,2022-06-30,1,,,,,クリエイションアットドリーム,0
1840,9020003022023,新規,0,2022-06-30,2022-06-30,ＣＳメディカルサポート合同会社,,合同会社,神奈川県,横浜市中区,尾上町４丁目５４番地ｋａｎｎａｉｅｘビル８階,,14,104,2310015,,,,,,,2022-06-30,1,,,,,シーエスメディカルサポート,0
1843,9021005012557,新規,0,2022-06-30,2022-06-30,一般社団法人全日本学生カヌー連盟,,その他の設立登記法人,神奈川県,鎌倉市,今泉台３丁目９番１１号,,14,204,2470053,,,,,,,2022-06-30,1,,,,,ゼンニホンガクセイカヌーレンメイ,0
1849,9030003019704,新規,0,2022-06-30,2022-06-30,合同会社ＹＮＣコーポレーション,,合同会社,埼玉県,行田市,大字犬塚５８７番地２,,11,206,3610081,,,,,,,2022-06-30,1,,,,,ワイエヌシーコーポレーション,0
1856,9040001124042,新規,0,2022-06-30,2022-06-30,ＭＡＤＡＤＩ株式会社,,株式会社,千葉県,四街道市,みそら２丁目９番５号,,12,228,2840023,,,,,,,2022-06-30,1,,,,,マダディ,0
1884,9120001246968,新規,0,2022-06-30,2022-06-30,株式会社ハーティーダイニング,,株式会社,大阪府,大阪市北区,大淀南１丁目６番４－８１１号,,27,127,5310075,,,,,,,2022-06-30,1,,,,,ハーティーダイニング,0
1885,9120001247000,新規,0,2022-06-30,2022-06-30,卓燃天成株式会社,,株式会社,大阪府,大阪市北区,天満４丁目１４番４－９０１号,,27,127,5300043,,,,,,,2022-06-30,1,,,,,タクネンテンセイ,0
1886,9120001247017,新規,0,2022-06-30,2022-06-30,中日健康株式会社,,株式会社,大阪府,大阪市中央区,農人橋２丁目１番２４号３０４号室,,27,128,5400011,,,,,,,2022-06-30,1,,,,,チュウニチケンコウ,0
1887,9120001247025,新規,0,2022-06-30,2022-06-30,株式会社融通,,株式会社,大阪府,交野市,神宮寺２丁目２７２０番１,,27,230,5760062,,,,,,,2022-06-30,1,,,,,ユウズウ,0
1888,9120001247058,新規,0,2022-06-30,2022-06-30,株式会社ＣＡＳＩＮＯ　ＪＡＰＡＮ,,株式会社,大阪府,大阪市中央区,松屋町３番２３－１５０１号,,27,128,5420067,,,,,,,2022-06-30,1,,,,,カジノジャパン,0
1894,9120101065806,新規,0,2022-06-30,2022-06-30,株式会社Ｖｅｎｔｉ,,株式会社,大阪府,泉佐野市,松原２丁目３番１７号,,27,213,5980045,,,,,,,2022-06-30,1,,,,,ベンティ,0
1900,9130001072075,新規,0,2022-06-30,2022-06-30,未来食研究開発センター株式会社,,株式会社,京都府,木津川市,加茂町駅東３丁目３番地１ナント駅東ビル２０１,,26,214,6191154,,,,,,,2022-06-30,1,,,,,ミライショクケンキュウカイハツセンター,0
1901,9130001072083,新規,0,2022-06-30,2022-06-30,株式会社ウエイクアップ,,株式会社,京都府,京田辺市,田辺十曽２５－４,,26,211,6100331,,,,,,,2022-06-30,1,,,,,ウエイクアップ,0
1903,9130003008036,新規,0,2022-06-30,2022-06-30,合同会社Ｋａｏｒｉｎ,,合同会社,京都府,宇治市,五ケ庄五雲峰５番地の３７,,26,204,6110011,,,,,,,2022-06-30,1,,,,,カオリン,0
1906,9140001126565,新規,0,2022-06-30,2022-06-30,六甲土地株式会社,,株式会社,兵庫県,神戸市灘区,鶴甲２丁目６番１号,,28,102,6570011,,,,,,,2022-06-30,1,,,,,ロッコウトチ,0
1907,9140001126573,新規,0,2022-06-30,2022-06-30,株式会社Ｎｅｘｔ　ｏｎｅ,,株式会社,兵庫県,神戸市中央区,大日通６丁目１番８号リーフビル４０５号,,28,110,6510064,,,,,,,2022-06-30,1,,,,,ネクストワン,0
1908,9140005026225,新規,0,2022-06-30,2022-06-30,一般社団法人ウェルビーングソープ協会,,その他の設立登記法人,兵庫県,神戸市兵庫区,湊町１丁目４番２５－１１０１号,,28,105,6520812,,,,,,,2022-06-30,1,,,,,ウェルビーングソープキョウカイ,0
1911,9180001009659,新規,0,2022-06-30,2022-06-30,株式会社洋々,,株式会社,愛知県,名古屋市昭和区,鶴舞４丁目２番１０号,,23,107,4660064,,,,,,,2022-06-30,1,,,,,ヨウヨウ,0
1914,9180001151923,新規,0,2022-06-30,2022-06-30,株式会社フォアードアップ,,株式会社,愛知県,名古屋市中区,新栄２丁目４６番１号,,23,106,4600007,,,,,,,2022-06-30,1,,,,,フォアードアップ,0
1917,9190005011718,新規,0,2022-06-30,2022-06-30,社会保険労務士法人リンクツリー,,その他の設立登記法人,三重県,四日市市,あかつき台４丁目１番地６７,,24,202,5128046,,,,,,,2022-06-30,1,,,,,リンクツリー,0
1922,9220003003317,新規,0,2022-06-30,2022-06-30,合同会社Ｒｉｎｄｏ,,合同会社,石川県,金沢市,泉野町６丁目１１番２１号,,17,201,9218034,,,,,,,2022-06-30,1,,,,,リンドウ,0
1931,9240001059994,新規,0,2022-06-30,2022-06-30,ＬＩＢ　ＴＥＣＨ株式会社,,株式会社,広島県,福山市,駅家町大字下山守２７４番地１,,34,207,7201143,,,,,,,2022-06-30,1,,,,,リブテック,0
1932,9240003005690,新規,0,2022-06-30,2022-06-30,合同会社ｔａｕ,,合同会社,広島県,福山市,西桜町１丁目８番３－３０１号,,34,207,7200818,,,,,,,2022-06-30,1,,,,,タウ,0
1946,9290001098096,新規,0,2022-06-30,2022-06-30,株式会社ＹＴＳ,,株式会社,福岡県,福岡市博多区,堅粕４丁目１３番３０号１２０７号クラブオリエントビルＮｏ．１０３,,40,132,8120043,,,,,,,2022-06-30,1,,,,,ワイティーエス,0
1962,9430001086920,新規,0,2022-06-30,2022-06-30,株式会社ＣＤＰ北海道,,株式会社,北海道,札幌市北区,篠路町篠路３８９番地７２,,01,102,0028053,,,,,,,2022-06-30,1,,,,,シーディーピーホッカイドウ,0
1964,9460103001469,新規,0,2022-06-30,2022-06-30,合同会社ディオアルト,,合同会社,北海道,河東郡音更町,新通１５丁目４番地１６,,01,631,0800104,,,,,,,2022-06-30,1,,,,,ディオアルト,0
1965,9470003002203,新規,0,2022-06-30,2022-06-30,フィールズ合同会社,,合同会社,香川県,仲多度郡多度津町,本通３丁目５番６号,,37,404,7640014,,,,,,,2022-06-30,1,,,,,フィールズ,0
1972,9700150110610,新規,0,2022-06-30,2022-06-30,日進折戸鎌ケ寿土地区画整理組合,,その他,愛知県,日進市,蟹甲町池下２１３番地１,,23,230,4700122,,,,,,,2022-06-30,1,,,,,ニツシンオリドカマガストチクカクセイリクミアイ,0
