sequenceNumber,corporateNumber,process,correct,updateDate,changeDate,name,nameImageId,kind,prefectureName,cityName,streetNumber,addressImageId,prefectureCode,cityCode,postCode,addressOutside,addressOutsideImageId,closeDate,closeCause,successorCorporateNumber,changeCause,assignmentDate,latest,enName,enPrefectureName,enCityName,enAddressOutside,furigana,hihyoji
4,1010001083579,登記記録の閉鎖等,0,2025-08-25,2025-07-30,資生堂薬品株式会社,,株式会社,東京都,中央区,銀座７丁目５番５号,,13,102,1040061,,,2025-07-30,清算の結了等,,,2015-10-05,1,,,,,シセイドウヤクヒン,0
8,1010001144307,登記記録の閉鎖等,0,2025-08-25,2025-07-25,株式会社メカニカルサービス,,株式会社,東京都,中央区,日本橋中洲５番８号,,13,102,1030008,,,2025-07-25,清算の結了等,,,2015-10-05,1,,,,,メカニカルサービス,0
14,1010003035165,登記記録の閉鎖等,0,2025-08-25,2025-07-30,合同会社ＳＰＣ１,,合同会社,東京都,千代田区,平河町１丁目６番１５号シルスフィア会計事務所内,,13,101,1020093,,,2025-07-30,清算の結了等,,,2021-06-24,1,,,,,エスピーシーワン,0
16,1010003041320,登記記録の閉鎖等,0,2025-08-25,2025-07-29,マリベーテ合同会社,,合同会社,東京都,中央区,銀座１丁目１２番４号Ｎ＆Ｅ・ＢＬＤ．６Ｆ,,13,102,1040061,,,2025-07-29,清算の結了等,,,2023-08-08,1,,,,,マリベーテ,0
21,1010401127332,登記記録の閉鎖等,0,2025-08-25,2025-07-28,合同会社きずな,,合同会社,東京都,港区,虎ノ門２丁目６番１号虎ノ門ヒルズステーションタワー,,13,103,1050001,,,2025-07-28,清算の結了等,,,2016-10-05,1,,,,,キズナ,0
22,1010401140277,登記記録の閉鎖等,0,2025-08-25,2025-07-23,株式会社ＴＹアソシエイト,,株式会社,東京都,台東区,浅草５丁目４８番６号,,13,106,1110032,,,2025-07-23,合併による解散等,2010501021608,令和７年７月２３日東京都台東区浅草五丁目４８番６号株式会社山商（2010501021608）に合併し解散,2018-08-15,1,,,,,ティワイアソシエイト,0
29,1010601055309,登記記録の閉鎖等,0,2025-08-25,2025-08-20,株式会社ＡＭＡ,,株式会社,東京都,江東区,豊洲４丁目１０番１８－１４１８号,,13,108,1350061,,,2025-08-20,清算の結了等,,,2019-04-08,1,,,,,エーエムエー,0
34,1010702002077,登記記録の閉鎖等,0,2025-08-25,2025-08-14,有限会社かつらしげもり,,有限会社,東京都,品川区,東大井２丁目１３番２号,,13,109,1400011,,,2025-08-14,清算の結了等,,,2015-10-05,1,,,,,カツラシゲモリ,0
59,1011503004056,登記記録の閉鎖等,0,2025-08-25,2025-08-21,パレレ株式会社,,株式会社,東京都,荒川区,東尾久６丁目２４番１０号,,13,118,1160012,,,2025-08-21,清算の結了等,,,2019-07-24,1,,,,,パレレ,0
60,1011701020268,登記記録の閉鎖等,0,2025-08-25,2025-08-18,株式会社レジスタ,,株式会社,東京都,江戸川区,松江５丁目２７番２４－３０１号,,13,123,1320025,,,2025-08-18,清算の結了等,,,2016-10-14,1,,,,,レジスタ,0
62,1011702007165,登記記録の閉鎖等,0,2025-08-25,2025-08-18,有限会社滝野製作所,,有限会社,東京都,江戸川区,瑞江２丁目４６番２０号,,13,123,1320011,,,2025-08-18,清算の結了等,,,2015-10-05,1,,,,,タキノセイサクショ,0
92,1030002071168,登記記録の閉鎖等,0,2025-08-25,2025-08-20,彩西有限会社,,有限会社,埼玉県,北葛飾郡杉戸町,大字杉戸２３８５番地,,11,464,3450036,,,2025-08-20,清算の結了等,,,2015-10-05,1,,,,,サイセイ,0
93,1030002078857,登記記録の閉鎖等,0,2025-08-25,2025-08-18,有限会社菊池空調設備,,有限会社,埼玉県,川越市,霞ケ関北２丁目１０番地５,,11,201,3501109,,,2025-08-18,清算の結了等,,,2015-10-05,1,,,,,キクチクウチョウセツビ,0
94,1030002114851,登記記録の閉鎖等,0,2025-08-25,2025-08-18,有限会社フタバプラント,,有限会社,埼玉県,熊谷市,野原７８５番地３,,11,202,3600101,,,2025-08-18,清算の結了等,,,2015-10-05,1,,,,,フタバプラント,0
119,1070003004189,登記記録の閉鎖等,0,2025-08-25,2025-08-20,合同会社ＮＯＫＫＯ,,合同会社,群馬県,高崎市,和田町１０番６号,,10,202,3700847,,,2025-08-20,清算の結了等,,,2021-07-29,1,,,,,ノッコ,0
129,1110002021635,登記記録の閉鎖等,0,2025-08-25,2025-08-04,有限会社タザワ,,有限会社,新潟県,村上市,天神岡３６４番地,,15,212,9580803,,,2025-08-04,清算の結了等,,,2015-10-05,1,,,,,タザワ,0
130,1110002024662,登記記録の閉鎖等,0,2025-08-25,2025-08-04,有限会社中部造園,,有限会社,新潟県,上越市,板倉区田屋３０番地,,15,222,9440105,,,2025-08-04,清算の結了等,,,2015-10-05,1,,,,,ナカベゾウエン,0
135,1120001155904,登記記録の閉鎖等,0,2025-08-25,2025-08-20,昭和歯研株式会社,,株式会社,大阪府,守口市,長池町１番６号,,27,209,5700064,,,2025-08-20,合併による解散等,1290001042326,令和７年７月２０日福岡県大野城市御笠川二丁目８番１１号株式会社ギコウ（1290001042326）に合併し解散,2015-10-05,1,,,,,ショウワシケン,0
154,1140001074805,登記記録の閉鎖等,0,2025-08-25,2025-08-19,エール株式会社,,株式会社,兵庫県,西宮市,生瀬町１丁目１３番７号,,28,204,6691102,,,2025-08-19,清算の結了等,,,2015-10-05,1,,,,,エール,0
164,1160005008856,登記記録の閉鎖等,0,2025-08-25,2025-08-20,農事組合法人木部農業経営組合,,その他の設立登記法人,滋賀県,野洲市,木部８３０番地,,25,210,5202431,,,2025-08-20,清算の結了等,,,2015-10-05,1,,,,,キベノウギョウケイエイクミアイ,0
172,1180001152862,登記記録の閉鎖等,0,2025-08-25,2025-07-30,株式会社ユーテック,,株式会社,愛知県,一宮市,瀬部字大馬場６０番地,,23,203,4910001,,,2025-07-30,清算の結了等,,,2022-09-06,1,,,,,ユーテック,0
181,1180305009263,登記記録の閉鎖等,0,2025-08-25,2025-08-08,一般社団法人ＪＡＰＡＮ　ｂｅａｕｔｙ,,その他の設立登記法人,愛知県,岡崎市,日名南町８番地９,,23,202,4440915,,,2025-08-08,清算の結了等,,,2021-11-17,1,,,,,ジャパンビューティー,0
185,1200001036138,登記記録の閉鎖等,0,2025-08-25,2025-08-18,株式会社スピードテクニカル,,株式会社,岐阜県,岐阜市,六条大溝２丁目５番地１号２Ｆ,,21,201,5008357,,,2025-08-18,清算の結了等,,,2019-04-22,1,,,,,,0
188,1220001016930,登記記録の閉鎖等,0,2025-08-25,2025-08-18,株式会社大樹工建,,株式会社,石川県,珠洲市,宝立町鵜飼辰部６番１地,,17,205,9271222,,,2025-08-18,清算の結了等,,,2015-10-05,1,,,,,タイキコウケン,0
190,1230001005296,登記記録の閉鎖等,0,2025-08-25,2025-08-22,株式会社佐藤鉄工所,,株式会社,富山県,富山市,八尾町福島４９番地,,16,201,9392376,,,2025-08-22,清算の結了等,,,2015-10-05,1,,,,,サトウテッコウショ,0
192,1230002002549,登記記録の閉鎖等,0,2025-08-25,2025-08-21,有限会社ナカダ化粧品,,有限会社,富山県,富山市,中川原３９０番地１,,16,201,9398015,,,2025-08-21,清算の結了等,,,2015-10-05,1,,,,,ナカダケショウヒン,0
202,1260001021613,登記記録の閉鎖等,0,2025-08-25,2025-07-31,千代田建設工業株式会社,,株式会社,岡山県,備前市,浦伊部３２３番地の１,,33,211,7050002,,,2025-07-31,清算の結了等,,,2015-10-05,1,,,,,チヨダケンセツコウギョウ,0
204,1260002025217,登記記録の閉鎖等,0,2025-08-25,2025-07-31,有限会社高橋工務店,00110793,有限会社,岡山県,笠岡市,中央町５番地の１４,,33,205,7140088,,,2025-07-31,清算の結了等,,,2015-10-05,1,,,,,タカハシコウムテン,0
206,1260003001753,登記記録の閉鎖等,0,2025-08-25,2025-08-04,合同会社ばにきー,,合同会社,岡山県,倉敷市,水島東常磐町１０－１８,,33,202,7100000,,,2025-08-04,清算の結了等,,,2015-10-05,1,,,,,バニキー,0
208,1280003000687,登記記録の閉鎖等,0,2025-08-25,2025-08-21,グリーンフォレスト合同会社,,合同会社,島根県,鹿足郡吉賀町,六日市３８９番地５,,32,505,6995513,,,2025-08-21,清算の結了等,,,2015-10-05,1,,,,,,0
228,1340005008549,登記記録の閉鎖等,0,2025-08-25,2025-08-12,特定非営利活動法人かごしまメンタルパートナー協会,,その他の設立登記法人,鹿児島県,鹿児島市,明和２丁目２５番１０号,,46,201,8900024,,,2025-08-12,清算の結了等,,,2016-03-18,1,,,,,カゴシマメンタルパートナーキョウカイ,0
233,1360001024837,登記記録の閉鎖等,0,2025-08-25,2025-08-19,沖縄アクロス株式会社,,株式会社,沖縄県,那覇市,久茂地２丁目１６番３号ＫＭくもじビル４０２号,,47,201,9000015,,,2025-08-19,清算の結了等,,,2018-12-28,1,,,,,オキナワアクロス,0
240,1370601000501,登記記録の閉鎖等,0,2025-08-25,2025-08-01,大日電気工業株式会社,,株式会社,宮城県,塩竈市,泉沢町７番５７号,,04,203,9850062,,,2025-08-01,清算の結了等,,,2015-10-05,1,,,,,ダイニチデンキコウギョウ,0
251,1430001022503,登記記録の閉鎖等,0,2025-08-25,2025-08-04,株式会社フィール,,株式会社,北海道,札幌市豊平区,平岸四条９丁目７番２０号,,01,105,0620934,,,2025-08-04,清算の結了等,,,2015-10-05,1,,,,,フィール,0
254,1430002042343,登記記録の閉鎖等,0,2025-08-25,2025-08-04,有限会社ヤマデン,,有限会社,北海道,札幌市東区,北四十七条東８丁目１番２０号,,01,103,0070847,,,2025-08-04,清算の結了等,,,2015-10-05,1,,,,,,0
255,1430002058455,登記記録の閉鎖等,0,2025-08-25,2025-08-01,有限会社玉成電設興業,,有限会社,北海道,苫小牧市,永福町２丁目１３番９号,,01,213,0530815,,,2025-08-01,合併による解散等,3430001043761,令和７年８月１日北海道千歳市東雲町五丁目５７番地富樫電気工事株式会社（3430001043761）に合併し解散,2015-10-05,1,,,,,ギョクセイデンセツコウギョウ,0
261,2010001136311,登記記録の閉鎖等,0,2025-08-25,2025-07-14,株式会社愛才,,株式会社,東京都,新宿区,西新宿３丁目３番－１３号西新宿水間ビル６階,,13,104,1600023,,,2025-07-14,清算の結了等,,,2015-10-05,1,,,,,アイサイ,0
266,2010001222243,登記記録の閉鎖等,0,2025-08-25,2025-08-20,株式会社オープンハウスみなかみ,,株式会社,群馬県,利根郡みなかみ町,藤原３８３２番地４０,,10,449,3791721,,,2025-08-20,合併による解散等,8010001164356,令和７年８月１日東京都千代田区丸の内二丁目７番２号株式会社オープンハウス群馬（8010001164356）に合併し解散,2021-11-08,1,,,,,オープンハウスミナカミ,0
271,2010002012932,登記記録の閉鎖等,0,2025-08-25,2025-07-29,有限会社土肥タイプ印刷,,有限会社,東京都,千代田区,神田佐久間町３丁目３２番地,,13,101,1010025,,,2025-07-29,清算の結了等,,,2015-10-05,1,,,,,ドイタイプインサツ,0
290,2010601001550,登記記録の閉鎖等,0,2025-08-25,2025-08-18,株式会社紀ノ川亭,,株式会社,東京都,江東区,高橋４番４号,,13,108,1350005,,,2025-08-18,清算の結了等,,,2015-10-05,1,,,,,,0
296,2011001048645,登記記録の閉鎖等,0,2025-08-25,2025-07-23,ＴＯＴＯＲＡ株式会社,,株式会社,東京都,渋谷区,恵比寿南１丁目１８番１１号,,13,113,1500022,,,2025-07-23,清算の結了等,,,2015-10-05,1,,,,,トトラ,0
321,2011802010704,登記記録の閉鎖等,0,2025-08-25,2025-08-19,有限会社大川製作所,,有限会社,東京都,足立区,扇２丁目２０番１４号,,13,121,1230873,,,2025-08-19,清算の結了等,,,2015-10-05,1,,,,,オオカワセイサクショ,0
323,2011802016494,登記記録の閉鎖等,0,2025-08-25,2025-08-20,有限会社トビオプラン,,有限会社,東京都,足立区,扇２丁目１６番２３号,,13,121,1230873,,,2025-08-20,清算の結了等,,,2015-10-05,1,,,,,トビオプラン,0
334,2020002053100,登記記録の閉鎖等,0,2025-08-25,2025-08-06,有限会社山田畳店,,有限会社,神奈川県,横浜市金沢区,町屋町９番７号,,14,108,2360022,,,2025-08-06,清算の結了等,,,2015-10-05,1,,,,,ヤマダタタミテン,0
339,2021002071315,登記記録の閉鎖等,0,2025-08-25,2025-08-21,有限会社インテリア栄,,有限会社,神奈川県,三浦市,尾上町６番１号,,14,210,2380246,,,2025-08-21,清算の結了等,,,2015-10-05,1,,,,,インテリアエイ,0
344,2030001076695,登記記録の閉鎖等,0,2025-08-25,2025-08-20,株式会社ネオ・アルファー,,株式会社,東京都,足立区,鹿浜７丁目２４番７号,,13,121,1230864,,,2025-08-20,清算の結了等,,,2015-10-05,1,,,,,ネオアルファー,0
357,2040001085893,登記記録の閉鎖等,0,2025-08-25,2025-08-18,株式会社ＢＭＥＸ,,株式会社,埼玉県,川越市,南大塚４丁目７番地３,,11,201,3501162,,,2025-08-18,清算の結了等,,,2015-10-05,1,,,,,ビーメックス,0
359,2040002009934,登記記録の閉鎖等,0,2025-08-25,2025-08-01,有限会社福田,,有限会社,千葉県,千葉市花見川区,幕張町６丁目１１４番地,,12,102,2620032,,,2025-08-01,清算の結了等,,,2015-10-05,1,,,,,フクダ,0
374,2090001008346,登記記録の閉鎖等,0,2025-08-25,2025-08-18,熊坂建設株式会社,,株式会社,山梨県,都留市,田野倉４４８番地,,19,204,4020001,,,2025-08-18,清算の結了等,,,2015-10-05,1,,,,,,0
383,2120001209733,登記記録の閉鎖等,0,2025-08-25,2025-08-07,北浜インベストメント株式会社,,株式会社,大阪府,大阪市中央区,北浜１丁目１番９号,,27,128,5410041,,,2025-08-07,清算の結了等,,,2017-11-27,1,,,,,キタハマインベストメント,0
393,2120101030989,登記記録の閉鎖等,0,2025-08-25,2025-08-01,株式会社田中測量,,株式会社,大阪府,富田林市,藤沢台４丁目７番９号２０２号室,,27,214,5840071,,,2025-08-01,清算の結了等,,,2015-10-05,1,,,,,タナカソクリョウ,0
398,2122002006176,登記記録の閉鎖等,0,2025-08-25,2025-08-06,有限会社協和産業,,有限会社,大阪府,東大阪市,小若江１丁目１１番１０号,,27,227,5770818,,,2025-08-06,清算の結了等,,,2015-10-05,1,,,,,キョウワサンギョウ,0
407,2140001114106,登記記録の閉鎖等,0,2025-08-25,2025-08-20,株式会社北川ＭＳＣ,,株式会社,兵庫県,神戸市西区,学園西町７丁目１番地７５１－５０６号,,28,111,6512103,,,2025-08-20,清算の結了等,,,2019-07-02,1,,,,,キタガワエムエスシー,0
408,2140001118718,登記記録の閉鎖等,0,2025-08-25,2025-08-20,健康キューブ株式会社,,株式会社,兵庫県,加古郡稲美町,国岡３丁目４番地の７,,28,381,6751115,,,2025-08-20,清算の結了等,,,2020-09-10,1,,,,,ケンコウキューブ,0
411,2140002021086,登記記録の閉鎖等,0,2025-08-25,2025-08-19,有限会社海渡しょう,,有限会社,兵庫県,三木市,志染町青山５丁目１０番地の１８,,28,215,6730521,,,2025-08-19,清算の結了等,,,2015-10-05,1,,,,,カイトショウ,0
416,2170002002091,登記記録の閉鎖等,0,2025-08-25,2025-08-22,有限会社せきもと薬師堂薬局,,有限会社,和歌山県,和歌山市,徒町２２番地,,30,201,6408243,,,2025-08-22,清算の結了等,,,2015-10-05,1,,,,,セキモトヤクシドウヤッキョク,0
418,2180001083735,登記記録の閉鎖等,0,2025-08-25,2025-07-30,丸中急送株式会社,,株式会社,愛知県,一宮市,栄１丁目５番４号,,23,203,4910858,,,2025-07-30,清算の結了等,,,2015-10-05,1,,,,,マルナカキュウソウ,0
419,2180001089352,登記記録の閉鎖等,0,2025-08-25,2025-07-31,株式会社ＭＦＣ,,株式会社,愛知県,名古屋市昭和区,元宮町４丁目７０番地,,23,107,4660851,,,2025-07-31,清算の結了等,,,2015-10-05,1,,,,,エムエフシー,0
442,2270002011025,登記記録の閉鎖等,0,2025-08-25,2025-08-18,有限会社サカイ,,有限会社,鳥取県,東伯郡湯梨浜町,大字田後１５７番地１９,,31,370,6820721,,,2025-08-18,清算の結了等,,,2015-10-05,1,,,,,サカイ,0
458,2360001028481,登記記録の閉鎖等,0,2025-08-25,2025-08-08,株式会社Ｃａｌｍ　ｌｉｆｅ,,株式会社,沖縄県,国頭郡今帰仁村,字諸志８７番地,,47,306,9050426,,,2025-08-08,清算の結了等,,,2021-03-18,1,,,,,カルムライフ,0
473,2430002000606,登記記録の閉鎖等,0,2025-08-25,2025-08-01,有限会社秋元商店,,有限会社,北海道,札幌市豊平区,平岸四条１２丁目３番７号,,01,105,0620934,,,2025-08-01,清算の結了等,,,2015-10-05,1,,,,,アキモトショウテン,0
474,2430002003237,登記記録の閉鎖等,0,2025-08-25,2025-08-04,有限会社Ｅ・プランニング,,有限会社,北海道,札幌市清田区,清田十条４丁目６番３６号,,01,110,0040840,,,2025-08-04,清算の結了等,,,2015-10-05,1,,,,,,0
476,2430002057539,登記記録の閉鎖等,0,2025-08-25,2025-07-28,有限会社三昌,,有限会社,北海道,岩内郡岩内町,字栄１７８番地,,01,402,0450011,,,2025-07-28,清算の結了等,,,2015-10-05,1,,,,,,0
485,3010001144676,登記記録の閉鎖等,0,2025-08-25,2025-08-15,クラールアカウンティング株式会社,,株式会社,東京都,江東区,佐賀１丁目８番１２,,13,108,1350031,,,2025-08-15,清算の結了等,,,2015-10-05,1,,,,,,0
486,3010001171687,登記記録の閉鎖等,0,2025-08-25,2025-08-19,株式会社今村国際,,株式会社,東京都,墨田区,両国２丁目２番２号ライオンズマンション８０３号室,,13,107,1300026,,,2025-08-19,清算の結了等,,,2015-11-16,1,,,,,イマムラコクサイ,0
489,3010001237174,登記記録の閉鎖等,0,2025-08-25,2025-08-01,株式会社みどり草木湖リゾート,,株式会社,東京都,千代田区,丸の内２丁目７番２号,,13,101,1000005,,,2025-08-01,合併による解散等,6010001248961,令和７年８月１日東京都千代田区丸の内二丁目７番２号株式会社オープンハウス・ホテルズ＆リゾーツ（6010001248961）に合併し解散,2023-07-26,1,,,,,ミドリクサキコリゾート,0
506,3010401163945,登記記録の閉鎖等,0,2025-08-25,2025-07-28,ＭＰＲ株式会社,,株式会社,東京都,港区,浜松町２丁目２番１５号浜松町ダイヤビル２Ｆ,,13,103,1050013,,,2025-07-28,清算の結了等,,,2021-11-19,1,,,,,エムピーアール,0
511,3010402018784,登記記録の閉鎖等,0,2025-08-25,2025-07-29,有限会社タワービジネス,,有限会社,東京都,中央区,日本橋人形町３丁目４番５号日本タオル会館２階,,13,102,1030013,,,2025-07-29,清算の結了等,,,2015-10-05,1,,,,,タワービジネス,0
514,3010405021315,登記記録の閉鎖等,0,2025-08-25,2025-07-25,一般社団法人Ｍ３プロジェクト,,その他の設立登記法人,東京都,港区,虎ノ門３丁目２２番１０－２０１号,,13,103,1050001,,,2025-07-25,清算の結了等,,,2022-08-22,1,,,,,エムスリープロジェクト,0
543,3011602009094,登記記録の閉鎖等,0,2025-08-25,2025-08-07,有限会社堀美容商事,,有限会社,東京都,練馬区,高松１丁目８番８号,,13,120,1790075,,,2025-08-07,清算の結了等,,,2015-10-05,1,,,,,ホリビヨウショウジ,0
544,3012301009740,登記記録の閉鎖等,0,2025-08-25,2025-08-12,株式会社光健,,株式会社,東京都,町田市,常磐町３６５０番地６－２０２号室,,13,209,1940000,,,2025-08-12,清算の結了等,,,2015-10-05,1,,,,,コウケン,0
554,3020003018547,登記記録の閉鎖等,0,2025-08-25,2025-08-18,合同会社Ｙ‐Ｎｅｘｕｓ,,合同会社,東京都,町田市,旭町３丁目１３番２４号,,13,209,1940023,,,2025-08-18,清算の結了等,,,2020-09-28,1,,,,,ワイネクサス,0
565,3030001036070,登記記録の閉鎖等,0,2025-08-25,2025-08-14,シービーエス貿易株式会社,,株式会社,埼玉県,八潮市,大字南川崎１３３番地,,11,234,3400814,,,2025-08-14,清算の結了等,,,2015-10-05,1,,,,,シービーエスボウエキ,0
566,3030001154574,登記記録の閉鎖等,0,2025-08-25,2025-08-18,株式会社ｌｉａｎｅ,,株式会社,埼玉県,坂戸市,大字森戸１１０６番地３４,,11,239,3500244,,,2025-08-18,清算の結了等,,,2023-06-21,1,,,,,リアン,0
583,3050002003118,登記記録の閉鎖等,0,2025-08-25,2025-08-08,有限会社宮本電気,,有限会社,茨城県,水戸市,堀町１１４７番地の６２,,08,201,3100903,,,2025-08-08,清算の結了等,,,2015-10-05,1,,,,,ミヤモトデンキ,0
586,3060005002454,登記記録の閉鎖等,0,2025-08-25,2025-08-14,栃木県素材生産業協同組合,,その他の設立登記法人,栃木県,日光市,塩野室町２５５５番地２,,09,206,3212351,,,2025-08-14,清算の結了等,,,2015-10-05,1,,,,,トチギケンソザイセイサンギョウ,0
590,3080402000364,登記記録の閉鎖等,0,2025-08-25,2025-08-20,有限会社旭繊維,,有限会社,静岡県,浜松市中央区,三方原町１０８０番地の１,,22,138,4338105,,,2025-08-20,清算の結了等,,,2015-10-05,1,,,,,アサヒセンイ,0
599,3120001198851,登記記録の閉鎖等,0,2025-08-25,2025-08-12,ジェイ・ジー・エス・オー・デファインドネットワーク株式会社,,株式会社,京都府,相楽郡精華町,光台１丁目７けいはんなプラザ・ラボ棟,,26,366,6190237,,,2025-08-12,清算の結了等,,,2016-06-14,1,,,,,,0
617,3140001098661,登記記録の閉鎖等,0,2025-08-25,2025-08-20,株式会社ルネサンス・エージェント,,株式会社,兵庫県,神戸市中央区,御幸通４丁目２番９号,,28,110,6510087,,,2025-08-20,清算の結了等,,,2015-10-05,1,,,,,,0
625,3150002009336,登記記録の閉鎖等,0,2025-08-25,2025-08-21,有限会社藤本商事,,有限会社,奈良県,大和高田市,大字野口１２５番地の４,,29,202,6350075,,,2025-08-21,清算の結了等,,,2015-10-05,1,,,,,,0
627,3160005005059,登記記録の閉鎖等,0,2025-08-25,2025-08-19,永福寺,,その他の設立登記法人,滋賀県,犬上郡多賀町,大字中川原４７番地,,25,443,5220355,,,2025-08-19,清算の結了等,,,2015-10-05,1,,,,,エイフクジ,0
642,3200001036499,登記記録の閉鎖等,0,2025-08-25,2025-08-18,株式会社季寿,,株式会社,岐阜県,岐阜市,西改田七石２－２,,21,201,5011169,,,2025-08-18,清算の結了等,,,2019-07-29,1,,,,,,0
643,3200001039527,登記記録の閉鎖等,0,2025-08-25,2025-08-21,株式会社ｎｏｓｕｋｅ,,株式会社,岐阜県,瑞穂市,森６７８番地３,,21,216,5010303,,,2025-08-21,清算の結了等,,,2021-12-13,1,,,,,ノスケ,0
651,3240001047658,登記記録の閉鎖等,0,2025-08-25,2025-08-21,株式会社グランアーク,,株式会社,広島県,東広島市,八本松東２丁目１３番１２号,,34,212,7390142,,,2025-08-21,清算の結了等,,,2015-10-05,1,,,,,グランアーク,0
653,3260001024770,登記記録の閉鎖等,0,2025-08-25,2025-08-04,株式会社大好き真庭,,株式会社,岡山県,真庭市,鍋屋６７番地２,,33,214,7193214,,,2025-08-04,清算の結了等,,,2015-10-05,1,,,,,ダイスキマニワ,0
674,3360001020314,登記記録の閉鎖等,0,2025-08-25,2025-08-12,株式会社長田組開発,,株式会社,沖縄県,沖縄市,松本３丁目６番２０号,,47,211,9042151,,,2025-08-12,清算の結了等,,,2016-01-12,1,,,,,ナガタグミカイハツ,0
713,4010401187902,登記記録の閉鎖等,0,2025-08-25,2025-08-19,株式会社ＧＪ３,,株式会社,東京都,港区,虎ノ門１丁目３番１号,,13,103,1050001,,,2025-08-19,合併による解散等,7470001005390,令和７年８月１日香川県高松市香南町岡５８番地吉田食品工業株式会社（7470001005390）に合併し解散,2025-02-05,1,,,,,ジージェーサン,0
724,4010702006323,登記記録の閉鎖等,0,2025-08-25,2025-08-14,有限会社根岸工業所,,有限会社,東京都,品川区,豊町４丁目１１番８号,,13,109,1420042,,,2025-08-14,清算の結了等,,,2015-10-05,1,,,,,ネギシコウギョウショ,0
729,4010802010019,登記記録の閉鎖等,0,2025-08-25,2025-08-18,有限会社東亜マシンツール,,有限会社,東京都,大田区,本羽田１丁目９番６号,,13,111,1440044,,,2025-08-18,清算の結了等,,,2015-10-05,1,,,,,,0
736,4010903003490,登記記録の閉鎖等,0,2025-08-25,2025-08-21,ＳＳＫ合同会社,,合同会社,東京都,世田谷区,成城８丁目１６番４号,,13,112,1570066,,,2025-08-21,合併による解散等,4010903003540,令和７年８月１日神奈川県藤沢市片瀬海岸二丁目１７番８号ＹＭＧ合同会社（4010903003540）に合併し解散,2017-02-09,1,,,,,,0
752,4011101090330,登記記録の閉鎖等,0,2025-08-25,2025-07-23,マスケア株式会社,,株式会社,東京都,新宿区,西新宿３丁目７－１新宿パークタワーＮ３０Ｆ,,13,104,1600023,,,2025-07-23,清算の結了等,,,2020-02-04,1,,,,,マスケア,0
760,4011301014989,登記記録の閉鎖等,0,2025-08-25,2025-08-21,株式会社フロール,,株式会社,東京都,杉並区,井草４丁目１６番１１号,,13,115,1670021,,,2025-08-21,清算の結了等,,,2015-10-05,1,,,,,フロール,0
763,4011401014848,登記記録の閉鎖等,0,2025-08-25,2025-08-20,三京工業株式会社,,株式会社,東京都,板橋区,若木３丁目６番１７号,,13,119,1740065,,,2025-08-20,清算の結了等,,,2015-10-05,1,,,,,サンキョウコウギョウ,0
769,4011702000563,登記記録の閉鎖等,0,2025-08-25,2025-08-15,有限会社アピール,,有限会社,東京都,江戸川区,松江２丁目４番１０号３０１,,13,123,1320025,,,2025-08-15,清算の結了等,,,2015-10-05,1,,,,,,0
770,4011801018085,登記記録の閉鎖等,0,2025-08-25,2025-08-20,株式会社ツバル,,株式会社,東京都,葛飾区,堀切４丁目４０番５号,,13,122,1240006,,,2025-08-20,清算の結了等,,,2015-10-05,1,,,,,ツバル,0
776,4012401025430,登記記録の閉鎖等,0,2025-08-25,2025-08-18,オーディエンス株式会社,,株式会社,東京都,狛江市,和泉本町１丁目３６番１－６０８号,,13,219,2010003,,,2025-08-18,清算の結了等,,,2015-10-05,1,,,,,オーディエンス,0
781,4013102003725,登記記録の閉鎖等,0,2025-08-25,2025-08-22,有限会社ケイハツ,,有限会社,東京都,羽村市,羽４１４２番地１,,13,227,2050012,,,2025-08-22,合併による解散等,8012702013114,令和７年８月１日東京都清瀬市下清戸二丁目５８６番地１９株式会社ツカサ・エコ・プランニング（8012702013114）に合併し解散,2015-10-05,1,,,,,ケイハツ,0
782,4013202005530,登記記録の閉鎖等,0,2025-08-25,2025-07-22,有限会社プティマルシェ,,有限会社,東京都,目黒区,自由が丘１丁目２５番２２号,,13,110,1520035,,,2025-07-22,清算の結了等,,,2015-10-05,1,,,,,プティマルシェ,0
811,4040002022654,登記記録の閉鎖等,0,2025-08-25,2025-07-29,有限会社四川閣,,有限会社,千葉県,船橋市,前原東２丁目２３番２号,,12,204,2740824,,,2025-07-29,清算の結了等,,,2015-10-05,1,,,,,シセンカク,0
817,4060002006069,登記記録の閉鎖等,0,2025-08-25,2025-08-18,有限会社塚原商会,00024292,有限会社,栃木県,宇都宮市,中今泉１丁目１番４号,,09,201,3210968,,,2025-08-18,清算の結了等,,,2015-10-05,1,,,,,ツカハラショウカイ,0
828,4120001081420,登記記録の閉鎖等,0,2025-08-25,2025-07-31,株式会社崇和,,株式会社,大阪府,大阪市中央区,西心斎橋２丁目７番２５号竹内ビル５階,,27,128,5420086,,,2025-07-31,清算の結了等,,,2015-10-05,1,,,,,シュウワ,0
831,4120001121977,登記記録の閉鎖等,0,2025-08-25,2025-08-08,新日本プランニング株式会社,,株式会社,大阪府,大阪市北区,西天満３丁目１４番１１号,,27,127,5300047,,,2025-08-08,合併による解散等,5120001065793,令和７年７月３０日大阪市北区西天満三丁目１４番１１号株式会社新日本（5120001065793）に合併し解散,2015-10-05,1,,,,,シンニホンプランニング,0
841,4120003006747,登記記録の閉鎖等,0,2025-08-25,2025-08-08,合同会社蝸牛,,合同会社,大阪府,大阪市東淀川区,豊里３丁目９番２０号メゾンマグノリア１０３号,,27,114,5330013,,,2025-08-08,清算の結了等,,,2015-10-05,1,,,,,,0
853,4130002016309,登記記録の閉鎖等,0,2025-08-25,2025-08-05,有限会社コスモアイ,,有限会社,京都府,京都市中京区,堺町通御池下る丸木材木町６７１番地エクレーヌ御池８０１号,,26,104,6048106,,,2025-08-05,清算の結了等,,,2015-10-05,1,,,,,コスモアイ,0
876,4200001015700,登記記録の閉鎖等,0,2025-08-25,2025-08-20,ファインサービス株式会社,,株式会社,岐阜県,大垣市,丸の内２丁目６４番地,,21,202,5030888,,,2025-08-20,清算の結了等,,,2015-10-05,1,,,,,ファインサービス,0
881,4220002002316,登記記録の閉鎖等,0,2025-08-25,2025-08-22,有限会社エフ・ジー・ピー,,有限会社,石川県,金沢市,南新保町イ１２０番地,,17,201,9200064,,,2025-08-22,清算の結了等,,,2015-10-05,1,,,,,エフジーピー,0
882,4220002003883,登記記録の閉鎖等,0,2025-08-25,2025-08-22,土倉製本有限会社,,有限会社,石川県,金沢市,諸江町７番８号,,17,201,9200014,,,2025-08-22,清算の結了等,,,2015-10-05,1,,,,,ツチクラセイホン,0
888,4240001028491,登記記録の閉鎖等,0,2025-08-25,2025-08-20,二階堂倉庫株式会社,,株式会社,広島県,大竹市,港町２丁目６番４号,,34,211,7390621,,,2025-08-20,清算の結了等,,,2015-10-05,1,,,,,ニカイドウソウコ,0
892,4260001026774,登記記録の閉鎖等,0,2025-08-25,2025-08-05,ケイエス工業株式会社,,株式会社,岡山県,赤磐市,桜が丘東２丁目２番地５４９,,33,213,7090721,,,2025-08-05,清算の結了等,,,2015-10-05,1,,,,,ケイエスコウギョウ,0
893,4260001038068,登記記録の閉鎖等,0,2025-08-25,2025-08-07,ＴＥＰＰＥＮ株式会社,,株式会社,岡山県,岡山市北区,駅前町１丁目１０番２０号放駒ビル２Ｆ,,33,101,7000023,,,2025-08-07,清算の結了等,,,2023-07-03,1,,,,,テッペン,0
896,4280002005809,登記記録の閉鎖等,0,2025-08-25,2025-08-20,有限会社中家商店,,有限会社,島根県,出雲市,今市町８８５番地続１,,32,203,6930001,,,2025-08-20,清算の結了等,,,2015-10-05,1,,,,,ナカヤショウテン,0
905,4290801013614,登記記録の閉鎖等,0,2025-08-25,2025-08-22,株式会社ＣＰＥＸ,,株式会社,福岡県,北九州市八幡西区,黒崎城石３番５号,,40,109,8060004,,,2025-08-22,清算の結了等,,,2015-10-05,1,,,,,シーペックス,0
907,4290802006988,登記記録の閉鎖等,0,2025-08-25,2025-08-21,有限会社ルビナ,,有限会社,福岡県,北九州市小倉南区,徳力団地２番３号,,40,107,8020975,,,2025-08-21,清算の結了等,,,2015-10-05,1,,,,,ルビナ,0
918,4360003012721,登記記録の閉鎖等,0,2025-08-25,2025-08-01,合同会社ヨシケンソウ,,合同会社,沖縄県,うるま市,字川崎２１７番地７,,47,213,9042203,,,2025-08-01,清算の結了等,,,2023-02-14,1,,,,,ヨシケンソウ,0
919,4370001024461,登記記録の閉鎖等,0,2025-08-25,2025-08-04,株式会社Ｇ・Ｘ・Ｐ,,株式会社,宮城県,仙台市泉区,北中山４丁目１８番地の９,,04,105,9813215,,,2025-08-04,清算の結了等,,,2015-10-05,1,,,,,ジーエックスピー,0
921,4370302001374,登記記録の閉鎖等,0,2025-08-25,2025-07-31,有限会社セイザン企画開発,,有限会社,宮城県,石巻市,羽黒町１丁目７番２号,,04,202,9860831,,,2025-07-31,清算の結了等,,,2015-10-05,1,,,,,セイザンキカクカイハツ,0
944,5010001030593,登記記録の閉鎖等,0,2025-08-25,2025-07-24,株式会社明協,,株式会社,東京都,千代田区,岩本町２丁目１０番９号,,13,101,1010032,,,2025-07-24,清算の結了等,,,2025-05-07,1,,,,,メイキョウ,0
947,5010003038825,登記記録の閉鎖等,0,2025-08-25,2025-07-29,合同会社タチバナストリート,,合同会社,東京都,千代田区,神田神保町１丁目１１番地さくら綜合事務所内,,13,101,1010051,,,2025-07-29,清算の結了等,,,2022-10-07,1,,,,,タチバナストリート,0
990,5011402008286,登記記録の閉鎖等,0,2025-08-25,2025-08-20,有限会社松岡光学硝子加工所,,有限会社,東京都,板橋区,中丸町４８番１０号,,13,119,1730026,,,2025-08-20,清算の結了等,,,2025-07-15,1,,,,,マツオカコウガクガラスカコウジョ,0
991,5011403003253,登記記録の閉鎖等,0,2025-08-25,2025-08-20,合同会社ＳＴＡＭ,,合同会社,東京都,板橋区,大山金井町５４番地１０号ライオンズマンション大山第５－１０２号室,,13,119,1730024,,,2025-08-20,清算の結了等,,,2021-02-22,1,,,,,スタム,0
995,5011602007889,登記記録の閉鎖等,0,2025-08-25,2025-08-21,有限会社ハウスプランナー,,有限会社,東京都,杉並区,上高井戸１丁目２８番２７号１０３,,13,115,1680074,,,2025-08-21,清算の結了等,,,2015-10-05,1,,,,,,0
998,5011801001585,登記記録の閉鎖等,0,2025-08-25,2025-08-21,株式会社小林製作所,,株式会社,東京都,葛飾区,東新小岩８丁目２４番６号,,13,122,1240023,,,2025-08-21,清算の結了等,,,2015-10-05,1,,,,,コバヤシセイサクジョ,0
1001,5012302004061,登記記録の閉鎖等,0,2025-08-25,2025-08-18,有限会社ブラボースタジオ,,有限会社,東京都,町田市,能ヶ谷７丁目１５番２号,,13,209,1950053,,,2025-08-18,清算の結了等,,,2015-10-05,1,,,,,,0
1018,5021001072773,登記記録の閉鎖等,0,2025-08-25,2025-08-13,株式会社モンブランスタンド,,株式会社,神奈川県,鎌倉市,由比ガ浜２丁目１６番１号,,14,204,2480014,,,2025-08-13,清算の結了等,,,2021-04-26,1,,,,,モンブランスタンド,0
1020,5021002027628,登記記録の閉鎖等,0,2025-08-25,2025-08-21,有限会社アイアイミルク宅配センター,,有限会社,神奈川県,相模原市南区,当麻８９７番４,,14,153,2520336,,,2025-08-21,清算の結了等,,,2015-10-05,1,,,,,アイアイミルクタクハイセンター,0
1021,5021002034632,登記記録の閉鎖等,0,2025-08-25,2025-08-13,有限会社岩崎電気商会,,有限会社,神奈川県,伊勢原市,石田３０６番地の１,,14,214,2591116,,,2025-08-13,清算の結了等,,,2015-10-05,1,,,,,イワサキデンキショウカイ,0
1026,5030002062642,登記記録の閉鎖等,0,2025-08-25,2025-08-19,有限会社渡辺スクリュー超硬,,有限会社,埼玉県,新座市,野火止８丁目２４番２０号,,11,230,3520011,,,2025-08-19,清算の結了等,,,2015-10-05,1,,,,,ワタナベスクリューチョウコウ,0
1030,5040001026432,登記記録の閉鎖等,0,2025-08-25,2025-07-25,ジェイワイエスジャパン株式会社,,株式会社,東京都,千代田区,鍛冶町１丁目９番８号,,13,101,1010044,,,2025-07-25,清算の結了等,,,2015-10-05,1,,,,,ジェイワイエスジャパン,0
1034,5040002019484,登記記録の閉鎖等,0,2025-08-25,2025-07-17,有限会社ベストプラン,,有限会社,千葉県,習志野市,大久保１丁目１４番１６号,,12,216,2750011,,,2025-07-17,清算の結了等,,,2015-10-05,1,,,,,ベストプラン,0
1052,5080402004322,登記記録の閉鎖等,0,2025-08-25,2025-08-20,有限会社青果のスズキ,,有限会社,静岡県,浜松市中央区,早出町４１０番地,,22,138,4350054,,,2025-08-20,清算の結了等,,,2015-10-05,1,,,,,セイカノスズキ,0
1055,5090002004985,登記記録の閉鎖等,0,2025-08-25,2025-08-19,有限会社笹本保険事務所,,有限会社,山梨県,中巨摩郡昭和町,清水新居５５３番地,,19,384,4093867,,,2025-08-19,清算の結了等,,,2015-10-05,1,,,,,ササモトホケンジムショ,0
1062,5120001111952,登記記録の閉鎖等,0,2025-08-25,2025-08-14,ＤＡＰ株式会社,,株式会社,大阪府,大阪市淀川区,西中島６丁目２番３－６１２号,,27,123,5320011,,,2025-08-14,清算の結了等,,,2015-10-05,1,,,,,ディーエーピー,0
1070,5120003017339,登記記録の閉鎖等,0,2025-08-25,2025-08-20,合同会社ペルシード,,合同会社,大阪府,大阪市城東区,蒲生２丁目４－１９キャピタル京橋２０３号室,,27,118,5360016,,,2025-08-20,合併による解散等,9122003001764,令和７年８月１日大阪府東大阪市長栄寺２－１２ＴｓｕｎａｇａｒｕＢＬＤＧ５Ｆ合同会社キンキプロパティ（9122003001764）に合併し解散,2020-04-17,1,,,,,,0
1087,5140003017295,登記記録の閉鎖等,0,2025-08-25,2025-08-22,合同会社ＹＳプランニング,,合同会社,兵庫県,神戸市長田区,若松町９丁目１－５,,28,106,6530038,,,2025-08-22,清算の結了等,,,2022-01-28,1,,,,,ワイエスプランニング,0
1106,5240002000804,登記記録の閉鎖等,0,2025-08-25,2025-08-21,有限会社アンビックコーポレーション,,有限会社,広島県,広島市佐伯区,五日市中央７丁目２４番３３－２１号,,34,108,7315128,,,2025-08-21,清算の結了等,,,2015-10-05,1,,,,,アンビックコーポレーション,0
1132,5370001007556,登記記録の閉鎖等,0,2025-08-25,2025-08-01,完全容器株式会社,,株式会社,宮城県,仙台市青葉区,芋沢字大竹原４５番地,,04,101,9893212,,,2025-08-01,合併による解散等,7370001008494,令和７年８月１日仙台市青葉区大町二丁目８番２３号株式会社白松がモナカ本舗（7370001008494）に合併し解散,2015-10-05,1,,,,,カンゼンヨウキ,0
1134,5380001014601,登記記録の閉鎖等,0,2025-08-25,2025-08-04,株式会社國玉興業,,株式会社,福島県,いわき市,四倉町字梅ケ丘２１４番地３,,07,204,9790201,,,2025-08-04,清算の結了等,,,2015-10-05,1,,,,,,0
1137,5380002005888,登記記録の閉鎖等,0,2025-08-25,2025-08-01,有限会社川島鉄工所,,有限会社,福島県,福島市,飯野町字境川８番地,,07,201,9601301,,,2025-08-01,清算の結了等,,,2015-10-05,1,,,,,,0
1138,5390002009748,登記記録の閉鎖等,0,2025-08-25,2025-08-18,有限会社本間べんとう店,,有限会社,山形県,鶴岡市,宝田１丁目６番２６号,,06,203,9970011,,,2025-08-18,清算の結了等,,,2015-10-05,1,,,,,ホンマベントウテン,0
1141,5430001011634,登記記録の閉鎖等,0,2025-08-25,2025-08-04,株式会社ドゥ・マイセン・コーポレーション,,株式会社,北海道,札幌市豊平区,平岸四条９丁目７番２０号,,01,105,0620934,,,2025-08-04,清算の結了等,,,2015-10-05,1,,,,,ドゥマイセンコーポレーション,0
1143,5430001077106,登記記録の閉鎖等,0,2025-08-25,2025-08-01,アール＆ディー株式会社,,株式会社,北海道,札幌市西区,琴似一条６丁目４－１９ＴＡＩＫＩビルＢ１Ｆ,,01,107,0630811,,,2025-08-01,合併による解散等,9430001040803,令和７年８月１日札幌市西区福井五丁目１８番２６号ロックメディカル株式会社（9430001040803）に合併し解散,2018-08-01,1,,,,,アールアンドディー,0
1172,6010003036778,登記記録の閉鎖等,0,2025-08-25,2025-07-30,合同会社ＳＰＣ３,,合同会社,東京都,千代田区,平河町１丁目６番１５号シルスフィア会計事務所内,,13,101,1020093,,,2025-07-30,清算の結了等,,,2022-01-19,1,,,,,エスピーシースリー,0
1186,6010402003511,登記記録の閉鎖等,0,2025-08-25,2025-07-25,有限会社かつの,,有限会社,東京都,港区,赤坂２丁目１６番６号,,13,103,1070052,,,2025-07-25,清算の結了等,,,2015-10-05,1,,,,,カツノ,0
1187,6010403021982,登記記録の閉鎖等,0,2025-08-25,2025-07-28,合同会社長津田,,合同会社,東京都,港区,虎ノ門２丁目６番１号虎ノ門ヒルズステーションタワー,,13,103,1050001,,,2025-07-28,清算の結了等,,,2019-12-09,1,,,,,ナガツタ,0
1195,6010602019605,登記記録の閉鎖等,0,2025-08-25,2025-08-18,有限会社マルダイ,,有限会社,東京都,墨田区,文花１丁目３２番１－８０２号,,13,107,1310044,,,2025-08-18,清算の結了等,,,2015-10-05,1,,,,,,0
1199,6010705002887,登記記録の閉鎖等,0,2025-08-25,2025-07-22,一般社団法人地方行政リーダーシップ研究会,,その他の設立登記法人,東京都,新宿区,弁天町２番地１６サウスライトＶ４階,,13,104,1620851,,,2025-07-22,清算の結了等,,,2019-01-10,1,,,,,チホウギョウセイリーダーシップケンキュウカイ,0
1210,6011101040556,登記記録の閉鎖等,0,2025-08-25,2025-07-22,エステービジネスサポート株式会社,,株式会社,東京都,新宿区,下落合１丁目４番１０号,,13,104,1610033,,,2025-07-22,合併による解散等,8011101003057,令和７年７月１日東京都新宿区下落合一丁目４番１０号エステー株式会社（8011101003057）に合併し解散,2015-10-05,1,,,,,エステービジネスサポート,0
1223,6011502011957,登記記録の閉鎖等,0,2025-08-25,2025-08-21,有限会社ワタナベオートサービス,,有限会社,東京都,荒川区,東日暮里４丁目１５番１号,,13,118,1160014,,,2025-08-21,清算の結了等,,,2015-10-05,1,,,,,,0
1225,6011601005471,登記記録の閉鎖等,0,2025-08-25,2025-08-18,株式会社野木石材,,株式会社,東京都,三鷹市,下連雀３丁目２７番１号三協ビル２Ｆ,,13,204,1810013,,,2025-08-18,清算の結了等,,,2015-10-05,1,,,,,ノギセキザイ,0
1234,6012402021831,登記記録の閉鎖等,0,2025-08-25,2025-08-15,ワイ・エー・エレクトロニクス有限会社,,有限会社,東京都,武蔵野市,吉祥寺東町３丁目２０番１４号,,13,203,1800002,,,2025-08-15,清算の結了等,,,2015-10-05,1,,,,,ワイエーエレクトロニクス,0
1249,6021001055819,登記記録の閉鎖等,0,2025-08-25,2025-08-21,株式会社真誠工業,,株式会社,神奈川県,大和市,上草柳６丁目１６番２１号,,14,213,2420029,,,2025-08-21,清算の結了等,,,2015-10-05,1,,,,,シンセイコウギョウ,0
1251,6021001079000,登記記録の閉鎖等,0,2025-08-25,2025-08-14,株式会社森富,,株式会社,神奈川県,横須賀市,浦賀丘２丁目１２番１０号,,14,201,2390823,,,2025-08-14,清算の結了等,,,2023-05-12,1,,,,,モリトミ,0
1265,6060001008246,登記記録の閉鎖等,0,2025-08-25,2025-08-19,株式会社エフエー観光,,株式会社,栃木県,那須烏山市,向田３３２番地１,,09,215,3210635,,,2025-08-19,清算の結了等,,,2015-10-05,1,,,,,エフエーカンコウ,0
1267,6080001003195,登記記録の閉鎖等,0,2025-08-25,2025-08-18,株式会社たか井,,株式会社,静岡県,静岡市葵区,車町１７番地,,22,101,4200022,,,2025-08-18,清算の結了等,,,2015-10-05,1,,,,,タカイ,0
1268,6080401014841,登記記録の閉鎖等,0,2025-08-25,2025-08-21,袴田燃料株式会社,,株式会社,静岡県,菊川市,赤土１１１２番地の３,,22,224,4371507,,,2025-08-21,清算の結了等,,,2015-10-05,1,,,,,ハカマダネンリョウ,0
1269,6080401027496,登記記録の閉鎖等,0,2025-08-25,2025-08-20,株式会社Ｆｏｒｔｙ,,株式会社,静岡県,浜松市中央区,初生町１１８９―２,,22,138,4338112,,,2025-08-20,清算の結了等,,,2024-10-07,1,,,,,フォーティ,0
1270,6090001012880,登記記録の閉鎖等,0,2025-08-25,2025-08-19,株式会社おりいぶ,,株式会社,山梨県,甲府市,岩窪町３５９番地９,,19,201,4000013,,,2025-08-19,清算の結了等,,,2015-10-05,1,,,,,オリイブ,0
1273,6100002024568,登記記録の閉鎖等,0,2025-08-25,2025-08-20,有限会社アシストエム,,有限会社,長野県,東筑摩郡朝日村,大字西洗馬１５１４番地１０,,20,451,3901101,,,2025-08-20,清算の結了等,,,2015-10-05,1,,,,,アシストエム,0
1274,6120001121554,登記記録の閉鎖等,0,2025-08-25,2025-08-01,株式会社トップシステム,,株式会社,大阪府,大阪市中央区,北久宝寺町３丁目６番１号,,27,128,5410057,,,2025-08-01,清算の結了等,,,2015-10-05,1,,,,,トップシステム,0
1275,6120001125670,登記記録の閉鎖等,0,2025-08-25,2025-08-08,株式会社五社,,株式会社,大阪府,大阪市中央区,谷町８丁目２番３号久寿野木ビル１０２号,,27,128,5420012,,,2025-08-08,清算の結了等,,,2015-10-05,1,,,,,ゴシャ,0
1294,6130002008337,登記記録の閉鎖等,0,2025-08-25,2025-08-05,有限会社アルファー電子,,有限会社,京都府,京都市西京区,御陵溝浦町８番地の３０,,26,111,6158231,,,2025-08-05,清算の結了等,,,2015-10-05,1,,,,,アルファーデンシ,0
1295,6140001029531,登記記録の閉鎖等,0,2025-08-25,2025-08-21,株式会社三つ葉屋,,株式会社,兵庫県,神戸市中央区,小野浜町９番地５５,,28,110,6510082,,,2025-08-21,清算の結了等,,,2015-10-05,1,,,,,ミツバヤ,0
1302,6140002053927,登記記録の閉鎖等,0,2025-08-25,2025-08-19,有限会社トータルビジネス,,有限会社,兵庫県,姫路市,花田町加納原田５４２番地１Ｂ－２０３,,28,201,6710252,,,2025-08-19,清算の結了等,,,2015-10-05,1,,,,,トータルビジネス,0
1305,6160003002030,登記記録の閉鎖等,0,2025-08-25,2025-08-19,合同会社ＢＷＳ,,合同会社,滋賀県,大津市,赤尾町１７－９,,25,201,5200864,,,2025-08-19,清算の結了等,,,2020-04-15,1,,,,,ビーダブルエス,0
1314,6180001144013,登記記録の閉鎖等,0,2025-08-25,2025-07-31,株式会社ｅｉｔｏ,,株式会社,愛知県,春日井市,東山町３丁目７番８号,,23,206,4860811,,,2025-07-31,清算の結了等,,,2020-12-15,1,,,,,エイト,0
1318,6180002041705,登記記録の閉鎖等,0,2025-08-25,2025-07-29,有限会社飯田製作所,,有限会社,愛知県,名古屋市守山区,天子田２丁目５０４番地,,23,113,4630037,,,2025-07-29,清算の結了等,,,2015-10-05,1,,,,,イイダセイサクジョ,0
1326,6180301018065,登記記録の閉鎖等,0,2025-08-25,2025-08-08,片山建設株式会社,,株式会社,愛知県,豊田市,緑ケ丘４丁目５８番地の１,,23,211,4710838,,,2025-08-08,清算の結了等,,,2015-10-05,1,,,,,カタヤマケンセツ,0
1333,6210001010616,登記記録の閉鎖等,0,2025-08-25,2025-08-21,株式会社ＤＳＫ,,株式会社,福井県,敦賀市,公文名４号３１番地,,18,202,9140131,,,2025-08-21,清算の結了等,,,2015-10-05,1,,,,,ディーエスケイ,0
1343,6260002027175,登記記録の閉鎖等,0,2025-08-25,2025-07-31,有限会社ぎんざ,,有限会社,岡山県,新見市,西方４４２番地の２,,33,210,7180017,,,2025-07-31,清算の結了等,,,2015-10-05,1,,,,,ギンザ,0
1401,7010001191533,登記記録の閉鎖等,0,2025-08-25,2025-08-19,株式会社友村国際,,株式会社,東京都,墨田区,横川４丁目３番９号,,13,107,1300003,,,2025-08-19,清算の結了等,,,2018-05-09,1,,,,,トモムラコクサイ,0
1421,7010401164196,登記記録の閉鎖等,0,2025-08-25,2025-07-24,株式会社ＷＨＩＴＥ,,株式会社,東京都,港区,東麻布１丁目１３－１０,,13,103,1060044,,,2025-07-24,清算の結了等,,,2021-12-06,1,,,,,ホワイト,0
1424,7010403029091,登記記録の閉鎖等,0,2025-08-25,2025-07-25,合同会社Ｇｒｅｅｎ　Ｂｕｉｌｄｉｎｇ,,合同会社,東京都,港区,赤坂９丁目１番７号,,13,103,1070052,,,2025-07-25,清算の結了等,,,2022-12-05,1,,,,,グリーンビルディング,0
1448,7011003011290,登記記録の閉鎖等,0,2025-08-25,2025-08-05,合同会社ファイブＵＰ,,合同会社,東京都,目黒区,八雲１丁目４番６号池田ビル３Ｆ,,13,110,1520023,,,2025-08-05,清算の結了等,,,2020-06-12,1,,,,,ファイブアップ,0
1467,7011502007079,登記記録の閉鎖等,0,2025-08-25,2025-08-20,有限会社泉木型製作所,,有限会社,東京都,荒川区,町屋４丁目２４番１５号,,13,118,1160001,,,2025-08-20,清算の結了等,,,2015-10-05,1,,,,,,0
1472,7011701024346,登記記録の閉鎖等,0,2025-08-25,2025-08-18,株式会社カーライフサポート,,株式会社,東京都,江戸川区,西小岩３丁目３８－９,,13,123,1330057,,,2025-08-18,清算の結了等,,,2021-05-06,1,,,,,カーライフサポート,0
1489,7012401032688,登記記録の閉鎖等,0,2025-08-25,2025-07-22,ＵＰ＆ＵＰ株式会社,,株式会社,東京都,渋谷区,恵比寿４丁目８番５号,,13,113,1500013,,,2025-07-22,清算の結了等,,,2017-05-02,1,,,,,アップアンドアップ,0
1494,7013401006938,登記記録の閉鎖等,0,2025-08-25,2025-08-21,株式会社皆成,,株式会社,東京都,あきる野市,小川５２４番地６,,13,228,1970821,,,2025-08-21,清算の結了等,,,2015-10-05,1,,,,,カイセイ,0
1506,7030001004461,登記記録の閉鎖等,0,2025-08-25,2025-08-12,株式会社スターコーポレーション,,株式会社,埼玉県,さいたま市浦和区,高砂２丁目１番１６号,,11,107,3300063,,,2025-08-12,合併による解散等,1030001000581,令和７年７月３１日埼玉県さいたま市浦和区高砂二丁目１番１６号株式会社イイダ靴店（1030001000581）に合併し解散,2015-10-05,1,,,,,スターコーポレーション,0
1530,7080401018255,登記記録の閉鎖等,0,2025-08-25,2025-08-20,株式会社オーエスジョイ,,株式会社,静岡県,磐田市,上大之郷５９８番地１,,22,211,4380051,,,2025-08-20,清算の結了等,,,2015-10-05,1,,,,,オーエスジョイ,0
1534,7080402015862,登記記録の閉鎖等,0,2025-08-25,2025-08-20,精弘社有限会社,,有限会社,静岡県,浜松市浜名区,細江町中川５９２番地の１,,22,139,4311304,,,2025-08-20,清算の結了等,,,2015-10-05,1,,,,,セイコウシャ,0
1548,7120001204738,登記記録の閉鎖等,0,2025-08-25,2025-08-07,株式会社仁翔,,株式会社,大阪府,寝屋川市,河北中町２８番２１号,,27,215,5720816,,,2025-08-07,清算の結了等,,,2017-04-07,1,,,,,ジンショウ,0
1564,7140001067423,登記記録の閉鎖等,0,2025-08-25,2025-08-20,株式会社ルネサンス・サービシーズ,,株式会社,兵庫県,神戸市中央区,御幸通４丁目２番９号,,28,110,6510087,,,2025-08-20,清算の結了等,,,2015-10-05,1,,,,,ルネサンスサービシーズ,0
1572,7140002067356,登記記録の閉鎖等,0,2025-08-25,2025-08-19,有限会社船間建設,,有限会社,兵庫県,宝塚市,売布東の町１５番２６号,,28,214,6650867,,,2025-08-19,清算の結了等,,,2015-10-05,1,,,,,,0
1577,7180001002392,登記記録の閉鎖等,0,2025-08-25,2025-07-30,中日教育出版株式会社,,株式会社,愛知県,名古屋市千種区,池下１丁目６番２０号チサンマンション池下３０５号室,,23,101,4640067,,,2025-07-30,清算の結了等,,,2015-10-05,1,,,,,チュウニチキョウイクシュッパン,0
1583,7180301005599,登記記録の閉鎖等,0,2025-08-25,2025-08-14,株式会社小林土木,,株式会社,愛知県,豊橋市,西赤沢町字大堀１４１番地の２,,23,201,4413213,,,2025-08-14,清算の結了等,,,2015-10-05,1,,,,,コバヤシドボク,0
1593,7220003002766,登記記録の閉鎖等,0,2025-08-25,2025-08-20,合同会社ＫＩ　Ｃａｐｉｔａｌ,,合同会社,石川県,金沢市,泉が丘２丁目１２番１３号,,17,201,9218035,,,2025-08-20,合併による解散等,4220003001325,令和７年８月２０日石川県金沢市泉が丘二丁目１２番１３号合同会社Ｍｏｎｔ　Ｂｌａｎｃ（4220003001325）に合併し解散,2020-03-13,1,,,,,ケーアイキャピタル,0
1597,7250002006253,登記記録の閉鎖等,0,2025-08-25,2025-08-15,有限会社魚浜海苔店,,有限会社,山口県,山陽小野田市,大字鴨庄６０番地の８,,35,216,7570005,,,2025-08-15,清算の結了等,,,2015-10-05,1,,,,,ウオハマノリテン,0
1632,7380001023666,登記記録の閉鎖等,0,2025-08-25,2025-08-05,パワー技研株式会社,,株式会社,福島県,いわき市,中岡町５丁目９番地の６,,07,204,9748251,,,2025-08-05,清算の結了等,,,2015-10-05,1,,,,,パワーギケン,0
1634,7390001004211,登記記録の閉鎖等,0,2025-08-25,2025-08-21,ケーシーフレーム株式会社,,株式会社,山形県,西村山郡西川町,大字海味１５０番地,,06,322,9900702,,,2025-08-21,清算の結了等,,,2015-10-05,1,,,,,,0
1650,8010001033131,登記記録の閉鎖等,0,2025-08-25,2025-07-28,株式会社日本広研,,株式会社,東京都,千代田区,神田神保町３丁目２７番地,,13,101,1010051,,,2025-07-28,清算の結了等,,,2015-10-05,1,,,,,ニホンコウケン,0
1652,8010001075743,登記記録の閉鎖等,0,2025-08-25,2025-08-01,エクセルホールディングス株式会社,,株式会社,東京都,中央区,京橋２丁目１０番２号,,13,102,1040031,,,2025-08-01,合併による解散等,4040001034948,令和７年８月１日東京都中央区京橋二丁目１０番２号エクセル株式会社（4040001034948）に合併し解散,2015-10-05,1,,,,,エクセルホールディングス,0
1667,8010001244562,登記記録の閉鎖等,0,2025-08-25,2025-07-30,株式会社Ｌｕｎａパートナーズ,,株式会社,東京都,中央区,銀座４丁目９－８ＮＭＦ銀座四丁目ビル８Ｆ,,13,102,1040061,,,2025-07-30,清算の結了等,,,2024-05-09,1,,,,,ルナパートナーズ,0
1676,8010401059890,登記記録の閉鎖等,0,2025-08-25,2025-07-28,株式会社ブラボーフィルム,,株式会社,東京都,港区,南麻布１丁目６番８号,,13,103,1060047,,,2025-07-28,清算の結了等,,,2015-10-05,1,,,,,ブラボーフィルム,0
1694,8010705002076,登記記録の閉鎖等,0,2025-08-25,2025-08-13,特定非営利活動法人がんばれ経営者,,その他の設立登記法人,東京都,品川区,大井１丁目７番６号ＴＨビル４階,,13,109,1400014,,,2025-08-13,清算の結了等,,,2015-10-05,1,,,,,ガンバレケイエイシャ,0
1703,8011001112825,登記記録の閉鎖等,0,2025-08-25,2025-07-23,株式会社Ｔｈｅａｔｅｒ　ＬＯＶ,,株式会社,東京都,渋谷区,道玄坂１丁目１５番１４号,,13,113,1500043,,,2025-07-23,清算の結了等,,,2016-09-27,1,,,,,シアターエルオーヴイ,0
1708,8011101042609,登記記録の閉鎖等,0,2025-08-25,2025-08-18,株式会社エル・ディオ,,株式会社,東京都,江戸川区,南葛西７丁目１－６－１１０２,,13,123,1340085,,,2025-08-18,清算の結了等,,,2015-10-05,1,,,,,エルディオ,0
1711,8011101093890,登記記録の閉鎖等,0,2025-08-25,2025-07-23,株式会社ハレキナ・リレーション,,株式会社,東京都,新宿区,新宿１丁目３６番２号新宿第七葉山ビル３階,,13,104,1600022,,,2025-07-23,清算の結了等,,,2021-02-02,1,,,,,ハレキナリレーション,0
1716,8011201011488,登記記録の閉鎖等,0,2025-08-25,2025-08-18,株式会社Ｙ’ｓ　ｃｏｍｐａｎｙ,,株式会社,東京都,中野区,上高田１丁目２８番６号,,13,114,1640002,,,2025-08-18,清算の結了等,,,2015-10-05,1,,,,,ワイズカンパニー,0
1725,8011701012903,登記記録の閉鎖等,0,2025-08-25,2025-08-18,株式会社エムハーツ,,株式会社,東京都,江戸川区,東小岩５丁目１５番７号,,13,123,1330052,,,2025-08-18,清算の結了等,,,2015-10-05,1,,,,,エムハーツ,0
1731,8012301010446,登記記録の閉鎖等,0,2025-08-25,2025-08-14,株式会社ヴィクトリー,,株式会社,東京都,町田市,中町３丁目６番１２号,,13,209,1940021,,,2025-08-14,清算の結了等,,,2016-03-04,1,,,,,ヴィクトリー,0
1738,8013301029708,登記記録の閉鎖等,0,2025-08-25,2025-07-31,株式会社プライマリーステップ,,株式会社,福岡県,福岡市博多区,博多駅前２丁目１７番１号,,40,132,8120011,,,2025-07-31,清算の結了等,,,2015-10-05,1,,,,,プライマリーステップ,0
1743,8020002035282,登記記録の閉鎖等,0,2025-08-25,2025-08-06,有限会社パブリック・コンサルタンツ・インク,,有限会社,神奈川県,横浜市港北区,綱島上町４６番地の３豊栄綱島マンション８０３号,,14,109,2230055,,,2025-08-06,清算の結了等,,,2015-10-05,1,,,,,パブリックコンサルタンツインク,0
1760,8030002003180,登記記録の閉鎖等,0,2025-08-25,2025-08-18,有限会社小川カンパニー,,有限会社,埼玉県,さいたま市大宮区,高鼻町２丁目３２２番地,,11,103,3300803,,,2025-08-18,清算の結了等,,,2015-10-05,1,,,,,オガワカンパニー,0
1761,8030003013121,登記記録の閉鎖等,0,2025-08-25,2025-08-18,合同会社カブラナ,,合同会社,埼玉県,坂戸市,日の出町５番２４－５１０号レーベンリヴァーレ坂戸リッツ,,11,239,3500225,,,2025-08-18,清算の結了等,,,2019-02-22,1,,,,,カブラナ,0
1766,8040002043300,登記記録の閉鎖等,0,2025-08-25,2025-07-29,有限会社アニメートリンクス,,有限会社,千葉県,市川市,市川４丁目５番１８号,,12,203,2720034,,,2025-07-29,清算の結了等,,,2015-10-05,1,,,,,アニメートリンクス,0
1797,8120001075039,登記記録の閉鎖等,0,2025-08-25,2025-08-08,淀屋橋商事株式会社,,株式会社,大阪府,大阪市北区,大深町１番１号,,27,127,5300011,,,2025-08-08,清算の結了等,,,2015-10-05,1,,,,,ヨドヤバシショウジ,0
1809,8120005022086,登記記録の閉鎖等,0,2025-08-25,2025-08-21,一般社団法人ＳＨＩＮＤＥＮ,,その他の設立登記法人,大阪府,大阪市中央区,森ノ宮中央２丁目１２番１２号,,27,128,5400003,,,2025-08-21,清算の結了等,,,2021-01-26,1,,,,,シンデン,0
1829,8140001100389,登記記録の閉鎖等,0,2025-08-25,2025-08-20,ＮＫ建築工房株式会社,,株式会社,兵庫県,神戸市北区,鈴蘭台北町３丁目２６番７号,,28,109,6511111,,,2025-08-20,清算の結了等,,,2015-12-16,1,,,,,エヌケーケンチクコウボウ,0
1855,8180001091138,登記記録の閉鎖等,0,2025-08-25,2025-07-31,カズンズ永田株式会社,,株式会社,愛知県,名古屋市千種区,千種３丁目１５番１４号,,23,101,4640858,,,2025-07-31,清算の結了等,,,2015-10-05,1,,,,,カズンズナガタ,0
1865,8200001035488,登記記録の閉鎖等,0,2025-08-25,2025-08-18,株式会社ドローイング,,株式会社,岐阜県,岐阜市,六条大溝２丁目５番１号,,21,201,5008357,,,2025-08-18,清算の結了等,,,2018-08-27,1,,,,,,0
1868,8220003002765,登記記録の閉鎖等,0,2025-08-25,2025-08-20,合同会社ＳＮ　Ｃａｐｉｔａｌ,,合同会社,石川県,金沢市,泉が丘２丁目１２番１３号,,17,201,9218035,,,2025-08-20,合併による解散等,4220003001325,令和７年８月２０日石川県金沢市泉が丘二丁目１２番１３号合同会社Ｍｏｎｔ　Ｂｌａｎｃ（4220003001325）に合併し解散,2020-03-13,1,,,,,エスエヌキャピタル,0
1882,8280001007901,登記記録の閉鎖等,0,2025-08-25,2025-08-20,ダイセンアグリ株式会社,,株式会社,島根県,飯石郡飯南町,上来島７９３番地３,,32,386,6903405,,,2025-08-20,清算の結了等,,,2019-02-06,1,,,,,ダイセンアグリ,0
1886,8290005018373,登記記録の閉鎖等,0,2025-08-25,2025-08-01,ＮＰＯ法人シルバー人材ライフサポートセンター,,その他の設立登記法人,福岡県,福岡市南区,横手２丁目３２番３－２０２号,,40,134,8111311,,,2025-08-01,清算の結了等,,,2021-09-28,1,,,,,シルバージンザイライフサポートセンター,0
1900,8390001008599,登記記録の閉鎖等,0,2025-08-25,2025-08-20,株式会社大黒屋,,株式会社,山形県,新庄市,大町１番１５号,,06,205,9960026,,,2025-08-20,清算の結了等,,,2015-10-05,1,,,,,ダイコクヤ,0
1902,8390002013581,登記記録の閉鎖等,0,2025-08-25,2025-08-18,有限会社渡部醸造店,,有限会社,山形県,米沢市,春日１丁目５番３４号,,06,202,9920044,,,2025-08-18,清算の結了等,,,2015-10-05,1,,,,,ワタナベジョウゾウテン,0
1930,9010401124140,登記記録の閉鎖等,0,2025-08-25,2025-07-30,株式会社Ｆｉｒｓｔ　Ｃｈｉｌｄ,,株式会社,東京都,千代田区,平河町１丁目６番１５号シルスフィア会計事務所内,,13,101,1020093,,,2025-07-30,清算の結了等,,,2016-04-12,1,,,,,ファーストチャイルド,0
1935,9010403031104,登記記録の閉鎖等,0,2025-08-25,2025-08-20,湾岸トレーディング１号合同会社,,合同会社,東京都,小金井市,東町５丁目３０番１号,,13,210,1840011,,,2025-08-20,清算の結了等,,,2023-10-10,1,,,,,ワンガントレーディングイチゴウ,0
1940,9010501038868,登記記録の閉鎖等,0,2025-08-25,2025-08-20,株式会社アメディア・コミュニケーションズ,,株式会社,愛知県,名古屋市西区,南堀越２丁目２番４号,,23,104,4510054,,,2025-08-20,合併による解散等,9180001026456,令和７年７月３０日名古屋市西区南堀越二丁目２番４号株式会社ナカムラ（9180001026456）に合併し解散,2015-12-03,1,,,,,アメディアコミュニケーションズ,0
1941,9010602023265,登記記録の閉鎖等,0,2025-08-25,2025-08-15,有限会社スミダメック,,有限会社,東京都,墨田区,立川４丁目２番１３号,,13,107,1300023,,,2025-08-15,清算の結了等,,,2015-10-05,1,,,,,スミダメック,0
1946,9010801034443,登記記録の閉鎖等,0,2025-08-25,2025-08-18,株式会社玉興,,株式会社,東京都,大田区,西蒲田７丁目６４番３号３Ｆ,,13,111,1440051,,,2025-08-18,清算の結了等,,,2023-10-19,1,,,,,ギョクコウ,0
1947,9010901047361,登記記録の閉鎖等,0,2025-08-25,2025-07-18,ＧｒｉｔＧｒｏｕｐ株式会社,,株式会社,東京都,渋谷区,幡ヶ谷１丁目１－１幡ヶ谷プラザビル６Ｆ,,13,113,1510072,,,2025-07-18,清算の結了等,,,2020-11-05,1,,,,,グリットグループ,0
1965,9011602005749,登記記録の閉鎖等,0,2025-08-25,2025-08-04,有限会社千川,,有限会社,東京都,練馬区,上石神井１丁目２８番４号,,13,120,1770044,,,2025-08-04,清算の結了等,,,2015-10-05,1,,,,,センカワ,0
1974,9013101003960,登記記録の閉鎖等,0,2025-08-25,2025-08-21,株式会社ハート＆アロー・ダイアモンド,,株式会社,東京都,青梅市,河辺町１丁目８００番地,,13,205,1980036,,,2025-08-21,清算の結了等,,,2015-10-05,1,,,,,ハートアンドアローダイアモンド,0
1985,9021002029505,登記記録の閉鎖等,0,2025-08-25,2025-08-21,有限会社落合興運,,有限会社,神奈川県,相模原市緑区,川尻１５６３番地３,,14,151,2520111,,,2025-08-21,清算の結了等,,,2015-10-05,1,,,,,オチアイコウウン,0
1992,9030001159675,登記記録の閉鎖等,0,2025-08-25,2025-08-12,株式会社ＫＭＳ,,株式会社,埼玉県,鶴ヶ島市,大字脚折１３７７番地４４,,11,241,3502213,,,2025-08-12,清算の結了等,,,2024-04-05,1,,,,,ケイエムエス,0
1993,9030002007957,登記記録の閉鎖等,0,2025-08-25,2025-08-18,有限会社測真,,有限会社,埼玉県,越谷市,レイクタウン８丁目１番地Ｄ－７０７,,11,222,3430828,,,2025-08-18,清算の結了等,,,2015-10-05,1,,,,,ソクシン,0
1997,9040002075251,登記記録の閉鎖等,0,2025-08-25,2025-07-25,有限会社まるよ,,有限会社,千葉県,市原市,海保４１９番地１,,12,219,2900266,,,2025-07-25,清算の結了等,,,2015-10-05,1,,,,,マルヨ,0
2010,9070002009058,登記記録の閉鎖等,0,2025-08-25,2025-08-18,有限会社オーエーサプライ,,有限会社,群馬県,藤岡市,下大塚５７９番地１５,,10,209,3750052,,,2025-08-18,清算の結了等,,,2015-10-05,1,,,,,オーエーサプライ,0
2012,9080102009551,登記記録の閉鎖等,0,2025-08-25,2025-08-20,有限会社伊豆塗装,,有限会社,静岡県,駿東郡清水町,八幡２３番地,,22,341,4110906,,,2025-08-20,清算の結了等,,,2015-10-05,1,,,,,イズトソウ,0
2015,9100002039373,登記記録の閉鎖等,0,2025-08-25,2025-08-20,有限会社南通公司,,有限会社,長野県,北安曇郡白馬村,大字神城５７６３番地３２,,20,485,3999211,,,2025-08-20,清算の結了等,,,2024-05-31,1,,,,,ナンツウコウシ,0
2020,9120001271339,登記記録の閉鎖等,0,2025-08-25,2025-07-31,宮住興産株式会社,,株式会社,大阪府,大阪市北区,梅田１丁目１番３－７００号大阪駅前第３ビル７１７号室,,27,127,5300001,,,2025-07-31,清算の結了等,,,2025-01-06,1,,,,,ミヤズミコウサン,0
2021,9120002029901,登記記録の閉鎖等,0,2025-08-25,2025-08-08,有限会社嘉牛,,有限会社,大阪府,大阪市旭区,新森４丁目２６番２６号,,27,117,5350022,,,2025-08-08,清算の結了等,,,2015-10-05,1,,,,,,0
2042,9140002022202,登記記録の閉鎖等,0,2025-08-25,2025-08-20,有限会社ぐれ,,有限会社,兵庫県,神戸市灘区,城の下通２丁目３番２６号,,28,102,6570804,,,2025-08-20,清算の結了等,,,2015-10-05,1,,,,,グレ,0
2044,9140002038768,登記記録の閉鎖等,0,2025-08-25,2025-08-20,有限会社高野工業,,有限会社,兵庫県,加古川市,尾上町養田１５３２番地,,28,210,6750025,,,2025-08-20,清算の結了等,,,2015-10-05,1,,,,,タカノコウギョウ,0
2045,9140002049732,登記記録の閉鎖等,0,2025-08-25,2025-08-18,寺澤工業有限会社,,有限会社,兵庫県,姫路市,御国野町深志野６２６番地の５,,28,201,6710231,,,2025-08-18,清算の結了等,,,2015-10-05,1,,,,,テラサワコウギョウ,0
2047,9160002004149,登記記録の閉鎖等,0,2025-08-25,2025-08-20,有限会社ジェイアンドエヌ,,有限会社,滋賀県,大津市,瀬田３丁目１０番２９号,,25,201,5202134,,,2025-08-20,清算の結了等,,,2015-10-05,1,,,,,,0
2068,9230002003325,登記記録の閉鎖等,0,2025-08-25,2025-08-21,有限会社マキタ保険事務所,,有限会社,富山県,富山市,大泉町２丁目３番３号,,16,201,9398087,,,2025-08-21,清算の結了等,,,2015-10-05,1,,,,,マキタホケンジムショ,0
2073,9260001015376,登記記録の閉鎖等,0,2025-08-25,2025-08-01,株式会社あいら工業,,株式会社,岡山県,倉敷市,水島東弥生町１２番１５,,33,202,7128035,,,2025-08-01,清算の結了等,,,2015-10-05,1,,,,,アイラコウギョウ,0
2083,9290801013948,登記記録の閉鎖等,0,2025-08-25,2025-08-15,株式会社堺エンジ,,株式会社,福岡県,北九州市八幡西区,鷹見台４丁目１４番１６号,,40,109,8070853,,,2025-08-15,清算の結了等,,,2015-10-05,1,,,,,サカイエンジ,0
2085,9290802009219,登記記録の閉鎖等,0,2025-08-25,2025-08-21,有限会社大田,,有限会社,福岡県,北九州市門司区,東本町２丁目５番１－２０１号,,40,101,8010851,,,2025-08-21,清算の結了等,,,2015-10-05,1,,,,,オオタ,0
2087,9360001031603,登記記録の閉鎖等,0,2025-08-25,2025-08-19,株式会社ＭｉＨ,,株式会社,沖縄県,那覇市,牧志２丁目１７－２７－４０１,,47,201,9000013,,,2025-08-19,清算の結了等,,,2023-02-24,1,,,,,エムアイエイチ,0
2095,9390001012889,登記記録の閉鎖等,0,2025-08-25,2025-08-20,株式会社紫苑,,株式会社,山形県,新庄市,大町１番１５号,,06,205,9960026,,,2025-08-20,清算の結了等,,,2015-10-05,1,,,,,シオン,0
2098,9410001007754,登記記録の閉鎖等,0,2025-08-25,2025-08-21,株式会社福寿草,,株式会社,秋田県,にかほ市,平沢字出ケ沢１番地１,,05,214,0180402,,,2025-08-21,清算の結了等,,,2015-10-05,1,,,,,フクジュソウ,0
2101,9430001005657,登記記録の閉鎖等,0,2025-08-25,2025-08-01,株式会社三郁,,株式会社,北海道,札幌市中央区,南二十二条西８丁目１－２８－１０１号,,01,101,0640922,,,2025-08-01,清算の結了等,,,2015-10-05,1,,,,,サンイク,0
