sequenceNumber,corporateNumber,process,correct,updateDate,changeDate,name,nameImageId,kind,prefectureName,cityName,streetNumber,addressImageId,prefectureCode,cityCode,postCode,addressOutside,addressOutsideImageId,closeDate,closeCause,successorCorporateNumber,changeCause,assignmentDate,latest,enName,enPrefectureName,enCityName,enAddressOutside,furigana,hihyoji
6,1010001220371,登記記録の閉鎖等,0,2024-01-15,2024-01-04,株式会社ディーケー,,株式会社,東京都,中央区,日本橋久松町１０番６号ＦＴ日本橋久松町ビル８階,,13,102,1030005,,,2024-01-04,清算の結了等,,,2021-08-12,1,,,,,ディーケー,0
10,1010002023187,登記記録の閉鎖等,0,2024-01-15,2024-01-04,有限会社藤栄事務所,,有限会社,東京都,中央区,八丁堀１丁目３番２号,,13,102,1040032,,,2024-01-04,清算の結了等,,,2015-10-05,1,,,,,トウエイジムショ,0
28,1010403012458,登記記録の閉鎖等,0,2024-01-15,2024-01-04,合同会社ＡＹＫ１９,,合同会社,東京都,港区,元赤坂１丁目１番８号株式会社赤坂国際会計内,,13,103,1070051,,,2024-01-04,清算の結了等,,,2015-10-05,1,,,,,エイワイケイジュウキュウ,0
61,1011002036336,登記記録の閉鎖等,0,2024-01-15,2024-01-04,有限会社チェリーミュージック・コーポレーション,,有限会社,東京都,渋谷区,桜丘町２９番３５号ＳＰビル,,13,113,1500031,,,2024-01-04,合併による解散等,9011001067647,令和６年１月１日東京都渋谷区桜丘町２９番３５号ＳＰビル株式会社さくらプロダクション（9011001067647）に合併し解散,2015-10-05,1,,,,,チェリーミュージックコーポレーション,0
93,1020001052178,登記記録の閉鎖等,0,2024-01-15,2024-01-04,石丸商事株式会社,,株式会社,神奈川県,横浜市保土ケ谷区,仏向町１６２５番地１－２５２０号室,,14,106,2400044,,,2024-01-04,合併による解散等,9020001064983,令和６年１月１日横浜市保土ケ谷区仏向町１６２５番地１－２５２０号室石丸ビル株式会社（9020001064983）に合併し解散,2015-10-05,1,,,,,イシマルショウジ,0
109,1021002061127,登記記録の閉鎖等,0,2024-01-15,2024-01-05,有限会社ワイエス・グラフィックス,,有限会社,神奈川県,中郡大磯町,西小磯８２０番地４,,14,341,2550005,,,2024-01-05,清算の結了等,,,2015-10-05,1,,,,,ワイエスグラフィックス,0
125,1040002025651,登記記録の閉鎖等,0,2024-01-15,2023-12-27,有限会社ミタ薬局,,有限会社,千葉県,船橋市,本中山３丁目７番１９号,,12,204,2730035,,,2023-12-27,清算の結了等,,,2015-10-05,1,,,,,ミタヤッキョク,0
133,1070001015502,登記記録の閉鎖等,0,2024-01-15,2024-01-05,株式会社アート,,株式会社,群馬県,桐生市,相生町２丁目６２０番地,,10,203,3760011,,,2024-01-05,清算の結了等,,,2015-10-05,1,,,,,アート,0
189,1090001000304,登記記録の閉鎖等,0,2024-01-15,2024-01-11,株式会社エム・エム・シー,,株式会社,山梨県,甲府市,中央５丁目６番１３号,,19,201,4000032,,,2024-01-11,清算の結了等,,,2015-10-05,1,,,,,エムエムシー,0
194,1100002034571,登記記録の閉鎖等,0,2024-01-15,2024-01-05,有限会社ラッソ・エムアイ,,有限会社,長野県,駒ヶ根市,赤穂１１８２番地６,,20,210,3994117,,,2024-01-05,清算の結了等,,,2015-10-05,1,,,,,ラッソエムアイ,0
228,1122002010427,登記記録の閉鎖等,0,2024-01-15,2024-01-11,有限会社シマダ,,有限会社,大阪府,東大阪市,足代２丁目６番２７号,,27,227,5770841,,,2024-01-11,清算の結了等,,,2015-10-05,1,,,,,シマダ,0
233,1130002003788,登記記録の閉鎖等,0,2024-01-15,2024-01-10,サンテーク有限会社,,有限会社,京都府,京都市山科区,四ノ宮小金塚８番地の１４５,,26,110,6078022,,,2024-01-10,清算の結了等,,,2015-10-05,1,,,,,サンテーク,0
240,1130005003406,登記記録の閉鎖等,0,2024-01-15,2023-12-27,京都エビスク七条協同組合,,その他の設立登記法人,京都府,京都市下京区,新町通七条下る東塩小路町５９０番地の１０,,26,106,6008216,,,2023-12-27,清算の結了等,,,2015-10-05,1,,,,,キョウトエビスクシチジョウ,0
242,1140001045013,登記記録の閉鎖等,0,2024-01-15,2024-01-10,株式会社アデキ建築企画,,株式会社,兵庫県,加古郡稲美町,森安６３番地の１,,28,381,6751124,,,2024-01-10,清算の結了等,,,2015-10-05,1,,,,,アデキケンチクキカク,0
250,1180001074719,登記記録の閉鎖等,0,2024-01-15,2024-01-10,日本エーデー株式会社,,株式会社,愛知県,小牧市,大字大草字鹿見ケ根５７８２番地２,,23,219,4850802,,,2024-01-10,合併による解散等,9180301023954,令和６年１月１日愛知県新城市日吉字百田３１番地の３愛知電工株式会社（9180301023954）に合併し解散,2015-10-05,1,,,,,ニホンエーデー,0
252,1180001124977,登記記録の閉鎖等,0,2024-01-15,2023-12-27,株式会社ゆきじん,,株式会社,愛知県,名古屋市千種区,今池１丁目９番４号,,23,101,4640850,,,2023-12-27,清算の結了等,,,2016-09-29,1,,,,,ユキジン,0
262,1180002071145,登記記録の閉鎖等,0,2024-01-15,2024-01-09,株式会社ヒロミ,,株式会社,愛知県,犬山市,東古券１４７番地１,,23,215,4840000,,,2024-01-09,清算の結了等,,,2015-10-05,1,,,,,ヒロミ,0
267,1190005011106,登記記録の閉鎖等,0,2024-01-15,2024-01-04,一般社団法人世界を変える日本人はキミかもしれない,,その他の設立登記法人,三重県,桑名市,大字北別所１０８２番地１８９,,24,205,5110819,,,2024-01-04,清算の結了等,,,2017-08-17,1,,,,,セカイヲカエルニホンジンハキミカモシレナイ,0
287,1290001022369,登記記録の閉鎖等,0,2024-01-15,2024-01-10,西日本クリーンエイド販売株式会社,,株式会社,福岡県,福岡市博多区,吉塚４丁目１１番１５号,,40,132,8120041,,,2024-01-10,合併による解散等,5120001042784,令和６年１月１日大阪市東成区東小橋一丁目１１番１０号西日本クリーンエイド販売株式会社（5120001042784）に合併し解散,2015-10-05,1,,,,,,0
292,1290001059469,登記記録の閉鎖等,0,2024-01-15,2024-01-10,ニッカホーム九州株式会社,,株式会社,福岡県,福岡市南区,清水２丁目９番２１号,,40,134,8150031,,,2024-01-10,合併による解散等,6180001043470,令和６年１月１日名古屋市緑区篭山二丁目１２２５番地ニッカホーム株式会社（6180001043470）に合併し解散,2015-10-05,1,,,,,,0
299,1290001071606,登記記録の閉鎖等,0,2024-01-15,2023-12-27,株式会社Ｎａｔｕｒｅ　Ｍｉｎｄ,,株式会社,京都府,長岡京市,城の里１０番地９,,26,209,6170835,,,2023-12-27,合併による解散等,1130001030354,令和５年１２月１５日京都府長岡京市城の里１０番地９株式会社Ｇ－Ｐｌａｃｅ（1130001030354）に合併し解散,2015-10-05,1,,,,,ネイチャーマインド,0
303,1290001095365,登記記録の閉鎖等,0,2024-01-15,2024-01-10,０１ｓｔｙｌｅ　Ｄｅｓｉｇｎ株式会社,,株式会社,福岡県,福岡市南区,高宮２丁目１１番６号,,40,134,8150083,,,2024-01-10,合併による解散等,7010901037892,令和６年１月１日東京都渋谷区猿楽町３０番３号株式会社Ｉｎｔｅｒｓｅｃｔｉｏｎ（7010901037892）に合併し解散,2021-11-12,1,,,,,,0
314,1300001010306,登記記録の閉鎖等,0,2024-01-15,2024-01-10,西研トレーディング株式会社,,株式会社,佐賀県,神埼郡吉野ヶ里町,吉田１３５番地,,41,327,8420031,,,2024-01-10,合併による解散等,2290001014092,令和６年１月１日福岡市博多区博多駅南二丁目１０番６号西研グラフィックス株式会社（2290001014092）に合併し解散,2016-04-07,1,,,,,セイケントレーディング,0
323,1320005001976,登記記録の閉鎖等,0,2024-01-15,2024-01-10,医療法人利根内科医院,,その他の設立登記法人,大分県,大分市,大字古国府８５６番地の３,,44,201,8700844,,,2024-01-10,清算の結了等,,,2015-10-05,1,,,,,トネナイカイイン,0
336,1370001001513,登記記録の閉鎖等,0,2024-01-15,2024-01-10,株式会社岩本建設,,株式会社,宮城県,仙台市太白区,西多賀３丁目７番２２号,,04,104,9820034,,,2024-01-10,清算の結了等,,,2015-10-05,1,,,,,,0
337,1370001021833,登記記録の閉鎖等,0,2024-01-15,2024-01-12,株式会社ｅ－ヌードル,,株式会社,宮城県,仙台市青葉区,双葉ケ丘１丁目４６番３５号,,04,101,9810924,,,2024-01-12,清算の結了等,,,2015-10-05,1,,,,,,0
348,1380002010917,登記記録の閉鎖等,0,2024-01-15,2024-01-05,有限会社寺島精機,,有限会社,福島県,郡山市,喜久田町字菖蒲池２３番地の５１,,07,203,9630551,,,2024-01-05,清算の結了等,,,2015-10-05,1,,,,,テラシマセイキ,0
371,2010001087604,登記記録の閉鎖等,0,2024-01-15,2024-01-11,蔵町トレーディング株式会社,,株式会社,東京都,千代田区,神田淡路町２丁目１０５番地,,13,101,1010063,,,2024-01-11,合併による解散等,4010001015034,令和６年１月１日東京都千代田区神田淡路町二丁目１０５番地蔵町工業株式会社（4010001015034）に合併し解散,2015-10-05,1,,,,,クラマチトレーディング,0
377,2010101013096,登記記録の閉鎖等,0,2024-01-15,2024-01-04,株式会社シーディング,,株式会社,東京都,八王子市,長沼町１３４－３３４,,13,201,1920907,,,2024-01-04,清算の結了等,,,2017-11-22,1,,,,,,0
379,2010103000084,登記記録の閉鎖等,0,2024-01-15,2024-01-05,合同会社川久保商店,,合同会社,東京都,八王子市,寺町３５番地,,13,201,1920073,,,2024-01-05,清算の結了等,,,2015-10-05,1,,,,,カワクボショウテン,0
394,2010501044146,登記記録の閉鎖等,0,2024-01-15,2024-01-10,ＨｅｐｔａＣｏｒ株式会社,,株式会社,東京都,台東区,松が谷２丁目１５番８号４Ｆ,,13,106,1110036,,,2024-01-10,清算の結了等,,,2019-05-16,1,,,,,エプタコル,0
398,2010602005724,登記記録の閉鎖等,0,2024-01-15,2024-01-04,有限会社モテギランドリー,,有限会社,東京都,江東区,清澄２丁目１３番１０号,,13,108,1350024,,,2024-01-04,清算の結了等,,,2015-10-05,1,,,,,モテギランドリー,0
406,2010901034886,登記記録の閉鎖等,0,2024-01-15,2024-01-04,ユービー商会株式会社,,株式会社,東京都,世田谷区,松原２丁目１３番５号,,13,112,1560043,,,2024-01-04,清算の結了等,,,2015-10-05,1,,,,,ユービーショウカイ,0
408,2011001009176,登記記録の閉鎖等,0,2024-01-15,2024-01-11,株式会社サンド,,株式会社,東京都,品川区,西五反田７丁目９番２号ＫＤＸ五反田ビル５階,,13,109,1410031,,,2024-01-11,合併による解散等,4010001070558,令和６年１月１日東京都文京区小日向四丁目５番１６号株式会社ＹＵＩＤＥＡ（4010001070558）に合併し解散,2015-10-05,1,,,,,サンド,0
455,2020001038192,登記記録の閉鎖等,0,2024-01-15,2024-01-05,株式会社エム・ジー総研アイ・シー,,株式会社,神奈川県,横浜市中区,かもめ町４番地,,14,104,2310813,,,2024-01-05,清算の結了等,,,2015-10-05,1,,,,,エムジーソウケンアイシー,0
459,2020001068009,登記記録の閉鎖等,0,2024-01-15,2024-01-09,株式会社清美舎,,株式会社,神奈川県,川崎市中原区,市ノ坪４４９番３号２９０４号室,,14,133,2110016,,,2024-01-09,清算の結了等,,,2015-10-05,1,,,,,セイビシャ,0
460,2020001086753,登記記録の閉鎖等,0,2024-01-15,2024-01-09,株式会社ナカタマリ工業,,株式会社,神奈川県,川崎市幸区,小倉３丁目１６番１８－６０１号,,14,132,2120054,,,2024-01-09,清算の結了等,,,2015-10-05,1,,,,,ナカタマリコウギョウ,0
487,2030002004333,登記記録の閉鎖等,0,2024-01-15,2023-12-27,有限会社クロデン,,有限会社,埼玉県,さいたま市南区,神明１丁目１番１８号コーポミナミ１０２,,11,108,3360023,,,2023-12-27,清算の結了等,,,2015-10-05,1,,,,,クロデン,0
509,2050002037430,登記記録の閉鎖等,0,2024-01-15,2024-01-05,有限会社服部商店,,有限会社,茨城県,取手市,片町３１２番地,,08,217,3001513,,,2024-01-05,清算の結了等,,,2015-10-05,1,,,,,ハットリショウテン,0
573,2110001029323,登記記録の閉鎖等,0,2024-01-15,2024-01-10,株式会社鷹の爪,,株式会社,新潟県,新潟市江南区,鵜ノ子２丁目１番９号,,15,104,9500157,,,2024-01-10,清算の結了等,,,2015-10-05,1,,,,,タカノツメ,0
590,2120101053825,登記記録の閉鎖等,0,2024-01-15,2024-01-11,株式会社レクサ,,株式会社,大阪府,松原市,天美南５丁目６番３０アドリーム松原天美１２０４号,,27,217,5800033,,,2024-01-11,清算の結了等,,,2015-11-12,1,,,,,レクサ,0
598,2130001016699,登記記録の閉鎖等,0,2024-01-15,2023-12-27,株式会社ヱビスク七条,,株式会社,京都府,京都市下京区,新町七条下ル東塩小路町５９０番地の１０,,26,106,6000000,,,2023-12-27,清算の結了等,,,2015-10-05,1,,,,,エビスクナナジョウ,0
601,2130002016616,登記記録の閉鎖等,0,2024-01-15,2024-01-09,有限会社スタジオ・マックス,,有限会社,京都府,京都市左京区,北白川小倉町５０－１３７,,26,103,6068264,,,2024-01-09,清算の結了等,,,2015-10-05,1,,,,,スタジオマックス,0
614,2180001014392,登記記録の閉鎖等,0,2024-01-15,2024-01-09,黒肥地倉庫株式会社,,株式会社,愛知県,名古屋市南区,鶴見通６丁目２番地の２,,23,112,4570807,,,2024-01-09,合併による解散等,4180001014390,令和６年１月９日名古屋市南区鶴見通六丁目２番地の２株式会社クロヒジ（4180001014390）に合併し解散,2015-10-05,1,,,,,クロヒジソウコ,0
615,2180001084147,登記記録の閉鎖等,0,2024-01-15,2024-01-10,株式会社犬飼建築事務所,,株式会社,愛知県,一宮市,開明字神明郭４２番地の１,,23,203,4940001,,,2024-01-10,清算の結了等,,,2015-10-05,1,,,,,イヌカイケンチクジムショ,0
632,2180302019735,登記記録の閉鎖等,0,2024-01-15,2024-01-04,有限会社弥生造園,,有限会社,愛知県,知立市,西中町西街道７５番地５,,23,225,4720016,,,2024-01-04,清算の結了等,,,2015-10-05,1,,,,,ヤヨイゾウエン,0
637,2220002000478,登記記録の閉鎖等,0,2024-01-15,2024-01-09,有限会社スカラベ北陸,,有限会社,東京都,新宿区,西新宿６丁目６番３号,,13,104,1600023,,,2024-01-09,清算の結了等,,,2015-10-05,1,,,,,スカラベホクリク,0
639,2230001012341,登記記録の閉鎖等,0,2024-01-15,2023-12-28,株式会社ＴＳＤ,,株式会社,富山県,高岡市,下麻生１１２８番地,,16,202,9391272,,,2023-12-28,清算の結了等,,,2015-10-05,1,,,,,ティエスデイ,0
643,2240002038368,登記記録の閉鎖等,0,2024-01-15,2024-01-04,有限会社岡建設,,有限会社,広島県,福山市,沼隈町大字下山南３６４番地,,34,207,7200403,,,2024-01-04,清算の結了等,,,2015-10-05,1,,,,,オカケンセツ,0
653,2290001035618,登記記録の閉鎖等,0,2024-01-15,2024-01-09,株式会社金山水産,,株式会社,福岡県,糸島市,東１５２４番地の１,,40,230,8191122,,,2024-01-09,清算の結了等,,,2015-10-05,1,,,,,,0
656,2290001070210,登記記録の閉鎖等,0,2024-01-15,2024-01-09,株式会社源,,株式会社,福岡県,福岡市中央区,舞鶴１丁目３番１６号,,40,133,8100073,,,2024-01-09,清算の結了等,,,2015-10-05,1,,,,,ミナモト,0
657,2290001075829,登記記録の閉鎖等,0,2024-01-15,2024-01-09,ホームメンテナンスサービス株式会社,,株式会社,福岡県,糟屋郡粕屋町,大字仲原２５１３番地７,,40,349,8112304,,,2024-01-09,清算の結了等,,,2016-11-16,1,,,,,ホームメンテナンスサービス,0
668,2300002000627,登記記録の閉鎖等,0,2024-01-15,2024-01-10,有限会社サンワ,,有限会社,佐賀県,佐賀市,木原２丁目１番２０号,,41,201,8400015,,,2024-01-10,清算の結了等,,,2015-10-05,1,,,,,サンワ,0
677,2350002010101,登記記録の閉鎖等,0,2024-01-15,2024-01-05,有限会社サンアグリ,,有限会社,宮崎県,児湯郡新富町,大字三納代３０３３番地４,,45,402,8891402,,,2024-01-05,合併による解散等,3350001005729,令和６年１月１日宮崎県児湯郡新富町大字三納代３０３３番地３株式会社児湯米商農産（3350001005729）に合併し解散,2015-10-05,1,,,,,サンアグリ,0
739,3010401153095,登記記録の閉鎖等,0,2024-01-15,2023-12-28,株式会社ＧＲＡＰ,,株式会社,東京都,港区,南青山２丁目２番１５号ウィン青山９４２,,13,103,1070062,,,2023-12-28,清算の結了等,,,2020-06-02,1,,,,,グラップ,0
745,3010403012456,登記記録の閉鎖等,0,2024-01-15,2024-01-04,合同会社ＡＹＫ１７,,合同会社,東京都,港区,元赤坂１丁目１番８号株式会社赤坂国際会計内,,13,103,1070051,,,2024-01-04,清算の結了等,,,2015-10-05,1,,,,,エイワイケイジュウナナ,0
750,3010502005039,登記記録の閉鎖等,0,2024-01-15,2024-01-09,有限会社信宝,,有限会社,東京都,台東区,上野５丁目１６番６号,,13,106,1100005,,,2024-01-09,清算の結了等,,,2015-10-05,1,,,,,シンポウ,0
754,3010602033294,登記記録の閉鎖等,0,2024-01-15,2024-01-10,株式会社万両,,株式会社,東京都,中央区,銀座４丁目９番６号,,13,102,1040061,,,2024-01-10,合併による解散等,4010001060055,令和６年１月１日東京都中央区銀座四丁目９番６号陽光株式会社（4010001060055）に合併し解散,2015-10-05,1,,,,,マンリョウ,0
762,3010903005298,登記記録の閉鎖等,0,2024-01-15,2023-12-26,エイチアンドワイコーポレーション合同会社,,合同会社,東京都,世田谷区,奥沢５丁目１－１１－２０２,,13,112,1580083,,,2023-12-26,清算の結了等,,,2019-10-30,1,,,,,エイチアンドワイコーポレーション,0
766,3011001073411,登記記録の閉鎖等,0,2024-01-15,2024-01-05,株式会社つばき,,株式会社,福岡県,福岡市博多区,博多駅前３丁目７番３５号博多ハイテックビル５０５,,40,132,8120011,,,2024-01-05,清算の結了等,,,2015-10-05,1,,,,,ツバキ,0
785,3012401037609,登記記録の閉鎖等,0,2024-01-15,2024-01-09,株式会社Ｃａｒｐｅ　ｄｉｅｍ,,株式会社,東京都,府中市,寿町２丁目４番地の１レジデンシャルスター府中５０３,,13,206,1830056,,,2024-01-09,清算の結了等,,,2021-03-08,1,,,,,カルペディエム,0
788,3012802007219,登記記録の閉鎖等,0,2024-01-15,2024-01-04,有限会社平山美装,,有限会社,東京都,武蔵村山市,大南３丁目９番地の３,,13,223,2080013,,,2024-01-04,清算の結了等,,,2015-10-05,1,,,,,,0
798,3013401005877,登記記録の閉鎖等,0,2024-01-15,2024-01-09,株式会社Ｋ・Ｗ・Ｓ,,株式会社,東京都,稲城市,平尾２丁目７２番地の４,,13,225,2060823,,,2024-01-09,清算の結了等,,,2015-10-05,1,,,,,ケーダブリューエス,0
801,3020001073494,登記記録の閉鎖等,0,2024-01-15,2024-01-09,株式会社田底設備,,株式会社,神奈川県,川崎市川崎区,昭和１丁目５番９－１号,,14,131,2100813,,,2024-01-09,清算の結了等,,,2015-10-05,1,,,,,タゾコセツビ,0
811,3020002079375,登記記録の閉鎖等,0,2024-01-15,2024-01-09,有限会社ワイズ,,有限会社,神奈川県,横浜市西区,みなとみらい４丁目７番１号,,14,103,2200012,,,2024-01-09,清算の結了等,,,2015-10-05,1,,,,,ワイズ,0
817,3021001043628,登記記録の閉鎖等,0,2024-01-15,2024-01-09,株式会社グルメ連合三崎,,株式会社,神奈川県,三浦市,三崎５丁目１９番２号,,14,210,2380243,,,2024-01-09,清算の結了等,,,2015-10-05,1,,,,,,0
818,3021001070003,登記記録の閉鎖等,0,2024-01-15,2024-01-09,ルーフエリア株式会社,,株式会社,神奈川県,伊勢原市,上粕屋３４３番地の１７,,14,214,2591141,,,2024-01-09,清算の結了等,,,2020-05-26,1,,,,,ルーフエリア,0
825,3030003016533,登記記録の閉鎖等,0,2024-01-15,2024-01-04,大谷国際貿易合同会社,,合同会社,埼玉県,さいたま市大宮区,下町３丁目７番地１,,11,103,3300844,,,2024-01-04,清算の結了等,,,2021-01-25,1,,,,,オオタニコクサイボウエキ,0
827,3040001050161,登記記録の閉鎖等,0,2024-01-15,2023-12-27,株式会社深堀俊介企画事務所,,株式会社,千葉県,市川市,日之出２２番１号５２７室,,12,203,2720135,,,2023-12-27,清算の結了等,,,2015-10-05,1,,,,,フカボリシュンスケキカクジムショ,0
847,3060001026820,登記記録の閉鎖等,0,2024-01-15,2024-01-05,株式会社タノハナ,,株式会社,栃木県,芳賀郡市貝町,大字市塙３３９５番地１,,09,344,3213423,,,2024-01-05,清算の結了等,,,2015-10-05,1,,,,,タノハナ,0
852,3080002010103,登記記録の閉鎖等,0,2024-01-15,2024-01-12,有限会社秀栄自動車整備工場,,有限会社,静岡県,静岡市清水区,八木間町４１７番地の１,,22,103,4240212,,,2024-01-12,清算の結了等,,,2015-10-05,1,,,,,シュウエイジドウシャセイビコウジョウ,0
854,3080101012033,登記記録の閉鎖等,0,2024-01-15,2024-01-11,株式会社マリンプロジェクト,,株式会社,静岡県,富士宮市,羽鮒１３２２番地,,22,207,4190316,,,2024-01-11,清算の結了等,,,2015-10-05,1,,,,,マリンプロジェクト,0
904,3090002003741,登記記録の閉鎖等,0,2024-01-15,2024-01-12,有限会社住建システム,,有限会社,山梨県,甲斐市,富竹新田８４番地,,19,210,4000113,,,2024-01-12,清算の結了等,,,2015-10-05,1,,,,,,0
911,3110002026764,登記記録の閉鎖等,0,2024-01-15,2024-01-11,有限会社五十嵐ジーエル工業,,有限会社,新潟県,長岡市,豊１丁目４番９号,,15,202,9400867,,,2024-01-11,清算の結了等,,,2015-10-05,1,,,,,イカラシジーエルコウギョウ,0
915,3120001201020,登記記録の閉鎖等,0,2024-01-15,2024-01-10,株式会社ワークポート西日本,,株式会社,大阪府,大阪市中央区,平野町２丁目３番７号,,27,128,5410046,,,2024-01-10,合併による解散等,9010701016178,令和６年１月１日東京都品川区大崎一丁目２番２号株式会社ワークポート（9010701016178）に合併し解散,2016-10-04,1,,,,,ワークポートニシニホン,0
940,3130002007259,登記記録の閉鎖等,0,2024-01-15,2024-01-09,有限会社松栄商事,,有限会社,京都府,京都市下京区,松原通堀川西入北門前町７４６番地,,26,106,6008356,,,2024-01-09,清算の結了等,,,2015-10-05,1,,,,,ショウエイショウジ,0
959,3180001060097,登記記録の閉鎖等,0,2024-01-15,2023-12-28,株式会社瀬島建設,,株式会社,愛知県,名古屋市港区,西川町４丁目７番,,23,111,4550824,,,2023-12-28,清算の結了等,,,2015-10-05,1,,,,,セジマケンセツ,0
981,3240001020111,登記記録の閉鎖等,0,2024-01-15,2024-01-05,国際総業株式会社,,株式会社,広島県,広島市佐伯区,屋代３丁目１１番６号,,34,108,7315146,,,2024-01-05,清算の結了等,,,2023-08-31,1,,,,,コクサイソウギョウ,0
997,3290001073476,登記記録の閉鎖等,0,2024-01-15,2024-01-04,株式会社南九州医事新報社,,株式会社,福岡県,福岡市博多区,東光１丁目３番８号,,40,132,8120008,,,2024-01-04,合併による解散等,6290001062451,令和６年１月１日福岡市博多区東光一丁目３番８号株式会社九州医事新報社（6290001062451）に合併し解散,2016-04-07,1,,,,,ミナミキュウシュウイジシンポウシャ,0
998,3290001077386,登記記録の閉鎖等,0,2024-01-15,2024-01-04,株式会社東海医事新報社,,株式会社,福岡県,福岡市博多区,東光１丁目３番８号,,40,132,8120008,,,2024-01-04,合併による解散等,6290001062451,令和６年１月１日福岡市博多区東光一丁目３番８号株式会社九州医事新報社（6290001062451）に合併し解散,2017-04-07,1,,,,,トウカイイジシンポウシャ,0
1000,3290001084085,登記記録の閉鎖等,0,2024-01-15,2024-01-09,京栄テック株式会社,,株式会社,福岡県,嘉麻市,牛隈１８７４番地１,,40,227,8200301,,,2024-01-09,清算の結了等,,,2019-02-05,1,,,,,キョウエイテック,0
1001,3290001086412,登記記録の閉鎖等,0,2024-01-15,2024-01-09,エス・エナジーホールディングス株式会社,,株式会社,福岡県,福岡市中央区,渡辺通２丁目２－２清沢ビル４Ｆ,,40,133,8100004,,,2024-01-09,清算の結了等,,,2019-09-04,1,,,,,エスエナジーホールディングス,0
1005,3290002056703,登記記録の閉鎖等,0,2024-01-15,2024-01-10,有限会社マルモ木材,,有限会社,福岡県,うきは市,浮羽町東隈上３６３番地の１,,40,225,8391403,,,2024-01-10,清算の結了等,,,2015-10-05,1,,,,,マルモモクザイ,0
1018,3300002006111,登記記録の閉鎖等,0,2024-01-15,2024-01-11,有限会社やまぐち,,有限会社,佐賀県,武雄市,朝日町大字中野７２１９番地,,41,206,8430002,,,2024-01-11,清算の結了等,,,2015-10-05,1,,,,,ヤマグチ,0
1036,3360001025296,登記記録の閉鎖等,0,2024-01-15,2023-12-25,株式会社あい,,株式会社,沖縄県,中頭郡西原町,字内間４１２番地３,,47,329,9030121,,,2023-12-25,合併による解散等,7360002017231,令和５年１２月２５日沖縄県中頭郡西原町字内間４１２－３株式会社ミナミインターおきなわ（7360002017231）に合併し解散,2019-02-26,1,,,,,アイ,0
1054,3480002001565,登記記録の閉鎖等,0,2024-01-15,2024-01-12,有限会社佐川品市商店,,有限会社,徳島県,徳島市,蔵本元町３丁目５９番地,,36,201,7700041,,,2024-01-12,清算の結了等,,,2015-10-05,1,,,,,サガワシナイチショウテン,0
1055,3480002002910,登記記録の閉鎖等,0,2024-01-15,2024-01-12,有限会社田原酒店,,有限会社,徳島県,徳島市,中島田町４丁目９４番地,,36,201,7700052,,,2024-01-12,清算の結了等,,,2015-10-05,1,,,,,,0
1064,4010001233156,登記記録の閉鎖等,0,2024-01-15,2024-01-04,株式会社Ａ,,株式会社,東京都,千代田区,丸の内１丁目１番１号,,13,101,1000005,,,2024-01-04,清算の結了等,,,2023-02-20,1,,,,,エー,0
1083,4010403011556,登記記録の閉鎖等,0,2024-01-15,2024-01-04,ドンデ・オリエンタル合同会社,,合同会社,茨城県,水戸市,五軒町１丁目５番４８号,,08,201,3100063,,,2024-01-04,合併による解散等,2050001034321,令和６年１月１日茨城県水戸市五軒町一丁目５番４８号株式会社エコラル・パートナーズ（2050001034321）に合併し解散,2015-10-05,1,,,,,ドンデオリエンタル,0
1084,4010403012455,登記記録の閉鎖等,0,2024-01-15,2024-01-04,合同会社ＡＹＫ１６,,合同会社,東京都,港区,元赤坂１丁目１番８号株式会社赤坂国際会計内,,13,103,1070051,,,2024-01-04,清算の結了等,,,2015-10-05,1,,,,,エイワイケイジュウロク,0
1118,4011301025086,登記記録の閉鎖等,0,2024-01-15,2024-01-04,アインクラッドテクノロジー株式会社,,株式会社,東京都,杉並区,高井戸東２丁目２３番６号,,13,115,1680072,,,2024-01-04,清算の結了等,,,2019-06-04,1,,,,,アインクラッドテクノロジー,0
1124,4011402000129,登記記録の閉鎖等,0,2024-01-15,2024-01-04,有限会社アーテック,,有限会社,東京都,板橋区,舟渡３丁目２８番９号,,13,119,1740041,,,2024-01-04,合併による解散等,4011401023114,令和５年１２月３１日東京都板橋区舟渡三丁目２８番９号株式会社シーティーケイ（4011401023114）に合併し解散,2015-10-05,1,,,,,アーテック,0
1141,4013201017741,登記記録の閉鎖等,0,2024-01-15,2024-01-09,株式会社ＢｏＡ,,株式会社,東京都,調布市,深大寺北町４丁目６番４号,,13,208,1820011,,,2024-01-09,清算の結了等,,,2015-10-05,1,,,,,ボア,0
1202,4050001040631,登記記録の閉鎖等,0,2024-01-15,2024-01-04,株式会社リーズ,,株式会社,茨城県,水戸市,五軒町１丁目５番４８号,,08,201,3100063,,,2024-01-04,合併による解散等,2050001034321,令和６年１月１日茨城県水戸市五軒町一丁目５番４８号株式会社エコラル・パートナーズ（2050001034321）に合併し解散,2016-03-10,1,,,,,リーズ,0
1261,4090001007313,登記記録の閉鎖等,0,2024-01-15,2024-01-12,株式会社Ｊｏｚｅ,,株式会社,山梨県,甲府市,緑が丘１丁目１８番４号,,19,201,4000008,,,2024-01-12,清算の結了等,,,2015-10-05,1,,,,,ジョゼ,0
1264,4100002018464,登記記録の閉鎖等,0,2024-01-15,2024-01-05,有限会社角屋ホテル,,有限会社,長野県,下高井郡山ノ内町,大字平穏２２０１番地,,20,561,3810401,,,2024-01-05,清算の結了等,,,2015-10-05,1,,,,,カドヤホテル,0
1265,4100002020536,登記記録の閉鎖等,0,2024-01-15,2024-01-04,大昇製菓株式会社,,株式会社,長野県,安曇野市,穂高北穂高２０４７番地７,,20,220,3998302,,,2024-01-04,清算の結了等,,,2015-10-05,1,,,,,タイショウセイカ,0
1270,4120001014207,登記記録の閉鎖等,0,2024-01-15,2024-01-05,アドバンス株式会社,,株式会社,大阪府,大阪市城東区,今福西１丁目９番５号蒲生ビル,,27,118,5360004,,,2024-01-05,清算の結了等,,,2015-10-05,1,,,,,アドバンス,0
1294,4120903003851,登記記録の閉鎖等,0,2024-01-15,2024-01-05,合同会社ＫＢＹ,,合同会社,大阪府,摂津市,南千里丘２番１７－１２号,,27,224,5660021,,,2024-01-05,清算の結了等,,,2021-10-04,1,,,,,ケービーワイ,0
1312,4140003008700,登記記録の閉鎖等,0,2024-01-15,2024-01-10,合同会社優愛苑,,合同会社,兵庫県,神戸市中央区,海岸通６丁目１－１３－１８０８号,,28,110,6500024,,,2024-01-10,清算の結了等,,,2015-10-05,1,,,,,ユウアイエン,0
1314,4160001004947,登記記録の閉鎖等,0,2024-01-15,2024-01-11,株式会社地建総合コンサルタント,,株式会社,滋賀県,湖南市,岩根中央２丁目４９番地,,25,211,5203254,,,2024-01-11,清算の結了等,,,2015-10-05,1,,,,,チケンソウゴウコンサルタント,0
1319,4160003002214,登記記録の閉鎖等,0,2024-01-15,2024-01-10,合同会社フロイトアーツ,,合同会社,埼玉県,さいたま市大宮区,桜木町２丁目３番地大宮マルイ７階,,11,103,3300854,,,2024-01-10,清算の結了等,,,2021-02-04,1,,,,,フロイトアーツ,0
1342,4230002011877,登記記録の閉鎖等,0,2024-01-15,2024-01-11,有限会社藤井自動車工業所,,有限会社,富山県,高岡市,金屋本町１番４０号,,16,202,9330945,,,2024-01-11,清算の結了等,,,2015-10-05,1,,,,,フジイジドウシャコウギョウショ,0
1343,4230002013295,登記記録の閉鎖等,0,2024-01-15,2024-01-11,有限会社メディカルプランニング,,有限会社,富山県,高岡市,下牧野２６０番地１,,16,202,9340091,,,2024-01-11,清算の結了等,,,2015-10-05,1,,,,,メディカルプランニング,0
1352,4290001042117,登記記録の閉鎖等,0,2024-01-15,2024-01-09,株式会社九州ＩＴソリューションズ,,株式会社,福岡県,福岡市博多区,竹下４丁目３番２２号,,40,132,8120895,,,2024-01-09,清算の結了等,,,2015-10-05,1,,,,,キュウシュウアイティーソリューションズ,0
1367,4300001008000,登記記録の閉鎖等,0,2024-01-15,2024-01-10,Ｙ．Ｓ．Ｋ株式会社,,株式会社,佐賀県,伊万里市,大坪町乙１２６５番地２６,,41,205,8480022,,,2024-01-10,清算の結了等,,,2015-10-05,1,,,,,ワイエスケイ,0
1396,4420002019174,登記記録の閉鎖等,0,2024-01-15,2024-01-09,有限会社スカイウインド,,有限会社,青森県,三沢市,日の出４丁目９４番地７９９号,,02,207,0330154,,,2024-01-09,清算の結了等,,,2015-10-05,1,,,,,スカイウインド,0
1411,4500001016791,登記記録の閉鎖等,0,2024-01-15,2024-01-11,ＡＭＮ　ｃｏｍｐａｎｙ株式会社,,株式会社,愛媛県,松山市,一番町２丁目１番地４,,38,201,7900001,,,2024-01-11,清算の結了等,,,2015-10-05,1,,,,,エイエムエヌカンパニー,0
1432,5010401011672,登記記録の閉鎖等,0,2024-01-15,2024-01-09,株式会社サンプリンテイング,,株式会社,東京都,目黒区,駒場３丁目１１番１３号アーク駒場野１Ｆ,,13,110,1530041,,,2024-01-09,清算の結了等,,,2015-10-05,1,,,,,サンプリンテイング,0
1437,5010403012454,登記記録の閉鎖等,0,2024-01-15,2024-01-04,合同会社ＡＹＫ１５,,合同会社,東京都,港区,元赤坂１丁目１番８号株式会社赤坂国際会計内,,13,103,1070051,,,2024-01-04,清算の結了等,,,2015-10-05,1,,,,,エイワイケイジュウゴ,0
1438,5010403012462,登記記録の閉鎖等,0,2024-01-15,2024-01-04,合同会社ＡＹＫ２３,,合同会社,東京都,港区,元赤坂１丁目１番８号株式会社赤坂国際会計内,,13,103,1070051,,,2024-01-04,清算の結了等,,,2015-10-05,1,,,,,エイワイケイニジュウサン,0
1441,5010501006151,登記記録の閉鎖等,0,2024-01-15,2024-01-11,株式会社菅屋,,株式会社,東京都,台東区,三筋１丁目２番９号,,13,106,1110055,,,2024-01-11,清算の結了等,,,2015-10-05,1,,,,,スガヤ,0
1451,5010802002989,登記記録の閉鎖等,0,2024-01-15,2024-01-09,有限会社オカゼン,,有限会社,東京都,大田区,池上７丁目７番１８号,,13,111,1460082,,,2024-01-09,清算の結了等,,,2015-10-05,1,,,,,オカゼン,0
1456,5011001006708,登記記録の閉鎖等,0,2024-01-15,2024-01-04,株式会社熊本東急レクリエーション,,株式会社,東京都,渋谷区,桜丘町２４番４号,,13,113,1500031,,,2024-01-04,合併による解散等,2011001019761,令和６年１月１日東京都渋谷区桜丘町２４番４号株式会社東急レクリエーションホテルズ（2011001019761）に合併し解散,2015-10-05,1,,,,,クマモトトウキュウレクリエーション,0
1457,5011001043528,登記記録の閉鎖等,0,2024-01-15,2024-01-11,フィールド・エイト株式会社,,株式会社,東京都,渋谷区,神山町３９番９号,,13,113,1500047,,,2024-01-11,合併による解散等,7010001054285,令和５年１２月２８日東京都中央区銀座二丁目６番５号濱田興産株式会社（7010001054285）に合併し解散,2015-10-05,1,,,,,フィールドエイト,0
1470,5011101005584,登記記録の閉鎖等,0,2024-01-15,2024-01-10,株式会社クサマ,,株式会社,東京都,新宿区,新宿１丁目１９番１１号,,13,104,1600022,,,2024-01-10,合併による解散等,8150001026716,令和６年１月１日奈良県奈良市橋本町１６番地株式会社クサマ（8150001026716）に合併し解散,2015-10-05,1,,,,,クサマ,0
1471,5011101066057,登記記録の閉鎖等,0,2024-01-15,2023-12-28,株式会社ＬＯＲＥＮＴＺ,,株式会社,東京都,港区,芝大門１丁目３番１０号コスモタワービル６階,,13,103,1050012,,,2023-12-28,清算の結了等,,,2015-10-05,1,,,,,ローレンツ,0
1495,5020001066125,登記記録の閉鎖等,0,2024-01-15,2024-01-05,グローバ販売株式会社,,株式会社,東京都,新宿区,西新宿７丁目５番２５号,,13,104,1600023,,,2024-01-05,合併による解散等,1011101007114,令和６年１月１日東京都新宿区西新宿七丁目５番２５号ニデックコンポーネンツ株式会社（1011101007114）に合併し解散,2015-10-05,1,,,,,グローバハンバイ,0
1501,5020001133734,登記記録の閉鎖等,0,2024-01-15,2024-01-05,ユーカー株式会社,,株式会社,神奈川県,川崎市川崎区,大師河原２丁目２番２号５０１号室,,14,131,2100811,,,2024-01-05,清算の結了等,,,2019-11-20,1,,,,,ユーカー,0
1509,5020003011954,登記記録の閉鎖等,0,2024-01-15,2024-01-09,合同会社ワイエムシー,,合同会社,神奈川県,横浜市中区,本牧元町６９番３号,,14,104,2310822,,,2024-01-09,清算の結了等,,,2016-10-25,1,,,,,ワイエムシー,0
1535,5040002038105,登記記録の閉鎖等,0,2024-01-15,2023-12-27,有限会社タイムアロー,,有限会社,千葉県,鎌ケ谷市,南初富３丁目２２番７号,,12,224,2730123,,,2023-12-27,清算の結了等,,,2015-10-05,1,,,,,タイムアロー,0
1536,5040002044326,登記記録の閉鎖等,0,2024-01-15,2023-12-26,有限会社伊藤吹付工業所,00020153,有限会社,千葉県,松戸市,六高台５丁目１５５番地の９,,12,207,2702203,,,2023-12-26,清算の結了等,,,2015-10-05,1,,,,,,0
1539,5040005014516,登記記録の閉鎖等,0,2024-01-15,2023-12-26,医療法人社団中芳会,,その他の設立登記法人,千葉県,野田市,山崎貝塚町１１番地の１２,,12,208,2780023,,,2023-12-26,清算の結了等,,,2015-10-05,1,,,,,ナカヨシカイ,0
1543,5050002027890,登記記録の閉鎖等,0,2024-01-15,2024-01-04,株式会社柳川タクシー,,株式会社,茨城県,神栖市,須田３７３７番地,,08,232,3140253,,,2024-01-04,合併による解散等,5050002027395,令和６年１月１日茨城県神栖市大野原三丁目１０番２８号株式会社浜松タクシー（5050002027395）に合併し解散,2015-10-05,1,,,,,ヤナガワタクシー,0
1544,5050002041974,登記記録の閉鎖等,0,2024-01-15,2024-01-09,有限会社北川新聞店,,有限会社,茨城県,筑西市,丙１５０番地,,08,227,3080031,,,2024-01-09,清算の結了等,,,2015-10-05,1,,,,,,0
1619,5100002018513,登記記録の閉鎖等,0,2024-01-15,2024-01-05,有限会社光栄商事,,有限会社,長野県,下高井郡山ノ内町,大字佐野２６２６番地１２,,20,561,3810402,,,2024-01-05,清算の結了等,,,2015-10-05,1,,,,,,0
1645,5120101056791,登記記録の閉鎖等,0,2024-01-15,2024-01-12,株式会社Ｇｒａｎｄｅｕｒ,,株式会社,大阪府,堺市北区,北花田町４丁９１番地４,,27,146,5918002,,,2024-01-12,清算の結了等,,,2017-07-11,1,,,,,グランドール,0
1670,5170001005919,登記記録の閉鎖等,0,2024-01-15,2024-01-11,株式会社ミヤオ,,株式会社,和歌山県,海南市,下津町梅田１００番地,,30,202,6490132,,,2024-01-11,清算の結了等,,,2015-10-05,1,,,,,ミヤオ,0
1675,5180001098152,登記記録の閉鎖等,0,2024-01-15,2024-01-04,タカトクテレシス株式会社,,株式会社,愛知県,海部郡大治町,大字砂子字村東２３４６番地,,23,424,4901143,,,2024-01-04,清算の結了等,,,2015-10-05,1,,,,,タカトクテレシス,0
1685,5180002026368,登記記録の閉鎖等,0,2024-01-15,2024-01-09,有限会社原精機,,有限会社,愛知県,名古屋市緑区,大高町字東森前３７番地３,,23,114,4598001,,,2024-01-09,清算の結了等,,,2015-10-05,1,,,,,ハラセイキ,0
1687,5180003013266,登記記録の閉鎖等,0,2024-01-15,2024-01-09,合資会社山大製麺所,00073945,合資会社,愛知県,東海市,大田町下浜田５１番地,,23,222,4770031,,,2024-01-09,清算の結了等,,,2015-10-05,1,,,,,ヤマダイセイメンジョ,0
1691,5180302017042,登記記録の閉鎖等,0,2024-01-15,2024-01-04,株式会社ネップ,,株式会社,愛知県,安城市,小川町的場９２番地１,,23,212,4441162,,,2024-01-04,清算の結了等,,,2015-10-05,1,,,,,ネップ,0
1696,5240001043606,登記記録の閉鎖等,0,2024-01-15,2024-01-04,株式会社ホットライン,,株式会社,広島県,広島市西区,井口５丁目１３番５号,,34,104,7330842,,,2024-01-04,清算の結了等,,,2015-10-05,1,,,,,ホットライン,0
1698,5250001010720,登記記録の閉鎖等,0,2024-01-15,2024-01-11,株式会社勝田鉄工,,株式会社,山口県,光市,浅江６丁目１８番１０号,,35,210,7430021,,,2024-01-11,清算の結了等,,,2015-10-05,1,,,,,カツタテッコウ,0
1700,5250002019307,登記記録の閉鎖等,0,2024-01-15,2024-01-11,有限会社嶋田ハウス,,有限会社,山口県,岩国市,装束町３丁目４番１７号,,35,208,7400001,,,2024-01-11,清算の結了等,,,2015-10-05,1,,,,,シマダハウス,0
1707,5260003001337,登記記録の閉鎖等,0,2024-01-15,2024-01-12,合同会社リジオナルプラン,,合同会社,岡山県,岡山市北区,御津野々口１２３８番地,,33,101,7092117,,,2024-01-12,清算の結了等,,,2015-10-05,1,,,,,,0
1709,5280002005213,登記記録の閉鎖等,0,2024-01-15,2024-01-12,いづも縫製有限会社,,有限会社,島根県,出雲市,大津町７１３番地３,,32,203,6930011,,,2024-01-12,清算の結了等,,,2015-10-05,1,,,,,イズモホウセイ,0
1719,5290002053756,登記記録の閉鎖等,0,2024-01-15,2024-01-09,有限会社後藤襖製作所,,有限会社,福岡県,大川市,大字向島２３８１番地,,40,212,8310005,,,2024-01-09,清算の結了等,,,2015-10-05,1,,,,,ゴトウフスマセイサクショ,0
1725,5310002007263,登記記録の閉鎖等,0,2024-01-15,2024-01-09,有限会社ユキ企画,,有限会社,長崎県,長崎市,本河内２丁目９番６号,,42,201,8500012,,,2024-01-09,清算の結了等,,,2015-10-05,1,,,,,ユキキカク,0
1729,5320002012436,登記記録の閉鎖等,0,2024-01-15,2024-01-09,有限会社星野商店,,有限会社,大分県,別府市,南町３番２４号,,44,202,8740941,,,2024-01-09,清算の結了等,,,2015-10-05,1,,,,,ホシノショウテン,0
1737,5350002002070,登記記録の閉鎖等,0,2024-01-15,2024-01-05,有限会社鮫島食鳥食品,,有限会社,宮崎県,宮崎市,波島１丁目２番１６号,,45,201,8800826,,,2024-01-05,清算の結了等,,,2015-10-05,1,,,,,サメシマショクチョウショクヒン,0
1747,5370001017340,登記記録の閉鎖等,0,2024-01-15,2024-01-12,株式会社ストロベリーフィールズ,,株式会社,宮城県,仙台市青葉区,錦ケ丘６丁目９番地の５,,04,101,9893123,,,2024-01-12,清算の結了等,,,2015-10-05,1,,,,,ストロベリーフィールズ,0
1760,5390002013907,登記記録の閉鎖等,0,2024-01-15,2024-01-09,有限会社三瓶建設,,有限会社,山形県,東置賜郡高畠町,大字高畠１３４９番地６,,06,381,9920351,,,2024-01-09,清算の結了等,,,2015-10-05,1,,,,,サンペイケンセツ,0
1764,5410005006260,登記記録の閉鎖等,0,2024-01-15,2023-12-28,税理士法人よつ葉税経,,その他の設立登記法人,秋田県,能代市,中和１丁目８番３７号,,05,202,0160843,,,2023-12-28,清算の結了等,,,2019-11-08,1,,,,,ヨツバゼイケイ,0
1765,5430001035724,登記記録の閉鎖等,0,2024-01-15,2024-01-04,株式会社ＮＫコンサル,,株式会社,北海道,札幌市北区,篠路六条５丁目１番１６号,,01,102,0028026,,,2024-01-04,清算の結了等,,,2015-10-05,1,,,,,エヌケーコンサル,0
1776,5490001003980,登記記録の閉鎖等,0,2024-01-15,2024-01-09,株式会社ビバシティ,,株式会社,高知県,高知市,東石立町４８番地１８,,39,201,7808039,,,2024-01-09,清算の結了等,,,2015-10-05,1,,,,,ビバシティ,0
1778,5490003000910,登記記録の閉鎖等,0,2024-01-15,2023-12-28,レイバーマネジメント合同会社,,合同会社,高知県,高知市,宇津野２５２番地４,,39,201,7800031,,,2023-12-28,清算の結了等,,,2015-10-05,1,,,,,レイバーマネジメント,0
1794,6010003029773,登記記録の閉鎖等,0,2024-01-15,2024-01-04,彩菜生活合同会社,,合同会社,東京都,千代田区,内幸町１丁目１番３号,,13,101,1000011,,,2024-01-04,清算の結了等,,,2019-05-10,1,,,,,サイサイセイカツ,0
1809,6010401144851,登記記録の閉鎖等,0,2024-01-15,2024-01-04,サウンドマウス・ジャパン株式会社,,株式会社,東京都,港区,赤坂２丁目１６番６号ＢＩＺＭＡＲＫＳ赤坂,,13,103,1070052,,,2024-01-04,合併による解散等,8010401107583,令和６年１月１日東京都港区南青山二丁目２６番３２号株式会社オーフィアム・ジャパン（8010401107583）に合併し解散,2019-04-09,1,,,,,サウンドマウスジャパン,0
1815,6010403012453,登記記録の閉鎖等,0,2024-01-15,2024-01-04,合同会社ＡＹＫ１４,,合同会社,東京都,港区,元赤坂１丁目１番８号株式会社赤坂国際会計内,,13,103,1070051,,,2024-01-04,清算の結了等,,,2015-10-05,1,,,,,エイワイケイジュウヨン,0
1816,6010403012461,登記記録の閉鎖等,0,2024-01-15,2024-01-04,合同会社ＡＹＫ２２,,合同会社,東京都,港区,元赤坂１丁目１番８号株式会社赤坂国際会計内,,13,103,1070051,,,2024-01-04,清算の結了等,,,2015-10-05,1,,,,,エイワイケイニジュウニ,0
1817,6010403017023,登記記録の閉鎖等,0,2024-01-15,2023-12-28,アンカニー・ビジョン・ジャパン合同会社,,合同会社,東京都,港区,六本木４丁目８番６号パシフィックキャピタルプラザ４階,,13,103,1060032,,,2023-12-28,清算の結了等,,,2017-08-14,1,,,,,アンカニービジョンジャパン,0
1818,6010403017477,登記記録の閉鎖等,0,2024-01-15,2024-01-04,ＫＲＩＳＴＡＬ＆ＧＬＡＭ合同会社,,合同会社,茨城県,水戸市,五軒町１丁目５番４８号,,08,201,3100063,,,2024-01-04,合併による解散等,2050001034321,令和６年１月１日茨城県水戸市五軒町一丁目５番４８号株式会社エコラル・パートナーズ（2050001034321）に合併し解散,2017-10-25,1,,,,,クリスタルアンドグラム,0
1821,6010501034820,登記記録の閉鎖等,0,2024-01-15,2024-01-04,株式会社ＦＣＥパブリッシング,,株式会社,東京都,新宿区,西新宿２丁目４番１号,,13,104,1600023,,,2024-01-04,合併による解散等,5011101080339,令和６年１月１日東京都新宿区西新宿二丁目４番１号株式会社ＦＣＥ（5011101080339）に合併し解散,2015-10-05,1,,,,,エフシーイーパブリッシング,0
1829,6010801003640,登記記録の閉鎖等,0,2024-01-15,2024-01-09,株式会社源氏,,株式会社,東京都,大田区,西蒲田７丁目４６番２号,,13,111,1440051,,,2024-01-09,清算の結了等,,,2015-10-05,1,,,,,ゲンジ,0
1831,6010901052034,登記記録の閉鎖等,0,2024-01-15,2024-01-04,株式会社Ｍｒ．Ｂａｎａｎａ,,株式会社,東京都,世田谷区,下馬３丁目５番１７号,,13,112,1540002,,,2024-01-04,清算の結了等,,,2022-11-28,1,,,,,ミスターバナナ,0
1833,6011001026044,登記記録の閉鎖等,0,2024-01-15,2024-01-10,あなぶきホームライフ株式会社,,株式会社,東京都,渋谷区,千駄ヶ谷４丁目１９番１２号,,13,113,1510051,,,2024-01-10,合併による解散等,8470001000424,令和６年１月１日香川県高松市鍛冶屋町７番地１２穴吹興産株式会社（8470001000424）に合併し解散,2015-10-05,1,,,,,アナブキホームライフ,0
1836,6011001064151,登記記録の閉鎖等,0,2024-01-15,2024-01-05,まると資産管理株式会社,,株式会社,愛知県,安城市,小堤町１４番１７号,,23,212,4460036,,,2024-01-05,合併による解散等,3180301013333,令和６年１月１日愛知県安城市小堤町１４番１７号まると工業株式会社（3180301013333）に合併し解散,2015-10-05,1,,,,,マルトシサンカンリ,0
1841,6011002020657,登記記録の閉鎖等,0,2024-01-15,2024-01-05,有限会社コンティニュー,,有限会社,東京都,渋谷区,代々木２丁目２３番１号ニューステイトメナー３１９,,13,113,1510053,,,2024-01-05,清算の結了等,,,2015-10-05,1,,,,,コンティニュー,0
1847,6011101097786,登記記録の閉鎖等,0,2024-01-15,2024-01-11,株式会社Ｈｉｒｕ,,株式会社,東京都,新宿区,西新宿７丁目５番８号ＧＯＷＡ西新宿５階,,13,104,1600023,,,2024-01-11,清算の結了等,,,2022-02-14,1,,,,,ヒル,0
1856,6011305001949,登記記録の閉鎖等,0,2024-01-15,2023-12-28,一般財団法人世界テレビ放送網,,その他の設立登記法人,東京都,港区,南青山１丁目４番２号,,13,103,1070062,,,2023-12-28,清算の結了等,,,2015-10-05,1,,,,,セカイテレビホウソウモウ,0
1871,6012402013358,登記記録の閉鎖等,0,2024-01-15,2024-01-05,有限会社サンライズ,,有限会社,東京都,狛江市,中和泉５丁目２５番２号,,13,219,2010012,,,2024-01-05,清算の結了等,,,2015-10-05,1,,,,,,0
1896,6021001006342,登記記録の閉鎖等,0,2024-01-15,2024-01-04,湘南エヌテイケー株式会社,,株式会社,神奈川県,高座郡寒川町,一之宮６丁目１番３号,,14,321,2530111,,,2024-01-04,合併による解散等,2021001006445,令和６年１月１日神奈川県高座郡寒川町一之宮六丁目１番３号日東化工株式会社（2021001006445）に合併し解散,2015-10-05,1,,,,,ショウナンエヌテイケイ,0
1902,6021002058507,登記記録の閉鎖等,0,2024-01-15,2023-12-28,有限会社瀬戸管工,,有限会社,神奈川県,平塚市,四之宮５丁目１４番２号,,14,203,2540014,,,2023-12-28,清算の結了等,,,2015-10-05,1,,,,,セトカンコウ,0
1906,6030001022225,登記記録の閉鎖等,0,2024-01-15,2024-01-09,ＡＩサービス株式会社,,株式会社,群馬県,前橋市,粕川町前皆戸４５－４,,10,201,3710218,,,2024-01-09,清算の結了等,,,2015-10-05,1,,,,,,0
1919,6040001003125,登記記録の閉鎖等,0,2024-01-15,2023-12-27,株式会社シテイ・アンド・ライフ,,株式会社,千葉県,市原市,青葉台５丁目１０番地１６,,12,219,2990117,,,2023-12-27,清算の結了等,,,2015-10-05,1,,,,,シティアンドライフ,0
1925,6040002080519,登記記録の閉鎖等,0,2024-01-15,2023-12-27,有限会社金澤輪業,,有限会社,千葉県,長生郡長南町,長南１２０１番地の１,,12,427,2970121,,,2023-12-27,清算の結了等,,,2015-10-05,1,,,,,カナザワリンギョウ,0
1931,6050001010137,登記記録の閉鎖等,0,2024-01-15,2024-01-04,株式会社レラコスメチック,,株式会社,東京都,中央区,日本橋２丁目１番１４号,,13,102,1030027,,,2024-01-04,合併による解散等,3010601024724,令和６年１月１日東京都中央区日本橋二丁目１番１４号山田製薬株式会社（3010601024724）に合併し解散,2015-10-05,1,,,,,レラコスメチック,0
1949,6080005000817,登記記録の閉鎖等,0,2024-01-15,2024-01-10,鯨ケ池非出資漁業協同組合,,その他の設立登記法人,静岡県,静岡市葵区,下１４８３番地の１,,22,101,4212108,,,2024-01-10,清算の結了等,,,2015-10-05,1,,,,,クジラガイケヒシュッシ,0
1989,6080401014734,登記記録の閉鎖等,0,2024-01-15,2024-01-10,株式会社シンギ,,株式会社,静岡県,掛川市,大渕１４１０番地の２,,22,213,4371302,,,2024-01-10,清算の結了等,,,2015-10-05,1,,,,,シンギ,0
2003,6100002027050,登記記録の閉鎖等,0,2024-01-15,2024-01-09,有限会社ねずみ穴設備,,有限会社,長野県,北安曇郡松川村,４４８８番地８,,20,482,3998501,,,2024-01-09,清算の結了等,,,2015-10-05,1,,,,,ネズミアナセツビ,0
2014,6120002074165,登記記録の閉鎖等,0,2024-01-15,2024-01-05,有限会社サン・リバー,,有限会社,大阪府,枚方市,上島町１番７号,,27,210,5731127,,,2024-01-05,清算の結了等,,,2015-10-05,1,,,,,サンリバー,0
2019,6120005022419,登記記録の閉鎖等,0,2024-01-15,2024-01-09,一般社団法人Ｌ・Ｄ・Ｋ,,その他の設立登記法人,大阪府,大阪市福島区,大開１丁目４番１３号,,27,103,5530007,,,2024-01-09,清算の結了等,,,2021-07-29,1,,,,,エルディーケー,0
2026,6130001009451,登記記録の閉鎖等,0,2024-01-15,2024-01-10,株式会社田中鐵工所,,株式会社,京都府,京都市東山区,五条橋東４丁目４３１番地,,26,105,6050846,,,2024-01-10,清算の結了等,,,2015-10-05,1,,,,,タナカテッコウショ,0
2030,6130005003228,登記記録の閉鎖等,0,2024-01-15,2024-01-09,千成餅協同組合,00038522,その他の設立登記法人,京都府,京都市上京区,今出川通室町東入今出川町３３０番地の３,,26,102,6020033,,,2024-01-09,清算の結了等,,,2015-10-05,1,,,,,センナリモチ,0
2036,6140002028846,登記記録の閉鎖等,0,2024-01-15,2024-01-09,有限会社こぼん,,有限会社,兵庫県,加古川市,尾上町口里３６番地２,,28,210,6750022,,,2024-01-09,清算の結了等,,,2015-10-05,1,,,,,コボン,0
2042,6170001011767,登記記録の閉鎖等,0,2024-01-15,2024-01-12,紀州串本養魚株式会社,,株式会社,和歌山県,西牟婁郡白浜町,堅田２５２１番地,,30,401,6492201,,,2024-01-12,清算の結了等,,,2015-10-05,1,,,,,キシュウクシモトヨウギョ,0
2045,6180001019520,登記記録の閉鎖等,0,2024-01-15,2024-01-04,三建工業株式会社,,株式会社,愛知県,名古屋市中川区,中郷３丁目３０１番地,,23,110,4540921,,,2024-01-04,合併による解散等,5180002051762,令和６年１月１日愛知県北名古屋市二子松江１１番地の３株式会社グリーンクリーナー（5180002051762）に合併し解散,2015-10-05,1,,,,,サンケンコウギョウ,0
2056,6190002018371,登記記録の閉鎖等,0,2024-01-15,2023-12-27,有限会社あいあい,,有限会社,三重県,桑名郡木曽岬町,大字見入７２９番地３２,,24,303,4980802,,,2023-12-27,清算の結了等,,,2015-10-05,1,,,,,アイアイ,0
2061,6200002010938,登記記録の閉鎖等,0,2024-01-15,2024-01-12,有限会社寺本建具店,,有限会社,岐阜県,羽島市,竹鼻町狐穴１５５４番地の１,,21,209,5016232,,,2024-01-12,清算の結了等,,,2015-10-05,1,,,,,テラモトタテグテン,0
2062,6210003001423,登記記録の閉鎖等,0,2024-01-15,2024-01-11,ここなっつ合同会社,,合同会社,福井県,福井市,本堂町第６７号１６番地,,18,201,9188076,,,2024-01-11,清算の結了等,,,2021-11-17,1,,,,,ココナッツ,0
2073,6270001002244,登記記録の閉鎖等,0,2024-01-15,2024-01-11,株式会社エス・エイチ,,株式会社,鳥取県,八頭郡智頭町,大字智頭４５１番地,,31,328,6891402,,,2024-01-11,清算の結了等,,,2015-10-05,1,,,,,エスエイチ,0
2077,6290001040077,登記記録の閉鎖等,0,2024-01-15,2024-01-09,オープンフードサービス株式会社,,株式会社,福岡県,福岡市中央区,舞鶴１丁目３番１６号,,40,133,8100073,,,2024-01-09,清算の結了等,,,2015-10-05,1,,,,,オープンフードサービス,0
2078,6290001051850,登記記録の閉鎖等,0,2024-01-15,2024-01-09,株式会社きらめき社,,株式会社,福岡県,三井郡大刀洗町,大字高樋２４５４番地２３,00092648,40,503,8301221,,,2024-01-09,清算の結了等,,,2015-10-05,1,,,,,キラメキシャ,0
2081,6290001088595,登記記録の閉鎖等,0,2024-01-15,2024-01-10,株式会社エスタブル,,株式会社,福岡県,福岡市中央区,大濠２丁目１３番３２－４０１号,,40,133,8100052,,,2024-01-10,合併による解散等,6250001013144,令和６年１月１日山口県下関市赤間町１番１６号株式会社湖月（6250001013144）に合併し解散,2020-04-07,1,,,,,,0
2084,6290801007333,登記記録の閉鎖等,0,2024-01-15,2024-01-11,株式会社歩夢,,株式会社,福岡県,北九州市小倉北区,紺屋町６番２１号,,40,106,8020081,,,2024-01-11,清算の結了等,,,2015-10-05,1,,,,,アユム,0
2099,6330002011972,登記記録の閉鎖等,0,2024-01-15,2024-01-04,有限会社熊本テニスクラブ,,有限会社,熊本県,熊本市北区,龍田５丁目１２番５６号,,43,105,8618006,,,2024-01-04,清算の結了等,,,2015-10-05,1,,,,,クマモトテニスクラブ,0
2113,6400001005992,登記記録の閉鎖等,0,2024-01-15,2024-01-09,株式会社太田菓子舗,,株式会社,岩手県,北上市,常盤台４丁目１１番１３８号,,03,206,0240012,,,2024-01-09,清算の結了等,,,2015-10-05,1,,,,,オオタカシホ,0
2142,7010403012452,登記記録の閉鎖等,0,2024-01-15,2024-01-04,合同会社ＡＹＫ１３,,合同会社,東京都,港区,元赤坂１丁目１番８号株式会社赤坂国際会計内,,13,103,1070051,,,2024-01-04,清算の結了等,,,2015-10-05,1,,,,,エイワイケイジュウサン,0
2157,7010602011453,登記記録の閉鎖等,0,2024-01-15,2024-01-09,有限会社大成工業所,,有限会社,東京都,墨田区,八広３丁目１１番１４号,,13,107,1310041,,,2024-01-09,清算の結了等,,,2015-10-05,1,,,,,タイセイコウギョウショ,0
2180,7011002008346,登記記録の閉鎖等,0,2024-01-15,2024-01-09,有限会社デザインハウスフェスタ,,有限会社,東京都,渋谷区,桜丘町９番１５号,,13,113,1500031,,,2024-01-09,清算の結了等,,,2015-10-05,1,,,,,デザインハウスフェスタ,0
2181,7011002036339,登記記録の閉鎖等,0,2024-01-15,2024-01-04,有限会社フラワーカンパニー,,有限会社,東京都,渋谷区,桜丘町２９番３５号ＳＰビル,,13,113,1500031,,,2024-01-04,合併による解散等,9011001067647,令和６年１月１日東京都渋谷区桜丘町２９番３５号ＳＰビル株式会社さくらプロダクション（9011001067647）に合併し解散,2015-10-05,1,,,,,フラワーカンパニー,0
2182,7011003013568,登記記録の閉鎖等,0,2024-01-15,2024-01-05,ジャパンスターツ合同会社,,合同会社,東京都,渋谷区,桜丘町２３番１７号シティコート桜丘４０８,,13,113,1500031,,,2024-01-05,清算の結了等,,,2021-10-15,1,,,,,ジャパンスターツ,0
2184,7011101056790,登記記録の閉鎖等,0,2024-01-15,2024-01-09,株式会社インフォアート,,株式会社,東京都,新宿区,下落合１丁目６番８号,,13,104,1610033,,,2024-01-09,清算の結了等,,,2015-10-05,1,,,,,インフォアート,0
2197,7011801011509,登記記録の閉鎖等,0,2024-01-15,2024-01-09,株式会社藤波不動産,,株式会社,東京都,足立区,西竹の塚２丁目１４番７号,,13,121,1210822,,,2024-01-09,清算の結了等,,,2015-10-05,1,,,,,フジナミフドウサン,0
2204,7012805002675,登記記録の閉鎖等,0,2024-01-15,2023-12-20,特定非営利活動法人子どもを未来につなぐ会,,その他の設立登記法人,東京都,立川市,高松町１丁目２８番５号,,13,202,1900011,,,2023-12-20,清算の結了等,,,2017-07-03,1,,,,,コドモヲミライニツナグカイ,0
2223,7020003021068,登記記録の閉鎖等,0,2024-01-15,2024-01-09,Ａｌｌ　ｏｎｅ合同会社,,合同会社,神奈川県,横浜市戸塚区,品濃町１１１７番地－１０３号,,14,110,2440801,,,2024-01-09,清算の結了等,,,2022-01-07,1,,,,,オールワン,0
2225,7021001035035,登記記録の閉鎖等,0,2024-01-15,2024-01-04,株式会社大楽小田原,,株式会社,神奈川県,小田原市,飯泉８番地の３,,14,206,2500863,,,2024-01-04,清算の結了等,,,2015-10-05,1,,,,,タイラクオダワラ,0
2228,7021001061576,登記記録の閉鎖等,0,2024-01-15,2024-01-09,株式会社ｗｉｎ,,株式会社,神奈川県,横須賀市,米が浜通２丁目６番地２３,,14,201,2380011,,,2024-01-09,清算の結了等,,,2017-03-09,1,,,,,,0
2231,7030001151733,登記記録の閉鎖等,0,2024-01-15,2024-01-04,株式会社三協,,株式会社,東京都,豊島区,南大塚３丁目１番６号２Ｆ,,13,116,1700005,,,2024-01-04,清算の結了等,,,2023-01-11,1,,,,,サンキョウ,0
2236,7040001018642,登記記録の閉鎖等,0,2024-01-15,2023-12-27,株式会社ボイジャー,,株式会社,千葉県,習志野市,屋敷３丁目２番６号,,12,216,2750004,,,2023-12-27,清算の結了等,,,2015-10-05,1,,,,,ボイジャー,0
2249,7050001005672,登記記録の閉鎖等,0,2024-01-15,2024-01-05,株式会社関東クリエイトフーズ,,株式会社,茨城県,水戸市,泉町３丁目６番３号,,08,201,3100026,,,2024-01-05,合併による解散等,3050002002846,令和６年１月１日茨城県水戸市泉町三丁目６番３号株式会社フリーボックス（3050002002846）に合併し解散,2015-10-05,1,,,,,カントウクリエイトフーズ,0
2251,7050001047129,登記記録の閉鎖等,0,2024-01-15,2024-01-05,株式会社セラファーマシー,,株式会社,茨城県,行方市,南５０番地４６,,08,233,3113836,,,2024-01-05,清算の結了等,,,2020-02-06,1,,,,,セラファーマシー,0
2252,7050002043119,登記記録の閉鎖等,0,2024-01-15,2024-01-09,有限会社フジタスカイルーフ,,有限会社,茨城県,桜川市,大国玉４２２５番地の１,,08,231,3091244,,,2024-01-09,清算の結了等,,,2015-10-05,1,,,,,フジタスカイルーフ,0
2253,7060002013376,登記記録の閉鎖等,0,2024-01-15,2024-01-05,有限会社林アグリメンテナンス,,有限会社,栃木県,さくら市,穂積１１１３番地２,,09,214,3291403,,,2024-01-05,清算の結了等,,,2015-10-05,1,,,,,ハヤシアグリメンテナンス,0
2321,7120001103188,登記記録の閉鎖等,0,2024-01-15,2024-01-05,竹内化学工業株式会社,,株式会社,大阪府,大阪市東淀川区,小松１丁目５番１７号,,27,114,5330004,,,2024-01-05,清算の結了等,,,2015-10-05,1,,,,,タケウチカガクコウギョウ,0
2322,7120001137153,登記記録の閉鎖等,0,2024-01-15,2024-01-10,株式会社ＴＯＰＷＥＬＬ,,株式会社,大阪府,大阪市淀川区,宮原４丁目２番１０号ＰＭＯＥＸ新大阪４Ｆ,,27,123,5320003,,,2024-01-10,合併による解散等,7011101011259,令和６年１月１日東京都新宿区西新宿六丁目５番１号株式会社ゼネテック（7011101011259）に合併し解散,2015-10-05,1,,,,,トップウェル,0
2342,7122005000329,登記記録の閉鎖等,0,2024-01-15,2024-01-12,大阪袋物鞄工業協同組合,00034940,その他の設立登記法人,大阪府,東大阪市,渋川町１丁目１２番２４号,,27,227,5770836,,,2024-01-12,清算の結了等,,,2015-10-05,1,,,,,オオサカフクロモノカバンコウギョウ,0
2346,7140001074345,登記記録の閉鎖等,0,2024-01-15,2024-01-10,エイチ株式会社,,株式会社,兵庫県,西宮市,甲子園口１丁目１０番１－３０４号,,28,204,6638113,,,2024-01-10,清算の結了等,,,2015-10-05,1,,,,,エイチ,0
2350,7140002011883,登記記録の閉鎖等,0,2024-01-15,2024-01-05,有限会社七十二番青果谷山,,有限会社,兵庫県,神戸市兵庫区,中之島１丁目１番１号,,28,105,6520844,,,2024-01-05,清算の結了等,,,2015-10-05,1,,,,,ナナジュウニバンセイカタニヤマ,0
2356,7170001012979,登記記録の閉鎖等,0,2024-01-15,2024-01-11,株式会社ラポール,,株式会社,和歌山県,和歌山市,和歌浦西１丁目１番１９号,,30,201,6410024,,,2024-01-11,清算の結了等,,,2015-10-05,1,,,,,ラポール,0
2370,7180301006738,登記記録の閉鎖等,0,2024-01-15,2023-12-28,日東自動車株式会社,,株式会社,愛知県,豊橋市,下地町字操穴４３番地,,23,201,4400083,,,2023-12-28,清算の結了等,,,2015-10-05,1,,,,,ニットウジドウシャ,0
2375,7210002013146,登記記録の閉鎖等,0,2024-01-15,2024-01-12,有限会社谷口工業所,,有限会社,福井県,鯖江市,下野田町第３８号１４番地の１,,18,207,9160073,,,2024-01-12,清算の結了等,,,2015-10-05,1,,,,,タニグチコウギョウショ,0
2378,7240002001271,登記記録の閉鎖等,0,2024-01-15,2024-01-04,有限会社五十六屋,,有限会社,広島県,広島市安佐北区,真亀３丁目２番５号,,34,106,7391741,,,2024-01-04,清算の結了等,,,2015-10-05,1,,,,,イソロクヤ,0
2383,7250005001342,登記記録の閉鎖等,0,2024-01-15,2024-01-10,一般財団法人阿知須まちづくり財団,,その他の設立登記法人,山口県,山口市,阿知須西条区３３１６番地,,35,203,7541277,,,2024-01-10,清算の結了等,,,2015-10-05,1,,,,,アジスマチヅクリザイダン,0
2389,7280002009294,登記記録の閉鎖等,0,2024-01-15,2024-01-12,有限会社ブルーベイ,,有限会社,島根県,江津市,波子町ロ２番地１,,32,207,6993161,,,2024-01-12,清算の結了等,,,2015-10-05,1,,,,,ブルーベイ,0
2390,7280005003757,登記記録の閉鎖等,0,2024-01-15,2024-01-12,宗教法人正行寺,,その他の設立登記法人,島根県,大田市,水上町福原１１９番地の１,,32,205,6940302,,,2024-01-12,清算の結了等,,,2015-10-05,1,,,,,ショウギョウジ,0
2418,7410001000595,登記記録の閉鎖等,0,2024-01-15,2024-01-11,秋田臨海鉄道株式会社,,株式会社,秋田県,秋田市,土崎港西１丁目１２番６号,,05,201,0110945,,,2024-01-11,清算の結了等,,,2015-10-05,1,,,,,アキタリンカイテツドウ,0
2445,8010002012919,登記記録の閉鎖等,0,2024-01-15,2024-01-04,有限会社土井理髪店,,有限会社,東京都,千代田区,内神田２丁目７番１２号,,13,101,1010047,,,2024-01-04,清算の結了等,,,2015-10-05,1,,,,,ドイリハツテン,0
2449,8010003026785,登記記録の閉鎖等,0,2024-01-15,2024-01-05,合同会社仙台ＨＫ開発,,合同会社,東京都,千代田区,丸の内３丁目１番１号東京共同会計事務所内,,13,101,1000005,,,2024-01-05,清算の結了等,,,2018-01-18,1,,,,,センダイエイチケーカイハツ,0
2451,8010005023203,登記記録の閉鎖等,0,2024-01-15,2023-12-26,ＮＰＯ法人郷土のことわざネットワーク・ことネット,,その他の設立登記法人,東京都,新宿区,西新宿３丁目５－３西新宿ダイヤモンドパレス９１２,,13,104,1600023,,,2023-12-26,清算の結了等,,,2015-10-05,1,,,,,キョウドノコトワザネットワークコトネット,0
2455,8010102003033,登記記録の閉鎖等,0,2024-01-15,2024-01-09,有限会社佐野粧事,,有限会社,東京都,八王子市,千人町１丁目１２番１０号,,13,201,1930835,,,2024-01-09,清算の結了等,,,2015-10-05,1,,,,,サノショウジ,0
2457,8010401089995,登記記録の閉鎖等,0,2024-01-15,2023-12-28,日本クライオジェニックス株式会社,,株式会社,東京都,港区,芝浦３丁目４番１号グランパークタワー,,13,103,1080023,,,2023-12-28,清算の結了等,,,2015-10-05,1,,,,,ニホンクライオジェニックス,0
2459,8010401116717,登記記録の閉鎖等,0,2024-01-15,2024-01-10,アンガーマネジメント株式会社,,株式会社,東京都,港区,芝１丁目５番９号,,13,103,1050014,,,2024-01-10,合併による解散等,6010401093594,令和６年１月１日東京都港区芝一丁目５番９号株式会社レビックグローバル（6010401093594）に合併し解散,2015-10-05,1,,,,,アンガーマネジメント,0
2460,8010401119918,登記記録の閉鎖等,0,2024-01-15,2024-01-09,Ｎｏｏｍ　Ｊａｐａｎ株式会社,,株式会社,東京都,新宿区,西新宿３丁目９番７号フロンティア新宿タワーオフィス３階,,13,104,1600023,,,2024-01-09,清算の結了等,,,2015-10-05,1,,,,,ヌームジャパン,0
2469,8010405018447,登記記録の閉鎖等,0,2024-01-15,2023-12-28,一般社団法人ウェディングプランナー協会,,その他の設立登記法人,東京都,港区,南青山２丁目２番１５号ＷｉｎＡｏｙａｍａビルＵＣＦ６階,,13,103,1070062,,,2023-12-28,清算の結了等,,,2020-02-04,1,,,,,ウェディングプランナーキョウカイ,0
2487,8010903001144,登記記録の閉鎖等,0,2024-01-15,2024-01-04,合同会社増渕,,合同会社,東京都,世田谷区,奥沢２丁目２３番２号,,13,112,1580083,,,2024-01-04,清算の結了等,,,2015-10-05,1,,,,,マスブチ,0
2492,8011002036338,登記記録の閉鎖等,0,2024-01-15,2024-01-04,有限会社エスピー出版局,,有限会社,東京都,渋谷区,桜丘町２９番３５号ＳＰビル,,13,113,1500031,,,2024-01-04,合併による解散等,9011001067647,令和６年１月１日東京都渋谷区桜丘町２９番３５号ＳＰビル株式会社さくらプロダクション（9011001067647）に合併し解散,2015-10-05,1,,,,,エスピーシュッパンキョク,0
2506,8011403003317,登記記録の閉鎖等,0,2024-01-15,2023-11-29,合同会社Ｓｃｉｅｎｃｅ　Ｐａｓｓ,,合同会社,東京都,板橋区,栄町２５－１６,,13,119,1730015,,,2023-11-29,清算の結了等,,,2021-04-28,1,,,,,サイエンスパス,0
2514,8011802015152,登記記録の閉鎖等,0,2024-01-15,2024-01-04,株式会社ダイマル,,株式会社,東京都,足立区,西新井栄町２丁目７番２号,,13,121,1230843,,,2024-01-04,合併による解散等,8011802012505,令和６年１月１日東京都足立区西新井栄町二丁目７番２号株式会社興和商事（8011802012505）に合併し解散,2015-10-05,1,,,,,ダイマル,0
2526,8020001046867,登記記録の閉鎖等,0,2024-01-15,2024-01-09,株式会社ヒダ設計,,株式会社,神奈川県,横浜市青葉区,つつじが丘１番地５,,14,117,2270055,,,2024-01-09,清算の結了等,,,2015-10-05,1,,,,,ヒダセッケイ,0
2535,8020003007339,登記記録の閉鎖等,0,2024-01-15,2024-01-09,合同会社瑠璃仙,,合同会社,福岡県,福岡市博多区,千代２丁目２２番８一豊ビル２０２号,,40,132,8120044,,,2024-01-09,清算の結了等,,,2015-10-05,1,,,,,ルリセン,0
2550,8030001095376,登記記録の閉鎖等,0,2024-01-15,2024-01-04,株式会社プライム,,株式会社,埼玉県,さいたま市南区,大字太田窪３５０６番地１１,,11,108,3360015,,,2024-01-04,清算の結了等,,,2015-10-05,1,,,,,プライム,0
2553,8030001133986,登記記録の閉鎖等,0,2024-01-15,2023-12-27,株式会社彩道工務店,,株式会社,埼玉県,入間市,東藤沢６丁目１７番２３号,,11,225,3580012,,,2023-12-27,清算の結了等,,,2019-11-28,1,,,,,サイドウコウムテン,0
2559,8030003017725,登記記録の閉鎖等,0,2024-01-15,2023-12-28,合同会社トムス,,合同会社,埼玉県,さいたま市南区,大字大谷口１３７１番地５,,11,108,3360042,,,2023-12-28,清算の結了等,,,2021-08-05,1,,,,,トムス,0
2562,8040001026339,登記記録の閉鎖等,0,2024-01-15,2023-12-27,株式会社三共通商,,株式会社,千葉県,市川市,東菅野１丁目２番９号エステート美樹１Ｆ市川税理士事務所内,,12,203,2720823,,,2023-12-27,清算の結了等,,,2015-10-05,1,,,,,サンキョウツウショウ,0
2573,8050002024134,登記記録の閉鎖等,0,2024-01-15,2024-01-05,有限会社トミヤ食品店,,有限会社,茨城県,古河市,横山町１丁目５番３０号,,08,204,3060022,,,2024-01-05,清算の結了等,,,2015-10-05,1,,,,,トミヤショクヒンテン,0
2580,8070002009281,登記記録の閉鎖等,0,2024-01-15,2024-01-05,有限会社カーリメイク高崎,,有限会社,群馬県,高崎市,正観寺町６４８番地２,,10,202,3700008,,,2024-01-05,清算の結了等,,,2015-10-05,1,,,,,カーリメイクタカサキ,0
2582,8070002010792,登記記録の閉鎖等,0,2024-01-15,2024-01-05,大陽産業有限会社,,有限会社,群馬県,高崎市,問屋町１丁目２番地の９,,10,202,3700006,,,2024-01-05,清算の結了等,,,2015-10-05,1,,,,,タイヨウサンギョウ,0
2585,8080001000629,登記記録の閉鎖等,0,2024-01-15,2024-01-10,株式会社エコジャパンニジュウイチ,,株式会社,静岡県,静岡市葵区,竜南１丁目６番５号,,22,101,4200804,,,2024-01-10,清算の結了等,,,2015-10-05,1,,,,,エコジャパンニジュウイチ,0
2587,8080102012390,登記記録の閉鎖等,0,2024-01-15,2024-01-11,有限会社エスフレックス,,有限会社,静岡県,三島市,谷田１１５９番地の１６,,22,206,4110801,,,2024-01-11,清算の結了等,,,2015-10-05,1,,,,,エスフレックス,0
2628,8080403002859,登記記録の閉鎖等,0,2024-01-15,2024-01-10,合同会社リセ,,合同会社,静岡県,浜松市中央区,上島１丁目２０番１８号,,22,138,4338122,,,2024-01-10,清算の結了等,,,2015-10-05,1,,,,,リセ,0
2633,8110002010821,登記記録の閉鎖等,0,2024-01-15,2024-01-10,有限会社ピーク食品,,有限会社,新潟県,新潟市北区,葛塚３４９０番地,,15,101,9503321,,,2024-01-10,清算の結了等,,,2015-10-05,1,,,,,,0
2652,8122001030493,登記記録の閉鎖等,0,2024-01-15,2024-01-10,ニッカホーム西日本株式会社,,株式会社,大阪府,東大阪市,吉田本町１丁目１番３０号,,27,227,5780982,,,2024-01-10,合併による解散等,6180001043470,令和６年１月１日名古屋市緑区篭山二丁目１２２５番地ニッカホーム株式会社（6180001043470）に合併し解散,2017-04-14,1,,,,,ニッカホームニシニホン,0
2671,8180001002409,登記記録の閉鎖等,0,2024-01-15,2024-01-10,中部クリーンエイド販売株式会社,,株式会社,愛知県,名古屋市名東区,牧の里３丁目１０３番地,,23,115,4650068,,,2024-01-10,合併による解散等,5120001042784,令和６年１月１日大阪市東成区東小橋一丁目１１番１０号西日本クリーンエイド販売株式会社（5120001042784）に合併し解散,2015-10-05,1,,,,,チュウブクリーンエイドハンバイ,0
2674,8180001149431,登記記録の閉鎖等,0,2024-01-15,2024-01-09,株式会社なごフード,,株式会社,愛知県,名古屋市北区,西志賀町４丁目６２番地の１,,23,103,4620058,,,2024-01-09,合併による解散等,3180001054017,令和５年１２月３１日名古屋市北区黒川本通五丁目１２番地の１株式会社なご壱（3180001054017）に合併し解散,2022-01-06,1,,,,,ナゴフード,0
2677,8180002066626,登記記録の閉鎖等,0,2024-01-15,2024-01-09,有限会社中部フアッションセンター,,有限会社,愛知県,春日井市,中野町２丁目１３番地の３１,,23,206,4860957,,,2024-01-09,清算の結了等,,,2015-10-05,1,,,,,チュウブファッションセンター,0
2694,8240001031062,登記記録の閉鎖等,0,2024-01-15,2024-01-04,瀬尾プロパン株式会社,,株式会社,広島県,福山市,春日町３丁目２６番３号,,34,207,7210907,,,2024-01-04,清算の結了等,,,2015-10-05,1,,,,,セオプロパン,0
2695,8240001043561,登記記録の閉鎖等,0,2024-01-15,2024-01-04,日本システム株式会社,,株式会社,広島県,広島市西区,井口５丁目１３番５号,,34,104,7330842,,,2024-01-04,清算の結了等,,,2015-10-05,1,,,,,ニホンシステム,0
2707,8290001035406,登記記録の閉鎖等,0,2024-01-15,2024-01-11,株式会社レジャークリエイトサービス,,株式会社,福岡県,福岡市中央区,春吉２丁目４番１１号,,40,133,8100003,,,2024-01-11,合併による解散等,5350001002187,令和６年１月１日宮崎市橘通東三丁目８番２１号株式会社レジャークリエイトホールディングス（5350001002187）に合併し解散,2015-10-05,1,,,,,,0
2711,8290001069651,登記記録の閉鎖等,0,2024-01-15,2024-01-04,株式会社中四国医事新報社,,株式会社,福岡県,福岡市博多区,東光１丁目３番８号,,40,132,8120008,,,2024-01-04,合併による解散等,6290001062451,令和６年１月１日福岡市博多区東光一丁目３番８号株式会社九州医事新報社（6290001062451）に合併し解散,2015-10-05,1,,,,,チュウシコクイジシンポウシャ,0
2712,8290001080377,登記記録の閉鎖等,0,2024-01-15,2024-01-09,株式会社ｃｏｐａｈ,,株式会社,福岡県,福岡市中央区,天神１丁目９番１７号福岡天神フコク生命ビル１５階,,40,133,8100001,,,2024-01-09,清算の結了等,,,2018-01-29,1,,,,,コパ,0
2739,8360001007315,登記記録の閉鎖等,0,2024-01-15,2024-01-10,株式会社千光商事,,株式会社,沖縄県,中頭郡北中城村,字島袋１４７２番地Ｐ８５,,47,327,9012301,,,2024-01-10,清算の結了等,,,2015-10-05,1,,,,,センコウショウジ,0
2761,8480005001590,登記記録の閉鎖等,0,2024-01-15,2024-01-12,医療法人こもだ歯科医院,,その他の設立登記法人,徳島県,徳島市,南田宮４丁目４番４４号,,36,201,7700004,,,2024-01-12,清算の結了等,,,2015-10-05,1,,,,,コモダシカイイン,0
2766,9010001127592,登記記録の閉鎖等,0,2024-01-15,2024-01-05,株式会社フレームワーク,,株式会社,愛知県,安城市,小堤町１４番１７号,,23,212,4460036,,,2024-01-05,合併による解散等,3180301013333,令和６年１月１日愛知県安城市小堤町１４番１７号まると工業株式会社（3180301013333）に合併し解散,2015-10-05,1,,,,,フレームワーク,0
2770,9010001214903,登記記録の閉鎖等,0,2024-01-15,2024-01-04,中央マネジメントコンサルティング株式会社,,株式会社,東京都,中央区,銀座１丁目２２番１１号銀座大竹ビジデンス２階,,13,102,1040061,,,2024-01-04,清算の結了等,,,2021-01-08,1,,,,,チュウオウマネジメントコンサルティング,0
2791,9010403012459,登記記録の閉鎖等,0,2024-01-15,2024-01-04,合同会社ＡＹＫ２０,,合同会社,東京都,港区,元赤坂１丁目１番８号株式会社赤坂国際会計内,,13,103,1070051,,,2024-01-04,清算の結了等,,,2015-10-05,1,,,,,エイワイケイニジュウ,0
2799,9010501045872,登記記録の閉鎖等,0,2024-01-15,2023-12-28,株式会社ＴＭアセット,,株式会社,東京都,港区,芝大門２丁目１０番１２号,,13,103,1050012,,,2023-12-28,合併による解散等,4010401158135,令和５年１２月２７日東京都港区芝大門二丁目１０番１２号株式会社ＦＧスマートアセット（4010401158135）に合併し解散,2020-06-17,1,,,,,ティーエムアセット,0
2802,9010602027885,登記記録の閉鎖等,0,2024-01-15,2024-01-05,有限会社ベルアージュ,,有限会社,東京都,江東区,木場２丁目７番１０－３０１号,,13,108,1350042,,,2024-01-05,清算の結了等,,,2015-10-05,1,,,,,ベルアージュ,0
2822,9011002002140,登記記録の閉鎖等,0,2024-01-15,2024-01-09,有限会社大岡精機製作所,,有限会社,東京都,渋谷区,本町６丁目１６番８号,,13,113,1510071,,,2024-01-09,清算の結了等,,,2015-10-05,1,,,,,オオオカセイキセイサクショ,0
2830,9011301024372,登記記録の閉鎖等,0,2024-01-15,2023-12-22,よしな株式会社,,株式会社,東京都,杉並区,浜田山３丁目４番１７号Ｂ棟,,13,115,1680065,,,2023-12-22,清算の結了等,,,2018-08-08,1,,,,,ヨシナ,0
2839,9011802007999,登記記録の閉鎖等,0,2024-01-15,2024-01-05,有限会社八幡屋,,有限会社,東京都,葛飾区,四つ木１丁目３０番１号,,13,122,1240011,,,2024-01-05,清算の結了等,,,2015-10-05,1,,,,,ヤハタヤ,0
2843,9012803001974,登記記録の閉鎖等,0,2024-01-15,2024-01-04,サイゲート合同会社,,合同会社,東京都,立川市,富士見町２丁目３番１０号ライズテラス立川Ｂ号室,,13,202,1900013,,,2024-01-04,清算の結了等,,,2019-02-19,1,,,,,サイゲート,0
2855,9020001133821,登記記録の閉鎖等,0,2024-01-15,2024-01-09,株式会社キノリアライズ,,株式会社,神奈川県,横浜市鶴見区,尻手２丁目３番３－３１３号,,14,101,2300003,,,2024-01-09,清算の結了等,,,2019-11-28,1,,,,,キノリアライズ,0
2859,9020002012297,登記記録の閉鎖等,0,2024-01-15,2024-01-05,東昭建設有限会社,,有限会社,神奈川県,横浜市戸塚区,汲沢５丁目２５番２号,00010328,14,110,2450061,,,2024-01-05,清算の結了等,,,2015-10-05,1,,,,,トウショウケンセツ,0
2863,9021001030810,登記記録の閉鎖等,0,2024-01-15,2024-01-05,株式会社ＪＮＳテクノサービス,,株式会社,神奈川県,大和市,中央３丁目３番地２７レクシオ１０３,,14,213,2420021,,,2024-01-05,清算の結了等,,,2015-10-05,1,,,,,ジェーエヌエス,0
2865,9021001063678,登記記録の閉鎖等,0,2024-01-15,2023-12-25,信栄ビル株式会社,,株式会社,神奈川県,小田原市,栄町２丁目９番３９号,,14,206,2500011,,,2023-12-25,清算の結了等,,,2017-12-08,1,,,,,シンエイビル,0
2869,9030001048102,登記記録の閉鎖等,0,2024-01-15,2023-12-25,株式会社ふぁみりえ,,株式会社,埼玉県,新座市,東北２丁目２４番１４号ブリリア９０２号室,,11,230,3520001,,,2023-12-25,清算の結了等,,,2015-10-05,1,,,,,ファミリエ,0
2872,9030001094088,登記記録の閉鎖等,0,2024-01-15,2023-12-06,株式会社歴史探求社,,株式会社,三重県,伊賀市,森寺２９８番地,,24,216,5180126,,,2023-12-06,清算の結了等,,,2015-10-05,1,,,,,レキシタンキユウシヤ,0
2879,9040001076366,登記記録の閉鎖等,0,2024-01-15,2023-12-26,株式会社イープロ,,株式会社,千葉県,千葉市中央区,新田町１０番１号,,12,101,2600027,,,2023-12-26,清算の結了等,,,2015-10-05,1,,,,,イープロ,0
2889,9040003017054,登記記録の閉鎖等,0,2024-01-15,2024-01-10,合同会社Ｓｕｓｔａｉｎａｂｌｅ　Ｇｒｏｗｔｈ　Ｅｄｕｃａｔｉｏｎ,,合同会社,千葉県,千葉市中央区,川戸町３６７－８,,12,101,2600802,,,2024-01-10,合併による解散等,7010403024646,令和６年１月７日東京都港区赤坂９－７－１ミッドタウン・タワー１８Ｆ株式会社Ｓｕｓｔａｉｎａｂｌｅ　Ｇｒｏｗｔｈ　Ａｃｃｏｕｎｔｉｎｇ（7010403024646）に合併し解散,2021-02-17,1,,,,,サステイナブルグロースエデュケーション,0
2902,9060002006683,登記記録の閉鎖等,0,2024-01-15,2024-01-09,有限会社豊田自工,,有限会社,栃木県,宇都宮市,平出町１１１４番地２,,09,201,3210901,,,2024-01-09,清算の結了等,,,2015-10-05,1,,,,,トヨタジコウ,0
2906,9070002016335,登記記録の閉鎖等,0,2024-01-15,2024-01-05,有限会社ジェイケイ,,有限会社,群馬県,富岡市,星田６６番地３,,10,210,3702312,,,2024-01-05,清算の結了等,,,2015-10-05,1,,,,,ジェイケイ,0
2968,9120103005173,登記記録の閉鎖等,0,2024-01-15,2024-01-15,合同会社Ｈ　ｔｈｒｅｅ,,合同会社,大阪府,泉南郡岬町,深日２６０９番地,,27,366,5990303,,,2024-01-15,清算の結了等,,,2023-04-18,1,,,,,エイチスリー,0
2981,9140001025973,登記記録の閉鎖等,0,2024-01-15,2024-01-10,オメガプラニング株式会社,,株式会社,兵庫県,神戸市中央区,中島通３丁目３番１６号,,28,110,6510052,,,2024-01-10,清算の結了等,,,2015-10-05,1,,,,,オメガプランニング,0
2986,9140001102244,登記記録の閉鎖等,0,2024-01-15,2024-01-05,加裕株式会社,,株式会社,兵庫県,神戸市中央区,磯辺通４丁目１－４８－５０８号,,28,110,6510084,,,2024-01-05,清算の結了等,,,2016-06-02,1,,,,,カユウ,0
3016,9180003022032,登記記録の閉鎖等,0,2024-01-15,2024-01-04,合同会社ｒａｈａ,,合同会社,愛知県,清須市,鍋片３丁目９２番地,,23,233,4520907,,,2024-01-04,清算の結了等,,,2021-01-15,1,,,,,ラーハ,0
3020,9180301027311,登記記録の閉鎖等,0,2024-01-15,2023-12-28,株式会社クレアジアジャパン,,株式会社,愛知県,岡崎市,明大寺町字畔土１８番地３,,23,202,4440864,,,2023-12-28,清算の結了等,,,2015-10-05,1,,,,,クレアジアジャパン,0
3040,9260001028238,登記記録の閉鎖等,0,2024-01-15,2024-01-12,志縁株式会社,,株式会社,岡山県,高梁市,松原通２１０６番地２,,33,209,7160036,,,2024-01-12,清算の結了等,,,2015-10-05,1,,,,,シエン,0
3042,9260002006589,登記記録の閉鎖等,0,2024-01-15,2024-01-11,有限会社Ｍ’ｓ　ＴＥＮＮＩＳ　ＰＯＲＴ,,有限会社,岡山県,岡山市南区,福富西１丁目１７番２５－３号,,33,104,7028031,,,2024-01-11,清算の結了等,,,2015-10-05,1,,,,,エムズテニスポート,0
3043,9260002011028,登記記録の閉鎖等,0,2024-01-15,2024-01-12,有限会社エース部品,,有限会社,岡山県,赤磐市,河本４８６番地の１,,33,213,7090821,,,2024-01-12,清算の結了等,,,2015-10-05,1,,,,,,0
3048,9290001055469,登記記録の閉鎖等,0,2024-01-15,2024-01-11,株式会社エバーグリーン,,株式会社,福岡県,福岡市中央区,春吉２丁目４番１１号,,40,133,8100003,,,2024-01-11,合併による解散等,5350001002187,令和６年１月１日宮崎市橘通東三丁目８番２１号株式会社レジャークリエイトホールディングス（5350001002187）に合併し解散,2015-10-05,1,,,,,,0
3049,9290001083486,登記記録の閉鎖等,0,2024-01-15,2024-01-09,株式会社Ｗｉｔｈ,,株式会社,福岡県,福岡市中央区,天神２丁目３番１０－７１６号,,40,133,8100001,,,2024-01-09,清算の結了等,,,2018-11-29,1,,,,,ウィズ,0
3055,9290002039529,登記記録の閉鎖等,0,2024-01-15,2024-01-11,有限会社タイム社,,有限会社,福岡県,筑紫野市,桜台１丁目６番３号,,40,217,8180063,,,2024-01-11,清算の結了等,,,2015-10-05,1,,,,,タイムシャ,0
3056,9290002045386,登記記録の閉鎖等,0,2024-01-15,2023-12-28,有限会社かんぜん飯塚,,有限会社,福岡県,飯塚市,柳橋４６番地の１,,40,205,8200063,,,2023-12-28,清算の結了等,,,2015-10-05,1,,,,,カンゼンイイヅカ,0
3059,9290005012045,登記記録の閉鎖等,0,2024-01-15,2024-01-10,特定非営利活動法人人と自然環境を考える会フロンティア,,その他の設立登記法人,福岡県,大川市,大字中古賀７６６番地２,,40,212,8310006,,,2024-01-10,清算の結了等,,,2015-10-05,1,,,,,ヒトトシゼンカンキョウヲカンガエルカイフロンティア,0
3067,9300001009258,登記記録の閉鎖等,0,2024-01-15,2024-01-11,株式会社ＪＴＭ,,株式会社,福岡県,福岡市南区,大楠１丁目１３番５－６１３号,,40,134,8150082,,,2024-01-11,合併による解散等,3300002007027,令和６年１月１日佐賀県嬉野市塩田町大字馬場下甲６８番地１株式会社明徳（3300002007027）に合併し解散,2015-10-05,1,,,,,,0
3069,9310001009190,登記記録の閉鎖等,0,2024-01-15,2024-01-10,株式会社ミノル商会,,株式会社,長崎県,大村市,東三城町４番地８,,42,205,8560826,,,2024-01-10,清算の結了等,,,2015-10-05,1,,,,,ミノルショウカイ,0
3096,9370301002526,登記記録の閉鎖等,0,2024-01-15,2024-01-11,株式会社榊社寺建築,00081593,株式会社,宮城県,石巻市,福地字町１７８番地４,,04,202,9860115,,,2024-01-11,清算の結了等,,,2015-10-05,1,,,,,サカキシャジケンチク,0
3105,9400001004884,登記記録の閉鎖等,0,2024-01-15,2024-01-09,株式会社青山市場,,株式会社,岩手県,盛岡市,青山３丁目１６番３号,,03,201,0200133,,,2024-01-09,清算の結了等,,,2015-10-05,1,,,,,アオヤマイチバ,0
3116,9440001007974,登記記録の閉鎖等,0,2024-01-15,2024-01-10,株式会社華一,,株式会社,北海道,函館市,西桔梗町８５０番地４８,,01,202,0410824,,,2024-01-10,合併による解散等,7440001004569,令和５年１２月１日北海道北斗市千代田１１６番地の１株式会社三公開発（7440001004569）に合併し解散,2016-09-12,1,,,,,ハナイチ,0
3122,9490003001525,登記記録の閉鎖等,0,2024-01-15,2024-01-11,合同会社おうさま,,合同会社,高知県,高知市,西秦泉寺１４２番地２０２号室,,39,201,7800033,,,2024-01-11,清算の結了等,,,2021-03-23,1,,,,,オウサマ,0
