sequenceNumber,corporateNumber,process,correct,updateDate,changeDate,name,nameImageId,kind,prefectureName,cityName,streetNumber,addressImageId,prefectureCode,cityCode,postCode,addressOutside,addressOutsideImageId,closeDate,closeCause,successorCorporateNumber,changeCause,assignmentDate,latest,enName,enPrefectureName,enCityName,enAddressOutside,furigana,hihyoji
3,1010001246912,新規,0,2024-07-29,2024-07-29,株式会社ＭＰＢ,,株式会社,東京都,千代田区,二番町９－３ＴＨＥＢＡＳＥ麹町,,13,101,1020084,,,,,,,2024-07-29,1,,,,,エムピービー,0
10,1010005038554,新規,0,2024-07-29,2024-07-29,一般社団法人ＬＥＶＥＣＨＹ１７号,,その他の設立登記法人,東京都,千代田区,紀尾井町３－８第２紀尾井町ビル９０１アクシス綜合会計事務所内,,13,101,1020094,,,,,,,2024-07-29,1,,,,,レベチージュウナナゴウ,0
14,1010401184076,新規,0,2024-07-29,2024-07-29,ジェイドリーシング１株式会社,,株式会社,東京都,港区,虎ノ門１丁目２番６号,,13,103,1050001,,,,,,,2024-07-29,1,,,,,ジェイドリーシングワン,0
22,1010803005037,新規,0,2024-07-29,2024-07-29,合同会社Ｈａｒｖｅｓｔｆｕｌ,,合同会社,東京都,大田区,蒲田２丁目２３番１－３０１号,,13,111,1440052,,,,,,,2024-07-29,1,,,,,ハーベストフル,0
25,1011001163560,新規,0,2024-07-29,2024-07-29,オガガエンターテイメント株式会社,,株式会社,東京都,渋谷区,千駄ヶ谷５丁目１番１０,,13,113,1510051,,,,,,,2024-07-29,1,,,,,オガガエンターテイメント,0
26,1011001163585,新規,0,2024-07-29,2024-07-29,株式会社Ｗｉｔｉ,,株式会社,東京都,渋谷区,代々木４丁目３１番４号キャッスル新宿１１０２,,13,113,1510053,,,,,,,2024-07-29,1,,,,,ウィティ,0
27,1011001163602,新規,0,2024-07-29,2024-07-29,ポレポ株式会社,,株式会社,東京都,渋谷区,恵比寿南２丁目１９番７－６０１号,,13,113,1500022,,,,,,,2024-07-29,1,,,,,ポレポ,0
28,1011001163619,新規,0,2024-07-29,2024-07-29,株式会社ｔｉｐｎｏｗ,,株式会社,東京都,渋谷区,道玄坂１丁目１０番８号渋谷道玄坂東急ビル２Ｆ－Ｃ,,13,113,1500043,,,,,,,2024-07-29,1,,,,,チップナウ,0
29,1011001163627,新規,0,2024-07-29,2024-07-29,晶格ＪＩＮＧＧＥ商事株式会社,,株式会社,東京都,渋谷区,本町４丁目７－２－１０２号室,,13,113,1510071,,,,,,,2024-07-29,1,,,,,ショウカクジンゲショウジ,0
30,1011001163668,新規,0,2024-07-29,2024-07-29,株式会社ＮＥＲＤＥＲ,,株式会社,東京都,渋谷区,富ヶ谷２丁目４２番３号,,13,113,1510063,,,,,,,2024-07-29,1,,,,,ナーダー,0
31,1011003019645,新規,0,2024-07-29,2024-07-29,合同会社ＩＢＵＫＩ,,合同会社,東京都,渋谷区,神宮前６丁目２３番４号桑野ビル２階,,13,113,1500001,,,,,,,2024-07-29,1,,,,,イブキ,0
32,1011003019653,新規,0,2024-07-29,2024-07-29,合同会社ＩＫＦＩＲＥ,,合同会社,東京都,渋谷区,渋谷２丁目１９‐１５宮益坂ビルディング６０９,,13,113,1500002,,,,,,,2024-07-29,1,,,,,アイケーファイア,0
33,1011003019661,新規,0,2024-07-29,2024-07-29,ＪＰＰＯ合同会社,,合同会社,東京都,渋谷区,神泉町１０－１５－３０１,,13,113,1500045,,,,,,,2024-07-29,1,,,,,ジェーピーピーオー,0
34,1011005010619,新規,0,2024-07-29,2024-07-29,一般社団法人大津ビル,,その他の設立登記法人,東京都,渋谷区,神宮前１丁目５番８号,,13,113,1500001,,,,,,,2024-07-29,1,,,,,オオツビル,0
40,1011201025668,新規,0,2024-07-29,2024-07-29,Ｚｉｏｎ株式会社,,株式会社,東京都,中野区,弥生町２丁目３０番１３－４０２号,,13,114,1640013,,,,,,,2024-07-29,1,,,,,,0
42,1011301029858,新規,0,2024-07-29,2024-07-29,株式会社パラレルワールド,,株式会社,東京都,杉並区,荻窪４丁目２８番１２号ピースビル７０２号室,,13,115,1670051,,,,,,,2024-07-29,1,,,,,パラレルワールド,0
43,1011401026292,新規,0,2024-07-29,2024-07-29,大田株式会社,,株式会社,東京都,板橋区,板橋２丁目６３番４号グローリア初穂板橋５０１号室,,13,119,1730004,,,,,,,2024-07-29,1,,,,,オオタ,0
44,1011401026301,新規,0,2024-07-29,2024-07-29,株式会社ＨＩＧＨＦＩＥＬＤ,,株式会社,東京都,板橋区,大和町４４番１２号,,13,119,1730012,,,,,,,2024-07-29,1,,,,,ハイフィールド,0
48,1011601027933,新規,0,2024-07-29,2024-07-29,株式会社Ｂｅ　Ｒｉｇｈｔ,,株式会社,東京都,練馬区,練馬４丁目６番１－１０６号,,13,120,1760001,,,,,,,2024-07-29,1,,,,,ビーライト,0
50,1011703003923,新規,0,2024-07-29,2024-07-29,合同会社晴耀,,合同会社,東京都,江戸川区,松島３丁目３番１－４０５号幸栄ハイツ,,13,123,1320031,,,,,,,2024-07-29,1,,,,,ハルキ,0
59,1013301052897,新規,0,2024-07-29,2024-07-29,株式会社ララコン,,株式会社,東京都,豊島区,池袋２丁目３６番１号ＩｎｆｉｎｉｔｙＩｋｅｂｕｋｕｒｏ７Ｆ－１０,,13,116,1710014,,,,,,,2024-07-29,1,,,,,ララコン,0
60,1013301052906,新規,0,2024-07-29,2024-07-29,株式会社ハンエイ,,株式会社,東京都,豊島区,池袋２丁目６５番１－７０３号,,13,116,1710014,,,,,,,2024-07-29,1,,,,,ハンエイ,0
63,1020001158207,新規,0,2024-07-29,2024-07-29,株式会社ＫＯＲＥＤＡ．ＳＦＣ,,株式会社,神奈川県,横浜市旭区,白根２丁目２２－２０,,14,112,2410005,,,,,,,2024-07-29,1,,,,,コレダドットエスエフシー,0
64,1020001158215,新規,0,2024-07-29,2024-07-29,ヨシタックス株式会社,,株式会社,神奈川県,横浜市保土ケ谷区,釜台町５－２－４０２,,14,106,2400066,,,,,,,2024-07-29,1,,,,,ヨシタックス,0
78,1030001161597,新規,0,2024-07-29,2024-07-29,株式会社染谷板金工業,,株式会社,埼玉県,春日部市,八丁目１８５３番地,,11,214,3440006,,,,,,,2024-07-29,1,,,,,ソメヤバンキンコウギョウ,0
79,1030001161606,新規,0,2024-07-29,2024-07-29,Ａｃｅ株式会社,,株式会社,埼玉県,深谷市,菅沼５８２番地１,,11,218,3691104,,,,,,,2024-07-29,1,,,,,エース,0
82,1030003024793,新規,0,2024-07-29,2024-07-29,ＳＫコンサルティング合同会社,,合同会社,埼玉県,入間市,黒須１丁目６番１０号,,11,225,3580007,,,,,,,2024-07-29,1,,,,,エスケーコンサルティング,0
83,1030005021780,新規,0,2024-07-29,2024-07-29,社会福祉法人みらい高翔会,,その他の設立登記法人,埼玉県,上尾市,東町２丁目１６４５番３号,,11,219,3620031,,,,,,,2024-07-29,1,,,,,ミライコウショウカイ,0
89,1070003005518,新規,0,2024-07-29,2024-07-29,ＧＵ通信合同会社,,合同会社,群馬県,邑楽郡大泉町,北小泉１丁目３４番２０号,,10,524,3700511,,,,,,,2024-07-29,1,,,,,ジーユーツウシン,0
91,1080101024914,新規,0,2024-07-29,2024-07-29,株式会社アドヴァンス・ジャパン,,株式会社,静岡県,富士宮市,万野原新田４０３３番地の２７,,22,207,4180001,,,,,,,2024-07-29,1,,,,,アドヴァンスジャパン,0
92,1080401027328,新規,0,2024-07-29,2024-07-29,株式会社四季,,株式会社,静岡県,掛川市,上西郷１３４１番地の４,,22,213,4360342,,,,,,,2024-07-29,1,,,,,シキ,0
111,1120001267071,新規,0,2024-07-29,2024-07-29,株式会社Ｍ・Ｔ・Ｏ,,株式会社,大阪府,大阪市北区,西天満６丁目２番１６号６Ｆ,,27,127,5300047,,,,,,,2024-07-29,1,,,,,エムティーオー,0
114,1120003026946,新規,0,2024-07-29,2024-07-29,合同会社あやめ,,合同会社,大阪府,大阪市東成区,神路４丁目１－２５プラネスーペリア新深江１００５,,27,115,5370003,,,,,,,2024-07-29,1,,,,,アヤメ,0
115,1120003027135,新規,0,2024-07-29,2024-07-29,合同会社黒船屋,,合同会社,大阪府,大阪市住吉区,苅田５丁目１９番８号日伸マンション１階,,27,120,5580011,,,,,,,2024-07-29,1,,,,,クロフネヤ,0
116,1120003027143,新規,0,2024-07-29,2024-07-29,ＤＥＬＳＯＬＥ合同会社,,合同会社,大阪府,大阪市西区,新町１丁目６番２３号,,27,106,5500013,,,,,,,2024-07-29,1,,,,,デルソーレ,0
118,1120101070045,新規,0,2024-07-29,2024-07-29,亮和工業株式会社,,株式会社,大阪府,岸和田市,三田町１０４４番地の３,,27,202,5960808,,,,,,,2024-07-29,1,,,,,リョウワコウギョウ,0
119,1120903005280,新規,0,2024-07-29,2024-07-29,合同会社Ｖ＆Ｊ,,合同会社,大阪府,吹田市,桃山台１丁目１－８－６０３,,27,205,5650854,,,,,,,2024-07-29,1,,,,,ブイアンドジェイ,0
123,1130001077577,新規,0,2024-07-29,2024-07-29,株式会社ＷｉｔｈＷｈｉｚ,,株式会社,京都府,京都市下京区,七条通油小路東入大黒町２２７番地第２キョートビル４０２,,26,106,6008223,,,,,,,2024-07-29,1,,,,,ウィズウィズ,0
127,1140001135276,新規,0,2024-07-29,2024-07-29,トロリーワークス株式会社,,株式会社,兵庫県,神戸市北区,甲栄台１丁目９番１－１０１号,,28,109,6511142,,,,,,,2024-07-29,1,,,,,トロリーワークス,0
128,1140003020864,新規,0,2024-07-29,2024-07-29,合同会社ｍｕｇｉ,,合同会社,兵庫県,豊岡市,九日市上町９６６番地の２４,,28,209,6680051,,,,,,,2024-07-29,1,,,,,ムギ,0
131,1140005027164,新規,0,2024-07-29,2024-07-29,特定非営利活動法人あしたてんき,,その他の設立登記法人,兵庫県,三田市,けやき台４丁目２２番地の４,,28,219,6691321,,,,,,,2024-07-29,1,,,,,アシタテンキ,0
144,1190001031512,新規,0,2024-07-29,2024-07-29,株式会社ＳＷＩＴＣＨ,,株式会社,三重県,津市,分部字下稲葉１５５６‐１,,24,201,5140071,,,,,,,2024-07-29,1,,,,,スイッチ,0
145,1190003004755,新規,0,2024-07-29,2024-07-29,合同会社Ｐａｃｈｉ‐Ｐａｃｈｉ,,合同会社,三重県,四日市市,大字六呂見５０６番地２０,,24,202,5100881,,,,,,,2024-07-29,1,,,,,パチパチ,0
149,1220001026104,新規,0,2024-07-29,2024-07-29,ＴＳＵＮＡＧＵ　ＧＲＯＵＰ株式会社,,株式会社,石川県,金沢市,有松３丁目３番３０号,,17,201,9218161,,,,,,,2024-07-29,1,,,,,ツナググループ,0
160,1290005019469,新規,0,2024-07-29,2024-07-29,一般社団法人お店ワーカーズ連合響,,その他の設立登記法人,福岡県,福岡市城南区,七隈３丁目１番４１号,,40,136,8140133,,,,,,,2024-07-29,1,,,,,オミセワーカーズレンゴウヒビキ,0
166,1320001020609,新規,0,2024-07-29,2024-07-29,株式会社Ｔｒｅｎｔｏｔｔｏ　Ｓｅｔｔｅ,,株式会社,大分県,別府市,北的ケ浜町５番１４号,,44,202,8740928,,,,,,,2024-07-29,1,,,,,トレントットセッテ,0
172,1350001019103,新規,0,2024-07-29,2024-07-29,株式会社池田総鉄工,,株式会社,宮崎県,延岡市,栄町６番２号,,45,203,8820054,,,,,,,2024-07-29,1,,,,,イケダソウテッコウ,0
173,1350003004714,新規,0,2024-07-29,2024-07-29,合同会社ＳＥＥＬＥ,,合同会社,宮崎県,宮崎市,大橋３丁目１６５番地１サーパス大橋第２－１１０６号,,45,201,8800022,,,,,,,2024-07-29,1,,,,,ゼーレ,0
175,1360003014175,新規,0,2024-07-29,2024-07-29,合同会社クリーンサービスいなんせ,,合同会社,沖縄県,豊見城市,字豊見城１００４番地１－４０１号,,47,212,9010241,,,,,,,2024-07-29,1,,,,,クリーンサービスイナンセ,0
177,1370001051558,新規,0,2024-07-29,2024-07-29,株式会社ハイランドエステート,,株式会社,宮城県,仙台市青葉区,新川字佐手山５番地の９１１,,04,101,9893434,,,,,,,2024-07-29,1,,,,,ハイランドエステート,0
181,1400001016739,新規,0,2024-07-29,2024-07-29,株式会社はちまんたいジオパワー,,株式会社,岩手県,八幡平市,野駄第２１地割１７０番地,,03,214,0287301,,,,,,,2024-07-29,1,,,,,ハチマンタイジオパワー,0
192,1430001092323,新規,0,2024-07-29,2024-07-29,株式会社ＪＡＺＺＧ　ＰＬＵＳ,,株式会社,北海道,札幌市北区,北二十三条西２丁目２番３８号,,01,102,0010023,,,,,,,2024-07-29,1,,,,,ジャズジープラス,0
209,2010001246837,新規,0,2024-07-29,2024-07-29,株式会社シーワイディー,,株式会社,東京都,千代田区,飯田橋１丁目８－９,,13,101,1020072,,,,,,,2024-07-29,1,,,,,シーワイディー,0
213,2010005038553,新規,0,2024-07-29,2024-07-29,一般社団法人ＬＥＶＥＣＨＹ１６号,,その他の設立登記法人,東京都,千代田区,紀尾井町３－８第２紀尾井町ビル９０１アクシス綜合会計事務所内,,13,101,1020094,,,,,,,2024-07-29,1,,,,,レベチージュウロクゴウ,0
216,2010103002394,新規,0,2024-07-29,2024-07-29,ミラデードテクノロジー合同会社,,合同会社,東京都,八王子市,子安町１丁目４８番９号２０２号室,,13,201,1920904,,,,,,,2024-07-29,1,,,,,ミラデードテクノロジー,0
225,2010603010979,新規,0,2024-07-29,2024-07-29,合同会社イーリス,,合同会社,東京都,墨田区,緑１丁目７番８－８０３号両国パークファミリア,,13,107,1300021,,,,,,,2024-07-29,1,,,,,イーリス,0
226,2010603010987,新規,0,2024-07-29,2024-07-29,合同会社ホワイトアウト,,合同会社,東京都,墨田区,向島２丁目１９－１２－９０１,,13,107,1310033,,,,,,,2024-07-29,1,,,,,ホワイトアウト,0
229,2010901055718,新規,0,2024-07-29,2024-07-29,株式会社ＴＳＵＫＡＳＡ,,株式会社,東京都,世田谷区,深沢４丁目３３番２３号,,13,112,1580081,,,,,,,2024-07-29,1,,,,,ツカサ,0
231,2011001163618,新規,0,2024-07-29,2024-07-29,ＥＳＴＡＣＫ．ｃｌｏｕｄ株式会社,,株式会社,東京都,渋谷区,円山町５番５号Ｎａｖｉ渋谷Ｖ３階,,13,113,1500044,,,,,,,2024-07-29,1,,,,,イースタッククラウド,0
232,2011001163675,新規,0,2024-07-29,2024-07-29,株式会社ヨイミカンアセットマネジメント,,株式会社,東京都,渋谷区,道玄坂１丁目１０番８号渋谷道玄坂東急ビル２Ｆ－Ｃ,,13,113,1500043,,,,,,,2024-07-29,1,,,,,ヨイミカンアセットマネジメント,0
234,2011003019644,新規,0,2024-07-29,2024-07-29,ＮＩＫＡ　ｄｅ　ＺＵＣＣＡ合同会社,,合同会社,東京都,目黒区,緑が丘２丁目２４番地２０リバティビル２０４,,13,110,1520034,,,,,,,2024-07-29,1,,,,,ニカドズッカ,0
235,2011101108209,新規,0,2024-07-29,2024-07-29,株式会社ＮＴＹＭ,,株式会社,東京都,新宿区,歌舞伎町２丁目２８番１５号Ｋビル２階Ａ号室,,13,104,1600021,,,,,,,2024-07-29,1,,,,,エヌティーワイエム,0
239,2011103014685,新規,0,2024-07-29,2024-07-29,合同会社Ｇ．Ｌ．Ｎ,,合同会社,東京都,新宿区,北新宿１丁目２番１７号アーバネックス西新宿ＩＩ,00135722,13,104,1690074,,,,,,,2024-07-29,1,,,,,ジーエルエヌ,0
241,2011201025667,新規,0,2024-07-29,2024-07-29,株式会社サンビクト,,株式会社,東京都,中野区,本町２丁目４９番１３号,,13,114,1640012,,,,,,,2024-07-29,1,,,,,,0
246,2011701027469,新規,0,2024-07-29,2024-07-29,株式会社サンコンサルタンシージャパン,,株式会社,東京都,江戸川区,上篠崎２丁目２番１６号１階,,13,123,1330054,,,,,,,2024-07-29,1,,,,,サンコンサルタンシージャパン,0
247,2011801044595,新規,0,2024-07-29,2024-07-29,ＯＳＷ株式会社,,株式会社,東京都,足立区,南花畑４丁目５番２号グロービル大沢２０１,,13,121,1210062,,,,,,,2024-07-29,1,,,,,オーエスダブリュー,0
253,2011803006362,新規,0,2024-07-29,2024-07-29,合同会社青葉,,合同会社,東京都,足立区,本木東町１３―１４,,13,121,1230854,,,,,,,2024-07-29,1,,,,,アオバ,0
254,2012401042122,新規,0,2024-07-29,2024-07-29,株式会社ロジネクスト,,株式会社,東京都,府中市,南町１丁目６番地の１４７,,13,206,1830026,,,,,,,2024-07-29,1,,,,,ロジネクスト,0
257,2013301052896,新規,0,2024-07-29,2024-07-29,株式会社Ｒ＆Ｍ未来,,株式会社,東京都,豊島区,北大塚２丁目２３番３－１００５号,,13,116,1700004,,,,,,,2024-07-29,1,,,,,アールアンドエムミライ,0
261,2020001158115,新規,0,2024-07-29,2024-07-29,株式会社エクシオホールディングス,,株式会社,神奈川県,横浜市西区,みなとみらい２丁目２番１号横浜ランドマークタワー３８階,,14,103,2200012,,,,,,,2024-07-29,1,,,,,エクシオホールディングス,0
262,2020001158214,新規,0,2024-07-29,2024-07-29,株式会社Ｃ‐Ｓｅｌｅｃｔ,,株式会社,神奈川県,川崎市川崎区,小川町１８－２０酒井ビル３０１,,14,131,2100023,,,,,,,2024-07-29,1,,,,,シーセレクト,0
263,2020001158230,新規,0,2024-07-29,2024-07-29,株式会社ｎｓｅ,,株式会社,神奈川県,横浜市旭区,白根２丁目３０番５号,,14,112,2410005,,,,,,,2024-07-29,1,,,,,エヌエスイー,0
264,2020001158239,新規,0,2024-07-29,2024-07-29,株式会社ＮＳ３,,株式会社,神奈川県,川崎市高津区,末長１丁目１５番２７号サニーコートシブヤ３０２,,14,134,2130013,,,,,,,2024-07-29,1,,,,,エヌエススリー,0
267,2020003026534,新規,0,2024-07-29,2024-07-29,合同会社ＣＯＢＡＬＴ　ＢＬＵＥ,,合同会社,神奈川県,川崎市幸区,東小倉１２－２０,,14,132,2120033,,,,,,,2024-07-29,1,,,,,コバルトブルー,0
268,2020003026542,新規,0,2024-07-29,2024-07-29,ＳｏｌｉｓＮｏｖａ合同会社,,合同会社,神奈川県,川崎市多摩区,堰１丁目１７番５２号,,14,135,2140022,,,,,,,2024-07-29,1,,,,,ソリスノバ,0
281,2030001161596,新規,0,2024-07-29,2024-07-29,なずな住建株式会社,,株式会社,埼玉県,蕨市,中央６丁目２番９号,,11,223,3350004,,,,,,,2024-07-29,1,,,,,ナズナジュウケン,0
282,2030001161605,新規,0,2024-07-29,2024-07-29,株式会社Ｋ‐ＬＩＮＥ,,株式会社,埼玉県,三郷市,戸ケ崎１丁目６１番地４,,11,237,3410044,,,,,,,2024-07-29,1,,,,,ケーライン,0
286,2030003024801,新規,0,2024-07-29,2024-07-29,合同会社赤木商事,,合同会社,埼玉県,川口市,大字木曽呂３７２番地,,11,203,3330831,,,,,,,2024-07-29,1,,,,,アカギショウジ,0
300,2040003025484,新規,0,2024-07-29,2024-07-29,合同会社ＦＩＬＬＴＥＣ,,合同会社,千葉県,八千代市,大和田新田７４７番地１、５番館３０２号,,12,221,2760046,,,,,,,2024-07-29,1,,,,,フィルテック,0
301,2040003025492,新規,0,2024-07-29,2024-07-29,合同会社ホネブト,,合同会社,千葉県,習志野市,鷺沼３丁目９－２－１０１,,12,216,2750014,,,,,,,2024-07-29,1,,,,,ホネブト,0
308,2070003005517,新規,0,2024-07-29,2024-07-29,ＭＡＫＫＡＨ　ＩＮＴＥＲＮＡＴＩＯＮＡＬ合同会社,,合同会社,群馬県,太田市,岩瀬川町３１２番地１岩瀬川貸住宅後列中棟,,10,205,3730841,,,,,,,2024-07-29,1,,,,,モッカインターナショナル,0
316,2080001026398,新規,0,2024-07-29,2024-07-29,ネクスプレック株式会社,,株式会社,静岡県,静岡市駿河区,東新田１丁目５番３３号,,22,102,4210112,,,,,,,2024-07-29,1,,,,,ネクスプレック,0
330,2120001267070,新規,0,2024-07-29,2024-07-29,興華株式会社,,株式会社,大阪府,大阪市住吉区,杉本町二丁目３１－６アスカ藤２０３号室,,27,120,5580000,,,,,,,2024-07-29,1,,,,,コウカ,0
331,2120001267120,新規,0,2024-07-29,2024-07-29,株式会社金光商事,,株式会社,大阪府,大阪市浪速区,大国１丁目５番１号武内ビル,,27,111,5560014,,,,,,,2024-07-29,1,,,,,カネミツショウジ,0
332,2120001267129,新規,0,2024-07-29,2024-07-29,職人の舎株式会社,,株式会社,大阪府,大阪市浪速区,大国１丁目９番１３号マンション鷹４０２Ｃ号室,,27,111,5560014,,,,,,,2024-07-29,1,,,,,ショクニンノシャ,0
333,2120001267137,新規,0,2024-07-29,2024-07-29,陽波プランニング株式会社,,株式会社,大阪府,大阪市西区,立売堀２丁目５番４１号合田ビル６０７号室,,27,106,5500012,,,,,,,2024-07-29,1,,,,,ヒナミプランニング,0
334,2120001267178,新規,0,2024-07-29,2024-07-29,株式会社タニキヨ,,株式会社,大阪府,大阪市中央区,淡路町３丁目３番２－２７０５号,,27,128,5410047,,,,,,,2024-07-29,1,,,,,タニキヨ,0
335,2120001267203,新規,0,2024-07-29,2024-07-29,諾恒株式会社,,株式会社,大阪府,大阪市淀川区,宮原２丁目１１番５－４０２号メゾン新大阪北,,27,123,5320003,,,,,,,2024-07-29,1,,,,,ダクコウ,0
337,2120003027150,新規,0,2024-07-29,2024-07-29,合同会社ＳＵＩＭＩＮ,,合同会社,大阪府,大阪市東淀川区,淡路４丁目７番２１－８０４号,,27,114,5330032,,,,,,,2024-07-29,1,,,,,スイミン,0
339,2120103005972,新規,0,2024-07-29,2024-07-29,合同会社ＶＭ,,合同会社,大阪府,和泉市,小田町６２９番地の９,,27,219,5940074,,,,,,,2024-07-29,1,,,,,ブイエム,0
341,2122001038294,新規,0,2024-07-29,2024-07-29,株式会社ＵＡＲ,,株式会社,大阪府,八尾市,山本町１丁目６－１５,,27,212,5810867,,,,,,,2024-07-29,1,,,,,ユーエーアール,0
348,2140001135259,新規,0,2024-07-29,2024-07-29,株式会社スリーアロー,,株式会社,兵庫県,神戸市東灘区,向洋町中２丁目９番地の１神戸ファッションプラザ２階,,28,101,6580032,,,,,,,2024-07-29,1,,,,,スリーアロー,0
349,2140003020871,新規,0,2024-07-29,2024-07-29,アットワンス合同会社,,合同会社,兵庫県,神戸市東灘区,田中町３丁目１４番３号,,28,101,6580081,,,,,,,2024-07-29,1,,,,,アットワンス,0
371,2230003002258,新規,0,2024-07-29,2024-07-29,合同会社榮八,,合同会社,富山県,富山市,四方３８５番地１１,,16,201,9302243,,,,,,,2024-07-29,1,,,,,サカエヤ,0
377,2260001039299,新規,0,2024-07-29,2024-07-29,株式会社Ｏｎｅ,,株式会社,岡山県,岡山市北区,宿１３２６番１２,,33,101,7000001,,,,,,,2024-07-29,1,,,,,ワン,0
401,2370001051540,新規,0,2024-07-29,2024-07-29,株式会社ＳＬＥＥＫ,,株式会社,宮城県,仙台市青葉区,中央２丁目７番３０号,,04,101,9800021,,,,,,,2024-07-29,1,,,,,スリーク,0
403,2400003003296,新規,0,2024-07-29,2024-07-29,マルハナ商会合同会社,,合同会社,岩手県,花巻市,中根子字参拾四樋田１０番地,,03,205,0250036,,,,,,,2024-07-29,1,,,,,マルハナショウカイ,0
414,2430003016601,新規,0,2024-07-29,2024-07-29,合同会社Ｃｈｅａｐ　Ｗｉｎｄｏｗ,,合同会社,北海道,札幌市豊平区,平岸四条１３丁目９番１５－３０５号,,01,105,0620934,,,,,,,2024-07-29,1,,,,,チープウィンドウ,0
416,2440001009473,新規,0,2024-07-29,2024-07-29,株式会社グランセノーテ,,株式会社,北海道,函館市,湯川町３丁目８－１１,,01,202,0420932,,,,,,,2024-07-29,1,,,,,グランセノーテ,0
429,2500003003286,新規,0,2024-07-29,2024-07-29,合同会社オージーエス,,合同会社,愛媛県,松山市,北斎院町８８８番地７,,38,201,7918031,,,,,,,2024-07-29,1,,,,,オージーエス,0
434,3010001246893,新規,0,2024-07-29,2024-07-29,ＢＢドライビングフォース株式会社,,株式会社,東京都,中央区,銀座１丁目１２番４号Ｎ＆Ｅ－ＢＬＤ．６Ｆ,,13,102,1040061,,,,,,,2024-07-29,1,,,,,ビービードライビングフォース,0
435,3010001246943,新規,0,2024-07-29,2024-07-29,株式会社ＭＥＣ,,株式会社,東京都,中央区,銀座１丁目１２番４号Ｎ＆ＥＢＬＤ．６階,,13,102,1040061,,,,,,,2024-07-29,1,,,,,メック,0
443,3010401184025,新規,0,2024-07-29,2024-07-29,株式会社エネパルス,,株式会社,東京都,港区,芝大門２丁目１０番１２号ＫＤＸ芝大門ビル２階,,13,103,1050012,,,,,,,2024-07-29,1,,,,,エネパルス,0
444,3010401184074,新規,0,2024-07-29,2024-07-29,ＧＣＪＧ４２株式会社,,株式会社,東京都,港区,元赤坂１丁目１番８号株式会社赤坂国際会計内,,13,103,1070051,,,,,,,2024-07-29,1,,,,,ジーシージェイジーフォーティートゥ,0
445,3010403033097,新規,0,2024-07-29,2024-07-29,アジアリビング１ホールディング合同会社,,合同会社,東京都,港区,六本木１丁目９番１０号アークヒルズ仙石山森タワー４０階,,13,103,1060032,,,,,,,2024-07-29,1,,,,,アジアリビングワンホールディング,0
446,3010403033106,新規,0,2024-07-29,2024-07-29,それいゆ食堂ａｎｄ合同会社,,合同会社,東京都,港区,芝大門１丁目６－５芝大門１６５ビル１Ｆ,,13,103,1050012,,,,,,,2024-07-29,1,,,,,,0
448,3010405023443,新規,0,2024-07-29,2024-07-29,一般社団法人ＴＫ‐１,,その他の設立登記法人,東京都,港区,六本木６丁目１０番１号六本木ヒルズ森タワー１５Ｆ,,13,103,1060032,,,,,,,2024-07-29,1,,,,,ティーケイワン,0
454,3010601065636,新規,0,2024-07-29,2024-07-29,株式会社豊洲設計室,,株式会社,東京都,江東区,豊洲４丁目１－１２コーポ豊洲２０１,,13,108,1350061,,,,,,,2024-07-29,1,,,,,トヨスセッケイシツ,0
455,3010603010986,新規,0,2024-07-29,2024-07-29,合同会社テグラ,,合同会社,東京都,江東区,新大橋１丁目１―１３リビオ森下リバーテラス６０２号室,,13,108,1350007,,,,,,,2024-07-29,1,,,,,テグラ,0
457,3010801035265,新規,0,2024-07-29,2024-07-29,株式会社ビギナー,,株式会社,東京都,大田区,池上４丁目１８番５号フォルティス池上６０１,,13,111,1460082,,,,,,,2024-07-29,1,,,,,ビギナー,0
464,3011001163559,新規,0,2024-07-29,2024-07-29,ケアソフト株式会社,,株式会社,東京都,渋谷区,恵比寿西２丁目８番４号ＥＸ恵比寿西ビル５階,,13,113,1500021,,,,,,,2024-07-29,1,,,,,ケアソフト,0
465,3011001163591,新規,0,2024-07-29,2024-07-29,株式会社アマテラス,,株式会社,東京都,渋谷区,東４丁目１２－３２ラ・カーサ広尾２０３,,13,113,1500011,,,,,,,2024-07-29,1,,,,,アマテラス,0
466,3011001163617,新規,0,2024-07-29,2024-07-29,株式会社ＪＭＥ　Ｐａｒｔｎｅｒｓ,,株式会社,東京都,渋谷区,道玄坂１丁目１０番８号,,13,113,1500043,,,,,,,2024-07-29,1,,,,,ジェーエムイーパートナーズ,0
467,3011001163641,新規,0,2024-07-29,2024-07-29,株式会社ＡｎｉＴｏｎｅ,,株式会社,東京都,渋谷区,渋谷２丁目２１番１号,,13,113,1500002,,,,,,,2024-07-29,1,,,,,アニトーン,0
468,3011003019635,新規,0,2024-07-29,2024-07-29,Ｓａｍｅｓｋｙ合同会社,,合同会社,東京都,目黒区,上目黒３丁目３３番２０号,,13,110,1530051,,,,,,,2024-07-29,1,,,,,セイムスカイ,0
469,3011003019643,新規,0,2024-07-29,2024-07-29,合同会社ｄｅｃｏｎｓ,,合同会社,東京都,渋谷区,代官山町１３－７ベルビー代官山１Ｆ,,13,113,1500034,,,,,,,2024-07-29,1,,,,,ディコンズ,0
474,3011201025666,新規,0,2024-07-29,2024-07-29,三幸株式会社,,株式会社,東京都,中野区,大和町２丁目１２番９－１０１号,,13,114,1650034,,,,,,,2024-07-29,1,,,,,ミツサイワイ,0
476,3011401026299,新規,0,2024-07-29,2024-07-29,株式会社Ｃ＆Ｅ,,株式会社,東京都,板橋区,蓮根３丁目２６－１２－５３４,,13,119,1740046,,,,,,,2024-07-29,1,,,,,シーアンドイー,0
483,3012801023357,新規,0,2024-07-29,2024-07-29,ＳＭＰＹ・ＳＨＯＹＵ株式会社,,株式会社,東京都,国分寺市,東恋ヶ窪２丁目３１番地８,,13,214,1850014,,,,,,,2024-07-29,1,,,,,スマピーショウユ,0
485,3013301052895,新規,0,2024-07-29,2024-07-29,株式会社Ｒｅｄ　Ｆｏｘ,,株式会社,東京都,豊島区,池袋２丁目６２番４号平原ビル３０５号,,13,116,1710014,,,,,,,2024-07-29,1,,,,,レッドフォックス,0
494,3020001158213,新規,0,2024-07-29,2024-07-29,株式会社ＡｌｔｅｒＡＬＬ,,株式会社,神奈川県,横浜市保土ケ谷区,峰沢町２５８番地３,,14,106,2400061,,,,,,,2024-07-29,1,,,,,アルターオール,0
495,3020001158238,新規,0,2024-07-29,2024-07-29,株式会社石嶺基礎,,株式会社,神奈川県,横浜市鶴見区,市場富士見町１－１０月田マンション５０５,,14,101,2300026,,,,,,,2024-07-29,1,,,,,イシミネキソ,0
498,3020003026533,新規,0,2024-07-29,2024-07-29,合同会社ＴＨＩＳＷＡＹ,,合同会社,神奈川県,川崎市高津区,坂戸３丁目２番１号かながわサイエンスパーク西棟２階Ｔｅｃｈ－Ｐｏｔ,,14,134,2130012,,,,,,,2024-07-29,1,,,,,ディスウェイ,0
499,3020003026541,新規,0,2024-07-29,2024-07-29,合同会社ＫＪＪ,,合同会社,神奈川県,横浜市西区,北幸１丁目１１番１号水信ビル７階,,14,103,2200004,,,,,,,2024-07-29,1,,,,,ケイジェイジェイ,0
500,3020003026624,新規,0,2024-07-29,2024-07-29,合同会社ＥＣＨＯ,,合同会社,神奈川県,横浜市神奈川区,金港町５―１４クアドリフォリオ８階,,14,102,2210056,,,,,,,2024-07-29,1,,,,,エコー,0
504,3021003014825,新規,0,2024-07-29,2024-07-29,合同会社ＳＫＯＳＨ,,合同会社,神奈川県,座間市,ひばりが丘２丁目６７番５号パルタージュ１０７号,,14,216,2520003,,,,,,,2024-07-29,1,,,,,スコッシュ,0
518,3030003024759,新規,0,2024-07-29,2024-07-29,スカイクルージャパン合同会社,,合同会社,埼玉県,草加市,八幡町６０９番地４,,11,221,3400006,,,,,,,2024-07-29,1,,,,,スカイクルージャパン,0
522,3040003025491,新規,0,2024-07-29,2024-07-29,合同会社ＡＮＤ　ＹＯＵ,,合同会社,千葉県,千葉市緑区,誉田町２丁目２番地２０４３,,12,105,2660005,,,,,,,2024-07-29,1,,,,,アンドユウ,0
523,3040003025500,新規,0,2024-07-29,2024-07-29,合同会社さくら商会,,合同会社,千葉県,千葉市中央区,富士見２丁目７番９号富士見ビル６０９号,,12,101,2600015,,,,,,,2024-07-29,1,,,,,サクラショウカイ,0
553,3120001267202,新規,0,2024-07-29,2024-07-29,霽株式会社,,株式会社,大阪府,大阪市淀川区,西宮原２丁目６番１６－３４１号,,27,123,5320004,,,,,,,2024-07-29,1,,,,,ハレタ,0
557,3120003027141,新規,0,2024-07-29,2024-07-29,合同会社ＣＳ‐ＯＮＥ,,合同会社,大阪府,大阪市東淀川区,小松４丁目９番１５－４０５号,,27,114,5330004,,,,,,,2024-07-29,1,,,,,シーエスワン,0
561,3120901049484,新規,0,2024-07-29,2024-07-29,塚村不動産株式会社,00135717,株式会社,大阪府,豊中市,中桜塚４丁目２番１号,,27,203,5610881,,,,,,,2024-07-29,1,,,,,ツカムラフドウサン,0
562,3120901049518,新規,0,2024-07-29,2024-07-29,株式会社ＣＯＲＧＩ,,株式会社,大阪府,高槻市,安岡寺町３丁目２４番１２号,,27,207,5691029,,,,,,,2024-07-29,1,,,,,コーギー,0
578,3140001135258,新規,0,2024-07-29,2024-07-29,１Ｃａｒａｔ．Ｓ株式会社,,株式会社,兵庫県,宝塚市,武庫川町４番３号,,28,214,6650844,,,,,,,2024-07-29,1,,,,,ワンカラットエス,0
585,3170003002081,新規,0,2024-07-29,2024-07-29,合同会社ｃａｔｃｈ　ｏｎ３Ｑ,,合同会社,和歌山県,和歌山市,松江北５丁目２番２４号,,30,201,6408425,,,,,,,2024-07-29,1,,,,,キャッチオンサンキュー,0
587,3180001162554,新規,0,2024-07-29,2024-07-29,株式会社マグネット,,株式会社,愛知県,名古屋市西区,名駅２丁目３４番１７号セントラル名古屋１１０１号,,23,104,4510045,,,,,,,2024-07-29,1,,,,,マグネット,0
608,3220001026119,新規,0,2024-07-29,2024-07-29,能大アクセル株式会社,,株式会社,石川県,金沢市,有松５丁目１０番２７号,,17,201,9218161,,,,,,,2024-07-29,1,,,,,ノウダイアクセル,0
637,3360001033984,新規,0,2024-07-29,2024-07-29,株式会社ケーエムエフ,,株式会社,沖縄県,宮古島市,平良字久貝８７０番地１,,47,214,9060015,,,,,,,2024-07-29,1,,,,,ケーエムエフ,0
642,3380001034691,新規,0,2024-07-29,2024-07-29,株式会社ＡＯＩ,,株式会社,福島県,いわき市,常磐上湯長谷町山ノ神前３５番地の７,,07,204,9728322,,,,,,,2024-07-29,1,,,,,アオイ,0
652,3430001092313,新規,0,2024-07-29,2024-07-29,ＴＨＲＥＥ株式会社,,株式会社,北海道,札幌市中央区,大通西２１丁目１番６－７０１号,,01,101,0640820,,,,,,,2024-07-29,1,,,,,スリー,0
672,4010001246835,新規,0,2024-07-29,2024-07-29,株式会社Ｆ．Ｙ．Ｊ,,株式会社,東京都,中央区,日本橋人形町３丁目３番５号－４０２号,,13,102,1030013,,,,,,,2024-07-29,1,,,,,エフワイジェー,0
673,4010001246926,新規,0,2024-07-29,2024-07-29,アジア星川教育株式会社,,株式会社,東京都,中央区,日本橋箱崎町１０－２ＡＣＮ日本橋ビル３Ｆ,,13,102,1030015,,,,,,,2024-07-29,1,,,,,アジアホシカワキョウイク,0
687,4010801035256,新規,0,2024-07-29,2024-07-29,株式会社プロト,,株式会社,東京都,大田区,仲六郷２丁目３５－３,,13,111,1440055,,,,,,,2024-07-29,1,,,,,プロト,0
691,4010901055716,新規,0,2024-07-29,2024-07-29,株式会社ｒｅｖｅａｌ,,株式会社,東京都,世田谷区,用賀２丁目９番１３－２０２号,,13,112,1580097,,,,,,,2024-07-29,1,,,,,リヴェール,0
694,4010903009216,新規,0,2024-07-29,2024-07-29,合同会社トランバース,,合同会社,東京都,世田谷区,奥沢１丁目２２番１０号,,13,112,1580083,,,,,,,2024-07-29,1,,,,,トランバース,0
697,4011001163574,新規,0,2024-07-29,2024-07-29,株式会社Ｍａｎａｐ,,株式会社,東京都,渋谷区,恵比寿西２丁目８番４号ＥＸ恵比寿西ビル５階,,13,113,1500021,,,,,,,2024-07-29,1,,,,,マナップ,0
698,4011001163582,新規,0,2024-07-29,2024-07-29,株式会社ＳＯＥＵＲ,,株式会社,東京都,渋谷区,渋谷３丁目１番９号Ｙａｚａｗａビル４階,,13,113,1500002,,,,,,,2024-07-29,1,,,,,スール,0
699,4011001163590,新規,0,2024-07-29,2024-07-29,株式会社イズマネ,,株式会社,東京都,目黒区,目黒１丁目９番４‐３１２号オーベル目黒,,13,110,1530063,,,,,,,2024-07-29,1,,,,,イズマネ,0
700,4011001163599,新規,0,2024-07-29,2024-07-29,株式会社ｖｉｅ．,,株式会社,東京都,渋谷区,桜丘町２６番１号,,13,113,1500031,,,,,,,2024-07-29,1,,,,,ヴィー,0
701,4011001163624,新規,0,2024-07-29,2024-07-29,フロンティアエージェンシー株式会社,,株式会社,東京都,渋谷区,恵比寿４丁目２０番３号恵比寿ガーデンプレイスタワー１４階,,13,113,1500013,,,,,,,2024-07-29,1,,,,,フロンティアエージェンシー,0
702,4011001163632,新規,0,2024-07-29,2024-07-29,Ｍ＆Ｙ　Ｐａｒｔｎｅｒｓ株式会社,,株式会社,東京都,渋谷区,神宮前３丁目３７番１－１９０２号,,13,113,1500001,,,,,,,2024-07-29,1,,,,,エムアンドワイパートナーズ,0
704,4011003019642,新規,0,2024-07-29,2024-07-29,合同会社サンダースプロダクション,,合同会社,東京都,渋谷区,渋谷２丁目１９－１５,,13,113,1500002,,,,,,,2024-07-29,1,,,,,サンダースプロダクション,0
705,4011003019659,新規,0,2024-07-29,2024-07-29,合同会社インクルージョン,,合同会社,東京都,渋谷区,道玄坂１丁目１０番８号渋谷道玄坂東急ビル２Ｆ－Ｃ,,13,113,1500043,,,,,,,2024-07-29,1,,,,,インクルージョン,0
721,4011401026298,新規,0,2024-07-29,2024-07-29,ＯＮＥ　ＭＩＮＵＴＥ　ｔｏ　ＺＥＲＯ株式会社,,株式会社,東京都,板橋区,東山町１３番１２－２０１号,,13,119,1740073,,,,,,,2024-07-29,1,,,,,ワンミニットトゥゼロ,0
727,4011801044593,新規,0,2024-07-29,2024-07-29,コネクトワン株式会社,,株式会社,東京都,足立区,保木間５丁目４番１－３０２,,13,121,1210064,,,,,,,2024-07-29,1,,,,,コネクトワン,0
741,4020001158204,新規,0,2024-07-29,2024-07-29,株式会社Ｌｉｂｅｒｔｙ　Ｃａｎｖａｓ,,株式会社,神奈川県,横浜市青葉区,あざみ野２丁目２３番地４８,,14,117,2250011,,,,,,,2024-07-29,1,,,,,リバティーキャンバス,0
742,4020001158245,新規,0,2024-07-29,2024-07-29,株式会社フレタック,,株式会社,神奈川県,川崎市宮前区,馬絹５丁目１番２４号エレガンス栄２０３,,14,136,2160035,,,,,,,2024-07-29,1,,,,,フレタック,0
755,4030001161594,新規,0,2024-07-29,2024-07-29,株式会社ツバキ・アールアンドエム・サービス,,株式会社,埼玉県,吉川市,中央３丁目１３番地１,,11,243,3420061,,,,,,,2024-07-29,1,,,,,ツバキアールアンドエムサービス,0
756,4030001161603,新規,0,2024-07-29,2024-07-29,株式会社エムズウィル,,株式会社,埼玉県,本庄市,中央１丁目８番２号,,11,211,3670053,,,,,,,2024-07-29,1,,,,,エムズウィル,0
757,4030001161611,新規,0,2024-07-29,2024-07-29,ネオレポ株式会社,,株式会社,埼玉県,北葛飾郡松伏町,田中３丁目５番地５,,11,465,3430117,,,,,,,2024-07-29,1,,,,,ネオレポ,0
758,4030001161636,新規,0,2024-07-29,2024-07-29,東京ＨＥＸＣＥＬ炭繊維製造株式会社,,株式会社,埼玉県,羽生市,大字小松１２１３,,11,216,3480037,,,,,,,2024-07-29,1,,,,,トウキョウヘクセルスミセンイセイゾウ,0
760,4030003024799,新規,0,2024-07-29,2024-07-29,ＥＬＩＺＡ合同会社,,合同会社,埼玉県,草加市,瀬崎３丁目２６－１０,,11,221,3400022,,,,,,,2024-07-29,1,,,,,エリザ,0
762,4040001134723,新規,0,2024-07-29,2024-07-29,株式会社ＳＣＺ,,株式会社,千葉県,千葉市花見川区,朝日ケ丘１丁目７番７号,,12,102,2620019,,,,,,,2024-07-29,1,,,,,エスシーゼット,0
769,4050001055134,新規,0,2024-07-29,2024-07-29,株式会社Ｐｅｉｒａｓｍｏｓ,,株式会社,茨城県,水戸市,大工町１丁目４番１２号,,08,201,3100031,,,,,,,2024-07-29,1,,,,,ペイラスモス,0
770,4050001055142,新規,0,2024-07-29,2024-07-29,株式会社ＴＯＰＷＯＲＫＳ,,株式会社,茨城県,土浦市,中１３２５番地,,08,203,3000841,,,,,,,2024-07-29,1,,,,,トップワークス,0
790,4120001267102,新規,0,2024-07-29,2024-07-29,株式会社アカカ,,株式会社,大阪府,大阪市淀川区,塚本２丁目２０－１１メゾンラルゴ４Ｂ号室,,27,123,5320026,,,,,,,2024-07-29,1,,,,,アカカ,0
791,4120001267192,新規,0,2024-07-29,2024-07-29,株式会社ＥＲＥＣＴ,,株式会社,大阪府,大阪市東成区,東今里３丁目３番１１号,,27,115,5370011,,,,,,,2024-07-29,1,,,,,エレクト,0
800,4120903005278,新規,0,2024-07-29,2024-07-29,お葬式センターもみじ合同会社,,合同会社,大阪府,高槻市,若松町６番１号美波ハウスＡ棟１０５号,,27,207,5690054,,,,,,,2024-07-29,1,,,,,オソウシキセンターモミジ,0
811,4130003009732,新規,0,2024-07-29,2024-07-29,合同会社ＣＨＥＥＫＹ,,合同会社,京都府,京都市下京区,七条通油小路東入大黒町２２７番地第２キョートビル４０２,,26,106,6008223,,,,,,,2024-07-29,1,,,,,チーキー,0
814,4140001135273,新規,0,2024-07-29,2024-07-29,株式会社シェアコミック,,株式会社,兵庫県,西宮市,甲陽園東山町１２番１１５号,,28,204,6620012,,,,,,,2024-07-29,1,,,,,シェアコミック,0
818,4140003020878,新規,0,2024-07-29,2024-07-29,Ｈ・Ｙアーキテクト合同会社,,合同会社,兵庫県,尼崎市,稲葉荘１丁目１番８号エクシオ６０２号,,28,202,6600064,,,,,,,2024-07-29,1,,,,,エイチワイアーキテクト,0
830,4180001162553,新規,0,2024-07-29,2024-07-29,株式会社ＺＥＦＯＲＤ,,株式会社,愛知県,稲沢市,朝府町１２番２号,,23,220,4928268,,,,,,,2024-07-29,1,,,,,ゼフォード,0
841,4190003004736,新規,0,2024-07-29,2024-07-29,山輝合同会社,,合同会社,三重県,四日市市,小古曽東１丁目２‐１６,,24,202,5100951,,,,,,,2024-07-29,1,,,,,ヤマキ,0
843,4200005013650,新規,0,2024-07-29,2024-07-29,一般社団法人岐阜放課後こども未来協議会,,その他の設立登記法人,岐阜県,岐阜市,柳津町梅松１丁目１００番地,,21,201,5016105,,,,,,,2024-07-29,1,,,,,ギフホウカゴコドモミライキョウギカイ,0
844,4210001019840,新規,0,2024-07-29,2024-07-29,株式会社ＲＯＭホールディングス,,株式会社,福井県,福井市,灯明寺３丁目４６３６番地,,18,201,9100063,,,,,,,2024-07-29,1,,,,,ロムホールディングス,0
845,4220001026118,新規,0,2024-07-29,2024-07-29,株式会社ロボシス,,株式会社,石川県,白山市,横町１０７番地１,,17,210,9240861,,,,,,,2024-07-29,1,,,,,ロボシス,0
865,4290803004792,新規,0,2024-07-29,2024-07-29,合同会社九州あるふぁ,,合同会社,福岡県,北九州市八幡西区,楠橋東２丁目１番５９－２０４号,,40,109,8071142,,,,,,,2024-07-29,1,,,,,キュウシュウアルファ,0
895,4440001009471,新規,0,2024-07-29,2024-07-29,株式会社ＫＯＭ,,株式会社,北海道,函館市,戸倉町２４番６号,,01,202,0420953,,,,,,,2024-07-29,1,,,,,コム,0
902,4470003002686,新規,0,2024-07-29,2024-07-29,合同会社ライフクリーン,,合同会社,香川県,坂出市,川津町３３５０番地５,,37,203,7620025,,,,,,,2024-07-29,1,,,,,ライフクリーン,0
905,4490005006948,新規,0,2024-07-29,2024-07-29,にこにこ協同組合,,その他の設立登記法人,高知県,高知市,七ツ渕８２４番地,,39,201,7800000,,,,,,,2024-07-29,1,,,,,,0
921,5010001246909,新規,0,2024-07-29,2024-07-29,東盛産業株式会社,,株式会社,東京都,千代田区,西神田２丁目５番７－４０３号,,13,101,1010065,,,,,,,2024-07-29,1,,,,,トウセイサンギョウ,0
926,5010003044336,新規,0,2024-07-29,2024-07-29,合同会社ワーカーズホテル１号,,合同会社,東京都,中央区,銀座１丁目２４番３号ＢＩＺＦｅｅｌＧＩＮＺＡＰＡＲＫＳＩＤＥ４階,,13,102,1040061,,,,,,,2024-07-29,1,,,,,ワーカーズホテルイチゴウ,0
936,5010401183925,新規,0,2024-07-29,2024-07-29,株式会社ＫＡＷＯ,,株式会社,東京都,港区,新橋１丁目１８番２１号第一日比谷ビル５階５０１室,,13,103,1050004,,,,,,,2024-07-29,1,,,,,カオ,0
937,5010501052666,新規,0,2024-07-29,2024-07-29,株式会社デューマックステック,,株式会社,東京都,台東区,上野６丁目７番１６号川久保ビル８２３号室,,13,106,1100005,,,,,,,2024-07-29,1,,,,,デューマックステック,0
938,5010601065618,新規,0,2024-07-29,2024-07-29,株式会社ＲＥＸホールディングス,,株式会社,東京都,江東区,有明１丁目４番１１－１５０１号,,13,108,1350063,,,,,,,2024-07-29,1,,,,,レックスホールディングス,0
941,5010901055698,新規,0,2024-07-29,2024-07-29,株式会社ＢＡＡＮ,,株式会社,東京都,世田谷区,東玉川１丁目１０番１０号,,13,112,1580084,,,,,,,2024-07-29,1,,,,,バーン,0
942,5010901055707,新規,0,2024-07-29,2024-07-29,株式会社ウェルス,,株式会社,東京都,世田谷区,上北沢４丁目２６番１０号,,13,112,1560057,,,,,,,2024-07-29,1,,,,,ウェルス,0
943,5010905004643,新規,0,2024-07-29,2024-07-29,一般社団法人日中有志青年交流協会,,その他の設立登記法人,東京都,世田谷区,北沢１丁目３４番１７号,,13,112,1550031,,,,,,,2024-07-29,1,,,,,ニッチュウユウシセイネンコウリュウキョウカイ,0
944,5011001163482,新規,0,2024-07-29,2024-07-29,クレインズ・キャピタル株式会社,,株式会社,東京都,渋谷区,神山町１４－１８,,13,113,1500047,,,,,,,2024-07-29,1,,,,,クレインズキャピタル,0
945,5011001163549,新規,0,2024-07-29,2024-07-29,株式会社Ｕｗａｂｕｒｅ　Ｔｅｃｈｎｏｌｏｇｙ,,株式会社,東京都,渋谷区,渋谷２丁目１９－１５宮益坂ビルディング６０９,,13,113,1500002,,,,,,,2024-07-29,1,,,,,ウワブレテクノロジー,0
946,5011001163573,新規,0,2024-07-29,2024-07-29,プリエ株式会社,,株式会社,東京都,渋谷区,渋谷２丁目１９－１５宮益坂ビルディング６０９,,13,113,1500002,,,,,,,2024-07-29,1,,,,,プリエ,0
947,5011001163615,新規,0,2024-07-29,2024-07-29,株式会社ＳＯＨＴＥＮ,,株式会社,東京都,渋谷区,渋谷２丁目１９－１５宮益坂ビルディング６０９,,13,113,1500002,,,,,,,2024-07-29,1,,,,,ソウテン,0
948,5011001163623,新規,0,2024-07-29,2024-07-29,ＫＵエステイト株式会社,,株式会社,東京都,渋谷区,広尾２丁目１４番３３号住友不動産広尾グランドヒルズ１０１,,13,113,1500012,,,,,,,2024-07-29,1,,,,,ケイユーエステイト,0
949,5011001163631,新規,0,2024-07-29,2024-07-29,アーバンヴィラ株式会社,,株式会社,東京都,渋谷区,恵比寿２丁目２５番４－３０６号,,13,113,1500013,,,,,,,2024-07-29,1,,,,,アーバンヴィラ,0
950,5011001163664,新規,0,2024-07-29,2024-07-29,アキタヤデザイン株式会社,,株式会社,東京都,渋谷区,道玄坂１丁目１０番８号渋谷道玄坂東急ビル２Ｆ,,13,113,1500043,,,,,,,2024-07-29,1,,,,,アキタヤデザイン,0
956,5011201025672,新規,0,2024-07-29,2024-07-29,株式会社Ｆｒｏｎｔ　ｒｏｗ,,株式会社,東京都,中野区,白鷺２丁目２２－２２,,13,114,1650035,,,,,,,2024-07-29,1,,,,,フロントロウ,0
957,5011203004451,新規,0,2024-07-29,2024-07-29,合同会社ＷＡＫＵＴＳＵＫＵ,,合同会社,東京都,中野区,江古田４丁目３６番３号コーポプリムローズ１０２,,13,114,1650022,,,,,,,2024-07-29,1,,,,,ワクツク,0
958,5011301029879,新規,0,2024-07-29,2024-07-29,株式会社源八,,株式会社,東京都,杉並区,阿佐谷南１丁目４５番５号,,13,115,1660004,,,,,,,2024-07-29,1,,,,,ゲンパチ,0
959,5011303005242,新規,0,2024-07-29,2024-07-29,合同会社Ｗ＆Ｍ,,合同会社,東京都,杉並区,上荻４丁目３０－８,,13,115,1670043,,,,,,,2024-07-29,1,,,,,ダブリューアンドエム,0
962,5011401026289,新規,0,2024-07-29,2024-07-29,株式会社８,,株式会社,東京都,板橋区,前野町２丁目１６番１号,,13,119,1740063,,,,,,,2024-07-29,1,,,,,エイト,0
963,5011401026297,新規,0,2024-07-29,2024-07-29,ダイヤモンド株式会社,,株式会社,東京都,板橋区,中板橋２２番１０号オーパスレジデンス中板橋６０７,,13,119,1730016,,,,,,,2024-07-29,1,,,,,ダイヤモンド,0
967,5011701027482,新規,0,2024-07-29,2024-07-29,株式会社未来テクノロジー,,株式会社,東京都,江戸川区,本一色２丁目１８－２,,13,123,1330044,,,,,,,2024-07-29,1,,,,,ミライテクノロジー,0
970,5011703003903,新規,0,2024-07-29,2024-07-29,慶應大や都庁とかに一発合格した私の本気合同会社,,合同会社,東京都,江戸川区,篠崎町７丁目２５番１０－９０１号,,13,123,1330061,,,,,,,2024-07-29,1,,,,,ケイオウダイヤトチョウトカニイッパツゴウカクシタワタシノホンキ,0
973,5011801044568,新規,0,2024-07-29,2024-07-29,エコリサイクル東京株式会社,,株式会社,東京都,足立区,東綾瀬２丁目１８番１７号,,13,121,1200004,,,,,,,2024-07-29,1,,,,,エコリサイクルトウキョウ,0
981,5013301052910,新規,0,2024-07-29,2024-07-29,株式会社たかびん,,株式会社,東京都,豊島区,池袋本町１丁目３８番１６号アビタシオン・ケイ２０２号,,13,116,1700011,,,,,,,2024-07-29,1,,,,,タカビン,0
984,5020001158228,新規,0,2024-07-29,2024-07-29,ＡＣＥ技研株式会社,,株式会社,神奈川県,横浜市泉区,新橋町１０３２番地,,14,116,2450009,,,,,,,2024-07-29,1,,,,,エーシーイーギケン,0
985,5020001158236,新規,0,2024-07-29,2024-07-29,株式会社スリーエレメンツ,,株式会社,神奈川県,横浜市神奈川区,東神奈川２丁目４０番地５,,14,102,2210044,,,,,,,2024-07-29,1,,,,,スリーエレメンツ,0
988,5020003026531,新規,0,2024-07-29,2024-07-29,合同会社ｉｃｈｉｅｎ,,合同会社,神奈川県,川崎市宮前区,小台２丁目８番地１９エポック宮前平１０２,,14,136,2160007,,,,,,,2024-07-29,1,,,,,イチエン,0
994,5021001082822,新規,0,2024-07-29,2024-07-29,株式会社ＳＡＮＴＡ,,株式会社,神奈川県,座間市,さがみ野３丁目２－３１スリーウィル１０１,,14,216,2520005,,,,,,,2024-07-29,1,,,,,サンタ,0
996,5030001161593,新規,0,2024-07-29,2024-07-29,株式会社ふりいだむ,,株式会社,埼玉県,川口市,大字東本郷１６２４番地の７,,11,203,3340063,,,,,,,2024-07-29,1,,,,,フリイダム,0
998,5030003024798,新規,0,2024-07-29,2024-07-29,わがライフ合同会社,,合同会社,埼玉県,越谷市,大成町６丁目１２８番地,,11,222,3430825,,,,,,,2024-07-29,1,,,,,ワガライフ,0
1004,5040003025481,新規,0,2024-07-29,2024-07-29,合同会社燈真企画,,合同会社,千葉県,八千代市,萱田町９０７番地１中台コ－ポ２０２,,12,221,2760044,,,,,,,2024-07-29,1,,,,,トウシンキカク,0
1005,5040003025498,新規,0,2024-07-29,2024-07-29,合同会社長谷川,,合同会社,千葉県,船橋市,本町５丁目４番５－６０１号,,12,204,2730005,,,,,,,2024-07-29,1,,,,,ハセガワ,0
1009,5070001042006,新規,0,2024-07-29,2024-07-29,株式会社小林鋼業,,株式会社,群馬県,前橋市,南町３丁目５０番地２プラザアン２階Ｄ－７２,,10,201,3710805,,,,,,,2024-07-29,1,,,,,コバヤシコウギョウ,0
1028,5120001267200,新規,0,2024-07-29,2024-07-29,ＺＺＨ株式会社,,株式会社,大阪府,大阪市東住吉区,矢田１丁目２６番７－４０３号,,27,121,5460023,,,,,,,2024-07-29,1,,,,,ゼットゼットエイチ,0
1032,5120101070025,新規,0,2024-07-29,2024-07-29,ＫＩ株式会社,,株式会社,大阪府,貝塚市,王子１０９７番地３,,27,208,5970051,,,,,,,2024-07-29,1,,,,,ケーアイ,0
1043,5140001135272,新規,0,2024-07-29,2024-07-29,株式会社ひだまり,,株式会社,兵庫県,加東市,社１７３８番地の９３,,28,228,6731431,,,,,,,2024-07-29,1,,,,,ヒダマリ,0
1055,5180001162412,新規,0,2024-07-29,2024-07-29,株式会社Ａｒｃ　ｄｅ　Ｔｒｉｏｍｐｈｅ,,株式会社,愛知県,一宮市,時之島字八幡南２９番地１,,23,203,4910002,,,,,,,2024-07-29,1,,,,,アークドゥトリヨーンフ,0
1056,5180001162552,新規,0,2024-07-29,2024-07-29,株式会社ＮＩＸ,,株式会社,愛知県,名古屋市北区,彩紅橋通１丁目１番地の５－２０２,,23,103,4620818,,,,,,,2024-07-29,1,,,,,ニックス,0
1059,5180003027126,新規,0,2024-07-29,2024-07-29,青源合同会社,,合同会社,愛知県,愛西市,早尾町南川並１６６－１登雲,,23,232,4960931,,,,,,,2024-07-29,1,,,,,アオゲン,0
1061,5180005020707,新規,0,2024-07-29,2024-07-29,一般社団法人中部未来リーダーズ協議会,,その他の設立登記法人,愛知県,名古屋市中村区,名駅３丁目４番１０号アルティメイト名駅１ｓｔ２階,,23,105,4500002,,,,,,,2024-07-29,1,,,,,チュウブミライリーダーズキョウギカイ,0
1068,5190003004735,新規,0,2024-07-29,2024-07-29,合同会社ラディアンテック,,合同会社,三重県,三重郡菰野町,大字菰野１５００番地,,24,341,5101233,,,,,,,2024-07-29,1,,,,,ラディアンテック,0
1087,5250001020744,新規,0,2024-07-29,2024-07-29,株式会社ロックワン,,株式会社,山口県,岩国市,旭町１丁目１３番２８号,,35,208,7400024,,,,,,,2024-07-29,1,,,,,ロックワン,0
1089,5260001039296,新規,0,2024-07-29,2024-07-29,株式会社三＿,00135721,株式会社,岡山県,岡山市北区,七日市西町３番４３号,,33,101,7000851,,,,,,,2024-07-29,1,,,,,サンキン,0
1090,5260003004827,新規,0,2024-07-29,2024-07-29,合同会社真の健康舎,,合同会社,岡山県,岡山市北区,下中野４６３番地５ＧＲＡＮＤＴＩＣ下中野１０２号室,,33,101,7000973,,,,,,,2024-07-29,1,,,,,マコトノケンコウシャ,0
1093,5290001106597,新規,0,2024-07-29,2024-07-29,株式会社ＥＸＴＲＡ．Ｒ,,株式会社,福岡県,福岡市博多区,住吉２丁目１１－２１Ｂ１Ｆ,,40,132,8120018,,,,,,,2024-07-29,1,,,,,エクストラアール,0
1116,5390001017685,新規,0,2024-07-29,2024-07-29,ＫＥＬＯ株式会社,,株式会社,山形県,米沢市,城西３丁目３番３号,,06,202,9920054,,,,,,,2024-07-29,1,,,,,ケロ,0
1139,5500003003291,新規,0,2024-07-29,2024-07-29,合同会社Ａｓｔｕｃｅ,,合同会社,愛媛県,松山市,錦町３３番地１,,38,201,7900877,,,,,,,2024-07-29,1,,,,,アステュス,0
1145,6010001246940,新規,0,2024-07-29,2024-07-29,株式会社ｈｉｒｏｍｏｋｕｔｅｎ,,株式会社,東京都,中央区,銀座１丁目１２－４Ｎ＆ＥＢＬＤ．７階,,13,102,1040061,,,,,,,2024-07-29,1,,,,,ヒロモクテン,0
1146,6010003044442,新規,0,2024-07-29,2024-07-29,ホクレア合同会社,,合同会社,東京都,中央区,築地２丁目１－１４トミービル６階,,13,102,1040045,,,,,,,2024-07-29,1,,,,,ホクレア,0
1148,6010105002281,新規,0,2024-07-29,2024-07-29,特定非営利活動法人Ｊｏｉｎｔ　Ｆｌｏｗ,,その他の設立登記法人,東京都,八王子市,明神町３丁目２０番５号エイトビル３階,,13,201,1920046,,,,,,,2024-07-29,1,,,,,ジョイントフロー,0
1151,6010401184022,新規,0,2024-07-29,2024-07-29,Ｍｙ　Ｊａｐａｎ　Ｔｏｕｒ株式会社,,株式会社,東京都,港区,新橋６丁目１６番８号,,13,103,1050004,,,,,,,2024-07-29,1,,,,,マイジャパンツアー,0
1152,6010401184055,新規,0,2024-07-29,2024-07-29,ＪＡＩＲＩ株式会社,,株式会社,東京都,港区,南青山２丁目２番１５号,,13,103,1070062,,,,,,,2024-07-29,1,,,,,,0
1160,6010601065641,新規,0,2024-07-29,2024-07-29,バイトアド株式会社,,株式会社,東京都,墨田区,吾妻橋２丁目１６－５の１Ｆ,,13,107,1300001,,,,,,,2024-07-29,1,,,,,バイトアド,0
1167,6011001163572,新規,0,2024-07-29,2024-07-29,株式会社ＥＧＢＡ,,株式会社,東京都,渋谷区,千駄ヶ谷２丁目１１番１号,,13,113,1510051,,,,,,,2024-07-29,1,,,,,イージービーエー,0
1168,6011001163580,新規,0,2024-07-29,2024-07-29,株式会社筋トレＭＥＭＯ,,株式会社,東京都,渋谷区,渋谷２丁目１９－１５宮益坂ビルディング６０９,,13,113,1500002,,,,,,,2024-07-29,1,,,,,キントレメモ,0
1169,6011001163614,新規,0,2024-07-29,2024-07-29,株式会社ｎｉｋｓ,,株式会社,東京都,渋谷区,円山町２８番１号,,13,113,1500044,,,,,,,2024-07-29,1,,,,,ニクス,0
1170,6011001163622,新規,0,2024-07-29,2024-07-29,ＡＵエステイト株式会社,,株式会社,東京都,渋谷区,広尾２丁目１４番３３号住友不動産広尾グランドヒルズ１０１,,13,113,1500012,,,,,,,2024-07-29,1,,,,,エーユーエステイト,0
1172,6011003019632,新規,0,2024-07-29,2024-07-29,合同会社Ｓａｎｉｔａ,,合同会社,東京都,渋谷区,西原２丁目２７－４,,13,113,1510066,,,,,,,2024-07-29,1,,,,,サニータ,0
1173,6011003019665,新規,0,2024-07-29,2024-07-29,宮川商店合同会社,,合同会社,東京都,目黒区,下目黒４丁目１０番３０号,,13,110,1530064,,,,,,,2024-07-29,1,,,,,ミヤガワショウテン,0
1180,6011301029878,新規,0,2024-07-29,2024-07-29,株式会社ＥＮＢＬＯ,,株式会社,東京都,杉並区,高井戸東３丁目３５番１０－１０４号イトーピア浜田山リーディアン,,13,115,1680072,,,,,,,2024-07-29,1,,,,,,0
1181,6011303005241,新規,0,2024-07-29,2024-07-29,合同会社ＴＳＵＧＩ,,合同会社,東京都,杉並区,西荻南３丁目１２－１日伸西荻プラザ１ＦＡ－５,,13,115,1670053,,,,,,,2024-07-29,1,,,,,ツギ,0
1184,6011601027937,新規,0,2024-07-29,2024-07-29,ＦＵＨＡＩ株式会社,,株式会社,東京都,練馬区,桜台６丁目１９番３号２０２,,13,120,1760002,,,,,,,2024-07-29,1,,,,,フカイ,0
1185,6011701027481,新規,0,2024-07-29,2024-07-29,株式会社ＡＲＣＳ,,株式会社,東京都,江戸川区,平井７丁目１番１７号,,13,123,1320035,,,,,,,2024-07-29,1,,,,,アークス,0
1186,6011703003919,新規,0,2024-07-29,2024-07-29,ＮＡ‐ＳＡ　Ｉｎｆｏｒｍａｔｉｃｓ合同会社,,合同会社,東京都,江戸川区,中葛西８丁目１９番３０号２Ｆ,,13,123,1340083,,,,,,,2024-07-29,1,,,,,ナーサインフォマティクス,0
1187,6011801044559,新規,0,2024-07-29,2024-07-29,株式会社ミッドナイトコード,,株式会社,東京都,葛飾区,立石８丁目４３番１５号,,13,122,1240012,,,,,,,2024-07-29,1,,,,,ミッドナイトコード,0
1188,6011803006359,新規,0,2024-07-29,2024-07-29,合同会社幸優,,合同会社,東京都,足立区,鹿浜３丁目１１番地５,,13,121,1230864,,,,,,,2024-07-29,1,,,,,コウユウ,0
1197,6012801023362,新規,0,2024-07-29,2024-07-29,株式会社ＴＪ　ＦＡＲＭ,,株式会社,東京都,日野市,大坂上３丁目１６番地の５,,13,212,1910061,,,,,,,2024-07-29,1,,,,,ティージェーファーム,0
1204,6020001158193,新規,0,2024-07-29,2024-07-29,遠藤株式会社,,株式会社,神奈川県,横浜市神奈川区,台町１１番２６号－１０３号,,14,102,2210834,,,,,,,2024-07-29,1,,,,,エンドウ,0
1205,6020001158210,新規,0,2024-07-29,2024-07-29,株式会社アルトピアーノ,,株式会社,神奈川県,川崎市多摩区,生田８丁目１１番９号,,14,135,2140038,,,,,,,2024-07-29,1,,,,,アルトピアーノ,0
1206,6020001158243,新規,0,2024-07-29,2024-07-29,横浜アセットマネジメント株式会社,,株式会社,神奈川県,横浜市港北区,日吉７丁目７番８－４号,,14,109,2230061,,,,,,,2024-07-29,1,,,,,ヨコハマアセットマネジメント,0
1210,6020003026539,新規,0,2024-07-29,2024-07-29,合同会社エレクトロビルダーズ,,合同会社,神奈川県,横浜市保土ケ谷区,宮田町２丁目１２６－２,,14,106,2400002,,,,,,,2024-07-29,1,,,,,エレクトロビルダーズ,0
1213,6021001082821,新規,0,2024-07-29,2024-07-29,株式会社Ｂ．Ｏ．Ｄ,,株式会社,神奈川県,三浦郡葉山町,堀内１００５番地の１フォルム葉山２１３号,,14,301,2400112,,,,,,,2024-07-29,1,,,,,ビーオーディー,0
1222,6030001161592,新規,0,2024-07-29,2024-07-29,株式会社ボディレストレイション,,株式会社,埼玉県,狭山市,鵜ノ木１１番２１号,,11,215,3501323,,,,,,,2024-07-29,1,,,,,ボディレストレイション,0
1226,6030003024806,新規,0,2024-07-29,2024-07-29,星源盛達合同会社,,合同会社,埼玉県,三郷市,中央２丁目１６番地２３,,11,237,3410038,,,,,,,2024-07-29,1,,,,,セイゲンセイタツ,0
1228,6040001134688,新規,0,2024-07-29,2024-07-29,株式会社ＨＳＲ,,株式会社,千葉県,佐倉市,王子台１丁目６番地１２シャルマンブリッサ２０４,,12,212,2850837,,,,,,,2024-07-29,1,,,,,エイチエスアール,0
1243,6080005007630,新規,0,2024-07-29,2024-07-29,しずおか物流協同組合,,その他の設立登記法人,静岡県,静岡市葵区,伝馬町９番地の１０ＮＴビル３階,,22,101,4200858,,,,,,,2024-07-29,1,,,,,シズオカブツリュウ,0
1247,6090003002608,新規,0,2024-07-29,2024-07-29,合同会社シオザワ,,合同会社,山梨県,甲州市,塩山上小田原１０番地,,19,213,4040026,,,,,,,2024-07-29,1,,,,,シオザワ,0
1265,6120001267199,新規,0,2024-07-29,2024-07-29,株式会社アトライズ,,株式会社,大阪府,大阪市中央区,上汐２丁目６番２９号,,27,128,5420064,,,,,,,2024-07-29,1,,,,,アトライズ,0
1268,6120003027147,新規,0,2024-07-29,2024-07-29,合同会社Ｏｉａｌｃ,,合同会社,大阪府,寝屋川市,早子町１番８号フジイビル２０２号,,27,215,5720837,,,,,,,2024-07-29,1,,,,,オイアルク,0
1276,6120101070040,新規,0,2024-07-29,2024-07-29,株式会社堺香字庵,,株式会社,大阪府,堺市南区,新檜尾台４丁２３番４号,,27,145,5900143,,,,,,,2024-07-29,1,,,,,サカイコウジアン,0
1282,6130003009747,新規,0,2024-07-29,2024-07-29,合同会社エックスジー,,合同会社,京都府,舞鶴市,字倉谷９５８－５,,26,202,6240906,,,,,,,2024-07-29,1,,,,,エックスジー,0
1288,6140001135206,新規,0,2024-07-29,2024-07-29,養父レジデンス株式会社,,株式会社,兵庫県,養父市,森２１９,,28,222,6670141,,,,,,,2024-07-29,1,,,,,ヤブレジデンス,0
1289,6140001135255,新規,0,2024-07-29,2024-07-29,福徳株式会社,,株式会社,兵庫県,神戸市兵庫区,石井町６丁目２番３号－３０１号室,,28,105,6520061,,,,,,,2024-07-29,1,,,,,フクトク,0
1293,6140003020835,新規,0,2024-07-29,2024-07-29,ＴＡＭ　ＴＨＩＮＨ　ＰＨＡＴ合同会社,,合同会社,兵庫県,神戸市中央区,中山手通１丁目１１－１北野坂ホリイケビルＢ１,,28,110,6500004,,,,,,,2024-07-29,1,,,,,タムテインファット,0
1322,6250001020743,新規,0,2024-07-29,2024-07-29,株式会社どんぐり,,株式会社,山口県,山陽小野田市,須恵１丁目４－２１－５０１,,35,216,7560836,,,,,,,2024-07-29,1,,,,,ドングリ,0
1324,6260001039295,新規,0,2024-07-29,2024-07-29,株式会社唯,,株式会社,岡山県,岡山市北区,奥田本町１０－５サンハイツ奥田１０２,,33,101,7000932,,,,,,,2024-07-29,1,,,,,ユイ,0
1326,6260003004826,新規,0,2024-07-29,2024-07-29,ＭＡＮＴＲＡ　ＮＥＰＡＬ合同会社,,合同会社,岡山県,岡山市北区,伊福町３丁目２０番９号第一耐火ビル２０６号室,,33,101,7000013,,,,,,,2024-07-29,1,,,,,マントラネパール,0
1329,6290001106506,新規,0,2024-07-29,2024-07-29,株式会社シンキ,,株式会社,福岡県,福岡市城南区,友丘２丁目６番５,,40,136,8140112,,,,,,,2024-07-29,1,,,,,シンキ,0
1336,6290803004790,新規,0,2024-07-29,2024-07-29,合同会社シーエイチアール,,合同会社,福岡県,北九州市小倉北区,砂津２丁目１１番２０－１００６号,,40,106,8020014,,,,,,,2024-07-29,1,,,,,シーエイチアール,0
1337,6300003002156,新規,0,2024-07-29,2024-07-29,合同会社つげき空調,,合同会社,佐賀県,佐賀市,巨勢町大字牛島７３番地１６,,41,201,8400008,,,,,,,2024-07-29,1,,,,,ツゲキクウチョウ,0
1343,6340003004553,新規,0,2024-07-29,2024-07-29,合同会社ｇｒｅｅｎ,,合同会社,鹿児島県,鹿児島市,宇宿８丁目９番８号,,46,201,8900073,,,,,,,2024-07-29,1,,,,,グリーン,0
1346,6360005007073,新規,0,2024-07-29,2024-07-29,栄町労働者協同組合,,その他の設立登記法人,沖縄県,那覇市,字安里３８１座波ビル１－Ｃ,,47,201,9020067,,,,,,,2024-07-29,1,,,,,サカエマチロウドウシャ,0
1348,6370003006695,新規,0,2024-07-29,2024-07-29,合同会社河北建設,,合同会社,宮城県,東松島市,矢本字町浦１４２番地市営町浦住宅２０７号室,,04,214,9810503,,,,,,,2024-07-29,1,,,,,カホクケンセツ,0
1363,6430005015036,新規,0,2024-07-29,2024-07-29,農事組合法人ファーム昇龍,,その他の設立登記法人,北海道,日高郡新ひだか町,静内青柳町１丁目７番５号高橋アパート１号,,01,610,0560019,,,,,,,2024-07-29,1,,,,,ファームショウリュウ,0
1369,6470001020309,新規,0,2024-07-29,2024-07-29,株式会社トスバックシステムズＨＤ,,株式会社,香川県,高松市,福岡町４丁目５番１号,,37,201,7600066,,,,,,,2024-07-29,1,,,,,トスバックシステムズホールディングス,0
1372,6480001012552,新規,0,2024-07-29,2024-07-29,株式会社ネオビエントホールディングス,,株式会社,徳島県,板野郡北島町,太郎八須字西ノ瀬３４番地８,,36,402,7710202,,,,,,,2024-07-29,1,,,,,ネオビエントホールディングス,0
1376,6500003003290,新規,0,2024-07-29,2024-07-29,合同会社ＯＰＩＣＡ,,合同会社,愛媛県,松山市,竹原２丁目２番１８号サーパス竹原５０７号,,38,201,7900053,,,,,,,2024-07-29,1,,,,,オーピカ,0
1377,6500005008718,新規,0,2024-07-29,2024-07-29,税理士法人ＧＲＡＰ,,その他の設立登記法人,愛媛県,松山市,三番町３丁目９番地７,,38,201,7900003,,,,,,,2024-07-29,1,,,,,グラップ,0
1379,7010001246865,新規,0,2024-07-29,2024-07-29,株式会社東銀財託,,株式会社,東京都,文京区,西片２丁目４２番地１,,13,105,1130024,,,,,,,2024-07-29,1,,,,,トウギンザイタク,0
1380,7010003044433,新規,0,2024-07-29,2024-07-29,ＧＣＰ３合同会社,,合同会社,東京都,千代田区,丸の内１丁目１１番１号,,13,101,1000005,,,,,,,2024-07-29,1,,,,,ジーシーピースリー,0
1389,7010401183931,新規,0,2024-07-29,2024-07-29,ＹｏＹｏ株式会社,,株式会社,東京都,港区,浜松町２丁目７番１７号イーグル浜松町天翔オフィス浜松町大門５階５６６号室,,13,103,1050013,,,,,,,2024-07-29,1,,,,,ヨーヨー,0
1391,7010403033119,新規,0,2024-07-29,2024-07-29,Ｂａｎｚａｉ　Ｇｉｎｚａ　Ｏｐ合同会社,,合同会社,東京都,港区,虎ノ門５丁目１番５号,,13,103,1050001,,,,,,,2024-07-29,1,,,,,バンザイギンザオーピー,0
1395,7010601065632,新規,0,2024-07-29,2024-07-29,ＴＡＫＩＢＩ株式会社,,株式会社,東京都,墨田区,横川４丁目１番２０号ケンコーポ１Ｆ－Ａ,,13,107,1300003,,,,,,,2024-07-29,1,,,,,タキビ,0
1400,7010901055655,新規,0,2024-07-29,2024-07-29,ＷＡＫＡＩ　ＨＯＬＤＩＮＧＳ株式会社,,株式会社,東京都,世田谷区,給田５丁目１番８号,,13,112,1570064,,,,,,,2024-07-29,1,,,,,ワカイホールディングス,0
1401,7010901055705,新規,0,2024-07-29,2024-07-29,ＣＵＣＨＵ株式会社,,株式会社,東京都,世田谷区,野沢２丁目７番１９－５０６号,,13,112,1540003,,,,,,,2024-07-29,1,,,,,クチュ,0
1406,7011001163547,新規,0,2024-07-29,2024-07-29,グッドスパイス株式会社,,株式会社,東京都,渋谷区,上原１丁目３番９号,,13,113,1510064,,,,,,,2024-07-29,1,,,,,グッドスパイス,0
1407,7011001163588,新規,0,2024-07-29,2024-07-29,ＣａｐＸｅｅｄ株式会社,,株式会社,東京都,渋谷区,円山町５番５号Ｎａｖｉ渋谷Ｖ３階,,13,113,1500044,,,,,,,2024-07-29,1,,,,,キャップシード,0
1408,7011001163605,新規,0,2024-07-29,2024-07-29,株式会社Ｇｒｅｅｎ　Ｌｅａｆ　Ｊａｐａｎ,,株式会社,東京都,渋谷区,道玄坂１丁目１０番８号渋谷道玄坂東急ビル２Ｆ‐Ｃ,,13,113,1500043,,,,,,,2024-07-29,1,,,,,グリーンリーフジャパン,0
1409,7011001163621,新規,0,2024-07-29,2024-07-29,ＤＵエステイト株式会社,,株式会社,東京都,渋谷区,広尾２丁目１４番３３号住友不動産広尾グランドヒルズ１０１,,13,113,1500012,,,,,,,2024-07-29,1,,,,,ディーユーエステイト,0
1411,7011003019656,新規,0,2024-07-29,2024-07-29,合同会社ゾルトラーク,,合同会社,東京都,渋谷区,道玄坂１丁目１６－６二葉ビル８ｂ,,13,113,1500043,,,,,,,2024-07-29,1,,,,,ゾルトラーク,0
1412,7011003019664,新規,0,2024-07-29,2024-07-29,合同会社キールロワイヤル,,合同会社,東京都,目黒区,上目黒３丁目３１番３２号クラルテ諏訪山３０１,,13,110,1530051,,,,,,,2024-07-29,1,,,,,キールロワイヤル,0
1418,7011601027936,新規,0,2024-07-29,2024-07-29,ＭＹ貿易株式会社,,株式会社,東京都,練馬区,中村２丁目１５－９ライフピアメヌエット２０３号室,,13,120,1760024,,,,,,,2024-07-29,1,,,,,エムワイボウエキ,0
1421,7011701027480,新規,0,2024-07-29,2024-07-29,亀岡電設株式会社,,株式会社,東京都,江戸川区,興宮町１６番８－４０４号,,13,123,1330042,,,,,,,2024-07-29,1,,,,,カメオカデンセツ,0
1423,7011801044590,新規,0,2024-07-29,2024-07-29,株式会社グラッドマン,,株式会社,東京都,足立区,千住元町３１－１３,,13,121,1200041,,,,,,,2024-07-29,1,,,,,グラッドマン,0
1427,7012401042126,新規,0,2024-07-29,2024-07-29,株式会社シゲンソーラー,,株式会社,東京都,多摩市,連光寺６丁目１８番地の１、３Ｆ,,13,224,2060021,,,,,,,2024-07-29,1,,,,,シゲンソーラー,0
1429,7012801023361,新規,0,2024-07-29,2024-07-29,グローバルブリッジ株式会社,,株式会社,東京都,日野市,日野本町３丁目１４番１８号谷井ビル４階４０１室,,13,212,1910011,,,,,,,2024-07-29,1,,,,,グローバルブリッジ,0
1433,7013301052900,新規,0,2024-07-29,2024-07-29,株式会社ａｔｔｉｒｅｒ,,株式会社,東京都,豊島区,池袋２丁目６１番７－７０２号,,13,116,1710014,,,,,,,2024-07-29,1,,,,,アティレ,0
1436,7020001158226,新規,0,2024-07-29,2024-07-29,株式会社災備社,,株式会社,神奈川県,横浜市神奈川区,新子安１丁目３０番１号小山ビル３Ｆ,,14,102,2210013,,,,,,,2024-07-29,1,,,,,サイビシャ,0
1437,7020001158242,新規,0,2024-07-29,2024-07-29,先辰商事株式会社,,株式会社,神奈川県,横浜市都筑区,牛久保西４丁目３番２－２号,,14,118,2240015,,,,,,,2024-07-29,1,,,,,センシンショウジ,0
1438,7020001158275,新規,0,2024-07-29,2024-07-29,向洋ライテッド株式会社,,株式会社,神奈川県,横浜市磯子区,杉田５丁目６番２８号,,14,107,2350033,,,,,,,2024-07-29,1,,,,,コウヨウライテッド,0
1439,7020001158317,新規,0,2024-07-29,2024-07-29,株式会社ＡＮＥＳＴ　ＩＷＡＴＡ　Ａ．Ｉ．Ｒ．,,株式会社,神奈川県,横浜市港北区,新吉田町３１７６番地,,14,109,2230056,,,,,,,2024-07-29,1,,,,,アネストイワタエーアイアール,0
1449,7030001161609,新規,0,2024-07-29,2024-07-29,株式会社ｙ２,,株式会社,埼玉県,羽生市,大字小須賀９７２－２,,11,216,3480042,,,,,,,2024-07-29,1,,,,,ワイツー,0
1450,7030001161617,新規,0,2024-07-29,2024-07-29,ＨＲＴ株式会社,,株式会社,埼玉県,さいたま市岩槻区,大字釣上新田１３７６番地,,11,110,3390025,,,,,,,2024-07-29,1,,,,,エイチアールティー,0
1453,7030003024805,新規,0,2024-07-29,2024-07-29,青山実業合同会社,,合同会社,埼玉県,越谷市,神明町１丁目１３２－１ラ・ルミエールＢ１０２号室,,11,222,3430805,,,,,,,2024-07-29,1,,,,,アオヤマジツギョウ,0
1472,7080001026402,新規,0,2024-07-29,2024-07-29,株式会社エス・ケア・サポート,,株式会社,静岡県,静岡市葵区,瀬名中央３丁目１６番１４－２号,,22,101,4200916,,,,,,,2024-07-29,1,,,,,エスケアサポート,0
1489,7120001267099,新規,0,2024-07-29,2024-07-29,ＳＵＮ　ＯＲＡＮＧＥ株式会社,,株式会社,大阪府,大阪市東住吉区,東田辺３丁目１－１－３Ｆ－Ｂ,,27,121,5460032,,,,,,,2024-07-29,1,,,,,サンオレンジ,0
1492,7120003027047,新規,0,2024-07-29,2024-07-29,合同会社星掴,,合同会社,大阪府,大阪市北区,梅田１丁目２番２号大阪駅前第２ビル１２‐１２,,27,127,5300001,,,,,,,2024-07-29,1,,,,,セイカク,0
1493,7120003027113,新規,0,2024-07-29,2024-07-29,合同会社たかとら,,合同会社,大阪府,大阪市中央区,北浜２丁目２番２１－２４０９号,,27,128,5410041,,,,,,,2024-07-29,1,,,,,タカトラ,0
1494,7120003027138,新規,0,2024-07-29,2024-07-29,ネクストビジョン合同会社,,合同会社,大阪府,大阪市阿倍野区,文の里２丁目１３番５号グレース・ピア２０３号前田方,,27,119,5450004,,,,,,,2024-07-29,1,,,,,ネクストビジョン,0
1495,7120003027146,新規,0,2024-07-29,2024-07-29,合同会社池田家,,合同会社,大阪府,枚方市,菊丘町３５番４６号,,27,210,5730091,,,,,,,2024-07-29,1,,,,,イケダヤ,0
1497,7120105009892,新規,0,2024-07-29,2024-07-29,一般社団法人ＤＥＡＲ,,その他の設立登記法人,大阪府,堺市堺区,出島町１丁６番１２号,,27,141,5900834,,,,,,,2024-07-29,1,,,,,ディア,0
1506,7140001135254,新規,0,2024-07-29,2024-07-29,株式会社Ｎａｔｕｒｅ　Ｓｕｇａｒ　Ｊａｐａｎ,,株式会社,兵庫県,宝塚市,雲雀丘山手２丁目１０－１１,,28,214,6650804,,,,,,,2024-07-29,1,,,,,ネイチャーシュガージャパン,0
1507,7140001135279,新規,0,2024-07-29,2024-07-29,株式会社ＢＡＲＡＫ　ＴＲＡＤＩＮＧ,,株式会社,兵庫県,三木市,自由が丘本町３丁目３４４番地テラスハウス５Ａ号,,28,215,6730424,,,,,,,2024-07-29,1,,,,,バラクトレーディング,0
1512,7150001027450,新規,0,2024-07-29,2024-07-29,株式会社ＺＥＲＯ,,株式会社,奈良県,香芝市,瓦口６９番地,,29,210,6390225,,,,,,,2024-07-29,1,,,,,ゼロ,0
1514,7160001026105,新規,0,2024-07-29,2024-07-29,株式会社ＩＮＮＯ‐Ｆ,,株式会社,滋賀県,草津市,追分南９丁目３番１５号,,25,206,5250048,,,,,,,2024-07-29,1,,,,,インノーエフ,0
1515,7160003003250,新規,0,2024-07-29,2024-07-29,合同会社Ｈｅｒｍｏｎｉａ,,合同会社,滋賀県,大津市,大平１丁目２８番１８号,,25,201,5200867,,,,,,,2024-07-29,1,,,,,,0
1519,7170001018233,新規,0,2024-07-29,2024-07-29,株式会社Ｓｋｙ,,株式会社,和歌山県,日高郡日高町,大字高家５６番地の１,,30,382,6491213,,,,,,,2024-07-29,1,,,,,スカイ,0
1527,7180001162567,新規,0,2024-07-29,2024-07-29,株式会社Ｌｅｔｉｅ,,株式会社,愛知県,清須市,阿原神門１８６,,23,233,4520901,,,,,,,2024-07-29,1,,,,,レティ,0
1532,7180003027132,新規,0,2024-07-29,2024-07-29,ＨＣグループ合同会社,,合同会社,愛知県,名古屋市港区,港栄３丁目１６番２０号セピア第一２Ｂ,,23,111,4550015,,,,,,,2024-07-29,1,,,,,エイチシーグループ,0
1547,7220001026123,新規,0,2024-07-29,2024-07-29,日友株式会社,,株式会社,石川県,金沢市,大豆田本町１３番４,,17,201,9200047,,,,,,,2024-07-29,1,,,,,ニチユウ,0
1549,7240003006781,新規,0,2024-07-29,2024-07-29,合同会社ｃｏｌｏｒｆａｃｔｏｒｙ,,合同会社,広島県,広島市中区,十日市町１丁目４番３３号ライトシティ佐伯１階,,34,101,7300805,,,,,,,2024-07-29,1,,,,,カラーファクトリー,0
1558,7290005019447,新規,0,2024-07-29,2024-07-29,ＮＰＯ法人Ｌｉｆｅ　ｂｅ　ＵＰ,,その他の設立登記法人,福岡県,福岡市城南区,別府１丁目２１番６号アストア別府３０１号,,40,136,8140104,,,,,,,2024-07-29,1,,,,,ライフビーアップ,0
1559,7290005019471,新規,0,2024-07-29,2024-07-29,一般社団法人お店ワーカーズ連合ＳＨＩＮ,,その他の設立登記法人,福岡県,宗像市,くりえいと１丁目１番１８号,,40,220,8114184,,,,,,,2024-07-29,1,,,,,オミセワーカーズレンゴウシン,0
1568,7360001033989,新規,0,2024-07-29,2024-07-29,株式会社丸三ＦＡＣＴＯＲＹ,,株式会社,沖縄県,那覇市,泊１丁目２９番４号,,47,201,9000012,,,,,,,2024-07-29,1,,,,,マルサンファクトリー,0
1572,7360003014178,新規,0,2024-07-29,2024-07-29,合同会社ＮＥＷＣＳＥ,,合同会社,沖縄県,那覇市,宮城１丁目１４番１８号アシエンダＫ＆Ｓ１０１,,47,201,9010147,,,,,,,2024-07-29,1,,,,,ニューシーズ,0
1573,7360005007080,新規,0,2024-07-29,2024-07-29,一般社団法人みくにこどもの家,,その他の設立登記法人,沖縄県,中頭郡西原町,字幸地８８３番地、１Ａ,,47,329,9030116,,,,,,,2024-07-29,1,,,,,ミクニコドモノイエ,0
1575,7370001051560,新規,0,2024-07-29,2024-07-29,株式会社インナースペース,,株式会社,宮城県,仙台市太白区,柳生字前原西２６番地の３,,04,104,9811106,,,,,,,2024-07-29,1,,,,,インナースペース,0
1584,7430001092334,新規,0,2024-07-29,2024-07-29,株式会社ＦＵＴＡＲＩＮＯ　ＣＯＭＰＡＮＹ,,株式会社,北海道,札幌市中央区,南三条西２０丁目１番１－４０２号,,01,101,0640803,,,,,,,2024-07-29,1,,,,,フタリノカンパニー,0
1587,7430005015035,新規,0,2024-07-29,2024-07-29,農事組合法人小泉ファーム,,その他の設立登記法人,北海道,日高郡新ひだか町,静内青柳町１丁目７番５号高橋アパート１号,,01,610,0560019,,,,,,,2024-07-29,1,,,,,コイズミファーム,0
1598,7500001025765,新規,0,2024-07-29,2024-07-29,人財バンクＳ・Ｅ・Ａ株式会社,,株式会社,愛媛県,松山市,久万ノ台１番地２,,38,201,7918016,,,,,,,2024-07-29,1,,,,,ジンザイバンクエスイーエー,0
1611,8010401184012,新規,0,2024-07-29,2024-07-29,株式会社Ｇｒａｖｅｌ,,株式会社,東京都,港区,港南４丁目６－３－３５０１,,13,103,1080075,,,,,,,2024-07-29,1,,,,,グラベル,0
1612,8010401184061,新規,0,2024-07-29,2024-07-29,大和金属株式会社,,株式会社,東京都,港区,赤坂７丁目６－５０,,13,103,1070052,,,,,,,2024-07-29,1,,,,,ヤマトキンゾク,0
1628,8010803005022,新規,0,2024-07-29,2024-07-29,合同会社ＬＤＨ,,合同会社,東京都,大田区,西糀谷３丁目１５番１号ホワイトキャッスル４０２,,13,111,1440034,,,,,,,2024-07-29,1,,,,,エルディエイチ,0
1633,8011001163562,新規,0,2024-07-29,2024-07-29,株式会社Ｕｅｗｏｍｕｉｔｅ桜,,株式会社,東京都,渋谷区,道玄坂１丁目１０番８号渋谷道玄坂東急ビル２Ｆ－Ｃ,,13,113,1500043,,,,,,,2024-07-29,1,,,,,ウエヲムイテサクラ,0
1634,8011001163604,新規,0,2024-07-29,2024-07-29,株式会社Ｋｏｍａｇｏｍｅ　Ｄｅｓｉｇｎ　Ｓｔｕｄｉｏ,,株式会社,東京都,渋谷区,初台２丁目２２番９号,,13,113,1510061,,,,,,,2024-07-29,1,,,,,,0
1635,8011001163620,新規,0,2024-07-29,2024-07-29,ＳＵエステイト株式会社,,株式会社,東京都,渋谷区,広尾２丁目１４番３３号住友不動産広尾グランドヒルズ１０１,,13,113,1500012,,,,,,,2024-07-29,1,,,,,エスユーエステイト,0
1636,8011003019622,新規,0,2024-07-29,2024-07-29,合同会社Ｋ　ｓｕｐｐｏｒｔ,,合同会社,東京都,渋谷区,神泉町１０番１５号,,13,113,1500045,,,,,,,2024-07-29,1,,,,,ケイサポート,0
1650,8011801044532,新規,0,2024-07-29,2024-07-29,株式会社Ｅｎｇｌｉｓｈ‐２１,,株式会社,東京都,葛飾区,奥戸８丁目９番３－１０１号ハウスピープル,,13,122,1240022,,,,,,,2024-07-29,1,,,,,イングリッシュトゥエンティーワン,0
1651,8012801023336,新規,0,2024-07-29,2024-07-29,株式会社ビジネスフードファン,,株式会社,東京都,立川市,錦町１丁目４番４号サニービル２階ＣＳ－９１,,13,202,1900022,,,,,,,2024-07-29,1,,,,,ビジネスフードファン,0
1652,8012801023360,新規,0,2024-07-29,2024-07-29,株式会社ＴＯＰ　ＳＰＩＮ,,株式会社,東京都,国立市,谷保４丁目１１番地の２４レオンドゥクニタチ１０１,,13,215,1860011,,,,,,,2024-07-29,1,,,,,トップスピン,0
1654,8013301052890,新規,0,2024-07-29,2024-07-29,日和創堂製薬株式会社,,株式会社,東京都,豊島区,池袋２丁目６１番８号アゼリア青新ビル１００３室,,13,116,1710014,,,,,,,2024-07-29,1,,,,,ヒヨリソウドウセイヤク,0
1658,8020001158225,新規,0,2024-07-29,2024-07-29,株式会社Ｌａｎａ　Ｇｒａｃｅ,,株式会社,神奈川県,川崎市高津区,溝口１丁目２１番１６号,,14,134,2130001,,,,,,,2024-07-29,1,,,,,ラナグレイス,0
1659,8020001158241,新規,0,2024-07-29,2024-07-29,株式会社ＭＴＨＹＶ,,株式会社,神奈川県,横浜市西区,南幸２丁目１５－１３横浜ビブレ１階,,14,103,2200005,,,,,,,2024-07-29,1,,,,,エムティーエイチワイヴイ,0
1664,8020003026529,新規,0,2024-07-29,2024-07-29,オルゴール合同会社,,合同会社,神奈川県,横浜市中区,山手町１３５番地１３－３０２号室,,14,104,2310862,,,,,,,2024-07-29,1,,,,,オルゴール,0
1675,8030001161590,新規,0,2024-07-29,2024-07-29,株式会社東京絆トレード,,株式会社,埼玉県,入間市,大字南峯１０９５－３０,,11,225,3580046,,,,,,,2024-07-29,1,,,,,トウキョウキズナトレード,0
1676,8030001161632,新規,0,2024-07-29,2024-07-29,株式会社良和会,,株式会社,埼玉県,入間市,下藤沢１丁目３－５,,11,225,3580011,,,,,,,2024-07-29,1,,,,,リョウワカイ,0
1681,8030003024795,新規,0,2024-07-29,2024-07-29,ＦｏｒＭ合同会社,,合同会社,埼玉県,川口市,在家町１４番１２－１０１号エバーグリーンパレス東浦和,,11,203,3330863,,,,,,,2024-07-29,1,,,,,フォーム,0
1689,8040001134728,新規,0,2024-07-29,2024-07-29,株式会社ＰＣアシストデータ,,株式会社,千葉県,山武市,横田９４７番地２,,12,237,2891226,,,,,,,2024-07-29,1,,,,,ピーシーアシストデータ,0
1694,8040003025470,新規,0,2024-07-29,2024-07-29,Ｔ＆Ｃ合同会社,,合同会社,千葉県,千葉市緑区,おゆみ野中央３丁目１番地３４,,12,105,2660032,,,,,,,2024-07-29,1,,,,,ティーアンドシー,0
1697,8050001055155,新規,0,2024-07-29,2024-07-29,株式会社ＣａｒａｄａＰｒｏｔｅｃｔ,,株式会社,茨城県,つくば市,松野木９９－３１,,08,220,3050056,,,,,,,2024-07-29,1,,,,,カラダプロテクト,0
1714,8120001267123,新規,0,2024-07-29,2024-07-29,株式会社ＡＳＯホールディングス,,株式会社,大阪府,大阪市東淀川区,豊里６丁目１０番３号,,27,114,5330013,,,,,,,2024-07-29,1,,,,,アソーホールディングス,0
1715,8120001267131,新規,0,2024-07-29,2024-07-29,株式会社ＴＪＫ,,株式会社,大阪府,大阪市北区,豊崎３丁目２０番１号インターグループビル,,27,127,5310072,,,,,,,2024-07-29,1,,,,,ティージェイケイ,0
1716,8120001267164,新規,0,2024-07-29,2024-07-29,尚和株式会社,,株式会社,大阪府,大阪市東淀川区,西淡路１丁目１番９号ビジネス新大阪２２７,,27,114,5330031,,,,,,,2024-07-29,1,,,,,ショウワ,0
1717,8120001267172,新規,0,2024-07-29,2024-07-29,Ｈａｉｎａ　ｗｅｂ株式会社,,株式会社,大阪府,大阪市北区,梅田１丁目２番２号大阪駅前第２ビル１２－１２,,27,127,5300001,,,,,,,2024-07-29,1,,,,,ハイナウエブ,0
1718,8120003027137,新規,0,2024-07-29,2024-07-29,合同会社サラー,,合同会社,大阪府,大阪市旭区,森小路１丁目１４番２４号長門ハイツ２－３０１号,,27,117,5350013,,,,,,,2024-07-29,1,,,,,サラー,0
1723,8120901049513,新規,0,2024-07-29,2024-07-29,株式会社ＮＤＫ,,株式会社,大阪府,豊中市,岡上の町２丁目３－２４プレジオ豊中７０２号,,27,203,5600023,,,,,,,2024-07-29,1,,,,,エヌディーケー,0
1728,8122005003768,新規,0,2024-07-29,2024-07-29,ＮＰＯ法人八尾市伴林光平翁の会,,その他の設立登記法人,大阪府,八尾市,南本町２丁目３番９号（成法寺会館内）,,27,212,5810081,,,,,,,2024-07-29,1,,,,,ヤオシトモバヤシミツヒラオウノカイ,0
1733,8130001077538,新規,0,2024-07-29,2024-07-29,東陽設備株式会社,,株式会社,京都府,京都市北区,上賀茂西上之段町１９番地１４,,26,101,6038028,,,,,,,2024-07-29,1,,,,,トウヨウセツビ,0
1743,8160005011325,新規,0,2024-07-29,2024-07-29,ＮＬＰ協同組合,,その他の設立登記法人,滋賀県,野洲市,野洲１５４８番地,,25,210,5202342,,,,,,,2024-07-29,1,,,,,エヌエルピー,0
1756,8180001162541,新規,0,2024-07-29,2024-07-29,株式会社Ｅｌｉｔｅｃｈ　Ｊａｐａｎ,,株式会社,愛知県,春日井市,中切町１丁目７番地１号,,23,206,4860925,,,,,,,2024-07-29,1,,,,,エリテックジャパン,0
1766,8190001031506,新規,0,2024-07-29,2024-07-29,縁株式会社,,株式会社,三重県,四日市市,諏訪栄町６番２５‐１１０９号,,24,202,5100086,,,,,,,2024-07-29,1,,,,,エン,0
1767,8190001031514,新規,0,2024-07-29,2024-07-29,株式会社山岸ファーム,,株式会社,三重県,津市,白山町稲垣１１５番地,,24,201,5152616,,,,,,,2024-07-29,1,,,,,ヤマギシファーム,0
1772,8220001026114,新規,0,2024-07-29,2024-07-29,仁大株式会社,,株式会社,石川県,小松市,那谷町サ４２番地１,,17,203,9230336,,,,,,,2024-07-29,1,,,,,ジンダイ,0
1785,8280001009220,新規,0,2024-07-29,2024-07-29,株式会社Ｅｉｇｈｔ　Ｂｅｇｉｎｎｉｎｇ,,株式会社,島根県,出雲市,大社町北荒木１３９３番地１,,32,203,6990722,,,,,,,2024-07-29,1,,,,,エイトビキニング,0
1788,8290001106479,新規,0,2024-07-29,2024-07-29,株式会社７８オフィス,,株式会社,福岡県,福岡市東区,松田２丁目４番１８－６０３号,,40,131,8120064,,,,,,,2024-07-29,1,,,,,セブンエイトオフィス,0
1789,8290005019470,新規,0,2024-07-29,2024-07-29,一般社団法人お店ワーカーズ連合みなみ,,その他の設立登記法人,福岡県,太宰府市,梅ケ丘２丁目１２番１号,,40,221,8180123,,,,,,,2024-07-29,1,,,,,オミセワーカーズレンゴウミナミ,0
1795,8310003004827,新規,0,2024-07-29,2024-07-29,合同会社サポティクス,,合同会社,長崎県,壱岐市,石田町池田仲触７０１番地,,42,210,8115222,,,,,,,2024-07-29,1,,,,,サポティクス,0
1796,8320001020610,新規,0,2024-07-29,2024-07-29,株式会社ＳＴＡＲＴ　ＩＴ　ＵＰ,,株式会社,大分県,大分市,須賀２丁目１７番９号,,44,201,8700244,,,,,,,2024-07-29,1,,,,,スタートイットアップ,0
1804,8360001033988,新規,0,2024-07-29,2024-07-29,株式会社丸三ランドリー,,株式会社,沖縄県,那覇市,泊１丁目２９番４号,,47,201,9000012,,,,,,,2024-07-29,1,,,,,マルサンランドリー,0
1812,8380003005827,新規,0,2024-07-29,2024-07-29,合同会社みらいエナジーワークス,,合同会社,福島県,いわき市,平谷川瀬３丁目６番地１久善ビル２階２３号,,07,204,9708036,,,,,,,2024-07-29,1,,,,,ミライエナジーワークス,0
1818,8410005006596,新規,0,2024-07-29,2024-07-29,特定非営利活動法人秋田県感染対策協議会,,その他の設立登記法人,秋田県,秋田市,本道一丁目１番１号,,05,201,0100000,,,,,,,2024-07-29,1,,,,,アキタケンカンセンタイサクキョウギカイ,0
1823,8430003016587,新規,0,2024-07-29,2024-07-29,合同会社ファームおだ,,合同会社,北海道,石狩郡当別町,字中小屋６２９８番地,,01,303,0610211,,,,,,,2024-07-29,1,,,,,ファームオダ,0
1824,8430003016604,新規,0,2024-07-29,2024-07-29,合同会社Ｔ‐ｆｕｎｋ　ｉｍａｇｉｎａｔｉｏｎ,,合同会社,北海道,札幌市南区,真駒内東町１丁目３番１５号,,01,106,0050011,,,,,,,2024-07-29,1,,,,,ティーファンクイマジネイション,0
1825,8440003001613,新規,0,2024-07-29,2024-07-29,ファースト合同会社,,合同会社,北海道,函館市,昭和２丁目２０番１２号,,01,202,0410812,,,,,,,2024-07-29,1,,,,,ファースト,0
1841,9010001246913,新規,0,2024-07-29,2024-07-29,株式会社三井総合リフォーム,,株式会社,東京都,中央区,銀座１丁目１６番７号銀座大栄ビル５Ｆ,,13,102,1040061,,,,,,,2024-07-29,1,,,,,ミツイソウゴウリフォーム,0
1845,9010003044431,新規,0,2024-07-29,2024-07-29,合同会社Ｒａｎ＆Ｃｏ．,,合同会社,東京都,文京区,小日向１丁目１５番３号,,13,105,1120006,,,,,,,2024-07-29,1,,,,,ランアンドカンパニー,0
1847,9010005038555,新規,0,2024-07-29,2024-07-29,一般社団法人ＬＥＶＥＣＨＹ１８号,,その他の設立登記法人,東京都,千代田区,紀尾井町３－８第２紀尾井町ビル９０１アクシス綜合会計事務所内,,13,101,1020094,,,,,,,2024-07-29,1,,,,,レベチージュウハチゴウ,0
1851,9010401184069,新規,0,2024-07-29,2024-07-29,東名コーポレーション株式会社,,株式会社,東京都,港区,新橋６丁目５番４号,,13,103,1050004,,,,,,,2024-07-29,1,,,,,トウメイコーポレーション,0
1852,9010401184077,新規,0,2024-07-29,2024-07-29,ジェイドリーシング２株式会社,,株式会社,東京都,港区,虎ノ門１丁目２番６号,,13,103,1050001,,,,,,,2024-07-29,1,,,,,ジェイドリーシングツー,0
1853,9010401184085,新規,0,2024-07-29,2024-07-29,株式会社ＨＶＦＣ,,株式会社,東京都,港区,虎ノ門５丁目３番２０号,,13,103,1050001,,,,,,,2024-07-29,1,,,,,エイチブイエフシー,0
1858,9010403033059,新規,0,2024-07-29,2024-07-29,合同会社湘厨匯,,合同会社,東京都,港区,六本木３丁目７－１－２３０１,,13,103,1060032,,,,,,,2024-07-29,1,,,,,ショウチュウカイ,0
1861,9010601065630,新規,0,2024-07-29,2024-07-29,株式会社Ａｃｍｅ　ｏｆ,,株式会社,東京都,江東区,塩浜２丁目５番１－４１８号,,13,108,1350043,,,,,,,2024-07-29,1,,,,,アクミーオブ,0
1862,9010601065647,新規,0,2024-07-29,2024-07-29,ＢＨＬ株式会社,,株式会社,東京都,墨田区,緑１丁目１５－１２－５０６,,13,107,1300021,,,,,,,2024-07-29,1,,,,,ビーエイチエル,0
1867,9010901055703,新規,0,2024-07-29,2024-07-29,株式会社ＮＩＳＴＡグループ,,株式会社,東京都,世田谷区,太子堂４丁目２２番１２号,,13,112,1540004,,,,,,,2024-07-29,1,,,,,ニスタグループ,0
1869,9011001163529,新規,0,2024-07-29,2024-07-29,株式会社ＬＩＮＤＯ,,株式会社,東京都,渋谷区,西原２丁目３４－９,,13,113,1510066,,,,,,,2024-07-29,1,,,,,リンドー,0
1870,9011001163628,新規,0,2024-07-29,2024-07-29,シューニャ株式会社,,株式会社,東京都,渋谷区,道玄坂１丁目１０番８号渋谷道玄坂東急ビル２Ｆ－Ｃ,,13,113,1500043,,,,,,,2024-07-29,1,,,,,シューニャ,0
1871,9011003019662,新規,0,2024-07-29,2024-07-29,Ｍｔｅｃｈ合同会社,,合同会社,東京都,渋谷区,富ヶ谷２丁目９番１５号,,13,113,1510063,,,,,,,2024-07-29,1,,,,,エムテック,0
1877,9011103014621,新規,0,2024-07-29,2024-07-29,合同会社出雲,,合同会社,東京都,新宿区,新宿１丁目３６番２号新宿第七葉山ビル３Ｆ,,13,104,1600022,,,,,,,2024-07-29,1,,,,,イズモ,0
1881,9011301029875,新規,0,2024-07-29,2024-07-29,日本ソコ株式会社,,株式会社,東京都,杉並区,天沼１丁目３２番６号,,13,115,1670032,,,,,,,2024-07-29,1,,,,,,0
1882,9011403004462,新規,0,2024-07-29,2024-07-29,ライフケア奈良町合同会社,,合同会社,東京都,板橋区,前野町４丁目１１番２号,,13,119,1740063,,,,,,,2024-07-29,1,,,,,ライフケアナラチョウ,0
1883,9011601027934,新規,0,2024-07-29,2024-07-29,株式会社ヴィ・プラス,,株式会社,東京都,練馬区,春日町６丁目１３番１３号,,13,120,1790074,,,,,,,2024-07-29,1,,,,,ヴィプラス,0
1884,9011701027470,新規,0,2024-07-29,2024-07-29,ターミナル２４株式会社,,株式会社,東京都,江戸川区,一之江１丁目３番３号１Ｆ,,13,123,1320024,,,,,,,2024-07-29,1,,,,,ターミナルトゥエンティーフォー,0
1908,9020001158232,新規,0,2024-07-29,2024-07-29,株式会社ＡＹＵＳＡ,,株式会社,神奈川県,川崎市中原区,今井南町９番３４号,,14,133,2110064,,,,,,,2024-07-29,1,,,,,アユサ,0
1909,9020001158240,新規,0,2024-07-29,2024-07-29,株式会社あおばコウケン,,株式会社,神奈川県,横浜市青葉区,桜台３６番地４,,14,117,2270061,,,,,,,2024-07-29,1,,,,,アオバコウケン,0
1912,9020003026528,新規,0,2024-07-29,2024-07-29,合同会社ＮＥＬＳＯＮ,,合同会社,神奈川県,横浜市旭区,笹野台３丁目２１番６号,,14,112,2410816,,,,,,,2024-07-29,1,,,,,ネルソン,0
1913,9020003026536,新規,0,2024-07-29,2024-07-29,ワイルドブローカーズ・ジャパン合同会社,,合同会社,神奈川県,横浜市神奈川区,金港町５－１４クアドリフォリオ８階,,14,102,2210056,,,,,,,2024-07-29,1,,,,,ワイルドブローカーズジャパン,0
1914,9020003026544,新規,0,2024-07-29,2024-07-29,合同会社Ｍｅｒｒｙｌａｎｄ,,合同会社,神奈川県,横浜市青葉区,あざみ野南４丁目１９－１４あざみ野南ヒルズＢ２０１,,14,117,2250012,,,,,,,2024-07-29,1,,,,,メリーランド,0
1924,9030003024786,新規,0,2024-07-29,2024-07-29,片桐企画合同会社,,合同会社,埼玉県,所沢市,大字山口３９５番地の１１,,11,208,3591145,,,,,,,2024-07-29,1,,,,,カタギリキカク,0
1925,9030003024794,新規,0,2024-07-29,2024-07-29,東雅商事合同会社,,合同会社,埼玉県,比企郡吉見町,大字御所２２２番地２,,11,347,3550151,,,,,,,2024-07-29,1,,,,,トウガショウジ,0
1929,9040001134677,新規,0,2024-07-29,2024-07-29,株式会社Ｐａｌｏａｌｔｏ　Ｍａｒｋｅｔｉｎｇ＆ＯＤ,,株式会社,千葉県,千葉市美浜区,打瀬３丁目１番地３ブエナテラーサＡ－４０２号,,12,106,2610013,,,,,,,2024-07-29,1,,,,,パルアルトマーケティングアンドオーディー,0
1934,9070003005519,新規,0,2024-07-29,2024-07-29,合同会社奥苑建装,,合同会社,群馬県,吾妻郡嬬恋村,大字鎌原１０４０番地７２８,,10,425,3771524,,,,,,,2024-07-29,1,,,,,,0
1954,9120001267130,新規,0,2024-07-29,2024-07-29,駿河赤座ＨＯＮＧＫＯＮＧ株式会社,,株式会社,大阪府,大阪市中央区,船場中央２丁目２番５号船場センタービル５号館地下一階Ｂ１２９号ＲＯＹＡＬＯＦＦＩＣＥ内,,27,128,5410055,,,,,,,2024-07-29,1,,,,,スルガアカザホンコン,0
1955,9120001267147,新規,0,2024-07-29,2024-07-29,株式会社石橋,,株式会社,大阪府,大阪市西区,北堀江１丁目８番１４号,,27,106,5500014,,,,,,,2024-07-29,1,,,,,イシバシ,0
1956,9120001267155,新規,0,2024-07-29,2024-07-29,羽信株式会社,,株式会社,大阪府,大阪市浪速区,下寺３丁目１－１４エクレール夕陽ケ丘５号２０７室,,27,111,5560001,,,,,,,2024-07-29,1,,,,,ウシン,0
1957,9120003027144,新規,0,2024-07-29,2024-07-29,三田出版合同会社,,合同会社,大阪府,大阪市北区,梅田１丁目２番２号大阪駅前第２ビル１２－１２,,27,127,5300001,,,,,,,2024-07-29,1,,,,,サンダシュッパン,0
1959,9120005024453,新規,0,2024-07-29,2024-07-29,一般社団法人ＶＩＶＡＴＩＭ,,その他の設立登記法人,大阪府,大阪市中央区,久太郎町１丁目６番５号ＭＩＴエクシードビル３Ｆ,,27,128,5410056,,,,,,,2024-07-29,1,,,,,ヴィバティム,0
1965,9130001077545,新規,0,2024-07-29,2024-07-29,株式会社ＮＡＮＣ,,株式会社,京都府,舞鶴市,亀岩町１１５番地,,26,202,6250077,,,,,,,2024-07-29,1,,,,,エヌエーエヌシー,0
1966,9130001077578,新規,0,2024-07-29,2024-07-29,株式会社千成,,株式会社,京都府,京都市南区,西九条南田町１番地４,,26,107,6018441,,,,,,,2024-07-29,1,,,,,センナリ,0
1975,9140001135277,新規,0,2024-07-29,2024-07-29,株式会社Ｌａｎｃｈｅｓｔｅｒ,,株式会社,兵庫県,神戸市東灘区,北青木３丁目２０－２０－４０３,,28,101,6580014,,,,,,,2024-07-29,1,,,,,ランチェスター,0
1980,9140003020857,新規,0,2024-07-29,2024-07-29,アスカ合同会社,,合同会社,兵庫県,加古郡稲美町,印南１０５８番地の２３８,,28,381,6751111,,,,,,,2024-07-29,1,,,,,アスカ,0
1987,9160003003240,新規,0,2024-07-29,2024-07-29,合同会社ＭｏＭｕｐ,,合同会社,滋賀県,守山市,小島町１８１６番地４,,25,207,5240002,,,,,,,2024-07-29,1,,,,,エムオーエムユーピー,0
2010,9220001026121,新規,0,2024-07-29,2024-07-29,株式会社Ｊユーエヌ,,株式会社,石川県,金沢市,百坂町リ３３番地４,,17,201,9203131,,,,,,,2024-07-29,1,,,,,ジェイユーエヌ,0
2011,9220003003804,新規,0,2024-07-29,2024-07-29,合同会社オフィス小泉,,合同会社,石川県,河北郡内灘町,白帆台２丁目１４５番地,,17,365,9200269,,,,,,,2024-07-29,1,,,,,オフィスコイズミ,0
2015,9240001063583,新規,0,2024-07-29,2024-07-29,株式会社ＺＥＡＬＬ,,株式会社,広島県,広島市佐伯区,石内北２丁目３２番３４号,,34,108,7315109,,,,,,,2024-07-29,1,,,,,ジール,0
2018,9260001039284,新規,0,2024-07-29,2024-07-29,株式会社Ｆｌｏａｔｅｒ,,株式会社,岡山県,玉野市,日比１丁目１番３５号,,33,204,7060027,,,,,,,2024-07-29,1,,,,,フローター,0
2027,9290003015561,新規,0,2024-07-29,2024-07-29,合同会社ジンテクノカンパニー,,合同会社,福岡県,小郡市,美鈴が丘２丁目２２番地１５,,40,216,8380101,,,,,,,2024-07-29,1,,,,,ジンテクノカンパニー,0
2032,9310001019124,新規,0,2024-07-29,2024-07-29,株式会社ストラテジーエイド,,株式会社,長崎県,長崎市,柳谷町２４番６号,,42,201,8528046,,,,,,,2024-07-29,1,,,,,ストラテジーエイド,0
2035,9340005009762,新規,0,2024-07-29,2024-07-29,結いワーク宇検村協同組合,,その他の設立登記法人,鹿児島県,大島郡宇検村,大字湯湾９番地１,,46,524,8943301,,,,,,,2024-07-29,1,,,,,ユイワークウケンソン,0
2042,9360001033970,新規,0,2024-07-29,2024-07-29,株式会社助ろく,,株式会社,沖縄県,島尻郡久米島町,字嘉手苅４２３番地１,,47,361,9013121,,,,,,,2024-07-29,1,,,,,スケロク,0
2052,9380003005826,新規,0,2024-07-29,2024-07-29,Ａｇｌｉｆｅ合同会社,,合同会社,福島県,須賀川市,並木町２２３－２０・１階,,07,207,9620836,,,,,,,2024-07-29,1,,,,,アグライフ,0
2053,9410001013892,新規,0,2024-07-29,2024-07-29,株式会社あわせ,,株式会社,秋田県,能代市,字鳥小屋３６番地１,,05,202,0160864,,,,,,,2024-07-29,1,,,,,アワセ,0
2055,9420003002959,新規,0,2024-07-29,2024-07-29,合同会社ＹＪＴ,,合同会社,青森県,弘前市,大字文京町５番地７アパートメントハウスＭＡＴＳＵ‐Ａ号,,02,202,0368224,,,,,,,2024-07-29,1,,,,,ワイジェティ,0
2061,9430001092316,新規,0,2024-07-29,2024-07-29,株式会社コムズホールディングス,,株式会社,北海道,札幌市西区,山の手五条１丁目１番２３号,,01,107,0630005,,,,,,,2024-07-29,1,,,,,コムズホールディングス,0
2062,9430001092324,新規,0,2024-07-29,2024-07-29,株式会社Ｍｕｌｅ,,株式会社,北海道,札幌市南区,真駒内本町３丁目６番１５号,,01,106,0050021,,,,,,,2024-07-29,1,,,,,ミュール,0
2063,9430001092332,新規,0,2024-07-29,2024-07-29,株式会社チームマネジメント,,株式会社,北海道,札幌市東区,北三十五条東２６丁目３番２２号,,01,103,0070835,,,,,,,2024-07-29,1,,,,,チームマネジメント,0
2070,9470001020306,新規,0,2024-07-29,2024-07-29,株式会社トラヴィス,,株式会社,香川県,丸亀市,川西町南甲３４番地２,,37,202,7630092,,,,,,,2024-07-29,1,,,,,トラビス,0
2075,9500001025763,新規,0,2024-07-29,2024-07-29,株式会社サチクル,,株式会社,愛媛県,今治市,中寺７８１番地５,,38,202,7940840,,,,,,,2024-07-29,1,,,,,サチクル,0
