sequenceNumber,corporateNumber,process,correct,updateDate,changeDate,name,nameImageId,kind,prefectureName,cityName,streetNumber,addressImageId,prefectureCode,cityCode,postCode,addressOutside,addressOutsideImageId,closeDate,closeCause,successorCorporateNumber,changeCause,assignmentDate,latest,enName,enPrefectureName,enCityName,enAddressOutside,furigana,hihyoji
10,1010001257232,新規,0,2025-07-30,2025-07-30,株式会社Ｊ’ｓホールディングス,,株式会社,東京都,千代田区,四番町９番地６四番町プラザ６０４号,,13,101,1020081,,,,,,,2025-07-30,1,,,,,ジェイズホールディングス,0
11,1010001257257,新規,0,2025-07-30,2025-07-30,株式会社ドバイ総合研究所ホールディングス,,株式会社,東京都,中央区,銀座１丁目１２番４号Ｎ＆ＥＢＬＤ．６Ｆ,,13,102,1040061,,,,,,,2025-07-30,1,,,,,ドバイソウゴウケンキュウショホールディングス,0
12,1010001257265,新規,0,2025-07-30,2025-07-30,ＦＡ商事株式会社,,株式会社,東京都,中央区,日本橋馬喰町２丁目４番１２－１２０７号,,13,102,1030002,,,,,,,2025-07-30,1,,,,,エフエーショウジ,0
13,1010001257307,新規,0,2025-07-30,2025-07-30,株式会社Ｐｕｂｌｉｃ　Ｐｏｌｉｃｙ　Ｃｏｎｓｕｌｔｉｎｇ,,株式会社,東京都,中央区,勝どき４丁目６－１－５２０７,,13,102,1040054,,,,,,,2025-07-30,1,,,,,パブリックポリシーコンサルティング,0
28,1010401192062,新規,0,2025-07-30,2025-07-30,リンカームス株式会社,,株式会社,東京都,港区,東新橋２丁目７－３昭和アステック１号館,,13,103,1050021,,,,,,,2025-07-30,1,,,,,リンカームス,0
29,1010401192137,新規,0,2025-07-30,2025-07-30,ＳＫＡホールディングス株式会社,,株式会社,東京都,港区,南青山３丁目１番３６号青山丸竹ビル６Ｆ,,13,103,1070062,,,,,,,2025-07-30,1,,,,,エスケーエーホールディングス,0
30,1010401192153,新規,0,2025-07-30,2025-07-30,Ａｘｉｓ　Ｃａｐｉｔａｌ株式会社,,株式会社,東京都,港区,虎ノ門５丁目１１番１号オランダヒルズ森タワーＲｏＰ,,13,103,1050001,,,,,,,2025-07-30,1,,,,,アクシスキャピタル,0
32,1010403035707,新規,0,2025-07-30,2025-07-30,ＧＳＳＧ　Ｃｈｉｋｕｄｅｎ　ＢＥＳＳ２６合同会社,,合同会社,東京都,港区,高輪１丁目３番１３号ＮＢＦ高輪ビル７階,,13,103,1080074,,,,,,,2025-07-30,1,,,,,ジーエスエスジーチクデンビーイーエスエストゥエンティシックス,0
33,1010403035715,新規,0,2025-07-30,2025-07-30,ＮＳＳＫジェンパー４号合同会社,,合同会社,東京都,港区,愛宕２丁目５番１号愛宕グリーンヒルズＭＯＲＩタワー,,13,103,1050002,,,,,,,2025-07-30,1,,,,,エヌエスエスケージェンパーフォー,0
34,1010405024617,新規,0,2025-07-30,2025-07-30,ＧＳＳＧ　Ｃｈｉｋｕｄｅｎ　ＢＥＳＳ２５一般社団法人,,その他の設立登記法人,東京都,港区,赤坂１丁目１１番４４号赤坂インターシティ５階Ｆｏｒｖｉｓ・Ｍａｚａｒｓ・Ｊａｐａｎ株式会社内,,13,103,1070052,,,,,,,2025-07-30,1,,,,,ジーエスエスジーチクデンビーイーエスエストゥエンティファイブ,0
35,1010501054419,新規,0,2025-07-30,2025-07-30,一路発株式会社,,株式会社,東京都,台東区,松が谷２丁目１５番８号浅草Ｋ２ビル２０９号室,,13,106,1110036,,,,,,,2025-07-30,1,,,,,イチロハツ,0
38,1010603011706,新規,0,2025-07-30,2025-07-30,合同会社ジーワーク,,合同会社,東京都,江東区,木場６丁目４番３２－３０６号,,13,108,1350042,,,,,,,2025-07-30,1,,,,,ジーワーク,0
44,1010801036439,新規,0,2025-07-30,2025-07-30,株式会社エスプリア,,株式会社,東京都,大田区,西蒲田６丁目３２番１１号城南信用金庫蓮沼支店３階Ｊ－Ｃｒｅａｔｅ＋,,13,111,1440051,,,,,,,2025-07-30,1,,,,,エスプリア,0
45,1010803005490,新規,0,2025-07-30,2025-07-30,合同会社興村写真事務所,,合同会社,東京都,大田区,西蒲田７丁目６１番１３号,,13,111,1440051,,,,,,,2025-07-30,1,,,,,オキムラシャシンジムショ,0
49,1010901057814,新規,0,2025-07-30,2025-07-30,株式会社ニイド,,株式会社,東京都,世田谷区,三宿１丁目２９番１－３０２号,,13,112,1540005,,,,,,,2025-07-30,1,,,,,ニイド,0
50,1010903010143,新規,0,2025-07-30,2025-07-30,合同会社クインコ,,合同会社,東京都,世田谷区,船橋１丁目３５番２２号,,13,112,1560055,,,,,,,2025-07-30,1,,,,,クインコ,0
60,1011001171084,新規,0,2025-07-30,2025-07-30,株式会社ガチャナウ,,株式会社,東京都,渋谷区,神宮前５丁目２９－７ｇｕａｄｅ３Ｆ,,13,113,1500001,,,,,,,2025-07-30,1,,,,,ガチャナウ,0
62,1011003022079,新規,0,2025-07-30,2025-07-30,合同会社クロノ,,合同会社,東京都,目黒区,東山１丁目１７番２号キャッスル東山４０４,,13,110,1530043,,,,,,,2025-07-30,1,,,,,クロノ,0
65,1011101112368,新規,0,2025-07-30,2025-07-30,株式会社ホースプレイス,,株式会社,東京都,新宿区,富久町１５番１号,,13,104,1620067,,,,,,,2025-07-30,1,,,,,ホースプレイス,0
66,1011101112599,新規,0,2025-07-30,2025-07-30,株式会社ＫＯＮｎｅｃｔ,,株式会社,東京都,新宿区,新小川町６番３６－１１０５号,,13,104,1620814,,,,,,,2025-07-30,1,,,,,コネクト,0
67,1011101112608,新規,0,2025-07-30,2025-07-30,株式会社ＨＵ,,株式会社,東京都,新宿区,西新宿３丁目３番１３号,,13,104,1600023,,,,,,,2025-07-30,1,,,,,エイチユー,0
76,1012403007264,新規,0,2025-07-30,2025-07-30,合同会社ＦＯＲＥ,,合同会社,東京都,三鷹市,牟礼７丁目４番４３号,,13,204,1810002,,,,,,,2025-07-30,1,,,,,フォア,0
79,1012803003805,新規,0,2025-07-30,2025-07-30,合同会社ＣＡＴビジネスサービス,,合同会社,東京都,国立市,西２丁目２９－１６３,,13,215,1860005,,,,,,,2025-07-30,1,,,,,キャットビジネスサービス,0
83,1020001163990,新規,0,2025-07-30,2025-07-30,株式会社Ｄ２,,株式会社,神奈川県,川崎市高津区,末長３丁目６番２３大久保ビル１Ｆ,,14,134,2130013,,,,,,,2025-07-30,1,,,,,ディーツー,0
84,1020001164072,新規,0,2025-07-30,2025-07-30,株式会社人にやさしく,,株式会社,神奈川県,横浜市旭区,中沢１丁目９番５０－５０５号,,14,112,2410814,,,,,,,2025-07-30,1,,,,,ヒトニヤサシク,0
87,1020003028952,新規,0,2025-07-30,2025-07-30,合同会社Ｈｏｒｎ　Ｃｒｅａｔｉｖｅ,,合同会社,神奈川県,川崎市高津区,梶ケ谷２丁目１―９メゾンＴＫ５０１,,14,134,2130015,,,,,,,2025-07-30,1,,,,,ホーンクリエイティブ,0
89,1021001085952,新規,0,2025-07-30,2025-07-30,株式会社エーワイユー,,株式会社,神奈川県,厚木市,岡田４丁目１８番１２号,,14,212,2430021,,,,,,,2025-07-30,1,,,,,エーワイユー,0
90,1021003016336,新規,0,2025-07-30,2025-07-30,合同会社Ｅｎｔｅｒａ,,合同会社,神奈川県,横須賀市,芦名２丁目３０－１０,,14,201,2400104,,,,,,,2025-07-30,1,,,,,エンテラ,0
91,1021003016352,新規,0,2025-07-30,2025-07-30,合同会社ＣＡＳＣＡＤＥ,,合同会社,神奈川県,茅ヶ崎市,浜之郷４４５番地１ベルビュー茅ヶ崎壱番館１０２,,14,207,2530086,,,,,,,2025-07-30,1,,,,,カスケード,0
97,1030001167875,新規,0,2025-07-30,2025-07-30,株式会社Ｃｏｕｒａｇｅ＆Ｂｏｎｄ,,株式会社,埼玉県,久喜市,桜田２丁目２番５－５０９,,11,232,3400203,,,,,,,2025-07-30,1,,,,,カレッジアンドボンド,0
105,1030003027301,新規,0,2025-07-30,2025-07-30,合同会社栗原企画,,合同会社,埼玉県,川越市,大字的場２２８５番地８,,11,201,3501101,,,,,,,2025-07-30,1,,,,,クリバラキカク,0
106,1040001139758,新規,0,2025-07-30,2025-07-30,株式会社福川,,株式会社,千葉県,佐倉市,山王２丁目２７－１５,,12,212,2850807,,,,,,,2025-07-30,1,,,,,フクカワ,0
107,1040001139849,新規,0,2025-07-30,2025-07-30,株式会社ＹＳＢ,,株式会社,千葉県,香取郡多古町,染井１８４番地２バウハウスＩ,00140099,12,347,2892242,,,,,,,2025-07-30,1,,,,,ワイエスビー,0
108,1040003028133,新規,0,2025-07-30,2025-07-30,オフィスワーク合同会社,,合同会社,千葉県,千葉市稲毛区,山王町３１番地１９,,12,103,2630002,,,,,,,2025-07-30,1,,,,,オフィスワーク,0
114,1080001027059,新規,0,2025-07-30,2025-07-30,株式会社Ｇｌｏｂａｌ　Ｐａｒａｄｉｓｅ,,株式会社,静岡県,静岡市清水区,折戸１丁目４番５号,,22,103,4240902,,,,,,,2025-07-30,1,,,,,グローバルパラダイス,0
132,1120001278309,新規,0,2025-07-30,2025-07-30,株式会社ＷＳ,,株式会社,大阪府,大阪市西区,北堀江１丁目１番２１号四ツ橋センタービル８Ｆ,,27,106,5500014,,,,,,,2025-07-30,1,,,,,ダブエス,0
134,1120101072165,新規,0,2025-07-30,2025-07-30,ネクサスアセッツ株式会社,,株式会社,大阪府,貝塚市,橋本５８７番地,,27,208,5970043,,,,,,,2025-07-30,1,,,,,ネクサスアセッツ,0
135,1120101072181,新規,0,2025-07-30,2025-07-30,株式会社ＴＥＭ,,株式会社,大阪府,和泉市,光明台２丁目４５番１０号,,27,219,5941111,,,,,,,2025-07-30,1,,,,,ティーイーエム,0
138,1120901051244,新規,0,2025-07-30,2025-07-30,株式会社ＳＴＣ,,株式会社,大阪府,吹田市,豊津町１２－２６ｓｕｃｃｅｓｓ江坂５０６,,27,205,5640051,,,,,,,2025-07-30,1,,,,,エスティーシー,0
139,1120901051285,新規,0,2025-07-30,2025-07-30,株式会社Ｊａｐａｎエステート,,株式会社,大阪府,茨木市,白川２丁目１３番１６号,,27,211,5670832,,,,,,,2025-07-30,1,,,,,ジャパンエステート,0
140,1120903005784,新規,0,2025-07-30,2025-07-30,合同会社ＪｏｙＢｍ,,合同会社,大阪府,摂津市,鳥飼西１丁目３番２５号２Ｂ,,27,224,5660072,,,,,,,2025-07-30,1,,,,,ジョイビーエム,0
143,1130001080184,新規,0,2025-07-30,2025-07-30,株式会社ロジックスタジオ,,株式会社,京都府,京都市下京区,朱雀宝蔵町４４番地協栄ビル２階京都朱雀スタジオＡＲ－３０７,,26,106,6008846,,,,,,,2025-07-30,1,,,,,ロジックスタジオ,0
144,1130001080250,新規,0,2025-07-30,2025-07-30,株式会社オーテックソリューション,,株式会社,京都府,京都市下京区,朱雀内畑町７－１４,,26,106,6008843,,,,,,,2025-07-30,1,,,,,オーテックソリューション,0
148,1140001139418,新規,0,2025-07-30,2025-07-30,株式会社Ｙａｉｃｈｉ,,株式会社,兵庫県,神戸市中央区,中山手通１丁目１番２号三宮薬品ビル５Ｆ,,28,110,6500004,,,,,,,2025-07-30,1,,,,,ヤイチ,0
149,1140001139426,新規,0,2025-07-30,2025-07-30,株式会社ＦＵＴＡＴＵＫＩ,,株式会社,兵庫県,明石市,大久保町駅前１丁目１３番地の２６水野ビル２階,,28,203,6740058,,,,,,,2025-07-30,1,,,,,フタツキ,0
162,1160003003561,新規,0,2025-07-30,2025-07-30,合同会社Ｆｒｉｅｎｄ　Ｍａｒｔ,,合同会社,滋賀県,草津市,矢橋町１０５番地１カーサ・ソラッツオ壱番館１階Ｆ号室,,25,206,5250066,,,,,,,2025-07-30,1,,,,,フレンドマート,0
169,1180001167935,新規,0,2025-07-30,2025-07-30,株式会社アリーナ,,株式会社,愛知県,一宮市,苅安賀２丁目３番２３号,,23,203,4910933,,,,,,,2025-07-30,1,,,,,アリーナ,0
170,1180001167943,新規,0,2025-07-30,2025-07-30,株式会社光栄,,株式会社,愛知県,春日井市,味美白山町１丁目６番地６,,23,206,4860969,,,,,,,2025-07-30,1,,,,,コウエイ,0
171,1180001167951,新規,0,2025-07-30,2025-07-30,株式会社ＩＮＴＥＲ　ＳＥＣＴＩＯＮ,,株式会社,愛知県,名古屋市千種区,内山３丁目２８番１１号浅野ビル３Ｆ,,23,101,4640075,,,,,,,2025-07-30,1,,,,,インターセクション,0
191,1230003002473,新規,0,2025-07-30,2025-07-30,合同会社洋志,,合同会社,富山県,滑川市,安田２００番地８,,16,206,9360825,,,,,,,2025-07-30,1,,,,,ヒロシ,0
195,1240001065281,新規,0,2025-07-30,2025-07-30,株式会社ツリーブック,,株式会社,広島県,広島市東区,戸坂くるめ木１丁目１４番８号,,34,102,7320008,,,,,,,2025-07-30,1,,,,,ツリーブック,0
198,1240003007331,新規,0,2025-07-30,2025-07-30,合同会社盛漁,,合同会社,広島県,廿日市市,宮内１丁目１２番１２－２０３号,,34,213,7380034,,,,,,,2025-07-30,1,,,,,セイリョウ,0
203,1260003005275,新規,0,2025-07-30,2025-07-30,合同会社ｉｃｅ　ｇｌａｙ,,合同会社,岡山県,高梁市,備中町平川６６１４,,33,209,7160311,,,,,,,2025-07-30,1,,,,,アイスグレイ,0
210,1290001110974,新規,0,2025-07-30,2025-07-30,株式会社ＴａｋｉＴａｋｉ,,株式会社,福岡県,福岡市博多区,博多駅前１丁目２３番２号ＰａｒｋＦｒｏｎｔ博多駅前１丁目５Ｆ－Ｂ,,40,132,8120011,,,,,,,2025-07-30,1,,,,,タキタキ,0
218,1290803005117,新規,0,2025-07-30,2025-07-30,合同会社ＮＥＷＳＴＹＬＥ,,合同会社,福岡県,北九州市八幡東区,荒生田３丁目５番１―６０４号,,40,108,8050015,,,,,,,2025-07-30,1,,,,,ニュースタイル,0
221,1330005010935,新規,0,2025-07-30,2025-07-30,一般社団法人皮膚疾患研究・教育ネットワーク,,その他の設立登記法人,熊本県,熊本市中央区,本荘１丁目１番１号,,43,101,8600811,,,,,,,2025-07-30,1,,,,,ヒフシッカンケンキュウキョウイクネットワーク,0
223,1350001019680,新規,0,2025-07-30,2025-07-30,巡株式会社,,株式会社,宮崎県,児湯郡川南町,大字川南１１２６５番地９,,45,405,8891301,,,,,,,2025-07-30,1,,,,,メグリ,0
225,1360001035553,新規,0,2025-07-30,2025-07-30,株式会社ｈａｂｉｌｉｓ　ｋｉｄｓ,,株式会社,沖縄県,うるま市,字安慶名３１４番地８,,47,213,9042214,,,,,,,2025-07-30,1,,,,,ハビリスキッズ,0
226,1360001035561,新規,0,2025-07-30,2025-07-30,株式会社サイムアシスト,,株式会社,沖縄県,浦添市,当山１丁目５番５号,,47,208,9012104,,,,,,,2025-07-30,1,,,,,サイムアシスト,0
229,1360003015132,新規,0,2025-07-30,2025-07-30,合同会社瑞隆,,合同会社,沖縄県,中頭郡中城村,字北上原４４３番地１,,47,328,9012423,,,,,,,2025-07-30,1,,,,,ズイリュウ,0
241,1450003002699,新規,0,2025-07-30,2025-07-30,合同会社あの屋,,合同会社,北海道,旭川市,七条通８丁目３９番１６号スペースハルニレ２階,,01,204,0700037,,,,,,,2025-07-30,1,,,,,アノヤ,0
242,1460103001732,新規,0,2025-07-30,2025-07-30,合同会社藤正,,合同会社,北海道,足寄郡陸別町,字陸別原野分線６－４,,01,648,0894300,,,,,,,2025-07-30,1,,,,,フジマサ,0
244,1480005007099,新規,0,2025-07-30,2025-07-30,一般社団法人徳島県ラグビーフットボール協会,,その他の設立登記法人,徳島県,徳島市,昭和町８丁目２７番地,,36,201,7700942,,,,,,,2025-07-30,1,,,,,トクシマケンラグビーフットボールキョウカイ,0
248,1700150131580,新規,0,2025-07-30,2025-07-30,Ｄｏｃｕｓｉｇｎ，Ｉｎｃ．,,外国会社等,,,,,,,,２２１　Ｍａｉｎ　Ｓｔｒｅｅｔ，Ｓｕｉｔｅ　８００，Ｓａｎ　Ｆｒａｎｃｉｓｃｏ　ＣＡ　９４１０５，ＵＳＡ,,,,,,2025-07-30,1,,,,,ドキユサインインク,0
251,2010001257108,新規,0,2025-07-30,2025-07-30,ＭＹ　ＡＩ株式会社,,株式会社,東京都,千代田区,平河町１丁目６番１５号ＵＳビル８Ｆ,,13,101,1020093,,,,,,,2025-07-30,1,,,,,マイエーアイ,0
252,2010001257181,新規,0,2025-07-30,2025-07-30,ＷＳＤ　ＪＡＰＡＮ株式会社,,株式会社,東京都,中央区,銀座１丁目１２番４号Ｎ＆ＥＢＬＤ．６Ｆ,,13,102,1040061,,,,,,,2025-07-30,1,,,,,ダブリューエスディージャパン,0
253,2010001257256,新規,0,2025-07-30,2025-07-30,株式会社Ｓａｌｔ　Ｃｒｅｗ,,株式会社,東京都,千代田区,西神田２丁目５番７－７０５号室,,13,101,1010065,,,,,,,2025-07-30,1,,,,,ソルトクルー,0
254,2010001257306,新規,0,2025-07-30,2025-07-30,株式会社Ｗ４Ｐａｒｔｎｅｒｓ,,株式会社,東京都,千代田区,紀尾井町４番１号,,13,101,1020094,,,,,,,2025-07-30,1,,,,,ダブリューフォーパートナーズ,0
257,2010005040451,新規,0,2025-07-30,2025-07-30,一般社団法人ＳＬＡ,,その他の設立登記法人,東京都,千代田区,丸の内１丁目６番１号,,13,101,1000005,,,,,,,2025-07-30,1,,,,,エスエルエー,0
264,2010401191724,新規,0,2025-07-30,2025-07-30,株式会社Ｎｅａｒｌｙ　ｅｑｕａｌ,,株式会社,東京都,港区,北青山１丁目３－１アールキューブ青山３階,,13,103,1070061,,,,,,,2025-07-30,1,,,,,ニアリーイコール,0
265,2010401192094,新規,0,2025-07-30,2025-07-30,株式会社ＯＦＦＩＣＥ楽山人,,株式会社,東京都,港区,六本木６丁目８番１５号第二五月ビル３階２号室,,13,103,1060032,,,,,,,2025-07-30,1,,,,,オフィスラクサンジン,0
266,2010401192144,新規,0,2025-07-30,2025-07-30,ＡＰ　Ｍｅｍｏｒｙ　Ｊａｐａｎ株式会社,,株式会社,東京都,港区,新橋６丁目２１番３号６階,,13,103,1050004,,,,,,,2025-07-30,1,,,,,エーピーメモリージャパン,0
267,2010403035697,新規,0,2025-07-30,2025-07-30,大宇合同会社,,合同会社,東京都,港区,浜松町２丁目２番１５号浜松町ダイヤビル２Ｆ,,13,103,1050013,,,,,,,2025-07-30,1,,,,,ダイウ,0
268,2010403035706,新規,0,2025-07-30,2025-07-30,ＧＳＳＧ　Ｃｈｉｋｕｄｅｎ　ＢＥＳＳ２４合同会社,,合同会社,東京都,港区,高輪１丁目３番１３号ＮＢＦ高輪ビル７階,,13,103,1080074,,,,,,,2025-07-30,1,,,,,ジーエスエスジーチクデンビーイーエスエストゥエンティフォー,0
269,2010403035722,新規,0,2025-07-30,2025-07-30,合同会社ルミエールプロダクション,,合同会社,東京都,港区,北青山１丁目３番１号アールキューブ青山３階,,13,103,1070061,,,,,,,2025-07-30,1,,,,,ルミエールプロダクション,0
270,2010405024616,新規,0,2025-07-30,2025-07-30,ＧＳＳＧ　Ｃｈｉｋｕｄｅｎ　ＢＥＳＳ２４一般社団法人,,その他の設立登記法人,東京都,港区,赤坂１丁目１１番４４号赤坂インターシティ５階Ｆｏｒｖｉｓ・Ｍａｚａｒｓ・Ｊａｐａｎ株式会社内,,13,103,1070052,,,,,,,2025-07-30,1,,,,,ジーエスエスジーチクデンビーイーエスエストゥエンティフォー,0
286,2010603011713,新規,0,2025-07-30,2025-07-30,Ｂｒｉｄｇｅｓ　Ａｂｒｏａｄ　Ｊａｐａｎ合同会社,,合同会社,東京都,江東区,大島７丁目１８―７,,13,108,1360072,,,,,,,2025-07-30,1,,,,,ブリッジズアブロードジャパン,0
288,2010801036438,新規,0,2025-07-30,2025-07-30,株式会社ＡＲＡＩＤＥＮＴ,,株式会社,東京都,大田区,東雪谷３丁目２２番７号,,13,111,1450065,,,,,,,2025-07-30,1,,,,,アライデント,0
293,2011001171083,新規,0,2025-07-30,2025-07-30,Ｚｉｏｎ　Ｐａｒｔｎｅｒｓ株式会社,,株式会社,東京都,目黒区,下目黒１丁目１番地１４号,,13,110,1530064,,,,,,,2025-07-30,1,,,,,ザイオンパートナーズ,0
294,2011001171488,新規,0,2025-07-30,2025-07-30,株式会社ボルティクス,,株式会社,東京都,目黒区,中目黒２丁目８番２２号,,13,110,1530061,,,,,,,2025-07-30,1,,,,,ボルティクス,0
295,2011001171496,新規,0,2025-07-30,2025-07-30,株式会社ジョイ・ヴィア,,株式会社,東京都,渋谷区,代々木１丁目４５番３号ＹＯＹＯＧＩビル４Ｆ,,13,113,1510053,,,,,,,2025-07-30,1,,,,,ジョイヴィア,0
298,2011003021922,新規,0,2025-07-30,2025-07-30,飯山ベース合同会社,,合同会社,東京都,渋谷区,富ヶ谷１丁目１４番１４号３階・４階,,13,113,1510063,,,,,,,2025-07-30,1,,,,,イイヤマベース,0
299,2011003022078,新規,0,2025-07-30,2025-07-30,合同会社ショピラボ,,合同会社,東京都,渋谷区,円山町５番５号Ｎａｖｉ渋谷Ｖ３階,,13,113,1500044,,,,,,,2025-07-30,1,,,,,ショピラボ,0
300,2011003022086,新規,0,2025-07-30,2025-07-30,ヒューマンリンク合同会社,,合同会社,東京都,渋谷区,円山町１６番４号３０５,,13,113,1500044,,,,,,,2025-07-30,1,,,,,ヒューマンリンク,0
303,2011101112565,新規,0,2025-07-30,2025-07-30,永安商事株式会社,,株式会社,東京都,新宿区,百人町１丁目１８番８号大久保カドビルＬｉｎｋＳｐａｃｅ百人町Ｂ０５,,13,104,1690073,,,,,,,2025-07-30,1,,,,,エイアンショウジ,0
307,2011201026525,新規,0,2025-07-30,2025-07-30,ＳＯＤＶＩＡ株式会社,,株式会社,東京都,中野区,本町６丁目２０番１２号,,13,114,1640012,,,,,,,2025-07-30,1,,,,,エスオーディービア,0
310,2011303005641,新規,0,2025-07-30,2025-07-30,合同会社すぎもとようへい,,合同会社,東京都,杉並区,高井戸東３丁目３３番１９―４０２号モナーク浜田山,,13,115,1680072,,,,,,,2025-07-30,1,,,,,スギモトヨウヘイ,0
312,2011501032339,新規,0,2025-07-30,2025-07-30,株式会社Ｈｏｒｉｚｏｎ　Ｃｒｅａｔｉｏｎｓ,,株式会社,東京都,北区,上十条４丁目８－５,,13,117,1140034,,,,,,,2025-07-30,1,,,,,ホライゾンクリエーションズ,0
314,2011601028815,新規,0,2025-07-30,2025-07-30,日本千村采日株式会社,,株式会社,東京都,練馬区,関町北５丁目１３－２５－１階１－Ｈ室,,13,120,1770051,,,,,,,2025-07-30,1,,,,,ニホンセンソンサイヒ,0
315,2011603004780,新規,0,2025-07-30,2025-07-30,ＫＡＬＡＳＨ合同会社,,合同会社,東京都,練馬区,石神井町１丁目１番５０－４０３号,,13,120,1770041,,,,,,,2025-07-30,1,,,,,カラッシュ,0
325,2012803003812,新規,0,2025-07-30,2025-07-30,Ｔａｉｇｉ　ＡＩ　Ｌａｂｓ合同会社,,合同会社,東京都,立川市,若葉町２丁目３９番地の１４,,13,202,1900001,,,,,,,2025-07-30,1,,,,,タイギーエーアイラボズ,0
337,2020001163998,新規,0,2025-07-30,2025-07-30,株式会社神奈川プラスチック,,株式会社,神奈川県,横浜市保土ケ谷区,岩間町２丁目１０９番地２,,14,106,2400004,,,,,,,2025-07-30,1,,,,,カナガワプラスチック,0
340,2021001085935,新規,0,2025-07-30,2025-07-30,株式会社落合林業,,株式会社,神奈川県,相模原市緑区,橋本７丁目１２番１９－４０４号,,14,151,2520143,,,,,,,2025-07-30,1,,,,,オチアイリンギョウ,0
341,2021001085943,新規,0,2025-07-30,2025-07-30,株式会社湘南ＯＧＩＫＵＢＯ　ＦＡＲＭ,,株式会社,神奈川県,大和市,深見６９６番地,,14,213,2420011,,,,,,,2025-07-30,1,,,,,ショウナンオギクボファーム,0
342,2021001085951,新規,0,2025-07-30,2025-07-30,株式会社おかだや,,株式会社,神奈川県,横須賀市,久里浜５丁目１３番１６号タウンビル４Ｆ,,14,201,2390831,,,,,,,2025-07-30,1,,,,,オカダヤ,0
351,2030001167841,新規,0,2025-07-30,2025-07-30,株式会社リアンテ,,株式会社,埼玉県,入間市,宮寺２９２５番地２９５,,11,225,3580014,,,,,,,2025-07-30,1,,,,,リアンテ,0
352,2030001167858,新規,0,2025-07-30,2025-07-30,ニシエレ株式会社,,株式会社,埼玉県,越谷市,神明町２丁目３１３番地１２,,11,222,3430805,,,,,,,2025-07-30,1,,,,,ニシエレ,0
353,2030001167874,新規,0,2025-07-30,2025-07-30,株式会社Ｈ＆Ｍ‐ＳＴＹＬＥ,,株式会社,埼玉県,越谷市,大字下間久里１１４８番地１越谷スカイハイツＢ－５１６,,11,222,3430045,,,,,,,2025-07-30,1,,,,,エイチアンドエムスタイル,0
354,2030001167882,新規,0,2025-07-30,2025-07-30,株式会社レオナ,,株式会社,埼玉県,新座市,東北１丁目６番６号,,11,230,3520001,,,,,,,2025-07-30,1,,,,,レオナ,0
355,2030001167890,新規,0,2025-07-30,2025-07-30,株式会社ＣＴＹ,,株式会社,埼玉県,東松山市,大字石橋５１２番地３,,11,212,3550072,,,,,,,2025-07-30,1,,,,,シーティーワイ,0
364,2030003027275,新規,0,2025-07-30,2025-07-30,合同会社アドワン,,合同会社,埼玉県,さいたま市桜区,田島５丁目９－１０－４０３,,11,106,3380837,,,,,,,2025-07-30,1,,,,,アドワン,0
365,2030003027291,新規,0,2025-07-30,2025-07-30,Ｓｅｃｏｎｄ　Ｗａｖｅ合同会社,,合同会社,埼玉県,深谷市,秋元町５７番地,,11,218,3660053,,,,,,,2025-07-30,1,,,,,セカンドウェーブ,0
366,2030003027300,新規,0,2025-07-30,2025-07-30,合同会社桜ふじ,,合同会社,埼玉県,さいたま市南区,沼影１丁目８番１－１６１８号,,11,108,3360027,,,,,,,2025-07-30,1,,,,,サクラフジ,0
367,2040001139848,新規,0,2025-07-30,2025-07-30,株式会社メディカルパートナー,,株式会社,千葉県,松戸市,本町１７－１１芹澤ビル６Ｆ,,12,207,2710091,,,,,,,2025-07-30,1,,,,,メディカルパートナー,0
368,2040003027852,新規,0,2025-07-30,2025-07-30,合同会社ＴｏｒｅＭｏｃｋ,,合同会社,千葉県,船橋市,薬円台６丁目８番２号,,12,204,2740077,,,,,,,2025-07-30,1,,,,,トレモック,0
369,2040003028132,新規,0,2025-07-30,2025-07-30,合同会社アズベーグル,,合同会社,千葉県,鎌ケ谷市,初富本町１丁目１６番１２号,,12,224,2730125,,,,,,,2025-07-30,1,,,,,アズベーグル,0
370,2050001056992,新規,0,2025-07-30,2025-07-30,まちつなぎ株式会社,,株式会社,茨城県,つくば市,竹園２丁目１０－１４－１０５,,08,220,3050032,,,,,,,2025-07-30,1,,,,,マチツナギ,0
371,2050001057000,新規,0,2025-07-30,2025-07-30,偉隆商事株式会社,,株式会社,茨城県,常総市,菅生町字古谷３２５３番５,,08,211,3030044,,,,,,,2025-07-30,1,,,,,イタカショウジ,0
372,2050001057025,新規,0,2025-07-30,2025-07-30,株式会社エス・コンサルティング,,株式会社,茨城県,水戸市,東前１丁目３１４番地,,08,201,3111136,,,,,,,2025-07-30,1,,,,,エスコンサルティング,0
374,2050003009445,新規,0,2025-07-30,2025-07-30,ＤＡＳＡＭ合同会社,,合同会社,茨城県,牛久市,中央４丁目２－１５柏田ビルＣ号,,08,219,3001234,,,,,,,2025-07-30,1,,,,,ダサム,0
392,2120001277854,新規,0,2025-07-30,2025-07-30,株式会社ＳｗｉＭｅ,,株式会社,大阪府,大阪市北区,梅田１丁目１３－１大阪梅田ツインタワーズ・サウス１５Ｆ,,27,127,5300001,,,,,,,2025-07-30,1,,,,,スイミー,0
393,2120001278200,新規,0,2025-07-30,2025-07-30,株式会社ＤＯＥ　ＤＡＹ　ＴＨＡ,,株式会社,大阪府,大阪市住吉区,苅田８丁目１１－２０大平ビル１０３号室,,27,120,5580011,,,,,,,2025-07-30,1,,,,,ドッデタ,0
394,2120001278282,新規,0,2025-07-30,2025-07-30,株式会社ＪＴＥＣ,,株式会社,大阪府,大阪市西区,立売堀１丁目７番１８号,,27,106,5500012,,,,,,,2025-07-30,1,,,,,ジェイテック,0
399,2120003030006,新規,0,2025-07-30,2025-07-30,夢咲花７合同会社,,合同会社,大阪府,大阪市城東区,放出西２丁目２０番１０－４０３号,,27,118,5360011,,,,,,,2025-07-30,1,,,,,ユメサラセブン,0
400,2120005025061,新規,0,2025-07-30,2025-07-30,特定非営利活動法人医看工芸,,その他の設立登記法人,大阪府,大阪市旭区,大宮５丁目１６番１号大阪工業大学知的財産学部内,,27,117,5350002,,,,,,,2025-07-30,1,,,,,イカンコウゲイ,0
405,2130001080183,新規,0,2025-07-30,2025-07-30,亮光藝藏株式会社,,株式会社,京都府,京都市左京区,下鴨下川原町４６番地６５,,26,103,6060803,,,,,,,2025-07-30,1,,,,,ヒゲイゾウ,0
407,2130005017413,新規,0,2025-07-30,2025-07-30,一般社団法人京都祇園,,その他の設立登記法人,京都府,京都市北区,紫野下鳥田町２５番地２パン・クリニックス紫野館５０１,,26,101,6038175,,,,,,,2025-07-30,1,,,,,キョウトギオン,0
411,2140001139425,新規,0,2025-07-30,2025-07-30,アルム株式会社,,株式会社,兵庫県,神戸市長田区,御屋敷通５丁目５番１０－２０６号,,28,106,6530843,,,,,,,2025-07-30,1,,,,,アルム,0
412,2140001139441,新規,0,2025-07-30,2025-07-30,株式会社ＭＫＲ,,株式会社,兵庫県,姫路市,飾磨区野田町１２７番地高田姫路南ビル５階,,28,201,6728040,,,,,,,2025-07-30,1,,,,,エムケーアール,0
413,2140001139490,新規,0,2025-07-30,2025-07-30,ＳＥＡ＆ＭＯＵＮＴＡＩＮ株式会社,,株式会社,兵庫県,神戸市東灘区,御影山手２丁目１９番１５号,,28,101,6580065,,,,,,,2025-07-30,1,,,,,シーアンドマウンテン,0
415,2140003022348,新規,0,2025-07-30,2025-07-30,Ｂ‐Ｅｆｆｅｃｔｏｒ合同会社,,合同会社,兵庫県,神戸市中央区,熊内町７丁目６番１号ジークレフ新神戸タワー２９０１号室,,28,110,6510056,,,,,,,2025-07-30,1,,,,,ビーエフェクター,0
416,2150001028296,新規,0,2025-07-30,2025-07-30,株式会社Ｗｉｔｈｌｙ,,株式会社,奈良県,生駒市,辻町７４２番地ジュネス１０３,00140111,29,209,6300212,,,,,,,2025-07-30,1,,,,,ウィズリィ,0
417,2160001026943,新規,0,2025-07-30,2025-07-30,株式会社ＳＣＥＬＴＡ,,株式会社,滋賀県,彦根市,鳥居本町４５５番地１,,25,202,5220004,,,,,,,2025-07-30,1,,,,,シェルタ,0
418,2160001026951,新規,0,2025-07-30,2025-07-30,株式会社ジェイスターズ,,株式会社,滋賀県,近江八幡市,土田町１３２５番地１,,25,204,5230082,,,,,,,2025-07-30,1,,,,,ジェイスターズ,0
424,2180001167942,新規,0,2025-07-30,2025-07-30,株式会社オフィス山白,,株式会社,愛知県,名古屋市西区,花原町９５番地,,23,104,4520809,,,,,,,2025-07-30,1,,,,,オフィスヤマシロ,0
435,2210001020255,新規,0,2025-07-30,2025-07-30,株式会社くわばらだいあ,,株式会社,福井県,福井市,城東１丁目１３番１３号,,18,201,9100853,,,,,,,2025-07-30,1,,,,,クワバラダイア,0
438,2230001021012,新規,0,2025-07-30,2025-07-30,株式会社Ｈａｔｓｕｈａｎａ,,株式会社,富山県,射水市,三ケ２６７７番地１Ｓａｋｕｒａ３０３,,16,211,9390341,,,,,,,2025-07-30,1,,,,,ハツハナ,0
439,2230003002472,新規,0,2025-07-30,2025-07-30,Ｃａｌｍｅ合同会社,,合同会社,富山県,富山市,八尾町下牧３４２番地,,16,201,9392417,,,,,,,2025-07-30,1,,,,,カルム,0
442,2240003007330,新規,0,2025-07-30,2025-07-30,Ｎ・Ｋ会計合同会社,,合同会社,広島県,福山市,松浜町２丁目２番７号松本ビル,,34,207,7200802,,,,,,,2025-07-30,1,,,,,エヌケイカイケイ,0
452,2290001110890,新規,0,2025-07-30,2025-07-30,株式会社つな技,,株式会社,福岡県,福岡市中央区,大名２丁目６－１１,,40,133,8100041,,,,,,,2025-07-30,1,,,,,ツナギ,0
453,2290001110899,新規,0,2025-07-30,2025-07-30,馬場不動産株式会社,,株式会社,福岡県,福岡市博多区,麦野６丁目１８番１１号,,40,132,8120882,,,,,,,2025-07-30,1,,,,,ババフドウサン,0
462,2330001033443,新規,0,2025-07-30,2025-07-30,株式会社ｍｏｍｏｔａｒｏ,,株式会社,熊本県,熊本市中央区,南坪井町５番２１号,,43,101,8600848,,,,,,,2025-07-30,1,,,,,モモタロウ,0
468,2360001035536,新規,0,2025-07-30,2025-07-30,Ｌｅ　Ｆｌｅｕｖｅ株式会社,,株式会社,沖縄県,中頭郡北中城村,字ライカム４００ベアーズコートライカムサンヒルズ２０１,,47,327,9012306,,,,,,,2025-07-30,1,,,,,ルフルーヴ,0
469,2360001035544,新規,0,2025-07-30,2025-07-30,株式会社ＧＬＯＯＶＹ　ＨＯＵＳＥ,,株式会社,沖縄県,那覇市,牧志２丁目１７－２７－４０１号室,,47,201,9000013,,,,,,,2025-07-30,1,,,,,グルービーハウス,0
471,2360003015123,新規,0,2025-07-30,2025-07-30,合同会社ＨＡＫＯ　ＴＲＡＶＥＬ,,合同会社,沖縄県,那覇市,牧志２丁目１７番２７号４０１号室,,47,201,9000013,,,,,,,2025-07-30,1,,,,,ハコトラベル,0
472,2360003015131,新規,0,2025-07-30,2025-07-30,プルメリアｓｅｎ合同会社,,合同会社,沖縄県,中頭郡中城村,字登又１３８３番地１４,,47,328,9012421,,,,,,,2025-07-30,1,,,,,プルメリアセン,0
477,2380001035484,新規,0,2025-07-30,2025-07-30,株式会社リンクス不動産,,株式会社,福島県,郡山市,久留米６丁目７６番地大山ビル２０２,,07,203,9638846,,,,,,,2025-07-30,1,,,,,リンクスフドウサン,0
497,3010001257164,新規,0,2025-07-30,2025-07-30,カロンＪグループホールディングス株式会社,,株式会社,東京都,千代田区,霞が関３丁目２番５号,,13,101,1000013,,,,,,,2025-07-30,1,,,,,カロンジェイグループホールディングス,0
498,3010001257255,新規,0,2025-07-30,2025-07-30,株式会社輝月,,株式会社,東京都,中央区,銀座１丁目２２番１１号銀座大竹ビジデンス２階,,13,102,1040061,,,,,,,2025-07-30,1,,,,,キヅキ,0
499,3010001257296,新規,0,2025-07-30,2025-07-30,北関東輸送ホールディング株式会社,,株式会社,東京都,千代田区,大手町１丁目９番２号大手町フィナンシャルシティグランキューブ１９階,,13,101,1000004,,,,,,,2025-07-30,1,,,,,キタカントウユソウホールディング,0
500,3010003048173,新規,0,2025-07-30,2025-07-30,森空バイオリファイナリー合同会社,,合同会社,東京都,千代田区,神田駿河台４丁目６番地,,13,101,1010062,,,,,,,2025-07-30,1,,,,,モリソラバイオリファイナリー,0
503,3010401191995,新規,0,2025-07-30,2025-07-30,株式会社アーベイン,,株式会社,東京都,港区,高輪４丁目２３番６号ハイホーム高輪７０８,,13,103,1080074,,,,,,,2025-07-30,1,,,,,アーベイン,0
504,3010401192102,新規,0,2025-07-30,2025-07-30,Ｗｅｌｌｂｒｅｘａ株式会社,,株式会社,東京都,港区,海岸３丁目１８番２号ピアシティ芝浦ハイツ１６０７,,13,103,1080022,,,,,,,2025-07-30,1,,,,,ウェルブレクサ,0
505,3010401192143,新規,0,2025-07-30,2025-07-30,株式会社ＡＮＮＩＶＥＬ,,株式会社,東京都,港区,南青山２丁目４番１１号,,13,103,1070062,,,,,,,2025-07-30,1,,,,,アニヴェル,0
507,3010403035705,新規,0,2025-07-30,2025-07-30,ＧＳＳＧ　Ｃｈｉｋｕｄｅｎ　ＢＥＳＳ２９合同会社,,合同会社,東京都,港区,高輪１丁目３番１３号ＮＢＦ高輪ビル７階,,13,103,1080074,,,,,,,2025-07-30,1,,,,,ジーエスエスジーチクデンビーイーエスエストゥエンティナイン,0
508,3010405024615,新規,0,2025-07-30,2025-07-30,ＧＳＳＧ　Ｃｈｉｋｕｄｅｎ　ＢＥＳＳ２３一般社団法人,,その他の設立登記法人,東京都,港区,赤坂１丁目１１番４４号赤坂インターシティ５階Ｆｏｒｖｉｓ・Ｍａｚａｒｓ・Ｊａｐａｎ株式会社内,,13,103,1070052,,,,,,,2025-07-30,1,,,,,ジーエスエスジーチクデンビーイーエスエストゥエンティスリー,0
518,3011001171090,新規,0,2025-07-30,2025-07-30,株式会社新来,,株式会社,東京都,渋谷区,円山町５番３号ＭＩＥＵＸ渋谷ビル８階,,13,113,1500044,,,,,,,2025-07-30,1,,,,,シンライ,0
524,3011501032370,新規,0,2025-07-30,2025-07-30,恒創商事株式会社,,株式会社,東京都,荒川区,荒川１丁目４４番１５－１１０７号,,13,118,1160002,,,,,,,2025-07-30,1,,,,,コウソウショウジ,0
527,3011701028573,新規,0,2025-07-30,2025-07-30,株式会社ｉｒｉｅｓｔａｒ,,株式会社,東京都,江戸川区,江戸川１丁目１０番１９号,,13,123,1320013,,,,,,,2025-07-30,1,,,,,イリエスター,0
528,3011705001907,新規,0,2025-07-30,2025-07-30,一般社団法人承文啓韻,,その他の設立登記法人,東京都,江戸川区,東葛西５丁目１２番１２－１４０４号,,13,123,1340084,,,,,,,2025-07-30,1,,,,,ショウブンケイイン,0
534,3012803003803,新規,0,2025-07-30,2025-07-30,フィフスビーンズ合同会社,,合同会社,東京都,国分寺市,富士本１丁目２１番地１８,,13,214,1850031,,,,,,,2025-07-30,1,,,,,フィフスビーンズ,0
540,3020001164021,新規,0,2025-07-30,2025-07-30,株式会社レッドコネクト,,株式会社,神奈川県,川崎市川崎区,小田４丁目３５番６－２号ユナイト小田ケニーロバーツ２０６,,14,131,2100846,,,,,,,2025-07-30,1,,,,,レッドコネクト,0
541,3020001164038,新規,0,2025-07-30,2025-07-30,ニジカラ株式会社,,株式会社,神奈川県,川崎市中原区,今井仲町１２番２９－１０６号コスモ武蔵小杉ラフィネ,,14,133,2110065,,,,,,,2025-07-30,1,,,,,ニジカラ,0
544,3020003029065,新規,0,2025-07-30,2025-07-30,合同会社クイック・アンド・アウト,,合同会社,神奈川県,川崎市宮前区,南野川１丁目３２番２２－２０３号,,14,136,2160042,,,,,,,2025-07-30,1,,,,,クイックアンドアウト,0
546,3021001085934,新規,0,2025-07-30,2025-07-30,株式会社ホームプラス,,株式会社,神奈川県,足柄下郡箱根町,強羅１３００番地の１６９強羅スカイヴィラ２１１号,,14,382,2500408,,,,,,,2025-07-30,1,,,,,ホームプラス,0
547,3021001085950,新規,0,2025-07-30,2025-07-30,株式会社三弓,,株式会社,神奈川県,小田原市,多古３７２番地,,14,206,2500054,,,,,,,2025-07-30,1,,,,,サンキュウ,0
552,3021003016350,新規,0,2025-07-30,2025-07-30,合同会社コジニャ,,合同会社,神奈川県,藤沢市,鵠沼松が岡５丁目１３番１８号,,14,205,2510038,,,,,,,2025-07-30,1,,,,,コジニャ,0
553,3021003016359,新規,0,2025-07-30,2025-07-30,合同会社Ｅｓｐｅｒａｎｚａ,,合同会社,神奈川県,藤沢市,羽鳥５丁目５番３５号セゾンドルフ椿１０４,,14,205,2510056,,,,,,,2025-07-30,1,,,,,エスペランサ,0
554,3021005013412,新規,0,2025-07-30,2025-07-30,社会福祉法人正笑会,,その他の設立登記法人,神奈川県,海老名市,河原口６丁目１１番,,14,215,2430433,,,,,,,2025-07-30,1,,,,,セイショカイ,0
559,3030001167849,新規,0,2025-07-30,2025-07-30,株式会社プロップ,,株式会社,埼玉県,さいたま市浦和区,高砂２丁目１３番１９号,,11,107,3300063,,,,,,,2025-07-30,1,,,,,プロップ,0
560,3030001167857,新規,0,2025-07-30,2025-07-30,株式会社マッスルクエスト,,株式会社,埼玉県,所沢市,緑町３丁目３９番７号,,11,208,3591111,,,,,,,2025-07-30,1,,,,,マッスルクエスト,0
561,3030001167873,新規,0,2025-07-30,2025-07-30,株式会社オフ・バランス,,株式会社,埼玉県,所沢市,三ケ島５丁目８０４番地の５,,11,208,3591164,,,,,,,2025-07-30,1,,,,,オフバランス,0
562,3030001167881,新規,0,2025-07-30,2025-07-30,株式会社ＴＤＫＡ,,株式会社,埼玉県,新座市,畑中１丁目７番３号,,11,230,3520012,,,,,,,2025-07-30,1,,,,,ティーディーケーエー,0
563,3030001167898,新規,0,2025-07-30,2025-07-30,株式会社ビューティーリンク,,株式会社,埼玉県,越谷市,七左町５丁目１０６番地２,,11,222,3430851,,,,,,,2025-07-30,1,,,,,ビューティーリンク,0
568,3030003027209,新規,0,2025-07-30,2025-07-30,ＹＡＨＡＴＡ合同会社,,合同会社,埼玉県,草加市,中根１丁目８‐２０,,11,221,3400005,,,,,,,2025-07-30,1,,,,,ヤハタ,0
569,3030003027266,新規,0,2025-07-30,2025-07-30,Ａ．ＲＩＳＡテクノロジー合同会社,,合同会社,埼玉県,川口市,大字赤山１１９４－９,,11,203,3330825,,,,,,,2025-07-30,1,,,,,アリサテクノロジー,0
570,3030003027290,新規,0,2025-07-30,2025-07-30,Ｉ‐Ｆｉｄｅｓ合同会社,,合同会社,埼玉県,朝霞市,岡２丁目４番３０－２０５号,,11,227,3510007,,,,,,,2025-07-30,1,,,,,アイフィデス,0
571,3030003027299,新規,0,2025-07-30,2025-07-30,合同会社ＡＫＩＲＡ　ＣＯＮＮＥＣＴ,,合同会社,埼玉県,熊谷市,新堀８１２番地６,,11,202,3600841,,,,,,,2025-07-30,1,,,,,アキラコネクト,0
572,3030003027308,新規,0,2025-07-30,2025-07-30,羽辰合同会社,,合同会社,埼玉県,川口市,西川口６丁目４番６号,,11,203,3320021,,,,,,,2025-07-30,1,,,,,ウシン,0
576,3040001139855,新規,0,2025-07-30,2025-07-30,株式会社Ｔ．Ｙ,,株式会社,千葉県,千葉市中央区,本千葉町４番７号水島ビル,,12,101,2600014,,,,,,,2025-07-30,1,,,,,ティーワイ,0
578,3040003028131,新規,0,2025-07-30,2025-07-30,合同会社ＣａｒｅｅｒＰａｔｈ,,合同会社,千葉県,柏市,高田１０８５番地３レオパレスオークトゥリーズ２１０号,,12,217,2770861,,,,,,,2025-07-30,1,,,,,キャリアパス,0
580,3050003009460,新規,0,2025-07-30,2025-07-30,Ｍ＆Ｔ合同会社,,合同会社,茨城県,かすみがうら市,稲吉東４丁目１１番２１号,,08,230,3150053,,,,,,,2025-07-30,1,,,,,エムアンドティー,0
598,3100001038811,新規,0,2025-07-30,2025-07-30,株式会社リフテラ,,株式会社,長野県,北安曇郡白馬村,大字北城７０１４番地３,,20,485,3999301,,,,,,,2025-07-30,1,,,,,リフテラ,0
605,3120001278298,新規,0,2025-07-30,2025-07-30,株式会社リアン・エル,,株式会社,大阪府,大阪市阿倍野区,西田辺町１丁目１７番１号帝塚山クレバービルＩＩ２０１号,00140103,27,119,5450014,,,,,,,2025-07-30,1,,,,,リアンエル,0
606,3120001278307,新規,0,2025-07-30,2025-07-30,株式会社Ｍａｋｏｔｏｐｉａ,,株式会社,大阪府,大阪市天王寺区,寺田町２丁目４番１２号塩川ビル３０２号,,27,109,5430045,,,,,,,2025-07-30,1,,,,,マコトピア,0
607,3120001278348,新規,0,2025-07-30,2025-07-30,株式会社ＡＲＫ５,,株式会社,大阪府,大阪市中央区,宗右衛門町４番５号宗衛門町センター５階,,27,128,5420084,,,,,,,2025-07-30,1,,,,,アークファイブ,0
608,3120003030038,新規,0,2025-07-30,2025-07-30,合同会社神谷田仲技術研究所,,合同会社,大阪府,大阪市東住吉区,公園南矢田４丁目１０番３号グリーンハイム公園南Ｄ４１号,,27,121,5460024,,,,,,,2025-07-30,1,,,,,カミタニタナカギジュツケンキュウショ,0
609,3120003030145,新規,0,2025-07-30,2025-07-30,Ｂａｓｅ　ＡＤ合同会社,,合同会社,大阪府,大阪市北区,梅田１丁目１－３大阪駅前第３ビル２９階１－１－１号室,,27,127,5300001,,,,,,,2025-07-30,1,,,,,ベースアド,0
611,3120101072188,新規,0,2025-07-30,2025-07-30,株式会社Ｒｉｖａ,,株式会社,大阪府,貝塚市,脇浜２丁目８－１５,,27,208,5970073,,,,,,,2025-07-30,1,,,,,リーヴァ,0
614,3130001080182,新規,0,2025-07-30,2025-07-30,株式会社桜郷,,株式会社,京都府,京都市伏見区,桃山長岡越中北町３４番地２,,26,109,6120056,,,,,,,2025-07-30,1,,,,,オウキョウ,0
626,3140001139440,新規,0,2025-07-30,2025-07-30,株式会社ＫＯＨＯトラスト,,株式会社,兵庫県,尼崎市,杭瀬本町２丁目１６番１７号,,28,202,6600814,,,,,,,2025-07-30,1,,,,,コーホートラスト,0
627,3140003022297,新規,0,2025-07-30,2025-07-30,合同会社ＭＸＦ,,合同会社,兵庫県,神戸市東灘区,田中町１丁目９番１０号４Ｆ,,28,101,6580081,,,,,,,2025-07-30,1,,,,,エムエックスエフ,0
628,3140003022347,新規,0,2025-07-30,2025-07-30,合同会社いこい,,合同会社,兵庫県,川辺郡猪名川町,旭ヶ丘１番地２８５,,28,301,6660212,,,,,,,2025-07-30,1,,,,,イコイ,0
631,3160001026942,新規,0,2025-07-30,2025-07-30,株式会社７アーク,,株式会社,滋賀県,長浜市,東上坂町１１３３番地,,25,203,5260802,,,,,,,2025-07-30,1,,,,,セブンアーク,0
634,3160003003551,新規,0,2025-07-30,2025-07-30,合同会社ＴＨＥ　ＰＡＲＴＮＥＲＳ,,合同会社,滋賀県,長浜市,神照町９７４－６,,25,203,5260015,,,,,,,2025-07-30,1,,,,,ザパートナーズ,0
635,3160005011429,新規,0,2025-07-30,2025-07-30,伊吹在来そば振興協同組合,,その他の設立登記法人,滋賀県,米原市,伊吹６２１番地,,25,214,5210311,,,,,,,2025-07-30,1,,,,,イブキザイライソバシンコウ,0
639,3180001167685,新規,0,2025-07-30,2025-07-30,株式会社リコ,,株式会社,愛知県,名古屋市中村区,二ツ橋町１丁目４３番地,,23,105,4530813,,,,,,,2025-07-30,1,,,,,リコ,0
640,3180001167958,新規,0,2025-07-30,2025-07-30,株式会社Ｆｕｋｕｉ　Ｒｏｏｆ,,株式会社,愛知県,津島市,江東町３丁目１８７番地１,,23,208,4960855,,,,,,,2025-07-30,1,,,,,フクイルーフ,0
646,3180003028794,新規,0,2025-07-30,2025-07-30,スキルの森合同会社,,合同会社,愛知県,名古屋市中村区,高道町６丁目１番１４号（パストラルカーサ３０２号）,,23,105,4530037,,,,,,,2025-07-30,1,,,,,スキルノモリ,0
653,3210001020254,新規,0,2025-07-30,2025-07-30,ｖｉｓｉｏｎ株式会社,,株式会社,福井県,福井市,上野本町４丁目２００６番地,,18,201,9100134,,,,,,,2025-07-30,1,,,,,ビジョン,0
658,3240001065288,新規,0,2025-07-30,2025-07-30,株式会社新清,,株式会社,広島県,福山市,駅家町大字江良２８９番地６,,34,207,7201141,,,,,,,2025-07-30,1,,,,,シンセイ,0
664,3290001110964,新規,0,2025-07-30,2025-07-30,株式会社Ｎｅｗ　Ｍｏｎｔ　Ｂｌａｎｃ,,株式会社,福岡県,福岡市中央区,天神４丁目６－２８いちご天神ノースビル７階,,40,133,8100001,,,,,,,2025-07-30,1,,,,,ニューモンブラン,0
669,3290801031740,新規,0,2025-07-30,2025-07-30,株式会社ＲｅｄＰｉｎｅ,,株式会社,福岡県,築上郡築上町,大字上別府５７番地１,,40,647,8290105,,,,,,,2025-07-30,1,,,,,レッドパイン,0
677,3330001033442,新規,0,2025-07-30,2025-07-30,ｅＮ株式会社,,株式会社,熊本県,熊本市南区,海路口町４１２番地３,,43,104,8614124,,,,,,,2025-07-30,1,,,,,エン,0
681,3340003004911,新規,0,2025-07-30,2025-07-30,合同会社Ｇｗｏｒｋ　ｓｅｒｖｉｃｅ,,合同会社,鹿児島県,鹿児島市,伊敷５丁目３３番２６号,,46,201,8900008,,,,,,,2025-07-30,1,,,,,ジーワークサービス,0
682,3340005009891,新規,0,2025-07-30,2025-07-30,一般社団法人Ｐｌａｙｇｒｏｕｎｄ,,その他の設立登記法人,鹿児島県,鹿児島市,吉野２丁目２６番１０号,,46,201,8920877,,,,,,,2025-07-30,1,,,,,プレイグラウンド,0
683,3350001019679,新規,0,2025-07-30,2025-07-30,細川空調株式会社,,株式会社,宮崎県,宮崎市,清武町今泉甲３６７９番地５,,45,201,8891602,,,,,,,2025-07-30,1,,,,,ホソカワクウチョウ,0
686,3360001035543,新規,0,2025-07-30,2025-07-30,株式会社ＫＩＮＧ　ＮＡＧＯ,,株式会社,沖縄県,名護市,東江４丁目２番９号山城第一マンション３０２号室,,47,209,9050021,,,,,,,2025-07-30,1,,,,,キングナゴ,0
687,3360001035551,新規,0,2025-07-30,2025-07-30,株式会社大心,,株式会社,沖縄県,中頭郡北中城村,字渡口１８３２番地４,,47,327,9012302,,,,,,,2025-07-30,1,,,,,ダイシン,0
688,3360001035568,新規,0,2025-07-30,2025-07-30,株式会社西表島蒸留所,,株式会社,沖縄県,八重山郡竹富町,字上原５２２番地,,47,381,9071541,,,,,,,2025-07-30,1,,,,,イリオモテジマジョウリュウショ,0
690,3360003015130,新規,0,2025-07-30,2025-07-30,合同会社赤嶺総合商事,,合同会社,沖縄県,沖縄市,美里仲原町２番３３号,,47,211,9042156,,,,,,,2025-07-30,1,,,,,アカミネソウゴウショウジ,0
692,3380001035483,新規,0,2025-07-30,2025-07-30,株式会社あさか,,株式会社,福島県,郡山市,富田町字墨染１５番地４阿部ビル２０２号,,07,203,9638041,,,,,,,2025-07-30,1,,,,,アサカ,0
704,3450001014686,新規,0,2025-07-30,2025-07-30,株式会社まごころ,,株式会社,北海道,深川市,八条１７番３７号,,01,228,0740008,,,,,,,2025-07-30,1,,,,,マゴコロ,0
707,3470001020823,新規,0,2025-07-30,2025-07-30,株式会社グラム,,株式会社,香川県,高松市,鬼無町藤井１５０番地１,,37,201,7618024,,,,,,,2025-07-30,1,,,,,グラム,0
708,3480003002298,新規,0,2025-07-30,2025-07-30,合同会社オールアウトケア,,合同会社,徳島県,徳島市,川内町鈴江西７２番地の２サンシャインハイツ１０６号,,36,201,7710122,,,,,,,2025-07-30,1,,,,,オールアウトケア,0
709,3490001011127,新規,0,2025-07-30,2025-07-30,エバワイズ株式会社,,株式会社,高知県,高知市,長浜４７２－４,,39,201,7810270,,,,,,,2025-07-30,1,,,,,エバワイズ,0
710,3700150131579,新規,0,2025-07-30,2025-07-30,Ｅｘａｆｕｎｃｔｉｏｎ，Ｉｎｃ．,,外国会社等,,,,,,,,９００　Ｖｉｌｌａ　Ｓｔｒｅｅｔ，Ｍｏｕｎｔａｉｎ　Ｖｉｅｗ，Ｃａｌｉｆｏｒｎｉａ　９４０４１，ＵＳＡ,,,,,,2025-07-30,1,,,,,エグザフアンクシヨンインク,0
721,4010001257171,新規,0,2025-07-30,2025-07-30,ＳｏｕｒｃｅＦｕｓｅ　Ｊａｐａｎ株式会社,,株式会社,東京都,千代田区,紀尾井町四丁目１番地ホテルニューオータニビジネスコート,,13,101,1020094,,,,,,,2025-07-30,1,,,,,ソースフューズジャパン,0
722,4010001257188,新規,0,2025-07-30,2025-07-30,Ｂａｃｌｎｋ株式会社,,株式会社,東京都,千代田区,神田錦町３丁目１５番地錦精社神田ビル天翔オフィス大手町竹橋２階２１９室,,13,101,1010054,,,,,,,2025-07-30,1,,,,,バックインク,0
723,4010001257246,新規,0,2025-07-30,2025-07-30,ＡＩＤ‐ＭＵＧＩＯ株式会社,,株式会社,東京都,千代田区,麹町６丁目２－６ＰＭＯ麹町４０３,,13,101,1020083,,,,,,,2025-07-30,1,,,,,エイドムギオ,0
724,4010001257295,新規,0,2025-07-30,2025-07-30,Ｐａｌａｃｅ８Ｊａｐａｎ株式会社,,株式会社,東京都,中央区,日本橋大伝馬町１７番６号２階,,13,102,1030011,,,,,,,2025-07-30,1,,,,,パレスエイトジャパン,0
726,4010003048156,新規,0,2025-07-30,2025-07-30,合同会社３Ｇライフパートナーズ,,合同会社,東京都,中央区,日本橋兜町１７番２号兜町第６葉山ビル４Ｆ,,13,102,1030026,,,,,,,2025-07-30,1,,,,,スリージーライフパートナーズ,0
727,4010003048164,新規,0,2025-07-30,2025-07-30,１００合同会社,,合同会社,東京都,中央区,銀座４丁目１０番１号銀座ＡＺＡビル９Ｆ,,13,102,1040061,,,,,,,2025-07-30,1,,,,,ハンドレッド,0
730,4010005040417,新規,0,2025-07-30,2025-07-30,福岡粕屋ロジスティクス特定目的会社,,その他の設立登記法人,東京都,中央区,日本橋１丁目４番１号,,13,102,1030027,,,,,,,2025-07-30,1,,,,,フクオカカスヤロジスティクス,0
735,4010401192043,新規,0,2025-07-30,2025-07-30,株式会社ＲＥＡＬＩＴＹ,,株式会社,東京都,港区,南青山１丁目１５番２号ＭＩＮＡＭＩＡＯＹＡＭＡ・ＳＴＵＤＩＯ・ＦＬＡＴ３０３,,13,103,1070062,,,,,,,2025-07-30,1,,,,,リアリティ,0
736,4010401192134,新規,0,2025-07-30,2025-07-30,株式会社メンズネイルビズ,,株式会社,東京都,港区,赤坂２丁目６番２４号コヨシビル２階,,13,103,1070052,,,,,,,2025-07-30,1,,,,,メンズネイルビズ,0
737,4010401192150,新規,0,2025-07-30,2025-07-30,ベルフェイスシステム株式会社,,株式会社,東京都,港区,新橋６丁目１３番１０号,,13,103,1050004,,,,,,,2025-07-30,1,,,,,ベルフェイスシステム,0
740,4010403035687,新規,0,2025-07-30,2025-07-30,Ｔｈｅ　Ｃｏｕｒｔ　Ｔｏｋｙｏ合同会社,,合同会社,東京都,港区,白金３丁目２０‐９マートルコート白金三光坂６０３,,13,103,1080072,,,,,,,2025-07-30,1,,,,,ザコートトウキョウ,0
741,4010403035704,新規,0,2025-07-30,2025-07-30,ＧＳＳＧ　Ｃｈｉｋｕｄｅｎ　ＢＥＳＳ２８合同会社,,合同会社,東京都,港区,高輪１丁目３番１３号ＮＢＦ高輪ビル７階,,13,103,1080074,,,,,,,2025-07-30,1,,,,,ジーエスエスジーチクデンビーイーエスエストゥエンティエイト,0
742,4010405024614,新規,0,2025-07-30,2025-07-30,ＧＳＳＧ　Ｃｈｉｋｕｄｅｎ　ＢＥＳＳ２２一般社団法人,,その他の設立登記法人,東京都,港区,赤坂１丁目１１番４４号赤坂インターシティ５階Ｆｏｒｖｉｓ・Ｍａｚａｒｓ・Ｊａｐａｎ株式会社内,,13,103,1070052,,,,,,,2025-07-30,1,,,,,ジーエスエスジーチクデンビーイーエスエストゥエンティツー,0
743,4010405024622,新規,0,2025-07-30,2025-07-30,ＧＳＳＧ　Ｃｈｉｋｕｄｅｎ　ＢＥＳＳ３０一般社団法人,,その他の設立登記法人,東京都,港区,赤坂１丁目１１番４４号赤坂インターシティ５階Ｆｏｒｖｉｓ・Ｍａｚａｒｓ・Ｊａｐａｎ株式会社内,,13,103,1070052,,,,,,,2025-07-30,1,,,,,ジーエスエスジーチクデンビーイーエスエスサーティ,0
746,4010605004481,新規,0,2025-07-30,2025-07-30,一般社団法人お台場沖縄ハーリー実行委員会,,その他の設立登記法人,東京都,江東区,辰巳１丁目４番２１－３１０号,,13,108,1350053,,,,,,,2025-07-30,1,,,,,オダイバオキナワハーリージッコウイインカイ,0
749,4010701048077,新規,0,2025-07-30,2025-07-30,株式会社Ｍｅｓｓｅｎｔｉａｌ,,株式会社,東京都,品川区,西五反田１丁目２６番２号五反田サンハイツ９１１,,13,109,1410031,,,,,,,2025-07-30,1,,,,,メッセンシャル,0
757,4011001171098,新規,0,2025-07-30,2025-07-30,ＳＫＩＬＬＸ株式会社,,株式会社,東京都,渋谷区,広尾３丁目９－５－Ａ１０１,,13,113,1500012,,,,,,,2025-07-30,1,,,,,スキルクロス,0
758,4011001171387,新規,0,2025-07-30,2025-07-30,株式会社ｔｒａｉｌｓｅｅｋ,,株式会社,東京都,渋谷区,道玄坂１丁目１６－６二葉ビル８ｂ,,13,113,1500043,,,,,,,2025-07-30,1,,,,,トレイルシーク,0
759,4011001171585,新規,0,2025-07-30,2025-07-30,株式会社ショーカート,,株式会社,東京都,渋谷区,道玄坂１丁目１０番８号渋谷道玄坂東急ビル２Ｆ－Ｃ,,13,113,1500043,,,,,,,2025-07-30,1,,,,,ショーカート,0
760,4011003022076,新規,0,2025-07-30,2025-07-30,合同会社ｐｅｏｎｙ,,合同会社,東京都,渋谷区,千駄ヶ谷４丁目６番８－５１２号,,13,113,1510051,,,,,,,2025-07-30,1,,,,,ピオニー,0
761,4011003022191,新規,0,2025-07-30,2025-07-30,もものき合同会社,,合同会社,東京都,渋谷区,渋谷２丁目１９番１５―６０９号宮益坂ビルディング,,13,113,1500002,,,,,,,2025-07-30,1,,,,,モモノキ,0
762,4011003022209,新規,0,2025-07-30,2025-07-30,フォーネクサスソリューションズ合同会社,,合同会社,東京都,渋谷区,道玄坂１丁目１０番８号渋谷道玄坂東急ビル２Ｆ－Ｃ,,13,113,1500043,,,,,,,2025-07-30,1,,,,,フォーネクサスソリューションズ,0
763,4011101112588,新規,0,2025-07-30,2025-07-30,フリーウェイフィナンシャル株式会社,,株式会社,東京都,新宿区,新宿３丁目５番６号キュープラザ新宿三丁目５階,,13,104,1600022,,,,,,,2025-07-30,1,,,,,フリーウェイフィナンシャル,0
764,4011101112687,新規,0,2025-07-30,2025-07-30,株式会社Ｕｎｏｖｉａ,,株式会社,東京都,新宿区,西新宿１丁目２６－２新宿野村ビル３２階,,13,104,1600023,,,,,,,2025-07-30,1,,,,,ユノヴィア,0
767,4011103016184,新規,0,2025-07-30,2025-07-30,合同会社Ａｖｉｔａｓｓ,,合同会社,東京都,新宿区,西新宿３丁目３番１３号西新宿水間ビル２Ｆ,,13,104,1600023,,,,,,,2025-07-30,1,,,,,アヴィタス,0
770,4011301030763,新規,0,2025-07-30,2025-07-30,株式会社Ｅｕｎｏｉａ,,株式会社,東京都,杉並区,荻窪４丁目２６番１３－５０３号,,13,115,1670051,,,,,,,2025-07-30,1,,,,,ユノイア,0
773,4011403004772,新規,0,2025-07-30,2025-07-30,Ｓｕｉｒｉｎ合同会社,,合同会社,東京都,板橋区,熊野町４６番５－７０４号大山ダイカンプラザＡ棟,,13,119,1730025,,,,,,,2025-07-30,1,,,,,スイリン,0
775,4011803006988,新規,0,2025-07-30,2025-07-30,合同会社司工業,,合同会社,東京都,足立区,東伊興３丁目１７番７号,,13,121,1210801,,,,,,,2025-07-30,1,,,,,ツカサコウギョウ,0
789,4020005016944,新規,0,2025-07-30,2025-07-30,一般社団法人Ｍｅｄｉｃａｌ　Ｒｅｇｅｎｅｒａｔｉｖｅ,,その他の設立登記法人,神奈川県,横浜市西区,北幸１丁目１番８号エキニア横浜７０５－２,,14,103,2200004,,,,,,,2025-07-30,1,,,,,メディカルリジェネラティブ,0
796,4030001167848,新規,0,2025-07-30,2025-07-30,株式会社ツナガル,,株式会社,埼玉県,春日部市,大枝８９番地１－８－５０８,,11,214,3440023,,,,,,,2025-07-30,1,,,,,ツナガル,0
797,4030001167856,新規,0,2025-07-30,2025-07-30,株式会社ルピナスヘルスケア,,株式会社,埼玉県,さいたま市北区,奈良町３３番地２２,,11,102,3310822,,,,,,,2025-07-30,1,,,,,ルピナスヘルスケア,0
798,4030001167872,新規,0,2025-07-30,2025-07-30,ＥＭ株式会社,,株式会社,埼玉県,熊谷市,万吉１７４２－９,,11,202,3600161,,,,,,,2025-07-30,1,,,,,エン,0
799,4030001167897,新規,0,2025-07-30,2025-07-30,株式会社中仲,,株式会社,埼玉県,戸田市,喜沢南２丁目６番１２号,,11,224,3350014,,,,,,,2025-07-30,1,,,,,ナカナカ,0
803,4030003027298,新規,0,2025-07-30,2025-07-30,合同会社テントゥエンティ,,合同会社,埼玉県,志木市,本町４丁目１３番１－１１４号志木ガーデンヒルズ,,11,228,3530004,,,,,,,2025-07-30,1,,,,,テントゥエンティ,0
804,4030003027307,新規,0,2025-07-30,2025-07-30,東進貿易合同会社,,合同会社,埼玉県,羽生市,大字羽生１４７番地１ｎａｒｕｓｅ羽生ビル２０６号室,,11,216,3480055,,,,,,,2025-07-30,1,,,,,トウシンボウエキ,0
816,4040001139755,新規,0,2025-07-30,2025-07-30,株式会社むさしや,,株式会社,千葉県,千葉市中央区,新町１８番１２第８東ビル２０５,,12,101,2600028,,,,,,,2025-07-30,1,,,,,ムサシヤ,0
817,4040001139854,新規,0,2025-07-30,2025-07-30,株式会社ＳＲＴ,,株式会社,千葉県,鎌ケ谷市,東道野辺４丁目９番３８号,,12,224,2730115,,,,,,,2025-07-30,1,,,,,エスアールティー,0
819,4040003028147,新規,0,2025-07-30,2025-07-30,合同会社ｆａｚｅｒ,,合同会社,千葉県,市川市,下新宿１４番１１号,,12,203,2720102,,,,,,,2025-07-30,1,,,,,ファゼル,0
821,4050001056990,新規,0,2025-07-30,2025-07-30,株式会社ｉＮＡＣＳ,,株式会社,茨城県,稲敷市,押砂７５４番地１,,08,229,3000744,,,,,,,2025-07-30,1,,,,,アイナックス,0
822,4060001038443,新規,0,2025-07-30,2025-07-30,スターシードプロダクション株式会社,,株式会社,栃木県,那須郡那須町,大字富岡１０９０番地６,,09,407,3293212,,,,,,,2025-07-30,1,,,,,スターシードプロダクション,0
828,4080001027064,新規,0,2025-07-30,2025-07-30,株式会社天乃屋,,株式会社,静岡県,島田市,野田１２７４番地の２,,22,209,4270007,,,,,,,2025-07-30,1,,,,,アマノヤ,0
830,4080103003384,新規,0,2025-07-30,2025-07-30,ＡＤ　ＨＯＬＤＩＮＧＳ合同会社,,合同会社,静岡県,富士市,宮下字元富士２６２番地の６,,22,210,4160947,,,,,,,2025-07-30,1,,,,,エーディーホールディングス,0
836,4100001038810,新規,0,2025-07-30,2025-07-30,株式会社ＮＴＹホールディングス,,株式会社,長野県,長野市,大字栗田１８８１番地,,20,201,3800921,,,,,,,2025-07-30,1,,,,,エヌティーワイホールディングス,0
845,4120101072187,新規,0,2025-07-30,2025-07-30,株式会社喜木日行,,株式会社,大阪府,泉佐野市,鶴原４丁目２番７号,,27,213,5980071,,,,,,,2025-07-30,1,,,,,キキニッコウ,0
848,4120901023892,新規,0,2025-07-30,2025-07-30,桜塚ビルデイング株式会社,,株式会社,大阪府,豊中市,北桜塚１丁目５番２９号,,27,203,5600022,,,,,,,2025-07-30,1,,,,,サクラヅカビルデイング,0
849,4120901051233,新規,0,2025-07-30,2025-07-30,泰興祥株式会社,,株式会社,大阪府,豊中市,螢池北町３丁目１２－１７－１０３,,27,203,5600031,,,,,,,2025-07-30,1,,,,,タイコウショウ,0
852,4122005003838,新規,0,2025-07-30,2025-07-30,ＦＵＣＲＥＡ協同組合,,その他の設立登記法人,大阪府,東大阪市,荒本１丁目８番１４－１１５号,,27,227,5770023,,,,,,,2025-07-30,1,,,,,フクレア,0
865,4160001026941,新規,0,2025-07-30,2025-07-30,株式会社天極製作所,,株式会社,滋賀県,近江八幡市,江頭町９５３番地３,,25,204,5230061,,,,,,,2025-07-30,1,,,,,テンゴクセイサクショ,0
872,4180001167882,新規,0,2025-07-30,2025-07-30,株式会社Ｎ’ｓ　ｓｙｓｔｅｃｈ,,株式会社,愛知県,愛知郡東郷町,清水２丁目４番地８,,23,302,4700165,,,,,,,2025-07-30,1,,,,,エヌズシステック,0
873,4180001167932,新規,0,2025-07-30,2025-07-30,株式会社Ｅｉｇｈｔ　Ｌｉｅｎ,,株式会社,愛知県,名古屋市天白区,野並３丁目４０１番地,,23,116,4680045,,,,,,,2025-07-30,1,,,,,エイトリエン,0
874,4180001167949,新規,0,2025-07-30,2025-07-30,クリエノヴァー株式会社,,株式会社,愛知県,名古屋市天白区,保呂町３０５番地,,23,116,4680041,,,,,,,2025-07-30,1,,,,,クリエノヴァー,0
875,4180001167981,新規,0,2025-07-30,2025-07-30,株式会社ｅｙｍ,,株式会社,愛知県,名古屋市中村区,名駅３丁目１１番９号ＪＥ名駅３１１ビル３０２,,23,105,4500002,,,,,,,2025-07-30,1,,,,,エイム,0
878,4180003028793,新規,0,2025-07-30,2025-07-30,ＤｉｓｈＷｏｒｋｓ合同会社,,合同会社,愛知県,名古屋市緑区,八つ松１丁目１３２０番地,,23,114,4580810,,,,,,,2025-07-30,1,,,,,ディッシュワークス,0
885,4190001032425,新規,0,2025-07-30,2025-07-30,株式会社アイエスプラン,,株式会社,三重県,鈴鹿市,須賀２丁目１０番１４号,,24,207,5130034,,,,,,,2025-07-30,1,,,,,アイエスプラン,0
891,4230001021019,新規,0,2025-07-30,2025-07-30,奥村実業株式会社,,株式会社,富山県,富山市,呉羽町１６６５番地１,,16,201,9300138,,,,,,,2025-07-30,1,,,,,オクムラジツギョウ,0
892,4240001065279,新規,0,2025-07-30,2025-07-30,株式会社Ａｇｒｉ　Ｌｉｎｋ,,株式会社,広島県,福山市,西町２丁目１０番１号福山商工会議所８階,,34,207,7200067,,,,,,,2025-07-30,1,,,,,アグリリンク,0
911,4340001027500,新規,0,2025-07-30,2025-07-30,株式会社トシケン開発,,株式会社,鹿児島県,霧島市,霧島田口２１１４番地２７,,46,218,8994201,,,,,,,2025-07-30,1,,,,,トシケンカイハツ,0
915,4340003004910,新規,0,2025-07-30,2025-07-30,合同会社ひなた,,合同会社,鹿児島県,霧島市,隼人町内３７１－１０６,,46,218,8995116,,,,,,,2025-07-30,1,,,,,ヒナタ,0
916,4340005009890,新規,0,2025-07-30,2025-07-30,特定非営利活動法人Ｌｉｃｏ,,その他の設立登記法人,鹿児島県,鹿屋市,永野田町４番地５,,46,203,8930033,,,,,,,2025-07-30,1,,,,,リコ,0
922,4360003015121,新規,0,2025-07-30,2025-07-30,合同会社クエスト,,合同会社,沖縄県,那覇市,おもろまち３丁目６－１プレミスト那覇新都心ザパークフロント３０３,,47,201,9000006,,,,,,,2025-07-30,1,,,,,クエスト,0
928,4380001035490,新規,0,2025-07-30,2025-07-30,株式会社ヒビコレ,,株式会社,福島県,白河市,郭内１－１６８,,07,205,9610074,,,,,,,2025-07-30,1,,,,,ヒビコレ,0
937,4450001014685,新規,0,2025-07-30,2025-07-30,株式会社黎明,,株式会社,北海道,旭川市,神楽四条１２丁目１０番５号,,01,204,0708004,,,,,,,2025-07-30,1,,,,,レイメイ,0
941,4700150131578,新規,0,2025-07-30,2025-07-30,Ｇｕａｒｄｉａｎ　Ｎｅｗｓ　ａｎｄ　Ｍｅｄｉａ　Ｌｉｍｉｔｅｄ,,外国会社等,,,,,,,,Ｋｉｎｇｓ　Ｐｌａｃｅ，９０　Ｙｏｒｋ　Ｗａｙ，Ｌｏｎｄｏｎ，Ｅｎｇｌａｎｄ，Ｎ１　９ＧＵ,,,,,,2025-07-30,1,,,,,ガーデイアンニユースアンドメデイアリミテツド,0
946,5010001257179,新規,0,2025-07-30,2025-07-30,株式会社ＣＬＥ,,株式会社,東京都,中央区,日本橋人形町３丁目３番５－７０７号,,13,102,1030013,,,,,,,2025-07-30,1,,,,,シーエルイー,0
947,5010001257229,新規,0,2025-07-30,2025-07-30,株式会社ＪＵＵＮＡＮ,,株式会社,東京都,中央区,銀座１丁目１２番４号Ｎ＆ＥＢＬＤ．６Ｆ,,13,102,1040061,,,,,,,2025-07-30,1,,,,,ジュウナン,0
948,5010001257245,新規,0,2025-07-30,2025-07-30,バスカク株式会社,,株式会社,東京都,千代田区,神田和泉町１番地６－１６ヤマトビル４０５,,13,101,1010024,,,,,,,2025-07-30,1,,,,,バスカク,0
949,5010001257261,新規,0,2025-07-30,2025-07-30,株式会社ナギシア,,株式会社,東京都,千代田区,神田須田町１丁目７番８号ＶＯＲＴ秋葉原ＩＶ２Ｆ,00140110,13,101,1010041,,,,,,,2025-07-30,1,,,,,ナギシア,0
950,5010001257286,新規,0,2025-07-30,2025-07-30,株式会社ＡＣ‐８,,株式会社,東京都,千代田区,麹町３丁目５番地２,,13,101,1020083,,,,,,,2025-07-30,1,,,,,エーシーエイト,0
955,5010003048163,新規,0,2025-07-30,2025-07-30,ブルーインフラＬ４号合同会社,,合同会社,東京都,千代田区,紀尾井町４番１号ニューオータニガーデンコート１９階フィンポート税理士法人内,,13,101,1020094,,,,,,,2025-07-30,1,,,,,ブルーインフラヨンゴウ,0
956,5010003048188,新規,0,2025-07-30,2025-07-30,ＢＬＥＪ土地管理合同会社,,合同会社,東京都,中央区,日本橋３丁目９番１号日本橋三丁目スクエア１１階,,13,102,1030027,,,,,,,2025-07-30,1,,,,,ビーエルイージェイトチカンリ,0
965,5010403035686,新規,0,2025-07-30,2025-07-30,ＥＮＡＤＩＡ合同会社,,合同会社,東京都,港区,南青山１丁目３番１号アールキューブ青山３階,,13,103,1070062,,,,,,,2025-07-30,1,,,,,エナディア,0
966,5010403035703,新規,0,2025-07-30,2025-07-30,ＧＳＳＧ　Ｃｈｉｋｕｄｅｎ　ＢＥＳＳ２７合同会社,,合同会社,東京都,港区,高輪１丁目３番１３号ＮＢＦ高輪ビル７階,,13,103,1080074,,,,,,,2025-07-30,1,,,,,ジーエスエスジーチクデンビーイーエスエストゥエンティセブン,0
967,5010403035711,新規,0,2025-07-30,2025-07-30,ＧＳＳＧ　Ｃｈｉｋｕｄｅｎ　ＢＥＳＳ２１合同会社,,合同会社,東京都,港区,高輪１丁目３番１３号ＮＢＦ高輪ビル７階,,13,103,1080074,,,,,,,2025-07-30,1,,,,,ジーエスエスジーチクデンビーイーエスエストゥエンティワン,0
968,5010405024563,新規,0,2025-07-30,2025-07-30,一般社団法人ＳＯＣＩＡＬ　ＦＩＲＭ　ＡＲＴ　ＣＥＮＴＥＲ,,その他の設立登記法人,東京都,港区,三田１丁目４番１７号,,13,103,1080073,,,,,,,2025-07-30,1,,,,,ソーシャルファームアートセンター,0
969,5010405024613,新規,0,2025-07-30,2025-07-30,ＧＳＳＧ　Ｃｈｉｋｕｄｅｎ　ＢＥＳＳ２１一般社団法人,,その他の設立登記法人,東京都,港区,赤坂１丁目１１番４４号赤坂インターシティ５階Ｆｏｒｖｉｓ・Ｍａｚａｒｓ・Ｊａｐａｎ株式会社内,,13,103,1070052,,,,,,,2025-07-30,1,,,,,ジーエスエスジーチクデンビーイーエスエストゥエンティワン,0
970,5010405024621,新規,0,2025-07-30,2025-07-30,ＧＳＳＧ　Ｃｈｉｋｕｄｅｎ　ＢＥＳＳ２９一般社団法人,,その他の設立登記法人,東京都,港区,赤坂１丁目１１番４４号赤坂インターシティ５階Ｆｏｒｖｉｓ・Ｍａｚａｒｓ・Ｊａｐａｎ株式会社内,,13,103,1070052,,,,,,,2025-07-30,1,,,,,ジーエスエスジーチクデンビーイーエスエストゥエンティナイン,0
976,5010901057827,新規,0,2025-07-30,2025-07-30,株式会社Ｋａｎａｄｅ　Ｌｉｎｋ,,株式会社,東京都,世田谷区,等々力４丁目１８番９－４０８号,,13,112,1580082,,,,,,,2025-07-30,1,,,,,カナデリンク,0
986,5011001171089,新規,0,2025-07-30,2025-07-30,株式会社ＴＯＲＩＤＥ,,株式会社,東京都,渋谷区,円山町５－３ＭＩＥＵＸ渋谷ビル８階,,13,113,1500044,,,,,,,2025-07-30,1,,,,,トリデ,0
988,5011003022083,新規,0,2025-07-30,2025-07-30,合同会社Ｓｔｒａｖｋ,,合同会社,東京都,目黒区,下目黒１丁目１番１４号コノトラビル７Ｆ,,13,110,1530064,,,,,,,2025-07-30,1,,,,,ストラヴク,0
994,5011103016076,新規,0,2025-07-30,2025-07-30,合同会社ストーンリバー,,合同会社,東京都,新宿区,歌舞伎町１丁目７番３号タローズビル３階Ｅブース,,13,104,1600021,,,,,,,2025-07-30,1,,,,,ストーンリバー,0
1003,5011701028571,新規,0,2025-07-30,2025-07-30,株式会社樂涛,,株式会社,東京都,江戸川区,瑞江２丁目４番１号平川ビル３階,,13,123,1320011,,,,,,,2025-07-30,1,,,,,ラクトウ,0
1018,5020001163954,新規,0,2025-07-30,2025-07-30,株式会社ちんぐるまツアーズ,,株式会社,神奈川県,横浜市旭区,さちが丘１３８番地３,,14,112,2410822,,,,,,,2025-07-30,1,,,,,チングルマツアーズ,0
1025,5021001085924,新規,0,2025-07-30,2025-07-30,株式会社ＧｏＢａａＳ,,株式会社,神奈川県,横須賀市,三春町２丁目３１番地４、１０１号,,14,201,2380014,,,,,,,2025-07-30,1,,,,,ゴーバース,0
1027,5021003016349,新規,0,2025-07-30,2025-07-30,合同会社Ａｌｌａｙ,,合同会社,神奈川県,茅ヶ崎市,中海岸２丁目９番２４号ベルビウ中海岸２０２,,14,207,2530055,,,,,,,2025-07-30,1,,,,,アレイ,0
1031,5030001167780,新規,0,2025-07-30,2025-07-30,株式会社加藤建設,00140021,株式会社,埼玉県,日高市,大字北平沢７６３番地,,11,242,3501242,,,,,,,2025-07-30,1,,,,,カトウケンセツ,0
1032,5030001167839,新規,0,2025-07-30,2025-07-30,株式会社Ｓｏｌｔｒｉａ,,株式会社,埼玉県,越谷市,大字南荻島４０６５番地４,,11,222,3430804,,,,,,,2025-07-30,1,,,,,ソルトリア,0
1033,5030001167855,新規,0,2025-07-30,2025-07-30,株式会社トミタ不動産サービス,,株式会社,埼玉県,熊谷市,宮前町１丁目１５３番地サンライズ熊谷９０４,,11,202,3600045,,,,,,,2025-07-30,1,,,,,トミタフドウサンサービス,0
1037,5030003027297,新規,0,2025-07-30,2025-07-30,合同会社Ｒｉｚ,,合同会社,埼玉県,新座市,北野２丁目１０番１７号,,11,230,3520003,,,,,,,2025-07-30,1,,,,,リズ,0
1041,5040001139795,新規,0,2025-07-30,2025-07-30,ヴィニバース株式会社,,株式会社,千葉県,八千代市,緑が丘１丁目１１０６－５,,12,221,2760049,,,,,,,2025-07-30,1,,,,,ヴィニバース,0
1042,5040001139812,新規,0,2025-07-30,2025-07-30,株式会社花林堂,,株式会社,千葉県,松戸市,小山４２２番地の７,,12,207,2710093,,,,,,,2025-07-30,1,,,,,カリンドウ,0
1044,5040003028146,新規,0,2025-07-30,2025-07-30,合同会社バックオフィス,,合同会社,千葉県,千葉市若葉区,千城台南１丁目６番９号,,12,104,2640003,,,,,,,2025-07-30,1,,,,,バックオフィス,0
1045,5040005022840,新規,0,2025-07-30,2025-07-30,一般社団法人日本スモールビジネス協会,,その他の設立登記法人,千葉県,流山市,市野谷３２８番地の１,,12,220,2700137,,,,,,,2025-07-30,1,,,,,ニホンスモールビジネスキョウカイ,0
1046,5050003009450,新規,0,2025-07-30,2025-07-30,合同会社ＳＴ・ＬＩＮＫ,,合同会社,茨城県,筑西市,小川１３９１番地３４７,,08,227,3080857,,,,,,,2025-07-30,1,,,,,エスティーリンク,0
1048,5060001038434,新規,0,2025-07-30,2025-07-30,南雲総業株式会社,,株式会社,栃木県,宇都宮市,屋板町４８９番地２,,09,201,3210112,,,,,,,2025-07-30,1,,,,,ナグモソウギョウ,0
1051,5070003006017,新規,0,2025-07-30,2025-07-30,合同会社ＬＩＮＯ,,合同会社,群馬県,沼田市,薄根町４０２７－１,,10,206,3780031,,,,,,,2025-07-30,1,,,,,リノ,0
1056,5080405007751,新規,0,2025-07-30,2025-07-30,一般社団法人Ｅａｒｔｈ　Ｆｒｅｑｕｅｎｃｙ,,その他の設立登記法人,静岡県,磐田市,国府台１０番地７,,22,211,4380077,,,,,,,2025-07-30,1,,,,,アースフレクエンシー,0
1066,5120001277983,新規,0,2025-07-30,2025-07-30,株式会社ＮＡＶＩＧＡＴＥ,,株式会社,大阪府,大阪市住之江区,御崎７丁目１番２３号,,27,125,5590013,,,,,,,2025-07-30,1,,,,,ナビゲート,0
1067,5120001278255,新規,0,2025-07-30,2025-07-30,Ｇｒａｎｄ　Ｓｌａｍ株式会社,,株式会社,大阪府,大阪市浪速区,難波中１丁目３番１号ＲＥ－０１６,,27,111,5560011,,,,,,,2025-07-30,1,,,,,グランドスラム,0
1068,5120001278321,新規,0,2025-07-30,2025-07-30,株式会社ＲＥＤ,,株式会社,大阪府,大阪市北区,中津７丁目６番５－３０３号,,27,127,5310071,,,,,,,2025-07-30,1,,,,,レッド,0
1069,5120003030184,新規,0,2025-07-30,2025-07-30,合同会社ＳｔａｃｋＷｏｒｋｓ,,合同会社,大阪府,大阪市東住吉区,照ケ丘矢田１丁目２３番１９号,,27,121,5460021,,,,,,,2025-07-30,1,,,,,スタックワークス,0
1074,5122001039463,新規,0,2025-07-30,2025-07-30,株式会社ニシカワセツビ,,株式会社,大阪府,大東市,赤井２丁目１８番３号,,27,218,5740046,,,,,,,2025-07-30,1,,,,,ニシカワセツビ,0
1075,5122001039513,新規,0,2025-07-30,2025-07-30,株式会社テクネプリント,,株式会社,大阪府,東大阪市,柏田本町１番２４号,,27,227,5770834,,,,,,,2025-07-30,1,,,,,テクネプリント,0
1094,5140001139372,新規,0,2025-07-30,2025-07-30,株式会社ＴＥＶＡ　ＳＡＮＣＯＮ,,株式会社,兵庫県,淡路市,大町下９６２番地,,28,226,6562156,,,,,,,2025-07-30,1,,,,,,0
1095,5140001139389,新規,0,2025-07-30,2025-07-30,株式会社こころ,,株式会社,兵庫県,伊丹市,荒牧南１丁目２番５－１号,,28,207,6640008,,,,,,,2025-07-30,1,,,,,ココロ,0
1106,5180001167865,新規,0,2025-07-30,2025-07-30,リノアーク株式会社,,株式会社,愛知県,日進市,東山３丁目１５０８番地,,23,230,4700116,,,,,,,2025-07-30,1,,,,,リノアーク,0
1107,5180001167873,新規,0,2025-07-30,2025-07-30,株式会社創森,,株式会社,愛知県,名古屋市守山区,大字上志段味字東山８８９,,23,113,4630001,,,,,,,2025-07-30,1,,,,,ソウシン,0
1108,5180001167907,新規,0,2025-07-30,2025-07-30,株式会社知多岡田村,,株式会社,愛知県,知多市,岡田字東島９番地,,23,224,4780021,,,,,,,2025-07-30,1,,,,,チタオカダムラ,0
1109,5180001167923,新規,0,2025-07-30,2025-07-30,株式会社ＺＥＲＯ,,株式会社,愛知県,名古屋市東区,相生町３２番地の１,,23,102,4610012,,,,,,,2025-07-30,1,,,,,ゼロ,0
1110,5180001167948,新規,0,2025-07-30,2025-07-30,あさひ管理株式会社,,株式会社,愛知県,知多市,日長字中森谷３２番地,,23,224,4780041,,,,,,,2025-07-30,1,,,,,アサヒカンリ,0
1111,5180001167964,新規,0,2025-07-30,2025-07-30,株式会社榊原空調,00140104,株式会社,愛知県,半田市,岩滑高山町４丁目１６番地の３,,23,205,4750962,,,,,,,2025-07-30,1,,,,,サカキバラクウチョウ,0
1112,5180001167980,新規,0,2025-07-30,2025-07-30,デュプロ販売株式会社,,株式会社,愛知県,名古屋市中区,大井町４番１９号,,23,106,4600015,,,,,,,2025-07-30,1,,,,,デュプロハンバイ,0
1118,5180003028784,新規,0,2025-07-30,2025-07-30,合同会社コツコツ運送,,合同会社,愛知県,名古屋市守山区,桔梗平２丁目９１６番地,,23,113,4630814,,,,,,,2025-07-30,1,,,,,コツコツウンソウ,0
1123,5180303006671,新規,0,2025-07-30,2025-07-30,合同会社ＪＭｏｍｅｎｔｕｍ,,合同会社,愛知県,岡崎市,柱町字下弁当１４番地１―３０３号室,,23,202,4440834,,,,,,,2025-07-30,1,,,,,ジェイモメンタム,0
1134,5220001026810,新規,0,2025-07-30,2025-07-30,Ａｐｐｒｅｃｉａｔｅ株式会社,,株式会社,石川県,金沢市,入江２丁目５４番地５Ｆ,,17,201,9218011,,,,,,,2025-07-30,1,,,,,アプリシエイト,0
1136,5220005008986,新規,0,2025-07-30,2025-07-30,一般社団法人いしかわ子ども王国プロジェクト,,その他の設立登記法人,石川県,金沢市,問屋町２丁目９３番地,,17,201,9200061,,,,,,,2025-07-30,1,,,,,イシカワコドモオウコクプロジェクト,0
1140,5230005009488,新規,0,2025-07-30,2025-07-30,特定非営利活動法人わか木,,その他の設立登記法人,富山県,高岡市,波岡６１番地１,,16,202,9330958,,,,,,,2025-07-30,1,,,,,ワカギ,0
1163,5290001110921,新規,0,2025-07-30,2025-07-30,株式会社ニシケンシステムソリューションズ,,株式会社,福岡県,福岡市東区,松島３丁目２１番７号,,40,131,8130062,,,,,,,2025-07-30,1,,,,,,0
1168,5330003011147,新規,0,2025-07-30,2025-07-30,スミ合同会社,,合同会社,熊本県,八代市,本野町９１５番地,,43,202,8660073,,,,,,,2025-07-30,1,,,,,スミ,0
1169,5340001027549,新規,0,2025-07-30,2025-07-30,丸輝株式会社,,株式会社,鹿児島県,鹿児島市,新栄町１７番１８号,,46,201,8900072,,,,,,,2025-07-30,1,,,,,マルキ,0
1171,5350003004990,新規,0,2025-07-30,2025-07-30,ルナキャット合同会社,,合同会社,宮崎県,宮崎市,源藤町南田６４番地１０,,45,201,8800927,,,,,,,2025-07-30,1,,,,,ルナキャット,0
1172,5360001035558,新規,0,2025-07-30,2025-07-30,株式会社コンパス,,株式会社,沖縄県,中頭郡北谷町,北谷２丁目５－５フルールアラハ３０２室,,47,326,9040116,,,,,,,2025-07-30,1,,,,,コンパス,0
1173,5360001035566,新規,0,2025-07-30,2025-07-30,しまフードｔｅｃｈ株式会社,,株式会社,沖縄県,那覇市,久米２丁目３－１５ＪＲ九州那覇ビル５階,,47,201,9000033,,,,,,,2025-07-30,1,,,,,シマフードテック,0
1176,5360003015120,新規,0,2025-07-30,2025-07-30,合同会社マイクロマキシマム,,合同会社,沖縄県,宮古島市,平良字下里１０３３番地１ＣＯＲＥ１－Ｄ号室,,47,214,9060013,,,,,,,2025-07-30,1,,,,,,0
1180,5370003007216,新規,0,2025-07-30,2025-07-30,合同会社ＳｏｌＨｏｍｅ,,合同会社,宮城県,仙台市青葉区,中央３丁目８番５号新仙台駅前ビル２Ｆ－３ＳＨ,,04,101,9800021,,,,,,,2025-07-30,1,,,,,ソルホーム,0
1187,5380003006101,新規,0,2025-07-30,2025-07-30,合同会社米満,,合同会社,福島県,福島市,御山字一本松３番地９－１０１,,07,201,9608252,,,,,,,2025-07-30,1,,,,,ヨネミツ,0
1192,5430001094885,新規,0,2025-07-30,2025-07-30,嘉一ミート株式会社,,株式会社,北海道,札幌市西区,琴似一条１丁目４番８－１０１号,,01,107,0630811,,,,,,,2025-07-30,1,,,,,カイチミート,0
1193,5430001094902,新規,0,2025-07-30,2025-07-30,Ｏｚ株式会社,,株式会社,北海道,虻田郡留寿都村,字泉川６５９－２８,,01,397,0481711,,,,,,,2025-07-30,1,,,,,オズ,0
1194,5430001094968,新規,0,2025-07-30,2025-07-30,株式会社Ａ　Ｐｌｕｓ,,株式会社,北海道,札幌市豊平区,月寒東一条５丁目４‐１４メゾン佐々木１０２,,01,105,0620051,,,,,,,2025-07-30,1,,,,,エープラス,0
1207,5450001014684,新規,0,2025-07-30,2025-07-30,株式会社コネクトＡ＆Ｔ,,株式会社,北海道,旭川市,豊岡四条３丁目３番１７号,,01,204,0788234,,,,,,,2025-07-30,1,,,,,コネクトエイアンドティー,0
1208,5460303000877,新規,0,2025-07-30,2025-07-30,合同会社おくやま,,合同会社,北海道,北見市,山下町３丁目１番２２号,,01,208,0900037,,,,,,,2025-07-30,1,,,,,オクヤマ,0
1213,5700150131577,新規,0,2025-07-30,2025-07-30,Ｅａｓｔｓｐｒｉｎｇ　Ｉｎｖｅｓｔｍｅｎｔｓ　ＳＩＣＡＶ－ＦＩＳ　－　Ａｌｔｅｒｎａｔｉｖｅ　Ｉｎｖｅｓｔｍｅｎｔ　Ｆｕｎｄ,,外国会社等,,,,,,,,２６　Ｂｏｕｌｅｖａｒｄ　Ｒｏｙａｌ，Ｌ－２４４９　Ｌｕｘｅｍｂｏｕｒｇ,,,,,,2025-07-30,1,,,,,イーストスプリングインベストメンツシーキヤブ,0
1221,6010001257161,新規,0,2025-07-30,2025-07-30,株式会社ＲｅＡｒｉｓｅ,,株式会社,東京都,中央区,晴海２丁目３－２ザ・パークハウス晴海タワーズティアロレジデンス４５１７,,13,102,1040053,,,,,,,2025-07-30,1,,,,,リアライズ,0
1223,6010003048195,新規,0,2025-07-30,2025-07-30,Ｍａｒｓ　Ｅｓｔａｔｅ合同会社,,合同会社,東京都,千代田区,神田錦町１丁目２１番地,,13,101,1010054,,,,,,,2025-07-30,1,,,,,マーズエステート,0
1233,6010401191935,新規,0,2025-07-30,2025-07-30,Ｄｉｓｃｏｖｅｒｙ　Ｈｉｄｄｅｎ　Ｊａｐａｎ株式会社,,株式会社,東京都,港区,高輪２丁目１１番９－１０１号,,13,103,1080074,,,,,,,2025-07-30,1,,,,,ディスカバリーヒドゥンジャパン,0
1234,6010401192090,新規,0,2025-07-30,2025-07-30,株式会社Ｃｌａｂｏ,,株式会社,東京都,港区,六本木１丁目４番５号アークヒルズサウスタワー１６階,,13,103,1060032,,,,,,,2025-07-30,1,,,,,クラボ,0
1235,6010401192116,新規,0,2025-07-30,2025-07-30,エターナラボ株式会社,,株式会社,東京都,港区,新橋４丁目３１番３号第３名和ビル５階５０３号室,,13,103,1050004,,,,,,,2025-07-30,1,,,,,エターナラボ,0
1240,6010403035702,新規,0,2025-07-30,2025-07-30,ＧＳＳＧ　Ｃｈｉｋｕｄｅｎ　ＢＥＳＳ３０合同会社,,合同会社,東京都,港区,高輪１丁目３番１３号ＮＢＦ高輪ビル７階,,13,103,1080074,,,,,,,2025-07-30,1,,,,,ジーエスエスジーチクデンビーイーエスエスサーティ,0
1241,6010403035710,新規,0,2025-07-30,2025-07-30,ＧＳＳＧ　Ｃｈｉｋｕｄｅｎ　ＢＥＳＳ２２合同会社,,合同会社,東京都,港区,高輪１丁目３番１３号ＮＢＦ高輪ビル７階,,13,103,1080074,,,,,,,2025-07-30,1,,,,,ジーエスエスジーチクデンビーイーエスエストゥエンティツー,0
1242,6010403035727,新規,0,2025-07-30,2025-07-30,クレア合同会社,,合同会社,東京都,港区,高輪１丁目２７－３７－８１２,,13,103,1080074,,,,,,,2025-07-30,1,,,,,クレア,0
1243,6010405024620,新規,0,2025-07-30,2025-07-30,ＧＳＳＧ　Ｃｈｉｋｕｄｅｎ　ＢＥＳＳ２８一般社団法人,,その他の設立登記法人,東京都,港区,赤坂１丁目１１番４４号赤坂インターシティ５階Ｆｏｒｖｉｓ・Ｍａｚａｒｓ・Ｊａｐａｎ株式会社内,,13,103,1070052,,,,,,,2025-07-30,1,,,,,ジーエスエスジーチクデンビーイーエスエストゥエンティエイト,0
1245,6010501054422,新規,0,2025-07-30,2025-07-30,聚聯互働株式会社,,株式会社,東京都,台東区,松が谷２丁目１５番８号浅草Ｋ２ビル２１０号室,,13,106,1110036,,,,,,,2025-07-30,1,,,,,シュウレンゴドウ,0
1247,6010601067704,新規,0,2025-07-30,2025-07-30,株式会社墨レ,,株式会社,東京都,墨田区,東向島２丁目２８番２号１階,,13,107,1310032,,,,,,,2025-07-30,1,,,,,スミレ,0
1252,6010701048067,新規,0,2025-07-30,2025-07-30,Ｍｙｉｔａ株式会社,,株式会社,東京都,品川区,東大井３丁目１３－１８Ｄａｎ－２,,13,109,1400011,,,,,,,2025-07-30,1,,,,,ミッタ,0
1253,6010701048083,新規,0,2025-07-30,2025-07-30,株式会社カトウエンターテインメント,,株式会社,東京都,品川区,小山６丁目２８－１６,,13,109,1420062,,,,,,,2025-07-30,1,,,,,カトウエンターテインメント,0
1256,6010703007839,新規,0,2025-07-30,2025-07-30,合同会社ユキマル,,合同会社,東京都,品川区,戸越１丁目１４番１２号グレースコートＭ２０３,,13,109,1420041,,,,,,,2025-07-30,1,,,,,ユキマル,0
1257,6010801036434,新規,0,2025-07-30,2025-07-30,株式会社せいわ緑庭,,株式会社,東京都,大田区,上池台１丁目４７番２号,,13,111,1450064,,,,,,,2025-07-30,1,,,,,セイワリョクテイ,0
1258,6010803005478,新規,0,2025-07-30,2025-07-30,久米和友合同会社,,合同会社,東京都,大田区,中央３丁目２２番１３－２０２号,,13,111,1430024,,,,,,,2025-07-30,1,,,,,クメカズトモ,0
1268,6011001171088,新規,0,2025-07-30,2025-07-30,株式会社Ｍｏｔｔｉｂｏｘ,,株式会社,東京都,渋谷区,恵比寿西１丁目３３番６号ＪＰｎｏｉｅ恵比寿西０３３,,13,113,1500021,,,,,,,2025-07-30,1,,,,,モチボックス,0
1269,6011001171534,新規,0,2025-07-30,2025-07-30,株式会社ｎｏｂ,,株式会社,東京都,渋谷区,渋谷２丁目９番１０号,,13,113,1500002,,,,,,,2025-07-30,1,,,,,ノブ,0
1270,6011001171575,新規,0,2025-07-30,2025-07-30,Ａｎｏｍａｌｙ株式会社,,株式会社,東京都,渋谷区,渋谷２丁目２番地４号,,13,113,1500002,,,,,,,2025-07-30,1,,,,,アノマリー,0
1273,6011103016166,新規,0,2025-07-30,2025-07-30,ここちゅ合同会社,,合同会社,東京都,新宿区,富久町１５番１－４１１８号,,13,104,1620067,,,,,,,2025-07-30,1,,,,,ココチュ,0
1274,6011103016182,新規,0,2025-07-30,2025-07-30,合同会社ワンステップパワー,,合同会社,東京都,新宿区,西新宿３丁目３番１３号西新宿水間ビル２Ｆ,,13,104,1600023,,,,,,,2025-07-30,1,,,,,ワンステップパワー,0
1275,6011105011529,新規,0,2025-07-30,2025-07-30,ｂ税理士法人,,その他の設立登記法人,東京都,新宿区,百人町１丁目３番２８号,,13,104,1690073,,,,,,,2025-07-30,1,,,,,ビー,0
1283,6011701028570,新規,0,2025-07-30,2025-07-30,ｈｅｌｌｏ　ＣＯ２株式会社,,株式会社,東京都,江戸川区,平井５丁目４４番６－２０３号,,13,123,1320035,,,,,,,2025-07-30,1,,,,,ハローシーオーツー,0
1289,6012703003322,新規,0,2025-07-30,2025-07-30,合同会社プレシャス１７,,合同会社,東京都,小平市,天神町２丁目１７番６号－５０１,,13,211,1870004,,,,,,,2025-07-30,1,,,,,プレシャスセブンティーン,0
1294,6020001164051,新規,0,2025-07-30,2025-07-30,株式会社Ｂａｍｂｏｏ　ｇｒａｓｓ,,株式会社,神奈川県,横浜市港北区,高田西３丁目１２番２－３０１号,,14,109,2230066,,,,,,,2025-07-30,1,,,,,バンブーグラス,0
1297,6021001085923,新規,0,2025-07-30,2025-07-30,株式会社シンセリティー,,株式会社,神奈川県,鎌倉市,城廻３２番地１０,,14,204,2470074,,,,,,,2025-07-30,1,,,,,シンセリティー,0
1298,6021001085931,新規,0,2025-07-30,2025-07-30,株式会社Ｒｅ・ＬＩＦＥ,,株式会社,神奈川県,厚木市,船子５７１番地１－Ａ１０２,,14,212,2430034,,,,,,,2025-07-30,1,,,,,リライフ,0
1299,6021001085948,新規,0,2025-07-30,2025-07-30,株式会社Ｐｉｐｐａ,,株式会社,神奈川県,茅ヶ崎市,萩園１１５０番地４エクセランパレＢ２０１,,14,207,2530071,,,,,,,2025-07-30,1,,,,,ピッパ,0
1300,6021001085956,新規,0,2025-07-30,2025-07-30,あすなろ株式会社,,株式会社,神奈川県,厚木市,水引２丁目２番３２－１１０１号,,14,212,2430004,,,,,,,2025-07-30,1,,,,,アスナロ,0
1301,6021003016364,新規,0,2025-07-30,2025-07-30,合同会社プラスウィステリア,,合同会社,神奈川県,横須賀市,根岸町４丁目８番３号,,14,201,2390807,,,,,,,2025-07-30,1,,,,,プラスウィステリア,0
1306,6030001167763,新規,0,2025-07-30,2025-07-30,ＧＵＲＵＮＧ株式会社,,株式会社,埼玉県,川口市,本蓮２丁目２４番１７号,,11,203,3340076,,,,,,,2025-07-30,1,,,,,グルン,0
1307,6030001167854,新規,0,2025-07-30,2025-07-30,サクラノライフ株式会社,,株式会社,埼玉県,さいたま市南区,辻５丁目４－１３－３０３,00140097,11,108,3360026,,,,,,,2025-07-30,1,,,,,サクラノライフ,0
1308,6030001167870,新規,0,2025-07-30,2025-07-30,株式会社ＥｎＧｉ,,株式会社,埼玉県,さいたま市緑区,東浦和９丁目１６番地２５,,11,109,3360926,,,,,,,2025-07-30,1,,,,,エンギ,0
1309,6030001167895,新規,0,2025-07-30,2025-07-30,トライスタークリーニング株式会社,,株式会社,埼玉県,川口市,大字榛松８４０－２,,11,203,3340062,,,,,,,2025-07-30,1,,,,,トライスタークリーニング,0
1317,6040001139670,新規,0,2025-07-30,2025-07-30,ＴＡＸＡ株式会社,,株式会社,千葉県,市川市,曽谷４丁目２６番７号,,12,203,2720832,,,,,,,2025-07-30,1,,,,,タクサ,0
1318,6040001139786,新規,0,2025-07-30,2025-07-30,株式会社紅雲,,株式会社,千葉県,木更津市,金田東４丁目２番９号ＡＺＴＯ木更津市金田東Ｂ号室,,12,206,2920009,,,,,,,2025-07-30,1,,,,,コウウン,0
1321,6040003028095,新規,0,2025-07-30,2025-07-30,合同会社燦,,合同会社,千葉県,松戸市,紙敷１丁目１３番地の８ブルーミングガーデン松戸南５０９号,,12,207,2702221,,,,,,,2025-07-30,1,,,,,サン,0
1322,6040003028120,新規,0,2025-07-30,2025-07-30,合同会社テラプレイスワイオリ,,合同会社,千葉県,千葉市中央区,弁天２丁目１番１５号,,12,101,2600045,,,,,,,2025-07-30,1,,,,,テラプレイスワイオリ,0
1341,6100001038809,新規,0,2025-07-30,2025-07-30,株式会社荒井木材,,株式会社,長野県,上田市,富士山２８１３－１,,20,203,3861212,,,,,,,2025-07-30,1,,,,,アライモクザイ,0
1344,6110003005830,新規,0,2025-07-30,2025-07-30,縁友合同会社,00140100,合同会社,新潟県,南魚沼郡湯沢町,大字三俣２８番地２,,15,461,9496211,,,,,,,2025-07-30,1,,,,,エンユウ,0
1350,6120001278312,新規,0,2025-07-30,2025-07-30,株式会社開運指南,,株式会社,大阪府,大阪市浪速区,木津川２丁目４番４８号,,27,111,5560027,,,,,,,2025-07-30,1,,,,,カイウンシナン,0
1351,6120001278320,新規,0,2025-07-30,2025-07-30,株式会社Ｎ‐ＳＴＹＬＥ,,株式会社,大阪府,大阪市住吉区,長居西２丁目１０番４４号,,27,120,5580002,,,,,,,2025-07-30,1,,,,,エヌスタイル,0
1354,6120005025066,新規,0,2025-07-30,2025-07-30,一般社団法人Ｐｅｏｐｌｅ＆Ｂｉｚ,,その他の設立登記法人,大阪府,大阪市中央区,伏見町２丁目２番３号,,27,128,5410044,,,,,,,2025-07-30,1,,,,,ピープルアンドビズ,0
1356,6120105010050,新規,0,2025-07-30,2025-07-30,ＮＰＯ法人ＦｕｔｕｒＩＴｙ,,その他の設立登記法人,大阪府,堺市北区,百舌鳥梅町３丁２２－１グランコートエルクラージュ２０１,,27,146,5918032,,,,,,,2025-07-30,1,,,,,フューチャリティ,0
1361,6130001080171,新規,0,2025-07-30,2025-07-30,株式会社ＹＭＮ,,株式会社,京都府,京田辺市,草内大切２６番地２・１階,,26,211,6100311,,,,,,,2025-07-30,1,,,,,ワイエムエヌ,0
1362,6130001080262,新規,0,2025-07-30,2025-07-30,ＯＴＫ商事株式会社,,株式会社,京都府,京都市伏見区,深草西出町７８番地２,,26,109,6120879,,,,,,,2025-07-30,1,,,,,オーティーケーショウジ,0
1368,6140001139495,新規,0,2025-07-30,2025-07-30,株式会社リアルビレッジ,,株式会社,兵庫県,姫路市,飾磨区英賀宮台１－１,,28,201,6728089,,,,,,,2025-07-30,1,,,,,リアルビレッジ,0
1371,6160001026948,新規,0,2025-07-30,2025-07-30,株式会社矢掛工業,,株式会社,滋賀県,近江八幡市,堀上町３６４番地,,25,204,5230031,,,,,,,2025-07-30,1,,,,,ヤカケコウギョウ,0
1379,6180001167856,新規,0,2025-07-30,2025-07-30,株式会社キリネックス,,株式会社,愛知県,名古屋市港区,八百島２丁目１２０７番地,,23,111,4550885,,,,,,,2025-07-30,1,,,,,キリネックス,0
1380,6180001167872,新規,0,2025-07-30,2025-07-30,株式会社ＭＩＲＵ育,,株式会社,愛知県,名古屋市北区,若葉通３丁目４－１,,23,103,4620854,,,,,,,2025-07-30,1,,,,,ミルイク,0
1381,6180001167880,新規,0,2025-07-30,2025-07-30,株式会社三方商会,,株式会社,愛知県,名古屋市西区,上小田井１丁目３２７番地,,23,104,4520821,,,,,,,2025-07-30,1,,,,,サンポウショウカイ,0
1382,6180001167914,新規,0,2025-07-30,2025-07-30,エムトレーディング株式会社,,株式会社,愛知県,名古屋市中区,千代田４丁目１９番７号,,23,106,4600012,,,,,,,2025-07-30,1,,,,,エムトレーディング,0
1383,6180001167939,新規,0,2025-07-30,2025-07-30,株式会社リシュメル,,株式会社,愛知県,名古屋市中区,金山１丁目１５番３号アルバックスタワー金山駅前５０４号,,23,106,4600022,,,,,,,2025-07-30,1,,,,,リシュメル,0
1384,6180001167955,新規,0,2025-07-30,2025-07-30,ＭＵＮＯ株式会社,,株式会社,愛知県,名古屋市東区,泉３丁目１９－１３神田ビル２階,,23,102,4610001,,,,,,,2025-07-30,1,,,,,ムノ,0
1385,6180001167963,新規,0,2025-07-30,2025-07-30,ＮＩＳＨＩＹＡＮ株式会社,,株式会社,愛知県,名古屋市中川区,広川町５丁目１０番地,,23,110,4540027,,,,,,,2025-07-30,1,,,,,ニシヤン,0
1390,6180303006670,新規,0,2025-07-30,2025-07-30,合同会社ＹＳコーポレーション,,合同会社,愛知県,蒲郡市,形原町南湿見５７番地１,,23,214,4430104,,,,,,,2025-07-30,1,,,,,ワイエスコーポレーション,0
1402,6230003002469,新規,0,2025-07-30,2025-07-30,合同会社ＨＥＷＡ,,合同会社,富山県,射水市,七美中野２０５番地,,16,211,9330253,,,,,,,2025-07-30,1,,,,,ヘーワー,0
1417,6290001110862,新規,0,2025-07-30,2025-07-30,メディックコンサルティング株式会社,,株式会社,福岡県,福岡市博多区,千代３丁目４番２７－４０２号,,40,132,8120044,,,,,,,2025-07-30,1,,,,,メディックコンサルティング,0
1418,6290001110879,新規,0,2025-07-30,2025-07-30,株式会社メゾン・リノベ,,株式会社,福岡県,福岡市西区,愛宕３丁目１１番５－９０５号,,40,135,8190015,,,,,,,2025-07-30,1,,,,,メゾンリノベ,0
1422,6310001019721,新規,0,2025-07-30,2025-07-30,株式会社ＢＲＩＳＥＡ,,株式会社,長崎県,諫早市,上大渡野町２２１９番地５,,42,204,8540095,,,,,,,2025-07-30,1,,,,,ブライシー,0
1428,6340001010751,新規,0,2025-07-30,2025-07-30,株式会社丸善工務店,,株式会社,鹿児島県,奄美市,名瀬小浜町１８番１２号,,46,222,8940006,,,,,,,2025-07-30,1,,,,,マルゼンコウムテン,0
1429,6360001035549,新規,0,2025-07-30,2025-07-30,株式会社Ａｉｒ　Ｓｕｐｐｌｙ,,株式会社,沖縄県,国頭郡恩納村,字恩納２４９３番地１Ｆ,,47,311,9040411,,,,,,,2025-07-30,1,,,,,エアーサプライ,0
1432,6360003015136,新規,0,2025-07-30,2025-07-30,合同会社屋比久運輸,,合同会社,沖縄県,那覇市,首里石嶺町１丁目１４１番地４６,,47,201,9030804,,,,,,,2025-07-30,1,,,,,ヤビクウンユ,0
1444,6430001094967,新規,0,2025-07-30,2025-07-30,株式会社ＣＯＡＣＨＬＩＮＥ,,株式会社,北海道,札幌市中央区,南九条西６丁目１番３２号,,01,101,0640809,,,,,,,2025-07-30,1,,,,,コーチライン,0
1453,6500001026434,新規,0,2025-07-30,2025-07-30,株式会社エニィソリューションズ,,株式会社,愛媛県,今治市,東鳥生町２丁目２番２３号,,38,202,7940801,,,,,,,2025-07-30,1,,,,,エニィソリューションズ,0
1454,6700150131576,新規,0,2025-07-30,2025-07-30,ＡＣＣＥＮＴＵＲＥ　ＳＯＬＵＴＩＯＮＳ　ＰＲＩＶＡＴＥ　ＬＩＭＩＴＥＤ,,外国会社等,,,,,,,,Ｐｌａｎｔ　３，Ｇｏｄｒｅｊ　Ａｎｄ　Ｂｏｙｃｅ　Ｃｏｍｐｌｅｘ，Ｐｈｉｒｏｊｓｈａｈ　Ｎａｇａｒ，Ｌｂｓ　Ｍａｒｇ，Ｖｉｋｈｒｏｌｉ（Ｗ），Ｍｕｍｂａｉ，Ｍａｈａｒａｓｈｔｒａ，Ｉｎｄｉａ,,,,,,2025-07-30,1,,,,,アクセンチユアソリユーシヨンズプライベートリミテツド,0
1458,7010001257169,新規,0,2025-07-30,2025-07-30,Ｈｕｍａｎｓａ　Ｔｏｋｙｏ株式会社,,株式会社,東京都,中央区,銀座１丁目１２番４号Ｎ＆ＥＢＬＤ．６Ｆ,,13,102,1040061,,,,,,,2025-07-30,1,,,,,ヒューマンサトウキョウ,0
1459,7010001257251,新規,0,2025-07-30,2025-07-30,Ｍａｄ　Ｍｏｎｋｅｙ　Ｊａｐａｎ株式会社,,株式会社,東京都,千代田区,霞が関３丁目２－５霞が関ビルディング３１階ＯｎｅＡｓｉａ法律事務所内,,13,101,1000013,,,,,,,2025-07-30,1,,,,,マッドモンキージャパン,0
1460,7010001257268,新規,0,2025-07-30,2025-07-30,ノムラ・コープ株式会社,,株式会社,東京都,千代田区,五番町５番地６,,13,101,1020076,,,,,,,2025-07-30,1,,,,,ノムラコープ,0
1462,7010003048194,新規,0,2025-07-30,2025-07-30,ＲＡＩＯＮ　ＣＡＰＩＴＡＬ　ＪＡＰＡＮ５合同会社,,合同会社,東京都,千代田区,神田錦町１丁目２１番地,,13,101,1010054,,,,,,,2025-07-30,1,,,,,ライオンキャピタルジャパンファイブ,0
1468,7010401192073,新規,0,2025-07-30,2025-07-30,ＭＡＤＥ　ＩＮ　ＪＡＰＡＮ株式会社,,株式会社,東京都,港区,六本木６丁目１０番１号六本木ヒルズ森タワー１６階,,13,103,1060032,,,,,,,2025-07-30,1,,,,,メイドインジャパン,0
1477,7010701048082,新規,0,2025-07-30,2025-07-30,ＢｉｚＥｎｔｒｙ株式会社,,株式会社,東京都,品川区,戸越５丁目４番３号ビズサークル戸越オフィス２３号室,,13,109,1420041,,,,,,,2025-07-30,1,,,,,ビズエントリー,0
1479,7010703007838,新規,0,2025-07-30,2025-07-30,合同会社ＭｉｄＬｅａｄ,,合同会社,東京都,品川区,平塚２丁目１４－１１,,13,109,1420051,,,,,,,2025-07-30,1,,,,,ミドリード,0
1481,7010801036433,新規,0,2025-07-30,2025-07-30,株式会社飛騨プラス,,株式会社,東京都,大田区,新蒲田２丁目１９番１４号,,13,111,1440054,,,,,,,2025-07-30,1,,,,,ヒダプラス,0
1482,7010901057833,新規,0,2025-07-30,2025-07-30,株式会社灯智,,株式会社,東京都,世田谷区,太子堂３丁目３７―１グランドヒルズ三軒茶屋Ｃ３０４,,13,112,1540004,,,,,,,2025-07-30,1,,,,,トウチ,0
1483,7010905004807,新規,0,2025-07-30,2025-07-30,一般社団法人日本ニューロフィードバックサロン協会,,その他の設立登記法人,東京都,世田谷区,深沢１丁目２４番１４号ミキハウスＢ,,13,112,1580081,,,,,,,2025-07-30,1,,,,,ニホンニューロフィードバックサロンキョウカイ,0
1491,7011001170790,新規,0,2025-07-30,2025-07-30,株式会社ＧＲ,,株式会社,東京都,渋谷区,円山町５番３号ＭＩＥＵＸ渋谷ビル８階,,13,113,1500044,,,,,,,2025-07-30,1,,,,,ジーアール,0
1492,7011001171070,新規,0,2025-07-30,2025-07-30,株式会社エコグラフィック,,株式会社,東京都,渋谷区,恵比寿３丁目４２番３号ＭｅｊｏｒＳｉｔｉｏ恵比寿５０４,,13,113,1500013,,,,,,,2025-07-30,1,,,,,エコグラフィック,0
1493,7011001171079,新規,0,2025-07-30,2025-07-30,株式会社ＣＹＣ,,株式会社,東京都,渋谷区,道玄坂１丁目１０番８号渋谷道玄坂東急ビル２Ｆ－Ｃ,,13,113,1500043,,,,,,,2025-07-30,1,,,,,シーワイシー,0
1494,7011001171095,新規,0,2025-07-30,2025-07-30,株式会社Ａｓｔｒｉａｒｉｓｅ,,株式会社,東京都,渋谷区,代々木３丁目５５番７号サンセイハイム代々木３０１,,13,113,1510053,,,,,,,2025-07-30,1,,,,,アストリアライズ,0
1495,7011003022081,新規,0,2025-07-30,2025-07-30,合同会社Ｐｅｄｉｒｅｃｔｉｏｎｓ,,合同会社,東京都,目黒区,鷹番３丁目１２番１０号,,13,110,1520004,,,,,,,2025-07-30,1,,,,,ペディレクションズ,0
1509,7011801046521,新規,0,2025-07-30,2025-07-30,ナチュラルフーズ株式会社,,株式会社,東京都,葛飾区,西亀有２丁目２４－１０アドニス３０１,,13,122,1240002,,,,,,,2025-07-30,1,,,,,ナチュラルフーズ,0
1523,7020005016941,新規,0,2025-07-30,2025-07-30,一般社団法人横浜ＴＳＣ,,その他の設立登記法人,神奈川県,横浜市青葉区,美しが丘１丁目１３番地１０,,14,117,2250002,,,,,,,2025-07-30,1,,,,,ヨコハマティーエスシー,0
1534,7030001167746,新規,0,2025-07-30,2025-07-30,株式会社ＮＧＡ,,株式会社,埼玉県,さいたま市西区,大字中野林８４７番地１０,,11,101,3310057,,,,,,,2025-07-30,1,,,,,エヌジーエー,0
1535,7030001167845,新規,0,2025-07-30,2025-07-30,株式会社Ｊ２Ｗ,,株式会社,埼玉県,さいたま市大宮区,天沼町２丁目１０４９番地５,,11,103,3300834,,,,,,,2025-07-30,1,,,,,ジェイツーダブリュー,0
1536,7030001167853,新規,0,2025-07-30,2025-07-30,株式会社センチネラ,,株式会社,埼玉県,さいたま市南区,沼影１丁目３０番６－８０４号,,11,108,3360027,,,,,,,2025-07-30,1,,,,,センチネラ,0
1537,7030001167861,新規,0,2025-07-30,2025-07-30,株式会社田中電設,,株式会社,埼玉県,さいたま市南区,四谷３丁目１５番２０号四谷三丁目テラスハウス１０２号,,11,108,3360032,,,,,,,2025-07-30,1,,,,,タナカデンセツ,0
1538,7030001167878,新規,0,2025-07-30,2025-07-30,株式会社ステラ,,株式会社,埼玉県,鶴ヶ島市,大字上広谷１３番地３,,11,241,3502203,,,,,,,2025-07-30,1,,,,,ステラ,0
1539,7030001167894,新規,0,2025-07-30,2025-07-30,株式会社同志Ｇｒｏｕｐ,,株式会社,埼玉県,ふじみ野市,桜ケ丘１丁目１５番１９号,,11,245,3560059,,,,,,,2025-07-30,1,,,,,ドウシグループ,0
1542,7030003027287,新規,0,2025-07-30,2025-07-30,ＲＵＫＩ合同会社,,合同会社,埼玉県,深谷市,東方町１丁目１２番４,,11,218,3660042,,,,,,,2025-07-30,1,,,,,ルキ,0
1549,7040003028094,新規,0,2025-07-30,2025-07-30,合同会社オートラク,,合同会社,千葉県,成田市,本三里塚１８９－３リブレス成田Ｂ－２０１号室,,12,211,2860118,,,,,,,2025-07-30,1,,,,,オートラク,0
1550,7040005022839,新規,0,2025-07-30,2025-07-30,一般社団法人カムファ,,その他の設立登記法人,千葉県,茂原市,高師４１８番地,,12,210,2970029,,,,,,,2025-07-30,1,,,,,カムファ,0
1553,7050001056996,新規,0,2025-07-30,2025-07-30,株式会社ＬＵＳＴＯ　ＣＡＲＳ,,株式会社,茨城県,坂東市,借宿５０２番地１,,08,228,3060657,,,,,,,2025-07-30,1,,,,,ルーストカーズ,0
1558,7070001043183,新規,0,2025-07-30,2025-07-30,株式会社グッド・ラック・アイランド,,株式会社,群馬県,高崎市,浜川町２４７番地３,,10,202,3700081,,,,,,,2025-07-30,1,,,,,グッドラックアイランド,0
1571,7100001038799,新規,0,2025-07-30,2025-07-30,海麗沢ホテル管理株式会社,,株式会社,長野県,北佐久郡軽井沢町,大字発地字湯川原１０９７－１２,,20,321,3890113,,,,,,,2025-07-30,1,,,,,カイレイサワホテルカンリ,0
1580,7120003030158,新規,0,2025-07-30,2025-07-30,和風合同会社,,合同会社,大阪府,大阪市阿倍野区,丸山通１丁目５－２－２０１,,27,119,5450042,,,,,,,2025-07-30,1,,,,,ワフウ,0
1581,7120101072192,新規,0,2025-07-30,2025-07-30,株式会社Ｔｒｉｌｌｉｏｎｓ,,株式会社,大阪府,貝塚市,東山３丁目３－２,,27,208,5970046,,,,,,,2025-07-30,1,,,,,トリリオンズ,0
1587,7122001039461,新規,0,2025-07-30,2025-07-30,株式会社Ｉｋｏｉ,,株式会社,大阪府,大東市,西楠の里町１３番６号,,27,218,5740005,,,,,,,2025-07-30,1,,,,,イコイ,0
1588,7122001039511,新規,0,2025-07-30,2025-07-30,株式会社ミライリンク,,株式会社,大阪府,東大阪市,吉田本町１丁目７番３６－６０２号,,27,227,5780982,,,,,,,2025-07-30,1,,,,,ミライリンク,0
1590,7130001080170,新規,0,2025-07-30,2025-07-30,株式会社ＳＴＥＬＬＡ,,株式会社,京都府,京田辺市,東西神屋３３番地,,26,211,6100362,,,,,,,2025-07-30,1,,,,,ステラ,0
1591,7130001080237,新規,0,2025-07-30,2025-07-30,あしぶえ株式会社,,株式会社,京都府,亀岡市,大井町土田１丁目１１番１２号,,26,206,6210011,,,,,,,2025-07-30,1,,,,,アシブエ,0
1592,7130001080245,新規,0,2025-07-30,2025-07-30,楓株式会社,,株式会社,京都府,京都市左京区,岩倉忠在地町２６８番地１７,,26,103,6060021,,,,,,,2025-07-30,1,,,,,カエデ,0
1593,7130001080261,新規,0,2025-07-30,2025-07-30,株式会社Ｌｉｆｅ　Ｄｅｓｉｇｎ,,株式会社,京都府,京都市下京区,烏丸通五条下ル大阪町３９１第１０長谷ビル９階,,26,106,6000000,,,,,,,2025-07-30,1,,,,,ライフデザイン,0
1604,7140001139354,新規,0,2025-07-30,2025-07-30,ａｋコネクト株式会社,,株式会社,兵庫県,姫路市,書写１０５８番地４書写マンションＡ１０４,,28,201,6712201,,,,,,,2025-07-30,1,,,,,エーケーコネクト,0
1605,7140001139379,新規,0,2025-07-30,2025-07-30,株式会社Ｌｕｃｅ,,株式会社,兵庫県,明石市,魚住町清水１３０３番地の１１,,28,203,6740074,,,,,,,2025-07-30,1,,,,,ルーチェ,0
1606,7140001139412,新規,0,2025-07-30,2025-07-30,ＭＳＧ株式会社,,株式会社,兵庫県,神戸市中央区,御幸通３丁目１番２６号,,28,110,6510087,,,,,,,2025-07-30,1,,,,,エムエスジー,0
1607,7140001139437,新規,0,2025-07-30,2025-07-30,ＤＥＬＩＧＡＳ株式会社,,株式会社,兵庫県,神戸市中央区,八雲通４丁目６番８号、２０１号,,28,110,6510078,,,,,,,2025-07-30,1,,,,,デリガス,0
1608,7140001139453,新規,0,2025-07-30,2025-07-30,ＳＨＩＮＫＯＵ産業株式会社,,株式会社,兵庫県,神戸市須磨区,妙法寺字ぬめり石１番１－２０９,,28,107,6540121,,,,,,,2025-07-30,1,,,,,シンコウサンギョウ,0
1610,7140003022343,新規,0,2025-07-30,2025-07-30,合同会社Ｈｅａｒｔ,,合同会社,兵庫県,神戸市垂水区,西脇１丁目５番２－３０２号ガーデンビラ舞子,,28,108,6550042,,,,,,,2025-07-30,1,,,,,ハート,0
1611,7140003022351,新規,0,2025-07-30,2025-07-30,櫻之鳳合同会社,,合同会社,兵庫県,神戸市須磨区,戸政町３丁目２番９号,,28,107,6540034,,,,,,,2025-07-30,1,,,,,サクラノホウ,0
1620,7180001167871,新規,0,2025-07-30,2025-07-30,ＨＫコンサルティング株式会社,,株式会社,愛知県,半田市,花園町６丁目１番地の３０,,23,205,4750833,,,,,,,2025-07-30,1,,,,,エイチケーコンサルティング,0
1621,7180001167888,新規,0,2025-07-30,2025-07-30,株式会社Ｂｌｕｅ　Ｒｉｂｂｏｎ,,株式会社,愛知県,名古屋市中村区,名駅４丁目２４番５号第２森ビル４０１,,23,105,4500002,,,,,,,2025-07-30,1,,,,,ブルーリボン,0
1622,7180001167962,新規,0,2025-07-30,2025-07-30,大家サポート株式会社,,株式会社,愛知県,名古屋市中区,錦３丁目１１番２５号,,23,106,4600003,,,,,,,2025-07-30,1,,,,,オオヤサポート,0
1630,7230001021016,新規,0,2025-07-30,2025-07-30,株式会社水上興業,,株式会社,富山県,中新川郡上市町,若杉新１１番地１,,16,322,9300315,,,,,,,2025-07-30,1,,,,,ミズカミコウギョウ,0
1631,7230005009486,新規,0,2025-07-30,2025-07-30,一般社団法人とやま音楽文化協会,,その他の設立登記法人,富山県,中新川郡立山町,谷口３６番地甲,,16,323,9303222,,,,,,,2025-07-30,1,,,,,トヤマオンガクブンカキョウカイ,0
1634,7240003007326,新規,0,2025-07-30,2025-07-30,合同会社ミュージ館,,合同会社,広島県,広島市中区,大手町１丁目１－２０相生橋ビル７階Ａ号室,,34,101,7300051,,,,,,,2025-07-30,1,,,,,ミュージカン,0
1640,7290003017188,新規,0,2025-07-30,2025-07-30,合同会社康樹,,合同会社,福岡県,福岡市中央区,清川３丁目１２番地１号福岡リバーキャッスル,,40,133,8100005,,,,,,,2025-07-30,1,,,,,コウジュ,0
1644,7310001019720,新規,0,2025-07-30,2025-07-30,株式会社エムコンサル,,株式会社,長崎県,佐世保市,世知原町上野原１１８５番地,,42,202,8596403,,,,,,,2025-07-30,1,,,,,エムコンサル,0
1648,7340001027539,新規,0,2025-07-30,2025-07-30,大和開発株式会社,,株式会社,鹿児島県,鹿児島市,光山２丁目１番８号,,46,201,8910151,,,,,,,2025-07-30,1,,,,,ヤマトカイハツ,0
1653,7360001035556,新規,0,2025-07-30,2025-07-30,株式会社エスディーサービス,,株式会社,沖縄県,中頭郡西原町,字森川１６８番地（第２許田アパート３１１号）,,47,329,9030128,,,,,,,2025-07-30,1,,,,,エスディーサービス,0
1654,7360001035564,新規,0,2025-07-30,2025-07-30,Ｊａｐａｎ　Ｏｃｅａｎ　Ｔｅｃｈ株式会社,,株式会社,沖縄県,那覇市,字大道２１６番地５－８０１,,47,201,9020066,,,,,,,2025-07-30,1,,,,,ジャパンオーシャンテック,0
1656,7360003015119,新規,0,2025-07-30,2025-07-30,アイランドヒーロー合同会社,,合同会社,沖縄県,石垣市,字真栄里４１５番地６４,,47,207,9070002,,,,,,,2025-07-30,1,,,,,アイランドヒーロー,0
1657,7360003015127,新規,0,2025-07-30,2025-07-30,合同会社ＣＬＡＳＳ‐Ｉｓｈｉｇａｋｉ,,合同会社,沖縄県,石垣市,字新川２４１６番地３,,47,207,9070024,,,,,,,2025-07-30,1,,,,,クラスイシガキ,0
1658,7360003015135,新規,0,2025-07-30,2025-07-30,合同会社まるなか,,合同会社,沖縄県,糸満市,西崎２丁目７番３－１号,,47,210,9010305,,,,,,,2025-07-30,1,,,,,マルナカ,0
1661,7370003007214,新規,0,2025-07-30,2025-07-30,Ｎａ　Ｏｈａｎａ合同会社,,合同会社,宮城県,仙台市青葉区,二日町９―２３―１４１２,,04,101,9800802,,,,,,,2025-07-30,1,,,,,ナオハナ,0
1664,7380001035488,新規,0,2025-07-30,2025-07-30,株式会社ＧｒｏＷｉｎｇ,,株式会社,福島県,いわき市,泉玉露５丁目５番地の１０,,07,204,9718172,,,,,,,2025-07-30,1,,,,,グローウィング,0
1675,7430003017909,新規,0,2025-07-30,2025-07-30,合同会社ＭＦＣ,,合同会社,北海道,札幌市白石区,南郷通７丁目南６－２５重本ビル１階,,01,104,0030022,,,,,,,2025-07-30,1,,,,,エムエフシー,0
1682,7700150131575,新規,0,2025-07-30,2025-07-30,Ｎｖｉｄｉａ　Ｃｏｒｐｏｒａｔｉｏｎ,,外国会社等,,,,,,,,２７８８　Ｓａｎ　Ｔｏｍａｓ　Ｅｘｐｙ，Ｓａｎｔａ　Ｃｌａｒａ，ＣＡ，９５０５１，ＵＳＡ,,,,,,2025-07-30,1,,,,,エヌビデイアコーポレーシヨン,0
1683,7700150131583,新規,0,2025-07-30,2025-07-30,ウエスト・ストリート・アジア・エクイティ・パートナーズ・Ｉ・イーイー・ホールドコ・ＩＩ・エルエルシー,00140109,外国会社等,東京都,港区,虎ノ門２丁目６番１号虎ノ門ヒルズステーションタワー,,13,103,1050001,Ｍａｐｌｅｓ　Ｃｏｒｐｏｒａｔｅ　Ｓｅｒｖｉｃｅｓ　Ｌｉｍｉｔｅｄ，ＰＯ　Ｂｏｘ　３０９，Ｕｇｌａｎｄ　Ｈｏｕｓｅ，Ｇｒａｎｄ　Ｃａｙｍａｎ，ＫＹ１－１１０４，Ｃａｙｍａｎ　Ｉｓｌａｎｄｓ,,,,,,2025-07-30,1,,,,,ウエストストリートアジアエクイテイパートナーズワンイーイーホールドコツーエルエルシー,0
1690,8010001256748,新規,0,2025-07-30,2025-07-30,株式会社プロクリベース,,株式会社,東京都,千代田区,平河町１丁目９番１－７０３号,,13,101,1020093,,,,,,,2025-07-30,1,,,,,プロクリベース,0
1691,8010001257184,新規,0,2025-07-30,2025-07-30,株式会社Ｎａｔｔｚ,,株式会社,東京都,中央区,銀座１丁目１２番４号Ｎ＆ＥＢＬＤ．７階,,13,102,1040061,,,,,,,2025-07-30,1,,,,,ナッツ,0
1692,8010001257192,新規,0,2025-07-30,2025-07-30,株式会社アングル,,株式会社,東京都,中央区,銀座１丁目２２番１１号銀座大竹ビジデンス２Ｆ,,13,102,1040061,,,,,,,2025-07-30,1,,,,,アングル,0
1693,8010001257234,新規,0,2025-07-30,2025-07-30,Ｓｉｌｉｃｏｎ　Ｃａｔａｌｙｓｔ　Ｊａｐａｎ株式会社,,株式会社,東京都,中央区,日本橋室町１丁目７番１号スルガビル７階,,13,102,1030022,,,,,,,2025-07-30,1,,,,,シリコンカタリストジャパン,0
1694,8010001257283,新規,0,2025-07-30,2025-07-30,エースポイント株式会社,,株式会社,東京都,中央区,日本橋箱崎町３０－１,,13,102,1030015,,,,,,,2025-07-30,1,,,,,エースポイント,0
1702,8010403035709,新規,0,2025-07-30,2025-07-30,ＧＳＳＧ　Ｃｈｉｋｕｄｅｎ　ＢＥＳＳ２３合同会社,,合同会社,東京都,港区,高輪１丁目３番１３号ＮＢＦ高輪ビル７階,,13,103,1080074,,,,,,,2025-07-30,1,,,,,ジーエスエスジーチクデンビーイーエスエストゥエンティスリー,0
1703,8010405024619,新規,0,2025-07-30,2025-07-30,ＧＳＳＧ　Ｃｈｉｋｕｄｅｎ　ＢＥＳＳ２７一般社団法人,,その他の設立登記法人,東京都,港区,赤坂１丁目１１番４４号赤坂インターシティ５階Ｆｏｒｖｉｓ・Ｍａｚａｒｓ・Ｊａｐａｎ株式会社内,,13,103,1070052,,,,,,,2025-07-30,1,,,,,ジーエスエスジーチクデンビーイーエスエストゥエンティセブン,0
1708,8010603011708,新規,0,2025-07-30,2025-07-30,千馬合同会社,,合同会社,東京都,江東区,東陽２丁目３番２０,,13,108,1350016,,,,,,,2025-07-30,1,,,,,チバ,0
1711,8010605004478,新規,0,2025-07-30,2025-07-30,一般社団法人笑顔の架け橋,,その他の設立登記法人,東京都,江東区,豊洲４丁目１１番２０－１７３１号,,13,108,1350061,,,,,,,2025-07-30,1,,,,,エガオノカケハシ,0
1717,8011001170996,新規,0,2025-07-30,2025-07-30,株式会社コペルニクス,,株式会社,東京都,渋谷区,神宮前６丁目２３番４号桑野ビル２階,,13,113,1500001,,,,,,,2025-07-30,1,,,,,コペルニクス,0
1718,8011001171284,新規,0,2025-07-30,2025-07-30,株式会社マジンスタジオ,,株式会社,東京都,渋谷区,桜丘町２３－３グロース渋谷３Ｆ,,13,113,1500031,,,,,,,2025-07-30,1,,,,,マジンスタジオ,0
1722,8011401027276,新規,0,2025-07-30,2025-07-30,上和国際株式会社,,株式会社,東京都,板橋区,板橋２丁目６３番４号グローリア初穂板橋５０１号ＥＡＳＹＯＦＦＩＣＥ,,13,119,1730004,,,,,,,2025-07-30,1,,,,,ジョワコクサイ,0
1723,8011701028577,新規,0,2025-07-30,2025-07-30,Ｓｕｃｃｕｌｅｎｔｅｓ　Ｌｉｅｎｓ都旬子株式会社,,株式会社,東京都,江戸川区,平井６丁目６０番１６号,,13,123,1320035,,,,,,,2025-07-30,1,,,,,サキュラントゥリアンツクシ,0
1726,8011803006992,新規,0,2025-07-30,2025-07-30,Ｍｙ　ＪＰ　Ｃａｒ合同会社,,合同会社,東京都,葛飾区,東堀切２丁目１７番８－７１２号,,13,122,1240004,,,,,,,2025-07-30,1,,,,,マイジェイピーカー,0
1733,8020001164000,新規,0,2025-07-30,2025-07-30,住研株式会社,,株式会社,神奈川県,川崎市麻生区,高石５丁目２４番１３号,,14,137,2150003,,,,,,,2025-07-30,1,,,,,ジュウケン,0
1734,8020001164017,新規,0,2025-07-30,2025-07-30,ＵＭＩ株式会社,,株式会社,神奈川県,川崎市川崎区,東田町８番地パレール８１６,,14,131,2100005,,,,,,,2025-07-30,1,,,,,ユーエムアイ,0
1737,8020003029028,新規,0,2025-07-30,2025-07-30,ワクリック合同会社,,合同会社,神奈川県,横浜市青葉区,美しが丘４丁目１０番地２、プラザ美しが丘１０１号,,14,117,2250002,,,,,,,2025-07-30,1,,,,,ワクリック,0
1739,8020005016949,新規,0,2025-07-30,2025-07-30,一般財団法人シグマ財団,,その他の設立登記法人,神奈川県,川崎市麻生区,栗木２丁目８番１５号,,14,137,2150033,,,,,,,2025-07-30,1,,,,,シグマザイダン,0
1747,8030001167803,新規,0,2025-07-30,2025-07-30,えんのわホールディングス株式会社,,株式会社,埼玉県,さいたま市大宮区,大門町２丁目２０－２ＴＭＯｆｆｉｃｅ３０５,,11,103,3300846,,,,,,,2025-07-30,1,,,,,エンノワホールディングス,0
1748,8030001167844,新規,0,2025-07-30,2025-07-30,株式会社Ｆｕｔｕｒｅ　Ｃｏｎｓｕｌｔｉｎｇ,,株式会社,埼玉県,さいたま市岩槻区,城町１丁目６番１３号,,11,110,3390053,,,,,,,2025-07-30,1,,,,,フューチャーコンサルティング,0
1749,8030001167877,新規,0,2025-07-30,2025-07-30,バカンスコーポレーション株式会社,,株式会社,埼玉県,川越市,菅原町５番地４０ライオンズ川越グランフォート１４０６,,11,201,3500046,,,,,,,2025-07-30,1,,,,,バカンスコーポレーション,0
1750,8030001167885,新規,0,2025-07-30,2025-07-30,株式会社ランドファクトリー,,株式会社,埼玉県,久喜市,栄１丁目６番地２ＹＭハイツ１０５,,11,232,3400215,,,,,,,2025-07-30,1,,,,,ランドファクトリー,0
1756,8030003027286,新規,0,2025-07-30,2025-07-30,Ｒｉｋｕ　Ａｓｓｅｔ合同会社,,合同会社,埼玉県,熊谷市,箱田６丁目１７番４５号,,11,202,3600014,,,,,,,2025-07-30,1,,,,,リクアセット,0
1757,8030003027294,新規,0,2025-07-30,2025-07-30,金龍合同会社,,合同会社,埼玉県,川口市,飯原町１１－６,,11,203,3320024,,,,,,,2025-07-30,1,,,,,キンリュウ,0
1760,8040001139867,新規,0,2025-07-30,2025-07-30,株式会社ホワイトベース,,株式会社,千葉県,千葉市中央区,葛城３丁目１１番２７ホワイトベース０１０３,,12,101,2600853,,,,,,,2025-07-30,1,,,,,ホワイトベース,0
1766,8060003005660,新規,0,2025-07-30,2025-07-30,合同会社フェニックス,,合同会社,栃木県,栃木市,梅沢町１４６番地７,,09,203,3280204,,,,,,,2025-07-30,1,,,,,フェニックス,0
1768,8070001043182,新規,0,2025-07-30,2025-07-30,株式会社ＩＤ‐Ｅｎ,,株式会社,群馬県,伊勢崎市,東本町９４番地２,,10,204,3720025,,,,,,,2025-07-30,1,,,,,アイディーエン,0
1791,8120001278310,新規,0,2025-07-30,2025-07-30,株式会社ＨＯＭＥレセ,,株式会社,大阪府,大阪市北区,長柄東２丁目９－７７アワーズ１１２６,,27,127,5310063,,,,,,,2025-07-30,1,,,,,ホームレセ,0
1792,8120001278327,新規,0,2025-07-30,2025-07-30,株式会社ＭＡＸｅ,,株式会社,大阪府,大阪市中央区,高麗橋２丁目１番１１－６０１号,,27,128,5410043,,,,,,,2025-07-30,1,,,,,マキシエ,0
1793,8120001278351,新規,0,2025-07-30,2025-07-30,自清株式会社,,株式会社,大阪府,大阪市旭区,大宮１丁目１４番２１－７０２室,,27,117,5350002,,,,,,,2025-07-30,1,,,,,ジセイ,0
1795,8120003030033,新規,0,2025-07-30,2025-07-30,合同会社ＯＮＥ‐ＷＯＲＤ,,合同会社,大阪府,大阪市北区,梅田１丁目１番３号大阪駅前第３ビル２９階１－１－１号室,,27,127,5300001,,,,,,,2025-07-30,1,,,,,ワンワード,0
1796,8120005025072,新規,0,2025-07-30,2025-07-30,行政書士法人南海国際事務所,,その他の設立登記法人,大阪府,大阪市住吉区,苅田９丁目１７番１０号,,27,120,5580011,,,,,,,2025-07-30,1,,,,,ナンカイコクサイジムショ,0
1797,8120101072126,新規,0,2025-07-30,2025-07-30,藍夢株式会社,,株式会社,大阪府,富田林市,若松町４丁目２０－１５,,27,214,5840024,,,,,,,2025-07-30,1,,,,,ランム,0
1798,8120101072183,新規,0,2025-07-30,2025-07-30,山崎電機株式会社,,株式会社,大阪府,堺市北区,東三国ヶ丘町５丁３番２５号,,27,146,5918046,,,,,,,2025-07-30,1,,,,,ヤマザキデンキ,0
1806,8120905006766,新規,0,2025-07-30,2025-07-30,医療法人あい内視鏡クリニック,,その他の設立登記法人,大阪府,吹田市,山田西４丁目１番３５号山田東阪急ビル２階,,27,205,5650824,,,,,,,2025-07-30,1,,,,,アイナイシキョウクリニック,0
1809,8130001080178,新規,0,2025-07-30,2025-07-30,ＫＺＫ株式会社,,株式会社,京都府,京都市左京区,一乗寺地蔵本町２番地の３,,26,103,6068181,,,,,,,2025-07-30,1,,,,,ケーゼットケー,0
1810,8130001080236,新規,0,2025-07-30,2025-07-30,株式会社あさやま,,株式会社,京都府,京都市上京区,大宮通西裏芦山寺上る２丁目竪社南半町２１５番地,,26,102,6020099,,,,,,,2025-07-30,1,,,,,アサヤマ,0
1829,8170003002259,新規,0,2025-07-30,2025-07-30,合同会社セブンツー,,合同会社,和歌山県,和歌山市,岩橋１３４２－１,,30,201,6408301,,,,,,,2025-07-30,1,,,,,セブンツー,0
1833,8180001167656,新規,0,2025-07-30,2025-07-30,株式会社ＵＰＧＲＩＤ,,株式会社,愛知県,東海市,富木島町向イ６０番地の１,,23,222,4760011,,,,,,,2025-07-30,1,,,,,アップグリッド,0
1834,8180001167879,新規,0,2025-07-30,2025-07-30,株式会社ロゼットファクトリー,,株式会社,愛知県,名古屋市中村区,名駅１丁目１番１号ＪＰタワー２１階,,23,105,4500002,,,,,,,2025-07-30,1,,,,,ロゼットファクトリー,0
1835,8180001167904,新規,0,2025-07-30,2025-07-30,株式会社ＲＥＬＩＦＥ,,株式会社,愛知県,名古屋市守山区,桔梗平２丁目１２０１,,23,113,4630814,,,,,,,2025-07-30,1,,,,,リライフ,0
1836,8180001167920,新規,0,2025-07-30,2025-07-30,株式会社アキノ,,株式会社,愛知県,あま市,甚目寺五位田２５番地,,23,237,4901111,,,,,,,2025-07-30,1,,,,,アキノ,0
1837,8180001167929,新規,0,2025-07-30,2025-07-30,株式会社ＴＥＲＡ,,株式会社,愛知県,名古屋市西区,長先町１２４番地,,23,104,4520838,,,,,,,2025-07-30,1,,,,,テラ,0
1838,8180001167945,新規,0,2025-07-30,2025-07-30,株式会社ＡＧＩＬＩＥＮＣＥ,,株式会社,愛知県,名古屋市中村区,名駅５丁目１６番１７号,,23,105,4500002,,,,,,,2025-07-30,1,,,,,アジレンス,0
1840,8180301040059,新規,0,2025-07-30,2025-07-30,株式会社西栄,,株式会社,愛知県,知立市,栄２丁目４３番地,,23,225,4720037,,,,,,,2025-07-30,1,,,,,サイエイ,0
1845,8190003005128,新規,0,2025-07-30,2025-07-30,合同会社安乃上,,合同会社,三重県,四日市市,別山１丁目２０５番地２,,24,202,5120936,,,,,,,2025-07-30,1,,,,,アンノジョウ,0
1857,8240001065291,新規,0,2025-07-30,2025-07-30,株式会社Ｔ‐Ｌｉｎｋｓ,,株式会社,広島県,東広島市,黒瀬町国近５１１番地５４,,34,212,7392502,,,,,,,2025-07-30,1,,,,,ティーリンクス,0
1872,8290003017121,新規,0,2025-07-30,2025-07-30,合同会社Ｓｉｓｔｅｒ,,合同会社,福岡県,福岡市博多区,博多駅前１丁目２３番２号ＰａｒｋＦｒｏｎｔ博多駅前１丁目５Ｆ－Ｂ,,40,132,8120011,,,,,,,2025-07-30,1,,,,,シスター,0
1873,8290003017162,新規,0,2025-07-30,2025-07-30,合同会社Ｓａｐｈｉｒ,,合同会社,福岡県,福岡市西区,生の松原３丁目５２番４０２号,,40,135,8190055,,,,,,,2025-07-30,1,,,,,サフィール,0
1878,8330003011136,新規,0,2025-07-30,2025-07-30,合同会社Ｓｅｒｖｉｃｅｓ,,合同会社,熊本県,熊本市北区,楡木３丁目２番５３号,,43,105,8618083,,,,,,,2025-07-30,1,,,,,セルビス,0
1887,8360001035547,新規,0,2025-07-30,2025-07-30,株式会社山川電創,,株式会社,沖縄県,那覇市,壺屋２丁目２２番１９号ＳＫＰビル２０１号室,,47,201,9020065,,,,,,,2025-07-30,1,,,,,ヤマカワデンソウ,0
1888,8370005010990,新規,0,2025-07-30,2025-07-30,ビーマック税理士法人,,その他の設立登記法人,宮城県,仙台市青葉区,本町１丁目１１－１,,04,101,9800014,,,,,,,2025-07-30,1,,,,,ビーマック,0
1894,8410003004131,新規,0,2025-07-30,2025-07-30,合資会社瀬川製材所,,合資会社,秋田県,能代市,明治町１５番２２号,,05,202,0160833,,,,,,,2025-07-30,1,,,,,セガワセイザイショ,0
1905,8430003017899,新規,0,2025-07-30,2025-07-30,合同会社ラビット,,合同会社,北海道,千歳市,朝日町５丁目１９－２１,,01,224,0660043,,,,,,,2025-07-30,1,,,,,ラビット,0
1910,8700150131574,新規,0,2025-07-30,2025-07-30,ＮＯＯＲ　ＬＡＮＫＡ,,外国会社等,茨城県,常陸太田市,小目町３８０番地オフィスＢ,,08,212,3130033,スリランカ民主社会主義共和国、サインタマルトゥ、メインストリート、Ｎｏ．１９,,,,,,2025-07-30,1,,,,,ヌールランカ,0
1911,8700150131582,新規,0,2025-07-30,2025-07-30,Ａｓｉａｎ　Ｔｏｕｒ　Ｌｉｍｉｔｅｄ,,外国会社等,,,,,,,,Ｎｏ．５　Ｂｕｋｉｔ　Ｍａｎｉｓ　Ｒｏａｄ，Ｓｅｎｔｏｓａ，Ｓｉｎｇａｐｏｒｅ　０９９８９３,,,,,,2025-07-30,1,,,,,アジアンツアーリミテツド,0
1919,9010001257175,新規,0,2025-07-30,2025-07-30,株式会社オアシス,,株式会社,東京都,中央区,日本橋蛎殻町１丁目１３－７日本橋人形町プレイスビル７階,,13,102,1030014,,,,,,,2025-07-30,1,,,,,オアシス,0
1920,9010001257266,新規,0,2025-07-30,2025-07-30,Ｆｒｉｎｇｅ０１株式会社,,株式会社,東京都,千代田区,九段南１丁目５番６号りそな九段ビル５階ＫＳフロア,,13,101,1020074,,,,,,,2025-07-30,1,,,,,フリンジゼロイチ,0
1921,9010001257299,新規,0,2025-07-30,2025-07-30,ＪＳ建設東京株式会社,,株式会社,東京都,千代田区,神田佐久間町１丁目８－４アルテール秋葉原８０３,,13,101,1010025,,,,,,,2025-07-30,1,,,,,ジェーエスケンセツトウキョウ,0
1922,9010003048093,新規,0,2025-07-30,2025-07-30,合同会社ＢｔｏＷ,,合同会社,東京都,千代田区,東神田２丁目１０番１５号,,13,101,1010031,,,,,,,2025-07-30,1,,,,,,0
1931,9010401192088,新規,0,2025-07-30,2025-07-30,株式会社ｉｌｅ　ｃｈａｍｐ,,株式会社,東京都,港区,南麻布３丁目１０番２７－７０５号,,13,103,1060047,,,,,,,2025-07-30,1,,,,,イルシャン,0
1932,9010401192138,新規,0,2025-07-30,2025-07-30,株式会社ｐｏｎｏ,,株式会社,東京都,港区,南青山３丁目１番３６号青山丸竹ビル６Ｆ,,13,103,1070062,,,,,,,2025-07-30,1,,,,,ポノ,0
1933,9010401192170,新規,0,2025-07-30,2025-07-30,Ｋｏｍｏｂｉｌｉｔｙ　Ｊａｐａｎ株式会社,,株式会社,東京都,港区,北青山２丁目７―１３プラセオ青山ビル３階,,13,103,1070061,,,,,,,2025-07-30,1,,,,,コモビリティジャパン,0
1934,9010403035708,新規,0,2025-07-30,2025-07-30,ＧＳＳＧ　Ｃｈｉｋｕｄｅｎ　ＢＥＳＳ２５合同会社,,合同会社,東京都,港区,高輪１丁目３番１３号ＮＢＦ高輪ビル７階,,13,103,1080074,,,,,,,2025-07-30,1,,,,,ジーエスエスジーチクデンビーイーエスエストゥエンティファイブ,0
1935,9010403035716,新規,0,2025-07-30,2025-07-30,合同会社ＭＯＮＯＧＡＲＩ,,合同会社,東京都,港区,浜松町２丁目７番１７号イーグル浜松町,,13,103,1050013,,,,,,,2025-07-30,1,,,,,モノガリ,0
1936,9010403035724,新規,0,2025-07-30,2025-07-30,合同会社リアルティジャパンツー,,合同会社,東京都,港区,虎ノ門２丁目６番１号虎ノ門ヒルズステーションタワー,,13,103,1050001,,,,,,,2025-07-30,1,,,,,リアルティジャパンツー,0
1937,9010405024618,新規,0,2025-07-30,2025-07-30,ＧＳＳＧ　Ｃｈｉｋｕｄｅｎ　ＢＥＳＳ２６一般社団法人,,その他の設立登記法人,東京都,港区,赤坂１丁目１１番４４号赤坂インターシティ５階Ｆｏｒｖｉｓ・Ｍａｚａｒｓ・Ｊａｐａｎ株式会社内,,13,103,1070052,,,,,,,2025-07-30,1,,,,,ジーエスエスジーチクデンビーイーエスエストゥエンティシックス,0
1938,9010501054493,新規,0,2025-07-30,2025-07-30,株式会社無知ノ知,,株式会社,東京都,台東区,鳥越２丁目２－２－１００２号,,13,106,1110054,,,,,,,2025-07-30,1,,,,,ムチノチ,0
1949,9010801036398,新規,0,2025-07-30,2025-07-30,株式会社ＡＹＵＮＡ,,株式会社,東京都,大田区,蒲田４丁目４０番１０号グレイスＩ３０２,,13,111,1440052,,,,,,,2025-07-30,1,,,,,アユナ,0
1952,9011001171548,新規,0,2025-07-30,2025-07-30,株式会社ＳＯＬ　Ｅｎｔｅｒｔａｉｎｍｅｎｔ,,株式会社,東京都,渋谷区,道玄坂２丁目２２番６号,,13,113,1500043,,,,,,,2025-07-30,1,,,,,ソルエンターテインメント,0
1956,9011101112591,新規,0,2025-07-30,2025-07-30,株式会社ラボ東京,,株式会社,東京都,新宿区,四谷本塩町１５番９号,,13,104,1600003,,,,,,,2025-07-30,1,,,,,ラボトウキョウ,0
1957,9011101112600,新規,0,2025-07-30,2025-07-30,株式会社Ｍｉｎｉｃｏｄｅ,,株式会社,東京都,新宿区,百人町２丁目５番４号土屋ビル２Ｆ,,13,104,1690073,,,,,,,2025-07-30,1,,,,,ミニコード,0
1958,9011103016171,新規,0,2025-07-30,2025-07-30,Ｙ‐Ｌｕｓｈ　Ｃｏｎｓｕｌｔａｎｔ合同会社,,合同会社,東京都,新宿区,西新宿６丁目５番１号新宿アイランドタワー２階,,13,104,1600023,,,,,,,2025-07-30,1,,,,,ワイラッシュコンサルタント,0
1967,9011603004782,新規,0,2025-07-30,2025-07-30,合同会社ふじ総合,,合同会社,東京都,練馬区,旭町１丁目１６番１号,,13,120,1790071,,,,,,,2025-07-30,1,,,,,フジソウゴウ,0
1969,9011701028576,新規,0,2025-07-30,2025-07-30,達勝株式会社,,株式会社,東京都,江戸川区,東小岩６丁目３３番１８号,,13,123,1330052,,,,,,,2025-07-30,1,,,,,タツショウ,0
1972,9012701018996,新規,0,2025-07-30,2025-07-30,株式会社ＸＸＴＸ,,株式会社,東京都,東久留米市,東本町４番１０号アザレアマンション３０２号,,13,222,2030014,,,,,,,2025-07-30,1,,,,,エックスエックスティーエックス,0
1973,9013105001878,新規,0,2025-07-30,2025-07-30,労働者協同組合山の戸,,その他の設立登記法人,東京都,羽村市,羽加美１丁目２６番地２号,,13,227,2050016,,,,,,,2025-07-30,1,,,,,ヤマノト,0
1974,9013301054688,新規,0,2025-07-30,2025-07-30,株式会社カプタス,,株式会社,東京都,豊島区,南長崎２丁目８番１１号,,13,116,1710052,,,,,,,2025-07-30,1,,,,,カプタス,0
1977,9020001164008,新規,0,2025-07-30,2025-07-30,美総建株式会社,,株式会社,神奈川県,川崎市麻生区,黒川５９２番地１グランシャリオ壱番館４０１,,14,137,2150035,,,,,,,2025-07-30,1,,,,,ビソウケン,0
1980,9020003028994,新規,0,2025-07-30,2025-07-30,合同会社ビズビム,,合同会社,神奈川県,横浜市港南区,日野９丁目１２番１－３０８号,,14,111,2340051,,,,,,,2025-07-30,1,,,,,ビズビム,0
1981,9020003029010,新規,0,2025-07-30,2025-07-30,合同会社ｔａｓＴＯ,,合同会社,神奈川県,横浜市港北区,大倉山３丁目６０番３－１１０号,,14,109,2220037,,,,,,,2025-07-30,1,,,,,,0
1985,9021001085937,新規,0,2025-07-30,2025-07-30,株式会社匠不動産,,株式会社,神奈川県,大和市,下鶴間６０１１番地２５,,14,213,2420001,,,,,,,2025-07-30,1,,,,,タクミフドウサン,0
1987,9021003016353,新規,0,2025-07-30,2025-07-30,合同会社ＧＯＯＤ　ＬＩＦＥ　ＢＡＬＬ,,合同会社,神奈川県,小田原市,小八幡３丁目１４番１１号ファスプラージュＢ１０３,,14,206,2560815,,,,,,,2025-07-30,1,,,,,グッドライフボール,0
1993,9030001167843,新規,0,2025-07-30,2025-07-30,株式会社エール,,株式会社,埼玉県,さいたま市浦和区,北浦和２丁目８番１０号,,11,107,3300074,,,,,,,2025-07-30,1,,,,,エール,0
1994,9030001167868,新規,0,2025-07-30,2025-07-30,株式会社ｌｏｙａｌ,,株式会社,埼玉県,川口市,大字安行吉岡１５８５番地の１９,,11,203,3340072,,,,,,,2025-07-30,1,,,,,ロイヤル,0
1995,9030001167876,新規,0,2025-07-30,2025-07-30,株式会社ＲＩＳＥ,,株式会社,埼玉県,所沢市,東所沢和田２丁目４番地の２ステイトリープラザ東所沢２０３,,11,208,3590023,,,,,,,2025-07-30,1,,,,,ライズ,0
1996,9030001167892,新規,0,2025-07-30,2025-07-30,株式会社ＫＭ,,株式会社,埼玉県,上尾市,大字平方３３６８番地２,,11,219,3620059,,,,,,,2025-07-30,1,,,,,ケーエム,0
2007,9040003027895,新規,0,2025-07-30,2025-07-30,僑＿商貿合同会社,00140098,合同会社,千葉県,柏市,緑ケ丘１１－９緑ハイム３０２,,12,217,2770082,,,,,,,2025-07-30,1,,,,,キョウシンショウボウ,0
2008,9040005022853,新規,0,2025-07-30,2025-07-30,農事組合法人船越,,その他の設立登記法人,千葉県,香取郡多古町,船越１９３７番地,,12,347,2892244,,,,,,,2025-07-30,1,,,,,フナコシ,0
2009,9050001056994,新規,0,2025-07-30,2025-07-30,株式会社Ａｃｒｏ,,株式会社,茨城県,つくばみらい市,紫峰ヶ丘１丁目１３番地２,,08,235,3002359,,,,,,,2025-07-30,1,,,,,アクロ,0
2010,9060001038439,新規,0,2025-07-30,2025-07-30,株式会社キラメキコーポレーション,,株式会社,栃木県,栃木市,岩舟町曲ケ島２２５番地,,09,203,3294306,,,,,,,2025-07-30,1,,,,,キラメキコーポレーション,0
2021,9080003003513,新規,0,2025-07-30,2025-07-30,合同会社うしくん,,合同会社,静岡県,静岡市葵区,駿河町１番地の２０平尾ビル３０４,,22,101,4200036,,,,,,,2025-07-30,1,,,,,ウシクン,0
2022,9080101025673,新規,0,2025-07-30,2025-07-30,ＭＯＨＥＩ　ＴＥＡ株式会社,,株式会社,静岡県,富士市,富士岡１７６５番地,,22,210,4170841,,,,,,,2025-07-30,1,,,,,モヘイティー,0
2049,9120001278301,新規,0,2025-07-30,2025-07-30,株式会社名人,,株式会社,大阪府,大阪市淀川区,西中島１丁目６番１４号,,27,123,5320011,,,,,,,2025-07-30,1,,,,,メイト,0
2050,9120001278326,新規,0,2025-07-30,2025-07-30,テオミ株式会社,,株式会社,大阪府,大阪市中央区,平野町４丁目７－８－５０８室,,27,128,5410046,,,,,,,2025-07-30,1,,,,,テオミ,0
2051,9120001278334,新規,0,2025-07-30,2025-07-30,槐南株式会社,,株式会社,大阪府,大阪市天王寺区,生玉町１１－２９－７０３,,27,109,5430071,,,,,,,2025-07-30,1,,,,,カイナン,0
2058,9120101072158,新規,0,2025-07-30,2025-07-30,美好株式会社,,株式会社,大阪府,松原市,河合３丁目７番２７号１０２室,,27,217,5800022,,,,,,,2025-07-30,1,,,,,ミヨシ,0
2063,9120901051245,新規,0,2025-07-30,2025-07-30,株式会社ウィズダムハウス,,株式会社,大阪府,箕面市,桜井２丁目１番２１号,,27,220,5620043,,,,,,,2025-07-30,1,,,,,ウィズダムハウス,0
2064,9120903005769,新規,0,2025-07-30,2025-07-30,合同会社ＳｔｅｐＯｎｅ,,合同会社,大阪府,豊中市,東泉丘３丁目４―４５レーベン桃山台９０４号,,27,203,5610861,,,,,,,2025-07-30,1,,,,,ステップワン,0
2066,9122003003273,新規,0,2025-07-30,2025-07-30,合同会社ＭＹＤ,,合同会社,大阪府,東大阪市,吉原２丁目６番３０－１６０５号,,27,227,5780904,,,,,,,2025-07-30,1,,,,,エムワイディー,0
2069,9130001080169,新規,0,2025-07-30,2025-07-30,株式会社エムズアセットＬａｂ,,株式会社,京都府,木津川市,木津八ケ坪２１番地７,,26,214,6190214,,,,,,,2025-07-30,1,,,,,エムズアセットラボ,0
2070,9130001080177,新規,0,2025-07-30,2025-07-30,法喜株式会社,,株式会社,京都府,京都市伏見区,深草願成町３４番地の２０,,26,109,6120809,,,,,,,2025-07-30,1,,,,,ホウキ,0
2082,9140003022358,新規,0,2025-07-30,2025-07-30,ＭＦＣ　ＪＰ合同会社,,合同会社,兵庫県,西宮市,名塩さくら台４丁目１４番地１４,,28,204,6691146,,,,,,,2025-07-30,1,,,,,エムエフシージャパン,0
2086,9160001026945,新規,0,2025-07-30,2025-07-30,京町会計株式会社,,株式会社,滋賀県,大津市,平津１丁目１３番２号,,25,201,5200862,,,,,,,2025-07-30,1,,,,,キョウマチカイケイ,0
2092,9180001167911,新規,0,2025-07-30,2025-07-30,株式会社ＬＥ７２３,,株式会社,愛知県,小牧市,大字文津字池田２２４番地１,,23,219,4850827,,,,,,,2025-07-30,1,,,,,エルイーナナニーサン,0
2093,9180001167936,新規,0,2025-07-30,2025-07-30,株式会社Ｓｙｍ,,株式会社,愛知県,名古屋市名東区,高針１丁目１５２０番地ワイエスビル２Ｆ,,23,115,4650061,,,,,,,2025-07-30,1,,,,,シム,0
2097,9180003028806,新規,0,2025-07-30,2025-07-30,合同会社Ｋ企画設計室,,合同会社,愛知県,名古屋市中区,千代田１丁目１０番４号一光ハイツ矢場町１００２号,,23,106,4600012,,,,,,,2025-07-30,1,,,,,ケイキカクセッケイシツ,0
2100,9180301040066,新規,0,2025-07-30,2025-07-30,株式会社リン機工,,株式会社,愛知県,豊橋市,東小池町１６１番地の８,,23,201,4400855,,,,,,,2025-07-30,1,,,,,リンキコウ,0
2105,9190003005127,新規,0,2025-07-30,2025-07-30,Ｊｅｈｏｖａｈ合同会社,,合同会社,三重県,津市,高茶屋小森町２６８０番地９,,24,201,5140817,,,,,,,2025-07-30,1,,,,,ジェホバ,0
2107,9200001044091,新規,0,2025-07-30,2025-07-30,株式会社ＫＹＣ・恭電工,,株式会社,岐阜県,瑞浪市,稲津町小里７１番地５,,21,208,5096103,,,,,,,2025-07-30,1,,,,,ケイワイシーキョウデンコウ,0
2108,9210001020257,新規,0,2025-07-30,2025-07-30,株式会社ＣＲＥＮＥＯ,,株式会社,福井県,越前市,東千福町８－１０,,18,209,9150847,,,,,,,2025-07-30,1,,,,,クレネオ,0
2119,9260001040390,新規,0,2025-07-30,2025-07-30,株式会社ＴＭＷＯＲＫＳ,,株式会社,岡山県,岡山市南区,泉田３丁目２番２９号,,33,104,7000944,,,,,,,2025-07-30,1,,,,,ティーエムワークス,0
2121,9280003001975,新規,0,2025-07-30,2025-07-30,エレクトリックサーカス合同会社,,合同会社,島根県,松江市,西川津町６３７番地１セナズビルディング２０４号室,,32,201,6900823,,,,,,,2025-07-30,1,,,,,,0
2127,9290001110876,新規,0,2025-07-30,2025-07-30,ＡＰＥＸ株式会社,,株式会社,福岡県,福岡市博多区,吉塚４丁目６番１２－１００３号,,40,132,8120041,,,,,,,2025-07-30,1,,,,,エイペックス,0
2134,9310001019719,新規,0,2025-07-30,2025-07-30,愛工住設株式会社,,株式会社,長崎県,長崎市,田中町４３５６番地１,,42,201,8510134,,,,,,,2025-07-30,1,,,,,アイコウジュウセツ,0
2139,9340001027545,新規,0,2025-07-30,2025-07-30,まなびの冒険株式会社,,株式会社,鹿児島県,鹿児島市,住吉町１３－１ハーバーフロントビル３０１号,,46,201,8920823,,,,,,,2025-07-30,1,,,,,マナビノボウケン,0
2141,9360001035538,新規,0,2025-07-30,2025-07-30,ライフソリューション株式会社,,株式会社,沖縄県,浦添市,勢理客４丁目１６番地１３号,,47,208,9012122,,,,,,,2025-07-30,1,,,,,ライフソリューション,0
2142,9360001035554,新規,0,2025-07-30,2025-07-30,株式会社琉繕,,株式会社,沖縄県,沖縄市,登川３丁目２８番３号,,47,211,9042142,,,,,,,2025-07-30,1,,,,,リュウゼン,0
2143,9360003015125,新規,0,2025-07-30,2025-07-30,Ｇｏｏｚｙ合同会社,,合同会社,沖縄県,中頭郡北谷町,伊平２丁目１９番９号ワイズエステムコート北谷伊平ウェスト６０１,,47,326,9040102,,,,,,,2025-07-30,1,,,,,グージー,0
2144,9370001052887,新規,0,2025-07-30,2025-07-30,株式会社田中保温,,株式会社,宮城県,仙台市泉区,住吉台西３丁目１７番地の５,,04,105,9813223,,,,,,,2025-07-30,1,,,,,タナカホオン,0
2151,9380001035486,新規,0,2025-07-30,2025-07-30,Ｓｉｄｅｗａｙｓ　Ｅｘｐｅｒｉｅｎｃｅ　Ｊａｐａｎ株式会社,,株式会社,福島県,二本松市,沢松倉１番地北コース,,07,210,9640088,,,,,,,2025-07-30,1,,,,,サイドウェイズエクスペリエンスジャパン,0
2152,9380001035494,新規,0,2025-07-30,2025-07-30,株式会社そらをとぶ,,株式会社,福島県,大沼郡会津美里町,八木沢字的場４５２９番地１,,07,447,9696273,,,,,,,2025-07-30,1,,,,,ソラヲトブ,0
2153,9390001018069,新規,0,2025-07-30,2025-07-30,株式会社ＪＯＩＮＴＳＰＡＲＫＳ,,株式会社,山形県,天童市,大字原町甲４７１番地１,,06,210,9940055,,,,,,,2025-07-30,1,,,,,ジョイントスパークス,0
2155,9400003003513,新規,0,2025-07-30,2025-07-30,合同会社永福楽,,合同会社,岩手県,宮古市,小山田４丁目４番２１号,,03,202,0270038,,,,,,,2025-07-30,1,,,,,エイフク,0
2165,9430003017907,新規,0,2025-07-30,2025-07-30,ＭＹ合同会社,,合同会社,北海道,苫小牧市,字植苗２２７－３,,01,213,0591365,,,,,,,2025-07-30,1,,,,,エムワイ,0
2172,9700150131581,新規,0,2025-07-30,2025-07-30,ＰＳＩ　Ｓｏｌｕｔｉｏｎｓ　ＬＬＣ,,外国会社等,,,,,,,,１２０９　Ｏｒａｎｇｅ　Ｓｔｒｅｅｔ，Ｗｉｌｍｉｎｇｔｏｎ，Ｄｅｌａｗａｒｅ　１９８０１，Ｎｅｗ　Ｃａｓｔｌｅ　Ｃｏｕｎｔｙ，ＵＳＡ,,,,,,2025-07-30,1,,,,,ピーエスアイソリユーシヨンズエルエルシー,0
