sequenceNumber,corporateNumber,process,correct,updateDate,changeDate,name,nameImageId,kind,prefectureName,cityName,streetNumber,addressImageId,prefectureCode,cityCode,postCode,addressOutside,addressOutsideImageId,closeDate,closeCause,successorCorporateNumber,changeCause,assignmentDate,latest,enName,enPrefectureName,enCityName,enAddressOutside,furigana,hihyoji
13,1010001257785,新規,0,2025-08-21,2025-08-21,久億株式会社,,株式会社,東京都,中央区,日本橋人形町３丁目７番１３号日本橋センチュリープラザ５０７号室,,13,102,1030013,,,,,,,2025-08-21,1,,,,,クオク,0
14,1010001257876,新規,0,2025-08-21,2025-08-21,Ｖｅｌｏｃｉｔｙ　Ａｅｒｏｗｏｒｋｓ株式会社,,株式会社,東京都,中央区,日本橋室町３丁目３番９号３階,,13,102,1030022,,,,,,,2025-08-21,1,,,,,ベロシティエアロワークス,0
27,1010401192558,新規,0,2025-08-21,2025-08-21,ウェルスレター株式会社,,株式会社,東京都,港区,麻布永坂町１番地５８－３０２,,13,103,1060043,,,,,,,2025-08-21,1,,,,,ウェルスレター,0
28,1010401192599,新規,0,2025-08-21,2025-08-21,ＶｉｓｔａＰａｔｈ株式会社,,株式会社,東京都,港区,西新橋３丁目１３－７ＶＯＲＴ虎ノ門ｓｏｕｔｈ１２Ｆ,,13,103,1050003,,,,,,,2025-08-21,1,,,,,ビスタパス,0
30,1010403035847,新規,0,2025-08-21,2025-08-21,合同会社Ｊｅｔ　Ｐｉｌｏｔ,,合同会社,東京都,港区,虎ノ門１丁目１番１８号ヒューリック虎ノ門ビル９階Ｌ＆Ｐ司法書士法人内,,13,103,1050001,,,,,,,2025-08-21,1,,,,,ジェットパイロット,0
31,1010403035855,新規,0,2025-08-21,2025-08-21,ＵＩＶマネジメント３合同会社,,合同会社,東京都,港区,海岸１丁目２番２０号汐留ビルディング３階ＣＳＣＪａｐａｎＣｏｒｐｏｒａｔｅＳｅｒｖｉｃｅｓ株式会社内,,13,103,1050022,,,,,,,2025-08-21,1,,,,,ユーアイヴィマネジメントスリー,0
32,1010403035871,新規,0,2025-08-21,2025-08-21,九州ＫＢＥＳＳ１号合同会社,,合同会社,東京都,港区,西新橋１丁目１８番６号,,13,103,1050003,,,,,,,2025-08-21,1,,,,,キュウシュウケイビーイーエスエスイチゴウ,0
36,1010501054600,新規,0,2025-08-21,2025-08-21,ＰＡＲＡＳ　ＪＥＷＥＬ株式会社,,株式会社,東京都,台東区,台東４丁目１番６号,,13,106,1100016,,,,,,,2025-08-21,1,,,,,パラスジュエル,0
38,1010503007960,新規,0,2025-08-21,2025-08-21,テックスタート合同会社,,合同会社,東京都,台東区,三筋１丁目１０番５－６０７号,,13,106,1110055,,,,,,,2025-08-21,1,,,,,テックスタート,0
43,1010603011747,新規,0,2025-08-21,2025-08-21,合同会社三森,,合同会社,東京都,墨田区,墨田１丁目９番１２－４０３号,,13,107,1310031,,,,,,,2025-08-21,1,,,,,ミツモリ,0
50,1011001171456,新規,0,2025-08-21,2025-08-21,Ａｔｅｍ株式会社,,株式会社,東京都,渋谷区,本町１丁目１７番６号スカーラ幡ヶ谷１０１,,13,113,1510071,,,,,,,2025-08-21,1,,,,,アテム,0
51,1011001171530,新規,0,2025-08-21,2025-08-21,株式会社アソビダス,,株式会社,東京都,渋谷区,松濤１丁目２９番１号渋谷クロスロードビル６階,,13,113,1500046,,,,,,,2025-08-21,1,,,,,アソビダス,0
52,1011001171753,新規,0,2025-08-21,2025-08-21,花生株式会社,,株式会社,東京都,渋谷区,恵比寿南１丁目１番１号８階,,13,113,1500022,,,,,,,2025-08-21,1,,,,,カセイ,0
66,1011801046584,新規,0,2025-08-21,2025-08-21,株式会社うるすた,,株式会社,東京都,足立区,新田３丁目３５番２０,,13,121,1230865,,,,,,,2025-08-21,1,,,,,ウルスタ,0
68,1012701019036,新規,0,2025-08-21,2025-08-21,株式会社Ｂｅｅ‐Ａ,,株式会社,東京都,東久留米市,本町３丁目１番９号,,13,222,2030053,,,,,,,2025-08-21,1,,,,,ビーエース,0
70,1012703003343,新規,0,2025-08-21,2025-08-21,徳水合同会社,,合同会社,東京都,西東京市,富士町２丁目２－２５,,13,229,2020014,,,,,,,2025-08-21,1,,,,,トクミズ,0
73,1013101009767,新規,0,2025-08-21,2025-08-21,バンビリボッチ株式会社,,株式会社,東京都,西多摩郡檜原村,上元郷４６３,,13,307,1900212,,,,,,,2025-08-21,1,,,,,バンビリボッチ,0
74,1013101009775,新規,0,2025-08-21,2025-08-21,株式会社Ｌｉｙｄ,,株式会社,東京都,あきる野市,草花１５２０―８,,13,228,1970802,,,,,,,2025-08-21,1,,,,,リード,0
85,1013301054778,新規,0,2025-08-21,2025-08-21,株式会社中源,,株式会社,東京都,豊島区,西池袋１丁目３１番５号,,13,116,1710021,,,,,,,2025-08-21,1,,,,,チュウゲン,0
91,1020001164403,新規,0,2025-08-21,2025-08-21,株式会社ＤＳＸマネジメント,,株式会社,神奈川県,川崎市高津区,梶ケ谷４丁目４番地２３,,14,134,2130015,,,,,,,2025-08-21,1,,,,,ディーエスエックスマネジメント,0
92,1020001164411,新規,0,2025-08-21,2025-08-21,株式会社ＫＬｅｅｆ,,株式会社,神奈川県,横浜市都筑区,大熊町８７７番地２,,14,118,2240042,,,,,,,2025-08-21,1,,,,,ケイリーフ,0
96,1021003016427,新規,0,2025-08-21,2025-08-21,合同会社みずべりを,,合同会社,神奈川県,相模原市南区,鵜野森２丁目２８番８－３１１号,,14,153,2520301,,,,,,,2025-08-21,1,,,,,ミズベリヲ,0
97,1021003016435,新規,0,2025-08-21,2025-08-21,合同会社ＭｏｔｉｏｎＲａｉｌ　Ｆｌｕｘ,,合同会社,神奈川県,相模原市緑区,小渕２１４３番地１創の家いち号室,,14,151,2520184,,,,,,,2025-08-21,1,,,,,モーションレールフラックス,0
99,1030001168262,新規,0,2025-08-21,2025-08-21,ＣＡＩＦ株式会社,,株式会社,埼玉県,さいたま市南区,南本町２丁目２０－１５－７０２,,11,108,3360018,,,,,,,2025-08-21,1,,,,,カイフ,0
107,1040001140022,新規,0,2025-08-21,2025-08-21,株式会社ＴＯＫＵ,,株式会社,千葉県,千葉市美浜区,打瀬３丁目１番地３ブエナテラーサＢ－８０８号,,12,106,2610013,,,,,,,2025-08-21,1,,,,,トク,0
108,1040001140138,新規,0,2025-08-21,2025-08-21,株式会社ＲＹＯＺＡＮＰＡＫＵ,,株式会社,千葉県,習志野市,鷺沼台１丁目７番８号カミングウエストヒルＡ棟１０１号,,12,216,2750015,,,,,,,2025-08-21,1,,,,,リョウザンパク,0
109,1040001140146,新規,0,2025-08-21,2025-08-21,株式会社ＴＯＳ,,株式会社,千葉県,千葉市若葉区,若松町３６１－１２４,,12,104,2640021,,,,,,,2025-08-21,1,,,,,トス,0
110,1040003028307,新規,0,2025-08-21,2025-08-21,合同会社石井設計,,合同会社,千葉県,成田市,並木町２１,,12,211,2860045,,,,,,,2025-08-21,1,,,,,イシイセッケイ,0
117,1080401028128,新規,0,2025-08-21,2025-08-21,株式会社ＳＨＡＲＫＯ,,株式会社,静岡県,浜松市中央区,舞阪町弁天島３５０５番地の１,,22,138,4310214,,,,,,,2025-08-21,1,,,,,,0
127,1100003008351,新規,0,2025-08-21,2025-08-21,合同会社デザインひふみ,,合同会社,長野県,長野市,伺去６番地１,,20,201,3810063,,,,,,,2025-08-21,1,,,,,デザインヒフミ,0
139,1120001278630,新規,0,2025-08-21,2025-08-21,宇成株式会社,,株式会社,大阪府,大阪市住之江区,御崎１丁目１１番１９号インキュセンタービル１０５号室,,27,125,5590013,,,,,,,2025-08-21,1,,,,,ウセイ,0
140,1120001278647,新規,0,2025-08-21,2025-08-21,ＢＯＬ株式会社,,株式会社,大阪府,大阪市東住吉区,鷹合４丁目２１番１６号３Ｆ－Ｂ,,27,121,5460014,,,,,,,2025-08-21,1,,,,,ビーオーエル,0
141,1120001278969,新規,0,2025-08-21,2025-08-21,金信株式会社,,株式会社,大阪府,大阪市北区,兎我野町１３－６東梅田皆楽ビル４０１号,,27,127,5300056,,,,,,,2025-08-21,1,,,,,キンシン,0
142,1120001278977,新規,0,2025-08-21,2025-08-21,株式会社ＭＩＺＥＮＡ,,株式会社,大阪府,大阪市北区,梅田１丁目２番２号大阪駅前第２ビル１２－１２,,27,127,5300001,,,,,,,2025-08-21,1,,,,,ミゼナ,0
143,1120001278993,新規,0,2025-08-21,2025-08-21,一道貫株式会社,,株式会社,大阪府,大阪市生野区,新今里６丁目５番７号３０３室,,27,116,5440001,,,,,,,2025-08-21,1,,,,,イチドウカン,0
144,1120003030188,新規,0,2025-08-21,2025-08-21,合同会社エイトワン,,合同会社,大阪府,枚方市,黄金野２丁目２９－５－１０５,,27,210,5731145,,,,,,,2025-08-21,1,,,,,エイトワン,0
148,1120101072297,新規,0,2025-08-21,2025-08-21,株式会社行楽,,株式会社,大阪府,泉佐野市,大宮町７番２８号,,27,213,5980053,,,,,,,2025-08-21,1,,,,,コウラク,0
149,1120901051335,新規,0,2025-08-21,2025-08-21,くぼたライフデザイン株式会社,,株式会社,大阪府,吹田市,広芝町１０番８号江坂董友ビル１Ｆ,,27,205,5640052,,,,,,,2025-08-21,1,,,,,クボタライフデザイン,0
150,1120901051368,新規,0,2025-08-21,2025-08-21,株式会社Ｕサポート,,株式会社,大阪府,豊中市,走井２丁目８番１７号,,27,203,5610891,,,,,,,2025-08-21,1,,,,,ユーサポート,0
157,1130001080309,新規,0,2025-08-21,2025-08-21,株式会社ＤＢＺ,,株式会社,京都府,八幡市,橋本意足３０番地１３,,26,210,6148331,,,,,,,2025-08-21,1,,,,,ディービーゼット,0
158,1130001080416,新規,0,2025-08-21,2025-08-21,華新株式会社,,株式会社,京都府,京都市右京区,西京極東池田町３７ＳＩＣビル３階,,26,108,6150805,,,,,,,2025-08-21,1,,,,,カシン,0
159,1130003010684,新規,0,2025-08-21,2025-08-21,中部合同会社,,合同会社,京都府,京都市伏見区,向島二ノ丸町１５１番地４４,,26,109,6128141,,,,,,,2025-08-21,1,,,,,ナカベ,0
165,1140001139748,新規,0,2025-08-21,2025-08-21,株式会社ジャックサポート,,株式会社,兵庫県,洲本市,中川原町三木田４３８番地,,28,205,6560003,,,,,,,2025-08-21,1,,,,,ジャックサポート,0
166,1140003022464,新規,0,2025-08-21,2025-08-21,合同会社ＲｉｎｇＰｒｏ,,合同会社,兵庫県,姫路市,西庄甲１３２番地１西庄第二鉄筋２－３０５,,28,201,6700981,,,,,,,2025-08-21,1,,,,,リングプロ,0
169,1160001027001,新規,0,2025-08-21,2025-08-21,株式会社ＴＫＧ,,株式会社,滋賀県,草津市,南草津プリムタウン２丁目８番地６,,25,206,5250068,,,,,,,2025-08-21,1,,,,,ティーケージー,0
180,1250003003800,新規,0,2025-08-21,2025-08-21,合同会社ミラスタ,,合同会社,山口県,宇部市,大小路３丁目６番２１－１号,,35,202,7550076,,,,,,,2025-08-21,1,,,,,ミラスタ,0
188,1290001111238,新規,0,2025-08-21,2025-08-21,楓株式会社,,株式会社,福岡県,福岡市博多区,千代３丁目４６番１－１３６号,,40,132,8120044,,,,,,,2025-08-21,1,,,,,カエデ,0
191,1290003017276,新規,0,2025-08-21,2025-08-21,合同会社オルプロ,,合同会社,福岡県,福岡市早良区,西新４丁目８－３８－２Ｆ,,40,137,8140002,,,,,,,2025-08-21,1,,,,,オルプロ,0
201,1330001033493,新規,0,2025-08-21,2025-08-21,株式会社西屋,,株式会社,熊本県,熊本市中央区,国府本町１２番２５号,,43,101,8620948,,,,,,,2025-08-21,1,,,,,ニシヤ,0
206,1370005010997,新規,0,2025-08-21,2025-08-21,特定非営利活動法人ＳＯＬＡ,,その他の設立登記法人,宮城県,東松島市,小松字下砂利田５４番地１,,04,214,9810504,,,,,,,2025-08-21,1,,,,,ソラ,0
211,1430001095061,新規,0,2025-08-21,2025-08-21,株式会社ぽん,,株式会社,北海道,札幌市白石区,川北三条１丁目７番１０号,,01,104,0030853,,,,,,,2025-08-21,1,,,,,ポン,0
212,1430003017996,新規,0,2025-08-21,2025-08-21,合同会社モリヤ商店,,合同会社,北海道,札幌市中央区,南五条西１５丁目２－３－５０３,,01,101,0640805,,,,,,,2025-08-21,1,,,,,モリヤショウテン,0
213,1430003018012,新規,0,2025-08-21,2025-08-21,合同会社ＭＥＭＥＭＥＳＨ,,合同会社,北海道,北広島市,栄町３丁目７番地５,,01,234,0611133,,,,,,,2025-08-21,1,,,,,ミームッシュ,0
214,1430005015271,新規,0,2025-08-21,2025-08-21,特定非営利活動法人ちとせ＆ＢＥＹＯＮＤ,,その他の設立登記法人,北海道,千歳市,上長都１１２４－４,,01,224,0660077,,,,,,,2025-08-21,1,,,,,チトセアンドビヨンド,0
232,2010001257751,新規,0,2025-08-21,2025-08-21,株式会社ＣＨＡＭＢＥＲＳ,,株式会社,東京都,千代田区,神田鍛冶町３丁目７－２１天翔神田駅前ビル７０８,,13,101,1010045,,,,,,,2025-08-21,1,,,,,チェンバーズ,0
255,2010403035854,新規,0,2025-08-21,2025-08-21,合同会社所有権整理機構,,合同会社,東京都,港区,六本木３丁目１６番１２号,,13,103,1060032,,,,,,,2025-08-21,1,,,,,ショユウケンセイリキコウ,0
258,2010501054599,新規,0,2025-08-21,2025-08-21,和富株式会社,,株式会社,東京都,台東区,上野２丁目１２番１８号,,13,106,1100005,,,,,,,2025-08-21,1,,,,,ワトミ,0
260,2010601067823,新規,0,2025-08-21,2025-08-21,ｅＤｉｓｃｏｖｅｒｙ　Ｘｐｅｒｔｓ株式会社,,株式会社,東京都,江東区,枝川１丁目１４番２０－３０１号,,13,108,1350051,,,,,,,2025-08-21,1,,,,,イーディスカバリーエキスパーツ,0
267,2010901057953,新規,0,2025-08-21,2025-08-21,株式会社Ｅｍｐｒｅｓｓ　Ｃｏｄｅ,,株式会社,東京都,世田谷区,奥沢８丁目９番２号,,13,112,1580083,,,,,,,2025-08-21,1,,,,,エンプレスコード,0
274,2011001171422,新規,0,2025-08-21,2025-08-21,株式会社アンフレーム,,株式会社,東京都,渋谷区,円山町５番３号ＭＩＥＵＸ渋谷ビル８階,,13,113,1500044,,,,,,,2025-08-21,1,,,,,アンフレーム,0
275,2011001171439,新規,0,2025-08-21,2025-08-21,株式会社デザイン,,株式会社,東京都,渋谷区,円山町５番３号ＭＩＥＵＸ渋谷ビル８階,,13,113,1500044,,,,,,,2025-08-21,1,,,,,デザイン,0
276,2011001171959,新規,0,2025-08-21,2025-08-21,ヘドニック株式会社,,株式会社,東京都,渋谷区,代々木３丁目１４－３,,13,113,1510053,,,,,,,2025-08-21,1,,,,,ヘドニック,0
278,2011003022251,新規,0,2025-08-21,2025-08-21,合同会社Ｋｕｒｕｍｉ＆Ｃｏ．,,合同会社,東京都,目黒区,自由が丘１丁目１７－１９自由ケ丘ハイライズ１０１,,13,110,1520035,,,,,,,2025-08-21,1,,,,,クルミアンドカンパニー,0
284,2012301014510,新規,0,2025-08-21,2025-08-21,株式会社Ｊ’ａｄｏｒｅ,,株式会社,東京都,町田市,小山ヶ丘５丁目２番地１,,13,209,1940215,,,,,,,2025-08-21,1,,,,,ジャドール,0
288,2012401043517,新規,0,2025-08-21,2025-08-21,株式会社ＨＭＫ,,株式会社,東京都,狛江市,岩戸北３丁目１２番１６－１０２号,,13,219,2010004,,,,,,,2025-08-21,1,,,,,エイチエムケイ,0
290,2013301054769,新規,0,2025-08-21,2025-08-21,リボンエステート株式会社,,株式会社,東京都,豊島区,南池袋３丁目１４番１０号,,13,116,1710022,,,,,,,2025-08-21,1,,,,,リボンエステート,0
291,2013301054777,新規,0,2025-08-21,2025-08-21,株式会社Ｍｉｌｌｅａｔｔｏ,,株式会社,東京都,豊島区,北大塚１丁目１６番５号パークアクシス大塚ステーションゲートタワー８０７号,,13,116,1700004,,,,,,,2025-08-21,1,,,,,ミレアト,0
292,2013301054785,新規,0,2025-08-21,2025-08-21,ポッシビ＆リティ株式会社,,株式会社,東京都,豊島区,東池袋１丁目３４番５号いちご東池袋ビル６階,,13,116,1700013,,,,,,,2025-08-21,1,,,,,ポッシビアンドリティ,0
297,2020001164393,新規,0,2025-08-21,2025-08-21,株式会社Ｓ．ＴＥＣ,,株式会社,神奈川県,川崎市多摩区,菅馬場２丁目２１番３０－３号,,14,135,2140004,,,,,,,2025-08-21,1,,,,,エステック,0
298,2020001164435,新規,0,2025-08-21,2025-08-21,株式会社ＶＡＬＯＡ,,株式会社,神奈川県,川崎市宮前区,犬蔵２丁目１１番１６号,,14,136,2160011,,,,,,,2025-08-21,1,,,,,ヴァロア,0
302,2020003029165,新規,0,2025-08-21,2025-08-21,合同会社ＵＮＩＴＥ,,合同会社,神奈川県,川崎市幸区,遠藤町４１－３,,14,132,2120006,,,,,,,2025-08-21,1,,,,,ユナイト,0
303,2020003029223,新規,0,2025-08-21,2025-08-21,合同会社フルスロットル,,合同会社,神奈川県,横浜市神奈川区,金港町５－１４クアドリフォリオ８階,,14,102,2210056,,,,,,,2025-08-21,1,,,,,フルスロットル,0
306,2021001086074,新規,0,2025-08-21,2025-08-21,株式会社Ｆｏｏｄ　Ｓｅｅｄ,,株式会社,神奈川県,相模原市中央区,相模原３丁目６番９号シンワセントラルハイム６０１号室,,14,152,2520231,,,,,,,2025-08-21,1,,,,,フードシード,0
307,2021001086132,新規,0,2025-08-21,2025-08-21,株式会社ＡＭ,,株式会社,神奈川県,相模原市中央区,松が丘１丁目４番２５号,,14,152,2520223,,,,,,,2025-08-21,1,,,,,エイエム,0
321,2040001140137,新規,0,2025-08-21,2025-08-21,株式会社ＡＫＯＹＡ,,株式会社,千葉県,袖ケ浦市,福王台１丁目１番地４新生福王台ビル地下,,12,229,2990261,,,,,,,2025-08-21,1,,,,,アコヤ,0
322,2040001140145,新規,0,2025-08-21,2025-08-21,株式会社嶋田井戸工業,,株式会社,千葉県,旭市,塙１４０５番地６,,12,215,2892702,,,,,,,2025-08-21,1,,,,,シマダイドコウギョウ,0
323,2040001140153,新規,0,2025-08-21,2025-08-21,株式会社Ｌｉｆｉｎｉｔｙ,,株式会社,千葉県,船橋市,習志野台６丁目３番１号,,12,204,2740063,,,,,,,2025-08-21,1,,,,,ライフィニティ,0
325,2040003028330,新規,0,2025-08-21,2025-08-21,合同会社ｃｒａｆｔｍｅｎ,,合同会社,千葉県,千葉市中央区,富士見２丁目１７番１０号１階,,12,101,2600015,,,,,,,2025-08-21,1,,,,,クラフトメン,0
326,2040005022851,新規,0,2025-08-21,2025-08-21,一般社団法人しろい観光交流協会,,その他の設立登記法人,千葉県,白井市,根１１５－６,,12,232,2701431,,,,,,,2025-08-21,1,,,,,シロイカンコウコウリュウキョウカイ,0
339,2080401028127,新規,0,2025-08-21,2025-08-21,株式会社テイクルー,,株式会社,静岡県,浜松市中央区,幸１丁目３番３１号,,22,138,4338123,,,,,,,2025-08-21,1,,,,,テイクルー,0
350,2120001278893,新規,0,2025-08-21,2025-08-21,株式会社和道,,株式会社,大阪府,大阪市西成区,鶴見橋１丁目１０番１４号３０７室,,27,122,5570031,,,,,,,2025-08-21,1,,,,,ワドウ,0
351,2120001278902,新規,0,2025-08-21,2025-08-21,壹嘉株式会社,,株式会社,大阪府,大阪市西成区,玉出中１丁目１３番３－１０１号,,27,122,5570044,,,,,,,2025-08-21,1,,,,,イチヨシ,0
352,2120001278943,新規,0,2025-08-21,2025-08-21,ＣｉＣｉ株式会社,,株式会社,大阪府,大阪市西成区,萩之茶屋２丁目６番４号ニューかめや１０６号室,,27,122,5570004,,,,,,,2025-08-21,1,,,,,シーシー,0
353,2120001278968,新規,0,2025-08-21,2025-08-21,承錫株式会社,,株式会社,大阪府,大阪市東淀川区,豊新３丁目２０番５号リバーエステート４Ｂ号室,,27,114,5330014,,,,,,,2025-08-21,1,,,,,ショウシャク,0
354,2120001278976,新規,0,2025-08-21,2025-08-21,株式会社Ｌｉｖｅ　ｆｕｌｌ,,株式会社,大阪府,大阪市西区,北堀江１丁目１９番８号四ツ橋ＫＭビル,,27,106,5500014,,,,,,,2025-08-21,1,,,,,リヴフル,0
355,2120001279025,新規,0,2025-08-21,2025-08-21,株式会社クリエイティブメンターズ,,株式会社,大阪府,大阪市中央区,南船場３丁目７番２７号ＮＬＣ心斎橋ビル４Ｄ,,27,128,5420081,,,,,,,2025-08-21,1,,,,,クリエイティブメンターズ,0
356,2120901051334,新規,0,2025-08-21,2025-08-21,株式会社マナカイ,,株式会社,大阪府,豊中市,熊野町１丁目４番６４の１号,,27,203,5600014,,,,,,,2025-08-21,1,,,,,マナカイ,0
357,2120903005809,新規,0,2025-08-21,2025-08-21,合同会社ＳＯＡＲ,,合同会社,大阪府,高槻市,土室町４９番１４－２０２号,,27,207,5691147,,,,,,,2025-08-21,1,,,,,ソアー,0
358,2122003003296,新規,0,2025-08-21,2025-08-21,グリーンショップ合同会社,,合同会社,大阪府,八尾市,春日町３丁目３－１９,,27,212,5810061,,,,,,,2025-08-21,1,,,,,グリーンショップ,0
366,2140001139730,新規,0,2025-08-21,2025-08-21,株式会社兵庫ミライト,,株式会社,兵庫県,姫路市,打越５０番地１,,28,201,6712246,,,,,,,2025-08-21,1,,,,,ヒョウゴミライト,0
368,2140003022439,新規,0,2025-08-21,2025-08-21,ＥＮＡＮＡ合同会社,,合同会社,兵庫県,神戸市中央区,海岸通１丁目１番２号レジデンスタワー１７０６号室,,28,110,6500024,,,,,,,2025-08-21,1,,,,,エナナ,0
372,2160001026992,新規,0,2025-08-21,2025-08-21,株式会社ＯＮ,,株式会社,滋賀県,大津市,大石中６丁目５番５０号,,25,201,5202263,,,,,,,2025-08-21,1,,,,,オン,0
377,2180303006699,新規,0,2025-08-21,2025-08-21,ＳＨＩＮＥ　ＨＯＬＤＩＮＧＳ合同会社,,合同会社,愛知県,豊田市,寿町８丁目４番地１後藤マンション２Ｅ,,23,211,4710834,,,,,,,2025-08-21,1,,,,,シャインホールディングス,0
380,2200003006988,新規,0,2025-08-21,2025-08-21,Ｐｉｎｅ　Ｒｏｏｔｓ　Ｃｏｎｓｕｌｔｉｎｇ合同会社,,合同会社,岐阜県,各務原市,蘇原東栄町２丁目３１－２,,21,213,5040815,,,,,,,2025-08-21,1,,,,,パインルーツコンサルティング,0
381,2220001026879,新規,0,2025-08-21,2025-08-21,ウィリオン株式会社,,株式会社,石川県,金沢市,下堤町３４番２号,,17,201,9200917,,,,,,,2025-08-21,1,,,,,ウィリオン,0
387,2240003007371,新規,0,2025-08-21,2025-08-21,合同会社ＳＯＲＡ,,合同会社,広島県,広島市安芸区,瀬野南町１１５番地３,,34,107,7390315,,,,,,,2025-08-21,1,,,,,ソラ,0
408,2340001027601,新規,0,2025-08-21,2025-08-21,株式会社カゴパラ,,株式会社,鹿児島県,鹿児島市,泉町９番５号Ｍ．Ｍビル４０５号,,46,201,8920822,,,,,,,2025-08-21,1,,,,,カゴパラ,0
411,2340003004929,新規,0,2025-08-21,2025-08-21,ＨＯＴＨＩＹＥＮ合同会社,,合同会社,鹿児島県,薩摩郡さつま町,宮之城屋地１５８４－１０,,46,392,8951803,,,,,,,2025-08-21,1,,,,,ホーティイェン,0
412,2350001019705,新規,0,2025-08-21,2025-08-21,株式会社高橋,00140380,株式会社,宮崎県,宮崎市,高岡町内山３４３－１,,45,201,8802321,,,,,,,2025-08-21,1,,,,,タカハシ,0
414,2360003015180,新規,0,2025-08-21,2025-08-21,ＳＫＹＬＡＲ合同会社,,合同会社,沖縄県,那覇市,曙３丁目１４－７,,47,201,9000002,,,,,,,2025-08-21,1,,,,,スカイラー,0
415,2360003015189,新規,0,2025-08-21,2025-08-21,ＴＭＷ合同会社,,合同会社,沖縄県,沖縄市,桃原４丁目２５番１３号エムズガーデン３０２,,47,211,9042164,,,,,,,2025-08-21,1,,,,,ティーエムダブリュー,0
429,2430001095011,新規,0,2025-08-21,2025-08-21,株式会社ヤッシ,,株式会社,北海道,虻田郡倶知安町,字高見２７３番地,,01,400,0440065,,,,,,,2025-08-21,1,,,,,ヤッシ,0
433,2430003017995,新規,0,2025-08-21,2025-08-21,合同会社しーおふ,,合同会社,北海道,室蘭市,輪西町１丁目３１番７号,,01,205,0500085,,,,,,,2025-08-21,1,,,,,シーオフ,0
434,2430003018003,新規,0,2025-08-21,2025-08-21,合同会社光月,,合同会社,北海道,札幌市西区,西野八条３丁目９番２８号マンション和光１０２号,,01,107,0630038,,,,,,,2025-08-21,1,,,,,コウゲツ,0
436,2450001014712,新規,0,2025-08-21,2025-08-21,株式会社ＱｕｕｕｕｕｕＸ,,株式会社,北海道,旭川市,三条通６丁目３３５番２号ステップファーストビル地下,,01,204,0700033,,,,,,,2025-08-21,1,,,,,クアクス,0
461,3010401192515,新規,0,2025-08-21,2025-08-21,ＵＮＡＲＩ株式会社,,株式会社,東京都,港区,赤坂５丁目２番３３号ＩｓａＩＡｋａｓａｋＡ５階,,13,103,1070052,,,,,,,2025-08-21,1,,,,,ユナリ,0
462,3010401192580,新規,0,2025-08-21,2025-08-21,ＳＭＢＣリーガルＸ株式会社,,株式会社,東京都,港区,西新橋１丁目３番１号,,13,103,1050003,,,,,,,2025-08-21,1,,,,,エスエムビーシーリーガルクロス,0
468,3010501054549,新規,0,2025-08-21,2025-08-21,スイックス不動産株式会社,,株式会社,東京都,台東区,浅草橋５丁目８番１１号,,13,106,1110053,,,,,,,2025-08-21,1,,,,,スイックスフドウサン,0
469,3010503007967,新規,0,2025-08-21,2025-08-21,合同会社オーケーフォワード,,合同会社,東京都,台東区,谷中３丁目１０番２０号,,13,106,1100001,,,,,,,2025-08-21,1,,,,,オーケーフォワード,0
482,3011001171693,新規,0,2025-08-21,2025-08-21,株式会社ＴＲＩＬＩＡ,,株式会社,東京都,渋谷区,本町３丁目２３番６号,,13,113,1510071,,,,,,,2025-08-21,1,,,,,トリリア,0
484,3011003022184,新規,0,2025-08-21,2025-08-21,合同会社ＵＶＳ　Ｇａｍｅｓ　Ｊａｐａｎ,,合同会社,東京都,渋谷区,渋谷２丁目２－２４渋谷スクランブルスクエア３９Ｆ,,13,113,1500002,,,,,,,2025-08-21,1,,,,,ユーブイエスゲームスジャパン,0
491,3011401027330,新規,0,2025-08-21,2025-08-21,株式会社我妻技研,,株式会社,東京都,板橋区,志村２丁目１１－２２－３０３プラウド志村城山,,13,119,1740056,,,,,,,2025-08-21,1,,,,,アガツマギケン,0
492,3011501032453,新規,0,2025-08-21,2025-08-21,インセプシオ株式会社,,株式会社,東京都,北区,西ケ原３丁目５４番１６号,,13,117,1140024,,,,,,,2025-08-21,1,,,,,,0
495,3011603004813,新規,0,2025-08-21,2025-08-21,合同会社弘,,合同会社,東京都,練馬区,春日町５丁目１１番４３－１０５号,,13,120,1790074,,,,,,,2025-08-21,1,,,,,ヒロ,0
498,3012401043516,新規,0,2025-08-21,2025-08-21,株式会社ライジング,,株式会社,東京都,調布市,西つつじケ丘３丁目２６番７号アーバンフラッツＭＡ２０３,,13,208,1820006,,,,,,,2025-08-21,1,,,,,ライジング,0
502,3012703003333,新規,0,2025-08-21,2025-08-21,合同会社イイマネジメント,,合同会社,東京都,西東京市,ひばりが丘１丁目６番１５号グリーンラークひばりが丘２０１号,,13,229,2020001,,,,,,,2025-08-21,1,,,,,イイマネジメント,0
504,3013301054776,新規,0,2025-08-21,2025-08-21,株式会社アイマントラスト,,株式会社,東京都,豊島区,南大塚１丁目６０番２０号天翔大塚駅前ビル,,13,116,1700005,,,,,,,2025-08-21,1,,,,,アイマントラスト,0
505,3013301054784,新規,0,2025-08-21,2025-08-21,株式会社ディービューティー,,株式会社,東京都,豊島区,南池袋３丁目１３－９ビスハイム池袋８０７,,13,116,1710022,,,,,,,2025-08-21,1,,,,,ディービューティー,0
506,3013303007823,新規,0,2025-08-21,2025-08-21,合同会社電商技研,,合同会社,東京都,豊島区,池袋２丁目１６－１１,,13,116,1710014,,,,,,,2025-08-21,1,,,,,デンショウギケン,0
511,3020001164203,新規,0,2025-08-21,2025-08-21,株式会社ＡＴ．ＤＩＡＶＡＮＣＥ,,株式会社,神奈川県,横浜市戸塚区,南舞岡３丁目２４－２,,14,110,2440814,,,,,,,2025-08-21,1,,,,,アットディアヴァンス,0
512,3020001164401,新規,0,2025-08-21,2025-08-21,株式会社ＫＴＳ,,株式会社,神奈川県,横浜市保土ケ谷区,新桜ケ丘２丁目２０番１２号,,14,106,2400036,,,,,,,2025-08-21,1,,,,,ケーティーエス,0
516,3020003029156,新規,0,2025-08-21,2025-08-21,合同会社ｎｉｊｉ,,合同会社,神奈川県,横浜市南区,浦舟町１丁目１６番地３クリオ阪東橋壱番館５０８,,14,105,2320024,,,,,,,2025-08-21,1,,,,,ニジ,0
517,3020003029222,新規,0,2025-08-21,2025-08-21,合同会社ロケットアクション,,合同会社,神奈川県,川崎市多摩区,登戸２８２８サニーハイツ向ヶ丘３１４,,14,135,2140014,,,,,,,2025-08-21,1,,,,,ロケットアクション,0
519,3021001086032,新規,0,2025-08-21,2025-08-21,株式会社ＭＩＺＵＭＵＲＡ,,株式会社,神奈川県,藤沢市,石川５丁目５番地の１０,,14,205,2520815,,,,,,,2025-08-21,1,,,,,ミズムラ,0
520,3021001086081,新規,0,2025-08-21,2025-08-21,株式会社ＵＮＳＴＯＣＫ　ＳＴＵＤＩＯ,,株式会社,神奈川県,藤沢市,高倉１０２７番地２８,,14,205,2520802,,,,,,,2025-08-21,1,,,,,アンストックスタジオ,0
521,3021001086148,新規,0,2025-08-21,2025-08-21,株式会社リスタリンク,,株式会社,神奈川県,綾瀬市,落合北５丁目６番６号,,14,218,2521116,,,,,,,2025-08-21,1,,,,,リスタリンク,0
537,3040001140128,新規,0,2025-08-21,2025-08-21,株式会社金蔵,,株式会社,千葉県,市原市,辰巳台西２丁目１１番地３８,,12,219,2900004,,,,,,,2025-08-21,1,,,,,キンゾウ,0
538,3040001140136,新規,0,2025-08-21,2025-08-21,株式会社ＷＨ　Ｃｏｍｐａｎｙ,,株式会社,千葉県,松戸市,東松戸１丁目８番地の５,,12,207,2702225,,,,,,,2025-08-21,1,,,,,ダブリューエイチカンパニー,0
539,3040001140152,新規,0,2025-08-21,2025-08-21,山和物流株式会社,,株式会社,千葉県,野田市,鶴奉８３番地の１５,,12,208,2780003,,,,,,,2025-08-21,1,,,,,サンワブツリュウ,0
540,3040001140169,新規,0,2025-08-21,2025-08-21,株式会社ペット・ホワイト,,株式会社,千葉県,白井市,根１０２番地の２５,,12,232,2701431,,,,,,,2025-08-21,1,,,,,ペットホワイト,0
556,3080103003402,新規,0,2025-08-21,2025-08-21,ＳＫＲＳ合同会社,,合同会社,静岡県,沼津市,新宿町３番地の１８,,22,203,4100048,,,,,,,2025-08-21,1,,,,,,0
578,3120001278983,新規,0,2025-08-21,2025-08-21,株式会社ユアドリーム,,株式会社,大阪府,大阪市生野区,田島５丁目２３番３８－２０３号,,27,116,5440011,,,,,,,2025-08-21,1,,,,,ユアドリーム,0
579,3120001278991,新規,0,2025-08-21,2025-08-21,株式会社ＳＥＭＰＲＥ．Ｍ,,株式会社,大阪府,交野市,星野北七丁目３４番２１－２０１号,,27,230,5760000,,,,,,,2025-08-21,1,,,,,センプレエンメ,0
586,3120003030376,新規,0,2025-08-21,2025-08-21,ＰＹＰＥＶＥＲＳＥ合同会社,,合同会社,大阪府,大阪市北区,梅田１丁目１‐３大阪駅前第３ビル２９階１‐１‐１号室,,27,127,5300001,,,,,,,2025-08-21,1,,,,,パイプヴァース,0
587,3120005025119,新規,0,2025-08-21,2025-08-21,一般社団法人ＴＫＭａｎａｇｅｍｅｎｔ,,その他の設立登記法人,大阪府,大阪市北区,梅田１丁目１３番１号１７階,,27,127,5300001,,,,,,,2025-08-21,1,,,,,ティーケーマネジメント,0
596,3130001080265,新規,0,2025-08-21,2025-08-21,株式会社ファクトリー,,株式会社,京都府,木津川市,加茂町大畑柘榴谷２７番地,,26,214,6191132,,,,,,,2025-08-21,1,,,,,ファクトリー,0
597,3140001139738,新規,0,2025-08-21,2025-08-21,株式会社ＭＡＴＳＵＹＡ＆Ｃｏ．,,株式会社,兵庫県,神戸市中央区,琴ノ緒町５丁目２－２三信ビル４０１,,28,110,6510094,,,,,,,2025-08-21,1,,,,,マツヤアンドコー,0
598,3140001139762,新規,0,2025-08-21,2025-08-21,株式会社こばやし産業医オフィス,,株式会社,兵庫県,神戸市須磨区,離宮前町２丁目５番４５－２０４号,,28,107,6540065,,,,,,,2025-08-21,1,,,,,コバヤシサンギョウイオフィス,0
604,3160001026983,新規,0,2025-08-21,2025-08-21,株式会社エイチラボワークス,,株式会社,滋賀県,東近江市,長町４６９番地２３,,25,213,5270122,,,,,,,2025-08-21,1,,,,,エイチラボワークス,0
606,3170001018765,新規,0,2025-08-21,2025-08-21,秀研株式会社,,株式会社,和歌山県,和歌山市,吹屋町５丁目６５－４,,30,201,6408324,,,,,,,2025-08-21,1,,,,,シュウケン,0
620,3240001065387,新規,0,2025-08-21,2025-08-21,株式会社ｔ＆ａ,,株式会社,広島県,山県郡北広島町,有田３３５３番地１４,,34,369,7311533,,,,,,,2025-08-21,1,,,,,ティーアンドエー,0
636,3290001111153,新規,0,2025-08-21,2025-08-21,株式会社ｋｉｓｕｋｅ,,株式会社,福岡県,糟屋郡粕屋町,戸原東１丁目２番１－６０５号,,40,349,8112318,,,,,,,2025-08-21,1,,,,,キスケ,0
640,3290003017274,新規,0,2025-08-21,2025-08-21,合同会社ｉｎｕとｎｅｋｏ,,合同会社,福岡県,糸島市,二丈深江２５４６番地１,,40,230,8191601,,,,,,,2025-08-21,1,,,,,イヌトネコ,0
641,3290005019806,新規,0,2025-08-21,2025-08-21,一般社団法人マスタードシードクリスチャン教会‐福岡,,その他の設立登記法人,福岡県,福岡市中央区,天神２丁目１１‐１福岡パルコ新館５階,,40,133,8100001,,,,,,,2025-08-21,1,,,,,マスタードシードクリスチャンキョウカイフクオカ,0
642,3290005019814,新規,0,2025-08-21,2025-08-21,須恵旅石宅地開発特定目的会社,,その他の設立登記法人,福岡県,福岡市中央区,天神１丁目１３番２号,,40,133,8100001,,,,,,,2025-08-21,1,,,,,スエタビイシタクチカイハツ,0
652,3340001027600,新規,0,2025-08-21,2025-08-21,株式会社グリーンフォレスト,,株式会社,鹿児島県,鹿児島市,広木２丁目３３番１号,,46,201,8900037,,,,,,,2025-08-21,1,,,,,グリーンフォレスト,0
657,3430003017986,新規,0,2025-08-21,2025-08-21,合同会社画材屋彩匠,,合同会社,北海道,苫小牧市,本幸町２丁目３番１７－４０４号,,01,213,0530015,,,,,,,2025-08-21,1,,,,,ガザイヤサイショウ,0
658,3430003018002,新規,0,2025-08-21,2025-08-21,合同会社ＡＹＭ,,合同会社,北海道,札幌市東区,東雁来十二条２丁目１６番１３号,,01,103,0070032,,,,,,,2025-08-21,1,,,,,エーワイエム,0
661,3430005015278,新規,0,2025-08-21,2025-08-21,特定非営利活動法人ＧａＧａ　Ｈａｓｈ,,その他の設立登記法人,北海道,札幌市白石区,本郷通４丁目北４番２２号,,01,104,0030025,,,,,,,2025-08-21,1,,,,,ガガハッシュ,0
662,3440001009670,新規,0,2025-08-21,2025-08-21,株式会社Ｄｉｓｔｉｎｃｔｉｏｎ,,株式会社,北海道,函館市,湯川町３丁目１３番２１号菊池ビル２階,,01,202,0420932,,,,,,,2025-08-21,1,,,,,ディスティンクション,0
665,3470003002951,新規,0,2025-08-21,2025-08-21,合同会社ＢＲＯＳ,,合同会社,香川県,坂出市,瀬居町９,,37,203,7620067,,,,,,,2025-08-21,1,,,,,ブロス,0
686,4010001257873,新規,0,2025-08-21,2025-08-21,株式会社イズミ塗装防水,,株式会社,東京都,千代田区,岩本町２丁目６番１０号,,13,101,1010032,,,,,,,2025-08-21,1,,,,,イズミトソウボウスイ,0
687,4010001257915,新規,0,2025-08-21,2025-08-21,株式会社トゥエンティツーエラ,,株式会社,東京都,文京区,白山１丁目６番４－Ａ３３,,13,105,1130001,,,,,,,2025-08-21,1,,,,,トゥエンティツーエラ,0
695,4010003048338,新規,0,2025-08-21,2025-08-21,合同会社Ｇｉｎｚａ　Ａｌｉｇｎ　Ｌａｂ,,合同会社,東京都,中央区,銀座２丁目１４番１号３階,,13,102,1040061,,,,,,,2025-08-21,1,,,,,ギンザアラインラブ,0
696,4010003048412,新規,0,2025-08-21,2025-08-21,合同会社Ｌｏｗ　ａｎｄ　Ｋｅｙ,,合同会社,東京都,文京区,本駒込３丁目４０－３,,13,105,1130021,,,,,,,2025-08-21,1,,,,,ロウアンドキー,0
697,4010003048429,新規,0,2025-08-21,2025-08-21,ヒイラギ合同会社,,合同会社,東京都,中央区,銀座１丁目１２－４Ｎ＆ＥＢＬＤ．７階,,13,102,1040061,,,,,,,2025-08-21,1,,,,,ヒイラギ,0
698,4010005040557,新規,0,2025-08-21,2025-08-21,一般社団法人ＫＲＦ１１６,,その他の設立登記法人,東京都,千代田区,内幸町２丁目１番６号,,13,101,1000011,,,,,,,2025-08-21,1,,,,,ケイアールエフヒャクジュウロク,0
704,4010403035803,新規,0,2025-08-21,2025-08-21,ネオハネ・ベンチャーズ合同会社,,合同会社,東京都,港区,元麻布３丁目１番６号,,13,103,1060046,,,,,,,2025-08-21,1,,,,,ネオハネベンチャーズ,0
705,4010403035836,新規,0,2025-08-21,2025-08-21,合同会社ＤＩＭＰｒｏｄｕｃｔｉｏｎｓ,,合同会社,東京都,港区,南青山３丁目１番３６号青山丸竹ビル６Ｆ,,13,103,1070062,,,,,,,2025-08-21,1,,,,,ディムプロダクションズ,0
706,4010403035869,新規,0,2025-08-21,2025-08-21,合同会社ＳＢＩ　Ｃｒｙｐｔｏ　Ｆｕｎｄ,,合同会社,東京都,港区,六本木１丁目６番１号,,13,103,1060032,,,,,,,2025-08-21,1,,,,,エスビーアイクリプトファンド,0
710,4010501054580,新規,0,2025-08-21,2025-08-21,株式会社Ｅｖｏｌｖｅ　Ａｄｖｉｓｏｒｙ,,株式会社,東京都,台東区,浅草２丁目１８番１－３号,,13,106,1110032,,,,,,,2025-08-21,1,,,,,エボルブアドバイザリー,0
712,4010601067813,新規,0,2025-08-21,2025-08-21,株式会社プログレス,,株式会社,東京都,江東区,亀戸２丁目６番３０－９０１号,,13,108,1360071,,,,,,,2025-08-21,1,,,,,プログレス,0
718,4010903010207,新規,0,2025-08-21,2025-08-21,ベグレイター合同会社,,合同会社,東京都,世田谷区,粕谷４丁目８－１７,,13,112,1570063,,,,,,,2025-08-21,1,,,,,ベグレイター,0
719,4010905004818,新規,0,2025-08-21,2025-08-21,一般社団法人日本学生セパタクロー連盟,,その他の設立登記法人,東京都,世田谷区,瀬田３丁目６番６号－１１０１,,13,112,1580095,,,,,,,2025-08-21,1,,,,,ニホンガクセイセパタクローレンメイ,0
722,4011003022340,新規,0,2025-08-21,2025-08-21,Ｌｉｆｅｔｉｍｅｌｉｎｋ合同会社,,合同会社,東京都,渋谷区,西原２丁目２５番１３－５１５号,,13,113,1510066,,,,,,,2025-08-21,1,,,,,ライフタイムリンク,0
729,4011305003063,新規,0,2025-08-21,2025-08-21,一般社団法人家庭医療促進協議会,,その他の設立登記法人,東京都,杉並区,成田東５丁目４番２６号,,13,115,1660015,,,,,,,2025-08-21,1,,,,,カテイイリョウソクシンキョウギカイ,0
746,4013301054775,新規,0,2025-08-21,2025-08-21,株式会社フロンティアアセット,,株式会社,東京都,豊島区,東池袋１丁目２３番８号,,13,116,1700013,,,,,,,2025-08-21,1,,,,,フロンティアアセット,0
754,4020001164391,新規,0,2025-08-21,2025-08-21,株式会社ｉｍｐｒｏｖｅ,,株式会社,神奈川県,横浜市港南区,日野５丁目１７番１４－２０１号,,14,111,2340051,,,,,,,2025-08-21,1,,,,,インプルーブ,0
755,4020001164490,新規,0,2025-08-21,2025-08-21,株式会社ミュージックブルーム,,株式会社,神奈川県,横浜市中区,日本大通７番地合人社横浜日本大通７－４階,,14,104,2310021,,,,,,,2025-08-21,1,,,,,ミュージックブルーム,0
757,4020003029163,新規,0,2025-08-21,2025-08-21,合同会社ＶＩＶＡ　ＬＡ　ＶＩＶＡ,,合同会社,神奈川県,横浜市中区,長者町２丁目６番地１ライフレビュー横濱関内スクエアＩＩ８０５号室,00140372,14,104,2310033,,,,,,,2025-08-21,1,,,,,ビバラビバ,0
761,4021003016465,新規,0,2025-08-21,2025-08-21,桜モーターズ合同会社,,合同会社,神奈川県,座間市,ひばりが丘１丁目５３番１３号Ｋワンハウス１０２号,,14,216,2520003,,,,,,,2025-08-21,1,,,,,サクラモーターズ,0
767,4040001140151,新規,0,2025-08-21,2025-08-21,いろは株式会社,,株式会社,千葉県,八千代市,勝田台南１丁目１０番１７号,,12,221,2760025,,,,,,,2025-08-21,1,,,,,イロハ,0
768,4040001140168,新規,0,2025-08-21,2025-08-21,株式会社じゃらしワークス,,株式会社,千葉県,八街市,八街に４８番地９フィレンテＫＦ１０２,,12,230,2891103,,,,,,,2025-08-21,1,,,,,ジャラシワークス,0
794,4120001278834,新規,0,2025-08-21,2025-08-21,ＷＯＲＬＤ　ｏｆ　ＳＴＡＲＳ株式会社,,株式会社,大阪府,大阪市住吉区,長居東４丁目１５番３０号,,27,120,5580004,,,,,,,2025-08-21,1,,,,,ワールドオブスターズ,0
795,4120001278933,新規,0,2025-08-21,2025-08-21,株式会社トラストホールディングス,,株式会社,大阪府,大阪市北区,梅田１丁目１番３号,,27,127,5300001,,,,,,,2025-08-21,1,,,,,トラストホールディングス,0
796,4120001278958,新規,0,2025-08-21,2025-08-21,株式会社ＳＨＩＮＰＯ,,株式会社,大阪府,大阪市港区,市岡元町２丁目１３番９号,,27,107,5520002,,,,,,,2025-08-21,1,,,,,シンポ,0
797,4120001278990,新規,0,2025-08-21,2025-08-21,株式会社スグレル,,株式会社,大阪府,大阪市西成区,鶴見橋３丁目１番３０号２０６室,,27,122,5570031,,,,,,,2025-08-21,1,,,,,スグレル,0
801,4120003030359,新規,0,2025-08-21,2025-08-21,Ｃａｉｓｓａ　Ｊａｐａｎ合同会社,,合同会社,大阪府,大阪市住之江区,南港北２丁目１番１０号ＡＴＣビルＩＴＭ棟４階Ｎ－２,,27,125,5590034,,,,,,,2025-08-21,1,,,,,カイッサジャパン,0
806,4120901051423,新規,0,2025-08-21,2025-08-21,ＳＯＲＡ株式会社,,株式会社,大阪府,吹田市,高野台３丁目１８番３号,,27,205,5650861,,,,,,,2025-08-21,1,,,,,ソラ,0
811,4130001080306,新規,0,2025-08-21,2025-08-21,株式会社みのり,,株式会社,京都府,京都市中京区,錦堀川町６３３番地－５０１号室,,26,104,6048235,,,,,,,2025-08-21,1,,,,,ミノリ,0
812,4130003010681,新規,0,2025-08-21,2025-08-21,みちの葉合同会社,,合同会社,京都府,向日市,上植野町十ケ坪２番地の１,,26,208,6170006,,,,,,,2025-08-21,1,,,,,ミチノハ,0
817,4150003003691,新規,0,2025-08-21,2025-08-21,フローライズ合同会社,,合同会社,奈良県,桜井市,大字倉橋２９２,,29,206,6330021,,,,,,,2025-08-21,1,,,,,フローライズ,0
819,4160003003575,新規,0,2025-08-21,2025-08-21,合同会社藤右衛門,,合同会社,滋賀県,野洲市,久野部３１８番地,,25,210,5202353,,,,,,,2025-08-21,1,,,,,トウエモン,0
826,4180301040129,新規,0,2025-08-21,2025-08-21,株式会社彩り,,株式会社,愛知県,西尾市,寺津６丁目３番地,,23,213,4440327,,,,,,,2025-08-21,1,,,,,イロドリ,0
833,4210001020286,新規,0,2025-08-21,2025-08-21,公共資源マネジメント株式会社,,株式会社,福井県,敦賀市,神楽町２丁目７－６,,18,202,9140063,,,,,,,2025-08-21,1,,,,,コウキョウシゲンマネジメント,0
835,4230001021051,新規,0,2025-08-21,2025-08-21,株式会社フィル,,株式会社,富山県,富山市,布瀬町南２丁目１１番地１８,,16,201,9398208,,,,,,,2025-08-21,1,,,,,フィル,0
838,4240001065394,新規,0,2025-08-21,2025-08-21,株式会社２１ｍｅ,,株式会社,広島県,広島市中区,大手町５丁目１６番７－８０３号,,34,101,7300051,,,,,,,2025-08-21,1,,,,,トゥエンティワァンミィ,0
848,4280001009496,新規,0,2025-08-21,2025-08-21,株式会社ＲｅＰｕｂ,,株式会社,島根県,仁多郡奥出雲町,三沢５０１番地１,,32,343,6991513,,,,,,,2025-08-21,1,,,,,リパブ,0
854,4290001111152,新規,0,2025-08-21,2025-08-21,株式会社龍生,,株式会社,福岡県,福岡市西区,大字羽根戸６８６番地１,,40,135,8190038,,,,,,,2025-08-21,1,,,,,タツオ,0
855,4290001111160,新規,0,2025-08-21,2025-08-21,株式会社福岡プラント機工,,株式会社,福岡県,大牟田市,明治町２丁目３５番地,,40,202,8360012,,,,,,,2025-08-21,1,,,,,フクオカプラントキコウ,0
856,4290003017281,新規,0,2025-08-21,2025-08-21,ハートビーツ合同会社,,合同会社,福岡県,福岡市中央区,清川１丁目２番１２号,,40,133,8100005,,,,,,,2025-08-21,1,,,,,ハートビーツ,0
857,4300003002331,新規,0,2025-08-21,2025-08-21,合同会社カナリアン,,合同会社,佐賀県,武雄市,武雄町大字武雄５６３７－８,,41,206,8430022,,,,,,,2025-08-21,1,,,,,カナリアン,0
861,4310003005069,新規,0,2025-08-21,2025-08-21,合同会社ＧＲＡＮＴＳ,,合同会社,長崎県,長崎市,鍛冶屋町２－１６－３０１,,42,201,8500831,,,,,,,2025-08-21,1,,,,,グランツ,0
865,4320003004739,新規,0,2025-08-21,2025-08-21,ＪＦＥ合同会社,,合同会社,大分県,臼杵市,野津町大字山頭２８１０番地１,,44,206,8750202,,,,,,,2025-08-21,1,,,,,ジェイエフイー,0
866,4320005010256,新規,0,2025-08-21,2025-08-21,一般社団法人にじのひろば,,その他の設立登記法人,大分県,別府市,光町１５番１５号,,44,202,8740930,,,,,,,2025-08-21,1,,,,,ニジノヒロバ,0
872,4340001027608,新規,0,2025-08-21,2025-08-21,株式会社メディカルフーズサービス,,株式会社,鹿児島県,鹿児島市,草牟田１丁目８番１９号,,46,201,8900014,,,,,,,2025-08-21,1,,,,,メディカルフーズサービス,0
875,4350003005008,新規,0,2025-08-21,2025-08-21,合同会社ＣＨＩＡＲＡ,,合同会社,宮崎県,宮崎市,神宮三丁目５番４８号ザ・カハラ２１５号室,,45,201,8800000,,,,,,,2025-08-21,1,,,,,キアラ,0
878,4360001035641,新規,0,2025-08-21,2025-08-21,琉球うむしん株式会社,,株式会社,沖縄県,那覇市,久茂地３丁目２６－３２ＹＳＣビル２０２,,47,201,9000015,,,,,,,2025-08-21,1,,,,,リュウキュウウムシン,0
884,4430001095067,新規,0,2025-08-21,2025-08-21,株式会社ＢｕｚｚＣｒｅ,,株式会社,北海道,札幌市厚別区,厚別西四条１丁目１７番１２号,,01,108,0040064,,,,,,,2025-08-21,1,,,,,バズクリ,0
887,4430003018001,新規,0,2025-08-21,2025-08-21,合同会社ＳＬＯＷ　ＬＩＦＥ,,合同会社,北海道,札幌市東区,中沼二条２丁目１番６号,,01,103,0070002,,,,,,,2025-08-21,1,,,,,スローライフ,0
890,4700150131628,新規,0,2025-08-21,2025-08-21,ＫＡＭＰＯＮＧ　ＨＡＫＵＢＡ　ＰＴＥ．ＬＴＤ．,,外国会社等,,,,,,,,３３　ＵＢＩ　ＡＶＥＮＵＥ　３　＃０８－１３，ＶＥＲＴＥＸ，ＳＩＮＧＡＰＯＲＥ,,,,,,2025-08-21,1,,,,,カンポンハクバピーテイーイーリミテツド,0
910,5010001257880,新規,0,2025-08-21,2025-08-21,株式会社ＡＭＡＲＡ,,株式会社,東京都,中央区,晴海５丁目６番３－１４０８号,,13,102,1040053,,,,,,,2025-08-21,1,,,,,アマラ,0
913,5010005040556,新規,0,2025-08-21,2025-08-21,一般社団法人ＫＲＦ１１５,,その他の設立登記法人,東京都,千代田区,内幸町２丁目１番６号,,13,101,1000011,,,,,,,2025-08-21,1,,,,,ケイアールエフヒャクジュウゴ,0
914,5010005040564,新規,0,2025-08-21,2025-08-21,一般社団法人ＪＰＡ４,,その他の設立登記法人,東京都,千代田区,丸の内１丁目４番１号東京共同会計事務所内,,13,101,1000005,,,,,,,2025-08-21,1,,,,,ジェイピーエーフォー,0
916,5010101016831,新規,0,2025-08-21,2025-08-21,株式会社凱翔,,株式会社,東京都,八王子市,上野町３１番地８－１０２,,13,201,1920902,,,,,,,2025-08-21,1,,,,,ガイショウ,0
926,5010401192570,新規,0,2025-08-21,2025-08-21,株式会社Ｂｌｏｏｍ,,株式会社,東京都,港区,新橋５丁目３１番８号ル・グラシエルＢＬＤＧ．３２・８Ｆ８０２号,,13,103,1050004,,,,,,,2025-08-21,1,,,,,ブルーム,0
929,5010403035785,新規,0,2025-08-21,2025-08-21,ＧＥＮｉ３合同会社,,合同会社,東京都,港区,北青山１丁目３番１号アールキューブ青山３階,,13,103,1070061,,,,,,,2025-08-21,1,,,,,ジェンアイスリー,0
931,5010501054605,新規,0,2025-08-21,2025-08-21,エスバイアールジャパン株式会社,,株式会社,東京都,台東区,台東４丁目３１番１号ＡＬビル４０５,,13,106,1100016,,,,,,,2025-08-21,1,,,,,エスバイアールジャパン,0
935,5010801036492,新規,0,2025-08-21,2025-08-21,株式会社９９,,株式会社,東京都,大田区,山王３丁目１３番１３－３０５号,,13,111,1430023,,,,,,,2025-08-21,1,,,,,キュウジュウキュウ,0
950,5011001171956,新規,0,2025-08-21,2025-08-21,株式会社ＨＡＮＡ,,株式会社,東京都,渋谷区,元代々木町４６番４号プラウド元代々木町３０５,,13,113,1510062,,,,,,,2025-08-21,1,,,,,ハナ,0
951,5011003022380,新規,0,2025-08-21,2025-08-21,合同会社和,,合同会社,東京都,目黒区,駒場１丁目１番１７,,13,110,1530041,,,,,,,2025-08-21,1,,,,,ノドカ,0
962,5011503006651,新規,0,2025-08-21,2025-08-21,合同会社Ａｌｏｈａ　Ｍｉｎｅｒａｌｓ,,合同会社,東京都,荒川区,東日暮里２丁目４９－２－５０１,,13,118,1160014,,,,,,,2025-08-21,1,,,,,アロハミネラルズ,0
969,5011803007036,新規,0,2025-08-21,2025-08-21,ＰＲＡＭＩＳＨＡ合同会社,,合同会社,東京都,葛飾区,西新小岩４丁目２５番２３号エルマンション１Ｂ－３０２,,13,122,1240025,,,,,,,2025-08-21,1,,,,,プラミシャ,0
972,5013301054774,新規,0,2025-08-21,2025-08-21,株式会社ルムカン,,株式会社,東京都,豊島区,東池袋３丁目１番１号サンシャイン６０、１２階,,13,116,1700013,,,,,,,2025-08-21,1,,,,,ルムカン,0
973,5013301054782,新規,0,2025-08-21,2025-08-21,株式会社Ｅｎｅｒｇｙ　Ｐｏｒｔ,,株式会社,東京都,豊島区,東池袋２丁目６２番８号ＢＩＧオフィスプラザ池袋１２０６,,13,116,1700013,,,,,,,2025-08-21,1,,,,,エナジーポート,0
975,5013303007821,新規,0,2025-08-21,2025-08-21,合同会社二の太刀,,合同会社,東京都,豊島区,東池袋２丁目６２番８号ＢＩＧオフィスプラザ池袋１２０６,,13,116,1700013,,,,,,,2025-08-21,1,,,,,ニノタチ,0
978,5020001164309,新規,0,2025-08-21,2025-08-21,株式会社ジュエルライフ陽香里,,株式会社,神奈川県,横浜市金沢区,堀口１０番１６号ル・パレミサ１０２号,,14,108,2360054,,,,,,,2025-08-21,1,,,,,ジュエルライフヒカリ,0
979,5020001164382,新規,0,2025-08-21,2025-08-21,Ｅｎｅｐｌｕｓ株式会社,,株式会社,神奈川県,横浜市神奈川区,鶴屋町２丁目９－２２日興パレス横浜６０８号室,,14,102,2210835,,,,,,,2025-08-21,1,,,,,エネプラス,0
980,5020001164390,新規,0,2025-08-21,2025-08-21,ＴＴテッククリエーション株式会社,,株式会社,神奈川県,川崎市幸区,鹿島田１丁目１番２号,,14,132,2120058,,,,,,,2025-08-21,1,,,,,ティーティーテッククリエーション,0
981,5020001164424,新規,0,2025-08-21,2025-08-21,ケイエムエフ株式会社,,株式会社,神奈川県,横浜市中区,桜木町１丁目１０１番地１クロスゲート７階,,14,104,2310062,,,,,,,2025-08-21,1,,,,,ケイエムエフ,0
989,5021003016423,新規,0,2025-08-21,2025-08-21,合同会社湘南ＬＳ,,合同会社,神奈川県,足柄上郡大井町,上大井４６１－１,,14,362,2580016,,,,,,,2025-08-21,1,,,,,ショウナンライフサービス,0
990,5021005013419,新規,0,2025-08-21,2025-08-21,一般社団法人ＨＡＲＶＥＳＴ　ＰＡＲＫ,,その他の設立登記法人,神奈川県,茅ヶ崎市,平和町１２－２０－２０,,14,207,2530024,,,,,,,2025-08-21,1,,,,,ハーベストパーク,0
1001,5030001168250,新規,0,2025-08-21,2025-08-21,株式会社青蔦,,株式会社,埼玉県,さいたま市北区,土呂町１丁目２６番地１レーベン大宮土呂ＤＥＬＩＧＨＴ・ＭＡＲＫＳ５０５号,,11,102,3310804,,,,,,,2025-08-21,1,,,,,アオツタ,0
1009,5040001140142,新規,0,2025-08-21,2025-08-21,セレモニーアシスト株式会社,,株式会社,千葉県,印旛郡酒々井町,東酒々井１丁目１－１０,,12,322,2850923,,,,,,,2025-08-21,1,,,,,セレモニーアシスト,0
1010,5040001140159,新規,0,2025-08-21,2025-08-21,株式会社Ｗｏｒｌｄ　Ａｒｃ,,株式会社,千葉県,千葉市中央区,院内２丁目１４－１第１カヲルビル８０１号室,,12,101,2600018,,,,,,,2025-08-21,1,,,,,ワールドアーク,0
1024,5080001027105,新規,0,2025-08-21,2025-08-21,株式会社ハシクリ,,株式会社,静岡県,静岡市葵区,紺屋町七丁目１５番Ｙ’ｓＰＬＡＴＺ１－Ａ,,22,101,4200852,,,,,,,2025-08-21,1,,,,,ハシクリ,0
1033,5120001278882,新規,0,2025-08-21,2025-08-21,甘蘭飲食株式会社,,株式会社,大阪府,大阪市北区,天満２丁目１－１２,,27,127,5300043,,,,,,,2025-08-21,1,,,,,カンランインショク,0
1034,5120001278924,新規,0,2025-08-21,2025-08-21,ＭＡＴＳＵＤＡ株式会社,,株式会社,大阪府,大阪市住之江区,新北島１丁目４－１５トウビ住之江ビル２１１号室,,27,125,5590024,,,,,,,2025-08-21,1,,,,,マツダ,0
1035,5120001278973,新規,0,2025-08-21,2025-08-21,株式会社ＧｒａｎｄｅＨａｒｍｏｎｙ,,株式会社,大阪府,大阪市平野区,喜連西２丁目９－４,,27,126,5470026,,,,,,,2025-08-21,1,,,,,グランデハーモニー,0
1036,5120001279006,新規,0,2025-08-21,2025-08-21,ベラリリュウ国際貿易株式会社,,株式会社,大阪府,大阪市西区,九条２丁目１７番１２号１０１号室,,27,106,5500027,,,,,,,2025-08-21,1,,,,,ベラリリュウコクサイボウエキ,0
1037,5120001279022,新規,0,2025-08-21,2025-08-21,エールサポート株式会社,,株式会社,大阪府,大阪市生野区,田島５丁目１７番１０号,,27,116,5440011,,,,,,,2025-08-21,1,,,,,エールサポート,0
1041,5120003030358,新規,0,2025-08-21,2025-08-21,合同会社ごん吉,,合同会社,大阪府,大阪市浪速区,日本橋西１丁目３番１１号２Ｆ,,27,111,5560004,,,,,,,2025-08-21,1,,,,,ゴンキチ,0
1044,5120101072302,新規,0,2025-08-21,2025-08-21,株式会社ＨＯＮＧＯＵＴ,,株式会社,大阪府,堺市西区,浜寺諏訪森町中１丁１４０番地２,,27,144,5928348,,,,,,,2025-08-21,1,,,,,ハングアウト,0
1050,5130001080313,新規,0,2025-08-21,2025-08-21,唐興株式会社,,株式会社,京都府,京都市北区,大北山原谷乾町４８番地３の３０２室,,26,101,6038487,,,,,,,2025-08-21,1,,,,,トウキョウ,0
1051,5130001080404,新規,0,2025-08-21,2025-08-21,ＭＩ‐Ｐｌａｙｅｒｓ株式会社,,株式会社,京都府,京都市西京区,大枝北沓掛町１丁目５番地３サンシティ桂坂ロイヤル参番館２１１号,,26,111,6101101,,,,,,,2025-08-21,1,,,,,エムアイプレイヤーズ,0
1053,5130003010680,新規,0,2025-08-21,2025-08-21,合同会社Ａｔｅｌｉｅｒ　ＭＡＲＵ　ｔｏ　ＡＲＵ,,合同会社,京都府,京都市下京区,小稲荷町８５－２Ｇｒａｎｄ－Ｋ京都駅前ビル２０１,,26,106,6008208,,,,,,,2025-08-21,1,,,,,アトリエマルトアル,0
1059,5140001139728,新規,0,2025-08-21,2025-08-21,杭荀株式会社,,株式会社,兵庫県,神戸市灘区,篠原台２３番６号,,28,102,6570016,,,,,,,2025-08-21,1,,,,,コウジュン,0
1060,5140001139736,新規,0,2025-08-21,2025-08-21,株式会社家島ライナー,,株式会社,兵庫県,姫路市,家島町真浦５９０番地７,,28,201,6720101,,,,,,,2025-08-21,1,,,,,イエシマライナー,0
1061,5140001139752,新規,0,2025-08-21,2025-08-21,ミミソラ株式会社,,株式会社,兵庫県,神戸市東灘区,向洋町中６丁目９番,,28,101,6580032,,,,,,,2025-08-21,1,,,,,ミミソラ,0
1068,5140003022460,新規,0,2025-08-21,2025-08-21,合同会社一松,,合同会社,兵庫県,明石市,北朝霧丘１丁目１６２９番地の５９メゾンドール明石山ノ手台４２１号,,28,203,6730857,,,,,,,2025-08-21,1,,,,,イチマツ,0
1070,5150001028343,新規,0,2025-08-21,2025-08-21,咲守パートナーズ株式会社,,株式会社,奈良県,奈良市,橋本町３番地の１,,29,201,6308217,,,,,,,2025-08-21,1,,,,,サキモリパートナーズ,0
1085,5200003006969,新規,0,2025-08-21,2025-08-21,合同会社風と虹,,合同会社,岐阜県,岐阜市,野一色８丁目１３番６号,,21,201,5008226,,,,,,,2025-08-21,1,,,,,カゼトニジ,0
1092,5240001065393,新規,0,2025-08-21,2025-08-21,どこでも着物美人株式会社,,株式会社,広島県,広島市西区,観音本町１丁目１４番９号,,34,104,7330033,,,,,,,2025-08-21,1,,,,,ドコデモキモノビジン,0
1106,5280001009495,新規,0,2025-08-21,2025-08-21,株式会社Ｍｅｒｒｙ,,株式会社,島根県,松江市,上佐陀町８番地２,,32,201,6900867,,,,,,,2025-08-21,1,,,,,メリー,0
1112,5290801031771,新規,0,2025-08-21,2025-08-21,株式会社伸松,,株式会社,福岡県,直方市,大字頓野２５９番地４７,,40,204,8220002,,,,,,,2025-08-21,1,,,,,シンショウ,0
1114,5290803005138,新規,0,2025-08-21,2025-08-21,ａｍｂｅｒ合同会社,,合同会社,福岡県,北九州市八幡東区,西丸山町５番６号,,40,108,8050052,,,,,,,2025-08-21,1,,,,,アンバー,0
1134,5430001095041,新規,0,2025-08-21,2025-08-21,株式会社ＶＯＲＫ,,株式会社,北海道,余市郡余市町,黒川町１８丁目２７番地２,,01,408,0460003,,,,,,,2025-08-21,1,,,,,フォーク,0
1135,5430001095066,新規,0,2025-08-21,2025-08-21,ジャパンエリアレント株式会社,,株式会社,北海道,苫小牧市,三光町２丁目２５番５－８０３号,,01,213,0530042,,,,,,,2025-08-21,1,,,,,ジャパンエリアレント,0
1142,5500003003572,新規,0,2025-08-21,2025-08-21,しまなみ農園合同会社,,合同会社,愛媛県,新居浜市,垣生６丁目１番４０号,,38,205,7920872,,,,,,,2025-08-21,1,,,,,シマナミノウエン,0
1151,6010001257871,新規,0,2025-08-21,2025-08-21,ＭＣ　Ｌｉｖｉｎｇ　Ｉｎｖｅｓｔｍｅｎｔ　Ａｕｓｔｒａｌｉａ株式会社,,株式会社,東京都,千代田区,大手町１丁目４番２号,,13,101,1000004,,,,,,,2025-08-21,1,,,,,エムシーリビングインベストメントオーストラリア,0
1157,6010003048278,新規,0,2025-08-21,2025-08-21,合同会社ＥＦＦＯＲＴＬＥＳＳ　ＥＬＥＧＡＮＣＥ,,合同会社,東京都,千代田区,神田和泉町１番地６－１６ヤマトビル４０５,,13,101,1010024,,,,,,,2025-08-21,1,,,,,エフォートレスエレガンス,0
1162,6010405024678,新規,0,2025-08-21,2025-08-21,一般社団法人ＵＩＶ３,,その他の設立登記法人,東京都,港区,海岸１丁目２番２０号汐留ビルディング３階ＣＳＣＪａｐａｎＣｏｒｐｏｒａｔｅＳｅｒｖｉｃｅｓ株式会社内,,13,103,1050022,,,,,,,2025-08-21,1,,,,,ユーアイヴィスリー,0
1164,6010503007964,新規,0,2025-08-21,2025-08-21,合同会社ＭＩＲＡＩ　ＧＬＯＢＡＬ,,合同会社,東京都,台東区,柳橋１丁目２－１２－５ＦＡＢＳＥ－５号,,13,106,1110052,,,,,,,2025-08-21,1,,,,,ミライグローバル,0
1169,6010801036500,新規,0,2025-08-21,2025-08-21,株式会社ヤタガラス,,株式会社,東京都,大田区,多摩川２丁目２８番３０‐８１１号,,13,111,1460095,,,,,,,2025-08-21,1,,,,,ヤタガラス,0
1175,6011001171567,新規,0,2025-08-21,2025-08-21,株式会社ｐｏｐｏＹ,,株式会社,東京都,目黒区,上目黒２丁目３０番８号Ｊ×Ｗ中目黒２０３,,13,110,1530051,,,,,,,2025-08-21,1,,,,,ポポワイ,0
1176,6011001171856,新規,0,2025-08-21,2025-08-21,Ａｎｃｈｏｒ　Ｃａｐｉｔａｌ　Ｇｒｏｕｐ株式会社,,株式会社,東京都,目黒区,青葉台１丁目６番５９号,,13,110,1530042,,,,,,,2025-08-21,1,,,,,アンカーキャピタルグループ,0
1179,6011003022289,新規,0,2025-08-21,2025-08-21,合同会社ＮＥＳ,,合同会社,東京都,渋谷区,道玄坂１丁目１０番８号渋谷道玄坂東急ビル２Ｆ－Ｃ,,13,113,1500043,,,,,,,2025-08-21,1,,,,,エヌイーエス,0
1180,6011005011109,新規,0,2025-08-21,2025-08-21,一般社団法人１０１年医療研究会,,その他の設立登記法人,東京都,渋谷区,円山町２２－１２－２０２,,13,113,1500044,,,,,,,2025-08-21,1,,,,,ヒャクイチネンイリョウケンキュウカイ,0
1181,6011005011125,新規,0,2025-08-21,2025-08-21,一般社団法人医科歯科共育会,,その他の設立登記法人,東京都,渋谷区,神南１丁目２０番１２号遠山ビル４階,,13,113,1500041,,,,,,,2025-08-21,1,,,,,イカシカキョウイクカイ,0
1194,6011703004355,新規,0,2025-08-21,2025-08-21,合同会社ＳＡＸＳＩＡ,,合同会社,東京都,江戸川区,大杉１丁目１３番３号,,13,123,1320022,,,,,,,2025-08-21,1,,,,,サクシア,0
1197,6011801046621,新規,0,2025-08-21,2025-08-21,株式会社木人建,,株式会社,東京都,足立区,古千谷本町４丁目２番１７号,,13,121,1210832,,,,,,,2025-08-21,1,,,,,モクジンケン,0
1202,6012803003833,新規,0,2025-08-21,2025-08-21,デルタガレージ合同会社,,合同会社,東京都,立川市,富士見町６丁目６４番３号２１０号,,13,202,1900013,,,,,,,2025-08-21,1,,,,,デルタガレージ,0
1204,6013301054781,新規,0,2025-08-21,2025-08-21,株式会社ＳＯＣＩＮＡＲＹ　ＣＯＬＬＥＣＴ,,株式会社,東京都,豊島区,池袋本町２丁目２番１３号,,13,116,1700011,,,,,,,2025-08-21,1,,,,,ソシナリーコレクト,0
1210,6020001164340,新規,0,2025-08-21,2025-08-21,株式会社トゥデイイズザデイ,,株式会社,神奈川県,川崎市高津区,久地３丁目１６番５－１１０８号溝の口ガーデンアクアスＡ棟,,14,134,2130032,,,,,,,2025-08-21,1,,,,,トゥデイイズザデイ,0
1211,6020001164407,新規,0,2025-08-21,2025-08-21,すまい査定カウンター株式会社,,株式会社,神奈川県,横浜市西区,宮崎町５５番地,,14,103,2200031,,,,,,,2025-08-21,1,,,,,スマイサテイカウンター,0
1212,6020001164431,新規,0,2025-08-21,2025-08-21,株式会社創翔,,株式会社,神奈川県,川崎市川崎区,鋼管通１丁目２０番１１－２０２号,,14,131,2100852,,,,,,,2025-08-21,1,,,,,ソウショウ,0
1215,6020003029104,新規,0,2025-08-21,2025-08-21,Ａ．Ｏ．ＧＯＡＴ合同会社,,合同会社,神奈川県,横浜市西区,北幸２丁目１０番４８号むつみビル３階,,14,103,2200004,,,,,,,2025-08-21,1,,,,,エーオーゴート,0
1216,6020003029153,新規,0,2025-08-21,2025-08-21,ＴｅｌｏｍｅｒｅＥｎｔｅｒｔａｉｎｍｅｎｔ合同会社,,合同会社,神奈川県,横浜市神奈川区,三枚町１９９－１７,,14,102,2210862,,,,,,,2025-08-21,1,,,,,テロメアエンターテイメント,0
1217,6020003029161,新規,0,2025-08-21,2025-08-21,Ｐｒｅｄｉｃｔｉｏｎ合同会社,,合同会社,神奈川県,横浜市西区,北幸１丁目１１番１号水信ビル７階,,14,103,2200004,,,,,,,2025-08-21,1,,,,,プレディクション,0
1224,6021003016430,新規,0,2025-08-21,2025-08-21,マーズ合同会社,,合同会社,神奈川県,中郡二宮町,百合が丘３丁目３番５号,,14,342,2590133,,,,,,,2025-08-21,1,,,,,マーズ,0
1230,6030001168175,新規,0,2025-08-21,2025-08-21,株式会社はちのふく,,株式会社,埼玉県,戸田市,南町４番１６－１０６号,,11,224,3350025,,,,,,,2025-08-21,1,,,,,ハチノフク,0
1231,6030001168209,新規,0,2025-08-21,2025-08-21,ＡＲＴＮＹ９株式会社,,株式会社,埼玉県,越谷市,瓦曽根１丁目８－２０,,11,222,3430821,,,,,,,2025-08-21,1,,,,,アートニーク,0
1232,6030001168266,新規,0,2025-08-21,2025-08-21,株式会社Ｗｉｎｖｅｓｔ,,株式会社,埼玉県,川口市,上青木３丁目７番１１号メゾンモンターニュＩＶ,00140370,11,203,3330844,,,,,,,2025-08-21,1,,,,,ウィンベスト,0
1233,6030001168290,新規,0,2025-08-21,2025-08-21,株式会社和信,,株式会社,埼玉県,川越市,岸町２丁目３番地１９,,11,201,3501131,,,,,,,2025-08-21,1,,,,,ワシン,0
1236,6030003027445,新規,0,2025-08-21,2025-08-21,草加サービス合同会社,,合同会社,埼玉県,草加市,高砂２丁目１８番２１－６０１号,,11,221,3400015,,,,,,,2025-08-21,1,,,,,ソウカサービス,0
1237,6030005022246,新規,0,2025-08-21,2025-08-21,一般社団法人加須市物産観光協会,,その他の設立登記法人,埼玉県,加須市,中央１丁目１１番４１号,,11,210,3470055,,,,,,,2025-08-21,1,,,,,カゾシブッサンカンコウキョウカイ,0
1239,6040001140125,新規,0,2025-08-21,2025-08-21,Ｈａｌｅ　Ｓｔｙｌｅ株式会社,,株式会社,千葉県,市川市,菅野３丁目１番２１－１０３号,,12,203,2720824,,,,,,,2025-08-21,1,,,,,ハレスタイル,0
1240,6040001140141,新規,0,2025-08-21,2025-08-21,株式会社アヤック,,株式会社,千葉県,松戸市,秋山３丁目１４番地の１１,,12,207,2702223,,,,,,,2025-08-21,1,,,,,アヤック,0
1242,6040003028319,新規,0,2025-08-21,2025-08-21,イーケバブ合同会社,,合同会社,千葉県,流山市,西初石３丁目９７番地,,12,220,2700121,,,,,,,2025-08-21,1,,,,,イーケバブ,0
1246,6050005013680,新規,0,2025-08-21,2025-08-21,特定非営利活動法人茨城県北地域中学生バレーボールリーグ,,その他の設立登記法人,茨城県,日立市,十王町友部１９３６番地１,,08,202,3191304,,,,,,,2025-08-21,1,,,,,イバラキケンホクチイキチュウガクセイバレーボールリーグ,0
1250,6060003005695,新規,0,2025-08-21,2025-08-21,合同会社ＰＯＲ,,合同会社,栃木県,栃木市,大平町蔵井２００３番地２０,,09,203,3294403,,,,,,,2025-08-21,1,,,,,ピーオーアール,0
1260,6080103003399,新規,0,2025-08-21,2025-08-21,合同会社幸葉館,,合同会社,静岡県,富士宮市,城北町５０６番地の１アグレアーブル２０５,,22,207,4180062,,,,,,,2025-08-21,1,,,,,コウヨウカン,0
1266,6110003005863,新規,0,2025-08-21,2025-08-21,合同会社越後長岡ＳＡＫＥ観光プロジェクト,,合同会社,新潟県,長岡市,大手町二丁目２番地６,,15,202,9400000,,,,,,,2025-08-21,1,,,,,エチゴナガオカサケカンコウプロジェクト,0
1275,6120001278956,新規,0,2025-08-21,2025-08-21,株式会社ＢＯＬ,,株式会社,大阪府,大阪市西成区,天神ノ森１丁目１３－１１,,27,122,5570013,,,,,,,2025-08-21,1,,,,,ボル,0
1276,6120001278980,新規,0,2025-08-21,2025-08-21,株式会社Ｒｅｇｅｎｅｒａｔｉｏｎ,,株式会社,大阪府,大阪市西区,北堀江１丁目９番４号三洋北堀江ビル２０１,,27,106,5500014,,,,,,,2025-08-21,1,,,,,リジェネレーション,0
1277,6120001278989,新規,0,2025-08-21,2025-08-21,株式会社Ｗｏｒｌｄ　Ｋｉｔｃｈｅｎ,,株式会社,大阪府,大阪市旭区,赤川２丁目１１番１７号,,27,117,5350005,,,,,,,2025-08-21,1,,,,,ワールドキッチン,0
1278,6120001279013,新規,0,2025-08-21,2025-08-21,株式会社Ｗａｙｓｉｓ,,株式会社,大阪府,大阪市北区,浮田２丁目１番３号,,27,127,5300021,,,,,,,2025-08-21,1,,,,,ウェイシーズ,0
1282,6120003030349,新規,0,2025-08-21,2025-08-21,合同会社ライフケア,,合同会社,大阪府,大阪市西淀川区,歌島３丁目５－５－３０１,,27,113,5550021,,,,,,,2025-08-21,1,,,,,ライフケア,0
1284,6120901051413,新規,0,2025-08-21,2025-08-21,株式会社アールロジ・サポート,,株式会社,大阪府,吹田市,豊津町１０番２６号センチュリービル３０３,,27,205,5640051,,,,,,,2025-08-21,1,,,,,アールロジサポート,0
1285,6120903005805,新規,0,2025-08-21,2025-08-21,ミナミ設計合同会社,,合同会社,大阪府,豊中市,西泉丘１丁目２０番１０－４０２号,,27,203,5610862,,,,,,,2025-08-21,1,,,,,ミナミセッケイ,0
1287,6122003003292,新規,0,2025-08-21,2025-08-21,合同会社ａｄｉｙ‐ａｄｉｙ,,合同会社,大阪府,東大阪市,上石切町２丁目４番２３号,,27,227,5798012,,,,,,,2025-08-21,1,,,,,アディーアディー,0
1292,6130001080312,新規,0,2025-08-21,2025-08-21,龍騰株式会社,,株式会社,京都府,京都市北区,大北山原谷乾町４８番地３の３０３室,,26,101,6038487,,,,,,,2025-08-21,1,,,,,リュウトウ,0
1293,6130003010688,新規,0,2025-08-21,2025-08-21,合同会社ＡＮＯ,,合同会社,京都府,京都市北区,衣笠鏡石町４－１２,,26,101,6038451,,,,,,,2025-08-21,1,,,,,アノ,0
1296,6140001139735,新規,0,2025-08-21,2025-08-21,株式会社兵庫不動産サービス,,株式会社,兵庫県,加古川市,加古川町友沢３９０番地の１ベル友沢Ａ２０２,,28,210,6750035,,,,,,,2025-08-21,1,,,,,ヒョウゴフドウサンサービス,0
1298,6140003022443,新規,0,2025-08-21,2025-08-21,合同会社ファーストサクセス,,合同会社,兵庫県,宝塚市,高司５丁目７番２８号,,28,214,6650051,,,,,,,2025-08-21,1,,,,,ファーストサクセス,0
1300,6160001026980,新規,0,2025-08-21,2025-08-21,ＡＰＥＸ　ＰＨＯＴＯＮＩＣＳ　ＪＡＰＡＮ株式会社,,株式会社,滋賀県,彦根市,長曽根南町４９４－２２リニアハイツ８号室,,25,202,5220052,,,,,,,2025-08-21,1,,,,,エイペックスフォトニクスジャパン,0
1301,6160001027005,新規,0,2025-08-21,2025-08-21,Ｇｒｅｅｎ　Ｆｉｅｌｄ株式会社,,株式会社,滋賀県,野洲市,栄１５番１２号,,25,210,5202333,,,,,,,2025-08-21,1,,,,,グリーンフィールド,0
1304,6180003028833,新規,0,2025-08-21,2025-08-21,合同会社後藤解体,,合同会社,愛知県,北名古屋市,鍜治ケ一色村内西３２,,23,234,4810037,,,,,,,2025-08-21,1,,,,,ゴトウカイタイ,0
1321,6240001065392,新規,0,2025-08-21,2025-08-21,株式会社ＪＷＣＳ,,株式会社,広島県,広島市中区,上幟町六丁目１０－２－１００１,,34,101,7300014,,,,,,,2025-08-21,1,,,,,ジェイダブリューシーエス,0
1322,6240001065401,新規,0,2025-08-21,2025-08-21,宮島ＡＩクリエイト株式会社,,株式会社,広島県,廿日市市,地御前５丁目１５番１０号,,34,213,7380042,,,,,,,2025-08-21,1,,,,,ミヤジマエーアイクリエイト,0
1327,6260005011507,新規,0,2025-08-21,2025-08-21,一般社団法人ネクストウィンズ・ジャパン,,その他の設立登記法人,岡山県,岡山市北区,表町３丁目５番３２号,,33,101,7000822,,,,,,,2025-08-21,1,,,,,ネクストウィンズジャパン,0
1330,6290001111010,新規,0,2025-08-21,2025-08-21,株式会社ストックス,,株式会社,福岡県,福岡市中央区,天神２丁目２番１２号Ｔ＆Ｊビルディング７Ｆ,,40,133,8100001,,,,,,,2025-08-21,1,,,,,ストックス,0
1331,6290001111126,新規,0,2025-08-21,2025-08-21,株式会社Ｕｎｉｓｉａ,,株式会社,福岡県,福岡市博多区,博多駅前１丁目２３番２号ＰａｒｋＦｒｏｎｔ博多駅前１丁目５Ｆ－Ｂ,,40,132,8120011,,,,,,,2025-08-21,1,,,,,ユニシア,0
1332,6290001111175,新規,0,2025-08-21,2025-08-21,株式会社Ｆｌａｗｌｅｓｓ　Ｌｏｔｕｓ,,株式会社,福岡県,福岡市東区,香椎照葉７丁目８番３－５０３号,,40,131,8130017,,,,,,,2025-08-21,1,,,,,フローレスロータス,0
1334,6290801031795,新規,0,2025-08-21,2025-08-21,株式会社ロングライフ,,株式会社,福岡県,遠賀郡水巻町,猪熊８丁目１３番５３号,,40,382,8070001,,,,,,,2025-08-21,1,,,,,ロングライフ,0
1338,6310001019762,新規,0,2025-08-21,2025-08-21,株式会社原城,,株式会社,長崎県,南島原市,南有馬町丁１７０番地,,42,214,8592414,,,,,,,2025-08-21,1,,,,,ハラジョウ,0
1348,6340005009897,新規,0,2025-08-21,2025-08-21,保証責任利永東負債整理組合,,その他の設立登記法人,鹿児島県,指宿市,（旧主たる事務所揖宿郡今和泉村）,,46,210,8910400,,,,,,,2025-08-21,1,,,,,ホショウセキニントシナガヒガシフサイセイリクミアイ,0
1352,6360001035672,新規,0,2025-08-21,2025-08-21,株式会社リネストライフ,,株式会社,沖縄県,沖縄市,比屋根６丁目３１番３３号,,47,211,9042173,,,,,,,2025-08-21,1,,,,,リネストライフ,0
1358,6400001017146,新規,0,2025-08-21,2025-08-21,株式会社Ｈｏｕｓｅ,,株式会社,岩手県,盛岡市,月が丘３丁目１６－７－１０１,,03,201,0200121,,,,,,,2025-08-21,1,,,,,ハウス,0
1360,6420003003175,新規,0,2025-08-21,2025-08-21,合同会社はちみつ広告,,合同会社,青森県,八戸市,内丸１丁目７番地１２号,,02,203,0310075,,,,,,,2025-08-21,1,,,,,ハチミツコウコク,0
1363,6430001095024,新規,0,2025-08-21,2025-08-21,美櫻株式会社,,株式会社,北海道,札幌市中央区,円山西町３丁目５番５３号,,01,101,0640944,,,,,,,2025-08-21,1,,,,,ビエイ,0
1368,6460301005308,新規,0,2025-08-21,2025-08-21,株式会社片山建設,,株式会社,北海道,北見市,常呂町字常呂４２０番地２,,01,208,0930210,,,,,,,2025-08-21,1,,,,,カタヤマケンセツ,0
1370,6490001011149,新規,0,2025-08-21,2025-08-21,西山水産株式会社,,株式会社,高知県,須崎市,野見６６番４,,39,206,7850056,,,,,,,2025-08-21,1,,,,,ニシヤマスイサン,0
1386,7010001257763,新規,0,2025-08-21,2025-08-21,Ｂｒｅｅｎ株式会社,,株式会社,東京都,文京区,小石川５丁目１６番５号栄ビル３０２,,13,105,1120002,,,,,,,2025-08-21,1,,,,,ブリーン,0
1392,7010003048351,新規,0,2025-08-21,2025-08-21,合同会社フロンティアアセット,,合同会社,東京都,中央区,築地１丁目４番３－１４０４号,,13,102,1040045,,,,,,,2025-08-21,1,,,,,フロンティアアセット,0
1393,7010003048483,新規,0,2025-08-21,2025-08-21,ＴＺＫ　ＷＯＲＫＳ合同会社,,合同会社,東京都,中央区,銀座１丁目１２番４号Ｎ＆ＥＢＬＤ．６Ｆ,,13,102,1040061,,,,,,,2025-08-21,1,,,,,ティーゼットケーワークス,0
1394,7010003048491,新規,0,2025-08-21,2025-08-21,ＭＫ合同会社,,合同会社,東京都,中央区,銀座２丁目１０番８号マニエラ銀座ビル４階,,13,102,1040061,,,,,,,2025-08-21,1,,,,,エムケイ,0
1395,7010005040471,新規,0,2025-08-21,2025-08-21,一般社団法人国際建築設計機構,,その他の設立登記法人,東京都,文京区,関口１丁目１５番１号ミサオビル５階,,13,105,1120014,,,,,,,2025-08-21,1,,,,,コクサイケンチクセッケイキコウ,0
1401,7010401192511,新規,0,2025-08-21,2025-08-21,株式会社クロノキャスト,,株式会社,東京都,港区,浜松町２丁目２番１５号浜松町ダイヤビル２Ｆ,,13,103,1050013,,,,,,,2025-08-21,1,,,,,クロノキャスト,0
1402,7010401192536,新規,0,2025-08-21,2025-08-21,エンゲージメントストック株式会社,,株式会社,東京都,港区,赤坂１丁目１２番３２号,,13,103,1070052,,,,,,,2025-08-21,1,,,,,エンゲージメントストック,0
1406,7010403035858,新規,0,2025-08-21,2025-08-21,合同会社Ｏｓａｋａ　Ｑｕａｒｔｅｔ,,合同会社,東京都,港区,芝浦１丁目１番１号,,13,103,1050023,,,,,,,2025-08-21,1,,,,,オオサカカルテット,0
1409,7010501054586,新規,0,2025-08-21,2025-08-21,寳仕拓株式会社,,株式会社,東京都,台東区,千束３丁目２０－１９桜井ビル１０２,,13,106,1110031,,,,,,,2025-08-21,1,,,,,ホウシタク,0
1411,7010601067785,新規,0,2025-08-21,2025-08-21,株式会社エキセントリック,,株式会社,東京都,江東区,大島７丁目３０番１６号ハーモニーテラス大島ＩＩ１０５,00140379,13,108,1360072,,,,,,,2025-08-21,1,,,,,エキセントリック,0
1418,7010803005510,新規,0,2025-08-21,2025-08-21,Ｆｉｚｉｎｓｉｇｈｔ合同会社,,合同会社,東京都,大田区,東六郷１丁目１１－２２－６０９,,13,111,1440046,,,,,,,2025-08-21,1,,,,,フィズインサイト,0
1421,7011001171327,新規,0,2025-08-21,2025-08-21,Ｃ　ＩＮＤＡＴ株式会社,,株式会社,東京都,渋谷区,代々木２丁目１１番１２号６０７,,13,113,1510053,,,,,,,2025-08-21,1,,,,,シーインダット,0
1422,7011001171434,新規,0,2025-08-21,2025-08-21,株式会社コインマネージメント,,株式会社,東京都,渋谷区,渋谷２丁目１９番１９号ワコー宮益坂ビル５Ｆ,,13,113,1500002,,,,,,,2025-08-21,1,,,,,コインマネージメント,0
1423,7011001171896,新規,0,2025-08-21,2025-08-21,株式会社ｈｉｓｏｃａ,,株式会社,東京都,渋谷区,円山町５番３号ＭＩＥＵＸ渋谷ビル８階,,13,113,1500044,,,,,,,2025-08-21,1,,,,,ヒソカ,0
1424,7011003022180,新規,0,2025-08-21,2025-08-21,合同会社エアムンド,,合同会社,東京都,渋谷区,神南１丁目１１－４ＦＰＧリンクス神南５階,,13,113,1500041,,,,,,,2025-08-21,1,,,,,エアムンド,0
1425,7011005011140,新規,0,2025-08-21,2025-08-21,一般社団法人日本国際教育推進機構,,その他の設立登記法人,東京都,渋谷区,宇田川町７番１号日本アムウェイ本社ビル,,13,113,1500042,,,,,,,2025-08-21,1,,,,,ニホンコクサイキョウイクスイシンキコウ,0
1434,7011501032433,新規,0,2025-08-21,2025-08-21,銘徳株式会社,,株式会社,東京都,荒川区,南千住８丁目６番１号,,13,118,1160003,,,,,,,2025-08-21,1,,,,,メイトク,0
1435,7011501032466,新規,0,2025-08-21,2025-08-21,株式会社インセンシア,,株式会社,東京都,荒川区,東尾久３丁目９－１４ダイヤパレスベリウェール町屋６０１,,13,118,1160012,,,,,,,2025-08-21,1,,,,,インセンシア,0
1439,7012803003832,新規,0,2025-08-21,2025-08-21,合同会社Ｅ　ＮＥＸＴ,,合同会社,東京都,立川市,一番町４丁目２０－５メゾン一番町３０１,,13,202,1900033,,,,,,,2025-08-21,1,,,,,イーネクスト,0
1444,7013301054797,新規,0,2025-08-21,2025-08-21,株式会社ＣＶＣ,,株式会社,東京都,豊島区,巣鴨４丁目１番６号,,13,116,1700002,,,,,,,2025-08-21,1,,,,,シーブイシー,0
1453,7020001164380,新規,0,2025-08-21,2025-08-21,株式会社ＮＩＮＥ,,株式会社,神奈川県,川崎市幸区,南幸町２丁目２４番地３,,14,132,2120016,,,,,,,2025-08-21,1,,,,,ナイン,0
1454,7020001164430,新規,0,2025-08-21,2025-08-21,株式会社美南塗装,,株式会社,神奈川県,川崎市川崎区,大島上町２１番５－６０８,,14,131,2100836,,,,,,,2025-08-21,1,,,,,ミナミトソウ,0
1458,7020003029177,新規,0,2025-08-21,2025-08-21,合同会社田邉コンサル,,合同会社,神奈川県,横浜市港北区,下田町３丁目５番３号,,14,109,2230064,,,,,,,2025-08-21,1,,,,,タナベコンサル,0
1461,7021001086144,新規,0,2025-08-21,2025-08-21,ＴＫトラスト株式会社,,株式会社,神奈川県,鎌倉市,関谷３８７番地９７,,14,204,2470075,,,,,,,2025-08-21,1,,,,,ティーケートラスト,0
1468,7030003027394,新規,0,2025-08-21,2025-08-21,蓮花食品合同会社,,合同会社,埼玉県,川口市,栄町１丁目９－１３川口栄町マンション２０２号,,11,203,3320017,,,,,,,2025-08-21,1,,,,,レンカショクヒン,0
1469,7030003027444,新規,0,2025-08-21,2025-08-21,Ａ＆Ｐ合同会社,,合同会社,埼玉県,さいたま市見沼区,大字御蔵７５８‐５,,11,104,3370033,,,,,,,2025-08-21,1,,,,,エーアンドピー,0
1470,7030005022237,新規,0,2025-08-21,2025-08-21,ＹＦＰクレア社会保険労務士法人,,その他の設立登記法人,埼玉県,さいたま市南区,南本町１丁目１７番８号ＰＡＲＫＶＩＥＷ一ツ木２階,,11,108,3360018,,,,,,,2025-08-21,1,,,,,ワイエフピークレア,0
1475,7040001140140,新規,0,2025-08-21,2025-08-21,株式会社サクラ工業,,株式会社,千葉県,鎌ケ谷市,鎌ケ谷７丁目１５番４８号,,12,224,2730105,,,,,,,2025-08-21,1,,,,,サクラコウギョウ,0
1476,7040001140157,新規,0,2025-08-21,2025-08-21,株式会社ジャムリンクス,,株式会社,千葉県,松戸市,小根本２０番２８ー６０２号,,12,207,2710073,,,,,,,2025-08-21,1,,,,,ジャムリンクス,0
1500,7120001278633,新規,0,2025-08-21,2025-08-21,ＰＩＣＡＰＩＣＡ　ＰＴＥ株式会社,,株式会社,大阪府,大阪市北区,兎我野町１３－６東梅田皆楽ビル２０２号,,27,127,5300056,,,,,,,2025-08-21,1,,,,,ピカピカピーティーイー,0
1501,7120001278815,新規,0,2025-08-21,2025-08-21,株式会社ＪＡＰＡＮ　ＨＥＡＲＴＳ,,株式会社,大阪府,大阪市北区,曾根崎２丁目７－４Ｍ．ＶＯＬＡＮＴＥＵＭＥＤＡ４Ｆ,,27,127,5300057,,,,,,,2025-08-21,1,,,,,ジャパンハーツ,0
1502,7120001278988,新規,0,2025-08-21,2025-08-21,ストラテジック・プランニング・コンサルティング株式会社,,株式会社,大阪府,大阪市中央区,島町１丁目４番３号キタガワビル,,27,128,5400034,,,,,,,2025-08-21,1,,,,,ストラテジックプランニングコンサルティング,0
1507,7120003030331,新規,0,2025-08-21,2025-08-21,合同会社結,,合同会社,大阪府,枚方市,伊加賀北町８番１－１２０７号,,27,210,5730036,,,,,,,2025-08-21,1,,,,,ユイ,0
1508,7120101072300,新規,0,2025-08-21,2025-08-21,株式会社米麦館タマヤ,,株式会社,大阪府,泉大津市,我孫子１２９番地,,27,206,5950031,,,,,,,2025-08-21,1,,,,,コメムギカンタマヤ,0
1510,7120103006652,新規,0,2025-08-21,2025-08-21,Ｋ＆Ｋインターナショナル合同会社,,合同会社,大阪府,堺市北区,金岡町２００７－２０,,27,146,5918022,,,,,,,2025-08-21,1,,,,,ケーアンドケーインターナショナル,0
1519,7130001080311,新規,0,2025-08-21,2025-08-21,蓮品株式会社,,株式会社,京都府,京都市北区,大北山原谷乾町４８番地３の３０１室,,26,101,6038487,,,,,,,2025-08-21,1,,,,,レンピン,0
1522,7130005017433,新規,0,2025-08-21,2025-08-21,一般社団法人みなと,,その他の設立登記法人,京都府,京都市中京区,壬生東大竹町３４番地,,26,104,6048852,,,,,,,2025-08-21,1,,,,,ミナト,0
1523,7140001139651,新規,0,2025-08-21,2025-08-21,株式会社プライムオートパーツ,,株式会社,兵庫県,たつの市,龍野町宮脇２３０番地１,,28,229,6794127,,,,,,,2025-08-21,1,,,,,プライムオートパーツ,0
1524,7140001139676,新規,0,2025-08-21,2025-08-21,株式会社高砂装飾,,株式会社,兵庫県,高砂市,曽根町２８４６番地の２９,,28,216,6760082,,,,,,,2025-08-21,1,,,,,タカサゴソウショク,0
1525,7140001139718,新規,0,2025-08-21,2025-08-21,一二三オート株式会社,,株式会社,兵庫県,神戸市西区,神出町勝成１１６番地１５,,28,111,6512301,,,,,,,2025-08-21,1,,,,,ヒフミオート,0
1526,7140001139750,新規,0,2025-08-21,2025-08-21,株式会社Ｓｏｒｉｃｈ,,株式会社,兵庫県,芦屋市,朝日ケ丘町６番１３－５０６号,,28,206,6590012,,,,,,,2025-08-21,1,,,,,ソリッチ,0
1529,7160005011433,新規,0,2025-08-21,2025-08-21,一般社団法人Ｓｍｉｌｅｙ　Ｋｉｄｓ　Ｐｒｏｊｅｃｔ,,その他の設立登記法人,滋賀県,大津市,瀬田２丁目１－５,,25,201,5202134,,,,,,,2025-08-21,1,,,,,スマイリーキッズプロジェクト,0
1532,7170003002276,新規,0,2025-08-21,2025-08-21,合同会社Ｋ‐８,,合同会社,和歌山県,和歌山市,市小路３７２番地１０,,30,201,6408464,,,,,,,2025-08-21,1,,,,,ケーエイト,0
1544,7200003006983,新規,0,2025-08-21,2025-08-21,ＨＫＭトレーディング合同会社,,合同会社,岐阜県,海津市,平田町勝賀字東田１２３２番,,21,221,5030302,,,,,,,2025-08-21,1,,,,,エイチケーエムトレーディング,0
1547,7220001026882,新規,0,2025-08-21,2025-08-21,粟田建設株式会社,,株式会社,石川県,金沢市,土清水１丁目６９番地,,17,201,9200955,,,,,,,2025-08-21,1,,,,,アワダケンセツ,0
1549,7220005008992,新規,0,2025-08-21,2025-08-21,一般社団法人ＵＮＶＥＩＬＬＩＧＨＴ,,その他の設立登記法人,石川県,珠洲市,飯田町１５－２０－１,,17,205,9271214,,,,,,,2025-08-21,1,,,,,アンベールライト,0
1551,7240001065391,新規,0,2025-08-21,2025-08-21,株式会社ＶＡＹＵカンパニーＪＡＰＡＮ,,株式会社,広島県,広島市佐伯区,湯来町葛原１６１２番地,,34,108,7315100,,,,,,,2025-08-21,1,,,,,ヴァーユカンパニージャパン,0
1553,7240003007375,新規,0,2025-08-21,2025-08-21,合同会社漣,,合同会社,広島県,竹原市,港町５丁目１番１号,,34,203,7250024,,,,,,,2025-08-21,1,,,,,サザナミ,0
1557,7270001009271,新規,0,2025-08-21,2025-08-21,ＹＡＳＡＳＨＩＩＫＡＩＳＨＡ株式会社,,株式会社,鳥取県,鳥取市,西町１丁目１２１番地,,31,201,6800022,,,,,,,2025-08-21,1,,,,,ヤサシイカイシャ,0
1558,7270005005655,新規,0,2025-08-21,2025-08-21,特定非営利活動法人みんなのリカバリープレイス,,その他の設立登記法人,鳥取県,西伯郡南部町,天萬５３４－９,,31,389,6830201,,,,,,,2025-08-21,1,,,,,ミンナノリカバリープレイス,0
1561,7290001111174,新規,0,2025-08-21,2025-08-21,ＡＣＥ株式会社,,株式会社,福岡県,福岡市東区,箱崎１丁目２６番１９－３,,40,131,8120053,,,,,,,2025-08-21,1,,,,,エース,0
1563,7290003017287,新規,0,2025-08-21,2025-08-21,合同会社ＣＳＦ,,合同会社,福岡県,福岡市南区,高宮１丁目６番３号７０２号室,,40,134,8150083,,,,,,,2025-08-21,1,,,,,シーエスエフ,0
1564,7290005019810,新規,0,2025-08-21,2025-08-21,一般社団法人地域医療共創推進協会,,その他の設立登記法人,福岡県,福岡市中央区,薬院４丁目１３番６１－１１０８号,,40,133,8100022,,,,,,,2025-08-21,1,,,,,チイキイリョウキョウソウスイシンキョウカイ,0
1573,7360003015184,新規,0,2025-08-21,2025-08-21,Ｓｃｌｅａ合同会社,,合同会社,沖縄県,中頭郡中城村,字南上原５１７番地２ヴィラグロリアＩＩ１０２号,00140368,47,328,9012424,,,,,,,2025-08-21,1,,,,,エスクリア,0
1579,7400001017145,新規,0,2025-08-21,2025-08-21,株式会社ダイエンス,,株式会社,岩手県,盛岡市,向中野字幅１０３番地５,,03,201,0200851,,,,,,,2025-08-21,1,,,,,ダイエンス,0
1585,7430001095048,新規,0,2025-08-21,2025-08-21,新英建設株式会社,,株式会社,北海道,札幌市中央区,南十二条西１２丁目１－４３Ｍ’ｓｔａｇｅ６０２号室,,01,101,0640912,,,,,,,2025-08-21,1,,,,,,0
1586,7430001095056,新規,0,2025-08-21,2025-08-21,株式会社ヤマキチ,,株式会社,北海道,札幌市西区,西野七条５丁目９番２６－２０３号,,01,107,0630037,,,,,,,2025-08-21,1,,,,,ヤマキチ,0
1588,7430003017999,新規,0,2025-08-21,2025-08-21,合同会社Ｖ・９,,合同会社,北海道,札幌市中央区,大通西１７丁目２－３１アルファ大通西１７ビル５０６号室,,01,101,0600042,,,,,,,2025-08-21,1,,,,,ブイナイン,0
1590,7490003002038,新規,0,2025-08-21,2025-08-21,合同会社Ｖａｒｎａ,,合同会社,高知県,高岡郡佐川町,黒原３１７４,,39,402,7891211,,,,,,,2025-08-21,1,,,,,バルナ,0
1591,7490005007002,新規,0,2025-08-21,2025-08-21,土地家屋調査士法人ＮＥＸＵＳ,,その他の設立登記法人,高知県,香美市,土佐山田町旭町１丁目３番１７号,,39,212,7820033,,,,,,,2025-08-21,1,,,,,ネクサス,0
1608,8010001257903,新規,0,2025-08-21,2025-08-21,株式会社ＴＫグループホールディングス,,株式会社,東京都,千代田区,大手町１丁目９番５号大手町フィナンシャルシティノースタワー,,13,101,1000004,,,,,,,2025-08-21,1,,,,,ティーケーグループホールディングス,0
1612,8010003048482,新規,0,2025-08-21,2025-08-21,合同会社ＫＲＦ１１６,,合同会社,東京都,千代田区,内幸町２丁目１番６号,,13,101,1000011,,,,,,,2025-08-21,1,,,,,ケイアールエフヒャクジュウロク,0
1613,8010003048490,新規,0,2025-08-21,2025-08-21,合同会社スタジオ焔ほの,,合同会社,東京都,千代田区,神田錦町３丁目１５番錦精社神田ビル天翔オフィス大手町竹橋２階２０２,,13,101,1010054,,,,,,,2025-08-21,1,,,,,ホノホノ,0
1615,8010005040561,新規,0,2025-08-21,2025-08-21,一般社団法人ＫＳＫ,,その他の設立登記法人,東京都,中央区,銀座４丁目６番１号三幸アセットマネジメント株式会社内,,13,102,1040061,,,,,,,2025-08-21,1,,,,,ケーエスケー,0
1619,8010401192510,新規,0,2025-08-21,2025-08-21,セラカイ・グループ・ジャパン株式会社,,株式会社,東京都,港区,元麻布３丁目１番６号,,13,103,1060046,,,,,,,2025-08-21,1,,,,,セラカイグループジャパン,0
1620,8010401192527,新規,0,2025-08-21,2025-08-21,株式会社グラウンドワークス,,株式会社,東京都,港区,赤坂９丁目７番２号ミッドタウン・イースト４階,,13,103,1070052,,,,,,,2025-08-21,1,,,,,グラウンドワークス,0
1621,8010405024676,新規,0,2025-08-21,2025-08-21,一般社団法人Ｃｏ‐ｍａｙ,,その他の設立登記法人,東京都,港区,虎ノ門１丁目１番１８号ヒューリック虎ノ門ビル９階Ｌ＆Ｐ司法書士法人内,,13,103,1050001,,,,,,,2025-08-21,1,,,,,コメイ,0
1634,8010903010211,新規,0,2025-08-21,2025-08-21,ＧＥＮＴＥＮ合同会社,,合同会社,東京都,世田谷区,太子堂４丁目１８番１５号マガザン三軒茶屋２―３Ｆ―３,,13,112,1540004,,,,,,,2025-08-21,1,,,,,ゲンテン,0
1640,8011001171425,新規,0,2025-08-21,2025-08-21,株式会社ＳＵＳＵＳ,,株式会社,東京都,渋谷区,富ヶ谷１丁目４３番５号クリオ渋谷ラ・モード３０１,,13,113,1510063,,,,,,,2025-08-21,1,,,,,スサス,0
1642,8011003022171,新規,0,2025-08-21,2025-08-21,合同会社オースカイ,,合同会社,東京都,渋谷区,道玄坂１丁目１０番８号渋谷道玄坂東急ビル２Ｆ－Ｃ,,13,113,1500043,,,,,,,2025-08-21,1,,,,,オースカイ,0
1650,8011801046628,新規,0,2025-08-21,2025-08-21,株式会社サンテック,,株式会社,東京都,足立区,島根４丁目２３番３号,,13,121,1210815,,,,,,,2025-08-21,1,,,,,サンテック,0
1654,8012401043511,新規,0,2025-08-21,2025-08-21,株式会社ブラセル,,株式会社,東京都,多摩市,関戸６丁目４－１２第一諏訪ビル２０２,,13,224,2060011,,,,,,,2025-08-21,1,,,,,ブラセル,0
1655,8012403007299,新規,0,2025-08-21,2025-08-21,ゆとり合同会社,,合同会社,東京都,稲城市,押立１７３５－１０２,,13,225,2060811,,,,,,,2025-08-21,1,,,,,ユトリ,0
1656,8012703003337,新規,0,2025-08-21,2025-08-21,合同会社声,,合同会社,東京都,小平市,御幸町３０６番地の１６,,13,211,1870012,,,,,,,2025-08-21,1,,,,,コエ,0
1658,8012801024185,新規,0,2025-08-21,2025-08-21,ＯＮＦＯＯＤＳ株式会社,,株式会社,東京都,国立市,北２丁目２７番の４７シャノアール国立２０６,,13,215,1860001,,,,,,,2025-08-21,1,,,,,オンフーズ,0
1665,8013301054771,新規,0,2025-08-21,2025-08-21,Ｄｅｌｉｇｈｔ　Ａｄｖｅｎｔｕｒｅｓ株式会社,,株式会社,東京都,豊島区,高田３丁目７番１７号,,13,116,1710033,,,,,,,2025-08-21,1,,,,,デライトアドベンチャーズ,0
1670,8013303007819,新規,0,2025-08-21,2025-08-21,合同会社Ｆｌｕｆｆｙ　Ｆｒｉｅｎｄｓ,,合同会社,東京都,豊島区,池袋２丁目５２番３号ルミナリータワー池袋１３０３号,,13,116,1710014,,,,,,,2025-08-21,1,,,,,フラッフィーフレンズ,0
1677,8020001164405,新規,0,2025-08-21,2025-08-21,株式会社虹宇,,株式会社,神奈川県,横浜市南区,万世町１丁目１６番地５ライオンズマンション万世町第二３０８,,14,105,2320032,,,,,,,2025-08-21,1,,,,,コウ,0
1678,8020001164413,新規,0,2025-08-21,2025-08-21,株式会社ねんりんとねっこ,,株式会社,神奈川県,川崎市中原区,上丸子山王町２丁目１３５７番地エスフラット２０１,,14,133,2110002,,,,,,,2025-08-21,1,,,,,ネンリントネッコ,0
1679,8020001164454,新規,0,2025-08-21,2025-08-21,株式会社土山キャピタル,,株式会社,神奈川県,横浜市栄区,笠間３丁目４５番地Ｂ－１４１２号,,14,115,2470006,,,,,,,2025-08-21,1,,,,,ツチヤマキャピタル,0
1680,8020001164504,新規,0,2025-08-21,2025-08-21,御土木水株式会社,,株式会社,神奈川県,川崎市宮前区,有馬１丁目１３番１７－４０１号,,14,136,2160003,,,,,,,2025-08-21,1,,,,,オドムス,0
1681,8020003029176,新規,0,2025-08-21,2025-08-21,ＣＡストラテジック・アドバイザリー合同会社,,合同会社,神奈川県,川崎市宮前区,けやき平１番３４棟１０２室,,14,136,2160023,,,,,,,2025-08-21,1,,,,,シーエーストラテジックアドバイザリー,0
1682,8020003029201,新規,0,2025-08-21,2025-08-21,合同会社ルナ・ソル,,合同会社,神奈川県,横浜市西区,みなとみらい４丁目１０番２－Ｓ３０５号,,14,103,2200012,,,,,,,2025-08-21,1,,,,,ルナソル,0
1683,8021001086077,新規,0,2025-08-21,2025-08-21,株式会社ユウデン,,株式会社,神奈川県,茅ヶ崎市,南湖４丁目１６－４４－１,,14,207,2530061,,,,,,,2025-08-21,1,,,,,ユウデン,0
1684,8021001086085,新規,0,2025-08-21,2025-08-21,株式会社ｉＬａｂ,,株式会社,神奈川県,座間市,さがみ野１丁目６番４－４０７号サン・コーポラス座間,,14,216,2520005,,,,,,,2025-08-21,1,,,,,アイラボ,0
1687,8021003016420,新規,0,2025-08-21,2025-08-21,リバーフィールド合同会社,,合同会社,神奈川県,秦野市,堀西６２５番地,,14,211,2591331,,,,,,,2025-08-21,1,,,,,リバーフィールド,0
1688,8021003016429,新規,0,2025-08-21,2025-08-21,ＫＡＳＨＥＭ　ＩＮＴＥＲＮＡＴＩＯＮＡＬ合同会社,,合同会社,神奈川県,相模原市中央区,田名３１８６番地田名堀の内アパート１－３０７,,14,152,2520244,,,,,,,2025-08-21,1,,,,,カシエムインターナショナル,0
1693,8030001168248,新規,0,2025-08-21,2025-08-21,ＪＰ　ＮＥＸＵＳ株式会社,,株式会社,埼玉県,所沢市,西所沢２丁目１３番６号ザ・ファースト西所沢１０３,,11,208,3591144,,,,,,,2025-08-21,1,,,,,,0
1694,8030001168256,新規,0,2025-08-21,2025-08-21,株式会社ジョダン,,株式会社,埼玉県,飯能市,美杉台５丁目２２番地９,,11,209,3570041,,,,,,,2025-08-21,1,,,,,ジョダン,0
1702,8040001140148,新規,0,2025-08-21,2025-08-21,ブルーボックス株式会社,,株式会社,千葉県,佐倉市,大篠塚７８３番地２,,12,212,2850806,,,,,,,2025-08-21,1,,,,,ブルーボックス,0
1706,8040003028317,新規,0,2025-08-21,2025-08-21,Ｆｉｏｒｉｎａ合同会社,,合同会社,千葉県,市川市,北方２丁目１９－１５,,12,203,2720815,,,,,,,2025-08-21,1,,,,,フィオリナ,0
1711,8050005013679,新規,0,2025-08-21,2025-08-21,土地家屋調査士法人ミカミ,,その他の設立登記法人,茨城県,取手市,藤代２０３４番地１１,,08,217,3001512,,,,,,,2025-08-21,1,,,,,ミカミ,0
1723,8080001027102,新規,0,2025-08-21,2025-08-21,株式会社ｓｏｌａｐｌｕｓ,,株式会社,静岡県,焼津市,宗高８４８番１の２エムズビル３０２,,22,212,4210205,,,,,,,2025-08-21,1,,,,,ソラプラス,0
1726,8100003008353,新規,0,2025-08-21,2025-08-21,合同会社Ｌｉｔａ,,合同会社,長野県,塩尻市,大字広丘堅石１１５番地９,,20,215,3990705,,,,,,,2025-08-21,1,,,,,リタ,0
1731,8110003005861,新規,0,2025-08-21,2025-08-21,アグリクリーンサービス合同会社,,合同会社,新潟県,新潟市中央区,弁天橋通１丁目２８－１第２原ノ台ビル２－Ｃ,,15,103,9500925,,,,,,,2025-08-21,1,,,,,アグリクリーンサービス,0
1743,8120001278921,新規,0,2025-08-21,2025-08-21,株式会社クリア・シーホース,,株式会社,大阪府,大阪市住之江区,安立２丁目７番２３号,,27,125,5590003,,,,,,,2025-08-21,1,,,,,クリアシーホース,0
1744,8120001278962,新規,0,2025-08-21,2025-08-21,禅武堂株式会社,,株式会社,大阪府,大阪市生野区,桃谷３丁目２０番２５号桃谷ハイツ２０４号室,,27,116,5440034,,,,,,,2025-08-21,1,,,,,ゼンブドウ,0
1745,8120001278987,新規,0,2025-08-21,2025-08-21,株式会社Ａｔ　Ｙｏｕｒｓ,,株式会社,大阪府,大阪市北区,西天満１丁目１番１１号,,27,127,5300047,,,,,,,2025-08-21,1,,,,,アットユアーズ,0
1746,8120001279052,新規,0,2025-08-21,2025-08-21,嘉友株式会社,,株式会社,大阪府,大阪市福島区,玉川３丁目１０－３,,27,103,5530004,,,,,,,2025-08-21,1,,,,,カユウ,0
1749,8120101072299,新規,0,2025-08-21,2025-08-21,株式会社福縁園,,株式会社,大阪府,松原市,天美南５丁目１０－２０,,27,217,5800033,,,,,,,2025-08-21,1,,,,,フクエンエン,0
1752,8120103006651,新規,0,2025-08-21,2025-08-21,ＲＵＤＯ　ｃｏｍｐａｎｙ合同会社,,合同会社,大阪府,堺市北区,百舌鳥梅北町５－４８１－１,,27,146,5910000,,,,,,,2025-08-21,1,,,,,ルードカンパニー,0
1753,8120901051353,新規,0,2025-08-21,2025-08-21,株式会社たねび,,株式会社,大阪府,高槻市,川西町１丁目１７番９号,,27,207,5691133,,,,,,,2025-08-21,1,,,,,タネビ,0
1755,8130001080285,新規,0,2025-08-21,2025-08-21,旺盛株式会社,,株式会社,京都府,京都市伏見区,深草西浦町７丁目１９番地Ｂ棟１０７－Ｃ,,26,109,6120029,,,,,,,2025-08-21,1,,,,,オウセイ,0
1756,8130001080310,新規,0,2025-08-21,2025-08-21,株式会社ｔｏｔｏｃａｎａ,,株式会社,京都府,京田辺市,同志社山手１丁目１４－１０,,26,211,6100315,,,,,,,2025-08-21,1,,,,,トトカナ,0
1762,8140001139741,新規,0,2025-08-21,2025-08-21,嘉木株式会社,,株式会社,兵庫県,姫路市,忍町１１９番地荒井ビル３階Ａ室,,28,201,6700917,,,,,,,2025-08-21,1,,,,,カキ,0
1763,8140003022425,新規,0,2025-08-21,2025-08-21,いろは合同会社,,合同会社,兵庫県,姫路市,下手野２丁目１０番１号,,28,201,6700063,,,,,,,2025-08-21,1,,,,,イロハ,0
1764,8150001028324,新規,0,2025-08-21,2025-08-21,株式会社プルミエクリスタル,,株式会社,奈良県,桜井市,大字東新堂３８４番地の１－３０１号,,29,206,6330068,,,,,,,2025-08-21,1,,,,,プルミエクリスタル,0
1766,8160003003571,新規,0,2025-08-21,2025-08-21,合同会社タイヴィータ,,合同会社,滋賀県,甲賀市,信楽町柞原８２７－２８,,25,209,5291836,,,,,,,2025-08-21,1,,,,,タイヴィータ,0
1768,8180001168299,新規,0,2025-08-21,2025-08-21,株式会社珠洋美装,,株式会社,愛知県,あま市,坂牧北浦４２番地,,23,237,4901115,,,,,,,2025-08-21,1,,,,,タマヒロビソウ,0
1781,8240003007374,新規,0,2025-08-21,2025-08-21,合同会社成美,,合同会社,広島県,東広島市,志和町別府２３９番地３,,34,212,7390267,,,,,,,2025-08-21,1,,,,,ナルミ,0
1783,8250003003802,新規,0,2025-08-21,2025-08-21,合同会社ｓｏｌｉｎ,,合同会社,山口県,下関市,大字蒲生野２７９番地,,35,201,7596602,,,,,,,2025-08-21,1,,,,,ソリン,0
1789,8290001111082,新規,0,2025-08-21,2025-08-21,ＨＲＭＰＳ九州株式会社,,株式会社,福岡県,福岡市中央区,黒門４－４４ｋｕｒｏｍａｃｈｉ大濠２０１,,40,133,8100055,,,,,,,2025-08-21,1,,,,,ハームスキュウシュウ,0
1790,8290001111173,新規,0,2025-08-21,2025-08-21,株式会社八創,,株式会社,福岡県,八女市,黒木町桑原８２１番地１,,40,210,8341216,,,,,,,2025-08-21,1,,,,,ハチソウ,0
1791,8290001111223,新規,0,2025-08-21,2025-08-21,株式会社ムラカミ,,株式会社,福岡県,福岡市博多区,古門戸町３番１２号やま利ビル１０３号,,40,132,8120029,,,,,,,2025-08-21,1,,,,,ムラカミ,0
1794,8290003017278,新規,0,2025-08-21,2025-08-21,合同会社Ｍａｒｔｉａｌ　Ａｒｔｓ　Ｊａｐａｎ,,合同会社,福岡県,福岡市博多区,博多駅前１丁目２３番地２号ＰａｒｋＦｒｏｎｔ博多駅前１丁目５Ｆ－Ｂ,,40,132,8120011,,,,,,,2025-08-21,1,,,,,,0
1804,8360001035654,新規,0,2025-08-21,2025-08-21,株式会社ＳＳＫＳ,,株式会社,沖縄県,糸満市,字大度２７５番地の１３,,47,210,9010334,,,,,,,2025-08-21,1,,,,,エスエスケーエス,0
1805,8360001035670,新規,0,2025-08-21,2025-08-21,株式会社福祉サポートひびき,,株式会社,沖縄県,島尻郡南風原町,字兼城４３７番地１５コーポミヤギ２０１,,47,350,9011111,,,,,,,2025-08-21,1,,,,,フクシサポートヒビキ,0
1806,8360003015183,新規,0,2025-08-21,2025-08-21,合同会社ｇａｊｕｍａｒｕ,,合同会社,沖縄県,那覇市,具志３丁目２６番２１号カサデコート５階,,47,201,9010146,,,,,,,2025-08-21,1,,,,,ガジュマル,0
1815,8430001095063,新規,0,2025-08-21,2025-08-21,株式会社Ｅ・Ｎ,,株式会社,北海道,札幌市北区,北二十一条西５丁目１番２３号１０１号室,,01,102,0010021,,,,,,,2025-08-21,1,,,,,イーエヌ,0
1816,8430003017998,新規,0,2025-08-21,2025-08-21,合同会社シカケビト,,合同会社,北海道,札幌市豊平区,平岸六条１６丁目２番５５－４０５号,,01,105,0620936,,,,,,,2025-08-21,1,,,,,シカケビト,0
1837,9010001257720,新規,0,2025-08-21,2025-08-21,株式会社ＢｕｒｇＳｅｅ,,株式会社,東京都,千代田区,神田神保町１丁目６４番地神保町協和ビル５Ｆ,,13,101,1010051,,,,,,,2025-08-21,1,,,,,バーグシー,0
1838,9010001257761,新規,0,2025-08-21,2025-08-21,ＴＹＣ株式会社,,株式会社,東京都,中央区,日本橋室町１丁目１１番１２号日本橋水野ビル７階,,13,102,1030022,,,,,,,2025-08-21,1,,,,,ティーワイシー,0
1846,9010003048481,新規,0,2025-08-21,2025-08-21,合同会社ＫＲＦ１１５,,合同会社,東京都,千代田区,内幸町２丁目１番６号,,13,101,1000011,,,,,,,2025-08-21,1,,,,,ケイアールエフヒャクジュウゴ,0
1847,9010003048498,新規,0,2025-08-21,2025-08-21,ＪＰＡ４合同会社,,合同会社,東京都,千代田区,丸の内１丁目４番１号東京共同会計事務所内,,13,101,1000005,,,,,,,2025-08-21,1,,,,,ジェイピーエーフォー,0
1856,9010403035848,新規,0,2025-08-21,2025-08-21,合同会社Ａｓｓａｕｌｔ,,合同会社,東京都,港区,虎ノ門１丁目１番１８号ヒューリック虎ノ門ビル９階Ｌ＆Ｐ司法書士法人内,,13,103,1050001,,,,,,,2025-08-21,1,,,,,アソールト,0
1857,9010405024675,新規,0,2025-08-21,2025-08-21,一般社団法人Ｆｒａｎｃｉｓｃｏ,,その他の設立登記法人,東京都,港区,虎ノ門１丁目１番１８号ヒューリック虎ノ門ビル９階Ｌ＆Ｐ司法書士法人内,,13,103,1050001,,,,,,,2025-08-21,1,,,,,フランシスコ,0
1870,9011001171903,新規,0,2025-08-21,2025-08-21,株式会社Ｎ・ＪａｐａｎＣａｒＳｅｒｖｉｃｅ,,株式会社,東京都,渋谷区,神宮前５丁目２番１８号,,13,113,1500001,,,,,,,2025-08-21,1,,,,,エヌジャパンカーサービス,0
1882,9011501032472,新規,0,2025-08-21,2025-08-21,瑞龍株式会社,,株式会社,東京都,北区,浮間１丁目１－１４リムジンビル２０９,,13,117,1150051,,,,,,,2025-08-21,1,,,,,ズイリュウ,0
1883,9011501032480,新規,0,2025-08-21,2025-08-21,株式会社ＦＩＬＭＩＧＯＳ　ＴＯＫＹＯ,,株式会社,東京都,荒川区,西尾久８丁目３０番１－１５０７号,,13,118,1160011,,,,,,,2025-08-21,1,,,,,フィルミーゴストーキョー,0
1885,9011703004352,新規,0,2025-08-21,2025-08-21,ザイナ合同会社,,合同会社,東京都,江戸川区,本一色２丁目７番１２号３０１,,13,123,1330044,,,,,,,2025-08-21,1,,,,,ザイナ,0
1886,9011801046602,新規,0,2025-08-21,2025-08-21,株式会社アセントライズ,,株式会社,東京都,足立区,加平１丁目２３－１１－１０１,,13,121,1210055,,,,,,,2025-08-21,1,,,,,アセントライズ,0
1892,9013301054779,新規,0,2025-08-21,2025-08-21,浜田ＮＨサービス株式会社,,株式会社,東京都,豊島区,東池袋２丁目６２番８号ＢＩＧオフィスプラザ池袋１２０６,,13,116,1700013,,,,,,,2025-08-21,1,,,,,ハマダエヌエイチサービス,0
1900,9020001164404,新規,0,2025-08-21,2025-08-21,株式会社ＤｅｎｔＱｕｅｓｔ,,株式会社,神奈川県,横浜市中区,北仲通５丁目５７－２ザ・タワー横浜北仲５６１６,,14,104,2310003,,,,,,,2025-08-21,1,,,,,デントクエスト,0
1901,9020001164412,新規,0,2025-08-21,2025-08-21,株式会社ロッタラ,,株式会社,神奈川県,川崎市中原区,木月２丁目８番３６号アイランドコジマ３０５号室,,14,133,2110025,,,,,,,2025-08-21,1,,,,,ロッタラ,0
1902,9020001164478,新規,0,2025-08-21,2025-08-21,オーレヴィア株式会社,,株式会社,神奈川県,横浜市旭区,今宿南町２３２２番地３６,,14,112,2410034,,,,,,,2025-08-21,1,,,,,オーレヴィア,0
1903,9020001164511,新規,0,2025-08-21,2025-08-21,株式会社櫻井塗装,,株式会社,神奈川県,横浜市泉区,和泉中央南４丁目１０番３９号メゾン和泉Ｂ２０１号,,14,116,2450023,,,,,,,2025-08-21,1,,,,,サクライトソウ,0
1906,9020003029159,新規,0,2025-08-21,2025-08-21,くらはしアセットマネジメント合同会社,,合同会社,神奈川県,横浜市戸塚区,品濃町５５３番地１パークヒルズＤ棟２０４号,,14,110,2440801,,,,,,,2025-08-21,1,,,,,クラハシアセットマネジメント,0
1908,9021001086084,新規,0,2025-08-21,2025-08-21,株式会社グリーンピース,,株式会社,神奈川県,逗子市,新宿２丁目１４番１４号,,14,208,2490007,,,,,,,2025-08-21,1,,,,,グリーンピース,0
1913,9030001168230,新規,0,2025-08-21,2025-08-21,花森株式会社,,株式会社,埼玉県,川口市,西川口３丁目１－６－６０Ｃ,,11,203,3320021,,,,,,,2025-08-21,1,,,,,ハナモリ,0
1914,9030001168255,新規,0,2025-08-21,2025-08-21,株式会社ｓｔａｉｌａ,,株式会社,埼玉県,さいたま市岩槻区,東町１丁目４番１１号リースホームムツミ２０１号,,11,110,3390055,,,,,,,2025-08-21,1,,,,,スタイラ,0
1919,9030005022251,新規,0,2025-08-21,2025-08-21,ＧＬＯＷ協同組合,,その他の設立登記法人,埼玉県,ふじみ野市,ふじみ野３丁目１番１０号,,11,245,3560050,,,,,,,2025-08-21,1,,,,,グロウ,0
1921,9040001140114,新規,0,2025-08-21,2025-08-21,株式会社ｋｏｍｉｎａｔｏ,,株式会社,千葉県,千葉市中央区,宮崎町７７４－１５８,,12,101,2600805,,,,,,,2025-08-21,1,,,,,コミナト,0
1922,9040001140139,新規,0,2025-08-21,2025-08-21,ワールド・ヤングトップ株式会社,,株式会社,千葉県,柏市,青葉台２丁目１８番１２号１－２０１室,,12,217,2770055,,,,,,,2025-08-21,1,,,,,ワールドヤングトップ,0
1923,9040001140155,新規,0,2025-08-21,2025-08-21,東関東警備株式会社,,株式会社,千葉県,鎌ケ谷市,中佐津間１丁目４番３号,,12,224,2730135,,,,,,,2025-08-21,1,,,,,ヒガシカントウケイビ,0
1924,9040001140213,新規,0,2025-08-21,2025-08-21,愛和薬品株式会社,,株式会社,千葉県,船橋市,芝山７丁目１３番１１号,,12,204,2740816,,,,,,,2025-08-21,1,,,,,アイワヤクヒン,0
1932,9050001057142,新規,0,2025-08-21,2025-08-21,ＺＩＭＯＵＳ株式会社,,株式会社,茨城県,ひたちなか市,大字市毛１１４３番地２,,08,221,3120033,,,,,,,2025-08-21,1,,,,,ズモス,0
1936,9060001038521,新規,0,2025-08-21,2025-08-21,株式会社ＤＡＩＣＨＵ,,株式会社,栃木県,下都賀郡壬生町,大字中泉８４８番地,,09,361,3210232,,,,,,,2025-08-21,1,,,,,ダイチュウ,0
1940,9060005010369,新規,0,2025-08-21,2025-08-21,一般社団法人にじのわ,,その他の設立登記法人,栃木県,那須塩原市,豊浦町１００番地３１後藤アパート６号,,09,213,3250064,,,,,,,2025-08-21,1,,,,,ニジノワ,0
1943,9090001019477,新規,0,2025-08-21,2025-08-21,株式会社ｃｉｅｌ,,株式会社,山梨県,富士吉田市,竜ケ丘１丁目１３番７号,,19,202,4030014,,,,,,,2025-08-21,1,,,,,シエル,0
1949,9120001278961,新規,0,2025-08-21,2025-08-21,株式会社ＢＲＩＬＬＩＡＮＴ　ＧＲＯＵＰ,,株式会社,大阪府,大阪市中央区,道修町４丁目１番１号武田御堂筋ビル２Ｆ,,27,128,5410045,,,,,,,2025-08-21,1,,,,,ブリリアントグループ,0
1950,9120001278978,新規,0,2025-08-21,2025-08-21,株式会社うつくし大臣,,株式会社,大阪府,大阪市旭区,今市２丁目２番１５号,,27,117,5350011,,,,,,,2025-08-21,1,,,,,ウツクシダイジン,0
1951,9120001278986,新規,0,2025-08-21,2025-08-21,株式会社ｔｏｉｔｏｉ,,株式会社,大阪府,大阪市阿倍野区,桃ケ池町１丁目１１番１５号,,27,119,5450012,,,,,,,2025-08-21,1,,,,,トイトイ,0
1952,9120001278994,新規,0,2025-08-21,2025-08-21,迷迭香株式会社,,株式会社,大阪府,守口市,佐太西町１丁目１番１号,,27,209,5700001,,,,,,,2025-08-21,1,,,,,メイテツコウ,0
1957,9120103006650,新規,0,2025-08-21,2025-08-21,エスワイプリント合同会社,,合同会社,大阪府,和泉市,伯太町２丁目３３番２１号シャトルハイツ３１０,,27,219,5940023,,,,,,,2025-08-21,1,,,,,エスワイプリント,0
1960,9130001080417,新規,0,2025-08-21,2025-08-21,株式会社ＫＯＵＫＥＩアセット,,株式会社,京都府,京都市左京区,岩倉中河原町２３７番地,,26,103,6060018,,,,,,,2025-08-21,1,,,,,コウケイアセット,0
1962,9140001139724,新規,0,2025-08-21,2025-08-21,株式会社ワンステップ,,株式会社,兵庫県,尼崎市,南塚口町６丁目９番１－１１１２号,,28,202,6610012,,,,,,,2025-08-21,1,,,,,ワンステップ,0
1964,9140003022465,新規,0,2025-08-21,2025-08-21,合同会社ライブサポート,,合同会社,兵庫県,神戸市長田区,腕塚町８丁目２番１３号,,28,106,6530036,,,,,,,2025-08-21,1,,,,,ライブサポート,0
1965,9140003022481,新規,0,2025-08-21,2025-08-21,Ｇｒｅｃｏ合同会社,,合同会社,兵庫県,尼崎市,南武庫之荘１０丁目７番９号,,28,202,6610033,,,,,,,2025-08-21,1,,,,,グレコ,0
1966,9150003003687,新規,0,2025-08-21,2025-08-21,合同会社テイクイット,,合同会社,奈良県,大和郡山市,美濃庄町７５４－１,,29,203,6391103,,,,,,,2025-08-21,1,,,,,テイクイット,0
1982,9230005009492,新規,0,2025-08-21,2025-08-21,一般社団法人新しい農業開発研究所,,その他の設立登記法人,富山県,中新川郡立山町,若宮１４０番地,,16,323,9300202,,,,,,,2025-08-21,1,,,,,アタラシイノウギョウカイハツケンキュウショ,0
1985,9250001021301,新規,0,2025-08-21,2025-08-21,株式会社マルヨシ商事,,株式会社,山口県,山口市,阿東徳佐中３３８５番地６,,35,203,7591512,,,,,,,2025-08-21,1,,,,,マルヨシショウジ,0
1996,9290001111016,新規,0,2025-08-21,2025-08-21,廣栄建設株式会社,00140371,株式会社,福岡県,大牟田市,飯田町１０番地２,,40,202,8360087,,,,,,,2025-08-21,1,,,,,ヒロエケンセツ,0
1997,9290001111222,新規,0,2025-08-21,2025-08-21,株式会社グッドライフカンパニー分割準備会社,,株式会社,福岡県,福岡市博多区,博多駅前２丁目１７番８号,,40,132,8120011,,,,,,,2025-08-21,1,,,,,グッドライフカンパニーブンカツジュンビガイシャ,0
1998,9290003017277,新規,0,2025-08-21,2025-08-21,アルファジャパン合同会社,,合同会社,福岡県,福岡市中央区,天神４丁目６－２８いちご天神ノースビル７階,,40,133,8100001,,,,,,,2025-08-21,1,,,,,,0
2001,9330001033503,新規,0,2025-08-21,2025-08-21,八電ｔｅｃ．ｇａｒａｇｅ株式会社,,株式会社,熊本県,菊池郡菊陽町,光の森２丁目２０番地１１,,43,404,8691108,,,,,,,2025-08-21,1,,,,,ハチデンテックガレージ,0
2002,9330001033511,新規,0,2025-08-21,2025-08-21,株式会社ｈｉｋｅ,,株式会社,熊本県,熊本市中央区,神水本町１３－１１－１,,43,101,8620955,,,,,,,2025-08-21,1,,,,,ハイク,0
2010,9350003005011,新規,0,2025-08-21,2025-08-21,合同会社Ｃｏｍｅ　ｏｎ．,,合同会社,宮崎県,宮崎市,瀬頭１丁目１番１８号オーシャン瀬頭５０５号,,45,201,8800867,,,,,,,2025-08-21,1,,,,,カモン,0
2021,9430001095038,新規,0,2025-08-21,2025-08-21,株式会社ＭＫレガーロ,,株式会社,北海道,札幌市西区,発寒六条１３丁目１番５０－９０２号,,01,107,0630826,,,,,,,2025-08-21,1,,,,,エムケイレガーロ,0
2022,9430001095070,新規,0,2025-08-21,2025-08-21,株式会社ＮＡＴＩＣＡ,,株式会社,北海道,千歳市,流通１丁目２番７号,,01,224,0660019,,,,,,,2025-08-21,1,,,,,ナチカ,0
2025,9430003018005,新規,0,2025-08-21,2025-08-21,合同会社バーテックス,,合同会社,北海道,札幌市中央区,北四条東１丁目３番地１パシフィックタワー札幌２５０５号,,01,101,0600034,,,,,,,2025-08-21,1,,,,,バーテックス,0
