sequenceNumber,corporateNumber,process,correct,updateDate,changeDate,name,nameImageId,kind,prefectureName,cityName,streetNumber,addressImageId,prefectureCode,cityCode,postCode,addressOutside,addressOutsideImageId,closeDate,closeCause,successorCorporateNumber,changeCause,assignmentDate,latest,enName,enPrefectureName,enCityName,enAddressOutside,furigana,hihyoji
3,1010001126008,登記記録の閉鎖等,0,2023-11-10,2023-11-08,株式会社ファーストアカウンティングサービス,,株式会社,香川県,高松市,松縄町１０５２番４－５０１号,,37,201,7600079,,,2023-11-08,清算の結了等,,,2015-10-05,1,,,,,ファーストアカウンティングサービス,0
6,1010001212682,登記記録の閉鎖等,0,2023-11-10,2023-11-01,アズリンク株式会社,,株式会社,東京都,千代田区,神田佐久間町３丁目２１番地２４,,13,101,1010025,,,2023-11-01,合併による解散等,4020001118109,令和５年１１月１日東京都千代田区神田佐久間町三丁目２１番地２４アイシーティーリンク株式会社（4020001118109）に合併し解散,2020-10-09,1,,,,,アズリンク,0
16,1010102006513,登記記録の閉鎖等,0,2023-11-10,2023-11-06,有限会社丸信内田商店,,有限会社,東京都,八王子市,台町２丁目１番１号,,13,201,1930931,,,2023-11-06,清算の結了等,,,2015-10-05,1,,,,,,0
28,1010501028331,登記記録の閉鎖等,0,2023-11-10,2023-11-07,株式会社エスケー,,株式会社,東京都,台東区,柳橋１丁目１２番３号,,13,106,1110052,,,2023-11-07,清算の結了等,,,2015-10-05,1,,,,,エスケー,0
29,1010501047950,登記記録の閉鎖等,0,2023-11-10,2023-11-07,オールハーバー株式会社,,株式会社,東京都,台東区,橋場２丁目６番３号,,13,106,1110023,,,2023-11-07,清算の結了等,,,2021-10-13,1,,,,,オールハーバー,0
40,1010701029674,登記記録の閉鎖等,0,2023-11-10,2023-10-31,株式会社トモプラン,,株式会社,東京都,中央区,銀座１丁目２２－１１銀座大竹ビジデンス２階,,13,102,1040061,,,2023-10-31,清算の結了等,,,2015-10-05,1,,,,,トモプラン,0
55,1011101089615,登記記録の閉鎖等,0,2023-11-10,2023-11-06,イチミ株式会社,,株式会社,東京都,港区,南青山１丁目１５－２越山ビル５階,,13,103,1070062,,,2023-11-06,合併による解散等,6010001204312,令和５年１０月１１日東京都港区北青山二丁目７番１３号プラセオ青山ビル３階ＬＯＧＺＧＲＯＵＰ株式会社（6010001204312）に合併し解散,2019-11-20,1,,,,,イチミ,0
82,1020001078669,登記記録の閉鎖等,0,2023-11-10,2023-10-31,アイアールエスサービス株式会社,,株式会社,神奈川県,横浜市港北区,新横浜２丁目１３番地８,,14,109,2220033,,,2023-10-31,清算の結了等,,,2015-10-05,1,,,,,アイアールエスサービス,0
83,1020001082563,登記記録の閉鎖等,0,2023-11-10,2023-10-31,株式会社Ｋ５１,,株式会社,神奈川県,川崎市宮前区,平６丁目１３番３０－４０１号,,14,136,2160022,,,2023-10-31,清算の結了等,,,2015-10-05,1,,,,,ケイファイブワン,0
94,1020002079807,登記記録の閉鎖等,0,2023-11-10,2023-10-31,有限会社大崎製作所,,有限会社,神奈川県,横浜市鶴見区,駒岡２丁目１６番５号,,14,101,2300071,,,2023-10-31,清算の結了等,,,2015-10-05,1,,,,,オオサキセイサクショ,0
127,1040001038282,登記記録の閉鎖等,0,2023-11-10,2023-11-02,株式会社仲田酒店,,株式会社,千葉県,流山市,松ケ丘２丁目３２０番地の１０７,,12,220,2700141,,,2023-11-02,清算の結了等,,,2015-10-05,1,,,,,ナカダサケテン,0
136,1040002069021,登記記録の閉鎖等,0,2023-11-10,2023-11-02,有限会社サンワ管工,,有限会社,千葉県,木更津市,請西東５丁目５番地１１,,12,206,2920806,,,2023-11-02,清算の結了等,,,2015-10-05,1,,,,,,0
138,1040002095991,登記記録の閉鎖等,0,2023-11-10,2023-11-01,有限会社土佐南学会,,有限会社,千葉県,柏市,大津ケ丘１丁目２７番地１２,,12,217,2770921,,,2023-11-01,清算の結了等,,,2015-10-05,1,,,,,トサナンガクカイ,0
153,1080102009922,登記記録の閉鎖等,0,2023-11-10,2023-11-08,有限会社函南建設,,有限会社,静岡県,田方郡函南町,上沢３６６番地の１,,22,325,4190122,,,2023-11-08,清算の結了等,,,2015-10-05,1,,,,,カンナミケンセツ,0
197,1120101055112,登記記録の閉鎖等,0,2023-11-10,2023-11-08,ｉｐｐｏ株式会社,,株式会社,大阪府,堺市南区,深阪南２６９０番地４,,27,145,5900103,,,2023-11-08,清算の結了等,,,2016-07-26,1,,,,,イッポ,0
199,1120901007295,登記記録の閉鎖等,0,2023-11-10,2023-11-06,株式会社田村建設,,株式会社,大阪府,吹田市,佐竹台６丁目６番４号,,27,205,5650855,,,2023-11-06,清算の結了等,,,2015-10-05,1,,,,,タムラケンセツ,0
233,1220001010446,登記記録の閉鎖等,0,2023-11-10,2023-11-02,株式会社フロンティア・トラスト,,株式会社,石川県,金沢市,疋田３丁目７番地,,17,201,9200003,,,2023-11-02,合併による解散等,8020001111497,令和５年１０月３１日東京都品川区東五反田一丁目２０番３号株式会社クロスディ（8020001111497）に合併し解散,2015-10-05,1,,,,,,0
237,1220003000247,登記記録の閉鎖等,0,2023-11-10,2023-11-08,合資会社太斗,,合資会社,石川県,金沢市,武蔵町３番１号,,17,201,9200855,,,2023-11-08,清算の結了等,,,2015-10-05,1,,,,,タイト,0
239,1230002012977,登記記録の閉鎖等,0,2023-11-10,2023-11-08,有限会社タイセイテック,,有限会社,富山県,氷見市,鞍川１４１１番地６,,16,205,9350025,,,2023-11-08,清算の結了等,,,2015-10-05,1,,,,,タイセイテック,0
244,1240001056355,登記記録の閉鎖等,0,2023-11-10,2023-10-24,株式会社フェイス,,株式会社,山口県,山口市,大内御堀５丁目１６番２５号,,35,203,7530214,,,2023-10-24,清算の結了等,,,2020-07-14,1,,,,,フェイス,0
247,1240002032636,登記記録の閉鎖等,0,2023-11-10,2023-11-02,有限会社熊谷工業,,有限会社,広島県,呉市,上長迫町８番４５号,,34,202,7370031,,,2023-11-02,清算の結了等,,,2015-10-05,1,,,,,クマガイコウギョウ,0
251,1250002012323,登記記録の閉鎖等,0,2023-11-10,2023-11-08,有限会社大林エンジニアリング,,有限会社,山口県,下関市,菊川町大字上岡枝１２７７番地の１,,35,201,7500321,,,2023-11-08,清算の結了等,,,2015-10-05,1,,,,,オオバヤシエンジニアリング,0
254,1290001009457,登記記録の閉鎖等,0,2023-11-10,2023-10-25,日新汽船株式会社,,株式会社,福岡県,福岡市中央区,大名２丁目４番３８号,,40,133,8100041,,,2023-10-25,清算の結了等,,,2023-04-27,1,,,,,ニッシンキセン,0
267,1310002005171,登記記録の閉鎖等,0,2023-11-10,2023-11-08,有限会社松浦建塗,,有限会社,長崎県,長崎市,高浜町１６８６番地２,,42,201,8510503,,,2023-11-08,清算の結了等,,,2015-10-05,1,,,,,マツウラケント,0
282,1370001002362,登記記録の閉鎖等,0,2023-11-10,2023-11-08,株式会社渡十材木店,,株式会社,宮城県,仙台市太白区,東中田６丁目９番４５号,,04,104,9811107,,,2023-11-08,清算の結了等,,,2015-10-05,1,,,,,ワタジュウザイモクテン,0
289,1390002014891,登記記録の閉鎖等,0,2023-11-10,2023-11-08,有限会社小関設計事務所,,有限会社,山形県,長井市,九野本１０６３番地１,,06,209,9930041,,,2023-11-08,清算の結了等,,,2015-10-05,1,,,,,コセキセッケイジムショ,0
294,1410002002472,登記記録の閉鎖等,0,2023-11-10,2023-11-06,有限会社竹村商会,,有限会社,秋田県,秋田市,将軍野南５丁目８番４号,,05,201,0110936,,,2023-11-06,清算の結了等,,,2015-10-05,1,,,,,タケムラショウカイ,0
315,2010003030792,登記記録の閉鎖等,0,2023-11-10,2023-11-02,上野振興合同会社,,合同会社,東京都,千代田区,霞が関３丁目２番５号,,13,101,1000013,,,2023-11-02,清算の結了等,,,2019-10-07,1,,,,,ウエノシンコウ,0
317,2010005015313,登記記録の閉鎖等,0,2023-11-10,2023-11-07,特定非営利活動法人聖樹会伝統文化・伝統養生医学交流協会,,その他の設立登記法人,東京都,中央区,銀座７丁目１３番６号サガミビル２階,,13,102,1040061,,,2023-11-07,清算の結了等,,,2015-10-05,1,,,,,セイジュカイデントウブンカデントウヨウセイイガクコウリュウキョウカイ,0
356,2010702004849,登記記録の閉鎖等,0,2023-11-10,2023-11-02,有限会社ダイワクリエイション,,有限会社,東京都,品川区,東品川１丁目２８番１４号,,13,109,1400002,,,2023-11-02,清算の結了等,,,2015-10-05,1,,,,,ダイワクリエイション,0
365,2011001137605,登記記録の閉鎖等,0,2023-11-10,2023-10-17,株式会社クリアレンズ,,株式会社,東京都,渋谷区,神宮前６丁目２３番４号桑野ビル２階,,13,113,1500001,,,2023-10-17,清算の結了等,,,2020-12-21,1,,,,,クリアレンズ,0
371,2011101005430,登記記録の閉鎖等,0,2023-11-10,2023-11-08,株式会社協和魚類,,株式会社,東京都,新宿区,若葉２丁目３番５号,,13,104,1600011,,,2023-11-08,清算の結了等,,,2023-08-28,1,,,,,キョウワギョルイ,0
385,2011801021883,登記記録の閉鎖等,0,2023-11-10,2023-11-02,株式会社豊牧,,株式会社,東京都,中央区,日本橋堀留町１丁目３番６号日本橋２０ビル７階,,13,102,1030012,,,2023-11-02,清算の結了等,,,2015-10-05,1,,,,,トヨマキ,0
398,2012403001200,登記記録の閉鎖等,0,2023-11-10,2023-11-06,合同会社ＮＡＫ都市研究所,,合同会社,東京都,新宿区,西新宿３丁目２番９号新宿ワシントンホテルビル本館２Ｆ,,13,104,1600023,,,2023-11-06,清算の結了等,,,2015-10-05,1,,,,,エヌエーケートシケンキュウショ,0
400,2012801018300,登記記録の閉鎖等,0,2023-11-10,2023-11-01,株式会社カタチ,,株式会社,東京都,日野市,万願寺６丁目４１番地３,,13,212,1910024,,,2023-11-01,清算の結了等,,,2017-10-11,1,,,,,カタチ,0
401,2012802000249,登記記録の閉鎖等,0,2023-11-10,2023-11-01,有限会社井上工務店,,有限会社,東京都,武蔵村山市,三ツ藤３丁目５１番地の３３,,13,223,2080021,,,2023-11-01,清算の結了等,,,2015-10-05,1,,,,,イノウエコウムテン,0
420,2021001045600,登記記録の閉鎖等,0,2023-11-10,2023-11-08,湘南オリーブ株式会社,,株式会社,神奈川県,茅ヶ崎市,菱沼１丁目５番２１号,,14,207,2530011,,,2023-11-08,清算の結了等,,,2015-10-05,1,,,,,ショウナンオリーブ,0
428,2030001112723,登記記録の閉鎖等,0,2023-11-10,2023-11-06,株式会社日本ユニプレスト,,株式会社,埼玉県,越谷市,レイクタウン９丁目４１番地５,,11,222,3430828,,,2023-11-06,清算の結了等,,,2016-02-04,1,,,,,ニホンユニプレスト,0
429,2030001125238,登記記録の閉鎖等,0,2023-11-10,2023-10-31,株式会社ＳＯＰＯ,,株式会社,埼玉県,志木市,本町５丁目８－５中村ビル２Ｆ,,11,228,3530004,,,2023-10-31,清算の結了等,,,2018-04-20,1,,,,,ソポ,0
432,2030001134404,登記記録の閉鎖等,0,2023-11-10,2023-11-01,株式会社エスエイインターナショナル,,株式会社,埼玉県,新座市,栗原１丁目８番１８号,,11,230,3520035,,,2023-11-01,清算の結了等,,,2019-12-24,1,,,,,エスエイインターナショナル,0
439,2030003013795,登記記録の閉鎖等,0,2023-11-10,2023-11-02,京和合同会社,,合同会社,埼玉県,戸田市,美女木１丁目１４番１９号,,11,224,3350031,,,2023-11-02,清算の結了等,,,2019-07-12,1,,,,,キョウワ,0
445,2040001116756,登記記録の閉鎖等,0,2023-11-10,2023-11-02,株式会社ＢＯＮＤ折り鶴,,株式会社,千葉県,市川市,行徳駅前２丁目２１番２２－５０６２号（行徳マンション）,,12,203,2720133,,,2023-11-02,清算の結了等,,,2021-01-18,1,,,,,ボンドオリヅル,0
449,2040002024644,登記記録の閉鎖等,0,2023-11-10,2023-11-02,有限会社ハリマヤ産業,,有限会社,千葉県,船橋市,西船１丁目８番４号,,12,204,2730031,,,2023-11-02,清算の結了等,,,2015-10-05,1,,,,,ハリマヤサンギョウ,0
450,2040002034172,登記記録の閉鎖等,0,2023-11-10,2023-11-02,有限会社相模屋商店,,有限会社,千葉県,市川市,新田４丁目８番２５号,,12,203,2720035,,,2023-11-02,清算の結了等,,,2015-10-05,1,,,,,サガミヤショウテン,0
451,2040002061349,登記記録の閉鎖等,0,2023-11-10,2023-11-01,有限会社野中設計,,有限会社,千葉県,佐倉市,江原台１丁目８番２６号,,12,212,2850825,,,2023-11-01,清算の結了等,,,2015-10-05,1,,,,,ノナカセッケイ,0
455,2050001030717,登記記録の閉鎖等,0,2023-11-10,2023-11-01,株式会社タカハシコーポレーション,,株式会社,茨城県,取手市,下高井２１２１番地４サンビップマンション取手３０６号,,08,217,3020038,,,2023-11-01,清算の結了等,,,2015-10-05,1,,,,,タカハシコーポレーション,0
468,2070001038361,登記記録の閉鎖等,0,2023-11-10,2023-11-06,株式会社ファン工房,,株式会社,群馬県,高崎市,白銀町９番地白銀ビル３階,,10,202,3700825,,,2023-11-06,清算の結了等,,,2021-08-18,1,,,,,ファンコウボウ,0
479,2100001019977,登記記録の閉鎖等,0,2023-11-10,2023-10-23,株式会社Ａ・Ｉ企画,,株式会社,長野県,諏訪市,沖田町１丁目１３１番地１,,20,206,3920013,,,2023-10-23,清算の結了等,,,2015-10-05,1,,,,,エーアイキカク,0
500,2130001058353,登記記録の閉鎖等,0,2023-11-10,2023-11-01,株式会社シュウェスト,,株式会社,京都府,亀岡市,篠町篠中北裏４２番地２,,26,206,6210826,,,2023-11-01,清算の結了等,,,2016-09-29,1,,,,,シュウェスト,0
530,2180302024355,登記記録の閉鎖等,0,2023-11-10,2023-10-31,有限会社いわた,,有限会社,愛知県,豊田市,木瀬町桧本３０９番地１,,23,211,4700411,,,2023-10-31,清算の結了等,,,2015-10-05,1,,,,,イワタ,0
533,2200002011493,登記記録の閉鎖等,0,2023-11-10,2023-11-06,有限会社ファーストマネージメントサービス,,有限会社,岐阜県,羽島市,福寿町間島９丁目６９番地の２,,21,209,5016251,,,2023-11-06,清算の結了等,,,2015-10-05,1,,,,,ファーストマネージメントサービス,0
534,2200003002789,登記記録の閉鎖等,0,2023-11-10,2023-11-08,合同会社レコルテ,,合同会社,岐阜県,高山市,松本町２０５０番地１２,,21,203,5060808,,,2023-11-08,清算の結了等,,,2015-10-05,1,,,,,レコルテ,0
553,2290001046788,登記記録の閉鎖等,0,2023-11-10,2023-10-30,倖鈴建設株式会社,,株式会社,福岡県,糟屋郡志免町,別府西３丁目１番１８号,,40,343,8112232,,,2023-10-30,清算の結了等,,,2015-10-05,1,,,,,コウリンケンセツ,0
558,2290002026351,登記記録の閉鎖等,0,2023-11-10,2023-10-27,有限会社ヴィアーレ,,有限会社,福岡県,福津市,若木台４丁目１４番地の１１,,40,224,8113221,,,2023-10-27,清算の結了等,,,2015-10-05,1,,,,,ヴィアーレ,0
582,2370002000777,登記記録の閉鎖等,0,2023-11-10,2023-11-02,有限会社コンテックサービス,,有限会社,宮城県,富谷市,あけの平２丁目３３番地１２,,04,216,9813361,,,2023-11-02,清算の結了等,,,2015-10-05,1,,,,,コンテックサービス,0
587,2370602001497,登記記録の閉鎖等,0,2023-11-10,2023-11-07,有限会社ハタヤマ商会,,有限会社,宮城県,宮城郡利府町,神谷沢字化粧坂１０番地の２５,,04,406,9810121,,,2023-11-07,清算の結了等,,,2015-10-05,1,,,,,,0
591,2390002000668,登記記録の閉鎖等,0,2023-11-10,2023-11-08,有限会社カネケイ産業,,有限会社,山形県,山形市,末広町１６番２６号,,06,201,9902494,,,2023-11-08,清算の結了等,,,2015-10-05,1,,,,,カネケイサンギョウ,0
592,2390003001995,登記記録の閉鎖等,0,2023-11-10,2023-11-09,合同会社永井事務所,,合同会社,山形県,山形市,上町３丁目１１番１１号,,06,201,9902483,,,2023-11-09,清算の結了等,,,2022-09-13,1,,,,,ナガイジムショ,0
601,2460102006913,登記記録の閉鎖等,0,2023-11-10,2023-11-06,有限会社南十勝警備保障,,有限会社,北海道,広尾郡広尾町,並木通東２丁目１５１番地,,01,642,0892624,,,2023-11-06,清算の結了等,,,2015-10-05,1,,,,,ミナミトカチケイビホショウ,0
618,3010002001975,登記記録の閉鎖等,0,2023-11-10,2023-11-02,有限会社栗田注射針製作所,,有限会社,東京都,文京区,本郷５丁目２５番７号,,13,105,1130033,,,2023-11-02,清算の結了等,,,2015-10-05,1,,,,,クリタチュウシャバリセイサクショ,0
629,3010401124063,登記記録の閉鎖等,0,2023-11-10,2023-11-08,株式会社ＴＳＵＫＵＲＵ,,株式会社,東京都,港区,麻布十番１丁目３番１号アポリアビル４階,,13,103,1060045,,,2023-11-08,清算の結了等,,,2016-04-13,1,,,,,ツクル,0
630,3010401128948,登記記録の閉鎖等,0,2023-11-10,2023-11-07,キャリアルート株式会社,,株式会社,東京都,港区,海岸１丁目２番２０号汐留ビルディング３階,,13,103,1050022,,,2023-11-07,清算の結了等,,,2017-01-10,1,,,,,キャリアルート,0
664,3011001101238,登記記録の閉鎖等,0,2023-11-10,2023-11-06,クロノソリューションユニット株式会社,,株式会社,東京都,品川区,西五反田８丁目２番１３－３０３号,,13,109,1410031,,,2023-11-06,清算の結了等,,,2015-10-05,1,,,,,クロノソリューションユニット,0
685,3011502016835,登記記録の閉鎖等,0,2023-11-10,2023-11-02,有限会社いそべ,,有限会社,東京都,荒川区,東尾久５丁目２４番３号,,13,118,1160012,,,2023-11-02,清算の結了等,,,2023-02-22,1,,,,,イソベ,0
687,3011602010829,登記記録の閉鎖等,0,2023-11-10,2023-11-07,有限会社リオ・グランデ,,有限会社,東京都,練馬区,高野台２丁目２７番３５号,,13,120,1770033,,,2023-11-07,清算の結了等,,,2015-10-05,1,,,,,リオグランデ,0
696,3012702005719,登記記録の閉鎖等,0,2023-11-10,2023-11-08,有限会社東京ジーエム,,有限会社,東京都,西東京市,田無町２丁目１２番６号,,13,229,1880011,,,2023-11-08,清算の結了等,,,2015-10-05,1,,,,,トウキョウジーエム,0
703,3013302017468,登記記録の閉鎖等,0,2023-11-10,2023-11-01,有限会社エリアサポートセンター,,有限会社,東京都,豊島区,南長崎１丁目８番３号,,13,116,1710052,,,2023-11-01,清算の結了等,,,2015-10-05,1,,,,,エリアサポートセンター,0
710,3020002046433,登記記録の閉鎖等,0,2023-11-10,2023-10-31,有限会社ジェイク,,有限会社,神奈川県,横浜市瀬谷区,南台１丁目２５番地の４,,14,114,2460032,,,2023-10-31,清算の結了等,,,2015-10-05,1,,,,,ジェイク,0
715,3021001048783,登記記録の閉鎖等,0,2023-11-10,2023-11-01,株式会社ロジネット湘南,,株式会社,神奈川県,高座郡寒川町,田端２０４８番地,,14,321,2530114,,,2023-11-01,合併による解散等,7021001006481,令和５年１１月１日神奈川県高座郡寒川町田端２０４８番地株式会社セーフティロジ湘南（7021001006481）に合併し解散,2015-10-05,1,,,,,ロジネットショウナン,0
720,3021002042372,登記記録の閉鎖等,0,2023-11-10,2023-11-08,有限会社ホンダ鈑金センター,,有限会社,神奈川県,大和市,福田２３６７番地の２,,14,213,2420024,,,2023-11-08,清算の結了等,,,2015-10-05,1,,,,,ホンダバンキンセンター,0
724,3030001097047,登記記録の閉鎖等,0,2023-11-10,2023-10-31,株式会社Ｄ－Ｗｏｍａｎ’ｓ　Ｃｌｕｂ,,株式会社,埼玉県,さいたま市大宮区,桜木町１丁目１番２１号東栄アネックスビル３Ｆ,,11,103,3300854,,,2023-10-31,清算の結了等,,,2015-10-05,1,,,,,ディーウーマンズクラブ,0
725,3030001098441,登記記録の閉鎖等,0,2023-11-10,2023-11-01,株式会社アトラス産業,,株式会社,埼玉県,新座市,野火止２丁目６番２５号,,11,230,3520011,,,2023-11-01,清算の結了等,,,2015-10-05,1,,,,,アトラスサンギョウ,0
740,3040002026020,登記記録の閉鎖等,0,2023-11-10,2023-11-02,有限会社山曾商事,,有限会社,千葉県,船橋市,松が丘４丁目５８番７号,,12,204,2740064,,,2023-11-02,清算の結了等,,,2015-10-05,1,,,,,ヤマソショウジ,0
741,3040002098687,登記記録の閉鎖等,0,2023-11-10,2023-11-01,有限会社慶祐,,有限会社,千葉県,野田市,木間ケ瀬３３０３番地の３,,12,208,2700222,,,2023-11-01,清算の結了等,,,2015-10-05,1,,,,,ケイユウ,0
747,3050005012330,登記記録の閉鎖等,0,2023-11-10,2023-11-09,一般社団法人岩浅松栄会,,その他の設立登記法人,徳島県,小松島市,小松島町字中筋１５番地の１,,36,203,7730001,,,2023-11-09,清算の結了等,,,2018-05-28,1,,,,,イワサショウエイカイ,0
769,3110001008879,登記記録の閉鎖等,0,2023-11-10,2023-11-07,ジュピターシステム株式会社,,株式会社,新潟県,新潟市中央区,窪田町６丁目３１１番地,,15,103,9518008,,,2023-11-07,清算の結了等,,,2015-10-05,1,,,,,ジュピターシステム,0
772,3120001060466,登記記録の閉鎖等,0,2023-11-10,2023-11-06,アルクスペースプロジェクト株式会社,,株式会社,大阪府,大阪市北区,芝田２丁目３－１９東洋ビル,,27,127,5300012,,,2023-11-06,清算の結了等,,,2015-10-05,1,,,,,アルクスペースプロジェクト,0
794,3120002066504,登記記録の閉鎖等,0,2023-11-10,2023-11-06,有限会社城安全硝子,,有限会社,大阪府,大阪市港区,夕凪２丁目９番１８号,,27,107,5520004,,,2023-11-06,清算の結了等,,,2015-10-05,1,,,,,,0
798,3120901024289,登記記録の閉鎖等,0,2023-11-10,2023-11-07,株式会社誠則,,株式会社,岡山県,岡山市南区,福富東２丁目２０番６号,,33,104,7028033,,,2023-11-07,清算の結了等,,,2015-10-05,1,,,,,セイソク,0
799,3122001025069,登記記録の閉鎖等,0,2023-11-10,2023-11-06,株式会社ワビット,,株式会社,大阪府,大阪市城東区,永田１丁目３番５号,,27,118,5360022,,,2023-11-06,清算の結了等,,,2015-10-05,1,,,,,,0
802,3130001027118,登記記録の閉鎖等,0,2023-11-10,2023-11-01,株式会社アシストワン,,株式会社,京都府,京都市中京区,西ノ京西月光町４１番地の３,,26,104,6048423,,,2023-11-01,清算の結了等,,,2015-10-05,1,,,,,アシストワン,0
815,3140002022174,登記記録の閉鎖等,0,2023-11-10,2023-11-06,有限会社ジェームス山ペットクリニック,,有限会社,兵庫県,神戸市垂水区,塩屋北町４丁目５番６号,,28,108,6550863,,,2023-11-06,清算の結了等,,,2015-10-05,1,,,,,ジェームスヤマペットクリニック,0
817,3150001007596,登記記録の閉鎖等,0,2023-11-10,2023-11-08,株式会社オーティーエム,,株式会社,奈良県,奈良市,藤ノ木台２丁目２６番２５号,,29,201,6310044,,,2023-11-08,清算の結了等,,,2015-10-05,1,,,,,,0
821,3150002004221,登記記録の閉鎖等,0,2023-11-10,2023-11-08,有限会社鈴木製作所,,有限会社,奈良県,生駒市,鹿ノ台東２丁目２番地の１８,,29,209,6300112,,,2023-11-08,清算の結了等,,,2015-10-05,1,,,,,,0
831,3180002031626,登記記録の閉鎖等,0,2023-11-10,2023-11-01,有限会社金山プロジェクト,,有限会社,東京都,千代田区,内幸町１丁目５番２号,,13,101,1000011,,,2023-11-01,清算の結了等,,,2015-10-05,1,,,,,カナヤマプロジェクト,0
836,3210001009264,登記記録の閉鎖等,0,2023-11-10,2023-11-06,エヌケイホールディングス株式会社,,株式会社,福井県,福井市,田原２丁目２２番５号,,18,201,9100018,,,2023-11-06,清算の結了等,,,2015-10-05,1,,,,,エヌケイホールディングス,0
840,3220002003018,登記記録の閉鎖等,0,2023-11-10,2023-11-09,有限会社新興木材,,有限会社,石川県,金沢市,粟崎町を３０番地,,17,201,9200226,,,2023-11-09,清算の結了等,,,2015-10-05,1,,,,,シンコウモクザイ,0
878,3320005007443,登記記録の閉鎖等,0,2023-11-10,2023-11-09,特定非営利活動法人　障害児支援の会　ぱれっと,,その他の設立登記法人,大分県,日田市,大字花月１３７６番地,,44,204,8770000,,,2023-11-09,清算の結了等,,,2015-10-05,1,,,,,ショウガイジシエンノカイパレット,0
879,3320202000440,登記記録の閉鎖等,0,2023-11-10,2023-11-06,有限会社マリーンアンドウ,,有限会社,大分県,臼杵市,大字大野１２５７番地,,44,206,8750004,,,2023-11-06,合併による解散等,9320201000007,令和５年１１月１日大分県臼杵市大字大野１２５７番地株式会社安東水産（9320201000007）に合併し解散,2015-10-05,1,,,,,マリーンアンドウ,0
896,3380005003271,登記記録の閉鎖等,0,2023-11-10,2023-10-23,特定非営利活動法人フクシマ未来戦略研究所,,その他の設立登記法人,福島県,郡山市,田村町金沢字大久保６４番地,,07,203,9631151,,,2023-10-23,清算の結了等,,,2015-10-05,1,,,,,フクシマミライセンリャクケンキュウジョ,0
897,3390001015443,登記記録の閉鎖等,0,2023-11-10,2023-11-08,株式会社レイネット,,株式会社,山形県,東村山郡山辺町,大字山辺１４０６番地１８,,06,301,9900301,,,2023-11-08,清算の結了等,,,2018-09-18,1,,,,,レイネット,0
899,3410001010103,登記記録の閉鎖等,0,2023-11-10,2023-11-06,十文字トランスポート株式会社,,株式会社,秋田県,横手市,十文字町字大道東２０番地６,,05,203,0190527,,,2023-11-06,清算の結了等,,,2015-10-05,1,,,,,,0
904,3460302000137,登記記録の閉鎖等,0,2023-11-10,2023-11-09,有限会社石田保温工業,,有限会社,北海道,北見市,東三輪１丁目１５７番地５,,01,208,0900836,,,2023-11-09,清算の結了等,,,2015-10-05,1,,,,,イシダホオンコウギョウ,0
914,4010001155565,登記記録の閉鎖等,0,2023-11-10,2023-11-01,株式会社ホームドクターファンド,,株式会社,東京都,中央区,日本橋３丁目５番１２号ＤＥＣＯＴＯＫＹＯ４階,,13,102,1030027,,,2023-11-01,清算の結了等,,,2015-10-05,1,,,,,ホームドクターファンド,0
922,4010002005348,登記記録の閉鎖等,0,2023-11-10,2023-11-02,有限会社フルサワ,,有限会社,東京都,文京区,千駄木４丁目２０番６号,,13,105,1130022,,,2023-11-02,清算の結了等,,,2015-10-05,1,,,,,フルサワ,0
933,4010401109798,登記記録の閉鎖等,0,2023-11-10,2023-09-01,株式会社エフエムメディカル,,株式会社,東京都,港区,港南２丁目１６番１号,,13,103,1080075,,,2023-09-01,合併による解散等,8010401090235,令和５年９月１日東京都港区港南二丁目１６番１号株式会社アペックス・インターナショナル東京（8010401090235）に合併し解散,2015-10-05,1,,,,,エフエムメディカル,0
952,4010802003798,登記記録の閉鎖等,0,2023-11-10,2023-11-07,有限会社上長商店,,有限会社,東京都,大田区,大森北３丁目３２番５号,,13,111,1430016,,,2023-11-07,清算の結了等,,,2015-10-05,1,,,,,ジョウチョウショウテン,0
957,4010901017575,登記記録の閉鎖等,0,2023-11-10,2023-11-06,株式会社ナレッジスポーツ,,株式会社,東京都,世田谷区,玉川３丁目６－１２第７明友ビル４Ｆ,,13,112,1580094,,,2023-11-06,清算の結了等,,,2015-10-05,1,,,,,ナレッジスポーツ,0
995,4020001069260,登記記録の閉鎖等,0,2023-11-10,2023-10-26,株式会社港北電業社,00009741,株式会社,神奈川県,川崎市中原区,小杉町２丁目２０６番地,,14,133,2110063,,,2023-10-26,清算の結了等,,,2015-10-05,1,,,,,コウホクデンギョウシャ,0
997,4020002088763,登記記録の閉鎖等,0,2023-11-10,2023-10-31,京浜フジ商事有限会社,,有限会社,神奈川県,川崎市高津区,宇奈根７１０番地１０,,14,134,2130031,,,2023-10-31,清算の結了等,,,2015-10-05,1,,,,,ケイヒンフジショウジ,0
1014,4030002012466,登記記録の閉鎖等,0,2023-11-10,2023-11-01,有限会社増田工業所,,有限会社,埼玉県,さいたま市桜区,田島９丁目２番４号,,11,106,3380837,,,2023-11-01,清算の結了等,,,2015-10-05,1,,,,,マスダコウギョウショ,0
1015,4030002050318,登記記録の閉鎖等,0,2023-11-10,2023-11-01,有限会社清純商事,,有限会社,埼玉県,草加市,新栄２丁目４３番地６,,11,221,3400056,,,2023-11-01,清算の結了等,,,2015-10-05,1,,,,,セイジュンショウジ,0
1025,4040001017944,登記記録の閉鎖等,0,2023-11-10,2023-11-01,株式会社たけみ,,株式会社,千葉県,船橋市,前原東２丁目１１番１２号,,12,204,2740824,,,2023-11-01,合併による解散等,7040001018766,令和５年１１月１日千葉県船橋市前原東二丁目１１番１２号丸善産業株式会社（7040001018766）に合併し解散,2015-10-05,1,,,,,タケミ,0
1027,4040001061694,登記記録の閉鎖等,0,2023-11-10,2023-11-02,株式会社サンツアー,,株式会社,千葉県,旭市,ロの６５２番地,,12,215,2892516,,,2023-11-02,清算の結了等,,,2015-10-05,1,,,,,サンツアー,0
1042,4040002101697,登記記録の閉鎖等,0,2023-11-10,2023-11-01,有限会社アバンテ,,有限会社,千葉県,いすみ市,日在１９番地１,,12,238,2980002,,,2023-11-01,清算の結了等,,,2015-10-05,1,,,,,アバンテ,0
1065,4120001182359,登記記録の閉鎖等,0,2023-11-10,2023-11-06,株式会社ＪＳＦ,,株式会社,大阪府,大阪市北区,天神橋７丁目３番２号,,27,127,5310041,,,2023-11-06,清算の結了等,,,2015-10-05,1,,,,,ジェイエスエフ,0
1066,4120001234192,登記記録の閉鎖等,0,2023-11-10,2023-11-06,株式会社ＮＪＳ,,株式会社,大阪府,大阪市中央区,宗右衛門町４番５号日宝宗右衛門町センター２Ｆ１,,27,128,5420084,,,2023-11-06,清算の結了等,,,2020-12-28,1,,,,,エヌジェイエス,0
1091,4140001069265,登記記録の閉鎖等,0,2023-11-10,2023-11-01,株式会社大功設備,,株式会社,兵庫県,西宮市,甲子園浦風町１１番２７－１０１号,,28,204,6638165,,,2023-11-01,清算の結了等,,,2015-10-05,1,,,,,ダイコウセツビ,0
1115,4190001027391,登記記録の閉鎖等,0,2023-11-10,2023-11-06,株式会社中山ホールディングス,,株式会社,三重県,伊賀市,石川２７９番地の４０,,24,216,5181323,,,2023-11-06,合併による解散等,6190001008992,令和５年１１月１日三重県伊賀市石川２７９番地の４０中山建設株式会社（6190001008992）に合併し解散,2020-05-27,1,,,,,ナカヤマホールディングス,0
1116,4190002009488,登記記録の閉鎖等,0,2023-11-10,2023-11-08,有限会社浜口商事,,有限会社,三重県,伊勢市,宮後２丁目２番９号,,24,203,5160072,,,2023-11-08,清算の結了等,,,2015-10-05,1,,,,,ハマグチショウジ,0
1123,4220002007785,登記記録の閉鎖等,0,2023-11-10,2023-11-07,有限会社総合プラン販売,,有限会社,石川県,白山市,山島台２丁目６７番地,,17,210,9240836,,,2023-11-07,清算の結了等,,,2015-10-05,1,,,,,ソウゴウプランハンバイ,0
1130,4250001004624,登記記録の閉鎖等,0,2023-11-10,2023-11-01,美祢農林開発株式会社,,株式会社,山口県,美祢市,大嶺町奥分２８４６番地１,,35,213,7592214,,,2023-11-01,合併による解散等,9250001004330,令和５年１１月１日山口県美祢市於福町上４３８３番１美祢観光開発株式会社（9250001004330）に合併し解散,2015-10-05,1,,,,,ミネノウリンカイハツ,0
1136,4260002026419,登記記録の閉鎖等,0,2023-11-10,2023-11-08,有限会社ミユキ技研中国,,有限会社,岡山県,笠岡市,美の浜３０番地４５,,33,205,7140042,,,2023-11-08,清算の結了等,,,2015-10-05,1,,,,,ミユキギケンチュウゴク,0
1139,4290001024800,登記記録の閉鎖等,0,2023-11-10,2023-10-30,株式会社ピー・ピー新宣組,,株式会社,福岡県,福岡市中央区,警固２丁目１６番６－２０１号,,40,133,8100023,,,2023-10-30,清算の結了等,,,2015-10-05,1,,,,,ピーピーシンセングミ,0
1151,4320003001620,登記記録の閉鎖等,0,2023-11-10,2023-11-08,セキュリティーコマンド株式会社,,株式会社,大分県,別府市,大字北石垣１０００番地の２,,44,202,8740000,,,2023-11-08,合併による解散等,2350001000887,令和５年１１月１日宮崎市祇園三丁目１７９番地株式会社セキュリティロード（2350001000887）に合併し解散,2015-10-05,1,,,,,セキュリティーコマンド,0
1160,4350005004676,登記記録の閉鎖等,0,2023-11-10,2023-11-01,学校法人えびの学園,,その他の設立登記法人,宮崎県,えびの市,大字栗下１５９２番地,,45,209,8894221,,,2023-11-01,清算の結了等,,,2015-10-05,1,,,,,エビノガクエン,0
1187,5010001044437,登記記録の閉鎖等,0,2023-11-10,2023-11-02,三荒印刷興業株式会社,,株式会社,東京都,中央区,湊２丁目４番６号,,13,102,1040043,,,2023-11-02,清算の結了等,,,2015-10-05,1,,,,,サンコウインサツコウギョウ,0
1197,5010003026508,登記記録の閉鎖等,0,2023-11-10,2023-11-01,インサイト・マウンテン投資合同会社,,合同会社,東京都,千代田区,丸の内３丁目１番１号,,13,101,1000005,,,2023-11-01,清算の結了等,,,2017-11-27,1,,,,,インサイトマウンテントウシ,0
1221,5010601003024,登記記録の閉鎖等,0,2023-11-10,2023-11-06,三誠通商株式会社,,株式会社,東京都,江東区,東砂５丁目５番１１号,,13,108,1360074,,,2023-11-06,清算の結了等,,,2015-10-05,1,,,,,,0
1224,5010603007477,登記記録の閉鎖等,0,2023-11-10,2023-11-01,プラウド合同会社,,合同会社,東京都,江東区,豊洲５丁目６番２９－６３４号,,13,108,1350061,,,2023-11-01,清算の結了等,,,2018-10-04,1,,,,,プラウド,0
1255,5011003009139,登記記録の閉鎖等,0,2023-11-10,2023-11-07,Ｋ＆Ｍアセット合同会社,,合同会社,東京都,板橋区,中台１丁目２８番８号,,13,119,1740064,,,2023-11-07,合併による解散等,2030003010108,令和５年１０月３１日東京都港区南青山二丁目２番１５号Ｃ＆Ｐアセット合同会社（2030003010108）に合併し解散,2018-09-10,1,,,,,,0
1281,5012403004522,登記記録の閉鎖等,0,2023-11-10,2023-11-09,合同会社藤井商店,,合同会社,東京都,府中市,若松町４丁目３３番地の１２,,13,206,1830005,,,2023-11-09,清算の結了等,,,2020-09-10,1,,,,,フジイショウテン,0
1283,5012802011202,登記記録の閉鎖等,0,2023-11-10,2023-11-01,有限会社エスエルシー,,有限会社,東京都,立川市,砂川町６丁目３８番５号日神パレステージ玉川上水１０７,,13,202,1900031,,,2023-11-01,清算の結了等,,,2015-10-05,1,,,,,エスエルシー,0
1295,5020003009296,登記記録の閉鎖等,0,2023-11-10,2023-10-31,合同会社ＡＩＭ,,合同会社,神奈川県,横浜市南区,真金町２丁目２２番１５ダイアパレス大通り公園４０１,,14,105,2320021,,,2023-10-31,清算の結了等,,,2015-10-05,1,,,,,,0
1318,5030002044830,登記記録の閉鎖等,0,2023-11-10,2023-11-01,有限会社田口製作所,,有限会社,埼玉県,草加市,八幡町２５６番地,,11,221,3400006,,,2023-11-01,清算の結了等,,,2015-10-05,1,,,,,タグチセイサクジョ,0
1319,5030002085940,登記記録の閉鎖等,0,2023-11-10,2023-11-01,有限会社コイタ物流,,有限会社,埼玉県,越谷市,蒲生２丁目１３番１２号,,11,222,3430838,,,2023-11-01,清算の結了等,,,2015-10-05,1,,,,,コイタブツリュウ,0
1324,5030005016513,登記記録の閉鎖等,0,2023-11-10,2023-10-23,特定非営利活動法人いろえんぴつ,,その他の設立登記法人,埼玉県,南埼玉郡宮代町,和戸３丁目７番３６号,,11,442,3450836,,,2023-10-23,清算の結了等,,,2015-10-05,1,,,,,イロエンピツ,0
1333,5040002069208,登記記録の閉鎖等,0,2023-11-10,2023-11-01,有限会社セラミコ,,有限会社,千葉県,木更津市,永井作３０２番地３,,12,206,2920053,,,2023-11-01,清算の結了等,,,2015-10-05,1,,,,,セラミコ,0
1345,5070002034002,登記記録の閉鎖等,0,2023-11-10,2023-11-02,森本商英有限会社,,有限会社,群馬県,邑楽郡明和町,南大島１１２番地,,10,522,3700701,,,2023-11-02,清算の結了等,,,2015-10-05,1,,,,,モリモトショウエイ,0
1348,5080401001766,登記記録の閉鎖等,0,2023-11-10,2023-11-06,株式会社小西商店,,株式会社,静岡県,浜松市中区,上島３丁目２７番３１号,,22,131,4338122,,,2023-11-06,清算の結了等,,,2015-10-05,1,,,,,コニシショウテン,0
1349,5080401013968,登記記録の閉鎖等,0,2023-11-10,2023-11-06,株式会社ネイリング,,株式会社,静岡県,浜松市中区,砂山町６５８番地,,22,131,4300926,,,2023-11-06,清算の結了等,,,2015-10-05,1,,,,,ネイリング,0
1350,5100002009470,登記記録の閉鎖等,0,2023-11-10,2023-11-01,有限会社塚田メリヤス工場,,有限会社,長野県,千曲市,大字稲荷山３４６番地,,20,218,3870021,,,2023-11-01,清算の結了等,,,2015-10-05,1,,,,,ツカダメリヤスコウジョウ,0
1384,5130001067938,登記記録の閉鎖等,0,2023-11-10,2023-11-01,株式会社ＳＡＣＵ,,株式会社,京都府,京都市山科区,東野片下り町２２番地１ときわぎ７０５,,26,110,6070000,,,2023-11-01,清算の結了等,,,2020-11-10,1,,,,,サク,0
1391,5140001077465,登記記録の閉鎖等,0,2023-11-10,2023-10-31,株式会社近畿運輸建設,,株式会社,兵庫県,加西市,桑原田町６０７番地の１０,,28,220,6752111,,,2023-10-31,清算の結了等,,,2015-10-05,1,,,,,キンキウンユケンセツ,0
1394,5140002062078,登記記録の閉鎖等,0,2023-11-10,2023-11-06,有限会社パルプ,,有限会社,兵庫県,西脇市,黒田庄町黒田２５１番地,,28,213,6790302,,,2023-11-06,清算の結了等,,,2015-10-05,1,,,,,パルプ,0
1406,5180003000108,登記記録の閉鎖等,0,2023-11-10,2023-11-06,合資会社三浦印刷所,,合資会社,愛知県,名古屋市守山区,小幡５丁目１０番２０号,,23,113,4630011,,,2023-11-06,清算の結了等,,,2015-10-05,1,,,,,ミウラインサツショ,0
1410,5180301033552,登記記録の閉鎖等,0,2023-11-10,2023-11-08,株式会社ＭＴＵ,,株式会社,愛知県,刈谷市,小垣江町石ノ戸１０２番地７,,23,210,4480813,,,2023-11-08,清算の結了等,,,2020-04-03,1,,,,,エムティーユー,0
1411,5190001005537,登記記録の閉鎖等,0,2023-11-10,2023-11-08,株式会社マルトモ,,株式会社,三重県,鈴鹿市,平田２丁目１０番３号,,24,207,5130844,,,2023-11-08,清算の結了等,,,2015-10-05,1,,,,,マルトモ,0
1412,5190001022466,登記記録の閉鎖等,0,2023-11-10,2023-10-31,株式会社ＩＴＯ,,株式会社,三重県,鈴鹿市,平野町字丸山４７６番地の３,,24,207,5130835,,,2023-10-31,清算の結了等,,,2015-10-05,1,,,,,アイティーオー,0
1448,5330002029438,登記記録の閉鎖等,0,2023-11-10,2023-11-06,有限会社松原建設,,有限会社,熊本県,天草市,天草町高浜南７１６番地４,,43,215,8632804,,,2023-11-06,清算の結了等,,,2015-10-05,1,,,,,マツバラケンセツ,0
1466,5390001014071,登記記録の閉鎖等,0,2023-11-10,2023-11-09,ヤマガッタ株式会社,,株式会社,山形県,山形市,七日町５丁目６番５号,,06,201,9900042,,,2023-11-09,清算の結了等,,,2015-10-05,1,,,,,ヤマガッタ,0
1467,5390002008948,登記記録の閉鎖等,0,2023-11-10,2023-11-07,有限会社鶴岡剱持建設,,有限会社,山形県,鶴岡市,城北町７番１９号,,06,203,9970041,,,2023-11-07,清算の結了等,,,2015-10-05,1,,,,,ツルオカケンモチケンセツ,0
1469,5420001005447,登記記録の閉鎖等,0,2023-11-10,2023-11-02,株式会社富士インシュアランス,,株式会社,青森県,青森市,古川１丁目２１番１１号,,02,201,0300862,,,2023-11-02,清算の結了等,,,2015-10-05,1,,,,,フジインシュアランス,0
1500,6010005025630,登記記録の閉鎖等,0,2023-11-10,2023-11-02,一般社団法人再生可能エネルギー促進協会,,その他の設立登記法人,東京都,中央区,八重洲２丁目７番２号,,13,102,1040028,,,2023-11-02,清算の結了等,,,2016-08-08,1,,,,,サイセイカノウエネルギーソクシンキョウカイ,0
1508,6010401124250,登記記録の閉鎖等,0,2023-11-10,2023-10-31,悦安株式会社,,株式会社,神奈川県,横浜市中区,桜木町１丁目１０１番地１クロスゲート７階,,14,104,2310062,,,2023-10-31,清算の結了等,,,2016-04-19,1,,,,,エツアン,0
1509,6010401168215,登記記録の閉鎖等,0,2023-11-10,2023-11-06,東京ＩＴエンジニア株式会社,,株式会社,東京都,港区,海岸３丁目１５番５－１２０３号,,13,103,1080022,,,2023-11-06,清算の結了等,,,2022-06-30,1,,,,,トウキョウアイティーエンジニア,0
1526,6010902004488,登記記録の閉鎖等,0,2023-11-10,2023-11-02,ギンガム音楽出版有限会社,,有限会社,東京都,世田谷区,船橋６丁目５番７－２０４号,,13,112,1560055,,,2023-11-02,清算の結了等,,,2015-10-05,1,,,,,ギンガムオンガクシュッパン,0
1529,6010905003842,登記記録の閉鎖等,0,2023-11-10,2023-11-08,一般社団法人中小企業財務支援協会,,その他の設立登記法人,兵庫県,姫路市,城見台２丁目１１１１番地２４０,,28,201,6700803,,,2023-11-08,清算の結了等,,,2019-10-24,1,,,,,チュウショウキギョウザイムシエンキョウカイ,0
1543,6011101039061,登記記録の閉鎖等,0,2023-11-10,2023-11-08,株式会社ＫＧＲ,,株式会社,東京都,新宿区,下宮比町２番２８号,,13,104,1620822,,,2023-11-08,清算の結了等,,,2015-10-05,1,,,,,ケージーアール,0
1584,6020003010749,登記記録の閉鎖等,0,2023-11-10,2023-10-31,合同会社トータルコーディネート,,合同会社,神奈川県,川崎市中原区,下沼部１７４１番地ＬｅａｒｉｃＩＩＩ１階１０２号室,00105299,14,133,2110011,,,2023-10-31,清算の結了等,,,2015-12-17,1,,,,,トータルコーディネート,0
1597,6030001096509,登記記録の閉鎖等,0,2023-11-10,2023-11-01,ＦＭＣ株式会社,,株式会社,茨城県,古河市,下片田８４３番地２,,08,204,3060127,,,2023-11-01,清算の結了等,,,2015-10-05,1,,,,,エフエムシー,0
1601,6030002100120,登記記録の閉鎖等,0,2023-11-10,2023-11-01,有限会社天沼軽合金鋳造所,,有限会社,埼玉県,川口市,中青木５丁目４番２８号,,11,203,3320032,,,2023-11-01,清算の結了等,,,2015-10-05,1,,,,,アマヌマケイゴウキンチュゾウショ,0
1604,6040001034938,登記記録の閉鎖等,0,2023-11-10,2023-11-02,株式会社榮進,,株式会社,千葉県,松戸市,稔台３丁目４１番地３,,12,207,2702231,,,2023-11-02,清算の結了等,,,2015-10-05,1,,,,,エイシン,0
1619,6050001019938,登記記録の閉鎖等,0,2023-11-10,2023-10-31,株式会社オーシャンヴィラ,,株式会社,茨城県,ひたちなか市,平磯町１２４５番地,,08,221,3111203,,,2023-10-31,清算の結了等,,,2015-10-05,1,,,,,オーシャンヴィラ,0
1622,6060001002133,登記記録の閉鎖等,0,2023-11-10,2023-11-08,株式会社システムクリエイト,,株式会社,栃木県,宇都宮市,戸祭町２１８０番地４,,09,201,3200053,,,2023-11-08,清算の結了等,,,2015-10-05,1,,,,,システムクリエイト,0
1639,6120001120515,登記記録の閉鎖等,0,2023-11-10,2023-11-06,株式会社ネクスト・ダッシュ,,株式会社,大阪府,大阪市西区,靱本町１丁目１５番１０号,,27,106,5500004,,,2023-11-06,清算の結了等,,,2015-10-05,1,,,,,ネクストダッシュ,0
1641,6120001172630,登記記録の閉鎖等,0,2023-11-10,2023-11-08,株式会社魚信,,株式会社,大阪府,大阪市東住吉区,今林１丁目２番６８号大阪市中央卸売市場東部市場内,,27,121,5460001,,,2023-11-08,清算の結了等,,,2015-10-05,1,,,,,ウオシン,0
1645,6120001224027,登記記録の閉鎖等,0,2023-11-10,2023-10-04,株式会社Ｅｒｉｋａ,,株式会社,大阪府,大阪市中央区,高津２丁目４番６号,,27,128,5420072,,,2023-10-04,清算の結了等,,,2019-10-01,1,,,,,エリカ,0
1664,6122001016478,登記記録の閉鎖等,0,2023-11-10,2023-11-06,株式会社鶴亀,,株式会社,大阪府,大東市,赤井１丁目１３番１号,,27,218,5740046,,,2023-11-06,清算の結了等,,,2015-10-05,1,,,,,ツルカメ,0
1674,6140002001299,登記記録の閉鎖等,0,2023-11-10,2023-11-06,株式会社尾上工務店,,株式会社,大阪府,大阪市中央区,南本町１丁目４番１０号ストークビル４階,,27,128,5410054,,,2023-11-06,清算の結了等,,,2015-10-05,1,,,,,オノエコウムテン,0
1684,6180002034213,登記記録の閉鎖等,0,2023-11-10,2023-11-06,有限会社タワープランニング,,有限会社,愛知県,名古屋市西区,天塚町４丁目６１番地３,,23,104,4510021,,,2023-11-06,清算の結了等,,,2015-10-05,1,,,,,タワープランニング,0
1701,6260001035352,登記記録の閉鎖等,0,2023-11-10,2023-09-12,コタニ住研株式会社,,株式会社,岡山県,岡山市北区,中仙道５１番地の１０４,,33,101,7000964,,,2023-09-12,清算の結了等,,,2021-04-12,1,,,,,コタニジュウケン,0
1704,6260002022151,登記記録の閉鎖等,0,2023-11-10,2023-10-31,有限会社渡辺花店,,有限会社,神奈川県,横浜市港南区,丸山台１丁目８番３－２０２号,,14,111,2330013,,,2023-10-31,清算の結了等,,,2015-10-05,1,,,,,ワタナベハナミセ,0
1710,6290002000682,登記記録の閉鎖等,0,2023-11-10,2023-10-27,有限会社田中工業,,有限会社,福岡県,福岡市西区,生の松原３丁目２７番６号,,40,135,8190055,,,2023-10-27,清算の結了等,,,2015-10-05,1,,,,,タナカコウギョウ,0
1715,6300003000779,登記記録の閉鎖等,0,2023-11-10,2023-11-06,ロックマン合同会社,,合同会社,佐賀県,神埼市,脊振町広滝１５９５番地２,,41,210,8420201,,,2023-11-06,清算の結了等,,,2015-10-05,1,,,,,ロックマン,0
1722,6330001015859,登記記録の閉鎖等,0,2023-11-10,2023-11-06,アドバンス株式会社,,株式会社,熊本県,人吉市,土手町３７番地,,43,203,8680057,,,2023-11-06,合併による解散等,2070001029807,令和５年１１月１日東京都千代田区丸の内一丁目１番１号さくら薬局株式会社（2070001029807）に合併し解散,2015-10-05,1,,,,,アドバンス,0
1748,6370202000061,登記記録の閉鎖等,0,2023-11-10,2023-11-07,有限会社アクティブ,,有限会社,宮城県,大崎市,古川若葉町２丁目６番６号,,04,215,9896222,,,2023-11-07,清算の結了等,,,2015-10-05,1,,,,,アクティブ,0
1751,6380002031033,登記記録の閉鎖等,0,2023-11-10,2023-11-01,有限会社足利産業,,有限会社,福島県,会津若松市,滝沢町６番２５号,,07,202,9650022,,,2023-11-01,合併による解散等,7380001025051,令和５年１１月１日福島県会津若松市滝沢町６番２２号株式会社バイセン（7380001025051）に合併し解散,2015-10-05,1,,,,,アシカガサンギョウ,0
1757,6410002002501,登記記録の閉鎖等,0,2023-11-10,2023-11-07,有限会社舘山建築事務所,,有限会社,秋田県,秋田市,泉釜ノ町１３番２号,,05,201,0100811,,,2023-11-07,清算の結了等,,,2015-10-05,1,,,,,タテヤマケンチクジムショ,0
1758,6410002008911,登記記録の閉鎖等,0,2023-11-10,2023-11-06,有限会社古家機工,,有限会社,秋田県,大館市,岩瀬字街道脇５３番地,,05,204,0183501,,,2023-11-06,清算の結了等,,,2015-10-05,1,,,,,コイエキコウ,0
1770,6490005006062,登記記録の閉鎖等,0,2023-11-10,2023-11-07,特定非営利活動法人後楽燕,,その他の設立登記法人,高知県,高知市,潮見台２丁目１０２番地,,39,201,7815108,,,2023-11-07,清算の結了等,,,2015-10-05,1,,,,,コウラクエン,0
1776,7010001062536,登記記録の閉鎖等,0,2023-11-10,2023-11-01,日本マンホール工業株式会社,,株式会社,東京都,中央区,日本橋茅場町２丁目１７番６号,,13,102,1030025,,,2023-11-01,清算の結了等,,,2015-10-05,1,,,,,ニホンマンホールコウギョウ,0
1785,7010001184966,登記記録の閉鎖等,0,2023-11-10,2023-11-02,株式会社ヒューマンプラウド,,株式会社,東京都,中央区,晴海２丁目３番２－４８０６号,,13,102,1040053,,,2023-11-02,合併による解散等,3010001197617,令和５年１１月１日東京都中央区晴海二丁目３番２－４８０６号株式会社ヒューマンプラウドケア（3010001197617）に合併し解散,2017-07-24,1,,,,,ヒューマンプラウド,0
1790,7010001235562,登記記録の閉鎖等,0,2023-11-10,2023-11-06,株式会社Ｃａｔｓ‐Ｕｐ,,株式会社,東京都,中央区,新川１丁目３－２１ＢＩＺＳＭＡＲＴ茅場町３階,,13,102,1040033,,,2023-11-06,清算の結了等,,,2023-05-24,1,,,,,キャッツアップ,0
1806,7010401143068,登記記録の閉鎖等,0,2023-11-10,2023-11-01,株式会社ＴＡＵＰＥ,,株式会社,東京都,千代田区,大手町１丁目６番１号大手町ビル３階,,13,101,1000004,,,2023-11-01,合併による解散等,7010401098551,令和５年１１月１日東京都中央区日本橋三丁目６番２号日本橋フロント１階株式会社プレート（7010401098551）に合併し解散,2019-01-10,1,,,,,トープ,0
1813,7010403021981,登記記録の閉鎖等,0,2023-11-10,2023-11-07,合同会社山手ホールディングス,,合同会社,東京都,港区,六本木６丁目１０番１号六本木ヒルズ森タワー,,13,103,1060032,,,2023-11-07,清算の結了等,,,2019-12-09,1,,,,,ヤマテホールディングス,0
1825,7010603005487,登記記録の閉鎖等,0,2023-11-10,2023-11-06,ＩＢＬ合同会社,,合同会社,東京都,江東区,豊洲４丁目１０番６－３１１号,,13,108,1350061,,,2023-11-06,清算の結了等,,,2015-10-05,1,,,,,アイビーエル,0
1837,7010701032111,登記記録の閉鎖等,0,2023-11-10,2023-11-07,株式会社サイバーナレッジアカデミー,,株式会社,東京都,新宿区,市谷田町１丁目１４番１号,,13,104,1620843,,,2023-11-07,清算の結了等,,,2016-03-07,1,,,,,サイバーナレッジアカデミー,0
1841,7010902008075,登記記録の閉鎖等,0,2023-11-10,2023-11-02,有限会社杉本工装,,有限会社,東京都,世田谷区,祖師谷４丁目６番１３号,,13,112,1570072,,,2023-11-02,清算の結了等,,,2015-10-05,1,,,,,,0
1874,7011802007274,登記記録の閉鎖等,0,2023-11-10,2023-11-08,有限会社ママの店高砂ストアー,,有限会社,東京都,葛飾区,柴又１丁目２３番３号,,13,122,1250052,,,2023-11-08,清算の結了等,,,2015-10-05,1,,,,,ママノミセタカサゴストアー,0
1883,7012803002611,登記記録の閉鎖等,0,2023-11-10,2023-11-08,合同会社Ｇ－Ａｒｔ,,合同会社,東京都,立川市,高松町１丁目３０番地１３号,,13,202,1900011,,,2023-11-08,清算の結了等,,,2021-09-29,1,,,,,ジーアート,0
1888,7020001054664,登記記録の閉鎖等,0,2023-11-10,2023-11-01,ベッツソリューション株式会社,,株式会社,東京都,豊島区,西池袋１丁目４番１０号,,13,116,1710021,,,2023-11-01,清算の結了等,,,2015-10-05,1,,,,,ベッツソリューション,0
1914,7030002013759,登記記録の閉鎖等,0,2023-11-10,2023-11-01,有限会社森好工業,,有限会社,埼玉県,さいたま市北区,宮原町４丁目２番地の１２,,11,102,3310812,,,2023-11-01,清算の結了等,,,2015-10-05,1,,,,,モリヨシコウギョウ,0
1924,7030003011002,登記記録の閉鎖等,0,2023-11-10,2023-11-08,合同会社ミコシア,,合同会社,東京都,港区,南青山２丁目２番１５号,,13,103,1070062,,,2023-11-08,清算の結了等,,,2017-11-10,1,,,,,ミコシア,0
1928,7040001038483,登記記録の閉鎖等,0,2023-11-10,2023-11-02,ユーエム株式会社,,株式会社,千葉県,流山市,江戸川台東３丁目２６８番地,,12,220,2700111,,,2023-11-02,清算の結了等,,,2015-10-05,1,,,,,ユーエム,0
1931,7040001039746,登記記録の閉鎖等,0,2023-11-10,2023-11-02,伊勢谷新聞販売株式会社,,株式会社,千葉県,松戸市,金ケ作３０５－１０－１Ｆ,,12,207,2702251,,,2023-11-02,清算の結了等,,,2015-10-05,1,,,,,イセヤシンブンハンバイ,0
1934,7040001085261,登記記録の閉鎖等,0,2023-11-10,2023-11-01,株式会社マイベジタブル,,株式会社,千葉県,千葉市緑区,土気町１２９６番地６,,12,105,2670061,,,2023-11-01,清算の結了等,,,2015-10-05,1,,,,,マイベジタブル,0
1939,7040002040835,登記記録の閉鎖等,0,2023-11-10,2023-11-01,有限会社後藤キューエム事務所,,有限会社,千葉県,浦安市,猫実３丁目１６番７号,,12,227,2790004,,,2023-11-01,清算の結了等,,,2015-10-05,1,,,,,ゴトウキューエムジムショ,0
1954,7070002006668,登記記録の閉鎖等,0,2023-11-10,2023-11-07,有限会社セレクトヘアアート,,有限会社,群馬県,前橋市,六供町６６９番地２,,10,201,3710804,,,2023-11-07,清算の結了等,,,2015-10-05,1,,,,,セレクトヘアアート,0
1955,7080003002161,登記記録の閉鎖等,0,2023-11-10,2023-11-07,合同会社シルバー経営サポート,,合同会社,静岡県,静岡市清水区,下野西１５番１４号,,22,103,4240012,,,2023-11-07,清算の結了等,,,2018-09-04,1,,,,,シルバーケイエイサポート,0
1975,7120001176416,登記記録の閉鎖等,0,2023-11-10,2023-11-09,株式会社ＬＩＦＴＥ,,株式会社,大阪府,堺市堺区,田出井町１番３－３８０１号,,27,141,5900014,,,2023-11-09,清算の結了等,,,2015-10-05,1,,,,,リフテ,0
1988,7120003022972,登記記録の閉鎖等,0,2023-11-10,2023-11-08,出羽合同会社,,合同会社,大阪府,大阪市平野区,加美北１丁目２３番２７号４０１号室,,27,126,5470001,,,2023-11-08,清算の結了等,,,2022-11-30,1,,,,,デワ,0
1996,7120102010952,登記記録の閉鎖等,0,2023-11-10,2023-11-07,有限会社ＴＴＫ,,有限会社,大阪府,堺市東区,日置荘西町６丁２６番３５号,,27,143,5998114,,,2023-11-07,清算の結了等,,,2015-10-05,1,,,,,ティーティーケー,0
2006,7130002007429,登記記録の閉鎖等,0,2023-11-10,2023-11-02,株式会社ダッシュツーリスト,,株式会社,京都府,京都市中京区,河原町通二条下る一之船入町３７５ＳＳＳビル５０１,,26,104,6040924,,,2023-11-02,清算の結了等,,,2015-10-05,1,,,,,ダッシュツーリスト,0
2043,7240002022383,登記記録の閉鎖等,0,2023-11-10,2023-11-08,有限会社アコスト,,有限会社,広島県,広島市西区,南観音２丁目４番５号,,34,104,7330035,,,2023-11-08,清算の結了等,,,2015-10-05,1,,,,,,0
2060,7290802012620,登記記録の閉鎖等,0,2023-11-10,2023-11-08,有限会社坂本事務所,,有限会社,福岡県,北九州市小倉北区,上到津３丁目８番１９－６０１号,,40,106,8030845,,,2023-11-08,清算の結了等,,,2015-10-05,1,,,,,サカモトジムショ,0
2067,7330002000545,登記記録の閉鎖等,0,2023-11-10,2023-11-06,荒木工業有限会社,,有限会社,熊本県,熊本市西区,城山半田４丁目１５番１号,,43,103,8600064,,,2023-11-06,清算の結了等,,,2015-10-05,1,,,,,アラキコウギョウ,0
2069,7330002030187,登記記録の閉鎖等,0,2023-11-10,2023-10-30,有限会社山栄建設,,有限会社,熊本県,人吉市,瓦屋町１７９７番地の２,,43,203,8680025,,,2023-10-30,清算の結了等,,,2015-10-05,1,,,,,サンエイケンセツ,0
2073,7340005007181,登記記録の閉鎖等,0,2023-11-10,2023-11-09,特定非営利活動法人ローズＱｕｉｌｔ,,その他の設立登記法人,鹿児島県,鹿屋市,新生町１３番１２号,,46,203,8930062,,,2023-11-09,清算の結了等,,,2015-10-05,1,,,,,ローズキルト,0
2087,7370001023452,登記記録の閉鎖等,0,2023-11-10,2023-11-08,株式会社アスログ,,株式会社,宮城県,仙台市青葉区,台原３丁目３８番２号ベルシティ森林公園１０６,,04,101,9810911,,,2023-11-08,清算の結了等,,,2015-10-05,1,,,,,アスログ,0
2088,7370001024698,登記記録の閉鎖等,0,2023-11-10,2023-11-07,株式会社マル井商会,,株式会社,宮城県,仙台市泉区,南光台６丁目３４番１号,,04,105,9818003,,,2023-11-07,清算の結了等,,,2015-10-05,1,,,,,マルイショウカイ,0
2092,7370201002388,登記記録の閉鎖等,0,2023-11-10,2023-11-08,株式会社マルショウ食品,,株式会社,宮城県,加美郡加美町,菜切谷字堤下１６番地の４,,04,445,9814203,,,2023-11-08,清算の結了等,,,2015-10-05,1,,,,,,0
2098,7410002008737,登記記録の閉鎖等,0,2023-11-10,2023-11-06,有限会社ファッション彩,,有限会社,秋田県,大館市,二井田字小石台２１番地１７,,05,204,0185751,,,2023-11-06,清算の結了等,,,2015-10-05,1,,,,,ファッションサイ,0
2117,8010001135704,登記記録の閉鎖等,0,2023-11-10,2023-11-01,株式会社十八チャレンジファンド,,株式会社,東京都,中央区,日本橋３丁目５番１２号ＤＥＣＯＴＯＫＹＯ４階,,13,102,1030027,,,2023-11-01,清算の結了等,,,2015-10-05,1,,,,,ジュウハチチャレンジファンド,0
2118,8010001157070,登記記録の閉鎖等,0,2023-11-10,2023-11-02,株式会社Ｑ－ＴｏＭｏ,,株式会社,東京都,中央区,日本橋本石町４丁目４－１３朝日ビル別館２階,,13,102,1030021,,,2023-11-02,清算の結了等,,,2015-10-05,1,,,,,キュートモ,0
2119,8010001233037,登記記録の閉鎖等,0,2023-11-10,2023-11-02,ＰｉｇｅｏｎＥｙｅ株式会社,,株式会社,東京都,中央区,銀座１丁目１２－４Ｎ＆ＥＢＬＤ．７階,,13,102,1040061,,,2023-11-02,清算の結了等,,,2023-02-15,1,,,,,ピジョンアイ,0
2124,8010002042750,登記記録の閉鎖等,0,2023-11-10,2023-11-02,有限会社ワイ・エヌコミュニケーションズ,,有限会社,東京都,文京区,関口１丁目４４番７号,,13,105,1120014,,,2023-11-02,清算の結了等,,,2015-10-05,1,,,,,ワイエヌコミュニケーションズ,0
2139,8010401029794,登記記録の閉鎖等,0,2023-11-10,2023-11-06,株式会社矢田環境デザイン研究所,,株式会社,東京都,港区,元麻布２丁目３番４２号,,13,103,1060046,,,2023-11-06,清算の結了等,,,2015-10-05,1,,,,,ヤダカンキョウデザインケンキュウショ,0
2151,8010602033868,登記記録の閉鎖等,0,2023-11-10,2023-10-11,有限会社カツシバ,,有限会社,埼玉県,南埼玉郡宮代町,東姫宮２丁目１０番４３号,,11,442,3450813,,,2023-10-11,清算の結了等,,,2015-10-05,1,,,,,カツシバ,0
2167,8011001150172,登記記録の閉鎖等,0,2023-11-10,2023-11-01,クロスサイドホールディングス株式会社,,株式会社,東京都,渋谷区,神宮前６丁目１６番１９号,,13,113,1500001,,,2023-11-01,合併による解散等,2011001050642,令和５年１１月１日東京都渋谷区神宮前六丁目１６番１９号クロスサイド株式会社（2011001050642）に合併し解散,2022-10-18,1,,,,,クロスサイドホールディングス,0
2182,8011502006261,登記記録の閉鎖等,0,2023-11-10,2023-11-02,有限会社ユニット,,有限会社,東京都,北区,赤羽２丁目２７番８号,,13,117,1150045,,,2023-11-02,清算の結了等,,,2015-10-05,1,,,,,ユニット,0
2193,8012801018162,登記記録の閉鎖等,0,2023-11-10,2023-11-02,株式会社カナイ,,株式会社,東京都,立川市,上砂町４丁目４３番地の４１,,13,202,1900032,,,2023-11-02,清算の結了等,,,2017-08-01,1,,,,,カナイ,0
2201,8013405000812,登記記録の閉鎖等,0,2023-11-10,2023-11-07,特定非営利活動法人Ｗｅｌｌ　Ｂｅｅ,,その他の設立登記法人,東京都,多摩市,桜ヶ丘２丁目３１番地の２,,13,224,2060013,,,2023-11-07,清算の結了等,,,2015-10-05,1,,,,,ウェルビー,0
2212,8020002040191,登記記録の閉鎖等,0,2023-11-10,2023-10-31,有限会社松樹園,,有限会社,神奈川県,横浜市鶴見区,上の宮２丁目１５番１３号,,14,101,2300075,,,2023-10-31,清算の結了等,,,2015-10-05,1,,,,,ショウジュエン,0
2215,8020002090880,登記記録の閉鎖等,0,2023-11-10,2023-10-31,有限会社モナミ,,有限会社,神奈川県,川崎市高津区,溝口２丁目１５番８号,,14,134,2130001,,,2023-10-31,清算の結了等,,,2015-10-05,1,,,,,モナミ,0
2216,8020002091722,登記記録の閉鎖等,0,2023-11-10,2023-10-31,有限会社エル,,有限会社,神奈川県,川崎市多摩区,堰１丁目２２番１－１１３号,,14,135,2140022,,,2023-10-31,清算の結了等,,,2015-10-05,1,,,,,エル,0
2222,8021002042772,登記記録の閉鎖等,0,2023-11-10,2023-11-06,有限会社矢部デンタルワーク,,有限会社,神奈川県,大和市,渋谷７丁目１２番地１,,14,213,2420023,,,2023-11-06,清算の結了等,,,2015-10-05,1,,,,,ヤベデンタルワーク,0
2229,8030001018023,登記記録の閉鎖等,0,2023-11-10,2023-11-01,竹内電気株式会社,,株式会社,埼玉県,さいたま市岩槻区,大字裏慈恩寺１４番地の１,,11,110,3390002,,,2023-11-01,清算の結了等,,,2015-10-05,1,,,,,タケウチデンキ,0
2242,8030002073001,登記記録の閉鎖等,0,2023-11-10,2023-11-01,有限会社木下製餡所,00017076,有限会社,埼玉県,川越市,新富町１丁目８番地５,,11,201,3500043,,,2023-11-01,清算の結了等,,,2015-10-05,1,,,,,キノシタセイアンジョ,0
2254,8040002079138,登記記録の閉鎖等,0,2023-11-10,2023-11-02,有限会社ヒッツ,,有限会社,千葉県,東金市,大豆谷７１番地１,,12,213,2830815,,,2023-11-02,清算の結了等,,,2015-10-05,1,,,,,ヒッツ,0
2266,8100001009378,登記記録の閉鎖等,0,2023-11-10,2023-11-07,株式会社佐久グランドホテル,,株式会社,長野県,佐久市,中込３丁目１９番地６,,20,217,3850051,,,2023-11-07,合併による解散等,4220001017125,令和５年１１月１日石川県加賀市山代温泉東山町１６番地の１雄山閣株式会社（4220001017125）に合併し解散,2015-10-05,1,,,,,サクグランドホテル,0
2269,8100003006695,登記記録の閉鎖等,0,2023-11-10,2023-11-07,合同会社ＣＡＳＡ,,合同会社,長野県,長野市,大字石渡２７８番地,,20,201,3810015,,,2023-11-07,清算の結了等,,,2022-09-20,1,,,,,カーサ,0
2281,8120001215791,登記記録の閉鎖等,0,2023-11-10,2023-11-02,ＣＩＥＬＯ株式会社,,株式会社,大阪府,大阪市旭区,新森４丁目４番５号ビルドシャナ４０１号室,,27,117,5350022,,,2023-11-02,清算の結了等,,,2018-09-11,1,,,,,シエロ,0
2301,8120901038268,登記記録の閉鎖等,0,2023-11-10,2023-11-02,株式会社ブロテク,,株式会社,大阪府,吹田市,新芦屋上２番６０－７１６号,00115898,27,205,5650804,,,2023-11-02,清算の結了等,,,2017-04-06,1,,,,,ブロテク,0
2312,8140001019209,登記記録の閉鎖等,0,2023-11-10,2023-11-01,株式会社インテリアオカモト,,株式会社,兵庫県,神戸市兵庫区,水木通５丁目１番１８号,,28,105,6520802,,,2023-11-01,清算の結了等,,,2015-10-05,1,,,,,インテリアオカモト,0
2339,8220001016908,登記記録の閉鎖等,0,2023-11-10,2023-11-08,珠洲生必株式会社,,株式会社,石川県,珠洲市,飯田町１５部１０番地,,17,205,9271214,,,2023-11-08,清算の結了等,,,2015-10-05,1,,,,,,0
2347,8290001027056,登記記録の閉鎖等,0,2023-11-10,2023-10-30,株式会社ベアーズシステム,,株式会社,福岡県,福岡市中央区,警固２丁目１６番６－２０３号,,40,133,8100023,,,2023-10-30,清算の結了等,,,2015-10-05,1,,,,,ベアーズシステム,0
2350,8290002045734,登記記録の閉鎖等,0,2023-11-10,2023-10-26,筑豊消毒有限会社,,有限会社,福岡県,飯塚市,柏の森５０１番地の１,,40,205,8200011,,,2023-10-26,清算の結了等,,,2015-10-05,1,,,,,チクホウショウドク,0
2377,8390002006981,登記記録の閉鎖等,0,2023-11-10,2023-11-02,東電気工事有限会社,,有限会社,山形県,酒田市,旭新町１０番６号,,06,204,9980021,,,2023-11-02,清算の結了等,,,2015-10-05,1,,,,,アズマデンキコウジ,0
2378,8402702000155,登記記録の閉鎖等,0,2023-11-10,2023-10-31,有限会社建機リース,,有限会社,岩手県,大船渡市,盛町字木町１３番地６,,03,203,0220003,,,2023-10-31,清算の結了等,,,2015-10-05,1,,,,,ケンキリース,0
2399,8480001009596,登記記録の閉鎖等,0,2023-11-10,2023-11-09,ＨＭＲ株式会社,,株式会社,徳島県,徳島市,沖浜２丁目３０番地,,36,201,7708052,,,2023-11-09,清算の結了等,,,2016-04-07,1,,,,,エイチエムアール,0
2400,8480002001585,登記記録の閉鎖等,0,2023-11-10,2023-11-09,有限会社佐治自動車,,有限会社,徳島県,徳島市,川内町鈴江北３４番地,,36,201,7710123,,,2023-11-09,清算の結了等,,,2015-10-05,1,,,,,サジジドウシャ,0
2405,8500002007489,登記記録の閉鎖等,0,2023-11-10,2023-11-09,有限会社龍華堂,,有限会社,愛媛県,松山市,衣山４丁目７５８番地,,38,201,7918025,,,2023-11-09,清算の結了等,,,2015-10-05,1,,,,,リュウガドウ,0
2406,8500002017637,登記記録の閉鎖等,0,2023-11-10,2023-11-08,有限会社アシアンエクスプレス,,有限会社,愛媛県,今治市,朝倉上甲２４２６番地,,38,202,7991607,,,2023-11-08,清算の結了等,,,2015-10-05,1,,,,,アシアンエクスプレス,0
2438,9010601056365,登記記録の閉鎖等,0,2023-11-10,2023-11-06,株式会社ＧＭエステート,,株式会社,東京都,江東区,亀戸１丁目３８番５－９０２号,,13,108,1360071,,,2023-11-06,清算の結了等,,,2019-11-06,1,,,,,ジーエムエステート,0
2448,9011001111462,登記記録の閉鎖等,0,2023-11-10,2023-11-02,株式会社麻川,,株式会社,東京都,品川区,豊町５丁目１番１１号,,13,109,1420042,,,2023-11-02,清算の結了等,,,2016-06-15,1,,,,,アサカワ,0
2458,9011003011405,登記記録の閉鎖等,0,2023-11-10,2023-11-02,ｃｏｎｏＭｅ合同会社,,合同会社,東京都,目黒区,中目黒３丁目６番２号中目黒Ｆ・Ｓビル５階,,13,110,1530061,,,2023-11-02,清算の結了等,,,2020-07-16,1,,,,,コノミー,0
2472,9011601003324,登記記録の閉鎖等,0,2023-11-10,2023-11-02,株式会社出版経済研究所,,株式会社,東京都,練馬区,桜台１丁目１９番１号,,13,120,1760002,,,2023-11-02,清算の結了等,,,2015-10-05,1,,,,,シュッパンケイザイケンキュウショ,0
2478,9012401035375,登記記録の閉鎖等,0,2023-11-10,2023-10-31,株式会社ＶＩＳＩＯＮ　ＱＵＥＳＴ,,株式会社,北海道,上川郡東川町,西町３丁目１２番１７号,,01,458,0711425,,,2023-10-31,清算の結了等,,,2019-06-11,1,,,,,ビジョンクエスト,0
2522,9040002074170,登記記録の閉鎖等,0,2023-11-10,2023-10-31,有限会社田中本店,,有限会社,千葉県,市原市,海士有木２４０番地,,12,219,2900207,,,2023-10-31,清算の結了等,,,2015-10-05,1,,,,,タナカホンテン,0
2542,9080001015865,登記記録の閉鎖等,0,2023-11-10,2023-11-08,株式会社オフィスはしもと,,株式会社,静岡県,焼津市,利右衛門２７８５番地の７,,22,212,4210212,,,2023-11-08,清算の結了等,,,2015-10-05,1,,,,,オフィスハシモト,0
2557,9120001127227,登記記録の閉鎖等,0,2023-11-10,2023-11-06,株式会社オズキューブ,,株式会社,大阪府,大阪市北区,末広町３番１１号天しもビル２－Ａ－１,,27,127,5300053,,,2023-11-06,清算の結了等,,,2015-10-05,1,,,,,,0
2575,9120101022699,登記記録の閉鎖等,0,2023-11-10,2023-11-09,株式会社正八,,株式会社,大阪府,高石市,加茂３丁目１１番２３号,,27,225,5920011,,,2023-11-09,清算の結了等,,,2015-10-05,1,,,,,ショウヤ,0
2579,9120901001670,登記記録の閉鎖等,0,2023-11-10,2023-11-07,株式会社萩谷商店,,株式会社,大阪府,茨木市,宮元町１番７号,,27,211,5670810,,,2023-11-07,清算の結了等,,,2015-10-05,1,,,,,ハギタニショウテン,0
2580,9120903002592,登記記録の閉鎖等,0,2023-11-10,2023-11-02,合同会社ムジーク経営会計,,合同会社,大阪府,大阪市北区,天神橋２丁目５番３号,,27,127,5300041,,,2023-11-02,清算の結了等,,,2018-09-04,1,,,,,ムジークケイエイカイケイ,0
2584,9122002005007,登記記録の閉鎖等,0,2023-11-10,2023-10-31,有限会社メディロップ,,有限会社,大阪府,東大阪市,小阪本町２丁目８番２４号,,27,227,5770802,,,2023-10-31,清算の結了等,,,2015-10-05,1,,,,,メディロップ,0
2586,9130001028671,登記記録の閉鎖等,0,2023-11-10,2023-10-30,株式会社ＯＹＭ,,株式会社,京都府,京都市南区,久世大藪町４５２番地１６,,26,107,6010000,,,2023-10-30,清算の結了等,,,2015-10-05,1,,,,,オーワイエム,0
2587,9130001029827,登記記録の閉鎖等,0,2023-11-10,2023-10-31,エス・ティ・エス株式会社,,株式会社,京都府,京都市伏見区,深草下川原町５５番地,,26,109,6128401,,,2023-10-31,清算の結了等,,,2015-10-05,1,,,,,エスティエス,0
2610,9180002030267,登記記録の閉鎖等,0,2023-11-10,2023-11-02,有限会社オッティモ,,有限会社,愛知県,名古屋市千種区,丘上町２丁目２２番地,,23,101,4640837,,,2023-11-02,清算の結了等,,,2015-10-05,1,,,,,オッティモ,0
2611,9180003010375,登記記録の閉鎖等,0,2023-11-10,2023-11-06,合資会社エムアンドケイ,,合資会社,愛知県,春日井市,如意申町８丁目４番地２３,,23,206,4860918,,,2023-11-06,清算の結了等,,,2015-10-05,1,,,,,エムアンドケイ,0
2623,9240001022325,登記記録の閉鎖等,0,2023-11-10,2023-11-01,株式会社ＧＴＳ,,株式会社,広島県,広島市南区,皆実町４丁目９番２７号,,34,103,7340007,,,2023-11-01,清算の結了等,,,2015-10-05,1,,,,,ジィーティーエス,0
2651,9310002012796,登記記録の閉鎖等,0,2023-11-10,2023-11-07,有限会社白浜会計センター,,有限会社,長崎県,佐世保市,宮田町１番１７号,,42,202,8570032,,,2023-11-07,清算の結了等,,,2015-10-05,1,,,,,シラハマカイケイセンター,0
2654,9320002004719,登記記録の閉鎖等,0,2023-11-10,2023-11-07,有限会社トーク建築設計工房,,有限会社,大分県,大分市,大字羽田８０５番地の１,,44,201,8700942,,,2023-11-07,清算の結了等,,,2015-10-05,1,,,,,トークケンチクセッケイコウボウ,0
2662,9330002011292,登記記録の閉鎖等,0,2023-11-10,2023-11-06,有限会社米村建興,,有限会社,熊本県,熊本市東区,長嶺西１丁目６番５９号,,43,102,8618037,,,2023-11-06,清算の結了等,,,2015-10-05,1,,,,,ヨネムラケンコウ,0
2664,9330002022389,登記記録の閉鎖等,0,2023-11-10,2023-11-06,有限会社柿の実苑,,有限会社,熊本県,玉名市,中１１１５番地,,43,206,8650064,,,2023-11-06,清算の結了等,,,2015-10-05,1,,,,,カキノミエン,0
2667,9370002010803,登記記録の閉鎖等,0,2023-11-10,2023-11-08,有限会社Ａ＆Ａｌｐｈａ,,有限会社,宮城県,仙台市青葉区,北根３丁目１９番７号,,04,101,9810902,,,2023-11-08,清算の結了等,,,2015-10-05,1,,,,,エーアンドアルファ,0
2672,9380002032648,登記記録の閉鎖等,0,2023-11-10,2023-11-06,有限会社ナリタ製本,,有限会社,福島県,会津若松市,対馬館町４番２６号,,07,202,9650847,,,2023-11-06,清算の結了等,,,2015-10-05,1,,,,,ナリタセイホン,0
2673,9390001005950,登記記録の閉鎖等,0,2023-11-10,2023-11-08,株式会社城南ベーカリー,,株式会社,山形県,山形市,飯塚町１３５６番地２２,,06,201,9900845,,,2023-11-08,清算の結了等,,,2015-10-05,1,,,,,ジョウナンベーカリー,0
2680,9430002026165,登記記録の閉鎖等,0,2023-11-10,2023-11-01,有限会社丸み宮口商店,,有限会社,北海道,札幌市白石区,中央一条５丁目９番２５号,,01,104,0030011,,,2023-11-01,合併による解散等,8430001059506,令和５年１１月１日札幌市白石区中央一条五丁目９番２５号株式会社風屋（8430001059506）に合併し解散,2015-10-05,1,,,,,マルミミヤグチショウテン,0
2686,9500005001612,登記記録の閉鎖等,0,2023-11-10,2023-11-09,海雲寺,,その他の設立登記法人,愛媛県,伊予市,米湊９２６番地,,38,210,7993113,,,2023-11-09,清算の結了等,,,2015-10-05,1,,,,,カイウンジ,0
