sequenceNumber,corporateNumber,process,correct,updateDate,changeDate,name,nameImageId,kind,prefectureName,cityName,streetNumber,addressImageId,prefectureCode,cityCode,postCode,addressOutside,addressOutsideImageId,closeDate,closeCause,successorCorporateNumber,changeCause,assignmentDate,latest,enName,enPrefectureName,enCityName,enAddressOutside,furigana,hihyoji
12,1010001244321,新規,0,2024-04-25,2024-04-25,エーライズ株式会社,,株式会社,東京都,千代田区,三崎町二丁目２０番７－４０５号,,13,101,1000000,,,,,,,2024-04-25,1,,,,,エーライズ,0
13,1010001244362,新規,0,2024-04-25,2024-04-25,株式会社ＲＩＫＣＴ,,株式会社,東京都,千代田区,大手町１丁目５番１号,,13,101,1000004,,,,,,,2024-04-25,1,,,,,リッケーシーティー,0
16,1010003043589,新規,0,2024-04-25,2024-04-25,ＷＩＴ　ＳＯＦＴＷＡＲＥ合同会社,,合同会社,東京都,千代田区,霞が関３丁目２番６号東京倶楽部ビルディング１１階,,13,101,1000013,,,,,,,2024-04-25,1,,,,,,0
19,1010103002346,新規,0,2024-04-25,2024-04-25,合同会社はちまる,,合同会社,東京都,八王子市,横山町１２番１０号,,13,201,1920081,,,,,,,2024-04-25,1,,,,,ハチマル,0
31,1010801034995,新規,0,2024-04-25,2024-04-25,株式会社ＭＯＨＡＣＨＩ,,株式会社,東京都,大田区,鵜の木２丁目１０番１２号,,13,111,1460091,,,,,,,2024-04-25,1,,,,,モハチ,0
38,1011001161399,新規,0,2024-04-25,2024-04-25,株式会社バトンプラス,,株式会社,東京都,渋谷区,初台２丁目２７－５初台ロイヤルマンション７０３,,13,113,1510061,,,,,,,2024-04-25,1,,,,,バトンプラス,0
39,1011001161507,新規,0,2024-04-25,2024-04-25,株式会社Ｃａｐｉｔａｌ　Ｌ,,株式会社,東京都,渋谷区,千駄ヶ谷３丁目３番１６－２０２号,,13,113,1510051,,,,,,,2024-04-25,1,,,,,キャピタルエル,0
40,1011001161597,新規,0,2024-04-25,2024-04-25,パーキング株式会社,,株式会社,東京都,渋谷区,東２丁目１４番２１号,,13,113,1500011,,,,,,,2024-04-25,1,,,,,パーキング,0
41,1011001161630,新規,0,2024-04-25,2024-04-25,フューチャー・コレクション株式会社,,株式会社,東京都,渋谷区,渋谷２丁目１９‐１５宮益坂ビルディング６０９,,13,113,1500002,,,,,,,2024-04-25,1,,,,,フューチャーコレクション,0
48,1011103014323,新規,0,2024-04-25,2024-04-25,ケーシーエーラボジャパン合同会社,,合同会社,東京都,新宿区,市谷田町３丁目８番地市ヶ谷科学技術イノベーションセンタービル２Ｆ,,13,104,1620843,,,,,,,2024-04-25,1,,,,,ケーシーエーラボジャパン,0
49,1011201025420,新規,0,2024-04-25,2024-04-25,株式会社Ｃｏｄｙ　Ｋ‐エンターテイメント,,株式会社,東京都,中野区,中央１丁目４８番１１－１０１号,,13,114,1640011,,,,,,,2024-04-25,1,,,,,コディケーエンターテイメント,0
55,1011401026037,新規,0,2024-04-25,2024-04-25,株式会社Ｄ‐トラスト,,株式会社,東京都,板橋区,高島平１丁目７８番１１号エスタールビル,,13,119,1750082,,,,,,,2024-04-25,1,,,,,ディートラスト,0
61,1011601027710,新規,0,2024-04-25,2024-04-25,デジタル情報戦略室株式会社,,株式会社,東京都,練馬区,北町１丁目３４－１９,,13,120,1790081,,,,,,,2024-04-25,1,,,,,デジタルジョウホウセンリャクシツ,0
63,1011701027214,新規,0,2024-04-25,2024-04-25,Ｉｄｏ　Ｒｅｖｉｖｅ　Ｃｏｎｓｕｌｔａｎｃｙ株式会社,,株式会社,東京都,江戸川区,松島３丁目１４番７－３０８号若林ビル,,13,123,1320031,,,,,,,2024-04-25,1,,,,,アイドゥリバイブコンサルタンシー,0
64,1011801044126,新規,0,2024-04-25,2024-04-25,株式会社ピーアップ直営,,株式会社,東京都,足立区,千住１丁目４番１号,,13,121,1200034,,,,,,,2024-04-25,1,,,,,ピーアップチョクエイ,0
69,1013301052410,新規,0,2024-04-25,2024-04-25,株式会社ＹＡＭＡＴＲＯＮＩＣＳ,,株式会社,東京都,豊島区,池袋２丁目２４番２号１４０２号,,13,116,1710014,,,,,,,2024-04-25,1,,,,,ヤマトロニクス,0
70,1013301052419,新規,0,2024-04-25,2024-04-25,株式会社ＯｎｅＴｅａｍ＆Ｅ,,株式会社,東京都,豊島区,駒込１丁目３番１１号プレミアステージ駒込１３０４号,,13,116,1700003,,,,,,,2024-04-25,1,,,,,ワンチームアンドイー,0
74,1020001156821,新規,0,2024-04-25,2024-04-25,株式会社バディライフ,,株式会社,神奈川県,横浜市鶴見区,鶴見中央４丁目３０番４－５１７号,,14,101,2300051,,,,,,,2024-04-25,1,,,,,バディライフ,0
81,1021001082090,新規,0,2024-04-25,2024-04-25,トップファンド株式会社,,株式会社,神奈川県,鎌倉市,七里ガ浜１丁目１５番１８号ウェーブハウス七里ガ浜ｓｅａ号室,,14,204,2480026,,,,,,,2024-04-25,1,,,,,トップファンド,0
82,1021001082108,新規,0,2024-04-25,2024-04-25,セレンディップ株式会社,,株式会社,神奈川県,藤沢市,鵠沼松が岡４丁目６番９号,,14,205,2510038,,,,,,,2024-04-25,1,,,,,セレンディップ,0
84,1021003014439,新規,0,2024-04-25,2024-04-25,サムライ合同会社,,合同会社,神奈川県,相模原市中央区,南橋本２丁目１４－５－４０２,,14,152,2520253,,,,,,,2024-04-25,1,,,,,サムライ,0
85,1021003014447,新規,0,2024-04-25,2024-04-25,合同会社地代所プロダクション,,合同会社,神奈川県,三浦市,南下浦町上宮田３３９０番地１,,14,210,2380101,,,,,,,2024-04-25,1,,,,,ジダイショプロダクション,0
93,1030003024166,新規,0,2024-04-25,2024-04-25,サフィアインターナショナル合同会社,,合同会社,埼玉県,戸田市,美女木３丁目４番地６,,11,224,3350031,,,,,,,2024-04-25,1,,,,,サフィアインターナショナル,0
96,1040001133323,新規,0,2024-04-25,2024-04-25,株式会社真洪リホーム,,株式会社,千葉県,千葉市花見川区,大日町１２９５番地,,12,102,2620004,,,,,,,2024-04-25,1,,,,,シンコウリホーム,0
105,1040003024859,新規,0,2024-04-25,2024-04-25,合同会社アグリゲーター,,合同会社,千葉県,印西市,原４丁目１－１,,12,231,2701335,,,,,,,2024-04-25,1,,,,,アグリゲーター,0
111,1060001037035,新規,0,2024-04-25,2024-04-25,株式会社田辺建築,,株式会社,栃木県,宇都宮市,岩曽町８６５番地１,,09,201,3210973,,,,,,,2024-04-25,1,,,,,タナベケンチク,0
125,1100003007493,新規,0,2024-04-25,2024-04-25,ＨＯＮＥＳＴ　ＡＮＤＹ合同会社,,合同会社,長野県,北安曇郡白馬村,大字北城８３６－１３２,,20,485,3999301,,,,,,,2024-04-25,1,,,,,オネストアンディー,0
133,1120001264093,新規,0,2024-04-25,2024-04-25,広濤株式会社,,株式会社,大阪府,大阪市西成区,南津守６丁目３番７３－２０１Ａ号室,,27,122,5570063,,,,,,,2024-04-25,1,,,,,コウトウ,0
134,1120001264325,新規,0,2024-04-25,2024-04-25,株式会社日進溶工所,,株式会社,大阪府,大阪市西淀川区,福町２丁目８番１０号,,27,113,5550034,,,,,,,2024-04-25,1,,,,,ニッシンヨウコウショ,0
135,1120001264341,新規,0,2024-04-25,2024-04-25,株式会社ナイト,,株式会社,大阪府,大阪市西区,靱本町２丁目２－１２ＧＬＡＳＨＡＵＳ９０３,,27,106,5500004,,,,,,,2024-04-25,1,,,,,ナイト,0
136,1120001264390,新規,0,2024-04-25,2024-04-25,株式会社クワウィス,,株式会社,大阪府,大阪市中央区,難波１丁目６番２２号法善寺すずらんビル５階,,27,128,5420076,,,,,,,2024-04-25,1,,,,,クワウィス,0
137,1120001264457,新規,0,2024-04-25,2024-04-25,和積投資株式会社,,株式会社,大阪府,大阪市阿倍野区,共立通１丁目２番１０号キクヤガーデンビル２階Ｃ室,,27,119,5450041,,,,,,,2024-04-25,1,,,,,ワセキトウシ,0
144,1120103005791,新規,0,2024-04-25,2024-04-25,合同会社Ｂｒｅｍｅｎ,,合同会社,大阪府,富田林市,藤沢台２丁目２番２７２号,,27,214,5840071,,,,,,,2024-04-25,1,,,,,ブレーメン,0
148,1130001076934,新規,0,2024-04-25,2024-04-25,株式会社ｓｏｗ,,株式会社,京都府,京都市右京区,嵯峨野秋街道町３５番地８,,26,108,6168314,,,,,,,2024-04-25,1,,,,,ソウ,0
150,1140001134204,新規,0,2024-04-25,2024-04-25,株式会社サニーサイン,,株式会社,兵庫県,西宮市,山口町名来１丁目１３番２４－２０２号,,28,204,6511411,,,,,,,2024-04-25,1,,,,,サニーサイン,0
151,1140001134212,新規,0,2024-04-25,2024-04-25,株式会社Ｔｚカンパニー,,株式会社,兵庫県,西宮市,津門西口町１４番２１号,,28,204,6638231,,,,,,,2024-04-25,1,,,,,ティーゼットカンパニー,0
169,1200001042433,新規,0,2024-04-25,2024-04-25,株式会社ＳＴＡＲＴ　ＥＭＰＯＷＥＲＭＥＮＴ,,株式会社,岐阜県,羽島郡岐南町,徳田西４丁目５２番地,,21,302,5016017,,,,,,,2024-04-25,1,,,,,スタートエンパワーメント,0
171,1200005013612,新規,0,2024-04-25,2024-04-25,特定非営利活動法人地域安全イノベーションの社会実装研究会,,その他の設立登記法人,岐阜県,山県市,高富１４９番地１３,,21,215,5012105,,,,,,,2024-04-25,1,,,,,チイキアンゼンイノベーションノシャカイジッソウケンキュウカイ,0
173,1210001019736,新規,0,2024-04-25,2024-04-25,株式会社ＩＺＵＭＩ．,,株式会社,福井県,福井市,門前町第５号１番地６,,18,201,9188021,,,,,,,2024-04-25,1,,,,,イズミ,0
175,1220001025964,新規,0,2024-04-25,2024-04-25,株式会社アイエススタッフ,,株式会社,石川県,金沢市,割出町５３１番地１,,17,201,9200062,,,,,,,2024-04-25,1,,,,,アイエススタッフ,0
176,1230001020312,新規,0,2024-04-25,2024-04-25,株式会社Ｒｅ．ＴＥＬＬＵＳ,,株式会社,富山県,氷見市,窪字穴畑３２８３番地４７,,16,205,9350024,,,,,,,2024-04-25,1,,,,,リテラス,0
181,1240001063137,新規,0,2024-04-25,2024-04-25,株式会社福水設計,,株式会社,広島県,広島市中区,本通７番２９号アイビービル,,34,101,7300035,,,,,,,2024-04-25,1,,,,,フクスイセッケイ,0
200,1360003013912,新規,0,2024-04-25,2024-04-25,中野商事合同会社,,合同会社,沖縄県,宜野湾市,野嵩４丁目１－２０,,47,205,9012203,,,,,,,2024-04-25,1,,,,,ナカノショウジ,0
208,1380001034479,新規,0,2024-04-25,2024-04-25,ガス・ウォーター株式会社,,株式会社,福島県,いわき市,郷ケ丘４丁目２番地の４,,07,204,9708045,,,,,,,2024-04-25,1,,,,,ガスウォーター,0
209,1380001034487,新規,0,2024-04-25,2024-04-25,株式会社インフォメント福島,,株式会社,福島県,伊達市,根田４３番地１,,07,213,9600472,,,,,,,2024-04-25,1,,,,,インフォメントフクシマ,0
230,1700150125112,新規,0,2024-04-25,2024-04-25,ＬＵＸＵＲＩＯＵＳ　ＣＡＰＩＴＡＬ　ＧＲＯＵＰ　ＩＮＣ,,外国会社等,,,,,,,,Ｖｉｓｔｒａ　Ｃｏｒｐｏｒａｔｅ　Ｓｅｒｖｉｃｅｓ　Ｃｅｎｔｒｅ　Ｗｉｃｋｈａｍｓ　Ｃａｙ　ＩＩ　Ｒｏａｄ　Ｔｏｗｎ　Ｔｏｒｔｏｌａ　ＶＧ１１１０　Ｂｒｉｔｉｓｈ　Ｖｉｒｇｉｎ　Ｉｓｌａｎｄｓ,00134550,,,,,2024-04-25,1,,,,,ラグジユアリアスキヤピタルグループインク,0
231,1700150125120,新規,0,2024-04-25,2024-04-25,ＲｏｃｋＧａｉｎＬｉｍｉｔｅｄ,,外国会社等,,,,,,,,ＶｉｓｔｒａＣｏｒｐｏｒａｔｅＳｅｒｖｉｃｅｓＣｅｎｔｒｅ，ＷｉｃｋｈａｍｓＣａｙＩＩ，ＲｏａｄＴｏｗｎ，Ｔｏｒｔｏｌａ，ＶＧ１１１０，ＢｒｉｔｉｓｈＶｉｒｇｉｎＩｓｌａｎｄｓ,00134551,,,,,2024-04-25,1,,,,,ロツクゲインリミテツド,0
232,1700150125137,新規,0,2024-04-25,2024-04-25,ＴＭ４　Ｓ．Ａ．Ｓ．,,外国会社等,東京都,中央区,日本橋本町２丁目２番２号日本橋本町ＹＳビル２階　在日フランス商工会議所内,,13,102,1030023,フランス共和国パリ市レピュブリック通り９７,,,,,,2024-04-25,1,,,,,テーエムキヤトルエスアーエス,0
240,2010001244337,新規,0,2024-04-25,2024-04-25,株式会社東京電力タイムレスキャピタルＳＰＣ第３号,,株式会社,東京都,千代田区,丸の内２丁目２番１号,,13,101,1000005,,,,,,,2024-04-25,1,,,,,トウキョウデンリョクタイムレスキャピタルエスピーシーダイサンゴウ,0
246,2010401182062,新規,0,2024-04-25,2024-04-25,得朋電子株式会社,,株式会社,東京都,港区,港南２丁目１６－４品川グランドセントラルタワー８階,,13,103,1080075,,,,,,,2024-04-25,1,,,,,トクホウデンシ,0
248,2010405023196,新規,0,2024-04-25,2024-04-25,ＡＣＰ文京春日特定目的会社,,その他の設立登記法人,東京都,港区,六本木１丁目６番１号泉ガーデンタワー,,13,103,1060032,,,,,,,2024-04-25,1,,,,,エーシーピーブンキョウカスガ,0
255,2010701045860,新規,0,2024-04-25,2024-04-25,株式会社オートマティック,,株式会社,東京都,品川区,上大崎２丁目１５－１９ＭＧ目黒駅前,,13,109,1410021,,,,,,,2024-04-25,1,,,,,オートマティック,0
257,2010801034994,新規,0,2024-04-25,2024-04-25,株式会社朝くら,,株式会社,東京都,大田区,大森中１丁目５番３号クレール伍番館２０１,,13,111,1430014,,,,,,,2024-04-25,1,,,,,アサクラ,0
261,2010903009003,新規,0,2024-04-25,2024-04-25,合同会社ラ・ルーチェ,,合同会社,東京都,世田谷区,南烏山４丁目２番６号,,13,112,1570062,,,,,,,2024-04-25,1,,,,,ラルーチェ,0
262,2010905004613,新規,0,2024-04-25,2024-04-25,一般社団法人ＩＭＡ　Ｈｕｂ,,その他の設立登記法人,東京都,世田谷区,代沢４丁目４６番１６号,,13,112,1550032,,,,,,,2024-04-25,1,,,,,イマハブ,0
268,2011001161497,新規,0,2024-04-25,2024-04-25,Ｆｉｉｌｉｎｅ株式会社,,株式会社,東京都,渋谷区,渋谷２丁目１９番１５号宮益坂ビルディング６０９,,13,113,1500002,,,,,,,2024-04-25,1,,,,,フィーライン,0
269,2011001161555,新規,0,2024-04-25,2024-04-25,株式会社ＩＣＭＦ,,株式会社,東京都,渋谷区,松濤１丁目２８番８号ＬＯＨＡＳ・ＳＨＯＴＯ３階,,13,113,1500046,,,,,,,2024-04-25,1,,,,,アイシーエムエフ,0
270,2011001161588,新規,0,2024-04-25,2024-04-25,エルダーベリー株式会社,,株式会社,東京都,目黒区,八雲１丁目６番５号,,13,110,1520023,,,,,,,2024-04-25,1,,,,,エルダーベリー,0
272,2011003018968,新規,0,2024-04-25,2024-04-25,アシスト合同会社,,合同会社,東京都,渋谷区,本町３丁目４１番８号ＰＡＳＥＯ西新宿五丁目１０２,,13,113,1510071,,,,,,,2024-04-25,1,,,,,アシスト,0
275,2011103014256,新規,0,2024-04-25,2024-04-25,Ｉｋａｒｉカード合同会社,,合同会社,東京都,新宿区,西新宿３丁目３番１３号西新宿水間ビル６階,,13,104,1600023,,,,,,,2024-04-25,1,,,,,イカリカード,0
276,2011303005138,新規,0,2024-04-25,2024-04-25,合同会社Ａｃｅ,,合同会社,東京都,杉並区,高円寺北４丁目４５番４号リベルテ３０２,,13,115,1660002,,,,,,,2024-04-25,1,,,,,エース,0
279,2011403004361,新規,0,2024-04-25,2024-04-25,ＶＮ合同会社,,合同会社,東京都,板橋区,徳丸１丁目１７番２ＸＯ財託第三ビル３０９号,,13,119,1750083,,,,,,,2024-04-25,1,,,,,ブイエヌ,0
286,2011701027213,新規,0,2024-04-25,2024-04-25,ＰＯＬＡＲＩＳ　ＪＡＰＡＮ株式会社,,株式会社,東京都,江戸川区,中葛西８丁目１３番１６号パークス・ＩＩＩ２０１,00134553,13,123,1340083,,,,,,,2024-04-25,1,,,,,ポラリスジャパン,0
297,2020001156993,新規,0,2024-04-25,2024-04-25,株式会社ｃｈｏｃｏ,,株式会社,神奈川県,横浜市旭区,鶴ケ峰本町１丁目２７番１０号,,14,112,2410021,,,,,,,2024-04-25,1,,,,,チョコ,0
298,2020001157042,新規,0,2024-04-25,2024-04-25,株式会社ａｌｏｃａｓｉｃ,,株式会社,神奈川県,横浜市都筑区,桜並木１９‐６,,14,118,2240046,,,,,,,2024-04-25,1,,,,,アロカシック,0
303,2021001082073,新規,0,2024-04-25,2024-04-25,株式会社ＣＯＧ,,株式会社,神奈川県,藤沢市,辻堂元町１丁目３番２２号２－Ａ,,14,205,2510043,,,,,,,2024-04-25,1,,,,,シーオージー,0
318,2060001037034,新規,0,2024-04-25,2024-04-25,株式会社ＫＪＭ,,株式会社,栃木県,栃木市,岩舟町静２１５８番地１,,09,203,3294307,,,,,,,2024-04-25,1,,,,,ケージェイエム,0
334,2080101008643,新規,0,2024-04-25,2024-04-25,三立建物株式会社,,株式会社,静岡県,富士市,錦町１丁目４番１８号,,22,210,4170045,,,,,,,2024-04-25,1,,,,,サンリツタテモノ,0
335,2080105006429,新規,0,2024-04-25,2024-04-25,一般財団法人さの萬,,その他の設立登記法人,静岡県,富士宮市,宮町１４番１９号,,22,207,4180067,,,,,,,2024-04-25,1,,,,,サノマン,0
339,2080401027145,新規,0,2024-04-25,2024-04-25,ジャムズジャパン株式会社,,株式会社,静岡県,浜松市中央区,半田山５丁目２２－１６,,22,138,4313125,,,,,,,2024-04-25,1,,,,,ジャムズジャパン,0
348,2110001038357,新規,0,2024-04-25,2024-04-25,株式会社ヤマト建設,,株式会社,新潟県,新潟市南区,大通黄金７丁目１４番地３,,15,106,9501203,,,,,,,2024-04-25,1,,,,,ヤマトケンセツ,0
357,2120001264332,新規,0,2024-04-25,2024-04-25,株式会社Ｈａｎ＆Ｔａｎｎｉｒ,,株式会社,大阪府,大阪市港区,市岡元町１丁目５番２８号,,27,107,5520002,,,,,,,2024-04-25,1,,,,,ハンアンドタニア,0
358,2120001264340,新規,0,2024-04-25,2024-04-25,株式会社ベストテクノロジーズ,,株式会社,大阪府,大阪市中央区,安堂寺町２丁目１番１５－２０２号,,27,128,5420061,,,,,,,2024-04-25,1,,,,,ベストテクノロジーズ,0
359,2120001264365,新規,0,2024-04-25,2024-04-25,株式会社Ｋ,,株式会社,大阪府,大阪市西区,西本町２丁目４番１９－３０８号,,27,106,5500005,,,,,,,2024-04-25,1,,,,,ケー,0
360,2120001264381,新規,0,2024-04-25,2024-04-25,株式会社キュービック・ジョブズ,,株式会社,大阪府,大阪市阿倍野区,阿倍野筋１丁目１番４３号あべのハルカス３１Ｆ,,27,119,5450052,,,,,,,2024-04-25,1,,,,,キュービックジョブズ,0
361,2120001264448,新規,0,2024-04-25,2024-04-25,株式会社ギルドサポート,,株式会社,大阪府,大阪市城東区,今福西１丁目１２－１７,,27,118,5360004,,,,,,,2024-04-25,1,,,,,ギルドサポート,0
363,2120003026433,新規,0,2024-04-25,2024-04-25,合同会社零・ＺＥＲＯ,,合同会社,大阪府,大阪市浪速区,大国１丁目１０番２１大晃ビル３０８号,,27,111,5560014,,,,,,,2024-04-25,1,,,,,ゼロ,0
364,2120003026441,新規,0,2024-04-25,2024-04-25,合同会社Ｎａｎａｉｌｌｏ,,合同会社,大阪府,大阪市阿倍野区,桃ケ池町１丁目１１番１６号,,27,119,5450012,,,,,,,2024-04-25,1,,,,,ナナイロ,0
366,2120101069482,新規,0,2024-04-25,2024-04-25,株式会社ロベリア,,株式会社,大阪府,泉佐野市,上瓦屋３３７－２,,27,213,5980001,,,,,,,2024-04-25,1,,,,,ロベリア,0
369,2120903005148,新規,0,2024-04-25,2024-04-25,合同会社ＬＬ,,合同会社,大阪府,箕面市,石丸３丁目２６番Ｗ－５０５号,,27,220,5620027,,,,,,,2024-04-25,1,,,,,エルエル,0
370,2122003002868,新規,0,2024-04-25,2024-04-25,合同会社彩生,,合同会社,大阪府,東大阪市,御厨南２丁目２番５０号三容ビル２階,,27,227,5770034,,,,,,,2024-04-25,1,,,,,サイセイ,0
375,2130001076925,新規,0,2024-04-25,2024-04-25,株式会社フジターフ,,株式会社,京都府,福知山市,荒河新町１０７番地の２,,26,201,6200063,,,,,,,2024-04-25,1,,,,,フジターフ,0
378,2130003009494,新規,0,2024-04-25,2024-04-25,合同会社Ｒｅｅｆ,,合同会社,京都府,南丹市,園部町小山東町溝辺２７番地,,26,213,6220041,,,,,,,2024-04-25,1,,,,,リーフ,0
380,2130005017082,新規,0,2024-04-25,2024-04-25,一般社団法人介護・福祉・社会的養護第三者評価機構,,その他の設立登記法人,京都府,京都市山科区,四ノ宮小金塚１－３７６,,26,110,6078022,,,,,,,2024-04-25,1,,,,,カイゴフクシシャカイテキヨウゴダイサンシャヒョウカキコウ,0
391,2140001134194,新規,0,2024-04-25,2024-04-25,株式会社松金商事,,株式会社,兵庫県,神戸市中央区,山本通４丁目１３番１３－３０３号,,28,110,6500003,,,,,,,2024-04-25,1,,,,,マツガネショウジ,0
394,2140003020483,新規,0,2024-04-25,2024-04-25,スターコミュニティ合同会社,,合同会社,兵庫県,尼崎市,神田中通２丁目２７番４７号阪神ＯＮＯビル１Ｆ,,28,202,6600884,,,,,,,2024-04-25,1,,,,,スターコミュニティ,0
395,2140003020491,新規,0,2024-04-25,2024-04-25,Ｔ．Ｔ合同会社,,合同会社,兵庫県,神戸市須磨区,高倉台６丁目１－２３－４０２,,28,107,6540081,,,,,,,2024-04-25,1,,,,,ティーティー,0
400,2170001018106,新規,0,2024-04-25,2024-04-25,株式会社紀乃國工業,,株式会社,和歌山県,岩出市,水栖４８７番地の８,,30,209,6496214,,,,,,,2024-04-25,1,,,,,キノクニコウギョウ,0
401,2170003002033,新規,0,2024-04-25,2024-04-25,合同会社隆栄工業,,合同会社,和歌山県,紀の川市,貴志川町長原１６０１番地１５,,30,208,6400415,,,,,,,2024-04-25,1,,,,,リュウエイコウギョウ,0
406,2180001161136,新規,0,2024-04-25,2024-04-25,株式会社ヴェルデ,,株式会社,愛知県,名古屋市北区,大杉町５丁目８０番地の１ＭＳＯＯＳＵＧＩ１０２号,,23,103,4620836,,,,,,,2024-04-25,1,,,,,ヴェルデ,0
407,2180001161160,新規,0,2024-04-25,2024-04-25,株式会社カーザ不動産,,株式会社,愛知県,小牧市,堀の内５丁目１０１番地１ＫＴ４１Ｃ号室,,23,219,4850046,,,,,,,2024-04-25,1,,,,,カーザフドウサン,0
408,2180001161219,新規,0,2024-04-25,2024-04-25,株式会社Ｍ＆Ｍオフィス,,株式会社,愛知県,名古屋市千種区,富士見台５丁目１番地１３,,23,101,4640015,,,,,,,2024-04-25,1,,,,,エムアンドエムオフィス,0
411,2180003026691,新規,0,2024-04-25,2024-04-25,合同会社ＩＳＫ,,合同会社,愛知県,名古屋市名東区,亀の井１丁目１番地ユニーブル星ヶ丘イースト３０６号,,23,115,4650094,,,,,,,2024-04-25,1,,,,,アイエスケイ,0
420,2220001025971,新規,0,2024-04-25,2024-04-25,株式会社メンタルヘルスネクステージ,,株式会社,石川県,金沢市,桜田町１丁目２６番地ドマーニ桜田１０５号室,,17,201,9200057,,,,,,,2024-04-25,1,,,,,メンタルヘルスネクステージ,0
425,2240001063128,新規,0,2024-04-25,2024-04-25,株式会社フジエコ,,株式会社,広島県,福山市,引野町４丁目１９番１８号,,34,207,7210942,,,,,,,2024-04-25,1,,,,,フジエコ,0
431,2260001039002,新規,0,2024-04-25,2024-04-25,ＥＵグループ株式会社,,株式会社,岡山県,倉敷市,西岡２６７－１,,33,202,7100005,,,,,,,2024-04-25,1,,,,,イーユーグループ,0
435,2260003004664,新規,0,2024-04-25,2024-04-25,合同会社吉備ライフ,,合同会社,岡山県,岡山市中区,中井４丁目１８番地１,,33,102,7038205,,,,,,,2024-04-25,1,,,,,キビライフ,0
440,2290001105387,新規,0,2024-04-25,2024-04-25,株式会社Ｈｅａｌｓ,,株式会社,福岡県,福岡市早良区,百道２丁目６番１－２０２号,,40,137,8140006,,,,,,,2024-04-25,1,,,,,ヒールズ,0
445,2310001018982,新規,0,2024-04-25,2024-04-25,株式会社ユニバ,,株式会社,長崎県,大村市,大川田町９９１番地１,,42,205,8560804,,,,,,,2024-04-25,1,,,,,ユニバ,0
448,2330003010341,新規,0,2024-04-25,2024-04-25,合同会社藤本製作所,,合同会社,熊本県,八代市,郡築一番町１３０番地１（２０１）,,43,202,8660024,,,,,,,2024-04-25,1,,,,,フジモトセイサクショ,0
451,2360001033564,新規,0,2024-04-25,2024-04-25,株式会社ＡＯＩ,,株式会社,沖縄県,うるま市,石川伊波１５５３－２１,,47,213,9041115,,,,,,,2024-04-25,1,,,,,アオイ,0
458,2380001034486,新規,0,2024-04-25,2024-04-25,新峰建設株式会社,,株式会社,福島県,二本松市,金色４２１番地１０オフィス・ウィンドストリームＡ号室,,07,210,9640915,,,,,,,2024-04-25,1,,,,,シンホウケンセツ,0
467,2430003016262,新規,0,2024-04-25,2024-04-25,合同会社ギフトリウム,,合同会社,北海道,札幌市西区,二十四軒四条４丁目４番１８‐４０１号,,01,107,0630804,,,,,,,2024-04-25,1,,,,,ギフトリウム,0
472,2700150125111,新規,0,2024-04-25,2024-04-25,ＵＢＥＲＴＹ　ＣＡＰＩＴＡＬ　ＩＮＣＯＲＰＯＲＡＴＥＤ,,外国会社等,東京都,港区,赤坂２丁目８番１４－５０４号,,13,103,1070052,サモア独立国、アピア、バイアストリート、ロテマウセンター２Ｆ,,,,,,2024-04-25,1,,,,,ユバテイキヤピタルインコーポレイテツド,0
480,3010001244278,新規,0,2024-04-25,2024-04-25,株式会社Ｂｉｚｃａｒｅｅｒ,,株式会社,東京都,中央区,日本橋人形町１丁目４－６－４０１,,13,102,1030013,,,,,,,2024-04-25,1,,,,,ビズキャリア,0
481,3010001244328,新規,0,2024-04-25,2024-04-25,株式会社ＹＲＤパートナーズ,,株式会社,東京都,中央区,日本橋堀留町１丁目１０番１号カクタビル２Ｆ,,13,102,1030012,,,,,,,2024-04-25,1,,,,,ワイアールディーパートナーズ,0
482,3010001244336,新規,0,2024-04-25,2024-04-25,株式会社東京電力タイムレスキャピタルＳＰＣ第３号ホールディングス,,株式会社,東京都,千代田区,丸の内２丁目２番１号,,13,101,1000005,,,,,,,2024-04-25,1,,,,,トウキョウデンリョクタイムレスキャピタルエスピーシーダイサンゴウホールディングス,0
483,3010001244352,新規,0,2024-04-25,2024-04-25,株式会社Ｂｏｒｎｓ　Ｊａｐａｎ,,株式会社,東京都,中央区,銀座１丁目１２番４号Ｎ＆ＥＢＬＤ．６Ｆ,,13,102,1040061,,,,,,,2024-04-25,1,,,,,ボーンズジャパン,0
484,3010001244410,新規,0,2024-04-25,2024-04-25,コンパクトアッセイズ株式会社,,株式会社,東京都,中央区,銀座１丁目１２－４Ｎ＆ＥＢＬＤ．７階,,13,102,1040061,,,,,,,2024-04-25,1,,,,,コンパクトアッセイズ,0
502,3010401182061,新規,0,2024-04-25,2024-04-25,３Ｓ株式会社,,株式会社,東京都,港区,元麻布１丁目３番２－３０２号,,13,103,1060046,,,,,,,2024-04-25,1,,,,,スリーエス,0
505,3010403032454,新規,0,2024-04-25,2024-04-25,Ｐｅｋｏｌｙ合同会社,,合同会社,東京都,港区,南麻布５丁目６番４８－４０５号,,13,103,1060047,,,,,,,2024-04-25,1,,,,,ペコリー,0
506,3010403032520,新規,0,2024-04-25,2024-04-25,野沢温泉リゾート開発合同会社,,合同会社,東京都,港区,虎ノ門５丁目１番５号,,13,103,1050001,,,,,,,2024-04-25,1,,,,,ノザワオンセンリゾートカイハツ,0
508,3010601065066,新規,0,2024-04-25,2024-04-25,株式会社ＤｅｓｉｇｎＴｒｕｓｔ,,株式会社,東京都,墨田区,東向島２丁目９番１４号,,13,107,1310032,,,,,,,2024-04-25,1,,,,,デザイントラスト,0
512,3010701045901,新規,0,2024-04-25,2024-04-25,株式会社ちゃんつー,,株式会社,東京都,品川区,南大井４丁目３番１３号,,13,109,1400013,,,,,,,2024-04-25,1,,,,,チャンツー,0
514,3010801034993,新規,0,2024-04-25,2024-04-25,長井ホールディングス株式会社,,株式会社,東京都,大田区,中央８丁目２０番１５号,,13,111,1430024,,,,,,,2024-04-25,1,,,,,ナガイホールディングス,0
516,3010803004929,新規,0,2024-04-25,2024-04-25,合同会社ＡＭｙ,,合同会社,東京都,大田区,仲池上２丁目１８番１２号３０６号室,,13,111,1460081,,,,,,,2024-04-25,1,,,,,エイミー,0
529,3011001161513,新規,0,2024-04-25,2024-04-25,株式会社キーストーン・マイレージ,,株式会社,東京都,渋谷区,道玄坂１丁目１０番８号渋谷道玄坂東急ビル２Ｆ－Ｃ,,13,113,1500043,,,,,,,2024-04-25,1,,,,,キーストーンマイレージ,0
530,3011001161570,新規,0,2024-04-25,2024-04-25,株式会社Ｂ’ｆｌｅｕｒ１,,株式会社,東京都,渋谷区,恵比寿南２丁目２８番８号５０３,,13,113,1500022,,,,,,,2024-04-25,1,,,,,ビーフルーワン,0
531,3011001161620,新規,0,2024-04-25,2024-04-25,株式会社リバティーランニング,,株式会社,東京都,渋谷区,道玄坂１丁目１０番８号渋谷道玄坂東急ビル２Ｆ,,13,113,1500043,,,,,,,2024-04-25,1,,,,,リバティーランニング,0
532,3011001161637,新規,0,2024-04-25,2024-04-25,株式会社イシス,,株式会社,東京都,目黒区,下目黒１丁目１番１４号コノトラビル７Ｆ,,13,110,1530064,,,,,,,2024-04-25,1,,,,,イシス,0
533,3011003019016,新規,0,2024-04-25,2024-04-25,合同会社ＧＪＣＦ８,,合同会社,東京都,渋谷区,広尾１丁目１１番２号嶋本公認会計士事務所気付,,13,113,1500012,,,,,,,2024-04-25,1,,,,,ジージェイシーエフエイト,0
534,3011003019032,新規,0,2024-04-25,2024-04-25,ＹＯＮＯ　ＷｅｂＴｅｃｈ合同会社,,合同会社,東京都,渋谷区,渋谷２丁目１９‐１５宮益坂ビルディング６０９,,13,113,1500002,,,,,,,2024-04-25,1,,,,,ヨノウェブテック,0
536,3011101107110,新規,0,2024-04-25,2024-04-25,株式会社アリアサージュ,,株式会社,東京都,新宿区,新宿７丁目２６－７－４０４ビクセル新宿,,13,104,1600022,,,,,,,2024-04-25,1,,,,,アリアサージュ,0
543,3011501030589,新規,0,2024-04-25,2024-04-25,シーレクト株式会社,,株式会社,東京都,荒川区,南千住５丁目９－８リレント三ノ輪５０１,,13,118,1160003,,,,,,,2024-04-25,1,,,,,シーレクト,0
545,3011603004318,新規,0,2024-04-25,2024-04-25,合同会社ＴＦプサイ,,合同会社,東京都,練馬区,氷川台４丁目４７番１８号,,13,120,1790084,,,,,,,2024-04-25,1,,,,,ティーエフプサイ,0
558,3012803003373,新規,0,2024-04-25,2024-04-25,合同会社Ｍ．Ｓ．ＮＵＲＳＩＮＧ　ＣＡＲＥ,,合同会社,東京都,武蔵村山市,大南３丁目６９―２５,,13,223,2080013,,,,,,,2024-04-25,1,,,,,エムエスナーシングケア,0
559,3013301052400,新規,0,2024-04-25,2024-04-25,Ｓｏｎｇ　Ｆａｍｉｌｙ　Ｊａｐａｎ　Ｉｎｔｅｒｎａｔｉｏｎａｌ　Ｈｏｌｄｉｎｇ株式会社,,株式会社,東京都,豊島区,東池袋３丁目７番５号近藤ビル３Ｆ,,13,116,1700013,,,,,,,2024-04-25,1,,,,,ソンファミリージャパンインターナショナルホールディング,0
564,3020001156885,新規,0,2024-04-25,2024-04-25,株式会社ＭＩＣ,,株式会社,神奈川県,横浜市鶴見区,東寺尾１丁目４－１４グランシャリオ東寺尾６０１,,14,101,2300077,,,,,,,2024-04-25,1,,,,,ミック,0
565,3020001157041,新規,0,2024-04-25,2024-04-25,アルファ・インベスター株式会社,,株式会社,神奈川県,横浜市中区,山手町１６５番地７,,14,104,2310862,,,,,,,2024-04-25,1,,,,,アルファインベスター,0
571,3021001082080,新規,0,2024-04-25,2024-04-25,株式会社ｃｏｕｌｅｕｒ,,株式会社,神奈川県,横須賀市,野比３丁目３３番５－２０７号,,14,201,2390841,,,,,,,2024-04-25,1,,,,,クルール,0
572,3021001082097,新規,0,2024-04-25,2024-04-25,株式会社真波工業,,株式会社,神奈川県,横須賀市,野比４丁目１６番３４号,,14,201,2390841,,,,,,,2024-04-25,1,,,,,マナミコウギョウ,0
573,3021001082106,新規,0,2024-04-25,2024-04-25,のぞみメディカルシステム株式会社,,株式会社,神奈川県,鎌倉市,雪ノ下１丁目１４番２４号,,14,204,2480005,,,,,,,2024-04-25,1,,,,,ノゾミメディカルシステム,0
584,3030001160003,新規,0,2024-04-25,2024-04-25,好運来株式会社,,株式会社,埼玉県,蕨市,南町３丁目５番１号－１０１室,,11,223,3350003,,,,,,,2024-04-25,1,,,,,コウウンライ,0
586,3030003024164,新規,0,2024-04-25,2024-04-25,合同会社さくらみらいマネジメント,,合同会社,埼玉県,桶川市,大字小針領家５７番地の８,,11,231,3630007,,,,,,,2024-04-25,1,,,,,サクラミライマネジメント,0
590,3040001133263,新規,0,2024-04-25,2024-04-25,株式会社ＳＲＴ,,株式会社,千葉県,東金市,堀上７０９番地３,,12,213,2830063,,,,,,,2024-04-25,1,,,,,エスアールティー,0
592,3040005022355,新規,0,2024-04-25,2024-04-25,特定非営利活動法人たてやまビーチクリーンボランティアネットワーク,,その他の設立登記法人,千葉県,館山市,佐野３６１番地の４１,,12,205,2940225,,,,,,,2024-04-25,1,,,,,,0
604,3060001037033,新規,0,2024-04-25,2024-04-25,株式会社エボニス,,株式会社,栃木県,真岡市,下鷺谷６番地１,,09,209,3214414,,,,,,,2024-04-25,1,,,,,エボニス,0
605,3060003005054,新規,0,2024-04-25,2024-04-25,Ｐｅａｃｅ　Ｆｉｅｌｄ合同会社,,合同会社,栃木県,宇都宮市,本町１０番７号ノブレスタワー宇都宮本町ミッドパーク１８０４号,,09,201,3200033,,,,,,,2024-04-25,1,,,,,ピースフィールド,0
614,3080105006428,新規,0,2024-04-25,2024-04-25,一般社団法人河津デイズ,,その他の設立登記法人,静岡県,賀茂郡河津町,浜２４５番１,,22,302,4130513,,,,,,,2024-04-25,1,,,,,カワヅデイズ,0
615,3100001037425,新規,0,2024-04-25,2024-04-25,株式会社あぐりぽっぷ,,株式会社,長野県,上伊那郡南箕輪村,６３００番地１,,20,385,3994511,,,,,,,2024-04-25,1,,,,,アグリポップ,0
617,3110001038356,新規,0,2024-04-25,2024-04-25,ワイズアセットマネジメント株式会社,,株式会社,新潟県,上越市,大和２丁目１５番１２号,,15,222,9430861,,,,,,,2024-04-25,1,,,,,ワイズアセットマネジメント,0
629,3120001264331,新規,0,2024-04-25,2024-04-25,ｅｆｆｅ　Ｊｅｗｅｌｒｙ株式会社,,株式会社,大阪府,枚方市,東香里南町１２番３号,,27,210,5730074,,,,,,,2024-04-25,1,,,,,エッフェジュエリー,0
630,3120001264356,新規,0,2024-04-25,2024-04-25,緑楊里日中商務促進株式会社,,株式会社,大阪府,大阪市西成区,萩之茶屋２丁目８－３ハイツニューコンパ３０１号,,27,122,5570004,,,,,,,2024-04-25,1,,,,,リョクヨウリニッチュウショウムソクシン,0
631,3120001264364,新規,0,2024-04-25,2024-04-25,株式会社インセブン,,株式会社,大阪府,大阪市北区,曾根崎新地１丁目３番１号大橋ビルＢ１,,27,127,5300002,,,,,,,2024-04-25,1,,,,,インセブン,0
632,3120001264521,新規,0,2024-04-25,2024-04-25,株式会社ＲＥ９,,株式会社,大阪府,大阪市中央区,南船場４丁目９番１１号レイシス心斎橋ビル４Ｆ,,27,128,5420081,,,,,,,2024-04-25,1,,,,,レック,0
633,3120003026432,新規,0,2024-04-25,2024-04-25,合同会社Ｅｉｔｏ,,合同会社,大阪府,大阪市中央区,上町１丁目１番２２号,,27,128,5400005,,,,,,,2024-04-25,1,,,,,エイト,0
634,3120003026440,新規,0,2024-04-25,2024-04-25,合同会社Ｔ‐ＦＩＮＡＬ,,合同会社,大阪府,大阪市城東区,今福西５丁目１番２５－９１５号,,27,118,5360004,,,,,,,2024-04-25,1,,,,,ティーファイナル,0
639,3120901049071,新規,0,2024-04-25,2024-04-25,株式会社シェアエイド,,株式会社,大阪府,吹田市,泉町１丁目４番１９－１２号,,27,205,5640041,,,,,,,2024-04-25,1,,,,,シェアエイド,0
643,3130001076866,新規,0,2024-04-25,2024-04-25,株式会社ｇｉｆｔ,,株式会社,京都府,京都市山科区,御陵安祥寺町３－１０,,26,110,6078407,,,,,,,2024-04-25,1,,,,,ギフト,0
644,3130001076940,新規,0,2024-04-25,2024-04-25,Ｊａｐａｎ　Ｈｙｄｒｏ　Ｐｌａｎｎｉｎｇ株式会社,,株式会社,京都府,宇治市,六地蔵奈良町７４－１パデシオン六地蔵７１０,,26,204,6110001,,,,,,,2024-04-25,1,,,,,ジャパンハイドロプランニング,0
645,3130003009502,新規,0,2024-04-25,2024-04-25,合同会社Ｌｉｎｉｅ,,合同会社,京都府,八幡市,川口堀ノ内８０番地,,26,210,6148103,,,,,,,2024-04-25,1,,,,,リニエ,0
649,3140001134193,新規,0,2024-04-25,2024-04-25,株式会社ＫＡＳＥＧＩ,,株式会社,兵庫県,美方郡新温泉町,石橋６７９,,28,586,6696953,,,,,,,2024-04-25,1,,,,,カセギ,0
650,3140001134202,新規,0,2024-04-25,2024-04-25,エヌテック株式会社,,株式会社,兵庫県,宝塚市,南口２丁目３－３,,28,214,6650011,,,,,,,2024-04-25,1,,,,,エヌテック,0
652,3140003020490,新規,0,2024-04-25,2024-04-25,合同会社健康新産業,,合同会社,兵庫県,尼崎市,猪名寺２丁目６－５,,28,202,6610981,,,,,,,2024-04-25,1,,,,,ケンコウシンサンギョウ,0
653,3140005027063,新規,0,2024-04-25,2024-04-25,一般社団法人淡路ＢＲＡＶＥＯＣＥＡＮＳ,,その他の設立登記法人,兵庫県,淡路市,生穂新島５－７関海事工業所津名デポ内,,28,226,6562225,,,,,,,2024-04-25,1,,,,,アワジブレイブオーシャンズ,0
655,3170001018105,新規,0,2024-04-25,2024-04-25,株式会社ＫＩＩ,,株式会社,和歌山県,御坊市,名田町上野１４３４御坊名田サテライトオフィス内,,30,205,6440022,,,,,,,2024-04-25,1,,,,,キー,0
661,3180001161119,新規,0,2024-04-25,2024-04-25,株式会社ＦＯ‐Ｃｏｎｎｅｃｔｉｏｎ,,株式会社,愛知県,名古屋市中村区,平池町４丁目６０番地の５（ロイヤルパークスＥＲささしま１０２１号）,,23,105,4530872,,,,,,,2024-04-25,1,,,,,エフオーコネクション,0
662,3180001161135,新規,0,2024-04-25,2024-04-25,株式会社天龍企画,,株式会社,愛知県,江南市,松竹町高山１２３番地,,23,217,4838352,,,,,,,2024-04-25,1,,,,,テンリュウキカク,0
668,3190001031295,新規,0,2024-04-25,2024-04-25,株式会社ひかり,,株式会社,三重県,桑名市,柳原１２１番地１ＮＯＺＡＷＡビル２階,,24,205,5110042,,,,,,,2024-04-25,1,,,,,ヒカリ,0
670,3190003004662,新規,0,2024-04-25,2024-04-25,合同会社ＳエヌＳ,,合同会社,三重県,四日市市,日永西１丁目１４番７号サニーコート黒宮１０３,,24,202,5100891,,,,,,,2024-04-25,1,,,,,,0
671,3200001042431,新規,0,2024-04-25,2024-04-25,株式会社セキ日和,,株式会社,岐阜県,関市,美園町２５番地,,21,205,5013836,,,,,,,2024-04-25,1,,,,,セキビヨリ,0
678,3220001025970,新規,0,2024-04-25,2024-04-25,株式会社ＡＳＵＣＲＥＡＷＩＴ,,株式会社,石川県,白山市,井関町ヌ４６番地１,,17,210,9290211,,,,,,,2024-04-25,1,,,,,アスクリウェイト,0
681,3240001063135,新規,0,2024-04-25,2024-04-25,株式会社Ａｔｌｌｏｎ,,株式会社,広島県,広島市中区,江波西１丁目２７－３ＣＵＢＩＣＬＥ・Ｆ４０３,,34,101,7300831,,,,,,,2024-04-25,1,,,,,アトロン,0
682,3240001063143,新規,0,2024-04-25,2024-04-25,天照ケアサポート株式会社,,株式会社,広島県,広島市中区,宝町７番１６号,,34,101,7300044,,,,,,,2024-04-25,1,,,,,テンショウケアサポート,0
684,3270001008962,新規,0,2024-04-25,2024-04-25,株式会社ＨＥＡＬＴＨ　ＪＡＰＡＮ,,株式会社,鳥取県,鳥取市,弥生町２７６番地４明都ビル３Ｆ,,31,201,6800832,,,,,,,2024-04-25,1,,,,,ヘルスジャパン,0
697,3330001031999,新規,0,2024-04-25,2024-04-25,ＭＡＧＳＡＹＡ株式会社,,株式会社,熊本県,熊本市中央区,水前寺１丁目２９番４号,,43,101,8620950,,,,,,,2024-04-25,1,,,,,マグサヤ,0
712,3380001034460,新規,0,2024-04-25,2024-04-25,株式会社ＬＯＮＧＢＲＩＤＧＥ,,株式会社,福島県,耶麻郡西会津町,上野尻字下沖ノ原２６０９―２,,07,405,9694512,,,,,,,2024-04-25,1,,,,,ロングブリッジ,0
715,3390003002241,新規,0,2024-04-25,2024-04-25,スリーケーパワー合同会社,,合同会社,山形県,尾花沢市,大字丹生１７１２番地,,06,212,9994213,,,,,,,2024-04-25,1,,,,,スリーケーパワー,0
727,3430001091653,新規,0,2024-04-25,2024-04-25,株式会社翔栄,,株式会社,北海道,岩内郡岩内町,字大浜４２番地６,,01,402,0450001,,,,,,,2024-04-25,1,,,,,ショウエイ,0
728,3430001091661,新規,0,2024-04-25,2024-04-25,株式会社ＡＮＥＨＡ,,株式会社,北海道,札幌市北区,北三十一条西８丁目１‐１,,01,102,0010031,,,,,,,2024-04-25,1,,,,,アネハ,0
733,3450003002474,新規,0,2024-04-25,2024-04-25,合同会社おうむ飼料センター,,合同会社,北海道,紋別郡雄武町,字雄武８７０番地の１１,,01,563,0981702,,,,,,,2024-04-25,1,,,,,オウムシリョウセンター,0
739,3500003003228,新規,0,2024-04-25,2024-04-25,合同会社ＴＩＭＥ,,合同会社,愛媛県,東温市,野田１丁目９８８－１５,,38,215,7910216,,,,,,,2024-04-25,1,,,,,タイム,0
741,3700150123808,新規,0,2024-04-25,2024-04-25,Ｇｅｎｅｒａｌ　Ａｓｓｅｍｂｌｙ　Ｓｐａｃｅ，Ｉｎｃ．,,外国会社等,,,,,,,,９１５　Ｂｒｏａｄｗａｙ，３ｒｄ　Ｆｌｏｏｒ，Ｎｅｗ　Ｙｏｒｋ，ＮＹ　１００１０,,,,,,2024-04-25,1,,,,,ジエネラルアセンブリースペースインク,0
742,3700150125119,新規,0,2024-04-25,2024-04-25,ＪＯＥＭＯＲＩＴＡ　ＩＮＴＥＲＮＡＴＩＯＮＡＬ　ＣＯ．ＬＴＤ,,外国会社等,,,,,,,,ホンコン　ワンチャイ区　ヘネシーロード　３０２－３０８　ＣＣ　Ｗｕビル２５Ｆ　２５０６,,,,,,2024-04-25,1,,,,,ジヨーモリタインターナシヨナルカンパニーリミテツド,0
743,3700150125135,新規,0,2024-04-25,2024-04-25,能美市吉原釜屋町土地区画整理組合,,その他,石川県,能美市,吉原釜屋町イ１５番１号,,17,211,9290121,,,,,,,2024-04-25,1,,,,,ノミシヨシハラガマヤマチトチクカクセイリクミアイ,0
745,4010001244244,新規,0,2024-04-25,2024-04-25,株式会社アンビルト,,株式会社,東京都,中央区,銀座１丁目１２番４号Ｎ＆ＥＢＬＤ．６Ｆ,,13,102,1040061,,,,,,,2024-04-25,1,,,,,アンビルト,0
746,4010001244384,新規,0,2024-04-25,2024-04-25,Ｒｏｏｏｔｉｆｙ株式会社,,株式会社,東京都,中央区,銀座１丁目１２番４号Ｎ＆ＥＢＬＤ．６Ｆ,,13,102,1040061,,,,,,,2024-04-25,1,,,,,ルーティファイ,0
753,4010401182028,新規,0,2024-04-25,2024-04-25,ピナクルパートナーズ株式会社,,株式会社,東京都,港区,赤坂２丁目２３番１号アークヒルズ・フロントタワーＩｎＣｏｎｔｒｏｌ内,,13,103,1070052,,,,,,,2024-04-25,1,,,,,ピナクルパートナーズ,0
754,4010403032494,新規,0,2024-04-25,2024-04-25,ＰＪＭＦ　Ａｎｔａｒｅｓ　ＭＬ合同会社,,合同会社,東京都,港区,元赤坂１丁目１番７－８０７号,,13,103,1070051,,,,,,,2024-04-25,1,,,,,ピージェイエムエフアンタレスエムエル,0
758,4010501052130,新規,0,2024-04-25,2024-04-25,株式会社ｋｕｚｉｒａ,,株式会社,東京都,台東区,下谷３丁目１６－１３サンライズ入谷４０６,,13,106,1100004,,,,,,,2024-04-25,1,,,,,クジラ,0
759,4010501052155,新規,0,2024-04-25,2024-04-25,株式会社Ｅサイン,,株式会社,東京都,台東区,台東４丁目３１番１号ＡＬビル３０２,,13,106,1100016,,,,,,,2024-04-25,1,,,,,イーサイン,0
763,4010603010795,新規,0,2024-04-25,2024-04-25,ＥＳＴＵＡＲＹ合同会社,,合同会社,東京都,江東区,千石３丁目３番３号,,13,108,1350015,,,,,,,2024-04-25,1,,,,,エスチュアリー,0
766,4010801034984,新規,0,2024-04-25,2024-04-25,ｔｕｚｕｋｅ株式会社,,株式会社,東京都,大田区,大森北３丁目５－７,,13,111,1430016,,,,,,,2024-04-25,1,,,,,ツヅケ,0
771,4011001161553,新規,0,2024-04-25,2024-04-25,株式会社ＰＬＵＳ,,株式会社,東京都,目黒区,平町１丁目２３－１０メイゾンリラ１階Ａ号室,,13,110,1520032,,,,,,,2024-04-25,1,,,,,プラス,0
772,4011001161660,新規,0,2024-04-25,2024-04-25,株式会社羽田,,株式会社,東京都,渋谷区,代々木２丁目５番１号,,13,113,1510053,,,,,,,2024-04-25,1,,,,,ハネダ,0
773,4011003018909,新規,0,2024-04-25,2024-04-25,合同会社ＴｅｃｈＣｏｎｔｒｉｂｕｔｉｏｎ,,合同会社,東京都,渋谷区,本町２丁目１２－３フラワーガーデンワタナベ４０１,,13,113,1510071,,,,,,,2024-04-25,1,,,,,テックコントリビューッション,0
774,4011003019015,新規,0,2024-04-25,2024-04-25,リタ合同会社,,合同会社,東京都,目黒区,下目黒５丁目１３番１３号,,13,110,1530064,,,,,,,2024-04-25,1,,,,,リタ,0
775,4011003019023,新規,0,2024-04-25,2024-04-25,合同会社ｆｕ‐ｆｕ,,合同会社,東京都,渋谷区,渋谷２丁目１９‐１５宮益坂ビルディング６０９,,13,113,1500002,,,,,,,2024-04-25,1,,,,,フーフ,0
779,4011401026042,新規,0,2024-04-25,2024-04-25,株式会社春華秋実,,株式会社,東京都,板橋区,前野町６丁目２１番１１－２０９号,,13,119,1740063,,,,,,,2024-04-25,1,,,,,シュンカシュウジツ,0
787,4011603004317,新規,0,2024-04-25,2024-04-25,合同会社ＴＦファイ,,合同会社,東京都,練馬区,氷川台４丁目４７番１８号,,13,120,1790084,,,,,,,2024-04-25,1,,,,,ティーエフファイ,0
794,4011803006204,新規,0,2024-04-25,2024-04-25,合同会社ＦＬＡＧＳ,,合同会社,東京都,足立区,柳原１丁目２４番８－１０４号,,13,121,1200022,,,,,,,2024-04-25,1,,,,,フラッグス,0
805,4020001156802,新規,0,2024-04-25,2024-04-25,株式会社アールアイカンパニー,,株式会社,神奈川県,川崎市多摩区,登戸１２３９番地シャトル登戸３０１,,14,135,2140014,,,,,,,2024-04-25,1,,,,,アールアイカンパニー,0
806,4020001156876,新規,0,2024-04-25,2024-04-25,虹橋建設株式会社,,株式会社,神奈川県,横浜市神奈川区,金港町５番地１４クアドリフォリオ８階,,14,102,2210056,,,,,,,2024-04-25,1,,,,,コウキョウケンセツ,0
807,4020001157024,新規,0,2024-04-25,2024-04-25,株式会社カヴァロ,,株式会社,神奈川県,川崎市川崎区,駅前本町２３番地６ロワールガーデン川崎駅前１０１,,14,131,2100007,,,,,,,2024-04-25,1,,,,,カヴァロ,0
809,4020003025963,新規,0,2024-04-25,2024-04-25,合同会社ゆうゆう,,合同会社,神奈川県,横浜市中区,山元町２丁目１１３番地,,14,104,2310851,,,,,,,2024-04-25,1,,,,,ユウユウ,0
814,4021001082096,新規,0,2024-04-25,2024-04-25,ＢＲＩＤＧＥ株式会社,,株式会社,神奈川県,横須賀市,三春町２丁目１番地４,,14,201,2380014,,,,,,,2024-04-25,1,,,,,ブリッジ,0
819,4030001159993,新規,0,2024-04-25,2024-04-25,株式会社Ｔ‐１１,,株式会社,埼玉県,川越市,大字砂１３番１号,,11,201,3501133,,,,,,,2024-04-25,1,,,,,ティーイレブン,0
820,4030001160010,新規,0,2024-04-25,2024-04-25,株式会社ちゅらＨＯＭＥ,,株式会社,埼玉県,三郷市,上彦名１７９番地３琳玲ビル３０２,,11,237,3410004,,,,,,,2024-04-25,1,,,,,チュラホーム,0
821,4030001160019,新規,0,2024-04-25,2024-04-25,株式会社Ｒ．Ｈ　Ｉｎｔｅｒｎａｔｉｏｎａｌ,,株式会社,埼玉県,草加市,新里町１０９１番地,,11,221,3400031,,,,,,,2024-04-25,1,,,,,アールエイチインターナショナル,0
835,4050003008313,新規,0,2024-04-25,2024-04-25,合同会社ＣＲＯＷＮ　ＪＡＰＡＮ,,合同会社,茨城県,取手市,戸頭１０７２－４,,08,217,3020034,,,,,,,2024-04-25,1,,,,,クラウンジャパン,0
839,4060001037032,新規,0,2024-04-25,2024-04-25,株式会社鍋山鉱山,,株式会社,栃木県,栃木市,皆川城内町１８３３番地,,09,203,3280067,,,,,,,2024-04-25,1,,,,,ナベヤマコウザン,0
847,4070001041677,新規,0,2024-04-25,2024-04-25,京田産業株式会社,,株式会社,群馬県,高崎市,並榎町１４１番地１,,10,202,3700802,,,,,,,2024-04-25,1,,,,,キョウダサンギョウ,0
849,4070003005390,新規,0,2024-04-25,2024-04-25,合同会社２１３,,合同会社,群馬県,沼田市,久屋原町４９番地１２,,10,206,3780005,,,,,,,2024-04-25,1,,,,,ニイチサン,0
871,4120001264090,新規,0,2024-04-25,2024-04-25,株式会社ＦＩＺ,,株式会社,大阪府,大阪市西成区,橘１丁目１１－２８オフィスポート橘４１３号室,,27,122,5570051,,,,,,,2024-04-25,1,,,,,エフアイゼット,0
872,4120001264099,新規,0,2024-04-25,2024-04-25,小井株式会社,,株式会社,大阪府,大阪市大正区,小林東２丁目９番５号３０５号,,27,108,5510011,,,,,,,2024-04-25,1,,,,,コセイ,0
873,4120001264248,新規,0,2024-04-25,2024-04-25,株式会社前ＪＯＴ,,株式会社,大阪府,大阪市生野区,舎利寺２丁目８番２５－１０２号,,27,116,5440022,,,,,,,2024-04-25,1,,,,,ゼンジョット,0
874,4120001264330,新規,0,2024-04-25,2024-04-25,株式会社サウンドサクセス,,株式会社,大阪府,大阪市城東区,放出西１丁目８番１２号,,27,118,5360011,,,,,,,2024-04-25,1,,,,,サウンドサクセス,0
875,4120001264363,新規,0,2024-04-25,2024-04-25,株式会社九源,,株式会社,大阪府,大阪市中央区,島之内２丁目２番５－６０３号,,27,128,5420082,,,,,,,2024-04-25,1,,,,,クゲン,0
880,4120101069480,新規,0,2024-04-25,2024-04-25,株式会社ＭＩＣＨＩオートメーション,,株式会社,大阪府,堺市中区,大野芝町２０４番地２２,,27,142,5998233,,,,,,,2024-04-25,1,,,,,ミチオートメーション,0
884,4120901049095,新規,0,2024-04-25,2024-04-25,ＢＯＡＮ株式会社,,株式会社,大阪府,豊中市,新千里南町２丁目１１番５－１０３号,,27,203,5600084,,,,,,,2024-04-25,1,,,,,ボアン,0
887,4130001076915,新規,0,2024-04-25,2024-04-25,株式会社ＲＡＩ　ＣＲＥＡＴＥ,,株式会社,京都府,京都市南区,東九条宇賀辺町６５番地河原町ライビル１Ｆ,,26,107,6018021,,,,,,,2024-04-25,1,,,,,ライクリエイト,0
888,4130001076931,新規,0,2024-04-25,2024-04-25,株式会社ミプマ,,株式会社,京都府,京都市下京区,七条通油小路東入大黒町２２７番地第２キョートビル４０２,,26,106,6008223,,,,,,,2024-04-25,1,,,,,ミプマ,0
892,4130003009484,新規,0,2024-04-25,2024-04-25,合同会社ＫＯＴＡＴＳＵＨＡＮ,,合同会社,京都府,京都市下京区,七条通油小路東入大黒町２２７番地第２キョートビル４０２,,26,106,6008223,,,,,,,2024-04-25,1,,,,,コタツハン,0
894,4140001134218,新規,0,2024-04-25,2024-04-25,株式会社キャストベース,,株式会社,兵庫県,神戸市兵庫区,下沢通２丁目３－９,,28,105,6520047,,,,,,,2024-04-25,1,,,,,キャストベース,0
909,4180001161101,新規,0,2024-04-25,2024-04-25,株式会社想温,,株式会社,愛知県,津島市,神尾町字西之割９３番地,,23,208,4960013,,,,,,,2024-04-25,1,,,,,シオン,0
910,4180001161118,新規,0,2024-04-25,2024-04-25,ＩＰ技研株式会社,,株式会社,愛知県,名古屋市中川区,野田１丁目４８８番地の１,,23,110,4540912,,,,,,,2024-04-25,1,,,,,アイピーギケン,0
911,4180001161142,新規,0,2024-04-25,2024-04-25,株式会社ＢＡＯ,,株式会社,愛知県,名古屋市東区,東桜２丁目３番７号東カン名古屋キャステール１１４５号,,23,102,4610005,,,,,,,2024-04-25,1,,,,,ビーエイオー,0
912,4180001161167,新規,0,2024-04-25,2024-04-25,株式会社Ｆプラス,,株式会社,愛知県,日進市,藤枝町小六田２１７番地１,,23,230,4700112,,,,,,,2024-04-25,1,,,,,エフプラス,0
918,4180003026681,新規,0,2024-04-25,2024-04-25,ＵＳＩＳ合同会社,,合同会社,愛知県,名古屋市中村区,道下町４丁目１４プチマンション日赤東４Ｃ,,23,105,4530046,,,,,,,2024-04-25,1,,,,,ユエスアイエス,0
928,4240001063126,新規,0,2024-04-25,2024-04-25,ＹＫ株式会社,,株式会社,広島県,呉市,下蒲刈町下島１４５９番地,,34,202,7370303,,,,,,,2024-04-25,1,,,,,ワイケー,0
934,4260001039000,新規,0,2024-04-25,2024-04-25,株式会社羽原工業,,株式会社,岡山県,瀬戸内市,長船町福岡９８２番地４,,33,212,7014265,,,,,,,2024-04-25,1,,,,,ハバラコウギョウ,0
939,4290801030519,新規,0,2024-04-25,2024-04-25,株式会社幸栄工業,,株式会社,福岡県,北九州市小倉北区,大田町１４番１５－２０３号,,40,106,8020015,,,,,,,2024-04-25,1,,,,,コウエイコウギョウ,0
943,4290803004693,新規,0,2024-04-25,2024-04-25,ユニコーン合同会社,,合同会社,福岡県,宮若市,宮田３４６７,,40,226,8230011,,,,,,,2024-04-25,1,,,,,ユニコーン,0
944,4290803004702,新規,0,2024-04-25,2024-04-25,ＰＭＭ合同会社,,合同会社,福岡県,北九州市若松区,今光２丁目２５番３６号,,40,103,8080071,,,,,,,2024-04-25,1,,,,,ピーエムエム,0
945,4300001013710,新規,0,2024-04-25,2024-04-25,株式会社ＰＡＲＫＳ,,株式会社,佐賀県,嬉野市,嬉野町大字下宿甲２３０５番地５,,41,209,8430301,,,,,,,2024-04-25,1,,,,,パークス,0
947,4320001020424,新規,0,2024-04-25,2024-04-25,株式会社蛍茶園,,株式会社,大分県,中津市,耶馬溪町大字金吉３７１３番地,,44,203,8710432,,,,,,,2024-04-25,1,,,,,ホタルチャエン,0
960,4350003004629,新規,0,2024-04-25,2024-04-25,合同会社種の和,,合同会社,宮崎県,都城市,吉之元町５１８６番地１４,,45,202,8850223,,,,,,,2024-04-25,1,,,,,タネノワ,0
967,4370202003875,新規,0,2024-04-25,2024-04-25,有限会社加美環境衛生センター,,有限会社,宮城県,加美郡色麻町,四竈字町東７３番地の６,,04,444,9814100,,,,,,,2024-04-25,1,,,,,カミカンキョウエイセイセンター,0
972,4380001034476,新規,0,2024-04-25,2024-04-25,株式会社傘とＲＡＩＮ,,株式会社,福島県,いわき市,好間町中好間字上川原４７番地の９,,07,204,9701152,,,,,,,2024-04-25,1,,,,,カサトレイン,0
979,4410001013815,新規,0,2024-04-25,2024-04-25,株式会社阿部商事,,株式会社,秋田県,大仙市,寺館字三ツ谷２８番地,,05,212,0192123,,,,,,,2024-04-25,1,,,,,アベショウジ,0
989,4430001091660,新規,0,2024-04-25,2024-04-25,ＡＲＵＭ株式会社,,株式会社,北海道,札幌市中央区,南八条西１丁目５番４号リッツグランデ中島公園４０２号,,01,101,0640808,,,,,,,2024-04-25,1,,,,,アルム,0
990,4430003016228,新規,0,2024-04-25,2024-04-25,北海道アグリフューチャー合同会社,,合同会社,北海道,札幌市豊平区,月寒東二条３丁目３－１６ライフコート月寒２０３号室,,01,105,0620052,,,,,,,2024-04-25,1,,,,,ホッカイドウアグリフューチャー,0
991,4430003016252,新規,0,2024-04-25,2024-04-25,合同会社ｓｅｋｉｒｅｎ,,合同会社,北海道,札幌市中央区,南十七条西１７丁目２番６－２０３号,,01,101,0640917,,,,,,,2024-04-25,1,,,,,セキレン,0
992,4430003016260,新規,0,2024-04-25,2024-04-25,合同会社山環社,,合同会社,北海道,千歳市,駒里４９１番５１８,,01,224,0660011,,,,,,,2024-04-25,1,,,,,ヤマノワシャ,0
995,4430005014972,新規,0,2024-04-25,2024-04-25,農事組合法人斎藤ファーム,,その他の設立登記法人,北海道,札幌市北区,北二十五条西１３丁目６番５号,,01,102,0010025,,,,,,,2024-04-25,1,,,,,サイトウファーム,0
996,4450003002473,新規,0,2024-04-25,2024-04-25,合同会社ササヤ,,合同会社,北海道,利尻郡利尻町,沓形字富士見町７５番地,,01,518,0970401,,,,,,,2024-04-25,1,,,,,ササヤ,0
999,4470003002629,新規,0,2024-04-25,2024-04-25,合同会社Ｃｒａｂ　ｈｏｕｓｅ,,合同会社,香川県,三豊市,三野町大見甲５９番地５,,37,208,7670031,,,,,,,2024-04-25,1,,,,,クラブハウス,0
1001,4480001012455,新規,0,2024-04-25,2024-04-25,田中建設工業株式会社,,株式会社,徳島県,名西郡石井町,高川原字高川原１８２８番地２,,36,341,7793223,,,,,,,2024-04-25,1,,,,,タナカケンセツコウギョウ,0
1006,4500005008703,新規,0,2024-04-25,2024-04-25,ＮＰＯ法人だんだんのわ,,その他の設立登記法人,愛媛県,松山市,平井町甲３６０７番地７,,38,201,7910243,,,,,,,2024-04-25,1,,,,,ダンダンノワ,0
1008,4700150125118,新規,0,2024-04-25,2024-04-25,長野立町区,,その他,長野県,長野市,大字長野立町９８１－１,,20,201,3800864,,,,,,,2024-04-25,1,,,,,ナガノタツマチク,0
1017,5010001244342,新規,0,2024-04-25,2024-04-25,株式会社Ａｒｏｕｎｄ　Ｕｓ,,株式会社,東京都,中央区,銀座６丁目１３番１６号銀座ＷａｌｌビルＵＣＦ５階,,13,102,1040061,,,,,,,2024-04-25,1,,,,,アラウンドアス,0
1018,5010001244367,新規,0,2024-04-25,2024-04-25,株式会社ハーモニー,,株式会社,東京都,文京区,西片２丁目１８－２５,,13,105,1130024,,,,,,,2024-04-25,1,,,,,ハーモニー,0
1020,5010003043569,新規,0,2024-04-25,2024-04-25,Ｏｓａｋａ２合同会社,,合同会社,東京都,千代田区,霞が関３丁目２番６号東京倶楽部ビルディング１１階,,13,101,1000013,,,,,,,2024-04-25,1,,,,,オオサカツー,0
1021,5010003043602,新規,0,2024-04-25,2024-04-25,合同会社首都圏レジ開発サードプロジェクト,,合同会社,東京都,千代田区,平河町１丁目６番１５号シルスフィア会計事務所内,,13,101,1020093,,,,,,,2024-04-25,1,,,,,シュトケンレジカイハツサードプロジェクト,0
1022,5010101016113,新規,0,2024-04-25,2024-04-25,株式会社ｃｌｉｍｂ,,株式会社,東京都,八王子市,滝山町２丁目５０３番地１,,13,201,1920011,,,,,,,2024-04-25,1,,,,,クライム,0
1026,5010401182019,新規,0,2024-04-25,2024-04-25,株式会社ＧＯＨＯ,,株式会社,東京都,港区,六本木４丁目３番１１号六本木ユニハウス２１７,,13,103,1060032,,,,,,,2024-04-25,1,,,,,ゴホ,0
1027,5010401182068,新規,0,2024-04-25,2024-04-25,株式会社Ｕｎｉｑｕｅ,,株式会社,東京都,港区,高輪１丁目５番４号グランドメゾン白金高輪パークフロント５０２,,13,103,1080074,,,,,,,2024-04-25,1,,,,,ユニーク,0
1031,5010403032469,新規,0,2024-04-25,2024-04-25,合同会社ＬａｕｇｈＲａｌｌｙ,,合同会社,東京都,港区,南青山２丁目２番１５号,,13,103,1070062,,,,,,,2024-04-25,1,,,,,ラフラリー,0
1032,5010403032477,新規,0,2024-04-25,2024-04-25,合同会社Ｋ＆Ｔ,,合同会社,東京都,港区,赤坂６丁目１０番３９号ソフトタウン赤坂２１３,,13,103,1070052,,,,,,,2024-04-25,1,,,,,ケイアンドティ,0
1033,5010403032493,新規,0,2024-04-25,2024-04-25,ＰＪＭＦ　Ａｎｔａｒｅｓ合同会社,,合同会社,東京都,港区,元赤坂１丁目１番７－８０７号,,13,103,1070051,,,,,,,2024-04-25,1,,,,,ピージェイエムエフアンタレス,0
1034,5010405023160,新規,0,2024-04-25,2024-04-25,一般社団法人刑事事象解析研究所,,その他の設立登記法人,東京都,港区,高輪１丁目１９番１１号,,13,103,1080074,,,,,,,2024-04-25,1,,,,,ケイジジショウカイセキケンキュウジョ,0
1042,5010901055129,新規,0,2024-04-25,2024-04-25,株式会社未来舎,,株式会社,東京都,世田谷区,大蔵６丁目１７番８－６号,,13,112,1570074,,,,,,,2024-04-25,1,,,,,ミライシャ,0
1044,5010903008992,新規,0,2024-04-25,2024-04-25,ＲＩＳＥ　ＢＲＡＮＤＩＮＧ合同会社,,合同会社,東京都,世田谷区,鎌田３丁目６－１３,,13,112,1570077,,,,,,,2024-04-25,1,,,,,ライズブランディング,0
1053,5011001161569,新規,0,2024-04-25,2024-04-25,株式会社カラフル,,株式会社,東京都,渋谷区,神宮前６丁目２３番４号桑野ビル２階,,13,113,1500001,,,,,,,2024-04-25,1,,,,,カラフル,0
1057,5011401026041,新規,0,2024-04-25,2024-04-25,株式会社ルカ,,株式会社,東京都,板橋区,東新町２丁目１３番１８号,,13,119,1740074,,,,,,,2024-04-25,1,,,,,ルカ,0
1064,5011501030570,新規,0,2024-04-25,2024-04-25,株式会社フラワー,,株式会社,東京都,北区,赤羽１丁目３９－５－４０６号,,13,117,1150045,,,,,,,2024-04-25,1,,,,,フラワー,0
1066,5011603004316,新規,0,2024-04-25,2024-04-25,合同会社ＴＦグザイ,,合同会社,東京都,練馬区,氷川台４丁目４７番１８号,,13,120,1790084,,,,,,,2024-04-25,1,,,,,ティーエフグザイ,0
1070,5011701027235,新規,0,2024-04-25,2024-04-25,東京シスプロ株式会社,,株式会社,東京都,江戸川区,中央３丁目２４番１６号,,13,123,1320021,,,,,,,2024-04-25,1,,,,,トウキョウシスプロ,0
1074,5011801044155,新規,0,2024-04-25,2024-04-25,株式会社夢キッチン,,株式会社,東京都,葛飾区,白鳥４丁目７番１８号,,13,122,1250063,,,,,,,2024-04-25,1,,,,,ユメキッチン,0
1078,5012703002969,新規,0,2024-04-25,2024-04-25,合同会社ＳＴＯＲＭ,,合同会社,東京都,東村山市,萩山町２丁目２番地萩山団地８－９１５,,13,213,1890012,,,,,,,2024-04-25,1,,,,,ストーム,0
1081,5013301052407,新規,0,2024-04-25,2024-04-25,日本保利不動産株式会社,,株式会社,東京都,豊島区,東池袋１丁目３１番１０－１２０９号,,13,116,1700013,,,,,,,2024-04-25,1,,,,,ニホンホリフドウサン,0
1082,5013301052423,新規,0,2024-04-25,2024-04-25,株式会社ＳＲＢ,,株式会社,東京都,豊島区,東池袋３丁目１番２号,,13,116,1700013,,,,,,,2024-04-25,1,,,,,エスアールビー,0
1083,5013303007111,新規,0,2024-04-25,2024-04-25,ＩｎｔｅｒＡｍｅｒｉｃａ　Ｓｔａｇｅ　Ｔｏｋｙｏ合同会社,,合同会社,東京都,豊島区,東池袋３丁目１番１号サンシャイン６０・４５階,,13,116,1700013,,,,,,,2024-04-25,1,,,,,インターアメリカステージトーキョー,0
1089,5020001156818,新規,0,2024-04-25,2024-04-25,株式会社フォレスト,,株式会社,神奈川県,川崎市高津区,溝口３丁目７番１号,,14,134,2130001,,,,,,,2024-04-25,1,,,,,フォレスト,0
1091,5020003025979,新規,0,2024-04-25,2024-04-25,合同会社はやたか,,合同会社,神奈川県,横浜市都筑区,茅ケ崎中央９番１４号ライオンズステージ港北セントアリーナ１階,,14,118,2240032,,,,,,,2024-04-25,1,,,,,ハヤタカ,0
1095,5021003014435,新規,0,2024-04-25,2024-04-25,合同会社アンカー,,合同会社,神奈川県,鎌倉市,二階堂１５番－４,,14,204,2480002,,,,,,,2024-04-25,1,,,,,アンカー,0
1100,5030001159984,新規,0,2024-04-25,2024-04-25,株式会社フッケン,,株式会社,埼玉県,八潮市,大字木曽根１４６８－３,,11,234,3400813,,,,,,,2024-04-25,1,,,,,フッケン,0
1101,5030001159992,新規,0,2024-04-25,2024-04-25,株式会社Ｓａｃｈｉ,,株式会社,埼玉県,川越市,的場新町５番地１（堅木貸家Ｃ棟）,,11,201,3501107,,,,,,,2024-04-25,1,,,,,サチ,0
1102,5030001160026,新規,0,2024-04-25,2024-04-25,ホサナ産業株式会社,,株式会社,埼玉県,鴻巣市,赤見台２丁目１番１０－４０６号,,11,217,3650064,,,,,,,2024-04-25,1,,,,,ホサナサンギョウ,0
1103,5030001160067,新規,0,2024-04-25,2024-04-25,株式会社ミズホエンタープライズ,,株式会社,埼玉県,三郷市,彦沢１丁目３１番地,,11,237,3410057,,,,,,,2024-04-25,1,,,,,ミズホエンタープライズ,0
1105,5030003024170,新規,0,2024-04-25,2024-04-25,合同会社Ｂ　Ｌａｂ,,合同会社,埼玉県,春日部市,八丁目２７１番地,,11,214,3440006,,,,,,,2024-04-25,1,,,,,ビーラボ,0
1120,5060003005052,新規,0,2024-04-25,2024-04-25,合同会社えりあ,,合同会社,栃木県,栃木市,大平町西水代１８３７番地１,,09,203,3294423,,,,,,,2024-04-25,1,,,,,エリア,0
1124,5070001041676,新規,0,2024-04-25,2024-04-25,株式会社大橋化成商事,,株式会社,群馬県,伊勢崎市,東町２５０２番地１２,,10,204,3792231,,,,,,,2024-04-25,1,,,,,オオハシカセイショウジ,0
1132,5100003007515,新規,0,2024-04-25,2024-04-25,合同会社涼乃音,,合同会社,長野県,塩尻市,大字広丘原新田２１５番地１６,,20,215,3990706,,,,,,,2024-04-25,1,,,,,スズノネ,0
1141,5120001264164,新規,0,2024-04-25,2024-04-25,株式会社ＴＵＬＩＰプロパティ,,株式会社,大阪府,大阪市北区,西天満４丁目６番３号ヴェール中之島北８０１,,27,127,5300047,,,,,,,2024-04-25,1,,,,,チューリッププロパティ,0
1142,5120001264338,新規,0,2024-04-25,2024-04-25,株式会社ＴＲＭ,,株式会社,大阪府,枚方市,氷室台１丁目２４番２号,,27,210,5730115,,,,,,,2024-04-25,1,,,,,ティーアールエム,0
1146,5120901049094,新規,0,2024-04-25,2024-04-25,株式会社テックブリッジ,,株式会社,大阪府,豊中市,北条町２丁目４番１３号,,27,203,5610812,,,,,,,2024-04-25,1,,,,,テックブリッジ,0
1152,5130001076914,新規,0,2024-04-25,2024-04-25,株式会社Ｌｉｂｅｒｉｓｅ,,株式会社,京都府,京都市上京区,新町通丸太町上る春帯町３５０機関誌会館ビル１階フィオレット内,,26,102,6028026,,,,,,,2024-04-25,1,,,,,リベライズ,0
1153,5130001076922,新規,0,2024-04-25,2024-04-25,株式会社ぱっずはうす,,株式会社,京都府,京都市北区,紫野南舟岡町８２番地３,,26,101,6038225,,,,,,,2024-04-25,1,,,,,パッズハウス,0
1155,5130003009491,新規,0,2024-04-25,2024-04-25,合同会社Ｙ２ＳＫ,,合同会社,京都府,宇治市,五ケ庄瓦塚３０番地１５,,26,204,6110011,,,,,,,2024-04-25,1,,,,,ワイツーエスケー,0
1156,5130003009500,新規,0,2024-04-25,2024-04-25,合同会社ＥＲＮＥＳＴ,,合同会社,京都府,京都市上京区,烏丸通鞍馬口下る東入上御霊中町４５１番地１プレミスト京都烏丸鞍馬口２１９,,26,102,6020894,,,,,,,2024-04-25,1,,,,,エルネスト,0
1160,5140001134225,新規,0,2024-04-25,2024-04-25,株式会社あかがねびと,,株式会社,兵庫県,神戸市長田区,日吉町３丁目１番３８－５０２号,,28,106,6530039,,,,,,,2024-04-25,1,,,,,アカガネビト,0
1161,5140003020489,新規,0,2024-04-25,2024-04-25,合同会社ＴＳソフト,,合同会社,兵庫県,伊丹市,伊丹３丁目４番３号,,28,207,6640846,,,,,,,2024-04-25,1,,,,,ティーエスソフト,0
1163,5140005027061,新規,0,2024-04-25,2024-04-25,医療法人社団さくら内科クリニック,,その他の設立登記法人,兵庫県,加東市,下久米５８０番地１,,28,228,6731415,,,,,,,2024-04-25,1,,,,,サクラナイカクリニック,0
1169,5180001161100,新規,0,2024-04-25,2024-04-25,株式会社ｌｏｋｉアシスト,,株式会社,愛知県,名古屋市守山区,森孝１丁目９０５番地（グランデクイーン２１０号）,,23,113,4630035,,,,,,,2024-04-25,1,,,,,ロキアシスト,0
1170,5180001161117,新規,0,2024-04-25,2024-04-25,Ｓｙｉｎｃ株式会社,,株式会社,愛知県,名古屋市中村区,名駅３丁目４番１０号アルティメイト名駅１ｓｔ２階,,23,105,4500002,,,,,,,2024-04-25,1,,,,,シンク,0
1171,5180001161158,新規,0,2024-04-25,2024-04-25,ＡＩＡパートナーズ株式会社,,株式会社,愛知県,名古屋市中川区,西日置１丁目１番３号木全ビル５階Ｃ室,,23,110,4540004,,,,,,,2024-04-25,1,,,,,エーアイエーパートナーズ,0
1183,5200001042438,新規,0,2024-04-25,2024-04-25,株式会社Ｋ２,,株式会社,岐阜県,土岐市,土岐津町土岐口７０７番地の２,,21,212,5095122,,,,,,,2024-04-25,1,,,,,ケーツー,0
1185,5200003006325,新規,0,2024-04-25,2024-04-25,オーアイシー合同会社,,合同会社,岐阜県,郡上市,大和町万場１５５０番地２,,21,219,5014611,,,,,,,2024-04-25,1,,,,,オーアイシー,0
1188,5220001025969,新規,0,2024-04-25,2024-04-25,順華株式会社,,株式会社,石川県,金沢市,北間町ホ１８１番地３,,17,201,9200212,,,,,,,2024-04-25,1,,,,,ジュンカ,0
1193,5230003002180,新規,0,2024-04-25,2024-04-25,ｐｌｕｓ　Ｌｉｂｅｒｔｙ合同会社,,合同会社,富山県,富山市,長江本町一丁目２８番ヴァーチュオーゾ１０６号,,16,201,9300962,,,,,,,2024-04-25,1,,,,,プラスリバティ,0
1194,5230003002197,新規,0,2024-04-25,2024-04-25,Ｒｉｖｅｒ　Ｆｉｅｌｄ合同会社,,合同会社,富山県,高岡市,福岡町本領７３６番地,,16,202,9390135,,,,,,,2024-04-25,1,,,,,リバーフィールド,0
1198,5240001063125,新規,0,2024-04-25,2024-04-25,株式会社Ｌ．Ａ．Ｃ,,株式会社,広島県,福山市,西町１丁目１番１号１ＦｉｃｈｉＳＥＴＯＵＣＨＩ内コワーキングスペースｔｏｖｉｏ,,34,207,7200067,,,,,,,2024-04-25,1,,,,,エルエーシー,0
1199,5240001063133,新規,0,2024-04-25,2024-04-25,ＬＵＳＨ株式会社,,株式会社,広島県,福山市,神辺町字湯野１４４２番地７６,,34,207,7202121,,,,,,,2024-04-25,1,,,,,ラッシュ,0
1204,5250001020629,新規,0,2024-04-25,2024-04-25,株式会社うみまちスタイル,,株式会社,山口県,下関市,豊北町大字神田１４７６番地２,,35,201,7595331,,,,,,,2024-04-25,1,,,,,ウミマチスタイル,0
1215,5320001020423,新規,0,2024-04-25,2024-04-25,株式会社Ｕｌｔｒａ‐Ｈｉｇｈ　Ｐｕｒｉｔｙ,,株式会社,大分県,大分市,向原西１丁目７番地１７,,44,201,8700905,,,,,,,2024-04-25,1,,,,,ウルトラハイプリティ,0
1216,5320003004341,新規,0,2024-04-25,2024-04-25,合同会社ＪＵＮ　ＰＬＡＮＮＩＮＧ,,合同会社,大分県,由布市,湯布院町川上３７２２番地１,,44,213,8795102,,,,,,,2024-04-25,1,,,,,ジュンプラニング,0
1217,5320003004358,新規,0,2024-04-25,2024-04-25,Ｆｒｅｅｂｉｒｄ合同会社,,合同会社,大分県,豊後大野市,三重町菅生１１０５－１,,44,212,8797102,,,,,,,2024-04-25,1,,,,,フリーバード,0
1224,5340002028694,新規,0,2024-04-25,2024-04-25,宮内商事有限会社,,有限会社,鹿児島県,霧島市,隼人町内山田２２１６番地,,46,218,8995106,,,,,,,2024-04-25,1,,,,,ミヤウチショウジ,0
1230,5360001033578,新規,0,2024-04-25,2024-04-25,株式会社Ｗｅｌｌ　Ｂｅｉｎｇ　Ｌａｂ,,株式会社,沖縄県,那覇市,久茂地１丁目１番１号９Ｆ,,47,201,9000015,,,,,,,2024-04-25,1,,,,,ウェルビーイングラボ,0
1237,5380005012824,新規,0,2024-04-25,2024-04-25,ＮＰＯ法人ＡＭＲ,,その他の設立登記法人,福島県,南会津郡南会津町,田島字宮本東３３番地１,,07,368,9670004,,,,,,,2024-04-25,1,,,,,エーエムアール,0
1243,5420003002913,新規,0,2024-04-25,2024-04-25,合同会社ものの芽舎,,合同会社,青森県,青森市,花園１丁目１番２０号,,02,201,0300966,,,,,,,2024-04-25,1,,,,,モノノメシャ,0
1248,5430001091627,新規,0,2024-04-25,2024-04-25,レオレオン株式会社,,株式会社,北海道,札幌市北区,新琴似一条８丁目２０番１号,,01,102,0010901,,,,,,,2024-04-25,1,,,,,レオレオン,0
1250,5430005014963,新規,0,2024-04-25,2024-04-25,一般社団法人愛玩動物事業者協会,,その他の設立登記法人,北海道,札幌市東区,北三十五条東２７丁目２番３号,,01,103,0070835,,,,,,,2024-04-25,1,,,,,アイガンドウブツジギョウシャキョウカイ,0
1251,5460101007538,新規,0,2024-04-25,2024-04-25,株式会社チャート,,株式会社,北海道,帯広市,西十六条南３６丁目１番２６号,,01,207,0800026,,,,,,,2024-04-25,1,,,,,チャート,0
1254,5500005008702,新規,0,2024-04-25,2024-04-25,一般社団法人地球の上に生きる,,その他の設立登記法人,愛媛県,松山市,二番町２丁目４番地１５号ＧＸビル２Ｆ,,38,201,7900002,,,,,,,2024-04-25,1,,,,,チキュウノウエニイキル,0
1255,5700150124548,新規,0,2024-04-25,2024-04-25,Ｙｏｒｋ　Ｔｅｌｅｃｏｍ　Ｃｏｒｐｏｒａｔｉｏｎ,,外国会社等,,,,,,,,８１　Ｃｏｒｂｅｔｔ　Ｗａｙ，Ｅａｔｏｎｔｏｗｎ　ＮＪ　０７７２４,,,,,,2024-04-25,1,,,,,ヨークテレコムコーポレーシヨン,0
1256,5700150125117,新規,0,2024-04-25,2024-04-25,Ｇｒｏｓｖｅｎｏｒ　Ａｓｉａ　Ｐａｃｉｆｉｃ　Ｌｉｍｉｔｅｄ,,外国会社等,,,,,,,,５／Ｆ　Ｍａｎｕｌｉｆｅ　Ｐｌａｃｅ　３４８　Ｋｗｕｎ　Ｔｏｎｇ　Ｒｏａｄ　ＫＬ,,,,,,2024-04-25,1,,,,,グロブナーアジアパシフイツクリミテツド,0
1265,6010001244300,新規,0,2024-04-25,2024-04-25,株式会社Ｔｏｏｎ　Ｂｏｏｍ　Ａｎｉｍａｔｉｏｎ,,株式会社,東京都,中央区,日本橋３丁目７番７号小村ビル５階,,13,102,1030027,,,,,,,2024-04-25,1,,,,,トゥーンブームアニメーション,0
1266,6010001244309,新規,0,2024-04-25,2024-04-25,株式会社ＮＧＣダイニング,,株式会社,東京都,中央区,銀座６丁目１０番１号ＧＩＮＺＡＳＩＸ１３Ｆ,,13,102,1040061,,,,,,,2024-04-25,1,,,,,エヌジーシーダイニング,0
1267,6010001244325,新規,0,2024-04-25,2024-04-25,株式会社照隅,,株式会社,東京都,文京区,根津１丁目１番２１号,,13,105,1130031,,,,,,,2024-04-25,1,,,,,テルスミ,0
1269,6010003043502,新規,0,2024-04-25,2024-04-25,ＴｅｒｒａＣｏｎｎｅｃｔ合同会社,,合同会社,東京都,中央区,銀座１丁目１２番４号Ｎ＆ＥＢＬＤ．６階,,13,102,1040061,,,,,,,2024-04-25,1,,,,,テラコネクト,0
1270,6010003043568,新規,0,2024-04-25,2024-04-25,パフォーマンス・アクセル合同会社,,合同会社,東京都,中央区,銀座１丁目１２番４号Ｎ＆Ｅ．ＢＬＤ．６Ｆ,,13,102,1040061,,,,,,,2024-04-25,1,,,,,パフォーマンスアクセル,0
1271,6010003043601,新規,0,2024-04-25,2024-04-25,合同会社首都圏レジ開発セカンドプロジェクト,,合同会社,東京都,千代田区,平河町１丁目６番１５号シルスフィア会計事務所内,,13,101,1020093,,,,,,,2024-04-25,1,,,,,シュトケンレジカイハツセカンドプロジェクト,0
1276,6010401181762,新規,0,2024-04-25,2024-04-25,株式会社再春館共創ラボラトリー,,株式会社,東京都,港区,高輪４丁目１０－５８－１Ｆ,,13,103,1080074,,,,,,,2024-04-25,1,,,,,サイシュンカンキョウソウラボラトリー,0
1277,6010401182001,新規,0,2024-04-25,2024-04-25,励冷株式会社,,株式会社,東京都,港区,高輪２丁目１２番４７号,,13,103,1080074,,,,,,,2024-04-25,1,,,,,レイレイ,0
1278,6010401182075,新規,0,2024-04-25,2024-04-25,プロスペクト不動産株式会社,,株式会社,東京都,港区,赤坂９丁目２番１４－４１０号,,13,103,1070052,,,,,,,2024-04-25,1,,,,,プロスペクトフドウサン,0
1279,6010401182083,新規,0,2024-04-25,2024-04-25,株式会社ＫＥＭＢＯ　ＪＡＰＡＮ,,株式会社,東京都,港区,浜松町２丁目２番１５号浜松町ダイヤビル２Ｆ,,13,103,1050013,,,,,,,2024-04-25,1,,,,,ケンボージャパン,0
1281,6010501052095,新規,0,2024-04-25,2024-04-25,株式会社Ｆｅｉ　Ｔｅｎｇ　Ｓｔｕｄｉｏ,,株式会社,東京都,台東区,東上野６丁目１番１７号東上野中央ビル２０５号室,,13,106,1100015,,,,,,,2024-04-25,1,,,,,フェイテンスタジオ,0
1290,6010701045898,新規,0,2024-04-25,2024-04-25,株式会社胡桃の木,,株式会社,東京都,品川区,東大井２丁目２３番１号名人亭ビル２階,,13,109,1400011,,,,,,,2024-04-25,1,,,,,クルミノキ,0
1309,6011001161592,新規,0,2024-04-25,2024-04-25,株式会社東京ひかり不動産,,株式会社,東京都,渋谷区,代々木１丁目５５番１４号セントヒルズ代々木５０２号室,,13,113,1510053,,,,,,,2024-04-25,1,,,,,トウキョウヒカリフドウサン,0
1311,6011003018980,新規,0,2024-04-25,2024-04-25,合同会社ＫｅｙＥｘｐｒｅｓｓ,,合同会社,東京都,渋谷区,渋谷２丁目１９－１５宮益坂ビルディング６０９,,13,113,1500002,,,,,,,2024-04-25,1,,,,,キーエキスプレス,0
1312,6011003019013,新規,0,2024-04-25,2024-04-25,合同会社Ｔｈｒｅｓｈｏｌｄ,,合同会社,東京都,渋谷区,渋谷２丁目１９番１５号宮益坂ビルディング６０９,,13,113,1500002,,,,,,,2024-04-25,1,,,,,スレッシュホールド,0
1318,6011103014368,新規,0,2024-04-25,2024-04-25,エリコ合同会社,,合同会社,東京都,新宿区,大久保３丁目１番３号,,13,104,1690072,,,,,,,2024-04-25,1,,,,,エリコ,0
1319,6011201006878,新規,0,2024-04-25,2024-04-25,株式会社ハウジングメッツ,,株式会社,東京都,中野区,弥生町５丁目２７番１号,,13,114,1640013,,,,,,,2024-04-25,1,,,,,ハウジングメッツ,0
1323,6011505002623,新規,0,2024-04-25,2024-04-25,一般社団法人日中経済文化友好促進会,,その他の設立登記法人,東京都,北区,赤羽２丁目４番９号東拓ビル,,13,117,1150045,,,,,,,2024-04-25,1,,,,,ニッチュウケイザイブンカユウコウソクシンカイ,0
1324,6011603004315,新規,0,2024-04-25,2024-04-25,合同会社ＴＦロー,,合同会社,東京都,練馬区,氷川台４丁目４７番１８号,,13,120,1790084,,,,,,,2024-04-25,1,,,,,ティーエフロー,0
1325,6011603004331,新規,0,2024-04-25,2024-04-25,合同会社アラジン企画,,合同会社,東京都,練馬区,練馬２丁目３４番２１号,,13,120,1760001,,,,,,,2024-04-25,1,,,,,,0
1331,6011701027218,新規,0,2024-04-25,2024-04-25,株式会社ブルズ,,株式会社,東京都,江戸川区,大杉２丁目１３番１３号,,13,123,1320022,,,,,,,2024-04-25,1,,,,,ブルズ,0
1337,6012701018223,新規,0,2024-04-25,2024-04-25,株式会社Ｔｒｕｓｔ＆Ｕｎｉｔｙ,,株式会社,東京都,西東京市,柳沢２丁目１番２５号,,13,229,2020022,,,,,,,2024-04-25,1,,,,,トラストアンドユニティー,0
1339,6013301052422,新規,0,2024-04-25,2024-04-25,株式会社てらす,,株式会社,東京都,豊島区,東池袋２丁目３９番１４号,,13,116,1700013,,,,,,,2024-04-25,1,,,,,テラス,0
1352,6021001082103,新規,0,2024-04-25,2024-04-25,株式会社Ｓａｒｄｉｎａ,,株式会社,神奈川県,中郡大磯町,東小磯４５２－１Ｅ－２０９,,14,341,2550004,,,,,,,2024-04-25,1,,,,,サルディーナ,0
1363,6030001160009,新規,0,2024-04-25,2024-04-25,株式会社ＡＬＣＭ,,株式会社,埼玉県,川口市,大字安行領根岸１１９７番地の２０,,11,203,3330834,,,,,,,2024-04-25,1,,,,,アルカム,0
1366,6030003024145,新規,0,2024-04-25,2024-04-25,ガマゲ・エンタープライセス合同会社,,合同会社,埼玉県,加須市,琴寄１９１８番地１,,11,210,3491133,,,,,,,2024-04-25,1,,,,,ガマゲエンタープライセス,0
1376,6040003024854,新規,0,2024-04-25,2024-04-25,合同会社ケインズホーム,,合同会社,千葉県,南房総市,増間５７５番地,,12,234,2940801,,,,,,,2024-04-25,1,,,,,ケインズホーム,0
1377,6040005022369,新規,0,2024-04-25,2024-04-25,聖望キリスト教会,,その他の設立登記法人,千葉県,市川市,市川３丁目３７番１２号,,12,203,2720034,,,,,,,2024-04-25,1,,,,,セイボウキリストキョウカイ,0
1385,6070003005380,新規,0,2024-04-25,2024-04-25,合同会社橋口工務店,,合同会社,群馬県,館林市,当郷町１９８３番地の１７城沼コーポ―２０２,,10,207,3740006,,,,,,,2024-04-25,1,,,,,ハシグチコウムテン,0
1386,6070003005389,新規,0,2024-04-25,2024-04-25,合同会社アクアエンターテイメント,,合同会社,群馬県,太田市,飯田町７００若草ビル北東,,10,205,3730851,,,,,,,2024-04-25,1,,,,,アクアエンターテイメント,0
1391,6080403004997,新規,0,2024-04-25,2024-04-25,合同会社ＹＬＴ　ＢＲＡＮＤ　ＳＨＯＰ　ＪＡＰＡＮ,,合同会社,静岡県,掛川市,本所３９６番地の３,,22,213,4360006,,,,,,,2024-04-25,1,,,,,ワイエルティーブランドショップジャパン,0
1404,6120001264097,新規,0,2024-04-25,2024-04-25,柴娜株式会社,,株式会社,大阪府,大阪市西成区,南津守６丁目３番７３－２０１号室,,27,122,5570063,,,,,,,2024-04-25,1,,,,,チャイナ,0
1406,6120003026446,新規,0,2024-04-25,2024-04-25,合同会社ＳＥＴＯＵＣＨＩ　ＳＥＡＷＩＮＤ　ＴＲＡＶＥＬ,,合同会社,大阪府,大阪市中央区,南船場３丁目１１－１０心斎橋大陽ビル４Ｆ,,27,128,5420081,,,,,,,2024-04-25,1,,,,,セトウチシーウインドウトラベル,0
1411,6122001038035,新規,0,2024-04-25,2024-04-25,株式会社寿板金,,株式会社,大阪府,八尾市,太田新町７丁目１８番地,,27,212,5810039,,,,,,,2024-04-25,1,,,,,コトブキバンキン,0
1416,6130001076913,新規,0,2024-04-25,2024-04-25,株式会社ＡＮＥＸＩＡ,,株式会社,京都府,福知山市,岩井東町八丁目１番地,,26,201,6200064,,,,,,,2024-04-25,1,,,,,アネクシア,0
1417,6130001076921,新規,0,2024-04-25,2024-04-25,株式会社Ｒａｎａｔｒｉａ,,株式会社,京都府,京都市中京区,御池通東洞院東入笹屋町４３６番地永和御池ビル６０６号,,26,104,6048187,,,,,,,2024-04-25,1,,,,,ラナトリア,0
1420,6130003009490,新規,0,2024-04-25,2024-04-25,合同会社ゆう,,合同会社,京都府,木津川市,相楽台５丁目２１－１５,,26,214,6190223,,,,,,,2024-04-25,1,,,,,ユウ,0
1425,6140001134208,新規,0,2024-04-25,2024-04-25,株式会社ＨｉｇｈｅｒＷｏｒｋｓ,,株式会社,兵庫県,伊丹市,中央１丁目５番５号ボントンビル４階,,28,207,6640851,,,,,,,2024-04-25,1,,,,,ハイヤーワークス,0
1426,6140001134232,新規,0,2024-04-25,2024-04-25,なごみん株式会社,,株式会社,兵庫県,神戸市中央区,大日通２丁目４番９号,,28,110,6510064,,,,,,,2024-04-25,1,,,,,ナゴミン,0
1428,6140003020488,新規,0,2024-04-25,2024-04-25,合同会社けやきや,,合同会社,兵庫県,神戸市灘区,船寺通１丁目８－１５Ａ２階,,28,102,6570842,,,,,,,2024-04-25,1,,,,,ケヤキヤ,0
1429,6150001027253,新規,0,2024-04-25,2024-04-25,ＭＵＮＯ株式会社,,株式会社,奈良県,大和高田市,本郷町１２番２２－８０４号ユニハイム高田本郷,,29,202,6350082,,,,,,,2024-04-25,1,,,,,ムノー,0
1444,6180001161116,新規,0,2024-04-25,2024-04-25,株式会社アグニス,,株式会社,愛知県,名古屋市千種区,四谷通１丁目１２番地Ｚａｚビル南棟２階,,23,101,4640819,,,,,,,2024-04-25,1,,,,,アグニス,0
1456,6190005011943,新規,0,2024-04-25,2024-04-25,一般社団法人波打ち際で,,その他の設立登記法人,三重県,度会郡大紀町,滝原２５１４,,24,471,5192703,,,,,,,2024-04-25,1,,,,,ナミウチギワデ,0
1469,6240001063132,新規,0,2024-04-25,2024-04-25,株式会社Ｌｉｔｔｌｅｗｏｏｄｓ,,株式会社,広島県,三原市,中之町南１４０２番地７３,,34,204,7230002,,,,,,,2024-04-25,1,,,,,リトルウッズ,0
1476,6290001105441,新規,0,2024-04-25,2024-04-25,フォレスト株式会社,,株式会社,福岡県,福岡市中央区,天神４丁目６－２８天神ファーストビル７階,,40,133,8100001,,,,,,,2024-04-25,1,,,,,フォレスト,0
1478,6290003015201,新規,0,2024-04-25,2024-04-25,合同会社ＫＡＫＵＳＨＩＫＩ,,合同会社,福岡県,久留米市,中央町２番地４８サンリヤン久留米駅前１２０７号,,40,203,8300023,,,,,,,2024-04-25,1,,,,,カクシキ,0
1480,6290801030517,新規,0,2024-04-25,2024-04-25,在るがまま株式会社,,株式会社,福岡県,北九州市小倉北区,大手町３番１－２０８号,,40,106,8030814,,,,,,,2024-04-25,1,,,,,アルガママ,0
1481,6310001018979,新規,0,2024-04-25,2024-04-25,株式会社ＢＩＧ　ＨＡＮＤ,,株式会社,長崎県,諫早市,日の出町２７番３９号,,42,204,8540002,,,,,,,2024-04-25,1,,,,,ビッグハンド,0
1486,6360001033569,新規,0,2024-04-25,2024-04-25,ＭＡＧＩＣ　ＯＫＩＮＡＷＡ株式会社,,株式会社,沖縄県,中頭郡北谷町,字美浜９番地１,,47,326,9040115,,,,,,,2024-04-25,1,,,,,マジックオキナワ,0
1508,6380001034482,新規,0,2024-04-25,2024-04-25,株式会社ＲＥＧＡＬＯ,,株式会社,福島県,福島市,南矢野目字荒屋敷５８番地の１０,,07,201,9600112,,,,,,,2024-04-25,1,,,,,レガロ,0
1509,6380003005738,新規,0,2024-04-25,2024-04-25,合同会社ＳＡＴＯマネジメント,,合同会社,福島県,白河市,向新蔵１２番地,,07,205,9610925,,,,,,,2024-04-25,1,,,,,サトーマネジメント,0
1510,6390003002239,新規,0,2024-04-25,2024-04-25,合同会社エクエス,,合同会社,山形県,酒田市,東泉町６丁目４番地の９,,06,204,9980013,,,,,,,2024-04-25,1,,,,,エクエス,0
1511,6400001016619,新規,0,2024-04-25,2024-04-25,株式会社ホリガミ,,株式会社,岩手県,陸前高田市,矢作町字山崎４７番地,,03,210,0292201,,,,,,,2024-04-25,1,,,,,ホリガミ,0
1516,6420001018704,新規,0,2024-04-25,2024-04-25,株式会社ａ,,株式会社,青森県,青森市,千富町１丁目１２番１６号,,02,201,0300854,,,,,,,2024-04-25,1,,,,,エース,0
1517,6430001091493,新規,0,2024-04-25,2024-04-25,株式会社フラノブルー,,株式会社,北海道,札幌市西区,発寒五条３丁目２－７－１０２,,01,107,0630825,,,,,,,2024-04-25,1,,,,,フラノブルー,0
1526,6700150125116,新規,0,2024-04-25,2024-04-25,Ｓｏｎｉｃ　Ａｃｈｉｖｅｒ　Ｌｉｍｉｔｅｄ,,外国会社等,,,,,,,,Ｖｉｓｔｒａ　Ｃｏｒｐｏｒａｔｅ　ＳＥｒｉｃｅｓ　Ｃｅｎｔｒｅ　Ｇｒｏｕｎｄ　Ｆｌｏｏｒ　ＮＰＦ　Ｂｕｉｌｄｉｎｇ　Ｂｅａｃｈ　Ｒｏａｄ　Ａｐｉａ　Ｓａｍｏａ,,,,,,2024-04-25,1,,,,,ソニツクアーカイバーリミテツド,0
1529,7010001244365,新規,0,2024-04-25,2024-04-25,さくらインドネシアエナジー株式会社,,株式会社,東京都,千代田区,永田町２丁目１０番３号東急キャピトルタワー,,13,101,1000014,,,,,,,2024-04-25,1,,,,,サクラインドネシアエナジー,0
1531,7010003043518,新規,0,2024-04-25,2024-04-25,合同会社Ｃｏｄｅｒ　Ｐｅｎｇｕｉｎ,,合同会社,東京都,中央区,銀座１丁目１２番４号Ｎ＆ＥＢＬＤ．６Ｆ,,13,102,1040061,,,,,,,2024-04-25,1,,,,,コーダーペンギン,0
1540,7010401182041,新規,0,2024-04-25,2024-04-25,株式会社ＳＯＲＡ,,株式会社,東京都,港区,芝公園１丁目２番８号ＡＭＡＮＯ芝公園ビル５階,,13,103,1050011,,,,,,,2024-04-25,1,,,,,ソラ,0
1541,7010401182066,新規,0,2024-04-25,2024-04-25,株式会社峯屋,,株式会社,東京都,港区,西麻布１丁目４番５号,,13,103,1060031,,,,,,,2024-04-25,1,,,,,ミネヤ,0
1545,7010503007427,新規,0,2024-04-25,2024-04-25,ＳＡＣ合同会社,,合同会社,東京都,台東区,上野６丁目１番６号御徒町グリーンハイツ１００５号,,13,106,1100005,,,,,,,2024-04-25,1,,,,,エスエーシー,0
1548,7010703007144,新規,0,2024-04-25,2024-04-25,合同会社ＳＦＪ,,合同会社,東京都,品川区,大崎３丁目５番３号,,13,109,1410032,,,,,,,2024-04-25,1,,,,,エスエフジェイ,0
1549,7010705003620,新規,0,2024-04-25,2024-04-25,弁護士法人フェイス法律事務所,,その他の設立登記法人,東京都,品川区,平塚１丁目１２番９号加瀬ビル４階,,13,109,1420051,,,,,,,2024-04-25,1,,,,,,0
1552,7010801034998,新規,0,2024-04-25,2024-04-25,Ｃａｅｌｕｍ　Ｃｏｎｓｉｌｉｕｍ株式会社,,株式会社,東京都,大田区,矢口２丁目３－６,,13,111,1460093,,,,,,,2024-04-25,1,,,,,カエラムコンシリアム,0
1553,7010803004933,新規,0,2024-04-25,2024-04-25,三林合同会社,,合同会社,東京都,大田区,東海３丁目９番１１号ＳＲＫビル３０１Ａ,,13,111,1430001,,,,,,,2024-04-25,1,,,,,サンリン,0
1556,7011001161591,新規,0,2024-04-25,2024-04-25,ＮＥＸＸＤＡＹ株式会社,,株式会社,東京都,渋谷区,宇田川町２番１号３１３Ａ,,13,113,1500042,,,,,,,2024-04-25,1,,,,,ネックスデー,0
1557,7011003019004,新規,0,2024-04-25,2024-04-25,アルシーアジャパン合同会社,,合同会社,東京都,渋谷区,神宮前６丁目２３番４号桑野ビル２階,,13,113,1500001,,,,,,,2024-04-25,1,,,,,アルシーアジャパン,0
1558,7011101106950,新規,0,2024-04-25,2024-04-25,株式会社リノフォト,,株式会社,東京都,新宿区,西新宿３丁目３番１３号西新宿水間ビル６階,,13,104,1600023,,,,,,,2024-04-25,1,,,,,リノフォト,0
1560,7011103014367,新規,0,2024-04-25,2024-04-25,森澤合同会社,,合同会社,東京都,新宿区,大久保３丁目１番３号,,13,104,1690072,,,,,,,2024-04-25,1,,,,,モリサワ,0
1561,7011203004367,新規,0,2024-04-25,2024-04-25,東京中央ハウスサービス合同会社,,合同会社,東京都,中野区,本町１丁目２４‐３‐１２０２,,13,114,1640012,,,,,,,2024-04-25,1,,,,,トウキョウチュウオウハウスサービス,0
1563,7011501030577,新規,0,2024-04-25,2024-04-25,Ｖ　ＰＬＵＳ株式会社,,株式会社,東京都,荒川区,町屋３丁目１８番１２号ＮＤビル２１０,,13,118,1160001,,,,,,,2024-04-25,1,,,,,ヴイプラス,0
1564,7011501030593,新規,0,2024-04-25,2024-04-25,ＧＡＴ株式会社,,株式会社,東京都,北区,十条仲原１丁目８番１－２０２号,,13,117,1140031,,,,,,,2024-04-25,1,,,,,ジーエーティー,0
1568,7011603004314,新規,0,2024-04-25,2024-04-25,合同会社ＴＦタウ,,合同会社,東京都,練馬区,氷川台４丁目４７番１８号,,13,120,1790084,,,,,,,2024-04-25,1,,,,,ティーエフタウ,0
1570,7011701027209,新規,0,2024-04-25,2024-04-25,株式会社レディ・ハピネス,,株式会社,東京都,江戸川区,南小岩８丁目２０番１４号,,13,123,1330056,,,,,,,2024-04-25,1,,,,,レディハピネス,0
1571,7011703003810,新規,0,2024-04-25,2024-04-25,合同会社ホワイトホース,,合同会社,東京都,江戸川区,中葛西６丁目６番３０号第１コーポさくま２０２,,13,123,1340083,,,,,,,2024-04-25,1,,,,,ホワイトホース,0
1579,7012401041805,新規,0,2024-04-25,2024-04-25,株式会社フードクエスト,,株式会社,東京都,多摩市,六丁目１５番地４－５０４,,13,224,2060000,,,,,,,2024-04-25,1,,,,,フードクエスト,0
1580,7012701018222,新規,0,2024-04-25,2024-04-25,株式会社北島設備,,株式会社,東京都,西東京市,泉町６丁目１５番２３号グレースハイツ泉１０２号,,13,229,2020011,,,,,,,2024-04-25,1,,,,,キタジマセツビ,0
1587,7013301052405,新規,0,2024-04-25,2024-04-25,ＪａｄｅＶａｌｕｅ株式会社,,株式会社,東京都,豊島区,巣鴨１丁目１７番３号子野ビル５０３号室,,13,116,1700002,,,,,,,2024-04-25,1,,,,,ジェイドバリュー,0
1595,7020001156790,新規,0,2024-04-25,2024-04-25,株式会社ＲａｒｅＣｌａｒｉｔｙ,,株式会社,神奈川県,横浜市西区,みなとみらい５丁目３番２－１１０６号,,14,103,2200012,,,,,,,2024-04-25,1,,,,,ラールクラリティ,0
1596,7020001156873,新規,0,2024-04-25,2024-04-25,株式会社スタンドユニティ,,株式会社,神奈川県,横浜市戸塚区,平戸４丁目１５番３号,,14,110,2440802,,,,,,,2024-04-25,1,,,,,スタンドユニティ,0
1601,7020003025985,新規,0,2024-04-25,2024-04-25,合同会社クフェア,,合同会社,神奈川県,横浜市港南区,日野中央３丁目９番１－５０６号,,14,111,2340053,,,,,,,2024-04-25,1,,,,,クフェア,0
1605,7021001082069,新規,0,2024-04-25,2024-04-25,大和技術協力株式会社,,株式会社,神奈川県,大和市,桜森２丁目１３番５号プロシード相模大塚１０５号,,14,213,2420028,,,,,,,2024-04-25,1,,,,,ヤマトギジュツキョウリョク,0
1606,7021001082093,新規,0,2024-04-25,2024-04-25,洋代株式会社,,株式会社,神奈川県,平塚市,真田１丁目５－３かつみ荘,,14,203,2591206,,,,,,,2024-04-25,1,,,,,ヨウダイ,0
1607,7021003014409,新規,0,2024-04-25,2024-04-25,合同会社相模アグリ,,合同会社,神奈川県,相模原市南区,下溝４３８０番７,,14,153,2520335,,,,,,,2024-04-25,1,,,,,サガミアグリ,0
1608,7021003014441,新規,0,2024-04-25,2024-04-25,合同会社グレース,,合同会社,神奈川県,藤沢市,大庭５５９８番地の４フルール湘南２０１号,,14,205,2510861,,,,,,,2024-04-25,1,,,,,グレース,0
1613,7030001159883,新規,0,2024-04-25,2024-04-25,株式会社アシスト,,株式会社,埼玉県,さいたま市大宮区,宮町４丁目４５番地１ルーチェ大宮４０２,,11,103,3300802,,,,,,,2024-04-25,1,,,,,アシスト,0
1616,7030003024160,新規,0,2024-04-25,2024-04-25,合同会社ＴｚＷＯＮ,,合同会社,埼玉県,さいたま市桜区,大字下大久保１１６５番地２,,11,106,3380825,,,,,,,2024-04-25,1,,,,,ティーズワン,0
1621,7040001133292,新規,0,2024-04-25,2024-04-25,想株式会社,,株式会社,千葉県,千葉市中央区,松波２丁目１８番８新葉ビル１階,,12,101,2600044,,,,,,,2024-04-25,1,,,,,ソウ,0
1634,7050001054661,新規,0,2024-04-25,2024-04-25,株式会社吉原興産企画,,株式会社,茨城県,つくばみらい市,谷井田１２４６番地４,,08,235,3002337,,,,,,,2024-04-25,1,,,,,ヨシハラコウサンキカク,0
1636,7050003008319,新規,0,2024-04-25,2024-04-25,合同会社わかたけ居宅介護支援事業所,,合同会社,茨城県,龍ケ崎市,大徳町７３９番地９,,08,208,3010816,,,,,,,2024-04-25,1,,,,,ワカタケキョタクカイゴシエンジギョウショ,0
1641,7070001041666,新規,0,2024-04-25,2024-04-25,株式会社ライフエクス,,株式会社,群馬県,邑楽郡明和町,川俣８４番地,,10,522,3700716,,,,,,,2024-04-25,1,,,,,ライフエクス,0
1642,7070003005371,新規,0,2024-04-25,2024-04-25,合同会社うさくま,,合同会社,群馬県,高崎市,小八木町３１２番地１５ビジネスパーク小八木２Ｆ,,10,202,3700071,,,,,,,2024-04-25,1,,,,,ウサクマ,0
1643,7070003005388,新規,0,2024-04-25,2024-04-25,合同会社ＳＦ萌業,,合同会社,群馬県,太田市,飯田町７００若草ビル南西,,10,205,3730851,,,,,,,2024-04-25,1,,,,,エスエフモエギョウ,0
1644,7080401027140,新規,0,2024-04-25,2024-04-25,株式会社Ｐｅｒｓｏｎａｌ　ｇｒｏｗｔｈ　ｓｕｐｐｏｒｔｅｒ彩羽,,株式会社,静岡県,磐田市,蛭池２２６番地８,,22,211,4371207,,,,,,,2024-04-25,1,,,,,パーソナルグロウスサポーターアヤハ,0
1645,7080401027149,新規,0,2024-04-25,2024-04-25,株式会社ＧＬＯＲＹ,,株式会社,静岡県,浜松市中央区,天王町１２９７番地の１,,22,138,4350052,,,,,,,2024-04-25,1,,,,,グローリー,0
1646,7090001018679,新規,0,2024-04-25,2024-04-25,Ｅｍｉ　Ｒｉｓｅ株式会社,,株式会社,山梨県,甲府市,小瀬町６８番地６南栄第１０小瀬タウン２号室,,19,201,4000836,,,,,,,2024-04-25,1,,,,,エミライズ,0
1649,7100003007513,新規,0,2024-04-25,2024-04-25,合同会社グラン・マ,,合同会社,長野県,千曲市,大字新田７００番地１鋳物師屋団地８－Ａ,,20,218,3870018,,,,,,,2024-04-25,1,,,,,グランマ,0
1651,7110001038360,新規,0,2024-04-25,2024-04-25,株式会社エーコネクト,,株式会社,新潟県,新発田市,中曽根町２丁目７番２５号,,15,206,9570067,,,,,,,2024-04-25,1,,,,,エーコネクト,0
1668,7120001264039,新規,0,2024-04-25,2024-04-25,亨通株式会社,,株式会社,大阪府,大阪市浪速区,大国３丁目４番７号４０２号室,,27,111,5560014,,,,,,,2024-04-25,1,,,,,キョウツウ,0
1669,7120001264328,新規,0,2024-04-25,2024-04-25,株式会社ホープ,,株式会社,大阪府,大阪市北区,東天満２丁目９番４号千代田ビル東館３階,,27,127,5300044,,,,,,,2024-04-25,1,,,,,ホープ,0
1670,7120001264336,新規,0,2024-04-25,2024-04-25,ストリングオン株式会社,,株式会社,大阪府,大阪市鶴見区,鶴見２丁目１番６－４０４号,,27,124,5380053,,,,,,,2024-04-25,1,,,,,ストリングオン,0
1671,7120001264385,新規,0,2024-04-25,2024-04-25,株式会社オージェイケイ総合研究所,,株式会社,大阪府,大阪市淀川区,西宮原１丁目６番６０号,,27,123,5320004,,,,,,,2024-04-25,1,,,,,オージェイケイソウゴウケンキュウジョ,0
1678,7120003026420,新規,0,2024-04-25,2024-04-25,合同会社ｋｉｎｄ,,合同会社,大阪府,大阪市西成区,南津守３丁目１－２５Ｄ号室,,27,122,5570063,,,,,,,2024-04-25,1,,,,,カインド,0
1684,7130001076887,新規,0,2024-04-25,2024-04-25,株式会社ＹＲ総研,,株式会社,京都府,京都市北区,紫竹上緑町２５番地５,,26,101,6038427,,,,,,,2024-04-25,1,,,,,ワイアールソウケン,0
1690,7140001134198,新規,0,2024-04-25,2024-04-25,株式会社ＹＯＵ,,株式会社,兵庫県,神戸市須磨区,白川台１丁目４－３,,28,107,6540103,,,,,,,2024-04-25,1,,,,,ユウ,0
1692,7140003020487,新規,0,2024-04-25,2024-04-25,合同会社ツーションプラスイー,,合同会社,兵庫県,加古川市,平岡町新在家２丁目２８０番地の７,,28,210,6750101,,,,,,,2024-04-25,1,,,,,ツーションプラスイー,0
1695,7150001027252,新規,0,2024-04-25,2024-04-25,翔莉工業株式会社,,株式会社,奈良県,橿原市,出合町１３番地の１０,,29,205,6340013,,,,,,,2024-04-25,1,,,,,ショウリコウギョウ,0
1708,7180001161148,新規,0,2024-04-25,2024-04-25,株式会社Ｆａｉｔｈ　ｃｒｅａｔｅ,,株式会社,愛知県,名古屋市緑区,六田２丁目２２２番地コーポ桂２０２,,23,114,4580036,,,,,,,2024-04-25,1,,,,,フェイスクリエイト,0
1712,7180005020614,新規,0,2024-04-25,2024-04-25,一般社団法人レゾナバイオ協会,,その他の設立登記法人,愛知県,一宮市,奥町字野方１１３番地,,23,203,4910201,,,,,,,2024-04-25,1,,,,,レゾナバイオキョウカイ,0
1716,7190005011942,新規,0,2024-04-25,2024-04-25,一般社団法人全国ドライバーズライフパートナー機構,,その他の設立登記法人,三重県,鈴鹿市,寺家６丁目１番２０号,,24,207,5100254,,,,,,,2024-04-25,1,,,,,,0
1717,7200001042444,新規,0,2024-04-25,2024-04-25,株式会社エヌファクトリー,,株式会社,岐阜県,岐阜市,岩滝西１丁目３７２番地２,,21,201,5013152,,,,,,,2024-04-25,1,,,,,エヌファクトリー,0
1722,7220001025975,新規,0,2024-04-25,2024-04-25,プロスパー不動産株式会社,,株式会社,石川県,金沢市,保古２丁目１１１番地,,17,201,9218052,,,,,,,2024-04-25,1,,,,,プロスパーフドウサン,0
1723,7220005008844,新規,0,2024-04-25,2024-04-25,一般社団法人中田トラスト,,その他の設立登記法人,石川県,金沢市,諸江町上丁１１９番地,,17,201,9200015,,,,,,,2024-04-25,1,,,,,ナカタトラスト,0
1730,7260001038998,新規,0,2024-04-25,2024-04-25,株式会社Ｈａｎｄ　Ｏｆｆ,,株式会社,岡山県,岡山市北区,表町３丁目１８－５２吉本ビル５階,,33,101,7000822,,,,,,,2024-04-25,1,,,,,ハンドオフ,0
1738,7290001105465,新規,0,2024-04-25,2024-04-25,株式会社シャローム,,株式会社,福岡県,福岡市博多区,博多駅東２丁目１８番２８号１２０１号室,,40,132,8120013,,,,,,,2024-04-25,1,,,,,シャローム,0
1739,7290001105507,新規,0,2024-04-25,2024-04-25,株式会社Ｅｂｉｓｅｋａ,,株式会社,福岡県,福岡市博多区,住吉２丁目４－７－１０１,,40,132,8120018,,,,,,,2024-04-25,1,,,,,エビセカ,0
1740,7290003015191,新規,0,2024-04-25,2024-04-25,合同会社けい観,,合同会社,福岡県,太宰府市,観世音寺２丁目１７番６号,,40,221,8180101,,,,,,,2024-04-25,1,,,,,ケイカン,0
1741,7290005019389,新規,0,2024-04-25,2024-04-25,べっぷ・ふくおか土地家屋調査士法人,,その他の設立登記法人,福岡県,福岡市中央区,赤坂１丁目１５番３９号,,40,133,8100042,,,,,,,2024-04-25,1,,,,,ベップフクオカ,0
1742,7300003002114,新規,0,2024-04-25,2024-04-25,Ｄｏｏｒｓ合同会社,,合同会社,佐賀県,佐賀市,東佐賀町４番１５号グリーンコーポ２０３,,41,201,8400821,,,,,,,2024-04-25,1,,,,,ドアーズ,0
1743,7310001018978,新規,0,2024-04-25,2024-04-25,株式会社Ｎプラスビル管理,,株式会社,長崎県,諫早市,津久葉町５番地１２１津久葉エステートビル１１１号室,,42,204,8540065,,,,,,,2024-04-25,1,,,,,エヌプラスビルカンリ,0
1750,7330001032003,新規,0,2024-04-25,2024-04-25,株式会社ＩＤＯＲ,,株式会社,熊本県,熊本市東区,渡鹿８丁目２２番１５号,,43,102,8620970,,,,,,,2024-04-25,1,,,,,アイドール,0
1757,7360001033535,新規,0,2024-04-25,2024-04-25,株式会社Ｈａｎａｋｕｒｏ,,株式会社,沖縄県,那覇市,首里寒川町１丁目３５番地１１,,47,201,9030826,,,,,,,2024-04-25,1,,,,,ハナクロ,0
1759,7370001051222,新規,0,2024-04-25,2024-04-25,株式会社ＡＫＳＮ,,株式会社,宮城県,多賀城市,南宮字町４２番地の３ソレイユ２０２,,04,209,9850851,,,,,,,2024-04-25,1,,,,,アキセナ,0
1767,7430001091658,新規,0,2024-04-25,2024-04-25,サンクプランニング株式会社,,株式会社,北海道,札幌市北区,新琴似町１００１番地２１,,01,102,0010915,,,,,,,2024-04-25,1,,,,,サンクプランニング,0
1771,7430003016258,新規,0,2024-04-25,2024-04-25,合同会社ＥＬＡＡＦ,,合同会社,北海道,札幌市白石区,菊水二条２丁目３番８－２０３号,,01,104,0030802,,,,,,,2024-04-25,1,,,,,エラーフ,0
1772,7470001020167,新規,0,2024-04-25,2024-04-25,株式会社ミイダス,,株式会社,香川県,高松市,多肥上町１１１２番地１１,,37,201,7618076,,,,,,,2024-04-25,1,,,,,ミイダス,0
1774,7480001012452,新規,0,2024-04-25,2024-04-25,グリーンクリエイトコンパス株式会社,,株式会社,徳島県,徳島市,国府町和田字居内９９番地２,,36,201,7793121,,,,,,,2024-04-25,1,,,,,グリーンクリエイトコンパス,0
1775,7480003002121,新規,0,2024-04-25,2024-04-25,合同会社ＷＡＮ　ＬＩＦＥ,,合同会社,徳島県,徳島市,国府町早淵３７１番地の１,,36,201,7793125,,,,,,,2024-04-25,1,,,,,ワンライフ,0
1781,7700150125115,新規,0,2024-04-25,2024-04-25,ＳｐｉｎＸ　Ｇａｍｅｓ　Ｌｉｍｉｔｅｄ,,外国会社等,,,,,,,,Ｌｅｖｅｌ　２３，Ｏｎｅ　Ｉｓｌａｎｄ　Ｅａｓｔ，１８　Ｗｅｓｔｌａｎｄｓ　Ｒｏａｄ，Ｔａｉｋｏｏ　Ｐｌａｃｅ，Ｑｕａｒｒｙ　Ｂａｙ，ＨＫ,,,,,,2024-04-25,1,,,,,スピンエツクスゲームスリミテツド,0
1782,7700150125123,新規,0,2024-04-25,2024-04-25,ｓｈｅｎｚｈｅｎｓｈｉ　ｊｉａｙｉｒｕｉｌｉｎ　ｋｅｊｉ　ｙｏｕｘｉａｎ　ｇｏｎｇｓｉ,,外国会社等,,,,,,,,ｓｈｅｎｚｈｅｎｓｈｉ　ｌｏｎｇｇａｎｇｑｕ　ｂａｎｔｉａｎｊｉｅｄａｏ　ｍａａｎｔａｎｇｓｈｅｑｕｘｉｎｈｅｊｉｅ２ｈａｏ　ｊｉｎｆａｎｇｈｕａｄｉａｎｓｈａｎｇｃｈａｎｙｅｙｕａｎ２ｄｏｎｇ３０７－１,,,,,,2024-04-25,1,,,,,シェンジェンシージャーイールイリンコージーヨウシエンゴンスー,0
1790,8010001244281,新規,0,2024-04-25,2024-04-25,株式会社ＫＥＮＳＨＯ,,株式会社,東京都,中央区,築地６丁目４番５号,,13,102,1040045,,,,,,,2024-04-25,1,,,,,ケンショウ,0
1791,8010001244307,新規,0,2024-04-25,2024-04-25,ＦＯＲ‐ＫＮＯＣＫＳ株式会社,,株式会社,東京都,中央区,銀座７丁目１５番８号タウンハイツ銀座４０６,,13,102,1040061,,,,,,,2024-04-25,1,,,,,フォーノックス,0
1792,8010001244356,新規,0,2024-04-25,2024-04-25,エムキャップ十三号株式会社,,株式会社,東京都,千代田区,丸の内３丁目１番１号国際ビル６階,,13,101,1000005,,,,,,,2024-04-25,1,,,,,エムキャップジュウサンゴウ,0
1793,8010001244372,新規,0,2024-04-25,2024-04-25,株式会社ＪＰＨ,,株式会社,東京都,中央区,月島１丁目１４番１３－８０８号,,13,102,1040052,,,,,,,2024-04-25,1,,,,,ジェイピーエイチ,0
1795,8010003043590,新規,0,2024-04-25,2024-04-25,Ｉｎｔｅｌｌｉｇｅｎｔ　Ａｐｅｘ合同会社,,合同会社,東京都,中央区,新川１丁目２７番８号新川大原ビル８階,,13,102,1040033,,,,,,,2024-04-25,1,,,,,インテリジェントエイペックス,0
1796,8010003043599,新規,0,2024-04-25,2024-04-25,合同会社うしとら,,合同会社,東京都,文京区,後楽２丁目６番１号,,13,105,1120004,,,,,,,2024-04-25,1,,,,,ウシトラ,0
1797,8010003043608,新規,0,2024-04-25,2024-04-25,ＰＯＴＥＩＴＯ合同会社,,合同会社,東京都,中央区,築地２丁目１２－１１－７０２,,13,102,1040045,,,,,,,2024-04-25,1,,,,,ポテイト,0
1803,8010401182016,新規,0,2024-04-25,2024-04-25,株式会社プレミア・リード,,株式会社,東京都,港区,三田３丁目４番９号,,13,103,1080073,,,,,,,2024-04-25,1,,,,,プレミアリード,0
1804,8010401182131,新規,0,2024-04-25,2024-04-25,ｍＭＥＤＩＣＩ株式会社,,株式会社,東京都,港区,南青山３丁目１番３６号青山丸竹ビル６Ｆ,,13,103,1070062,,,,,,,2024-04-25,1,,,,,メディチ,0
1810,8010701045896,新規,0,2024-04-25,2024-04-25,ＩＮＮＯＣＥＮＣＥ　ｄｅｓｉｇｎｉｎｇ株式会社,,株式会社,東京都,品川区,西五反田３丁目７番６号,,13,109,1410031,,,,,,,2024-04-25,1,,,,,イノセンスデザイニング,0
1811,8010701045905,新規,0,2024-04-25,2024-04-25,Ｓｔｙｌｅｓ株式会社,,株式会社,東京都,品川区,東五反田２丁目５－２・３０６号室,,13,109,1410022,,,,,,,2024-04-25,1,,,,,スタイルズ,0
1813,8010803004932,新規,0,2024-04-25,2024-04-25,合同会社ＹＭエンジニアリング,,合同会社,東京都,大田区,多摩川２丁目２４番６２－３－１３０７号,,13,111,1460095,,,,,,,2024-04-25,1,,,,,ワイエムエンジニアリング,0
1816,8011001161590,新規,0,2024-04-25,2024-04-25,株式会社Ｒｉｓｅｒｖａ,,株式会社,東京都,渋谷区,渋谷１丁目２０番１１－１４０７号,,13,113,1500002,,,,,,,2024-04-25,1,,,,,リゼルヴァ,0
1817,8011001161616,新規,0,2024-04-25,2024-04-25,株式会社ＨＩＭＡＷＡＲＩ　ＨＯＬＤＩＮＧＳ,,株式会社,東京都,目黒区,青葉台１丁目３０番６－５０３号室,,13,110,1530042,,,,,,,2024-04-25,1,,,,,ヒマワリホールディングス,0
1818,8011001161649,新規,0,2024-04-25,2024-04-25,株式会社中目黒総合研究所,,株式会社,東京都,目黒区,中目黒５丁目２２番１３号,,13,110,1530061,,,,,,,2024-04-25,1,,,,,ナカメグロソウゴウケンキュウジョ,0
1825,8011101107106,新規,0,2024-04-25,2024-04-25,株式会社Ｍｏｒｑｕｅｓｔａ　Ｐａｒｔｎｅｒ,,株式会社,東京都,新宿区,西新宿６丁目５番１号アイランドタワー２階,,13,104,1600023,,,,,,,2024-04-25,1,,,,,モルケスタパートナー,0
1826,8011101107130,新規,0,2024-04-25,2024-04-25,株式会社Ｍｉｎａｔｏ　Ａｄｖｉｓｏｒｓ　Ｊａｐａｎ,,株式会社,東京都,新宿区,西新宿４丁目３４－７住友不動産西新宿ビル５号館３階株式会社ｇｕｍｉ,,13,104,1600023,,,,,,,2024-04-25,1,,,,,ミナトアドバイザーズジャパン,0
1828,8011103014366,新規,0,2024-04-25,2024-04-25,合同会社ＴＫＳ,,合同会社,東京都,新宿区,新宿１丁目４番１３号,,13,104,1600022,,,,,,,2024-04-25,1,,,,,ティーケーエス,0
1829,8011201025430,新規,0,2024-04-25,2024-04-25,株式会社ハナミコーポレーション,,株式会社,東京都,中野区,松が丘１丁目２６－１,,13,114,1650024,,,,,,,2024-04-25,1,,,,,ハナミコーポレーション,0
1830,8011401026039,新規,0,2024-04-25,2024-04-25,Ｖａｕｎｄｙ株式会社,,株式会社,東京都,板橋区,双葉町３２番４－４０１号,,13,119,1730011,,,,,,,2024-04-25,1,,,,,バウンディ,0
1833,8011501030592,新規,0,2024-04-25,2024-04-25,株式会社グーライフ,,株式会社,東京都,荒川区,西尾久８丁目１２番９－５１９号,,13,118,1160011,,,,,,,2024-04-25,1,,,,,グーライフ,0
1834,8011603004313,新規,0,2024-04-25,2024-04-25,合同会社ＴＦカイ,,合同会社,東京都,練馬区,氷川台４丁目４７番１８号,,13,120,1790084,,,,,,,2024-04-25,1,,,,,ティーエフカイ,0
1837,8011803006209,新規,0,2024-04-25,2024-04-25,合同会社ファステージ,,合同会社,東京都,足立区,栗原４丁目１８番２３―１９０４号,,13,121,1230842,,,,,,,2024-04-25,1,,,,,ファステージ,0
1846,8013301052379,新規,0,2024-04-25,2024-04-25,星藝商事株式会社,,株式会社,東京都,豊島区,東池袋１丁目１３番１４号,,13,116,1700013,,,,,,,2024-04-25,1,,,,,セイゲイショウジ,0
1861,8020005016387,新規,0,2024-04-25,2024-04-25,一般社団法人保健医療学部同窓会,,その他の設立登記法人,神奈川県,横浜市緑区,十日市場町１８６５,,14,113,2260025,,,,,,,2024-04-25,1,,,,,ホケンイリョウガクブドウソウカイ,0
1863,8021001082101,新規,0,2024-04-25,2024-04-25,株式会社マザーキャリア,,株式会社,神奈川県,茅ヶ崎市,幸町２１番３１号クリオ茅ヶ崎サザンマークス５０５号,,14,207,2530052,,,,,,,2024-04-25,1,,,,,マザーキャリア,0
1879,8040003024852,新規,0,2024-04-25,2024-04-25,合同会社クリオシタス,,合同会社,千葉県,船橋市,新高根３丁目９番１０号,,12,204,2740814,,,,,,,2024-04-25,1,,,,,クリオシタス,0
1892,8070003005387,新規,0,2024-04-25,2024-04-25,合同会社ｖｅｒｙ　ｂｅｒｒｙ,,合同会社,群馬県,前橋市,三河町１丁目３番１号２Ｆ,,10,201,3710015,,,,,,,2024-04-25,1,,,,,ベリーベリー,0
1904,8110003005374,新規,0,2024-04-25,2024-04-25,ＲＡＮＪＨＡ　ＴＲＡＤＩＮＧ合同会社,,合同会社,新潟県,新潟市北区,島見町２１００番地３Ａ－１,,15,101,9503102,,,,,,,2024-04-25,1,,,,,ランジャトレーディング,0
1915,8120001264095,新規,0,2024-04-25,2024-04-25,瑞安株式会社,,株式会社,大阪府,大阪市大正区,小林東２丁目９番５号３０３号,,27,108,5510011,,,,,,,2024-04-25,1,,,,,ズイアン,0
1916,8120001264310,新規,0,2024-04-25,2024-04-25,ロジデス株式会社,,株式会社,大阪府,大阪市淀川区,宮原１丁目３－２０新大阪ステーションビル８０１号,,27,123,5320003,,,,,,,2024-04-25,1,,,,,ロジデス,0
1917,8120001264327,新規,0,2024-04-25,2024-04-25,株式会社ｌｕｍｉｅｌ,,株式会社,大阪府,大阪市住吉区,墨江３丁目２３番９号,,27,120,5580043,,,,,,,2024-04-25,1,,,,,ルミエル,0
1918,8120001264335,新規,0,2024-04-25,2024-04-25,株式会社ＭＩｎａＲＡＩ,,株式会社,大阪府,大阪市北区,梅田１丁目２－２大阪駅前第２ビル１２－１２,,27,127,5300001,,,,,,,2024-04-25,1,,,,,ミナライ,0
1926,8120003026436,新規,0,2024-04-25,2024-04-25,三恵システム合同会社,,合同会社,大阪府,寝屋川市,高宮２丁目２２－９,,27,215,5720806,,,,,,,2024-04-25,1,,,,,ミエシステム,0
1927,8120003026444,新規,0,2024-04-25,2024-04-25,合同会社つぼみ,,合同会社,大阪府,大阪市浪速区,幸町１丁目２番９号,,27,111,5560021,,,,,,,2024-04-25,1,,,,,ツボミ,0
1928,8120005024297,新規,0,2024-04-25,2024-04-25,一般社団法人大阪府相続不動産支援協会,,その他の設立登記法人,大阪府,大阪市旭区,新森７丁目１５番１８号,,27,117,5350022,,,,,,,2024-04-25,1,,,,,オオサカフソウゾクフドウサンシエンキョウカイ,0
1933,8120905006601,新規,0,2024-04-25,2024-04-25,一般社団法人豊中市介護保険事業者連絡会,,その他の設立登記法人,大阪府,豊中市,中桜塚２丁目２５番１２号,,27,203,5610881,,,,,,,2024-04-25,1,,,,,トヨナカシカイゴホケンジギョウシャレンラクカイ,0
1936,8130001076928,新規,0,2024-04-25,2024-04-25,株式会社住一,,株式会社,京都府,京都市中京区,烏丸通二条下る秋野々町５１４番地清栄ビル４０２号室,,26,104,6040847,,,,,,,2024-04-25,1,,,,,ジュウイチ,0
1937,8130001076936,新規,0,2024-04-25,2024-04-25,株式会社前,,株式会社,京都府,京都市伏見区,深草善導寺町１０－４パデシオン伏見駅前２０５,,26,109,6128433,,,,,,,2024-04-25,1,,,,,マエ,0
1943,8140001134206,新規,0,2024-04-25,2024-04-25,株式会社Ｎ＆Ｎ,,株式会社,兵庫県,高砂市,中筋１丁目１２番２６号,,28,216,6760812,,,,,,,2024-04-25,1,,,,,エヌアンドエヌ,0
1955,8180001161097,新規,0,2024-04-25,2024-04-25,株式会社ｙｏｓｉｍｉｔｕ,,株式会社,愛知県,名古屋市天白区,境根町９２番地三信ビル１Ｆ,,23,116,4680035,,,,,,,2024-04-25,1,,,,,ヨシミツ,0
1956,8180001161163,新規,0,2024-04-25,2024-04-25,株式会社かえるん,,株式会社,愛知県,日進市,赤池町箕ノ手２番地１６９２,,23,230,4700126,,,,,,,2024-04-25,1,,,,,カエルン,0
1959,8180003026678,新規,0,2024-04-25,2024-04-25,合同会社ねねっと,,合同会社,愛知県,名古屋市昭和区,向山町３丁目１４番地の１,,23,107,4660829,,,,,,,2024-04-25,1,,,,,ネネット,0
1966,8200003006322,新規,0,2024-04-25,2024-04-25,合同会社日置興業,,合同会社,岐阜県,岐阜市,日野東４丁目６番３３号,,21,201,5008211,,,,,,,2024-04-25,1,,,,,ヒオキコウギョウ,0
1968,8210001019738,新規,0,2024-04-25,2024-04-25,株式会社蒼,,株式会社,福井県,福井市,順化１丁目１７番１２号ベルトピア片町１階,,18,201,9100023,,,,,,,2024-04-25,1,,,,,アオ,0
1970,8220001025974,新規,0,2024-04-25,2024-04-25,株式会社サンリーバイカイ,,株式会社,石川県,金沢市,福久２丁目１番地,,17,201,9203126,,,,,,,2024-04-25,1,,,,,サンリーバイカイ,0
1973,8220005008843,新規,0,2024-04-25,2024-04-25,医療法人いけだなおき内科医院,,その他の設立登記法人,石川県,金沢市,大額３丁目２６６番地,,17,201,9218147,,,,,,,2024-04-25,1,,,,,イケダナオキナイカイイン,0
1975,8240001063139,新規,0,2024-04-25,2024-04-25,株式会社ＩＭＡＹＡＳＵ,,株式会社,広島県,広島市中区,榎町７番２７号,,34,101,7300851,,,,,,,2024-04-25,1,,,,,イマヤス,0
1980,8260003004650,新規,0,2024-04-25,2024-04-25,合同会社ココナッツ,,合同会社,岡山県,岡山市中区,赤田９４番地１赤田ハイツ６０８,,33,102,7038231,,,,,,,2024-04-25,1,,,,,ココナッツ,0
1987,8290001105423,新規,0,2024-04-25,2024-04-25,株式会社オフィス田中,,株式会社,福岡県,福岡市東区,香椎照葉５丁目１番１２－２００６号,,40,131,8130017,,,,,,,2024-04-25,1,,,,,オフィスタナカ,0
1988,8290001105464,新規,0,2024-04-25,2024-04-25,株式会社グローニット,,株式会社,福岡県,福岡市東区,香椎照葉３丁目３番１号,,40,131,8130017,,,,,,,2024-04-25,1,,,,,グローニット,0
1989,8290001105613,新規,0,2024-04-25,2024-04-25,満続ライフ株式会社,,株式会社,福岡県,福岡市中央区,天神２丁目３番１０号天神パインクレスト７１９号,,40,133,8100001,,,,,,,2024-04-25,1,,,,,マンゾクライフ,0
1991,8290003015199,新規,0,2024-04-25,2024-04-25,合同会社サンフルール,,合同会社,福岡県,福岡市博多区,博多駅前１丁目２３－２ＰａｒｋＦｒｏｎｔ博多駅前１－５Ｆ－Ｂ,,40,132,8120011,,,,,,,2024-04-25,1,,,,,サンフルール,0
1997,8300003002113,新規,0,2024-04-25,2024-04-25,合同会社イリステム,,合同会社,佐賀県,鳥栖市,元町１３３６－６ネスト鳥栖,,41,203,8410051,,,,,,,2024-04-25,1,,,,,イリステム,0
1998,8310003004777,新規,0,2024-04-25,2024-04-25,合同会社ついてる,,合同会社,長崎県,佐世保市,本島町５－４ライオンタワービル８０１,,42,202,8570871,,,,,,,2024-04-25,1,,,,,ツイテル,0
2002,8350001018932,新規,0,2024-04-25,2024-04-25,株式会社ゆうえい丸,,株式会社,宮崎県,日向市,大字細島５８３番地２,,45,206,8830001,,,,,,,2024-04-25,1,,,,,ユウエイマル,0
2012,8380001034480,新規,0,2024-04-25,2024-04-25,株式会社ＲａｉｚｕＦａｒｍ,,株式会社,福島県,会津若松市,町北町大字始字屋敷１６７番地,,07,202,9650052,,,,,,,2024-04-25,1,,,,,ライズファーム,0
2014,8390001017591,新規,0,2024-04-25,2024-04-25,株式会社Ａｖｅｎｉｒ,,株式会社,山形県,山形市,大字内表４６１－１,,06,201,9900877,,,,,,,2024-04-25,1,,,,,アヴェニール,0
2017,8420003002910,新規,0,2024-04-25,2024-04-25,合同会社澤田板金工業,,合同会社,青森県,北津軽郡鶴田町,大字鶴田字南田２４０番地１５,,02,384,0383503,,,,,,,2024-04-25,1,,,,,サワダバンキンコウギョウ,0
2022,8430003016249,新規,0,2024-04-25,2024-04-25,合同会社惺,,合同会社,北海道,札幌市白石区,菊水元町九条１丁目１番９号,,01,104,0030829,,,,,,,2024-04-25,1,,,,,ショウ,0
2024,8470001020166,新規,0,2024-04-25,2024-04-25,ＧＲＥＥＮ　ＦＯＲＴ株式会社,,株式会社,香川県,観音寺市,流岡町１３４７番地１７鹿隈リゾートタウン１１号地２０３号室,,37,205,7680014,,,,,,,2024-04-25,1,,,,,グリーンフォート,0
2026,8480003002120,新規,0,2024-04-25,2024-04-25,合同会社ＫＯＤＡＭＡ,,合同会社,徳島県,徳島市,吉野本町２丁目２０番地の１７幸福堂ビルＩＩ１Ｆ,00134552,36,201,7700802,,,,,,,2024-04-25,1,,,,,,0
2032,8700150123910,新規,0,2024-04-25,2024-04-25,Ｆｒｏｎｔｉｅｒｓ　Ｍｅｄｉａ　ＳＡ,,外国会社等,,,,,,,,Ａｖｅｎｕｅ　ｄｕ　Ｔｒｉｂｕｎａｌ－Ｆｅｄｅｒａｌ　３４，１００５　Ｌａｕｓａｎｎｅ，Ｓｗｉｔｚｅｒｌａｎｄ,,,,,,2024-04-25,1,,,,,フロンテイアーズメデイアエスエイ,0
2033,8700150125114,新規,0,2024-04-25,2024-04-25,ＳＭＴ　ＪＰＮ　ＦＵＮＤ２０１８,,外国会社等,,,,,,,,４ｔｈ　Ｆｌｏｏｒ　Ｇｅｎｅｓｉｓ　Ｂｕｉｌｄｉｎｇ，１３　Ｇｅｎｅｓｉｓ　Ｃｌｏｓｅ，Ｇｒａｎｄ　Ｃａｙｍａｎ，Ｃａｙｍａｎ　Ｉｓｌａｎｄｓ,,,,,,2024-04-25,1,,,,,エスエムテイージエーピーエヌフアンドニゼロイチハチ,0
2034,8700150125122,新規,0,2024-04-25,2024-04-25,Ｘｉｎｙｉｓｈｉ　Ｈａｉｐａｉ　Ｔｒａｄｉｎｇ　Ｃｏ．，Ｌｔｄ．,,外国会社等,,,,,,,,Ｎｏ．２－１１，ｗｅｓｔ　ｓｉｄｅ　ｏｆ　ｔｈｅ　Ｃｕｓｔｏｍｓ　Ｂｕｉｌｄｉｎｇ，Ｎｏ．１６８　Ｋａｉｆａｎｇ　Ａｖｅｎｕｅ，Ｘｉｎｙｉ　Ｅｃｏｎｏｍｉｃ　Ｄｅｖｅｌｏｐｍｅｎｔ　Ｚｏｎｅ,,,,,,2024-04-25,1,,,,,シンイーシーハイパイシャンマオヨウシエンゴンスー,0
2038,9010001244289,新規,0,2024-04-25,2024-04-25,星空デザイン株式会社,,株式会社,東京都,千代田区,神田須田町２丁目２－１８東海須田町ビル７０２,,13,101,1010041,,,,,,,2024-04-25,1,,,,,ホシソラデザイン,0
2039,9010001244297,新規,0,2024-04-25,2024-04-25,株式会社プラスワンパートナー,,株式会社,東京都,千代田区,富士見１丁目３番１１号,,13,101,1020071,,,,,,,2024-04-25,1,,,,,プラスワンパートナー,0
2040,9010001244355,新規,0,2024-04-25,2024-04-25,エムキャップ十二号株式会社,,株式会社,東京都,千代田区,丸の内３丁目１番１号国際ビル６階,,13,101,1000005,,,,,,,2024-04-25,1,,,,,エムキャップジュウニゴウ,0
2041,9010001244363,新規,0,2024-04-25,2024-04-25,株式会社ＹＡＣＥ,,株式会社,東京都,千代田区,神田練塀町５５番地パークタワー秋葉原１１０２号,,13,101,1010022,,,,,,,2024-04-25,1,,,,,ワイエース,0
2042,9010001244371,新規,0,2024-04-25,2024-04-25,株式会社コラム,,株式会社,東京都,千代田区,富士見１丁目３番１１号４Ｆ,,13,101,1020071,,,,,,,2024-04-25,1,,,,,コラム,0
2046,9010005038233,新規,0,2024-04-25,2024-04-25,特定非営利活動法人ひとり親家庭サポート団体全国協議会,,その他の設立登記法人,東京都,千代田区,飯田橋１丁目８番９号ニューシティハイツ飯田橋８０３,,13,101,1020072,,,,,,,2024-04-25,1,,,,,ヒトリオヤカテイサポートダンタイゼンコクキョウギカイ,0
2050,9010401182080,新規,0,2024-04-25,2024-04-25,Ｏｍｏｔｅｎａｓｈｉ　Ｅｎｔｅｒｐｒｉｓｅｓ株式会社,,株式会社,東京都,港区,西新橋３丁目２４番８号山内ビル３階,,13,103,1050003,,,,,,,2024-04-25,1,,,,,オモテナシエンタープライセス,0
2051,9010403032481,新規,0,2024-04-25,2024-04-25,合同会社イレブン,,合同会社,東京都,港区,浜松町２丁目２番１５号浜松町ダイヤビル２Ｆ,,13,103,1050013,,,,,,,2024-04-25,1,,,,,イレブン,0
2054,9010603010782,新規,0,2024-04-25,2024-04-25,合同会社ＳｕｍｉｄａＬａｂ,,合同会社,東京都,墨田区,京島３丁目５５番５－１００１号ナイスアーバン京島,,13,107,1310046,,,,,,,2024-04-25,1,,,,,スミダラボ,0
2058,9010701045895,新規,0,2024-04-25,2024-04-25,株式会社シグマ地所,,株式会社,東京都,品川区,大井３丁目１９番２０号,,13,109,1400014,,,,,,,2024-04-25,1,,,,,シグマジショ,0
2060,9010801035004,新規,0,2024-04-25,2024-04-25,株式会社貴水工業,,株式会社,東京都,大田区,大森東５丁目２０番２号,,13,111,1430012,,,,,,,2024-04-25,1,,,,,タカミコウギョウ,0
2067,9011001161557,新規,0,2024-04-25,2024-04-25,Ｔ　ｃｏｍｐａｎｙ株式会社,,株式会社,東京都,渋谷区,東３丁目２２番１１号３Ｆ,,13,113,1500011,,,,,,,2024-04-25,1,,,,,ティーカンパニー,0
2069,9011003019010,新規,0,2024-04-25,2024-04-25,合同会社ＬＵＣＥ,,合同会社,東京都,渋谷区,道玄坂１丁目１３－２宝ビル２階,,13,113,1500043,,,,,,,2024-04-25,1,,,,,ルーチェ,0
2070,9011003019027,新規,0,2024-04-25,2024-04-25,合同会社ＵＧ,,合同会社,東京都,目黒区,鷹番３丁目８番６号パロ学芸大学４Ｆ,,13,110,1520004,,,,,,,2024-04-25,1,,,,,ユージー,0
2082,9011205002598,新規,0,2024-04-25,2024-04-25,一般社団法人日本救急救命士会,,その他の設立登記法人,東京都,中野区,中野２丁目２番３号株式会社へるす出版内,,13,114,1640001,,,,,,,2024-04-25,1,,,,,ニホンキュウキュウキュウメイシカイ,0
2086,9011401026038,新規,0,2024-04-25,2024-04-25,株式会社熾天堂,,株式会社,東京都,板橋区,板橋１丁目１２番８－８０２号,,13,119,1730004,,,,,,,2024-04-25,1,,,,,シテンドウ,0
2087,9011403004363,新規,0,2024-04-25,2024-04-25,合同会社ＴＳＲ,,合同会社,東京都,板橋区,南町４８－７,,13,119,1730027,,,,,,,2024-04-25,1,,,,,ティーエスアール,0
2091,9011503006037,新規,0,2024-04-25,2024-04-25,合同会社ＴＲＡＸダイヤ,,合同会社,東京都,荒川区,東日暮里２丁目４４番１１号,,13,118,1160014,,,,,,,2024-04-25,1,,,,,トラックスダイヤ,0
2093,9011601027694,新規,0,2024-04-25,2024-04-25,明朗企業株式会社,,株式会社,東京都,練馬区,石神井台６丁目１－２３アートパレス大Ｎｏ３－１０３,,13,120,1770045,,,,,,,2024-04-25,1,,,,,メイロウキギョウ,0
2094,9011601027711,新規,0,2024-04-25,2024-04-25,株式会社ｏｔｏｗａ,,株式会社,東京都,練馬区,早宮３丁目５６－９,,13,120,1790085,,,,,,,2024-04-25,1,,,,,オトワ,0
2096,9011603004312,新規,0,2024-04-25,2024-04-25,合同会社ＴＦラムダ,,合同会社,東京都,練馬区,氷川台４丁目４７番１８号,,13,120,1790084,,,,,,,2024-04-25,1,,,,,ティーエフラムダ,0
2097,9011701027215,新規,0,2024-04-25,2024-04-25,ミシン株式会社,,株式会社,東京都,江戸川区,松島３丁目１４番７－３１３号若林ビル,,13,123,1320031,,,,,,,2024-04-25,1,,,,,ミシン,0
2098,9011801044143,新規,0,2024-04-25,2024-04-25,株式会社大日本空間,,株式会社,東京都,足立区,南花畑３丁目３３番２５号第二野村Ｂ１０１,,13,121,1210062,,,,,,,2024-04-25,1,,,,,ダイニホンクウカン,0
2105,9012701018212,新規,0,2024-04-25,2024-04-25,株式会社ミソラ,,株式会社,東京都,小平市,回田町２７０番地の１２,,13,211,1870013,,,,,,,2024-04-25,1,,,,,ミソラ,0
2106,9012701018220,新規,0,2024-04-25,2024-04-25,株式会社鬼灯,,株式会社,東京都,西東京市,谷戸町３丁目２８番１６号,,13,229,1880001,,,,,,,2024-04-25,1,,,,,ホオズキ,0
2115,9020003025991,新規,0,2024-04-25,2024-04-25,合同会社こはるの森,,合同会社,神奈川県,横浜市神奈川区,金港町５－１４クアドリフォリオ８階,,14,102,2210056,,,,,,,2024-04-25,1,,,,,コハルノモリ,0
2122,9030001159972,新規,0,2024-04-25,2024-04-25,株式会社ケアサポート優,,株式会社,埼玉県,川口市,大字峯１５４９番地の１８,,11,203,3340056,,,,,,,2024-04-25,1,,,,,ケアサポートユウ,0
2123,9030001159989,新規,0,2024-04-25,2024-04-25,株式会社佐々木工業,,株式会社,埼玉県,越谷市,越ヶ谷３丁目１番１号,,11,222,3430813,,,,,,,2024-04-25,1,,,,,ササキコウギョウ,0
2124,9030001160014,新規,0,2024-04-25,2024-04-25,株式会社クラトリ,,株式会社,埼玉県,さいたま市大宮区,桜木町２丁目３番地大宮マルイ７階,,11,103,3300854,,,,,,,2024-04-25,1,,,,,クラトリ,0
2133,9030003024159,新規,0,2024-04-25,2024-04-25,祝氏合同会社,,合同会社,埼玉県,川口市,三ツ和１丁目２４番１２号,,11,203,3340011,,,,,,,2024-04-25,1,,,,,シュクシ,0
2134,9030003024167,新規,0,2024-04-25,2024-04-25,合同会社ミロクトレード,,合同会社,埼玉県,さいたま市大宮区,桜木町２丁目３大宮マルイ７階,,11,103,3300854,,,,,,,2024-04-25,1,,,,,ミロクトレード,0
2141,9040001133316,新規,0,2024-04-25,2024-04-25,株式会社彩と静のあるくらし,,株式会社,千葉県,佐倉市,飯塚２０３番地１,,12,212,2850076,,,,,,,2024-04-25,1,,,,,サイトセイノアルクラシ,0
2145,9040003024851,新規,0,2024-04-25,2024-04-25,合同会社水玉ヘルパーステーション,,合同会社,千葉県,千葉市若葉区,加曽利町１０３２番地１０３,,12,104,2640017,,,,,,,2024-04-25,1,,,,,ミズタマヘルパーステーション,0
2150,9050005013439,新規,0,2024-04-25,2024-04-25,一般社団法人大竹Ｓ．Ｌ．Ｓ．Ｃ．,,その他の設立登記法人,茨城県,つくば市,稲荷前２０番地１８,,08,220,3050061,,,,,,,2024-04-25,1,,,,,オオタケエスエルエスシー,0
2159,9070003005386,新規,0,2024-04-25,2024-04-25,Ａ　Ｒｅｈｍａｎ　Ｊａｐａｎ合同会社,,合同会社,群馬県,藤岡市,岡之郷１４２９番地３,,10,209,3750011,,,,,,,2024-04-25,1,,,,,エイレーマンジャパン,0
2160,9080101024700,新規,0,2024-04-25,2024-04-25,株式会社マルベリーリゾート,,株式会社,静岡県,伊東市,富戸９１１番地の１１１,,22,208,4130231,,,,,,,2024-04-25,1,,,,,マルベリーリゾート,0
2171,9100003007511,新規,0,2024-04-25,2024-04-25,合同会社こひつじ,,合同会社,長野県,飯田市,長野原４２０番地,,20,205,3992562,,,,,,,2024-04-25,1,,,,,,0
2179,9120001264326,新規,0,2024-04-25,2024-04-25,株式会社ＭＴＯ,,株式会社,大阪府,門真市,末広町４０番１１号,,27,223,5710030,,,,,,,2024-04-25,1,,,,,エムティオー,0
2180,9120001264367,新規,0,2024-04-25,2024-04-25,株式会社ＳＥＮＡＭＩエステート,,株式会社,大阪府,大阪市鶴見区,鶴見２丁目５番３５号,,27,124,5380053,,,,,,,2024-04-25,1,,,,,セナミエステート,0
2181,9120001264391,新規,0,2024-04-25,2024-04-25,株式会社Ｋｉｎｓｈｉｐ,,株式会社,大阪府,大阪市淀川区,十三東２丁目７番１５号,,27,123,5320023,,,,,,,2024-04-25,1,,,,,キンシップ,0
2182,9120001264417,新規,0,2024-04-25,2024-04-25,株式会社とゆたは,,株式会社,大阪府,大阪市西区,本田１丁目３番３３－１００２号,,27,106,5500022,,,,,,,2024-04-25,1,,,,,トユタハ,0
2186,9120003026427,新規,0,2024-04-25,2024-04-25,ＫＨＩＺＡＲ　ＴＲＡＤＩＮＧ合同会社,,合同会社,大阪府,大阪市平野区,西脇３丁目１番８－１０１号,,27,126,5470035,,,,,,,2024-04-25,1,,,,,キザルトレーディング,0
2187,9120003026435,新規,0,2024-04-25,2024-04-25,合同会社ｂｌｕｅ,,合同会社,大阪府,大阪市中央区,上本町西３丁目１－４１空堀上田ビル１Ｆ,,27,128,5420062,,,,,,,2024-04-25,1,,,,,ブルー,0
2188,9120003026443,新規,0,2024-04-25,2024-04-25,ＥＡＶＹ　ＪＡＰＡＮ合同会社,,合同会社,大阪府,大阪市北区,梅田１丁目１番３号大阪駅前第３ビル２９階１－１－１号室,,27,127,5300001,,,,,,,2024-04-25,1,,,,,イービージャパン,0
2189,9120101069476,新規,0,2024-04-25,2024-04-25,株式会社ＡＲＴ　ＬＩＦＥ,,株式会社,大阪府,岸和田市,池尻町１５８番地の２,,27,202,5960813,,,,,,,2024-04-25,1,,,,,アートライフ,0
2197,9122001038032,新規,0,2024-04-25,2024-04-25,株式会社雅堂,,株式会社,大阪府,八尾市,恩智南町２丁目３１番地,,27,212,5810884,,,,,,,2024-04-25,1,,,,,ミヤビドウ,0
2201,9130001076935,新規,0,2024-04-25,2024-04-25,株式会社一路,,株式会社,京都府,京都市右京区,西京極長町３－１サンマンション西京極５１２,,26,108,6150831,,,,,,,2024-04-25,1,,,,,イチロ,0
2206,9140001134205,新規,0,2024-04-25,2024-04-25,株式会社リバービーチ,,株式会社,兵庫県,神戸市西区,伊川谷町有瀬４９９番地の２－１１０号室,,28,111,6512113,,,,,,,2024-04-25,1,,,,,リバービーチ,0
2207,9140001134221,新規,0,2024-04-25,2024-04-25,株式会社ライズアット,,株式会社,兵庫県,三木市,吉川町豊岡２０７７番地,,28,215,6731243,,,,,,,2024-04-25,1,,,,,ライズアット,0
2209,9140003020485,新規,0,2024-04-25,2024-04-25,合同会社コアライエステ,,合同会社,兵庫県,神戸市西区,狩場台５丁目３－５８,,28,111,6512272,,,,,,,2024-04-25,1,,,,,コアライエステ,0
2210,9150005009583,新規,0,2024-04-25,2024-04-25,医療法人波集会,,その他の設立登記法人,奈良県,北葛城郡河合町,星和台２丁目１番地１３,,29,427,6360081,,,,,,,2024-04-25,1,,,,,ハシュウカイ,0
2211,9170001018108,新規,0,2024-04-25,2024-04-25,株式会社オーエヌティー,,株式会社,和歌山県,和歌山市,鳴神６４２番地１８,,30,201,6408303,,,,,,,2024-04-25,1,,,,,オーエヌティー,0
2217,9180001161113,新規,0,2024-04-25,2024-04-25,株式会社ＴｒｅｙＬｉｎｋ,,株式会社,愛知県,名古屋市中村区,平池町４丁目６０番地１２,,23,105,4530872,,,,,,,2024-04-25,1,,,,,トレイリンク,0
2218,9180001161138,新規,0,2024-04-25,2024-04-25,株式会社ルース,,株式会社,愛知県,春日井市,二子町１丁目７番地５,,23,206,4860955,,,,,,,2024-04-25,1,,,,,ルース,0
2219,9180001161146,新規,0,2024-04-25,2024-04-25,株式会社Ｍａｒｍ,,株式会社,愛知県,稲沢市,高御堂２丁目４番２８－２０６号,,23,220,4928213,,,,,,,2024-04-25,1,,,,,マーム,0
2229,9180003026677,新規,0,2024-04-25,2024-04-25,合同会社シュリー,,合同会社,愛知県,名古屋市中区,栄１丁目２番３号,,23,106,4600008,,,,,,,2024-04-25,1,,,,,シュリー,0
2238,9220001025973,新規,0,2024-04-25,2024-04-25,株式会社ウィンプラス,,株式会社,石川県,七尾市,石崎町ヨ部５８番地３,,17,202,9260171,,,,,,,2024-04-25,1,,,,,ウィンプラス,0
2242,9240001063113,新規,0,2024-04-25,2024-04-25,株式会社フィーグ,,株式会社,広島県,尾道市,山波町６４４－１,,34,205,7220052,,,,,,,2024-04-25,1,,,,,フィーグ,0
2251,9290001105298,新規,0,2024-04-25,2024-04-25,株式会社ＲＣパートナー,,株式会社,福岡県,みやま市,高田町江浦町５３０番地,,40,229,8390212,,,,,,,2024-04-25,1,,,,,アールシーパートナー,0
2252,9290001105471,新規,0,2024-04-25,2024-04-25,株式会社真度華,,株式会社,福岡県,福岡市博多区,空港前３丁目２５－１,,40,132,8120002,,,,,,,2024-04-25,1,,,,,マドカ,0
2253,9290001105496,新規,0,2024-04-25,2024-04-25,株式会社ＡＩＤＭＡ,,株式会社,福岡県,糟屋郡粕屋町,大字上大隈５６０番地１オフィスパレア粕屋ＩＶ５号,,40,349,8112301,,,,,,,2024-04-25,1,,,,,アイドマ,0
2258,9290803004706,新規,0,2024-04-25,2024-04-25,合同会社ぽーちゅらか,,合同会社,福岡県,北九州市小倉南区,八重洲町７番３０号,,40,107,8020831,,,,,,,2024-04-25,1,,,,,ポーチュラカ,0
2261,9310003004784,新規,0,2024-04-25,2024-04-25,合同会社晴々,,合同会社,長崎県,長崎市,江戸町５番８号２Ｆ,,42,201,8500861,,,,,,,2024-04-25,1,,,,,ハレバレ,0
2263,9320001020428,新規,0,2024-04-25,2024-04-25,株式会社纏,,株式会社,大分県,大分市,大字種具７８８番地の５,,44,201,8700274,,,,,,,2024-04-25,1,,,,,マトイ,0
2266,9350005006230,新規,0,2024-04-25,2024-04-25,医療法人優,,その他の設立登記法人,宮崎県,児湯郡高鍋町,大字北高鍋１３６番地３,,45,401,8840002,,,,,,,2024-04-25,1,,,,,ユウ,0
2271,9380001034471,新規,0,2024-04-25,2024-04-25,株式会社ティーワークス,,株式会社,福島県,須賀川市,向陽町１４８番地４,,07,207,9620401,,,,,,,2024-04-25,1,,,,,ティーワークス,0
2272,9380001034488,新規,0,2024-04-25,2024-04-25,株式会社Ｏａｓｉｓ,,株式会社,福島県,いわき市,小浜町渚６８番地,,07,204,9748221,,,,,,,2024-04-25,1,,,,,オアシス,0
2273,9380003005743,新規,0,2024-04-25,2024-04-25,ｅｔｅｒｎｏ合同会社,,合同会社,福島県,福島市,太平寺字児子塚２３番地の４パセオファミールハウスＢ棟２０１,,07,201,9608151,,,,,,,2024-04-25,1,,,,,エテノ,0
2287,9430003016264,新規,0,2024-04-25,2024-04-25,合同会社Ｖａｌｕｅ　Ｃｒｅａｔｅ,,合同会社,北海道,札幌市豊平区,美園六条２丁目１番１５‐１０３号,,01,105,0620006,,,,,,,2024-04-25,1,,,,,バリュークリエイト,0
2288,9430005014943,新規,0,2024-04-25,2024-04-25,特定非営利活動法人由仁町情報技術教育推進会,,その他の設立登記法人,北海道,夕張郡由仁町,東栄４６２番地の７,,01,427,0691203,,,,,,,2024-04-25,1,,,,,ユニチョウジョウホウギジュツキョウイクスイシンカイ,0
2290,9460001005893,新規,0,2024-04-25,2024-04-25,株式会社厚岸カムイ,,株式会社,北海道,厚岸郡厚岸町,白浜３丁目１０３番地,,01,662,0881125,,,,,,,2024-04-25,1,,,,,アッケシカムイ,0
2292,9470005006565,新規,0,2024-04-25,2024-04-25,一般社団法人日本風前景観保全協会,,その他の設立登記法人,香川県,仲多度郡まんのう町,中通８３８番地ことなみ未来館　農業部会内,,37,406,7660202,,,,,,,2024-04-25,1,,,,,,0
2296,9500003003230,新規,0,2024-04-25,2024-04-25,西日本重車輌運輸合同会社,,合同会社,愛媛県,喜多郡内子町,五百木１０８７番地１,,38,422,7913351,,,,,,,2024-04-25,1,,,,,ニシニホンジュウシャリョウウンユ,0
2297,9700150124271,新規,0,2024-04-25,2024-04-25,ＩＮＦＯＲＭＡ　ＣＯＮＮＥＣＴ　ＬＩＭＩＴＥＤ,,外国会社等,,,,,,,,５　ＨＯＷＩＣＫ　ＰＬＡＣＥ，ＬＯＮＤＯＮ　ＳＷ１Ｐ　１ＷＧ,,,,,,2024-04-25,1,,,,,インフオーマーコネクトリミテツド,0
2298,9700150125113,新規,0,2024-04-25,2024-04-25,三津区自治会,,その他,三重県,伊勢市,二見町三津３０１番地,,24,203,5190603,,,,,,,2024-04-25,1,,,,,ミツクジチカイ,0
2299,9700150125121,新規,0,2024-04-25,2024-04-25,エーエルティー日本事務所,,外国会社等,東京都,港区,赤坂２丁目５－８ヒューリックＪＰ赤坂ビル４１２号室,,13,103,1070052,大韓民国京畿道城南市盆唐区城南大路３３１番地ギル８、１２０１号,,,,,,2024-04-25,1,,,,,エーエルテイーニホンジムシヨ,0
