sequenceNumber,corporateNumber,process,correct,updateDate,changeDate,name,nameImageId,kind,prefectureName,cityName,streetNumber,addressImageId,prefectureCode,cityCode,postCode,addressOutside,addressOutsideImageId,closeDate,closeCause,successorCorporateNumber,changeCause,assignmentDate,latest,enName,enPrefectureName,enCityName,enAddressOutside,furigana,hihyoji
17,1010001229719,新規,0,2022-09-27,2022-09-27,Ｔｒｕｔｈ　Ｂｒｏｔｈｅｒｓ株式会社,,株式会社,東京都,千代田区,丸の内２丁目５番１号,,13,101,1000005,,,,,,,2022-09-27,1,,,,,トゥルースブラザーズ,0
45,1011001149824,新規,0,2022-09-27,2022-09-27,株式会社ＡＳＵＮＡ,,株式会社,東京都,渋谷区,幡ヶ谷１丁目８番地４リッツパラシオ８０３,,13,113,1510072,,,,,,,2022-09-27,1,,,,,アスナ,0
46,1011001149907,新規,0,2022-09-27,2022-09-27,株式会社ｍｅａｄｏｗ,,株式会社,東京都,目黒区,上目黒１丁目１０番４号アークハウス代官山４Ｆ,,13,110,1530051,,,,,,,2022-09-27,1,,,,,メドー,0
47,1011001149956,新規,0,2022-09-27,2022-09-27,株式会社うさぎとかめ,,株式会社,東京都,渋谷区,代々木３丁目３３－７フォレストタウン参宮橋１１０２,,13,113,1510053,,,,,,,2022-09-27,1,,,,,ウサギトカメ,0
49,1011003015413,新規,0,2022-09-27,2022-09-27,合同会社ＷａｔｅｒＧａｔｅ,,合同会社,東京都,渋谷区,道玄坂１丁目１０番８号渋谷道玄坂東急ビル２Ｆ－Ｃ,,13,113,1500043,,,,,,,2022-09-27,1,,,,,ウォーターゲート,0
50,1011003015421,新規,0,2022-09-27,2022-09-27,ｓｔｕｄｉｏＹ合同会社,,合同会社,東京都,渋谷区,神宮前６丁目２３番４号桑野ビル２階,,13,113,1500001,,,,,,,2022-09-27,1,,,,,スタジオワイ,0
56,1011301028117,新規,0,2022-09-27,2022-09-27,株式会社Ｌａｇｏｍｕｇｇｌａ,,株式会社,東京都,杉並区,下高井戸２丁目１番１０号,,13,115,1680073,,,,,,,2022-09-27,1,,,,,ラゴムウグラ,0
59,1011401024560,新規,0,2022-09-27,2022-09-27,Ｙｏｒｄａｓ株式会社,,株式会社,東京都,板橋区,大山町５７番２号柳原大山ビル,,13,119,1730023,,,,,,,2022-09-27,1,,,,,ヨーダス,0
61,1011603003701,新規,0,2022-09-27,2022-09-27,ＡＯＲＩＯ合同会社,,合同会社,東京都,練馬区,東大泉７丁目３７番６号,,13,120,1780063,,,,,,,2022-09-27,1,,,,,アオリオ,0
68,1013301049695,新規,0,2022-09-27,2022-09-27,株式会社ＩＤ,,株式会社,東京都,豊島区,南大塚３丁目３９－６－２Ｆ,,13,116,1700005,,,,,,,2022-09-27,1,,,,,アイディー,0
77,1020001148307,新規,0,2022-09-27,2022-09-27,株式会社Ｇｏ‐Ｅｎ,,株式会社,神奈川県,横浜市都筑区,南山田２丁目７－１９,,14,118,2240029,,,,,,,2022-09-27,1,,,,,ゴーエン,0
81,1020003022451,新規,0,2022-09-27,2022-09-27,Ｃｕｄｄｌｅ合同会社,,合同会社,神奈川県,川崎市高津区,下作延１丁目１３－１１グラシア溝ノ口１０１号,,14,134,2130033,,,,,,,2022-09-27,1,,,,,カドル,0
85,1021001077058,新規,0,2022-09-27,2022-09-27,株式会社京慶,,株式会社,神奈川県,鎌倉市,七里ガ浜東３丁目９番２６号,,14,204,2480025,,,,,,,2022-09-27,1,,,,,キョウケイ,0
97,1030001150187,新規,0,2022-09-27,2022-09-27,株式会社ＭＫ,,株式会社,埼玉県,三郷市,高州２丁目４２－１,,11,237,3410037,,,,,,,2022-09-27,1,,,,,エムケー,0
100,1030003020248,新規,0,2022-09-27,2022-09-27,キュリオス合同会社,,合同会社,埼玉県,志木市,館２丁目４番７－３０７号,,11,228,3530006,,,,,,,2022-09-27,1,,,,,キュリオス,0
102,1040001125163,新規,0,2022-09-27,2022-09-27,ちば醤油ホールディングス株式会社,,株式会社,千葉県,香取市,木内１２０８番地,,12,236,2890337,,,,,,,2022-09-27,1,,,,,チバショウユホールディングス,0
103,1040001125188,新規,0,2022-09-27,2022-09-27,株式会社ＢＶＣ,,株式会社,千葉県,野田市,木間ケ瀬１４４９番地の１,,12,208,2700222,,,,,,,2022-09-27,1,,,,,ビーブイシー,0
104,1040001125205,新規,0,2022-09-27,2022-09-27,株式会社Ｋ,,株式会社,千葉県,松戸市,松戸１０７６番地,,12,207,2710092,,,,,,,2022-09-27,1,,,,,ケイ,0
109,1050001051706,新規,0,2022-09-27,2022-09-27,ＶＢ　ＥＸＣＥＬＬＥＮＣＥ株式会社,,株式会社,茨城県,稲敷市,村田２９３番地１,,08,229,3000505,,,,,,,2022-09-27,1,,,,,ブイビーエクセレンス,0
110,1050001051714,新規,0,2022-09-27,2022-09-27,株式会社Ｌ’Ｂｌｏｗ,,株式会社,茨城県,稲敷郡阿見町,住吉２丁目１５番地１,,08,443,3001158,,,,,,,2022-09-27,1,,,,,エルブロー,0
112,1070001039666,新規,0,2022-09-27,2022-09-27,高原貿易株式会社,,株式会社,群馬県,高崎市,上佐野町９５番地１スターアリスＩＩ１０１号,00127929,10,202,3700857,,,,,,,2022-09-27,1,,,,,コウゲンボウエキ,0
119,1080403004622,新規,0,2022-09-27,2022-09-27,合同会社レッドアイエナジー,,合同会社,静岡県,袋井市,山科２８８６番地の２,,22,216,4370066,,,,,,,2022-09-27,1,,,,,レッドアイエナジー,0
134,1120001248971,新規,0,2022-09-27,2022-09-27,株式会社Ｌａｂｏｒ　ｄｕ　ｍａｉｊｕ,,株式会社,大阪府,枚方市,長尾元町１丁目１番４号,,27,210,5730163,,,,,,,2022-09-27,1,,,,,,0
135,1120001249053,新規,0,2022-09-27,2022-09-27,Ｉｎｎｏｖａｔｅ　Ｎｅｗ　Ｍａｔｅｒｉａｌ株式会社,,株式会社,大阪府,大阪市中央区,松屋町９番２０号ローレルステート松屋町５０４Ａ,,27,128,5420067,,,,,,,2022-09-27,1,,,,,イノベイトニューマテリアル,0
136,1120001249078,新規,0,2022-09-27,2022-09-27,晴耕株式会社,,株式会社,大阪府,大阪市浪速区,恵美須西１丁目３－４坂本ビル３０１号,,27,111,5560003,,,,,,,2022-09-27,1,,,,,セイコウ,0
140,1120003022540,新規,0,2022-09-27,2022-09-27,合同会社ＱＵＩＮ,,合同会社,大阪府,大阪市浪速区,恵美須東１丁目２１番２号大阪えびすホテル７０７号室,,27,111,5560002,,,,,,,2022-09-27,1,,,,,クイン,0
144,1120905006376,新規,0,2022-09-27,2022-09-27,特定非営利活動法人徳子の会,,その他の設立登記法人,大阪府,豊中市,永楽荘１丁目９番５－１０４号,,27,203,5600051,,,,,,,2022-09-27,1,,,,,トクシノカイ,0
150,1122001036258,新規,0,2022-09-27,2022-09-27,株式会社ＳＵＮＳ　ＦＡＣＴＯＲＹ,,株式会社,大阪府,柏原市,大正２丁目７－５,,27,221,5820009,,,,,,,2022-09-27,1,,,,,サンズファクトリー,0
157,1140003018132,新規,0,2022-09-27,2022-09-27,合同会社ＴＨＥ　ＬＩＧＨＴ　ＨＯＵＳＥ,,合同会社,兵庫県,神戸市中央区,中山手通４丁目１７番２９号,,28,110,6500004,,,,,,,2022-09-27,1,,,,,ザライトハウス,0
158,1140003018149,新規,0,2022-09-27,2022-09-27,合同会社オフィスプラスワン,,合同会社,兵庫県,神戸市兵庫区,水木通５丁目２番１２号,,28,105,6520802,,,,,,,2022-09-27,1,,,,,オフィスプラスワン,0
167,1180001153126,新規,0,2022-09-27,2022-09-27,株式会社ナイトブルー,,株式会社,愛知県,名古屋市中村区,名駅南１丁目１２番１７号プレサンスロジェ名古屋駅ＳＯＵＴＨ７０４号,,23,105,4500003,,,,,,,2022-09-27,1,,,,,ナイトブルー,0
172,1180003024291,新規,0,2022-09-27,2022-09-27,合同会社ユウビ,,合同会社,愛知県,名古屋市千種区,新池町１丁目２１番地の２（ザ・パークハウス東山公園４０４号）,,23,101,4640027,,,,,,,2022-09-27,1,,,,,ユウビ,0
174,1180301036658,新規,0,2022-09-27,2022-09-27,風蘭株式会社,,株式会社,愛知県,豊川市,赤坂町松本１７６番地１,,23,207,4410202,,,,,,,2022-09-27,1,,,,,フウラン,0
182,1230005009260,新規,0,2022-09-27,2022-09-27,一般社団法人Ｃｙｊｏ,,その他の設立登記法人,富山県,高岡市,横田町１丁目２番４号,,16,202,9330842,,,,,,,2022-09-27,1,,,,,サイジョー,0
183,1240001060398,新規,0,2022-09-27,2022-09-27,株式会社ＭＵＳＵＢＵ,,株式会社,広島県,広島市安佐南区,八木７丁目３番１２号,,34,105,7310101,,,,,,,2022-09-27,1,,,,,ムスブ,0
195,1260001037262,新規,0,2022-09-27,2022-09-27,株式会社Ｓｉｏｎ‐Ｎ＆Ｃ,,株式会社,岡山県,倉敷市,児島阿津１丁目２１番３５号,,33,202,7110923,,,,,,,2022-09-27,1,,,,,シオンエヌアンドシー,0
206,1290003012979,新規,0,2022-09-27,2022-09-27,エムビーエム合同会社,,合同会社,福岡県,大野城市,川久保３丁目２－１－Ａ２０２,,40,219,8160905,,,,,,,2022-09-27,1,,,,,エムビーエム,0
211,1330001030128,新規,0,2022-09-27,2022-09-27,株式会社優しい住まい,,株式会社,熊本県,熊本市南区,合志２丁目２番２３号,,43,104,8614111,,,,,,,2022-09-27,1,,,,,ヤサシイスマイ,0
212,1330003009525,新規,0,2022-09-27,2022-09-27,ＰＲＯＫ合同会社,,合同会社,熊本県,熊本市北区,龍田陳内３丁目２０番７０号,,43,105,8618005,,,,,,,2022-09-27,1,,,,,プロケイ,0
221,1370001049081,新規,0,2022-09-27,2022-09-27,株式会社エム・エー・エス,,株式会社,宮城県,仙台市泉区,長命ケ丘５丁目１－９,,04,105,9813212,,,,,,,2022-09-27,1,,,,,エムエーエス,0
229,1380001033134,新規,0,2022-09-27,2022-09-27,株式会社Ｆｕｎ　ｃｈａｓｅ,,株式会社,福島県,会津若松市,北会津町三本松字中大川向１０２番地,,07,202,9696184,,,,,,,2022-09-27,1,,,,,ファンチェイス,0
230,1390003002004,新規,0,2022-09-27,2022-09-27,合同会社龍桜,,合同会社,山形県,酒田市,千代田字外野４４,,06,204,9998422,,,,,,,2022-09-27,1,,,,,リュウオウ,0
238,1460101007252,新規,0,2022-09-27,2022-09-27,農地所有適格法人株式会社十勝トヨコロファーム,,株式会社,北海道,中川郡豊頃町,統内１２３番地,,01,645,0895301,,,,,,,2022-09-27,1,,,,,トカチトヨコロファーム,0
257,2010001229635,新規,0,2022-09-27,2022-09-27,株式会社ＫＡＺＵＴＯＹＯ,,株式会社,東京都,中央区,銀座１丁目１２－４Ｎ＆ＥＢＬＤ．７階,,13,102,1040061,,,,,,,2022-09-27,1,,,,,カズトヨ,0
258,2010001229668,新規,0,2022-09-27,2022-09-27,ＮＪＴホールディングス株式会社,,株式会社,東京都,千代田区,永田町１丁目１１番３０号サウスヒル永田町５階,,13,101,1000014,,,,,,,2022-09-27,1,,,,,エヌジェイティーホールディングス,0
259,2010001229692,新規,0,2022-09-27,2022-09-27,株式会社Ｓｃｋｅｔ,,株式会社,東京都,千代田区,神田三崎町２丁目１７番８号ドメス水道橋２Ｆ,,13,101,1010061,,,,,,,2022-09-27,1,,,,,スケット,0
263,2010003038737,新規,0,2022-09-27,2022-09-27,合同会社ウメモトファーム,,合同会社,東京都,中央区,晴海３丁目１３番１－５０９号,,13,102,1040053,,,,,,,2022-09-27,1,,,,,ウメモトファーム,0
266,2010005035575,新規,0,2022-09-27,2022-09-27,ＮＰＯ法人ツナグ‐Ｆｏｏｔｂａｌｌｅｒ,,その他の設立登記法人,東京都,中央区,銀座１丁目２２番１１号銀座大竹ビジデンス２階,,13,102,1040061,,,,,,,2022-09-27,1,,,,,ツナグフットボーラー,0
267,2010005035600,新規,0,2022-09-27,2022-09-27,一般社団法人ＮｅＸＥＨＲＳ,,その他の設立登記法人,東京都,中央区,銀座２丁目９番１３号,,13,102,1040061,,,,,,,2022-09-27,1,,,,,ネクサーズ,0
282,2010401169811,新規,0,2022-09-27,2022-09-27,株式会社ＦＲＡＣＴＡＬ,,株式会社,東京都,港区,南青山３丁目１番３６号青山丸竹ビル６Ｆ,,13,103,1070062,,,,,,,2022-09-27,1,,,,,フラクタル,0
283,2010401169885,新規,0,2022-09-27,2022-09-27,日本森林トラスト株式会社,,株式会社,東京都,港区,芝２丁目５番１０号芝公園ＮＤビル,,13,103,1050014,,,,,,,2022-09-27,1,,,,,ニホンシンリントラスト,0
285,2010403028552,新規,0,2022-09-27,2022-09-27,ＳＭＡＲＴ　ＢＡＳＥ合同会社,,合同会社,東京都,港区,浜松町２丁目２番１５号浜松町ダイヤビル２Ｆ,,13,103,1050013,,,,,,,2022-09-27,1,,,,,スマートベース,0
293,2010601061891,新規,0,2022-09-27,2022-09-27,Ｚｅｒｏｖａ株式会社,,株式会社,東京都,江東区,東陽３丁目２３番２４号,,13,108,1350016,,,,,,,2022-09-27,1,,,,,ゼロヴァ,0
308,2011001149914,新規,0,2022-09-27,2022-09-27,株式会社ロイスコーポレーション,,株式会社,東京都,渋谷区,恵比寿西１丁目１０番８号,,13,113,1500021,,,,,,,2022-09-27,1,,,,,,0
309,2011001149930,新規,0,2022-09-27,2022-09-27,ＩＬＴＣ株式会社,,株式会社,東京都,目黒区,鷹番３丁目６－７,,13,110,1520004,,,,,,,2022-09-27,1,,,,,アイエルティーシー,0
310,2011001149955,新規,0,2022-09-27,2022-09-27,株式会社カンパレット,,株式会社,東京都,渋谷区,神宮前６丁目２３番４号桑野ビル２階,,13,113,1500001,,,,,,,2022-09-27,1,,,,,カンパレット,0
315,2011101100289,新規,0,2022-09-27,2022-09-27,株式会社ＮＡ　２ｎｄ,,株式会社,東京都,新宿区,新宿６丁目２６番８号ＮＡビル,,13,104,1600022,,,,,,,2022-09-27,1,,,,,,0
318,2011301028116,新規,0,2022-09-27,2022-09-27,株式会社ＳＴＵＤＩＯ　ＦＩＶＥ,,株式会社,東京都,杉並区,阿佐谷南１丁目３０番２号,,13,115,1660004,,,,,,,2022-09-27,1,,,,,スタジオファイブ,0
320,2011403003776,新規,0,2022-09-27,2022-09-27,ＴＫＣ合同会社,,合同会社,東京都,板橋区,赤塚７丁目１３番地３３号,,13,119,1750092,,,,,,,2022-09-27,1,,,,,ティーケーシー,0
335,2013301049694,新規,0,2022-09-27,2022-09-27,株式会社オネスティーパートナーズ,,株式会社,東京都,豊島区,池袋２丁目１４番１１号,,13,116,1710014,,,,,,,2022-09-27,1,,,,,オネスティーパートナーズ,0
336,2013301049711,新規,0,2022-09-27,2022-09-27,杉金東京株式会社,,株式会社,東京都,豊島区,北大塚３丁目３４番１号,,13,116,1700004,,,,,,,2022-09-27,1,,,,,シャンジントウキョウ,0
341,2020001148297,新規,0,2022-09-27,2022-09-27,株式会社アスリード,,株式会社,神奈川県,横浜市磯子区,磯子８丁目１１－１,,14,107,2350016,,,,,,,2022-09-27,1,,,,,アスリード,0
342,2020001148314,新規,0,2022-09-27,2022-09-27,株式会社アテナ,,株式会社,神奈川県,横浜市都筑区,東山田４丁目２４番３号,,14,118,2240023,,,,,,,2022-09-27,1,,,,,アテナ,0
345,2021001077057,新規,0,2022-09-27,2022-09-27,ＳＭＳ　ＳＨＯＫＡＩ株式会社,,株式会社,神奈川県,綾瀬市,落合南８丁目５９２番地１,,14,218,2521115,,,,,,,2022-09-27,1,,,,,エスエムエスショウカイ,0
353,2030001150203,新規,0,2022-09-27,2022-09-27,株式会社ＧＡＫＵ,,株式会社,埼玉県,川口市,安行出羽３丁目９番１４号,,11,203,3340052,,,,,,,2022-09-27,1,,,,,ガク,0
354,2030001150211,新規,0,2022-09-27,2022-09-27,株式会社ホービズ,,株式会社,埼玉県,草加市,新栄１丁目１１番地８,,11,221,3400056,,,,,,,2022-09-27,1,,,,,ホービズ,0
359,2030003020239,新規,0,2022-09-27,2022-09-27,合同会社金冠,,合同会社,埼玉県,川口市,西川口２丁目１７番６－１３０３号,,11,203,3320021,,,,,,,2022-09-27,1,,,,,カネカン,0
361,2040001124899,新規,0,2022-09-27,2022-09-27,ＫＩＫＵＣＨＩホールディングス株式会社,,株式会社,千葉県,浦安市,当代島１丁目１６番１６号,,12,227,2790001,,,,,,,2022-09-27,1,,,,,キクチホールディングス,0
362,2040001125187,新規,0,2022-09-27,2022-09-27,東栄商事株式会社,,株式会社,千葉県,市原市,海士有木７１７－６,,12,219,2900207,,,,,,,2022-09-27,1,,,,,トウエイショウジ,0
364,2040005021738,新規,0,2022-09-27,2022-09-27,一般社団法人やまとなでしこ,,その他の設立登記法人,千葉県,船橋市,本町６丁目４番２３号,,12,204,2730005,,,,,,,2022-09-27,1,,,,,ヤマトナデシコ,0
365,2050001051705,新規,0,2022-09-27,2022-09-27,アスピレーションズ株式会社,,株式会社,茨城県,龍ケ崎市,小通幸谷町５６４番地２９,,08,208,3010034,,,,,,,2022-09-27,1,,,,,アスピレーションズ,0
366,2050001051713,新規,0,2022-09-27,2022-09-27,株式会社大進,,株式会社,茨城県,土浦市,板谷１丁目６６６－３６,,08,203,3000007,,,,,,,2022-09-27,1,,,,,ダイシン,0
370,2070001039665,新規,0,2022-09-27,2022-09-27,株式会社Ｇａｒａｇｅ３５４,,株式会社,群馬県,高崎市,南大類町５７８番地２,,10,202,3700036,,,,,,,2022-09-27,1,,,,,ガレージサンゴーヨン,0
373,2080403004621,新規,0,2022-09-27,2022-09-27,合同会社ヒノヒカリエナジー,,合同会社,静岡県,袋井市,山科２８８６番地の２,,22,216,4370066,,,,,,,2022-09-27,1,,,,,ヒノヒカリエナジー,0
379,2110005016862,新規,0,2022-09-27,2022-09-27,一般社団法人ポラリス,,その他の設立登記法人,新潟県,新潟市中央区,沼垂西３丁目２番１９号,,15,103,9500076,,,,,,,2022-09-27,1,,,,,ポラリス,0
387,2120001249069,新規,0,2022-09-27,2022-09-27,株式会社ＴＨＥ　ＯＮＥ＆ＯＮＬＹ,,株式会社,大阪府,大阪市鶴見区,鶴見４丁目１１番１０号１階,,27,124,5380053,,,,,,,2022-09-27,1,,,,,ザワンアンドオンリー,0
388,2120001249077,新規,0,2022-09-27,2022-09-27,株式会社Ｓｅｃｏｎｄ　ｐｒｏｓｐｅｒ,,株式会社,大阪府,大阪市生野区,巽南２丁目７番３１－４０６号,00127937,27,116,5440015,,,,,,,2022-09-27,1,,,,,セカンドプロスパー,0
390,2120003022531,新規,0,2022-09-27,2022-09-27,青北合同会社,,合同会社,大阪府,大阪市浪速区,下寺２丁目９番９－２０３号,,27,111,5560001,,,,,,,2022-09-27,1,,,,,アオキタ,0
391,2120003022564,新規,0,2022-09-27,2022-09-27,ＴＡＭ合同会社,,合同会社,大阪府,大阪市北区,梅田１丁目１番３号大阪駅前第３ビル２９階,,27,127,5300001,,,,,,,2022-09-27,1,,,,,ティーエーエム,0
413,2130003008182,新規,0,2022-09-27,2022-09-27,Ａ‐ｄｅｓｉｇｎ合同会社,,合同会社,京都府,京都市下京区,岩戸山町４４１－２０４号,,26,106,6008445,,,,,,,2022-09-27,1,,,,,エーデザイン,0
415,2140001127495,新規,0,2022-09-27,2022-09-27,株式会社リガール,,株式会社,兵庫県,神戸市須磨区,高倉台５丁目３番１３号,,28,107,6540081,,,,,,,2022-09-27,1,,,,,リガール,0
420,2170001017289,新規,0,2022-09-27,2022-09-27,株式会社藤崎商店,,株式会社,和歌山県,和歌山市,西浜１６６０－４０１,,30,201,6410036,,,,,,,2022-09-27,1,,,,,フジサキショウテン,0
426,2180001153109,新規,0,2022-09-27,2022-09-27,株式会社ＳＴＨコーポレーション,,株式会社,愛知県,名古屋市北区,中味鋺３丁目８１４番地,,23,103,4620015,,,,,,,2022-09-27,1,,,,,エスティエイチコーポレーション,0
427,2180003024299,新規,0,2022-09-27,2022-09-27,ＦＡＲＭ合同会社,,合同会社,愛知県,清須市,春日立作５４番地２,,23,233,4520962,,,,,,,2022-09-27,1,,,,,ファーム,0
429,2180005019941,新規,0,2022-09-27,2022-09-27,ＮＰＯ法人あいちアーツ福祉拠点設立機構,,その他の設立登記法人,愛知県,名古屋市北区,黒川本通２丁目４０番地,,23,103,4620841,,,,,,,2022-09-27,1,,,,,アイチアーツフクシキョテンセツリツキコウ,0
434,2180301036657,新規,0,2022-09-27,2022-09-27,株式会社シモン,,株式会社,愛知県,岡崎市,上六名３丁目９番地１（Ｃ－９０２）,,23,202,4440858,,,,,,,2022-09-27,1,,,,,シモン,0
436,2190001029778,新規,0,2022-09-27,2022-09-27,ｗｏｏｄｊｏｂ株式会社,,株式会社,三重県,津市,美杉町丹生俣８７７番地,,24,201,5153313,,,,,,,2022-09-27,1,,,,,ウッジョブ,0
446,2240001060397,新規,0,2022-09-27,2022-09-27,株式会社ＩＳＨＩＤＡ,,株式会社,広島県,広島市南区,宇品神田５丁目２５番１０－４０１号,,34,103,7340004,,,,,,,2022-09-27,1,,,,,イシダ,0
450,2290001098929,新規,0,2022-09-27,2022-09-27,株式会社Ｌｉｆｅ,,株式会社,福岡県,福岡市早良区,大字石釜６５９番地,,40,137,8111132,,,,,,,2022-09-27,1,,,,,ライフ,0
451,2290001098978,新規,0,2022-09-27,2022-09-27,株式会社ケラウノス,,株式会社,福岡県,福岡市博多区,博多駅南５丁目４－１,,40,132,8120016,,,,,,,2022-09-27,1,,,,,ケラウノス,0
459,2290803004209,新規,0,2022-09-27,2022-09-27,合同会社ファミリーメイド,,合同会社,福岡県,北九州市小倉南区,下吉田２丁目９番２０号,,40,107,8000203,,,,,,,2022-09-27,1,,,,,ファミリーメイド,0
466,2330003009524,新規,0,2022-09-27,2022-09-27,合同会社ＭＧＯ,,合同会社,熊本県,熊本市南区,城南町六田２７０番地１,,43,104,8614237,,,,,,,2022-09-27,1,,,,,エムジーオー,0
476,2370003005841,新規,0,2022-09-27,2022-09-27,合同会社ｃｉｒｃｕｌｕｓ,,合同会社,宮城県,仙台市宮城野区,宮城野１丁目２９番６－２０３号,,04,102,9830045,,,,,,,2022-09-27,1,,,,,サーキュラス,0
478,2390003002003,新規,0,2022-09-27,2022-09-27,エボリューション合同会社,,合同会社,山形県,山形市,大字千手堂１２７２番地１６,,06,201,9902172,,,,,,,2022-09-27,1,,,,,エボリューション,0
486,2450003002252,新規,0,2022-09-27,2022-09-27,合同会社良功商店,,合同会社,北海道,雨竜郡妹背牛町,字妹背牛８６４５番地,,01,433,0790500,,,,,,,2022-09-27,1,,,,,リョウコウショウテン,0
489,2480005006918,新規,0,2022-09-27,2022-09-27,特定非営利活動法人たすけ愛あなん,,その他の設立登記法人,徳島県,阿南市,羽ノ浦町宮倉太田４５番地３,,36,204,7791102,,,,,,,2022-09-27,1,,,,,タスケアイアナン,0
491,2490003001705,新規,0,2022-09-27,2022-09-27,合同会社ＡＮＮＡ,,合同会社,高知県,長岡郡大豊町,津家５４番地１,,39,344,7890301,,,,,,,2022-09-27,1,,,,,アンナ,0
505,3010001229691,新規,0,2022-09-27,2022-09-27,株式会社カストラプロモーション,,株式会社,東京都,中央区,日本橋茅場町２丁目１７－６いづみハイツニュー茅場町８０４号,,13,102,1030025,,,,,,,2022-09-27,1,,,,,カストラプロモーション,0
519,3010401169835,新規,0,2022-09-27,2022-09-27,株式会社プアラ,,株式会社,東京都,港区,北青山２丁目１２番４号,,13,103,1070061,,,,,,,2022-09-27,1,,,,,プアラ,0
520,3010401169851,新規,0,2022-09-27,2022-09-27,株式会社ＹＫパートナー,,株式会社,東京都,港区,麻布十番２丁目７番８号,,13,103,1060045,,,,,,,2022-09-27,1,,,,,ワイケーパートナー,0
521,3010401169884,新規,0,2022-09-27,2022-09-27,Ｇａｕｓｉｕｍ　Ｒｏｂｏｔ　Ｖｉｓｉｏｎ株式会社,,株式会社,東京都,港区,海岸１丁目７番１号,,13,103,1050022,,,,,,,2022-09-27,1,,,,,ガウシウムロボットビジョン,0
522,3010401169892,新規,0,2022-09-27,2022-09-27,株式会社ヒオン,,株式会社,東京都,港区,三田１丁目２番２０号,,13,103,1080073,,,,,,,2022-09-27,1,,,,,ヒオン,0
523,3010403028551,新規,0,2022-09-27,2022-09-27,ＪＰブランディング合同会社,,合同会社,東京都,港区,海岸１丁目２番３号汐留芝離宮ビルディング２１階,,13,103,1050022,,,,,,,2022-09-27,1,,,,,ジェイピーブランディング,0
524,3010405021422,新規,0,2022-09-27,2022-09-27,ジャパンインフラホールディングス２７号一般社団法人,,その他の設立登記法人,東京都,港区,元赤坂１丁目１番７号,,13,103,1070051,,,,,,,2022-09-27,1,,,,,ジャパンインフラホールディングスニジュウナナゴウ,0
525,3010501049391,新規,0,2022-09-27,2022-09-27,天明春暁株式会社,,株式会社,東京都,台東区,台東１丁目３２番６号小島ビル５０１号室,,13,106,1100016,,,,,,,2022-09-27,1,,,,,テンメイシュンギョウ,0
526,3010501049409,新規,0,2022-09-27,2022-09-27,ＮＩＧＨＴ　ＯＵＴ　ＧＡＬＬＥＲＹ株式会社,,株式会社,東京都,台東区,竜泉３丁目４２番３号,,13,106,1100012,,,,,,,2022-09-27,1,,,,,ナイトアウトギャラリー,0
535,3010803004292,新規,0,2022-09-27,2022-09-27,合同会社サスプラ,,合同会社,東京都,大田区,下丸子３丁目２５番２号,,13,111,1460092,,,,,,,2022-09-27,1,,,,,サスプラ,0
543,3011001149839,新規,0,2022-09-27,2022-09-27,株式会社西事務所,,株式会社,東京都,渋谷区,神宮前６丁目３４番１７号,,13,113,1500001,,,,,,,2022-09-27,1,,,,,,0
544,3011001149921,新規,0,2022-09-27,2022-09-27,株式会社日月舎,,株式会社,東京都,渋谷区,神宮前６丁目２３番４号桑野ビル２階,,13,113,1500001,,,,,,,2022-09-27,1,,,,,ヒツキシャ,0
545,3011001149954,新規,0,2022-09-27,2022-09-27,Ｎｏｖａ　Ｇｌｏｂａｌ　ＩＣＴ株式会社,,株式会社,東京都,渋谷区,神宮前６丁目２３番４号桑野ビル２階,,13,113,1500001,,,,,,,2022-09-27,1,,,,,ノバグローバルアイシィーティー,0
547,3011003015436,新規,0,2022-09-27,2022-09-27,合同会社ＭＥＡＣＯ,,合同会社,東京都,渋谷区,道玄坂１丁目１０番８号渋谷道玄坂東急ビル２Ｆ－Ｃ,,13,113,1500043,,,,,,,2022-09-27,1,,,,,,0
549,3011103012201,新規,0,2022-09-27,2022-09-27,合同会社デン,,合同会社,東京都,新宿区,西新宿３丁目３番１３号西新宿水間ビル２Ｆ,,13,104,1600023,,,,,,,2022-09-27,1,,,,,デン,0
562,3011801041303,新規,0,2022-09-27,2022-09-27,株式会社真心ホーム,,株式会社,東京都,足立区,梅島３丁目３６番１８－１０４号,,13,121,1210816,,,,,,,2022-09-27,1,,,,,マゴコロホーム,0
563,3011801041311,新規,0,2022-09-27,2022-09-27,株式会社三木,,株式会社,東京都,足立区,鹿浜６丁目２７番４号,,13,121,1230864,,,,,,,2022-09-27,1,,,,,ミキ,0
564,3012401039662,新規,0,2022-09-27,2022-09-27,Ｂｌｏｏｍｓｔｅｒ’ｓ　ＪＡＰＡＮ株式会社,,株式会社,東京都,武蔵野市,吉祥寺北町１丁目１番２０号,,13,203,1800001,,,,,,,2022-09-27,1,,,,,ブルームスターズジャパン,0
565,3012401039670,新規,0,2022-09-27,2022-09-27,株式会社齋藤会計,,株式会社,東京都,小金井市,本町１丁目１２－４かねきマンション２０１,,13,210,1840004,,,,,,,2022-09-27,1,,,,,サイトウカイケイ,0
567,3012703002541,新規,0,2022-09-27,2022-09-27,合同会社ヴィグルー,,合同会社,東京都,小平市,上水南町１丁目１１－４－３０８,,13,211,1870021,,,,,,,2022-09-27,1,,,,,ヴィグルー,0
570,3013303006305,新規,0,2022-09-27,2022-09-27,瑞森合同会社,,合同会社,東京都,豊島区,要町１丁目１番１０サブナード要町７０４号,,13,116,1710043,,,,,,,2022-09-27,1,,,,,ズイシン,0
586,3030001150185,新規,0,2022-09-27,2022-09-27,大東商事株式会社,,株式会社,埼玉県,川口市,上青木西５丁目１１番２－３０３号上青木住宅ＲＢ,,11,203,3330845,,,,,,,2022-09-27,1,,,,,ダイトウショウジ,0
587,3030001150210,新規,0,2022-09-27,2022-09-27,山英興業株式会社,,株式会社,埼玉県,さいたま市緑区,東浦和４丁目１０番３－２０１号,,11,109,3360926,,,,,,,2022-09-27,1,,,,,サンエイコウギョウ,0
588,3030001150227,新規,0,2022-09-27,2022-09-27,株式会社Ｂｒｉｌｌｏ,,株式会社,埼玉県,坂戸市,薬師町５番地２３大商ビル１０１号,,11,239,3500229,,,,,,,2022-09-27,1,,,,,ブリロ,0
592,3030003020213,新規,0,2022-09-27,2022-09-27,ＱＵＡＮＧ　ＡＮＨ　ＬＩＭＩＴＥＤ　ＥＤＩＴＩＯＮ合同会社,,合同会社,埼玉県,川口市,芝新町１２－２３ラ．プレわらび３０１,,11,203,3330851,,,,,,,2022-09-27,1,,,,,クァンアィンリミテッドエディション,0
596,3040003020889,新規,0,2022-09-27,2022-09-27,合同会社花音,,合同会社,千葉県,松戸市,常盤平１丁目１９－４,,12,207,2702261,,,,,,,2022-09-27,1,,,,,カノン,0
600,3050001051712,新規,0,2022-09-27,2022-09-27,三葉株式会社,,株式会社,茨城県,鹿嶋市,大字宮中２２１番地４桜ビル２０１,,08,222,3140031,,,,,,,2022-09-27,1,,,,,サンヨウ,0
608,3080403004620,新規,0,2022-09-27,2022-09-27,合同会社アイリッシュエネルギー,,合同会社,静岡県,袋井市,山科２８８６番地の２,,22,216,4370066,,,,,,,2022-09-27,1,,,,,アイリッシュエネルギー,0
617,3110001036979,新規,0,2022-09-27,2022-09-27,Ａｅｇ株式会社,,株式会社,新潟県,柏崎市,剣野町７番１０号,,15,205,9450835,,,,,,,2022-09-27,1,,,,,エーイージー,0
627,3120001248895,新規,0,2022-09-27,2022-09-27,元甸株式会社,,株式会社,大阪府,大阪市天王寺区,空清町４－１１杉野ビル本館５０３号室,,27,109,5430018,,,,,,,2022-09-27,1,,,,,ゲンデン,0
628,3120001248953,新規,0,2022-09-27,2022-09-27,曄茗株式会社,,株式会社,大阪府,大阪市淀川区,西宮原１丁目７番地２－３０１号室,,27,123,5320004,,,,,,,2022-09-27,1,,,,,ヨウメイ,0
629,3120001249051,新規,0,2022-09-27,2022-09-27,競播商貿株式会社,,株式会社,大阪府,大阪市中央区,松屋町９番２０号ローレルステート松屋町９０４Ｂ,,27,128,5420067,,,,,,,2022-09-27,1,,,,,キョウハンショウボウ,0
633,3120103004866,新規,0,2022-09-27,2022-09-27,合同会社セナ,,合同会社,大阪府,堺市堺区,東湊町２丁１３４番１２号,,27,141,5900829,,,,,,,2022-09-27,1,,,,,セナ,0
637,3122001036256,新規,0,2022-09-27,2022-09-27,株式会社レガート,,株式会社,大阪府,東大阪市,新庄１丁目１番３８号,,27,227,5780963,,,,,,,2022-09-27,1,,,,,レガート,0
643,3160005011115,新規,0,2022-09-27,2022-09-27,医療法人木村医院,,その他の設立登記法人,滋賀県,甲賀市,水口町虫生野１０１５番９,,25,209,5280041,,,,,,,2022-09-27,1,,,,,キムライイン,0
653,3180001153140,新規,0,2022-09-27,2022-09-27,第一日比商事株式会社,,株式会社,愛知県,稲沢市,祖父江町神明津２８０５番地,,23,220,4950035,,,,,,,2022-09-27,1,,,,,ダイイチヒビショウジ,0
659,3180305009393,新規,0,2022-09-27,2022-09-27,医療法人路傍会,,その他の設立登記法人,愛知県,豊橋市,白河町２９番地１白河ハイツ２２Ｂ,,23,201,4418021,,,,,,,2022-09-27,1,,,,,ロボウカイ,0
663,3200001040468,新規,0,2022-09-27,2022-09-27,株式会社結,,株式会社,岐阜県,各務原市,那加西市場町５丁目１８１番地２,,21,213,5040018,,,,,,,2022-09-27,1,,,,,ユイ,0
679,3240003005820,新規,0,2022-09-27,2022-09-27,合同会社ＫＩＴＥＲＵ,,合同会社,広島県,広島市中区,十日市町２丁目４番２１号,,34,101,7300805,,,,,,,2022-09-27,1,,,,,キテル,0
683,3270003001445,新規,0,2022-09-27,2022-09-27,Ｍ’Ｓ　ＴＲＹ合同会社,,合同会社,鳥取県,米子市,愛宕町１５番地２,,31,202,6830046,,,,,,,2022-09-27,1,,,,,エムズトライ,0
701,3320005010018,新規,0,2022-09-27,2022-09-27,無限責任杉原負債整理組合,,その他の設立登記法人,大分県,大分市,大字杉原,,44,201,8797882,,,,,,,2022-09-27,1,,,,,ムゲンセキニンスギバルフサイセイリクミアイ,0
706,3340003003913,新規,0,2022-09-27,2022-09-27,ＭＩＴＳＵＫＩ合同会社,,合同会社,鹿児島県,鹿児島市,田上５丁目２１番,,46,201,8900034,,,,,,,2022-09-27,1,,,,,ミツキ,0
715,3370003005840,新規,0,2022-09-27,2022-09-27,ＮＯＦ合同会社,,合同会社,宮城県,仙台市宮城野区,新田東５丁目４－３,,04,102,9830039,,,,,,,2022-09-27,1,,,,,エヌオーエフ,0
717,3380001033132,新規,0,2022-09-27,2022-09-27,株式会社サンアンドプレイス,,株式会社,福島県,南相馬市,原町区北長野字北原田５１０,,07,212,9750072,,,,,,,2022-09-27,1,,,,,サンアンドプレイス,0
718,3380003005278,新規,0,2022-09-27,2022-09-27,合同会社グリーンウェーブ,,合同会社,福島県,郡山市,桑野３丁目１９番９号ラフィーネ桑野３Ａ号室,,07,203,9638025,,,,,,,2022-09-27,1,,,,,グリーンウェーブ,0
724,3420001018013,新規,0,2022-09-27,2022-09-27,株式会社甲田ファー夢,,株式会社,青森県,十和田市,大字大沢田字大下内１１番地,,02,206,0340102,,,,,,,2022-09-27,1,,,,,コウダファーム,0
730,3440001009159,新規,0,2022-09-27,2022-09-27,ＹＦＤ育成センター株式会社,,株式会社,北海道,二海郡八雲町,野田生５５７番地の１,,01,346,0492672,,,,,,,2022-09-27,1,,,,,ワイエフディーイクセイセンター,0
733,3490001010293,新規,0,2022-09-27,2022-09-27,株式会社Ｔｒｕｍｐ　ｋｏｃｈｉ,,株式会社,高知県,高知市,一宮中町３丁目２７番２号,,39,201,7818134,,,,,,,2022-09-27,1,,,,,トランプコウチ,0
745,4010001229674,新規,0,2022-09-27,2022-09-27,株式会社Ｍ＆Ｓパートナーズ,,株式会社,東京都,中央区,佃２丁目１番１－４８０８号,,13,102,1040051,,,,,,,2022-09-27,1,,,,,エムアンドエスパートナーズ,0
746,4010001229724,新規,0,2022-09-27,2022-09-27,株式会社ＷｉｔｈＦｉｔｎｅｓｓ,,株式会社,東京都,千代田区,丸の内１丁目８番３号丸の内トラストタワー本館２０階,,13,101,1000005,,,,,,,2022-09-27,1,,,,,ウィズフィットネス,0
759,4010401169842,新規,0,2022-09-27,2022-09-27,ＣＬＵＥパートナーズ株式会社,,株式会社,東京都,港区,三田２丁目１４番５号１００３,,13,103,1080073,,,,,,,2022-09-27,1,,,,,クルーパートナーズ,0
760,4010401169867,新規,0,2022-09-27,2022-09-27,株式会社２３４,,株式会社,東京都,港区,赤坂３丁目１５番１０号,,13,103,1070052,,,,,,,2022-09-27,1,,,,,ニーサンヨン,0
763,4010405021421,新規,0,2022-09-27,2022-09-27,ジャパンインフラホールディングス２６号一般社団法人,,その他の設立登記法人,東京都,港区,元赤坂１丁目１番７号,,13,103,1070051,,,,,,,2022-09-27,1,,,,,ジャパンインフラホールディングスニジュウロクゴウ,0
765,4010501049390,新規,0,2022-09-27,2022-09-27,大徳株式会社,00127931,株式会社,東京都,台東区,台東１丁目３２番６号小島ビル２０１号室,,13,106,1100016,,,,,,,2022-09-27,1,,,,,ダイトク,0
766,4010501049408,新規,0,2022-09-27,2022-09-27,株式会社ＭＫボクシング,,株式会社,東京都,台東区,谷中３丁目１９番５－５０１号,,13,106,1100001,,,,,,,2022-09-27,1,,,,,エムケーボクシング,0
789,4011101100295,新規,0,2022-09-27,2022-09-27,Ｔｏｍａｔｏ　Ｉｎｔｅｒａｃｔｉｖｅ株式会社,,株式会社,東京都,新宿区,西新宿１丁目２６番２号新宿野村ビル３２階,,13,104,1600023,,,,,,,2022-09-27,1,,,,,トマトインタラクティブ,0
795,4011403003774,新規,0,2022-09-27,2022-09-27,ＲＩＳＩＮＧ合同会社,,合同会社,東京都,板橋区,大山東町１９－２コーポ大山２０８号,,13,119,1730014,,,,,,,2022-09-27,1,,,,,ライジング,0
800,4012401039653,新規,0,2022-09-27,2022-09-27,株式会社アンズ帝国,,株式会社,東京都,府中市,緑町３丁目２０番２,,13,206,1830006,,,,,,,2022-09-27,1,,,,,アンズテイコク,0
801,4012401039678,新規,0,2022-09-27,2022-09-27,株式会社ｉｎａｔｏ　ｃｏ．,,株式会社,東京都,稲城市,大丸１１７番地の２,,13,225,2060801,,,,,,,2022-09-27,1,,,,,イナトーカンパニ,0
804,4012403005595,新規,0,2022-09-27,2022-09-27,合同会社旭力,,合同会社,東京都,府中市,矢崎町４丁目１番地,,13,206,1830025,,,,,,,2022-09-27,1,,,,,キョクリキ,0
808,4013301049718,新規,0,2022-09-27,2022-09-27,井沢株式会社,,株式会社,東京都,豊島区,長崎６丁目１０番１２号ベルハイム東長崎Ｂ００６号室,,13,116,1710051,,,,,,,2022-09-27,1,,,,,イザワ,0
812,4020001148304,新規,0,2022-09-27,2022-09-27,株式会社ＳＲＥ,,株式会社,神奈川県,横浜市西区,花咲町４丁目１１５－１０,,14,103,2200022,,,,,,,2022-09-27,1,,,,,エスアールイー,0
819,4020003022424,新規,0,2022-09-27,2022-09-27,合同会社ＩＣ,,合同会社,神奈川県,横浜市磯子区,磯子３丁目１３番Ｌ―１００１号,,14,107,2350016,,,,,,,2022-09-27,1,,,,,アイシー,0
838,4030001150184,新規,0,2022-09-27,2022-09-27,貝利株式会社,,株式会社,埼玉県,川口市,西青木１丁目９番１４号１Ｆ,,11,203,3320035,,,,,,,2022-09-27,1,,,,,ベリ,0
839,4030001150201,新規,0,2022-09-27,2022-09-27,ＪＮＨ株式会社,,株式会社,埼玉県,坂戸市,浅羽野１丁目６番地３０,,11,239,3500237,,,,,,,2022-09-27,1,,,,,ジェイエヌエイチ,0
847,4040003020896,新規,0,2022-09-27,2022-09-27,合同会社Ｊ．Ａ．Ｐ　ＩＮＴＥＲＮＡＴＩＯＮＡＬ,,合同会社,千葉県,山武郡芝山町,岩山２３１７番地１,,12,409,2891608,,,,,,,2022-09-27,1,,,,,ジェーエーピーインターナショナル,0
853,4050003006878,新規,0,2022-09-27,2022-09-27,合同会社優紀,,合同会社,茨城県,龍ケ崎市,佐貫町７４４番地１４,,08,208,3010033,,,,,,,2022-09-27,1,,,,,ユウキ,0
856,4060003004245,新規,0,2022-09-27,2022-09-27,合同会社Ｙｕｎａ　Ｉｎｖｅｓｔｍｅｎｔ,,合同会社,栃木県,鹿沼市,仲町１５９６番地,,09,205,3220053,,,,,,,2022-09-27,1,,,,,ユナインベストメント,0
863,4070001039663,新規,0,2022-09-27,2022-09-27,株式会社マテリアル,,株式会社,群馬県,高崎市,剣崎町２７９番地１３,,10,202,3700883,,,,,,,2022-09-27,1,,,,,マテリアル,0
883,4120001248952,新規,0,2022-09-27,2022-09-27,株式会社ＫＯＰ,,株式会社,大阪府,大阪市西成区,南開２丁目１－１７,,27,122,5570023,,,,,,,2022-09-27,1,,,,,ケイオーピー,0
889,4120003022521,新規,0,2022-09-27,2022-09-27,合同会社Ｃ＆Ｍ,,合同会社,大阪府,大阪市港区,弁天１丁目２番１号,,27,107,5520007,,,,,,,2022-09-27,1,,,,,シィアンドエム,0
890,4120003022538,新規,0,2022-09-27,2022-09-27,合同会社タナカ,,合同会社,大阪府,寝屋川市,萱島東２丁目２２番７号,,27,215,5720824,,,,,,,2022-09-27,1,,,,,タナカ,0
909,4140001127460,新規,0,2022-09-27,2022-09-27,株式会社ＬＩＧＨＴ　ＦＯＯＴ,,株式会社,兵庫県,尼崎市,武庫之荘３丁目１番１号イトーピア武庫之荘２０８号,,28,202,6610035,,,,,,,2022-09-27,1,,,,,ライトフット,0
910,4140003018162,新規,0,2022-09-27,2022-09-27,合同会社ソレイユ,,合同会社,兵庫県,尼崎市,常吉２丁目１５番４－２０１号,,28,202,6610042,,,,,,,2022-09-27,1,,,,,ソレイユ,0
911,4160003002676,新規,0,2022-09-27,2022-09-27,合同会社Ｓｉｇｎｅｔ,,合同会社,滋賀県,大津市,下阪本６丁目４３番１２号,,25,201,5200105,,,,,,,2022-09-27,1,,,,,シグネット,0
918,4180001153107,新規,0,2022-09-27,2022-09-27,株式会社ｓｙｍｍｅｔｒｙ,,株式会社,愛知県,名古屋市中区,栄３丁目１０番１１号５階,,23,106,4600008,,,,,,,2022-09-27,1,,,,,シンメトリー,0
919,4180001153115,新規,0,2022-09-27,2022-09-27,株式会社ノンスト,,株式会社,愛知県,名古屋市守山区,鳥羽見２丁目１３番２７号,,23,113,4630076,,,,,,,2022-09-27,1,,,,,ノンスト,0
920,4180001153123,新規,0,2022-09-27,2022-09-27,株式会社プログレス,,株式会社,愛知県,名古屋市中区,大井町１番２４号－２２０３号,,23,106,4600015,,,,,,,2022-09-27,1,,,,,プログレス,0
921,4180003024306,新規,0,2022-09-27,2022-09-27,合同会社ＴＡＱＵＩＴＡ,,合同会社,愛知県,名古屋市昭和区,川名山町９３番地の２９,,23,107,4660827,,,,,,,2022-09-27,1,,,,,タキタ,0
926,4190001029776,新規,0,2022-09-27,2022-09-27,株式会社ワンステップ,,株式会社,三重県,員弁郡東員町,大字鳥取１９８－１,,24,324,5110241,,,,,,,2022-09-27,1,,,,,ワンステップ,0
944,4290001098976,新規,0,2022-09-27,2022-09-27,株式会社９ｎ,,株式会社,福岡県,福岡市早良区,室見２丁目１６番２５号ラフィーネグラン室見８０５,,40,137,8140015,,,,,,,2022-09-27,1,,,,,キュウエヌ,0
946,4290003012984,新規,0,2022-09-27,2022-09-27,合同会社Ｄｅｌｉｃｉｏｕｓ　Ｄｅｌｉｖｅｒｙ,,合同会社,福岡県,福岡市中央区,警固２丁目１２番－１９アイリス警固ビル４Ｆ,,40,133,8100023,,,,,,,2022-09-27,1,,,,,デリシャスデリバリー,0
950,4300005007097,新規,0,2022-09-27,2022-09-27,一般社団法人みずき,,その他の設立登記法人,佐賀県,武雄市,山内町大字宮野２６２８０番地２,,41,206,8492305,,,,,,,2022-09-27,1,,,,,ミズキ,0
952,4340003003912,新規,0,2022-09-27,2022-09-27,合同会社えんがわ,,合同会社,鹿児島県,阿久根市,赤瀬川８８４番地１,,46,206,8991611,,,,,,,2022-09-27,1,,,,,エンガワ,0
956,4360001030989,新規,0,2022-09-27,2022-09-27,株式会社Ｓ．Ｉ,,株式会社,沖縄県,沖縄市,高原５丁目１０番１５号リビングハピネス３０１号,,47,211,9042171,,,,,,,2022-09-27,1,,,,,エスアイ,0
961,4380001033131,新規,0,2022-09-27,2022-09-27,株式会社ＯＫＩデン,,株式会社,福島県,二本松市,沖２丁目６８番地１,,07,210,9640955,,,,,,,2022-09-27,1,,,,,オキデン,0
962,4390003002001,新規,0,2022-09-27,2022-09-27,合同会社ＹＭＢ工業,,合同会社,山形県,山形市,立谷川２丁目１２１３番地の１,,06,201,9902251,,,,,,,2022-09-27,1,,,,,ワイエムビーコウギョウ,0
972,4430003014306,新規,0,2022-09-27,2022-09-27,合同会社ＮＭＩ　Ｆａｍｉｌｙ,,合同会社,北海道,札幌市中央区,北七条西２４丁目１番１２号,,01,101,0600007,,,,,,,2022-09-27,1,,,,,エヌエムアイファミリー,0
978,4700150111910,新規,0,2022-09-27,2022-09-27,ＫＯＲＢＡＹ　ＴＲＡＤＩＮＧ　ＰＶＴ　ＬＴＤ,,外国会社等,栃木県,足利市,五十部町３９８豊和ハイツＢ３０１,,09,202,3260843,スリランカ民主社会主義共和国、ペラデニヤ、ガンノルワ、ムルタラワロード、１９２－Ｂ－２,,,,,,2022-09-27,1,,,,,コルベイトレーデイングプライベートリミテツド,0
995,5010001229599,新規,0,2022-09-27,2022-09-27,株式会社猪谷千春事務所,,株式会社,東京都,千代田区,丸の内２丁目３－２郵船ビルディング１階,,13,101,1000005,,,,,,,2022-09-27,1,,,,,イガヤチハルジムショ,0
1003,5010401169866,新規,0,2022-09-27,2022-09-27,株式会社ＡｎＬｉ‐ｂ,,株式会社,東京都,港区,南青山３丁目１－３６青山丸竹ビル６Ｆ,,13,103,1070062,,,,,,,2022-09-27,1,,,,,アンリーブ,0
1004,5010401169874,新規,0,2022-09-27,2022-09-27,ヘンリー・インベストメント・サービス株式会社,,株式会社,東京都,港区,虎ノ門５丁目１３番１号虎ノ門４０ＭＴビル９階,,13,103,1050001,,,,,,,2022-09-27,1,,,,,ヘンリーインベストメントサービス,0
1007,5010403028517,新規,0,2022-09-27,2022-09-27,合同会社カイギャク,,合同会社,東京都,港区,白金台２丁目２６－９ＰＡＴＨ白金台１２０４号室,,13,103,1080071,,,,,,,2022-09-27,1,,,,,カイギャク,0
1008,5010403028525,新規,0,2022-09-27,2022-09-27,合同会社Ｈｏｎｚａｋａ,,合同会社,東京都,港区,六本木１丁目６番１号泉ガーデンタワー,,13,103,1060032,,,,,,,2022-09-27,1,,,,,ホンザカ,0
1009,5010403028558,新規,0,2022-09-27,2022-09-27,ジャパンインフラ２７号合同会社,,合同会社,東京都,港区,元赤坂１丁目１番７号,,13,103,1070051,,,,,,,2022-09-27,1,,,,,ジャパンインフラニジュウナナゴウ,0
1010,5010501049407,新規,0,2022-09-27,2022-09-27,株式会社しゅープロ,,株式会社,東京都,台東区,橋場１丁目９番３号－１１Ｆ,,13,106,1110023,,,,,,,2022-09-27,1,,,,,シュープロ,0
1019,5010801033283,新規,0,2022-09-27,2022-09-27,ブレスレス株式会社,,株式会社,東京都,大田区,田園調布１丁目９番１２号,,13,111,1450071,,,,,,,2022-09-27,1,,,,,ブレスレス,0
1021,5010903007664,新規,0,2022-09-27,2022-09-27,合同会社ＮＯ．,,合同会社,東京都,世田谷区,上祖師谷１丁目３番１８号ファミーユ－２、１０３,,13,112,1570065,,,,,,,2022-09-27,1,,,,,エヌオー,0
1025,5011001149894,新規,0,2022-09-27,2022-09-27,ＴＡＮＡ株式会社,,株式会社,東京都,目黒区,中町２丁目３２番１－３０５号ルミエール中町,,13,110,1530065,,,,,,,2022-09-27,1,,,,,,0
1026,5011001149944,新規,0,2022-09-27,2022-09-27,株式会社キープトラベルリテール,,株式会社,東京都,目黒区,八雲４丁目１２番５号フォルティス八雲Ｃ,,13,110,1520023,,,,,,,2022-09-27,1,,,,,キープトラベルリテール,0
1030,5011003015434,新規,0,2022-09-27,2022-09-27,Ｅｎｌｉｇｈｔｅｎ合同会社,,合同会社,東京都,目黒区,中目黒１丁目１番１９号ピアース恵比寿３０５,,13,110,1530061,,,,,,,2022-09-27,1,,,,,エンライトン,0
1042,5011301028121,新規,0,2022-09-27,2022-09-27,株式会社Ｒｏｏｔ３,,株式会社,東京都,杉並区,上荻３丁目１０番１９号上荻メルベーユＢ－２,,13,115,1670043,,,,,,,2022-09-27,1,,,,,ルートスリー,0
1048,5012401039652,新規,0,2022-09-27,2022-09-27,株式会社オーズマネジメント,,株式会社,東京都,武蔵野市,桜堤１丁目６番１号,,13,203,1800021,,,,,,,2022-09-27,1,,,,,オーズマネジメント,0
1049,5012403005594,新規,0,2022-09-27,2022-09-27,合同会社ＢＯＳ,,合同会社,東京都,三鷹市,下連雀３丁目３８－４－３０７,,13,204,1810013,,,,,,,2022-09-27,1,,,,,ビーオーエス,0
1052,5012803002893,新規,0,2022-09-27,2022-09-27,合同会社大安マーケティング企画,,合同会社,東京都,立川市,錦町５丁目１１番１９号,,13,202,1900022,,,,,,,2022-09-27,1,,,,,タイアンマーケティングキカク,0
1056,5013303006303,新規,0,2022-09-27,2022-09-27,９４９５合同会社,,合同会社,東京都,豊島区,池袋２丁目３７番２号ＫＤビル２－６０１号,,13,116,1710014,,,,,,,2022-09-27,1,,,,,キューヨンキューゴ,0
1069,5021001077021,新規,0,2022-09-27,2022-09-27,逸企業株式会社,,株式会社,神奈川県,厚木市,三田南３丁目２２番６号,,14,212,2430217,,,,,,,2022-09-27,1,,,,,ハグレキギョウ,0
1077,5030001150191,新規,0,2022-09-27,2022-09-27,鴻商事株式会社,,株式会社,埼玉県,川口市,大字小谷場１０５０番１ジュネスあいふる１０２号室,,11,203,3330857,,,,,,,2022-09-27,1,,,,,コウショウジ,0
1078,5030001150233,新規,0,2022-09-27,2022-09-27,株式会社ＩＢＲＯＷ．,,株式会社,埼玉県,さいたま市大宮区,大門町３丁目２２番地１６開新社ビル２階,,11,103,3300846,,,,,,,2022-09-27,1,,,,,アイブロウドット,0
1085,5030003020236,新規,0,2022-09-27,2022-09-27,合同会社ＲＥＧＡＬＩＺ,,合同会社,埼玉県,川口市,西青木１丁目２０－１９グランフォース西川口５０６号室,,11,203,3320035,,,,,,,2022-09-27,1,,,,,レガリス,0
1089,5040001125143,新規,0,2022-09-27,2022-09-27,株式会社ＤＤＤ,,株式会社,千葉県,市川市,国分３丁目２－６エスポワメゾン２０１,,12,203,2720834,,,,,,,2022-09-27,1,,,,,ディディディ,0
1090,5040001125192,新規,0,2022-09-27,2022-09-27,アジアパートナーズ株式会社,,株式会社,千葉県,市川市,南行徳４丁目８番地１５号,,12,203,2720138,,,,,,,2022-09-27,1,,,,,アジアパートナーズ,0
1091,5040003020796,新規,0,2022-09-27,2022-09-27,千一合同会社,,合同会社,千葉県,松戸市,栄町２丁目９０番地の５,,12,207,2710062,,,,,,,2022-09-27,1,,,,,センイチ,0
1092,5040003020895,新規,0,2022-09-27,2022-09-27,合同会社ＫＥＮＴＡ　ＩＳＨＩＹＡＭＡ,,合同会社,千葉県,野田市,関宿町１４０４,,12,208,2700206,,,,,,,2022-09-27,1,,,,,ケンタイシヤマ,0
1093,5050001051710,新規,0,2022-09-27,2022-09-27,Ｎ．Ｋ．Ｓ株式会社,,株式会社,茨城県,下妻市,高道祖４２１０番地２４,,08,210,3040031,,,,,,,2022-09-27,1,,,,,エヌケイエス,0
1095,5060003004244,新規,0,2022-09-27,2022-09-27,合同会社Ｎａｅ　Ｃｏｍｐａｎｙ,,合同会社,栃木県,鹿沼市,仲町１５９６番地,,09,205,3220053,,,,,,,2022-09-27,1,,,,,ナエカンパニー,0
1103,5100001035716,新規,0,2022-09-27,2022-09-27,Ｃｈｉｌｌｙｈｉｌｌ株式会社,,株式会社,長野県,長野市,大字栗田１０００－１長栄長野東口ビル１階,,20,201,3800921,,,,,,,2022-09-27,1,,,,,チルリヒル,0
1123,5120001248951,新規,0,2022-09-27,2022-09-27,株式会社ＲＩＳＥＯＮＥ,,株式会社,大阪府,大阪市淀川区,木川西２丁目７－４－１１０１,,27,123,5320013,,,,,,,2022-09-27,1,,,,,ライズワン,0
1124,5120001249058,新規,0,2022-09-27,2022-09-27,京阪不動産売却センター株式会社,,株式会社,大阪府,枚方市,東船橋１丁目１４番地の６,,27,210,5731115,,,,,,,2022-09-27,1,,,,,ケイハンフドウサンバイキャクセンター,0
1125,5120001249066,新規,0,2022-09-27,2022-09-27,日本コスメ＆フード株式会社,,株式会社,大阪府,大阪市此花区,伝法２丁目１２番７号,,27,104,5540002,,,,,,,2022-09-27,1,,,,,ニホンコスメアンドフード,0
1126,5120001249082,新規,0,2022-09-27,2022-09-27,ＨＰＯ株式会社,,株式会社,大阪府,大阪市北区,豊崎３丁目１６―１６－３８１２,,27,127,5310072,,,,,,,2022-09-27,1,,,,,エイチピーオー,0
1129,5120003022512,新規,0,2022-09-27,2022-09-27,マスミツビルサービス合同会社,,合同会社,大阪府,大阪市住之江区,西住之江１丁目４番３―３０４号,,27,125,5590005,,,,,,,2022-09-27,1,,,,,マスミツビルサービス,0
1130,5120003022529,新規,0,2022-09-27,2022-09-27,合同会社プリンス,,合同会社,大阪府,大阪市中央区,博労町２丁目３番１１号,,27,128,5410059,,,,,,,2022-09-27,1,,,,,プリンス,0
1131,5120003022537,新規,0,2022-09-27,2022-09-27,合同会社キムラ,,合同会社,大阪府,枚方市,岡東町１４番２７－３０５号,,27,210,5730032,,,,,,,2022-09-27,1,,,,,キムラ,0
1132,5120005023153,新規,0,2022-09-27,2022-09-27,弁理士法人セトマキ,,その他の設立登記法人,大阪府,大阪市北区,芝田１丁目１番４号阪急ターミナルビル１６Ｆ,,27,127,5300012,,,,,,,2022-09-27,1,,,,,セトマキ,0
1133,5120005023203,新規,0,2022-09-27,2022-09-27,司法書士法人古谷事務所,,その他の設立登記法人,大阪府,大阪市北区,芝田１丁目１０番１０号芝田グランドビル７０２号,,27,127,5300012,,,,,,,2022-09-27,1,,,,,フルタニジムショ,0
1134,5120103004864,新規,0,2022-09-27,2022-09-27,合同会社ＭＮＹ,,合同会社,大阪府,富田林市,津々山台１丁目１番６－２１１コープ金剛東,,27,214,5840086,,,,,,,2022-09-27,1,,,,,ミニー,0
1136,5120901046521,新規,0,2022-09-27,2022-09-27,株式会社Ｌｉｌｙ’ｓ　ｄｅｓｉｇｎ,,株式会社,大阪府,茨木市,清水１丁目２９番２０号,,27,211,5670059,,,,,,,2022-09-27,1,,,,,リリーズデザイン,0
1144,5140001127443,新規,0,2022-09-27,2022-09-27,株式会社Ｌｅ　ｅｔｉｎｃｅｌｌｅ,,株式会社,兵庫県,神戸市長田区,平和台町２丁目１２番２０号,,28,106,6530854,,,,,,,2022-09-27,1,,,,,レエティンセル,0
1147,5140003018161,新規,0,2022-09-27,2022-09-27,合同会社ＭＫ会計センター,,合同会社,兵庫県,神戸市中央区,栄町通２丁目４番７号ＮＲビル４０２号,,28,110,6500023,,,,,,,2022-09-27,1,,,,,エムケーカイケイセンター,0
1155,5180001153106,新規,0,2022-09-27,2022-09-27,株式会社ユピター,,株式会社,愛知県,名古屋市東区,泉１丁目４番３号ｃｈａｎｇｕＩＩＩ泉４０３号,00127938,23,102,4610001,,,,,,,2022-09-27,1,,,,,ユピター,0
1156,5180001153114,新規,0,2022-09-27,2022-09-27,早川実業株式会社,,株式会社,愛知県,常滑市,苅屋町１丁目５８,,23,216,4790819,,,,,,,2022-09-27,1,,,,,ハヤカワジツギョウ,0
1170,5260003004042,新規,0,2022-09-27,2022-09-27,合同会社フォレスト２号,,合同会社,岡山県,岡山市北区,西古松５３番地１（８０２）,,33,101,7000927,,,,,,,2022-09-27,1,,,,,フォレストニゴウ,0
1173,5290001098991,新規,0,2022-09-27,2022-09-27,日行株式会社,,株式会社,福岡県,太宰府市,大佐野６丁目９番１号,,40,221,8180134,,,,,,,2022-09-27,1,,,,,ニコウ,0
1177,5290805009590,新規,0,2022-09-27,2022-09-27,ＮＰＯ法人ＢＯＴＡ山プランニング,,その他の設立登記法人,福岡県,直方市,大字下境１６１７番地２,,40,204,8220007,,,,,,,2022-09-27,1,,,,,ボタヤマプランニング,0
1179,5330001030132,新規,0,2022-09-27,2022-09-27,アングルトライ株式会社,,株式会社,熊本県,上益城郡嘉島町,大字井寺４１－８,,43,442,8613103,,,,,,,2022-09-27,1,,,,,アングルトライ,0
1182,5340001025049,新規,0,2022-09-27,2022-09-27,株式会社まるのこラボ,,株式会社,鹿児島県,南九州市,頴娃町別府５２３４番地１,,46,223,8910704,,,,,,,2022-09-27,1,,,,,マルノコラボ,0
1188,5380001033130,新規,0,2022-09-27,2022-09-27,一商事株式会社,,株式会社,福島県,南相馬市,小高区大田和字広畑２１６番地の１,,07,212,9792163,,,,,,,2022-09-27,1,,,,,ハジメショウジ,0
1191,5380005012626,新規,0,2022-09-27,2022-09-27,片曽根環境企業組合,,その他の設立登記法人,福島県,田村市,船引町北鹿又字乱遠前１３５番地,,07,211,9634433,,,,,,,2022-09-27,1,,,,,カタソネカンキョウ,0
1193,5400001016009,新規,0,2022-09-27,2022-09-27,株式会社ＤＤＴ,,株式会社,岩手県,盛岡市,南仙北１丁目１１－１７,,03,201,0200863,,,,,,,2022-09-27,1,,,,,ディディティー,0
1196,5420003002582,新規,0,2022-09-27,2022-09-27,合同会社ツク・ツク,,合同会社,青森県,上北郡おいらせ町,立蛇１４番３号,,02,412,0392135,,,,,,,2022-09-27,1,,,,,ツクツク,0
1198,5430001087526,新規,0,2022-09-27,2022-09-27,朝日ライフ食品株式会社,,株式会社,北海道,札幌市中央区,南三条西１０丁目１００２番地１Ｓ３１０ビル２Ｆ,,01,101,0600063,,,,,,,2022-09-27,1,,,,,アサヒライフショクヒン,0
1200,5430003014305,新規,0,2022-09-27,2022-09-27,合同会社光,,合同会社,北海道,札幌市中央区,南十一条西２０丁目１番２５号,,01,101,0640811,,,,,,,2022-09-27,1,,,,,ヒカリ,0
1201,5470003002256,新規,0,2022-09-27,2022-09-27,ｅ‐ｕｓ合同会社,,合同会社,香川県,高松市,屋島西町１９９２番地１,,37,201,7610113,,,,,,,2022-09-27,1,,,,,イーアス,0
1202,5480003001876,新規,0,2022-09-27,2022-09-27,宏艶合同会社,,合同会社,徳島県,徳島市,山城西４丁目２２番地２ヴィバ山城ハイツ１階,,36,201,7708054,,,,,,,2022-09-27,1,,,,,コウエン,0
1207,5500003002896,新規,0,2022-09-27,2022-09-27,合同会社Ｄｅｌｉｇｈｔ,,合同会社,愛媛県,松山市,二番町１丁目８－２ニック３３ビル５階,,38,201,7900002,,,,,,,2022-09-27,1,,,,,ディライト,0
1222,6010001229648,新規,0,2022-09-27,2022-09-27,井手薬品三友医療サービス株式会社,,株式会社,東京都,文京区,千石１丁目９番２号１Ｆ,,13,105,1120011,,,,,,,2022-09-27,1,,,,,イデヤクヒンサンユウイリョウサービス,0
1223,6010001229672,新規,0,2022-09-27,2022-09-27,株式会社Ｓｈｉｎｐｕｌｌ,,株式会社,東京都,中央区,銀座７丁目１３番６号サガミビル２階,,13,102,1040061,,,,,,,2022-09-27,1,,,,,シンプル,0
1224,6010001229689,新規,0,2022-09-27,2022-09-27,株式会社タカギ,,株式会社,東京都,中央区,銀座５丁目１４番１４号サンリット銀座ビル３、５階,,13,102,1040061,,,,,,,2022-09-27,1,,,,,タカギ,0
1225,6010001229697,新規,0,2022-09-27,2022-09-27,株式会社ＴＩ,,株式会社,東京都,中央区,銀座１丁目２２番１１号銀座大竹ビジデンス２階,,13,102,1040061,,,,,,,2022-09-27,1,,,,,ティアイ,0
1226,6010001229722,新規,0,2022-09-27,2022-09-27,株式会社ワールドボーダレスコンサルティング,,株式会社,東京都,中央区,銀座６丁目１３番１６号銀座ＷａｌｌビルＵＣＦ５階,,13,102,1040061,,,,,,,2022-09-27,1,,,,,ワールドボーダレスコンサルティング,0
1244,6010403028540,新規,0,2022-09-27,2022-09-27,Ｍｏｌｏｃｏ合同会社,,合同会社,東京都,港区,元麻布３丁目１番６号,,13,103,1060046,,,,,,,2022-09-27,1,,,,,モロコ,0
1245,6010403028557,新規,0,2022-09-27,2022-09-27,ジャパンインフラ２６号合同会社,,合同会社,東京都,港区,元赤坂１丁目１番７号,,13,103,1070051,,,,,,,2022-09-27,1,,,,,ジャパンインフラニジュウロクゴウ,0
1249,6010501049389,新規,0,2022-09-27,2022-09-27,高風株式会社,,株式会社,東京都,台東区,台東１丁目３２番６号小島ビル５０２号室,,13,106,1100016,,,,,,,2022-09-27,1,,,,,タカカゼ,0
1250,6010503006727,新規,0,2022-09-27,2022-09-27,合同会社ＮＨＡＴ　ＬＥ,,合同会社,東京都,台東区,池之端１丁目１番１池之端ビルＢ１,,13,106,1100008,,,,,,,2022-09-27,1,,,,,ニャットレ,0
1261,6010901051671,新規,0,2022-09-27,2022-09-27,株式会社Ｌｙｌａ,,株式会社,東京都,世田谷区,代田５丁目２９番１１号ハイム代田１０６,,13,112,1550033,,,,,,,2022-09-27,1,,,,,ライラ,0
1270,6011003015433,新規,0,2022-09-27,2022-09-27,合同会社Ｃｉｔｕｓ,,合同会社,東京都,渋谷区,道玄坂１丁目１０番８号渋谷道玄坂東急ビル２Ｆ－Ｃ,,13,113,1500043,,,,,,,2022-09-27,1,,,,,サイタス,0
1274,6011101100269,新規,0,2022-09-27,2022-09-27,株式会社Ａｃｔｉｖｅ　Ａｇｅｎｃｙ,,株式会社,東京都,新宿区,新宿２丁目７番３号ヴィラハイツ新宿御苑４０５,,13,104,1600022,,,,,,,2022-09-27,1,,,,,アクティブエージェンシー,0
1275,6011101100285,新規,0,2022-09-27,2022-09-27,株式会社ＬＥＯＤＡ,,株式会社,東京都,新宿区,西新宿３丁目３番１３号西新宿水間ビル２Ｆ,,13,104,1600023,,,,,,,2022-09-27,1,,,,,レオダ,0
1284,6011803005278,新規,0,2022-09-27,2022-09-27,合同会社ＧＩＡ　ＢＡＯ,,合同会社,東京都,葛飾区,西水元２丁目２２番６号,,13,122,1250031,,,,,,,2022-09-27,1,,,,,ジャバオ,0
1287,6012403005593,新規,0,2022-09-27,2022-09-27,モンゴルファイナンス＆ビジネス合同会社,,合同会社,東京都,武蔵野市,中町２丁目５番３号ドルチェ武蔵野１０３,,13,203,1800006,,,,,,,2022-09-27,1,,,,,モンゴルファイナンスアンドビジネス,0
1289,6012803002892,新規,0,2022-09-27,2022-09-27,ＲＯＹＡＬ　ＣＯＲＰＯＲＡＴＩＯＮ合同会社,,合同会社,東京都,東大和市,上北台３丁目３６９番地の８,,13,220,2070023,,,,,,,2022-09-27,1,,,,,ロイヤルコーポレーション,0
1292,6013301049708,新規,0,2022-09-27,2022-09-27,株式会社マイワールド,,株式会社,東京都,豊島区,長崎４丁目２９番１７号,,13,116,1710051,,,,,,,2022-09-27,1,,,,,マイワールド,0
1304,6020001148302,新規,0,2022-09-27,2022-09-27,株式会社ダブルポケット,,株式会社,神奈川県,横浜市中区,太田町６丁目７５関内北原不動産ビル５０２,,14,104,2310011,,,,,,,2022-09-27,1,,,,,ダブルポケット,0
1315,6021001077053,新規,0,2022-09-27,2022-09-27,株式会社沐恋,,株式会社,神奈川県,厚木市,旭町２丁目５番１号,,14,212,2430014,,,,,,,2022-09-27,1,,,,,モクレン,0
1317,6021003012173,新規,0,2022-09-27,2022-09-27,東京ＮＧＳ合同会社,,合同会社,神奈川県,高座郡寒川町,倉見１８６６番地,,14,321,2530101,,,,,,,2022-09-27,1,,,,,トウキョウエヌジーエス,0
1319,6030001150208,新規,0,2022-09-27,2022-09-27,株式会社川越食堂,,株式会社,埼玉県,川越市,三久保町７番地４,,11,201,3500054,,,,,,,2022-09-27,1,,,,,カワゴエショクドウ,0
1320,6030001150216,新規,0,2022-09-27,2022-09-27,フクオカＨＪＴ株式会社,,株式会社,埼玉県,八潮市,大字大瀬１４４３番地,,11,234,3400822,,,,,,,2022-09-27,1,,,,,フクオカエイチジェイティー,0
1321,6030001150224,新規,0,2022-09-27,2022-09-27,株式会社Ｂ・Ｗ・Ｓ,,株式会社,埼玉県,春日部市,藤塚２９２２番地,,11,214,3440011,,,,,,,2022-09-27,1,,,,,ビーダブリューエス,0
1327,6030003020235,新規,0,2022-09-27,2022-09-27,ＳＡＴＯ商事合同会社,,合同会社,埼玉県,東松山市,山崎町１２－１５,,11,212,3550033,,,,,,,2022-09-27,1,,,,,サトウショウジ,0
1328,6030003020243,新規,0,2022-09-27,2022-09-27,日越ＴＬ合同会社,,合同会社,埼玉県,さいたま市中央区,新中里３丁目１７番７号－１０１号,,11,105,3380011,,,,,,,2022-09-27,1,,,,,ニチエツテイーエル,0
1329,6030003020251,新規,0,2022-09-27,2022-09-27,ユトン産業合同会社,,合同会社,埼玉県,さいたま市緑区,東浦和４丁目３０番地４ＭＴフラッツ１階１０１号室,,11,109,3360926,,,,,,,2022-09-27,1,,,,,ユトンサンギョウ,0
1331,6040001125167,新規,0,2022-09-27,2022-09-27,株式会社なないろコンサル,,株式会社,千葉県,千葉市中央区,新千葉１丁目７番２号３２号室,,12,101,2600031,,,,,,,2022-09-27,1,,,,,ナナイロコンサル,0
1334,6040003020886,新規,0,2022-09-27,2022-09-27,合同会社小谷エステート,,合同会社,千葉県,市川市,鬼高２丁目１２番４号,,12,203,2720015,,,,,,,2022-09-27,1,,,,,コタニエステート,0
1335,6040005021742,新規,0,2022-09-27,2022-09-27,医療法人社団ＯＣＥＡＮ,,その他の設立登記法人,千葉県,千葉市美浜区,磯辺６丁目８番１号レーベン検見川浜ＧＲＡＮＶＡＲＤＩ１０２号室,,12,106,2610012,,,,,,,2022-09-27,1,,,,,オーシャン,0
1341,6060003004235,新規,0,2022-09-27,2022-09-27,ＨＩＭＡＬＡＹＡＮ　ＣＯＲＰＯＲＡＴＩＯＮ合同会社,,合同会社,栃木県,栃木市,大平町富田４３４番地７,,09,203,3294404,,,,,,,2022-09-27,1,,,,,ヒマラヤンコーポレーション,0
1344,6070001039661,新規,0,2022-09-27,2022-09-27,株式会社ＬＡＭＰ,,株式会社,群馬県,渋川市,石原１０２１－１,,10,208,3770007,,,,,,,2022-09-27,1,,,,,ランプ,0
1348,6080003002872,新規,0,2022-09-27,2022-09-27,合同会社Ｌａｎｇｏｓｔａ,,合同会社,静岡県,静岡市葵区,上伝馬２２番３５号,,22,101,4200943,,,,,,,2022-09-27,1,,,,,ランゴスタ,0
1350,6080103002657,新規,0,2022-09-27,2022-09-27,宸鴻物産合同会社,,合同会社,静岡県,沼津市,三園町１１番４号真野ビル１０１,,22,203,4100833,,,,,,,2022-09-27,1,,,,,シンコウブッサン,0
1351,6080401026052,新規,0,2022-09-27,2022-09-27,株式会社ＷＫ,,株式会社,静岡県,浜松市南区,瓜内町９７２番地フェリシテ１０２,,22,134,4300854,,,,,,,2022-09-27,1,,,,,ダブリューケー,0
1353,6090001017789,新規,0,2022-09-27,2022-09-27,株式会社富士リアルエステート,,株式会社,山梨県,南都留郡忍野村,内野４２６８番地１,,19,424,4010512,,,,,,,2022-09-27,1,,,,,,0
1368,6120001248983,新規,0,2022-09-27,2022-09-27,株式会社ＯＺ,,株式会社,大阪府,大阪市生野区,南巽二丁目１番４８号,00127932,27,116,5440000,,,,,,,2022-09-27,1,,,,,オズ,0
1369,6120001249024,新規,0,2022-09-27,2022-09-27,穎株式会社,,株式会社,大阪府,大阪市天王寺区,勝山４丁目６番１０ノバカネイチ天王寺ＩＩＩ番館１０４号室,00127928,27,109,5430043,,,,,,,2022-09-27,1,,,,,ホサキ,0
1370,6120001249032,新規,0,2022-09-27,2022-09-27,株式会社ユマトレーディング,,株式会社,大阪府,門真市,新橋町１６番１５－４１３号,,27,223,5710048,,,,,,,2022-09-27,1,,,,,ユマトレーディング,0
1371,6120001249040,新規,0,2022-09-27,2022-09-27,楽顔株式会社,,株式会社,大阪府,大阪市東成区,深江北３丁目４番２１号エクラ深江橋３１３Ｃ,,27,115,5370001,,,,,,,2022-09-27,1,,,,,ラクガン,0
1372,6120001249049,新規,0,2022-09-27,2022-09-27,株式会社アステリオ,,株式会社,大阪府,大阪市中央区,久太郎町１丁目９番１７号３Ｆ,,27,128,5410056,,,,,,,2022-09-27,1,,,,,アステリオ,0
1375,6120003022536,新規,0,2022-09-27,2022-09-27,合同会社波濤,,合同会社,大阪府,大阪市淀川区,西宮原２丁目５―４６―１２１５,,27,123,5320004,,,,,,,2022-09-27,1,,,,,ハトウ,0
1376,6120901046520,新規,0,2022-09-27,2022-09-27,コンフォートエクステリア株式会社,,株式会社,大阪府,茨木市,目垣２丁目２番１５号ハイツオーキタ目垣２０１号室,,27,211,5670836,,,,,,,2022-09-27,1,,,,,コンフォートエクステリア,0
1383,6140003018152,新規,0,2022-09-27,2022-09-27,ＹＯＲＯＺＵＹＡ　ＴＲＡＤＩＮＧ合同会社,,合同会社,兵庫県,姫路市,南町６３ミツワビル１Ｆ,,28,201,6700912,,,,,,,2022-09-27,1,,,,,ヨロズヤトレーディング,0
1388,6170005006978,新規,0,2022-09-27,2022-09-27,特定非営利活動法人紀南食事塾,,その他の設立登記法人,和歌山県,西牟婁郡上富田町,朝来８番地の１０,,30,404,6492105,,,,,,,2022-09-27,1,,,,,キナンショクジジュク,0
1402,6180001153096,新規,0,2022-09-27,2022-09-27,株式会社ＷＡＹＳ,,株式会社,愛知県,小牧市,岩崎原３丁目４５番地,,23,219,4850017,,,,,,,2022-09-27,1,,,,,ウェイズ,0
1403,6180001153146,新規,0,2022-09-27,2022-09-27,株式会社ＦＰＤＭ,,株式会社,愛知県,清須市,西枇杷島町芳野１丁目５１番地,,23,233,4520065,,,,,,,2022-09-27,1,,,,,エフピーディーエム,0
1412,6200001040465,新規,0,2022-09-27,2022-09-27,海驢株式会社,,株式会社,岐阜県,岐阜市,問屋町１丁目１８番２号,,21,201,5008845,,,,,,,2022-09-27,1,,,,,アシカ,0
1416,6210001019095,新規,0,2022-09-27,2022-09-27,株式会社Ｈａｓｅｇａｗａ　Ｓｏｇｉ　Ｄｅｓｉｇｎ　Ｏｆｆｉｃｅ,,株式会社,福井県,福井市,下馬１丁目２１１０番地３,,18,201,9188112,,,,,,,2022-09-27,1,,,,,ハセガワソウギデザインオフィス,0
1418,6220001025043,新規,0,2022-09-27,2022-09-27,忠兵衛ＰＲＯ株式会社,,株式会社,石川県,輪島市,鳳至町稲荷町２１番地,,17,204,9280078,,,,,,,2022-09-27,1,,,,,チュウベエプロ,0
1422,6240003005818,新規,0,2022-09-27,2022-09-27,Ｓｕｎｎｙ‐ｓｉｄｅ　ＵＰ合同会社,,合同会社,広島県,呉市,豊町久比２３１２,,34,202,7340304,,,,,,,2022-09-27,1,,,,,サニーサイドアップ,0
1424,6250001019777,新規,0,2022-09-27,2022-09-27,株式会社くらしか,,株式会社,山口県,下関市,彦島西山町３丁目１５－１３,,35,201,7500093,,,,,,,2022-09-27,1,,,,,クラシカ,0
1426,6260003004041,新規,0,2022-09-27,2022-09-27,合同会社フォレスト１号,,合同会社,岡山県,岡山市北区,西古松５３番地１（８０２）,,33,101,7000927,,,,,,,2022-09-27,1,,,,,フォレストイチゴウ,0
1433,6290001098966,新規,0,2022-09-27,2022-09-27,株式会社Ｃｏｙ’ｓ　Ｉｎｔｅｒｎａｔｉｏｎａｌ,,株式会社,福岡県,福岡市中央区,薬院１丁目６番２７号,,40,133,8100022,,,,,,,2022-09-27,1,,,,,コイズインターナショナル,0
1437,6290003012982,新規,0,2022-09-27,2022-09-27,ＴＮＧＲＯＵＰ合同会社,,合同会社,福岡県,福岡市博多区,博多駅南３丁目１５番３０ローズマンション第２博多１３０４号,,40,132,8120016,,,,,,,2022-09-27,1,,,,,ティーエヌグループ,0
1438,6290003012990,新規,0,2022-09-27,2022-09-27,合同会社ＪＩＮＴＯ,,合同会社,福岡県,福岡市早良区,曙１丁目１４番１０‐５０４号アーベインルネス曙１０号棟,,40,137,8140004,,,,,,,2022-09-27,1,,,,,ジント,0
1463,6400001016008,新規,0,2022-09-27,2022-09-27,株式会社奥州牧場,,株式会社,岩手県,奥州市,胆沢小山字赤堰１４０番地,,03,215,0230402,,,,,,,2022-09-27,1,,,,,オウシュウボクジョウ,0
1467,6430001087533,新規,0,2022-09-27,2022-09-27,株式会社レアワークス,,株式会社,北海道,札幌市豊平区,水車町７丁目５番１０号,,01,105,0620912,,,,,,,2022-09-27,1,,,,,レアワークス,0
1469,6430003014287,新規,0,2022-09-27,2022-09-27,合同会社ＣＬＥＳＩＡ,,合同会社,北海道,札幌市中央区,大通西９丁目３番地３３,,01,101,0600042,,,,,,,2022-09-27,1,,,,,クレシア,0
1491,7010001229688,新規,0,2022-09-27,2022-09-27,株式会社ＩＣＢＣ,,株式会社,東京都,中央区,銀座１丁目１５番４号銀座一丁目ビル７階ｆａｂｂｉｔ銀座,,13,102,1040061,,,,,,,2022-09-27,1,,,,,アイシービーシー,0
1492,7010001229696,新規,0,2022-09-27,2022-09-27,株式会社エピソワ,,株式会社,東京都,千代田区,丸の内２丁目２番１号,,13,101,1000005,,,,,,,2022-09-27,1,,,,,エピソワ,0
1493,7010001229713,新規,0,2022-09-27,2022-09-27,株式会社ＡＯＧＹ,,株式会社,東京都,文京区,水道１丁目５－４,,13,105,1120005,,,,,,,2022-09-27,1,,,,,アオギ,0
1499,7010003038716,新規,0,2022-09-27,2022-09-27,合同会社Ｎ．Ｆａｍ,,合同会社,東京都,中央区,湊２丁目１５番１４－１９１０,,13,102,1040043,,,,,,,2022-09-27,1,,,,,エヌファム,0
1501,7010005035587,新規,0,2022-09-27,2022-09-27,一般社団法人問道,,その他の設立登記法人,東京都,中央区,銀座７丁目１３番６号サガミビル２階,,13,102,1040061,,,,,,,2022-09-27,1,,,,,トイドウ,0
1509,7010401169872,新規,0,2022-09-27,2022-09-27,株式会社ＭＳＫ管理,,株式会社,東京都,港区,三田１丁目３番４０号,,13,103,1080073,,,,,,,2022-09-27,1,,,,,エムエスケーカンリ,0
1511,7010403028556,新規,0,2022-09-27,2022-09-27,合同会社Ｍｉｓｓｏｕｒｉ,,合同会社,東京都,港区,虎ノ門５丁目１番４号,,13,103,1050001,,,,,,,2022-09-27,1,,,,,ミズーリ,0
1512,7010501049405,新規,0,2022-09-27,2022-09-27,株式会社プラザパートナーズ,,株式会社,東京都,台東区,上野２丁目１２番３号,,13,106,1100005,,,,,,,2022-09-27,1,,,,,プラザパートナーズ,0
1513,7010503006726,新規,0,2022-09-27,2022-09-27,合同会社Ｙ＆Ｃ２,,合同会社,東京都,台東区,寿３丁目９番３号,,13,106,1110042,,,,,,,2022-09-27,1,,,,,ワイアンドシーツー,0
1516,7010701043249,新規,0,2022-09-27,2022-09-27,ＢＲＡＣＥ株式会社,,株式会社,東京都,品川区,戸越５丁目４番３号アズ品川ビル４Ｆ,,13,109,1420041,,,,,,,2022-09-27,1,,,,,ブレイス,0
1518,7010703006393,新規,0,2022-09-27,2022-09-27,合同会社グーテライゼ,,合同会社,東京都,品川区,西五反田８丁目１０番４－４０２号,,13,109,1410031,,,,,,,2022-09-27,1,,,,,グーテライゼ,0
1523,7010903007662,新規,0,2022-09-27,2022-09-27,合同会社波動,,合同会社,東京都,世田谷区,太子堂１丁目３－３９カスタリア三宿２０９,,13,112,1540004,,,,,,,2022-09-27,1,,,,,ハドウ,0
1524,7011001149892,新規,0,2022-09-27,2022-09-27,株式会社Ｃｈｒｎｏ　Ｓｔｏｎｅ,,株式会社,東京都,目黒区,中町２丁目１１番７号,,13,110,1530065,,,,,,,2022-09-27,1,,,,,クロノストーン,0
1525,7011001149926,新規,0,2022-09-27,2022-09-27,株式会社ＳＡＩマーケティング,,株式会社,東京都,渋谷区,広尾１丁目７番２５号ＴＯＰ広尾,,13,113,1500012,,,,,,,2022-09-27,1,,,,,サイマーケティング,0
1526,7011003015432,新規,0,2022-09-27,2022-09-27,合同会社ＢＭ　Ｉｎｖｅｓｔｍｅｎｔ,,合同会社,東京都,渋谷区,千駄ヶ谷５丁目１３番１８号オフィスコートＡ３,,13,113,1510051,,,,,,,2022-09-27,1,,,,,ビーエムインベストメント,0
1531,7011103012197,新規,0,2022-09-27,2022-09-27,合同会社ヤナ,,合同会社,東京都,新宿区,西新宿３丁目３番１３号西新宿水間ビル２Ｆ,,13,104,1600023,,,,,,,2022-09-27,1,,,,,ヤナ,0
1533,7011105010422,新規,0,2022-09-27,2022-09-27,一般社団法人生産性革命推進協会,,その他の設立登記法人,東京都,新宿区,西新宿７丁目１番７号新宿ダイカンプラザＡ１０１８,,13,104,1600023,,,,,,,2022-09-27,1,,,,,セイサンセイカクメイスイシンキョウカイ,0
1537,7011501028497,新規,0,2022-09-27,2022-09-27,小宮ホールディングス株式会社,,株式会社,東京都,荒川区,南千住８丁目６番２－１５０６号,,13,118,1160003,,,,,,,2022-09-27,1,,,,,コミヤホールディングス,0
1543,7011801041316,新規,0,2022-09-27,2022-09-27,佐藤興業株式会社,,株式会社,東京都,葛飾区,新宿６丁目２番１－１５１３号,,13,122,1250051,,,,,,,2022-09-27,1,,,,,サトウコウギョウ,0
1545,7012403005601,新規,0,2022-09-27,2022-09-27,合同会社Ｖｏｏｒｐｒｅｔ,,合同会社,東京都,調布市,菊野台２丁目２９番地８フォーゲルガルテン神代１号館１１０,,13,208,1820007,,,,,,,2022-09-27,1,,,,,フォープレット,0
1546,7012803002891,新規,0,2022-09-27,2022-09-27,合同会社光妍商事,,合同会社,東京都,国分寺市,東戸倉１丁目１６番２４号１０６号室,,13,214,1850002,,,,,,,2022-09-27,1,,,,,コウエンショウジ,0
1552,7020001148284,新規,0,2022-09-27,2022-09-27,株式会社みまもる,,株式会社,神奈川県,川崎市宮前区,土橋３丁目２３番地６２,,14,136,2160005,,,,,,,2022-09-27,1,,,,,ミマモル,0
1553,7020001148301,新規,0,2022-09-27,2022-09-27,株式会社ＴＳＳ,,株式会社,神奈川県,横浜市南区,真金町１丁目７番地３８エミールハイツ伊勢佐木長者町２０３,,14,105,2320021,,,,,,,2022-09-27,1,,,,,ティーエスエス,0
1557,7021001077052,新規,0,2022-09-27,2022-09-27,株式会社浅野石材,,株式会社,神奈川県,藤沢市,亀井野９５８番地の４,,14,205,2520813,,,,,,,2022-09-27,1,,,,,アサノセキザイ,0
1560,7021003012172,新規,0,2022-09-27,2022-09-27,Ｔｒａｎｓｉａ　ｅｓｔａｔｅ合同会社,,合同会社,神奈川県,大和市,柳橋５丁目１１番１８号,,14,213,2420022,,,,,,,2022-09-27,1,,,,,トランシアエステート,0
1568,7030001150207,新規,0,2022-09-27,2022-09-27,株式会社エムテック,,株式会社,埼玉県,越谷市,千間台東１丁目５番地８－１０２,,11,222,3430042,,,,,,,2022-09-27,1,,,,,エムテック,0
1576,7030003020242,新規,0,2022-09-27,2022-09-27,ＳＡＴＨＥＷ　ＩＮＴＥＲＮＡＴＩＯＮＡＬ合同会社,,合同会社,埼玉県,深谷市,矢島９２６,,11,218,3660839,,,,,,,2022-09-27,1,,,,,サテューインターナショナル,0
1577,7030003020250,新規,0,2022-09-27,2022-09-27,マルイ商会合同会社,,合同会社,埼玉県,川口市,芝１丁目４番５－３０８号ブランシール蕨,,11,203,3330866,,,,,,,2022-09-27,1,,,,,マルイショウカイ,0
1582,7040001125125,新規,0,2022-09-27,2022-09-27,株式会社ＮＩＬ,,株式会社,千葉県,我孫子市,我孫子４丁目２０番４０号,,12,222,2701166,,,,,,,2022-09-27,1,,,,,エヌアイエル,0
1583,7040001125174,新規,0,2022-09-27,2022-09-27,株式会社福路,,株式会社,千葉県,八街市,八街ほ１７番地４４,,12,230,2891115,,,,,,,2022-09-27,1,,,,,フクロ,0
1584,7040001125190,新規,0,2022-09-27,2022-09-27,株式会社ＴＩＧＥＲ　ＦＩＲＳＴ,,株式会社,千葉県,千葉市花見川区,幕張本郷２丁目３番１号ニューエイト本郷第一１０４,,12,102,2620033,,,,,,,2022-09-27,1,,,,,タイガーファースト,0
1585,7040001125199,新規,0,2022-09-27,2022-09-27,嘉太株式会社,,株式会社,千葉県,千葉市花見川区,南花園２丁目５番１号第一花園ビル３０５,,12,102,2620022,,,,,,,2022-09-27,1,,,,,カタイ,0
1589,7040003020885,新規,0,2022-09-27,2022-09-27,合同会社とっこ,,合同会社,千葉県,船橋市,丸山４丁目２８番１号,,12,204,2730048,,,,,,,2022-09-27,1,,,,,トッコ,0
1596,7070001039669,新規,0,2022-09-27,2022-09-27,株式会社シルクコーポレーション,,株式会社,群馬県,富岡市,七日市１０７９番地,,10,210,3702343,,,,,,,2022-09-27,1,,,,,シルクコーポレション,0
1623,7120001249015,新規,0,2022-09-27,2022-09-27,灸盈株式会社,,株式会社,大阪府,大阪市中央区,松屋町９番２０号ローレルステート松屋町６０９Ａ,,27,128,5420067,,,,,,,2022-09-27,1,,,,,キュウエイ,0
1624,7120001249023,新規,0,2022-09-27,2022-09-27,株式会社カラーボール,,株式会社,大阪府,大阪市北区,南森町２丁目３番８－９０４号,,27,127,5300054,,,,,,,2022-09-27,1,,,,,カラーボール,0
1625,7120001249080,新規,0,2022-09-27,2022-09-27,株式会社Ｂａｎｋ　Ｌａｎｄ,,株式会社,大阪府,大阪市生野区,桃谷２丁目１８番１０号ラ・ポール６０１,,27,116,5440034,,,,,,,2022-09-27,1,,,,,バンクランド,0
1626,7120001249089,新規,0,2022-09-27,2022-09-27,株式会社アッパコーポレーション,,株式会社,大阪府,大阪市生野区,桃谷３丁目３番２０号,,27,116,5440034,,,,,,,2022-09-27,1,,,,,アッパコーポレーション,0
1635,7120003022460,新規,0,2022-09-27,2022-09-27,合同会社ベラステギコーポレーション,,合同会社,大阪府,大阪市浪速区,難波中３丁目１２番３－５０２号,,27,111,5560011,,,,,,,2022-09-27,1,,,,,ベラステギコーポレーション,0
1636,7120005023201,新規,0,2022-09-27,2022-09-27,一般社団法人Ｈｏａｌｏｈａ,,その他の設立登記法人,大阪府,大阪市東住吉区,鷹合３丁目２－２－１１０,,27,121,5460014,,,,,,,2022-09-27,1,,,,,ホアロハ,0
1650,7140001127474,新規,0,2022-09-27,2022-09-27,株式会社ｇｏｂｕｎｎｏｇｏ,,株式会社,兵庫県,神戸市中央区,元町通３丁目１２番１７号,,28,110,6500022,,,,,,,2022-09-27,1,,,,,ゴブンノゴ,0
1652,7140003018151,新規,0,2022-09-27,2022-09-27,ｃｏｍｆｙ合同会社,,合同会社,兵庫県,神戸市東灘区,深江南町３丁目２番１７号ハーモニーテラス深江南町１０１号,,28,101,6580022,,,,,,,2022-09-27,1,,,,,コンフィー,0
1665,7180001153129,新規,0,2022-09-27,2022-09-27,株式会社Ｇｏｏｄ　Ｇａｍｅ,,株式会社,愛知県,春日井市,東野町１０丁目１７番地１－１０５号,,23,206,4860817,,,,,,,2022-09-27,1,,,,,グッドゲーム,0
1668,7180003024294,新規,0,2022-09-27,2022-09-27,合同会社ＡＢＤＵＬ　ＷＡＨＡＢ　ＴＲＡＤＩＮＧ,,合同会社,愛知県,弥富市,稲荷崎７丁目３１番地１,,23,235,4980056,,,,,,,2022-09-27,1,,,,,アブドュルワハブトレーディング,0
1669,7180003024303,新規,0,2022-09-27,2022-09-27,合同会社グッドフィード,,合同会社,愛知県,東海市,名和町馬坂３８番地,,23,222,4760002,,,,,,,2022-09-27,1,,,,,グッドフィード,0
1682,7240001060392,新規,0,2022-09-27,2022-09-27,ＩＳＲ日本株式会社,,株式会社,広島県,呉市,中央２丁目５番２号,,34,202,7370051,,,,,,,2022-09-27,1,,,,,アイエスアールニッポン,0
1686,7250005008775,新規,0,2022-09-27,2022-09-27,一般社団法人絆スポーツクラブ萩,,その他の設立登記法人,山口県,萩市,大字橋本町３０番地１,,35,204,7580062,,,,,,,2022-09-27,1,,,,,キズナスポーツクラブハギ,0
1698,7290003012981,新規,0,2022-09-27,2022-09-27,マングース合同会社,,合同会社,福岡県,福岡市中央区,今泉１丁目１０番２０－５０３号エーデル天神,,40,133,8100021,,,,,,,2022-09-27,1,,,,,マングース,0
1701,7290803004212,新規,0,2022-09-27,2022-09-27,Ｖ３合同会社,,合同会社,福岡県,北九州市小倉北区,古船場町５番３３号,,40,106,8020082,,,,,,,2022-09-27,1,,,,,ブイスリー,0
1702,7290805009589,新規,0,2022-09-27,2022-09-27,新菱労働組合,,その他の設立登記法人,福岡県,北九州市八幡西区,黒崎３丁目９－１８ＥＣＳ第２５ビル,,40,109,8060021,,,,,,,2022-09-27,1,,,,,シンリョウ,0
1708,7330003009528,新規,0,2022-09-27,2022-09-27,アダミス合同会社,,合同会社,熊本県,玉名市,上小田１０４９番地１,,43,206,8650011,,,,,,,2022-09-27,1,,,,,アダミス,0
1718,7380001033129,新規,0,2022-09-27,2022-09-27,サンルーフ株式会社,,株式会社,福島県,南相馬市,鹿島区小山田字隠町１２０番地,,07,212,9792452,,,,,,,2022-09-27,1,,,,,サンルーフ,0
1729,7430001087524,新規,0,2022-09-27,2022-09-27,株式会社ＡＬ　Ｓｙｅｄ商会,,株式会社,北海道,札幌市北区,屯田町５５２番地３,,01,102,0020865,,,,,,,2022-09-27,1,,,,,アルセイエドショウカイ,0
1732,7430003014286,新規,0,2022-09-27,2022-09-27,合同会社創雄,,合同会社,北海道,札幌市北区,北三十一条西４丁目１番２７,,01,102,0010031,,,,,,,2022-09-27,1,,,,,ソウユウ,0
1733,7430005014565,新規,0,2022-09-27,2022-09-27,医療法人社団さっぽろ円山乳腺クリニック,,その他の設立登記法人,北海道,札幌市中央区,大通西２６丁目２番１０号プライムパーク円山公園,,01,101,0640820,,,,,,,2022-09-27,1,,,,,サッポロマルヤマニュウセンクリニック,0
1736,7470001019267,新規,0,2022-09-27,2022-09-27,株式会社丹下工業,,株式会社,香川県,丸亀市,原田町１６５２番地７,,37,202,7630074,,,,,,,2022-09-27,1,,,,,タンゲコウギョウ,0
1755,8010001229695,新規,0,2022-09-27,2022-09-27,株式会社太平洋クラブマネジメント,,株式会社,東京都,千代田区,丸の内１丁目１１番１号,,13,101,1000005,,,,,,,2022-09-27,1,,,,,タイヘイヨウクラブマネジマント,0
1756,8010001229720,新規,0,2022-09-27,2022-09-27,Ｘ株式会社,,株式会社,東京都,文京区,本駒込１丁目１７番１９号,,13,105,1130021,,,,,,,2022-09-27,1,,,,,エックス,0
1762,8010005035594,新規,0,2022-09-27,2022-09-27,一般社団法人ノービル予防医学研究会,,その他の設立登記法人,東京都,中央区,銀座６丁目４番８号,,13,102,1040061,,,,,,,2022-09-27,1,,,,,ノービルヨボウイガクケンキュウカイ,0
1766,8010401169847,新規,0,2022-09-27,2022-09-27,株式会社ＶＡＭＯ,,株式会社,東京都,港区,南青山１丁目１番１号新青山ビル西館７階,,13,103,1070062,,,,,,,2022-09-27,1,,,,,ヴァモ,0
1767,8010401169871,新規,0,2022-09-27,2022-09-27,ＦＭ保険サービス株式会社,,株式会社,東京都,港区,北青山２丁目５番１号,,13,103,1070061,,,,,,,2022-09-27,1,,,,,エフエムホケンサービス,0
1770,8010501049404,新規,0,2022-09-27,2022-09-27,株式会社ＧＮＺ,,株式会社,東京都,台東区,上野３丁目２２番１号リアクセスビル２階,,13,106,1100005,,,,,,,2022-09-27,1,,,,,ジーエヌゼット,0
1786,8010903007604,新規,0,2022-09-27,2022-09-27,合同会社ＣＹＡＮ,,合同会社,東京都,世田谷区,上馬３丁目１５番８－１１０４号,,13,112,1540011,,,,,,,2022-09-27,1,,,,,シアン,0
1793,8011001149685,新規,0,2022-09-27,2022-09-27,株式会社ｓｕｎｓ,,株式会社,東京都,渋谷区,神宮前６丁目２７番４号,,13,113,1500001,,,,,,,2022-09-27,1,,,,,サンズ,0
1794,8011001149925,新規,0,2022-09-27,2022-09-27,Ｎｏｙｅｒ株式会社,,株式会社,東京都,目黒区,上目黒４丁目３２番９号,,13,110,1530051,,,,,,,2022-09-27,1,,,,,ノワ,0
1795,8011001149933,新規,0,2022-09-27,2022-09-27,澄逸株式会社,,株式会社,東京都,渋谷区,本町１丁目２０番２－１３０４号,,13,113,1510071,,,,,,,2022-09-27,1,,,,,スミイツ,0
1806,8011401024538,新規,0,2022-09-27,2022-09-27,盛代株式会社,,株式会社,東京都,板橋区,徳丸１丁目１２番１１マンション藍２０３号,,13,119,1750083,,,,,,,2022-09-27,1,,,,,セイダイ,0
1815,8012403005600,新規,0,2022-09-27,2022-09-27,合同会社Ｒ‐ＤＥＳＩＧＮ　ＭＵＳＩＣ,,合同会社,東京都,調布市,飛田給３丁目２３番地５８,,13,208,1820036,,,,,,,2022-09-27,1,,,,,アールデザインミュージック,0
1821,8013101009018,新規,0,2022-09-27,2022-09-27,株式会社川村商店,,株式会社,東京都,あきる野市,伊奈９１４番地５,,13,228,1900142,,,,,,,2022-09-27,1,,,,,カワムラショウテン,0
1834,8020003022429,新規,0,2022-09-27,2022-09-27,Ｂｉｎａｒｙ　Ｒｅｃｏｒｄｓ合同会社,,合同会社,神奈川県,川崎市高津区,北見方２丁目２６番１－１４１３号,,14,134,2130005,,,,,,,2022-09-27,1,,,,,バイナリーレコーズ,0
1841,8030001150189,新規,0,2022-09-27,2022-09-27,ＮＥＸＴ　ＧＥＡＲ株式会社,,株式会社,埼玉県,川越市,大字山田２４２番地８,,11,201,3500822,,,,,,,2022-09-27,1,,,,,ネクストギア,0
1842,8030001150197,新規,0,2022-09-27,2022-09-27,株式会社Ｂｅａｒｈｕｇ,,株式会社,埼玉県,越谷市,大沢４丁目１５番１号越谷ファミールハイツ５－４１０,,11,222,3430025,,,,,,,2022-09-27,1,,,,,ベアハグ,0
1843,8030001150206,新規,0,2022-09-27,2022-09-27,株式会社Ｔ２,,株式会社,埼玉県,蕨市,塚越３丁目１６番１４号,,11,223,3350002,,,,,,,2022-09-27,1,,,,,ティーツー,0
1844,8030001150222,新規,0,2022-09-27,2022-09-27,ＡＡＲＡＴＩ株式会社,,株式会社,埼玉県,和光市,南１丁目１５－５０,,11,229,3510104,,,,,,,2022-09-27,1,,,,,アラティ,0
1846,8030003020241,新規,0,2022-09-27,2022-09-27,合同会社ＯｎｅＷｏｒｌｄ,,合同会社,埼玉県,川口市,本町４丁目５－８川口ハウス１３０７,,11,203,3320012,,,,,,,2022-09-27,1,,,,,ワンワールド,0
1847,8030005020990,新規,0,2022-09-27,2022-09-27,特定非営利活動法人アート応援隊,,その他の設立登記法人,埼玉県,さいたま市緑区,大字代山１７２番地浦和学院高校内,,11,109,3360975,,,,,,,2022-09-27,1,,,,,アートオウエンタイ,0
1853,8040001125140,新規,0,2022-09-27,2022-09-27,株式会社ｖｉｖｉｄ　ｕｐｄａｔｅ,,株式会社,千葉県,船橋市,宮本８丁目２１番６号,,12,204,2730003,,,,,,,2022-09-27,1,,,,,ヴィヴィドアップデート,0
1854,8040001125165,新規,0,2022-09-27,2022-09-27,株式会社ミミコ不動産,,株式会社,千葉県,松戸市,紙敷１４３４番地１２,,12,207,2702221,,,,,,,2022-09-27,1,,,,,ミミコフドウサン,0
1855,8040005021740,新規,0,2022-09-27,2022-09-27,一般社団法人医療的ケア児等コーディネーター支援協会,,その他の設立登記法人,千葉県,千葉市中央区,仁戸名町６７３,,12,101,2600801,,,,,,,2022-09-27,1,,,,,イリョウテキケアジトウコーディネーターシエンキョウカイ,0
1860,8070001039668,新規,0,2022-09-27,2022-09-27,株式会社ワダ,,株式会社,群馬県,富岡市,上黒岩１２８９,,10,210,3702345,,,,,,,2022-09-27,1,,,,,ワダ,0
1864,8070002037753,新規,0,2022-09-27,2022-09-27,有限会社岡部写植,,有限会社,群馬県,高崎市,飯塚町４５４番地の２,,10,202,3700069,,,,,,,2022-09-27,1,,,,,オカベシャショク,0
1865,8070003004629,新規,0,2022-09-27,2022-09-27,エスアイエス合同会社,,合同会社,群馬県,伊勢崎市,稲荷町８５０番地１,,10,204,3720804,,,,,,,2022-09-27,1,,,,,エスアイエス,0
1880,8120001249006,新規,0,2022-09-27,2022-09-27,易成株式会社,,株式会社,大阪府,大阪市西区,靱本町１丁目１５番１０－５０４号,,27,106,5500004,,,,,,,2022-09-27,1,,,,,イセイ,0
1881,8120001249039,新規,0,2022-09-27,2022-09-27,大摩半導体科技株式会社,,株式会社,大阪府,大阪市東成区,深江北３丁目４番２１号エクラ深江橋５１５Ａ,,27,115,5370001,,,,,,,2022-09-27,1,,,,,ダイマハンドウタイカギ,0
1882,8120001249047,新規,0,2022-09-27,2022-09-27,株式会社Ｓ・ＰＬＡＮＮＩＮＧ,,株式会社,大阪府,大阪市中央区,大手通２丁目４番７号,,27,128,5400021,,,,,,,2022-09-27,1,,,,,エスプランニング,0
1883,8120001249088,新規,0,2022-09-27,2022-09-27,うまとら株式会社,,株式会社,大阪府,大阪市北区,本庄東１丁目１１番９号久野ハイツ３Ａ,,27,127,5310074,,,,,,,2022-09-27,1,,,,,ウマトラ,0
1905,8140001127449,新規,0,2022-09-27,2022-09-27,株式会社セカンドチューズデー,,株式会社,兵庫県,明石市,本町１丁目９番１１号,,28,203,6730892,,,,,,,2022-09-27,1,,,,,セカンドチューズデー,0
1906,8140001127457,新規,0,2022-09-27,2022-09-27,株式会社セラヴィホールデイングス,,株式会社,兵庫県,神戸市北区,藤原台中町２丁目１０番１０号,,28,109,6511302,,,,,,,2022-09-27,1,,,,,セラヴィホールデイングス,0
1907,8140003018150,新規,0,2022-09-27,2022-09-27,合同会社ＳＴＳ,,合同会社,兵庫県,伊丹市,千僧３丁目１１２番地６,,28,207,6640898,,,,,,,2022-09-27,1,,,,,エスティーエス,0
1912,8180001153103,新規,0,2022-09-27,2022-09-27,株式会社Ａｎｓｉｚｅ,,株式会社,愛知県,名古屋市中区,上前津２丁目９番地１６号ビラ三秀６０１号,,23,106,4600013,,,,,,,2022-09-27,1,,,,,アンサイズ,0
1913,8180001153128,新規,0,2022-09-27,2022-09-27,株式会社おウチｄｅお肉,,株式会社,愛知県,名古屋市名東区,極楽３丁目９６番地１ヒルズ愛英１０１,,23,115,4650053,,,,,,,2022-09-27,1,,,,,オウチデオニク,0
1923,8180003024293,新規,0,2022-09-27,2022-09-27,いっぽ合同会社,,合同会社,愛知県,名古屋市天白区,平針４丁目１０８番地ユニーブル第３平針１０２号,,23,116,4680011,,,,,,,2022-09-27,1,,,,,イッポ,0
1924,8180003024302,新規,0,2022-09-27,2022-09-27,テラプラス合同会社,,合同会社,愛知県,一宮市,貴船２丁目１０－２０,,23,203,4910037,,,,,,,2022-09-27,1,,,,,テラプラス,0
1926,8180005019944,新規,0,2022-09-27,2022-09-27,一般社団法人ボーダレス,,その他の設立登記法人,愛知県,名古屋市中村区,亀島２丁目１８番２５号,,23,105,4530013,,,,,,,2022-09-27,1,,,,,ボーダレス,0
1932,8200005013390,新規,0,2022-09-27,2022-09-27,一般社団法人ネスポプラス,,その他の設立登記法人,岐阜県,瑞穂市,野田新田字番屋口４０１２番地２,,21,216,5010232,,,,,,,2022-09-27,1,,,,,ネスポプラス,0
1947,8280001008783,新規,0,2022-09-27,2022-09-27,株式会社おやさいラボ,,株式会社,島根県,松江市,乃木福富町７３３番地９,,32,201,6900046,,,,,,,2022-09-27,1,,,,,オヤサイラボ,0
1951,8290001098997,新規,0,2022-09-27,2022-09-27,Ｍｙｓａ　Ｋｉｔａｎｏ株式会社,,株式会社,福岡県,福岡市博多区,金の隈３丁目２０番１４号,,40,132,8120863,,,,,,,2022-09-27,1,,,,,ミーサキタノ,0
1952,8290003012980,新規,0,2022-09-27,2022-09-27,合同会社フラワーハート,,合同会社,福岡県,福岡市東区,香椎５丁目５番６号,,40,131,8130011,,,,,,,2022-09-27,1,,,,,フラワーハート,0
1953,8290801028906,新規,0,2022-09-27,2022-09-27,株式会社ＬＵＣＩＡＺ,,株式会社,福岡県,北九州市門司区,梅ノ木町６番２１－６０７号,,40,101,8000026,,,,,,,2022-09-27,1,,,,,ルシアス,0
1955,8290803004211,新規,0,2022-09-27,2022-09-27,Ｖ２合同会社,,合同会社,福岡県,北九州市小倉北区,古船場町５番３３号,,40,106,8020082,,,,,,,2022-09-27,1,,,,,ブイツー,0
1960,8330003009527,新規,0,2022-09-27,2022-09-27,合同会社クリーンアップワークス,,合同会社,熊本県,熊本市中央区,渡鹿４丁目１２番５号,,43,101,8620970,,,,,,,2022-09-27,1,,,,,クリーンアップワークス,0
1973,8420001018017,新規,0,2022-09-27,2022-09-27,ＢＲＩＧＨＣＥ株式会社,,株式会社,青森県,青森市,中佃３丁目１４番５号,,02,201,0300963,,,,,,,2022-09-27,1,,,,,ブライス,0
1979,8430001087523,新規,0,2022-09-27,2022-09-27,株式会社井上商店,,株式会社,北海道,札幌市北区,新琴似六条１１丁目５番２１号,,01,102,0010906,,,,,,,2022-09-27,1,,,,,イノウエショウテン,0
1981,8430003014310,新規,0,2022-09-27,2022-09-27,Ｍｙｓ合同会社,,合同会社,北海道,札幌市白石区,北郷二条６丁目１番５号,,01,104,0030832,,,,,,,2022-09-27,1,,,,,ミース,0
2002,9010001229694,新規,0,2022-09-27,2022-09-27,株式会社Ｒｅｖｅ　ｓｈａｒｅ,,株式会社,東京都,中央区,銀座２丁目１１番８号ラウンドクロス銀座二丁目１２階,,13,102,1040061,,,,,,,2022-09-27,1,,,,,レーヴシェア,0
2017,9010401169870,新規,0,2022-09-27,2022-09-27,株式会社ＵＳＨＩＯ,,株式会社,東京都,港区,白金１丁目１１番１７－６０２号,,13,103,1080072,,,,,,,2022-09-27,1,,,,,ウシオ,0
2018,9010401169879,新規,0,2022-09-27,2022-09-27,リンクタイズホールディングス株式会社,,株式会社,東京都,港区,東麻布１丁目９番１５号,,13,103,1060044,,,,,,,2022-09-27,1,,,,,リンクタイズホールディングス,0
2020,9010403028554,新規,0,2022-09-27,2022-09-27,リバーシティ合同会社,,合同会社,東京都,港区,浜松町２丁目２番１５号浜松町ダイヤビル２Ｆ,,13,103,1050013,,,,,,,2022-09-27,1,,,,,リバーシティ,0
2024,9010703006391,新規,0,2022-09-27,2022-09-27,合同会社イシコン,,合同会社,東京都,品川区,大井１丁目３１番１－２６１３号,,13,109,1400014,,,,,,,2022-09-27,1,,,,,イシコン,0
2029,9010903007660,新規,0,2022-09-27,2022-09-27,ＡＵＴＯＮ合同会社,,合同会社,東京都,世田谷区,船橋４丁目８番４号ブライト千歳船橋１０２,,13,112,1560055,,,,,,,2022-09-27,1,,,,,オートン,0
2034,9011001149899,新規,0,2022-09-27,2022-09-27,日本森田医薬科技株式会社,,株式会社,東京都,渋谷区,代々木２丁目２３番１号,,13,113,1510053,,,,,,,2022-09-27,1,,,,,ニホンモリタイヤクカギ,0
2035,9011001149940,新規,0,2022-09-27,2022-09-27,株式会社ｎｉｃｏｍｙｕ,,株式会社,東京都,目黒区,上目黒２丁目２５番１３号,,13,110,1530051,,,,,,,2022-09-27,1,,,,,ニコミュー,0
2038,9011101100209,新規,0,2022-09-27,2022-09-27,ＬＩＬ　ＴＯＰ株式会社,,株式会社,東京都,新宿区,若松町７番１号クレヴィア新宿若松町９０６号,,13,104,1620056,,,,,,,2022-09-27,1,,,,,リルトップ,0
2039,9011101100266,新規,0,2022-09-27,2022-09-27,株式会社Ｏｒｉｄｕｒｕ,,株式会社,東京都,新宿区,大久保３丁目１０番１－１５０８号,,13,104,1690072,,,,,,,2022-09-27,1,,,,,オリヅル,0
2040,9011101100290,新規,0,2022-09-27,2022-09-27,株式会社ＮＡ　３ｒｄ,,株式会社,東京都,新宿区,新宿６丁目２６番８号ＮＡビル,,13,104,1600022,,,,,,,2022-09-27,1,,,,,,0
2061,9020001148118,新規,0,2022-09-27,2022-09-27,ハイヴ・インターナショナル株式会社,,株式会社,神奈川県,横浜市青葉区,美しが丘２丁目２５番地１,,14,117,2250002,,,,,,,2022-09-27,1,,,,,ハイヴインターナショナル,0
2068,9021003012179,新規,0,2022-09-27,2022-09-27,合同会社クロナン,,合同会社,神奈川県,秦野市,落合５６７－２,,14,211,2570025,,,,,,,2022-09-27,1,,,,,クロナン,0
2072,9030001150155,新規,0,2022-09-27,2022-09-27,勇心株式会社,,株式会社,埼玉県,加須市,花崎北２丁目１６番地１Ｇ１０３,,11,210,3470016,,,,,,,2022-09-27,1,,,,,ユウシン,0
2079,9030003020240,新規,0,2022-09-27,2022-09-27,合同会社Ｋ＆Ｊ　Ｇｌｏｂａｌ,,合同会社,埼玉県,川口市,上青木西２丁目１３－１０,,11,203,3330845,,,,,,,2022-09-27,1,,,,,ケイアンドジェーグローバル,0
2080,9030003020249,新規,0,2022-09-27,2022-09-27,合同会社タナスト,,合同会社,埼玉県,和光市,下新倉３丁目１７番３０号,,11,229,3510111,,,,,,,2022-09-27,1,,,,,タナスト,0
2084,9040001125164,新規,0,2022-09-27,2022-09-27,ＭＳクリエイト株式会社,,株式会社,千葉県,流山市,東初石３丁目１２６番地の１,,12,220,2700114,,,,,,,2022-09-27,1,,,,,エムエスクリエイト,0
2089,9050001051707,新規,0,2022-09-27,2022-09-27,株式会社ケーオー,,株式会社,茨城県,神栖市,知手中央６丁目１８番３０号山恵荘１０号,,08,232,3140112,,,,,,,2022-09-27,1,,,,,ケーオー,0
2090,9050003006881,新規,0,2022-09-27,2022-09-27,合同会社グリフォン,,合同会社,茨城県,水戸市,栄町１丁目７番２２号ビーウイングビル１階Ｂ号室,,08,201,3100064,,,,,,,2022-09-27,1,,,,,グリフォン,0
2109,9120001249038,新規,0,2022-09-27,2022-09-27,株式会社Ｃｌｅａｎｕｐ,,株式会社,大阪府,大阪市東淀川区,大桐１丁目８番１１号,,27,114,5330011,,,,,,,2022-09-27,1,,,,,クリーンナップ,0
2110,9120001249046,新規,0,2022-09-27,2022-09-27,モーガン株式会社,,株式会社,大阪府,大阪市北区,西天満４丁目１２番３号エスキュート西天満２０２号室,,27,127,5300047,,,,,,,2022-09-27,1,,,,,モーガン,0
2111,9120001249054,新規,0,2022-09-27,2022-09-27,驥裕明河株式会社,,株式会社,大阪府,大阪市中央区,松屋町９番２０号ローレルステート松屋町５０７Ａ,,27,128,5420067,,,,,,,2022-09-27,1,,,,,キユウメイガ,0
2112,9120001249087,新規,0,2022-09-27,2022-09-27,天王星株式会社,,株式会社,大阪府,大阪市淀川区,木川西４丁目１－１６新大阪サンマンション３号館２０１号,,27,123,5320013,,,,,,,2022-09-27,1,,,,,テンノウセイ,0
2116,9120003022533,新規,0,2022-09-27,2022-09-27,合同会社モーフ,,合同会社,大阪府,大阪市北区,梅田１丁目１番３号大阪駅前第３ビル２９階１－１－１号室,,27,127,5300001,,,,,,,2022-09-27,1,,,,,モーフ,0
2117,9120003022558,新規,0,2022-09-27,2022-09-27,合同会社ゴミステルデ,,合同会社,大阪府,大阪市阿倍野区,阿倍野筋５丁目１番２５号今泉ハイツ２０１号,,27,119,5450052,,,,,,,2022-09-27,1,,,,,ゴミステルデ,0
2120,9120101066267,新規,0,2022-09-27,2022-09-27,株式会社堺第２学校給食サービス,,株式会社,大阪府,堺市堺区,東雲西町４丁２番２号,,27,141,5900013,,,,,,,2022-09-27,1,,,,,サカイダイニガッコウキュウショクサービス,0
2131,9140001127448,新規,0,2022-09-27,2022-09-27,日本タクシー株式会社,,株式会社,兵庫県,神戸市長田区,堀切町９番６号,,28,106,6530885,,,,,,,2022-09-27,1,,,,,ニホンタクシー,0
2135,9140003018125,新規,0,2022-09-27,2022-09-27,合同会社ＦＲＥＥＤＯＭ　ＰＲＯＤＵＣＴＳ,,合同会社,兵庫県,小野市,黒川町２０５６番地,,28,218,6751371,,,,,,,2022-09-27,1,,,,,フリーダムプロダクツ,0
2136,9140003018158,新規,0,2022-09-27,2022-09-27,合同会社律花,,合同会社,兵庫県,姫路市,飾磨区三宅１丁目１６７ハッピーコート三宅,,28,201,6728048,,,,,,,2022-09-27,1,,,,,リツカ,0
2159,9290001098955,新規,0,2022-09-27,2022-09-27,株式会社モテナ,,株式会社,福岡県,福岡市中央区,天神４丁目６番２８号天神ファーストビル７階,,40,133,8100001,,,,,,,2022-09-27,1,,,,,モテナ,0
2160,9290001098971,新規,0,2022-09-27,2022-09-27,株式会社２４,,株式会社,福岡県,福岡市博多区,中洲２丁目２番１０号第１１ラインビル２階,,40,132,8100801,,,,,,,2022-09-27,1,,,,,トゥエンティフォー,0
2163,9290801028905,新規,0,2022-09-27,2022-09-27,株式会社ＢｌｕｅＦｌａｍｅ,,株式会社,福岡県,北九州市小倉北区,片野新町３丁目２－４１,,40,106,8020062,,,,,,,2022-09-27,1,,,,,ブルーフレーム,0
2164,9290803004202,新規,0,2022-09-27,2022-09-27,合同会社ＲＥＯ,,合同会社,福岡県,北九州市八幡東区,天神町２番１－５０２号,,40,108,8050054,,,,,,,2022-09-27,1,,,,,レオ,0
2165,9290803004210,新規,0,2022-09-27,2022-09-27,合同会社ビリー,,合同会社,福岡県,北九州市小倉北区,弁天町１－２０,,40,106,8030856,,,,,,,2022-09-27,1,,,,,ビリー,0
2168,9330005010564,新規,0,2022-09-27,2022-09-27,一般社団法人タダの箱庭,,その他の設立登記法人,熊本県,宇城市,三角町中村１９０１番地１７,,43,213,8693204,,,,,,,2022-09-27,1,,,,,タダノハコニワ,0
2172,9340005009507,新規,0,2022-09-27,2022-09-27,協同組合大島紬センター,,その他の設立登記法人,鹿児島県,姶良市,平松３６９３番地,,46,225,8995652,,,,,,,2022-09-27,1,,,,,オオシマツムギセンター,0
2177,9380001033127,新規,0,2022-09-27,2022-09-27,株式会社四ツ門製作,,株式会社,福島県,いわき市,三和町差塩字東作１４８番地の１,,07,204,9701377,,,,,,,2022-09-27,1,,,,,ヨツモンセイサク,0
2178,9380001033135,新規,0,2022-09-27,2022-09-27,東都建材株式会社,,株式会社,福島県,いわき市,常磐西郷町忠多１番地の４,,07,204,9728316,,,,,,,2022-09-27,1,,,,,トウトケンザイ,0
2185,9430005014563,新規,0,2022-09-27,2022-09-27,医療法人社団千将会,,その他の設立登記法人,北海道,千歳市,富丘２丁目１８－７,,01,224,0660034,,,,,,,2022-09-27,1,,,,,センショウカイ,0
2192,9490001010296,新規,0,2022-09-27,2022-09-27,ＮＳＨ株式会社,,株式会社,高知県,高知市,平和町８４番地３０,,39,201,7800922,,,,,,,2022-09-27,1,,,,,エヌエスエイチ,0
