sequenceNumber,corporateNumber,process,correct,updateDate,changeDate,name,nameImageId,kind,prefectureName,cityName,streetNumber,addressImageId,prefectureCode,cityCode,postCode,addressOutside,addressOutsideImageId,closeDate,closeCause,successorCorporateNumber,changeCause,assignmentDate,latest,enName,enPrefectureName,enCityName,enAddressOutside,furigana,hihyoji
3,1010001200381,登記記録の閉鎖等,0,2024-02-01,2024-01-26,株式会社ワークキャスト,,株式会社,東京都,千代田区,神田佐久間町３丁目２１番地第一宮沢ビル２階,,13,101,1010025,,,2024-01-26,清算の結了等,,,2019-04-23,1,,,,,ワークキャスト,0
8,1010002050702,登記記録の閉鎖等,0,2024-02-01,2024-01-29,有限会社ブルーム・コミュニケーションズ,,有限会社,東京都,中央区,築地１丁目５番３号笹本ビル２Ｆ,,13,102,1040045,,,2024-01-29,清算の結了等,,,2015-10-05,1,,,,,ブルームコミュニケーションズ,0
33,1010701031556,登記記録の閉鎖等,0,2024-02-01,2024-01-26,株式会社長岡火力発電所,,株式会社,東京都,千代田区,麹町４丁目５番地２１,,13,101,1020083,,,2024-01-26,清算の結了等,,,2015-10-29,1,,,,,ナガオカカリョクハツデンショ,0
35,1010901011011,登記記録の閉鎖等,0,2024-02-01,2024-01-30,株式会社ベルモード,,株式会社,東京都,品川区,上大崎３丁目１番１号目黒セントラルスクエア１５階,,13,109,1410021,,,2024-01-30,合併による解散等,9010703006904,令和６年１月３０日東京都品川区上大崎三丁目１番１号目黒セントラルスクエア１５階ニューサウス合同会社（9010703006904）に合併し解散,2015-10-05,1,,,,,ベルモード,0
63,1012801018573,登記記録の閉鎖等,0,2024-02-01,2024-01-26,株式会社ＦＮＣ,,株式会社,東京都,国分寺市,東元町４丁目１番１４号,,13,214,1850022,,,2024-01-26,清算の結了等,,,2018-02-16,1,,,,,エフエヌシー,0
73,1020005009100,登記記録の閉鎖等,0,2024-02-01,2024-01-29,特定非営利活動法人青木繁海の幸会,,その他の設立登記法人,神奈川県,川崎市多摩区,菅北浦３丁目２番４０号,,14,135,2140008,,,2024-01-29,清算の結了等,,,2015-10-05,1,,,,,アオキシゲルウミノサチカイ,0
89,1030002054305,登記記録の閉鎖等,0,2024-02-01,2024-01-30,有限会社高橋建築,00016776,有限会社,埼玉県,上尾市,中分２丁目５７４番地,,11,219,3620067,,,2024-01-30,清算の結了等,,,2015-10-05,1,,,,,タカハシケンチク,0
111,1050002011163,登記記録の閉鎖等,0,2024-02-01,2024-01-29,有限会社オカノストアー,,有限会社,茨城県,土浦市,中村南１丁目３番１５号,,08,203,3000843,,,2024-01-29,清算の結了等,,,2015-10-05,1,,,,,オカノストアー,0
133,1120003022904,登記記録の閉鎖等,0,2024-02-01,2024-01-26,合同会社Ｔｉｄｙサポート,,合同会社,大阪府,大阪市北区,梅田１丁目２番２号大阪駅前第２ビル２階５－６,,27,127,5300001,,,2024-01-26,清算の結了等,,,2022-11-22,1,,,,,タイディサポート,0
135,1120901012469,登記記録の閉鎖等,0,2024-02-01,2024-01-12,株式会社リライフコーポレーション,,株式会社,大阪府,三島郡島本町,水無瀬２丁目３番６号,,27,301,6180014,,,2024-01-12,清算の結了等,,,2015-10-05,1,,,,,リライフコーポレーション,0
146,1140001022994,登記記録の閉鎖等,0,2024-02-01,2024-01-31,牧山通商株式会社,,株式会社,兵庫県,神戸市中央区,明石町３２番地明海ビル,,28,110,6500037,,,2024-01-31,清算の結了等,,,2015-10-05,1,,,,,マキヤマツウショウ,0
147,1140001106252,登記記録の閉鎖等,0,2024-02-01,2024-01-30,Ｏｐｈｌｅｘ株式会社,,株式会社,長崎県,西彼杵郡長与町,嬉里郷７０３番地９,,42,307,8512128,,,2024-01-30,清算の結了等,,,2017-05-23,1,,,,,オフレックス,0
162,1190002017254,登記記録の閉鎖等,0,2024-02-01,2024-01-30,有限会社名南精密工業,,有限会社,三重県,桑名市,大字福岡町２７０番地の１,,24,205,5110844,,,2024-01-30,清算の結了等,,,2015-10-05,1,,,,,メイナンセイミツコウギョウ,0
163,1210001016956,登記記録の閉鎖等,0,2024-02-01,2024-01-29,株式会社エイチティーエス,,株式会社,福井県,丹生郡越前町,気比庄第１２号１番地１２,,18,423,9160133,,,2024-01-29,清算の結了等,,,2017-11-27,1,,,,,エイチティーエス,0
195,1360002022609,登記記録の閉鎖等,0,2024-02-01,2024-01-29,有限会社共進ビル・システム,,有限会社,沖縄県,宮古島市,平良字東仲宗根９１０番地の５,,47,214,9060007,,,2024-01-29,清算の結了等,,,2015-10-05,1,,,,,キョウシンビルシステム,0
215,1480002009949,登記記録の閉鎖等,0,2024-02-01,2024-01-29,有限会社野口工務店,,有限会社,徳島県,阿波市,市場町大野島字天神８４番地の５,,36,206,7711627,,,2024-01-29,清算の結了等,,,2015-10-05,1,,,,,ノグチコウムテン,0
228,2010005018902,登記記録の閉鎖等,0,2024-02-01,2024-01-29,一般財団法人水産物市場改善協会,,その他の設立登記法人,東京都,江東区,豊洲６丁目６番１－２０３号,,13,108,1350061,,,2024-01-29,清算の結了等,,,2015-10-05,1,,,,,スイサンブツシジョウカイゼンキョウカイ,0
256,2010602032388,登記記録の閉鎖等,0,2024-02-01,2024-01-29,有限会社山泰,,有限会社,東京都,江東区,東砂６丁目９番１３号,,13,108,1360074,,,2024-01-29,清算の結了等,,,2015-10-05,1,,,,,ヤマタイ,0
261,2010901009797,登記記録の閉鎖等,0,2024-02-01,2024-01-29,株式会社パナ不動産,,株式会社,東京都,世田谷区,南烏山６丁目７番１号,,13,112,1570062,,,2024-01-29,清算の結了等,,,2015-10-05,1,,,,,パナフドウサン,0
283,2011201006584,登記記録の閉鎖等,0,2024-02-01,2024-01-26,株式会社ＦＴプロモーション,,株式会社,埼玉県,朝霞市,根岸台７丁目７番１号,,11,227,3510005,,,2024-01-26,清算の結了等,,,2015-10-05,1,,,,,エフティプロモーション,0
288,2011402000238,登記記録の閉鎖等,0,2024-02-01,2024-01-30,有限会社アイマックス,,有限会社,東京都,板橋区,大谷口上町１０番４号,,13,119,1730032,,,2024-01-30,清算の結了等,,,2015-10-05,1,,,,,アイマックス,0
290,2011502003470,登記記録の閉鎖等,0,2024-02-01,2024-01-23,有限会社大黒商店,,有限会社,東京都,北区,赤羽西６丁目６番１１号,,13,117,1150055,,,2024-01-23,清算の結了等,,,2015-10-05,1,,,,,ダイコクショウテン,0
292,2011701006274,登記記録の閉鎖等,0,2024-02-01,2024-01-29,株式会社日米パッキン,,株式会社,東京都,江戸川区,西葛西７丁目９番１７号,,13,123,1340088,,,2024-01-29,清算の結了等,,,2015-10-05,1,,,,,ニチベイパッキン,0
295,2011702013402,登記記録の閉鎖等,0,2024-02-01,2024-01-29,有限会社イー・プレスト,,有限会社,東京都,江戸川区,瑞江１丁目２番１３号,,13,123,1320011,,,2024-01-29,清算の結了等,,,2015-10-05,1,,,,,イープレスト,0
310,2020001140097,登記記録の閉鎖等,0,2024-02-01,2024-01-24,株式会社日本貿易サービス,,株式会社,千葉県,茂原市,早野２５３８－１０森倉庫１０１,,12,210,2970037,,,2024-01-24,清算の結了等,,,2021-03-02,1,,,,,ニホンボウエキサービス,0
311,2020001141962,登記記録の閉鎖等,0,2024-02-01,2024-01-30,ＩＨＳ株式会社,,株式会社,神奈川県,横浜市緑区,西八朔町１番地５０,,14,113,2260024,,,2024-01-30,清算の結了等,,,2021-06-28,1,,,,,アイエイチエス,0
320,2021001052935,登記記録の閉鎖等,0,2024-02-01,2024-01-29,株式会社クリエイトシステム開発,,株式会社,神奈川県,秦野市,曽屋３５５１番地,,14,211,2570031,,,2024-01-29,清算の結了等,,,2015-10-05,1,,,,,クリエイトシステムカイハツ,0
357,2070001022241,登記記録の閉鎖等,0,2024-02-01,2024-01-29,株式会社ライトアップライン,,株式会社,群馬県,館林市,上赤生田町３９７１番地の２,,10,207,3740015,,,2024-01-29,清算の結了等,,,2015-10-05,1,,,,,ライトアップライン,0
366,2100001001588,登記記録の閉鎖等,0,2024-02-01,2024-01-30,株式会社須田商店,,株式会社,長野県,長野市,松代町大室１２０７番地３,,20,201,3811211,,,2024-01-30,清算の結了等,,,2015-10-05,1,,,,,スダショウテン,0
371,2120001225144,登記記録の閉鎖等,0,2024-02-01,2024-01-26,株式会社クリネゴ,,株式会社,大阪府,大阪市北区,東天満１丁目１１番１５号,,27,127,5300044,,,2024-01-26,清算の結了等,,,2019-11-14,1,,,,,クリネゴ,0
383,2120002068476,登記記録の閉鎖等,0,2024-02-01,2024-01-29,有限会社瑞煌,,有限会社,奈良県,奈良市,中登美ヶ丘４丁目２ローレルスクエア登美ヶ丘第ＩＩ期１７番館７０３号室,00125523,29,201,6310003,,,2024-01-29,清算の結了等,,,2015-10-05,1,,,,,ズイコウ,0
386,2120902022301,登記記録の閉鎖等,0,2024-02-01,2024-01-30,有限会社ヒカリジム,,有限会社,大阪府,箕面市,粟生間谷西４丁目２番１８－１０４号,,27,220,5620023,,,2024-01-30,清算の結了等,,,2015-10-05,1,,,,,ヒカリジム,0
397,2140002022506,登記記録の閉鎖等,0,2024-02-01,2024-01-29,エディエンタープライズ有限会社,,有限会社,兵庫県,神戸市中央区,三宮町２丁目２番３号扇陽三宮ビル,,28,110,6500021,,,2024-01-29,清算の結了等,,,2015-10-05,1,,,,,エディエンタープライズ,0
401,2170002004377,登記記録の閉鎖等,0,2024-02-01,2024-01-31,有限会社中口水産,,有限会社,和歌山県,和歌山市,西浜１６６０番地の４０１,,30,201,6410036,,,2024-01-31,清算の結了等,,,2015-10-05,1,,,,,ナカグチスイサン,0
432,2290001064212,登記記録の閉鎖等,0,2024-02-01,2024-01-31,株式会社ＪＩＮ工房,,株式会社,福岡県,筑紫野市,大字筑紫８４１－３－１０２,,40,217,8180025,,,2024-01-31,清算の結了等,,,2015-10-05,1,,,,,,0
437,2290002050905,登記記録の閉鎖等,0,2024-02-01,2024-01-30,有限会社ＴＫ,,有限会社,福岡県,久留米市,藤山町鉾立２２０番地４４,,40,203,8300053,,,2024-01-30,清算の結了等,,,2015-10-05,1,,,,,ティーケー,0
454,2350001016388,登記記録の閉鎖等,0,2024-02-01,2024-01-26,ＨＥＲＯ株式会社,,株式会社,宮崎県,都城市,五十町２４７０番地１,,45,202,8850084,,,2024-01-26,清算の結了等,,,2020-04-27,1,,,,,ヒーロー,0
513,3010602006234,登記記録の閉鎖等,0,2024-02-01,2024-01-29,有限会社ヨネザワ,,有限会社,東京都,江東区,北砂３丁目２７番２０号,,13,108,1360073,,,2024-01-29,清算の結了等,,,2015-10-05,1,,,,,ヨネザワ,0
518,3010701026967,登記記録の閉鎖等,0,2024-02-01,2024-01-29,ＧＶＩＤＯ株式会社,,株式会社,東京都,品川区,東品川２丁目６番１０号,,13,109,1400002,,,2024-01-29,清算の結了等,,,2015-10-05,1,,,,,グイド,0
519,3010701028864,登記記録の閉鎖等,0,2024-02-01,2024-01-29,ＧＶＩＤＯ　ＭＵＳＩＣ株式会社,,株式会社,東京都,品川区,東品川２丁目６番１０号,,13,109,1400002,,,2024-01-29,清算の結了等,,,2015-10-05,1,,,,,グイドミュージック,0
522,3010803002073,登記記録の閉鎖等,0,2024-02-01,2024-01-30,合同会社ＫＳＹＭ,,合同会社,東京都,大田区,山王２丁目２５番２４－６号,,13,111,1430023,,,2024-01-30,清算の結了等,,,2016-04-14,1,,,,,ケーエスワイエム,0
562,3021001076082,登記記録の閉鎖等,0,2024-02-01,2024-01-31,株式会社エイト,,株式会社,神奈川県,藤沢市,立石２丁目４番２５～２０８号,,14,205,2510872,,,2024-01-31,清算の結了等,,,2022-06-01,1,,,,,エイト,0
570,3030001107697,登記記録の閉鎖等,0,2024-02-01,2024-01-26,株式会社シグマ・デバイス技研,,株式会社,埼玉県,比企郡嵐山町,大字志賀２２２番地１３７,,11,342,3550214,,,2024-01-26,清算の結了等,,,2015-10-05,1,,,,,シグマデバイスギケン,0
586,3040002019899,登記記録の閉鎖等,0,2024-02-01,2024-01-24,有限会社銅源,,有限会社,千葉県,習志野市,大久保２丁目８番１９号,,12,216,2750011,,,2024-01-24,清算の結了等,,,2015-10-05,1,,,,,ドウゲン,0
587,3040002102861,登記記録の閉鎖等,0,2024-02-01,2024-01-25,有限会社インサイトデザイン,,有限会社,千葉県,いすみ市,大原９４０７番地５,,12,238,2980004,,,2024-01-25,清算の結了等,,,2015-10-05,1,,,,,インサイトデザイン,0
594,3050002029261,登記記録の閉鎖等,0,2024-02-01,2024-01-29,有限会社荒野勇商店,,有限会社,茨城県,鉾田市,新鉾田西１丁目４番地１,,08,234,3111518,,,2024-01-29,清算の結了等,,,2015-10-05,1,,,,,アラノイサムショウテン,0
596,3060002028956,登記記録の閉鎖等,0,2024-02-01,2024-01-30,有限会社橡環境設計事務所,,有限会社,栃木県,小山市,大字黒本３２０番地,,09,208,3230002,,,2024-01-30,清算の結了等,,,2015-10-05,1,,,,,トチカンキョウセッケイジムショ,0
599,3080002014145,登記記録の閉鎖等,0,2024-02-01,2024-01-31,有限会社丸真中村運送店,,有限会社,静岡県,島田市,金谷東１丁目１３０２番地の６,,22,209,4280013,,,2024-01-31,清算の結了等,,,2015-10-05,1,,,,,マルシンナカムラウンソウテン,0
603,3080402010082,登記記録の閉鎖等,0,2024-02-01,2024-01-30,有限会社ティ・ケイ・エフ,,有限会社,静岡県,磐田市,富丘４８７－１,,22,211,4380803,,,2024-01-30,清算の結了等,,,2015-10-05,1,,,,,ティケイエフ,0
605,3100001016924,登記記録の閉鎖等,0,2024-02-01,2024-01-29,株式会社エフエス・リノベーションプランニング,,株式会社,長野県,松本市,大手１丁目１番２８号,,20,202,3900874,,,2024-01-29,清算の結了等,,,2015-10-05,1,,,,,エフエスリノベーションプランニング,0
606,3100002004705,登記記録の閉鎖等,0,2024-02-01,2024-01-30,有限会社増田鉄筋,,有限会社,長野県,長野市,川中島町今里３００番地７９古森沢団地Ａ－６８,,20,201,3812234,,,2024-01-30,清算の結了等,,,2015-10-05,1,,,,,マスダテッキン,0
642,3140001114682,登記記録の閉鎖等,0,2024-02-01,2024-01-31,株式会社Ｓｏｕｌ＆Ｉｎｔｅｌｌｉｇｅｎｃｅ,,株式会社,兵庫県,姫路市,余部区上余部２２８－１,,28,201,6711262,,,2024-01-31,清算の結了等,,,2019-08-26,1,,,,,ソウルアンドインテリジェンス,0
645,3140003011218,登記記録の閉鎖等,0,2024-02-01,2024-01-30,アフターライフステージ合同会社,,合同会社,兵庫県,川西市,緑台４丁目７番地の４５,,28,217,6660129,,,2024-01-30,清算の結了等,,,2016-02-08,1,,,,,アフターライフステージ,0
661,3230001018528,登記記録の閉鎖等,0,2024-02-01,2024-01-29,株式会社天乃河,,株式会社,富山県,富山市,奥田町１０番１０号,,16,201,9300818,,,2024-01-29,清算の結了等,,,2020-10-29,1,,,,,アマノガワ,0
662,3240001016290,登記記録の閉鎖等,0,2024-02-01,2024-01-22,株式会社やしま,,株式会社,広島県,広島市中区,国泰寺町１丁目３番１５号やしまビル,,34,101,7300042,,,2024-01-22,合併による解散等,9240001016335,令和６年１月２１日広島市中区国泰寺町一丁目３番１５号やしまビル株式会社やしま（9240001016335）に合併し解散,2015-10-05,1,,,,,ヤシマ,0
663,3240002003412,登記記録の閉鎖等,0,2024-02-01,2024-01-25,小田信木材有限会社,,有限会社,広島県,広島市安佐北区,安佐町大字飯室６５０５番地の８,,34,106,7311142,,,2024-01-25,清算の結了等,,,2015-10-05,1,,,,,オダノブモクザイ,0
675,3290001000694,登記記録の閉鎖等,0,2024-02-01,2024-01-30,株式会社アートフクオカ,,株式会社,福岡県,福岡市南区,警弥郷１丁目３４番７号,,40,134,8111324,,,2024-01-30,清算の結了等,,,2015-10-05,1,,,,,,0
676,3290001036391,登記記録の閉鎖等,0,2024-02-01,2024-01-31,株式会社藤岡食品,,株式会社,福岡県,古賀市,花鶴丘１丁目７番２,,40,223,8113104,,,2024-01-31,清算の結了等,,,2015-10-05,1,,,,,,0
723,3500002003294,登記記録の閉鎖等,0,2024-02-01,2024-01-31,有限会社新會産業企画,,有限会社,愛媛県,松山市,水泥町６７９番地１,,38,201,7910244,,,2024-01-31,清算の結了等,,,2015-10-05,1,,,,,シンカイサンギョウキカク,0
741,4010401121704,登記記録の閉鎖等,0,2024-02-01,2024-01-26,株式会社ひまわり地所,,株式会社,東京都,港区,東新橋１丁目５番２号汐留シティセンター８階リアルブルーソーラー合同会社内,,13,103,1050021,,,2024-01-26,合併による解散等,7010001167079,令和６年１月２６日東京都港区東新橋一丁目５番２号汐留シティセンター８階リアルブルーソーラー合同会社内株式会社かがやき開発（7010001167079）に合併し解散,2015-11-24,1,,,,,ヒマワリジショ,0
755,4010801019382,登記記録の閉鎖等,0,2024-02-01,2024-01-29,株式会社泰明ロジスティック,,株式会社,東京都,品川区,南大井６丁目２６番１号９Ｆ,,13,109,1400013,,,2024-01-29,清算の結了等,,,2015-10-05,1,,,,,タイメイロジスティック,0
771,4011301014106,登記記録の閉鎖等,0,2024-02-01,2024-01-24,株式会社ｅｓｔｉｌｏ,,株式会社,東京都,杉並区,西荻北４丁目１７番１７号,,13,115,1670042,,,2024-01-24,清算の結了等,,,2015-10-05,1,,,,,エスティーロ,0
776,4011702002345,登記記録の閉鎖等,0,2024-02-01,2024-01-29,大野プレス工業有限会社,,有限会社,東京都,江戸川区,西瑞江４丁目１３番地１１,,13,123,1340015,,,2024-01-29,清算の結了等,,,2015-10-05,1,,,,,オオノプレスコウギョウ,0
777,4011702006073,登記記録の閉鎖等,0,2024-02-01,2024-01-26,有限会社鈴木鍍金工場,,有限会社,東京都,江戸川区,中央２丁目１番６号,,13,123,1320021,,,2024-01-26,清算の結了等,,,2015-10-05,1,,,,,,0
816,4040002006319,登記記録の閉鎖等,0,2024-02-01,2024-01-25,関根美装有限会社,,有限会社,千葉県,千葉市稲毛区,稲毛東１丁目２番１号レジデンシャルコート稲毛Ｂ－２２０号,,12,103,2630031,,,2024-01-25,清算の結了等,,,2015-10-05,1,,,,,セキネビソウ,0
818,4040002095551,登記記録の閉鎖等,0,2024-02-01,2024-01-23,有限会社巣本興設,,有限会社,千葉県,我孫子市,新木野３丁目１６番２８号,,12,222,2701114,,,2024-01-23,清算の結了等,,,2015-10-05,1,,,,,スモトコウセツ,0
822,4050001036761,登記記録の閉鎖等,0,2024-02-01,2024-01-30,タクマルルーフ株式会社,,株式会社,茨城県,水戸市,平須町１７１番地の４１,,08,201,3100853,,,2024-01-30,清算の結了等,,,2015-10-05,1,,,,,タクマルルーフ,0
833,4080402006204,登記記録の閉鎖等,0,2024-02-01,2024-01-31,有限会社浜松ミート,,有限会社,静岡県,浜松市中央区,上西町９８６番地,,22,138,4350048,,,2024-01-31,清算の結了等,,,2015-10-05,1,,,,,ハママツミート,0
842,4120001075281,登記記録の閉鎖等,0,2024-02-01,2024-01-26,英光株式会社,,株式会社,大阪府,大阪市中央区,南新町２丁目２番１１号,,27,128,5400024,,,2024-01-26,清算の結了等,,,2015-10-05,1,,,,,エイコウ,0
883,4140002061808,登記記録の閉鎖等,0,2024-02-01,2024-01-30,谷田織布有限会社,,有限会社,兵庫県,多可郡多可町,中区中村町３７番地,,28,365,6791113,,,2024-01-30,清算の結了等,,,2015-10-05,1,,,,,タニダショクフ,0
887,4170001012040,登記記録の閉鎖等,0,2024-02-01,2024-01-29,株式会社レフア,,株式会社,和歌山県,西牟婁郡上富田町,朝来２０５３番地,,30,404,6492105,,,2024-01-29,清算の結了等,,,2015-10-05,1,,,,,レフア,0
889,4180001141598,登記記録の閉鎖等,0,2024-02-01,2024-01-29,ＱＵＡＩＮＴ株式会社,,株式会社,愛知県,春日井市,松河戸町１丁目２番地９,,23,206,4860932,,,2024-01-29,清算の結了等,,,2020-06-12,1,,,,,クエント,0
890,4180301015072,登記記録の閉鎖等,0,2024-02-01,2024-01-25,株式会社石川源治郎製瓦所,,株式会社,愛知県,碧南市,笹山町４丁目２７番地,,23,209,4470053,,,2024-01-25,清算の結了等,,,2015-10-05,1,,,,,イシカワゲンジロウセイカワラショ,0
894,4200001020163,登記記録の閉鎖等,0,2024-02-01,2024-01-31,株式会社Ｏ．Ｓ．Ｄ,,株式会社,岐阜県,美濃市,２１１８番地３６,,21,207,5013701,,,2024-01-31,清算の結了等,,,2015-10-05,1,,,,,オーエスディー,0
899,4230003001745,登記記録の閉鎖等,0,2024-02-01,2024-01-25,合同会社ｔｒｉｍｔａｂ,,合同会社,富山県,中新川郡立山町,浦田３５１－１０,,16,323,9300208,,,2024-01-25,清算の結了等,,,2021-11-02,1,,,,,トリムタブ,0
900,4240001017445,登記記録の閉鎖等,0,2024-02-01,2024-01-22,株式会社Ｅ・Ｉコーポレーション,,株式会社,広島県,広島市中区,国泰寺町１丁目３番１５号やしまビル,,34,101,7300042,,,2024-01-22,合併による解散等,9240001016335,令和６年１月２１日広島市中区国泰寺町一丁目３番１５号やしまビル株式会社やしま（9240001016335）に合併し解散,2015-10-05,1,,,,,イーアイコーポレーション,0
933,4430001033596,登記記録の閉鎖等,0,2024-02-01,2024-01-29,株式会社北海道日刊スポーツ印刷社,,株式会社,北海道,北広島市,大曲工業団地８丁目４番地１,,01,234,0611274,,,2024-01-29,清算の結了等,,,2015-10-05,1,,,,,ホッカイドウニッカンスポーツインサツシャ,0
940,4480001007307,登記記録の閉鎖等,0,2024-02-01,2024-01-30,三和商事株式会社,,株式会社,徳島県,美馬市,美馬町字駅５１番地,,36,207,7712105,,,2024-01-30,清算の結了等,,,2015-10-05,1,,,,,サンワショウジ,0
950,5010001134700,登記記録の閉鎖等,0,2024-02-01,2024-01-26,株式会社ノルミー,,株式会社,東京都,中央区,日本橋箱崎町２０番５号,,13,102,1030015,,,2024-01-26,清算の結了等,,,2015-10-05,1,,,,,ノルミー,0
987,5010702012691,登記記録の閉鎖等,0,2024-02-01,2024-01-30,有限会社ウォークプランニング,,有限会社,神奈川県,横浜市戸塚区,戸塚町３１２番地１,,14,110,2440003,,,2024-01-30,清算の結了等,,,2015-10-05,1,,,,,ウォークプランニング,0
997,5011001117736,登記記録の閉鎖等,0,2024-02-01,2024-01-26,株式会社ＯＦＦＩＣＥ　Ｏｐｌｕｓ,,株式会社,東京都,渋谷区,神宮前６丁目２３番４号,,13,113,1500001,,,2024-01-26,清算の結了等,,,2017-08-03,1,,,,,オフィスオープラス,0
1011,5011802019429,登記記録の閉鎖等,0,2024-02-01,2024-01-25,有限会社村山木工所,00057523,有限会社,東京都,足立区,鹿浜１丁目１４番２号,,13,121,1230864,,,2024-01-25,清算の結了等,,,2015-10-05,1,,,,,ムラヤマモッコウショ,0
1023,5020002056091,登記記録の閉鎖等,0,2024-02-01,2024-01-30,すずきこうぼう有限会社,,有限会社,東京都,品川区,北品川３丁目６番４６号ハイツ北品川８０３,,13,109,1400001,,,2024-01-30,清算の結了等,,,2015-10-05,1,,,,,スズキコウボウ,0
1045,5030002012267,登記記録の閉鎖等,0,2024-02-01,2024-01-29,有限会社堀金深礎,,有限会社,長野県,松本市,波田１０６００番地１,,20,202,3901401,,,2024-01-29,清算の結了等,,,2015-10-05,1,,,,,ホリガネシンソ,0
1053,5040001095733,登記記録の閉鎖等,0,2024-02-01,2024-01-24,株式会社池田ブルーベリー園,,株式会社,千葉県,南房総市,平久里下８７５番地１,,12,234,2992206,,,2024-01-24,清算の結了等,,,2016-06-10,1,,,,,イケダブルーベリーエン,0
1054,5040001100559,登記記録の閉鎖等,0,2024-02-01,2024-01-25,ボーダレスコンサルティング株式会社,,株式会社,千葉県,柏市,高田７９番地１－３０１,,12,217,2770861,,,2024-01-25,清算の結了等,,,2017-06-13,1,,,,,ボーダレスコンサルティング,0
1072,5100005010921,登記記録の閉鎖等,0,2024-02-01,2024-01-29,特定非営利活動法人諏訪湖畔こころのケア協会,,その他の設立登記法人,長野県,岡谷市,長地小萩１丁目１１番３０号,,20,204,3940085,,,2024-01-29,清算の結了等,,,2015-10-05,1,,,,,スワコハンココロノケアキョウカイ,0
1100,5120102024797,登記記録の閉鎖等,0,2024-02-01,2024-01-31,有限会社アミューズメント,,有限会社,大阪府,泉南郡熊取町,大久保東１丁目５番１６号,,27,361,5900406,,,2024-01-31,清算の結了等,,,2015-10-05,1,,,,,アミューズメント,0
1115,5180301003786,登記記録の閉鎖等,0,2024-02-01,2024-01-26,株式会社ラビテック,,株式会社,愛知県,岡崎市,上六名３丁目６番地８,,23,202,4440858,,,2024-01-26,清算の結了等,,,2015-10-05,1,,,,,ラビテック,0
1118,5200002010625,登記記録の閉鎖等,0,2024-02-01,2024-01-31,有限会社グリーンパッケージ,,有限会社,岐阜県,羽島市,小熊町５丁目２０７番地の１,,21,209,5016273,,,2024-01-31,清算の結了等,,,2015-10-05,1,,,,,,0
1126,5240002027938,登記記録の閉鎖等,0,2024-02-01,2024-01-24,有限会社田部プラスチック,,有限会社,広島県,東広島市,西条町寺家４６６８番地の１,,34,212,7390041,,,2024-01-24,清算の結了等,,,2015-10-05,1,,,,,タベプラスチック,0
1130,5260001036467,登記記録の閉鎖等,0,2024-02-01,2024-01-30,株式会社イートシー,,株式会社,岡山県,倉敷市,北畝２丁目３番３２号,,33,202,7128032,,,2024-01-30,清算の結了等,,,2022-01-28,1,,,,,イートシー,0
1136,5290001059762,登記記録の閉鎖等,0,2024-02-01,2024-01-30,コスモ環境株式会社,,株式会社,福岡県,福岡市中央区,高砂２丁目６番４号,,40,133,8100011,,,2024-01-30,清算の結了等,,,2015-10-05,1,,,,,コスモカンキョウ,0
1155,5400602001202,登記記録の閉鎖等,0,2024-02-01,2024-01-24,有限会社三原製作所,,有限会社,岩手県,胆沢郡金ケ崎町,六原下二の町４４番地,,03,381,0294501,,,2024-01-24,清算の結了等,,,2015-10-05,1,,,,,ミハラセイサクショ,0
1163,5440001000017,登記記録の閉鎖等,0,2024-02-01,2024-01-29,株式会社アート印刷函館,,株式会社,北海道,函館市,本通４丁目２８番１７号,,01,202,0410851,,,2024-01-29,清算の結了等,,,2015-10-05,1,,,,,アートインサツハコダテ,0
1171,5500001020669,登記記録の閉鎖等,0,2024-02-01,2024-01-30,株式会社東予企業,,株式会社,愛媛県,西条市,北条１２５０番地１９,,38,206,7991354,,,2024-01-30,清算の結了等,,,2017-06-05,1,,,,,トウヨキギョウ,0
1235,6011202005879,登記記録の閉鎖等,0,2024-02-01,2024-01-31,有限会社ミユキ服装,,有限会社,東京都,中野区,大和町１丁目２８番１号,,13,114,1650034,,,2024-01-31,清算の結了等,,,2015-10-05,1,,,,,ミユキフクソウ,0
1242,6011703002821,登記記録の閉鎖等,0,2024-02-01,2024-01-22,合同会社スリーオー,,合同会社,東京都,江戸川区,東葛西６丁目４４－１０コスモ葛西シティフォルム４０２,,13,123,1340084,,,2024-01-22,清算の結了等,,,2021-04-08,1,,,,,スリーオー,0
1243,6011801010610,登記記録の閉鎖等,0,2024-02-01,2024-01-26,とらや食品工業株式会社,,株式会社,埼玉県,草加市,両新田東町７７番１１号,,11,221,3400026,,,2024-01-26,清算の結了等,,,2015-10-05,1,,,,,トラヤショクヒンコウギョウ,0
1246,6012801003645,登記記録の閉鎖等,0,2024-02-01,2024-01-19,株式会社サンタ・エンタープライズ,,株式会社,東京都,東大和市,奈良橋４丁目６４２番地,,13,220,2070031,,,2024-01-19,清算の結了等,,,2015-10-05,1,,,,,サンタエンタープライズ,0
1278,6030002088414,登記記録の閉鎖等,0,2024-02-01,2024-01-26,有限会社山田パッキング,,有限会社,埼玉県,越谷市,蒲生３丁目６番５号,,11,222,3430838,,,2024-01-26,清算の結了等,,,2015-10-05,1,,,,,ヤマダパッキング,0
1279,6040001058177,登記記録の閉鎖等,0,2024-02-01,2024-01-24,株式会社高橋水道工業,00019275,株式会社,千葉県,山武市,富口２２７８番地,,12,237,2891323,,,2024-01-24,清算の結了等,,,2015-10-05,1,,,,,タカハシスイドウコウギョウ,0
1286,6040002020549,登記記録の閉鎖等,0,2024-02-01,2024-01-23,有限会社インターマート,,有限会社,千葉県,船橋市,宮本２丁目１４番５－２１４号,,12,204,2730003,,,2024-01-23,清算の結了等,,,2015-10-05,1,,,,,インターマート,0
1288,6040002034020,登記記録の閉鎖等,0,2024-02-01,2024-01-25,有限会社今防災企画,,有限会社,千葉県,市川市,中山４丁目２２番９号（コーポ廣田２０１号）,00020050,12,203,2720813,,,2024-01-25,清算の結了等,,,2015-10-05,1,,,,,コンボウサイキカク,0
1329,6120901047857,登記記録の閉鎖等,0,2024-02-01,2024-01-12,北材商工株式会社,,株式会社,大阪府,吹田市,垂水町３丁目１８番９号,,27,205,5640062,,,2024-01-12,清算の結了等,,,2023-08-03,1,,,,,ホクザイショウコウ,0
1356,6140001002455,登記記録の閉鎖等,0,2024-02-01,2024-01-15,株式会社ペリカセブン,,株式会社,兵庫県,神戸市東灘区,深江浜町１４２番地,,28,101,6580023,,,2024-01-15,清算の結了等,,,2016-05-09,1,,,,,,0
1369,6180302016794,登記記録の閉鎖等,0,2024-02-01,2024-01-23,有限会社鈴木ゴム,,有限会社,愛知県,安城市,東端町用地１４８番地１,,23,212,4441213,,,2024-01-23,清算の結了等,,,2015-10-05,1,,,,,スズキゴム,0
1390,6340002015114,登記記録の閉鎖等,0,2024-02-01,2024-01-31,有限会社牧水荘,,有限会社,鹿児島県,霧島市,牧園町高千穂３９３０番地,,46,218,8996603,,,2024-01-31,清算の結了等,,,2015-10-05,1,,,,,,0
1396,6360002010220,登記記録の閉鎖等,0,2024-02-01,2024-01-30,有限会社オンワード久米島,,有限会社,沖縄県,島尻郡久米島町,字兼城９番地２,,47,361,9013122,,,2024-01-30,清算の結了等,,,2015-10-05,1,,,,,オンワードクメジマ,0
1416,7010001201886,登記記録の閉鎖等,0,2024-02-01,2024-01-29,株式会社ＷＨＩ　Ｈｏｌｄｉｎｇｓ,,株式会社,東京都,港区,赤坂１丁目１２番３２号,,13,103,1070052,,,2024-01-29,合併による解散等,6010001233914,令和６年１月１日東京都千代田区丸の内一丁目１番１号パレスビル５階株式会社ＷＨＩ　Ｈｏｌｄｉｎｇｓ（6010001233914）に合併し解散,2019-06-25,1,,,,,ダブリューエイチアイホールディングス,0
1423,7010401039373,登記記録の閉鎖等,0,2024-02-01,2024-01-30,株式会社ピー・ジー・エム,,株式会社,神奈川県,横浜市神奈川区,白幡向町２１番３０－２号,,14,102,2210077,,,2024-01-30,清算の結了等,,,2015-10-05,1,,,,,ピージーエム,0
1427,7010401162984,登記記録の閉鎖等,0,2024-02-01,2024-01-25,株式会社ＫＩＮＤ,,株式会社,東京都,港区,浜松町１丁目１２番３－７０４号,,13,103,1050013,,,2024-01-25,清算の結了等,,,2021-10-05,1,,,,,カインド,0
1467,7011105010109,登記記録の閉鎖等,0,2024-02-01,2024-01-31,ＵＡプロパティーズ特定目的会社,,その他の設立登記法人,東京都,新宿区,四谷２丁目９番地１５東京ユナイテッド綜合事務所内,,13,104,1600004,,,2024-01-31,清算の結了等,,,2022-01-26,1,,,,,ユーエープロパティーズ,0
1505,7030002067334,登記記録の閉鎖等,0,2024-02-01,2024-01-26,有限会社パピルス,,有限会社,埼玉県,和光市,白子２丁目１５番１－１０１４号,,11,229,3510101,,,2024-01-26,清算の結了等,,,2015-10-05,1,,,,,パピルス,0
1520,7070002022558,登記記録の閉鎖等,0,2024-02-01,2024-01-29,有限会社新井工務店,,有限会社,群馬県,桐生市,菱町２丁目１４１５番地２,,10,203,3760001,,,2024-01-29,清算の結了等,,,2015-10-05,1,,,,,アライコウムテン,0
1525,7080401019575,登記記録の閉鎖等,0,2024-02-01,2024-01-31,株式会社ホームプロ,,株式会社,静岡県,浜松市中央区,佐鳴台５丁目２３番１１号,,22,138,4328021,,,2024-01-31,清算の結了等,,,2015-10-05,1,,,,,ホームプロ,0
1527,7100001005444,登記記録の閉鎖等,0,2024-02-01,2024-01-29,青竹建設株式会社,,株式会社,長野県,須坂市,臥竜６丁目５番１８号,,20,207,3820028,,,2024-01-29,清算の結了等,,,2015-10-05,1,,,,,アオタケケンセツ,0
1529,7110001029327,登記記録の閉鎖等,0,2024-02-01,2024-01-31,株式会社上田コンタクト,,株式会社,新潟県,新潟市中央区,浜浦町１丁目２５９番地,,15,103,9518151,,,2024-01-31,清算の結了等,,,2015-10-05,1,,,,,ウエダコンタクト,0
1531,7110005003443,登記記録の閉鎖等,0,2024-02-01,2023-12-26,特定非営利活動法人フィル・ジャパン・フレンドシップ,,その他の設立登記法人,新潟県,阿賀野市,上高田６５９番地１,,15,223,9591973,,,2023-12-26,清算の結了等,,,2015-10-05,1,,,,,フィルジャパンフレンドシップ,0
1561,7140001046419,登記記録の閉鎖等,0,2024-02-01,2024-01-31,株式会社マエダフーズ,,株式会社,兵庫県,加古川市,平荘町山角１１９－３,,28,210,6751221,,,2024-01-31,清算の結了等,,,2015-10-05,1,,,,,,0
1566,7140005003795,登記記録の閉鎖等,0,2024-02-01,2024-02-01,特定非営利活動法人輝はすいけ,,その他の設立登記法人,兵庫県,神戸市長田区,山下町３丁目３番６号,,28,106,6530852,,,2024-02-01,清算の結了等,,,2015-10-05,1,,,,,カガヤキハスイケ,0
1567,7150001019183,登記記録の閉鎖等,0,2024-02-01,2024-01-31,株式会社クロスアンビション,,株式会社,奈良県,奈良市,西木辻町１１５番地の４,00043175,29,201,6308325,,,2024-01-31,清算の結了等,,,2015-10-05,1,,,,,クロスアンビション,0
1569,7170002003952,登記記録の閉鎖等,0,2024-02-01,2024-01-31,有限会社山本機工,,有限会社,和歌山県,和歌山市,榎原１１１番地２９,,30,201,6408434,,,2024-01-31,清算の結了等,,,2015-10-05,1,,,,,ヤマモトキコウ,0
1574,7180301005715,登記記録の閉鎖等,0,2024-02-01,2024-01-23,株式会社ザ・メキシコ産業,,株式会社,愛知県,豊橋市,広小路２丁目２７番地,,23,201,4400881,,,2024-01-23,清算の結了等,,,2015-10-05,1,,,,,ザメキシコサンギョウ,0
1575,7180301017545,登記記録の閉鎖等,0,2024-02-01,2024-01-23,株式会社友クリーン,,株式会社,愛知県,刈谷市,高津波町４丁目３５４番地パラサンピアＩ６０５号,00105737,23,210,4480047,,,2024-01-23,清算の結了等,,,2015-10-05,1,,,,,ユウクリーン,0
1583,7210005000249,登記記録の閉鎖等,0,2024-02-01,2024-01-30,福井市土地開発公社,,その他の設立登記法人,福井県,福井市,大手３丁目１０番１号福井市役所内,,18,201,9100005,,,2024-01-30,清算の結了等,,,2015-10-05,1,,,,,フクイシ,0
1590,7240001033745,登記記録の閉鎖等,0,2024-02-01,2024-01-25,マルサ株式会社,,株式会社,広島県,福山市,千田町３丁目１４番３号,,34,207,7200017,,,2024-01-25,清算の結了等,,,2015-10-05,1,,,,,マルサ,0
1592,7240002025089,登記記録の閉鎖等,0,2024-02-01,2024-01-29,有限会社テレサバージュ,,有限会社,広島県,広島市中区,立町６番３号,,34,101,7300032,,,2024-01-29,清算の結了等,,,2015-10-05,1,,,,,,0
1596,7280001006103,登記記録の閉鎖等,0,2024-02-01,2024-01-29,株式会社アイスクウェア,,株式会社,島根県,浜田市,港町２７８１番地２,,32,202,6970052,,,2024-01-29,清算の結了等,,,2015-10-05,1,,,,,アイスクウェア,0
1614,7340002018363,登記記録の閉鎖等,0,2024-02-01,2024-01-31,有限会社浜漬物店,,有限会社,鹿児島県,薩摩郡さつま町,船木４６４９番地９,,46,392,8951804,,,2024-01-31,清算の結了等,,,2015-10-05,1,,,,,ハマツケモノテン,0
1616,7350002016333,登記記録の閉鎖等,0,2024-02-01,2024-01-25,有限会社フクシゲ,,有限会社,宮崎県,都城市,都原町７２３２番地１,,45,202,8850094,,,2024-01-25,清算の結了等,,,2015-10-05,1,,,,,フクシゲ,0
1625,7400002003598,登記記録の閉鎖等,0,2024-02-01,2024-01-30,よしとも運送有限会社,,有限会社,岩手県,盛岡市,東見前９地割６２番地４７,,03,201,0200832,,,2024-01-30,清算の結了等,,,2015-10-05,1,,,,,ヨシトモウンソウ,0
1637,7460302001296,登記記録の閉鎖等,0,2024-02-01,2024-01-31,有限会社ホクセイテック,,有限会社,北海道,北見市,高栄東町１丁目１１番４３号,,01,208,0900051,,,2024-01-31,清算の結了等,,,2015-10-05,1,,,,,ホクセイテック,0
1643,7490002005090,登記記録の閉鎖等,0,2024-02-01,2024-01-29,有限会社宮田鍛工所,,有限会社,高知県,高知市,介良甲１１３６番地１,,39,201,7815105,,,2024-01-29,清算の結了等,,,2015-10-05,1,,,,,ミヤタタンコウショ,0
1644,7500001000826,登記記録の閉鎖等,0,2024-02-01,2024-01-31,愛媛ボイラー販売株式会社,00007289,株式会社,愛媛県,松山市,水泥町９１１番地３,,38,201,7910244,,,2024-01-31,清算の結了等,,,2015-10-05,1,,,,,エヒメボイラーハンバイ,0
1651,8010001191177,登記記録の閉鎖等,0,2024-02-01,2024-01-29,エンデバー・ユナイテッド・パートナーズ・１４株式会社,,株式会社,東京都,千代田区,丸の内２丁目５番１号丸の内二丁目ビル６階,,13,101,1000005,,,2024-01-29,清算の結了等,,,2018-04-20,1,,,,,エンデバーユナイテッドパートナーズフォーティーン,0
1657,8010401158271,登記記録の閉鎖等,0,2024-02-01,2024-01-24,株式会社ＣＲＡＦＴＥＤ　ＳＥＮＳＥ,,株式会社,東京都,荒川区,西日暮里６丁目３７番１号,,13,118,1160013,,,2024-01-24,清算の結了等,,,2021-02-18,1,,,,,クラフテッドセンス,0
1675,8010601055517,登記記録の閉鎖等,0,2024-02-01,2024-01-29,株式会社ａｄｖａｎｃｅ　ａｌｉｇｎ,,株式会社,東京都,渋谷区,恵比寿西１丁目４番４号大川ビル３階,,13,113,1500021,,,2024-01-29,清算の結了等,,,2019-05-29,1,,,,,アドバンスアライン,0
1681,8010801032349,登記記録の閉鎖等,0,2024-02-01,2024-01-29,鈴屋商店株式会社,,株式会社,東京都,大田区,大森東５丁目１５番３号,,13,111,1430012,,,2024-01-29,清算の結了等,,,2021-09-29,1,,,,,スズヤショウテン,0
1683,8010802013199,登記記録の閉鎖等,0,2024-02-01,2024-01-18,有限会社ホリスティック田園治療院,,有限会社,東京都,大田区,南久が原１丁目７番１３号,,13,111,1460084,,,2024-01-18,清算の結了等,,,2015-10-05,1,,,,,ホリスティックデンエンチリョウイン,0
1717,8021001043400,登記記録の閉鎖等,0,2024-02-01,2024-01-30,株式会社カネハチ,,株式会社,神奈川県,三浦市,三崎５丁目１７番３号,,14,210,2380243,,,2024-01-30,清算の結了等,,,2015-10-05,1,,,,,カネハチ,0
1720,8021002050718,登記記録の閉鎖等,0,2024-02-01,2024-01-29,有限会社箱根淡水魚養殖場,00013569,有限会社,神奈川県,足柄下郡箱根町,仙石原８０８番地,,14,382,2500631,,,2024-01-29,清算の結了等,,,2015-10-05,1,,,,,,0
1721,8021003006066,登記記録の閉鎖等,0,2024-02-01,2024-01-30,合同会社Ｃｌｉｍｂ,,合同会社,神奈川県,厚木市,上依知１４１０－１,,14,212,2430801,,,2024-01-30,清算の結了等,,,2016-07-04,1,,,,,クライム,0
1742,8040002011455,登記記録の閉鎖等,0,2024-02-01,2024-01-24,有限会社みやざきカメラ,,有限会社,千葉県,千葉市稲毛区,長沼町１８６番地の４９,,12,103,2630005,,,2024-01-24,清算の結了等,,,2015-10-05,1,,,,,ミヤザキカメラ,0
1748,8050001036675,登記記録の閉鎖等,0,2024-02-01,2024-01-26,株式会社アイタッグ,,株式会社,茨城県,笠間市,大郷戸３３５番地,,08,216,3091636,,,2024-01-26,清算の結了等,,,2015-10-05,1,,,,,アイタッグ,0
1752,8070002023720,登記記録の閉鎖等,0,2024-02-01,2024-01-29,有限会社十一屋商店,,有限会社,群馬県,桐生市,黒保根町水沼９１番地１,,10,203,3760141,,,2024-01-29,清算の結了等,,,2015-10-05,1,,,,,ジュウイチヤショウテン,0
1759,8080401002241,登記記録の閉鎖等,0,2024-02-01,2024-01-30,株式会社シシリー,,株式会社,静岡県,浜松市中央区,富塚町４３１番地の１,,22,138,4328002,,,2024-01-30,清算の結了等,,,2015-10-05,1,,,,,シシリー,0
1783,8140001012980,登記記録の閉鎖等,0,2024-02-01,2024-01-31,株式会社小池加工所,,株式会社,兵庫県,神戸市兵庫区,須佐野通２丁目１番２３号,,28,105,6520896,,,2024-01-31,清算の結了等,,,2015-10-05,1,,,,,コイケカコウショ,0
1784,8140001068511,登記記録の閉鎖等,0,2024-02-01,2024-01-12,協和物産株式会社,,株式会社,兵庫県,西宮市,樋ノ口町１丁目４番１４号,,28,204,6638011,,,2024-01-12,清算の結了等,,,2023-10-26,1,,,,,キョウワブッサン,0
1791,8180005016652,登記記録の閉鎖等,0,2024-02-01,2024-01-25,特定非営利活動法人コミュニティーデザインながくて,,その他の設立登記法人,愛知県,長久手市,東原山３４番地１藤ケ丘ガーデン３０４号,,23,238,4801158,,,2024-01-25,清算の結了等,,,2016-02-24,1,,,,,コミュニティーデザインナガクテ,0
1792,8180302001803,登記記録の閉鎖等,0,2024-02-01,2024-01-24,有限会社高橋恒産,,有限会社,愛知県,岡崎市,本宿町字棚田１番地６,,23,202,4443505,,,2024-01-24,清算の結了等,,,2015-10-05,1,,,,,タカハシコウサン,0
1796,8190001018081,登記記録の閉鎖等,0,2024-02-01,2024-01-30,株式会社花屋荘,,株式会社,三重県,四日市市,午起１丁目５番５号,,24,202,5100023,,,2024-01-30,清算の結了等,,,2015-10-05,1,,,,,ハナヤソウ,0
1802,8230001014101,登記記録の閉鎖等,0,2024-02-01,2024-01-30,株式会社Ｌ’ｓモダン,,株式会社,富山県,高岡市,中島町１番２０号,,16,202,9330944,,,2024-01-30,清算の結了等,,,2015-10-05,1,,,,,,0
1803,8230002014273,登記記録の閉鎖等,0,2024-02-01,2024-01-30,有限会社スナハラ,,有限会社,富山県,射水市,大江５４３番地,,16,211,9390302,,,2024-01-30,清算の結了等,,,2015-10-05,1,,,,,スナハラ,0
1811,8250002005147,登記記録の閉鎖等,0,2024-02-01,2024-01-30,有限会社谷口工業,,有限会社,山口県,宇部市,大字西岐波２２９番地の２６０,,35,202,7550151,,,2024-01-30,清算の結了等,,,2015-10-05,1,,,,,タニグチコウギョウ,0
1812,8250002011863,登記記録の閉鎖等,0,2024-02-01,2024-01-29,岡澤建設有限会社,,有限会社,山口県,下関市,小月小島１丁目３番１０号,,35,201,7501136,,,2024-01-29,清算の結了等,,,2015-10-05,1,,,,,オカザワケンセツ,0
1813,8250002019849,登記記録の閉鎖等,0,2024-02-01,2024-01-30,有限会社丸仲水産,,有限会社,山口県,柳井市,阿月５８番地の３,,35,212,7421353,,,2024-01-30,清算の結了等,,,2015-10-05,1,,,,,マルナカスイサン,0
1816,8260002007233,登記記録の閉鎖等,0,2024-02-01,2024-01-31,有限会社長畑タイル工業,,有限会社,岡山県,岡山市中区,海吉１１３番地の３９,,33,102,7038261,,,2024-01-31,清算の結了等,,,2015-10-05,1,,,,,ナガハタタイルコウギョウ,0
1820,8290001046849,登記記録の閉鎖等,0,2024-02-01,2024-01-31,株式会社福岡ビルシステム,,株式会社,福岡県,福岡市博多区,月隈６丁目９番２３号,,40,132,8120858,,,2024-01-31,清算の結了等,,,2015-10-05,1,,,,,フクオカビルシステム,0
1822,8290001063150,登記記録の閉鎖等,0,2024-02-01,2024-01-30,株式会社ｔｏｕｃｈ,,株式会社,福岡県,春日市,昇町５丁目３７番地１－５０９,,40,218,8160851,,,2024-01-30,清算の結了等,,,2015-10-05,1,,,,,タッチ,0
1823,8290001086192,登記記録の閉鎖等,0,2024-02-01,2024-01-30,株式会社ＳＴＡＮＤ,,株式会社,福岡県,福岡市城南区,七隈５丁目２番６－１号,,40,136,8140133,,,2024-01-30,清算の結了等,,,2019-08-14,1,,,,,スタンド,0
1856,8430001057014,登記記録の閉鎖等,0,2024-02-01,2024-01-25,株式会社ほっこうハウス,,株式会社,北海道,室蘭市,宮の森町４丁目１５番７号,,01,205,0500073,,,2024-01-25,清算の結了等,,,2015-10-05,1,,,,,ホッコウハウス,0
1862,8430003009335,登記記録の閉鎖等,0,2024-02-01,2024-01-26,合同会社長山管理,,合同会社,北海道,札幌市厚別区,厚別東四条１丁目１番２５－６０２号,,01,108,0040004,,,2024-01-26,清算の結了等,,,2018-05-02,1,,,,,ナガヤマカンリ,0
1866,8460401001254,登記記録の閉鎖等,0,2024-02-01,2024-01-12,北海水産株式会社,,株式会社,北海道,根室市,本町３丁目４番地,,01,223,0870053,,,2024-01-12,清算の結了等,,,2023-07-31,1,,,,,,0
1878,9010003030877,登記記録の閉鎖等,0,2024-02-01,2024-01-24,合同会社Ｓｕｍｍｉｔ　Ａｐｏｌｌｏ　Ｅｌｅｖｅｎ,,合同会社,北海道,札幌市中央区,南二条西５丁目３１番１号,,01,101,0600062,,,2024-01-24,清算の結了等,,,2019-10-15,1,,,,,サミットアポロイレブン,0
1884,9010401147125,登記記録の閉鎖等,0,2024-02-01,2024-01-26,株式会社ＳｗｉｎｇＸ,,株式会社,東京都,港区,新橋５丁目２０番８号,,13,103,1050004,,,2024-01-26,清算の結了等,,,2019-07-30,1,,,,,スウィングバイ,0
1906,9010702004693,登記記録の閉鎖等,0,2024-02-01,2024-01-29,有限会社ダイケン,,有限会社,東京都,品川区,大井３丁目２番１３号,,13,109,1400014,,,2024-01-29,清算の結了等,,,2015-10-05,1,,,,,ダイケン,0
1907,9010703004437,登記記録の閉鎖等,0,2024-02-01,2024-01-26,合同会社Ｌｉｔｔｌｅ　Ｇｉｆｔｅｄ,,合同会社,東京都,品川区,北品川１丁目９番７号トップルーム品川１０１５号,,13,109,1400001,,,2024-01-26,清算の結了等,,,2018-09-06,1,,,,,リトルギフテッド,0
1920,9011101103756,登記記録の閉鎖等,0,2024-02-01,2024-01-29,株式会社Ｆｕｔｕｒｅ,,株式会社,東京都,港区,六本木３丁目１６番２６号ハリファックスビル４階,,13,103,1060032,,,2024-01-29,合併による解散等,5120001240272,令和６年１月１２日大阪市東成区中道四丁目１６－２１山上ビル３Ｆ株式会社Ｆｕｔｕｒｅ（5120001240272）に合併し解散,2023-07-26,1,,,,,フューチャー,0
1923,9011302000471,登記記録の閉鎖等,0,2024-02-01,2024-01-24,朝松運送有限会社,,有限会社,東京都,杉並区,下井草５丁目１８番６－４０１号,,13,115,1670022,,,2024-01-24,清算の結了等,,,2015-10-05,1,,,,,アサマツウンソウ,0
1973,9050001049437,登記記録の閉鎖等,0,2024-02-01,2024-01-10,株式会社茨城貯蓄銀行,,株式会社,茨城県,水戸市,南町４５５番地,,08,201,3100000,,,2024-01-10,清算の結了等,,,2021-07-14,1,,,,,イバラキチョチクギンコウ,0
1981,9080403003039,登記記録の閉鎖等,0,2024-02-01,2024-01-31,合同会社ＷＡＬＫ,,合同会社,静岡県,浜松市中央区,舞阪町弁天島３２８５番地の６２ル・シェモア弁天島７０２,,22,138,4310214,,,2024-01-31,清算の結了等,,,2015-10-05,1,,,,,,0
1982,9100001001953,登記記録の閉鎖等,0,2024-02-01,2024-01-29,株式会社千葉蓄音器商会,,株式会社,長野県,長野市,大字中御所１５３番地,,20,201,3800935,,,2024-01-29,清算の結了等,,,2015-10-05,1,,,,,チバチクオンキショウカイ,0
1994,9120001243684,登記記録の閉鎖等,0,2024-02-01,2024-01-23,株式会社リッカ,,株式会社,大阪府,大阪市北区,梅田１丁目１－３大阪駅前第３ビル２９階１－１－１号室,,27,127,5300001,,,2024-01-23,清算の結了等,,,2022-02-04,1,,,,,リッカ,0
2031,9200002017559,登記記録の閉鎖等,0,2024-02-01,2024-01-30,有限会社山広水野製材所,,有限会社,岐阜県,可児市,兼山５７５番地,,21,214,5050130,,,2024-01-30,清算の結了等,,,2015-10-05,1,,,,,ヤマヒロミズノセイザイショ,0
2034,9210002009480,登記記録の閉鎖等,0,2024-02-01,2024-01-30,有限会社清水工務店,,有限会社,福井県,大野市,中野３６号１７番地,,18,205,9120021,,,2024-01-30,清算の結了等,,,2015-10-05,1,,,,,シミズコウムテン,0
2040,9240001045086,登記記録の閉鎖等,0,2024-02-01,2024-01-26,ＣＶＳまるじょう株式会社,,株式会社,広島県,呉市,宮原１３丁目３番１４号,,34,202,7370024,,,2024-01-26,清算の結了等,,,2015-10-05,1,,,,,シーブイエスマルジョウ,0
2041,9240001050565,登記記録の閉鎖等,0,2024-02-01,2024-01-29,株式会社日進住宅,,株式会社,広島県,広島市西区,大宮１丁目２７番４号・税理士法人安部事務所内,,34,104,7330007,,,2024-01-29,清算の結了等,,,2017-02-06,1,,,,,ニッシンジュウタク,0
2045,9290001083841,登記記録の閉鎖等,0,2024-02-01,2024-01-31,みらい蘇生株式会社,,株式会社,福岡県,久留米市,荒木町藤田１２５１番地２０,,40,203,8300064,,,2024-01-31,清算の結了等,,,2019-01-08,1,,,,,,0
2067,9370002008608,登記記録の閉鎖等,0,2024-02-01,2024-01-30,有限会社峰壽産業,,有限会社,宮城県,仙台市宮城野区,萩野町２丁目１７番１号（アメニティ萩野町１階１０１号室,,04,102,9830043,,,2024-01-30,清算の結了等,,,2015-10-05,1,,,,,ホウジュサンギョウ,0
