sequenceNumber,corporateNumber,process,correct,updateDate,changeDate,name,nameImageId,kind,prefectureName,cityName,streetNumber,addressImageId,prefectureCode,cityCode,postCode,addressOutside,addressOutsideImageId,closeDate,closeCause,successorCorporateNumber,changeCause,assignmentDate,latest,enName,enPrefectureName,enCityName,enAddressOutside,furigana,hihyoji
10,1010005034124,新規,0,2021-10-25,2021-10-25,特定非営利活動法人Ｃｏｍｍｕｎｉｔｙ　Ｙｏｇａ　Ｔｏｋｙｏ,,その他の設立登記法人,東京都,中央区,勝どき６丁目３番２－４１１３号,,13,102,1040054,,,,,,,2021-10-25,1,,,,,コミュニティーヨガトウキョウ,0
15,1010401163443,新規,0,2021-10-25,2021-10-25,オルゴレヴォ株式会社,,株式会社,東京都,港区,南青山２丁目２番１５号,,13,103,1070062,,,,,,,2021-10-25,1,,,,,オルゴレヴォ,0
28,1010603009221,新規,0,2021-10-25,2021-10-25,合同会社ＴＳＰ,,合同会社,東京都,墨田区,墨田５丁目５番１１－１０１号,,13,107,1310031,,,,,,,2021-10-25,1,,,,,ティーエスピー,0
31,1010703005979,新規,0,2021-10-25,2021-10-25,合同会社Ｃｉｒｃｕｌａｒ　Ａｇｒｉｃｕｌｔｕｒｅ,,合同会社,東京都,品川区,西五反田７丁目７番２号,,13,109,1410031,,,,,,,2021-10-25,1,,,,,サーキュラーアグリカルチャー,0
34,1010801032421,新規,0,2021-10-25,2021-10-25,株式会社コア,,株式会社,東京都,大田区,大森東４丁目２３番１９号コーポファミリー１０２,,13,111,1430012,,,,,,,2021-10-25,1,,,,,コア,0
43,1010901049670,新規,0,2021-10-25,2021-10-25,株式会社ＹＭ２エンターテイメント,,株式会社,東京都,世田谷区,深沢２丁目１７番２５号１Ｆ,,13,112,1580081,,,,,,,2021-10-25,1,,,,,ワイエムツーエンターテイメント,0
44,1010903006892,新規,0,2021-10-25,2021-10-25,フィフティファイヴ合同会社,,合同会社,東京都,世田谷区,松原５丁目１９番６号パインヒルズ１０２,,13,112,1560043,,,,,,,2021-10-25,1,,,,,,0
45,1010905004226,新規,0,2021-10-25,2021-10-25,一般社団法人空き家再生協会,,その他の設立登記法人,東京都,世田谷区,用賀３丁目１１番１０－３０５号,,13,112,1580097,,,,,,,2021-10-25,1,,,,,,0
55,1011101096677,新規,0,2021-10-25,2021-10-25,Ｓｐａｒｋｌｅ　Ｌｉｆｅ株式会社,,株式会社,東京都,新宿区,新宿２丁目８番１号,,13,104,1600022,,,,,,,2021-10-25,1,,,,,スパークルライフ,0
56,1011101096685,新規,0,2021-10-25,2021-10-25,アシストテクニカル株式会社,,株式会社,東京都,新宿区,住吉町１０番１１号,,13,104,1620065,,,,,,,2021-10-25,1,,,,,アシストテクニカル,0
62,1011601025482,新規,0,2021-10-25,2021-10-25,株式会社相愛,,株式会社,東京都,練馬区,谷原６丁目２２番１１号,,13,120,1770032,,,,,,,2021-10-25,1,,,,,ソウアイ,0
77,1020001143588,新規,0,2021-10-25,2021-10-25,株式会社テクノスジャパン,,株式会社,神奈川県,横浜市西区,浅間町４丁目３４２番地１リステージ横浜浅間町６０１号,,14,103,2200072,,,,,,,2021-10-25,1,,,,,テクノスジャパン,0
85,1020003020694,新規,0,2021-10-25,2021-10-25,Ｔｈｅ　Ｔｗｏ合同会社,,合同会社,神奈川県,川崎市麻生区,王禅寺東２丁目１２番３号,,14,137,2150018,,,,,,,2021-10-25,1,,,,,ザトゥー,0
86,1020003020703,新規,0,2021-10-25,2021-10-25,合同会社Ｓｉｍａ工房,,合同会社,神奈川県,川崎市多摩区,長尾３丁目５番５号,,14,135,2140023,,,,,,,2021-10-25,1,,,,,シマコウボウ,0
89,1021001074286,新規,0,2021-10-25,2021-10-25,株式会社ＰａｐｅｒＢｏａｔ,,株式会社,神奈川県,鎌倉市,雪ノ下４丁目１２番１７号,,14,204,2480005,,,,,,,2021-10-25,1,,,,,ペーパーボート,0
90,1021001074303,新規,0,2021-10-25,2021-10-25,株式会社ＬＩＮＯＡ,,株式会社,神奈川県,藤沢市,鵠沼海岸２丁目３番３号１Ｆ,,14,205,2510037,,,,,,,2021-10-25,1,,,,,リノア,0
98,1030001144825,新規,0,2021-10-25,2021-10-25,株式会社ＭＨＬ,,株式会社,埼玉県,戸田市,笹目６丁目１番地の２５,,11,224,3350034,,,,,,,2021-10-25,1,,,,,エムエイチエル,0
99,1030001144932,新規,0,2021-10-25,2021-10-25,明和株式会社,,株式会社,埼玉県,さいたま市南区,文蔵５丁目１０番１８号,,11,108,3360025,,,,,,,2021-10-25,1,,,,,メイワ,0
100,1030001144940,新規,0,2021-10-25,2021-10-25,株式会社ＥＩＷＡ,,株式会社,埼玉県,熊谷市,佐谷田５４４番地,,11,202,3600023,,,,,,,2021-10-25,1,,,,,エイワ,0
101,1030001144949,新規,0,2021-10-25,2021-10-25,株式会社新藤興業,,株式会社,埼玉県,さいたま市緑区,大字中尾１７８９番地８,,11,109,3360932,,,,,,,2021-10-25,1,,,,,シンドウコウギョウ,0
102,1030001144957,新規,0,2021-10-25,2021-10-25,株式会社川上空調,,株式会社,埼玉県,朝霞市,溝沼５丁目１２番２７号,,11,227,3510023,,,,,,,2021-10-25,1,,,,,カワカミクウチョウ,0
103,1030001144973,新規,0,2021-10-25,2021-10-25,ｆａｌｅ株式会社,,株式会社,埼玉県,鶴ヶ島市,大字藤金８４６番地７６シャルム１０２号,,11,241,3502206,,,,,,,2021-10-25,1,,,,,ファレ,0
111,1040001120627,新規,0,2021-10-25,2021-10-25,ルートシップスコンサルティングス株式会社,,株式会社,千葉県,千葉市中央区,本町３丁目６番３号メゾン本町９０１,,12,101,2600012,,,,,,,2021-10-25,1,,,,,ルートシップスコンサルティングス,0
112,1040001120734,新規,0,2021-10-25,2021-10-25,株式会社ＮｏＡ,,株式会社,千葉県,柏市,大井１９９０番地２ｆｏｒｔｕｎａ－Ｓ－２０６号,,12,217,2770902,,,,,,,2021-10-25,1,,,,,ノア,0
113,1040001120742,新規,0,2021-10-25,2021-10-25,株式会社ＡＬＯＨＡ,,株式会社,千葉県,八千代市,上高野１２２０番地８,,12,221,2760022,,,,,,,2021-10-25,1,,,,,アロハ,0
119,1040003018803,新規,0,2021-10-25,2021-10-25,合同会社グランエステート,,合同会社,千葉県,柏市,篠籠田４８５番地１グランシャリオ双伸３０２号,,12,217,2770862,,,,,,,2021-10-25,1,,,,,グランエステート,0
124,1060001034222,新規,0,2021-10-25,2021-10-25,株式会社ビルダーズ,,株式会社,栃木県,宇都宮市,中今泉４丁目８番９号,,09,201,3210968,,,,,,,2021-10-25,1,,,,,ビルダーズ,0
126,1070001038569,新規,0,2021-10-25,2021-10-25,株式会社小林,,株式会社,群馬県,高崎市,並榎町１５０番地２３並榎荘３２号,,10,202,3700802,,,,,,,2021-10-25,1,,,,,コバヤシ,0
129,1080103002439,新規,0,2021-10-25,2021-10-25,合同会社ＤＲＥＡＭ　ＦＡＣＴＯＲＹ,,合同会社,静岡県,伊東市,銀座元町３－３,,22,208,4140028,,,,,,,2021-10-25,1,,,,,ドリームファクトリー,0
131,1080401025439,新規,0,2021-10-25,2021-10-25,株式会社Ｍ’ｓ　ｓｙｓｔｅｍ,,株式会社,静岡県,浜松市中区,瓜内町８７９番地の６,,22,131,4300854,,,,,,,2021-10-25,1,,,,,エムズシステム,0
135,1100003006272,新規,0,2021-10-25,2021-10-25,ウィステリアロード合同会社,,合同会社,長野県,千曲市,大字内川８８２番地２,,20,218,3890802,,,,,,,2021-10-25,1,,,,,ウィステリアロード,0
138,1110001036139,新規,0,2021-10-25,2021-10-25,株式会社ＭＣＣ,,株式会社,新潟県,新潟市中央区,川端町６丁目４７番地１－２Ｆ,,15,103,9518053,,,,,,,2021-10-25,1,,,,,エムシーシー,0
157,1120001241299,新規,0,2021-10-25,2021-10-25,ニアム株式会社,,株式会社,大阪府,大阪市港区,市岡元町２丁目６番１１号,,27,107,5520002,,,,,,,2021-10-25,1,,,,,ニアム,0
166,1120101064526,新規,0,2021-10-25,2021-10-25,株式会社ＭＩＳＳＩＯＮ,,株式会社,大阪府,堺市堺区,宿院町西４丁２－９フォルテ宿院２０１,,27,141,5900958,,,,,,,2021-10-25,1,,,,,ミッション,0
170,1120905006236,新規,0,2021-10-25,2021-10-25,一般社団法人誠仁会,,その他の設立登記法人,大阪府,吹田市,桃山台３丁目１６番２号,,27,205,5650854,,,,,,,2021-10-25,1,,,,,セイジンカイ,0
173,1122001035276,新規,0,2021-10-25,2021-10-25,株式会社縁,,株式会社,大阪府,大東市,中垣内１丁目８－３１,,27,218,5740013,,,,,,,2021-10-25,1,,,,,エン,0
176,1130001070375,新規,0,2021-10-25,2021-10-25,株式会社イーク,,株式会社,京都府,長岡京市,開田４丁目１４番１９号,,26,209,6170826,,,,,,,2021-10-25,1,,,,,イーク,0
177,1130001070383,新規,0,2021-10-25,2021-10-25,株式会社ＮＩＣＯＲＩ,,株式会社,京都府,宇治市,琵琶台２丁目１３番地の５,,26,204,6110024,,,,,,,2021-10-25,1,,,,,ニコリ,0
178,1130001070391,新規,0,2021-10-25,2021-10-25,株式会社ＧＡＳＴＯＲＯＮＯＭＹ,,株式会社,京都府,京都市中京区,占出山町２１３ケイズビル６Ｆ（ストラテジーデザイン株式会社内）,,26,104,6048155,,,,,,,2021-10-25,1,,,,,ガストロノミー,0
179,1130003007557,新規,0,2021-10-25,2021-10-25,合同会社あさひ,,合同会社,京都府,長岡京市,開田１丁目１９番２２号,,26,209,6170826,,,,,,,2021-10-25,1,,,,,アサヒ,0
186,1140001123594,新規,0,2021-10-25,2021-10-25,株式会社絆,,株式会社,兵庫県,神崎郡福崎町,山崎５２４番地２,,28,443,6792211,,,,,,,2021-10-25,1,,,,,キズナ,0
187,1140001123603,新規,0,2021-10-25,2021-10-25,おおやま設備株式会社,,株式会社,兵庫県,丹波篠山市,大山宮２８５番地２,,28,221,6692802,,,,,,,2021-10-25,1,,,,,オオヤマセツビ,0
188,1140001123611,新規,0,2021-10-25,2021-10-25,株式会社ＯＴＴＯ,,株式会社,兵庫県,西宮市,上ケ原十番町２番３０－６１１号,,28,204,6620884,,,,,,,2021-10-25,1,,,,,オット,0
191,1140003016895,新規,0,2021-10-25,2021-10-25,合同会社Ｙサンキュウオフィス,,合同会社,兵庫県,神戸市西区,玉津町今津１７６番地の１、２階,,28,111,6512128,,,,,,,2021-10-25,1,,,,,,0
195,1150001025047,新規,0,2021-10-25,2021-10-25,株式会社ＭＡＰ,,株式会社,奈良県,奈良市,西九条町３丁目３番地の２７,,29,201,6308453,,,,,,,2021-10-25,1,,,,,マップ,0
197,1150003002523,新規,0,2021-10-25,2021-10-25,合同会社ＧＲＦＫ,,合同会社,奈良県,奈良市,大安寺西３丁目８番１２号,,29,201,6308135,,,,,,,2021-10-25,1,,,,,ジーアールエフケー,0
198,1150003002531,新規,0,2021-10-25,2021-10-25,合同会社ＮＳサービス,,合同会社,奈良県,奈良市,法蓮町１９２１番地の８０,,29,201,6308113,,,,,,,2021-10-25,1,,,,,エヌエスサービス,0
201,1180001148381,新規,0,2021-10-25,2021-10-25,株式会社Ａｌｌ　ｉｎ,,株式会社,愛知県,名古屋市中区,栄４丁目９番１０号愛信プラザビル１Ｆ,,23,106,4600008,,,,,,,2021-10-25,1,,,,,オールイン,0
202,1180001148423,新規,0,2021-10-25,2021-10-25,株式会社ＳＥ．ＥＥＤ,,株式会社,愛知県,名古屋市中区,新栄２丁目４１－１１ベストビル４Ｂ,,23,106,4600007,,,,,,,2021-10-25,1,,,,,シード,0
206,1180305009255,新規,0,2021-10-25,2021-10-25,一般社団法人ＹＯＵＴＨＦＵＬ　ＷＯＲＬＤ,,その他の設立登記法人,愛知県,岡崎市,大西町字奥長入４３番地２,,23,202,4440811,,,,,,,2021-10-25,1,,,,,ユースフルワールド,0
207,1190001028797,新規,0,2021-10-25,2021-10-25,あさあけロジスティクス株式会社,,株式会社,三重県,津市,広明町３２８番地津ビル２Ｆ,,24,201,5140006,,,,,,,2021-10-25,1,,,,,アサアケロジスティクス,0
210,1190003003807,新規,0,2021-10-25,2021-10-25,合同会社福祉のひなた,,合同会社,三重県,津市,津興４７番地リュミエール３０３号室,,24,201,5140812,,,,,,,2021-10-25,1,,,,,フクシノヒナタ,0
215,1230001019049,新規,0,2021-10-25,2021-10-25,株式会社小森工業,,株式会社,富山県,高岡市,福岡町本領５３６番地１,,16,202,9390135,,,,,,,2021-10-25,1,,,,,コモリコウギョウ,0
222,1250001019204,新規,0,2021-10-25,2021-10-25,株式会社常盤商会グループ,,株式会社,山口県,宇部市,新町１２番１号,,35,202,7550044,,,,,,,2021-10-25,1,,,,,トキワショウカイグループ,0
223,1250001019212,新規,0,2021-10-25,2021-10-25,タイヘイ商事株式会社,,株式会社,山口県,周南市,平和通２丁目１９番地,,35,215,7450015,,,,,,,2021-10-25,1,,,,,タイヘイショウジ,0
224,1250005008698,新規,0,2021-10-25,2021-10-25,周南市上下水道事業協同組合,,その他の設立登記法人,山口県,周南市,大字徳山５８７番地の１１有限会社嶋田工務所内,,35,215,7450851,,,,,,,2021-10-25,1,,,,,シュウナンシジョウゲスイドウ,0
235,1290001095084,新規,0,2021-10-25,2021-10-25,株式会社ＦＲＥＥ　ＡＳＳＩＳＴ,,株式会社,福岡県,久留米市,城南町１２番地２６ブランシェ城南Ａ号室,,40,203,8300022,,,,,,,2021-10-25,1,,,,,フリーアシスト,0
236,1290001095118,新規,0,2021-10-25,2021-10-25,株式会社Ａｎｔｓ,,株式会社,福岡県,糟屋郡志免町,王子４丁目２３番６号,,40,343,8112209,,,,,,,2021-10-25,1,,,,,アンツ,0
247,1320003003644,新規,0,2021-10-25,2021-10-25,Ｏｆｆｉｃｅ６８６８合同会社,,合同会社,大分県,別府市,山の手町１７－１,,44,202,8740828,,,,,,,2021-10-25,1,,,,,オフィスロクハチロクハチ,0
250,1340001024194,新規,0,2021-10-25,2021-10-25,株式会社白咲ポルコ,,株式会社,鹿児島県,肝属郡東串良町,岩弘１８６２番地,,46,482,8931611,,,,,,,2021-10-25,1,,,,,シロサキポルコ,0
253,1350003003955,新規,0,2021-10-25,2021-10-25,ひなたフォト合同会社,,合同会社,宮崎県,宮崎市,恒久２丁目１－１０,,45,201,8800913,,,,,,,2021-10-25,1,,,,,ヒナタフォト,0
255,1360001029539,新規,0,2021-10-25,2021-10-25,株式会社馬場建工業,,株式会社,沖縄県,那覇市,繁多川５丁目１２番８号,,47,201,9020071,,,,,,,2021-10-25,1,,,,,ババケンコウギョウ,0
256,1360001029547,新規,0,2021-10-25,2021-10-25,株式会社南の碧い海,,株式会社,沖縄県,糸満市,潮崎町３丁目１９番地の６,,47,210,9010364,,,,,,,2021-10-25,1,,,,,ミナミノアオイウミ,0
273,1430001085236,新規,0,2021-10-25,2021-10-25,株式会社Ｏ,,株式会社,北海道,札幌市西区,西野四条３丁目１番３１号,,01,107,0630034,,,,,,,2021-10-25,1,,,,,オー,0
283,1700150105485,新規,0,2021-10-25,2021-10-25,Ｇｏ　Ｂｕｎｇｙ　Ｈｏｌｄｉｎｇｓ　Ｐｔｅ．Ｌｔｄ．,,外国会社等,東京都,品川区,東五反田１丁目１９番７号１階,,13,109,1410022,シンガポール共和国８クロスストリート２４－０３／０４,,,,,,2021-10-25,1,,,,,ゴーバンジーホールデイングスピーテイーイーエルテイーデイー,0
288,2010001222004,新規,0,2021-10-25,2021-10-25,株式会社ＰＬＥＯ,,株式会社,東京都,中央区,銀座１丁目２２－１１銀座大竹ビジデンス２階,,13,102,1040061,,,,,,,2021-10-25,1,,,,,プレオ,0
289,2010001222078,新規,0,2021-10-25,2021-10-25,株式会社Ｈｅｌｉｃａｌ　Ｆｕｓｉｏｎ,,株式会社,東京都,千代田区,有楽町１丁目１２番１号新有楽町ビル１０階,,13,101,1000006,,,,,,,2021-10-25,1,,,,,ヘリカルフュージョン,0
291,2010003036088,新規,0,2021-10-25,2021-10-25,合同会社銀座蒸留所,,合同会社,東京都,千代田区,永田町２丁目１１番１号山王パークタワー３階株式会社アイファス内,,13,101,1000014,,,,,,,2021-10-25,1,,,,,ギンザジョウリュウジョ,0
292,2010005034107,新規,0,2021-10-25,2021-10-25,一般財団法人ＲＥＡＤＹＦＯＲ財団,,その他の設立登記法人,東京都,千代田区,一番町８住友不動産一番町ビル７階,,13,101,1020082,,,,,,,2021-10-25,1,,,,,レディーフォーザイダン,0
293,2010005034123,新規,0,2021-10-25,2021-10-25,一般社団法人フレート・インベストメント,,その他の設立登記法人,東京都,千代田区,六番町２番地８番町Ｍビル３Ｆ,,13,101,1020085,,,,,,,2021-10-25,1,,,,,フレートインベストメント,0
300,2010401163500,新規,0,2021-10-25,2021-10-25,株式会社ＯＫファン,,株式会社,東京都,港区,白金台３丁目７番２９号,,13,103,1080071,,,,,,,2021-10-25,1,,,,,オーケーファン,0
302,2010403026390,新規,0,2021-10-25,2021-10-25,スタートアップハンズオン合同会社,,合同会社,東京都,港区,高輪３丁目２４番１８号,,13,103,1080074,,,,,,,2021-10-25,1,,,,,スタートアップハンズオン,0
310,2010701041694,新規,0,2021-10-25,2021-10-25,株式会社冷電社,,株式会社,東京都,品川区,南大井３丁目６－１２サンコーポ大森１０１,,13,109,1400013,,,,,,,2021-10-25,1,,,,,レイデンシャ,0
311,2010703005978,新規,0,2021-10-25,2021-10-25,合同会社ＡＣＴプランニング,,合同会社,東京都,品川区,八潮２丁目９番地,,13,109,1400003,,,,,,,2021-10-25,1,,,,,アクトプランニング,0
314,2010801032429,新規,0,2021-10-25,2021-10-25,ＳＭ　ＴＲＡＤＩＮＧ株式会社,,株式会社,東京都,大田区,東六郷３丁目８番４－六郷東豊エステート１４１８号,,13,111,1440046,,,,,,,2021-10-25,1,,,,,エスエムトレーディング,0
321,2010901049678,新規,0,2021-10-25,2021-10-25,紬株式会社,,株式会社,東京都,世田谷区,上野毛１丁目１６番１７－２０７号,,13,112,1580093,,,,,,,2021-10-25,1,,,,,ツムギ,0
322,2010905004225,新規,0,2021-10-25,2021-10-25,一般社団法人アルテトネヤマ,,その他の設立登記法人,東京都,世田谷区,等々力４丁目２４番１０号,,13,112,1580082,,,,,,,2021-10-25,1,,,,,,0
326,2011001143520,新規,0,2021-10-25,2021-10-25,株式会社ＧＬ　Ｔｅｃｈ,,株式会社,東京都,渋谷区,神宮前５丁目４７番１１号青山学院スタジオ３０５号,,13,113,1500001,,,,,,,2021-10-25,1,,,,,ジーエルテック,0
327,2011003013606,新規,0,2021-10-25,2021-10-25,合同会社Ｌａ　Ｍｅｒ,,合同会社,東京都,渋谷区,神泉町５番８号,,13,113,1500045,,,,,,,2021-10-25,1,,,,,ラメール,0
338,2011303004206,新規,0,2021-10-25,2021-10-25,合同会社みまね家,,合同会社,東京都,杉並区,上井草４丁目５番１３号,,13,115,1670023,,,,,,,2021-10-25,1,,,,,ミマネヤ,0
340,2011501027421,新規,0,2021-10-25,2021-10-25,株式会社Ｘｅｎｉａｌ,,株式会社,東京都,北区,赤羽２丁目２番１４号蛇の目赤羽ビル５Ａ,,13,117,1150045,,,,,,,2021-10-25,1,,,,,ジニアル,0
346,2011503004939,新規,0,2021-10-25,2021-10-25,合同会社本木労務管理事務所,,合同会社,東京都,荒川区,西尾久５丁目１０番９号,,13,118,1160011,,,,,,,2021-10-25,1,,,,,モトキロウムカンリジムショ,0
352,2012401038450,新規,0,2021-10-25,2021-10-25,株式会社プリエ,,株式会社,東京都,三鷹市,新川２丁目４番２２号,,13,204,1810004,,,,,,,2021-10-25,1,,,,,プリエ,0
358,2013301048192,新規,0,2021-10-25,2021-10-25,株式会社ＴｈｅＢｒｏ,,株式会社,東京都,豊島区,西池袋３丁目１－１５西池袋ＴＳビル,,13,116,1710021,,,,,,,2021-10-25,1,,,,,ザブロ,0
359,2013303005869,新規,0,2021-10-25,2021-10-25,さくら合同会社,,合同会社,東京都,豊島区,東池袋１丁目１７番１１号,,13,116,1700013,,,,,,,2021-10-25,1,,,,,サクラ,0
364,2020001143579,新規,0,2021-10-25,2021-10-25,株式会社ファーストライド,,株式会社,神奈川県,横浜市港南区,丸山台１丁目１１番２１号,,14,111,2330013,,,,,,,2021-10-25,1,,,,,ファーストライド,0
374,2021001074277,新規,0,2021-10-25,2021-10-25,株式会社Ｒ．Ａ．Ｋ,,株式会社,神奈川県,相模原市緑区,大島８０９番地４,,14,151,2520135,,,,,,,2021-10-25,1,,,,,アールエーケー,0
375,2021001074285,新規,0,2021-10-25,2021-10-25,メゾンカカオファーム株式会社,,株式会社,神奈川県,茅ヶ崎市,中海岸４丁目１２９８６番地６１茅ヶ崎サザンビーチヒルズ,,14,207,2530055,,,,,,,2021-10-25,1,,,,,メゾンカカオファーム,0
386,2030001144444,新規,0,2021-10-25,2021-10-25,兆旭貿易株式会社,,株式会社,埼玉県,越谷市,蒲生１丁目６－４５越谷南パークホームズ,,11,222,3430838,,,,,,,2021-10-25,1,,,,,マコト,0
387,2030001144816,新規,0,2021-10-25,2021-10-25,株式会社ニーサム,,株式会社,埼玉県,八潮市,大字南川崎４９９番地２,,11,234,3400814,,,,,,,2021-10-25,1,,,,,ニーサム,0
388,2030001144972,新規,0,2021-10-25,2021-10-25,株式会社エフアールエヌ,,株式会社,埼玉県,川口市,西川口５丁目１６番７号１０１号室,,11,203,3320021,,,,,,,2021-10-25,1,,,,,エフアールエヌ,0
395,2030003018175,新規,0,2021-10-25,2021-10-25,合同会社ビジネスサポート,,合同会社,埼玉県,行田市,宮本１２番２７－１号,,11,206,3610072,,,,,,,2021-10-25,1,,,,,ビジネスサポート,0
398,2030005020609,新規,0,2021-10-25,2021-10-25,一般社団法人和泉の郷,,その他の設立登記法人,埼玉県,秩父郡皆野町,大字金沢２４３９番地１,,11,362,3691601,,,,,,,2021-10-25,1,,,,,イズミノサト,0
404,2040001120659,新規,0,2021-10-25,2021-10-25,株式会社サカシタ,,株式会社,千葉県,勝浦市,串浜１１９９番地,,12,218,2995226,,,,,,,2021-10-25,1,,,,,サカシタ,0
405,2040001120709,新規,0,2021-10-25,2021-10-25,Ｙ’ｓ　ＳＴＯＲＹ株式会社,,株式会社,千葉県,いすみ市,岬町嘉谷４７０番地５,,12,238,2994625,,,,,,,2021-10-25,1,,,,,ワイズストーリー,0
406,2040001120725,新規,0,2021-10-25,2021-10-25,株式会社ＣＨＬＥＯ,,株式会社,千葉県,山武郡横芝光町,尾垂イ３５１３－４０－５０１,,12,410,2891725,,,,,,,2021-10-25,1,,,,,クレオ,0
413,2040003018793,新規,0,2021-10-25,2021-10-25,Ｓｍｏｏｔｈｓｔａｒ　Ｊａｐａｎ合同会社,,合同会社,千葉県,山武郡九十九里町,藤下９５７,,12,403,2830112,,,,,,,2021-10-25,1,,,,,,0
414,2040003018802,新規,0,2021-10-25,2021-10-25,愛の森合同会社,,合同会社,千葉県,千葉市若葉区,若松町２３６２番地１１,,12,104,2640021,,,,,,,2021-10-25,1,,,,,アイノモリ,0
415,2040005021399,新規,0,2021-10-25,2021-10-25,医療法人社団宏心会,,その他の設立登記法人,千葉県,習志野市,大久保２丁目２番１号大久保二丁目ビル２０１号室,,12,216,2750011,,,,,,,2021-10-25,1,,,,,コウシンカイ,0
421,2080401025438,新規,0,2021-10-25,2021-10-25,株式会社ＷＩＬＬ　ＷＯＲＫＳ,,株式会社,静岡県,浜松市西区,馬郡町４７５０番地３０２,,22,133,4310203,,,,,,,2021-10-25,1,,,,,ウイルワークス,0
424,2100001034737,新規,0,2021-10-25,2021-10-25,株式会社丸世,,株式会社,長野県,諏訪市,大字湖南８３４番地４,,20,206,3920131,,,,,,,2021-10-25,1,,,,,マルヨ,0
432,2110001036138,新規,0,2021-10-25,2021-10-25,プロスパー株式会社,,株式会社,新潟県,三条市,条南町１０番２１号,,15,204,9550843,,,,,,,2021-10-25,1,,,,,プロスパー,0
442,2120001241315,新規,0,2021-10-25,2021-10-25,ＣＡＮＡＥＬ株式会社,,株式会社,大阪府,大阪市北区,梅田１丁目２番２号,,27,127,5300001,,,,,,,2021-10-25,1,,,,,カナエル,0
443,2120001241356,新規,0,2021-10-25,2021-10-25,ストグバ株式会社,,株式会社,大阪府,大阪市淀川区,西中島４丁目７番３０号アネックス新大阪７－Ｊ号,,27,123,5320011,,,,,,,2021-10-25,1,,,,,ストグバ,0
452,2120101064533,新規,0,2021-10-25,2021-10-25,Ｓａｃｒｅａｔ　Ｊａｐａｎ株式会社,,株式会社,大阪府,和泉市,久井町１８５番１号,,27,219,5941142,,,,,,,2021-10-25,1,,,,,サクリエイトジャパン,0
453,2120103004413,新規,0,2021-10-25,2021-10-25,ＡＩ商会合同会社,,合同会社,大阪府,藤井寺市,道明寺１丁目２１番２１－２０４号,,27,226,5830012,,,,,,,2021-10-25,1,,,,,エーアイショウカイ,0
455,2120901045088,新規,0,2021-10-25,2021-10-25,株式会社ハセガワオート,,株式会社,大阪府,豊能郡豊能町,希望ケ丘１丁目１番地の１７,,27,321,5630214,,,,,,,2021-10-25,1,,,,,ハセガワオート,0
461,2122001035283,新規,0,2021-10-25,2021-10-25,株式会社Ｏｆｆ　Ｔｈｅ　Ｌｉｐ,,株式会社,大阪府,東大阪市,永和１丁目２４番１３号,,27,227,5770809,,,,,,,2021-10-25,1,,,,,オフザリップ,0
464,2130003007556,新規,0,2021-10-25,2021-10-25,７８７合同会社,,合同会社,京都府,京都市中京区,西ノ京下合町２０番地－１１０７,,26,104,6048436,,,,,,,2021-10-25,1,,,,,ナナハチナナ,0
475,2140001123593,新規,0,2021-10-25,2021-10-25,株式会社ＭＩＬＬＥ,,株式会社,兵庫県,神戸市東灘区,住吉宮町３丁目５番１０－１０３号,,28,101,6580053,,,,,,,2021-10-25,1,,,,,ミル,0
476,2140001123602,新規,0,2021-10-25,2021-10-25,株式会社立花工業所,,株式会社,兵庫県,尼崎市,水堂町２丁目２４番１０号,,28,202,6610026,,,,,,,2021-10-25,1,,,,,タチバナコウギョウショ,0
477,2140001123610,新規,0,2021-10-25,2021-10-25,株式会社ＬＡＤＤＡ　Ｄｅｓｉｇｎ,,株式会社,兵庫県,姫路市,栗山町１２６番地イノウエビル１階Ａ,,28,201,6700954,,,,,,,2021-10-25,1,,,,,ラッダデザイン,0
482,2160003002414,新規,0,2021-10-25,2021-10-25,合同会社鈴和の音,,合同会社,滋賀県,犬上郡甲良町,大字池寺１９５３,,25,442,5220254,,,,,,,2021-10-25,1,,,,,レイワノネ,0
488,2180001148307,新規,0,2021-10-25,2021-10-25,株式会社芝田,,株式会社,愛知県,名古屋市南区,鯛取通１丁目２０リトルフォレスト６０６,,23,112,4570031,,,,,,,2021-10-25,1,,,,,シバタ,0
489,2180001148406,新規,0,2021-10-25,2021-10-25,株式会社源氏,,株式会社,愛知県,名古屋市緑区,四本木８２２番地,,23,114,4580039,,,,,,,2021-10-25,1,,,,,ゲンジ,0
496,2190001028796,新規,0,2021-10-25,2021-10-25,株式会社オプシアメンテナンス,,株式会社,三重県,度会郡南伊勢町,五ケ所浦２００番地４野添団地Ｉ号棟３０２号室,00124652,24,472,5160101,,,,,,,2021-10-25,1,,,,,オプシアメンテナンス,0
504,2230001019048,新規,0,2021-10-25,2021-10-25,株式会社ｇｏｌａ,,株式会社,富山県,高岡市,太田７９５番地１,,16,202,9330133,,,,,,,2021-10-25,1,,,,,ゴラ,0
506,2230003001747,新規,0,2021-10-25,2021-10-25,合同会社ＸＹＷ,,合同会社,富山県,富山市,赤田５６５,,16,201,9398064,,,,,,,2021-10-25,1,,,,,,0
509,2240001058805,新規,0,2021-10-25,2021-10-25,株式会社白．Ｔｓｕｋｕｍｏ,,株式会社,広島県,福山市,大谷台３丁目２番２６号,,34,207,7210914,,,,,,,2021-10-25,1,,,,,ツクモ,0
511,2250001019203,新規,0,2021-10-25,2021-10-25,株式会社のうじょう,,株式会社,山口県,周南市,大字徳山１０１３番地の１２,,35,215,7450851,,,,,,,2021-10-25,1,,,,,ノウジョウ,0
513,2250005008697,新規,0,2021-10-25,2021-10-25,一般社団法人下関北九州バスケットボール協会,,その他の設立登記法人,山口県,下関市,東大和町１丁目４番３４号２階,,35,201,7500066,,,,,,,2021-10-25,1,,,,,シモノセキキタキュウシュウバスケットボールキョウカイ,0
514,2260001036115,新規,0,2021-10-25,2021-10-25,白進ビルサービス株式会社,,株式会社,岡山県,倉敷市,児島下の町７丁目１番１０号,,33,202,7110906,,,,,,,2021-10-25,1,,,,,ハクシンビルサービス,0
515,2260001036123,新規,0,2021-10-25,2021-10-25,株式会社ニシケンコーポレーション,,株式会社,岡山県,倉敷市,玉島勇崎１０９７番地６・２階,,33,202,7138125,,,,,,,2021-10-25,1,,,,,ニシケンコーポレーション,0
521,2290001095109,新規,0,2021-10-25,2021-10-25,株式会社かなえる,,株式会社,福岡県,久留米市,荒木町荒木７８９番地２,,40,203,8300063,,,,,,,2021-10-25,1,,,,,カナエル,0
522,2290001095125,新規,0,2021-10-25,2021-10-25,株式会社エアーシステムリサーチ,,株式会社,福岡県,那珂川市,恵子２丁目７番２号,,40,231,8111255,,,,,,,2021-10-25,1,,,,,エアーシステムリサーチ,0
523,2290003011716,新規,0,2021-10-25,2021-10-25,合同会社ＡＩＮＡＭＵ　ＳＰＡＣＥ,,合同会社,福岡県,福岡市博多区,博多駅前２丁目１９番１７号トーカン博多第５ビル３１２号室,,40,132,8120011,,,,,,,2021-10-25,1,,,,,アイナムスペース,0
530,2310003004196,新規,0,2021-10-25,2021-10-25,合同会社シロサイ,,合同会社,長崎県,諫早市,貝津町４５３－５８,,42,204,8540063,,,,,,,2021-10-25,1,,,,,シロサイ,0
538,2340001024193,新規,0,2021-10-25,2021-10-25,ＦＵＮＮＹ株式会社,,株式会社,鹿児島県,鹿児島市,犬迫町５９１５番地１,,46,201,8911205,,,,,,,2021-10-25,1,,,,,ファニー,0
539,2350001017378,新規,0,2021-10-25,2021-10-25,株式会社よつばメディカル,,株式会社,宮崎県,宮崎市,橘通東４丁目１番４号,,45,201,8800805,,,,,,,2021-10-25,1,,,,,ヨツバメディカル,0
544,2360003011519,新規,0,2021-10-25,2021-10-25,合同会社エスポワール,,合同会社,沖縄県,那覇市,字上間３４４番地１グレイスハイムうえま１１０１,,47,201,9020073,,,,,,,2021-10-25,1,,,,,エスポワール,0
553,2430001085227,新規,0,2021-10-25,2021-10-25,アトリエとんとん株式会社,,株式会社,北海道,札幌市西区,西野四条９丁目３番３３号,,01,107,0630034,,,,,,,2021-10-25,1,,,,,アトリエトントン,0
554,2430001085235,新規,0,2021-10-25,2021-10-25,株式会社ＩＳＬＥＳ,,株式会社,北海道,札幌市中央区,宮の森四条４丁目４番１６号ブランシェ宮の森３０２,,01,101,0640954,,,,,,,2021-10-25,1,,,,,アイルズ,0
556,2430003013284,新規,0,2021-10-25,2021-10-25,合同会社アヴァンセ,,合同会社,北海道,札幌市北区,北二十二条西６丁目２番８号,,01,102,0010022,,,,,,,2021-10-25,1,,,,,アヴァンセ,0
558,2450005004313,新規,0,2021-10-25,2021-10-25,特定非営利活動法人Ｉｎｆｉｎｉｔｙ　Ｓｑｕａｒｅ,,その他の設立登記法人,北海道,中川郡中川町,字佐久２０番地１８佐久第二団地７－１,,01,471,0982622,,,,,,,2021-10-25,1,,,,,インフィニティスクエア,0
562,2470001018793,新規,0,2021-10-25,2021-10-25,株式会社ＴＭＢ,,株式会社,香川県,坂出市,府中町５５６３番地１,,37,203,7620024,,,,,,,2021-10-25,1,,,,,ティエムビー,0
566,2700150105278,新規,0,2021-10-25,2021-10-13,倉敷税務署管内納税貯蓄組合連合会,,その他,岡山県,倉敷市,白楽町２４９－５倉敷商工会館５階,,33,202,7100824,,,,,,,2021-10-13,1,,,,,クラシキゼイムシヨカンナイノウゼイチヨチククミアイレンゴウカイ,0
578,3010001221987,新規,0,2021-10-25,2021-10-25,株式会社富士堂,,株式会社,東京都,千代田区,富士見２丁目３番１号,,13,101,1020071,,,,,,,2021-10-25,1,,,,,フジドウ,0
579,3010001222003,新規,0,2021-10-25,2021-10-25,株式会社ａｍｂｏｒｅｌｌａ,,株式会社,東京都,中央区,築地７丁目４番４号恒陽サンクレスト１０４,,13,102,1040045,,,,,,,2021-10-25,1,,,,,アンボレラ,0
582,3010003036095,新規,0,2021-10-25,2021-10-25,合同会社かわはら,,合同会社,東京都,中央区,晴海２丁目３番２－４８１２号,,13,102,1040053,,,,,,,2021-10-25,1,,,,,カワハラ,0
583,3010005034114,新規,0,2021-10-25,2021-10-25,一般社団法人世界健康支援機構,,その他の設立登記法人,東京都,文京区,本郷３丁目２４番９号,,13,105,1130033,,,,,,,2021-10-25,1,,,,,セカイケンコウシエンキコウ,0
590,3010401163409,新規,0,2021-10-25,2021-10-25,株式会社７１．１３２４１９０４５ｐｅｒｃｅｎｔ,,株式会社,東京都,港区,南青山２丁目２７番２８号１１階,,13,103,1070062,,,,,,,2021-10-25,1,,,,,ナナジュウイッテンイチサンニヨンイチキュウゼロヨンゴパーセント,0
591,3010401163425,新規,0,2021-10-25,2021-10-25,株式会社Ｑｕ　Ｃｒｅａｔｉｏｎ,,株式会社,東京都,港区,南青山２丁目２番１５号ＷＩＮ青山５３１,,13,103,1070062,,,,,,,2021-10-25,1,,,,,クウクリエーション,0
593,3010403026373,新規,0,2021-10-25,2021-10-25,合同会社ナルコナル,,合同会社,東京都,港区,新橋３丁目１１番８号オーイズミ新橋第２ビル８０２,,13,103,1050004,,,,,,,2021-10-25,1,,,,,ナルコナル,0
594,3010403026381,新規,0,2021-10-25,2021-10-25,ＮＩＪＩＩＲＯ合同会社,,合同会社,東京都,港区,西新橋１丁目１９番８号虎ノ門ＳＥ３階,,13,103,1050003,,,,,,,2021-10-25,1,,,,,ニジイロ,0
602,3010701041693,新規,0,2021-10-25,2021-10-25,Ｂｅｌｘ株式会社,,株式会社,東京都,品川区,上大崎２丁目１３番３５号ニューフジビル５０２号室,,13,109,1410021,,,,,,,2021-10-25,1,,,,,ベックス,0
603,3010703005985,新規,0,2021-10-25,2021-10-25,合同会社ＥＩＧＨＴ,,合同会社,東京都,品川区,南品川４丁目４番１７号品川サウスタワー,,13,109,1400004,,,,,,,2021-10-25,1,,,,,エイト,0
609,3010901049677,新規,0,2021-10-25,2021-10-25,株式会社Ｓｈａｋｅ　Ｈａｎｄｓ,,株式会社,東京都,世田谷区,奥沢４丁目３６番３号,,13,112,1580083,,,,,,,2021-10-25,1,,,,,シェイクハンズ,0
615,3011001143602,新規,0,2021-10-25,2021-10-25,ＤＡＲＴ’ｓ株式会社,,株式会社,東京都,渋谷区,東１丁目２５番２号丸橋ビル２階,,13,113,1500011,,,,,,,2021-10-25,1,,,,,ダーツ,0
616,3011001143610,新規,0,2021-10-25,2021-10-25,株式会社ａｓｓｅｍｂｌｙ,,株式会社,東京都,目黒区,中目黒１丁目９番１２号ＬＥＧＡＬＡＮＤ中目黒ＡＮＮＥＸ－４０１,,13,110,1530061,,,,,,,2021-10-25,1,,,,,アッセンブリー,0
617,3011003013547,新規,0,2021-10-25,2021-10-25,バックランド合同会社,,合同会社,東京都,渋谷区,神宮前６丁目２３番４号桑野ビル２階,,13,113,1500001,,,,,,,2021-10-25,1,,,,,バックランド,0
632,3011503004946,新規,0,2021-10-25,2021-10-25,合同会社ＳＵＮＡＯ,,合同会社,東京都,荒川区,荒川１丁目２７番８号,,13,118,1160002,,,,,,,2021-10-25,1,,,,,スナオ,0
634,3011703002972,新規,0,2021-10-25,2021-10-25,ＷＥＥＲ合同会社,,合同会社,東京都,江戸川区,大杉５丁目４番２２号,,13,123,1320022,,,,,,,2021-10-25,1,,,,,ウィア,0
638,3011801039875,新規,0,2021-10-25,2021-10-25,ＮＥＸＴｃｏｍ株式会社,,株式会社,東京都,葛飾区,東立石３丁目２２－１第一白石ビル１０４,,13,122,1240013,,,,,,,2021-10-25,1,,,,,ネクストコム,0
649,3020001143586,新規,0,2021-10-25,2021-10-25,株式会社Ｆｉｎａｎｃｉａｌ　Ｃａｆｅ,,株式会社,神奈川県,川崎市多摩区,宿河原２丁目３０番１７号,,14,135,2140021,,,,,,,2021-10-25,1,,,,,ファイナンシャルカフェ,0
650,3020001143603,新規,0,2021-10-25,2021-10-25,株式会社ＣＲＡＶＥ,,株式会社,神奈川県,横浜市鶴見区,下末吉５丁目１１番２６号,,14,101,2300012,,,,,,,2021-10-25,1,,,,,クレイブ,0
655,3020003020692,新規,0,2021-10-25,2021-10-25,ＬＯＯＫ合同会社,,合同会社,神奈川県,川崎市中原区,市ノ坪４４９番地３,,14,133,2110016,,,,,,,2021-10-25,1,,,,,ルック,0
664,3021003011013,新規,0,2021-10-25,2021-10-25,合同会社エーアンドエム,,合同会社,神奈川県,海老名市,門沢橋４丁目１０番７号,,14,215,2430426,,,,,,,2021-10-25,1,,,,,エーアンドエム,0
667,3030001144947,新規,0,2021-10-25,2021-10-25,株式会社折鶴建設,,株式会社,埼玉県,さいたま市岩槻区,美園東１丁目３０番地２２アイリス２０３,,11,110,3390028,,,,,,,2021-10-25,1,,,,,オリヅルケンセツ,0
669,3030003018208,新規,0,2021-10-25,2021-10-25,わをん合同会社,,合同会社,埼玉県,さいたま市南区,南本町２丁目７番１１号,,11,108,3360018,,,,,,,2021-10-25,1,,,,,ワヲン,0
674,3040001120724,新規,0,2021-10-25,2021-10-25,株式会社Ｒｅｒａｙｚ,,株式会社,千葉県,鎌ケ谷市,初富８００ー２４７,,12,224,2730121,,,,,,,2021-10-25,1,,,,,リレイズ,0
675,3040001120732,新規,0,2021-10-25,2021-10-25,株式会社フィールド,,株式会社,千葉県,浦安市,入船１丁目５番２号５Ｆ,,12,227,2790012,,,,,,,2021-10-25,1,,,,,フィールド,0
676,3040001120740,新規,0,2021-10-25,2021-10-25,株式会社種子島,,株式会社,千葉県,木更津市,潮見４丁目４－１－２Ｆ,,12,206,2920834,,,,,,,2021-10-25,1,,,,,タネガシマ,0
679,3040003018792,新規,0,2021-10-25,2021-10-25,合同会社ティエムディ,,合同会社,千葉県,浦安市,猫実５丁目１８－１,,12,227,2790004,,,,,,,2021-10-25,1,,,,,ティエムディ,0
680,3040003018801,新規,0,2021-10-25,2021-10-25,Ｓａｎｗａ　Ｔｒａｄｅ　Ｉｎｔｅｒｎａｔｉｏｎａｌ合同会社,,合同会社,千葉県,山武郡横芝光町,上原６５４番地１９,,12,410,2891723,,,,,,,2021-10-25,1,,,,,サンワトレードインターナショナル,0
683,3040005021398,新規,0,2021-10-25,2021-10-25,医療法人社団笑空会,,その他の設立登記法人,千葉県,八千代市,緑が丘西３丁目８番地１０,,12,221,2760040,,,,,,,2021-10-25,1,,,,,エソラカイ,0
696,3080001024525,新規,0,2021-10-25,2021-10-25,梱包静岡株式会社,,株式会社,静岡県,静岡市葵区,与一３丁目１５－１６,,22,101,4200949,,,,,,,2021-10-25,1,,,,,コンポウシズオカ,0
699,3080101022866,新規,0,2021-10-25,2021-10-25,株式会社Ｐｅｒｓｐｅｃｔｉｖｅ,,株式会社,静岡県,伊豆市,本立野９８番地の２,,22,222,4102414,,,,,,,2021-10-25,1,,,,,パースペクティヴ,0
701,3100001034752,新規,0,2021-10-25,2021-10-25,株式会社栃の実,,株式会社,長野県,長野市,吉田１丁目１６番３３号オーチャード吉田Ｓ棟１０２,,20,201,3810043,,,,,,,2021-10-25,1,,,,,トチノミ,0
707,3110001036137,新規,0,2021-10-25,2021-10-25,株式会社ファーストガレージタニエ,,株式会社,新潟県,三条市,西本成寺２丁目９番３２号,,15,204,9550845,,,,,,,2021-10-25,1,,,,,ファーストガレージタニエ,0
720,3120001241339,新規,0,2021-10-25,2021-10-25,株式会社Ｒｉｍ．ＨＶＡＣ,,株式会社,大阪府,寝屋川市,太間町１６番３５号,,27,215,5720078,,,,,,,2021-10-25,1,,,,,リムバック,0
725,3120101064532,新規,0,2021-10-25,2021-10-25,株式会社谷電化,,株式会社,大阪府,羽曳野市,羽曳が丘３丁目５番２６号,,27,222,5830864,,,,,,,2021-10-25,1,,,,,タニデンカ,0
726,3120101064540,新規,0,2021-10-25,2021-10-25,青葉鉄鋼株式会社,,株式会社,大阪府,南河内郡太子町,聖和台３丁目１２番地の７,,27,381,5830996,,,,,,,2021-10-25,1,,,,,アオバテッコウ,0
727,3120105009467,新規,0,2021-10-25,2021-10-25,一般社団法人阿坂墓地管理委員会,,その他の設立登記法人,大阪府,堺市北区,北花田町４丁６８番地,,27,146,5918002,,,,,,,2021-10-25,1,,,,,アサカボチカンリイインカイ,0
731,3120903003885,新規,0,2021-10-25,2021-10-25,合同会社ＨＩＢＡＲＩ,,合同会社,大阪府,吹田市,南清和園町４１番１１－４号,,27,205,5640038,,,,,,,2021-10-25,1,,,,,ヒバリ,0
732,3122001035290,新規,0,2021-10-25,2021-10-25,株式会社イエトチ,,株式会社,大阪府,八尾市,曙川東４丁目１３４番地,00124662,27,212,5810020,,,,,,,2021-10-25,1,,,,,イエトチ,0
733,3122003002198,新規,0,2021-10-25,2021-10-25,合同会社ｉｔ,,合同会社,大阪府,東大阪市,下六万寺町３丁目８番５２－７０６号,,27,227,5798066,,,,,,,2021-10-25,1,,,,,イット,0
738,3140001123592,新規,0,2021-10-25,2021-10-25,阪神医療サービス株式会社,,株式会社,兵庫県,芦屋市,岩園町２４番１８号,,28,206,6590013,,,,,,,2021-10-25,1,,,,,ハンシンイリョウサービス,0
740,3140003016885,新規,0,2021-10-25,2021-10-25,合同会社ａａｎ．,,合同会社,兵庫県,神戸市中央区,磯上通８丁目１番２９号カサベラビルＣ＆Ｍ４０３号室,,28,110,6510086,,,,,,,2021-10-25,1,,,,,エーエーエヌドット,0
741,3140003016902,新規,0,2021-10-25,2021-10-25,合同会社川西労務管理,,合同会社,兵庫県,川西市,小戸２丁目５番４－３０３号,,28,217,6660014,,,,,,,2021-10-25,1,,,,,カワニシロウムカンリ,0
743,3160003002413,新規,0,2021-10-25,2021-10-25,ＴＮ＆Ｔ　Ｓｏｌｕｔｉｏｎｓ合同会社,,合同会社,滋賀県,守山市,二町町５４番地１１,,25,207,5240043,,,,,,,2021-10-25,1,,,,,ティエヌアンドティソリューションズ,0
755,3180001148438,新規,0,2021-10-25,2021-10-25,株式会社吉継,,株式会社,愛知県,名古屋市緑区,大清水２丁目６１３番地,,23,114,4580805,,,,,,,2021-10-25,1,,,,,ヨシツグ,0
769,3190003003805,新規,0,2021-10-25,2021-10-25,合同会社Ｌｉｎｋ,,合同会社,三重県,四日市市,伊倉１丁目１番８号,,24,202,5100832,,,,,,,2021-10-25,1,,,,,リンク,0
773,3230001019047,新規,0,2021-10-25,2021-10-25,株式会社ＭＣＲ富山,,株式会社,富山県,富山市,針原中町８８５番地５,,16,201,9318431,,,,,,,2021-10-25,1,,,,,エムシーアールトヤマ,0
778,3240001058812,新規,0,2021-10-25,2021-10-25,株式会社ＥＳＭ,,株式会社,広島県,東広島市,西条町寺家１８４５番地１プラネットＤ棟１０３,,34,212,7390041,,,,,,,2021-10-25,1,,,,,,0
798,3290001095116,新規,0,2021-10-25,2021-10-25,株式会社るるふる,,株式会社,福岡県,糸島市,板持５８９番地１８,,40,230,8191101,,,,,,,2021-10-25,1,,,,,ルルフル,0
799,3290001095132,新規,0,2021-10-25,2021-10-25,株式会社ＴｏｍｏＦｕｒｕ,,株式会社,福岡県,大牟田市,三里町３丁目８－１５,,40,202,8360076,,,,,,,2021-10-25,1,,,,,トモフル,0
803,3290801027929,新規,0,2021-10-25,2021-10-25,株式会社レアル,,株式会社,福岡県,田川郡福智町,神崎９６１番地１,,40,610,8221202,,,,,,,2021-10-25,1,,,,,レアル,0
809,3330001029102,新規,0,2021-10-25,2021-10-25,田熊不動産株式会社,,株式会社,熊本県,熊本市中央区,紺屋今町２番２３号,,43,101,8600012,,,,,,,2021-10-25,1,,,,,タグマフドウサン,0
813,3330003009102,新規,0,2021-10-25,2021-10-25,合同会社岩永本店,,合同会社,熊本県,阿蘇郡小国町,大字宮原１７８２番地２,,43,424,8692501,,,,,,,2021-10-25,1,,,,,イワナガホンテン,0
821,3350001017377,新規,0,2021-10-25,2021-10-25,フクダオートサービス株式会社,,株式会社,宮崎県,日南市,南郷町中村乙９３５番地１,,45,204,8893204,,,,,,,2021-10-25,1,,,,,フクダオートサービス,0
822,3360003011518,新規,0,2021-10-25,2021-10-25,合同会社フロム宮古島オンライン,,合同会社,沖縄県,宮古島市,平良字東仲宗根添１５３２－１１７,,47,214,9060011,,,,,,,2021-10-25,1,,,,,フロムミヤコジマオンライン,0
823,3360005006540,新規,0,2021-10-25,2021-10-25,一般社団法人輝き,,その他の設立登記法人,沖縄県,那覇市,辻２丁目７番４号,00124660,47,201,9000037,,,,,,,2021-10-25,1,,,,,カガヤキ,0
832,3390003001887,新規,0,2021-10-25,2021-10-25,合同会社ボデーショップ阿部,,合同会社,山形県,酒田市,卸町２番地の３,,06,204,9980823,,,,,,,2021-10-25,1,,,,,ボデーショップアベ,0
839,3420001017634,新規,0,2021-10-25,2021-10-25,株式会社はぴらい,,株式会社,青森県,青森市,富田２丁目２２番７０号,,02,201,0380004,,,,,,,2021-10-25,1,,,,,ハピライ,0
843,3430001085234,新規,0,2021-10-25,2021-10-25,Ｎ’ｓ　ＥＮＴＥＲＴＡＩＮＭＥＮＴ株式会社,,株式会社,北海道,札幌市東区,北十九条東１５丁目５番１８－３０１号,,01,103,0650019,,,,,,,2021-10-25,1,,,,,エヌズエンタテインメント,0
845,3430003013275,新規,0,2021-10-25,2021-10-25,Ｆ．ｌｉｅｎ合同会社,,合同会社,北海道,札幌市中央区,南六条西３丁目６番地４,,01,101,0640806,,,,,,,2021-10-25,1,,,,,エフドットリアン,0
846,3430003013283,新規,0,2021-10-25,2021-10-25,合同会社ヒュークル,,合同会社,北海道,札幌市豊平区,月寒西一条８丁目３番６号ユニゾン月寒西１０２号,,01,105,0620021,,,,,,,2021-10-25,1,,,,,ヒュークル,0
847,3450001013515,新規,0,2021-10-25,2021-10-25,株式会社龍菌,,株式会社,北海道,天塩郡天塩町,字サラキシ３０３番地の２,,01,487,0983300,,,,,,,2021-10-25,1,,,,,リュウキン,0
850,3470001018792,新規,0,2021-10-25,2021-10-25,ライフサービス株式会社,,株式会社,香川県,高松市,国分寺町新居５０番地３,,37,201,7690101,,,,,,,2021-10-25,1,,,,,ライフサービス,0
862,4010001221986,新規,0,2021-10-25,2021-10-25,株式会社トレンドソリューションズ,,株式会社,東京都,千代田区,有楽町２丁目２番１号Ｘ－ＰＲＥＳＳ有楽町７階,,13,101,1000006,,,,,,,2021-10-25,1,,,,,トレンドソリューションズ,0
870,4010403026389,新規,0,2021-10-25,2021-10-25,合同会社大通ホテル運営,,合同会社,東京都,港区,虎ノ門５丁目１番４号,,13,103,1050001,,,,,,,2021-10-25,1,,,,,オオドオリホテルウンエイ,0
881,4010801032427,新規,0,2021-10-25,2021-10-25,株式会社日踊アカデミ,,株式会社,東京都,大田区,田園調布２丁目５３番８号,,13,111,1450071,,,,,,,2021-10-25,1,,,,,ニチヨウアカデミ,0
887,4010901049668,新規,0,2021-10-25,2021-10-25,株式会社ＦＵＮＤＦＯＯＤ,,株式会社,東京都,世田谷区,尾山台３丁目２２番４号マンヤスビル０２２号室,,13,112,1580086,,,,,,,2021-10-25,1,,,,,ファンドフード,0
888,4010901049676,新規,0,2021-10-25,2021-10-25,株式会社ｔａｋａｒａｍｏｎｏ．,,株式会社,東京都,世田谷区,上北沢５丁目１３番３－１０４号,,13,112,1560057,,,,,,,2021-10-25,1,,,,,タカラモノ,0
893,4011003013604,新規,0,2021-10-25,2021-10-25,合同会社ＬｏｓＦａｍｉｌｙ,,合同会社,東京都,渋谷区,神宮前６丁目２３番４号桑野ビル２階,,13,113,1500001,,,,,,,2021-10-25,1,,,,,ロスファミリー,0
899,4011101096682,新規,0,2021-10-25,2021-10-25,ＣＲＯＳＳＩＮＧ　ＩＮＴＥＲＮＡＴＩＯＮＡＬ株式会社,,株式会社,東京都,新宿区,中井２丁目１９番１号,,13,104,1610035,,,,,,,2021-10-25,1,,,,,クロッシングインターナショナル,0
902,4011601025488,新規,0,2021-10-25,2021-10-25,株式会社ａｙａ,,株式会社,東京都,練馬区,練馬１丁目２番１１号丸一ビル３Ｆ,,13,120,1760001,,,,,,,2021-10-25,1,,,,,アヤ,0
903,4011603003418,新規,0,2021-10-25,2021-10-25,ハイパーポート合同会社,,合同会社,東京都,練馬区,豊玉北４丁目２－１６,,13,120,1760012,,,,,,,2021-10-25,1,,,,,ハイパーポート,0
910,4012401038449,新規,0,2021-10-25,2021-10-25,株式会社けやきヒルズ,,株式会社,東京都,調布市,飛田給１丁目２４番地１,,13,208,1820036,,,,,,,2021-10-25,1,,,,,ケヤキヒルズ,0
927,4020001143593,新規,0,2021-10-25,2021-10-25,株式会社フジファクトリー,,株式会社,神奈川県,川崎市多摩区,寺尾台２丁目８番地１、２－３０５,,14,135,2140005,,,,,,,2021-10-25,1,,,,,フジファクトリー,0
931,4021001074283,新規,0,2021-10-25,2021-10-25,株式会社ＪＴＡＲプランニング,,株式会社,神奈川県,藤沢市,川名１８１番地の１８Ｄ－１０２,,14,205,2510015,,,,,,,2021-10-25,1,,,,,ジェイティーエーアールプランニング,0
932,4021001074291,新規,0,2021-10-25,2021-10-25,株式会社高橋架設,00124654,株式会社,神奈川県,大和市,林間２丁目２２－１２キャロットハイツＢ３０２,,14,213,2420003,,,,,,,2021-10-25,1,,,,,タカハシカセツ,0
934,4021003011012,新規,0,2021-10-25,2021-10-25,合同会社タカショウ,,合同会社,神奈川県,茅ヶ崎市,浜須賀１６番１７号,,14,207,2530035,,,,,,,2021-10-25,1,,,,,タカショウ,0
935,4021003011020,新規,0,2021-10-25,2021-10-25,合同会社カープレミアム,,合同会社,神奈川県,大和市,中央林間西５丁目８番４号,,14,213,2420008,,,,,,,2021-10-25,1,,,,,カープレミアム,0
944,4030001144938,新規,0,2021-10-25,2021-10-25,株式会社Ｋ．Ｋ工業,,株式会社,埼玉県,さいたま市北区,櫛引町２丁目２２１番地,,11,102,3310825,,,,,,,2021-10-25,1,,,,,ケーケーコウギョウ,0
945,4030001144946,新規,0,2021-10-25,2021-10-25,スカイサポートサービス株式会社,,株式会社,埼玉県,入間郡三芳町,大字上富４２９番地３０,,11,324,3540045,,,,,,,2021-10-25,1,,,,,スカイサポートサービス,0
946,4030001144954,新規,0,2021-10-25,2021-10-25,騰旭株式会社,,株式会社,埼玉県,川口市,並木元町２番７－７０１号川口並木町ビル,,11,203,3320033,,,,,,,2021-10-25,1,,,,,トウキョク,0
949,4030003018173,新規,0,2021-10-25,2021-10-25,合同会社教育コンテンツファクトリー,,合同会社,埼玉県,川口市,川口２丁目１７番４８－３０４号,,11,203,3320015,,,,,,,2021-10-25,1,,,,,キョウイクコンテンツファクトリー,0
958,4040001120517,新規,0,2021-10-25,2021-10-25,株式会社ＳＲＦ,,株式会社,千葉県,柏市,若柴１７８番地４柏の葉キャンパス１４８街区２パークアクシス柏の葉１００４号,,12,217,2770871,,,,,,,2021-10-25,1,,,,,エスアールエフ,0
959,4040001120715,新規,0,2021-10-25,2021-10-25,ＪＤＭ　ＰＡＲＴＳ株式会社,,株式会社,千葉県,四街道市,美しが丘１丁目３１番６号Ｂ２０２,,12,228,2840045,,,,,,,2021-10-25,1,,,,,ジェイディーエムパーツ,0
960,4040001120731,新規,0,2021-10-25,2021-10-25,株式会社ワイズガレージ,,株式会社,千葉県,柏市,松葉町５丁目１番地１－７棟５０２号,,12,217,2770827,,,,,,,2021-10-25,1,,,,,ワイズガレージ,0
967,4040003018800,新規,0,2021-10-25,2021-10-25,合同会社フォルトゥーナ,,合同会社,千葉県,松戸市,高塚新田２８３番地の１３,00124655,12,207,2702222,,,,,,,2021-10-25,1,,,,,フォルトゥーナ,0
972,4080101022857,新規,0,2021-10-25,2021-10-25,株式会社Ｋ’ｓサービス,,株式会社,静岡県,熱海市,銀座町５番１０号,,22,205,4130013,,,,,,,2021-10-25,1,,,,,ケーズサービス,0
976,4080403004396,新規,0,2021-10-25,2021-10-25,合同会社野いちごの森,,合同会社,静岡県,磐田市,福田１２１３番地,,22,211,4371203,,,,,,,2021-10-25,1,,,,,ノイチゴノモリ,0
982,4100001034751,新規,0,2021-10-25,2021-10-25,富士見林業株式会社,,株式会社,長野県,諏訪郡富士見町,富士見１０７３０番地１,,20,362,3990211,,,,,,,2021-10-25,1,,,,,フジミリンギョウ,0
997,4120101064531,新規,0,2021-10-25,2021-10-25,株式会社Ａｉｒｔｙ,,株式会社,大阪府,堺市北区,野遠町５８番地１７,,27,146,5918013,,,,,,,2021-10-25,1,,,,,エアティ,0
1002,4120901045094,新規,0,2021-10-25,2021-10-25,株式会社ＰＮＥ　Ｇｒｏｕｐ,,株式会社,大阪府,吹田市,長野東１６－５フェスタビル３０２,,27,205,5650816,,,,,,,2021-10-25,1,,,,,ピーエヌイーグループ,0
1004,4122001035281,新規,0,2021-10-25,2021-10-25,株式会社バリューファクトリー,,株式会社,大阪府,八尾市,東弓削２丁目５６番地,,27,212,5810029,,,,,,,2021-10-25,1,,,,,バリューファクトリー,0
1009,4130001070397,新規,0,2021-10-25,2021-10-25,株式会社吉美,,株式会社,京都府,舞鶴市,行永東町１７番地の３,,26,202,6250051,,,,,,,2021-10-25,1,,,,,ヨシミ,0
1013,4140001123591,新規,0,2021-10-25,2021-10-25,株式会社よろこばせ隊,,株式会社,兵庫県,芦屋市,山芦屋町５番１８－２号,00124663,28,206,6590082,,,,,,,2021-10-25,1,,,,,ヨロコバセタイ,0
1014,4140001123600,新規,0,2021-10-25,2021-10-25,株式会社Ｔａｂｂｙ,,株式会社,兵庫県,神戸市長田区,雲雀ケ丘３丁目６番３－４０３号,,28,106,6530879,,,,,,,2021-10-25,1,,,,,タビー,0
1015,4140001123609,新規,0,2021-10-25,2021-10-25,オザキ商事株式会社,,株式会社,兵庫県,川西市,火打１丁目２番１－１１０１号,,28,217,6660017,,,,,,,2021-10-25,1,,,,,オザキショウジ,0
1017,4150001025044,新規,0,2021-10-25,2021-10-25,株式会社サクライ,,株式会社,奈良県,五條市,大野新田町２３５番地の１,,29,207,6370015,,,,,,,2021-10-25,1,,,,,サクライ,0
1020,4160001023749,新規,0,2021-10-25,2021-10-25,株式会社Ｃｏｒｅ,,株式会社,滋賀県,野洲市,小篠原２２１３番地４,,25,210,5202331,,,,,,,2021-10-25,1,,,,,コア,0
1030,4230001019046,新規,0,2021-10-25,2021-10-25,株式会社ＰＢＣ,,株式会社,富山県,中新川郡立山町,江崎６番地１,,16,323,9303267,,,,,,,2021-10-25,1,,,,,ピービーシー,0
1049,4290001095107,新規,0,2021-10-25,2021-10-25,アセット横浜紫株式会社,,株式会社,福岡県,みやま市,高田町濃施１２８番地１２,,40,229,8390215,,,,,,,2021-10-25,1,,,,,アセットヨコハマシ,0
1050,4290001095115,新規,0,2021-10-25,2021-10-25,株式会社Ｒｅｌｉ,,株式会社,福岡県,福岡市東区,香住ヶ丘２丁目１６番２０－５０２号,,40,131,8130003,,,,,,,2021-10-25,1,,,,,リィリ,0
1051,4290001095123,新規,0,2021-10-25,2021-10-25,株式会社ソルエスペランサ,,株式会社,福岡県,福岡市東区,青葉２丁目１９番６号,,40,131,8130025,,,,,,,2021-10-25,1,,,,,ソルエスペランサ,0
1058,4320003003641,新規,0,2021-10-25,2021-10-25,合同会社ｂｌａｃｏ．,,合同会社,大分県,大分市,中央町１丁目５番２３号ミチコビル６Ｆ,,44,201,8700035,,,,,,,2021-10-25,1,,,,,ブラコ,0
1069,4360003011517,新規,0,2021-10-25,2021-10-25,合同会社ＢＳ　Ｊａｐａｎ　Ｃｏｒｐｏｒａｔｉｏｎ,,合同会社,沖縄県,那覇市,壺屋１丁目２７番１１号グランドールまえ城３－Ａ,,47,201,9020065,,,,,,,2021-10-25,1,,,,,ビーエスジャパンコーポレーション,0
1076,4380001032281,新規,0,2021-10-25,2021-10-25,株式会社田口設計事務所,,株式会社,福島県,石川郡石川町,大字双里字赤沼１９番地の３,,07,501,9637808,,,,,,,2021-10-25,1,,,,,タグチセッケイジムショ,0
1086,4430003013274,新規,0,2021-10-25,2021-10-25,合同会社ＡＳＫ,,合同会社,北海道,札幌市東区,東苗穂五条３丁目３番５０号,,01,103,0070805,,,,,,,2021-10-25,1,,,,,エーエスケー,0
1088,4460001005618,新規,0,2021-10-25,2021-10-25,株式会社プロサポ,,株式会社,北海道,釧路市,新富町４番３号,,01,206,0850004,,,,,,,2021-10-25,1,,,,,プロサポ,0
1089,4460101007076,新規,0,2021-10-25,2021-10-25,株式会社ルートウイング,,株式会社,北海道,帯広市,西九条南１２丁目２番地１八条コーポ６０７,,01,207,0800019,,,,,,,2021-10-25,1,,,,,ルートウイング,0
1092,4470001018783,新規,0,2021-10-25,2021-10-25,株式会社シーフォレスト,,株式会社,香川県,高松市,高松町２５９４番地８,,37,201,7610104,,,,,,,2021-10-25,1,,,,,シーフォレスト,0
1105,5010001222059,新規,0,2021-10-25,2021-10-25,スイングバイエージェント株式会社,,株式会社,東京都,中央区,京橋２丁目１２番９号,,13,102,1040031,,,,,,,2021-10-25,1,,,,,スイングバイエージェント,0
1108,5010003036102,新規,0,2021-10-25,2021-10-25,徳信合同会社,,合同会社,東京都,中央区,晴海２丁目３番３０－４８１０号,,13,102,1040053,,,,,,,2021-10-25,1,,,,,トクシン,0
1110,5010105002134,新規,0,2021-10-25,2021-10-25,特定非営利活動法人ピアスマイル,,その他の設立登記法人,東京都,八王子市,松木１３番地２４,,13,201,1920362,,,,,,,2021-10-25,1,,,,,ピアスマイル,0
1121,5010401163456,新規,0,2021-10-25,2021-10-25,株式会社Ｏｍｎｉｓｃｉｅｎｔ　ＡＩ,,株式会社,東京都,港区,三田１丁目２番１８号ＴＴＤビル,,13,103,1080073,,,,,,,2021-10-25,1,,,,,オムニサイエントエイアイ,0
1124,5010403026388,新規,0,2021-10-25,2021-10-25,合同会社大通ホテル管理,,合同会社,東京都,港区,虎ノ門５丁目１番４号,,13,103,1050001,,,,,,,2021-10-25,1,,,,,オオドオリホテルカンリ,0
1137,5010901049659,新規,0,2021-10-25,2021-10-25,楽玩株式会社,,株式会社,東京都,世田谷区,世田谷１丁目４１番２号,,13,112,1540017,,,,,,,2021-10-25,1,,,,,ラクガン,0
1138,5010901049667,新規,0,2021-10-25,2021-10-25,株式会社ｍａｍｉｔａ,,株式会社,東京都,世田谷区,下馬１丁目２７番７号,,13,112,1540002,,,,,,,2021-10-25,1,,,,,マミータ,0
1141,5011001143583,新規,0,2021-10-25,2021-10-25,株式会社ＢＳＣ,,株式会社,東京都,目黒区,下目黒２丁目２３番２１－１１０５号,,13,110,1530064,,,,,,,2021-10-25,1,,,,,ビーエスシー,0
1148,5011101096665,新規,0,2021-10-25,2021-10-25,株式会社ベースカンパニー,,株式会社,東京都,新宿区,高田馬場４丁目１８番１０－８０１号,,13,104,1690075,,,,,,,2021-10-25,1,,,,,ベースカンパニー,0
1149,5011103011102,新規,0,2021-10-25,2021-10-25,Ｒｅｅｍａｎ　Ｒｏｂｏｔｉｃｓ　Ｓｅｒｖｉｃｅ合同会社,,合同会社,東京都,新宿区,大久保１丁目１－４５,,13,104,1690072,,,,,,,2021-10-25,1,,,,,,0
1158,5011701024793,新規,0,2021-10-25,2021-10-25,ＳＫＴユアサ株式会社,,株式会社,東京都,江戸川区,松江５丁目２８番１３号,,13,123,1320025,,,,,,,2021-10-25,1,,,,,エスケーティーユアサ,0
1162,5011803004842,新規,0,2021-10-25,2021-10-25,合同会社Ｔ－ＭＡＸ　Ｐｌａｎｎｉｎｇ,,合同会社,東京都,葛飾区,西新小岩３丁目３８番地５号,,13,122,1240025,,,,,,,2021-10-25,1,,,,,ティーマックスプランニング,0
1171,5013301048198,新規,0,2021-10-25,2021-10-25,株式会社恩田レジデンス,,株式会社,東京都,豊島区,池袋２丁目４９－１０フロムワン恩田ビル７階,,13,116,1710014,,,,,,,2021-10-25,1,,,,,オンダレジデンス,0
1179,5020001143601,新規,0,2021-10-25,2021-10-25,日本有機穀物株式会社,,株式会社,神奈川県,横浜市戸塚区,戸塚町３９７０番地,,14,110,2440003,,,,,,,2021-10-25,1,,,,,ニホンユウキコクモツ,0
1184,5021001074299,新規,0,2021-10-25,2021-10-25,Ｔｒｉｎｉｔｙ　Ｌａｂｓ株式会社,,株式会社,神奈川県,茅ヶ崎市,浜竹１丁目１番３０－１号,,14,207,2530021,,,,,,,2021-10-25,1,,,,,トリニティラブス,0
1196,5030001144937,新規,0,2021-10-25,2021-10-25,埼北運輸機工株式会社,,株式会社,埼玉県,加須市,久下１６７０番地３,,11,210,3470063,,,,,,,2021-10-25,1,,,,,サイホクウンユキコウ,0
1197,5030001144945,新規,0,2021-10-25,2021-10-25,株式会社ＢＥＣＯ,,株式会社,埼玉県,草加市,谷塚１丁目２１番１－１１０,,11,221,3400028,,,,,,,2021-10-25,1,,,,,ベコ,0
1198,5030001144953,新規,0,2021-10-25,2021-10-25,株式会社秋栄,,株式会社,埼玉県,入間郡三芳町,大字竹間沢９８４番地,,11,324,3540043,,,,,,,2021-10-25,1,,,,,シュウエイ,0
1199,5030001144961,新規,0,2021-10-25,2021-10-25,株式会社ＭＡＤ　ＣＨＥＦｓ,,株式会社,埼玉県,川越市,中台南２丁目３番地２５,,11,201,3501150,,,,,,,2021-10-25,1,,,,,マッドシェフ,0
1203,5030003018172,新規,0,2021-10-25,2021-10-25,合同会社大柚不動産,,合同会社,埼玉県,川越市,旭町２丁目１番地７,,11,201,3501126,,,,,,,2021-10-25,1,,,,,オオユウフドウサン,0
1205,5040001120680,新規,0,2021-10-25,2021-10-25,株式会社ギャラクシーコーポレーション,,株式会社,千葉県,船橋市,松が丘１丁目５５番１１号,,12,204,2740064,,,,,,,2021-10-25,1,,,,,ギャラクシーコーポレーション,0
1206,5040001120722,新規,0,2021-10-25,2021-10-25,株式会社ヒルコスインターナショナル,,株式会社,千葉県,千葉市中央区,松波３丁目１８－４,,12,101,2600044,,,,,,,2021-10-25,1,,,,,ヒルコスインターナショナル,0
1207,5040001120739,新規,0,2021-10-25,2021-10-25,株式会社アメイジング,,株式会社,千葉県,富里市,日吉台６丁目１１番地２,,12,233,2860201,,,,,,,2021-10-25,1,,,,,アメイジング,0
1208,5040001120747,新規,0,2021-10-25,2021-10-25,ＳＢＫサンクス株式会社,,株式会社,千葉県,東金市,川場１１２５番地２,,12,213,2830064,,,,,,,2021-10-25,1,,,,,,0
1214,5040003018799,新規,0,2021-10-25,2021-10-25,Ａｉｓ合同会社,,合同会社,千葉県,佐倉市,染井野５丁目１２番地２,,12,212,2850831,,,,,,,2021-10-25,1,,,,,アイズ,0
1222,5060003003840,新規,0,2021-10-25,2021-10-25,ＳＥＰＴ合同会社,,合同会社,栃木県,佐野市,植下町１１０３番地,,09,204,3270835,,,,,,,2021-10-25,1,,,,,,0
1223,5080003002667,新規,0,2021-10-25,2021-10-25,合同会社エムシー,,合同会社,静岡県,静岡市葵区,吉野町４番７号,,22,101,4200046,,,,,,,2021-10-25,1,,,,,エムシー,0
1225,5080101022856,新規,0,2021-10-25,2021-10-25,カクナイ株式会社,,株式会社,静岡県,熱海市,下多賀１４５５番地の４,,22,205,4130102,,,,,,,2021-10-25,1,,,,,カクナイ,0
1238,5120001241345,新規,0,2021-10-25,2021-10-25,グランジュテ株式会社,,株式会社,大阪府,大阪市北区,万歳町５番１２－２００７号,,27,127,5300028,,,,,,,2021-10-25,1,,,,,グランジュテ,0
1239,5120001241353,新規,0,2021-10-25,2021-10-25,株式会社白星,,株式会社,大阪府,大阪市生野区,生野西２丁目１番３０号,,27,116,5440024,,,,,,,2021-10-25,1,,,,,シロボシ,0
1247,5120101064539,新規,0,2021-10-25,2021-10-25,株式会社Ｔ＆Ｍ,,株式会社,大阪府,松原市,北新町４丁目１６０番地の１,,27,217,5800025,,,,,,,2021-10-25,1,,,,,ティーアンドエム,0
1254,5130001070388,新規,0,2021-10-25,2021-10-25,株式会社オルソスマイル,,株式会社,京都府,京都市西京区,山田大吉見町５番地１２,,26,111,6158236,,,,,,,2021-10-25,1,,,,,オルソスマイル,0
1262,5140001123590,新規,0,2021-10-25,2021-10-25,トキ商事株式会社,,株式会社,兵庫県,神戸市東灘区,魚崎中町３丁目５番５－１０１号,,28,101,6580083,,,,,,,2021-10-25,1,,,,,トキショウジ,0
1268,5140003016891,新規,0,2021-10-25,2021-10-25,合同会社ＴＭＺ,,合同会社,兵庫県,神戸市東灘区,向洋町中１丁目１４イーストコート２番街ビジネスセンター,,28,101,6580032,,,,,,,2021-10-25,1,,,,,ティエムゼット,0
1269,5140005025866,新規,0,2021-10-25,2021-10-25,一般社団法人韓国芸能文化振興協会,,その他の設立登記法人,兵庫県,神戸市中央区,琴ノ緒町５丁目７番２０号明花ビル４階,,28,110,6510094,,,,,,,2021-10-25,1,,,,,カンコクゲイノウブンカシンコウキョウカイ,0
1271,5150001025043,新規,0,2021-10-25,2021-10-25,株式会社Ａ－ｐｌａｎ,,株式会社,奈良県,香芝市,高山台２丁目２９番地１４,,29,210,6390256,,,,,,,2021-10-25,1,,,,,エープラン,0
1283,5180001148411,新規,0,2021-10-25,2021-10-25,慶アソシエイト株式会社,,株式会社,愛知県,愛西市,須依町庄屋敷８番地１,,23,232,4960902,,,,,,,2021-10-25,1,,,,,ケイアソシエイト,0
1284,5180001148428,新規,0,2021-10-25,2021-10-25,株式会社ＮＫＣ,,株式会社,愛知県,名古屋市中川区,好本町２丁目７７番地の１－２０１号,,23,110,4540825,,,,,,,2021-10-25,1,,,,,エヌケーシー,0
1285,5180001148436,新規,0,2021-10-25,2021-10-25,株式会社武田事務所,,株式会社,愛知県,名古屋市西区,菊井１丁目１番２号,,23,104,4510044,,,,,,,2021-10-25,1,,,,,タケダジムショ,0
1288,5180003023109,新規,0,2021-10-25,2021-10-25,合同会社アーリーバード,,合同会社,愛知県,名古屋市中区,丸の内１丁目１０番２５号,,23,106,4600002,,,,,,,2021-10-25,1,,,,,アーリーバード,0
1289,5180301035540,新規,0,2021-10-25,2021-10-25,中部エレックス株式会社,,株式会社,愛知県,刈谷市,一ツ木町１丁目６番地１２,,23,210,4480003,,,,,,,2021-10-25,1,,,,,チュウブエレックス,0
1290,5180301035549,新規,0,2021-10-25,2021-10-25,株式会社抜水,,株式会社,愛知県,蒲郡市,竹谷町油井浜１７番地９,,23,214,4430046,,,,,,,2021-10-25,1,,,,,ヌキミズ,0
1294,5190001028793,新規,0,2021-10-25,2021-10-25,ＡＭＭ株式会社,,株式会社,三重県,伊賀市,希望ヶ丘西５丁目４番６号,,24,216,5191423,,,,,,,2021-10-25,1,,,,,エーエムエム,0
1307,5230001019045,新規,0,2021-10-25,2021-10-25,株式会社よろず屋大吉,,株式会社,富山県,富山市,水橋伊勢屋１７６番地１,,16,201,9393524,,,,,,,2021-10-25,1,,,,,ヨロズヤダイキチ,0
1308,5230001019053,新規,0,2021-10-25,2021-10-25,株式会社ＬＩＮＫ,,株式会社,富山県,富山市,布瀬本町１３番地１アネックス１０３号,,16,201,9398207,,,,,,,2021-10-25,1,,,,,リンク,0
1326,5290001095056,新規,0,2021-10-25,2021-10-25,株式会社ヤマダグリーン匠,,株式会社,福岡県,福岡市西区,今宿青木２５番地５,,40,135,8190162,,,,,,,2021-10-25,1,,,,,ヤマダグリーンタクミ,0
1327,5290001095130,新規,0,2021-10-25,2021-10-25,株式会社アンドリンク一級建築士事務所,,株式会社,福岡県,太宰府市,通古賀６丁目９番１１号,,40,221,8180104,,,,,,,2021-10-25,1,,,,,アンドリンクイッキュウケンチクシジムショ,0
1331,5290801027927,新規,0,2021-10-25,2021-10-25,株式会社住心,,株式会社,福岡県,遠賀郡岡垣町,海老津駅南２丁目１番３０号,,40,383,8114238,,,,,,,2021-10-25,1,,,,,ジュウシン,0
1334,5310003004193,新規,0,2021-10-25,2021-10-25,合同会社太久庵,,合同会社,長崎県,大村市,原口町１１５９番地１４,,42,205,8560811,,,,,,,2021-10-25,1,,,,,タクアン,0
1335,5320003003640,新規,0,2021-10-25,2021-10-25,合同会社スナイチ,,合同会社,大分県,大分市,大字城原字熊本１７２４番地,,44,201,8700267,,,,,,,2021-10-25,1,,,,,スナイチ,0
1341,5360001029543,新規,0,2021-10-25,2021-10-25,株式会社ブリッツ,,株式会社,沖縄県,宮古島市,平良字下里１５３６番地３スクエアビル５－Ａ,,47,214,9060013,,,,,,,2021-10-25,1,,,,,ブリッツ,0
1354,5420001017632,新規,0,2021-10-25,2021-10-25,株式会社ＳＵＰＥＲＢＥ,,株式会社,青森県,弘前市,大字南富田町４番地５,,02,202,0368172,,,,,,,2021-10-25,1,,,,,シュパーブ,0
1358,5430001085224,新規,0,2021-10-25,2021-10-25,株式会社ＭＫＴ,,株式会社,北海道,札幌市白石区,川下７３１番地７,,01,104,0030869,,,,,,,2021-10-25,1,,,,,エムケーティー,0
1359,5440001008968,新規,0,2021-10-25,2021-10-25,株式会社奥尻島,,株式会社,北海道,奥尻郡奥尻町,字奥尻２６５番地１,,01,367,0431401,,,,,,,2021-10-25,1,,,,,オクシリトウ,0
1365,5460101007075,新規,0,2021-10-25,2021-10-25,株式会社Ｎ－ＳＭＩＬＥ,,株式会社,北海道,帯広市,大通南１丁目５番地,,01,207,0800010,,,,,,,2021-10-25,1,,,,,エヌスマイル,0
1379,6010001221992,新規,0,2021-10-25,2021-10-25,株式会社アプリシティ,,株式会社,東京都,中央区,入船３丁目１番１３号,,13,102,1040042,,,,,,,2021-10-25,1,,,,,アプリシティ,0
1380,6010001222058,新規,0,2021-10-25,2021-10-25,スイングバイパートナーズ株式会社,,株式会社,東京都,中央区,京橋２丁目１２番９号,,13,102,1040031,,,,,,,2021-10-25,1,,,,,スイングバイパートナーズ,0
1381,6010003036084,新規,0,2021-10-25,2021-10-25,合同会社カーチスファンドナインス,,合同会社,東京都,千代田区,紀尾井町４番１号新紀尾井町ビル２Ｆ,,13,101,1020094,,,,,,,2021-10-25,1,,,,,カーチスファンドナインス,0
1384,6010005034128,新規,0,2021-10-25,2021-10-25,一般社団法人ＣＴＦ１号,,その他の設立登記法人,東京都,中央区,八丁堀４丁目２番１０号ＡＯＪ税理士法人内,,13,102,1040032,,,,,,,2021-10-25,1,,,,,シーティーエフイチゴウ,0
1387,6010103001797,新規,0,2021-10-25,2021-10-25,合同会社エクステンド,,合同会社,東京都,八王子市,長房町４３３番地５,,13,201,1930824,,,,,,,2021-10-25,1,,,,,エクステンド,0
1391,6010401163447,新規,0,2021-10-25,2021-10-25,朔エンターテイメント株式会社,,株式会社,東京都,港区,麻布十番１丁目７番９号,,13,103,1060045,,,,,,,2021-10-25,1,,,,,サクエンターテイメント,0
1398,6010701041690,新規,0,2021-10-25,2021-10-25,株式会社ティーダアソシエイツ,,株式会社,東京都,品川区,大井５丁目２１番１５－３０７号,,13,109,1400014,,,,,,,2021-10-25,1,,,,,ティーダアソシエイツ,0
1400,6010803003928,新規,0,2021-10-25,2021-10-25,合同会社トラストギビング,,合同会社,東京都,大田区,千鳥３丁目１３番１４号,,13,111,1460083,,,,,,,2021-10-25,1,,,,,トラストギビング,0
1413,6011001143624,新規,0,2021-10-25,2021-10-25,株式会社クイ,,株式会社,東京都,渋谷区,広尾１丁目７番７号,,13,113,1500012,,,,,,,2021-10-25,1,,,,,クイ,0
1414,6011003013610,新規,0,2021-10-25,2021-10-25,合同会社瑞穂会,,合同会社,東京都,渋谷区,宇田川町６番２０号,,13,113,1500042,,,,,,,2021-10-25,1,,,,,ミズホカイ,0
1419,6011101096680,新規,0,2021-10-25,2021-10-25,株式会社日本モビリティサービス,,株式会社,東京都,新宿区,百人町２丁目２２番３号,,13,104,1690073,,,,,,,2021-10-25,1,,,,,ニホンモビリティサービス,0
1420,6011201023353,新規,0,2021-10-25,2021-10-25,ＯＮＩＫＵＲＯ株式会社,,株式会社,東京都,中野区,中野１丁目２３－１４Ｂ,,13,114,1640001,,,,,,,2021-10-25,1,,,,,オニクロ,0
1421,6011301027287,新規,0,2021-10-25,2021-10-25,ＦＩＳＨ株式会社,,株式会社,東京都,杉並区,高円寺南３丁目４４番２０号マウンテンハイツ１０１,,13,115,1660003,,,,,,,2021-10-25,1,,,,,フィッシュ,0
1426,6011701024801,新規,0,2021-10-25,2021-10-25,株式会社トミザワ,,株式会社,東京都,江戸川区,松本１丁目２１番７号,,13,123,1330043,,,,,,,2021-10-25,1,,,,,トミザワ,0
1429,6011805003115,新規,0,2021-10-25,2021-10-25,一般社団法人日本保育教育研究会,,その他の設立登記法人,東京都,葛飾区,柴又６丁目４番８号,,13,122,1250052,,,,,,,2021-10-25,1,,,,,ニホンホイクキョウイクケンキュウカイ,0
1430,6012401038447,新規,0,2021-10-25,2021-10-25,株式会社ＳＯＬＴ,,株式会社,東京都,調布市,布田５丁目６番地１,,13,208,1820024,,,,,,,2021-10-25,1,,,,,ソルト,0
1448,6020001143617,新規,0,2021-10-25,2021-10-25,株式会社ＯＢＴ,,株式会社,神奈川県,横浜市神奈川区,羽沢町８９０番地,,14,102,2210863,,,,,,,2021-10-25,1,,,,,オービーティー,0
1470,6030001144944,新規,0,2021-10-25,2021-10-25,株式会社アシスト,,株式会社,埼玉県,熊谷市,肥塚３丁目６番地３０クリスタルＫＵＭＡＧＡＹＡ（Ａ１０２）,,11,202,3600015,,,,,,,2021-10-25,1,,,,,アシスト,0
1471,6030001144960,新規,0,2021-10-25,2021-10-25,中野技建工業株式会社,,株式会社,埼玉県,熊谷市,佐谷田３９２９番地,,11,202,3600023,,,,,,,2021-10-25,1,,,,,ナカノギケンコウギョウ,0
1472,6030001144977,新規,0,2021-10-25,2021-10-25,株式会社丸浩,,株式会社,埼玉県,さいたま市岩槻区,美園東１丁目２番１７号Ｌｅｂｅｎ浦和美園３０５,,11,110,3390028,,,,,,,2021-10-25,1,,,,,マルヒロ,0
1476,6030003018188,新規,0,2021-10-25,2021-10-25,合同会社ｐｏｒｔｅｒｂｏｎｈｅｕｒ,,合同会社,埼玉県,鴻巣市,箕田３７９０番地６,,11,217,3650062,,,,,,,2021-10-25,1,,,,,ポルテボヌール,0
1479,6030005020605,新規,0,2021-10-25,2021-10-25,一般社団法人光和会,,その他の設立登記法人,埼玉県,和光市,丸山台１丁目１番１０号,,11,229,3510112,,,,,,,2021-10-25,1,,,,,コウワカイ,0
1483,6040001120713,新規,0,2021-10-25,2021-10-25,Ｈ－ＬＵＣＫ株式会社,,株式会社,千葉県,四街道市,大日７６６番地１０,,12,228,2840001,,,,,,,2021-10-25,1,,,,,エイチラック,0
1484,6040001120721,新規,0,2021-10-25,2021-10-25,株式会社櫻禾,,株式会社,千葉県,八街市,文違１５６番地２７,,12,230,2891104,,,,,,,2021-10-25,1,,,,,ハルカ,0
1485,6040001120738,新規,0,2021-10-25,2021-10-25,株式会社リプラス,,株式会社,千葉県,松戸市,根本１５１番地の２シャルマンコーポ松戸２０１号,,12,207,2710077,,,,,,,2021-10-25,1,,,,,リプラス,0
1489,6040003018807,新規,0,2021-10-25,2021-10-25,ＳＨＵＵマーケティング合同会社,,合同会社,千葉県,習志野市,谷津５丁目３６番１８－１００９号,,12,216,2750026,,,,,,,2021-10-25,1,,,,,シューマーケティング,0
1509,6100001034741,新規,0,2021-10-25,2021-10-25,株式会社ｐｅａｃｅ,,株式会社,長野県,諏訪郡下諏訪町,西豊６２４５,,20,361,3930035,,,,,,,2021-10-25,1,,,,,ピース,0
1535,6120101064538,新規,0,2021-10-25,2021-10-25,株式会社グラッドユニオン,,株式会社,大阪府,和泉市,いぶき野３丁目１４－１０ユニライフ和泉中央Ａ棟２０５号,,27,219,5940041,,,,,,,2021-10-25,1,,,,,グラッドユニオン,0
1548,6130001070379,新規,0,2021-10-25,2021-10-25,株式会社青山住宅,,株式会社,京都府,京都市下京区,西七条西八反田町１７番地,,26,106,6008892,,,,,,,2021-10-25,1,,,,,アオヤマジュウタク,0
1549,6130001070387,新規,0,2021-10-25,2021-10-25,ＫОＮＹ株式会社,,株式会社,京都府,京都市左京区,修学院檜峠町３５番地の１,,26,103,6068034,,,,,,,2021-10-25,1,,,,,コニー,0
1550,6130001070395,新規,0,2021-10-25,2021-10-25,株式会社ＩＭＯＯ,,株式会社,京都府,京都市右京区,西京極徳大寺団子田町７番地５１,,26,108,6150846,,,,,,,2021-10-25,1,,,,,イモオ,0
1552,6140001123598,新規,0,2021-10-25,2021-10-25,株式会社ＭＲＣ,,株式会社,兵庫県,神戸市中央区,山本通１丁目３番１号２Ｆ,,28,110,6500003,,,,,,,2021-10-25,1,,,,,エムアールシー,0
1555,6140005025865,新規,0,2021-10-25,2021-10-25,弁護士法人セラヴィ,,その他の設立登記法人,兵庫県,神戸市中央区,江戸町９６番地８Ｆ,,28,110,6500033,,,,,,,2021-10-25,1,,,,,セラヴィ,0
1569,6180001148410,新規,0,2021-10-25,2021-10-25,株式会社エッセンス,,株式会社,愛知県,名古屋市緑区,鳴海町字母呂後１８８番地,,23,114,4580801,,,,,,,2021-10-25,1,,,,,エッセンス,0
1570,6180001148427,新規,0,2021-10-25,2021-10-25,株式会社神谷フードサービス,,株式会社,愛知県,名古屋市昭和区,川名本町６丁目４１番地,,23,107,4660855,,,,,,,2021-10-25,1,,,,,カミヤフードサービス,0
1578,6180003023108,新規,0,2021-10-25,2021-10-25,合資会社ＧＡＫＵ,,合資会社,愛知県,名古屋市瑞穂区,岳見町１丁目４４,,23,108,4670043,,,,,,,2021-10-25,1,,,,,ガク,0
1580,6180301035548,新規,0,2021-10-25,2021-10-25,株式会社ＦＩＲＳＴａｃｃｅｓｓ,,株式会社,愛知県,安城市,赤松町新屋敷１１２番地１,,23,212,4460046,,,,,,,2021-10-25,1,,,,,ファーストアクセス,0
1588,6230001019052,新規,0,2021-10-25,2021-10-25,株式会社Ａコネクト,,株式会社,富山県,富山市,堀川町１７番地２３,,16,201,9398072,,,,,,,2021-10-25,1,,,,,エーコネクト,0
1593,6240003005330,新規,0,2021-10-25,2021-10-25,合同会社ＲＥＡ,,合同会社,広島県,廿日市市,佐方１丁目１２番１２号,,34,213,7380001,,,,,,,2021-10-25,1,,,,,レア,0
1603,6290001095113,新規,0,2021-10-25,2021-10-25,Ｏ・Ｋコンサルティング株式会社,,株式会社,福岡県,福岡市中央区,天神１丁目１５番５号９Ｆ,,40,133,8100001,,,,,,,2021-10-25,1,,,,,オーケーコンサルティング,0
1605,6290003011745,新規,0,2021-10-25,2021-10-25,エスピーアイ合同会社,,合同会社,福岡県,福岡市南区,柏原６丁目４５番１４－１０５,,40,134,8111353,,,,,,,2021-10-25,1,,,,,エスピーアイ,0
1607,6300001012677,新規,0,2021-10-25,2021-10-25,株式会社アルカ,,株式会社,佐賀県,唐津市,竹木場５６１３番地１,,41,202,8470881,,,,,,,2021-10-25,1,,,,,アルカ,0
1615,6340003003605,新規,0,2021-10-25,2021-10-25,合同会社野村ファーム,,合同会社,鹿児島県,志布志市,有明町野井倉４８９９番地２,,46,221,8997402,,,,,,,2021-10-25,1,,,,,ノムラファーム,0
1616,6350001017374,新規,0,2021-10-25,2021-10-25,ウッドプラス株式会社,,株式会社,宮崎県,児湯郡都農町,大字川北２０８０７番地３,,45,406,8891201,,,,,,,2021-10-25,1,,,,,ウッドプラス,0
1620,6360001029542,新規,0,2021-10-25,2021-10-25,株式会社ＣＯＢＡＬＴ　ＷＯＲＫＳ,,株式会社,沖縄県,那覇市,牧志３丁目５－１,,47,201,9000013,,,,,,,2021-10-25,1,,,,,コバルトワークス,0
1626,6380003005044,新規,0,2021-10-25,2021-10-25,合同会社ハネダオート,,合同会社,福島県,いわき市,小名浜字芳浜１番地の２８,,07,204,9718101,,,,,,,2021-10-25,1,,,,,ハネダオート,0
1639,6430003013280,新規,0,2021-10-25,2021-10-25,ＨＢＳ合同会社,,合同会社,北海道,札幌市東区,北四十一条東３丁目３番１号,,01,103,0070841,,,,,,,2021-10-25,1,,,,,エイチビイエス,0
1640,6440001008967,新規,0,2021-10-25,2021-10-25,株式会社Ｈａｔｓｕｍｉ,,株式会社,北海道,函館市,石川町７２番地２,,01,202,0410802,,,,,,,2021-10-25,1,,,,,ハツミ,0
1656,7010001221991,新規,0,2021-10-25,2021-10-25,ＰＦＣホールディングス株式会社,,株式会社,東京都,千代田区,神田和泉町１番地,,13,101,1010024,,,,,,,2021-10-25,1,,,,,ピーエフシーホールディングス,0
1657,7010001222016,新規,0,2021-10-25,2021-10-25,リンク株式会社,,株式会社,東京都,中央区,銀座７丁目１３番６号サガミビル２階,,13,102,1040061,,,,,,,2021-10-25,1,,,,,リンク,0
1658,7010001222057,新規,0,2021-10-25,2021-10-25,株式会社ビズトリップ,,株式会社,東京都,千代田区,大手町２丁目６番２号日本ビル９階,,13,101,1000004,,,,,,,2021-10-25,1,,,,,ビズトリップ,0
1665,7010005034102,新規,0,2021-10-25,2021-10-25,一般社団法人ネイチャードローン協会,,その他の設立登記法人,東京都,文京区,小石川５丁目３８番１号,,13,105,1120002,,,,,,,2021-10-25,1,,,,,ネイチャードローンキョウカイ,0
1666,7010005034127,新規,0,2021-10-25,2021-10-25,特定目的会社ＳＲＪ１,,その他の設立登記法人,東京都,中央区,銀座１丁目６番１１号土志田ビルディング３Ｆ,,13,102,1040061,,,,,,,2021-10-25,1,,,,,エスアールジェイワン,0
1679,7010903006887,新規,0,2021-10-25,2021-10-25,合同会社ダブルアール,,合同会社,東京都,世田谷区,奥沢１丁目５５番１７号,,13,112,1580083,,,,,,,2021-10-25,1,,,,,ダブルアール,0
1687,7011001143615,新規,0,2021-10-25,2021-10-25,ＤＸＯＮＥ株式会社,,株式会社,東京都,渋谷区,代官山町１７番１号,,13,113,1500034,,,,,,,2021-10-25,1,,,,,ディーエックスワン,0
1692,7011101096688,新規,0,2021-10-25,2021-10-25,株式会社ＪＩＮＧＥＲ　Ｂａｓｅ,,株式会社,東京都,新宿区,新宿１丁目２５番１２号１Ｆ,,13,104,1600022,,,,,,,2021-10-25,1,,,,,ジンガーベース,0
1696,7011501027417,新規,0,2021-10-25,2021-10-25,株式会社理想,,株式会社,東京都,北区,滝野川７丁目８番６号ベルコート１Ｆ,,13,117,1140023,,,,,,,2021-10-25,1,,,,,リソウ,0
1699,7011701024800,新規,0,2021-10-25,2021-10-25,株式会社エフエム・プロ,,株式会社,東京都,江戸川区,南篠崎町２丁目３４番６－５０３号,,13,123,1330065,,,,,,,2021-10-25,1,,,,,エフエムプロ,0
1703,7012401038454,新規,0,2021-10-25,2021-10-25,株式会社上田設備,,株式会社,東京都,調布市,深大寺東町１丁目３１番地４０,,13,208,1820012,,,,,,,2021-10-25,1,,,,,ウエダセツビ,0
1704,7012403005072,新規,0,2021-10-25,2021-10-25,ＡＧＡＭＡＮ　ＩＮＴＥＲＮＡＴＩＯＮＡＬ合同会社,,合同会社,東京都,調布市,飛田給３丁目２２番地９箕輪コーポ２０２,,13,208,1820036,,,,,,,2021-10-25,1,,,,,アガマンインターナショナル,0
1705,7012403005080,新規,0,2021-10-25,2021-10-25,５５合同会社,,合同会社,東京都,三鷹市,井の頭５丁目８番３１号リッツコートＩＩ１０１号室,00124657,13,204,1810001,,,,,,,2021-10-25,1,,,,,ゴーゴー,0
1722,7020001143582,新規,0,2021-10-25,2021-10-25,株式会社リ・クレアーレ,,株式会社,神奈川県,横浜市旭区,鶴ケ峰１丁目６８番地２,,14,112,2410022,,,,,,,2021-10-25,1,,,,,リクレアーレ,0
1723,7020001143590,新規,0,2021-10-25,2021-10-25,株式会社長谷川鋼業,,株式会社,神奈川県,横浜市旭区,東希望が丘３８番地５,,14,112,2410826,,,,,,,2021-10-25,1,,,,,ハセガワコウギョウ,0
1724,7020001143599,新規,0,2021-10-25,2021-10-25,株式会社シムラグループ,,株式会社,神奈川県,川崎市宮前区,馬絹６丁目２０番１号,,14,136,2160035,,,,,,,2021-10-25,1,,,,,シムラグループ,0
1727,7020003020697,新規,0,2021-10-25,2021-10-25,合同会社ＪＩＬＬ,,合同会社,神奈川県,横浜市神奈川区,六角橋５丁目１３番４５－１号,,14,102,2210802,,,,,,,2021-10-25,1,,,,,ジル,0
1729,7021001074280,新規,0,2021-10-25,2021-10-25,株式会社アシス,,株式会社,神奈川県,小田原市,南鴨宮３丁目４９番１５号カミイビル１０２号,,14,206,2500875,,,,,,,2021-10-25,1,,,,,アシス,0
1730,7021001074289,新規,0,2021-10-25,2021-10-25,株式会社ヒライ設備,,株式会社,神奈川県,平塚市,平塚５丁目１９番３６号,,14,203,2540052,,,,,,,2021-10-25,1,,,,,ヒライセツビ,0
1739,7030001144935,新規,0,2021-10-25,2021-10-25,株式会社ロックツリー,,株式会社,埼玉県,深谷市,緑台１３番地２,,11,218,3691247,,,,,,,2021-10-25,1,,,,,ロックツリー,0
1740,7030001144943,新規,0,2021-10-25,2021-10-25,株式会社ＴＲＵＳＴ警備保障,,株式会社,埼玉県,狭山市,祇園１７番１５号,,11,215,3501307,,,,,,,2021-10-25,1,,,,,トラストケイビホショウ,0
1741,7030001144976,新規,0,2021-10-25,2021-10-25,ＳＳＣ株式会社,,株式会社,埼玉県,さいたま市西区,大字飯田新田２８５番地５,,11,101,3310068,,,,,,,2021-10-25,1,,,,,エスエスシー,0
1743,7030003018195,新規,0,2021-10-25,2021-10-25,合同会社ａｒｃｅ,,合同会社,埼玉県,三郷市,高州１丁目１０６番地２,,11,237,3410037,,,,,,,2021-10-25,1,,,,,アルセ,0
1756,7040001120704,新規,0,2021-10-25,2021-10-25,株式会社にわ,,株式会社,千葉県,千葉市若葉区,殿台町５６７番地,,12,104,2640036,,,,,,,2021-10-25,1,,,,,ニワ,0
1757,7040001120720,新規,0,2021-10-25,2021-10-25,株式会社ラビットクリーン,,株式会社,千葉県,船橋市,三咲６丁目２７番１５号,,12,204,2740812,,,,,,,2021-10-25,1,,,,,ラビットクリーン,0
1762,7040003018764,新規,0,2021-10-25,2021-10-25,合同会社ＭＫ２,,合同会社,千葉県,松戸市,二ツ木３３６－１,,12,207,2700027,,,,,,,2021-10-25,1,,,,,エムケーツー,0
1763,7040003018780,新規,0,2021-10-25,2021-10-25,ＨＲＤメディカル合同会社,,合同会社,千葉県,流山市,松ケ丘５丁目７５９―８０,,12,220,2700141,,,,,,,2021-10-25,1,,,,,エイチアールディーメディカル,0
1764,7040003018806,新規,0,2021-10-25,2021-10-25,合同会社Ｃｏｃｏａ,,合同会社,千葉県,銚子市,明神町１丁目１２１番地の１１,,12,202,2880002,,,,,,,2021-10-25,1,,,,,ココア,0
1766,7060005009917,新規,0,2021-10-25,2021-10-25,特定非営利活動法人ステップアップサポートきらり,,その他の設立登記法人,栃木県,下都賀郡野木町,大字佐川野１７７７番地,,09,364,3290104,,,,,,,2021-10-25,1,,,,,ステップアップサポートキラリ,0
1770,7080101022862,新規,0,2021-10-25,2021-10-25,株式会社ＢＩＧ　ＩＳＬＡＮＤ,,株式会社,静岡県,沼津市,大手町２丁目４番１７号８０１号,,22,203,4100801,,,,,,,2021-10-25,1,,,,,ビッグアイランド,0
1773,7080103002441,新規,0,2021-10-25,2021-10-25,合同会社富士山企画,,合同会社,静岡県,三島市,一番町１１番１４号第２ＫＯＨＷＡビル地下１階,,22,206,4110036,,,,,,,2021-10-25,1,,,,,フジサンキカク,0
1776,7100003006275,新規,0,2021-10-25,2021-10-25,合同会社ＧＯＺ,,合同会社,長野県,小諸市,大字滋野甲９８７,,20,208,3840809,,,,,,,2021-10-25,1,,,,,ゴズ,0
1786,7120001241368,新規,0,2021-10-25,2021-10-25,アトリエ・リノホーム株式会社,,株式会社,大阪府,大阪市中央区,森ノ宮中央１丁目２１番９号,,27,128,5400003,,,,,,,2021-10-25,1,,,,,アトリエリノホーム,0
1791,7120101064537,新規,0,2021-10-25,2021-10-25,株式会社スワン,,株式会社,大阪府,泉佐野市,東羽倉崎町５番１１号,,27,213,5980031,,,,,,,2021-10-25,1,,,,,スワン,0
1801,7130001070394,新規,0,2021-10-25,2021-10-25,プロダクトシステムズ株式会社,,株式会社,京都府,京都市西京区,大枝南福西町２丁目１５－４,,26,111,6101113,,,,,,,2021-10-25,1,,,,,プロダクトシステムズ,0
1804,7140001123606,新規,0,2021-10-25,2021-10-25,江木不動産流通株式会社,,株式会社,兵庫県,明石市,鍛治屋町４番８号,,28,203,6730884,,,,,,,2021-10-25,1,,,,,エギフドウサンリュウツウ,0
1816,7180001148418,新規,0,2021-10-25,2021-10-25,株式会社日本教育総合学校,,株式会社,愛知県,名古屋市中村区,椿町１６番８号,,23,105,4530015,,,,,,,2021-10-25,1,,,,,ニホンキョウイクソウゴウガッコウ,0
1817,7180001148426,新規,0,2021-10-25,2021-10-25,株式会社ぷらすわん,,株式会社,愛知県,名古屋市天白区,中平２丁目１０７番地,,23,116,4680014,,,,,,,2021-10-25,1,,,,,プラスワン,0
1818,7180001148442,新規,0,2021-10-25,2021-10-25,株式会社須江製作所,,株式会社,愛知県,名古屋市北区,六が池町５７５番地,,23,103,4620002,,,,,,,2021-10-25,1,,,,,スエセイサクショ,0
1825,7200003005358,新規,0,2021-10-25,2021-10-25,りょうかのわ合同会社,,合同会社,岐阜県,恵那市,串原３２９６番地１,,21,210,5097831,,,,,,,2021-10-25,1,,,,,リョウカノワ,0
1832,7230001019051,新規,0,2021-10-25,2021-10-25,ＮＹＣ株式会社,,株式会社,富山県,高岡市,城光寺９番地３,,16,202,9330126,,,,,,,2021-10-25,1,,,,,エヌワイシー,0
1850,7290001095112,新規,0,2021-10-25,2021-10-25,株式会社パーキングクリエイト,,株式会社,福岡県,福岡市博多区,東比恵２丁目１番３号,,40,132,8120007,,,,,,,2021-10-25,1,,,,,パーキングクリエイト,0
1851,7290001095129,新規,0,2021-10-25,2021-10-25,株式会社ＴＥＲＥＴ,,株式会社,福岡県,宗像市,河東１１２８番地８シャーメゾン樟陽Ｂ棟１０２号,,40,220,8113402,,,,,,,2021-10-25,1,,,,,テレット,0
1863,7290805009481,新規,0,2021-10-25,2021-10-25,アプローズ行橋駅前管理組合法人,,その他の設立登記法人,福岡県,行橋市,宮市町５番１５号,,40,213,8240008,,,,,,,2021-10-25,1,,,,,アプローズユクハシエキマエ,0
1873,7350001017373,新規,0,2021-10-25,2021-10-25,株式会社ダーウィン,,株式会社,宮崎県,延岡市,惣領町２９番１２号向洋コーポ１０１,,45,203,8820857,,,,,,,2021-10-25,1,,,,,ダーウィン,0
1875,7360001029541,新規,0,2021-10-25,2021-10-25,株式会社Ｓｅｍｉ　Ｓｔａｌｌ,,株式会社,沖縄県,沖縄市,美里仲原町１３番５号,,47,211,9042156,,,,,,,2021-10-25,1,,,,,セミストール,0
1886,7390005008919,新規,0,2021-10-25,2021-10-25,おぐにマルチワーク事業協同組合,,その他の設立登記法人,山形県,西置賜郡小国町,大字樽口９３番地,,06,401,9991501,,,,,,,2021-10-25,1,,,,,オグニマルチワーク,0
1889,7410001012995,新規,0,2021-10-25,2021-10-25,株式会社ワークスペースかま蔵,,株式会社,秋田県,横手市,四日町６番６号,,05,203,0130022,,,,,,,2021-10-25,1,,,,,ワークスペースカマクラ,0
1891,7430001085222,新規,0,2021-10-25,2021-10-25,株式会社札幌北上フーズ,,株式会社,北海道,札幌市南区,川沿一条２丁目３番１８号,,01,106,0050801,,,,,,,2021-10-25,1,,,,,サッポロキタガミフーズ,0
1892,7430001085239,新規,0,2021-10-25,2021-10-25,株式会社えぬぷろ,,株式会社,北海道,札幌市中央区,南十五条西８丁目２番２５－９０２,,01,101,0640915,,,,,,,2021-10-25,1,,,,,エヌプロ,0
1896,7430003013271,新規,0,2021-10-25,2021-10-25,合同会社レイノット,,合同会社,北海道,札幌市厚別区,厚別西四条４丁目１３番１０号アクアトピア厚別西Ａ－Ｆ号,,01,108,0040064,,,,,,,2021-10-25,1,,,,,レイノット,0
1898,7430005014318,新規,0,2021-10-25,2021-10-25,特定非営利活動法人Ｒｕｍａｈ　ｋｉｔａ,,その他の設立登記法人,北海道,札幌市西区,宮の沢二条１丁目１番３０－１０９号,,01,107,0630052,,,,,,,2021-10-25,1,,,,,ルマキタ,0
1903,7480003001742,新規,0,2021-10-25,2021-10-25,合同会社小石製作所,,合同会社,徳島県,板野郡北島町,鯛浜字原１４０番地６,,36,402,7710204,,,,,,,2021-10-25,1,,,,,コイシセイサクショ,0
1917,8010005034126,新規,0,2021-10-25,2021-10-25,一般社団法人医療のチカラ,,その他の設立登記法人,東京都,中央区,佃１丁目１１番８号ピアウエストスクエア３０２,,13,102,1040051,,,,,,,2021-10-25,1,,,,,イリョウノチカラ,0
1920,8010401163263,新規,0,2021-10-25,2021-10-25,株式会社ＩＬＩＵＭ,,株式会社,東京都,港区,白金台２丁目９番１５－３０２号,,13,103,1080071,,,,,,,2021-10-25,1,,,,,イリアム,0
1924,8010403026385,新規,0,2021-10-25,2021-10-25,合同会社ディバイングレース,,合同会社,東京都,港区,浜松町２丁目２番１５号,,13,103,1050013,,,,,,,2021-10-25,1,,,,,ディバイングレース,0
1931,8010701041689,新規,0,2021-10-25,2021-10-25,株式会社迅轆,,株式会社,東京都,品川区,二葉２丁目１番１０号ゴールドハイツ３０１,,13,109,1420043,,,,,,,2021-10-25,1,,,,,ジンロク,0
1932,8010701041697,新規,0,2021-10-25,2021-10-25,ネクストメディカル株式会社,,株式会社,東京都,品川区,西五反田７丁目２２番１７号,,13,109,1410031,,,,,,,2021-10-25,1,,,,,ネクストメディカル,0
1936,8010801032423,新規,0,2021-10-25,2021-10-25,アメイド株式会社,,株式会社,東京都,大田区,新蒲田２丁目１番８号,,13,111,1440054,,,,,,,2021-10-25,1,,,,,アメイド,0
1939,8010903006894,新規,0,2021-10-25,2021-10-25,ＥＮＶＩＦＯＲＥＣＡＳＴＩＮＧ合同会社,,合同会社,東京都,世田谷区,弦巻２丁目３９－１７,,13,112,1540016,,,,,,,2021-10-25,1,,,,,エンバイフォーカスティング,0
1943,8011001143606,新規,0,2021-10-25,2021-10-25,ＳＨＥＨＡＶＥ株式会社,,株式会社,東京都,渋谷区,神宮前６丁目３５番３号ＪＵＮＣＴＩＯＮｈａｒａｊｕｋｕ００３,,13,113,1500001,,,,,,,2021-10-25,1,,,,,シーハブ,0
1944,8011001143622,新規,0,2021-10-25,2021-10-25,株式会社プレサイスサポート,,株式会社,東京都,目黒区,祐天寺１丁目１１番４号,,13,110,1530052,,,,,,,2021-10-25,1,,,,,プレサイスサポート,0
1946,8011003013609,新規,0,2021-10-25,2021-10-25,合同会社プリムローズコーポレーション,,合同会社,東京都,渋谷区,広尾２丁目４番１０号,,13,113,1500012,,,,,,,2021-10-25,1,,,,,プリムローズコーポレーション,0
1950,8011101096679,新規,0,2021-10-25,2021-10-25,熊猫株式会社,,株式会社,東京都,新宿区,百人町２丁目４番５号及川ビル５Ｆ,,13,104,1690073,,,,,,,2021-10-25,1,,,,,パンダ,0
1960,8011601025492,新規,0,2021-10-25,2021-10-25,Ｏｐｔａｌ株式会社,,株式会社,東京都,練馬区,南大泉４丁目４０番１８号,,13,120,1780064,,,,,,,2021-10-25,1,,,,,オプタル,0
1963,8011701024799,新規,0,2021-10-25,2021-10-25,株式会社モザイーム,,株式会社,東京都,江戸川区,江戸川１丁目２４番２５号,,13,123,1320013,,,,,,,2021-10-25,1,,,,,モザイーム,0
1971,8013301048187,新規,0,2021-10-25,2021-10-25,株式会社ＩＭＡ,,株式会社,東京都,豊島区,池袋本町４丁目４６番１１－１０５２号,,13,116,1700011,,,,,,,2021-10-25,1,,,,,アイエムエー,0
1972,8013301048195,新規,0,2021-10-25,2021-10-25,オーエスビーワークス株式会社,,株式会社,東京都,豊島区,南長崎５丁目２３番１号１Ｆ,,13,116,1710052,,,,,,,2021-10-25,1,,,,,オーエスビーワークス,0
1980,8020001143581,新規,0,2021-10-25,2021-10-25,株式会社エム,,株式会社,神奈川県,横浜市中区,山下町３７番地８－１２０２号,,14,104,2310023,,,,,,,2021-10-25,1,,,,,エム,0
1981,8020001143607,新規,0,2021-10-25,2021-10-25,ＩＴＤ株式会社,,株式会社,神奈川県,横浜市鶴見区,馬場１丁目７番１１号,,14,101,2300076,,,,,,,2021-10-25,1,,,,,アイティーディー,0
1982,8020001143615,新規,0,2021-10-25,2021-10-25,サイバーデリック株式会社,,株式会社,神奈川県,川崎市高津区,久本１丁目６番８号１３号室,,14,134,2130011,,,,,,,2021-10-25,1,,,,,サイバーデリック,0
1988,8020003020696,新規,0,2021-10-25,2021-10-25,合同会社Ａ－Ｒ　Ｆｕｔｕｒｅ,,合同会社,神奈川県,横浜市青葉区,荏子田２丁目４番地２６,,14,117,2250005,,,,,,,2021-10-25,1,,,,,エーアールフューチャー,0
1989,8020005015240,新規,0,2021-10-25,2021-10-25,特定非営利活動法人ＭＩＫｓ,,その他の設立登記法人,神奈川県,横浜市瀬谷区,中屋敷１丁目５－８，３号棟,,14,114,2460004,,,,,,,2021-10-25,1,,,,,ミックス,0
1992,8021001074288,新規,0,2021-10-25,2021-10-25,株式会社エムジィ商会,,株式会社,神奈川県,相模原市緑区,橋本４丁目１番２３号,,14,151,2520143,,,,,,,2021-10-25,1,,,,,エムジィショウカイ,0
1993,8021003011017,新規,0,2021-10-25,2021-10-25,２５Ｈｏｌｄｉｎｇｓ　Ｊａｐａｎ合同会社,,合同会社,神奈川県,鎌倉市,御成町１１番３７号小林ビル２Ｆ－Ｂ,,14,204,2480012,,,,,,,2021-10-25,1,,,,,トゥエンティファイブホールディングスジャパン,0
1995,8030001144942,新規,0,2021-10-25,2021-10-25,株式会社Ｔａｙｏｒｉ,,株式会社,埼玉県,川口市,幸町１丁目３番３１－２０３号,,11,203,3320016,,,,,,,2021-10-25,1,,,,,タヨリ,0
1996,8030001144950,新規,0,2021-10-25,2021-10-25,株式会社新葉工業,,株式会社,埼玉県,川越市,大字大仙波４０３番地９,,11,201,3500032,,,,,,,2021-10-25,1,,,,,シンヨウコウギョウ,0
1997,8030001144975,新規,0,2021-10-25,2021-10-25,株式会社ＴＭコーポレーション,,株式会社,埼玉県,新座市,栗原１丁目６番１９－１０６号,,11,230,3520035,,,,,,,2021-10-25,1,,,,,ティーエムコーポレーション,0
1998,8030001144983,新規,0,2021-10-25,2021-10-25,株式会社モノウィズ,,株式会社,埼玉県,川口市,前上町３２－２９,,11,203,3330843,,,,,,,2021-10-25,1,,,,,モノウィズ,0
2001,8030003018186,新規,0,2021-10-25,2021-10-25,白石建築合同会社,,合同会社,埼玉県,幸手市,大字千塚１６９０番地,,11,240,3400161,,,,,,,2021-10-25,1,,,,,シライシケンチク,0
2006,8040001120728,新規,0,2021-10-25,2021-10-25,綺能美製造株式会社,,株式会社,千葉県,船橋市,芝山１丁目３２番１８号,,12,204,2740816,,,,,,,2021-10-25,1,,,,,キノウビセイゾウ,0
2007,8040001120736,新規,0,2021-10-25,2021-10-25,Ｉｏｉ空調株式会社,,株式会社,千葉県,千葉市若葉区,愛生町１１０番地１４,,12,104,2640031,,,,,,,2021-10-25,1,,,,,アイオイクウチョウ,0
2030,8110001036140,新規,0,2021-10-25,2021-10-25,株式会社ＳＵＫＥＴＴＯ,,株式会社,新潟県,長岡市,弓町２丁目３番２６号,,15,202,9400047,,,,,,,2021-10-25,1,,,,,スケット,0
2042,8120001241367,新規,0,2021-10-25,2021-10-25,株式会社ｍｏｒｅ　ｌｉｆｅ,,株式会社,大阪府,大阪市中央区,道修町１丁目２番４号,,27,128,5410045,,,,,,,2021-10-25,1,,,,,モアライフ,0
2044,8120003020463,新規,0,2021-10-25,2021-10-25,Ｒｅｂａｓｅ合同会社,,合同会社,大阪府,大阪市住吉区,南住吉２丁目８番２６－１５０２号,,27,120,5580041,,,,,,,2021-10-25,1,,,,,リベース,0
2049,8120101064528,新規,0,2021-10-25,2021-10-25,株式会社魚庭ぎょれん,,株式会社,大阪府,岸和田市,地蔵浜町１１番地の１,,27,202,5960015,,,,,,,2021-10-25,1,,,,,ナニワギョレン,0
2050,8120101064536,新規,0,2021-10-25,2021-10-25,株式会社ＫＯＡＦＩＳ,,株式会社,大阪府,堺市西区,浜寺公園町２丁１０９番地７,,27,144,5928346,,,,,,,2021-10-25,1,,,,,コアフィス,0
2063,8130001070377,新規,0,2021-10-25,2021-10-25,田井工業株式会社,,株式会社,京都府,久世郡久御山町,東一口新久保１０番地１,,26,322,6130021,,,,,,,2021-10-25,1,,,,,タイコウギョウ,0
2064,8130001070385,新規,0,2021-10-25,2021-10-25,株式会社Ｗｏｒｌｄ　Ｅｎｈａｎｃｉｅｒ,,株式会社,京都府,京都市左京区,下鴨宮崎町６６番地３ザ・ガーデン下鴨２０２,,26,103,6060802,,,,,,,2021-10-25,1,,,,,ワールドエンハンシエール,0
2072,8140001123588,新規,0,2021-10-25,2021-10-25,株式会社ＡＥＡヨシムラ,,株式会社,兵庫県,西宮市,荒木町９番４４号,,28,204,6638025,,,,,,,2021-10-25,1,,,,,エーイーエーヨシムラ,0
2073,8140001123605,新規,0,2021-10-25,2021-10-25,株式会社アンカーパートナーズ,,株式会社,兵庫県,宝塚市,野上１丁目２番１２号,,28,214,6650022,,,,,,,2021-10-25,1,,,,,アンカーパートナーズ,0
2084,8180001148417,新規,0,2021-10-25,2021-10-25,株式会社優企画,,株式会社,愛知県,名古屋市中川区,西中島２丁目５０６番地,,23,110,4540934,,,,,,,2021-10-25,1,,,,,ユウキカク,0
2085,8180001148433,新規,0,2021-10-25,2021-10-25,ｃｗ・ｓｙｓｔｅｍｓ株式会社,,株式会社,愛知県,小牧市,郷中１丁目１９８番地シェノワクレール２０３号,,23,219,4850033,,,,,,,2021-10-25,1,,,,,シーダブリューシステムズ,0
2090,8180003023080,新規,0,2021-10-25,2021-10-25,合同会社ナナトレ,,合同会社,愛知県,名古屋市千種区,霞ケ丘２丁目９番２１号,,23,101,4640041,,,,,,,2021-10-25,1,,,,,ナナトレ,0
2092,8210001018665,新規,0,2021-10-25,2021-10-25,インライフ株式会社,,株式会社,福井県,鯖江市,田所町３－４－４,,18,207,9160003,,,,,,,2021-10-25,1,,,,,インライフ,0
2094,8220001024489,新規,0,2021-10-25,2021-10-25,株式会社オール・ビジネス,,株式会社,石川県,野々市市,本町２丁目５番１３号,,17,212,9218815,,,,,,,2021-10-25,1,,,,,オールビジネス,0
2098,8240001058808,新規,0,2021-10-25,2021-10-25,株式会社片山工業,,株式会社,広島県,広島市東区,中山新町１丁目５番１２号,,34,102,7320021,,,,,,,2021-10-25,1,,,,,カタヤマコウギョウ,0
2124,8300001012675,新規,0,2021-10-25,2021-10-25,株式会社ＬＩＭＡ５５,,株式会社,佐賀県,佐賀市,与賀町５０番地３セルシオ佐大前１０７号,,41,201,8400047,,,,,,,2021-10-25,1,,,,,リマゴジュウゴ,0
2131,8360001029540,新規,0,2021-10-25,2021-10-25,大成創建株式会社,,株式会社,沖縄県,那覇市,田原１丁目５番１－２０８号,,47,201,9010156,,,,,,,2021-10-25,1,,,,,オオナリソウケン,0
2143,8390001016651,新規,0,2021-10-25,2021-10-25,株式会社ＹＤＮ,,株式会社,山形県,米沢市,大字花沢３０４４番地１,,06,202,9920021,,,,,,,2021-10-25,1,,,,,ワイディーエヌ,0
2146,8410001012994,新規,0,2021-10-25,2021-10-25,アイホーム株式会社,,株式会社,秋田県,秋田市,四ツ小屋字古川敷６７番地１,,05,201,0101417,,,,,,,2021-10-25,1,,,,,アイホーム,0
2148,8420005007775,新規,0,2021-10-25,2021-10-25,特定非営利活動法人チョトベラ,,その他の設立登記法人,青森県,青森市,桂木３丁目４番８号フラッツ桂木２０２,,02,201,0300844,,,,,,,2021-10-25,1,,,,,チョトベラ,0
2172,9010001222006,新規,0,2021-10-25,2021-10-25,東京諸島リビングサービス株式会社,,株式会社,東京都,八丈島八丈町,三根４９０６番地３,,13,401,1001511,,,,,,,2021-10-25,1,,,,,トウキョウショトウリビングサービス,0
2173,9010001222030,新規,0,2021-10-25,2021-10-25,株式会社ＦＯＵＲ　ＰＩＥＣＥ,,株式会社,東京都,千代田区,九段南１丁目５番６号りそな九段ビル５階ＫＳフロア,,13,101,1020074,,,,,,,2021-10-25,1,,,,,フォーピース,0
2174,9010001222055,新規,0,2021-10-25,2021-10-25,株式会社ワールドインスパイアジャパン,,株式会社,東京都,千代田区,神田三崎町３丁目１２番８号,,13,101,1010061,,,,,,,2021-10-25,1,,,,,ワールドインスパイアジャパン,0
2178,9010003036098,新規,0,2021-10-25,2021-10-25,関東ロジサービス合同会社,,合同会社,東京都,中央区,日本橋茅場町１丁目３番７号千代田ビル６階,,13,102,1030025,,,,,,,2021-10-25,1,,,,,カントウロジサービス,0
2180,9010401163411,新規,0,2021-10-25,2021-10-25,健康オンラインストア株式会社,,株式会社,東京都,港区,芝浦４丁目１０番１－２３１２号,,13,103,1080023,,,,,,,2021-10-25,1,,,,,ケンコウオンラインストア,0
2183,9010403026384,新規,0,2021-10-25,2021-10-25,コヂル合同会社,,合同会社,東京都,港区,六本木４丁目１番２－７０１号,,13,103,1060032,,,,,,,2021-10-25,1,,,,,コヂル,0
2192,9010701041688,新規,0,2021-10-25,2021-10-25,ＪＲＳメディカル株式会社,,株式会社,東京都,品川区,東品川４丁目１１番３６－２１１５号,,13,109,1400002,,,,,,,2021-10-25,1,,,,,ジェイアールエスメディカル,0
2207,9011001143407,新規,0,2021-10-25,2021-10-25,株式会社ウインズセンテンス,,株式会社,東京都,渋谷区,恵比寿４丁目２７番１７号ルピナス恵比寿２０２,,13,113,1500013,,,,,,,2021-10-25,1,,,,,ウインズセンテンス,0
2208,9011001143588,新規,0,2021-10-25,2021-10-25,ＨＡＰＰＹ　ＥＮＤ株式会社,,株式会社,東京都,渋谷区,本町１丁目５２番１号,,13,113,1510071,,,,,,,2021-10-25,1,,,,,ハッピーエンド,0
2209,9011001143613,新規,0,2021-10-25,2021-10-25,日本都市財託株式会社,,株式会社,東京都,渋谷区,代々木２丁目２３番１－１２７２号,,13,113,1510053,,,,,,,2021-10-25,1,,,,,ニホントシザイタク,0
2212,9011003013608,新規,0,2021-10-25,2021-10-25,合同会社Ｐｅｓｔ零,,合同会社,東京都,渋谷区,神宮前６丁目２３番４号桑野ビル２階,,13,113,1500001,,,,,,,2021-10-25,1,,,,,ペストゼロ,0
2223,9011701024798,新規,0,2021-10-25,2021-10-25,クアッドリレーション株式会社,,株式会社,東京都,江戸川区,興宮町１４番１０号,,13,123,1330042,,,,,,,2021-10-25,1,,,,,クアッドリレーション,0
2225,9011703002975,新規,0,2021-10-25,2021-10-25,合同会社トライアングル,,合同会社,東京都,江戸川区,東小岩５丁目２０番８－２０７号,,13,123,1330052,,,,,,,2021-10-25,1,,,,,トライアングル,0
2227,9011801039861,新規,0,2021-10-25,2021-10-25,株式会社トップガレージＨＥＩ,,株式会社,東京都,足立区,加賀２丁目１７－１１,,13,121,1230861,,,,,,,2021-10-25,1,,,,,トップガレージヘイ,0
2228,9012401038452,新規,0,2021-10-25,2021-10-25,株式会社ムサシノエステート,,株式会社,東京都,小金井市,本町４丁目１９番２号小金井ＳＵコート１０５,,13,210,1840004,,,,,,,2021-10-25,1,,,,,ムサシノエステート,0
2230,9012405004657,新規,0,2021-10-25,2021-10-25,一般社団法人府中プロパンガス協会,,その他の設立登記法人,東京都,府中市,押立町３丁目２８番地の３０,,13,206,1830012,,,,,,,2021-10-25,1,,,,,フチュウプロパンガスキョウカイ,0
2243,9020001143580,新規,0,2021-10-25,2021-10-25,株式会社ＭＳＣ整体,,株式会社,神奈川県,横浜市都筑区,仲町台１丁目１２番２６－１０１号,,14,118,2240041,,,,,,,2021-10-25,1,,,,,エムエスシーセイタイ,0
2244,9020001143630,新規,0,2021-10-25,2021-10-25,ＡＰＯＬＬＯ株式会社,,株式会社,神奈川県,横浜市都筑区,牛久保西１丁目２０番２号,,14,118,2240015,,,,,,,2021-10-25,1,,,,,アポロ,0
2247,9020003020704,新規,0,2021-10-25,2021-10-25,ボースン合同会社,,合同会社,神奈川県,横浜市旭区,笹野台２丁目３８番１１号,,14,112,2410816,,,,,,,2021-10-25,1,,,,,ボースン,0
2248,9021001074287,新規,0,2021-10-25,2021-10-25,株式会社リタイアメントベネフィット,,株式会社,神奈川県,鎌倉市,由比ガ浜３丁目６番８号,,14,204,2480014,,,,,,,2021-10-25,1,,,,,リタイアメントベネフィット,0
2251,9021003011008,新規,0,2021-10-25,2021-10-25,合同会社Ｃｏｎｎｅｃｔ,,合同会社,神奈川県,綾瀬市,寺尾南３丁目１１－１オークホームズＫ３０３,,14,218,2521134,,,,,,,2021-10-25,1,,,,,コネクト,0
2255,9030001144941,新規,0,2021-10-25,2021-10-25,株式会社ＷＡＱＷＡＱ,,株式会社,埼玉県,さいたま市大宮区,仲町３丁目５０番地２－１２６０号,,11,103,3300845,,,,,,,2021-10-25,1,,,,,ワクワク,0
2256,9030001144958,新規,0,2021-10-25,2021-10-25,株式会社ＲＯＮ－ＴＥＣ,,株式会社,埼玉県,朝霞市,膝折町４丁目１番３０号,,11,227,3510014,,,,,,,2021-10-25,1,,,,,ロンテック,0
2263,9040001120702,新規,0,2021-10-25,2021-10-25,株式会社Ｓｈｉｒｏｋｕｍａｋｅ,,株式会社,千葉県,千葉市稲毛区,小仲台１丁目４－１アイ・プレイス稲毛セカンドコート１８０５,,12,103,2630043,,,,,,,2021-10-25,1,,,,,シロクマケ,0
2264,9040001120727,新規,0,2021-10-25,2021-10-25,株式会社金澤工業,,株式会社,千葉県,松戸市,八ケ崎緑町２３３番地の７,,12,207,2700024,,,,,,,2021-10-25,1,,,,,カナザワコウギョウ,0
2265,9040001120743,新規,0,2021-10-25,2021-10-25,株式会社毛万灯,,株式会社,千葉県,千葉市緑区,誉田町１丁目７６０番地,,12,105,2660005,,,,,,,2021-10-25,1,,,,,ケマンド,0
2293,9080403004391,新規,0,2021-10-25,2021-10-25,合同会社ＲＥＡＬＯＶＥ,,合同会社,静岡県,浜松市南区,芳川町６６１番地ソルカーサ２０３号室,,22,134,4300813,,,,,,,2021-10-25,1,,,,,リアラブ,0
2315,9120101064527,新規,0,2021-10-25,2021-10-25,株式会社ハッシン,,株式会社,大阪府,堺市東区,白鷺町２丁９番１５号,,27,143,5998107,,,,,,,2021-10-25,1,,,,,ハッシン,0
2325,9130001070384,新規,0,2021-10-25,2021-10-25,株式会社サウザンドサニー,,株式会社,京都府,京都市山科区,勧修寺柴山１５－３,,26,110,6078242,,,,,,,2021-10-25,1,,,,,サウザンドサニー,0
2337,9160001023744,新規,0,2021-10-25,2021-10-25,株式会社ＧＥＮＤＯ,,株式会社,滋賀県,近江八幡市,馬淵町４３８番地３,,25,204,5230022,,,,,,,2021-10-25,1,,,,,ゲンドウ,0
2342,9180001148408,新規,0,2021-10-25,2021-10-25,株式会社栄高,00124661,株式会社,愛知県,名古屋市緑区,青山４丁目６０１番地（ローレルコート大高緑地１１０号）,,23,114,4580833,,,,,,,2021-10-25,1,,,,,エイコウ,0
2343,9180001148416,新規,0,2021-10-25,2021-10-25,株式会社整足院東海,,株式会社,愛知県,名古屋市千種区,末盛通４丁目１４番地,,23,101,4640821,,,,,,,2021-10-25,1,,,,,セイソクイントウカイ,0
2348,9180305009256,新規,0,2021-10-25,2021-10-25,一般社団法人あぽろ,,その他の設立登記法人,愛知県,額田郡幸田町,大字菱池字奉行７４番地１グレースインティアラ１０１,,23,501,4440113,,,,,,,2021-10-25,1,,,,,アポロ,0
2352,9220001024488,新規,0,2021-10-25,2021-10-25,株式会社もく遊りん,,株式会社,石川県,白山市,八幡町リ１番地６,,17,210,9202113,,,,,,,2021-10-25,1,,,,,モクユウリン,0
2357,9240001058798,新規,0,2021-10-25,2021-10-25,株式会社スマイルアグリ,,株式会社,広島県,三原市,大和町大草２９１番地１,,34,204,7291211,,,,,,,2021-10-25,1,,,,,スマイルアグリ,0
2365,9280001008543,新規,0,2021-10-25,2021-10-25,株式会社ｂｌｕｅｆｉｖｅ,,株式会社,島根県,松江市,西川津町９２３番地２８,,32,201,6900823,,,,,,,2021-10-25,1,,,,,ブルーファイブ,0
2373,9290001095110,新規,0,2021-10-25,2021-10-25,株式会社タンク,,株式会社,福岡県,那珂川市,恵子６丁目６番９号,,40,231,8111255,,,,,,,2021-10-25,1,,,,,タンク,0
2374,9290001095127,新規,0,2021-10-25,2021-10-25,株式会社ＷＥＢＣＯＮ,,株式会社,福岡県,福岡市中央区,大名２丁目４番１８－４０５号,,40,133,8100041,,,,,,,2021-10-25,1,,,,,ウェブコン,0
2381,9290003011726,新規,0,2021-10-25,2021-10-25,合同会社クオーレ,,合同会社,福岡県,福岡市南区,大楠１丁目３４－３１－３０１,,40,134,8150082,,,,,,,2021-10-25,1,,,,,クオーレ,0
2385,9290801027923,新規,0,2021-10-25,2021-10-25,株式会社ウェルラーナ,,株式会社,福岡県,北九州市小倉南区,下曽根３丁目２番７－Ｂ３－２号,,40,107,8000217,,,,,,,2021-10-25,1,,,,,ウェルラーナ,0
2388,9330001029105,新規,0,2021-10-25,2021-10-25,株式会社三つ葉,,株式会社,熊本県,熊本市東区,尾ノ上１丁目４２番１１号,,43,102,8620913,,,,,,,2021-10-25,1,,,,,ミツバ,0
2390,9340001024195,新規,0,2021-10-25,2021-10-25,株式会社Ｎ＆Ｎ,,株式会社,鹿児島県,姶良市,蒲生町北２６６番地２,,46,225,8995303,,,,,,,2021-10-25,1,,,,,エヌアンドエヌ,0
2393,9350003003948,新規,0,2021-10-25,2021-10-25,合同会社クレディ,,合同会社,宮崎県,北諸県郡三股町,五本松３番地５中原住宅２号棟,,45,341,8891902,,,,,,,2021-10-25,1,,,,,クレディ,0
2398,9370001047739,新規,0,2021-10-25,2021-10-25,株式会社ＪＶＫＭ東北,,株式会社,宮城県,仙台市青葉区,中央２丁目７番３０号角川ビル５０９号,,04,101,9800021,,,,,,,2021-10-25,1,,,,,ジェイブイケイエムトウホク,0
2409,9430001085229,新規,0,2021-10-25,2021-10-25,株式会社ＦＡＶＩＣＥ,,株式会社,北海道,札幌市豊平区,月寒東一条２０丁目２－５,,01,105,0620051,,,,,,,2021-10-25,1,,,,,ファヴィス,0
2410,9430001085237,新規,0,2021-10-25,2021-10-25,株式会社ＨＡＢＩＢ　ＴＲＡＤＩＮＧ,,株式会社,北海道,江別市,朝日町１０番地の２２,,01,217,0670024,,,,,,,2021-10-25,1,,,,,ハビブトレーディング,0
2412,9430003013278,新規,0,2021-10-25,2021-10-25,合同会社マキ．ａｒｔ,,合同会社,北海道,札幌市中央区,北二条西２丁目２９番地１札幌ウイングビル８階,,01,101,0600002,,,,,,,2021-10-25,1,,,,,マキアート,0
2417,9470001018787,新規,0,2021-10-25,2021-10-25,株式会社アークバリア化学,,株式会社,香川県,高松市,木太町２６７０番地４,,37,201,7600080,,,,,,,2021-10-25,1,,,,,アークバリアカガク,0
2424,9700150104802,新規,0,2021-10-25,2021-09-21,コニャンナーレ実行委員会,,その他,滋賀県,湖南市,平松北１丁目４６美松プラザ２－Ｄ,,25,211,5203235,,,,,,,2021-09-21,1,,,,,コニヤンナーレジツコウイインカイ,0
