sequenceNumber,corporateNumber,process,correct,updateDate,changeDate,name,nameImageId,kind,prefectureName,cityName,streetNumber,addressImageId,prefectureCode,cityCode,postCode,addressOutside,addressOutsideImageId,closeDate,closeCause,successorCorporateNumber,changeCause,assignmentDate,latest,enName,enPrefectureName,enCityName,enAddressOutside,furigana,hihyoji
1,1010001035183,登記記録の閉鎖等,0,2023-09-11,2023-09-04,アイ・イー企画株式会社,,株式会社,東京都,中央区,日本橋蛎殻町１丁目１７－２ライオンズマンション日本橋６０８,,13,102,1030014,,,2023-09-04,清算の結了等,,,2015-10-05,1,,,,,アイイーキカク,0
7,1010001122634,登記記録の閉鎖等,0,2023-09-11,2023-09-04,株式会社ネクスタント,,株式会社,東京都,千代田区,外神田６丁目２番１０号アイエフ外神田４階,,13,101,1010021,,,2023-09-04,清算の結了等,,,2015-10-05,1,,,,,ネクスタント,0
28,1010401009051,登記記録の閉鎖等,0,2023-09-11,2023-08-22,ケイアンドケイエンジニアリング株式会社,,株式会社,東京都,港区,赤坂２丁目１２番２１号,,13,103,1070052,,,2023-08-22,清算の結了等,,,2015-10-05,1,,,,,ケイアンドケイエンジニアリング,0
31,1010401148502,登記記録の閉鎖等,0,2023-09-11,2023-08-21,ＳＢＩ　ＰＫＡ株式会社,,株式会社,東京都,港区,六本木１丁目６番１号,,13,103,1060032,,,2023-08-21,清算の結了等,,,2019-10-04,1,,,,,エスビーアイピーケーエー,0
41,1010602024023,登記記録の閉鎖等,0,2023-09-11,2023-09-05,有限会社りばいぶ,,有限会社,東京都,江東区,大島９丁目４番２－６０２号,,13,108,1360072,,,2023-09-05,清算の結了等,,,2015-10-05,1,,,,,リバイブ,0
44,1010801028188,登記記録の閉鎖等,0,2023-09-11,2023-09-08,株式会社能代水産,,株式会社,秋田県,能代市,字鳥小屋３６番地の１,,05,202,0160864,,,2023-09-08,清算の結了等,,,2017-09-25,1,,,,,ノシロスイサン,0
61,1011201012352,登記記録の閉鎖等,0,2023-09-11,2023-09-08,株式会社フォーライフ・チアーズ,,株式会社,東京都,中野区,東中野１丁目５７番６号,,13,114,1640003,,,2023-09-08,清算の結了等,,,2015-10-05,1,,,,,,0
74,1013201012175,登記記録の閉鎖等,0,2023-09-11,2023-09-06,株式会社プロッド,,株式会社,東京都,品川区,大崎２丁目９番２－６１８号,,13,109,1410032,,,2023-09-06,清算の結了等,,,2015-10-05,1,,,,,プロッド,0
79,1020001081524,登記記録の閉鎖等,0,2023-09-11,2023-08-31,金谷電気株式会社,,株式会社,神奈川県,川崎市高津区,東野川２丁目１５番３３号,,14,134,2130029,,,2023-08-31,清算の結了等,,,2015-10-05,1,,,,,カナヤデンキ,0
89,1020002054850,登記記録の閉鎖等,0,2023-09-11,2023-09-04,有限会社今兼,,有限会社,神奈川県,横浜市都筑区,南山田２丁目３９番４５号,,14,118,2240029,,,2023-09-04,清算の結了等,,,2015-10-05,1,,,,,イマカネ,0
92,1020002094855,登記記録の閉鎖等,0,2023-09-11,2023-09-04,有限会社ハセガワ電器,,有限会社,神奈川県,川崎市麻生区,王禅寺東４丁目３７番７号,,14,137,2150018,,,2023-09-04,清算の結了等,,,2015-10-05,1,,,,,ハセガワデンキ,0
114,1040001046913,登記記録の閉鎖等,0,2023-09-11,2023-08-28,株式会社高千穂ネットワーク,,株式会社,千葉県,佐倉市,田町７４番地１,,12,212,2850012,,,2023-08-28,清算の結了等,,,2015-10-05,1,,,,,タカチホネットワーク,0
134,1070001002541,登記記録の閉鎖等,0,2023-09-11,2023-09-05,ノザワ電子工業株式会社,,株式会社,群馬県,前橋市,箱田町４５９番地１１,,10,201,3710837,,,2023-09-05,清算の結了等,,,2015-10-05,1,,,,,,0
138,1070003002390,登記記録の閉鎖等,0,2023-09-11,2023-09-05,合同会社ミネルヴァ,,合同会社,群馬県,前橋市,上細井町６４１番地５,,10,201,3710051,,,2023-09-05,清算の結了等,,,2015-10-05,1,,,,,ミネルヴァ,0
145,1100001029300,登記記録の閉鎖等,0,2023-09-11,2023-09-01,株式会社ハイランド,,株式会社,長野県,長野市,南高田２丁目６番地１,,20,201,3810033,,,2023-09-01,合併による解散等,5100001002451,令和５年９月１日長野市西和田一丁目２９番４０号株式会社長野中央園芸市場（5100001002451）に合併し解散,2016-04-22,1,,,,,ハイランド,0
147,1100003004367,登記記録の閉鎖等,0,2023-09-11,2023-09-01,合資会社ＩＣＨＩコーポレーション,,合資会社,長野県,塩尻市,大字広丘郷原１６５７番地１,,20,215,3990704,,,2023-09-01,清算の結了等,,,2016-02-03,1,,,,,イチコーポレーション,0
152,1110001021727,登記記録の閉鎖等,0,2023-09-11,2023-09-05,株式会社共進,,株式会社,新潟県,糸魚川市,大字田海５１５５番地,,15,216,9490303,,,2023-09-05,清算の結了等,,,2015-10-05,1,,,,,キョウシン,0
166,1120003018092,登記記録の閉鎖等,0,2023-09-11,2023-09-06,合同会社大志,,合同会社,大阪府,大阪市西成区,太子２丁目３－５,,27,122,5570002,,,2023-09-06,清算の結了等,,,2020-09-24,1,,,,,タイシ,0
167,1120005008570,登記記録の閉鎖等,0,2023-09-11,2023-08-31,特定非営利活動法人Ｂｅａｕｔｉｆｕｌ　Ｆａｍｉｌｙ,,その他の設立登記法人,大阪府,大阪市西区,北堀江２丁目１番１１号久我ビル北館８階,,27,106,5500014,,,2023-08-31,清算の結了等,,,2015-10-05,1,,,,,ビューティフルファミリー,0
183,1130001044643,登記記録の閉鎖等,0,2023-09-11,2023-08-28,株式会社田丸工業,,株式会社,京都府,舞鶴市,字吉野４９９番地９,,26,202,6250003,,,2023-08-28,清算の結了等,,,2015-10-05,1,,,,,タマルコウギョウ,0
200,1140005001730,登記記録の閉鎖等,0,2023-09-11,2023-09-06,一般財団法人兵庫県教育会館,,その他の設立登記法人,兵庫県,神戸市中央区,中山手通４丁目１０番８号,,28,110,6500004,,,2023-09-06,清算の結了等,,,2015-10-05,1,,,,,ヒョウゴケンキョウイクカイカン,0
201,1140005017207,登記記録の閉鎖等,0,2023-09-11,2023-09-08,親和織物工業協同組合,,その他の設立登記法人,兵庫県,多可郡多可町,中区曽我井２８３番地,,28,365,6791131,,,2023-09-08,清算の結了等,,,2015-10-05,1,,,,,シンワオリモノコウギョウ,0
218,1180002007479,登記記録の閉鎖等,0,2023-09-11,2023-09-07,有限会社アイチ・アソシエーション,,有限会社,愛知県,名古屋市昭和区,御器所２丁目１番３号,,23,107,4660051,,,2023-09-07,清算の結了等,,,2015-10-05,1,,,,,アイチアソシエーション,0
240,1240001022175,登記記録の閉鎖等,0,2023-09-11,2023-09-06,株式会社巻寿司家,,株式会社,広島県,広島市西区,井口５丁目３番１号,,34,104,7330842,,,2023-09-06,清算の結了等,,,2015-10-05,1,,,,,マキズシヤ,0
241,1240001029666,登記記録の閉鎖等,0,2023-09-11,2023-09-01,青葉製本株式会社,,株式会社,広島県,福山市,熊野町字坂根丙１７５９番地,,34,207,7200411,,,2023-09-01,合併による解散等,9240001029667,令和５年９月１日広島県福山市北本庄一丁目１５番１号青葉紙業株式会社（9240001029667）に合併し解散,2015-10-05,1,,,,,アオバセイホン,0
242,1240001046091,登記記録の閉鎖等,0,2023-09-11,2023-09-01,東栄工業株式会社,,株式会社,広島県,呉市,広多賀谷３丁目３番４号,,34,202,7370134,,,2023-09-01,合併による解散等,9240001026243,令和５年９月１日広島県呉市広多賀谷三丁目３番４号東方金属株式会社（9240001026243）に合併し解散,2015-10-05,1,,,,,トウエイコウギョウ,0
260,1290801018310,登記記録の閉鎖等,0,2023-09-11,2023-09-07,株式会社新生堂,,株式会社,福岡県,北九州市八幡西区,鷹の巣２丁目１３番３号,,40,109,8060047,,,2023-09-07,清算の結了等,,,2015-10-05,1,,,,,シンセイドウ,0
262,1320001010064,登記記録の閉鎖等,0,2023-09-11,2023-09-06,株式会社ダイテック,,株式会社,大分県,日田市,若宮町４番７号,,44,204,8770037,,,2023-09-06,清算の結了等,,,2015-10-05,1,,,,,ダイテック,0
264,1320002020822,登記記録の閉鎖等,0,2023-09-11,2023-09-04,大和家具有限会社,,有限会社,大分県,中津市,新魚町１９４４番地の２,,44,203,8710048,,,2023-09-04,清算の結了等,,,2015-10-05,1,,,,,,0
267,1330003008551,登記記録の閉鎖等,0,2023-09-11,2023-09-01,合同会社ＹＫアセット,,合同会社,熊本県,熊本市東区,健軍１丁目３番１－１００１号,,43,102,8620911,,,2023-09-01,合併による解散等,3330003005340,令和５年９月１日熊本市中央区九品寺三丁目１５番４号合同会社九品寺七号（3330003005340）に合併し解散,2020-09-02,1,,,,,ワイケイアセット,0
273,1360001025356,登記記録の閉鎖等,0,2023-09-11,2023-09-06,なはエネルギー株式会社,,株式会社,沖縄県,那覇市,前島２丁目１番５号,,47,201,9000016,,,2023-09-06,清算の結了等,,,2019-03-07,1,,,,,ナハエネルギー,0
281,1380001003649,登記記録の閉鎖等,0,2023-09-11,2023-09-05,株式会社横江商店,,株式会社,福島県,福島市,陣場町７番２６号,,07,201,9608032,,,2023-09-05,清算の結了等,,,2015-10-05,1,,,,,ヨコエショウテン,0
286,1390001001164,登記記録の閉鎖等,0,2023-09-11,2023-09-04,株式会社高橋ドライクリーニング工場,,株式会社,山形県,山形市,銅町２丁目２３番１１号,,06,201,9900051,,,2023-09-04,清算の結了等,,,2015-10-05,1,,,,,タカハシドライクリーニングコウジョウ,0
331,2010401063865,登記記録の閉鎖等,0,2023-09-11,2023-08-22,ナヴィス東京株式会社,,株式会社,東京都,港区,海岸３丁目３３番１０号,,13,103,1080022,,,2023-08-22,清算の結了等,,,2015-10-05,1,,,,,ナヴィストウキョウ,0
340,2010402010478,登記記録の閉鎖等,0,2023-09-11,2023-09-07,有限会社バンビー薬局,,有限会社,東京都,港区,新橋３丁目１９番２号,,13,103,1050004,,,2023-09-07,合併による解散等,4120001131547,令和５年９月１日大阪市淀川区宮原四丁目５番３６号株式会社キリン堂（4120001131547）に合併し解散,2015-10-05,1,,,,,バンビーヤッキョク,0
368,2011103012053,登記記録の閉鎖等,0,2023-09-11,2023-09-04,ＴＲＥＳＳＡ合同会社,,合同会社,東京都,豊島区,西池袋３丁目１１－４－２０２,,13,116,1710021,,,2023-09-04,清算の結了等,,,2022-08-09,1,,,,,トレッサ,0
381,2011501013413,登記記録の閉鎖等,0,2023-09-11,2023-09-05,オクトシステム株式会社,,株式会社,東京都,北区,十条台１丁目４番１２－６０５号,,13,117,1140033,,,2023-09-05,清算の結了等,,,2015-10-05,1,,,,,オクトシステム,0
384,2011502016217,登記記録の閉鎖等,0,2023-09-11,2023-09-04,有限会社ニュービギニングス,,有限会社,東京都,荒川区,東日暮里５丁目２４番１０号,,13,118,1160014,,,2023-09-04,清算の結了等,,,2015-10-05,1,,,,,ニュービギニングス,0
400,2013405000685,登記記録の閉鎖等,0,2023-09-11,2023-09-07,特定非営利活動法人いなぎ里山グリーンワーク,,その他の設立登記法人,東京都,稲城市,東長沼２１０８番地の４川島荘１０２号室,,13,225,2060802,,,2023-09-07,清算の結了等,,,2015-10-05,1,,,,,イナギサトヤマグリーンワーク,0
432,2040001041137,登記記録の閉鎖等,0,2023-09-11,2023-08-28,株式会社Ｐ－ＮＥＴ,,株式会社,千葉県,松戸市,五香西１丁目１１番地１,,12,207,2702218,,,2023-08-28,清算の結了等,,,2015-10-05,1,,,,,,0
443,2050002020634,登記記録の閉鎖等,0,2023-09-11,2023-09-07,株式会社アラ川,,株式会社,埼玉県,越谷市,大字北川崎６７２番地１,,11,222,3430006,,,2023-09-07,合併による解散等,4050002017521,令和５年９月１日茨城県下妻市別府３０７番地１株式会社アラ川（4050002017521）に合併し解散,2015-10-05,1,,,,,アラカワ,0
466,2120001149748,登記記録の閉鎖等,0,2023-09-11,2023-09-07,株式会社忍ガ丘興産,,株式会社,大阪府,枚方市,田口山１丁目９番５号,,27,210,5730001,,,2023-09-07,清算の結了等,,,2015-10-05,1,,,,,シノブガオカコウサン,0
491,2140001023331,登記記録の閉鎖等,0,2023-09-11,2023-09-01,株式会社極東ブレイン,,株式会社,兵庫県,芦屋市,茶屋之町２番２１－３０３号,,28,206,6590067,,,2023-09-01,合併による解散等,8140001034918,令和５年９月１日兵庫県明石市大久保町江井島１３８８番地三陽工業株式会社（8140001034918）に合併し解散,2015-10-05,1,,,,,キョクトウブレイン,0
503,2140005026413,登記記録の閉鎖等,0,2023-09-11,2023-09-06,ＮＰＯ法人ＰＥＡＣＥ　ＡＳＩＡ,,その他の設立登記法人,兵庫県,三田市,富士が丘５丁目９番地１６,,28,219,6691547,,,2023-09-06,清算の結了等,,,2022-12-20,1,,,,,ピースアジア,0
504,2160001018825,登記記録の閉鎖等,0,2023-09-11,2023-09-07,リ・ソート株式会社,,株式会社,滋賀県,彦根市,高宮町２１２６番地１,,25,202,5220201,,,2023-09-07,清算の結了等,,,2015-10-05,1,,,,,リソート,0
513,2180001152317,登記記録の閉鎖等,0,2023-09-11,2023-09-05,株式会社ゴールドセキュリティ,,株式会社,愛知県,名古屋市千種区,仲田２丁目１７番２１号ＢＢ池下ビル２階２Ｆ号室,,23,101,4640074,,,2023-09-05,清算の結了等,,,2022-07-26,1,,,,,ゴールドセキュリティ,0
516,2180002034233,登記記録の閉鎖等,0,2023-09-11,2023-09-05,有限会社ティ．エス．ケイ,,有限会社,愛知県,名古屋市北区,中丸町２丁目３５番地３,,23,103,4620056,,,2023-09-05,清算の結了等,,,2015-10-05,1,,,,,ティエスケイ,0
517,2180002040594,登記記録の閉鎖等,0,2023-09-11,2023-09-01,有限会社山本金型製作所,,有限会社,愛知県,清須市,西堀江２３７４番地,,23,233,4520917,,,2023-09-01,清算の結了等,,,2015-10-05,1,,,,,ヤマモトカナガタセイサクショ,0
518,2180002052763,登記記録の閉鎖等,0,2023-09-11,2023-09-05,有限会社プロスペリテ,,有限会社,愛知県,名古屋市守山区,大森１丁目３３０３番地,,23,113,4630021,,,2023-09-05,清算の結了等,,,2015-10-05,1,,,,,プロスペリテ,0
520,2180002083593,登記記録の閉鎖等,0,2023-09-11,2023-09-04,有限会社田中屋自動車,,有限会社,愛知県,半田市,一本木町１丁目３番地１,,23,205,4750014,,,2023-09-04,清算の結了等,,,2015-10-05,1,,,,,タナカヤジドウシャ,0
521,2180003000465,登記記録の閉鎖等,0,2023-09-11,2023-09-04,合資会社満月園,,合資会社,愛知県,名古屋市千種区,春岡１丁目４番５号,,23,101,4640848,,,2023-09-04,清算の結了等,,,2015-10-05,1,,,,,マンゲツエン,0
534,2260002025744,登記記録の閉鎖等,0,2023-09-11,2023-09-06,有限会社アールエイチ,,有限会社,岡山県,笠岡市,吉田３５番地３,,33,205,7140011,,,2023-09-06,清算の結了等,,,2015-10-05,1,,,,,アールエイチ,0
550,2290801001496,登記記録の閉鎖等,0,2023-09-11,2023-09-05,小倉鉄道株式会社,,株式会社,福岡県,北九州市小倉南区,大字木下７７２番地,,40,107,8030184,,,2023-09-05,清算の結了等,,,2015-10-05,1,,,,,コクラテツドウ,0
553,2310002007217,登記記録の閉鎖等,0,2023-09-11,2023-09-07,有限会社まるよし松尾蒲鉾,,有限会社,長崎県,長崎市,野母町２５３６番地,,42,201,8510505,,,2023-09-07,清算の結了等,,,2015-10-05,1,,,,,マルヨシマツオカマボコ,0
556,2310003004320,登記記録の閉鎖等,0,2023-09-11,2023-09-07,合同会社ＲｅＬｅａｆ,,合同会社,長崎県,長崎市,けやき台町１番３号,,42,201,8528146,,,2023-09-07,清算の結了等,,,2022-04-05,1,,,,,レリーフ,0
561,2330002004591,登記記録の閉鎖等,0,2023-09-11,2023-09-01,有限会社サトシ興建,,有限会社,熊本県,熊本市北区,池田３丁目５７番１－１０４号,,43,105,8600082,,,2023-09-01,清算の結了等,,,2015-10-05,1,,,,,サトシコウケン,0
577,2390002008224,登記記録の閉鎖等,0,2023-09-11,2023-09-06,有限会社関根ファーム,,有限会社,山形県,飽海郡遊佐町,野沢字長坂８４番地,,06,461,9998303,,,2023-09-06,清算の結了等,,,2015-10-05,1,,,,,セキネファーム,0
580,2410005004622,登記記録の閉鎖等,0,2023-09-11,2023-09-01,特定非営利活動法人ＮＰＯあいあんぐる,,その他の設立登記法人,秋田県,仙北郡美郷町,六郷字熊野２１３番地３,,05,434,0191404,,,2023-09-01,清算の結了等,,,2015-10-05,1,,,,,エヌピーオーアイアングル,0
584,2440001002016,登記記録の閉鎖等,0,2023-09-11,2023-09-06,株式会社北海道宅建,,株式会社,北海道,函館市,美原１丁目３番５号,,01,202,0410806,,,2023-09-06,清算の結了等,,,2015-10-05,1,,,,,ホッカイドウタッケン,0
585,2440002009159,登記記録の閉鎖等,0,2023-09-11,2023-09-01,有限会社角機械店,,有限会社,北海道,茅部郡森町,字港町２８番地,,01,345,0492302,,,2023-09-01,清算の結了等,,,2015-10-05,1,,,,,カクキカイテン,0
590,2470002019683,登記記録の閉鎖等,0,2023-09-11,2023-09-05,鈴丸産業有限会社,,有限会社,香川県,高松市,牟礼町原５６５番地,,37,201,7610123,,,2023-09-05,清算の結了等,,,2023-07-24,1,,,,,,0
617,3010401175511,登記記録の閉鎖等,0,2023-09-11,2023-09-07,ｆｌｉｘｙ株式会社,,株式会社,東京都,港区,芝大門２丁目５番５号,,13,103,1050012,,,2023-09-07,合併による解散等,1011001111461,令和５年９月１日東京都中央区日本橋室町一丁目５番２号アンター株式会社（1011001111461）に合併し解散,2023-07-10,1,,,,,フリクシー,0
627,3010403016853,登記記録の閉鎖等,0,2023-09-11,2023-08-23,合同会社花園リアルティ,,合同会社,東京都,港区,六本木６丁目１０番１号六本木ヒルズ森タワー,,13,103,1060032,,,2023-08-23,清算の結了等,,,2017-07-05,1,,,,,ハナゾノリアルティ,0
635,3010702002554,登記記録の閉鎖等,0,2023-09-11,2023-09-06,有限会社クリーンアップ,,有限会社,東京都,品川区,豊町５丁目６番４号,,13,109,1420042,,,2023-09-06,清算の結了等,,,2015-10-05,1,,,,,クリーンアップ,0
639,3011001002535,登記記録の閉鎖等,0,2023-09-11,2023-09-06,株式会社インテリアデザインヨコタ,,株式会社,東京都,多摩市,桜ヶ丘２丁目２１番地の２１,,13,224,2060013,,,2023-09-06,清算の結了等,,,2015-10-05,1,,,,,インテリアデザインヨコタ,0
657,3011401014130,登記記録の閉鎖等,0,2023-09-11,2023-09-07,石塚印刷株式会社,,株式会社,東京都,板橋区,仲町２８番３号,,13,119,1730022,,,2023-09-07,清算の結了等,,,2015-10-05,1,,,,,イシバシインサツ,0
668,3012702002360,登記記録の閉鎖等,0,2023-09-11,2023-09-06,有限会社エダヤ住建,,有限会社,東京都,東村山市,萩山町１丁目９番地１,,13,213,1890012,,,2023-09-06,清算の結了等,,,2015-10-05,1,,,,,,0
671,3020001006603,登記記録の閉鎖等,0,2023-09-11,2023-09-04,株式会社西立水産,,株式会社,神奈川県,横浜市金沢区,鳥浜町１番１,,14,108,2360002,,,2023-09-04,清算の結了等,,,2015-10-05,1,,,,,ニシタチスイサン,0
685,3030001033134,登記記録の閉鎖等,0,2023-09-11,2023-08-16,株式会社アドバンス,,株式会社,埼玉県,羽生市,北３丁目９番１７号,,11,216,3480057,,,2023-08-16,清算の結了等,,,2015-10-05,1,,,,,アドバンス,0
712,3080101001746,登記記録の閉鎖等,0,2023-09-11,2023-09-07,株式会社ホームケアコミュニケーション,,株式会社,静岡県,沼津市,下香貫汐入２１８５番地の６,,22,203,4100822,,,2023-09-07,清算の結了等,,,2015-10-05,1,,,,,ホームケアコミュニケーション,0
743,3120005017306,登記記録の閉鎖等,0,2023-09-11,2023-09-07,一般社団法人感性ビジネス研究会,,その他の設立登記法人,大阪府,大阪市東淀川区,南江口３丁目４番４８号,,27,114,5330003,,,2023-09-07,清算の結了等,,,2015-10-05,1,,,,,カンセイビジネスケンキュウカイ,0
748,3120902007697,登記記録の閉鎖等,0,2023-09-11,2023-09-06,有限会社まつい,,有限会社,大阪府,吹田市,古江台２丁目１０番３号,,27,205,5650874,,,2023-09-06,清算の結了等,,,2015-10-05,1,,,,,マツイ,0
753,3130001050904,登記記録の閉鎖等,0,2023-09-11,2023-09-04,麹町建物管理株式会社,,株式会社,東京都,千代田区,麹町４丁目８番地１９,,13,101,1020083,,,2023-09-04,清算の結了等,,,2015-10-05,1,,,,,コウジマチタテモノカンリ,0
769,3140001079587,登記記録の閉鎖等,0,2023-09-11,2023-09-01,株式会社花宇,,株式会社,兵庫県,川西市,絹延町３番１０号,,28,217,6660012,,,2023-09-01,合併による解散等,8140001105124,令和５年９月１日兵庫県川西市絹延町３番１０号株式会社花宇宙（8140001105124）に合併し解散,2015-10-05,1,,,,,ハナウ,0
787,3180001023401,登記記録の閉鎖等,0,2023-09-11,2023-09-04,株式会社神田,,株式会社,愛知県,名古屋市天白区,中平２丁目１２１４番地,,23,116,4680014,,,2023-09-04,清算の結了等,,,2015-10-05,1,,,,,ジンデン,0
799,3200001019553,登記記録の閉鎖等,0,2023-09-11,2023-09-08,株式会社北斗産業,,株式会社,岐阜県,関市,倉知字五反田２２１２番地の１,,21,205,5013936,,,2023-09-08,清算の結了等,,,2015-10-05,1,,,,,,0
805,3210002004603,登記記録の閉鎖等,0,2023-09-11,2023-09-05,有限会社楽市コンピタンス,,有限会社,福井県,福井市,日光２丁目２番７号,,18,201,9100029,,,2023-09-05,合併による解散等,8210001001844,令和５年９月１日福井市日光二丁目２番７号株式会社ダイナリンクス（8210001001844）に合併し解散,2015-10-05,1,,,,,ラクイチコンピタンス,0
810,3240001000071,登記記録の閉鎖等,0,2023-09-11,2023-09-01,旭住建株式会社,,株式会社,広島県,広島市中区,河原町８番９号,,34,101,7300856,,,2023-09-01,合併による解散等,7240002035732,令和５年９月１日広島市中区小町８番２号３Ｆ日吉海運株式会社（7240002035732）に合併し解散,2015-10-05,1,,,,,アサヒジュウケン,0
828,3290002013547,登記記録の閉鎖等,0,2023-09-11,2023-08-29,有限会社ユーセイ,,有限会社,福岡県,福岡市中央区,赤坂２丁目１番１２－８０８号,,40,133,8100042,,,2023-08-29,清算の結了等,,,2015-10-05,1,,,,,ユーセイ,0
845,3340002013525,登記記録の閉鎖等,0,2023-09-11,2023-09-07,有限会社鏡橋組,,有限会社,鹿児島県,霧島市,国分新町１丁目３番５１－１号,,46,218,8994351,,,2023-09-07,清算の結了等,,,2015-10-05,1,,,,,カガミバシグミ,0
855,3370305000102,登記記録の閉鎖等,0,2023-09-11,2023-09-01,石巻市超低温冷蔵事業協同組合,,その他の設立登記法人,宮城県,石巻市,魚町２丁目１４番地,,04,202,9860022,,,2023-09-01,清算の結了等,,,2015-10-05,1,,,,,イシノマキシチョウテイオンレイゾウ,0
872,3500002005340,登記記録の閉鎖等,0,2023-09-11,2023-09-07,有限会社坂東ガス店,,有限会社,愛媛県,松山市,立花１丁目６番２９号,,38,201,7900966,,,2023-09-07,清算の結了等,,,2015-10-05,1,,,,,バンドウガステン,0
882,4010001201583,登記記録の閉鎖等,0,2023-09-11,2023-09-01,株式会社ＳＴＹＬＥ　ＶＯＩＣＥ,,株式会社,東京都,千代田区,麹町５丁目７番地２,,13,101,1020083,,,2023-09-01,合併による解散等,9011001093908,令和５年９月１日東京都千代田区麹町五丁目７番地１株式会社ウサギオンライン（9011001093908）に合併し解散,2019-06-13,1,,,,,スタイルヴォイス,0
893,4010003039551,登記記録の閉鎖等,0,2023-09-11,2023-09-05,Ｏｔｅｍａｃｈｉ　Ｈｏｌｄｉｎｇｓ合同会社,,合同会社,東京都,千代田区,大手町１丁目２番１号,,13,101,1000004,,,2023-09-05,合併による解散等,9011001029944,令和５年８月３１日東京都渋谷区代々木二丁目６番５号りらいあコミュニケーションズ株式会社（9011001029944）に合併し解散,2023-01-13,1,,,,,オオテマチホールディングス,0
901,4010401062221,登記記録の閉鎖等,0,2023-09-11,2023-08-21,株式会社アンチエイジングコンサルティングシステムズ,,株式会社,東京都,港区,赤坂３丁目１３－１０新赤坂ビル５階,,13,103,1070052,,,2023-08-21,清算の結了等,,,2015-10-05,1,,,,,アンチエイジングコンサルティングシステムズ,0
903,4010401139218,登記記録の閉鎖等,0,2023-09-11,2023-09-06,株式会社ガタカ,,株式会社,東京都,渋谷区,広尾５丁目１４番２号,,13,113,1500012,,,2023-09-06,清算の結了等,,,2018-06-27,1,,,,,ガタカ,0
916,4010602016208,登記記録の閉鎖等,0,2023-09-11,2023-09-05,有限会社湯本酒店,,有限会社,東京都,墨田区,京島３丁目６３番６号,,13,107,1310046,,,2023-09-05,清算の結了等,,,2015-10-05,1,,,,,ユモトサケテン,0
927,4010901031386,登記記録の閉鎖等,0,2023-09-11,2023-09-07,株式会社ＫＥＹ　ＬＡＮＤ,,株式会社,東京都,港区,新橋１丁目１０番９号タカセビル５階,,13,103,1050004,,,2023-09-07,合併による解散等,4120001131547,令和５年９月１日大阪市淀川区宮原四丁目５番３６号株式会社キリン堂（4120001131547）に合併し解散,2015-10-05,1,,,,,キーランド,0
944,4011003011789,登記記録の閉鎖等,0,2023-09-11,2023-08-01,合同会社Ｃｏｌｏｒ　Ｕｐ,,合同会社,東京都,渋谷区,渋谷１丁目１番６号エムエフ青山３０１,,13,113,1500002,,,2023-08-01,清算の結了等,,,2020-10-23,1,,,,,カラーアップ,0
986,4030002110757,登記記録の閉鎖等,0,2023-09-11,2023-08-17,鈴木損保サービス有限会社,,有限会社,埼玉県,川口市,川口１丁目３番７号,,11,203,3320015,,,2023-08-17,清算の結了等,,,2015-10-05,1,,,,,スズキソンポサービス,0
990,4040001041416,登記記録の閉鎖等,0,2023-09-11,2023-08-24,株式会社住千,,株式会社,千葉県,松戸市,五香西２丁目１１番地１１,,12,207,2702218,,,2023-08-24,清算の結了等,,,2015-10-05,1,,,,,ジュウセン,0
991,4040001067618,登記記録の閉鎖等,0,2023-09-11,2023-08-28,株式会社アズコーポレーション,,株式会社,千葉県,柏市,西原２丁目４番１号,,12,217,2770885,,,2023-08-28,清算の結了等,,,2015-10-05,1,,,,,アズコーポレーション,0
1019,4120001042323,登記記録の閉鎖等,0,2023-09-11,2023-09-01,加茂実業株式会社,,株式会社,大阪府,大阪市中央区,南船場３丁目１１番１号,,27,128,5420081,,,2023-09-01,合併による解散等,3120001212661,令和５年９月１日大阪市中央区南船場三丁目１１番１号株式会社ビナイブル（3120001212661）に合併し解散,2015-10-05,1,,,,,カモジツギョウ,0
1020,4120001091295,登記記録の閉鎖等,0,2023-09-11,2023-09-08,株式会社山口商会,,株式会社,大阪府,大阪市中央区,玉造２丁目１７番１６号,,27,128,5400004,,,2023-09-08,清算の結了等,,,2015-10-05,1,,,,,ヤマグチショウカイ,0
1023,4120003009667,登記記録の閉鎖等,0,2023-09-11,2023-09-04,合同会社ジニア,,合同会社,大阪府,大阪市東成区,神路２丁目７番１３号,,27,115,5370003,,,2023-09-04,清算の結了等,,,2015-10-05,1,,,,,ジニア,0
1031,4120105008699,登記記録の閉鎖等,0,2023-09-11,2023-09-05,特定非営利活動法人健康ファーム,,その他の設立登記法人,大阪府,泉佐野市,日根野２２３６番地の６,,27,213,5980021,,,2023-09-05,清算の結了等,,,2017-05-30,1,,,,,ケンコウファーム,0
1051,4140001040052,登記記録の閉鎖等,0,2023-09-11,2023-09-05,株式会社ユニテック・アドバンス,,株式会社,兵庫県,赤穂市,尾崎７９９番地,,28,212,6780221,,,2023-09-05,清算の結了等,,,2015-10-05,1,,,,,ユニテックアドバンス,0
1079,4180305008519,登記記録の閉鎖等,0,2023-09-11,2023-08-31,社会保険労務士法人平石事務所,,その他の設立登記法人,愛知県,蒲郡市,大塚町丸山１２８番地,,23,214,4430013,,,2023-08-31,清算の結了等,,,2016-06-14,1,,,,,ヒライシジムショ,0
1080,4190001010364,登記記録の閉鎖等,0,2023-09-11,2023-09-01,司化成株式会社,,株式会社,三重県,松阪市,大口町字北浜５７８番地の４,,24,204,5150001,,,2023-09-01,清算の結了等,,,2015-10-05,1,,,,,ツカサカセイ,0
1107,4290001053568,登記記録の閉鎖等,0,2023-09-11,2023-08-29,株式会社ノナカ,,株式会社,福岡県,大川市,大字道海島３５５番地の３,,40,212,8310007,,,2023-08-29,清算の結了等,,,2015-10-05,1,,,,,ノナカ,0
1124,4330002001430,登記記録の閉鎖等,0,2023-09-11,2023-09-05,有限会社江津美装,,有限会社,熊本県,熊本市東区,下江津５丁目９番１０号,,43,102,8620960,,,2023-09-05,清算の結了等,,,2015-10-05,1,,,,,エヅビソウ,0
1138,4370302000153,登記記録の閉鎖等,0,2023-09-11,2023-09-04,有限会社アサヒセキュリティ,,有限会社,宮城県,東松島市,大曲字堰の内南１２２番地６,,04,214,9810502,,,2023-09-04,清算の結了等,,,2015-10-05,1,,,,,アサヒセキュリティ,0
1139,4380001014016,登記記録の閉鎖等,0,2023-09-11,2023-09-05,柳内水産株式会社,,株式会社,福島県,いわき市,小名浜字燈籠原１０８番地の１,,07,204,9718101,,,2023-09-05,清算の結了等,,,2015-10-05,1,,,,,ヤナイスイサン,0
1148,4410001010911,登記記録の閉鎖等,0,2023-09-11,2023-09-04,新進株式会社,,株式会社,秋田県,大館市,御成町１丁目１５番５号,,05,204,0170044,,,2023-09-04,合併による解散等,5410001006157,令和５年９月４日秋田県大館市御成町一丁目１５番５号三六九株式会社（5410001006157）に合併し解散,2015-10-05,1,,,,,シンシン,0
1151,4440001001701,登記記録の閉鎖等,0,2023-09-11,2023-09-06,株式会社函館中央ガスサービス,,株式会社,北海道,函館市,千代台町８番１３号,,01,202,0400013,,,2023-09-06,清算の結了等,,,2015-10-05,1,,,,,ハコダテチュウオウガスサービス,0
1155,4470001006078,登記記録の閉鎖等,0,2023-09-11,2023-09-05,株式会社ユニバーサルデザイン・メディア工房,,株式会社,香川県,高松市,丸亀町１番地１,,37,201,7600029,,,2023-09-05,清算の結了等,,,2015-10-05,1,,,,,ユニバーサルデザインメディアコウボウ,0
1160,4490001001498,登記記録の閉鎖等,0,2023-09-11,2023-09-07,株式会社天王コーポレーション,,株式会社,高知県,高知市,北竹島町４２７番地３,,39,201,7808019,,,2023-09-07,清算の結了等,,,2023-07-31,1,,,,,テンノウコーポレーション,0
1177,5010001227834,登記記録の閉鎖等,0,2023-09-11,2023-09-07,株式会社ＷＨ　Ｔｅｃｈ,,株式会社,東京都,中央区,銀座１丁目１２番４号Ｎ＆Ｅ・ＢＬＤ．７階,,13,102,1040061,,,2023-09-07,清算の結了等,,,2022-07-08,1,,,,,ダブルエイチテック,0
1213,5011001055770,登記記録の閉鎖等,0,2023-09-11,2023-09-01,株式会社ｐｌａｙｗｉｔｈ　ｐａｒｔｎｅｒｓ,,株式会社,東京都,渋谷区,恵比寿１丁目２１番１８－５０１号,,13,113,1500013,,,2023-09-01,合併による解散等,1011001070063,令和５年９月１日東京都渋谷区恵比寿一丁目２１番１８－５０１号株式会社ｐａｒｔｙｆａｃｔｏｒｙ（1011001070063）に合併し解散,2015-10-05,1,,,,,プレイウィズパートナーズ,0
1229,5011301025845,登記記録の閉鎖等,0,2023-09-11,2023-09-07,株式会社ＴＥＯ,,株式会社,東京都,杉並区,高円寺南４丁目２６番１６号,,13,115,1660003,,,2023-09-07,合併による解散等,7010901016087,令和５年９月１日東京都世田谷区北沢二丁目１９番１０号フジミハウジング株式会社（7010901016087）に合併し解散,2020-04-07,1,,,,,テオ,0
1246,5012303000654,登記記録の閉鎖等,0,2023-09-11,2023-09-07,合同会社ベリー・ワークショップ,,合同会社,東京都,町田市,図師町６１４番地１８ブルーベリーヒルズＦ－１０１,,13,209,1940203,,,2023-09-07,清算の結了等,,,2015-10-05,1,,,,,,0
1261,5020005004155,登記記録の閉鎖等,0,2023-09-11,2023-09-01,特定非営利活動法人あらかしの丘,,その他の設立登記法人,神奈川県,横浜市青葉区,青葉台２丁目２０番地１１,,14,117,2270062,,,2023-09-01,清算の結了等,,,2015-10-05,1,,,,,アラカシノオカ,0
1267,5030001038791,登記記録の閉鎖等,0,2023-09-11,2023-08-16,アーバンプロデュース株式会社,,株式会社,埼玉県,八潮市,大字大曽根１９番地６グリーンパーク第１１－３０８号,,11,234,3400834,,,2023-08-16,清算の結了等,,,2015-10-05,1,,,,,アーバンプロデュース,0
1295,5050001047700,登記記録の閉鎖等,0,2023-09-11,2023-09-05,０２１　ＴＨＥ　ＷＯＲＬＤ株式会社,,株式会社,茨城県,取手市,青柳４５０－９,,08,217,3020006,,,2023-09-05,合併による解散等,9011101077265,令和５年９月１日東京都渋谷区渋谷２－１４－６第２かわなビル７Ｆ株式会社ＦＲＥＥＤｉＶＥ（9011101077265）に合併し解散,2020-06-25,1,,,,,オーツワンザワールド,0
1301,5050003001498,登記記録の閉鎖等,0,2023-09-11,2023-09-05,合資会社双栄不動産,,合資会社,茨城県,日立市,折笠町５６４番地２,,08,202,3191412,,,2023-09-05,清算の結了等,,,2015-10-05,1,,,,,ソウエイフドウサン,0
1313,5100002031103,登記記録の閉鎖等,0,2023-09-11,2023-09-01,有限会社唐沢工務店,,有限会社,長野県,岡谷市,田中町１丁目４番２号,,20,204,3940031,,,2023-09-01,清算の結了等,,,2015-10-05,1,,,,,カラサワコウムテン,0
1334,5120905001547,登記記録の閉鎖等,0,2023-09-11,2023-09-05,医療法人山本医院,,その他の設立登記法人,大阪府,吹田市,寿町２丁目１１番１８号,,27,205,5640036,,,2023-09-05,清算の結了等,,,2015-10-05,1,,,,,ヤマモトイイン,0
1345,5140001095797,登記記録の閉鎖等,0,2023-09-11,2023-09-04,株式会社Ｏｓ,,株式会社,兵庫県,神戸市長田区,山下町３丁目２－２３,,28,106,6530852,,,2023-09-04,清算の結了等,,,2015-10-05,1,,,,,オズ,0
1360,5180002043223,登記記録の閉鎖等,0,2023-09-11,2023-09-06,有限会社服部商店,,有限会社,愛知県,名古屋市熱田区,二番１丁目２番２３号,,23,109,4560052,,,2023-09-06,清算の結了等,,,2015-10-05,1,,,,,ハットリショウテン,0
1371,5230001005326,登記記録の閉鎖等,0,2023-09-11,2023-09-07,株式会社テック・ダイ,,株式会社,富山県,富山市,八尾町杉田６７９番地１,,16,201,9392302,,,2023-09-07,清算の結了等,,,2015-10-05,1,,,,,テックダイ,0
1376,5240001026247,登記記録の閉鎖等,0,2023-09-11,2023-09-01,東方プレス工業株式会社,,株式会社,広島県,呉市,広多賀谷３丁目３番４号,,34,202,7370134,,,2023-09-01,合併による解散等,9240001026243,令和５年９月１日広島県呉市広多賀谷三丁目３番４号東方金属株式会社（9240001026243）に合併し解散,2015-10-05,1,,,,,トウホウプレスコウギョウ,0
1381,5260001013532,登記記録の閉鎖等,0,2023-09-11,2023-09-05,三福織物株式会社,,株式会社,岡山県,倉敷市,児島唐琴３丁目２番５号,,33,202,7110904,,,2023-09-05,清算の結了等,,,2015-10-05,1,,,,,サンプクオリモノ,0
1385,5280002009305,登記記録の閉鎖等,0,2023-09-11,2023-09-07,有限会社ホテル敬川,,有限会社,島根県,江津市,敬川町２３１１番地２,,32,207,6993162,,,2023-09-07,清算の結了等,,,2015-10-05,1,,,,,ホテルウヤガワ,0
1386,5280002011211,登記記録の閉鎖等,0,2023-09-11,2023-09-05,有限会社伊東工務店,,有限会社,島根県,雲南市,三刀屋町乙加宮１２５７番地,,32,209,6902634,,,2023-09-05,清算の結了等,,,2015-10-05,1,,,,,イトウコウムテン,0
1387,5290001004306,登記記録の閉鎖等,0,2023-09-11,2023-08-25,立東電機株式会社,,株式会社,福岡県,福岡市西区,大字徳永３８４番地８,,40,135,8190375,,,2023-08-25,清算の結了等,,,2015-10-05,1,,,,,リットウデンキ,0
1390,5290001067393,登記記録の閉鎖等,0,2023-09-11,2023-08-30,株式会社ながの,,株式会社,福岡県,春日市,一の谷３丁目１５０番地２,,40,218,8160852,,,2023-08-30,清算の結了等,,,2015-10-05,1,,,,,ナガノ,0
1391,5290001074349,登記記録の閉鎖等,0,2023-09-11,2023-08-29,株式会社たつみ,,株式会社,福岡県,大野城市,白木原１丁目８番１号,,40,219,8160943,,,2023-08-29,清算の結了等,,,2016-06-23,1,,,,,タツミ,0
1404,5320001013278,登記記録の閉鎖等,0,2023-09-11,2023-09-01,株式会社おがた生コン,,株式会社,大分県,豊後大野市,緒方町下自在９６番地１,,44,212,8796643,,,2023-09-01,合併による解散等,8320001009570,令和５年９月１日大分県豊後大野市千歳町長峰１５７９番地１恵藤建設株式会社（8320001009570）に合併し解散,2015-10-05,1,,,,,,0
1412,5360003011210,登記記録の閉鎖等,0,2023-09-11,2023-09-06,ｃｏｎｆ合同会社,,合同会社,沖縄県,那覇市,久茂地１丁目１－１、９Ｆ,,47,201,9000015,,,2023-09-06,清算の結了等,,,2021-06-15,1,,,,,コンフ,0
1414,5370001043444,登記記録の閉鎖等,0,2023-09-11,2023-09-04,あＨＡｈａ建設株式会社,,株式会社,宮城県,仙台市青葉区,国分町３丁目１０－２４－２０５,,04,101,9800803,,,2023-09-04,清算の結了等,,,2018-08-23,1,,,,,,0
1438,5460101005293,登記記録の閉鎖等,0,2023-09-11,2023-09-07,株式会社コタケファーム,,株式会社,北海道,河東郡音更町,字東和基線１７番地,,01,631,0800151,,,2023-09-07,清算の結了等,,,2015-10-05,1,,,,,コタケファーム,0
1449,6010001156776,登記記録の閉鎖等,0,2023-09-11,2023-09-01,株式会社八重洲ライフ,,株式会社,東京都,中央区,日本橋室町１丁目２番６号,,13,102,1030022,,,2023-09-01,合併による解散等,1010001197313,令和５年９月１日東京都中央区日本橋室町一丁目２番６号ＯＫジョブ株式会社（1010001197313）に合併し解散,2015-10-05,1,,,,,ヤエスライフ,0
1466,6010401169155,登記記録の閉鎖等,0,2023-09-11,2023-08-22,Ｐａｙｓｅｎｄ　Ｊａｐａｎ株式会社,,株式会社,東京都,港区,南青山２丁目２番１５号ウィン青山９４２,,13,103,1070062,,,2023-08-22,清算の結了等,,,2022-08-19,1,,,,,ペイセンドジャパン,0
1481,6010701020736,登記記録の閉鎖等,0,2023-09-11,2023-09-05,株式会社ソフィア,,株式会社,東京都,品川区,東大井２丁目１番６号南ビル４階,,13,109,1400011,,,2023-09-05,清算の結了等,,,2015-10-05,1,,,,,ソフィア,0
1508,6011601015603,登記記録の閉鎖等,0,2023-09-11,2023-09-05,株式会社関事務所,,株式会社,東京都,練馬区,石神井台３丁目２６番７号３０７,,13,120,1770045,,,2023-09-05,清算の結了等,,,2015-10-05,1,,,,,セキジムショ,0
1515,6012702007357,登記記録の閉鎖等,0,2023-09-11,2023-09-06,丸吉商事有限会社,00058506,有限会社,東京都,東久留米市,本町４丁目１３番１８号,,13,222,2030053,,,2023-09-06,清算の結了等,,,2015-10-05,1,,,,,マルヨシショウジ,0
1521,6013201012030,登記記録の閉鎖等,0,2023-09-11,2023-09-06,ＢＲＥＩＺＡＤ株式会社,,株式会社,東京都,狛江市,猪方４丁目１番１７号,,13,219,2010015,,,2023-09-06,清算の結了等,,,2015-10-05,1,,,,,ブレザード,0
1525,6020001083111,登記記録の閉鎖等,0,2023-09-11,2023-09-07,株式会社オレンジコンピュータ,,株式会社,東京都,港区,芝５丁目２６番２４号田町スクエア４階,,13,103,1080014,,,2023-09-07,合併による解散等,9010001124581,令和５年９月１日東京都千代田区岩本町二丁目１７番２号秋葉原サウスイーストビルディング６階株式会社エーピーエス（9010001124581）に合併し解散,2015-10-05,1,,,,,オレンジコンピュータ,0
1539,6030001041480,登記記録の閉鎖等,0,2023-09-11,2023-09-05,株式会社ダイトー,,株式会社,埼玉県,上尾市,大字原市１３１８番地,,11,219,3620021,,,2023-09-05,合併による解散等,2120001021304,令和５年９月１日大阪市平野区加美北六丁目１５番１４号ハシダ技研工業株式会社（2120001021304）に合併し解散,2015-10-05,1,,,,,ダイトー,0
1559,6040002042675,登記記録の閉鎖等,0,2023-09-11,2023-08-28,會津興業有限会社,,有限会社,千葉県,鎌ケ谷市,中佐津間１丁目１７番７号,,12,224,2730135,,,2023-08-28,清算の結了等,,,2015-10-05,1,,,,,,0
1572,6080101023531,登記記録の閉鎖等,0,2023-09-11,2023-09-07,株式会社アセットシード４ｔｈ,,株式会社,静岡県,駿東郡長泉町,東野１４３番地の１９,,22,342,4110931,,,2023-09-07,合併による解散等,1180301015216,令和５年８月３１日愛知県碧南市港本町４番地３０株式会社小出鋳造所（1180301015216）に合併し解散,2022-09-20,1,,,,,アセットシードフォース,0
1575,6090005000353,登記記録の閉鎖等,0,2023-09-11,2023-08-24,甲斐物産グループ協同組合,,その他の設立登記法人,山梨県,甲府市,丸の内１丁目２１番２６号,,19,201,4000031,,,2023-08-24,清算の結了等,,,2015-10-05,1,,,,,カイブッサングループ,0
1583,6100002035581,登記記録の閉鎖等,0,2023-09-11,2023-09-01,有限会社旭電子製作所,,有限会社,長野県,飯田市,川路２６４４番地,,20,205,3992431,,,2023-09-01,清算の結了等,,,2015-10-05,1,,,,,アサヒデンシセイサクショ,0
1584,6100005009112,登記記録の閉鎖等,0,2023-09-11,2023-09-05,アイタウン協同組合,,その他の設立登記法人,長野県,上伊那郡飯島町,飯島２１２８番地１,,20,384,3993702,,,2023-09-05,清算の結了等,,,2015-10-05,1,,,,,アイタウン,0
1588,6110002030425,登記記録の閉鎖等,0,2023-09-11,2023-09-05,有限会社ネクスト,,有限会社,新潟県,長岡市,坂之上町２丁目４番地２,,15,202,9400065,,,2023-09-05,清算の結了等,,,2015-10-05,1,,,,,ネクスト,0
1613,6140001112345,登記記録の閉鎖等,0,2023-09-11,2023-09-01,株式会社グラン,,株式会社,兵庫県,神戸市垂水区,桃山台１丁目１２番地の９,,28,108,6550854,,,2023-09-01,清算の結了等,,,2019-01-09,1,,,,,グラン,0
1618,6140002005234,登記記録の閉鎖等,0,2023-09-11,2023-09-04,有限会社松井産業,,有限会社,兵庫県,神戸市西区,平野町下村１６３番地,,28,111,6512251,,,2023-09-04,清算の結了等,,,2015-10-05,1,,,,,マツイサンギョウ,0
1619,6140002059115,登記記録の閉鎖等,0,2023-09-11,2023-09-06,有限会社ルイコレクション,,有限会社,兵庫県,西宮市,南越木岩町７番２号,,28,204,6620075,,,2023-09-06,合併による解散等,6360002022604,令和５年９月１日沖縄県宮古島市平良字下里５９７番地株式会社ルイコレクション（6360002022604）に合併し解散,2015-10-05,1,,,,,ルイコレクション,0
1622,6160001008186,登記記録の閉鎖等,0,2023-09-11,2023-09-04,カーコム・トガワ株式会社,,株式会社,滋賀県,愛知郡愛荘町,蚊野１８７５番地の３,,25,425,5291206,,,2023-09-04,清算の結了等,,,2015-10-05,1,,,,,カーコムトガワ,0
1635,6180002010701,登記記録の閉鎖等,0,2023-09-11,2023-09-05,有限会社イナミ塗装,,有限会社,愛知県,名古屋市北区,光音寺町１９０７番地の１８２,,23,103,4620053,,,2023-09-05,清算の結了等,,,2015-10-05,1,,,,,イナミトソウ,0
1655,6240001012072,登記記録の閉鎖等,0,2023-09-11,2023-09-01,リードラン株式会社,,株式会社,広島県,広島市中区,上八丁堀７番２７号藤岡ビル５０２号,,34,101,7300012,,,2023-09-01,合併による解散等,8240001016567,令和５年９月１日広島県広島市佐伯区湯来町大字白砂２００番地ウエル・ユーカン株式会社（8240001016567）に合併し解散,2015-10-05,1,,,,,リードラン,0
1662,6250002014406,登記記録の閉鎖等,0,2023-09-11,2023-08-21,有限会社内山電業,,有限会社,山口県,周南市,東山町７番２８－６,,35,215,7450846,,,2023-08-21,清算の結了等,,,2015-10-05,1,,,,,ウチヤマデンギョウ,0
1671,6290002019046,登記記録の閉鎖等,0,2023-09-11,2023-08-29,有限会社誠工務店,,有限会社,福岡県,那珂川市,中原５丁目２０番地,,40,231,8111213,,,2023-08-29,清算の結了等,,,2015-10-05,1,,,,,マコトコウムテン,0
1674,6290802003736,登記記録の閉鎖等,0,2023-09-11,2023-09-08,有限会社辰巳不動産,,有限会社,福岡県,北九州市小倉北区,三郎丸３丁目１１番１３－１０１号,,40,106,8020061,,,2023-09-08,清算の結了等,,,2015-10-05,1,,,,,タツミフドウサン,0
1688,6360003009773,登記記録の閉鎖等,0,2023-09-11,2023-09-06,エステック長崎時津合同会社,,合同会社,沖縄県,那覇市,松山２丁目１番１２号,,47,201,9000032,,,2023-09-06,清算の結了等,,,2019-09-20,1,,,,,エステックナガサキトギツ,0
1695,6410001002675,登記記録の閉鎖等,0,2023-09-11,2023-09-05,株式会社リスコ,,株式会社,秋田県,秋田市,外旭川字神宮田４７番地２,,05,201,0100802,,,2023-09-05,清算の結了等,,,2015-10-05,1,,,,,リスコ,0
1764,7010902001699,登記記録の閉鎖等,0,2023-09-11,2023-09-05,有限会社井上水産,,有限会社,東京都,世田谷区,代田６丁目１５番２４号,,13,112,1550033,,,2023-09-05,清算の結了等,,,2015-10-05,1,,,,,イノウエスイサン,0
1766,7011001071287,登記記録の閉鎖等,0,2023-09-11,2023-08-22,株式会社ＫＡＯＲＵ,,株式会社,東京都,港区,六本木４丁目３番１１号,,13,103,1060032,,,2023-08-22,清算の結了等,,,2015-10-05,1,,,,,カオル,0
1768,7011001107157,登記記録の閉鎖等,0,2023-09-11,2023-09-06,株式会社アトリエ・ド・マリアージュ,,株式会社,東京都,中央区,八重洲１丁目５番１７号八重洲香川ビルディング６Ｆ,,13,102,1030028,,,2023-09-06,合併による解散等,4070001026471,令和５年８月３１日群馬県太田市東新町３５４番３プリオホールディングス株式会社（4070001026471）に合併し解散,2015-10-05,1,,,,,アトリエドマリアージュ,0
1787,7011801025731,登記記録の閉鎖等,0,2023-09-11,2023-09-05,株式会社スターダム,,株式会社,東京都,江東区,亀戸２丁目３３番４号ライオンズマンション亀戸第二６０３号,,13,108,1360071,,,2023-09-05,清算の結了等,,,2015-10-05,1,,,,,スターダム,0
1814,7030001131017,登記記録の閉鎖等,0,2023-09-11,2023-08-17,Ｓｕｎｆｌｏｗｅｒ株式会社,,株式会社,埼玉県,さいたま市見沼区,春野１丁目９番４－８０７号,,11,104,3370002,,,2023-08-17,清算の結了等,,,2019-05-23,1,,,,,サンフラワー,0
1817,7030002008536,登記記録の閉鎖等,0,2023-09-11,2023-08-17,有限会社大松工務店,,有限会社,埼玉県,さいたま市北区,土呂町２丁目２５番地の２,,11,102,3310804,,,2023-08-17,清算の結了等,,,2015-10-05,1,,,,,タイショウコウムテン,0
1820,7030002072152,登記記録の閉鎖等,0,2023-09-11,2023-08-16,有限会社アップ,,有限会社,埼玉県,川越市,中台３丁目１９番地５,,11,201,3501159,,,2023-08-16,清算の結了等,,,2015-10-05,1,,,,,アップ,0
1825,7040001008016,登記記録の閉鎖等,0,2023-09-11,2023-08-28,株式会社ロード,,株式会社,千葉県,千葉市花見川区,畑町４２７番地１,,12,102,2620018,,,2023-08-28,清算の結了等,,,2015-10-05,1,,,,,ロード,0
1826,7040001009823,登記記録の閉鎖等,0,2023-09-11,2023-08-28,株式会社アサヒプランニング,,株式会社,千葉県,千葉市中央区,登戸２丁目５番２号,,12,101,2600032,,,2023-08-28,清算の結了等,,,2015-10-05,1,,,,,アサヒプランニング,0
1842,7100001002524,登記記録の閉鎖等,0,2023-09-11,2023-09-01,長野ベランダ販売株式会社,,株式会社,長野県,千曲市,大字倉科１７０６番地６,,20,218,3870004,,,2023-09-01,合併による解散等,9100001035712,令和５年９月１日長野県千曲市大字倉科１７０６番地６ミヤシタ興産株式会社（9100001035712）に合併し解散,2015-10-05,1,,,,,ナガノベランダハンバイ,0
1843,7100002031043,登記記録の閉鎖等,0,2023-09-11,2023-09-01,有限会社小井川電機,,有限会社,長野県,岡谷市,神明町３丁目５番８号,,20,204,3940004,,,2023-09-01,清算の結了等,,,2015-10-05,1,,,,,オイカワデンキ,0
1854,7120001139827,登記記録の閉鎖等,0,2023-09-11,2023-09-07,株式会社デザインオフィスドレス,,株式会社,大阪府,大阪市西区,南堀江１丁目１１番１５号,,27,106,5500015,,,2023-09-07,合併による解散等,4010501024914,令和５年９月１日東京都台東区入谷二丁目３番１１号株式会社ＡＶＡ　ＩＮＴＥＲＮＡＴＩＯＮＡＬ（4010501024914）に合併し解散,2015-10-05,1,,,,,デザインオフィスドレス,0
1862,7120003018855,登記記録の閉鎖等,0,2023-09-11,2023-09-08,合同会社ＧＣＭ,,合同会社,大阪府,大阪市東成区,中本４丁目１番８号,,27,115,5370022,,,2023-09-08,清算の結了等,,,2021-02-05,1,,,,,ジーシーエム,0
1878,7130001072242,登記記録の閉鎖等,0,2023-09-11,2023-08-25,綺羅光陰株式会社,,株式会社,京都府,京都市右京区,嵯峨中通町１８番地３Ｆ,,26,108,6168361,,,2023-08-25,清算の結了等,,,2022-07-22,1,,,,,キラコウイン,0
1880,7130005014785,登記記録の閉鎖等,0,2023-09-11,2023-08-09,ＮＰＯ法人しえん家族の会,,その他の設立登記法人,京都府,京都市西京区,樫原内垣外町２５番地３３,,26,111,6158152,,,2023-08-09,清算の結了等,,,2016-12-02,1,,,,,シエンカゾクノカイ,0
1896,7140003016997,登記記録の閉鎖等,0,2023-09-11,2023-09-01,合同会社Ｗｏｏｌ,,合同会社,兵庫県,加古川市,尾上町養田１３３２－３,,28,210,6750025,,,2023-09-01,清算の結了等,,,2021-11-17,1,,,,,ウール,0
1904,7160002013853,登記記録の閉鎖等,0,2023-09-11,2023-09-08,株式会社オーネット農場,,株式会社,滋賀県,野洲市,西河原２１１１番地５,,25,210,5202423,,,2023-09-08,清算の結了等,,,2015-10-05,1,,,,,オーネットノウジョウ,0
1907,7180001022663,登記記録の閉鎖等,0,2023-09-11,2023-09-05,日の出ビル株式会社,,株式会社,愛知県,名古屋市熱田区,沢上２丁目１０番１号,,23,109,4560012,,,2023-09-05,清算の結了等,,,2015-10-05,1,,,,,ヒノデビル,0
1914,7180003021614,登記記録の閉鎖等,0,2023-09-11,2023-09-07,合同会社ジャンガリ,,合同会社,愛知県,常滑市,本町３丁目７３番地,,23,216,4790829,,,2023-09-07,清算の結了等,,,2020-09-10,1,Jangali Inc.,Aichi,"3-73, Honmachi, Tokoname",,ジャンガリ,0
1925,7240001014902,登記記録の閉鎖等,0,2023-09-11,2023-09-01,株式会社矢野カープタクシー,,株式会社,広島県,広島市安芸区,矢野新町２丁目３番６０号,,34,107,7360084,,,2023-09-01,合併による解散等,8240002003671,令和５年９月１日広島市南区比治山本町７番１０号株式会社カープタクシー（8240002003671）に合併し解散,2015-10-05,1,,,,,ヤノカープタクシー,0
1926,7240001015719,登記記録の閉鎖等,0,2023-09-11,2023-09-05,ＳＯＭＰＯケア平和公園株式会社,,株式会社,広島県,広島市中区,大手町３丁目１１番２０号,,34,101,7300051,,,2023-09-05,合併による解散等,1260001015656,令和５年９月１日東京都品川区東品川四丁目１２番８号ＳＯＭＰＯケア株式会社（1260001015656）に合併し解散,2015-10-05,1,,,,,ソンポケアヘイワコウエン,0
1930,7250002015691,登記記録の閉鎖等,0,2023-09-11,2023-09-04,有限会社サンクリーニング,,有限会社,山口県,下松市,清瀬町２丁目１番７号,,35,207,7440071,,,2023-09-04,清算の結了等,,,2015-10-05,1,,,,,サンクリーニング,0
1947,7290003008641,登記記録の閉鎖等,0,2023-09-11,2023-08-30,ラシャス合同会社,,合同会社,福岡県,福岡市中央区,赤坂３丁目９番４３－２０２号,,40,133,8100042,,,2023-08-30,清算の結了等,,,2019-01-09,1,,,,,ラシャス,0
1956,7320001012674,登記記録の閉鎖等,0,2023-09-11,2023-09-07,株式会社エコスタイル,,株式会社,大分県,大分市,大字猪野１２４７番地の７,,44,201,8700134,,,2023-09-07,清算の結了等,,,2015-10-05,1,,,,,エコスタイル,0
1973,7370005001792,登記記録の閉鎖等,0,2023-09-11,2023-09-04,特定非営利活動法人でんでん宮城いきいきネットワーク,,その他の設立登記法人,宮城県,仙台市若林区,五橋３丁目２－１ＮＴＴ五橋第２ビル,,04,103,9840022,,,2023-09-04,清算の結了等,,,2015-10-05,1,,,,,デンデンミヤギイキイキネットワーク,0
1981,7430001055621,登記記録の閉鎖等,0,2023-09-11,2023-08-31,南産業株式会社,,株式会社,北海道,様似郡様似町,栄町５番地,,01,608,0580023,,,2023-08-31,合併による解散等,1430001055619,令和５年８月３１日北海道様似郡様似町栄町５番地株式会社南組（1430001055619）に合併し解散,2015-10-05,1,,,,,ミナミサンギョウ,0
1985,7470002010588,登記記録の閉鎖等,0,2023-09-11,2023-09-06,有限会社川内屋,,有限会社,香川県,木田郡三木町,大字池戸３２６６番地,,37,341,7610701,,,2023-09-06,清算の結了等,,,2015-10-05,1,,,,,カワウチヤ,0
1986,7480001000283,登記記録の閉鎖等,0,2023-09-11,2023-09-07,栄光商事株式会社,,株式会社,徳島県,徳島市,住吉４丁目５番６４号,,36,201,7700861,,,2023-09-07,清算の結了等,,,2015-10-05,1,,,,,エイコウショウジ,0
2000,8010001022786,登記記録の閉鎖等,0,2023-09-11,2023-09-05,千代田園芸株式会社,,株式会社,東京都,世田谷区,奥沢６丁目３２番地９,,13,112,1580083,,,2023-09-05,清算の結了等,,,2015-10-05,1,,,,,チヨダエンゲイ,0
2010,8010005019127,登記記録の閉鎖等,0,2023-09-11,2023-09-05,一般社団法人エムジージェイシーエイチワン,,その他の設立登記法人,東京都,渋谷区,広尾１丁目１１番２号嶋本公認会計士事務所気付,,13,113,1500012,,,2023-09-05,清算の結了等,,,2015-10-05,1,,,,,エムジージェイシーエイチワン,0
2012,8010005031544,登記記録の閉鎖等,0,2023-09-11,2023-09-06,一般社団法人西ヶ原開発,,その他の設立登記法人,東京都,千代田区,丸の内３丁目１番１号東京共同会計事務所内,,13,101,1000005,,,2023-09-06,清算の結了等,,,2020-03-06,1,,,,,ニシガハラカイハツ,0
2083,8030001053895,登記記録の閉鎖等,0,2023-09-11,2023-08-17,ＳＫＨフードサービス株式会社,,株式会社,埼玉県,さいたま市浦和区,大東２丁目１１番２４号,,11,107,3300043,,,2023-08-17,清算の結了等,,,2015-10-05,1,,,,,,0
2090,8030002036148,登記記録の閉鎖等,0,2023-09-11,2023-08-16,有限会社ランド企画,,有限会社,埼玉県,入間市,豊岡４丁目６番７,,11,225,3580003,,,2023-08-16,清算の結了等,,,2015-10-05,1,,,,,ランドキカク,0
2099,8040001015804,登記記録の閉鎖等,0,2023-09-11,2023-08-23,株式会社アランフェス,,株式会社,千葉県,千葉市緑区,あすみが丘東１丁目２８番１５号,,12,105,2670067,,,2023-08-23,清算の結了等,,,2015-10-05,1,,,,,アランフェス,0
2111,8040002101966,登記記録の閉鎖等,0,2023-09-11,2023-08-25,有限会社吉徳商店,,有限会社,千葉県,いすみ市,山田１７３９番地,,12,238,2980025,,,2023-08-25,清算の結了等,,,2015-10-05,1,,,,,,0
2133,8120001022511,登記記録の閉鎖等,0,2023-09-11,2023-09-08,江東産業株式会社,,株式会社,大阪府,大阪市天王寺区,上本町８丁目７番１０号,,27,109,5430001,,,2023-09-08,清算の結了等,,,2015-10-05,1,,,,,エトウサンギョウ,0
2137,8120001249377,登記記録の閉鎖等,0,2023-09-11,2023-09-07,株式会社金澤,,株式会社,大阪府,大阪市中央区,南船場４丁目９番１２号朝日プラザ心斎橋北６０４号室,,27,128,5420081,,,2023-09-07,清算の結了等,,,2022-10-11,1,,,,,カナザワ,0
2152,8130001072134,登記記録の閉鎖等,0,2023-09-11,2023-08-21,株式会社ＦＡＷＮ,,株式会社,京都府,京都市東山区,泉涌寺東林町３０番地１４,,26,105,6050976,,,2023-08-21,清算の結了等,,,2022-07-12,1,,,,,ファウン,0
2209,8230002012871,登記記録の閉鎖等,0,2023-09-11,2023-09-07,有限会社三ノ宮商店,,有限会社,富山県,氷見市,本町２１番１８号,,16,205,9350016,,,2023-09-07,清算の結了等,,,2015-10-05,1,,,,,サンノミヤショウテン,0
2213,8240001026244,登記記録の閉鎖等,0,2023-09-11,2023-09-01,東方シャーリング工業株式会社,,株式会社,広島県,呉市,広多賀谷３丁目３番４号,,34,202,7370134,,,2023-09-01,合併による解散等,9240001026243,令和５年９月１日広島県呉市広多賀谷三丁目３番４号東方金属株式会社（9240001026243）に合併し解散,2015-10-05,1,,,,,トウホウシャーリングコウギョウ,0
2222,8260002034178,登記記録の閉鎖等,0,2023-09-11,2023-09-05,有限会社植田石油,,有限会社,岡山県,真庭市,下呰部２８４番地の３,,33,214,7161433,,,2023-09-05,清算の結了等,,,2015-10-05,1,,,,,,0
2223,8290001043037,登記記録の閉鎖等,0,2023-09-11,2023-08-28,株式会社鵜翔,,株式会社,福岡県,春日市,原町２丁目３４番地,,40,218,8160804,,,2023-08-28,清算の結了等,,,2015-10-05,1,,,,,ウショウ,0
2231,8290802023815,登記記録の閉鎖等,0,2023-09-11,2023-09-07,有限会社わだ装飾,,有限会社,福岡県,行橋市,南大橋５丁目５番１３号深川ビル１Ｆ,,40,213,8240032,,,2023-09-07,清算の結了等,,,2015-10-05,1,,,,,ワダソウショク,0
2233,8310003003011,登記記録の閉鎖等,0,2023-09-11,2023-09-07,合同会社みどり,,合同会社,長崎県,長崎市,住吉町４番９号古賀野ビル１Ｆ,,42,201,8528154,,,2023-09-07,清算の結了等,,,2015-10-05,1,,,,,ミドリ,0
2243,8340002016944,登記記録の閉鎖等,0,2023-09-11,2023-09-08,西須建設有限会社,,有限会社,鹿児島県,薩摩川内市,五代町１９３番地,,46,215,8950066,,,2023-09-08,清算の結了等,,,2015-10-05,1,,,,,ニシスケンセツ,0
2244,8340003003818,登記記録の閉鎖等,0,2023-09-11,2023-09-08,合同会社吉嶺企画,,合同会社,鹿児島県,鹿児島市,下伊敷２丁目１７番６号,,46,201,8900005,,,2023-09-08,清算の結了等,,,2022-06-03,1,,,,,ヨシミネキカク,0
2262,8460001005143,登記記録の閉鎖等,0,2023-09-11,2023-09-08,株式会社稲岡塗装,,株式会社,北海道,釧路市,昭和南３丁目１番４０号,,01,206,0840909,,,2023-09-08,清算の結了等,,,2017-04-26,1,,,,,イナオカトソウ,0
2277,9010001057988,登記記録の閉鎖等,0,2023-09-11,2023-09-01,株式会社毎日エージェンシー,,株式会社,東京都,千代田区,神田神保町３丁目２番地,,13,101,1010051,,,2023-09-01,合併による解散等,2010001029969,令和５年９月１日東京都千代田区一ツ橋一丁目１番１号株式会社毎日新聞社（2010001029969）に合併し解散,2015-10-05,1,,,,,マイニチエージェンシー,0
2281,9010001168884,登記記録の閉鎖等,0,2023-09-11,2023-09-05,東京国際キャピタル株式会社,,株式会社,東京都,世田谷区,池尻４丁目８番１－１２０３号,,13,112,1540001,,,2023-09-05,清算の結了等,,,2015-10-05,1,,,,,トウキョウコクサイキャピタル,0
2289,9010101006630,登記記録の閉鎖等,0,2023-09-11,2023-09-07,株式会社パール,,株式会社,東京都,八王子市,石川町２９７１番地の３６,,13,201,1920032,,,2023-09-07,清算の結了等,,,2015-10-05,1,,,,,,0
2292,9010102002067,登記記録の閉鎖等,0,2023-09-11,2023-09-05,有限会社北上鉄工所,,有限会社,東京都,八王子市,鑓水字諏訪前２０１２番３,,13,201,1920375,,,2023-09-05,清算の結了等,,,2015-10-05,1,,,,,キタカミテッコウジョ,0
2310,9010702007044,登記記録の閉鎖等,0,2023-09-11,2023-09-06,有限会社福寿司,,有限会社,東京都,品川区,二葉４丁目８番７号,,13,109,1420043,,,2023-09-06,清算の結了等,,,2015-10-05,1,,,,,フクズシ,0
2317,9011001063183,登記記録の閉鎖等,0,2023-09-11,2023-09-05,徐福中医研究所株式会社,,株式会社,東京都,渋谷区,千駄ヶ谷５丁目２６番５－１００１号,,13,113,1510051,,,2023-09-05,清算の結了等,,,2015-10-05,1,,,,,ジョフクチュウイケンキュウジョ,0
2338,9011105007912,登記記録の閉鎖等,0,2023-09-11,2023-09-07,一般社団法人グリーンエネルギー,,その他の設立登記法人,東京都,新宿区,山吹町３６６番地１,,13,104,1620801,,,2023-09-07,清算の結了等,,,2017-07-27,1,,,,,グリーンエネルギー,0
2376,9030001084444,登記記録の閉鎖等,0,2023-09-11,2023-08-17,石山開発株式会社,,株式会社,埼玉県,熊谷市,問屋町４丁目２番７号,,11,202,3600024,,,2023-08-17,清算の結了等,,,2015-10-05,1,,,,,イシヤマカイハツ,0
2377,9030001089229,登記記録の閉鎖等,0,2023-09-11,2023-07-31,ルーメスソフト株式会社,,株式会社,埼玉県,熊谷市,飯塚８８９番地１,,11,202,3600231,,,2023-07-31,清算の結了等,,,2015-10-05,1,,,,,ルーメスソフト,0
2400,9040002045064,登記記録の閉鎖等,0,2023-09-11,2023-08-25,有限会社カツシカ紙工,,有限会社,千葉県,松戸市,新作６４１番地の２,,12,207,2710052,,,2023-08-25,清算の結了等,,,2015-10-05,1,,,,,カツシカシコウ,0
2420,9070001030816,登記記録の閉鎖等,0,2023-09-11,2023-09-05,株式会社伊勢崎バンバン,,株式会社,群馬県,伊勢崎市,昭和町１９２５番地６,,10,204,3720014,,,2023-09-05,清算の結了等,,,2015-10-05,1,,,,,,0
2426,9080102004172,登記記録の閉鎖等,0,2023-09-11,2023-09-04,小原技研有限会社,,有限会社,静岡県,裾野市,千福が丘２丁目７番１２,,22,220,4101115,,,2023-09-04,清算の結了等,,,2015-10-05,1,,,,,オハラギケン,0
2428,9100001007694,登記記録の閉鎖等,0,2023-09-11,2023-09-01,株式会社綿半ドラッグ,,株式会社,長野県,佐久市,猿久保７８５番地１０,,20,217,3850011,,,2023-09-01,合併による解散等,4100001003772,令和５年９月１日長野市南長池２０５番地株式会社綿半ホームエイド（4100001003772）に合併し解散,2015-10-05,1,,,,,ワタハンドラッグ,0
2448,9120901000136,登記記録の閉鎖等,0,2023-09-11,2023-09-06,株式会社石橋,,株式会社,大阪府,茨木市,新郡山２丁目３３番１８号の５,,27,211,5670074,,,2023-09-06,清算の結了等,,,2015-10-05,1,,,,,イシバシ,0
2461,9140001062554,登記記録の閉鎖等,0,2023-09-11,2023-09-04,明盛海運建設株式会社,,株式会社,兵庫県,姫路市,家島町真浦２３９５番地,,28,201,6720101,,,2023-09-04,清算の結了等,,,2015-10-05,1,,,,,,0
2482,9160003000378,登記記録の閉鎖等,0,2023-09-11,2023-09-07,合資会社不二オイルサービス,,合資会社,滋賀県,甲賀市,水口町元町８番１号,,25,209,5280006,,,2023-09-07,清算の結了等,,,2015-10-05,1,,,,,フジオイルサービス,0
2503,9220002014819,登記記録の閉鎖等,0,2023-09-11,2023-09-07,有限会社エムオールまつなが,,有限会社,石川県,羽咋郡志賀町,福野イの５６番地１,,17,384,9250142,,,2023-09-07,清算の結了等,,,2015-10-05,1,,,,,エムオールマツナガ,0
2518,9290001070187,登記記録の閉鎖等,0,2023-09-11,2023-08-29,株式会社森山,,株式会社,福岡県,糸島市,曽根７３０番地１,,40,230,8191561,,,2023-08-29,清算の結了等,,,2015-10-05,1,,,,,モリヤマ,0
2519,9290002006875,登記記録の閉鎖等,0,2023-09-11,2023-08-30,有限会社白石糖粉商店,,有限会社,福岡県,福岡市城南区,長尾３丁目２５番１１号,,40,136,8140123,,,2023-08-30,清算の結了等,,,2015-10-05,1,,,,,シライシトウフンショウテン,0
2527,9320003002028,登記記録の閉鎖等,0,2023-09-11,2023-09-07,合同会社和松,,合同会社,大分県,竹田市,大字片ケ瀬２４４番地,,44,208,8780003,,,2023-09-07,清算の結了等,,,2015-10-05,1,,,,,,0
2528,9330001010618,登記記録の閉鎖等,0,2023-09-11,2023-09-04,株式会社ケイズ,,株式会社,熊本県,山鹿市,中９６７番地８,,43,208,8610531,,,2023-09-04,清算の結了等,,,2015-10-05,1,,,,,ケイズ,0
2544,9380001017377,登記記録の閉鎖等,0,2023-09-11,2023-09-06,株式会社生粋,,株式会社,福島県,会津若松市,東栄町１１番３号,,07,202,9650872,,,2023-09-06,清算の結了等,,,2015-10-05,1,,,,,キッスイ,0
2562,9490005006885,登記記録の閉鎖等,0,2023-09-11,2023-08-02,一般社団法人ｐｏｃｏ　ａ　ｐｏｃｏ,,その他の設立登記法人,高知県,須崎市,浜町２丁目５番１０号,,39,206,7850006,,,2023-08-02,清算の結了等,,,2023-02-06,1,,,,,ポコアポコ,0
