sequenceNumber,corporateNumber,process,correct,updateDate,changeDate,name,nameImageId,kind,prefectureName,cityName,streetNumber,addressImageId,prefectureCode,cityCode,postCode,addressOutside,addressOutsideImageId,closeDate,closeCause,successorCorporateNumber,changeCause,assignmentDate,latest,enName,enPrefectureName,enCityName,enAddressOutside,furigana,hihyoji
16,1010005027532,登記記録の閉鎖等,0,2024-12-24,2024-12-19,三郷南部南特定目的会社,,その他の設立登記法人,東京都,千代田区,飯田橋４丁目７番１号結和税理士法人内,,13,101,1020072,,,2024-12-19,清算の結了等,,,2017-10-03,1,,,,,ミサトナンブミナミ,0
17,1010005037861,登記記録の閉鎖等,0,2024-12-24,2024-12-20,一般社団法人ＮＰＡ,,その他の設立登記法人,東京都,千代田区,五番町６番地２ＯＡＧ税理士法人内,,13,101,1020076,,,2024-12-20,清算の結了等,,,2024-02-07,1,,,,,エヌピーエー,0
66,1012701011125,登記記録の閉鎖等,0,2024-12-24,2024-12-11,エヌ・シー・ユー株式会社,,株式会社,東京都,清瀬市,旭が丘２丁目３３７番地１,,13,221,2040002,,,2024-12-11,清算の結了等,,,2015-10-05,1,,,,,エヌシーユー,0
91,1020002092628,登記記録の閉鎖等,0,2024-12-24,2024-12-10,電子工房ライフ有限会社,,有限会社,神奈川県,川崎市多摩区,南生田５丁目９番５号,,14,135,2140036,,,2024-12-10,清算の結了等,,,2015-10-05,1,,,,,デンシコウボウライフ,0
94,1021001056383,登記記録の閉鎖等,0,2024-12-24,2024-12-23,株式会社ＨＯＮＥＳＴＹ,,株式会社,神奈川県,大和市,下鶴間２５４番地１,,14,213,2420001,,,2024-12-23,清算の結了等,,,2015-10-05,1,,,,,,0
97,1021003012079,登記記録の閉鎖等,0,2024-12-24,2024-12-20,Ｂｌａｃｋ　Ｇａｉｎ合同会社,,合同会社,神奈川県,中郡大磯町,国府本郷５０番地５,,14,341,2590111,,,2024-12-20,清算の結了等,,,2022-08-31,1,,,,,ブラックゲイン,0
109,1030002007221,登記記録の閉鎖等,0,2024-12-24,2024-12-18,有限会社白取和裁研究所,,有限会社,埼玉県,さいたま市北区,盆栽町３番地の１,,11,102,3310805,,,2024-12-18,清算の結了等,,,2015-10-05,1,,,,,シラトリワサイケンキュウショ,0
117,1040002056655,登記記録の閉鎖等,0,2024-12-24,2024-12-05,アールエンジニアリング有限会社,,有限会社,千葉県,印西市,小林浅間１丁目１７番地２,,12,231,2701315,,,2024-12-05,清算の結了等,,,2015-10-05,1,,,,,アールエンジニアリング,0
118,1040003024099,登記記録の閉鎖等,0,2024-12-24,2024-12-18,合同会社Ｃｏｃｏｌｏ　Ｌａｂ．,,合同会社,千葉県,佐倉市,本町８２番地２７,,12,212,2850037,,,2024-12-18,清算の結了等,,,2024-01-15,1,,,,,ココロラボ,0
135,1110001017972,登記記録の閉鎖等,0,2024-12-24,2024-12-19,株式会社村上製作所,,株式会社,新潟県,三島郡出雲崎町,大字尼瀬１３５番地,,15,405,9494308,,,2024-12-19,清算の結了等,,,2015-10-05,1,,,,,,0
163,1120102012186,登記記録の閉鎖等,0,2024-12-24,2024-12-20,有限会社シナプス,,有限会社,大阪府,堺市美原区,阿弥３３番地の３２,,27,147,5870003,,,2024-12-20,清算の結了等,,,2015-10-05,1,,,,,シナプス,0
179,1140002015700,登記記録の閉鎖等,0,2024-12-24,2024-12-19,有限会社福家興産,,有限会社,兵庫県,神戸市中央区,熊内町１丁目１番５号,,28,110,6510056,,,2024-12-19,清算の結了等,,,2015-10-05,1,,,,,フクヤコウサン,0
181,1150003003298,登記記録の閉鎖等,0,2024-12-24,2024-12-23,合同会社ｃａｒｒｙ　ｏｎ,,合同会社,奈良県,奈良市,宝来３丁目１３－２クレール２０３,,29,201,6310845,,,2024-12-23,清算の結了等,,,2024-06-27,1,,,,,キャリーオン,0
202,1200002022475,登記記録の閉鎖等,0,2024-12-24,2024-12-20,有限会社沢田重機,,有限会社,岐阜県,多治見市,小名田町２丁目３４番地,,21,204,5070004,,,2024-12-20,清算の結了等,,,2015-10-05,1,,,,,,0
204,1240001043592,登記記録の閉鎖等,0,2024-12-24,2024-12-20,株式会社ヒルセン,,株式会社,広島県,広島市安佐南区,八木４丁目９番６号,,34,105,7310101,,,2024-12-20,清算の結了等,,,2015-10-05,1,,,,,ヒルセン,0
205,1240001045110,登記記録の閉鎖等,0,2024-12-24,2024-12-19,株式会社ミレイ,,株式会社,広島県,福山市,南蔵王町３丁目８番４４号,,34,207,7210973,,,2024-12-19,清算の結了等,,,2015-10-05,1,,,,,ミレイ,0
208,1240002038666,登記記録の閉鎖等,0,2024-12-24,2024-12-20,有限会社伸幸,,有限会社,広島県,福山市,神辺町字湯野１０番地の１,,34,207,7202121,,,2024-12-20,清算の結了等,,,2015-10-05,1,,,,,シンコウ,0
212,1260002009203,登記記録の閉鎖等,0,2024-12-24,2024-12-20,有限会社堀川商店,,有限会社,岡山県,岡山市東区,河本町４０番地の１,,33,103,7048103,,,2024-12-20,清算の結了等,,,2015-10-05,1,,,,,ホリカワショウテン,0
213,1260002020713,登記記録の閉鎖等,0,2024-12-24,2024-12-19,有限会社平田呉服店,,有限会社,岡山県,倉敷市,児島赤崎１丁目１２番９号,,33,202,7110931,,,2024-12-19,清算の結了等,,,2015-10-05,1,,,,,ヒラタゴフクテン,0
218,1270002006182,登記記録の閉鎖等,0,2024-12-24,2024-12-20,有限会社清香荘,,有限会社,鳥取県,米子市,長砂町８番地２３,,31,202,6830033,,,2024-12-20,清算の結了等,,,2015-10-05,1,,,,,セイコウソウ,0
219,1280005006947,登記記録の閉鎖等,0,2024-12-24,2024-12-20,特定非営利活動法人ふるさとつなぎ,,その他の設立登記法人,島根県,出雲市,鹿園寺町２６番地１８,,32,203,6910075,,,2024-12-20,清算の結了等,,,2015-10-05,1,,,,,フルサトツナギ,0
242,1360002015505,登記記録の閉鎖等,0,2024-12-24,2024-12-19,有限会社キヨナガ,,有限会社,沖縄県,浦添市,牧港２丁目４６番１２号,,47,208,9012131,,,2024-12-19,清算の結了等,,,2015-10-05,1,,,,,キヨナガ,0
260,1480002010691,登記記録の閉鎖等,0,2024-12-24,2024-12-20,有限会社林植物園,,有限会社,徳島県,鳴門市,瀬戸町中島田字北田２６番地,,36,202,7710366,,,2024-12-20,清算の結了等,,,2015-10-05,1,,,,,ハヤシショクブツエン,0
268,2010001143431,登記記録の閉鎖等,0,2024-12-24,2024-12-11,セントラル・サンゴバン・インベストメント株式会社,,株式会社,東京都,千代田区,神田錦町３丁目７番地１,,13,101,1010054,,,2024-12-11,清算の結了等,,,2015-10-05,1,,,,,セントラルサンゴバンインベストメント,0
278,2010005036160,登記記録の閉鎖等,0,2024-12-24,2024-12-20,Ｓｔａｒ一般社団法人,,その他の設立登記法人,東京都,千代田区,丸の内１丁目４番１号東京共同会計事務所内,,13,101,1000005,,,2024-12-20,清算の結了等,,,2023-01-24,1,,,,,スター,0
290,2010403023090,登記記録の閉鎖等,0,2024-12-24,2024-12-06,合同会社ＣＲＥＭＬファンド２,,合同会社,東京都,港区,虎ノ門３丁目２２番１０－２０１号,,13,103,1050001,,,2024-12-06,清算の結了等,,,2020-06-05,1,,,,,シーアールイーエムエルファンドツー,0
292,2010405021258,登記記録の閉鎖等,0,2024-12-24,2024-12-09,一般社団法人ミチブシ,,その他の設立登記法人,東京都,港区,西新橋１丁目２番９号メンターキャピタル税理士法人内,,13,103,1050003,,,2024-12-09,清算の結了等,,,2022-08-05,1,,,,,ミチブシ,0
298,2010601055340,登記記録の閉鎖等,0,2024-12-24,2024-12-17,株式会社Ｌｉｇａｒｅｖｅ,,株式会社,東京都,墨田区,石原３丁目１番４号,,13,107,1300011,,,2024-12-17,清算の結了等,,,2019-04-16,1,,,,,リガレーブ,0
307,2010802013477,登記記録の閉鎖等,0,2024-12-24,2024-12-16,有限会社マツダウエデン,,有限会社,東京都,大田区,仲六郷２丁目１５番５号,,13,111,1440055,,,2024-12-16,清算の結了等,,,2015-10-05,1,,,,,マツダウエデン,0
318,2011301018942,登記記録の閉鎖等,0,2024-12-24,2024-12-19,株式会社ムーブメント,,株式会社,東京都,杉並区,方南２丁目２５番２４－２２１号ラ・レジダンス・ド・ラフィネ,,13,115,1680062,,,2024-12-19,清算の結了等,,,2015-10-05,1,,,,,,0
320,2011302005023,登記記録の閉鎖等,0,2024-12-24,2024-12-23,有限会社スティング,,有限会社,東京都,杉並区,高円寺北３丁目４０番１０号グレイスビル７０２号,,13,115,1660002,,,2024-12-23,清算の結了等,,,2015-10-05,1,,,,,スティング,0
325,2011602002653,登記記録の閉鎖等,0,2024-12-24,2024-12-16,有限会社カトル・セゾン,,有限会社,東京都,練馬区,豊玉上２丁目１番１１号,,13,120,1760011,,,2024-12-16,清算の結了等,,,2015-10-05,1,,,,,カトルセゾン,0
329,2012403006422,登記記録の閉鎖等,0,2024-12-24,2024-12-16,Ｇｒｅｅｎ　Ｓｑｕａｒｅ合同会社,,合同会社,東京都,狛江市,中和泉１丁目２番９号,,13,219,2010012,,,2024-12-16,清算の結了等,,,2024-02-21,1,,,,,グリーンスクエア,0
334,2020001139560,登記記録の閉鎖等,0,2024-12-24,2024-12-05,クロガキ株式会社,,株式会社,神奈川県,横浜市中区,大和町１丁目１７－６,,14,104,2310846,,,2024-12-05,清算の結了等,,,2021-01-19,1,,,,,クロガキ,0
337,2020002052779,登記記録の閉鎖等,0,2024-12-24,2024-12-16,有限会社大平設備,,有限会社,神奈川県,横浜市神奈川区,三枚町１６０番地１,,14,102,2210862,,,2024-12-16,清算の結了等,,,2015-10-05,1,,,,,オオヒラセツビ,0
344,2021001022269,登記記録の閉鎖等,0,2024-12-24,2024-12-23,株式会社コロナ技研,,株式会社,神奈川県,愛甲郡愛川町,半原４６０８番地の１８,,14,401,2430307,,,2024-12-23,清算の結了等,,,2015-10-05,1,,,,,コロナギケン,0
359,2040001068881,登記記録の閉鎖等,0,2024-12-24,2024-12-17,株式会社Ｋ＆Ｔこんさるたんと,,株式会社,千葉県,柏市,明原１丁目２番９号,,12,217,2770843,,,2024-12-17,清算の結了等,,,2015-10-05,1,,,,,ケイアンドティーコンサルタント,0
365,2040005012547,登記記録の閉鎖等,0,2024-12-24,2024-11-20,天理教總銚分教会,00021620,その他の設立登記法人,千葉県,銚子市,東小川町２２１２番地の１,,12,202,2880032,,,2024-11-20,合併による解散等,3040005008115,令和６年１１月２０日千葉県木更津市貝渕一丁目１０番２号天理教房總分教会（3040005008115）に合併し解散,2015-10-05,1,,,,,,0
373,2080102014624,登記記録の閉鎖等,0,2024-12-24,2024-12-20,有限会社西勝工事,,有限会社,静岡県,富士市,岩本３６０番地の２３,,22,210,4160901,,,2024-12-20,清算の結了等,,,2015-10-05,1,,,,,ニシカツコウジ,0
380,2080402019133,登記記録の閉鎖等,0,2024-12-24,2024-12-19,有限会社東愛,,有限会社,静岡県,御前崎市,池新田２６３２番地の２,,22,223,4371612,,,2024-12-19,清算の結了等,,,2015-10-05,1,,,,,トウアイ,0
383,2110002024661,登記記録の閉鎖等,0,2024-12-24,2024-12-17,有限会社トクテツ,,有限会社,新潟県,上越市,板倉区稲増字下川原１８５番地１０,,15,222,9440101,,,2024-12-17,合併による解散等,7050001028384,令和６年１２月１０日茨城県守谷市御所ケ丘二丁目１０番地２メークス株式会社（7050001028384）に合併し解散,2015-10-05,1,,,,,トクテツ,0
391,2120001207654,登記記録の閉鎖等,0,2024-12-24,2024-12-20,株式会社Ａｍｖｅｒ,,株式会社,大阪府,大阪市中央区,安土町１丁目４番５号Ａ＆Ｋ本町ビル３０８,,27,128,5410052,,,2024-12-20,清算の結了等,,,2017-08-24,1,,,,,アンバー,0
412,2130005009880,登記記録の閉鎖等,0,2024-12-24,2024-12-20,福知山酒販協同組合,,その他の設立登記法人,京都府,福知山市,和久市町２２番地の２,,26,201,6200062,,,2024-12-20,清算の結了等,,,2015-10-05,1,,,,,フクチヤマシュハン,0
415,2140001058914,登記記録の閉鎖等,0,2024-12-24,2024-12-17,サンヨーコンピューター印刷株式会社,,株式会社,兵庫県,姫路市,網干区新在家７１５番地,,28,201,6711234,,,2024-12-17,清算の結了等,,,2015-10-05,1,,,,,サンヨーコンピューターインサツ,0
416,2140001064706,登記記録の閉鎖等,0,2024-12-24,2024-12-12,株式会社松尾学院進学ゼミナール,,株式会社,兵庫県,姫路市,呉服町７０番地,,28,201,6700923,,,2024-12-12,清算の結了等,,,2015-10-05,1,,,,,マツオガクインシンガクゼミナール,0
445,2240002000402,登記記録の閉鎖等,0,2024-12-24,2024-12-20,有限会社アコールサービス,,有限会社,広島県,広島市中区,大手町３丁目１番１１号平野ビル１階,,34,101,7300051,,,2024-12-20,清算の結了等,,,2015-10-05,1,,,,,アコールサービス,0
448,2260001012487,登記記録の閉鎖等,0,2024-12-24,2024-12-19,株式会社阿藤商店,,株式会社,岡山県,倉敷市,玉島７２２番地の１,,33,202,7138102,,,2024-12-19,清算の結了等,,,2015-10-05,1,,,,,アトウショウテン,0
449,2260001037955,登記記録の閉鎖等,0,2024-12-24,2024-12-18,株式会社結伸,,株式会社,岡山県,倉敷市,北畝２丁目５番４２号Ｃ棟２０１,,33,202,7128032,,,2024-12-18,清算の結了等,,,2023-05-16,1,,,,,ユウシン,0
454,2290001066282,登記記録の閉鎖等,0,2024-12-24,2024-12-02,株式会社ベルロジ,,株式会社,福岡県,久留米市,城島町上青木１７５番地１,,40,203,8300224,,,2024-12-02,清算の結了等,,,2015-10-05,1,,,,,ベルロジ,0
455,2290001070185,登記記録の閉鎖等,0,2024-12-24,2024-11-20,日本石炭エネルギー開発株式会社,,株式会社,東京都,港区,西新橋１丁目２番９号日比谷セントラルビル１４階,,13,103,1050003,,,2024-11-20,清算の結了等,,,2015-10-05,1,,,,,ニホンセキタンエネルギーカイハツ,0
462,2300001000066,登記記録の閉鎖等,0,2024-12-24,2024-12-20,飯盛土木株式会社,,株式会社,佐賀県,佐賀市,西与賀町大字厘外７５７番地１,,41,201,8400034,,,2024-12-20,清算の結了等,,,2015-10-05,1,,,,,,0
463,2310002006739,登記記録の閉鎖等,0,2024-12-24,2024-12-18,株式会社ハウジングロビー・リーシング＆プロパティ,,株式会社,長崎県,長崎市,岩屋町２３番３号,,42,201,8528052,,,2024-12-18,清算の結了等,,,2015-10-05,1,,,,,ハウジングロビーリーシングアンドプロパティ,0
471,2380002020519,登記記録の閉鎖等,0,2024-12-24,2024-12-09,有限会社匠ハウス,,有限会社,福島県,岩瀬郡鏡石町,岡ノ内６番地,,07,342,9690401,,,2024-12-09,清算の結了等,,,2015-10-05,1,,,,,タクミハウス,0
473,2430001018194,登記記録の閉鎖等,0,2024-12-24,2024-12-17,和光宅建株式会社,,株式会社,北海道,札幌市中央区,南九条西４丁目１番１５－３０３号,,01,101,0640809,,,2024-12-17,清算の結了等,,,2015-10-05,1,,,,,ワコウタッケン,0
474,2430001033623,登記記録の閉鎖等,0,2024-12-24,2024-12-20,株式会社山岸建設,,株式会社,北海道,北広島市,大曲並木２丁目１番地４,,01,234,0611279,,,2024-12-20,清算の結了等,,,2015-10-05,1,,,,,ヤマギシケンセツ,0
480,2490001010492,登記記録の閉鎖等,0,2024-12-24,2024-12-23,株式会社ＭＡ,,株式会社,高知県,高知市,帯屋町１丁目３－１２ケントビル２階,,39,201,7800841,,,2024-12-23,清算の結了等,,,2023-06-05,1,,,,,エムエー,0
482,2500002018120,登記記録の閉鎖等,0,2024-12-24,2024-12-19,協榮化工有限会社,,有限会社,愛媛県,今治市,鯉池町３丁目１番３５号,,38,202,7940059,,,2024-12-19,清算の結了等,,,2015-10-05,1,,,,,キョウエイカコウ,0
495,3010101004152,登記記録の閉鎖等,0,2024-12-24,2024-12-20,株式会社ラバ,,株式会社,東京都,八王子市,中野山王１丁目１８番１号,,13,201,1920042,,,2024-12-20,清算の結了等,,,2015-10-05,1,,,,,ラバ,0
501,3010403022372,登記記録の閉鎖等,0,2024-12-24,2024-12-09,新大阪インベストメンツ２合同会社,,合同会社,東京都,港区,六本木１丁目６番１号泉ガーデンタワー,,13,103,1060032,,,2024-12-09,清算の結了等,,,2020-02-18,1,,,,,シンオオサカインベストメンツツー,0
503,3010405016075,登記記録の閉鎖等,0,2024-12-24,2024-12-09,一般社団法人国際コマース,,その他の設立登記法人,東京都,港区,芝大門２丁目４番８号,,13,103,1050012,,,2024-12-09,清算の結了等,,,2017-09-20,1,,,,,コクサイコマース,0
504,3010405018534,登記記録の閉鎖等,0,2024-12-24,2024-12-09,新大阪キャピタル一般社団法人,,その他の設立登記法人,東京都,港区,六本木１丁目６番１号泉ガーデンタワー,,13,103,1060032,,,2024-12-09,清算の結了等,,,2020-02-20,1,,,,,シンオオサカキャピタル,0
505,3010501014775,登記記録の閉鎖等,0,2024-12-24,2024-12-16,株式会社リーテック,,株式会社,東京都,台東区,浅草橋１丁目２７番４号,,13,106,1110053,,,2024-12-16,清算の結了等,,,2015-10-05,1,,,,,,0
508,3010703004558,登記記録の閉鎖等,0,2024-12-24,2024-11-15,一気呵成合同会社,,合同会社,東京都,品川区,小山６丁目２７番８号,,13,109,1420062,,,2024-11-15,合併による解散等,2010703004575,令和６年１１月１日東京都品川区小山六丁目２７番８号塞翁が馬合同会社（2010703004575）に合併し解散,2018-11-29,1,,,,,イッキカセイ,0
509,3010703004582,登記記録の閉鎖等,0,2024-12-24,2024-11-15,ＳＴＯＮＥＲ合同会社,,合同会社,東京都,品川区,小山６丁目２７番８号,,13,109,1420062,,,2024-11-15,合併による解散等,2010703004575,令和６年１１月１日東京都品川区小山六丁目２７番８号塞翁が馬合同会社（2010703004575）に合併し解散,2018-12-20,1,,,,,ストーナー,0
512,3010902024555,登記記録の閉鎖等,0,2024-12-24,2024-12-19,有限会社ＪＮエンタープライズ,,有限会社,東京都,世田谷区,成城１丁目２５番４号,,13,112,1570066,,,2024-12-19,清算の結了等,,,2015-10-05,1,,,,,ジェイエヌエンタープライズ,0
534,3012405004530,登記記録の閉鎖等,0,2024-12-24,2024-12-23,一般社団法人高志会,,その他の設立登記法人,東京都,武蔵野市,御殿山１丁目２番１号吉祥寺御殿山デュープレックスリズ地下１階,,13,203,1800005,,,2024-12-23,清算の結了等,,,2020-12-14,1,,,,,コウシカイ,0
541,3013301042888,登記記録の閉鎖等,0,2024-12-24,2024-12-12,株式会社平田,,株式会社,東京都,豊島区,長崎３丁目２４番９号,,13,116,1710051,,,2024-12-12,清算の結了等,,,2018-10-09,1,,,,,ヒラタ,0
555,3020003007979,登記記録の閉鎖等,0,2024-12-24,2024-12-16,合同会社愛の里,,合同会社,神奈川県,横浜市旭区,南希望が丘１２９番地１,,14,112,2410824,,,2024-12-16,清算の結了等,,,2015-10-05,1,,,,,アイノサト,0
568,3030002093623,登記記録の閉鎖等,0,2024-12-24,2024-12-12,有限会社水沢板金工業,,有限会社,埼玉県,鶴ヶ島市,大字藤金１５８番地１,,11,241,3502206,,,2024-12-12,清算の結了等,,,2015-10-05,1,,,,,ミズサワバンキンコウギョウ,0
584,3060005004822,登記記録の閉鎖等,0,2024-12-24,2024-12-18,医療法人共愛会,,その他の設立登記法人,栃木県,小山市,中央町２丁目１番１９号,,09,208,3230023,,,2024-12-18,清算の結了等,,,2015-10-05,1,,,,,キョウアイカイ,0
602,3120001153039,登記記録の閉鎖等,0,2024-12-24,2024-12-23,株式会社ふぁみりい,,株式会社,大阪府,寝屋川市,池田本町１９番２１－１１０５号,,27,215,5720030,,,2024-12-23,清算の結了等,,,2015-10-05,1,,,,,ファミリイ,0
609,3120002038734,登記記録の閉鎖等,0,2024-12-24,2024-12-23,有限会社マルヤマ,,有限会社,大阪府,大阪市中央区,南船場４丁目１１番１４号,,27,128,5420081,,,2024-12-23,清算の結了等,,,2015-10-05,1,,,,,マルヤマ,0
610,3120002073475,登記記録の閉鎖等,0,2024-12-24,2024-12-20,有限会社アヴニール,,有限会社,大阪府,枚方市,南楠葉１丁目１５番２０号,,27,210,5731105,,,2024-12-20,清算の結了等,,,2015-10-05,1,,,,,アヴニール,0
613,3120101044609,登記記録の閉鎖等,0,2024-12-24,2024-12-20,株式会社サンプロジェクト,,株式会社,大阪府,堺市南区,鉢ヶ峯寺１２０１番地,,27,145,5900125,,,2024-12-20,清算の結了等,,,2015-10-05,1,,,,,サンプロジェクト,0
620,3122002015275,登記記録の閉鎖等,0,2024-12-24,2024-12-17,有限会社エヌ・アイ・シー,,有限会社,大阪府,柏原市,国分市場２丁目３３７８－１番地,,27,221,5820022,,,2024-12-17,清算の結了等,,,2015-10-05,1,,,,,エヌアイシー,0
622,3130001032596,登記記録の閉鎖等,0,2024-12-24,2024-12-23,株式会社小西工務店,,株式会社,京都府,宇治市,神明石塚１５番地の６,,26,204,6110025,,,2024-12-23,清算の結了等,,,2015-10-05,1,,,,,,0
630,3140001104865,登記記録の閉鎖等,0,2024-12-24,2024-12-18,株式会社辻本ナノアーク,00109067,株式会社,兵庫県,姫路市,神子岡前２丁目１１番３号,,28,201,6700055,,,2024-12-18,清算の結了等,,,2017-01-27,1,,,,,ツジモトナノアーク,0
631,3140001128443,登記記録の閉鎖等,0,2024-12-24,2024-12-18,インセンスコンサルティング株式会社,,株式会社,兵庫県,神戸市垂水区,平磯４丁目１－４スタイルキューブ３０１号室,,28,108,6550892,,,2024-12-18,清算の結了等,,,2022-12-20,1,,,,,インセンスコンサルティング,0
642,3180001069147,登記記録の閉鎖等,0,2024-12-24,2024-12-16,エス・エー・エス株式会社,,株式会社,愛知県,名古屋市中村区,名駅１丁目１番１号ＪＰタワー名古屋１４階,,23,105,4500002,,,2024-12-16,清算の結了等,,,2015-10-05,1,,,,,エスエーエス,0
647,3180001126162,登記記録の閉鎖等,0,2024-12-24,2024-12-17,株式会社ライフステージ,,株式会社,愛知県,名古屋市天白区,笹原町１０１０番地,,23,116,4680044,,,2024-12-17,清算の結了等,,,2017-01-13,1,,,,,ライフステージ,0
648,3180001141764,登記記録の閉鎖等,0,2024-12-24,2024-12-16,地域共動株式会社,,株式会社,愛知県,名古屋市中村区,平池町４丁目６０番地の１２,,23,105,4530872,,,2024-12-16,清算の結了等,,,2020-06-30,1,,,,,チイキキョウドウ,0
651,3180002024919,登記記録の閉鎖等,0,2024-12-24,2024-12-17,有限会社桃井精機,,有限会社,愛知県,名古屋市西区,新木町１４番地,,23,104,4520836,,,2024-12-17,清算の結了等,,,2015-10-05,1,,,,,モモイセイキ,0
654,3190002015074,登記記録の閉鎖等,0,2024-12-24,2024-12-20,有限会社河合技研,,有限会社,三重県,多気郡多気町,五桂１５２番地,,24,441,5192174,,,2024-12-20,清算の結了等,,,2015-10-05,1,,,,,カワイギケン,0
656,3200001021749,登記記録の閉鎖等,0,2024-12-24,2024-12-20,釜戸興業株式会社,,株式会社,岐阜県,瑞浪市,釜戸町２８７５番地の１,,21,208,5096472,,,2024-12-20,清算の結了等,,,2015-10-05,1,,,,,カマドコウギョウ,0
658,3200002019610,登記記録の閉鎖等,0,2024-12-24,2024-12-19,有限会社アミ,,有限会社,岐阜県,関市,栄町１丁目６１番,,21,205,5013253,,,2024-12-19,清算の結了等,,,2015-10-05,1,,,,,アミ,0
689,3330002027864,登記記録の閉鎖等,0,2024-12-24,2024-12-19,有限会社橋本商店,,有限会社,熊本県,水俣市,幸町６番４１号,,43,205,8670064,,,2024-12-19,清算の結了等,,,2015-10-05,1,,,,,ハシモトショウテン,0
690,3340001020596,登記記録の閉鎖等,0,2024-12-24,2024-12-19,株式会社上野消防設備,,株式会社,鹿児島県,鹿児島市,田上７丁目１９番２２号,,46,201,8900034,,,2024-12-19,清算の結了等,,,2017-09-06,1,,,,,ウエノショウボウセツビ,0
693,3360001004366,登記記録の閉鎖等,0,2024-12-24,2024-12-20,南西石油株式会社,,株式会社,沖縄県,中頭郡西原町,字小那覇８５８番地,,47,329,9030103,,,2024-12-20,合併による解散等,4010001021635,令和６年１２月１日東京都千代田区内幸町二丁目２番３号太陽石油株式会社（4010001021635）に合併し解散,2015-10-05,1,,,,,ナンセイセキユ,0
703,3400602000684,登記記録の閉鎖等,0,2024-12-24,2024-12-13,有限会社ミズサワキクコ,,有限会社,岩手県,奥州市,水沢南大鐘１丁目７７番地,,03,215,0230855,,,2024-12-13,清算の結了等,,,2015-10-05,1,,,,,ミズサワキクコ,0
710,3430005011277,登記記録の閉鎖等,0,2024-12-24,2024-12-19,特定非営利活動法人サンユークラブ,,その他の設立登記法人,北海道,札幌市豊平区,平岸二条４丁目１番２－８０１,,01,105,0620932,,,2024-12-19,清算の結了等,,,2015-10-05,1,,,,,サンユークラブ,0
711,3440001005018,登記記録の閉鎖等,0,2024-12-24,2024-12-19,株式会社ＥＡＳＴ,,株式会社,北海道,札幌市西区,発寒十四条１４丁目２番１０号,,01,107,0630834,,,2024-12-19,清算の結了等,,,2015-10-05,1,,,,,イースト,0
715,3480005006768,登記記録の閉鎖等,0,2024-12-24,2024-12-18,一般社団法人ノーサイド,,その他の設立登記法人,徳島県,美馬市,脇町大字猪尻字八幡神社下南１２１番地５,,36,207,7793602,,,2024-12-18,清算の結了等,,,2020-04-08,1,,,,,ノーサイド,0
717,3500002008921,登記記録の閉鎖等,0,2024-12-24,2024-12-19,有限会社アルゴ,,有限会社,愛媛県,松山市,三番町４丁目３番地９,,38,201,7900003,,,2024-12-19,清算の結了等,,,2015-10-05,1,,,,,アルゴ,0
734,4010003029668,登記記録の閉鎖等,0,2024-12-24,2024-12-20,合同会社パシフィックファイブ,,合同会社,東京都,千代田区,丸の内１丁目４番１号東京共同会計事務所内,,13,101,1000005,,,2024-12-20,清算の結了等,,,2019-04-19,1,,,,,パシフィックファイブ,0
738,4010401147757,登記記録の閉鎖等,0,2024-12-24,2024-12-09,株式会社ＮＡ,,株式会社,東京都,港区,北青山２丁目７番１３号プラセオ青山ビル３階,,13,103,1070061,,,2024-12-09,清算の結了等,,,2019-08-30,1,,,,,エヌエー,0
740,4010403022371,登記記録の閉鎖等,0,2024-12-24,2024-12-09,新大阪インベストメンツ１合同会社,,合同会社,東京都,港区,六本木１丁目６番１号泉ガーデンタワー,,13,103,1060032,,,2024-12-09,清算の結了等,,,2020-02-18,1,,,,,シンオオサインベストメンツワン,0
741,4010403022834,登記記録の閉鎖等,0,2024-12-24,2024-12-09,新大阪マネジメント合同会社,,合同会社,東京都,港区,六本木１丁目６番１号泉ガーデンタワー,,13,103,1060032,,,2024-12-09,清算の結了等,,,2020-04-14,1,,,,,シンオオサカマネジメント,0
746,4010405018533,登記記録の閉鎖等,0,2024-12-24,2024-12-09,新大阪インベストメンツ特定目的会社,,その他の設立登記法人,東京都,港区,六本木１丁目６番１号泉ガーデンタワー,,13,103,1060032,,,2024-12-09,清算の結了等,,,2020-02-20,1,,,,,シンオオサカインベストメンツ,0
748,4010701035562,登記記録の閉鎖等,0,2024-12-24,2024-11-15,イルプリモパッソ株式会社,,株式会社,東京都,品川区,小山６丁目２７番８号,,13,109,1420062,,,2024-11-15,合併による解散等,2010703004575,令和６年１１月１日東京都品川区小山六丁目２７番８号塞翁が馬合同会社（2010703004575）に合併し解散,2018-03-27,1,,,,,イルプリモパッソ,0
750,4010703004053,登記記録の閉鎖等,0,2024-12-24,2024-12-12,日中友好支援合同会社,,合同会社,東京都,品川区,旗の台６丁目２８番８号,,13,109,1420064,,,2024-12-12,清算の結了等,,,2018-01-23,1,,,,,ニッチュウユウコウシエン,0
759,4011005005161,登記記録の閉鎖等,0,2024-12-24,2024-11-29,一般社団法人ＰＨＲ協会,,その他の設立登記法人,東京都,渋谷区,代々木３丁目４２番１０号,,13,113,1510053,,,2024-11-29,清算の結了等,,,2015-10-05,1,,,,,ピーエイチアールキョウカイ,0
764,4011102021747,登記記録の閉鎖等,0,2024-12-24,2024-12-12,ミジョッテ有限会社,,有限会社,東京都,新宿区,西新宿３丁目７番２６－６１２号,,13,104,1600023,,,2024-12-12,清算の結了等,,,2015-10-05,1,,,,,ミジョッテ,0
773,4011205002355,登記記録の閉鎖等,0,2024-12-24,2024-12-16,特定非営利活動法人ＮｅｘｔＳｅｅｄｓ,,その他の設立登記法人,東京都,台東区,浅草橋５丁目２－３鈴和ビル２Ｆ,,13,106,1110053,,,2024-12-16,清算の結了等,,,2019-11-01,1,,,,,ネクストシーズ,0
782,4012302008229,登記記録の閉鎖等,0,2024-12-24,2024-12-16,有限会社Ｋグラフィクス,,有限会社,東京都,町田市,つくし野４丁目３３番２５号,,13,209,1940001,,,2024-12-16,清算の結了等,,,2015-10-05,1,,,,,ケーグラフィクス,0
791,4020001003987,登記記録の閉鎖等,0,2024-12-24,2024-12-13,株式会社伸光商会,,株式会社,神奈川県,横浜市港南区,上永谷３丁目１６番１７号,,14,111,2330012,,,2024-12-13,清算の結了等,,,2015-10-05,1,,,,,シンコウショウカイ,0
797,4020002091742,登記記録の閉鎖等,0,2024-12-24,2024-12-16,エム・エイチ・エス有限会社,,有限会社,神奈川県,川崎市多摩区,菅馬場１丁目５番８号,,14,135,2140004,,,2024-12-16,清算の結了等,,,2015-10-05,1,,,,,エムエイチエス,0
804,4021002072451,登記記録の閉鎖等,0,2024-12-24,2024-12-23,有限会社葵工業,,有限会社,神奈川県,相模原市中央区,光が丘１丁目２番２号,,14,152,2520227,,,2024-12-23,清算の結了等,,,2015-10-05,1,,,,,アオイコウギョウ,0
807,4030001060219,登記記録の閉鎖等,0,2024-12-24,2024-12-19,株式会社コーワ建築設計事務所,,株式会社,埼玉県,本庄市,小島南１丁目３番２５号,,11,211,3670062,,,2024-12-19,清算の結了等,,,2015-10-05,1,,,,,コーワケンチクセッケイジムショ,0
823,4040003012365,登記記録の閉鎖等,0,2024-12-24,2024-12-16,合同会社ブラザー,,合同会社,千葉県,市原市,五井中央西２丁目２－１マルエイ第３ビル２Ｆ,,12,219,2900081,,,2024-12-16,清算の結了等,,,2018-10-25,1,,,,,ブラザー,0
831,4060001010526,登記記録の閉鎖等,0,2024-12-24,2024-12-18,株式会社栃の葉書房,,株式会社,栃木県,鹿沼市,御成橋町１丁目３００２番地２４,,09,205,3220005,,,2024-12-18,清算の結了等,,,2015-10-05,1,,,,,トチノハショボウ,0
840,4080401011576,登記記録の閉鎖等,0,2024-12-24,2024-12-17,株式会社ハンド,,株式会社,静岡県,浜松市中央区,相生町４番１３－１２０４号ネオステージ相生,,22,138,4300805,,,2024-12-17,清算の結了等,,,2015-10-05,1,,,,,ハンド,0
841,4080401021030,登記記録の閉鎖等,0,2024-12-24,2024-12-19,株式会社ＴＯＰ　ＰＡＲＴＳ　ＡＳＩＡ,,株式会社,静岡県,浜松市中央区,篠ケ瀬町３７３番地,,22,138,4350042,,,2024-12-19,清算の結了等,,,2015-10-05,1,,,,,トップパーツアジア,0
852,4120001208139,登記記録の閉鎖等,0,2024-12-24,2024-12-20,アーキテックプラス株式会社,,株式会社,大阪府,大阪市城東区,東中浜３丁目１７番１８号,,27,118,5360023,,,2024-12-20,清算の結了等,,,2017-09-13,1,,,,,アーキテックプラス,0
856,4120102017158,登記記録の閉鎖等,0,2024-12-24,2024-12-20,有限会社悠設計,,有限会社,大阪府,富田林市,向陽台４丁目１番６－３０６号,,27,214,5840082,,,2024-12-20,清算の結了等,,,2015-10-05,1,,,,,ハルカセッケイ,0
858,4120901039971,登記記録の閉鎖等,0,2024-12-24,2024-12-19,Ｈ＆Ｂ－ｌａｂ株式会社,,株式会社,大阪府,池田市,豊島北２丁目５番３号,,27,204,5630036,,,2024-12-19,清算の結了等,,,2018-05-29,1,,,,,エイチアンドビーラボ,0
863,4130001013892,登記記録の閉鎖等,0,2024-12-24,2024-12-23,株式会社ウイルマン,,株式会社,京都府,京都市伏見区,中島樋ノ上町１番地小坂ビル１Ｆ,00035486,26,109,6128465,,,2024-12-23,清算の結了等,,,2015-10-05,1,,,,,ウイルマン,0
881,4150001025003,登記記録の閉鎖等,0,2024-12-24,2024-12-17,株式会社キトスム,,株式会社,奈良県,吉野郡川上村,大字迫１３３５番地の９,,29,452,6393553,,,2024-12-17,清算の結了等,,,2021-10-08,1,,,,,キトスム,0
887,4180001090003,登記記録の閉鎖等,0,2024-12-24,2024-12-23,株式会社ワイズ,,株式会社,岐阜県,多治見市,市之倉町１３丁目３５番地２,,21,204,5070814,,,2024-12-23,清算の結了等,,,2015-10-05,1,,,,,ワイズ,0
888,4180001134073,登記記録の閉鎖等,0,2024-12-24,2024-12-17,尾州産業株式会社,,株式会社,愛知県,一宮市,木曽川町黒田九ノ通り４０５番地,,23,203,4930001,,,2024-12-17,清算の結了等,,,2018-10-15,1,,,,,ビシュウサンギョウ,0
890,4180002011494,登記記録の閉鎖等,0,2024-12-24,2024-12-18,有限会社サンサカイ建工,,有限会社,愛知県,名古屋市北区,楠５丁目８１０番地,,23,103,4620012,,,2024-12-18,清算の結了等,,,2015-10-05,1,,,,,サンサカイケンコウ,0
892,4180002014274,登記記録の閉鎖等,0,2024-12-24,2024-12-16,有限会社鶴巻製作所,,有限会社,愛知県,名古屋市南区,元柴田西町２丁目３０番地,,23,112,4570817,,,2024-12-16,清算の結了等,,,2015-10-05,1,,,,,ツルマキセイサクジョ,0
895,4200001012706,登記記録の閉鎖等,0,2024-12-24,2024-12-19,株式会社ウィングジャパン,,株式会社,岐阜県,岐阜市,岩栄町１丁目２１番地,,21,201,5008134,,,2024-12-19,清算の結了等,,,2015-10-05,1,,,,,ウィングジャパン,0
904,4220005008351,登記記録の閉鎖等,0,2024-12-24,2024-12-19,税理士法人八稜,,その他の設立登記法人,石川県,金沢市,西念４丁目２４番３０号金沢ＭＧビル４階,,17,201,9200024,,,2024-12-19,清算の結了等,,,2019-02-01,1,,,,,ハチリョウ,0
906,4230001015895,登記記録の閉鎖等,0,2024-12-24,2024-12-20,株式会社グッドエイト,,株式会社,富山県,富山市,東中野町２丁目３番１５号,,16,201,9398086,,,2024-12-20,清算の結了等,,,2015-10-05,1,,,,,グッドエイト,0
908,4240001044068,登記記録の閉鎖等,0,2024-12-24,2024-12-20,株式会社エネラホーム,,株式会社,広島県,広島市安佐南区,伴北５丁目３４５２番地９,,34,105,7313163,,,2024-12-20,清算の結了等,,,2015-10-05,1,,,,,エネラホーム,0
920,4260001038794,登記記録の閉鎖等,0,2024-12-24,2024-12-19,株式会社入野谷商会,,株式会社,岡山県,岡山市北区,清輝橋２丁目２番１１号,,33,101,7000861,,,2024-12-19,清算の結了等,,,2024-03-07,1,,,,,イリノヤショウカイ,0
924,4280002000685,登記記録の閉鎖等,0,2024-12-24,2024-12-20,有限会社空調サービス工業,,有限会社,島根県,松江市,東津田町２１６８番地４２２,,32,201,6900011,,,2024-12-20,清算の結了等,,,2015-10-05,1,,,,,クウチョウサービスコウギョウ,0
927,4290001007557,登記記録の閉鎖等,0,2024-12-24,2024-12-13,コモノアンドスタントン株式会社,,株式会社,福岡県,福岡市中央区,天神１丁目９番１７号,,40,133,8100001,,,2024-12-13,清算の結了等,,,2015-10-05,1,,,,,コモノアンドスタントン,0
943,4290002056850,登記記録の閉鎖等,0,2024-12-24,2024-11-29,有限会社リッチリンケージ,,有限会社,福岡県,福岡市中央区,輝国２丁目１９番９号,,40,133,8100032,,,2024-11-29,清算の結了等,,,2015-10-05,1,,,,,リッチリンケージ,0
945,4290003012927,登記記録の閉鎖等,0,2024-12-24,2024-12-09,合同会社そら,,合同会社,福岡県,福岡市西区,今宿駅前１丁目１５番１８号マリブ今宿シーサイドテラス３Ｆ,,40,135,8190168,,,2024-12-09,清算の結了等,,,2022-09-07,1,,,,,ソラ,0
948,4290801022350,登記記録の閉鎖等,0,2024-12-24,2024-12-19,株式会社フリーフィール,,株式会社,東京都,羽村市,栄町１丁目１４番地１３サンモールＩＩ２０５,00124616,13,227,2050002,,,2024-12-19,合併による解散等,3021003013967,令和６年１２月１７日神奈川県藤沢市南藤沢８番９号ＭＫ湘南ＦＡＩＲＹ　ＴＡＩＬ株式会社（3021003013967）に合併し解散,2016-03-22,1,,,,,フリーフィール,0
954,4320202000720,登記記録の閉鎖等,0,2024-12-24,2024-12-17,有限会社文化塗装工業,,有限会社,大分県,津久見市,大字上青江６５９８番地,,44,207,8792461,,,2024-12-17,清算の結了等,,,2015-10-05,1,,,,,ブンカトソウコウギョウ,0
962,4350002003334,登記記録の閉鎖等,0,2024-12-24,2024-12-20,有限会社長浜電装,,有限会社,宮崎県,児湯郡新富町,大字三納代新町２３８７－２,,45,402,8891402,,,2024-12-20,清算の結了等,,,2015-10-05,1,,,,,ナガハマデンソウ,0
963,4360001005999,登記記録の閉鎖等,0,2024-12-24,2024-12-20,那覇ＡＣＣパートナーズ株式会社,,株式会社,沖縄県,那覇市,久茂地１丁目７番１号,,47,201,9000015,,,2024-12-20,清算の結了等,,,2015-10-05,1,,,,,ナハエーシーシーパートナーズ,0
976,4430005004577,登記記録の閉鎖等,0,2024-12-24,2024-12-20,特定非営利活動法人北海道ふるさと回帰支援センター,,その他の設立登記法人,北海道,札幌市中央区,南八条西２丁目市民活動プラザ星園,,01,101,0640808,,,2024-12-20,清算の結了等,,,2015-10-05,1,,,,,ホッカイドウフルサトカイキシエンセンター,0
977,4430005008495,登記記録の閉鎖等,0,2024-12-24,2024-12-20,特定非営利活動法人しりべつリバーネツト,,その他の設立登記法人,北海道,虻田郡ニセコ町,字曽我１３８番地ニセコアウトドアセンター内,,01,395,0481522,,,2024-12-20,清算の結了等,,,2015-10-05,1,,,,,シリベツリバーネット,0
979,4470001002787,登記記録の閉鎖等,0,2024-12-24,2024-12-23,株式会社中外電設工業社,,株式会社,香川県,高松市,林町２５７４番地２,,37,201,7610301,,,2024-12-23,清算の結了等,,,2015-10-05,1,,,,,チュウガイデンセツコウギョウシャ,0
987,5010001007550,登記記録の閉鎖等,0,2024-12-24,2024-12-12,マルモ情報産業株式会社,,株式会社,東京都,文京区,小石川１丁目２番４号,,13,105,1120002,,,2024-12-12,清算の結了等,,,2015-10-05,1,,,,,マルモジョウホウサンギョウ,0
988,5010001008029,登記記録の閉鎖等,0,2024-12-24,2024-12-20,株式会社山畑宝飾,,株式会社,東京都,文京区,弥生１丁目５番３号,,13,105,1130032,,,2024-12-20,清算の結了等,,,2015-10-05,1,,,,,ヤマハタホウショク,0
994,5010105000146,登記記録の閉鎖等,0,2024-12-24,2024-12-23,医療法人社団誠朋会,,その他の設立登記法人,東京都,八王子市,八木町６番１１号松栄八王子ビル１階,,13,201,1920055,,,2024-12-23,清算の結了等,,,2015-10-05,1,,,,,セイホウカイ,0
1006,5010802004333,登記記録の閉鎖等,0,2024-12-24,2024-12-17,有限会社共美不動産,,有限会社,東京都,大田区,多摩川１丁目１番１号,,13,111,1460095,,,2024-12-17,清算の結了等,,,2015-10-05,1,,,,,キョウビフドウサン,0
1027,5011703002748,登記記録の閉鎖等,0,2024-12-24,2024-12-17,ＳＵＧＡビジネス創造・研修支援合同会社,,合同会社,東京都,江戸川区,篠崎町４丁目１９－８,,13,123,1330061,,,2024-12-17,清算の結了等,,,2021-01-07,1,,,,,スガビジネスソウゾウケンシュウシエン,0
1031,5013301035898,登記記録の閉鎖等,0,2024-12-24,2024-12-16,株式会社Ｌｉｍｉｔｌｅｓｓ　Ｆｕｔｕｒｅ,,株式会社,東京都,台東区,上野７丁目６番１１号第一下谷ビル２Ｆ,,13,106,1100005,,,2024-12-16,清算の結了等,,,2015-10-05,1,,,,,リミットレスフューチャー,0
1035,5020001004943,登記記録の閉鎖等,0,2024-12-24,2024-12-13,極太機工株式会社,,株式会社,神奈川県,横浜市旭区,今宿東町１６１８番地８プラティア１０１,,14,112,2410032,,,2024-12-13,清算の結了等,,,2015-10-05,1,,,,,キョクダイキコウ,0
1040,5020001133973,登記記録の閉鎖等,0,2024-12-24,2024-12-12,Ｒ＆Ｓ株式会社,,株式会社,神奈川県,横浜市港北区,日吉本町４丁目１０番３２－５２８号,,14,109,2230062,,,2024-12-12,清算の結了等,,,2019-12-06,1,,,,,アールアンドエス,0
1051,5021001061512,登記記録の閉鎖等,0,2024-12-24,2024-12-23,リピートアゲイン株式会社,,株式会社,神奈川県,逗子市,久木４丁目４番１７号,,14,208,2490001,,,2024-12-23,清算の結了等,,,2017-03-06,1,,,,,リピートアゲイン,0
1052,5021001066453,登記記録の閉鎖等,0,2024-12-24,2024-12-23,株式会社源,,株式会社,神奈川県,相模原市中央区,淵野辺３丁目３番１０号,,14,152,2520206,,,2024-12-23,清算の結了等,,,2019-01-17,1,,,,,ゲン,0
1059,5030002036349,登記記録の閉鎖等,0,2024-12-24,2024-12-19,有限会社いるまハウジング,,有限会社,埼玉県,入間市,小谷田１丁目１７番１３号コンフォートＫ１０１,,11,225,3580026,,,2024-12-19,清算の結了等,,,2015-10-05,1,,,,,イルマハウジング,0
1079,5060002024565,登記記録の閉鎖等,0,2024-12-24,2024-12-19,有限会社アクア,,有限会社,栃木県,那須塩原市,井口５６番地２８,,09,213,3292763,,,2024-12-19,清算の結了等,,,2015-10-05,1,,,,,アクア,0
1093,5110001029709,登記記録の閉鎖等,0,2024-12-24,2024-12-19,にいがた産直販売株式会社,,株式会社,新潟県,新潟市東区,もえぎ野３丁目１０番６号,,15,102,9500842,,,2024-12-19,清算の結了等,,,2015-10-05,1,,,,,ニイガタサンチョクハンバイ,0
1097,5120001119954,登記記録の閉鎖等,0,2024-12-24,2024-12-20,株式会社ネクストテレコム,,株式会社,大阪府,大阪市城東区,野江２丁目９番５号,,27,118,5360006,,,2024-12-20,清算の結了等,,,2015-10-05,1,,,,,ネクストテレコム,0
1108,5130002015004,登記記録の閉鎖等,0,2024-12-24,2024-12-23,有限会社マルチヨウ観光タクシー,,有限会社,京都府,京都市伏見区,醍醐構口町２８番地１ルネス・ピース醍醐３０４,,26,109,6011354,,,2024-12-23,清算の結了等,,,2015-10-05,1,,,,,マルチョウカンコウタクシー,0
1111,5140001066591,登記記録の閉鎖等,0,2024-12-24,2024-12-19,株式会社松本商行,,株式会社,兵庫県,三田市,中町７番２０－２号,,28,219,6691527,,,2024-12-19,清算の結了等,,,2015-10-05,1,,,,,マツモトショウコウ,0
1116,5140003017717,登記記録の閉鎖等,0,2024-12-24,2024-12-16,合同会社Ａｎ‐ｂｌｏｏｍ,,合同会社,兵庫県,豊岡市,高屋１０８１番地の７,,28,209,6680064,,,2024-12-16,清算の結了等,,,2022-06-14,1,,,,,アンブルーム,0
1120,5150002010556,登記記録の閉鎖等,0,2024-12-24,2024-12-23,有限会社フォレストファーム,,有限会社,奈良県,葛城市,新村３５１番地,,29,211,6392121,,,2024-12-23,清算の結了等,,,2015-10-05,1,,,,,,0
1131,5200001018438,登記記録の閉鎖等,0,2024-12-24,2024-12-20,株式会社トーノー・ニッソー,,株式会社,岐阜県,可児市,桜ケ丘７丁目２４２番地,,21,214,5090235,,,2024-12-20,清算の結了等,,,2015-10-05,1,,,,,トーノーニッソー,0
1137,5250001008574,登記記録の閉鎖等,0,2024-12-24,2024-12-20,株式会社阿東グリーンサポート,,株式会社,山口県,山口市,阿東生雲中５０９番地１,,35,203,7591342,,,2024-12-20,清算の結了等,,,2015-10-05,1,,,,,アトウグリーンサポート,0
1140,5280002002598,登記記録の閉鎖等,0,2024-12-24,2024-12-20,有限会社渡部豆富店,,有限会社,島根県,松江市,寺町８０番地８,,32,201,6900063,,,2024-12-20,清算の結了等,,,2015-10-05,1,,,,,ワタベトウフテン,0
1142,5290001013703,登記記録の閉鎖等,0,2024-12-24,2024-12-02,株式会社真建築地域研究所,,株式会社,福岡県,福岡市早良区,百道１丁目２番６－４０３号,,40,137,8140006,,,2024-12-02,清算の結了等,,,2015-10-05,1,,,,,,0
1156,5330002012402,登記記録の閉鎖等,0,2024-12-24,2024-12-17,有限会社山本,,有限会社,熊本県,葦北郡芦北町,大字道川内１９８,,43,482,8695451,,,2024-12-17,清算の結了等,,,2015-10-05,1,,,,,ヤマモト,0
1166,5370601000233,登記記録の閉鎖等,0,2024-12-24,2024-12-16,港都設備株式会社,,株式会社,宮城県,塩竈市,白萩町２番９号,,04,203,9850032,,,2024-12-16,清算の結了等,,,2015-10-05,1,,,,,コウトセツビ,0
1167,5380001019526,登記記録の閉鎖等,0,2024-12-24,2024-12-11,株式会社和泉産業,,株式会社,福島県,いわき市,錦町江栗１丁目１０１番地,,07,204,9748232,,,2024-12-11,清算の結了等,,,2015-10-05,1,,,,,イズミサンギョウ,0
1172,5420001007690,登記記録の閉鎖等,0,2024-12-24,2024-12-20,中材林業株式会社,,株式会社,青森県,三戸郡田子町,大字原字原５８番地１,,02,443,0390311,,,2024-12-20,清算の結了等,,,2015-10-05,1,,,,,ナカザイリンギョウ,0
1173,5420002006353,登記記録の閉鎖等,0,2024-12-24,2024-12-20,有限会社大野裏地店,,有限会社,青森県,八戸市,大字番町３８番地,,02,203,0310031,,,2024-12-20,清算の結了等,,,2015-10-05,1,,,,,オオノウラジテン,0
1174,5430001032853,登記記録の閉鎖等,0,2024-12-24,2024-12-20,植田測量株式会社,,株式会社,北海道,石狩市,花川北一条２丁目６４番地,,01,235,0613211,,,2024-12-20,清算の結了等,,,2015-10-05,1,,,,,ウエダソクリョウ,0
1180,5460301003196,登記記録の閉鎖等,0,2024-12-24,2024-12-16,株式会社道北電気,,株式会社,北海道,網走市,駒場北６丁目３番３号,,01,211,0930033,,,2024-12-16,清算の結了等,,,2015-10-05,1,,,,,ドウホクデンキ,0
1183,5490001004310,登記記録の閉鎖等,0,2024-12-24,2024-12-20,株式会社サークル,,株式会社,高知県,高知市,帯屋町１丁目６番１１号,,39,201,7800841,,,2024-12-20,清算の結了等,,,2015-10-05,1,,,,,サークル,0
1186,5500001017707,登記記録の閉鎖等,0,2024-12-24,2024-12-19,株式会社八木建設,,株式会社,愛媛県,東温市,上林甲３５４６番地,,38,215,7910223,,,2024-12-19,清算の結了等,,,2015-10-05,1,,,,,ヤギケンセツ,0
1193,6010001053008,登記記録の閉鎖等,0,2024-12-24,2024-12-13,株式会社ナカハラ,,株式会社,東京都,中央区,八重洲２丁目１１番６号,,13,102,1040028,,,2024-12-13,清算の結了等,,,2015-10-05,1,,,,,ナカハラ,0
1196,6010001229136,登記記録の閉鎖等,0,2024-12-24,2024-12-11,株式会社Ｍａｔｃｈ,,株式会社,東京都,中央区,日本橋馬喰町１丁目１１番６号,,13,102,1030002,,,2024-12-11,清算の結了等,,,2022-08-31,1,,,,,マッチ,0
1211,6010405019728,登記記録の閉鎖等,0,2024-12-24,2024-12-09,船橋ロジスティクスデベロップメント一般社団法人,,その他の設立登記法人,東京都,港区,六本木１丁目６番１号泉ガーデンタワー,,13,103,1060032,,,2024-12-09,清算の結了等,,,2021-04-19,1,,,,,フナバシロジスティクスデベロップメント,0
1213,6010601057597,登記記録の閉鎖等,0,2024-12-24,2024-12-11,株式会社トレステッレ,,株式会社,東京都,台東区,上野６丁目８番１９号小野田ビル３０１,,13,106,1100005,,,2024-12-11,清算の結了等,,,2020-07-02,1,,,,,トレステッレ,0
1245,6011702000041,登記記録の閉鎖等,0,2024-12-24,2024-12-18,有限会社旭湯,,有限会社,東京都,江戸川区,平井２丁目１８番１２号,,13,123,1320035,,,2024-12-18,清算の結了等,,,2015-10-05,1,,,,,アサヒユ,0
1255,6020001001080,登記記録の閉鎖等,0,2024-12-24,2024-12-13,株式会社メディカルネットワーク,,株式会社,神奈川県,横浜市泉区,和泉中央南３丁目１０番９号,,14,116,2450023,,,2024-12-13,清算の結了等,,,2015-10-05,1,,,,,メディカルネットワーク,0
1259,6020002088035,登記記録の閉鎖等,0,2024-12-24,2024-12-19,有限会社エムワイ,,有限会社,神奈川県,川崎市高津区,千年７２５番地,,14,134,2130022,,,2024-12-19,清算の結了等,,,2015-10-05,1,,,,,エムワイ,0
1263,6021003014343,登記記録の閉鎖等,0,2024-12-24,2024-12-20,合同会社相洋企画,,合同会社,神奈川県,小田原市,飯田岡４７０番地,,14,206,2500854,,,2024-12-20,清算の結了等,,,2024-04-08,1,,,,,ソウヨウキカク,0
1264,6030001005023,登記記録の閉鎖等,0,2024-12-24,2024-12-19,武永産業株式会社,,株式会社,埼玉県,さいたま市浦和区,元町３丁目１７番１２号,,11,107,3300073,,,2024-12-19,清算の結了等,,,2015-10-05,1,,,,,タケナガサンギョウ,0
1286,6080102008523,登記記録の閉鎖等,0,2024-12-24,2024-12-19,有限会社日本ソフトプランナー,,有限会社,静岡県,伊豆の国市,宗光寺６７５番地の１４,,22,225,4102302,,,2024-12-19,清算の結了等,,,2015-10-05,1,,,,,ニホンソフトプランナー,0
1288,6100001033108,登記記録の閉鎖等,0,2024-12-24,2024-12-20,株式会社ｋｉｔｅｎ,,株式会社,長野県,東御市,田中７４６番地２,,20,219,3890516,,,2024-12-20,清算の結了等,,,2020-04-16,1,,,,,キテン,0
1294,6120001185450,登記記録の閉鎖等,0,2024-12-24,2024-12-20,株式会社ワールドエージェント,,株式会社,大阪府,大阪市中央区,南本町２丁目４番１０号,,27,128,5410054,,,2024-12-20,清算の結了等,,,2015-10-05,1,,,,,,0
1299,6120002075394,登記記録の閉鎖等,0,2024-12-24,2024-12-20,和信物産有限会社,,有限会社,大阪府,枚方市,渚西１丁目３６番１６号,00046183,27,210,5731178,,,2024-12-20,清算の結了等,,,2015-10-05,1,,,,,ワシンブッサン,0
1326,6180001034602,登記記録の閉鎖等,0,2024-12-24,2024-12-12,株式会社アイビオ,,株式会社,愛知県,名古屋市千種区,覚王山通８丁目３５番地,,23,101,4640841,,,2024-12-12,清算の結了等,,,2015-10-05,1,,,,,アイビオ,0
1334,6180001158112,登記記録の閉鎖等,0,2024-12-24,2024-12-16,株式会社ＡｍａＺｉｎｇ,,株式会社,愛知県,名古屋市東区,東大曽根町１６番１５号,,23,102,4610022,,,2024-12-16,清算の結了等,,,2023-09-22,1,,,,,アメイジング,0
1350,6240001048521,登記記録の閉鎖等,0,2024-12-24,2024-12-23,和諧株式会社,,株式会社,広島県,広島市中区,本川町２丁目１番７号,,34,101,7300802,,,2024-12-23,清算の結了等,,,2015-12-01,1,,,,,ワカイ,0
1352,6240002016923,登記記録の閉鎖等,0,2024-12-24,2024-12-20,有限会社森山商店,,有限会社,広島県,広島市安芸区,瀬野町２４１５番地,,34,107,7390312,,,2024-12-20,清算の結了等,,,2015-10-05,1,,,,,モリヤマショウテン,0
1353,6240002030206,登記記録の閉鎖等,0,2024-12-24,2024-12-19,有限会社中国新聞三次西販売所,,有限会社,広島県,三次市,三次町１２２６番地,,34,209,7280021,,,2024-12-19,清算の結了等,,,2015-10-05,1,,,,,チュウゴクシンブンミヨシニシハンバイショ,0
1354,6240005004099,登記記録の閉鎖等,0,2024-12-24,2024-12-20,協同組合安芸津共栄会,,その他の設立登記法人,広島県,東広島市,安芸津町三津１６４９番地の１,,34,212,7392402,,,2024-12-20,清算の結了等,,,2015-10-05,1,,,,,アキツキョウエイカイ,0
1365,6290002044985,登記記録の閉鎖等,0,2024-12-24,2024-12-02,ＪＡＭＥＳ　ＨＯＭＥ株式会社,,株式会社,福岡県,太宰府市,向佐野４丁目１１番２８号,,40,221,8180135,,,2024-12-02,合併による解散等,9290001033953,令和６年１２月１日福岡市東区若宮五丁目１９番１４号ジェームス不動産株式会社（9290001033953）に合併し解散,2015-10-05,1,,,,,ジェームスホーム,0
1372,6330005010336,登記記録の閉鎖等,0,2024-12-24,2024-12-18,一般財団法人ｙａｃｈ財団,,その他の設立登記法人,熊本県,熊本市東区,御領８丁目６番２５号,,43,102,8618035,,,2024-12-18,清算の結了等,,,2021-04-21,1,,,,,ヤッハザイダン,0
1418,7010001080612,登記記録の閉鎖等,0,2024-12-24,2024-12-16,株式会社ブレーントラストコンサルティング,,株式会社,神奈川県,横浜市都筑区,すみれが丘１９番地１６,,14,118,2240013,,,2024-12-16,清算の結了等,,,2015-10-05,1,,,,,ブレーントラストコンサルティング,0
1430,7010005034845,登記記録の閉鎖等,0,2024-12-24,2024-12-19,高槻開発特定目的会社,,その他の設立登記法人,東京都,千代田区,飯田橋４丁目７番１号結和税理士法人内,,13,101,1020072,,,2024-12-19,清算の結了等,,,2022-04-11,1,,,,,タカツキカイハツ,0
1431,7010005037055,登記記録の閉鎖等,0,2024-12-24,2024-12-20,一般社団法人ムラサキ,,その他の設立登記法人,東京都,中央区,銀座１丁目６番１１号土志田ビルディング３Ｆ,,13,102,1040061,,,2024-12-20,清算の結了等,,,2023-08-04,1,,,,,ムラサキ,0
1439,7010402022964,登記記録の閉鎖等,0,2024-12-24,2024-12-09,有限会社ヒロベット,,有限会社,東京都,港区,芝２丁目１番２５－１２０３号,,13,103,1050014,,,2024-12-09,清算の結了等,,,2015-10-05,1,,,,,ヒロベット,0
1441,7010501038985,登記記録の閉鎖等,0,2024-12-24,2024-12-16,株式会社岡野工務店,,株式会社,東京都,台東区,浅草６丁目２６番３号ケイテイ商会ビル１階,,13,106,1110032,,,2024-12-16,清算の結了等,,,2016-01-07,1,,,,,オカノコウムテン,0
1454,7010901028413,登記記録の閉鎖等,0,2024-12-24,2024-12-20,株式会社ＭＴＳ雪氷研究所,,株式会社,東京都,杉並区,成田東４丁目１９番１号,,13,115,1660015,,,2024-12-20,清算の結了等,,,2015-10-05,1,,,,,エムティーエスセッピョウケンキュウジョ,0
1468,7011105006890,登記記録の閉鎖等,0,2024-12-24,2024-12-19,一般社団法人東京セキュリティ協会,,その他の設立登記法人,東京都,千代田区,岩本町２丁目１６番５号,,13,101,1010032,,,2024-12-19,清算の結了等,,,2015-10-05,1,,,,,トウキョウセキュリティキョウカイ,0
1493,7020001117603,登記記録の閉鎖等,0,2024-12-24,2024-12-16,株式会社美家ファーマシー,,株式会社,神奈川県,横浜市栄区,笠間１丁目１番１号ルリエ大船１０４－Ｂ号,,14,115,2470006,,,2024-12-16,清算の結了等,,,2016-08-24,1,,,,,ビカファーマシー,0
1501,7021001012802,登記記録の閉鎖等,0,2024-12-24,2024-12-20,株式会社相互,,株式会社,神奈川県,相模原市中央区,高根２丁目２番２３号,,14,152,2520221,,,2024-12-20,清算の結了等,,,2015-10-05,1,,,,,ソウゴ,0
1509,7030001034632,登記記録の閉鎖等,0,2024-12-24,2024-12-18,アサヒ工業株式会社,,株式会社,埼玉県,草加市,青柳７丁目１３番１号,,11,221,3400002,,,2024-12-18,清算の結了等,,,2015-10-05,1,,,,,アサヒコウギョウ,0
1519,7030003007900,登記記録の閉鎖等,0,2024-12-24,2024-12-09,合同会社愛美商事,,合同会社,埼玉県,川口市,西川口１丁目２２番１－４０４号,,11,203,3320021,,,2024-12-09,清算の結了等,,,2015-10-05,1,,,,,アイミショウジ,0
1539,7050003008302,登記記録の閉鎖等,0,2024-12-24,2024-12-18,ＪＲ　ＳＨＯＫＡＩ合同会社,,合同会社,茨城県,古河市,仁連２２１９番地５,,08,204,3060125,,,2024-12-18,清算の結了等,,,2024-04-19,1,,,,,ジェイアールショウカイ,0
1543,7060002016313,登記記録の閉鎖等,0,2024-12-24,2024-12-18,有限会社ワイショップくらさわ,,有限会社,栃木県,日光市,足尾町赤沢３番２２号,,09,206,3211524,,,2024-12-18,清算の結了等,,,2015-10-05,1,,,,,ワイショップクラサワ,0
1547,7080002004472,登記記録の閉鎖等,0,2024-12-24,2024-12-19,有限会社日静建設工業,,有限会社,静岡県,静岡市駿河区,有東２丁目８番２０号,,22,102,4228032,,,2024-12-19,清算の結了等,,,2015-10-05,1,,,,,ニッセイケンセツコウギョウ,0
1552,7080102013010,登記記録の閉鎖等,0,2024-12-24,2024-12-19,有限会社オリディア,,有限会社,静岡県,三島市,光ケ丘３０番地の８,,22,206,4110029,,,2024-12-19,清算の結了等,,,2015-10-05,1,,,,,オエイディアオリ,0
1553,7080105003693,登記記録の閉鎖等,0,2024-12-24,2024-12-10,医療法人社団安田会,,その他の設立登記法人,静岡県,富士宮市,小泉４２３番地の３,,22,207,4180022,,,2024-12-10,清算の結了等,,,2015-10-05,1,,,,,ヤスダカイ,0
1557,7100001011723,登記記録の閉鎖等,0,2024-12-24,2024-12-20,株式会社螺旋,,株式会社,長野県,東御市,御牧原字又沢４０１８番地４,,20,219,3890403,,,2024-12-20,清算の結了等,,,2015-10-05,1,,,,,ラセン,0
1559,7100002005682,登記記録の閉鎖等,0,2024-12-24,2024-12-20,有限会社ワカツキ住設,,有限会社,長野県,長野市,上野１丁目６３０番地,,20,201,3810085,,,2024-12-20,清算の結了等,,,2015-10-05,1,,,,,ワカツキジュウセツ,0
1561,7120001099906,登記記録の閉鎖等,0,2024-12-24,2024-12-20,日本企業年金サービス株式会社,,株式会社,大阪府,大阪市中央区,城見１丁目４番７０号,,27,128,5400001,,,2024-12-20,清算の結了等,,,2015-10-05,1,,,,,ニホンキギョウネンキンサービス,0
1578,7120901001284,登記記録の閉鎖等,0,2024-12-24,2024-12-18,株式会社大王,,株式会社,大阪府,茨木市,宮島１丁目１番１号,,27,211,5670853,,,2024-12-18,清算の結了等,,,2015-10-05,1,,,,,ダイオウ,0
1579,7130001015993,登記記録の閉鎖等,0,2024-12-24,2024-12-20,株式会社友吾,,株式会社,京都府,京都市伏見区,下鳥羽芹川町４９番地の２６,,26,109,6128391,,,2024-12-20,清算の結了等,,,2015-10-05,1,,,,,ユウゴ,0
1595,7160001014167,登記記録の閉鎖等,0,2024-12-24,2024-12-23,未来住宅株式会社,,株式会社,滋賀県,大津市,大萱６丁目１番１９号,,25,201,5202144,,,2024-12-23,清算の結了等,,,2015-10-05,1,,,,,ミライジュウタク,0
1597,7160001024868,登記記録の閉鎖等,0,2024-12-24,2024-12-19,株式会社おとどけ,,株式会社,滋賀県,長浜市,三ツ矢元町２１番１０号,,25,203,5260024,,,2024-12-19,清算の結了等,,,2023-03-08,1,,,,,オトドケ,0
1599,7160002010974,登記記録の閉鎖等,0,2024-12-24,2024-12-23,有限会社創ワイズ,,有限会社,滋賀県,蒲生郡竜王町,大字薬師１１７３番地の２,,25,384,5202551,,,2024-12-23,清算の結了等,,,2015-10-05,1,,,,,ソウワイズ,0
1608,7180002048096,登記記録の閉鎖等,0,2024-12-24,2024-12-16,有限会社サンスジャパン,,有限会社,愛知県,名古屋市東区,泉１丁目１５番２３号,,23,102,4610001,,,2024-12-16,清算の結了等,,,2015-10-05,1,,,,,サンスジャパン,0
1621,7240001031501,登記記録の閉鎖等,0,2024-12-24,2024-12-18,株式会社豊田不動産鑑定所,,株式会社,広島県,福山市,若松町２番３０－１１０１号,,34,207,7200034,,,2024-12-18,清算の結了等,,,2015-10-05,1,,,,,トヨタフドウサンカンテイショ,0
1655,7350002007662,登記記録の閉鎖等,0,2024-12-24,2024-12-20,有限会社安田屋,,有限会社,宮崎県,宮崎市,佐土原町上田島１４２４番地４,,45,201,8800301,,,2024-12-20,清算の結了等,,,2015-10-05,1,,,,,ヤスダヤ,0
1666,7380002017601,登記記録の閉鎖等,0,2024-12-24,2024-12-10,有限会社大富建設,,有限会社,福島県,西白河郡西郷村,大字熊倉字五反歩４７番地５,,07,461,9618091,,,2024-12-10,清算の結了等,,,2015-10-05,1,,,,,オオトミケンセツ,0
1668,7390003000373,登記記録の閉鎖等,0,2024-12-24,2024-12-20,合同会社マルサン建機サービス,,合同会社,山形県,山形市,双月町２丁目６番３８号,,06,201,9900065,,,2024-12-20,清算の結了等,,,2015-10-05,1,,,,,マルサンケンキサービス,0
1675,7430005008492,登記記録の閉鎖等,0,2024-12-24,2024-11-25,天理教岩大分教会,,その他の設立登記法人,北海道,磯谷郡蘭越町,字大谷４５３番地,,01,394,0481305,,,2024-11-25,合併による解散等,8030005000373,令和６年１１月２０日埼玉県さいたま市見沼区深作三丁目２８番地４天理教春安分教会（8030005000373）に合併し解散,2015-10-05,1,,,,,テンリキョウイワダイブンキョウカイ,0
1686,7500001013836,登記記録の閉鎖等,0,2024-12-24,2024-12-19,株式会社Ｋ’ｓ　ＥＭＰＩＲＥ,,株式会社,愛媛県,松山市,三番町２丁目８番地４,,38,201,7900003,,,2024-12-19,清算の結了等,,,2015-10-05,1,,,,,,0
1718,8010403020058,登記記録の閉鎖等,0,2024-12-24,2024-12-06,合同会社ＣＲＥＭＬファンド１,,合同会社,東京都,港区,虎ノ門３丁目２２番１０－２０１号,,13,103,1050001,,,2024-12-06,清算の結了等,,,2019-01-28,1,,,,,シーアールイーエムエルファンドワン,0
1722,8010501001001,登記記録の閉鎖等,0,2024-12-24,2024-12-16,株式会社一心堂嶋野,,株式会社,東京都,台東区,浅草橋１丁目３５番７号,,13,106,1110053,,,2024-12-16,清算の結了等,,,2015-10-05,1,,,,,イッシンドウシマノ,0
1728,8010602002393,登記記録の閉鎖等,0,2024-12-24,2024-12-19,有限会社佐藤工芸,,有限会社,東京都,江東区,北砂４丁目３６番２２号,,13,108,1360073,,,2024-12-19,清算の結了等,,,2015-10-05,1,,,,,,0
1730,8010703004388,登記記録の閉鎖等,0,2024-12-24,2024-11-15,グッドトライアンフ合同会社,,合同会社,東京都,品川区,小山６丁目２７番８号,,13,109,1420062,,,2024-11-15,合併による解散等,2010703004575,令和６年１１月１日東京都品川区小山六丁目２７番８号塞翁が馬合同会社（2010703004575）に合併し解散,2018-08-10,1,,,,,グッドトライアンフ,0
1734,8010802008686,登記記録の閉鎖等,0,2024-12-24,2024-12-11,有限会社高瀬,,有限会社,東京都,大田区,北馬込２丁目４６番１４号,,13,111,1430021,,,2024-12-11,清算の結了等,,,2015-10-05,1,,,,,タカセ,0
1757,8011701007580,登記記録の閉鎖等,0,2024-12-24,2024-12-18,株式会社三蔵屋,,株式会社,東京都,江戸川区,北小岩６丁目１９番１号,,13,123,1330051,,,2024-12-18,清算の結了等,,,2015-10-05,1,,,,,ミクラヤ,0
1760,8011805000184,登記記録の閉鎖等,0,2024-12-24,2024-11-21,天理教東本所分教会,,その他の設立登記法人,東京都,足立区,梅田４丁目１２番２０号,,13,121,1230851,,,2024-11-21,合併による解散等,7010505000421,令和６年１１月１２日東京都台東区東上野五丁目３番１４号天理教東大教会（7010505000421）に合併し解散,2015-10-05,1,,,,,テンリキョウヒガシホンジョブンキョウカイ,0
1772,8013101000348,登記記録の閉鎖等,0,2024-12-24,2024-12-19,株式会社フランボワジェ,,株式会社,東京都,福生市,大字福生８７５番地３ライオンズマンション福生第２（８０５号室）,,13,218,1970011,,,2024-12-19,清算の結了等,,,2015-10-05,1,,,,,フランボワジェ,0
1774,8013302004734,登記記録の閉鎖等,0,2024-12-24,2024-12-13,有限会社信濃屋,,有限会社,東京都,豊島区,巣鴨４丁目１９番８号,,13,116,1700002,,,2024-12-13,清算の結了等,,,2015-10-05,1,,,,,シナノヤ,0
1777,8013303004519,登記記録の閉鎖等,0,2024-12-24,2024-12-13,合同会社テンミア,,合同会社,東京都,豊島区,上池袋１丁目３１番２号エスペランサ上池袋３０１号,,13,116,1700012,,,2024-12-13,清算の結了等,,,2019-02-25,1,,,,,テンミア,0
1789,8030001037873,登記記録の閉鎖等,0,2024-12-24,2024-12-19,株式会社サトミ,,株式会社,埼玉県,八潮市,八潮２丁目１９番地１１,,11,234,3400815,,,2024-12-19,清算の結了等,,,2015-10-05,1,,,,,サトミ,0
1805,8040005020536,登記記録の閉鎖等,0,2024-12-24,2024-12-13,ＮＰＯ法人リバイバル,,その他の設立登記法人,千葉県,鎌ケ谷市,くぬぎ山１丁目１４番９－８０７号,,12,224,2730128,,,2024-12-13,清算の結了等,,,2019-09-10,1,,,,,リバイバル,0
1814,8070001025081,登記記録の閉鎖等,0,2024-12-24,2024-12-19,株式会社ＰＲＯ　ＷＡＹ,,株式会社,群馬県,みどり市,笠懸町鹿１８６６番地,,10,212,3792313,,,2024-12-19,清算の結了等,,,2015-10-05,1,,,,,プロウェイ,0
1820,8080101009875,登記記録の閉鎖等,0,2024-12-24,2024-12-20,株式会社ヤナセ,,株式会社,静岡県,富士市,本町９番１５号,,22,210,4160914,,,2024-12-20,清算の結了等,,,2015-10-05,1,,,,,ヤナセ,0
1826,8110001021274,登記記録の閉鎖等,0,2024-12-24,2024-12-19,株式会社マンバ,,株式会社,新潟県,十日町市,松代３２５７番地,,15,210,9421526,,,2024-12-19,清算の結了等,,,2015-10-05,1,,,,,マンバ,0
1838,8120101005052,登記記録の閉鎖等,0,2024-12-24,2024-12-20,南海造園土木株式会社,,株式会社,大阪府,堺市北区,長曽根町１３０番地の２３堺商工会議所会館,,27,146,5918025,,,2024-12-20,清算の結了等,,,2015-10-05,1,,,,,ナンカイゾウエンドボク,0
1846,8130001019886,登記記録の閉鎖等,0,2024-12-24,2024-12-23,株式会社茨木屋,00035726,株式会社,京都府,京都市下京区,朱雀宝蔵町５７番地,,26,106,6008846,,,2024-12-23,清算の結了等,,,2015-10-05,1,,,,,イバラキヤ,0
1850,8130002029760,登記記録の閉鎖等,0,2024-12-24,2024-12-20,有限会社丸金商店,,有限会社,京都府,木津川市,相楽朝苅１２番地,,26,214,6190222,,,2024-12-20,清算の結了等,,,2015-10-05,1,,,,,,0
1856,8140002007311,登記記録の閉鎖等,0,2024-12-24,2024-12-19,有限会社サニー,,有限会社,兵庫県,神戸市須磨区,白川台５丁目７番地の５２,,28,107,6540103,,,2024-12-19,清算の結了等,,,2015-10-05,1,,,,,サニー,0
1866,8180301019549,登記記録の閉鎖等,0,2024-12-24,2024-12-20,和音株式会社,,株式会社,愛知県,豊田市,大林町１１丁目７番地１１,,23,211,4730902,,,2024-12-20,清算の結了等,,,2015-10-05,1,,,,,ワオン,0
1878,8200002021875,登記記録の閉鎖等,0,2024-12-24,2024-12-20,足立石材有限会社,,有限会社,岐阜県,恵那市,大井町２７１０番地１５,,21,210,5097201,,,2024-12-20,清算の結了等,,,2015-10-05,1,,,,,,0
1886,8220003002906,登記記録の閉鎖等,0,2024-12-24,2024-12-09,金石商事合同会社,,合同会社,石川県,金沢市,桜町２番４－１号,,17,201,9200923,,,2024-12-09,清算の結了等,,,2020-10-06,1,,,,,,0
1908,8290801027057,登記記録の閉鎖等,0,2024-12-24,2024-12-20,株式会社Ｌｉｎｋ,,株式会社,福岡県,田川市,大字奈良１７９７番地３９６,,40,206,8260043,,,2024-12-20,清算の結了等,,,2021-01-04,1,,,,,リンク,0
1910,8300002007583,登記記録の閉鎖等,0,2024-12-24,2024-12-20,有限会社安全,,有限会社,佐賀県,佐賀市,本庄町大字袋２５４番地,,41,201,8400023,,,2024-12-20,清算の結了等,,,2015-10-05,1,,,,,アンゼン,0
1920,8360001006184,登記記録の閉鎖等,0,2024-12-24,2024-12-20,株式会社ネヴァーランド沖縄,,株式会社,沖縄県,那覇市,久米１丁目７番２３号,,47,201,9000033,,,2024-12-20,清算の結了等,,,2015-10-05,1,,,,,ネヴァーランドオキナワ,0
1926,8380002033390,登記記録の閉鎖等,0,2024-12-24,2024-12-10,有限会社山田生花店,,有限会社,福島県,会津若松市,本町３番２６号,,07,202,9650862,,,2024-12-10,清算の結了等,,,2015-10-05,1,,,,,ヤマダセイカテン,0
1929,8402701000148,登記記録の閉鎖等,0,2024-12-24,2024-12-20,大栄燃料株式会社,,株式会社,京都府,京都市左京区,北白川追分町３８番地４グレーシー北白川２０２号,,26,103,6068224,,,2024-12-20,清算の結了等,,,2015-10-05,1,,,,,ダイエイネンリョウ,0
1938,8440003001357,登記記録の閉鎖等,0,2024-12-24,2024-12-23,陽光札幌合同会社,,合同会社,北海道,二海郡八雲町,東雲町５１番地１１,,01,346,0493105,,,2024-12-23,清算の結了等,,,2020-11-05,1,,,,,,0
1939,8450001005573,登記記録の閉鎖等,0,2024-12-24,2024-12-19,株式会社アットホームズ,,株式会社,北海道,旭川市,一条通１１丁目２０７６番地１,,01,204,0700031,,,2024-12-19,清算の結了等,,,2015-10-05,1,,,,,,0
1947,9010001057906,登記記録の閉鎖等,0,2024-12-24,2024-12-11,株式会社マルニ,,株式会社,東京都,中央区,日本橋浜町３丁目３２番３号,,13,102,1030007,,,2024-12-11,清算の結了等,,,2015-10-05,1,,,,,マルニ,0
1962,9010005038051,登記記録の閉鎖等,0,2024-12-24,2024-12-20,一般社団法人トークン・スリー,,その他の設立登記法人,東京都,千代田区,霞が関３丁目２番５号,,13,101,1000013,,,2024-12-20,清算の結了等,,,2024-03-18,1,,,,,トークンスリー,0
1964,9010101014484,登記記録の閉鎖等,0,2024-12-24,2024-12-18,ライフデザインネット株式会社,,株式会社,東京都,八王子市,東町一丁目１０番グランデハイツ八王子８０２号,,13,201,1920082,,,2024-12-18,清算の結了等,,,2021-01-08,1,,,,,ライフデザインネット,0
1965,9010401081662,登記記録の閉鎖等,0,2024-12-24,2024-12-16,株式会社ＭＩＲＡＩＯ,,株式会社,東京都,新宿区,四谷４丁目２８番１５号慶和ビル,,13,104,1600004,,,2024-12-16,清算の結了等,,,2015-10-05,1,,,,,ミライオ,0
1969,9010405007944,登記記録の閉鎖等,0,2024-12-24,2024-12-20,ＳＭＦＬホールディング３一般社団法人,,その他の設立登記法人,東京都,千代田区,丸の内１丁目３番２号,,13,101,1000005,,,2024-12-20,清算の結了等,,,2015-10-05,1,,,,,エスエムエフエルホールディングスリー,0
2004,9011701022380,登記記録の閉鎖等,0,2024-12-24,2024-12-18,株式会社土岡製作所,,株式会社,東京都,江戸川区,松江５丁目１８番２３－５０１号,,13,123,1320025,,,2024-12-18,清算の結了等,,,2019-01-16,1,,,,,ツチオカセイサクジョ,0
2011,9012401021210,登記記録の閉鎖等,0,2024-12-24,2024-12-23,株式会社アプレ、ミデイ,,株式会社,東京都,調布市,飛田給１丁目１番地２１調布の森ハイム２０９,,13,208,1820036,,,2024-12-23,清算の結了等,,,2015-10-05,1,,,,,アプレミデイ,0
2024,9020001146765,登記記録の閉鎖等,0,2024-12-24,2024-12-16,株式会社Ｋ７６,,株式会社,神奈川県,横浜市港南区,港南６丁目４番２９号,,14,111,2330003,,,2024-12-16,清算の結了等,,,2022-06-06,1,,,,,ケイナナロク,0
2043,9030002062713,登記記録の閉鎖等,0,2024-12-24,2024-12-19,有限会社アイディパック,,有限会社,埼玉県,富士見市,ふじみ野東１丁目２５番地１,,11,235,3540036,,,2024-12-19,清算の結了等,,,2015-10-05,1,,,,,アイディパック,0
2058,9070001035195,登記記録の閉鎖等,0,2024-12-24,2024-12-16,株式会社リベクトワークス,,株式会社,群馬県,高崎市,上小鳥町５５２番地２,,10,202,3700078,,,2024-12-16,清算の結了等,,,2018-11-01,1,,,,,リベクトワークス,0
2059,9070002012359,登記記録の閉鎖等,0,2024-12-24,2024-12-19,有限会社村上工業,,有限会社,群馬県,安中市,板鼻７２３番地１５,,10,211,3790111,,,2024-12-19,清算の結了等,,,2015-10-05,1,,,,,ムラカミコウギョウ,0
2062,9080001013745,登記記録の閉鎖等,0,2024-12-24,2024-12-19,山本産業株式会社,,株式会社,静岡県,牧之原市,地頭方９２９番地の１０,,22,226,4210532,,,2024-12-19,清算の結了等,,,2015-10-05,1,,,,,ヤマモトサンギョウ,0
2063,9080101008901,登記記録の閉鎖等,0,2024-12-24,2024-10-21,株式会社ダイケイ,,株式会社,静岡県,富士市,厚原９１番地,,22,210,4190201,,,2024-10-21,清算の結了等,,,2024-06-27,1,,,,,ダイケイ,0
2082,9120005006484,登記記録の閉鎖等,0,2024-12-24,2024-12-20,協同組合大阪住宅資材物流センター,,その他の設立登記法人,大阪府,大阪市西区,北堀江１丁目８番１２号,,27,106,5500014,,,2024-12-20,清算の結了等,,,2015-10-05,1,,,,,オオサカジュウタクシザイブツリュウセンター,0
2083,9120101030974,登記記録の閉鎖等,0,2024-12-24,2024-12-13,多田精機工業株式会社,,株式会社,大阪府,富田林市,若松町東３丁目６番３１号,,27,214,5840023,,,2024-12-13,合併による解散等,6120101032148,令和６年１２月１日大阪府藤井寺市津堂二丁目１２番８号株式会社ジェット（6120101032148）に合併し解散,2015-10-05,1,,,,,タダセイキコウギョウ,0
2089,9120901019969,登記記録の閉鎖等,0,2024-12-24,2024-12-18,株式会社べにや,,株式会社,大阪府,池田市,石橋１丁目３番５号,,27,204,5630032,,,2024-12-18,清算の結了等,,,2015-10-05,1,,,,,ベニヤ,0
2094,9120905001865,登記記録の閉鎖等,0,2024-12-24,2024-12-20,医療法人たむら歯科,,その他の設立登記法人,大阪府,高槻市,宮野町５番２５号,,27,207,5690081,,,2024-12-20,清算の結了等,,,2015-10-05,1,,,,,タムラシカ,0
2097,9122002004504,登記記録の閉鎖等,0,2024-12-24,2024-12-23,有限会社丸三,,有限会社,大阪府,東大阪市,長堂１丁目８番２８－９１３号,,27,227,5770056,,,2024-12-23,清算の結了等,,,2015-10-05,1,,,,,マルサン,0
2101,9140002004852,登記記録の閉鎖等,0,2024-12-24,2024-12-19,橘通信建設有限会社,,有限会社,兵庫県,神戸市西区,伊川谷町有瀬１３１番地１－１１１７号,,28,111,6512113,,,2024-12-19,清算の結了等,,,2015-10-05,1,,,,,タチバナツウシンケンセツ,0
2113,9180001004379,登記記録の閉鎖等,0,2024-12-24,2024-12-17,関ケ原中部工事株式会社,,株式会社,愛知県,名古屋市千種区,高見２丁目１３番４号,,23,101,4640073,,,2024-12-17,清算の結了等,,,2015-10-05,1,,,,,セキガハラチュウブコウジ,0
2114,9180001091806,登記記録の閉鎖等,0,2024-12-24,2024-12-16,株式会社竹長自動車,,株式会社,愛知県,半田市,瑞穂町７丁目２番地の９,,23,205,4750828,,,2024-12-16,清算の結了等,,,2015-10-05,1,,,,,タケチョウジドウシャ,0
2124,9200003003780,登記記録の閉鎖等,0,2024-12-24,2024-12-20,合同会社かよい処,,合同会社,岐阜県,土岐市,駄知町８９２番地の１９,,21,212,5095401,,,2024-12-20,清算の結了等,,,2016-05-16,1,,,,,,0
2127,9220002008135,登記記録の閉鎖等,0,2024-12-24,2024-12-19,有限会社ノリテック,,有限会社,石川県,金沢市,金石西２丁目２４番３号,,17,201,9200337,,,2024-12-19,清算の結了等,,,2015-10-05,1,,,,,ノリテック,0
2131,9250005006463,登記記録の閉鎖等,0,2024-12-24,2024-11-20,金光教桑根教会,,その他の設立登記法人,山口県,岩国市,美川町根笠２２５番地,,35,208,7400505,,,2024-11-20,合併による解散等,5250005006302,令和６年１１月２０日山口県岩国市錦町広瀬第７８７７番地の７金光教広瀬教会（5250005006302）に合併し解散,2015-10-05,1,,,,,,0
2134,9280002011488,登記記録の閉鎖等,0,2024-12-24,2024-12-20,有限会社日野石油,,有限会社,島根県,雲南市,大東町下佐世１００４番地２５,,32,209,6991215,,,2024-12-20,清算の結了等,,,2015-10-05,1,,,,,ヒノセキユ,0
2150,9330002026951,登記記録の閉鎖等,0,2024-12-24,2024-12-18,株式会社イノセント,,株式会社,熊本県,八代市,田中西町壱弐号９番地,,43,202,8660876,,,2024-12-18,清算の結了等,,,2015-10-05,1,,,,,イノセント,0
2153,9340002019789,登記記録の閉鎖等,0,2024-12-24,2024-12-18,有限会社屋久島野外活動総合センター,,有限会社,鹿児島県,熊毛郡屋久島町,安房２３５３－３０２,,46,505,8914311,,,2024-12-18,清算の結了等,,,2015-10-05,1,,,,,ヤクシマヤガイカツドウソウゴウセンター,0
2154,9340005002362,登記記録の閉鎖等,0,2024-12-24,2024-12-19,特定非営利活動法人カトラ,,その他の設立登記法人,鹿児島県,鹿児島市,上之園町２２番地２４,,46,201,8900052,,,2024-12-19,清算の結了等,,,2015-10-05,1,,,,,カトラ,0
2160,9370205001871,登記記録の閉鎖等,0,2024-12-24,2024-12-09,医療法人啓星会東北整形外科大崎,,その他の設立登記法人,宮城県,大崎市,鹿島台木間塚字小谷地４６３番地６,,04,215,9894102,,,2024-12-09,清算の結了等,,,2015-10-05,1,,,,,ケイセイカイトウホクセイケイゲカオオサキ,0
2162,9380005003324,登記記録の閉鎖等,0,2024-12-24,2024-12-10,特定非営利活動法人ｐｏｃｏ連人,,その他の設立登記法人,福島県,郡山市,中町９番１号,,07,203,9638004,,,2024-12-10,清算の結了等,,,2015-10-05,1,,,,,ポコレント,0
2180,9450002005489,登記記録の閉鎖等,0,2024-12-24,2024-12-20,丸光早川商事有限会社,,有限会社,北海道,旭川市,末広二条１０丁目３番１４号,,01,204,0718132,,,2024-12-20,清算の結了等,,,2015-10-05,1,,,,,マルミツハヤカワショウジ,0
