sequenceNumber,corporateNumber,process,correct,updateDate,changeDate,name,nameImageId,kind,prefectureName,cityName,streetNumber,addressImageId,prefectureCode,cityCode,postCode,addressOutside,addressOutsideImageId,closeDate,closeCause,successorCorporateNumber,changeCause,assignmentDate,latest,enName,enPrefectureName,enCityName,enAddressOutside,furigana,hihyoji
31,1010802003693,登記記録の閉鎖等,0,2025-08-12,2025-07-30,有限会社金森商店,,有限会社,東京都,大田区,大森北３丁目３８番７号,,13,111,1430016,,,2025-07-30,清算の結了等,,,2015-10-05,1,,,,,カナモリショウテン,0
32,1010802009732,登記記録の閉鎖等,0,2025-08-12,2025-07-31,有限会社出川建総,,有限会社,東京都,大田区,西糀谷３丁目３７番１３－６０１号,,13,111,1440034,,,2025-07-31,清算の結了等,,,2015-10-05,1,,,,,デガワケンソウ,0
35,1010805002809,登記記録の閉鎖等,0,2025-08-12,2025-07-30,一般社団法人いきいきライフ協会蒲田,,その他の設立登記法人,東京都,大田区,大森北１丁目１番５号ＹＫ－１６ビル４０７,,13,111,1430016,,,2025-07-30,清算の結了等,,,2021-03-02,1,,,,,イキイキライフキョウカイカマタ,0
37,1011001139643,登記記録の閉鎖等,0,2025-08-12,2025-07-07,カリダ・ジャパン株式会社,,株式会社,東京都,新宿区,神楽坂６丁目８番地文悠ビルＢ１,,13,104,1620825,,,2025-07-07,清算の結了等,,,2021-04-12,1,,,,,カリダジャパン,0
38,1011001145492,登記記録の閉鎖等,0,2025-08-12,2025-07-10,株式会社ｉｍｐａｃｔ・ｅ,,株式会社,東京都,港区,赤坂１丁目１２番３２号,,13,103,1070052,,,2025-07-10,合併による解散等,7010401042071,令和７年７月１日東京都港区赤坂一丁目１２番３２号株式会社ｉｍｐａｃｔ　ｍｉｒＡＩ（7010401042071）に合併し解散,2022-02-04,1,,,,,インパクトイー,0
39,1011001153636,登記記録の閉鎖等,0,2025-08-12,2025-08-01,株式会社Ｔｕｌｉｐ,,株式会社,東京都,目黒区,青葉台３丁目１５番１５－３０１号,,13,110,1530042,,,2025-08-01,合併による解散等,5011001102804,令和７年８月１日東京都目黒区青葉台三丁目１５番１５－３０１号株式会社ＲＩＤ（5011001102804）に合併し解散,2023-04-10,1,,,,,チューリップ,0
64,1011303005221,登記記録の閉鎖等,0,2025-08-12,2025-07-18,合同会社ノースランド,,合同会社,大阪府,大阪市中央区,南船場３丁目２番２２号おおきに南船場ビル２０５,,27,128,5420081,,,2025-07-18,清算の結了等,,,2024-06-28,1,,,,,ノースランド,0
69,1011601016754,登記記録の閉鎖等,0,2025-08-12,2025-07-25,株式会社ＢＵＩＬＤＥＲ,,株式会社,東京都,練馬区,三原台３丁目２２番６号,,13,120,1770031,,,2025-07-25,清算の結了等,,,2015-10-05,1,,,,,ビルダー,0
78,1013303003246,登記記録の閉鎖等,0,2025-08-12,2025-07-22,合同会社吉田塾,,合同会社,東京都,豊島区,南池袋２丁目１０－３齋藤ビル２１号,,13,116,1710022,,,2025-07-22,清算の結了等,,,2016-05-02,1,,,,,ヨシダジュク,0
85,1021001006958,登記記録の閉鎖等,0,2025-08-12,2025-08-06,株式会社アイザワ写真館,,株式会社,神奈川県,茅ヶ崎市,松浪１丁目１番６７号,,14,207,2530022,,,2025-08-06,清算の結了等,,,2015-10-05,1,,,,,,0
87,1021002062109,登記記録の閉鎖等,0,2025-08-12,2025-08-08,有限会社山口興業,,有限会社,神奈川県,平塚市,御殿４丁目４番６号,,14,203,2540061,,,2025-08-08,清算の結了等,,,2015-10-05,1,,,,,,0
99,1040001121096,登記記録の閉鎖等,0,2025-08-12,2025-07-16,株式会社レカムダイニング,,株式会社,千葉県,千葉市中央区,今井２丁目１１番２５号,,12,101,2600834,,,2025-07-16,清算の結了等,,,2021-11-22,1,,,,,レカムダイニング,0
102,1060001006072,登記記録の閉鎖等,0,2025-08-12,2025-07-29,株式会社栃木ブローチ,,株式会社,栃木県,さくら市,上河戸８００番地,,09,214,3291401,,,2025-07-29,清算の結了等,,,2015-10-05,1,,,,,トチギブローチ,0
104,1060001029379,登記記録の閉鎖等,0,2025-08-12,2025-07-31,株式会社信花奈,,株式会社,栃木県,下野市,小金井３丁目９番地１,,09,216,3290414,,,2025-07-31,清算の結了等,,,2017-05-15,1,,,,,ノブハナ,0
106,1060005007570,登記記録の閉鎖等,0,2025-08-12,2025-07-30,一般財団法人壬生町施設振興公社,,その他の設立登記法人,栃木県,下都賀郡壬生町,大字国谷２３００番地,,09,361,3210211,,,2025-07-30,清算の結了等,,,2015-10-05,1,,,,,ミブマチシセツシンコウコウシャ,0
123,1120001054098,登記記録の閉鎖等,0,2025-08-12,2025-07-31,エヌテック株式会社,,株式会社,大阪府,大阪市淀川区,西中島３丁目２０番９号,,27,123,5320011,,,2025-07-31,清算の結了等,,,2015-10-05,1,,,,,エヌテック,0
132,1120002022376,登記記録の閉鎖等,0,2025-08-12,2025-07-31,有限会社大志製作所,,有限会社,大阪府,大阪市西区,立売堀５丁目４番９号,,27,106,5500012,,,2025-07-31,清算の結了等,,,2015-10-05,1,,,,,タイシセイサクショ,0
141,1122001004215,登記記録の閉鎖等,0,2025-08-12,2025-07-24,株式会社太邦社,,株式会社,大阪府,東大阪市,源氏ケ丘８番５号,,27,227,5770822,,,2025-07-24,清算の結了等,,,2015-10-05,1,,,,,タイホウシャ,0
179,1200002010380,登記記録の閉鎖等,0,2025-08-12,2025-07-31,有限会社石井製綿,,有限会社,岐阜県,羽島郡岐南町,平島４丁目１０２番地,,21,302,5016003,,,2025-07-31,清算の結了等,,,2015-10-05,1,,,,,イシイセイメン,0
188,1240001003596,登記記録の閉鎖等,0,2025-08-12,2025-08-01,株式会社フクダグローバル建築設計,,株式会社,広島県,広島市東区,若草町７番９号,,34,102,7320053,,,2025-08-01,合併による解散等,7240001010281,令和７年８月１日広島市東区若草町７番９号株式会社フクダ・グローバル（7240001010281）に合併し解散,2015-10-05,1,,,,,フクダグローバルケンチクセッケイ,0
193,1240002021151,登記記録の閉鎖等,0,2025-08-12,2025-08-05,有限会社アイエルネット,,有限会社,広島県,広島市中区,東千田町１丁目１番１０４－３－１６０８号,,34,101,7300053,,,2025-08-05,清算の結了等,,,2015-10-05,1,,,,,アイエルネット,0
201,1260001011473,登記記録の閉鎖等,0,2025-08-12,2025-07-14,株式会社アルガ,,株式会社,岡山県,岡山市中区,福泊１１番地２７,,33,102,7038262,,,2025-07-14,清算の結了等,,,2015-10-05,1,,,,,アルガ,0
217,1290801015398,登記記録の閉鎖等,0,2025-08-12,2025-08-01,新栄トーヨー株式会社,,株式会社,福岡県,京都郡苅田町,若久町３丁目１８番地５,,40,621,8000302,,,2025-08-01,合併による解散等,6290801010353,令和７年８月１日北九州市八幡西区築地町１９番１５号株式会社デンヒチ（6290801010353）に合併し解散,2015-10-05,1,,,,,シンエイトーヨー,0
218,1290801017089,登記記録の閉鎖等,0,2025-08-12,2025-08-05,株式会社三水商事,,株式会社,福岡県,田川市,大字夏吉３０４番地４,,40,206,8250004,,,2025-08-05,清算の結了等,,,2015-10-05,1,,,,,,0
221,1290802023045,登記記録の閉鎖等,0,2025-08-12,2025-08-08,有限会社ヤシロ商会,,有限会社,福岡県,京都郡苅田町,鳥越町１番地２５,,40,621,8000304,,,2025-08-08,清算の結了等,,,2015-10-05,1,,,,,ヤシロショウカイ,0
222,1290805007730,登記記録の閉鎖等,0,2025-08-12,2025-08-05,医療法人社団庄宮城医院,,その他の設立登記法人,福岡県,田川郡添田町,大字庄２４９番地,,40,602,8240601,,,2025-08-05,清算の結了等,,,2015-10-05,1,,,,,シャダンショウミヤギイイン,0
230,1330003004690,登記記録の閉鎖等,0,2025-08-12,2025-07-23,合同会社ｌｉｖｉｎｇ　ｓｐａｃｅ,,合同会社,熊本県,熊本市西区,小島９丁目１番４０号,,43,103,8615287,,,2025-07-23,清算の結了等,,,2015-10-05,1,,,,,リビングスペース,0
231,1340001002828,登記記録の閉鎖等,0,2025-08-12,2025-07-29,株式会社鶴丸薬品,,株式会社,鹿児島県,鹿児島市,田上台３丁目１６番８号,,46,201,8900036,,,2025-07-29,清算の結了等,,,2015-10-05,1,,,,,ツルマルヤクヒン,0
235,1360001005977,登記記録の閉鎖等,0,2025-08-12,2025-07-22,株式会社ユキシン,,株式会社,沖縄県,宜野湾市,我如古２丁目８番３号－１,,47,205,9012214,,,2025-07-22,清算の結了等,,,2015-10-05,1,,,,,ユキシン,0
240,1370005002887,登記記録の閉鎖等,0,2025-08-12,2025-07-17,特定非営利活動法人さぽーと・おるいず,,その他の設立登記法人,宮城県,富谷市,明石台５丁目３番地３,,04,216,9813332,,,2025-07-17,清算の結了等,,,2015-10-05,1,,,,,サポートオルイズ,0
243,1380002024743,登記記録の閉鎖等,0,2025-08-12,2025-07-15,有限会社竹森オートサービス,,有限会社,福島県,いわき市,小名浜字道珍１５９番地の７２,,07,204,9718101,,,2025-07-15,清算の結了等,,,2015-10-05,1,,,,,タケモリオートサービス,0
244,1380002028892,登記記録の閉鎖等,0,2025-08-12,2025-07-22,錦織運輸有限会社,,有限会社,福島県,南相馬市,原町区深野字舘１５０番地,,07,212,9750071,,,2025-07-22,清算の結了等,,,2015-10-05,1,,,,,ニシキオリウンユ,0
257,1450001009498,登記記録の閉鎖等,0,2025-08-12,2025-08-01,北東開発工業株式会社,,株式会社,北海道,紋別市,渚滑町９丁目１８番地,,01,219,0995171,,,2025-08-01,合併による解散等,1450001009804,令和７年８月１日北海道紋別市渚滑町九丁目１８番地株式会社リテック（1450001009804）に合併し解散,2015-10-05,1,,,,,ホクトウカイハツコウギョウ,0
287,2010403029195,登記記録の閉鎖等,0,2025-08-12,2025-07-15,合同会社ＩＴ　Ｓｕｐｐｏｒｔ　Ｏｎｅ,,合同会社,東京都,港区,浜松町２丁目２－１５浜松町ダイヤビル２Ｆ,,13,103,1050013,,,2025-07-15,清算の結了等,,,2022-12-28,1,,,,,アイティサポートワン,0
336,2012401011960,登記記録の閉鎖等,0,2025-08-12,2025-08-04,株式会社室岡ビル,,株式会社,東京都,武蔵野市,吉祥寺本町１丁目１０番１５号,,13,203,1800004,,,2025-08-04,清算の結了等,,,2015-10-05,1,,,,,ムロオカビル,0
338,2012401015747,登記記録の閉鎖等,0,2025-08-12,2025-08-05,アイモアスペース株式会社,,株式会社,東京都,府中市,美好町２丁目９番１号,,13,206,1830045,,,2025-08-05,合併による解散等,1011101065748,令和７年７月１日東京都新宿区西新宿七丁目７番３０号小田急西新宿Ｏ－ＰＬＡＣＥ６Ｆ株式会社リアークスファインド（1011101065748）に合併し解散,2015-10-05,1,,,,,アイモアスペース,0
345,2013405000999,登記記録の閉鎖等,0,2025-08-12,2025-08-04,ＮＰＯ法人母屋,,その他の設立登記法人,東京都,八王子市,鑓水１５０－３,,13,201,1920375,,,2025-08-04,清算の結了等,,,2015-10-05,1,,,,,オモヤ,0
349,2020002085911,登記記録の閉鎖等,0,2025-08-12,2025-07-25,有限会社飯盛工業,,有限会社,神奈川県,川崎市宮前区,菅生２丁目２０番１４号,,14,136,2160015,,,2025-07-25,清算の結了等,,,2015-10-05,1,,,,,,0
367,2040001127472,登記記録の閉鎖等,0,2025-08-12,2025-07-17,法すう株式会社,,株式会社,千葉県,流山市,東初石４丁目２４５番地の４９,,12,220,2700114,,,2025-07-17,清算の結了等,,,2023-03-10,1,,,,,ホウスウ,0
373,2040002080621,登記記録の閉鎖等,0,2025-08-12,2025-07-15,有限会社ジェニックス,,有限会社,千葉県,長生郡長柄町,六地蔵２１１番地７,,12,426,2970233,,,2025-07-15,清算の結了等,,,2015-10-05,1,,,,,ジェニックス,0
385,2050005007422,登記記録の閉鎖等,0,2025-08-12,2025-07-28,医療法人たかはし小児科医院,,その他の設立登記法人,茨城県,日立市,十王町友部東３丁目８番地の１４,,08,202,3191303,,,2025-07-28,清算の結了等,,,2015-10-05,1,,,,,タカハシショウニカイイン,0
389,2060003002119,登記記録の閉鎖等,0,2025-08-12,2025-07-29,合同会社エムクリス,,合同会社,栃木県,大田原市,下石上１７７１番地１１７,,09,210,3240036,,,2025-07-29,清算の結了等,,,2015-10-05,1,,,,,エムクリス,0
395,2080102007537,登記記録の閉鎖等,0,2025-08-12,2025-08-01,妙乃扶桑有限会社,,有限会社,静岡県,御殿場市,深沢８６番地の１８,,22,215,4120023,,,2025-08-01,清算の結了等,,,2015-10-05,1,,,,,ミノフソウ,0
398,2100001033945,登記記録の閉鎖等,0,2025-08-12,2025-08-06,株式会社フットクリエイション,,株式会社,長野県,長野市,川中島町上氷鉋１６８５番地１３,,20,201,3812233,,,2025-08-06,清算の結了等,,,2021-02-09,1,,,,,フットクリエイション,0
414,2120002047620,登記記録の閉鎖等,0,2025-08-12,2025-08-05,有限会社ケイ・エム・ワークス,,有限会社,大阪府,大阪市西淀川区,竹島５丁目１番１４号,,27,113,5550011,,,2025-08-05,清算の結了等,,,2015-10-05,1,,,,,ケイエムワークス,0
416,2120002077766,登記記録の閉鎖等,0,2025-08-12,2025-07-18,有限会社福田工務店,,有限会社,大阪府,枚方市,津田東町２丁目１０－１２,,27,210,5730122,,,2025-07-18,清算の結了等,,,2015-10-05,1,,,,,,0
419,2120005006400,登記記録の閉鎖等,0,2025-08-12,2025-08-07,大阪北不動産事業協同組合,,その他の設立登記法人,大阪府,大阪市北区,天神橋２丁目２番２７号,,27,127,5300041,,,2025-08-07,清算の結了等,,,2015-10-05,1,,,,,オオサカキタフドウサン,0
420,2120005018478,登記記録の閉鎖等,0,2025-08-12,2025-08-07,ＮＰＯ法人Ｋ－Ｈ．Ｅ．Ａ．Ｔ．,,その他の設立登記法人,大阪府,大阪市淀川区,木川西１丁目１１番１１号,,27,123,5320013,,,2025-08-07,清算の結了等,,,2016-02-03,1,,,,,ケーヒート,0
434,2140002011434,登記記録の閉鎖等,0,2025-08-12,2025-08-01,有限会社神商,,有限会社,兵庫県,神戸市兵庫区,福原町３番１７号,,28,105,6520036,,,2025-08-01,清算の結了等,,,2015-10-05,1,,,,,シンショウ,0
443,2170001008008,登記記録の閉鎖等,0,2025-08-12,2025-08-08,株式会社なだいコーポレーション,,株式会社,和歌山県,紀の川市,打田１３１番地の３７,,30,208,6496414,,,2025-08-08,清算の結了等,,,2015-10-05,1,,,,,ナダイコーポレーション,0
445,2180001063101,登記記録の閉鎖等,0,2025-08-12,2025-07-16,ワールドリンク株式会社,,株式会社,愛知県,名古屋市中区,栄５丁目２６－３９番ＧＳ栄ビル３Ｆ,,23,106,4600008,,,2025-07-16,清算の結了等,,,2015-10-05,1,,,,,ワールドリンク,0
452,2180002075789,登記記録の閉鎖等,0,2025-08-12,2025-07-15,有限会社今良,,有限会社,愛知県,一宮市,今伊勢町馬寄字東更屋敷６０番地,,23,203,4910051,,,2025-07-15,清算の結了等,,,2015-10-05,1,,,,,イマヨシ,0
454,2180005011551,登記記録の閉鎖等,0,2025-08-12,2025-07-16,特定非営利活動法人愛知グリーンサポート,,その他の設立登記法人,愛知県,名古屋市緑区,鳴子町１丁目５番地鳴子団地第９５棟１０２号,,23,114,4580041,,,2025-07-16,清算の結了等,,,2015-10-05,1,,,,,アイチグリーンサポート,0
456,2180301034058,登記記録の閉鎖等,0,2025-08-12,2025-07-31,ＣＰＲ株式会社,,株式会社,岐阜県,大垣市,難波野町５４８番地１,,21,202,5030844,,,2025-07-31,清算の結了等,,,2020-09-07,1,,,,,シーピーアール,0
460,2210001003474,登記記録の閉鎖等,0,2025-08-12,2025-08-01,株式会社フジタ工務店,,株式会社,福井県,福井市,大手１丁目２番２５号,,18,201,9100005,,,2025-08-01,清算の結了等,,,2015-10-05,1,,,,,フジタコウムテン,0
475,2260002028045,登記記録の閉鎖等,0,2025-08-12,2025-07-15,有限会社カネイシ商店,,有限会社,岡山県,津山市,川崎１０３番地の３,,33,203,7080841,,,2025-07-15,清算の結了等,,,2015-10-05,1,,,,,カネイシショウテン,0
481,2290001063916,登記記録の閉鎖等,0,2025-08-12,2025-07-31,ｐｕｐｕ株式会社,,株式会社,福岡県,福岡市中央区,高砂１丁目１１番１号,,40,133,8100011,,,2025-07-31,合併による解散等,9290001072092,令和７年７月３１日福岡市中央区高砂一丁目１１番１号株式会社ＡＮＤ　ＴＨＥ　ＳＯＩＬ．（9290001072092）に合併し解散,2015-10-05,1,,,,,ププ,0
482,2290001078170,登記記録の閉鎖等,0,2025-08-12,2025-07-31,ｔｉｆｉ株式会社,,株式会社,福岡県,福岡市中央区,高砂１丁目１１番１号,,40,133,8100011,,,2025-07-31,合併による解散等,9290001072092,令和７年７月３１日福岡市中央区高砂一丁目１１番１号株式会社ＡＮＤ　ＴＨＥ　ＳＯＩＬ．（9290001072092）に合併し解散,2017-06-09,1,,,,,ティフィ,0
500,2360005001658,登記記録の閉鎖等,0,2025-08-12,2025-07-22,特定非営利活動法人さぽーと・なは,,その他の設立登記法人,沖縄県,那覇市,古島２丁目１４番４号,,47,201,9020061,,,2025-07-22,清算の結了等,,,2015-10-05,1,,,,,サポートナハ,0
502,2370001050567,登記記録の閉鎖等,0,2025-08-12,2025-07-10,株式会社ＧＭＷ,,株式会社,宮城県,仙台市青葉区,本町１丁目５番２８号カーニープレイス仙台駅前通６０３号室,,04,101,9800014,,,2025-07-10,清算の結了等,,,2023-10-25,1,,,,,ジーエムダブリュー,0
504,2380001018844,登記記録の閉鎖等,0,2025-08-12,2025-07-22,株式会社松崎商店,,株式会社,福島県,喜多方市,字長面３０７４番地１,,07,208,9660049,,,2025-07-22,清算の結了等,,,2015-10-05,1,,,,,,0
515,2430002064964,登記記録の閉鎖等,0,2025-08-12,2025-07-18,有限会社宮崎合金鋳造所,,有限会社,北海道,室蘭市,築地町１３８番地,,01,205,0510031,,,2025-07-18,清算の結了等,,,2015-10-05,1,,,,,ミヤザキゴウキンチュウゾウショ,0
521,2480002008289,登記記録の閉鎖等,0,2025-08-12,2025-08-01,有限会社パッケージプラザ・マルイチ,,有限会社,徳島県,徳島市,西船場町２丁目１０番地,,36,201,7700901,,,2025-08-01,合併による解散等,6480001002314,令和７年８月１日徳島市川内町平石流通団地２４番地株式会社丸一（6480001002314）に合併し解散,2015-10-05,1,,,,,パッケージプラザマルイチ,0
528,3010001192238,登記記録の閉鎖等,0,2025-08-12,2025-07-15,ＳＶＩ　Ｊａｐａｎ株式会社,,株式会社,東京都,港区,赤坂２丁目２３番１号アークヒルズ・フロントタワーＩｎＣｏｎｔｒｏｌ内,,13,103,1070052,,,2025-07-15,清算の結了等,,,2018-05-31,1,,,,,エスブイアイジャパン,0
536,3010401123461,登記記録の閉鎖等,0,2025-08-12,2025-08-01,株式会社アソビズ,,株式会社,神奈川県,横浜市旭区,善部町４２番地３５,,14,112,2410823,,,2025-08-01,合併による解散等,5020001094092,令和７年８月１日横浜市中区日本大通３６番１２０３号株式会社集遊（5020001094092）に合併し解散,2016-03-07,1,,,,,アソビズ,0
565,3011001108712,登記記録の閉鎖等,0,2025-08-12,2025-07-09,株式会社ディーアンドエー,,株式会社,東京都,渋谷区,千駄ヶ谷３丁目２３番５号,,13,113,1510051,,,2025-07-09,清算の結了等,,,2015-12-18,1,,,,,ディーアンドエー,0
579,3011102009520,登記記録の閉鎖等,0,2025-08-12,2025-07-07,有限会社ナトリック,,有限会社,東京都,新宿区,富久町３６番４号,,13,104,1620067,,,2025-07-07,清算の結了等,,,2015-10-05,1,,,,,ナトリック,0
585,3011301025426,登記記録の閉鎖等,0,2025-08-12,2025-07-17,株式会社Ｐｉｓｃｅｓ,,株式会社,愛知県,春日井市,東野町６丁目１７番地８,,23,206,4860817,,,2025-07-17,清算の結了等,,,2019-10-11,1,,,,,パイシーズ,0
615,3021002000586,登記記録の閉鎖等,0,2025-08-12,2025-08-08,有限会社井上事務所,,有限会社,神奈川県,藤沢市,亀井野４２９番地の５,,14,205,2520813,,,2025-08-08,清算の結了等,,,2015-10-05,1,,,,,イノウエジムショ,0
633,3040002030121,登記記録の閉鎖等,0,2025-08-12,2025-07-16,有限会社扶桑舎,,有限会社,千葉県,八千代市,大和田新田８９０番地９８,,12,221,2760046,,,2025-07-16,清算の結了等,,,2015-10-05,1,,,,,フソウシャ,0
654,3080102019713,登記記録の閉鎖等,0,2025-08-12,2025-08-05,有限会社川端園,,有限会社,静岡県,伊東市,玖須美元和田７２２番地の２６７,,22,208,4140045,,,2025-08-05,清算の結了等,,,2015-10-05,1,,,,,カワバタエン,0
665,3110001003153,登記記録の閉鎖等,0,2025-08-12,2025-07-17,高野工業株式会社,,株式会社,新潟県,新潟市中央区,文京町１９番１３号,,15,103,9518153,,,2025-07-17,清算の結了等,,,2015-10-05,1,,,,,タカノコウギョウ,0
666,3110001009860,登記記録の閉鎖等,0,2025-08-12,2025-07-16,株式会社ユニティー,,株式会社,新潟県,新潟市中央区,南笹口２丁目６番１９号９,,15,103,9500912,,,2025-07-16,清算の結了等,,,2015-10-05,1,,,,,ユニティー,0
668,3120001064830,登記記録の閉鎖等,0,2025-08-12,2025-07-31,株式会社ジェイユー,,株式会社,大阪府,大阪市北区,豊崎１丁目１番２１－１０３号,,27,127,5310072,,,2025-07-31,清算の結了等,,,2015-10-05,1,,,,,ジェイユー,0
680,3120002063492,登記記録の閉鎖等,0,2025-08-12,2025-07-18,有限会社ファミリア保険サービス,,有限会社,大阪府,大阪市浪速区,湊町２丁目２番５－１０１２号,,27,111,5560017,,,2025-07-18,清算の結了等,,,2015-10-05,1,,,,,ファミリアホケンサービス,0
691,3130002025194,登記記録の閉鎖等,0,2025-08-12,2025-07-25,有限会社タツミ,,有限会社,京都府,向日市,鶏冠井町山畑３９番地の２,,26,208,6170004,,,2025-07-25,清算の結了等,,,2015-10-05,1,,,,,タツミ,0
731,3230002000410,登記記録の閉鎖等,0,2025-08-12,2025-08-05,有限会社ウエダ工業,,有限会社,富山県,富山市,四方西岩瀬２３番地の６１,,16,201,9302241,,,2025-08-05,清算の結了等,,,2015-10-05,1,,,,,ウエダコウギョウ,0
754,3290005017388,登記記録の閉鎖等,0,2025-08-12,2025-07-18,一般社団法人Ｎｉｎｅ　Ｓｔａｔｅｓ　ｏｆ　Ｅａｒｔｈ,,その他の設立登記法人,福岡県,糸島市,前原東２丁目５番５－１１０４号,,40,230,8191119,,,2025-07-18,清算の結了等,,,2019-08-05,1,,,,,ナインステーツオブアース,0
758,3320001001945,登記記録の閉鎖等,0,2025-08-12,2025-07-31,特殊基礎建設株式会社,,株式会社,大分県,大分市,六坊北町２番３５号,,44,201,8700841,,,2025-07-31,清算の結了等,,,2015-10-05,1,,,,,トクシュキソケンセツ,0
768,3380001008893,登記記録の閉鎖等,0,2025-08-12,2025-07-22,株式会社ケンノウメディカル,,株式会社,福島県,郡山市,大町２丁目１６番２号グランフォセット郡山１４０１号,,07,203,9638001,,,2025-07-22,清算の結了等,,,2015-10-05,1,,,,,ケンノウメディカル,0
776,3420002014853,登記記録の閉鎖等,0,2025-08-12,2025-07-31,株式会社譚コーポレーション,,株式会社,青森県,弘前市,大字桔梗野４丁目９番地２,,02,202,0368227,,,2025-07-31,清算の結了等,,,2015-10-05,1,,,,,タンコーポレーション,0
781,3470002014881,登記記録の閉鎖等,0,2025-08-12,2025-08-06,有限会社坂出船舶食糧,,有限会社,香川県,坂出市,文京町１丁目６番４８号,,37,203,7620031,,,2025-08-06,清算の結了等,,,2015-10-05,1,,,,,サカイデセンパクショクリョウ,0
811,4010401174801,登記記録の閉鎖等,0,2025-08-12,2025-07-23,ｐａｐａｙａ　ｊａｐａｎ株式会社,,株式会社,東京都,港区,南青山３丁目１番３６号青山丸竹ビル６階,,13,103,1070062,,,2025-07-23,合併による解散等,1010401176115,令和７年７月２３日東京都港区芝大門二丁目３番６号ＢＴＣリンク株式会社（1010401176115）に合併し解散,2023-06-09,1,,,,,パパヤジャパン,0
819,4010801002405,登記記録の閉鎖等,0,2025-08-12,2025-07-29,株式会社カイセイ,,株式会社,東京都,大田区,南雪谷２丁目７番７号,,13,111,1450066,,,2025-07-29,清算の結了等,,,2015-10-05,1,,,,,カイセイ,0
845,4011103013603,登記記録の閉鎖等,0,2025-08-12,2025-07-08,合同会社Ｍ＆Ｎカンパニー,,合同会社,東京都,新宿区,河田町４番８号,,13,104,1620054,,,2025-07-08,清算の結了等,,,2023-10-19,1,,,,,エムアンドエヌカンパニー,0
855,4011801040304,登記記録の閉鎖等,0,2025-08-12,2025-08-04,株式会社ファイブスターマーケティング,,株式会社,東京都,足立区,千住曙町３９番５－５０４号,,13,121,1200023,,,2025-08-04,清算の結了等,,,2022-02-04,1,,,,,ファイブスターマーケティング,0
867,4013301050989,登記記録の閉鎖等,0,2025-08-12,2025-07-23,Ｄ＆Ｇ　ＥＭＰＩＲＥ株式会社,,株式会社,東京都,豊島区,駒込３丁目２０－１４和光荘Ｃ－２号室,,13,116,1700003,,,2025-07-23,清算の結了等,,,2023-06-29,1,,,,,ディーアンドジーエンパイア,0
876,4020001128207,登記記録の閉鎖等,0,2025-08-12,2025-07-09,株式会社Ｒｅｄｏ,,株式会社,東京都,目黒区,平町２丁目２３番２０－２０２号たすきＣＲＡＳＳＯ都立大学Ａ棟,,13,110,1520032,,,2025-07-09,清算の結了等,,,2018-10-04,1,,,,,リドウ,0
885,4021001019180,登記記録の閉鎖等,0,2025-08-12,2025-08-06,光律設備工業株式会社,,株式会社,神奈川県,鎌倉市,城廻４４０番地１,,14,204,2470074,,,2025-08-06,清算の結了等,,,2025-05-23,1,,,,,コウリツセツビコウギョウ,0
887,4021002030764,登記記録の閉鎖等,0,2025-08-12,2025-08-07,有限会社イズミ電装,,有限会社,神奈川県,厚木市,下川入８５４番地の５,,14,212,2430206,,,2025-08-07,清算の結了等,,,2015-10-05,1,,,,,イズミデンソウ,0
888,4021003003645,登記記録の閉鎖等,0,2025-08-12,2025-08-04,合同会社大橋意匠,,合同会社,神奈川県,中郡大磯町,西小磯４３０番地の１,,14,341,2550005,,,2025-08-04,清算の結了等,,,2015-10-05,1,,,,,オオハシイショウ,0
900,4040001068525,登記記録の閉鎖等,0,2025-08-12,2025-07-15,片谷商事株式会社,,株式会社,千葉県,我孫子市,東我孫子２丁目３３番２３号,,12,222,2701144,,,2025-07-15,清算の結了等,,,2015-10-05,1,,,,,カタヤショウジ,0
907,4050001049664,登記記録の閉鎖等,0,2025-08-12,2025-07-31,冨士創業株式会社,,株式会社,茨城県,笠間市,仁古田７２１番地,,08,216,3091714,,,2025-07-31,清算の結了等,,,2021-08-06,1,,,,,フジソウギョウ,0
911,4050005005614,登記記録の閉鎖等,0,2025-08-12,2025-07-28,県西ガス事業協同組合,,その他の設立登記法人,茨城県,古河市,上辺見２９１４番地,,08,204,3060234,,,2025-07-28,清算の結了等,,,2015-10-05,1,,,,,ケンセイガスジギョウ,0
924,4100002032903,登記記録の閉鎖等,0,2025-08-12,2025-08-05,有限会社柴田ゴム,,有限会社,長野県,伊那市,山寺１５７１番地,,20,209,3960023,,,2025-08-05,清算の結了等,,,2015-10-05,1,,,,,シバタゴム,0
930,4120001252260,登記記録の閉鎖等,0,2025-08-12,2025-08-05,メディア総研イノベーションズ株式会社,,株式会社,大阪府,大阪市西区,立売堀１丁目３番１１号,,27,106,5500012,,,2025-08-05,合併による解散等,2290001005793,令和７年７月１日福岡市中央区大名二丁目８番１号メディア総研株式会社（2290001005793）に合併し解散,2023-02-06,1,,,,,メディアソウケンイノベーションズ,0
934,4120002082137,登記記録の閉鎖等,0,2025-08-12,2025-07-23,有限会社アイアイ,,有限会社,大阪府,吹田市,山田東３丁目１番１３号,,27,205,5650821,,,2025-07-23,清算の結了等,,,2015-10-05,1,,,,,アイアイ,0
938,4120101006839,登記記録の閉鎖等,0,2025-08-12,2025-07-30,株式会社三木,,株式会社,大阪府,堺市北区,南長尾町２丁３番１０号レジーナＩ弍番館２０３号,00139445,27,146,5918045,,,2025-07-30,清算の結了等,,,2015-10-05,1,,,,,ミキ,0
944,4120901020097,登記記録の閉鎖等,0,2025-08-12,2025-07-22,株式会社吉岡商会,,株式会社,大阪府,池田市,満寿美町１番１２－３０５号,,27,204,5630041,,,2025-07-22,清算の結了等,,,2015-10-05,1,,,,,ヨシオカショウカイ,0
977,4190002000661,登記記録の閉鎖等,0,2025-08-12,2025-08-04,有限会社三陽商会,,有限会社,三重県,津市,東丸之内２３番１７号,,24,201,5140028,,,2025-08-04,清算の結了等,,,2015-10-05,1,,,,,サンヨウショウカイ,0
983,4230002001382,登記記録の閉鎖等,0,2025-08-12,2025-08-07,有限会社サンシャイン,,有限会社,富山県,富山市,四方恵比須町１０５番地,,16,201,9302258,,,2025-08-07,清算の結了等,,,2015-10-05,1,,,,,サンシャイン,0
989,4260003004662,登記記録の閉鎖等,0,2025-08-12,2025-06-02,合同会社ＪＰ　ＷＡＶＥ,,合同会社,岡山県,岡山市北区,吉備津１１５７番地１８,,33,101,7011341,,,2025-06-02,清算の結了等,,,2024-04-24,1,,,,,ジェイピーウェィブ,0
1007,4340002004250,登記記録の閉鎖等,0,2025-08-12,2025-08-06,有限会社迫光建設,,有限会社,鹿児島県,鹿児島市,吉野町３３２２番地の３９,,46,201,8920871,,,2025-08-06,清算の結了等,,,2015-10-05,1,,,,,サコミツケンセツ,0
1014,4360005006993,登記記録の閉鎖等,0,2025-08-12,2025-07-22,一般社団法人ライジングビジョン・ジャパン,,その他の設立登記法人,沖縄県,那覇市,高良１丁目１０番２８号,,47,201,9010145,,,2025-07-22,清算の結了等,,,2024-03-21,1,,,,,ライジングビジョンジャパン,0
1015,4370302001481,登記記録の閉鎖等,0,2025-08-12,2025-07-22,高誠建設有限会社,,有限会社,宮城県,石巻市,沼津字越田２番地の４,,04,202,9862101,,,2025-07-22,清算の結了等,,,2015-10-05,1,,,,,タカセイケンセツ,0
1029,4430001085381,登記記録の閉鎖等,0,2025-08-12,2025-07-17,Ｅ－ｃｏｍ株式会社,,株式会社,北海道,苫小牧市,字高丘六丁目８４番地,,01,213,0530035,,,2025-07-17,清算の結了等,,,2021-11-16,1,,,,,イーコム,0
1040,4480001010822,登記記録の閉鎖等,0,2025-08-12,2025-08-07,株式会社フォーダブル,,株式会社,徳島県,板野郡藍住町,東中富字長江傍示３０番地９,,36,403,7711221,,,2025-08-07,清算の結了等,,,2019-10-29,1,,,,,フォーダブル,0
1067,5010405020471,登記記録の閉鎖等,0,2025-08-12,2025-07-17,平野町オフィス一般社団法人,,その他の設立登記法人,東京都,中央区,日本橋３丁目９番１号日本橋三丁目スクエア１１階,,13,102,1030027,,,2025-07-17,清算の結了等,,,2021-11-29,1,,,,,ヒラノマチオフィス,0
1070,5010601024598,登記記録の閉鎖等,0,2025-08-12,2025-08-01,アリアケ株式会社,,株式会社,東京都,品川区,上大崎３丁目１番１号目黒セントラルスクエア１５階,,13,109,1410021,,,2025-08-01,合併による解散等,7010703007565,令和７年８月１日東京都品川区上大崎三丁目１番１号目黒セントラルスクエア１５階アリアケ合同会社（7010703007565）に合併し解散,2015-10-05,1,,,,,アリアケ,0
1079,5010802006206,登記記録の閉鎖等,0,2025-08-12,2025-07-23,有限会社サトウ,,有限会社,東京都,大田区,萩中１丁目２番１５,,13,111,1440047,,,2025-07-23,清算の結了等,,,2015-10-05,1,,,,,,0
1082,5011001002979,登記記録の閉鎖等,0,2025-08-12,2025-07-08,株式会社上田商事,,株式会社,東京都,渋谷区,恵比寿２丁目６番２５号,,13,113,1500013,,,2025-07-08,清算の結了等,,,2015-10-05,1,,,,,,0
1086,5011001105971,登記記録の閉鎖等,0,2025-08-12,2025-07-09,株式会社五十五,,株式会社,東京都,渋谷区,笹塚２丁目４３番６号,,13,113,1510073,,,2025-07-09,清算の結了等,,,2015-10-05,1,,,,,,0
1096,5011102017018,登記記録の閉鎖等,0,2025-08-12,2025-07-08,有限会社ベリッシマ,,有限会社,東京都,新宿区,西早稲田３丁目２０番２１号ルナパルコ２０３号室,,13,104,1690051,,,2025-07-08,清算の結了等,,,2015-10-05,1,,,,,ベリッシマ,0
1114,5020001081603,登記記録の閉鎖等,0,2025-08-12,2025-08-04,株式会社佑政,,株式会社,東京都,港区,新橋２丁目１６番１号ニュー新橋ビル６０５号,,13,103,1050004,,,2025-08-04,合併による解散等,4140001090080,令和７年７月２４日神戸市中央区小野柄通三丁目２番２２号富士火災神戸ビル７階Ａｔｒｒｅコンサルティング株式会社（4140001090080）に合併し解散,2015-10-05,1,,,,,ユウセイ,0
1115,5020001088508,登記記録の閉鎖等,0,2025-08-12,2025-07-25,フラワーズワールド株式会社,,株式会社,神奈川県,相模原市南区,南台３丁目３番７－４０４号,,14,153,2520314,,,2025-07-25,清算の結了等,,,2015-10-05,1,,,,,フラワーズワールド,0
1128,5030001095750,登記記録の閉鎖等,0,2025-08-12,2025-08-05,株式会社フィールドサポート,,株式会社,埼玉県,さいたま市緑区,大字中尾２６１４番地３（２０１）,,11,109,3360932,,,2025-08-05,清算の結了等,,,2015-10-05,1,,,,,フィールドサポート,0
1144,5040002023404,登記記録の閉鎖等,0,2025-08-12,2025-07-10,有限会社滝一,,有限会社,東京都,港区,麻布十番２丁目１１番５－３０２号,,13,103,1060045,,,2025-07-10,清算の結了等,,,2015-10-05,1,,,,,タキイチ,0
1146,5040002049845,登記記録の閉鎖等,0,2025-08-12,2025-07-17,有限会社たかの,,有限会社,千葉県,松戸市,野菊野１番地,,12,207,2702243,,,2025-07-17,清算の結了等,,,2015-10-05,1,,,,,タカノ,0
1154,5050002025127,登記記録の閉鎖等,0,2025-08-12,2025-07-29,有限会社カリン・エコー,,有限会社,茨城県,猿島郡五霞町,大字元栗橋３３１番地１,,08,542,3060313,,,2025-07-29,清算の結了等,,,2015-10-05,1,,,,,カリンエコー,0
1156,5060001014699,登記記録の閉鎖等,0,2025-08-12,2025-07-31,株式会社油寅商店,,株式会社,栃木県,下都賀郡野木町,大字友沼７７０番地,,09,364,3290101,,,2025-07-31,清算の結了等,,,2015-10-05,1,,,,,アブトラショウテン,0
1175,5120001136124,登記記録の閉鎖等,0,2025-08-12,2025-07-14,株式会社チェルキンスキー・ソフトウェア,,株式会社,東京都,港区,浜松町２丁目２番１５号浜松町ダイヤビル２Ｆ,,13,103,1050013,,,2025-07-14,清算の結了等,,,2015-10-05,1,,,,,チェルキンスキーソフトウェア,0
1184,5120005008971,登記記録の閉鎖等,0,2025-08-12,2025-08-08,特定非営利活動法人住宅総合研究所,,その他の設立登記法人,大阪府,大阪市中央区,淡路町３丁目１番８号,,27,128,5410047,,,2025-08-08,清算の結了等,,,2015-10-05,1,,,,,ジュウタクソウゴウケンキュウショ,0
1187,5120103005292,登記記録の閉鎖等,0,2025-08-12,2025-08-04,合同会社アセットＫ,,合同会社,大阪府,堺市北区,長曽根町３０８２番地５エンジェルズ・アイ２０２号,,27,146,5918025,,,2025-08-04,清算の結了等,,,2023-06-26,1,,,,,アセットケー,0
1221,5180002084531,登記記録の閉鎖等,0,2025-08-12,2025-07-15,有限会社宮津電機,,有限会社,愛知県,知多郡阿久比町,大字宮津字森下１０番地の１,,23,441,4702204,,,2025-07-15,清算の結了等,,,2015-10-05,1,,,,,ミヤヅデンキ,0
1224,5200001040004,登記記録の閉鎖等,0,2025-08-12,2025-08-01,株式会社悠工業,,株式会社,岐阜県,山県市,上願５０番地１３８,,21,215,5012133,,,2025-08-01,清算の結了等,,,2022-04-22,1,,,,,ユウコウギョウ,0
1227,5200005010275,登記記録の閉鎖等,0,2025-08-12,2025-07-31,平和林産協同組合,,その他の設立登記法人,岐阜県,飛騨市,古川町袈裟丸６３８番地,,21,217,5094203,,,2025-07-31,清算の結了等,,,2015-10-05,1,,,,,ヘイワリンサン,0
1228,5210002002753,登記記録の閉鎖等,0,2025-08-12,2025-08-01,有限会社ノジリ工業,,有限会社,福井県,福井市,島寺町第５２号２３番地の１,,18,201,9103623,,,2025-08-01,清算の結了等,,,2015-10-05,1,,,,,ノジリコウギョウ,0
1235,5260001008755,登記記録の閉鎖等,0,2025-08-12,2025-07-15,株式会社ウエダ,,株式会社,岡山県,岡山市南区,西紅陽台１丁目５８番地６０９,,33,104,7091203,,,2025-07-15,清算の結了等,,,2015-10-05,1,,,,,ウエダ,0
1279,5430002047124,登記記録の閉鎖等,0,2025-08-12,2025-07-16,有限会社零技建,,有限会社,北海道,江別市,萌えぎ野中央１１番地の１４,,01,217,0670058,,,2025-07-16,清算の結了等,,,2015-10-05,1,,,,,ゼロギケン,0
1284,5480002005746,登記記録の閉鎖等,0,2025-08-12,2025-08-07,有限会社純喫茶アン,,有限会社,徳島県,徳島市,明神町２丁目２２番地３,,36,201,7700938,,,2025-08-07,清算の結了等,,,2015-10-05,1,,,,,ジュンキッサアン,0
1288,6010001152560,登記記録の閉鎖等,0,2025-08-12,2025-07-15,株式会社人民舎,,株式会社,千葉県,船橋市,山手２丁目６番２棟４０６号,,12,204,2730045,,,2025-07-15,清算の結了等,,,2015-10-05,1,,,,,ジンミンシャ,0
1303,6010401174469,登記記録の閉鎖等,0,2025-08-12,2025-08-06,株式会社ｕｎｌｏｃｋ．ｌｙ３号,,株式会社,東京都,港区,赤坂７丁目１１番７号三共赤坂ビル５階,,13,103,1070052,,,2025-08-06,合併による解散等,2080001008792,令和７年８月１日静岡市清水区袖師町１３０７番地の１株式会社どんどん（2080001008792）に合併し解散,2023-05-19,1,,,,,アンロックリーサンゴウ,0
1308,6010405020578,登記記録の閉鎖等,0,2025-08-12,2025-07-14,ジー・ジェイ・レジデンス・エイト一般社団法人,,その他の設立登記法人,東京都,港区,六本木１丁目９番１０号アークヒルズ仙石山森タワー４０階,,13,103,1060032,,,2025-07-14,清算の結了等,,,2022-01-18,1,,,,,ジージェイレジデンスエイト,0
1317,6010801026724,登記記録の閉鎖等,0,2025-08-12,2025-07-23,株式会社関東工機テクノ,,株式会社,東京都,大田区,萩中１丁目２番１５号,,13,111,1440047,,,2025-07-23,清算の結了等,,,2016-05-24,1,,,,,カントウコウキテクノ,0
1320,6010902002863,登記記録の閉鎖等,0,2025-08-12,2025-08-07,有限会社エムアンドエム,,有限会社,東京都,世田谷区,奥沢６丁目３１番１３号,,13,112,1580083,,,2025-08-07,清算の結了等,,,2015-10-05,1,,,,,エムアンドエム,0
1330,6011002012984,登記記録の閉鎖等,0,2025-08-12,2025-08-06,有限会社美吉,,有限会社,東京都,板橋区,大山町４３番５号,,13,119,1730023,,,2025-08-06,清算の結了等,,,2015-10-05,1,,,,,ミヨシ,0
1334,6011005006769,登記記録の閉鎖等,0,2025-08-12,2025-07-10,特定非営利活動法人ｖｉｆｌｅｕｒ－舞台医療推進機構,,その他の設立登記法人,東京都,渋谷区,恵比寿２丁目２７番２６号,,13,113,1500013,,,2025-07-10,清算の結了等,,,2016-05-09,1,,,,,ヴィフルールブタイイリョウスイシンキコウ,0
1337,6011101106506,登記記録の閉鎖等,0,2025-08-12,2025-07-18,株式会社ワーク,,株式会社,東京都,新宿区,西新宿６丁目５番１号新宿アイランドタワー２階,,13,104,1600023,,,2025-07-18,清算の結了等,,,2024-03-12,1,,,,,ワーク,0
1347,6011502009051,登記記録の閉鎖等,0,2025-08-12,2025-08-05,有限会社小路製作所,,有限会社,東京都,荒川区,町屋１丁目３０－１５,,13,118,1160001,,,2025-08-05,清算の結了等,,,2015-10-05,1,,,,,ショウジセイサクショ,0
1379,6030001050705,登記記録の閉鎖等,0,2025-08-12,2025-08-01,株式会社ラインカンパニー東京,,株式会社,埼玉県,朝霞市,根岸台２丁目１０番５０－５０４号,,11,227,3510005,,,2025-08-01,合併による解散等,4030002120764,令和７年８月１日埼玉県飯能市美杉台一丁目５番地４株式会社ラインシステム（4030002120764）に合併し解散,2015-10-05,1,,,,,ラインカンパニートウキョウ,0
1395,6060001021307,登記記録の閉鎖等,0,2025-08-12,2025-07-30,ハムスリー株式会社,,株式会社,栃木県,佐野市,大橋町３２２６番地１３,,09,204,3270003,,,2025-07-30,清算の結了等,,,2015-10-05,1,,,,,ハムスリー,0
1404,6100001022928,登記記録の閉鎖等,0,2025-08-12,2025-08-05,株式会社ビジネス・ポイント,,株式会社,長野県,飯田市,本町３丁目大横２１番地,,20,205,3950044,,,2025-08-05,清算の結了等,,,2015-10-05,1,,,,,ビジネスポイント,0
1412,6120001108031,登記記録の閉鎖等,0,2025-08-12,2025-07-31,株式会社アイン,,株式会社,大阪府,大阪市中央区,本町４丁目４番１７号,,27,128,5410053,,,2025-07-31,清算の結了等,,,2015-10-05,1,,,,,アイン,0
1424,6120002025762,登記記録の閉鎖等,0,2025-08-12,2025-07-11,有限会社松原興産,,有限会社,大阪府,大阪市東淀川区,豊里５丁目１０番１３号,,27,114,5330013,,,2025-07-11,清算の結了等,,,2015-10-05,1,,,,,,0
1426,6120101004923,登記記録の閉鎖等,0,2025-08-12,2025-08-01,株式会社タカノ保険事務所,,株式会社,大阪府,堺市堺区,北波止町９番地の２,,27,141,5900986,,,2025-08-01,清算の結了等,,,2015-10-05,1,,,,,タカノホケンジムショ,0
1427,6120102019994,登記記録の閉鎖等,0,2025-08-12,2025-07-31,辻本不動産有限会社,00032916,有限会社,大阪府,河内長野市,南花台１丁目３番１３号,,27,216,5860077,,,2025-07-31,清算の結了等,,,2015-10-05,1,,,,,ツジモトフドウサン,0
1428,6120102024235,登記記録の閉鎖等,0,2025-08-12,2025-07-31,有限会社レーベン,,有限会社,大阪府,泉佐野市,日根野７０５６番地の３,,27,213,5980021,,,2025-07-31,清算の結了等,,,2015-10-05,1,,,,,レーベン,0
1443,6140001112642,登記記録の閉鎖等,0,2025-08-12,2025-08-04,株式会社サポート,,株式会社,兵庫県,加古川市,八幡町上西条１１５８番地の１５,,28,210,6751204,,,2025-08-04,清算の結了等,,,2019-02-06,1,,,,,サポート,0
1456,6180001154573,登記記録の閉鎖等,0,2025-08-12,2025-07-17,木曽川商会株式会社,,株式会社,愛知県,犬山市,大字犬山字南古券１８４番地ビラザイヤビル２階,,23,215,4840084,,,2025-07-17,清算の結了等,,,2023-01-20,1,,,,,キソガワショウカイ,0
1466,6190002000750,登記記録の閉鎖等,0,2025-08-12,2025-08-04,有限会社昭和塗装,,有限会社,三重県,津市,城山１丁目６番８号,,24,201,5140818,,,2025-08-04,清算の結了等,,,2015-10-05,1,,,,,ショウワトソウ,0
1475,6260001014686,登記記録の閉鎖等,0,2025-08-12,2025-07-14,ふるまい不動産株式会社,,株式会社,岡山県,倉敷市,福島２４２番地の７,,33,202,7100048,,,2025-07-14,清算の結了等,,,2015-10-05,1,,,,,フルマイフドウサン,0
1499,6350001007532,登記記録の閉鎖等,0,2025-08-12,2025-08-01,株式会社アレック,,株式会社,宮崎県,延岡市,旭町３丁目１番地２４,,45,203,8820847,,,2025-08-01,清算の結了等,,,2015-10-05,1,,,,,アレック,0
1501,6350005002827,登記記録の閉鎖等,0,2025-08-12,2025-08-01,医療法人社団隆豊会,,その他の設立登記法人,宮崎県,延岡市,無鹿町１丁目７１０番地,,45,203,8820021,,,2025-08-01,清算の結了等,,,2015-10-05,1,,,,,リュウホウカイ,0
1521,6400002002287,登記記録の閉鎖等,0,2025-08-12,2025-08-05,有限会社斗ケ沢書店,,有限会社,岩手県,盛岡市,大通３丁目６番２３号,,03,201,0200022,,,2025-08-05,清算の結了等,,,2015-10-05,1,,,,,トガサワショテン,0
1523,6400002012781,登記記録の閉鎖等,0,2025-08-12,2025-08-01,有限会社上神田住建,,有限会社,岩手県,久慈市,長内町第１９地割１５２番地,,03,207,0280041,,,2025-08-01,合併による解散等,1400001013546,令和７年８月１日岩手県久慈市長内町第１９地割１５２番地株式会社クジラテラス（1400001013546）に合併し解散,2015-10-05,1,,,,,カミカンダジュウケン,0
1527,6430001052561,登記記録の閉鎖等,0,2025-08-12,2025-07-18,株式会社アスケン,,株式会社,北海道,勇払郡安平町,追分本町２丁目３１番地,,01,585,0591911,,,2025-07-18,清算の結了等,,,2015-10-05,1,,,,,アスケン,0
1553,7010401144735,登記記録の閉鎖等,0,2025-08-12,2025-07-23,株式会社コンフィ,,株式会社,東京都,港区,南青山３丁目１番３６号青山丸竹ビル６階,,13,103,1070062,,,2025-07-23,合併による解散等,1010401176115,令和７年７月２３日東京都港区芝大門二丁目３番６号ＢＴＣリンク株式会社（1010401176115）に合併し解散,2019-04-02,1,,,,,コンフィ,0
1562,7010502002189,登記記録の閉鎖等,0,2025-08-12,2025-08-01,有限会社オーリン社,,有限会社,東京都,台東区,千束２丁目２４番１－１１０１号ウィルローズ浅草,,13,106,1110031,,,2025-08-01,清算の結了等,,,2015-10-05,1,,,,,オーリンシャ,0
1569,7010701039800,登記記録の閉鎖等,0,2025-08-12,2025-07-10,株式会社バルバ,,株式会社,東京都,渋谷区,神宮前６丁目２３番４号桑野ビル２階,,13,113,1500001,,,2025-07-10,清算の結了等,,,2020-09-08,1,,,,,バルバ,0
1584,7011101067078,登記記録の閉鎖等,0,2025-08-12,2025-07-08,株式会社エイチエージャパン,,株式会社,東京都,新宿区,新宿１丁目１８番７号,,13,104,1600022,,,2025-07-08,清算の結了等,,,2015-10-05,1,,,,,エイチエージャパン,0
1595,7011501015867,登記記録の閉鎖等,0,2025-08-12,2025-08-05,株式会社愛康,,株式会社,東京都,北区,田端新町２丁目１２番５号,,13,117,1140012,,,2025-08-05,清算の結了等,,,2015-10-05,1,,,,,アイコウ,0
1601,7011801007853,登記記録の閉鎖等,0,2025-08-12,2025-08-04,三和装備株式会社,,株式会社,東京都,足立区,古千谷本町１丁目１１番１７号,,13,121,1210832,,,2025-08-04,清算の結了等,,,2015-10-05,1,,,,,,0
1618,7013202006344,登記記録の閉鎖等,0,2025-08-12,2025-07-30,有限会社メイルボックス,,有限会社,東京都,大田区,大森西３丁目１２番４号,,13,111,1430015,,,2025-07-30,清算の結了等,,,2015-10-05,1,,,,,メイルボックス,0
1625,7020002106068,登記記録の閉鎖等,0,2025-08-12,2025-07-25,ルノー・日産インフォメーションサービシズ有限会社,,有限会社,神奈川県,横浜市西区,高島１丁目１番１号,,14,103,2200011,,,2025-07-25,清算の結了等,,,2015-10-05,1,,,,,ルノーニッサンインフォメーションサービシズ,0
1662,7060001016859,登記記録の閉鎖等,0,2025-08-12,2025-07-30,トチサン商事株式会社,,株式会社,栃木県,栃木市,都賀町木８４１１番地６,,09,203,3280104,,,2025-07-30,清算の結了等,,,2015-10-05,1,,,,,トチサンショウジ,0
1666,7060002028028,登記記録の閉鎖等,0,2025-08-12,2025-07-29,有限会社大藏総業,,有限会社,栃木県,小山市,駅南町２丁目２４番２１号,,09,208,3230822,,,2025-07-29,清算の結了等,,,2015-10-05,1,,,,,オオクラソウギョウ,0
1674,7080405007551,登記記録の閉鎖等,0,2025-08-12,2025-08-04,一般社団法人虹の会いちかわさんち,,その他の設立登記法人,静岡県,湖西市,南台３丁目６番１８号,,22,221,4310429,,,2025-08-04,清算の結了等,,,2023-06-19,1,,,,,ニジノカイイチカワサンチ,0
1681,7100005003015,登記記録の閉鎖等,0,2025-08-12,2025-08-04,農事組合法人ふるさと信州,,その他の設立登記法人,長野県,佐久市,三河田字下原５６４番地３,,20,217,3850014,,,2025-08-04,清算の結了等,,,2015-10-05,1,,,,,フルサトシンシュウ,0
1684,7110001032883,登記記録の閉鎖等,0,2025-08-12,2025-07-15,株式会社文栄,,株式会社,新潟県,妙高市,朝日町１丁目１０番３号,,15,217,9440043,,,2025-07-15,清算の結了等,,,2017-12-20,1,,,,,ブンエイ,0
1693,7120001221477,登記記録の閉鎖等,0,2025-08-12,2025-07-31,株式会社ＨＡＣＨＩＭＩＴＳＵ,,株式会社,大阪府,大阪市中央区,南久宝寺町４丁目３－２－７Ｆ,,27,128,5410058,,,2025-07-31,清算の結了等,,,2019-06-10,1,,,,,ハチミツ,0
1707,7120005014613,登記記録の閉鎖等,0,2025-08-12,2025-08-01,一般社団法人日本バンディ連盟,,その他の設立登記法人,大阪府,大阪市都島区,都島北通１丁目４番２１号,,27,102,5340014,,,2025-08-01,清算の結了等,,,2015-10-05,1,,,,,ニホンバンディレンメイ,0
1735,7180002092912,登記記録の閉鎖等,0,2025-08-12,2025-07-15,有限会社あま土地建物サービス,,有限会社,愛知県,海部郡蟹江町,本町７丁目６６番地１,,23,425,4970034,,,2025-07-15,清算の結了等,,,2015-10-05,1,,,,,アマトチタテモノサービス,0
1740,7210001014211,登記記録の閉鎖等,0,2025-08-12,2025-08-01,ＯＴＯ株式会社,,株式会社,福井県,大飯郡高浜町,高森３番地１,,18,481,9192200,,,2025-08-01,清算の結了等,,,2015-10-05,1,,,,,オーティーオー,0
1754,7240005003281,登記記録の閉鎖等,0,2025-08-12,2025-08-07,農事組合法人フルエ農場,,その他の設立登記法人,広島県,広島市西区,古田台２丁目１３番１８号,,34,104,7330877,,,2025-08-07,清算の結了等,,,2015-10-05,1,,,,,フルエノウジョウ,0
1758,7250001014901,登記記録の閉鎖等,0,2025-08-12,2025-08-01,山口フードサービス株式会社,,株式会社,山口県,山口市,大字朝田字流通センター６０１番地１１,,35,203,7530000,,,2025-08-01,合併による解散等,1250001002614,令和７年８月１日山口県山口市大字朝田字流通センター６０１番地１１株式会社ＭＳＹフーズ（1250001002614）に合併し解散,2015-10-05,1,,,,,ヤマグチフードサービス,0
1774,7290001077234,登記記録の閉鎖等,0,2025-08-12,2025-07-30,株式会社テックビジョン福岡,,株式会社,大阪府,八尾市,堤町１丁目４５番地の２２,,27,212,5810832,,,2025-07-30,合併による解散等,6122001020439,令和７年７月３０日大阪府八尾市堤町一丁目４５番地の２２株式会社山畑興業（6122001020439）に合併し解散,2017-03-30,1,,,,,テックビジョンフクオカ,0
1789,7330001004118,登記記録の閉鎖等,0,2025-08-12,2025-07-25,株式会社ブレーン九州映像,,株式会社,熊本県,熊本市中央区,帯山４丁目２２番１２号,,43,101,8620924,,,2025-07-25,清算の結了等,,,2015-10-05,1,,,,,ブレーンキュウシュウエイゾウ,0
1809,7380002016289,登記記録の閉鎖等,0,2025-08-12,2025-07-22,有限会社さくま商事,,有限会社,福島県,二本松市,本町２丁目１０７番地,,07,210,9640917,,,2025-07-22,清算の結了等,,,2015-10-05,1,,,,,サクマショウジ,0
1818,7420002002648,登記記録の閉鎖等,0,2025-08-12,2025-08-01,有限会社丸善,,有限会社,青森県,青森市,金沢１丁目５番２１号,,02,201,0300853,,,2025-08-01,清算の結了等,,,2015-10-05,1,,,,,マルゼン,0
1820,7430001081527,登記記録の閉鎖等,0,2025-08-12,2025-07-31,ＴＨＥ　ＭＶＭＴ株式会社,,株式会社,北海道,虻田郡倶知安町,南一条西２丁目１０番地２,,01,400,0440031,,,2025-07-31,清算の結了等,,,2020-05-21,1,,,,,ザエムブイエムティー,0
1823,7430003006787,登記記録の閉鎖等,0,2025-08-12,2025-07-22,合同会社札幌フォトグラフィックス,,合同会社,北海道,札幌市手稲区,前田二条７丁目５番７号,,01,109,0060812,,,2025-07-22,清算の結了等,,,2015-10-05,1,,,,,サッポロフォトグラフィックス,0
1829,7490001006016,登記記録の閉鎖等,0,2025-08-12,2025-08-06,株式会社二宮商事,,株式会社,高知県,高岡郡檮原町,梼原１４４０番地３,,39,405,7850610,,,2025-08-06,清算の結了等,,,2015-10-05,1,,,,,ニノミヤショウジ,0
1831,7500001025468,登記記録の閉鎖等,0,2025-08-12,2025-08-05,ｅｘ‐Ｂｉｏ株式会社,,株式会社,愛媛県,四国中央市,川之江町８２６番地,,38,213,7990101,,,2025-08-05,清算の結了等,,,2024-02-20,1,,,,,イーエックスバイオ,0
1846,8010401010151,登記記録の閉鎖等,0,2025-08-12,2025-07-10,株式会社コスモ鑑定,,株式会社,東京都,港区,南青山２丁目２番１５号ウィン青山４３０,,13,103,1070062,,,2025-07-10,清算の結了等,,,2015-10-05,1,,,,,コスモカンテイ,0
1862,8010401190844,登記記録の閉鎖等,0,2025-08-12,2025-07-11,ＬＬホールディングス２株式会社,,株式会社,東京都,港区,浜松町２丁目４番１号,,13,103,1050013,,,2025-07-11,合併による解散等,3010401188224,令和７年７月１１日東京都港区浜松町二丁目４番１号ＬＬホールディングス株式会社（3010401188224）に合併し解散,2025-06-06,1,,,,,エルエルホールディングスツー,0
1866,8010403022707,登記記録の閉鎖等,0,2025-08-12,2025-07-11,合同会社ホーク,,合同会社,東京都,港区,虎ノ門３丁目２２番１０－２０１号,,13,103,1050001,,,2025-07-11,清算の結了等,,,2020-03-26,1,,,,,ホーク,0
1868,8010405020675,登記記録の閉鎖等,0,2025-08-12,2025-07-14,ＲＢソーラーエーリスホールディングス一般社団法人,,その他の設立登記法人,東京都,港区,虎ノ門３丁目２２番１０－２０１号,,13,103,1050001,,,2025-07-14,清算の結了等,,,2022-02-08,1,,,,,アールビーソーラーエーリスホールディングス,0
1875,8010802006252,登記記録の閉鎖等,0,2025-08-12,2025-07-29,有限会社サトー電気,,有限会社,東京都,大田区,北馬込２丁目３６番１５号,,13,111,1430021,,,2025-07-29,清算の結了等,,,2015-10-05,1,,,,,サトーデンキ,0
1891,8011102012230,登記記録の閉鎖等,0,2025-08-12,2025-07-07,有限会社丸松,,有限会社,東京都,新宿区,住吉町２番１８－６０２号,,13,104,1620065,,,2025-07-07,清算の結了等,,,2015-10-05,1,,,,,マルマツ,0
1895,8011301000127,登記記録の閉鎖等,0,2025-08-12,2025-08-01,阿井物産株式会社,,株式会社,東京都,杉並区,上井草１丁目２４番１９号,,13,115,1670023,,,2025-08-01,清算の結了等,,,2015-10-05,1,,,,,アイブッサン,0
1913,8020002046338,登記記録の閉鎖等,0,2025-08-12,2025-07-28,有限会社大岡商店,,有限会社,神奈川県,横浜市瀬谷区,三ツ境５番地３５,,14,114,2460022,,,2025-07-28,清算の結了等,,,2015-10-05,1,,,,,,0
1915,8020005009944,登記記録の閉鎖等,0,2025-08-12,2025-07-24,特定非営利活動法人つながり,,その他の設立登記法人,神奈川県,横浜市港南区,港南台６丁目１番４４－５０４号,,14,111,2340054,,,2025-07-24,清算の結了等,,,2015-10-05,1,,,,,ツナガリ,0
1919,8030001103790,登記記録の閉鎖等,0,2025-08-12,2025-07-22,株式会社システムモデリングラボ,,株式会社,埼玉県,戸田市,川岸２丁目９－１６,,11,224,3350015,,,2025-07-22,清算の結了等,,,2015-10-05,1,,,,,システムモデリングラボ,0
1934,8040001055404,登記記録の閉鎖等,0,2025-08-12,2025-07-15,株式会社ダイオカ,,株式会社,千葉県,市原市,八幡２３８４番地の１９,,12,219,2900062,,,2025-07-15,清算の結了等,,,2015-10-05,1,,,,,ダイオカ,0
1942,8040002083412,登記記録の閉鎖等,0,2025-08-12,2025-07-15,有限会社伊藤孵化場,,有限会社,千葉県,匝瑳市,栢田６９１３番地,,12,235,2893184,,,2025-07-15,清算の結了等,,,2015-10-05,1,,,,,イトウフカジョウ,0
1945,8050001008699,登記記録の閉鎖等,0,2025-08-12,2025-07-24,水戸レイクスカントリークラブ株式会社,,株式会社,茨城県,東茨城郡城里町,大字春園７５４番地２,,08,310,3114306,,,2025-07-24,清算の結了等,,,2022-06-27,1,,,,,ミトレイクスカントリークラブ,0
1956,8080002013588,登記記録の閉鎖等,0,2025-08-12,2025-07-30,有限会社甲賀電気,,有限会社,静岡県,島田市,旭２丁目９番１５号,,22,209,4270018,,,2025-07-30,清算の結了等,,,2015-10-05,1,,,,,コウガデンキ,0
1958,8080101010750,登記記録の閉鎖等,0,2025-08-12,2025-08-05,株式会社五湖,,株式会社,静岡県,富士市,三ツ沢１００１番地の２,,22,210,4170855,,,2025-08-05,清算の結了等,,,2015-10-05,1,,,,,ゴコ,0
1962,8080102017811,登記記録の閉鎖等,0,2025-08-12,2025-08-04,有限会社白糸加工所,,有限会社,静岡県,富士宮市,半野３９０番地の２,,22,207,4180106,,,2025-08-04,清算の結了等,,,2015-10-05,1,,,,,シライトカコウショ,0
1966,8090002015518,登記記録の閉鎖等,0,2025-08-12,2025-07-30,有限会社ゴレパニ,,有限会社,東京都,武蔵野市,吉祥寺東町４丁目７番１２号,,13,203,1800002,,,2025-07-30,清算の結了等,,,2015-10-05,1,,,,,ゴレパニ,0
1967,8100001026299,登記記録の閉鎖等,0,2025-08-12,2025-08-06,株式会社ジンテク,,株式会社,神奈川県,横須賀市,長井５丁目２番１１号,,14,201,2380316,,,2025-08-06,清算の結了等,,,2015-10-05,1,,,,,ジンテク,0
1974,8120001192536,登記記録の閉鎖等,0,2025-08-12,2025-07-22,株式会社リアン,,株式会社,大阪府,箕面市,小野原東６丁目３７番７号,,27,220,5620031,,,2025-07-22,清算の結了等,,,2015-10-05,1,,,,,リアン,0
1977,8120001240534,登記記録の閉鎖等,0,2025-08-12,2025-07-31,株式会社Ｃｏｎｎｅｃｔ　Ｗｏｒｌｄ,,株式会社,大阪府,大阪市北区,中津３丁目２９番３５号オーブラン中津４０５,,27,127,5310071,,,2025-07-31,清算の結了等,,,2021-09-28,1,,,,,コネクトワールド,0
1982,8120002045230,登記記録の閉鎖等,0,2025-08-12,2025-07-31,有限会社ケイ・エス・シー,,有限会社,大阪府,大阪市住之江区,南港中３丁目９番２７－１２０６号,,27,125,5590033,,,2025-07-31,清算の結了等,,,2015-10-05,1,,,,,ケイエスシー,0
1996,8140003008102,登記記録の閉鎖等,0,2025-08-12,2025-08-04,合同会社ＳＲイノベイト,,合同会社,兵庫県,豊岡市,清冷寺１７８３番地,,28,209,6680853,,,2025-08-04,清算の結了等,,,2015-10-05,1,,,,,エスアールイノベイト,0
2019,8200002028202,登記記録の閉鎖等,0,2025-08-12,2025-07-31,有限会社ＦＡかみいちば,,有限会社,岐阜県,郡上市,美並町白山４５番地６,,21,219,5014106,,,2025-07-31,清算の結了等,,,2015-10-05,1,,,,,エフエーカミイチバ,0
2029,8240002009173,登記記録の閉鎖等,0,2025-08-12,2025-08-04,有限会社ふくや,,有限会社,広島県,広島市中区,住吉町７番１４号,,34,101,7300813,,,2025-08-04,清算の結了等,,,2015-10-05,1,,,,,,0
2032,8240002047132,登記記録の閉鎖等,0,2025-08-12,2025-08-04,有限会社サカネン,,有限会社,広島県,府中市,本山町５３０番地の１３１,,34,208,7260001,,,2025-08-04,清算の結了等,,,2015-10-05,1,,,,,サカネン,0
2038,8260002002606,登記記録の閉鎖等,0,2025-08-12,2025-07-16,有限会社片山運送,,有限会社,岡山県,岡山市南区,南輝１丁目４番８号,,33,104,7028023,,,2025-07-16,清算の結了等,,,2015-10-05,1,,,,,カタヤマウンソウ,0
2066,8380002009572,登記記録の閉鎖等,0,2025-08-12,2025-07-22,有限会社榊機械商事,,有限会社,福島県,郡山市,大槻町字仁池向１０番１号,,07,203,9630201,,,2025-07-22,清算の結了等,,,2015-10-05,1,,,,,サカキキカイショウジ,0
2072,8420002014452,登記記録の閉鎖等,0,2025-08-12,2025-07-31,有限会社安田調剤薬局,,有限会社,青森県,弘前市,大字森町１５番地１,,02,202,0368205,,,2025-07-31,清算の結了等,,,2015-10-05,1,,,,,ヤスダチョウザイヤッキョク,0
2088,9010001073201,登記記録の閉鎖等,0,2025-08-12,2025-07-02,株式会社京半,,株式会社,東京都,中央区,日本橋横山町８番１号,,13,102,1030003,,,2025-07-02,清算の結了等,,,2025-05-19,1,,,,,キョウハン,0
2100,9010002019038,登記記録の閉鎖等,0,2025-08-12,2025-07-10,有限会社金竜堂,,有限会社,東京都,中央区,日本橋茅場町３丁目８番５号,,13,102,1030025,,,2025-07-10,清算の結了等,,,2015-10-05,1,,,,,キンリュウドウ,0
2127,9011001064000,登記記録の閉鎖等,0,2025-08-12,2025-08-06,株式会社シーズレコーズ,,株式会社,東京都,渋谷区,東２丁目２６番１６号,,13,113,1500011,,,2025-08-06,合併による解散等,8010401025190,令和７年７月１日東京都港区北青山二丁目１１番３号Ａ－ＰＬＡＣＥ青山１階株式会社ヒップランドミュージックコーポレーション（8010401025190）に合併し解散,2015-10-05,1,,,,,シーズレコーズ,0
2128,9011001137111,登記記録の閉鎖等,0,2025-08-12,2025-08-05,株式会社ヒカルエンタープライズ,,株式会社,東京都,渋谷区,渋谷３丁目１０番１号,,13,113,1500002,,,2025-08-05,合併による解散等,4010001163048,令和７年８月１日奈良県磯城郡田原本町大字阪手６６６－１株式会社アイリンク（4010001163048）に合併し解散,2020-11-24,1,,,,,ヒカルエンタープライズ,0
2164,9020001018295,登記記録の閉鎖等,0,2025-08-12,2025-08-01,株式会社安善ドック,,株式会社,神奈川県,横浜市鶴見区,安善町１丁目２番地の５,,14,101,2300035,,,2025-08-01,合併による解散等,6020001019172,令和７年８月１日神奈川県横浜市鶴見区生麦二丁目３番２９号株式会社横浜工作所（6020001019172）に合併し解散,2015-10-05,1,,,,,アンゼンドック,0
2192,9030003024299,登記記録の閉鎖等,0,2025-08-12,2025-08-04,Ｊｏｕｒｎａｌｉｓｍ　Ｅｄｇｅ合同会社,,合同会社,埼玉県,川口市,元郷１丁目１３番１０号,,11,203,3320011,,,2025-08-04,清算の結了等,,,2024-05-17,1,,,,,ジャーナリズムエッジ,0
2199,9040001121304,登記記録の閉鎖等,0,2025-08-12,2025-08-04,株式会社ＫＪクリエイト,,株式会社,千葉県,柏市,大津ケ丘１丁目５２－２,,12,217,2770921,,,2025-08-04,清算の結了等,,,2021-12-10,1,,,,,ケイジェークリエイト,0
2243,9120001040116,登記記録の閉鎖等,0,2025-08-12,2025-07-30,株式会社南大果,,株式会社,大阪府,大阪市浪速区,戎本町１丁目４番１６号トゥリオーニＥＢＩＳＵ３０２号室,,27,111,5560013,,,2025-07-30,清算の結了等,,,2015-10-05,1,,,,,ミナミタイカ,0
2285,9200001010218,登記記録の閉鎖等,0,2025-08-12,2025-08-01,日軽車輛株式会社,,株式会社,岐阜県,本巣市,春近２２５番地,,21,218,5010404,,,2025-08-01,清算の結了等,,,2015-10-05,1,,,,,ニッケイシャリョウ,0
2291,9200002025000,登記記録の閉鎖等,0,2025-08-12,2025-07-31,有限会社荏名モータース,,有限会社,岐阜県,高山市,江名子町２４０７番地の１,,21,203,5060818,,,2025-07-31,清算の結了等,,,2015-10-05,1,,,,,エナモータース,0
2293,9220001001529,登記記録の閉鎖等,0,2025-08-12,2025-08-06,大浦商事株式会社,,株式会社,石川県,金沢市,北安江２丁目２１番１２号,,17,201,9200022,,,2025-08-06,清算の結了等,,,2015-10-05,1,,,,,オオウラショウジ,0
2302,9240002027521,登記記録の閉鎖等,0,2025-08-12,2025-08-01,蔵本建設有限会社,,有限会社,広島県,東広島市,河内町戸野２１１番地の５,,34,212,7392205,,,2025-08-01,清算の結了等,,,2015-10-05,1,,,,,クラモトケンセツ,0
2304,9250001016516,登記記録の閉鎖等,0,2025-08-12,2025-08-06,青海島株式会社,,株式会社,山口県,長門市,仙崎２０５９番地１,,35,211,7594106,,,2025-08-06,清算の結了等,,,2017-04-06,1,,,,,オウミシマ,0
2311,9280001007207,登記記録の閉鎖等,0,2025-08-12,2025-08-08,株式会社しまつむぎ,,株式会社,島根県,隠岐郡隠岐の島町,中村１４９４番地一,,32,528,6850434,,,2025-08-08,清算の結了等,,,2016-04-27,1,,,,,シマツムギ,0
2337,9370202004217,登記記録の閉鎖等,0,2025-08-12,2025-07-18,有限会社カミテック,,有限会社,宮城県,加美郡加美町,字下野目雷北５番地１,,04,445,9814302,,,2025-07-18,清算の結了等,,,2015-10-05,1,,,,,カミテック,0
2338,9380002026195,登記記録の閉鎖等,0,2025-08-12,2025-07-22,有限会社丸菱,,有限会社,福島県,いわき市,常磐下湯長谷町一町田７８番地の２５,,07,204,9728317,,,2025-07-22,清算の結了等,,,2015-10-05,1,,,,,マルビシ,0
2347,9430001005013,登記記録の閉鎖等,0,2025-08-12,2025-07-17,株式会社グレイン,,株式会社,北海道,札幌市中央区,南九条西１１丁目１－２３,,01,101,0640809,,,2025-07-17,清算の結了等,,,2015-10-05,1,,,,,グレイン,0
2348,9430001006903,登記記録の閉鎖等,0,2025-08-12,2025-07-18,株式会社サムシステム,,株式会社,北海道,札幌市北区,北七条西２丁目６番地,,01,102,0600807,,,2025-07-18,清算の結了等,,,2015-10-05,1,,,,,サムシステム,0
2365,9500002008164,登記記録の閉鎖等,0,2025-08-12,2025-08-06,有限会社シノザキ商会,,有限会社,愛媛県,伊予市,大平甲１２９５番地２,,38,210,7993131,,,2025-08-06,清算の結了等,,,2015-10-05,1,,,,,,0
