sequenceNumber,corporateNumber,process,correct,updateDate,changeDate,name,nameImageId,kind,prefectureName,cityName,streetNumber,addressImageId,prefectureCode,cityCode,postCode,addressOutside,addressOutsideImageId,closeDate,closeCause,successorCorporateNumber,changeCause,assignmentDate,latest,enName,enPrefectureName,enCityName,enAddressOutside,furigana,hihyoji
2,1010001014229,登記記録の閉鎖等,0,2022-06-20,2022-06-13,ケイエヌ管財株式会社,,株式会社,東京都,千代田区,神田紺屋町４３番地,,13,101,1010035,,,2022-06-13,清算の結了等,,,2015-10-05,1,,,,,ケイエヌカンザイ,0
3,1010001019830,登記記録の閉鎖等,0,2022-06-20,2022-06-13,エスツー管財株式会社,,株式会社,東京都,千代田区,神田紺屋町４３番地,,13,101,1010035,,,2022-06-13,清算の結了等,,,2015-10-05,1,,,,,エスツーカンザイ,0
48,1011001097998,登記記録の閉鎖等,0,2022-06-20,2022-06-13,株式会社ゲート,,株式会社,東京都,世田谷区,下馬１丁目２７番１３号ソーワ下馬ホームズ４０２,,13,112,1540002,,,2022-06-13,清算の結了等,,,2015-10-05,1,,,,,ゲート,0
65,1011703001324,登記記録の閉鎖等,0,2022-06-20,2022-06-06,ビヨンド合同会社,,合同会社,東京都,渋谷区,代官山町２０番９号,,13,113,1500034,,,2022-06-06,清算の結了等,,,2015-10-05,1,,,,,ビヨンド,0
107,1040001114835,登記記録の閉鎖等,0,2022-06-20,2022-06-10,株式会社ＴＩＣ,,株式会社,千葉県,船橋市,湊町２丁目４番５号第五白川ビル５０２,,12,204,2730011,,,2022-06-10,清算の結了等,,,2020-08-27,1,,,,,ティーアイシー,0
121,1060002032051,登記記録の閉鎖等,0,2022-06-20,2022-06-10,有限会社白石鉱油,,有限会社,栃木県,栃木市,薗部町１丁目９番３４号,,09,203,3280074,,,2022-06-10,清算の結了等,,,2015-10-05,1,,,,,シライシコウユ,0
131,1100001008700,登記記録の閉鎖等,0,2022-06-20,2022-06-16,株式会社あさま,,株式会社,長野県,北佐久郡軽井沢町,大字長倉５番地１５０,,20,321,3890111,,,2022-06-16,清算の結了等,,,2015-10-05,1,,,,,アサマ,0
146,1120003017615,登記記録の閉鎖等,0,2022-06-20,2022-06-17,バリューオフィス合同会社,,合同会社,大阪府,大阪市中央区,南船場４丁目１０番５号南船場ＳＯＨＯビル７０２,,27,128,5420081,,,2022-06-17,清算の結了等,,,2020-06-15,1,,,,,バリューオフィス,0
147,1120003017994,登記記録の閉鎖等,0,2022-06-20,2022-06-13,ＢｕｚｚＣｌｏｕｄ合同会社,,合同会社,兵庫県,神戸市中央区,二宮町３丁目１１番６号,,28,110,6510093,,,2022-06-13,清算の結了等,,,2020-08-28,1,,,,,バズクラウド,0
151,1120005001328,登記記録の閉鎖等,0,2022-06-20,2022-06-16,清心院,,その他の設立登記法人,大阪府,大阪市生野区,中川西１丁目７番２１号清心院内,,27,116,5440032,,,2022-06-16,清算の結了等,,,2015-10-05,1,,,,,セイシンイン,0
177,1140001087253,登記記録の閉鎖等,0,2022-06-20,2022-06-13,株式会社ＣＡＲ　ＤＯＣＫ　ＹＯＵ,,株式会社,兵庫県,高砂市,米田町米田新３０番地の３,,28,216,6760801,,,2022-06-13,清算の結了等,,,2015-10-05,1,,,,,カードックユー,0
188,1140003012936,登記記録の閉鎖等,0,2022-06-20,2022-06-13,合同会社ウッディ・プライド,,合同会社,兵庫県,神戸市須磨区,北落合１丁目１－４白川コーポレーションビル３０４,,28,107,6540151,,,2022-06-13,清算の結了等,,,2018-04-24,1,,,,,ウッディプライド,0
201,1170001006706,登記記録の閉鎖等,0,2022-06-20,2022-06-16,株式会社信和化学,,株式会社,和歌山県,海南市,且来２６８番地,,30,202,6420015,,,2022-06-16,清算の結了等,,,2015-10-05,1,,,,,シンワカガク,0
220,1180302014828,登記記録の閉鎖等,0,2022-06-20,2022-06-09,有限会社サポートプロ,,有限会社,愛知県,豊川市,新宿町２丁目４８番地,,23,207,4420043,,,2022-06-09,清算の結了等,,,2015-10-05,1,,,,,サポートプロ,0
258,1300005006713,登記記録の閉鎖等,0,2022-06-20,2022-06-14,一般社団法人佐賀県大町町まちづくり振興会,,その他の設立登記法人,佐賀県,杵島郡大町町,大字福母２９７番地４,,41,423,8492102,,,2022-06-14,清算の結了等,,,2018-03-23,1,,,,,サガケンオオマチチョウマチヅクリシンコウカイ,0
260,1310002012440,登記記録の閉鎖等,0,2022-06-20,2022-06-16,有限会社陶芸いわもと,,有限会社,長崎県,東彼杵郡波佐見町,湯無田郷１５７５番地,,42,323,8593702,,,2022-06-16,清算の結了等,,,2015-10-05,1,,,,,トウゲイイワモト,0
263,1330003004261,登記記録の閉鎖等,0,2022-06-20,2022-06-10,合名会社すみや,,合名会社,熊本県,人吉市,九日町１１５番地の２,,43,203,8680004,,,2022-06-10,清算の結了等,,,2015-10-05,1,,,,,スミヤ,0
273,1360001010192,登記記録の閉鎖等,0,2022-06-20,2022-06-13,株式会社ＭＳ産業,,株式会社,沖縄県,浦添市,城間１丁目１２番８号,,47,208,9012133,,,2022-06-13,清算の結了等,,,2015-10-05,1,,,,,エムエスサンギョウ,0
292,1430001061063,登記記録の閉鎖等,0,2022-06-20,2022-06-16,株式会社トーピコ,,株式会社,北海道,札幌市南区,澄川四条２丁目２番３号アールユービル２階,,01,106,0050004,,,2022-06-16,清算の結了等,,,2015-10-05,1,,,,,トーピコ,0
298,1490005001051,登記記録の閉鎖等,0,2022-06-20,2022-06-10,職業訓練法人高知県産業訓練協会,,その他の設立登記法人,高知県,高知市,本町４丁目１番１６号,,39,201,7800870,,,2022-06-10,清算の結了等,,,2015-10-05,1,,,,,コウチケンサンギョウクンレンキョウカイ,0
308,2010001121536,登記記録の閉鎖等,0,2022-06-20,2022-06-10,株式会社箸長,00049457,株式会社,東京都,中央区,銀座６丁目７番４号,,13,102,1040061,,,2022-06-10,清算の結了等,,,2015-10-05,1,,,,,ハシチョウ,0
321,2010401098267,登記記録の閉鎖等,0,2022-06-20,2022-06-03,ノーマディック株式会社,,株式会社,東京都,港区,三田１丁目４番１号,,13,103,1080073,,,2022-06-03,清算の結了等,,,2015-10-05,1,,,,,ノーマディック,0
325,2010403021730,登記記録の閉鎖等,0,2022-06-20,2022-06-03,合同会社ドットエヌ,,合同会社,東京都,港区,虎ノ門３丁目４番１０号虎ノ門３５森ビル７階ライズアクロスグループ内,,13,103,1050001,,,2022-06-03,清算の結了等,,,2019-11-12,1,,,,,ドットエヌ,0
341,2011001035503,登記記録の閉鎖等,0,2022-06-20,2022-06-06,株式会社オーディンコンサルティンググループ,,株式会社,東京都,渋谷区,恵比寿４丁目５番２５－１００１号,,13,113,1500013,,,2022-06-06,清算の結了等,,,2015-10-05,1,,,,,オーディンコンサルティンググループ,0
350,2011003012574,登記記録の閉鎖等,0,2022-06-20,2022-05-30,合同会社Ｋｉｎｏ　Ｓｐｉｒｉｔ,,合同会社,東京都,渋谷区,神宮前６丁目２３番４号桑野ビル２階,,13,113,1500001,,,2022-05-30,清算の結了等,,,2021-04-15,1,,,,,,0
363,2011501008925,登記記録の閉鎖等,0,2022-06-20,2022-06-14,株式会社三矢製作所,,株式会社,東京都,荒川区,町屋１丁目１５番７号,,13,118,1160001,,,2022-06-14,清算の結了等,,,2015-10-05,1,,,,,,0
377,2012402013907,登記記録の閉鎖等,0,2022-06-20,2022-06-09,有限会社夥加コーポレーション,,有限会社,東京都,足立区,扇１丁目２５番１－６１３号,,13,121,1230873,,,2022-06-09,清算の結了等,,,2015-10-05,1,,,,,ワクコーポレーション,0
395,2020003015594,登記記録の閉鎖等,0,2022-06-20,2022-06-13,合同会社レッツ・ホームページ,,合同会社,神奈川県,横浜市中区,弥生町１丁目４番地,,14,104,2310058,,,2022-06-13,清算の結了等,,,2019-02-05,1,,,,,レッツホームページ,0
398,2020005005635,登記記録の閉鎖等,0,2022-06-20,2022-06-13,特定非営利活動法人超ミネラル水普及研究会,,その他の設立登記法人,神奈川県,横浜市中区,不老町２丁目８番地不二ビル,,14,104,2310032,,,2022-06-13,清算の結了等,,,2015-10-05,1,,,,,,0
405,2021001061077,登記記録の閉鎖等,0,2022-06-20,2022-06-13,株式会社ティー・ティー・アイ,,株式会社,神奈川県,厚木市,水引１丁目２番５－５０５号,,14,212,2430004,,,2022-06-13,清算の結了等,,,2017-01-11,1,,,,,ティーティーアイ,0
410,2021002033760,登記記録の閉鎖等,0,2022-06-20,2022-06-17,有限会社リフレッシュ,,有限会社,静岡県,伊東市,富戸１０１６番地の３,,22,208,4130231,,,2022-06-17,清算の結了等,,,2015-10-05,1,,,,,リフレッシュ,0
434,2060001013555,削除,,2022-06-20,,,,,,,,,,,,,,,,,,,,,,,,,
441,2070001000180,登記記録の閉鎖等,0,2022-06-20,2022-06-09,株式会社アバンス,,株式会社,群馬県,前橋市,鳥羽町８１６番地１,,10,201,3710845,,,2022-06-09,清算の結了等,,,2015-10-05,1,,,,,アバンス,0
462,2120001066365,登記記録の閉鎖等,0,2022-06-20,2022-06-17,株式会社ダイナミックマーケティング社,,株式会社,大阪府,大阪市北区,長柄中２丁目５番４４号,,27,127,5310062,,,2022-06-17,清算の結了等,,,2015-10-05,1,,,,,,0
489,2140001103959,登記記録の閉鎖等,0,2022-06-20,2022-06-13,株式会社蓮技建,,株式会社,兵庫県,姫路市,飾磨区中島８０４番地１永田第２ビル１０２,,28,201,6728035,,,2022-06-13,清算の結了等,,,2016-11-08,1,,,,,ハスギケン,0
493,2140002034749,登記記録の閉鎖等,0,2022-06-20,2022-06-13,有限会社マック,,有限会社,兵庫県,丹波市,春日町野村８５８番地１,,28,223,6694132,,,2022-06-13,清算の結了等,,,2015-10-05,1,,,,,マック,0
508,2170002001408,登記記録の閉鎖等,0,2022-06-20,2022-06-15,有限会社コシカワ,,有限会社,和歌山県,和歌山市,本町８丁目８番地,,30,201,6408033,,,2022-06-15,清算の結了等,,,2015-10-05,1,,,,,コシカワ,0
527,2200003004158,登記記録の閉鎖等,0,2022-06-20,2022-06-17,合同会社ＡＰＩＡ,,合同会社,岐阜県,岐阜市,真砂町１０丁目１８番地,,21,201,5008864,,,2022-06-17,清算の結了等,,,2018-04-04,1,,,,,アピア,0
530,2220001007350,登記記録の閉鎖等,0,2022-06-20,2022-06-15,株式会社ユニックスシステムズ,,株式会社,石川県,金沢市,示野中町２丁目１１５番地,,17,201,9200058,,,2022-06-15,清算の結了等,,,2015-10-05,1,,,,,ユニックスシステムズ,0
538,2240001042098,登記記録の閉鎖等,0,2022-06-20,2022-06-15,トティデジャパン株式会社,,株式会社,広島県,広島市中区,本川町２丁目６番１０－４０３号,,34,101,7300802,,,2022-06-15,清算の結了等,,,2015-10-05,1,,,,,,0
545,2290001090506,登記記録の閉鎖等,0,2022-06-20,2022-06-10,株式会社ビィ,,株式会社,福岡県,福岡市南区,南大橋１丁目３番４１号,,40,134,8150034,,,2022-06-10,清算の結了等,,,2020-10-13,1,,,,,ビィ,0
559,2330002022404,登記記録の閉鎖等,0,2022-06-20,2022-06-09,有限会社エバーグリーン,,有限会社,熊本県,玉名市,天水町部田見１７１番地１,,43,206,8615403,,,2022-06-09,清算の結了等,,,2015-10-05,1,,,,,エバーグリーン,0
572,2360002016956,登記記録の閉鎖等,0,2022-06-20,2022-06-17,有限会社外間オプチカル,,有限会社,沖縄県,浦添市,安波茶１丁目４６番２０号,,47,208,9012114,,,2022-06-17,清算の結了等,,,2015-10-05,1,,,,,ホカマ,0
591,2430005013299,登記記録の閉鎖等,0,2022-06-20,2022-06-06,特定非営利活動法人デリスホーム,,その他の設立登記法人,北海道,恵庭市,美咲野３丁目３番１９号,,01,231,0611427,,,2022-06-06,清算の結了等,,,2018-01-11,1,,,,,デリスホーム,0
592,2480005005977,登記記録の閉鎖等,0,2022-06-20,2022-06-15,公益財団法人徳島市地場産業振興協会,,その他の設立登記法人,徳島県,徳島市,末広１丁目１番３７号,,36,201,7700866,,,2022-06-15,清算の結了等,,,2015-10-05,1,,,,,トクシマシジバサンギョウシンコウキョウカイ,0
612,3010003031914,登記記録の閉鎖等,0,2022-06-20,2022-06-13,Ｆｅｌｉｃｉｔａ合同会社,,合同会社,東京都,中央区,銀座１丁目２７番８号セントラルビル７０３号,,13,102,1040061,,,2022-06-13,清算の結了等,,,2020-03-18,1,,,,,フェリチタ,0
619,3010401086898,登記記録の閉鎖等,0,2022-06-20,2022-06-13,羽田パイプライン株式会社,,株式会社,東京都,千代田区,平河町１丁目６番８号貝坂ビル,,13,101,1020093,,,2022-06-13,清算の結了等,,,2015-10-05,1,,,,,ハネダパイプライン,0
652,3011001126945,登記記録の閉鎖等,0,2022-06-20,2022-06-06,ＡＶＥ株式会社,,株式会社,東京都,渋谷区,渋谷２丁目１０番１５号,,13,113,1500002,,,2022-06-06,清算の結了等,,,2019-03-22,1,,,,,アヴェ,0
662,3011003006534,登記記録の閉鎖等,0,2022-06-20,2022-06-06,オーバー・セオリー合同会社,,合同会社,東京都,渋谷区,代官山町２０番９号,,13,113,1500034,,,2022-06-06,清算の結了等,,,2016-01-26,1,,,,,オーバーセオリー,0
669,3011103006277,登記記録の閉鎖等,0,2022-06-20,2022-06-13,合同会社ランドマーク,,合同会社,東京都,中央区,晴海２丁目２番４２－７２１号,,13,102,1040053,,,2022-06-13,清算の結了等,,,2016-05-11,1,,,,,ランドマーク,0
685,3012403003476,登記記録の閉鎖等,0,2022-06-20,2022-06-13,合同会社アンダンテ,,合同会社,東京都,小金井市,梶野町４丁目２番９号,,13,210,1840002,,,2022-06-13,清算の結了等,,,2018-05-29,1,,,,,アンダンテ,0
712,3030001039668,登記記録の閉鎖等,0,2022-06-20,2022-06-09,株式会社藤田商店,,株式会社,埼玉県,八潮市,大字鶴ケ曽根１６７４番地５,,11,234,3400802,,,2022-06-09,清算の結了等,,,2015-10-05,1,,,,,フジタショウテン,0
717,3030002031789,登記記録の閉鎖等,0,2022-06-20,2022-06-10,有限会社渡邊美容室,00016445,有限会社,埼玉県,所沢市,美原町１丁目２９２４番地の２８,,11,208,3590045,,,2022-06-10,清算の結了等,,,2015-10-05,1,,,,,ワタナベビヨウシツ,0
725,3040003016813,登記記録の閉鎖等,0,2022-06-20,2022-06-10,合同会社ＡＢＣ,,合同会社,千葉県,松戸市,六高台６丁目１７番地の３,,12,207,2702203,,,2022-06-10,清算の結了等,,,2021-01-18,1,,,,,エービーシー,0
741,3080401022987,登記記録の閉鎖等,0,2022-06-20,2022-06-14,株式会社Ｌａｎｄｖａｔｅ,,株式会社,静岡県,浜松市南区,安松町６０番地の１,,22,134,4350034,,,2022-06-14,清算の結了等,,,2018-06-15,1,,,,,ランヴェイト,0
752,3120001126036,登記記録の閉鎖等,0,2022-06-20,2022-06-17,甲斐高橋保険システム株式会社,,株式会社,大阪府,大阪市西区,江戸堀１丁目１８番１２号タマリスビル,,27,106,5500002,,,2022-06-17,清算の結了等,,,2015-10-05,1,,,,,カイタカハシホケンシステム,0
755,3120001189512,登記記録の閉鎖等,0,2022-06-20,2022-06-17,株式会社リンクカンパニー,,株式会社,大阪府,大阪市中央区,南船場２丁目１２番１６号,,27,128,5420081,,,2022-06-17,清算の結了等,,,2015-10-05,1,,,,,,0
784,3140001034591,登記記録の閉鎖等,0,2022-06-20,2022-06-13,株式会社エイワソーイング,,株式会社,兵庫県,明石市,魚住町中尾４０５番地の１,,28,203,6740082,,,2022-06-13,清算の結了等,,,2015-10-05,1,,,,,エイワソーイング,0
838,3230002004089,登記記録の閉鎖等,0,2022-06-20,2022-06-15,有限会社エフ,,有限会社,富山県,富山市,今泉２４９番地,,16,201,9398075,,,2022-06-15,清算の結了等,,,2015-10-05,1,,,,,エフ,0
847,3250001013709,登記記録の閉鎖等,0,2022-06-20,2022-06-14,株式会社山栄,,株式会社,山口県,周南市,松保町３番３号,,35,215,7450847,,,2022-06-14,清算の結了等,,,2015-10-05,1,,,,,サンエイ,0
865,3310005002585,登記記録の閉鎖等,0,2022-06-20,2022-06-14,長崎県合同電気工事業協同組合,,その他の設立登記法人,長崎県,佐世保市,福石町１番４号,,42,202,8570854,,,2022-06-14,清算の結了等,,,2015-10-05,1,,,,,ナガサキケンゴウドウデンキコウ,0
936,4010401067204,登記記録の閉鎖等,0,2022-06-20,2022-06-13,株式会社深澤企画,,株式会社,東京都,足立区,大谷田１丁目４３番２８号坂本マンション６０５,,13,121,1200001,,,2022-06-13,清算の結了等,,,2015-10-05,1,,,,,フカザワキカク,0
938,4010401092937,登記記録の閉鎖等,0,2022-06-20,2022-06-10,ＲＦＳ　Ｍａｎａｇｅｍｅｎｔ株式会社,,株式会社,千葉県,佐倉市,ユーカリが丘６丁目１０－１２,,12,212,2850858,,,2022-06-10,清算の結了等,,,2015-10-05,1,,,,,アールエフエスマネジメント,0
940,4010401109393,登記記録の閉鎖等,0,2022-06-20,2022-06-15,株式会社アイ・カンパニー,,株式会社,東京都,港区,芝浦４丁目５番４号,,13,103,1080023,,,2022-06-15,合併による解散等,3011001021155,令和４年６月１日東京都渋谷区代々木二丁目１０番８号株式会社プリンセススクゥエアー（3011001021155）に合併し解散,2015-10-05,1,,,,,アイカンパニー,0
953,4010405017551,登記記録の閉鎖等,0,2022-06-20,2022-06-06,江坂レジデンス一般社団法人,,その他の設立登記法人,東京都,港区,六本木１丁目６番１号泉ガーデンタワー１２階,,13,103,1060032,,,2022-06-06,清算の結了等,,,2019-03-13,1,,,,,エサカレジデンス,0
983,4011001130252,登記記録の閉鎖等,0,2022-06-20,2022-06-01,株式会社ＭＭ＆５,,株式会社,東京都,目黒区,青葉台１丁目４番７号,,13,110,1530042,,,2022-06-01,合併による解散等,5011001130251,令和４年６月１日東京都目黒区青葉台一丁目４番７号株式会社ＡＫＭ（5011001130251）に合併し解散,2019-10-07,1,,,,,エムエムアンドファイブ,0
1019,4020001062406,登記記録の閉鎖等,0,2022-06-20,2022-06-13,アサヒ・テクノソリューションズ株式会社,,株式会社,神奈川県,横浜市旭区,中白根３丁目３番１６号,,14,112,2410004,,,2022-06-13,清算の結了等,,,2015-10-05,1,,,,,アサヒテクノソリューションズ,0
1039,4021002034229,登記記録の閉鎖等,0,2022-06-20,2022-06-13,有限会社長島スタジオ,,有限会社,神奈川県,愛甲郡愛川町,春日台５丁目２番地２,,14,401,2430302,,,2022-06-13,清算の結了等,,,2015-10-05,1,,,,,ナガシマスタジオ,0
1049,4030002028314,登記記録の閉鎖等,0,2022-06-20,2022-06-10,有限会社磐伊産業,,有限会社,埼玉県,所沢市,中新井５丁目１４番２０号,,11,208,3590041,,,2022-06-10,清算の結了等,,,2015-10-05,1,,,,,イワイサンギョウ,0
1056,4040002020939,登記記録の閉鎖等,0,2022-06-20,2022-06-08,有限会社エフ・エス・アール,,有限会社,千葉県,船橋市,前貝塚町２５５番地３,,12,204,2730042,,,2022-06-08,清算の結了等,,,2015-10-05,1,,,,,エフエスアール,0
1073,4070001002712,登記記録の閉鎖等,0,2022-06-20,2022-06-08,株式会社平林製作所,,株式会社,群馬県,前橋市,高花台１丁目２５番地１８,,10,201,3710123,,,2022-06-08,清算の結了等,,,2015-10-05,1,,,,,ヒラバヤシセイサクショ,0
1119,4122003001281,登記記録の閉鎖等,0,2022-06-20,2022-06-10,Ｋ・Ｓホールディングス合同会社,,合同会社,大阪府,東大阪市,足代北２丁目１番１３－３１０号,,27,227,5770058,,,2022-06-10,清算の結了等,,,2016-12-01,1,,,,,ケイエスホールディングス,0
1122,4140001014394,登記記録の閉鎖等,0,2022-06-20,2022-06-10,株式会社森分船具店,00039172,株式会社,兵庫県,神戸市兵庫区,島上町２丁目２番２６号,,28,105,6520833,,,2022-06-10,清算の結了等,,,2015-10-05,1,,,,,モリワケセングテン,0
1124,4140001023197,登記記録の閉鎖等,0,2022-06-20,2022-06-09,株式会社ゴーフルコウベ,,株式会社,兵庫県,神戸市中央区,元町通３丁目３番１０号,,28,110,6500022,,,2022-06-09,清算の結了等,,,2015-10-05,1,,,,,ゴーフルコウベ,0
1125,4140001023346,登記記録の閉鎖等,0,2022-06-20,2022-06-13,株式会社コラボサービス,,株式会社,兵庫県,神戸市中央区,中山手通４丁目２２番２－３０２号,,28,110,6500004,,,2022-06-13,清算の結了等,,,2015-10-05,1,,,,,コラボサービス,0
1147,4180001110727,登記記録の閉鎖等,0,2022-06-20,2022-06-14,株式会社タオハム,,株式会社,神奈川県,茅ヶ崎市,東海岸南３丁目２番２５－２号,,14,207,2530054,,,2022-06-14,清算の結了等,,,2015-10-05,1,,,,,タオハム,0
1153,4180005018009,登記記録の閉鎖等,0,2022-06-20,2022-06-15,特定非営利活動法人つり・ひと・しごと,,その他の設立登記法人,愛知県,常滑市,字中大流１９番１,,23,216,4790037,,,2022-06-15,清算の結了等,,,2018-10-18,1,,,,,ツリヒトシゴト,0
1155,4180301023249,登記記録の閉鎖等,0,2022-06-20,2022-06-07,株式会社丸仁尾崎組,,株式会社,愛知県,西尾市,一色町松木島中切１４１番地３,,23,213,4440403,,,2022-06-07,清算の結了等,,,2015-10-05,1,,,,,マルニオザキグミ,0
1161,4210005006034,登記記録の閉鎖等,0,2022-06-20,2022-06-13,特定非営利活動法人楽衆玄達,,その他の設立登記法人,福井県,福井市,照手２丁目２番１号本禄建築設計事務所２階,,18,201,9100024,,,2022-06-13,清算の結了等,,,2015-10-05,1,,,,,ガクシゲンタツ,0
1167,4240005003318,登記記録の閉鎖等,0,2022-06-20,2022-06-15,特定非営利活動法人広島病理学研究所,,その他の設立登記法人,広島県,広島市南区,大須賀町１５番６号株式会社福山臨床検査センター広島支所内,,34,103,7320821,,,2022-06-15,清算の結了等,,,2015-10-05,1,,,,,ヒロシマビョウリガクケンキュウショ,0
1200,4350002012566,登記記録の閉鎖等,0,2022-06-20,2022-06-15,有限会社日高塗装,00100837,有限会社,宮崎県,延岡市,小野町４６６３番地３,,45,203,8820882,,,2022-06-15,清算の結了等,,,2015-10-05,1,,,,,ヒダカトソウ,0
1205,4360002000603,登記記録の閉鎖等,0,2022-06-20,2022-06-09,有限会社浦和,,有限会社,沖縄県,那覇市,天久１丁目２３番２０号,,47,201,9000005,,,2022-06-09,清算の結了等,,,2015-10-05,1,,,,,ウラワ,0
1225,4430003009504,登記記録の閉鎖等,0,2022-06-20,2022-06-06,合同会社リバティー,,合同会社,北海道,札幌市豊平区,月寒東五条１９丁目１番１８号,,01,105,0620055,,,2022-06-06,清算の結了等,,,2018-07-02,1,,,,,リバティー,0
1262,5011001090842,登記記録の閉鎖等,0,2022-06-20,2022-06-14,株式会社三雅,,株式会社,東京都,渋谷区,広尾４丁目１番５号広尾ガーデンヒルズＢ棟４０９,,13,113,1500012,,,2022-06-14,合併による解散等,6010403000722,令和４年６月１日東京都港区南青山五丁目１７番２号椙山合資会社（6010403000722）に合併し解散,2015-10-05,1,,,,,サンガ,0
1292,5011801028141,登記記録の閉鎖等,0,2022-06-20,2022-06-13,ゲットアクティブ株式会社,,株式会社,東京都,足立区,神明３丁目１３番１８号,,13,121,1210051,,,2022-06-13,清算の結了等,,,2015-10-05,1,,,,,,0
1296,5012403003086,登記記録の閉鎖等,0,2022-06-20,2022-06-13,合同会社リアルフィールド,,合同会社,東京都,小金井市,本町１丁目８番８－８０４号アデニウム武蔵小金井,,13,210,1840004,,,2022-06-13,清算の結了等,,,2017-05-22,1,,,,,リアルフィールド,0
1303,5013301031146,登記記録の閉鎖等,0,2022-06-20,2022-06-15,エムツーテレコム株式会社,,株式会社,東京都,豊島区,東池袋３丁目１５－１４クレール東池袋５０４,,13,116,1700013,,,2022-06-15,清算の結了等,,,2015-10-05,1,,,,,エムツーテレコム,0
1334,5040005018161,登記記録の閉鎖等,0,2022-06-20,2022-06-10,ＮＰＯ法人もりのこびとたち,,その他の設立登記法人,千葉県,成田市,美郷台３丁目６番地１２,,12,211,2860013,,,2022-06-10,清算の結了等,,,2015-10-05,1,,,,,モリノコビトタチ,0
1337,5050002025093,登記記録の閉鎖等,0,2022-06-20,2022-06-10,有限会社堀江製作所,,有限会社,茨城県,古河市,駒羽根２２７番地,,08,204,3060221,,,2022-06-10,清算の結了等,,,2015-10-05,1,,,,,ホリエセイサクショ,0
1351,5080002012279,登記記録の閉鎖等,0,2022-06-20,2022-06-17,有限会社リプル,,有限会社,静岡県,静岡市清水区,月見町６番１８号,,22,103,4240853,,,2022-06-17,清算の結了等,,,2015-10-05,1,,,,,リプル,0
1359,5120001147294,登記記録の閉鎖等,0,2022-06-20,2022-06-17,株式会社アイ・エス・ティ関西,,株式会社,大阪府,寝屋川市,末広町７番９号,,27,215,5720009,,,2022-06-17,清算の結了等,,,2015-10-05,1,,,,,アイエスティカンサイ,0
1374,5120902009452,登記記録の閉鎖等,0,2022-06-20,2022-06-16,有限会社アイソニック,,有限会社,大阪府,高槻市,天神町２丁目３０番３４号,,27,207,5691117,,,2022-06-16,清算の結了等,,,2015-10-05,1,,,,,アイソニック,0
1375,5120902016317,登記記録の閉鎖等,0,2022-06-20,2022-06-15,ビーエス・アクア有限会社,,有限会社,大阪府,箕面市,外院２丁目６番１０号,,27,220,5620026,,,2022-06-15,清算の結了等,,,2015-10-05,1,,,,,ビーエスアクア,0
1396,5140002034085,登記記録の閉鎖等,0,2022-06-20,2022-06-13,有限会社マック,,有限会社,兵庫県,赤穂市,尾崎３１３４番地の２３,,28,212,6780221,,,2022-06-13,清算の結了等,,,2015-10-05,1,,,,,マック,0
1409,5180001030395,登記記録の閉鎖等,0,2022-06-20,2022-06-15,株式会社阪工務店,,株式会社,愛知県,名古屋市中村区,沖田町２４８番地,,23,105,4530825,,,2022-06-15,清算の結了等,,,2015-10-05,1,,,,,サカコウムテン,0
1425,5190005005054,登記記録の閉鎖等,0,2022-06-20,2022-06-13,二見町今一色生活協同組合,,その他の設立登記法人,三重県,伊勢市,二見町今一色１５５番地７,,24,203,5190608,,,2022-06-13,清算の結了等,,,2015-10-05,1,,,,,フタミチョウイマイシキ,0
1427,5200001033841,登記記録の閉鎖等,0,2022-06-20,2022-06-08,Ｔｈｒｅｅ　Ｐｉｅｃｅ株式会社,,株式会社,千葉県,松戸市,久保平賀２８６番地の３,,12,207,2700012,,,2022-06-08,清算の結了等,,,2017-03-14,1,,,,,スリーピース,0
1434,5240002009894,登記記録の閉鎖等,0,2022-06-20,2022-06-17,有限会社タック,,有限会社,広島県,広島市東区,牛田本町４丁目５番１０号,,34,102,7320066,,,2022-06-17,清算の結了等,,,2015-10-05,1,,,,,タック,0
1436,5240002053240,登記記録の閉鎖等,0,2022-06-20,2022-06-14,有限会社ＳＨＯＤＡ,,有限会社,広島県,三原市,港町３丁目２番２２号,,34,204,7230017,,,2022-06-14,清算の結了等,,,2015-10-05,1,,,,,ショウダ,0
1443,5260002006683,登記記録の閉鎖等,0,2022-06-20,2022-06-17,有限会社テクノ佐々木,,有限会社,岡山県,岡山市南区,万倍１１３番地の１９,,33,104,7000955,,,2022-06-17,清算の結了等,,,2015-10-05,1,,,,,テクノササキ,0
1470,5350002010940,登記記録の閉鎖等,0,2022-06-20,2022-06-14,有限会社ホテルやまなみ,,有限会社,宮崎県,日向市,大字幸脇４７６番地の３,,45,206,8891112,,,2022-06-14,清算の結了等,,,2015-10-05,1,,,,,ホテルヤマナミ,0
1471,5350002012516,登記記録の閉鎖等,0,2022-06-20,2022-06-15,有限会社ハローサービス延岡,,有限会社,宮崎県,延岡市,野田町１３９８番地２,,45,203,8820801,,,2022-06-15,清算の結了等,,,2015-10-05,1,,,,,ハローサービスノベオカ,0
1476,5370002010006,登記記録の閉鎖等,0,2022-06-20,2022-06-13,有限会社エクシードメディカルアダチ,,有限会社,宮城県,仙台市青葉区,上杉５丁目８番５４号,,04,101,9800011,,,2022-06-13,清算の結了等,,,2015-10-05,1,,,,,エクシードメディカルアダチ,0
1504,6010001203124,登記記録の閉鎖等,0,2022-06-20,2022-06-14,コルダーダジャパン株式会社,,株式会社,東京都,中央区,日本橋３丁目６番２日本橋フロント１階,,13,102,1030027,,,2022-06-14,清算の結了等,,,2019-08-13,1,,,,,コルダーダジャパン,0
1509,6010401142649,登記記録の閉鎖等,0,2022-06-20,2022-06-02,株式会社１１,,株式会社,東京都,港区,芝公園１丁目１－１住友不動産御成門タワー,,13,103,1050011,,,2022-06-02,清算の結了等,,,2018-12-17,1,,,,,ジュウイチ,0
1517,6010403019944,登記記録の閉鎖等,0,2022-06-20,2022-06-03,合同会社シスル,,合同会社,東京都,港区,浜松町２丁目２番１５号浜松町ダイヤビル２Ｆ,,13,103,1050013,,,2022-06-03,清算の結了等,,,2019-01-09,1,,,,,シスル,0
1536,6011001137254,登記記録の閉鎖等,0,2022-06-20,2022-06-06,株式会社オプティカルデザイン,,株式会社,東京都,渋谷区,神宮前２丁目２番２２号,,13,113,1500001,,,2022-06-06,清算の結了等,,,2020-12-03,1,,,,,オプティカルデザイン,0
1542,6011003004898,登記記録の閉鎖等,0,2022-06-20,2022-06-06,ディールエレガンス合同会社,,合同会社,東京都,渋谷区,代官山町２０番９号,,13,113,1500034,,,2022-06-06,清算の結了等,,,2015-10-05,1,,,,,ディールエレガンス,0
1551,6011303003666,登記記録の閉鎖等,0,2022-06-20,2022-06-15,ＫｏｊｉｍａＨｉｓａｓｈｉハイテクジャパン合同会社,,合同会社,東京都,杉並区,今川４丁目６番１０号ユニ・ウェル１０３,,13,115,1670035,,,2022-06-15,清算の結了等,,,2020-06-04,1,,,,,コジマヒサシハイテクジャパン,0
1575,6020002021937,登記記録の閉鎖等,0,2022-06-20,2022-06-14,有限会社津久野屋酒店,,有限会社,神奈川県,横浜市旭区,東希望が丘７０番地,,14,112,2410826,,,2022-06-14,清算の結了等,,,2015-10-05,1,,,,,ツクノヤサケテン,0
1587,6030005012387,登記記録の閉鎖等,0,2022-06-20,2022-06-09,川口織物工業協同組合,,その他の設立登記法人,埼玉県,川口市,本町４丁目５番８号－２０６,,11,203,3320012,,,2022-06-09,清算の結了等,,,2015-10-05,1,,,,,カワグチオリモノコウギョウ,0
1593,6040001118055,登記記録の閉鎖等,0,2022-06-20,2022-06-08,株式会社パーソナルコネクト,,株式会社,千葉県,松戸市,常盤平双葉町１番地の４,,12,207,2702262,,,2022-06-08,清算の結了等,,,2021-04-15,1,,,,,パーソナルコネクト,0
1594,6040001121249,登記記録の閉鎖等,0,2022-06-20,2022-06-08,株式会社エクステンション,,株式会社,千葉県,流山市,前ケ崎７１９番地の２南柏スカイハイツＡ－４１１,,12,220,2700144,,,2022-06-08,清算の結了等,,,2021-12-07,1,,,,,エクステンション,0
1608,6100001008828,登記記録の閉鎖等,0,2022-06-20,2022-06-16,株式会社しぶさ,,株式会社,長野県,北佐久郡軽井沢町,大字長倉１６０１番地５,,20,321,3890111,,,2022-06-16,清算の結了等,,,2015-10-05,1,,,,,シブサ,0
1642,6130001035010,登記記録の閉鎖等,0,2022-06-20,2022-06-03,株式会社丹波情報センター,,株式会社,京都府,船井郡京丹波町,蒲生梅ノ木６番地の１,,26,407,6220214,,,2022-06-03,清算の結了等,,,2015-10-05,1,,,,,タンバジョウホウセンター,0
1646,6130003005944,登記記録の閉鎖等,0,2022-06-20,2022-06-09,霊芝育産基幹合同会社,,合同会社,京都府,長岡京市,神足３丁目１８番３２号,,26,209,6170833,,,2022-06-09,清算の結了等,,,2019-04-08,1,,,,,レイシイクサンキカン,0
1677,6180001111871,登記記録の閉鎖等,0,2022-06-20,2022-06-15,三宅ラヂエーター工業株式会社,,株式会社,愛知県,半田市,州の崎町２番地１８５,,23,205,4750021,,,2022-06-15,清算の結了等,,,2015-10-05,1,,,,,ミヤケラヂエーターコウギョウ,0
1713,6250002013746,登記記録の閉鎖等,0,2022-06-20,2022-06-16,有限会社ニューカルチャー萩,,有限会社,山口県,萩市,大字椿２３７０番地,,35,204,7580061,,,2022-06-16,清算の結了等,,,2015-10-05,1,,,,,ニューカルチャーハギ,0
1721,6290001080552,登記記録の閉鎖等,0,2022-06-20,2022-06-10,株式会社天笑,,株式会社,福岡県,糸島市,志摩津和崎４３７番地,,40,230,8191311,,,2022-06-10,清算の結了等,,,2018-02-20,1,,,,,テンショウ,0
1741,6370602002013,登記記録の閉鎖等,0,2022-06-20,2022-06-08,有限会社ラ・ムスタッシュ,,有限会社,宮城県,塩竈市,本町１番１号,,04,203,9850052,,,2022-06-08,清算の結了等,,,2015-10-05,1,,,,,ラムスタッシュ,0
1776,7010001031334,登記記録の閉鎖等,0,2022-06-20,2022-06-08,株式会社友和ゴム,,株式会社,千葉県,柏市,しいの木台４丁目５０番４０５号,,12,217,2770945,,,2022-06-08,清算の結了等,,,2015-10-05,1,,,,,ユウワゴム,0
1779,7010001099066,登記記録の閉鎖等,0,2022-06-20,2022-06-13,ジーワイ保険サービス株式会社,,株式会社,東京都,中央区,日本橋横山町７番１８号,,13,102,1030003,,,2022-06-13,清算の結了等,,,2015-10-05,1,,,,,ジーワイホケンサービス,0
1794,7010401121577,登記記録の閉鎖等,0,2022-06-20,2022-05-31,ｍａｉｌｏｖｅ株式会社,,株式会社,東京都,港区,南麻布４丁目５番４８号,,13,103,1060047,,,2022-05-31,清算の結了等,,,2015-11-16,1,,,,,,0
1821,7010901000421,登記記録の閉鎖等,0,2022-06-20,2022-06-14,麻井商事株式会社,,株式会社,東京都,世田谷区,北沢２丁目６番５号,,13,112,1550031,,,2022-06-14,清算の結了等,,,2015-10-05,1,,,,,アサイショウジ,0
1841,7011001126173,登記記録の閉鎖等,0,2022-06-20,2022-06-06,Ｉｌｌｕｍｅ　Ｄｅｓｉｇｎｓ　Ｊａｐａｎ株式会社,,株式会社,東京都,渋谷区,富ヶ谷２丁目１９番６号８０１,,13,113,1510063,,,2022-06-06,清算の結了等,,,2019-01-18,1,,,,,,0
1882,7020001060274,登記記録の閉鎖等,0,2022-06-20,2022-06-13,株式会社エスタブリッシュ,,株式会社,神奈川県,横浜市西区,北幸１丁目１１番１号,,14,103,2200004,,,2022-06-13,清算の結了等,,,2015-10-05,1,,,,,エスタブリッシュ,0
1896,7030002090476,登記記録の閉鎖等,0,2022-06-20,2022-06-10,有限会社パナックス,,有限会社,埼玉県,吉川市,大字川藤３６１６番地３,,11,243,3420005,,,2022-06-10,清算の結了等,,,2015-10-05,1,,,,,パナックス,0
1910,7060002037053,登記記録の閉鎖等,0,2022-06-20,2022-06-10,有限会社橋本工機,,有限会社,栃木県,足利市,中川町３６３０番地の２７,,09,202,3260825,,,2022-06-10,清算の結了等,,,2015-10-05,1,,,,,ハシモトコウキ,0
1924,7080102009751,登記記録の閉鎖等,0,2022-06-20,2022-06-17,有限会社大瀧梱包,,有限会社,静岡県,駿東郡長泉町,下土狩９５８番地の３７,,22,342,4110943,,,2022-06-17,清算の結了等,,,2015-10-05,1,,,,,オオタキコンポウ,0
1927,7100002006391,登記記録の閉鎖等,0,2022-06-20,2022-06-15,有限会社穗刈青果,,有限会社,長野県,長野市,信州新町新町１５３番地２,,20,201,3812405,,,2022-06-15,清算の結了等,,,2015-10-05,1,,,,,ホカリセイカ,0
1967,7140001034175,登記記録の閉鎖等,0,2022-06-20,2022-06-09,株式会社アロット,,株式会社,兵庫県,神戸市長田区,腕塚町６丁目１番１６－１０３号,,28,106,6530036,,,2022-06-09,合併による解散等,1140001016492,令和４年６月１日神戸市長田区若松町五丁目２番１－１１０号東亜商事株式会社（1140001016492）に合併し解散,2015-10-05,1,,,,,アロット,0
1999,7180305002196,登記記録の閉鎖等,0,2022-06-20,2022-06-03,愛知県総合開発事業協同組合,,その他の設立登記法人,愛知県,豊橋市,高師本郷町字竹ノ内１２２番地２,,23,201,4418153,,,2022-06-03,清算の結了等,,,2015-10-05,1,,,,,アイチケンソウゴウカイハツジギョウ,0
2002,7210001011927,登記記録の閉鎖等,0,2022-06-20,2022-06-13,株式会社福井信越石英,,株式会社,福井県,越前市,萱谷町第３号１番地４,,18,209,9150037,,,2022-06-13,合併による解散等,3011101008647,令和４年６月１日東京都新宿区西新宿一丁目２２番２号信越石英株式会社（3011101008647）に合併し解散,2015-10-05,1,,,,,フクイシンエツセキエイ,0
2003,7210001014748,登記記録の閉鎖等,0,2022-06-20,2022-06-14,株式会社ライティングアース,,株式会社,福井県,鯖江市,御幸町４丁目６０１番地７,,18,207,9160015,,,2022-06-14,清算の結了等,,,2015-10-05,1,,,,,ライティングアース,0
2021,7280001002465,登記記録の閉鎖等,0,2022-06-20,2022-06-17,株式会社安來苑,,株式会社,島根県,安来市,古川町４７８番地,,32,206,6920064,,,2022-06-17,清算の結了等,,,2015-10-05,1,,,,,ヤスギエン,0
2022,7290001038616,登記記録の閉鎖等,0,2022-06-20,2022-06-10,株式会社誠サービスカンパニイ,,株式会社,福岡県,糟屋郡粕屋町,長者原西３丁目１４番１号青洲会セシリアハイム１０３号,,40,349,8112316,,,2022-06-10,清算の結了等,,,2015-10-05,1,,,,,マコトサービスカンパニイ,0
2032,7290805009135,登記記録の閉鎖等,0,2022-06-20,2022-06-16,一般社団法人ＫＳＧスイミンググループ,,その他の設立登記法人,福岡県,北九州市小倉南区,富士見２丁目４番１４号,,40,107,8020801,,,2022-06-16,清算の結了等,,,2018-09-03,1,,,,,ケイエスジースイミンググループ,0
2035,7310001008120,登記記録の閉鎖等,0,2022-06-20,2022-06-17,株式会社野口工業,,株式会社,長崎県,諫早市,栄田町１１４４番地１,,42,204,8540081,,,2022-06-17,清算の結了等,,,2015-10-05,1,,,,,ノグチコウギョウ,0
2064,7490002001478,登記記録の閉鎖等,0,2022-06-20,2022-06-08,有限会社高知テント商会,,有限会社,高知県,高知市,相生町７番２０号,,39,201,7800054,,,2022-06-08,清算の結了等,,,2015-10-05,1,,,,,コウチテントショウカイ,0
2094,8010405018059,登記記録の閉鎖等,0,2022-06-20,2022-06-02,ドリーホールディング２一般社団法人,,その他の設立登記法人,東京都,港区,虎ノ門３丁目２２番１０－２０１号,,13,103,1050001,,,2022-06-02,清算の結了等,,,2019-09-06,1,,,,,ドリーホールディングツー,0
2102,8011001128441,登記記録の閉鎖等,0,2022-06-20,2022-06-14,株式会社ｓｕｒｆａｖｅ,,株式会社,茨城県,つくば市,吾妻１丁目１５－１,,08,220,3050031,,,2022-06-14,合併による解散等,9011101077265,令和４年６月１日東京都渋谷区渋谷２－１４－６第２かわなビル７Ｆ株式会社ＦＲＥＥＤｉＶＥ（9011101077265）に合併し解散,2019-06-12,1,,,,,サーフェイブ,0
2110,8011005007492,登記記録の閉鎖等,0,2022-06-20,2022-06-06,特定非営利活動法人ＴＥＲＡＣＯ,,その他の設立登記法人,東京都,渋谷区,松濤１丁目１７番３号,,13,113,1500046,,,2022-06-06,清算の結了等,,,2018-01-16,1,,,,,テラコ,0
2120,8011303001981,登記記録の閉鎖等,0,2022-06-20,2022-06-15,合同会社ヤマトペット霊園,,合同会社,東京都,杉並区,西荻南２丁目１９番１０号,,13,115,1670053,,,2022-06-15,清算の結了等,,,2015-10-05,1,,,,,ヤマトペットレイエン,0
2131,8011702015921,登記記録の閉鎖等,0,2022-06-20,2022-06-15,有限会社シーオーワールド,,有限会社,東京都,江戸川区,北小岩６丁目８番２号,,13,123,1330051,,,2022-06-15,清算の結了等,,,2015-10-05,1,,,,,シーオーワールド,0
2137,8012401013365,登記記録の閉鎖等,0,2022-06-20,2022-06-15,株式会社カシワ,,株式会社,東京都,武蔵野市,吉祥寺南町１丁目３０番９号,,13,203,1800003,,,2022-06-15,清算の結了等,,,2015-10-05,1,,,,,カシワ,0
2139,8012701001805,登記記録の閉鎖等,0,2022-06-20,2022-06-15,株式会社フジ電子工業,,株式会社,東京都,東村山市,美住町１丁目１０番地４５,,13,213,1890023,,,2022-06-15,清算の結了等,,,2015-10-05,1,,,,,フジデンシコウギョウ,0
2166,8030002010788,登記記録の閉鎖等,0,2022-06-20,2022-06-10,有限会社バンナイ電機製作所,,有限会社,埼玉県,さいたま市南区,内谷５丁目１６番１６号,,11,108,3360034,,,2022-06-10,清算の結了等,,,2015-10-05,1,,,,,バンナイデンキセイサクショ,0
2168,8030002111917,登記記録の閉鎖等,0,2022-06-20,2022-06-10,有限会社三功工業,,有限会社,埼玉県,川口市,大字木曽呂９３９番地の２８,,11,203,3330831,,,2022-06-10,清算の結了等,,,2015-10-05,1,,,,,,0
2185,8050001022015,登記記録の閉鎖等,0,2022-06-20,2022-06-10,江川工業株式会社,,株式会社,茨城県,鉾田市,江川２６１番地,,08,234,3112114,,,2022-06-10,清算の結了等,,,2015-10-05,1,,,,,エガワコウギョウ,0
2187,8050001048662,登記記録の閉鎖等,0,2022-06-20,2022-06-14,株式会社ＯｃｅａｎＭａｐ,,株式会社,茨城県,つくば市,吾妻１丁目１５－１－２０５,,08,220,3050031,,,2022-06-14,合併による解散等,9011101077265,令和４年６月１日東京都渋谷区渋谷２－１４－６第２かわなビル７Ｆ株式会社ＦＲＥＥＤｉＶＥ（9011101077265）に合併し解散,2021-01-28,1,,,,,オーシャンマップ,0
2192,8070001003789,登記記録の閉鎖等,0,2022-06-20,2022-06-13,株式会社ウォーター・エクセレンス・インターナショナル,,株式会社,群馬県,前橋市,大渡町１丁目２３番地１３,,10,201,3710854,,,2022-06-13,清算の結了等,,,2015-10-05,1,,,,,ウォーターエクセレンスインターナショナル,0
2204,8080401011440,登記記録の閉鎖等,0,2022-06-20,2022-06-16,株式会社チャレンジ,,株式会社,静岡県,浜松市中区,西浅田１丁目９番３１号浜西産業ビル,,22,131,4328045,,,2022-06-16,清算の結了等,,,2015-10-05,1,,,,,,0
2212,8110002004435,登記記録の閉鎖等,0,2022-06-20,2022-06-13,有限会社トキヤファーマシー,,有限会社,新潟県,新潟市東区,上木戸５丁目７番２７号,,15,102,9500891,,,2022-06-13,清算の結了等,,,2015-10-05,1,,,,,トキヤファーマシー,0
2217,8120001162290,登記記録の閉鎖等,0,2022-06-20,2022-06-16,株式会社セレイブマネジメント,,株式会社,大阪府,大阪市淀川区,西中島６丁目１１番２５号第１０新大阪ビル２階,,27,123,5320011,,,2022-06-16,合併による解散等,4140001098306,令和４年６月１日兵庫県西宮市雲井町９番９号株式会社Ｔ’ｓ　Ｃｏｎｓｕｌｔｉｎｇ（4140001098306）に合併し解散,2015-10-05,1,,,,,,0
2228,8120101027633,登記記録の閉鎖等,0,2022-06-20,2022-06-17,ライフアート住販株式会社,,株式会社,大阪府,松原市,天美南５丁目１６番９号,,27,217,5800033,,,2022-06-17,清算の結了等,,,2015-10-05,1,,,,,ライフアートジュウハン,0
2231,8120901016851,登記記録の閉鎖等,0,2022-06-20,2022-06-16,ライフサポート２４株式会社,,株式会社,大阪府,吹田市,千里丘北１番２４－１１０５号,,27,205,5650815,,,2022-06-16,清算の結了等,,,2015-10-05,1,,,,,ライフサポートトゥエンティフォー,0
2234,8122002015493,登記記録の閉鎖等,0,2022-06-20,2022-06-13,有限会社ナーベル,,有限会社,大阪府,柏原市,大正３丁目１番３号,,27,221,5820009,,,2022-06-13,清算の結了等,,,2015-10-05,1,,,,,ナーベル,0
2240,8130001056120,登記記録の閉鎖等,0,2022-06-20,2022-06-15,株式会社京都みつわ,,株式会社,京都府,京都市下京区,高倉仏光寺下ル新開町３９７番地の１５,,26,106,6000000,,,2022-06-15,清算の結了等,,,2015-10-05,1,,,,,,0
2249,8140001057142,登記記録の閉鎖等,0,2022-06-20,2022-06-10,駒谷珈琲株式会社,,株式会社,兵庫県,豊岡市,九日市下町１２２番地,,28,209,6680052,,,2022-06-10,清算の結了等,,,2015-10-05,1,,,,,コマヤコーヒー,0
2262,8140002031195,登記記録の閉鎖等,0,2022-06-20,2022-06-13,有限会社平和自動車工業,,有限会社,兵庫県,三木市,福井３丁目４番８号,,28,215,6730433,,,2022-06-13,清算の結了等,,,2015-10-05,1,,,,,ヘイワジドウシャコウギョウ,0
2274,8150005008727,登記記録の閉鎖等,0,2022-06-20,2022-06-08,一般社団法人ＴＦＣ,,その他の設立登記法人,奈良県,橿原市,新賀町５２６番地グランヴェルビュ大和八木６２７号,,29,205,6340006,,,2022-06-08,清算の結了等,,,2016-05-25,1,,,,,ティーエフシー,0
2276,8160001011675,登記記録の閉鎖等,0,2022-06-20,2022-06-13,ジャパンドリーム株式会社,,株式会社,滋賀県,蒲生郡竜王町,大字鏡１９２５番地３９,,25,384,5202573,,,2022-06-13,清算の結了等,,,2015-10-05,1,,,,,ジャパンドリーム,0
2287,8180002023057,登記記録の閉鎖等,0,2022-06-20,2022-06-14,有限会社かぼちゃ,,有限会社,愛知県,名古屋市中区,丸の内３丁目６番４１号,,23,106,4600002,,,2022-06-14,清算の結了等,,,2015-10-05,1,,,,,カボチャ,0
2288,8180002062988,登記記録の閉鎖等,0,2022-06-20,2022-06-15,有限会社庄野,,有限会社,愛知県,名古屋市緑区,篭山２丁目１２１６番地,,23,114,4580007,,,2022-06-15,清算の結了等,,,2015-10-05,1,,,,,ショウノ,0
2289,8180002078794,登記記録の閉鎖等,0,2022-06-20,2022-06-15,有限会社ビーネット,,有限会社,愛知県,一宮市,公園通６丁目２７番地,,23,203,4910842,,,2022-06-15,清算の結了等,,,2015-10-05,1,,,,,ビーネット,0
2290,8180003018816,登記記録の閉鎖等,0,2022-06-20,2022-06-15,合同会社ドルフィンｋｋ,,合同会社,愛知県,清須市,阿原神門１６５番地Ｙ．Ｓハウス星の宮１０２号,,23,233,4520901,,,2022-06-15,清算の結了等,,,2018-04-04,1,,,,,ドルフィンケイケイ,0
2303,8240001029957,登記記録の閉鎖等,0,2022-06-20,2022-06-15,株式会社枝広商店,,株式会社,広島県,福山市,三吉町南１丁目３番２１号,,34,207,7200032,,,2022-06-15,清算の結了等,,,2015-10-05,1,,,,,エダヒロショウテン,0
2358,8390002009679,登記記録の閉鎖等,0,2022-06-20,2022-06-13,有限会社八葉興産,,有限会社,山形県,鶴岡市,大淀川字洞合５番地の２,,06,203,9970854,,,2022-06-13,清算の結了等,,,2015-10-05,1,,,,,ハチヨウコウサン,0
2364,8430001060793,登記記録の閉鎖等,0,2022-06-20,2022-06-15,株式会社道建,,株式会社,北海道,登別市,中央町２丁目２０番地２１,,01,230,0590012,,,2022-06-15,清算の結了等,,,2015-10-05,1,,,,,ドウケン,0
2387,9010002052014,登記記録の閉鎖等,0,2022-06-20,2022-06-06,有限会社葉ざくら,,有限会社,東京都,渋谷区,大山町４０番５号,,13,113,1510065,,,2022-06-06,清算の結了等,,,2015-10-05,1,,,,,ハザクラ,0
2402,9010405018058,登記記録の閉鎖等,0,2022-06-20,2022-06-02,ドリーホールディング１一般社団法人,,その他の設立登記法人,東京都,港区,虎ノ門３丁目２２番１０－２０１号,,13,103,1050001,,,2022-06-02,清算の結了等,,,2019-09-06,1,,,,,ドリーホールディングワン,0
2411,9010902010161,登記記録の閉鎖等,0,2022-06-20,2022-06-13,有限会社データ・ギア,,有限会社,東京都,世田谷区,代沢１丁目３１番２１号,,13,112,1550032,,,2022-06-13,清算の結了等,,,2015-10-05,1,,,,,データギア,0
2469,9020005004762,登記記録の閉鎖等,0,2022-06-20,2022-06-13,特定非営利活動法人中高齢支援会,,その他の設立登記法人,神奈川県,横浜市鶴見区,獅子ケ谷２丁目１５番１号,,14,101,2300073,,,2022-06-13,清算の結了等,,,2015-10-05,1,,,,,チュウコウレイシエンカイ,0
2475,9030001053746,登記記録の閉鎖等,0,2022-06-20,2022-06-10,株式会社アルファ企画,,株式会社,埼玉県,さいたま市岩槻区,大字加倉７７２３番地１,,11,110,3390056,,,2022-06-10,清算の結了等,,,2015-10-05,1,,,,,アルファキカク,0
2492,9050001023870,登記記録の閉鎖等,0,2022-06-20,2022-06-10,株式会社富士製作所,,株式会社,茨城県,日立市,東滑川町１丁目１番５号,,08,202,3170052,,,2022-06-10,清算の結了等,,,2015-10-05,1,,,,,フジセイサクショ,0
2505,9080405007153,登記記録の閉鎖等,0,2022-06-20,2022-06-13,一般社団法人ＮｅｗｓＴｏｃｋ協議会,,その他の設立登記法人,静岡県,浜松市東区,積志町５０１番地グリュック１０１,,22,132,4313114,,,2022-06-13,清算の結了等,,,2019-04-19,1,,,,,ニューストックキョウギカイ,0
2535,9120901007577,登記記録の閉鎖等,0,2022-06-20,2022-06-14,株式会社トライグループ,,株式会社,大阪府,大阪市中央区,南本町３丁目６番１４号,,27,128,5410054,,,2022-06-14,合併による解散等,3010001220964,令和４年６月１日東京都千代田区霞が関三丁目２番５号株式会社トライグループ（3010001220964）に合併し解散,2015-10-05,1,,,,,トライグループ,0
2549,9140001032342,登記記録の閉鎖等,0,2022-06-20,2022-06-13,株式会社クロス・ロード,,株式会社,兵庫県,神戸市灘区,大石東町１丁目３番９号,,28,102,6570043,,,2022-06-13,清算の結了等,,,2015-10-05,1,,,,,クロスロード,0
2551,9140001087592,登記記録の閉鎖等,0,2022-06-20,2022-06-13,株式会社アシストケアサービス,,株式会社,兵庫県,姫路市,広畑区東新町１丁目３８番地３,,28,201,6711121,,,2022-06-13,清算の結了等,,,2015-10-05,1,,,,,アシストケアサービス,0
2556,9140001107243,登記記録の閉鎖等,0,2022-06-20,2022-06-13,宮崎不動産株式会社,,株式会社,兵庫県,加西市,豊倉町１２６１番地の７２,,28,220,6790106,,,2022-06-13,清算の結了等,,,2017-08-14,1,,,,,ミヤザキフドウサン,0
2557,9140001113209,登記記録の閉鎖等,0,2022-06-20,2022-06-10,株式会社ミリイウェイ,,株式会社,兵庫県,明石市,松が丘４丁目３番５号,,28,203,6730862,,,2022-06-10,清算の結了等,,,2019-04-09,1,,,,,ミリイウェイ,0
2570,9180002004147,登記記録の閉鎖等,0,2022-06-20,2022-06-16,コスモエンジニアリング有限会社,,有限会社,愛知県,名古屋市千種区,稲舟通１丁目７番地,,23,101,4640824,,,2022-06-16,清算の結了等,,,2015-10-05,1,,,,,コスモエンジニアリング,0
2573,9180002037477,登記記録の閉鎖等,0,2022-06-20,2022-06-14,有限会社渡辺化工機,,有限会社,愛知県,名古屋市瑞穂区,惣作町２丁目２０番地の１,,23,108,4670831,,,2022-06-14,清算の結了等,,,2015-10-05,1,,,,,ワタナベカコウキ,0
2576,9180302004276,登記記録の閉鎖等,0,2022-06-20,2022-06-09,有限会社サワダ測量事務所,,有限会社,愛知県,岡崎市,小針町字城跡８８番地,,23,202,4440907,,,2022-06-09,清算の結了等,,,2015-10-05,1,,,,,サワダソクリョウジムショ,0
2586,9220001004589,登記記録の閉鎖等,0,2022-06-20,2022-06-15,トーワセイゲン株式会社,,株式会社,石川県,白山市,藤波２丁目５番地１２,,17,210,9240831,,,2022-06-15,清算の結了等,,,2015-10-05,1,,,,,トーワセイゲン,0
2588,9230001015271,登記記録の閉鎖等,0,2022-06-20,2022-06-13,アイデアプラス株式会社,,株式会社,神奈川県,三浦市,三崎５丁目１２番３号ＴＨＥＯＣＥＡＮＶＩＥＷ４０２,,14,210,2380243,,,2022-06-13,清算の結了等,,,2015-10-05,1,,,,,アイデアプラス,0
2602,9290003001289,削除,,2022-06-20,,,,,,,,,,,,,,,,,,,,,,,,,
2603,9290005011006,登記記録の閉鎖等,0,2022-06-20,2022-06-14,特定非営利活動法人福岡コアラ,,その他の設立登記法人,福岡県,福岡市西区,今宿東１丁目１６番１７－５０１号,,40,135,8190161,,,2022-06-14,清算の結了等,,,2015-10-05,1,,,,,フクオカコアラ,0
2607,9300001001198,登記記録の閉鎖等,0,2022-06-20,2022-06-15,三洋工業株式会社,,株式会社,佐賀県,佐賀市,川副町大字南里４０７番地の１,,41,201,8402205,,,2022-06-15,清算の結了等,,,2015-10-05,1,,,,,サンヨウコウギョウ,0
2616,9350002006431,登記記録の閉鎖等,0,2022-06-20,2022-06-15,有限会社ティケイライン,,有限会社,宮崎県,宮崎市,大字芳士５６６番地２,,45,201,8800123,,,2022-06-15,清算の結了等,,,2015-10-05,1,,,,,ティケイライン,0
2621,9370001021248,登記記録の閉鎖等,0,2022-06-20,2022-06-10,株式会社Ｂ．Ｏ．Ａコーポレーション,,株式会社,宮城県,仙台市太白区,八木山本町１丁目３４番地の４,,04,104,9820801,,,2022-06-10,清算の結了等,,,2015-10-05,1,,,,,ビーオーエーコーポレーション,0
2630,9380002003384,登記記録の閉鎖等,0,2022-06-20,2022-06-10,有限会社ポニー産業,,有限会社,福島県,福島市,笹谷字石田２番地の１３,,07,201,9600241,,,2022-06-10,清算の結了等,,,2015-10-05,1,,,,,ポニーサンギョウ,0
