sequenceNumber,corporateNumber,process,correct,updateDate,changeDate,name,nameImageId,kind,prefectureName,cityName,streetNumber,addressImageId,prefectureCode,cityCode,postCode,addressOutside,addressOutsideImageId,closeDate,closeCause,successorCorporateNumber,changeCause,assignmentDate,latest,enName,enPrefectureName,enCityName,enAddressOutside,furigana,hihyoji
11,1010001225511,新規,0,2022-03-30,2022-03-30,株式会社日本学習企画,,株式会社,東京都,中央区,銀座１丁目２２番１１号銀座大竹ビジデンス２階,,13,102,1040061,,,,,,,2022-03-30,1,,,,,ニホンガクシュウキカク,0
20,1010401166413,新規,0,2022-03-30,2022-03-30,株式会社白井ＢＮセンター,,株式会社,東京都,港区,虎ノ門１丁目１３番１号,,13,103,1050001,,,,,,,2022-03-30,1,,,,,シロイビーエヌセンター,0
21,1010403027373,新規,0,2022-03-30,2022-03-30,合同会社タイガーパートナーズ,,合同会社,東京都,港区,虎ノ門３丁目１４－１,,13,103,1050001,,,,,,,2022-03-30,1,,,,,タイガーパートナーズ,0
36,1011001146490,新規,0,2022-03-30,2022-03-30,株式会社ウノザワ,,株式会社,東京都,渋谷区,恵比寿１丁目１９番１５号,,13,113,1500013,,,,,,,2022-03-30,1,,,,,ウノザワ,0
37,1011001146549,新規,0,2022-03-30,2022-03-30,株式会社ＣｙＭｅｄ,,株式会社,東京都,渋谷区,代官山町１３－８－５０４,,13,113,1500034,,,,,,,2022-03-30,1,,,,,サイメド,0
41,1011005009512,新規,0,2022-03-30,2022-03-30,一般財団法人多文化相互支援国際協会,,その他の設立登記法人,東京都,目黒区,祐天寺１丁目１９番１１号,,13,110,1530052,,,,,,,2022-03-30,1,,,,,タブンカソウゴシエンコクサイキョウカイ,0
43,1011101098327,新規,0,2022-03-30,2022-03-30,ケアデザイン株式会社,,株式会社,東京都,新宿区,西新宿３丁目１４番２０号ヴィラ西新宿３０２号室,,13,104,1600023,,,,,,,2022-03-30,1,,,,,ケアデザイン,0
45,1011103011618,新規,0,2022-03-30,2022-03-30,合同会社Ｌｅｎｉｔｙ,,合同会社,東京都,新宿区,北新宿１丁目１７番１－４０４号,,13,104,1690074,,,,,,,2022-03-30,1,,,,,レニティー,0
54,1011501027876,新規,0,2022-03-30,2022-03-30,Ｎｏｕｇｅｉ　Ｉｎｃ．農芸株式会社,,株式会社,東京都,北区,浮間１丁目７－２３兆豊浮間ビル５０３号室,,13,117,1150051,,,,,,,2022-03-30,1,,,,,ノウゲイインクノウゲイ,0
64,1012801021478,新規,0,2022-03-30,2022-03-30,株式会社ＢＴＨ,,株式会社,東京都,国分寺市,東恋ヶ窪６丁目２２番地１０,,13,214,1850014,,,,,,,2022-03-30,1,,,,,ビーティーエイチ,0
79,1020001145808,新規,0,2022-03-30,2022-03-30,株式会社ＬｉｎｋＬａｂｏ,,株式会社,神奈川県,川崎市宮前区,土橋６丁目１４番地８－７１３,,14,136,2160005,,,,,,,2022-03-30,1,,,,,リンクラボ,0
80,1020001145849,新規,0,2022-03-30,2022-03-30,Ｎａｔｉｏｎｓ　Ｉｎｎｏｖａｔｉｏｎ　Ｔｅｃｈｎｏｌｏｇｉｅｓ　Ｊａｐａｎ株式会社,,株式会社,神奈川県,横浜市鶴見区,北寺尾４丁目１６番３－１号,,14,101,2300074,,,,,,,2022-03-30,1,,,,,ネイションズイノベーションテクノロジーズジャパン,0
83,1020005015453,新規,0,2022-03-30,2022-03-30,一般社団法人ちょっとヨットマリーナビーチ協会,,その他の設立登記法人,神奈川県,横浜市中区,新山下１丁目５番１３号,,14,104,2310801,,,,,,,2022-03-30,1,,,,,,0
86,1021001075540,新規,0,2022-03-30,2022-03-30,アルゴノーツＨＲコンサルティング株式会社,,株式会社,神奈川県,相模原市中央区,淵野辺本町３丁目１８番１６－１号,,14,152,2520202,,,,,,,2022-03-30,1,,,,,アルゴノーツエイチアールコンサルティング,0
93,1030001147415,新規,0,2022-03-30,2022-03-30,株式会社ＩＮＬＡＹ,,株式会社,埼玉県,川口市,鳩ヶ谷本町２丁目８番９号,,11,203,3340002,,,,,,,2022-03-30,1,,,,,インレイ,0
94,1030001147456,新規,0,2022-03-30,2022-03-30,大成産業株式会社,,株式会社,埼玉県,草加市,谷塚２丁目２３－１１リバーサイドハイツ１０３,,11,221,3400028,,,,,,,2022-03-30,1,,,,,ダイセイサンギョウ,0
95,1030001147464,新規,0,2022-03-30,2022-03-30,株式会社盛家,,株式会社,埼玉県,八潮市,大字南川崎３４４,,11,234,3400814,,,,,,,2022-03-30,1,,,,,セイカ,0
99,1030003019034,新規,0,2022-03-30,2022-03-30,合同会社わかみや福祉,,合同会社,埼玉県,川越市,的場１丁目２２番地１８,,11,201,3501101,,,,,,,2022-03-30,1,,,,,ワカミヤフクシ,0
100,1030003019109,新規,0,2022-03-30,2022-03-30,ＡＲＳＨ　ＩＮＴＥＲＮＡＴＩＯＮＡＬ合同会社,,合同会社,埼玉県,八潮市,大字鶴ケ曽根８２７番地６幸福荘２０２,,11,234,3400802,,,,,,,2022-03-30,1,,,,,アルシュインターナショナル,0
106,1040001122763,新規,0,2022-03-30,2022-03-30,ＹＯＵＲ’ｓ株式会社,,株式会社,千葉県,千葉市中央区,中央３丁目１８番３号７階,,12,101,2600013,,,,,,,2022-03-30,1,,,,,ユアーズ,0
107,1040001122771,新規,0,2022-03-30,2022-03-30,株式会社もん,,株式会社,千葉県,柏市,根戸１２２１番地１４,,12,217,2770831,,,,,,,2022-03-30,1,,,,,モン,0
108,1040003019735,新規,0,2022-03-30,2022-03-30,合同会社かなまる,,合同会社,千葉県,市川市,北方１丁目１２番８－１０２号メゾン北方一番館,,12,203,2720815,,,,,,,2022-03-30,1,,,,,カナマル,0
116,1060003004000,新規,0,2022-03-30,2022-03-30,合同会社伊藤商事,,合同会社,栃木県,那須塩原市,接骨木５２０番地１２,,09,213,3292807,,,,,,,2022-03-30,1,,,,,イトウショウジ,0
117,1080001024832,新規,0,2022-03-30,2022-03-30,株式会社Ｓｐｅｃｉａｌｅ,,株式会社,静岡県,藤枝市,高洲５５番地の１,,22,214,4260046,,,,,,,2022-03-30,1,,,,,スペチアーレ,0
122,1080403004498,新規,0,2022-03-30,2022-03-30,ＣＡＩ　ｈａｍａｍａｔｓｕ合同会社,,合同会社,静岡県,浜松市中区,葵西２丁目１１番２７号,,22,131,4338111,,,,,,,2022-03-30,1,,,,,シーエーアイハママツ,0
126,1100003006479,新規,0,2022-03-30,2022-03-30,合同会社フルールドモンクール,,合同会社,長野県,松本市,中央３丁目６番１５号,,20,202,3900811,,,,,,,2022-03-30,1,,,,,フルールドモンクール,0
129,1110001036527,新規,0,2022-03-30,2022-03-30,株式会社氣,,株式会社,新潟県,新潟市西区,小新２０２５番地２,,15,107,9502023,,,,,,,2022-03-30,1,,,,,イキ,0
137,1120001244764,新規,0,2022-03-30,2022-03-30,株式会社鰻商,,株式会社,大阪府,大阪市東住吉区,今林２丁目１３－２６,,27,121,5460001,,,,,,,2022-03-30,1,,,,,ウナショウ,0
140,1120003021369,新規,0,2022-03-30,2022-03-30,合同会社アシスト,,合同会社,大阪府,交野市,私市３丁目９－１－２０５,,27,230,5760033,,,,,,,2022-03-30,1,,,,,アシスト,0
141,1120003021377,新規,0,2022-03-30,2022-03-30,合同会社ＴＴＣ,,合同会社,大阪府,大阪市西区,西本町３丁目１番４６号奥内第５ビル６０８号,,27,106,5500005,,,,,,,2022-03-30,1,,,,,ティティシィ,0
144,1120101065292,新規,0,2022-03-30,2022-03-30,内海グローバル株式会社,,株式会社,大阪府,富田林市,喜志町３丁目７番２４－３０１号,,27,214,5840005,,,,,,,2022-03-30,1,,,,,ウツミグローバル,0
147,1120905006302,新規,0,2022-03-30,2022-03-30,ＮＰＯ法人公共こども催事機構,,その他の設立登記法人,大阪府,吹田市,広芝町４番３４号江坂第一ビル２Ｆ,,27,205,5640052,,,,,,,2022-03-30,1,,,,,コウキョウコドモサイジキコウ,0
152,1130001071431,新規,0,2022-03-30,2022-03-30,株式会社ＬＤＲ,,株式会社,京都府,京都市伏見区,深草関屋敷町２８番地２,,26,109,6120037,,,,,,,2022-03-30,1,,,,,エルディーアール,0
166,1180001150577,新規,0,2022-03-30,2022-03-30,株式会社ＡＣＴＩＯＮ,,株式会社,愛知県,名古屋市西区,枇杷島５丁目２５番６号,,23,104,4510053,,,,,,,2022-03-30,1,,,,,アクション,0
167,1180001150585,新規,0,2022-03-30,2022-03-30,株式会社エスエーアイ,,株式会社,愛知県,名古屋市中区,栄２丁目２番地１号広小路伏見中駒ビル２Ｆ－９,,23,106,4600008,,,,,,,2022-03-30,1,,,,,エスエーアイ,0
174,1230001019288,新規,0,2022-03-30,2022-03-30,株式会社ＧＥＪＯ,,株式会社,富山県,富山市,東岩瀬町１８０番地,,16,201,9318358,,,,,,,2022-03-30,1,,,,,ゲジョウ,0
183,1260001036677,新規,0,2022-03-30,2022-03-30,令和産業株式会社,,株式会社,岡山県,岡山市北区,伊島町３丁目７番２４号（２０１）,,33,101,7000016,,,,,,,2022-03-30,1,,,,,レイワサンギョウ,0
184,1270005005504,新規,0,2022-03-30,2022-03-30,特定非営利活動法人ピアサポートつむぎ,,その他の設立登記法人,鳥取県,倉吉市,小田７９番地１５,,31,203,6820044,,,,,,,2022-03-30,1,,,,,ピアサポートツムギ,0
193,1290003012302,新規,0,2022-03-30,2022-03-30,合同会社穂高不動産ファンド,,合同会社,福岡県,福岡市博多区,博多駅前３丁目４番２５号アクロスキューブ博多駅前,,40,132,8120011,,,,,,,2022-03-30,1,,,,,ホダカフドウサンファンド,0
195,1290805009537,新規,0,2022-03-30,2022-03-30,一般社団法人日本ピラティス＆コンディショニング協会,,その他の設立登記法人,福岡県,北九州市小倉北区,大手町３番１－２０８号,,40,106,8030814,,,,,,,2022-03-30,1,,,,,ニホンピラティスアンドコンディショニングキョウカイ,0
204,1320005009978,新規,0,2022-03-30,2022-03-30,一般社団法人アポロン総合教育センター,,その他の設立登記法人,大分県,中津市,大字下宮永１１１番地２１,,44,203,8710029,,,,,,,2022-03-30,1,,,,,アポロンソウゴウキョウイクセンター,0
210,1340001024599,新規,0,2022-03-30,2022-03-30,寺田株式会社,,株式会社,鹿児島県,肝属郡南大隅町,根占川北１７１４－２．２階,,46,491,8932501,,,,,,,2022-03-30,1,,,,,テラダ,0
214,1350001017651,新規,0,2022-03-30,2022-03-30,株式会社越智産業,,株式会社,宮崎県,宮崎市,高岡町小山田９０７番地,,45,201,8802214,,,,,,,2022-03-30,1,,,,,オチサンギョウ,0
215,1360005006617,新規,0,2022-03-30,2022-03-30,一般社団法人ＯｃｅａｎＬｉｆｅ協会,,その他の設立登記法人,沖縄県,うるま市,字州崎１４－７沖縄ＩＴ津梁パークアジアＩＴ研修センターユーマーク株式会社内,,47,213,9042234,,,,,,,2022-03-30,1,,,,,オーシャンライフキョウカイ,0
231,1440001009053,新規,0,2022-03-30,2022-03-30,株式会社ＭＩＹＡＢＩ,,株式会社,北海道,寿都郡寿都町,字六条町１６９番地１,,01,392,0480411,,,,,,,2022-03-30,1,,,,,ミヤビ,0
238,1470001019017,新規,0,2022-03-30,2022-03-30,株式会社宇多津不動産,,株式会社,香川県,綾歌郡宇多津町,浜八番丁１３３番地５,,37,386,7690208,,,,,,,2022-03-30,1,,,,,ウタヅフドウサン,0
239,1490002013413,新規,0,2022-03-30,2022-03-30,有限会社山岡ブロック建材,,有限会社,高知県,香南市,野市町東野９９５番地,,39,211,7815213,,,,,,,2022-03-30,1,,,,,,0
241,1500003002801,新規,0,2022-03-30,2022-03-30,Ｐｅｄｒｏ‐７８合同会社,,合同会社,愛媛県,松山市,来住町１２６７番地２,,38,201,7911102,,,,,,,2022-03-30,1,,,,,ペドロノナヤ,0
244,1700150107556,新規,0,2022-03-30,2022-03-30,Ｍｏｏｎ　Ａｃｔｉｖｅ　Ｌｔｄ．,,外国会社等,,,,,,,,Ｍｉｋｖｅｈ　Ｉｓｒａｅｌ　７，　ＰＯ　Ｂｏｘ　６２７，　Ｔｅｌ　Ａｖｉｖ，　Ｉｓｒａｅｌ,,,,,,2022-03-30,1,,,,,ムーンアクテイブリミテツド,0
250,2010001225394,新規,0,2022-03-30,2022-03-30,株式会社きたむら,,株式会社,東京都,中央区,銀座７丁目７番１４号博栄ビル３階,,13,102,1040061,,,,,,,2022-03-30,1,,,,,キタムラ,0
251,2010001225510,新規,0,2022-03-30,2022-03-30,株式会社Ｌｉｂｅｒｔｙ　Ｆｉｅｌｄｓ,,株式会社,東京都,中央区,勝どき３丁目４番１８－３０４（アペニンハイム）,,13,102,1040054,,,,,,,2022-03-30,1,,,,,リバティーフィールズ,0
252,2010003037367,新規,0,2022-03-30,2022-03-30,Ａ．Ｔ．カウンセラーズ合同会社,,合同会社,東京都,千代田区,神田富山町７,,13,101,1010043,,,,,,,2022-03-30,1,,,,,エーティーカウンセラーズ,0
260,2010401166420,新規,0,2022-03-30,2022-03-30,株式会社Ｏｖｅｎｕｓ,,株式会社,東京都,港区,浜松町２丁目２番１５号浜松町ダイヤビル２Ｆ,,13,103,1050013,,,,,,,2022-03-30,1,,,,,オビナス,0
268,2010503006549,新規,0,2022-03-30,2022-03-30,鶯谷ハニープロ合同会社,,合同会社,東京都,台東区,下谷１丁目１１番１５号,,13,106,1100004,,,,,,,2022-03-30,1,,,,,ウグイスダニハニープロ,0
277,2011001146597,新規,0,2022-03-30,2022-03-30,株式会社ｊＳＭ,,株式会社,東京都,渋谷区,代々木３丁目２９番３号メゾン四季１Ｆ,,13,113,1510053,,,,,,,2022-03-30,1,,,,,ジェイエスエム,0
286,2011101098326,新規,0,2022-03-30,2022-03-30,株式会社経営ＮＡＶＩ新宿,,株式会社,東京都,新宿区,西新宿７丁目２２－３ＢＰビル,,13,104,1600023,,,,,,,2022-03-30,1,,,,,ケイエイナビシンジュク,0
293,2011501027883,新規,0,2022-03-30,2022-03-30,株式会社ビッグナゲット,,株式会社,東京都,北区,田端新町１丁目１２番７号,,13,117,1140012,,,,,,,2022-03-30,1,,,,,ビッグナゲット,0
296,2011601025829,新規,0,2022-03-30,2022-03-30,株式会社みつ星,,株式会社,東京都,練馬区,関町北３丁目４２番８号,,13,120,1770051,,,,,,,2022-03-30,1,,,,,ミツホシ,0
303,2012401039011,新規,0,2022-03-30,2022-03-30,ＷＩＩｓ株式会社,,株式会社,東京都,府中市,北山町２丁目１０番地の１６,,13,206,1830041,,,,,,,2022-03-30,1,,,,,ウィッス,0
308,2013303006099,新規,0,2022-03-30,2022-03-30,合同会社ねいん,,合同会社,東京都,豊島区,西池袋４丁目２８－７パインＢ１０１,,13,116,1710021,,,,,,,2022-03-30,1,,,,,ネイン,0
314,2020001145831,新規,0,2022-03-30,2022-03-30,株式会社ＫＡＮＡＺＡＷＡ,,株式会社,神奈川県,横浜市南区,永田東２丁目３８番１８－４１３号,,14,105,2320072,,,,,,,2022-03-30,1,,,,,カナザワ,0
315,2020003021510,新規,0,2022-03-30,2022-03-30,三橋商事合同会社,,合同会社,神奈川県,横浜市磯子区,上町８番８号,,14,107,2350001,,,,,,,2022-03-30,1,,,,,ミツハシショウジ,0
317,2020005015444,新規,0,2022-03-30,2022-03-30,医療法人智心会,,その他の設立登記法人,神奈川県,川崎市幸区,南加瀬２丁目６番８号南加瀬メディカルモール２階,,14,132,2120055,,,,,,,2022-03-30,1,,,,,チシンカイ,0
323,2030001147463,新規,0,2022-03-30,2022-03-30,株式会社ハッピーケバブ,,株式会社,埼玉県,川口市,芝新町７－９アドバンスＶ１０１,,11,203,3330851,,,,,,,2022-03-30,1,,,,,ハッピーケバブ,0
328,2030003019116,新規,0,2022-03-30,2022-03-30,至上合同会社,,合同会社,埼玉県,川口市,並木２丁目６－９,,11,203,3320034,,,,,,,2022-03-30,1,,,,,シジョウ,0
336,2040001122754,新規,0,2022-03-30,2022-03-30,瓏園ジャパン株式会社,,株式会社,千葉県,印旛郡酒々井町,ふじき野１丁目６番地１０,,12,322,2850928,,,,,,,2022-03-30,1,,,,,リュウエンジャパン,0
337,2040001122762,新規,0,2022-03-30,2022-03-30,株式会社江沢建設,,株式会社,千葉県,浦安市,富士見３丁目１３番１３号,,12,227,2790043,,,,,,,2022-03-30,1,,,,,エザワケンセツ,0
338,2040001122787,新規,0,2022-03-30,2022-03-30,篠崎商店株式会社,00126103,株式会社,千葉県,茂原市,上茂原２２０番地１６,,12,210,2970052,,,,,,,2022-03-30,1,,,,,シノザキショウテン,0
339,2040001122795,新規,0,2022-03-30,2022-03-30,株式会社ＳＨＥＥＤ,,株式会社,千葉県,市原市,ちはら台西２丁目５番地１７,,12,219,2900143,,,,,,,2022-03-30,1,,,,,シード,0
341,2040005021556,新規,0,2022-03-30,2022-03-30,一般社団法人公民共創サードプレイス推進機構,,その他の設立登記法人,千葉県,松戸市,古ケ崎２丁目３２２９番地の９,,12,207,2710068,,,,,,,2022-03-30,1,,,,,コウミンキョウソウサードプレイススイシンキコウ,0
344,2050001050863,新規,0,2022-03-30,2022-03-30,株式会社Ｎｉｎｅ,,株式会社,茨城県,北相馬郡利根町,四季の丘２丁目１７番地２,,08,564,3001626,,,,,,,2022-03-30,1,,,,,ナイン,0
348,2060001034691,新規,0,2022-03-30,2022-03-30,株式会社ＰＡＲＡＬＥ,,株式会社,栃木県,小山市,大字下国府塚７４３番地,,09,208,3230065,,,,,,,2022-03-30,1,,,,,パラーレ,0
349,2060001034700,新規,0,2022-03-30,2022-03-30,株式会社ＫＭＦＣ,,株式会社,栃木県,佐野市,若宮下町９番地１４,,09,204,3270834,,,,,,,2022-03-30,1,,,,,ケイエムエフシー,0
371,2120003021368,新規,0,2022-03-30,2022-03-30,ランスラップ合同会社,,合同会社,大阪府,枚方市,藤阪天神町２０番１号,,27,210,5730155,,,,,,,2022-03-30,1,,,,,ランスラップ,0
372,2120003021376,新規,0,2022-03-30,2022-03-30,ＮＧＴ合同会社,,合同会社,大阪府,大阪市浪速区,元町３丁目１番２０号,,27,111,5560016,,,,,,,2022-03-30,1,,,,,エヌジーティー,0
380,2120901045749,新規,0,2022-03-30,2022-03-30,株式会社ＳＩＥＮ,,株式会社,大阪府,豊中市,向丘１丁目６－１,,27,203,5600053,,,,,,,2022-03-30,1,,,,,シエン,0
381,2130001071430,新規,0,2022-03-30,2022-03-30,株式会社ＦＩＣ,,株式会社,京都府,京都市右京区,嵯峨折戸町２４－３２,,26,108,6168345,,,,,,,2022-03-30,1,,,,,エフアイシー,0
383,2140001125409,新規,0,2022-03-30,2022-03-30,株式会社Ｇ．Ｄパーク,,株式会社,兵庫県,神戸市中央区,加納町４丁目６番８号フィネス北野坂９階,,28,110,6500001,,,,,,,2022-03-30,1,,,,,ジーディーパーク,0
392,2180001150584,新規,0,2022-03-30,2022-03-30,中村金属株式会社,,株式会社,愛知県,小牧市,大字下末８８８番地８,,23,219,4850825,,,,,,,2022-03-30,1,,,,,ナカムラキンゾク,0
393,2180001150592,新規,0,2022-03-30,2022-03-30,株式会社Ｌｉｒｉｎｇ,,株式会社,愛知県,名古屋市守山区,菱池町５番２号ファミール菱池２０１号,,23,113,4630045,,,,,,,2022-03-30,1,,,,,リリング,0
396,2180003023656,新規,0,2022-03-30,2022-03-30,２ｎｄＬａｐ合同会社,,合同会社,愛知県,名古屋市天白区,八幡山１１０１タウン上八事５－１０３,,23,116,4680074,,,,,,,2022-03-30,1,,,,,セカンドラップ,0
398,2180302003466,新規,0,2022-03-30,2022-03-30,有限会社斉藤鉄筋,,有限会社,愛知県,額田郡幸田町,大字深溝字西折ケ谷４番地の２,,23,501,4440124,,,,,,,2022-03-30,1,,,,,サイトウテッキン,0
413,2240003005565,新規,0,2022-03-30,2022-03-30,合同会社アズキ,,合同会社,広島県,広島市佐伯区,石内北２丁目２０番１２号,,34,108,7315109,,,,,,,2022-03-30,1,,,,,アズキ,0
418,2260005011056,新規,0,2022-03-30,2022-03-30,一般社団法人ＡＬＬ　ＨＥＲＯｓ,,その他の設立登記法人,岡山県,岡山市北区,津島南１丁目７番２９－７号,,33,101,7000085,,,,,,,2022-03-30,1,,,,,オールヒーローズ,0
421,2290001096949,新規,0,2022-03-30,2022-03-30,株式会社リタポート,,株式会社,福岡県,福岡市南区,大楠２丁目５番２号,,40,134,8150082,,,,,,,2022-03-30,1,,,,,リタポート,0
422,2290001096973,新規,0,2022-03-30,2022-03-30,株式会社田口商店,,株式会社,福岡県,福岡市南区,大橋４丁目２６番５２号,,40,134,8150033,,,,,,,2022-03-30,1,,,,,タグチショウテン,0
426,2320005009977,新規,0,2022-03-30,2022-03-30,一般社団法人笑顔の輪,,その他の設立登記法人,大分県,国東市,安岐町瀬戸田４９７番地３,,44,214,8730202,,,,,,,2022-03-30,1,,,,,エガオノワ,0
427,2330001029581,新規,0,2022-03-30,2022-03-30,ｎｃテック株式会社,,株式会社,熊本県,熊本市南区,城南町島田１０１１番地１,,43,104,8614236,,,,,,,2022-03-30,1,,,,,エヌシーテック,0
446,2430001086290,新規,0,2022-03-30,2022-03-30,株式会社一直線道,,株式会社,北海道,空知郡奈井江町,字奈井江町１７１番地１０３,,01,424,0790300,,,,,,,2022-03-30,1,,,,,イッチョクセンドウ,0
450,2430003013755,新規,0,2022-03-30,2022-03-30,キズナイレヴン合同会社,,合同会社,北海道,苫小牧市,新中野町２丁目１９番８－１１４号,,01,213,0530006,,,,,,,2022-03-30,1,,,,,キズナイレヴン,0
456,2700150107555,新規,0,2022-03-30,2022-03-30,Ｃａｎｖａ　Ｐｔｙ　Ｌｔｄ,,外国会社等,,,,,,,,１１０　Ｋｉｐｐａｘ　Ｓｔ，　Ｓｕｒｒｙ　Ｈｉｌｌｓ，　ＮＳＷ　２０１０，　Ａｕｓｔｒａｌｉａ,,,,,,2022-03-30,1,,,,,キヤンバピーテイワイリミテツド,0
461,3010001225518,新規,0,2022-03-30,2022-03-30,語風株式会社,,株式会社,東京都,千代田区,岩本町１丁目１２番１１号トーア岩本町マンション２０５号室,,13,101,1010032,,,,,,,2022-03-30,1,,,,,ゴフウ,0
462,3010001225559,新規,0,2022-03-30,2022-03-30,株式会社佐導企画,,株式会社,東京都,中央区,銀座１丁目２２番１１号銀座大竹ビジデンス２階,,13,102,1040061,,,,,,,2022-03-30,1,,,,,サドウキカク,0
464,3010101015117,新規,0,2022-03-30,2022-03-30,リヴェット株式会社,,株式会社,東京都,八王子市,子安町２丁目３－１１,,13,201,1920904,,,,,,,2022-03-30,1,,,,,リヴェット,0
468,3010403027371,新規,0,2022-03-30,2022-03-30,合同会社ＰＯＳＥＩＤＯＮ,,合同会社,東京都,港区,南青山２丁目２番１５号,,13,103,1070062,,,,,,,2022-03-30,1,,,,,ポセイドン,0
469,3010405020853,新規,0,2022-03-30,2022-03-30,一般社団法人障がい者ｅスポーツ協会,,その他の設立登記法人,東京都,港区,南青山１丁目１５番２号越山ビル５階,,13,103,1070062,,,,,,,2022-03-30,1,,,,,ショウガイシャイースポーツキョウカイ,0
475,3010701015524,新規,0,2022-03-30,2022-03-30,株式会社ミネトニ,,株式会社,東京都,品川区,東大井２丁目２６番１４号,,13,109,1400011,,,,,,,2022-03-30,1,,,,,ミネトニ,0
487,3010903007261,新規,0,2022-03-30,2022-03-30,合同会社アルテミス,,合同会社,東京都,世田谷区,赤堤３丁目２２番２２号,,13,112,1560044,,,,,,,2022-03-30,1,,,,,アルテミス,0
489,3011001146596,新規,0,2022-03-30,2022-03-30,株式会社Ｍａｘｗｅｌｌ,,株式会社,東京都,渋谷区,神宮前６丁目２３番４号桑野ビル２Ｆ,,13,113,1500001,,,,,,,2022-03-30,1,,,,,マクスウェル,0
499,3011103011616,新規,0,2022-03-30,2022-03-30,ロジスティクス不動産販売合同会社,,合同会社,東京都,新宿区,四谷２丁目９番地１５東京ユナイテッド綜合事務所内,,13,104,1600004,,,,,,,2022-03-30,1,,,,,ロジスティクスフドウサンハンバイ,0
500,3011203003785,新規,0,2022-03-30,2022-03-30,合同会社ＤＳＹ,,合同会社,東京都,中野区,中野３丁目１４－８－２０２号,,13,114,1640001,,,,,,,2022-03-30,1,,,,,ディーエスワイ,0
502,3011301027678,新規,0,2022-03-30,2022-03-30,株式会社Ｕｎｉｑｕｅ,,株式会社,東京都,杉並区,阿佐谷南１丁目１４番５号第一栄ビル３０１,,13,115,1660004,,,,,,,2022-03-30,1,,,,,ユニーク,0
509,3011801040511,新規,0,2022-03-30,2022-03-30,株式会社大五郎,,株式会社,東京都,足立区,千住２丁目４９爛漫ビル３階,,13,121,1200034,,,,,,,2022-03-30,1,,,,,ダイゴロウ,0
518,3013301048860,新規,0,2022-03-30,2022-03-30,株式会社ＰＫＡ,,株式会社,東京都,豊島区,南池袋１丁目１５番１６号第二東興ビル１Ｆ,,13,116,1710022,,,,,,,2022-03-30,1,,,,,ピーケーエー,0
520,3020001145806,新規,0,2022-03-30,2022-03-30,株式会社エターナルロア,,株式会社,神奈川県,川崎市多摩区,三田１丁目１２番地５,,14,135,2140034,,,,,,,2022-03-30,1,,,,,エターナルロア,0
531,3021003011517,新規,0,2022-03-30,2022-03-30,合同会社前途洋々,,合同会社,神奈川県,小田原市,中町１丁目１番２－６０３号,,14,206,2500005,,,,,,,2022-03-30,1,,,,,ゼントヨウヨウ,0
537,3030001147446,新規,0,2022-03-30,2022-03-30,株式会社小暮広久,,株式会社,埼玉県,さいたま市南区,白幡４丁目７番５号２０４,,11,108,3360022,,,,,,,2022-03-30,1,,,,,コグレヒロヒサ,0
538,3030001147462,新規,0,2022-03-30,2022-03-30,株式会社彩光ワークス,,株式会社,埼玉県,三郷市,高州１丁目３２７番地１０,,11,237,3410037,,,,,,,2022-03-30,1,,,,,サイコーワークス,0
543,3030003019032,新規,0,2022-03-30,2022-03-30,ヒカリイノベーション合同会社,,合同会社,埼玉県,和光市,丸山台２丁目１２－６ロッソ・パステロ１Ｆ,,11,229,3510112,,,,,,,2022-03-30,1,,,,,ヒカリイノベーション,0
544,3030003019115,新規,0,2022-03-30,2022-03-30,日本三石合同会社,,合同会社,埼玉県,熊谷市,弥藤吾１６０－６三合ビル２０３号室,,11,202,3600203,,,,,,,2022-03-30,1,,,,,ニホンミツイシ,0
547,3040001122778,新規,0,2022-03-30,2022-03-30,株式会社１９Ｎａｕｇｈｔｙ,,株式会社,千葉県,船橋市,本郷町７３４番地４０３号,,12,204,2730033,,,,,,,2022-03-30,1,,,,,ナインティーンノーティー,0
549,3040003019741,新規,0,2022-03-30,2022-03-30,合同会社ＭＩＣ,,合同会社,千葉県,白井市,根１８６８－４３,,12,232,2701431,,,,,,,2022-03-30,1,,,,,エムアイシー,0
550,3040003019774,新規,0,2022-03-30,2022-03-30,合同会社つくも,,合同会社,千葉県,南房総市,府中６８６番地１０,,12,234,2940823,,,,,,,2022-03-30,1,,,,,ツクモ,0
551,3040003019782,新規,0,2022-03-30,2022-03-30,合同会社ＡＢＩＬＩＴＹ．Ｌａｂｏ,,合同会社,千葉県,浦安市,富士見３丁目１５－２０－１０３号ヴィクトワール吉善,,12,227,2790043,,,,,,,2022-03-30,1,,,,,アビリティラボ,0
554,3060001034699,新規,0,2022-03-30,2022-03-30,株式会社新未来,,株式会社,栃木県,宇都宮市,宿郷２丁目７番１６号メゾン千秀５０１,,09,201,3210945,,,,,,,2022-03-30,1,,,,,シンミライ,0
559,3070003004435,新規,0,2022-03-30,2022-03-30,合同会社彩,,合同会社,群馬県,邑楽郡大泉町,城之内５丁目２－１２,,10,524,3700518,,,,,,,2022-03-30,1,,,,,イロドリ,0
560,3080003002768,新規,0,2022-03-30,2022-03-30,合同会社松本いちご園,,合同会社,静岡県,焼津市,上新田６７０の１番地,,22,212,4210206,,,,,,,2022-03-30,1,,,,,マツモトイチゴエン,0
572,3100003006469,新規,0,2022-03-30,2022-03-30,壁優合同会社,,合同会社,長野県,松本市,筑摩４丁目５番４０号,,20,202,3900821,,,,,,,2022-03-30,1,,,,,カベユウ,0
590,3120001244696,新規,0,2022-03-30,2022-03-30,株式会社Ｋ‐ＴＥＸ,,株式会社,大阪府,大阪市淀川区,三津屋北１丁目１番２６号,,27,123,5320032,,,,,,,2022-03-30,1,,,,,ケイテックス,0
602,3122001035687,新規,0,2022-03-30,2022-03-30,株式会社西日本環境開発センター,,株式会社,大阪府,東大阪市,荒本２０５１番地,,27,227,5770023,,,,,,,2022-03-30,1,,,,,,0
603,3130001071421,新規,0,2022-03-30,2022-03-30,ミゾグイ設備株式会社,,株式会社,京都府,京都市北区,西賀茂大道口町８０番地８,,26,101,6038813,,,,,,,2022-03-30,1,,,,,ミゾグイセツビ,0
604,3130003007836,新規,0,2022-03-30,2022-03-30,ＬＡＴＲＩＢＵ合同会社,,合同会社,京都府,八幡市,八幡長田４０番地２４,,26,210,6148072,,,,,,,2022-03-30,1,,,,,ラトリブ,0
611,3140003017512,新規,0,2022-03-30,2022-03-30,アイディールロード合同会社,,合同会社,兵庫県,姫路市,飾磨区阿成渡場１２７番地１,,28,201,6728039,,,,,,,2022-03-30,1,,,,,アイディールロード,0
612,3150001025417,新規,0,2022-03-30,2022-03-30,株式会社Ｋｕｒａｓｈｉ　Ｔｅｒｒａｃｅ,,株式会社,奈良県,大和高田市,日之出東本町３－１１,,29,202,6350023,,,,,,,2022-03-30,1,,,,,クラシテラス,0
613,3150003002653,新規,0,2022-03-30,2022-03-30,合同会社アスラメディカル,,合同会社,奈良県,香芝市,良福寺４６番地１,,29,210,6390235,,,,,,,2022-03-30,1,,,,,アスラメディカル,0
623,3180001150583,新規,0,2022-03-30,2022-03-30,株式会社ＭＴ,,株式会社,愛知県,名古屋市千種区,新池町１丁目２３番地の１ザ・パークハウス東山レジデンス７１１号,,23,101,4640027,,,,,,,2022-03-30,1,,,,,エムティー,0
628,3180301036045,新規,0,2022-03-30,2022-03-30,株式会社スカーラ,,株式会社,愛知県,岡崎市,井田西町３番地４,,23,202,4440912,,,,,,,2022-03-30,1,,,,,スカーラ,0
648,3290001096972,新規,0,2022-03-30,2022-03-30,ライアンクリーンライフ株式会社,,株式会社,福岡県,糟屋郡新宮町,下府１丁目１０－１２,,40,345,8110112,,,,,,,2022-03-30,1,,,,,ライアンクリーンライフ,0
655,3290801028381,新規,0,2022-03-30,2022-03-30,株式会社メディカルク,,株式会社,福岡県,北九州市小倉南区,津田新町２丁目１２番１３号,,40,107,8000227,,,,,,,2022-03-30,1,,,,,メディカルク,0
660,3330001029580,新規,0,2022-03-30,2022-03-30,株式会社ＤｒｉｖｅＡｕｔｏ,,株式会社,熊本県,熊本市北区,龍田弓削１丁目１５－５３アイビ高杉２０３,,43,105,8618007,,,,,,,2022-03-30,1,,,,,ドライブオート,0
664,3350001017658,新規,0,2022-03-30,2022-03-30,株式会社優建設,,株式会社,宮崎県,西都市,妻町２丁目２２,,45,208,8810034,,,,,,,2022-03-30,1,,,,,ユウケンセツ,0
672,3390001016838,新規,0,2022-03-30,2022-03-30,株式会社ｂｅｆｒｉｅｎｄ,,株式会社,山形県,東根市,羽入東３番２０号,,06,211,9993779,,,,,,,2022-03-30,1,,,,,ビーフレンド,0
677,3410001013130,新規,0,2022-03-30,2022-03-30,株式会社ＡＲＥＮＤ,,株式会社,秋田県,秋田市,外旭川字三ノ堰３１５,,05,201,0100802,,,,,,,2022-03-30,1,,,,,アレンド,0
680,3430003013746,新規,0,2022-03-30,2022-03-30,合同会社堂七建業,,合同会社,北海道,江別市,東野幌本町１番地の２７,,01,217,0690824,,,,,,,2022-03-30,1,,,,,ドウシチケンギョウ,0
681,3430003013762,新規,0,2022-03-30,2022-03-30,ニセコミライ第一賃貸事業運営合同会社,,合同会社,北海道,虻田郡ニセコ町,字富士見１６８番地２,,01,395,0481501,,,,,,,2022-03-30,1,,,,,ニセコミライダイイチチンタイジギョウウンエイ,0
690,3490005006833,新規,0,2022-03-30,2022-03-30,一般社団法人パンタナル,,その他の設立登記法人,高知県,土佐市,高岡町乙７９０番地１６０,,39,205,7811102,,,,,,,2022-03-30,1,,,,,パンタナル,0
693,3700150107554,新規,0,2022-03-30,2022-03-30,ＫＡＢＡＭ　ＭＯＮＴＲＥＡＬ，ＩＮＣ．,,外国会社等,,,,,,,,１２２５　Ｓａｉｎｔ－Ｃｈａｒｌｅｓ　Ｓｔｒｅｅｔ　Ｗｅｓｔ，　ｓｕｉｔｅ　１１２０，　Ｌｏｎｇｕｅｕｉｌ，　ＱＣ　Ｊ４Ｋ，　１Ａ７　Ｃａｎａｄａ,,,,,,2022-03-30,1,,,,,カバムモントリオールインコーポレーテツド,0
703,4010001225533,新規,0,2022-03-30,2022-03-30,株式会社アンド・チェイン,,株式会社,東京都,千代田区,岩本町２丁目１５番１号,,13,101,1010032,,,,,,,2022-03-30,1,,,,,アンドチェイン,0
704,4010001225541,新規,0,2022-03-30,2022-03-30,株式会社エスタミレア,,株式会社,東京都,千代田区,霞が関３丁目２番５号,,13,101,1000013,,,,,,,2022-03-30,1,,,,,エスタミレア,0
706,4010003037349,新規,0,2022-03-30,2022-03-30,フジアセットホールディングス合同会社,,合同会社,東京都,文京区,白山４丁目３０番１０号,,13,105,1120001,,,,,,,2022-03-30,1,,,,,フジアセットホールディングス,0
707,4010003037373,新規,0,2022-03-30,2022-03-30,ブループリント合同会社,,合同会社,東京都,中央区,銀座８丁目１８番２カスタリア銀座３－１００５号,,13,102,1040061,,,,,,,2022-03-30,1,,,,,ブループリント,0
712,4010401166419,新規,0,2022-03-30,2022-03-30,センプレ株式会社,,株式会社,東京都,港区,南青山２丁目３番３号,,13,103,1070062,,,,,,,2022-03-30,1,,,,,センプレ,0
713,4010401166451,新規,0,2022-03-30,2022-03-30,株式会社Ｙｏｉ　Ｂｒｅｗｉｎｇ　Ｃｏｍｐａｎｙ,,株式会社,東京都,港区,六本木６丁目１１番１８号,,13,103,1060032,,,,,,,2022-03-30,1,,,,,ヨイブリューイングカンパニー,0
714,4010403027362,新規,0,2022-03-30,2022-03-30,御宿町太陽光発電合同会社,,合同会社,東京都,港区,虎ノ門３丁目２２番１０－２０１号,,13,103,1050001,,,,,,,2022-03-30,1,,,,,オンジュクマチタイヨウコウハツデン,0
723,4010603009466,新規,0,2022-03-30,2022-03-30,合同会社Ｋａｌｅｉｄｏ　Ｋｎｏｔ,,合同会社,東京都,江東区,有明１丁目４番１１－１９３２号,,13,108,1350063,,,,,,,2022-03-30,1,,,,,カレイドノット,0
726,4010901050584,新規,0,2022-03-30,2022-03-30,株式会社ｙｙｙｙ,,株式会社,東京都,世田谷区,若林４丁目４番２６号,,13,112,1540023,,,,,,,2022-03-30,1,,,,,イヤーズ,0
727,4010901050592,新規,0,2022-03-30,2022-03-30,株式会社ＫＡＡＭＡ,,株式会社,東京都,世田谷区,三軒茶屋２丁目３－２３Ｋ２三軒茶屋２０６,,13,112,1540024,,,,,,,2022-03-30,1,,,,,カーマ,0
729,4010905004289,新規,0,2022-03-30,2022-03-30,一般社団法人日本ＡＴＯＭ研究会,,その他の設立登記法人,東京都,世田谷区,池尻１丁目４番１－９１３号,,13,112,1540001,,,,,,,2022-03-30,1,,,,,アトムケンキュウカイ,0
737,4011103011615,新規,0,2022-03-30,2022-03-30,Ｍファンディング２合同会社,,合同会社,東京都,新宿区,四谷２丁目９番地１５東京ユナイテッド綜合事務所内,,13,104,1600004,,,,,,,2022-03-30,1,,,,,エムファンディングツー,0
739,4011203003784,新規,0,2022-03-30,2022-03-30,ＺＡＪＵＬ合同会社,,合同会社,東京都,中野区,東中野１丁目６番４号クラーレットビル３Ｂ,,13,114,1640003,,,,,,,2022-03-30,1,,,,,ザジュール,0
754,4011703003103,新規,0,2022-03-30,2022-03-30,桜合同会社,,合同会社,東京都,江戸川区,南小岩６丁目２９－５グラメリア３０１,,13,123,1330056,,,,,,,2022-03-30,1,,,,,サクラ,0
760,4011801040510,新規,0,2022-03-30,2022-03-30,株式会社笠谷建設,,株式会社,東京都,足立区,六木１丁目５－６－１０８,,13,121,1210052,,,,,,,2022-03-30,1,,,,,カサタニケンセツ,0
763,4012401039018,新規,0,2022-03-30,2022-03-30,株式会社バンブービー,,株式会社,東京都,調布市,菊野台３丁目１０－１８ロイヤルハイツ１Ａ,,13,208,1820007,,,,,,,2022-03-30,1,,,,,バンブービー,0
767,4012703002425,新規,0,2022-03-30,2022-03-30,合同会社ＴＤＴＩ,,合同会社,東京都,東村山市,萩山町４丁目１５－４２,,13,213,1890012,,,,,,,2022-03-30,1,,,,,ティーディーティーアイ,0
777,4020003021517,新規,0,2022-03-30,2022-03-30,エグザムサポート合同会社,,合同会社,神奈川県,横浜市保土ケ谷区,西谷３丁目２０番１８号,,14,106,2400054,,,,,,,2022-03-30,1,,,,,エグザムサポート,0
778,4020005015442,新規,0,2022-03-30,2022-03-30,医療法人社団直真会,,その他の設立登記法人,神奈川県,横浜市港北区,大倉山５丁目２５番１９号,,14,109,2220037,,,,,,,2022-03-30,1,,,,,チョクシンカイ,0
789,4030001147461,新規,0,2022-03-30,2022-03-30,株式会社プルメリア,,株式会社,埼玉県,朝霞市,三原２丁目２６番地２４号,,11,227,3510025,,,,,,,2022-03-30,1,,,,,プルメリア,0
793,4030003019106,新規,0,2022-03-30,2022-03-30,合同会社フラッシング,,合同会社,埼玉県,草加市,草加４丁目３番１７号,,11,221,3400043,,,,,,,2022-03-30,1,,,,,フラッシング,0
798,4040001122728,新規,0,2022-03-30,2022-03-30,ＨＡＹＭ株式会社,,株式会社,千葉県,流山市,野々下４丁目８２０番地の３,,12,220,2700135,,,,,,,2022-03-30,1,,,,,ハイム,0
799,4040001122760,新規,0,2022-03-30,2022-03-30,株式会社ＯＮＥＳ,,株式会社,千葉県,松戸市,小金原９丁目５番地の１３,,12,207,2700021,,,,,,,2022-03-30,1,,,,,ワンス,0
800,4040001122769,新規,0,2022-03-30,2022-03-30,株式会社ＲＥＡＬ　ＳＮＯＷ,,株式会社,千葉県,富里市,七栄６５１番地８９７,,12,233,2860221,,,,,,,2022-03-30,1,,,,,リアルスノウ,0
801,4040001122777,新規,0,2022-03-30,2022-03-30,株式会社まじ門,,株式会社,千葉県,市原市,東国吉９０４番地２,,12,219,2900163,,,,,,,2022-03-30,1,,,,,マジモン,0
803,4040003019773,新規,0,2022-03-30,2022-03-30,ＺＴ合同会社,,合同会社,千葉県,松戸市,新松戸３丁目１２２,,12,207,2700034,,,,,,,2022-03-30,1,,,,,ゼット,0
804,4040003019781,新規,0,2022-03-30,2022-03-30,合同会社Ａ．Ｓ　ＡＵＴＯＭＯＴＩＶＥ,,合同会社,千葉県,柏市,藤心３４３番地４,,12,217,2770034,,,,,,,2022-03-30,1,,,,,エーエスオートモーティブ,0
812,4050003006457,新規,0,2022-03-30,2022-03-30,合同会社忍建機,,合同会社,茨城県,つくば市,研究学園２丁目１４番地７クラリスＣ,,08,220,3050817,,,,,,,2022-03-30,1,,,,,オシケンキ,0
820,4070005009968,新規,0,2022-03-30,2022-03-30,ＮＰＯ法人ビバピール,,その他の設立登記法人,群馬県,高崎市,飯塚町１７２３番地５,,10,202,3700069,,,,,,,2022-03-30,1,,,,,ビバピール,0
828,4100001035196,新規,0,2022-03-30,2022-03-30,株式会社山ノ内町川上農園,,株式会社,長野県,下高井郡山ノ内町,大字戸狩９３８番地,,20,561,3810404,,,,,,,2022-03-30,1,,,,,ヤマノウチマチカワカミノウエン,0
839,4120001244745,新規,0,2022-03-30,2022-03-30,株式会社セレーノ,,株式会社,大阪府,大阪市北区,東天満１丁目１１－９和氣ビル２０１,,27,127,5300044,,,,,,,2022-03-30,1,,,,,セレーノ,0
844,4120003021366,新規,0,2022-03-30,2022-03-30,合同会社アザーズ,,合同会社,大阪府,大阪市住吉区,長居東１丁目７－３４－６０１,,27,120,5580004,,,,,,,2022-03-30,1,,,,,アザーズ,0
849,4120901045771,新規,0,2022-03-30,2022-03-30,特定建設・大同株式会社,,株式会社,大阪府,茨木市,下穂積１丁目３番４０４号,,27,211,5670041,,,,,,,2022-03-30,1,,,,,トクテイケンセツダイドウ,0
850,4122001035678,新規,0,2022-03-30,2022-03-30,株式会社Ｔ‐Ｃｏｎｎｅｃｔ,,株式会社,大阪府,柏原市,大県４丁目１４番２２号,,27,221,5820018,,,,,,,2022-03-30,1,,,,,ティーコネクト,0
851,4122001035711,新規,0,2022-03-30,2022-03-30,成功株式会社,,株式会社,大阪府,東大阪市,友井２丁目１６番３８号,,27,227,5770816,,,,,,,2022-03-30,1,,,,,セイコウ,0
855,4130001071412,新規,0,2022-03-30,2022-03-30,株式会社廣田工業,00126099,株式会社,京都府,京都市山科区,東野中井ノ上町６番地１９ミキトゥール１１５号,,26,110,6078142,,,,,,,2022-03-30,1,,,,,ヒロタコウギョウ,0
868,4140003017511,新規,0,2022-03-30,2022-03-30,合同会社ＮＦＴ　ＣＯＬＯＲ,,合同会社,兵庫県,宝塚市,中山桜台６丁目１７番１－３１６号,,28,214,6650877,,,,,,,2022-03-30,1,,,,,エヌエフティーカラー,0
881,4180003023662,新規,0,2022-03-30,2022-03-30,合同会社福祉ＭＳ,,合同会社,愛知県,名古屋市中区,栄１丁目５番８号,,23,106,4600008,,,,,,,2022-03-30,1,,,,,フクシエムエス,0
916,4290001096930,新規,0,2022-03-30,2022-03-30,ユーケンホーム株式会社,,株式会社,福岡県,筑紫野市,中央六丁目４番３－４０３号,,40,217,8180000,,,,,,,2022-03-30,1,,,,,ユーケンホーム,0
917,4290001096963,新規,0,2022-03-30,2022-03-30,ＪＣＮ株式会社,,株式会社,福岡県,福岡市中央区,六本松３丁目１０番１５号,,40,133,8100044,,,,,,,2022-03-30,1,,,,,ジェーシーエヌ,0
918,4290001096971,新規,0,2022-03-30,2022-03-30,Ｃｏｄｏ　Ａｄｖｉｓｏｒｙ株式会社,,株式会社,福岡県,福岡市中央区,天神２丁目１２番１号,,40,133,8100001,,,,,,,2022-03-30,1,,,,,コウドウアドバイザリー,0
919,4290001096988,新規,0,2022-03-30,2022-03-30,アーク株式会社,,株式会社,福岡県,福岡市東区,松崎１丁目４１番３６号,,40,131,8130035,,,,,,,2022-03-30,1,,,,,アーク,0
920,4290003012332,新規,0,2022-03-30,2022-03-30,合同会社ｍｅｒａｈ,,合同会社,福岡県,久留米市,津福本町５１０番地３,,40,203,8300047,,,,,,,2022-03-30,1,,,,,メラ,0
931,4350001017657,新規,0,2022-03-30,2022-03-30,株式会社カムイワークス,,株式会社,宮崎県,串間市,大字本城６６９０番地ロ,,45,207,8880008,,,,,,,2022-03-30,1,,,,,カムイワークス,0
949,4430003013761,新規,0,2022-03-30,2022-03-30,合同会社ｓｏｌｅｉｌ,,合同会社,北海道,札幌市西区,宮の沢三条２丁目３－５,,01,107,0630053,,,,,,,2022-03-30,1,,,,,ソレイユ,0
962,4700150107553,新規,0,2022-03-30,2022-03-30,Ｐａｒａｄｏｘ　Ｉｎｔｅｒａｃｔｉｖｅ　ＡＢ,,外国会社等,,,,,,,,Ｍａｇｎｕｓ　Ｌａｄｕｌａｓｇａｔａｎ　４　１１８　６６　Ｓｔｏｃｋｈｏｌｍ，　Ｓｗｅｄｅｎ,,,,,,2022-03-30,1,,,,,パラドツクスインタラクテイブエービー,0
966,5010001225540,新規,0,2022-03-30,2022-03-30,株式会社ガバメイツ,,株式会社,東京都,千代田区,丸の内２丁目７番２号,,13,101,1000005,,,,,,,2022-03-30,1,,,,,ガバメイツ,0
967,5010001225549,新規,0,2022-03-30,2022-03-30,株式会社ルディック,,株式会社,東京都,文京区,小日向１丁目１８－１１,,13,105,1120006,,,,,,,2022-03-30,1,,,,,ルディック,0
968,5010001225557,新規,0,2022-03-30,2022-03-30,株式会社アイリス,,株式会社,東京都,千代田区,大手町１丁目２番１号,,13,101,1000004,,,,,,,2022-03-30,1,,,,,アイリス,0
979,5010401166434,新規,0,2022-03-30,2022-03-30,株式会社ＡＣＴ,,株式会社,東京都,港区,南青山４丁目１７番３３号グランカーサ南青山２階,,13,103,1070062,,,,,,,2022-03-30,1,,,,,アクト,0
980,5010401166467,新規,0,2022-03-30,2022-03-30,Ｊ＆Ｗ　Ａｇｅｎｃｙ株式会社,,株式会社,東京都,港区,六本木１丁目９－４,,13,103,1060032,,,,,,,2022-03-30,1,,,,,ジェイアンドダブリューエイジェンシー,0
983,5010405020868,新規,0,2022-03-30,2022-03-30,御宿町太陽光発電一般社団法人,,その他の設立登記法人,東京都,港区,虎ノ門３丁目２２番１０－２０１号,,13,103,1050001,,,,,,,2022-03-30,1,,,,,オンジュクマチタイヨウコウハツデン,0
987,5010603009457,新規,0,2022-03-30,2022-03-30,合同会社ポケットスタッフ,,合同会社,東京都,江東区,亀戸７丁目４番４号,,13,108,1360071,,,,,,,2022-03-30,1,,,,,ポケットスタッフ,0
988,5010603009465,新規,0,2022-03-30,2022-03-30,合同会社Ｋｙａｒａ,,合同会社,東京都,墨田区,江東橋３丁目３－５スミワートビル１０１,,13,107,1300022,,,,,,,2022-03-30,1,,,,,キャラ,0
996,5010901050567,新規,0,2022-03-30,2022-03-30,日本プロバイオティクス酵素特産株式会社,,株式会社,東京都,世田谷区,世田谷１丁目４１番２号,,13,112,1540017,,,,,,,2022-03-30,1,,,,,ニッポンプロバイオティクスコウソトクサン,0
1009,5011001146578,新規,0,2022-03-30,2022-03-30,株式会社ＷｏｒｌｄＨａｃｋｓ,,株式会社,東京都,目黒区,自由が丘２丁目１６－１２ＬＣ１Ｆ,,13,110,1520035,,,,,,,2022-03-30,1,,,,,ワールドハックス,0
1010,5011001146594,新規,0,2022-03-30,2022-03-30,株式会社Ｍｅｄｉｃ　Ａｒｔ,,株式会社,東京都,渋谷区,元代々木町５１番９号,,13,113,1510062,,,,,,,2022-03-30,1,,,,,メディックアート,0
1011,5011001146628,新規,0,2022-03-30,2022-03-30,株式会社ＬＩＶＥ　ＩＮ　ＰＥＡＣＥ,,株式会社,東京都,渋谷区,神宮前６丁目２３番４号桑野ビル２階,,13,113,1500001,,,,,,,2022-03-30,1,,,,,リブインピース,0
1012,5011003014428,新規,0,2022-03-30,2022-03-30,ＴＡＸＡＮＤ合同会社,,合同会社,東京都,目黒区,碑文谷３丁目３番１２－３０５号ロワイヤル碑文谷,,13,110,1520003,,,,,,,2022-03-30,1,,,,,タックスアンド,0
1013,5011005009509,新規,0,2022-03-30,2022-03-30,ＮＰＯ法人Ｇａｗａｉｎ,,その他の設立登記法人,東京都,渋谷区,渋谷２丁目７番１４号ＶＯＲＴＡＯＹＡＭＡ３０２,,13,113,1500002,,,,,,,2022-03-30,1,,,,,ガウェイン,0
1016,5011101098348,新規,0,2022-03-30,2022-03-30,株式会社Ｃｈｏｉｃｅｓ,,株式会社,東京都,新宿区,北新宿３丁目３９番１１号,,13,104,1690074,,,,,,,2022-03-30,1,,,,,チョイシーズ,0
1039,5011703003102,新規,0,2022-03-30,2022-03-30,合同会社ｃｏｎｎｅｃｔｉｎｇ　ｔｈｅ　ｄｏｔｓ．,,合同会社,東京都,江戸川区,松島４丁目３４－５,,13,123,1320031,,,,,,,2022-03-30,1,,,,,コネクティングザドッツ,0
1044,5012305001997,新規,0,2022-03-30,2022-03-30,一般社団法人天霊神霊研究所大國主大神神社崇敬会,,その他の設立登記法人,東京都,町田市,上小山田町１０５４番地１,,13,209,1940201,,,,,,,2022-03-30,1,,,,,テンレイシンレイケンキュウジョオオクニヌシオオカミジンジャスウケイカイ,0
1045,5012701017003,新規,0,2022-03-30,2022-03-30,株式会社セイカダイ,,株式会社,東京都,小平市,小川町２丁目１１５８－５,,13,211,1870032,,,,,,,2022-03-30,1,,,,,セイカダイ,0
1062,5020001145829,新規,0,2022-03-30,2022-03-30,株式会社ＴＹＣ,,株式会社,神奈川県,横浜市泉区,白百合２丁目１４番２１号,,14,116,2450005,,,,,,,2022-03-30,1,,,,,ティワイシー,0
1064,5020003021490,新規,0,2022-03-30,2022-03-30,アイデンティファイ合同会社,,合同会社,神奈川県,川崎市中原区,中丸子１３番地１７ザ・コスギタワー４２１３,,14,133,2110012,,,,,,,2022-03-30,1,,,,,アイデンティファイ,0
1065,5020003021508,新規,0,2022-03-30,2022-03-30,合同会社ＡｎＤｏ,,合同会社,神奈川県,川崎市高津区,久本１丁目１７番１号－１０２,,14,134,2130011,,,,,,,2022-03-30,1,,,,,アンド,0
1066,5020003021516,新規,0,2022-03-30,2022-03-30,合同会社オフィス・ハラ,,合同会社,神奈川県,横浜市神奈川区,三枚町５８５番地１８,,14,102,2210862,,,,,,,2022-03-30,1,,,,,オフィスハラ,0
1074,5030001147361,新規,0,2022-03-30,2022-03-30,ＯＲーＴＥＣＨ工業株式会社,,株式会社,埼玉県,さいたま市南区,大字大谷口１８１５番地ボヌール明花１０３,,11,108,3360042,,,,,,,2022-03-30,1,,,,,オルテックコウギョウ,0
1077,5030003019096,新規,0,2022-03-30,2022-03-30,青将来合同会社,,合同会社,埼玉県,さいたま市岩槻区,加倉１丁目２７番１０号,,11,110,3390056,,,,,,,2022-03-30,1,,,,,アオショウライ,0
1078,5030003019121,新規,0,2022-03-30,2022-03-30,合同会社エイタ,,合同会社,埼玉県,朝霞市,朝志ケ丘２丁目２－１３ペアパレス朝志ケ丘１０１号室,,11,227,3510035,,,,,,,2022-03-30,1,,,,,エイタ,0
1085,5040001122776,新規,0,2022-03-30,2022-03-30,株式会社八番屋,,株式会社,千葉県,山武郡芝山町,新井田２３３番地２１,,12,409,2891625,,,,,,,2022-03-30,1,,,,,ハチバンヤ,0
1086,5040001122784,新規,0,2022-03-30,2022-03-30,株式会社Ｒｅｖｅｌｉｚｅ,,株式会社,千葉県,市川市,北方１丁目１６番２号,,12,203,2720815,,,,,,,2022-03-30,1,,,,,レヴライズ,0
1090,5040003019772,新規,0,2022-03-30,2022-03-30,ＳＨＡＮＩ　ＭＯＴＯＲＳ合同会社,,合同会社,千葉県,山武市,埴谷１５１１番地６,,12,237,2891223,,,,,,,2022-03-30,1,,,,,シャニモータース,0
1091,5050001050860,新規,0,2022-03-30,2022-03-30,株式会社寿設備工業,,株式会社,茨城県,那珂市,西木倉４８７番地２,,08,226,3110115,,,,,,,2022-03-30,1,,,,,コトブキセツビコウギョウ,0
1093,5060001034631,新規,0,2022-03-30,2022-03-30,株式会社アイビー・プレイス,,株式会社,栃木県,大田原市,蛭田１９８５番地,,09,210,3240412,,,,,,,2022-03-30,1,,,,,アイビープレイス,0
1097,5080003002766,新規,0,2022-03-30,2022-03-30,合同会社Ｒ．Ｒ．Ｍｕｎｉｚ　Ｄａｖｉｄ　Ｊａｐａｎ,,合同会社,静岡県,静岡市駿河区,南八幡町１９番１８号,,22,102,4228074,,,,,,,2022-03-30,1,,,,,アールアールムニズデビットジャパン,0
1099,5080101023177,新規,0,2022-03-30,2022-03-30,鈴木商事株式会社,,株式会社,静岡県,富士市,八代町８番１７号,,22,210,4170024,,,,,,,2022-03-30,1,,,,,スズキショウジ,0
1103,5100001035195,新規,0,2022-03-30,2022-03-30,株式会社ＴＨＴ,,株式会社,長野県,上田市,天神２丁目４番５１号グレース天神３０３号,,20,203,3860025,,,,,,,2022-03-30,1,,,,,ティーエイチティー,0
1109,5120001244744,新規,0,2022-03-30,2022-03-30,株式会社ＣＯＮＱＵＥＳＴ,,株式会社,大阪府,大阪市此花区,朝日２丁目１８番８号,,27,104,5540011,,,,,,,2022-03-30,1,,,,,コンクエスト,0
1113,5120103004625,新規,0,2022-03-30,2022-03-30,関西理容合同会社,,合同会社,大阪府,堺市西区,浜寺石津町西３丁３番４号,,27,144,5928333,,,,,,,2022-03-30,1,,,,,カンサイリヨウ,0
1115,5120903004089,新規,0,2022-03-30,2022-03-30,合同会社ｕｎａｍｕ,,合同会社,大阪府,茨木市,橋の内３丁目１５－１,,27,211,5670805,,,,,,,2022-03-30,1,,,,,ユナム,0
1117,5122001035710,新規,0,2022-03-30,2022-03-30,株式会社ＬＣＧ,,株式会社,大阪府,東大阪市,新池島町２丁目２０番３６号３階,,27,227,5798065,,,,,,,2022-03-30,1,,,,,エルシージー,0
1119,5130001071436,新規,0,2022-03-30,2022-03-30,株式会社ＳＴＵＤＩＯ　ＢＡＫＵ,,株式会社,京都府,京都市北区,上賀茂高縄手町４１番地ノースコテージＢ,,26,101,6038055,,,,,,,2022-03-30,1,,,,,スタジオバク,0
1121,5140001125389,新規,0,2022-03-30,2022-03-30,株式会社ｎａｍｅｄ,,株式会社,兵庫県,神戸市兵庫区,下祇園町９番７－２号,,28,105,6520015,,,,,,,2022-03-30,1,,,,,ネームド,0
1122,5140001125397,新規,0,2022-03-30,2022-03-30,株式会社省栄工業,,株式会社,兵庫県,尼崎市,竹谷町３丁目１１２番地,,28,202,6600876,,,,,,,2022-03-30,1,,,,,,0
1128,5160001024077,新規,0,2022-03-30,2022-03-30,株式会社ｌｉｄｅａｌ,,株式会社,滋賀県,草津市,渋川１丁目５－５,,25,206,5250026,,,,,,,2022-03-30,1,,,,,リディアル,0
1159,5260001036673,新規,0,2022-03-30,2022-03-30,株式会社焼肉いこか,,株式会社,岡山県,岡山市北区,学南町２丁目５番４４－１号,,33,101,7000011,,,,,,,2022-03-30,1,,,,,ヤキニクイコカ,0
1166,5290001096962,新規,0,2022-03-30,2022-03-30,株式会社エクスプローラー,,株式会社,福岡県,福岡市早良区,干隈５丁目６番２５号,,40,137,8140163,,,,,,,2022-03-30,1,,,,,エクスプローラー,0
1167,5290001096970,新規,0,2022-03-30,2022-03-30,株式会社ＶＩＰ,,株式会社,福岡県,福岡市中央区,西中洲１０番３号,,40,133,8100002,,,,,,,2022-03-30,1,,,,,ヴイアイピー,0
1168,5290001096979,新規,0,2022-03-30,2022-03-30,株式会社エコスタイル,,株式会社,福岡県,福岡市南区,西長住１丁目２番１３号,,40,134,8111361,,,,,,,2022-03-30,1,,,,,エコスタイル,0
1170,5290003012331,新規,0,2022-03-30,2022-03-30,ＮＧＯＣ　ＫＨＡＮＨ合同会社,,合同会社,福岡県,福岡市博多区,住吉２丁目１５番１０,,40,132,8120018,,,,,,,2022-03-30,1,,,,,ゴックカン,0
1172,5300003001811,新規,0,2022-03-30,2022-03-30,リゾームアンドルーツ合同会社,,合同会社,佐賀県,神埼郡吉野ヶ里町,吉田２７２－９,,41,327,8420031,,,,,,,2022-03-30,1,,,,,リゾームアンドルーツ,0
1196,5430001086288,新規,0,2022-03-30,2022-03-30,株式会社開進,,株式会社,北海道,美唄市,東四条北３丁目５番３０－２０５号,,01,215,0720005,,,,,,,2022-03-30,1,,,,,カイシン,0
1197,5430001086296,新規,0,2022-03-30,2022-03-30,株式会社七色,,株式会社,北海道,札幌市厚別区,厚別南７丁目１８番３号,,01,108,0040022,,,,,,,2022-03-30,1,,,,,ナナイロ,0
1201,5430003013752,新規,0,2022-03-30,2022-03-30,合同会社ＭＫＴカンパニー,,合同会社,北海道,札幌市南区,石山一条７丁目１５番１号,,01,106,0050841,,,,,,,2022-03-30,1,,,,,エムケーティーカンパニー,0
1202,5430003013760,新規,0,2022-03-30,2022-03-30,ニセコチョイス合同会社,,合同会社,北海道,虻田郡ニセコ町,字本通２９番地１,,01,395,0481502,,,,,,,2022-03-30,1,,,,,ニセコチョイス,0
1205,5450001013645,新規,0,2022-03-30,2022-03-30,株式会社グランデ,,株式会社,北海道,旭川市,旭神二条１丁目２番１０号,,01,204,0788372,,,,,,,2022-03-30,1,,,,,グランデ,0
1206,5460003000888,新規,0,2022-03-30,2022-03-30,Ｄｒａｇｏｎ　Ｆａｒｍ合同会社,,合同会社,北海道,川上郡弟子屈町,字弟子屈原野４８４番地３,,01,665,0883222,,,,,,,2022-03-30,1,,,,,ドラゴンファーム,0
1210,5700150019459,新規,0,2022-03-30,2015-10-09,栃木市スポーツ協会,,その他,栃木県,栃木市,川原田町７６０,,09,203,3280123,,,,,,,2015-10-09,1,,,,,トチギシスポーツキヨウカイ,0
1214,5700150107552,新規,0,2022-03-30,2022-03-30,Ａｃｅｖｉｌｌｅ　Ｐｔｅ．　Ｌｔｄ．,,外国会社等,,,,,,,,３０　Ｒａｆｆｌｅｓ　Ｐｌａｃｅ，　＃１２－０１，　Ｏｘｌｅｙ　＠Ｒａｆｆｌｅｓ，　Ｓｉｎｇａｐｏｒｅ　０４８６２２,,,,,,2022-03-30,1,,,,,エイスビルピーテイーイーリミテツド,0
1220,6010003037371,新規,0,2022-03-30,2022-03-30,合同会社ミィダイアナ,,合同会社,東京都,中央区,銀座８丁目５番１０号金成ビル４階,,13,102,1040061,,,,,,,2022-03-30,1,,,,,ミィダイアナ,0
1221,6010005034788,新規,0,2022-03-30,2022-03-30,一般社団法人板橋本町２,,その他の設立登記法人,東京都,千代田区,麹町５丁目１番地ＮＫ真和ビル９階,,13,101,1020083,,,,,,,2022-03-30,1,,,,,イタバシホンチョウツー,0
1230,6010602010225,新規,0,2022-03-30,2022-03-30,川島ベルト有限会社,,有限会社,東京都,墨田区,東駒形１丁目３番１５号,,13,107,1300005,,,,,,,2022-03-30,1,,,,,カワシマベルト,0
1234,6010603009464,新規,0,2022-03-30,2022-03-30,合同会社フラッシュ,,合同会社,東京都,墨田区,押上２丁目９番１８－１０１号,,13,107,1310045,,,,,,,2022-03-30,1,,,,,フラッシュ,0
1243,6010903007267,新規,0,2022-03-30,2022-03-30,合同会社カラコ,,合同会社,東京都,世田谷区,瀬田１丁目２８番２５号,,13,112,1580095,,,,,,,2022-03-30,1,,,,,カラコカラコ,0
1250,6011001146585,新規,0,2022-03-30,2022-03-30,株式会社ピース＆ピース,,株式会社,東京都,渋谷区,代々木１丁目３０番１５号６０４,,13,113,1510053,,,,,,,2022-03-30,1,,,,,ピースアンドピース,0
1251,6011001146593,新規,0,2022-03-30,2022-03-30,株式会社ヴァンデ,,株式会社,東京都,目黒区,目黒４丁目７番１３－２０２号,,13,110,1530063,,,,,,,2022-03-30,1,,,,,ヴァンデ,0
1252,6011001146602,新規,0,2022-03-30,2022-03-30,株式会社ＯＵＲｓ,,株式会社,東京都,渋谷区,東１丁目２番２０号,,13,113,1500011,,,,,,,2022-03-30,1,,,,,アワーズ,0
1254,6011005009516,新規,0,2022-03-30,2022-03-30,一般社団法人Ｗａｔｅｒ　Ｖａｌｌｅｙ,,その他の設立登記法人,東京都,渋谷区,恵比寿２丁目２８番１０号ＳｈｕＢＬＤＧ２９６３,,13,113,1500013,,,,,,,2022-03-30,1,,,,,ウォーターバレー,0
1256,6011101098330,新規,0,2022-03-30,2022-03-30,株式会社ちょいガード,,株式会社,東京都,新宿区,新宿１丁目９番４号,,13,104,1600022,,,,,,,2022-03-30,1,,,,,チョイガード,0
1263,6011703003101,新規,0,2022-03-30,2022-03-30,合同会社成田屋,,合同会社,東京都,江戸川区,松江７丁目２７番２１号,,13,123,1320025,,,,,,,2022-03-30,1,,,,,ナリタヤ,0
1269,6012803002736,新規,0,2022-03-30,2022-03-30,合同会社Ａｓ,,合同会社,東京都,立川市,高松町２丁目５－１４ハイムプレリュード２０５号,,13,202,1900011,,,,,,,2022-03-30,1,,,,,アス,0
1274,6020001145803,新規,0,2022-03-30,2022-03-30,エフスリー株式会社,,株式会社,神奈川県,横浜市港南区,笹下２丁目３番１３号,,14,111,2340052,,,,,,,2022-03-30,1,,,,,エフスリー,0
1275,6020001145828,新規,0,2022-03-30,2022-03-30,ＳＰＡＲＫＹ株式会社,,株式会社,神奈川県,横浜市緑区,十日市場町９１５番地７－Ａ１０１,,14,113,2260025,,,,,,,2022-03-30,1,,,,,スパーキー,0
1276,6020001145836,新規,0,2022-03-30,2022-03-30,株式会社リアンキャピタル,,株式会社,神奈川県,横浜市神奈川区,浦島丘６番地４１,,14,102,2210062,,,,,,,2022-03-30,1,,,,,リアンキャピタル,0
1278,6020003021515,新規,0,2022-03-30,2022-03-30,ライフベターフーズ合同会社,,合同会社,神奈川県,横浜市中区,桜木町１丁目１０１番地１クロスゲート７階,,14,104,2310062,,,,,,,2022-03-30,1,,,,,ライフベターフーズ,0
1279,6020005015440,新規,0,2022-03-30,2022-03-30,特定非営利活動法人生活習慣改善を一歩進める会,,その他の設立登記法人,神奈川県,横浜市栄区,田谷町２０２５－３,,14,115,2440844,,,,,,,2022-03-30,1,,,,,セイカツシュウカンカイゼンヲイッポススメルカイ,0
1287,6021003011530,新規,0,2022-03-30,2022-03-30,合同会社風像,,合同会社,神奈川県,藤沢市,辻堂元町５丁目５番地２４号ウィスマ・プトゥリ２０１号室,,14,205,2510043,,,,,,,2022-03-30,1,,,,,フウゾウ,0
1293,6030001147435,新規,0,2022-03-30,2022-03-30,株式会社Ｆ．Ｔ　ｗｏｒｋｓ,,株式会社,埼玉県,北本市,宮内５丁目１９９番地１,,11,233,3640002,,,,,,,2022-03-30,1,,,,,エフティーワークス,0
1294,6030001147443,新規,0,2022-03-30,2022-03-30,株式会社マイ・ワールド,,株式会社,埼玉県,川口市,西川口１丁目３８番２６号－１Ｆ,,11,203,3320021,,,,,,,2022-03-30,1,,,,,マイワールド,0
1295,6030001147468,新規,0,2022-03-30,2022-03-30,株式会社健総,,株式会社,埼玉県,草加市,青柳４丁目１６番２１－１０１号,,11,221,3400002,,,,,,,2022-03-30,1,,,,,ケンソウ,0
1302,6030003019120,新規,0,2022-03-30,2022-03-30,ゼロワンラボ合同会社,,合同会社,埼玉県,越谷市,南越谷５丁目２５番地３０,,11,222,3430845,,,,,,,2022-03-30,1,,,,,ゼロワンラボ,0
1305,6040001122759,新規,0,2022-03-30,2022-03-30,株式会社仁大,,株式会社,千葉県,松戸市,幸田５丁目９０番地,,12,207,2700001,,,,,,,2022-03-30,1,,,,,ジンダイ,0
1306,6040001122767,新規,0,2022-03-30,2022-03-30,株式会社ＵＩＬＡＮＩ,,株式会社,千葉県,白井市,大松１丁目６番６号,,12,232,2701439,,,,,,,2022-03-30,1,,,,,ウイラニ,0
1307,6040001122775,新規,0,2022-03-30,2022-03-30,株式会社ＭＪ　ＣＯＮＮＥＣＴ,,株式会社,千葉県,市川市,妙典５丁目１３番３３号,,12,203,2720111,,,,,,,2022-03-30,1,,,,,エムジェイコネクト,0
1308,6040001122783,新規,0,2022-03-30,2022-03-30,ＭＡＳＯＯＤ　ＭＯＴＯＲＳ株式会社,,株式会社,千葉県,柏市,あけぼの２丁目５番２０号ジュネエトワール柏２階２０７号室,,12,217,2770841,,,,,,,2022-03-30,1,,,,,マスードモータース,0
1311,6040003019730,新規,0,2022-03-30,2022-03-30,合同会社アソビゴコロ,,合同会社,千葉県,流山市,南流山７丁目１８－１１,,12,220,2700163,,,,,,,2022-03-30,1,,,,,アソビゴコロ,0
1312,6040003019771,新規,0,2022-03-30,2022-03-30,合同会社Ｇｌｏｂａｌ　Ｌｉｇｈｔ,,合同会社,千葉県,我孫子市,台田１丁目１－４５ザ・フォレシス９１１号室,,12,222,2701167,,,,,,,2022-03-30,1,,,,,グローバルライト,0
1316,6070001039083,新規,0,2022-03-30,2022-03-30,株式会社ＦＡＣＴＯＲＹ,,株式会社,群馬県,桐生市,堤町３丁目４番９号モナ・ベイルＡ号室,,10,203,3760042,,,,,,,2022-03-30,1,,,,,ファクトリー,0
1317,6070005009966,新規,0,2022-03-30,2022-03-30,農事組合法人つばさふぁーむ,,その他の設立登記法人,群馬県,利根郡みなかみ町,政所７１７－２,,10,449,3791307,,,,,,,2022-03-30,1,,,,,,0
1319,6080001024828,新規,0,2022-03-30,2022-03-30,株式会社モールドメンテナンス,,株式会社,静岡県,焼津市,上泉１１４１番地,,22,212,4210217,,,,,,,2022-03-30,1,,,,,モールドメンテナンス,0
1322,6090001001636,新規,0,2022-03-30,2022-03-30,株式会社ニセコ・パインヴィレッジ,,株式会社,山梨県,甲府市,落合町８１７番地,,19,201,4000834,,,,,,,2022-03-30,1,,,,,,0
1334,6120001244743,新規,0,2022-03-30,2022-03-30,桃虹株式会社,,株式会社,大阪府,大阪市中央区,島之内２丁目６－１６第二右田ビル－４Ａ,,27,128,5420082,,,,,,,2022-03-30,1,,,,,モモニジ,0
1342,6120903004088,新規,0,2022-03-30,2022-03-30,フローレン合同会社,,合同会社,大阪府,吹田市,青山台３丁目５２番９－１号,,27,205,5650875,,,,,,,2022-03-30,1,,,,,フローレン,0
1347,6130003007841,新規,0,2022-03-30,2022-03-30,合同会社ダレスオフィス,,合同会社,京都府,相楽郡精華町,大字菅井小字馬渕７番地６５,,26,366,6190242,,,,,,,2022-03-30,1,,,,,ダレスオフィス,0
1356,6140001125371,新規,0,2022-03-30,2022-03-30,宮本イオス株式会社,,株式会社,兵庫県,宝塚市,中筋山手２丁目９番２号,,28,214,6650875,,,,,,,2022-03-30,1,,,,,ミヤモトイオス,0
1359,6140005026087,新規,0,2022-03-30,2022-03-30,医療法人社団あおい会,,その他の設立登記法人,兵庫県,川西市,火打１丁目１６番６号オアシスタウンキセラ川西メディカルゾーン２階,,28,217,6660017,,,,,,,2022-03-30,1,,,,,アオイカイ,0
1363,6160001024076,新規,0,2022-03-30,2022-03-30,株式会社ＦＡＶＯＲ,,株式会社,滋賀県,長浜市,草野町５３番地,,25,203,5260202,,,,,,,2022-03-30,1,,,,,フェイバー,0
1374,6180001150531,新規,0,2022-03-30,2022-03-30,早尾骨材株式会社,,株式会社,愛知県,愛西市,落合町下通１４３番地１,,23,232,4960909,,,,,,,2022-03-30,1,,,,,ハヤオコツザイ,0
1375,6180001150580,新規,0,2022-03-30,2022-03-30,株式会社萃寿,,株式会社,愛知県,名古屋市西区,上名古屋１丁目１１番２号,,23,104,4510025,,,,,,,2022-03-30,1,,,,,スイジュ,0
1376,6180003023553,新規,0,2022-03-30,2022-03-30,合同会社ＥＲＩＳ,,合同会社,愛知県,名古屋市名東区,猪子石２丁目９０１,,23,115,4650021,,,,,,,2022-03-30,1,,,,,エリス,0
1377,6180003023652,新規,0,2022-03-30,2022-03-30,Ｗａｓｓｅｒ合同会社,,合同会社,愛知県,名古屋市中区,千代田５丁目７番１５号（アーバニア千代田１７０５号）,,23,106,4600012,,,,,,,2022-03-30,1,,,,,ワッサー,0
1378,6180005019698,新規,0,2022-03-30,2022-03-30,一般社団法人ＴＷＯＳＴＥＰ,,その他の設立登記法人,愛知県,名古屋市天白区,保呂町２３０５番地ラフィーネ保呂町１０４,,23,116,4680041,,,,,,,2022-03-30,1,,,,,ツーステップ,0
1385,6230003001826,新規,0,2022-03-30,2022-03-30,合同会社ＴＫリフォーム,,合同会社,富山県,富山市,赤田１６７番地５スペランツァ１２・１０４号,,16,201,9398064,,,,,,,2022-03-30,1,,,,,ティーケイリフォーム,0
1400,6290001096945,新規,0,2022-03-30,2022-03-30,ＩＴＯ株式会社,,株式会社,福岡県,糸島市,瀬戸２５７番地９,,40,230,8191156,,,,,,,2022-03-30,1,,,,,アイティオー,0
1401,6290001096953,新規,0,2022-03-30,2022-03-30,株式会社ワイズヒーロー,,株式会社,福岡県,福岡市博多区,博多駅前３丁目３０番１５－７１５号,,40,132,8120011,,,,,,,2022-03-30,1,,,,,ワイズヒーロー,0
1404,6290003012330,新規,0,2022-03-30,2022-03-30,スマイルカンパニー九州合同会社,,合同会社,福岡県,福岡市中央区,大名２丁目１０番８－１８０３号,,40,133,8100041,,,,,,,2022-03-30,1,,,,,スマイルカンパニーキュウシュウ,0
1405,6290801028379,新規,0,2022-03-30,2022-03-30,株式会社ＴＭＹ,,株式会社,福岡県,行橋市,西宮市４丁目７番１５号,,40,213,8240031,,,,,,,2022-03-30,1,,,,,ティエムワイ,0
1410,6330003009306,新規,0,2022-03-30,2022-03-30,合同会社エビス,,合同会社,熊本県,熊本市西区,春日１丁目３－１３－５０１,,43,103,8600047,,,,,,,2022-03-30,1,,,,,エビス,0
1412,6350001017655,新規,0,2022-03-30,2022-03-30,株式会社ＷＥＬＬ　ＳＥＥＤ,,株式会社,宮崎県,日南市,大字風田３６０４－３,,45,204,8870034,,,,,,,2022-03-30,1,,,,,ウェルシード,0
1413,6360001030186,新規,0,2022-03-30,2022-03-30,株式会社昇生建設,,株式会社,沖縄県,宮古島市,上野字野原１１３６番地２,,47,214,9060201,,,,,,,2022-03-30,1,,,,,ショウブケンセツ,0
1426,6430001086287,新規,0,2022-03-30,2022-03-30,株式会社リライフ・サポート,,株式会社,北海道,札幌市東区,東苗穂六条３丁目９番１０－１０１,,01,103,0070806,,,,,,,2022-03-30,1,,,,,リライフサポート,0
1431,6460001005673,新規,0,2022-03-30,2022-03-30,株式会社サンタハウス,,株式会社,北海道,釧路市,愛国東２丁目３６番５号,,01,206,0850058,,,,,,,2022-03-30,1,,,,,サンタハウス,0
1433,6480001011686,新規,0,2022-03-30,2022-03-30,株式会社徳島予備校,,株式会社,徳島県,徳島市,助任本町２丁目３８番地グランドハイツ１０１号室,,36,201,7700816,,,,,,,2022-03-30,1,,,,,トクシマヨビコウ,0
1450,7010001225514,新規,0,2022-03-30,2022-03-30,株式会社ヘッジホッグ,,株式会社,東京都,文京区,湯島２丁目３１番１０号レックス湯島１０１,,13,105,1130034,,,,,,,2022-03-30,1,,,,,ヘッジホッグ,0
1452,7010003037370,新規,0,2022-03-30,2022-03-30,ＬＵＣＩＡＮ１６合同会社,,合同会社,東京都,千代田区,丸の内１丁目８番２号,,13,101,1000005,,,,,,,2022-03-30,1,,,,,ルシアンジュウロク,0
1456,7010005034787,新規,0,2022-03-30,2022-03-30,一般社団法人ＤＡＷＮ２,,その他の設立登記法人,東京都,千代田区,麹町５丁目１番地ＮＫ真和ビル９階,,13,101,1020083,,,,,,,2022-03-30,1,,,,,ドーンツー,0
1473,7010403027351,新規,0,2022-03-30,2022-03-30,合同会社ＦＧ企画,,合同会社,東京都,港区,浜松町２丁目２番１５号浜松町ダイヤビル２Ｆ,,13,103,1050013,,,,,,,2022-03-30,1,,,,,エフジーキカク,0
1489,7011001146592,新規,0,2022-03-30,2022-03-30,株式会社ＮＡ‐ＣＯＤＥ,,株式会社,東京都,目黒区,中央町１丁目３番２－３Ｆ,,13,110,1520001,,,,,,,2022-03-30,1,,,,,ナコウド,0
1490,7011001146634,新規,0,2022-03-30,2022-03-30,Ｗａｖｅ株式会社,,株式会社,東京都,渋谷区,神宮前６丁目２３番４号桑野ビル２階,,13,113,1500001,,,,,,,2022-03-30,1,,,,,ウェイブ,0
1491,7011003014426,新規,0,2022-03-30,2022-03-30,合同会社ラビ,,合同会社,東京都,渋谷区,神宮前３丁目１３番１号小嶋アパート３Ｆ,,13,113,1500001,,,,,,,2022-03-30,1,,,,,ラビ,0
1496,7011101098305,新規,0,2022-03-30,2022-03-30,株式会社アレグリアモンテ,,株式会社,東京都,新宿区,新宿２丁目２番７号,,13,104,1600022,,,,,,,2022-03-30,1,,,,,アレグリアモンテ,0
1497,7011101098338,新規,0,2022-03-30,2022-03-30,ヨクシル株式会社,,株式会社,東京都,新宿区,大久保２丁目５番２３号新宿辻ビル６階,,13,104,1690072,,,,,,,2022-03-30,1,,,,,ヨクシル,0
1501,7011205002484,新規,0,2022-03-30,2022-03-30,ＢＩＯ国際行政書士法人,,その他の設立登記法人,東京都,中野区,中央３丁目１８番１９号,,13,114,1640011,,,,,,,2022-03-30,1,,,,,ビオコクサイ,0
1504,7011601025832,新規,0,2022-03-30,2022-03-30,株式会社Ｂｅｌｓｔｉｎ,,株式会社,東京都,練馬区,中村南３丁目１５－１０ペガサス鷲宮１階,,13,120,1760025,,,,,,,2022-03-30,1,,,,,ベルスティン,0
1510,7012301012930,新規,0,2022-03-30,2022-03-30,株式会社ＥＦＦＯＲＴ,,株式会社,東京都,町田市,原町田４丁目５番７号,,13,209,1940013,,,,,,,2022-03-30,1,,,,,エフォート,0
1517,7013301048873,新規,0,2022-03-30,2022-03-30,株式会社宙,,株式会社,東京都,豊島区,上池袋１丁目３５－１０ＵＹＯ池袋ビル５０２号室,,13,116,1700012,,,,,,,2022-03-30,1,,,,,ソラ,0
1530,7020001145827,新規,0,2022-03-30,2022-03-30,ミール株式会社,,株式会社,神奈川県,横浜市港北区,大曽根台３番２５号,,14,109,2220004,,,,,,,2022-03-30,1,,,,,ミール,0
1531,7020001145851,新規,0,2022-03-30,2022-03-30,ご近所マーケティング株式会社,,株式会社,神奈川県,横浜市西区,北幸１丁目１番８号エキニア横浜５階,,14,103,2200004,,,,,,,2022-03-30,1,,,,,ゴキンジョマーケティング,0
1537,7020003021514,新規,0,2022-03-30,2022-03-30,合同会社ライフベター・エンターテイメント,,合同会社,神奈川県,横浜市中区,桜木町１丁目１０１番地１クロスゲート７階,,14,104,2310062,,,,,,,2022-03-30,1,,,,,ライフベターエンターテイメント,0
1538,7021001075543,新規,0,2022-03-30,2022-03-30,株式会社ハムザ工業,,株式会社,神奈川県,平塚市,公所３０１番地の１－２０２号,,14,203,2540906,,,,,,,2022-03-30,1,,,,,ハムザコウギョウ,0
1543,7030001147368,新規,0,2022-03-30,2022-03-30,ＪＡＮＮＡＴ　ＴＲＡＤＩＮＧ株式会社,,株式会社,埼玉県,草加市,柳島町３９１番６号クラウンハイツ江口Ｂ号室,,11,221,3400033,,,,,,,2022-03-30,1,,,,,ジャンナットトレーディング,0
1544,7030001147442,新規,0,2022-03-30,2022-03-30,株式会社住宅支援センター,,株式会社,埼玉県,川口市,元郷４丁目９番７号,,11,203,3320011,,,,,,,2022-03-30,1,,,,,ジュウタクシエンセンター,0
1545,7030001147459,新規,0,2022-03-30,2022-03-30,株式会社アラモード,,株式会社,埼玉県,所沢市,けやき台１丁目１６番３号メゾン・ソレイユ２０８,,11,208,3591118,,,,,,,2022-03-30,1,,,,,アラモード,0
1556,7040001122758,新規,0,2022-03-30,2022-03-30,原口工業株式会社,,株式会社,千葉県,袖ケ浦市,袖ケ浦駅前１丁目３１番地１５富士エメラルドシティ２０６号,,12,229,2990269,,,,,,,2022-03-30,1,,,,,ハラグチコウギョウ,0
1557,7040001122782,新規,0,2022-03-30,2022-03-30,株式会社ワンケイプ,,株式会社,千葉県,富津市,富津１９６２,,12,226,2930021,,,,,,,2022-03-30,1,,,,,ワンケイプ,0
1559,7040003019746,新規,0,2022-03-30,2022-03-30,合同会社ユウキサポート,,合同会社,千葉県,千葉市若葉区,原町７９７番地７,,12,104,2640034,,,,,,,2022-03-30,1,,,,,ユウキサポート,0
1560,7040003019770,新規,0,2022-03-30,2022-03-30,合同会社鼎＿,00126102,合同会社,千葉県,市川市,大和田４丁目１９番３－１０１号,,12,203,2720025,,,,,,,2022-03-30,1,,,,,テイキン,0
1582,7120001244627,新規,0,2022-03-30,2022-03-30,株式会社ＪＡＨＣ,,株式会社,大阪府,大阪市東成区,東中本３丁目２２番２号,,27,115,5370021,,,,,,,2022-03-30,1,,,,,ジャーク,0
1583,7120001244692,新規,0,2022-03-30,2022-03-30,山際不動産株式会社,,株式会社,大阪府,大阪市北区,梅田１丁目１番３号大阪駅前第３ビル２９階１－１－１号室,,27,127,5300001,,,,,,,2022-03-30,1,,,,,ヤマギワフドウサン,0
1584,7120001244734,新規,0,2022-03-30,2022-03-30,株式会社イオタホールディング,,株式会社,大阪府,大阪市中央区,本町４丁目２番５号,,27,128,5410053,,,,,,,2022-03-30,1,,,,,イオタホールディング,0
1585,7120001244767,新規,0,2022-03-30,2022-03-30,株式会社ＰＴ．ＮＡＴＵＮＡ　ＥＴＯＮ　ＥＮＥＲＧＹ,,株式会社,大阪府,大阪市住吉区,帝塚山西１丁目２番８コート帝塚山４０５,00126100,27,120,5580052,,,,,,,2022-03-30,1,,,,,ピーティーナチュナイートンエネルギー,0
1586,7120101065295,新規,0,2022-03-30,2022-03-30,レイファースト不動産株式会社,,株式会社,大阪府,泉南郡田尻町,吉見６９５番地５,,27,362,5980092,,,,,,,2022-03-30,1,,,,,レイファーストフドウサン,0
1590,7122003002302,新規,0,2022-03-30,2022-03-30,フィンセント合同会社,,合同会社,大阪府,東大阪市,長堂２丁目７－２２トマトハイツ布施１Ａ,,27,227,5770056,,,,,,,2022-03-30,1,,,,,フィンセント,0
1592,7130005016419,新規,0,2022-03-30,2022-03-30,一般社団法人全京都企業組合連合会,,その他の設立登記法人,京都府,京都市下京区,四条通室町東入函谷鉾町７８番地京都経済センター内,,26,106,6008009,,,,,,,2022-03-30,1,,,,,ゼンキョウトキギョウクミアイレンゴウカイ,0
1596,7140001125395,新規,0,2022-03-30,2022-03-30,株式会社土地いえＬａｂｏ,,株式会社,兵庫県,明石市,魚住町清水２２４１山榮ビル２０４号室,,28,203,6740074,,,,,,,2022-03-30,1,,,,,トチイエラボ,0
1600,7140003017509,新規,0,2022-03-30,2022-03-30,合同会社９９ｆａｓｈｉｏｎ,,合同会社,兵庫県,神戸市長田区,久保町４丁目２番３号,,28,106,6530041,,,,,,,2022-03-30,1,,,,,キューキューファッション,0
1603,7160003002525,新規,0,2022-03-30,2022-03-30,合同会社ひといき,,合同会社,滋賀県,長浜市,元浜町１７番２号,,25,203,5260059,,,,,,,2022-03-30,1,,,,,ヒトイキ,0
1609,7180001150555,新規,0,2022-03-30,2022-03-30,株式会社東三河高木,,株式会社,愛知県,名古屋市中区,正木３丁目６番６号,,23,106,4600024,,,,,,,2022-03-30,1,,,,,ヒガシミカワタカギ,0
1617,7200001039894,新規,0,2022-03-30,2022-03-30,株式会社コイデ建築,,株式会社,岐阜県,瑞浪市,大湫町８４３番地の１,,21,208,5096471,,,,,,,2022-03-30,1,,,,,コイデケンチク,0
1623,7220003003252,新規,0,2022-03-30,2022-03-30,合同会社ＯＫＩＲＡＫＵ,,合同会社,石川県,金沢市,長土塀３丁目８番２０号,,17,201,9200867,,,,,,,2022-03-30,1,,,,,オキラク,0
1641,7290001096969,新規,0,2022-03-30,2022-03-30,株式会社ＰＧＳ,,株式会社,福岡県,福岡市中央区,西中洲１０番３号,,40,133,8100002,,,,,,,2022-03-30,1,,,,,ピージーエス,0
1642,7290001096977,新規,0,2022-03-30,2022-03-30,聖徳運輸株式会社,,株式会社,福岡県,糸島市,末永４７０番地１,,40,230,8191572,,,,,,,2022-03-30,1,,,,,ショウトクウンユ,0
1650,7330003009305,新規,0,2022-03-30,2022-03-30,合同会社共栄犬童,,合同会社,熊本県,八代市,築添町１６３３番地２３,,43,202,8660015,,,,,,,2022-03-30,1,,,,,キョウエイイヌドウ,0
1656,7370005010455,新規,0,2022-03-30,2022-03-30,特定非営利活動法人ＳＡＴＯＲＩ,,その他の設立登記法人,宮城県,仙台市青葉区,一番町２丁目５－１大一野村ビル７Ｆ,,04,101,9800811,,,,,,,2022-03-30,1,,,,,サトリ,0
1666,7420001017779,新規,0,2022-03-30,2022-03-30,株式会社ＡＯＭＯＲＩ　ＭＡＲＫＥＴ,,株式会社,青森県,青森市,古川１丁目１７番２１号スノーランドビル３階,,02,201,0300862,,,,,,,2022-03-30,1,,,,,アオモリマーケット,0
1670,7430001086286,新規,0,2022-03-30,2022-03-30,株式会社アイセキュリティ,,株式会社,北海道,札幌市中央区,南一条西６丁目４番地１９旭川信金ビル５階,,01,101,0600061,,,,,,,2022-03-30,1,,,,,アイセキュリティ,0
1673,7430003013750,新規,0,2022-03-30,2022-03-30,合同会社Ｐｌｕｓ　ｏｎ,,合同会社,北海道,札幌市中央区,南八条西６丁目２８９番３６－４０７号,,01,101,0640808,,,,,,,2022-03-30,1,,,,,プラスオン,0
1680,7490003001642,新規,0,2022-03-30,2022-03-30,琥珀合同会社,,合同会社,高知県,高知市,廿代町６番２５号ドルフ廿代９０１号室,,39,201,7800843,,,,,,,2022-03-30,1,,,,,コハク,0
1687,8010001225538,新規,0,2022-03-30,2022-03-30,株式会社Ｄｏｇｓｔａｒ,,株式会社,東京都,千代田区,麹町３丁目１２番地２麹町ＭＳビル２０２,,13,101,1020083,,,,,,,2022-03-30,1,,,,,ドッグスター,0
1691,8010003037353,新規,0,2022-03-30,2022-03-30,合同会社ＧＡＬＡＸＹ,,合同会社,東京都,中央区,銀座１丁目１２－４Ｎ＆ＥＢＬＤ．７階,,13,102,1040061,,,,,,,2022-03-30,1,,,,,ギャラクシー,0
1692,8010003037361,新規,0,2022-03-30,2022-03-30,合同会社ＤＡＷＮ,,合同会社,東京都,千代田区,麹町５丁目１番地ＮＫ真和ビル９階,,13,101,1020083,,,,,,,2022-03-30,1,,,,,ドーン,0
1703,8010401166407,新規,0,2022-03-30,2022-03-30,ＲｅＦＩＮＥ株式会社,,株式会社,東京都,港区,六本木６丁目２番３１号六本木ヒルズノースタワー１７階,,13,103,1060032,,,,,,,2022-03-30,1,,,,,リファイン,0
1705,8010501048645,新規,0,2022-03-30,2022-03-30,宝徳薬品株式会社,,株式会社,東京都,台東区,松が谷３丁目５番９号西ビル,,13,106,1110036,,,,,,,2022-03-30,1,,,,,ホウトクヤクヒン,0
1714,8010903007265,新規,0,2022-03-30,2022-03-30,合同会社サクラノベーション,,合同会社,東京都,世田谷区,桜上水５丁目５番２６号－２,,13,112,1560045,,,,,,,2022-03-30,1,,,,,サクラノベーション,0
1718,8011001146583,新規,0,2022-03-30,2022-03-30,株式会社ｃｅｎｃｏ,,株式会社,東京都,渋谷区,道玄坂１丁目１０番８号渋谷道玄坂東急ビル２Ｆ－Ｃ,,13,113,1500043,,,,,,,2022-03-30,1,,,,,センコ,0
1719,8011001146600,新規,0,2022-03-30,2022-03-30,株式会社ＴＨＥ　ＧＲＡＮＤ　ＯＲＧＡＮＩＺＡＴＩＯＮ,,株式会社,東京都,渋谷区,恵比寿４丁目２３番１３号,,13,113,1500013,,,,,,,2022-03-30,1,,,,,ザグランドオーガナイゼーション,0
1725,8011101098337,新規,0,2022-03-30,2022-03-30,株式会社Ｍ＆Ｂ,,株式会社,東京都,新宿区,下落合２丁目１番１７号,,13,104,1610033,,,,,,,2022-03-30,1,,,,,エムアンドビー,0
1727,8011201023731,新規,0,2022-03-30,2022-03-30,株式会社ウォーターズリンク,,株式会社,東京都,中野区,鷺宮５丁目１８番８号,,13,114,1650032,,,,,,,2022-03-30,1,,,,,ウォーターズリンク,0
1732,8011601025831,新規,0,2022-03-30,2022-03-30,海如商事株式会社,,株式会社,東京都,練馬区,氷川台４丁目４０番１５－３０６号室,,13,120,1790084,,,,,,,2022-03-30,1,,,,,カイニョショウジ,0
1746,8020001145842,新規,0,2022-03-30,2022-03-30,株式会社Ｈｏｍｉｒａｃｌｅ,,株式会社,神奈川県,横浜市中区,相生町３丁目６０泰生ビル３Ｆ,,14,104,2310012,,,,,,,2022-03-30,1,,,,,ホミラクル,0
1748,8020005015439,新規,0,2022-03-30,2022-03-30,一般社団法人ギグワーカー,,その他の設立登記法人,神奈川県,横浜市旭区,中希望が丘１０６番地１７希望ビル３０１,,14,112,2410825,,,,,,,2022-03-30,1,,,,,ギグワーカー,0
1756,8030001147417,新規,0,2022-03-30,2022-03-30,株式会社令和建設,,株式会社,埼玉県,川口市,柳崎５丁目２０番１５号ブルバール弐番館４０２号,,11,203,3330861,,,,,,,2022-03-30,1,,,,,レイワケンセツ,0
1760,8030003019119,新規,0,2022-03-30,2022-03-30,合同会社フォースリー工業,,合同会社,埼玉県,南埼玉郡宮代町,笠原２丁目５番１０号,,11,442,3450822,,,,,,,2022-03-30,1,,,,,フォースリーコウギョウ,0
1763,8040001122757,新規,0,2022-03-30,2022-03-30,宮田駅まえビル管理株式会社,,株式会社,千葉県,船橋市,西習志野２丁目１１番１７号,,12,204,2740815,,,,,,,2022-03-30,1,,,,,ミヤタエキマエビルカンリ,0
1764,8040001122765,新規,0,2022-03-30,2022-03-30,ワイケーグローバル株式会社,,株式会社,千葉県,木更津市,請西東３丁目１０番地１３,,12,206,2920806,,,,,,,2022-03-30,1,,,,,ワイケーグローバル,0
1765,8040001122781,新規,0,2022-03-30,2022-03-30,株式会社エントラ,,株式会社,千葉県,千葉市花見川区,犢橋町６５９番地２,,12,102,2620013,,,,,,,2022-03-30,1,,,,,エントラ,0
1774,8050001050858,新規,0,2022-03-30,2022-03-30,藤鈑金塗装株式会社,,株式会社,茨城県,小美玉市,中台１６２番地２,,08,236,3190116,,,,,,,2022-03-30,1,,,,,フジバンキントソウ,0
1776,8060001034703,新規,0,2022-03-30,2022-03-30,はるいろステージ株式会社,,株式会社,栃木県,那須塩原市,二つ室７６番地３１,,09,213,3292731,,,,,,,2022-03-30,1,,,,,ハルイロステージ,0
1791,8100003006480,新規,0,2022-03-30,2022-03-30,合同会社みつばのひ,,合同会社,長野県,木曽郡木曽町,開田高原末川２７９９番地１,,20,432,3970301,,,,,,,2022-03-30,1,,,,,ミツバノヒ,0
1794,8110003004723,新規,0,2022-03-30,2022-03-30,合同会社エルステージ,,合同会社,新潟県,新発田市,大手町１丁目３番１５号,,15,206,9570052,,,,,,,2022-03-30,1,,,,,エルステージ,0
1795,8120001033335,新規,0,2022-03-30,2022-03-30,株式会社中村工務店,,株式会社,大阪府,大阪市住吉区,苅田７丁目５番２４号,,27,120,5580011,,,,,,,2022-03-30,1,,,,,ナカムラコウムテン,0
1811,8120001244766,新規,0,2022-03-30,2022-03-30,株式会社イチミリデザイン,,株式会社,大阪府,大阪市中央区,久太郎町３丁目５番５－３０２号,,27,128,5410056,,,,,,,2022-03-30,1,,,,,イチミリデザイン,0
1822,8140001125378,新規,0,2022-03-30,2022-03-30,株式会社フォレスト・ドア,,株式会社,兵庫県,丹波市,青垣町文室２４４番地,,28,223,6693826,,,,,,,2022-03-30,1,,,,,フォレストドア,0
1823,8140001125411,新規,0,2022-03-30,2022-03-30,ＡＭＩＲ　ＭＡＳＯＯＤ株式会社,,株式会社,兵庫県,神戸市長田区,雲雀ケ丘３丁目６番３号ヴィラナリー雲雀ヶ丘３号棟３０９号,,28,106,6530879,,,,,,,2022-03-30,1,,,,,アミルマスード,0
1825,8160001024074,新規,0,2022-03-30,2022-03-30,株式会社ユーリス,,株式会社,滋賀県,草津市,西渋川１丁目１番２６－６０６号プレサンスロジェ草津駅前,,25,206,5250025,,,,,,,2022-03-30,1,,,,,ユーリス,0
1829,8160003002524,新規,0,2022-03-30,2022-03-30,合同会社ハルとツキと,,合同会社,滋賀県,大津市,晴嵐２丁目１番２５号,,25,201,5200833,,,,,,,2022-03-30,1,,,,,ハルトツキト,0
1842,8180001150579,新規,0,2022-03-30,2022-03-30,株式会社Ｔ’ｓライフ,,株式会社,愛知県,名古屋市西区,平中町５グレーススクエアＫ４０２,,23,104,4520843,,,,,,,2022-03-30,1,,,,,ティーズライフ,0
1846,8180003023659,新規,0,2022-03-30,2022-03-30,合同会社コネクト,,合同会社,愛知県,名古屋市中区,丸の内３丁目２３番２３号リエトコート丸の内６０３号,,23,106,4600002,,,,,,,2022-03-30,1,,,,,コネクト,0
1849,8180301036057,新規,0,2022-03-30,2022-03-30,株式会社プレザントスター,,株式会社,愛知県,豊田市,花園町前田２２番地１,,23,211,4730924,,,,,,,2022-03-30,1,,,,,プレザントスター,0
1872,8260001036679,新規,0,2022-03-30,2022-03-30,株式会社源吉兆庵クリエイツ,,株式会社,岡山県,岡山市北区,幸町７番２８号,,33,101,7000903,,,,,,,2022-03-30,1,,,,,ミナモトキッチョウアンクリエイツ,0
1880,8290001096976,新規,0,2022-03-30,2022-03-30,ＮＴＤ株式会社,,株式会社,福岡県,福岡市中央区,高砂１丁目２２番２６号メゾン・サン薬院１０３号,,40,133,8100011,,,,,,,2022-03-30,1,,,,,エヌティーディー,0
1881,8290001096984,新規,0,2022-03-30,2022-03-30,株式会社Ｒａｙｓ　ｃｏｒｐ．,,株式会社,福岡県,太宰府市,石坂３丁目５番１３号,,40,221,8180118,,,,,,,2022-03-30,1,,,,,レイズコーポレーション,0
1883,8290003012329,新規,0,2022-03-30,2022-03-30,ユアリーナ合同会社,,合同会社,福岡県,福岡市中央区,大名２丁目１０番８－１８０３号,,40,133,8100041,,,,,,,2022-03-30,1,,,,,ユアリーナ,0
1885,8290803004095,新規,0,2022-03-30,2022-03-30,オフィス・エー合同会社,,合同会社,福岡県,北九州市小倉南区,徳力７丁目１番２０号,,40,107,8020974,,,,,,,2022-03-30,1,,,,,オフィスエー,0
1889,8340001024601,新規,0,2022-03-30,2022-03-30,株式会社ちぢわ,,株式会社,鹿児島県,伊佐市,大口篠原２５４番地６,,46,224,8952503,,,,,,,2022-03-30,1,,,,,チヂワ,0
1891,8350001017653,新規,0,2022-03-30,2022-03-30,奥霧島地域商社ツナガルたかはる株式会社,,株式会社,宮崎県,西諸県郡高原町,大字西麓３４４番地１,,45,361,8894412,,,,,,,2022-03-30,1,,,,,オクキリシマチイキショウシャツナガルタカハル,0
1894,8360001030184,新規,0,2022-03-30,2022-03-30,株式会社宮古島スパイス,,株式会社,沖縄県,宮古島市,下地字来間１０５番地６,,47,214,9060306,,,,,,,2022-03-30,1,,,,,ミヤコジマスパイス,0
1922,8430003013758,新規,0,2022-03-30,2022-03-30,合同会社ｐｌｕｓＨ,,合同会社,北海道,札幌市中央区,北六条西２０丁目１番１１－１０３号,,01,101,0600006,,,,,,,2022-03-30,1,,,,,プラスエイチ,0
1937,9010001225537,新規,0,2022-03-30,2022-03-30,Ｇｉｆｔｅｄ　Ｌａｂｏｒａｔｏｒｙ株式会社,,株式会社,東京都,文京区,本駒込３丁目２０番５号講談社ＦＳビル６Ｆ,,13,105,1130021,,,,,,,2022-03-30,1,,,,,ギフテッドラボラトリー,0
1940,9010003037377,新規,0,2022-03-30,2022-03-30,合同会社凛,,合同会社,東京都,中央区,入船２丁目２番３－５０１号,,13,102,1040042,,,,,,,2022-03-30,1,,,,,リン,0
1950,9010401166463,新規,0,2022-03-30,2022-03-30,株式会社Ｓａｃｈｉ,,株式会社,東京都,港区,南麻布４丁目１４番３号幸ビル２階,,13,103,1060047,,,,,,,2022-03-30,1,,,,,サチ,0
1953,9010405020872,新規,0,2022-03-30,2022-03-30,一般社団法人税務未来研究所,,その他の設立登記法人,東京都,港区,六本木７丁目２１番２４号ＴＨＥＭＯＤＵＬＥｒｏｐｐｏｎｇｉ４階,,13,103,1060032,,,,,,,2022-03-30,1,,,,,ゼイムミライケンキュウショ,0
1956,9010601060879,新規,0,2022-03-30,2022-03-30,株式会社Ｂｏｕｑｕｅｔ,,株式会社,東京都,墨田区,石原３丁目２６番５号,,13,107,1300011,,,,,,,2022-03-30,1,,,,,ブーケ,0
1958,9010701042430,新規,0,2022-03-30,2022-03-30,ＵＮＡＡＧＡ株式会社,,株式会社,東京都,品川区,東大井１丁目１１－２５－４１３,,13,109,1400011,,,,,,,2022-03-30,1,,,,,ウナーガ,0
1960,9010901050588,新規,0,2022-03-30,2022-03-30,株式会社ＳＫＹ　ＭＡＮ,,株式会社,東京都,世田谷区,上北沢５丁目４１番１１号,,13,112,1560057,,,,,,,2022-03-30,1,,,,,スカイマン,0
1968,9011001146525,新規,0,2022-03-30,2022-03-30,ムスビメ株式会社,,株式会社,東京都,渋谷区,渋谷２丁目１９－１５宮益坂ビルディング６０９,,13,113,1500002,,,,,,,2022-03-30,1,,,,,ムスビメ,0
1969,9011001146590,新規,0,2022-03-30,2022-03-30,Ｈａｙｆｉｎ　Ａｄｖｉｓｏｒｓ　Ｊａｐａｎ株式会社,,株式会社,東京都,渋谷区,恵比寿４丁目３番５号７０４号室アークアウトソーシング株式会社内,,13,113,1500013,,,,,,,2022-03-30,1,,,,,ハイフィンアドバイザーズジャパン,0
1972,9011101098352,新規,0,2022-03-30,2022-03-30,ＮＥＯ　Ｓｅａｒｃｈ　Ｐａｒｔｎｅｒｓ株式会社,,株式会社,東京都,新宿区,大久保１丁目２番１号天翔東新宿ビル８０２号室,,13,104,1690072,,,,,,,2022-03-30,1,,,,,ネオサーチパートナーズ,0
1983,9011601025830,新規,0,2022-03-30,2022-03-30,株式会社創美工夫,,株式会社,東京都,練馬区,大泉学園町４丁目３番２２号,,13,120,1780061,,,,,,,2022-03-30,1,,,,,ソウビクフウ,0
1988,9011801040506,新規,0,2022-03-30,2022-03-30,ＳｕｎＳｔａｒ株式会社,,株式会社,東京都,葛飾区,新宿６丁目２番１号シティタワー金町１２０４号,,13,122,1250051,,,,,,,2022-03-30,1,,,,,サンスター,0
1990,9012303001649,新規,0,2022-03-30,2022-03-30,合同会社Ａｍｏｐ,,合同会社,東京都,町田市,金森東２丁目１６番２２号,,13,209,1940015,,,,,,,2022-03-30,1,,,,,アモップ,0
1991,9012401039013,新規,0,2022-03-30,2022-03-30,株式会社Ｓｅｖｅｎｔｈ,,株式会社,東京都,多摩市,一ノ宮１丁目１４番地の１第２杉本荘１０２,,13,224,2060002,,,,,,,2022-03-30,1,,,,,セブンス,0
1992,9012401039021,新規,0,2022-03-30,2022-03-30,Ｒｅハウス株式会社,,株式会社,東京都,狛江市,西野川１丁目６番６号,,13,219,2010001,,,,,,,2022-03-30,1,,,,,アールイーハウス,0
1994,9012403005302,新規,0,2022-03-30,2022-03-30,合同会社ＴＴＰ,,合同会社,東京都,武蔵野市,吉祥寺東町１丁目１５番１号,,13,203,1800002,,,,,,,2022-03-30,1,,,,,ティーティーピー,0
2006,9020001145825,新規,0,2022-03-30,2022-03-30,株式会社ＳＹＳ,,株式会社,神奈川県,川崎市宮前区,水沢２丁目１８番１号,,14,136,2160012,,,,,,,2022-03-30,1,,,,,エスワイエス,0
2009,9020003021512,新規,0,2022-03-30,2022-03-30,合同会社ＣＥＬＳＩＯＲ,,合同会社,神奈川県,横浜市港北区,新羽町２３５４番地６,,14,109,2230057,,,,,,,2022-03-30,1,,,,,セルシオ,0
2010,9020005015454,新規,0,2022-03-30,2022-03-30,医療法人邦医会,,その他の設立登記法人,神奈川県,横浜市戸塚区,下倉田町９４５番地１,,14,110,2440815,,,,,,,2022-03-30,1,,,,,ホウイカイ,0
2021,9030001147457,新規,0,2022-03-30,2022-03-30,ｏｂｆ株式会社,,株式会社,埼玉県,富士見市,大字上南畑１９３番地５,,11,235,3540002,,,,,,,2022-03-30,1,,,,,オービーエフ,0
2025,9030005020767,新規,0,2022-03-30,2022-03-30,医療法人社団星翔会,,その他の設立登記法人,埼玉県,春日部市,一ノ割１丁目１３番２０号,,11,214,3440031,,,,,,,2022-03-30,1,,,,,セイショウカイ,0
2030,9040003019760,新規,0,2022-03-30,2022-03-30,ＬＯＮＧ　ＭＩ合同会社,,合同会社,千葉県,千葉市中央区,中央１丁目１０番１０号シャンボール第二千葉中央２０９号,,12,101,2600013,,,,,,,2022-03-30,1,,,,,ロンミー,0
2031,9040003019769,新規,0,2022-03-30,2022-03-30,ｍｏｌａ‐ｍｏｌａ合同会社,,合同会社,千葉県,浦安市,明海５丁目６番１７－９１３号ラ・フィネス新浦安,,12,227,2790014,,,,,,,2022-03-30,1,,,,,モラモラ,0
2035,9050001050824,新規,0,2022-03-30,2022-03-30,スマホメンテナンス株式会社,,株式会社,茨城県,古河市,東２丁目４－３３エストクールＳＡＮＥＩ２０１,,08,204,3060011,,,,,,,2022-03-30,1,,,,,スマホメンテナンス,0
2036,9050001050857,新規,0,2022-03-30,2022-03-30,株式会社上金マテリアル,,株式会社,茨城県,坂東市,鵠戸１２２８,,08,228,3060641,,,,,,,2022-03-30,1,,,,,ジョウキンマテリアル,0
2039,9060001034702,新規,0,2022-03-30,2022-03-30,株式会社ＳＨＩＶＡ,,株式会社,栃木県,小山市,大字犬塚１０１２－１１グリーンハイツＭ２０３号,,09,208,3230811,,,,,,,2022-03-30,1,,,,,シバ,0
2070,9120001244749,新規,0,2022-03-30,2022-03-30,株式会社Ｔ．ｓｔｙｌｅ,,株式会社,大阪府,大阪市西淀川区,野里２丁目１－１３エクセレント上新１５－１２０７,,27,113,5550024,,,,,,,2022-03-30,1,,,,,ティースタイル,0
2079,9122003002300,新規,0,2022-03-30,2022-03-30,合同会社ＳＡＫＵＲＡ　ＲＥＣＹＣＬＩＮＧ,,合同会社,大阪府,東大阪市,衣摺４丁目２２番１号２０５号室,,27,227,5770827,,,,,,,2022-03-30,1,,,,,サクラリサイクル,0
2080,9130001071432,新規,0,2022-03-30,2022-03-30,株式会社ＳＭＳ,,株式会社,京都府,京都市上京区,室町通寺之内上る下柳原北半町２２０,,26,102,6020014,,,,,,,2022-03-30,1,,,,,エスエムエス,0
2086,9160001024073,新規,0,2022-03-30,2022-03-30,株式会社清友エネックス,,株式会社,滋賀県,彦根市,安清町３番２７号,,25,202,5220082,,,,,,,2022-03-30,1,,,,,キヨトモエネックス,0
2094,9180001150520,新規,0,2022-03-30,2022-03-30,株式会社クリーンフォース,,株式会社,愛知県,名古屋市千種区,東山通５丁目１２番地の１ｈｉｎａｔａｈｉｇａｓｈｉｙａｍａ４０１号,,23,101,4640807,,,,,,,2022-03-30,1,,,,,クリーンフォース,0
2095,9180001150586,新規,0,2022-03-30,2022-03-30,株式会社ＳＣコンサルティング,,株式会社,愛知県,北名古屋市,沖村沖浦１００,,23,234,4810043,,,,,,,2022-03-30,1,,,,,エスシーコンサルティング,0
2101,9180301036048,新規,0,2022-03-30,2022-03-30,株式会社ＡＬＬ　ＷＩＮ,,株式会社,愛知県,豊橋市,松葉町１丁目１０５番地,,23,201,4400897,,,,,,,2022-03-30,1,,,,,オールウィン,0
2106,9200003005513,新規,0,2022-03-30,2022-03-30,合同会社まつなみＡＲＴ事務所,,合同会社,岐阜県,岐阜市,市橋６丁目９番１５号,,21,201,5008381,,,,,,,2022-03-30,1,,,,,マツナミアートジムショ,0
2126,9290001096967,新規,0,2022-03-30,2022-03-30,株式会社ＳＴＲＩＤＥ,,株式会社,福岡県,福岡市博多区,中洲５丁目３番８号アクア博多５Ｆ,,40,132,8100801,,,,,,,2022-03-30,1,,,,,ストライド,0
2135,9290801028384,新規,0,2022-03-30,2022-03-30,株式会社ａｃｔ,,株式会社,福岡県,鞍手郡鞍手町,大字新北９９３番地１,,40,402,8071313,,,,,,,2022-03-30,1,,,,,アクト,0
2139,9340001024600,新規,0,2022-03-30,2022-03-30,株式会社エイムプラン,,株式会社,鹿児島県,鹿児島市,東開町４番４１号,,46,201,8910115,,,,,,,2022-03-30,1,,,,,エイムプラン,0
2142,9350001017652,新規,0,2022-03-30,2022-03-30,株式会社Ｘ‐ＰＬＡＮ,,株式会社,宮崎県,宮崎市,小松台西１丁目５番地４,,45,201,8800954,,,,,,,2022-03-30,1,,,,,エックスプラン,0
2145,9360003011900,新規,0,2022-03-30,2022-03-30,合同会社ホーム,,合同会社,沖縄県,沖縄市,南桃原４丁目４５番２号,,47,211,9040035,,,,,,,2022-03-30,1,,,,,ホーム,0
2146,9360005006618,新規,0,2022-03-30,2022-03-30,一般社団法人ＯＨＳ,,その他の設立登記法人,沖縄県,中頭郡読谷村,字都屋１６７番地,,47,324,9040305,,,,,,,2022-03-30,1,,,,,オーエイチエス,0
2175,9430003013757,新規,0,2022-03-30,2022-03-30,合同会社ＳＡＯＴＯＭＥ,,合同会社,北海道,虻田郡真狩村,字真狩４－７３,,01,396,0481631,,,,,,,2022-03-30,1,,,,,サオトメ,0
2181,9480003001807,新規,0,2022-03-30,2022-03-30,ＪＳＢ合同会社,,合同会社,徳島県,小松島市,横須町１１番１３号ポラリス庄屋４０５号室,,36,203,7730006,,,,,,,2022-03-30,1,,,,,ジェイエスビー,0
