sequenceNumber,corporateNumber,process,correct,updateDate,changeDate,name,nameImageId,kind,prefectureName,cityName,streetNumber,addressImageId,prefectureCode,cityCode,postCode,addressOutside,addressOutsideImageId,closeDate,closeCause,successorCorporateNumber,changeCause,assignmentDate,latest,enName,enPrefectureName,enCityName,enAddressOutside,furigana,hihyoji
9,1010001242647,新規,0,2024-03-07,2024-03-07,非凡日本株式会社,,株式会社,東京都,千代田区,神田淡路町１丁目９番５号天翔ビルディング御茶ノ水３０４,,13,101,1010063,,,,,,,2024-03-07,1,,,,,ヒボンニホン,0
10,1010001242770,新規,0,2024-03-07,2024-03-07,スチールエンジホールディングス株式会社,,株式会社,東京都,中央区,八丁堀２丁目２１番６号,,13,102,1040032,,,,,,,2024-03-07,1,,,,,スチールエンジホールディングス,0
11,1010001242837,新規,0,2024-03-07,2024-03-07,株式会社リオ・アパートメントサービス,,株式会社,東京都,千代田区,永田町２丁目１２番４号,,13,101,1000014,,,,,,,2024-03-07,1,,,,,リオアパートメントサービス,0
12,1010003043119,新規,0,2024-03-07,2024-03-07,椿キャピタル合同会社,,合同会社,東京都,中央区,日本橋人形町１丁目１番２３－４０１号,,13,102,1030013,,,,,,,2024-03-07,1,,,,,ツバキキャピタル,0
13,1010101016034,新規,0,2024-03-07,2024-03-07,株式会社ワンストップ,,株式会社,東京都,八王子市,石川町２４４８番地４,,13,201,1920032,,,,,,,2024-03-07,1,,,,,ワンストップ,0
19,1010401180819,新規,0,2024-03-07,2024-03-07,株式会社ＭＩＲＡＩＳＥ　ＧＬＯＢＡＬ,,株式会社,東京都,港区,赤坂３丁目１番地１６号ＢＩビル７Ｆ,,13,103,1070052,,,,,,,2024-03-07,1,,,,,ミライズグローバル,0
20,1010401180876,新規,0,2024-03-07,2024-03-07,ＲＩＣＨ　ＰＲＯＳＰＥＣＴＩＶＥ　ＪＡＰＡＮ株式会社,,株式会社,東京都,港区,赤坂９丁目７番１号,,13,103,1070052,,,,,,,2024-03-07,1,,,,,リッチプロスペクティブジャパン,0
21,1010401180884,新規,0,2024-03-07,2024-03-07,Ｂｉｚａｃｃ　Ｐａｒｔｎｅｒｓ株式会社,,株式会社,東京都,港区,南青山３丁目１番３６号青山丸竹ビル６Ｆ,,13,103,1070062,,,,,,,2024-03-07,1,,,,,ビザックパートナーズ,0
25,1010403032076,新規,0,2024-03-07,2024-03-07,クリエイティブゾーン合同会社,,合同会社,東京都,港区,南青山２丁目２番１５号,,13,103,1070062,,,,,,,2024-03-07,1,,,,,クリエイティブゾーン,0
33,1010601064763,新規,0,2024-03-07,2024-03-07,株式会社ＪＤＨ,,株式会社,東京都,墨田区,京島１丁目６番６－２７０７号,,13,107,1310046,,,,,,,2024-03-07,1,,,,,ジェイディーエイチ,0
34,1010603010690,新規,0,2024-03-07,2024-03-07,アキレス合同会社,,合同会社,東京都,墨田区,吾妻橋３丁目１番４－８０１号,,13,107,1300001,,,,,,,2024-03-07,1,,,,,アキレス,0
37,1010701045647,新規,0,2024-03-07,2024-03-07,株式会社ＡＴＥＧＯ,,株式会社,東京都,品川区,戸越５丁目８番１０－２０７号,,13,109,1420041,,,,,,,2024-03-07,1,,,,,アテゴ,0
41,1010803004872,新規,0,2024-03-07,2024-03-07,合同会社Ｃｌｅｖｅｒ,,合同会社,東京都,大田区,蒲田５丁目２０番３号,,13,111,1440052,,,,,,,2024-03-07,1,,,,,クレバー,0
51,1011001160401,新規,0,2024-03-07,2024-03-07,株式会社賢慮の学校,,株式会社,東京都,渋谷区,道玄坂１丁目１０番８号２Ｆ－Ｃ,,13,113,1500043,,,,,,,2024-03-07,1,,,,,ケンリョノガッコウ,0
52,1011001160450,新規,0,2024-03-07,2024-03-07,株式会社マキマキ写真,,株式会社,東京都,渋谷区,代々木２丁目２３番１号,,13,113,1510053,,,,,,,2024-03-07,1,,,,,マキマキシャシン,0
57,1011101106444,新規,0,2024-03-07,2024-03-07,株式会社ＡＬＳＴＡＴＥ,,株式会社,東京都,新宿区,新宿１丁目３６番５号６階,,13,104,1600022,,,,,,,2024-03-07,1,,,,,アルステート,0
58,1011101106452,新規,0,2024-03-07,2024-03-07,株式会社ＭｉｎｔＳｐａｒｋ,,株式会社,東京都,新宿区,新宿１丁目３６番２号新宿第七葉山ビル３Ｆ,,13,104,1600022,,,,,,,2024-03-07,1,,,,,ミントスパーク,0
60,1011105010964,新規,0,2024-03-07,2024-03-07,医療法人社団縁崇会,,その他の設立登記法人,東京都,新宿区,新宿３丁目１４番２２号小川ビル４階,,13,104,1600022,,,,,,,2024-03-07,1,,,,,エンスウカイ,0
67,1011401025897,新規,0,2024-03-07,2024-03-07,株式会社マット,,株式会社,東京都,板橋区,高島平２丁目２６番７－４１１号,,13,119,1750082,,,,,,,2024-03-07,1,,,,,マット,0
68,1011503005979,新規,0,2024-03-07,2024-03-07,ＴＴＭ合同会社,,合同会社,東京都,荒川区,東日暮里６丁目２４番１３号３０２号室,,13,118,1160014,,,,,,,2024-03-07,1,,,,,ティーティーエム,0
70,1012301013810,新規,0,2024-03-07,2024-03-07,株式会社徳建,,株式会社,東京都,町田市,下小山田町２７３１番地９,,13,209,1940202,,,,,,,2024-03-07,1,,,,,トッケン,0
71,1012305002082,新規,0,2024-03-07,2024-03-07,一般社団法人町田市経営診断協会,,その他の設立登記法人,東京都,町田市,原町田６丁目９番８号ＡＥＴＡ町田４階,,13,209,1940013,,,,,,,2024-03-07,1,,,,,マチダシケイエイシンダンキョウカイ,0
74,1012401041595,新規,0,2024-03-07,2024-03-07,株式会社スリラボ,,株式会社,東京都,調布市,菊野台１丁目１７－５,,13,208,1820007,,,,,,,2024-03-07,1,,,,,スリラボ,0
78,1012405004953,新規,0,2024-03-07,2024-03-07,医療法人社団実会,,その他の設立登記法人,東京都,多摩市,鶴牧２丁目２５番地１６ルースト唐木田１階,,13,224,2060034,,,,,,,2024-03-07,1,,,,,ミノリカイ,0
89,1020001156020,新規,0,2024-03-07,2024-03-07,Ｆｒｏｚｅｎ株式会社,,株式会社,神奈川県,横浜市南区,庚台７めぐみ荘２０２,,14,105,2320008,,,,,,,2024-03-07,1,,,,,フローズン,0
90,1020001156078,新規,0,2024-03-07,2024-03-07,株式会社Ｒ２ＳＪ,,株式会社,神奈川県,横浜市金沢区,釜利谷東３丁目４０番８号,,14,108,2360042,,,,,,,2024-03-07,1,,,,,アールツーエスジェイ,0
91,1020001156136,新規,0,2024-03-07,2024-03-07,株式会社共栄管工,,株式会社,神奈川県,横浜市鶴見区,上末吉５丁目１８番１３号,,14,101,2300011,,,,,,,2024-03-07,1,,,,,キョウエイカンコウ,0
94,1020003025677,新規,0,2024-03-07,2024-03-07,合同会社ミヤケモータース,,合同会社,神奈川県,川崎市中原区,木月大町９番６－１号,,14,133,2110031,,,,,,,2024-03-07,1,,,,,ミヤケモータース,0
101,1021003014224,新規,0,2024-03-07,2024-03-07,合同会社絵本と子どもの未来を考える会,,合同会社,神奈川県,平塚市,明石町２８番１５号,,14,203,2540042,,,,,,,2024-03-07,1,,,,,エホントコドモノミライヲカンガエルカイ,0
102,1021003014232,新規,0,2024-03-07,2024-03-07,合同会社セットアップ,,合同会社,神奈川県,藤沢市,石川６５０番地の１８,,14,205,2520815,,,,,,,2024-03-07,1,,,,,セットアップ,0
107,1030001158890,新規,0,2024-03-07,2024-03-07,株式会社ラッキーオーラ,,株式会社,埼玉県,飯能市,柳町７番１０号ＫＩＶ商会館飯能Ａ号室,,11,209,3570035,,,,,,,2024-03-07,1,,,,,ラッキーオーラ,0
108,1030001159063,新規,0,2024-03-07,2024-03-07,ＣＭＳ　ＴＲＡＮＳ　ＬＩＮＥＳ株式会社,,株式会社,埼玉県,さいたま市緑区,東浦和４丁目１番地２５,,11,109,3360926,,,,,,,2024-03-07,1,,,,,シーエムエストランスラインズ,0
109,1030001159088,新規,0,2024-03-07,2024-03-07,株式会社ＨＯＭＩＥＳ,,株式会社,埼玉県,さいたま市大宮区,三橋４丁目９０２番地２,,11,103,3300856,,,,,,,2024-03-07,1,,,,,ホーミーズ,0
110,1030001159096,新規,0,2024-03-07,2024-03-07,日本東盈株式会社,,株式会社,埼玉県,戸田市,川岸１丁目４番８－１１２号,,11,224,3350015,,,,,,,2024-03-07,1,,,,,ニホントウエイ,0
111,1030001159113,新規,0,2024-03-07,2024-03-07,株式会社ＭＯＲＩ内装,,株式会社,埼玉県,川口市,領家１丁目８番１４号,,11,203,3320004,,,,,,,2024-03-07,1,,,,,モリナイソウ,0
117,1030003023770,新規,0,2024-03-07,2024-03-07,秋合同会社,,合同会社,埼玉県,川口市,西川口１丁目２０－１吉岡ビル３０２,,11,203,3320021,,,,,,,2024-03-07,1,,,,,アキ,0
118,1030005021574,新規,0,2024-03-07,2024-03-07,弁護士法人九重法律事務所,,その他の設立登記法人,埼玉県,さいたま市浦和区,常盤１０丁目９－１４斎藤ビル２階,,11,107,3300061,,,,,,,2024-03-07,1,,,,,ココノエホウリツジムショ,0
125,1040001132515,新規,0,2024-03-07,2024-03-07,テクノホールディングス株式会社,,株式会社,千葉県,柏市,中央１丁目６番３号,,12,217,2770023,,,,,,,2024-03-07,1,,,,,テクノホールディングス,0
130,1070001041457,新規,0,2024-03-07,2024-03-07,株式会社スイートガーデン半熟屋,,株式会社,群馬県,高崎市,吉井町上奥平３６１番地,,10,202,3702139,,,,,,,2024-03-07,1,,,,,スイートガーデンハンジュクヤ,0
131,1070001041465,新規,0,2024-03-07,2024-03-07,株式会社Ｅ‐ＶＩＳＩＯＮ,,株式会社,群馬県,高崎市,八千代町３丁目１０番５号アベーテ・カーサＩＶＡ２０１号,00133989,10,202,3700861,,,,,,,2024-03-07,1,,,,,イービジョン,0
132,1070003005303,新規,0,2024-03-07,2024-03-07,合同会社太陽,,合同会社,群馬県,高崎市,下之城町７３９番地１,,10,202,3700854,,,,,,,2024-03-07,1,,,,,タイヨウ,0
133,1080001026143,新規,0,2024-03-07,2024-03-07,株式会社エルワン,,株式会社,静岡県,静岡市駿河区,池田５７３番１号,,22,102,4228005,,,,,,,2024-03-07,1,,,,,エルワン,0
153,1090001018585,新規,0,2024-03-07,2024-03-07,株式会社むじん,,株式会社,山梨県,甲府市,北新２丁目５番２７号,,19,201,4000005,,,,,,,2024-03-07,1,,,,,ムジン,0
154,1100003007428,新規,0,2024-03-07,2024-03-07,合同会社ＡＹＡ,,合同会社,長野県,飯田市,駄科６８３番地３,,20,205,3992561,,,,,,,2024-03-07,1,,,,,アヤ,0
155,1100003007436,新規,0,2024-03-07,2024-03-07,Ｉｋｉｇａｉ　Ｃｏｒｐｏｒａｔｉｏｎ合同会社,,合同会社,長野県,北安曇郡白馬村,大字北城３５４４番地,,20,485,3999301,,,,,,,2024-03-07,1,,,,,イキガイコーポレーション,0
159,1110001038234,新規,0,2024-03-07,2024-03-07,株式会社大真総業,,株式会社,新潟県,上越市,新町９０番地,,15,222,9430822,,,,,,,2024-03-07,1,,,,,ダイシンソウギョウ,0
174,1120001262865,新規,0,2024-03-07,2024-03-07,Ｗｏｎｄｅｒｌａｎｄ　ＲＣ株式会社,,株式会社,大阪府,大阪市西成区,天下茶屋１丁目２８番１６号－２０４号室,,27,122,5570014,,,,,,,2024-03-07,1,,,,,ワンダーランドアールシィー,0
175,1120001262948,新規,0,2024-03-07,2024-03-07,株式会社ｄｏｔ２ｄｏｔ,,株式会社,大阪府,大阪市住吉区,長居東３丁目１番２８,,27,120,5580004,,,,,,,2024-03-07,1,,,,,ドットツードット,0
178,1120003026070,新規,0,2024-03-07,2024-03-07,合同会社セカンドステップ,,合同会社,大阪府,大阪市北区,梅田１丁目１‐３大阪駅前第３ビル２９階１‐１‐１号室,,27,127,5300001,,,,,,,2024-03-07,1,,,,,セカンドステップ,0
179,1120003026079,新規,0,2024-03-07,2024-03-07,心星商事合同会社,,合同会社,大阪府,大阪市中央区,日本橋１丁目１７番１７号ピカソ日本一ビル６０４号室,,27,128,5420073,,,,,,,2024-03-07,1,,,,,シンシンショウジ,0
180,1120003026087,新規,0,2024-03-07,2024-03-07,ＳＵＮＭＯＯＮ合同会社,,合同会社,大阪府,大阪市西成区,梅南１丁目３－１５梅南ビル１Ｆ,,27,122,5570033,,,,,,,2024-03-07,1,,,,,サンムーン,0
184,1120101069186,新規,0,2024-03-07,2024-03-07,株式会社ＶＡＣＡＴＩＯＮ　ＨＯＵＳＥ,,株式会社,大阪府,岸和田市,箕土路町２丁目１３番２４号山直ビル３Ｆ,,27,202,5960801,,,,,,,2024-03-07,1,,,,,バケーションハウス,0
189,1120905006574,新規,0,2024-03-07,2024-03-07,一般財団法人診療看護師等医療従事者育成支援協会,,その他の設立登記法人,大阪府,吹田市,千里山虹が丘１００番１－３１０号,,27,205,5650846,,,,,,,2024-03-07,1,,,,,シンリョウカンゴシトウイリョウジュウジシャイクセイシエンキョウカイ,0
192,1122001037875,新規,0,2024-03-07,2024-03-07,ユーナイス株式会社,,株式会社,大阪府,八尾市,大竹５丁目３９番地,,27,212,5810854,,,,,,,2024-03-07,1,,,,,ユーナイス,0
193,1130001076496,新規,0,2024-03-07,2024-03-07,株式会社ＭＵＮＯＹＡＫＵ,,株式会社,京都府,京丹後市,大宮町口大野４７番地,,26,212,6292501,,,,,,,2024-03-07,1,,,,,ムノウヤク,0
194,1130001076513,新規,0,2024-03-07,2024-03-07,株式会社オーライズ,,株式会社,京都府,向日市,寺戸町七ノ坪１００番地１００３号,,26,208,6170002,,,,,,,2024-03-07,1,,,,,オーライズ,0
207,1140001133552,新規,0,2024-03-07,2024-03-07,株式会社ＫｎｏｗｌｅｄｇｅＴｒａｎｓｆｅｒ,,株式会社,兵庫県,神戸市兵庫区,東山町３丁目３番１２号,,28,105,6520042,,,,,,,2024-03-07,1,,,,,ナレッジトランスファー,0
208,1140001133569,新規,0,2024-03-07,2024-03-07,株式会社かさね,,株式会社,兵庫県,神戸市西区,伊川谷町潤和１１８１番地の７６,,28,111,6512124,,,,,,,2024-03-07,1,,,,,カサネ,0
224,1180001160403,新規,0,2024-03-07,2024-03-07,株式会社スケールフリーネットワーク,,株式会社,愛知県,名古屋市中区,金山１丁目７番１０号,,23,106,4600022,,,,,,,2024-03-07,1,,,,,スケールフリーネットワーク,0
225,1180001160411,新規,0,2024-03-07,2024-03-07,株式会社ｋａｎａｍｅｙａ　ｐｌａｃｅ,,株式会社,愛知県,名古屋市中村区,名駅１丁目１番１号ＪＰタワー名古屋２１階,,23,105,4500002,,,,,,,2024-03-07,1,,,,,カナメヤプレイス,0
226,1180001160436,新規,0,2024-03-07,2024-03-07,株式会社濱口不動産,00133991,株式会社,愛知県,名古屋市南区,汐田町９番２９号,,23,112,4570016,,,,,,,2024-03-07,1,,,,,ハマグチフドウサン,0
227,1180001160444,新規,0,2024-03-07,2024-03-07,株式会社ｅｎ,,株式会社,愛知県,名古屋市中区,栄５丁目１８番２０号４０１号室,,23,106,4600008,,,,,,,2024-03-07,1,,,,,エン,0
233,1180301038373,新規,0,2024-03-07,2024-03-07,株式会社神戸屋商会,,株式会社,愛知県,豊田市,丸山町１０丁目６１番地,,23,211,4710832,,,,,,,2024-03-07,1,,,,,コウベヤショウカイ,0
237,1200001042227,新規,0,2024-03-07,2024-03-07,株式会社村岡鉄工所ホールディングス,,株式会社,岐阜県,各務原市,下切町西欠下１０１６番地,,21,213,5040924,,,,,,,2024-03-07,1,,,,,ムラオカテッコウショホールディングス,0
239,1200003006254,新規,0,2024-03-07,2024-03-07,合同会社アトラホーム,,合同会社,岐阜県,岐阜市,上大久和町４番地ルミエールオオクワ２Ｆ　Ｅ,,21,201,5008026,,,,,,,2024-03-07,1,,,,,アトラホーム,0
249,1270001008931,新規,0,2024-03-07,2024-03-07,株式会社こうさてん十,,株式会社,鳥取県,西伯郡大山町,羽田井３７４番地,,31,386,6893106,,,,,,,2024-03-07,1,,,,,コウサテンジュウ,0
250,1270005005578,新規,0,2024-03-07,2024-03-07,ＮＰＯ法人ＹＨＫサポート,,その他の設立登記法人,鳥取県,東伯郡北栄町,下神１９３－１,,31,372,6892105,,,,,,,2024-03-07,1,,,,,ワイエイチケイサポート,0
262,1290001104919,新規,0,2024-03-07,2024-03-07,株式会社ＭＴＳ,,株式会社,福岡県,福岡市博多区,金の隈３丁目６番１０－１号,,40,132,8120863,,,,,,,2024-03-07,1,,,,,エムティーエス,0
264,1290003015024,新規,0,2024-03-07,2024-03-07,合同会社ウイステック,,合同会社,福岡県,福岡市南区,皿山１丁目１－１０みますビル１Ｆ,,40,134,8111365,,,,,,,2024-03-07,1,,,,,ウイステック,0
267,1290005019312,新規,0,2024-03-07,2024-03-07,一般社団法人ＴＡＣ医業承継センター,,その他の設立登記法人,福岡県,福岡市南区,横手１丁目１３番２号,,40,134,8111311,,,,,,,2024-03-07,1,,,,,タックイギョウショウケイセンター,0
274,1330001031828,新規,0,2024-03-07,2024-03-07,株式会社リヴ・ステージ,,株式会社,熊本県,熊本市南区,城南町下宮地７３１番地,,43,104,8614204,,,,,,,2024-03-07,1,,,,,リヴステージ,0
289,1380005012803,新規,0,2024-03-07,2024-03-07,一般社団法人いわき甲斐楽園,,その他の設立登記法人,福島県,いわき市,好間町大利字小川崎１０３番地の１,,07,204,9701147,,,,,,,2024-03-07,1,,,,,イワキカイラクエン,0
308,1490001010709,新規,0,2024-03-07,2024-03-07,株式会社プラヴィダ,,株式会社,高知県,高知市,北川添１３番地１９,,39,201,7810081,,,,,,,2024-03-07,1,,,,,プラヴィダ,0
327,2010001242646,新規,0,2024-03-07,2024-03-07,株式会社Ｗｉｓｔｅｒｉａｓ,,株式会社,東京都,千代田区,神田佐久間町３丁目２１番１号インターアクトビル４Ｆ,,13,101,1010025,,,,,,,2024-03-07,1,,,,,ウィステリアス,0
328,2010001242885,新規,0,2024-03-07,2024-03-07,株式会社ｉｓｓｏｗ,,株式会社,東京都,中央区,日本橋久松町４－７グリームス日本橋,,13,102,1030005,,,,,,,2024-03-07,1,,,,,イッソウ,0
331,2010003043126,新規,0,2024-03-07,2024-03-07,ホライズン２合同会社,,合同会社,東京都,中央区,日本橋１丁目４番１号日本橋一丁目ビルディング,,13,102,1030027,,,,,,,2024-03-07,1,,,,,ホライズンツー,0
332,2010005038000,新規,0,2024-03-07,2024-03-07,一般社団法人ＳＬＥソーラー,,その他の設立登記法人,東京都,千代田区,神田須田町１丁目２４－５ＴＨＥＣＲＯＳＳ神田５階,,13,101,1010041,,,,,,,2024-03-07,1,,,,,エスエルイーソーラー,0
341,2010401180842,新規,0,2024-03-07,2024-03-07,株式会社ＰＧＭ測量事務所,,株式会社,東京都,港区,六本木６丁目１０番１号,,13,103,1060032,,,,,,,2024-03-07,1,,,,,ピージーエムソクリョウジムショ,0
342,2010401180850,新規,0,2024-03-07,2024-03-07,Ｃｏｍｐａｓｓ株式会社,,株式会社,東京都,港区,西新橋１丁目６番１２号アイオス虎ノ門８０３,,13,103,1050003,,,,,,,2024-03-07,1,,,,,コンパス,0
350,2010501051893,新規,0,2024-03-07,2024-03-07,株式会社台丸谷,,株式会社,東京都,台東区,上野２丁目４番４号信水ビル４階Ｂ号室,,13,106,1100005,,,,,,,2024-03-07,1,,,,,ダイマルヤ,0
352,2010601064713,新規,0,2024-03-07,2024-03-07,株式会社星野事務所,,株式会社,東京都,江東区,東陽２丁目４番３４号東郷ビルＷＥＳＴ５０３号,,13,108,1350016,,,,,,,2024-03-07,1,,,,,ホシノジムショ,0
360,2010803004871,新規,0,2024-03-07,2024-03-07,ＤＯＭＡ合同会社,,合同会社,東京都,大田区,南蒲田２丁目８番９号２Ｆ,,13,111,1440035,,,,,,,2024-03-07,1,,,,,ドマ,0
362,2010901054819,新規,0,2024-03-07,2024-03-07,株式会社ＦＬＩＰ　ＦＲＡＭＥ,,株式会社,東京都,世田谷区,太子堂１丁目１２番２７,,13,112,1540004,,,,,,,2024-03-07,1,,,,,フリップフレーム,0
363,2010903008871,新規,0,2024-03-07,2024-03-07,Ｎｅｔ　Ｐａｒ　Ｐｌａｙ合同会社,,合同会社,東京都,世田谷区,代沢５丁目３１－２,,13,112,1550032,,,,,,,2024-03-07,1,,,,,ネットパープレイ,0
368,2011001160375,新規,0,2024-03-07,2024-03-07,スターインベストメント株式会社,,株式会社,東京都,渋谷区,富ヶ谷２丁目１７番１４号ハイシティ代々木公園１０３,,13,113,1510063,,,,,,,2024-03-07,1,,,,,スターインベストメント,0
369,2011001160383,新規,0,2024-03-07,2024-03-07,株式会社ブロードエッジ・ブリュワリー,,株式会社,東京都,渋谷区,代官山町２０番９号,,13,113,1500034,,,,,,,2024-03-07,1,,,,,ブロードエッジブリュワリー,0
370,2011001160400,新規,0,2024-03-07,2024-03-07,株式会社Ｇｉｖｅｒｎｙ,,株式会社,東京都,目黒区,中目黒２丁目７番７－３０９号,,13,110,1530061,,,,,,,2024-03-07,1,,,,,ジヴェルニー,0
371,2011001160417,新規,0,2024-03-07,2024-03-07,株式会社ＬＩＮＤＡ．,,株式会社,東京都,渋谷区,渋谷２丁目１２番１９号,,13,113,1500002,,,,,,,2024-03-07,1,,,,,リンダ,0
372,2011001160425,新規,0,2024-03-07,2024-03-07,株式会社ｒａｉｎ,,株式会社,東京都,渋谷区,松濤１丁目２８番８号ＬＯＨＡＳ・ＳＨＯＴＯ３階,,13,113,1500046,,,,,,,2024-03-07,1,,,,,レイン,0
373,2011001160433,新規,0,2024-03-07,2024-03-07,株式会社ＥＮＤｒｅａｍ,,株式会社,東京都,目黒区,東が丘２丁目６番２５号,,13,110,1520021,,,,,,,2024-03-07,1,,,,,エンドリーム,0
374,2011003018638,新規,0,2024-03-07,2024-03-07,合同会社エヌクルール,,合同会社,東京都,渋谷区,恵比寿３丁目４６番１号Ｓａｋｕｒａ・Ｃｏｕｒｔ・Ｅｂｉｓ２０５,,13,113,1500013,,,,,,,2024-03-07,1,,,,,エヌクルール,0
378,2011105010963,新規,0,2024-03-07,2024-03-07,医療法人社団ＬＴＧ,,その他の設立登記法人,東京都,新宿区,西新宿６丁目１５番１号セントラルパークタワー・ラ・トゥール新宿１階１０４号室,,13,104,1600023,,,,,,,2024-03-07,1,,,,,エルティジー,0
379,2011201025287,新規,0,2024-03-07,2024-03-07,株式会社ルクール,,株式会社,東京都,中野区,中央１丁目３４番１号,,13,114,1640011,,,,,,,2024-03-07,1,,,,,ルクール,0
383,2011301029460,新規,0,2024-03-07,2024-03-07,株式会社山下総合建築,,株式会社,東京都,杉並区,梅里２丁目２１番７号,,13,115,1660011,,,,,,,2024-03-07,1,,,,,ヤマシタソウゴウケンチク,0
384,2011301029477,新規,0,2024-03-07,2024-03-07,株式会社ＥＶｅｒ　ｃｈａｒｇｅ,,株式会社,東京都,杉並区,宮前４丁目３０番２４号,,13,115,1680081,,,,,,,2024-03-07,1,,,,,エバーチャージ,0
385,2011305002967,新規,0,2024-03-07,2024-03-07,医療法人社団ＳＫＲ,,その他の設立登記法人,東京都,杉並区,永福１丁目４２番７号,,13,115,1680064,,,,,,,2024-03-07,1,,,,,エスケーアール,0
404,2020001156044,新規,0,2024-03-07,2024-03-07,株式会社１１ＰＬＵＳ,,株式会社,神奈川県,横浜市神奈川区,西大口１７５番地１,,14,102,2210004,,,,,,,2024-03-07,1,,,,,イレブンプラス,0
405,2020001156119,新規,0,2024-03-07,2024-03-07,株式会社進季園,,株式会社,神奈川県,横浜市港南区,野庭町６５７番地,,14,111,2340056,,,,,,,2024-03-07,1,,,,,シンキエン,0
407,2020003025676,新規,0,2024-03-07,2024-03-07,ＳＩコンサルティングアンドマネジメント合同会社,,合同会社,神奈川県,横浜市戸塚区,矢部町１８０５番地２８,,14,110,2440002,,,,,,,2024-03-07,1,,,,,エスアイコンサルティングアンドマネジメント,0
409,2021001081620,新規,0,2024-03-07,2024-03-07,株式会社ＫＩＣＨＩ電工,,株式会社,神奈川県,伊勢原市,下糟屋２２７９番地の２ヴィラウィングスＶ２０３号,00133984,14,214,2591143,,,,,,,2024-03-07,1,,,,,キチデンコウ,0
410,2021001081637,新規,0,2024-03-07,2024-03-07,あしがらホールディングス株式会社,,株式会社,神奈川県,南足柄市,狩野４８６番地,,14,217,2500126,,,,,,,2024-03-07,1,,,,,アシガラホールディングス,0
411,2021001081645,新規,0,2024-03-07,2024-03-07,株式会社エムクオーレ,,株式会社,神奈川県,大和市,上草柳９４番地３コンフォート緑野１０５号,,14,213,2420029,,,,,,,2024-03-07,1,,,,,エムクオーレ,0
414,2021003014231,新規,0,2024-03-07,2024-03-07,合同会社Ｋｉｏ,,合同会社,神奈川県,藤沢市,片瀬海岸２丁目１４－８,,14,205,2510035,,,,,,,2024-03-07,1,,,,,キオ,0
416,2030001159087,新規,0,2024-03-07,2024-03-07,株式会社Ｂｉｅｎｅ,,株式会社,埼玉県,所沢市,西住吉１０番１３号,,11,208,3591126,,,,,,,2024-03-07,1,,,,,ビーネ,0
417,2030001159095,新規,0,2024-03-07,2024-03-07,株式会社魁興産,,株式会社,埼玉県,東松山市,加美町６番９号加美町オフィス２２,,11,212,3550011,,,,,,,2024-03-07,1,,,,,サキガケコウサン,0
418,2030001159112,新規,0,2024-03-07,2024-03-07,株式会社ＧＬＵＬＵ,,株式会社,埼玉県,川越市,霞ケ関北２丁目２６番地４,,11,201,3501109,,,,,,,2024-03-07,1,,,,,グルル,0
421,2030003023695,新規,0,2024-03-07,2024-03-07,愛美合同会社,,合同会社,埼玉県,さいたま市大宮区,堀の内町３丁目４６９番地２７,,11,103,3300804,,,,,,,2024-03-07,1,,,,,アイミ,0
424,2040001132506,新規,0,2024-03-07,2024-03-07,株式会社ｅｖｅｒｇｒｅｅｎ,,株式会社,千葉県,白井市,根２９６－６,,12,232,2701431,,,,,,,2024-03-07,1,,,,,エバーグリーン,0
425,2040001132539,新規,0,2024-03-07,2024-03-07,株式会社ドットラインホールディングス,,株式会社,千葉県,千葉市美浜区,中瀬２丁目６番地１,,12,106,2610023,,,,,,,2024-03-07,1,,,,,ドットラインホールディングス,0
433,2050003008182,新規,0,2024-03-07,2024-03-07,合同会社フレイミー,,合同会社,茨城県,つくば市,下別府２９４,,08,220,3002666,,,,,,,2024-03-07,1,,,,,フレイミー,0
436,2070001041456,新規,0,2024-03-07,2024-03-07,株式会社クリーン,,株式会社,群馬県,桐生市,境野町２丁目６４１番地の８,,10,203,3760002,,,,,,,2024-03-07,1,,,,,クリーン,0
437,2070001041464,新規,0,2024-03-07,2024-03-07,株式会社唐澤庭業,,株式会社,群馬県,渋川市,北牧２１２番地２,,10,208,3770205,,,,,,,2024-03-07,1,,,,,カラサワテイギョウ,0
450,2100003007427,新規,0,2024-03-07,2024-03-07,合同会社カインド,,合同会社,長野県,飯田市,鼎名古熊１９９６番地８,,20,205,3950804,,,,,,,2024-03-07,1,,,,,カインド,0
451,2100003007435,新規,0,2024-03-07,2024-03-07,合同会社Ｓｔａｎｄｂｙ,,合同会社,長野県,塩尻市,大門並木町８番１２号,,20,215,3990746,,,,,,,2024-03-07,1,,,,,スタンバイ,0
453,2110001038233,新規,0,2024-03-07,2024-03-07,株式会社技術開発エンジニアリング,,株式会社,新潟県,新潟市江南区,丸潟新田５０４番地３,,15,104,9501132,,,,,,,2024-03-07,1,,,,,ギジュツカイハツエンジニアリング,0
472,2120001262856,新規,0,2024-03-07,2024-03-07,株式会社ａｃｅ　ｈｉｇｈ,,株式会社,大阪府,大阪市平野区,背戸口３丁目６番２７号１号,,27,126,5470034,,,,,,,2024-03-07,1,,,,,エースハイ,0
473,2120001262914,新規,0,2024-03-07,2024-03-07,株式会社アールエスＭＥＤ,,株式会社,大阪府,大阪市西区,新町１丁目３３番１号ＯｎｅＳｈｉｎｍａｃｈｉ１階１０１号,,27,106,5500013,,,,,,,2024-03-07,1,,,,,アールエスメッド,0
474,2120003026061,新規,0,2024-03-07,2024-03-07,合同会社チャッカリー,,合同会社,大阪府,大阪市鶴見区,今津南１丁目９番１２－１３０２号,,27,124,5380043,,,,,,,2024-03-07,1,,,,,チャッカリー,0
475,2120003026078,新規,0,2024-03-07,2024-03-07,合同会社キャリアコネクト,,合同会社,大阪府,大阪市東住吉区,住道矢田７丁目１２番６号,,27,121,5460022,,,,,,,2024-03-07,1,,,,,キャリアコネクト,0
476,2120003026094,新規,0,2024-03-07,2024-03-07,合同会社Ｂｒｉｄｇｅ　Ｆｉｅｌｄｓ,,合同会社,大阪府,大阪市西区,京町堀１丁目１０番１２号２０１,,27,106,5500003,,,,,,,2024-03-07,1,,,,,ブリッジフィールズ,0
480,2120101069177,新規,0,2024-03-07,2024-03-07,株式会社どっさり,,株式会社,大阪府,岸和田市,包近町５１９番地の１,,27,202,5960101,,,,,,,2024-03-07,1,,,,,ドッサリ,0
481,2120103005709,新規,0,2024-03-07,2024-03-07,合同会社ｃｏｎｎｅｃｔ,,合同会社,大阪府,大阪狭山市,今熊４丁目６６５－４７,,27,231,5890021,,,,,,,2024-03-07,1,,,,,コネクト,0
486,2120901048850,新規,0,2024-03-07,2024-03-07,株式会社ＱｉｏＮ,,株式会社,大阪府,吹田市,泉町５丁目２６番１１－２号,,27,205,5640041,,,,,,,2024-03-07,1,,,,,キオン,0
487,2120901048867,新規,0,2024-03-07,2024-03-07,株式会社ＣＨＩＡＲＡ,,株式会社,大阪府,豊中市,東豊中町５丁目２番１２５－２０３号,,27,203,5600003,,,,,,,2024-03-07,1,,,,,キアラ,0
488,2122001037890,新規,0,2024-03-07,2024-03-07,株式会社ＧＬＯＲＹ　ＤＡＹＳ,,株式会社,大阪府,東大阪市,足代２丁目３番６号７Ｆ－Ｃ,,27,227,5770841,,,,,,,2024-03-07,1,,,,,グローリーデイズ,0
500,2130001076495,新規,0,2024-03-07,2024-03-07,株式会社ｒｅｃｉｔ,,株式会社,京都府,京都市下京区,高倉通仏光寺上る西前町３６７番地２,,26,106,6008083,,,,,,,2024-03-07,1,,,,,レフィー,0
501,2130001076520,新規,0,2024-03-07,2024-03-07,株式会社Ｃｏｎｎｅｃｔ,,株式会社,京都府,京都市山科区,竹鼻四丁野町２３番地１シャーメゾン聖２０１,,26,110,6078086,,,,,,,2024-03-07,1,,,,,コネクト,0
502,2130001076529,新規,0,2024-03-07,2024-03-07,株式会社百継,,株式会社,京都府,京都市左京区,岡崎北御所町５０－２,,26,103,6068336,,,,,,,2024-03-07,1,,,,,ヒャッケイ,0
513,2140001133543,新規,0,2024-03-07,2024-03-07,株式会社播磨屋,,株式会社,兵庫県,西宮市,南昭和町３番２９－５０５号,,28,204,6620834,,,,,,,2024-03-07,1,,,,,ハリマヤ,0
515,2140003020236,新規,0,2024-03-07,2024-03-07,合同会社ＲＹＵ‐ＮＥＳＴ,,合同会社,兵庫県,宝塚市,山本東２丁目４番６号,,28,214,6650881,,,,,,,2024-03-07,1,,,,,リュウネスト,0
517,2160001025739,新規,0,2024-03-07,2024-03-07,株式会社トレンディ・アーツ・パーソンズ,,株式会社,滋賀県,長浜市,八幡中山町１３８番ａ．ｇ．ＨｏｕｓｅＣ,,25,203,5260021,,,,,,,2024-03-07,1,,,,,トレンディアーツパーソンズ,0
528,2180301038372,新規,0,2024-03-07,2024-03-07,トランスフォーマー株式会社,,株式会社,愛知県,豊橋市,雲谷町字ハシヅメ３番地８４,,23,201,4413104,,,,,,,2024-03-07,1,,,,,トランスフォーマー,0
529,2180301038380,新規,0,2024-03-07,2024-03-07,株式会社わらくコンサルタント,,株式会社,愛知県,豊川市,伊奈町市場１２５番地２,,23,207,4410105,,,,,,,2024-03-07,1,,,,,ワラクコンサルタント,0
530,2180301038389,新規,0,2024-03-07,2024-03-07,株式会社Ｇｒａｖｉｓ,,株式会社,愛知県,刈谷市,若松町３丁目９番地ＹＦビル３Ｆ,,23,210,4480858,,,,,,,2024-03-07,1,,,,,グラビス,0
531,2180301038397,新規,0,2024-03-07,2024-03-07,アフィニティホールディングス株式会社,,株式会社,愛知県,豊田市,下山田代町カシブチ３６番地,,23,211,4443222,,,,,,,2024-03-07,1,,,,,アフィニティホールディングス,0
532,2190001031164,新規,0,2024-03-07,2024-03-07,株式会社たこアンドたい四日市２０２４,,株式会社,三重県,四日市市,浜一色町１３番１７号,,24,202,5100031,,,,,,,2024-03-07,1,,,,,タコアンドタイヨッカイチニーマルニーヨン,0
548,2240003006563,新規,0,2024-03-07,2024-03-07,合同会社薫,,合同会社,広島県,廿日市市,原１６７９番地１,,34,213,7380031,,,,,,,2024-03-07,1,,,,,カオル,0
557,2260001038813,新規,0,2024-03-07,2024-03-07,株式会社ＷＡＮＤＥＲ,,株式会社,岡山県,岡山市北区,津島本町１番８－３号グラン津島１０１,,33,101,7000089,,,,,,,2024-03-07,1,,,,,ワンダー,0
563,2290803004638,新規,0,2024-03-07,2024-03-07,合同会社ＦＲ‐Ｄｒｉｖｅ,,合同会社,福岡県,遠賀郡岡垣町,旭台２丁目１８番２号,,40,383,8114215,,,,,,,2024-03-07,1,,,,,エフアールドライブ,0
569,2310005008749,新規,0,2024-03-07,2024-03-07,社会福祉法人桜花,,その他の設立登記法人,長崎県,長崎市,大園町１０番１１号,,42,201,8528062,,,,,,,2024-03-07,1,,,,,オウカ,0
570,2320001020327,新規,0,2024-03-07,2024-03-07,こわけ株式会社,,株式会社,大分県,由布市,湯布院町川上２１７２番地,,44,213,8795102,,,,,,,2024-03-07,1,,,,,コワケ,0
573,2330001031810,新規,0,2024-03-07,2024-03-07,株式会社未来マーケティングＬａｂ,,株式会社,熊本県,熊本市中央区,新屋敷３丁目１５番１１－１５０１号,,43,101,8620975,,,,,,,2024-03-07,1,,,,,ミライマーケティングラボ,0
574,2330001031819,新規,0,2024-03-07,2024-03-07,成和ホールディングス株式会社,,株式会社,熊本県,天草市,宮地岳町３８０７番地,,43,215,8631161,,,,,,,2024-03-07,1,,,,,セイワホールディングス,0
584,2370001051004,新規,0,2024-03-07,2024-03-07,株式会社Ｐｅａｃｅ,,株式会社,宮城県,多賀城市,新田字北安楽寺３番地の１サンパティークＡ１０２号,,04,209,9850854,,,,,,,2024-03-07,1,,,,,ピース,0
594,2420003002882,新規,0,2024-03-07,2024-03-07,合同会社ａｍｏｕｒ,,合同会社,青森県,上北郡七戸町,字寺裏４１番地８,,02,402,0392524,,,,,,,2024-03-07,1,,,,,,0
609,2700150059367,新規,0,2024-03-07,2015-10-09,福岡県自動車販売店協会,,その他,福岡県,福岡市東区,千早３丁目９－２３,,40,131,8130044,,,,,,,2015-10-09,1,,,,,フクオカケンジドウシヤハンバイテンキヨウカイ,0
610,2700150123924,新規,0,2024-03-07,2024-02-13,三次薬剤師会,,その他,広島県,三次市,十日市東５丁目１６番１０号コウノビル２Ｆ－５,,34,209,7280013,,,,,,,2024-02-13,1,,,,,ミヨシヤクザイシカイ,0
620,3010001242736,新規,0,2024-03-07,2024-03-07,アストラ株式会社,,株式会社,東京都,中央区,銀座１丁目２２番１１号銀座大竹ビジデンス２Ｆ,,13,102,1040061,,,,,,,2024-03-07,1,,,,,アストラ,0
621,3010001242769,新規,0,2024-03-07,2024-03-07,株式会社美徳,,株式会社,東京都,中央区,東日本橋２丁目１１番７号ラスパシオ東日本橋リバーサイド１Ｆ,,13,102,1030004,,,,,,,2024-03-07,1,,,,,ビトク,0
622,3010001242785,新規,0,2024-03-07,2024-03-07,スギウェルネス株式会社,,株式会社,東京都,千代田区,鍛冶町２丁目６番１号,,13,101,1010044,,,,,,,2024-03-07,1,,,,,スギウェルネス,0
623,3010001242851,新規,0,2024-03-07,2024-03-07,株式会社３ｓｅｅｄ,,株式会社,東京都,中央区,日本橋本石町４丁目２－２ＵＳビル３０２,,13,102,1030021,,,,,,,2024-03-07,1,,,,,サンシード,0
624,3010001242901,新規,0,2024-03-07,2024-03-07,株式会社ＷＥＥＤ,,株式会社,東京都,中央区,日本橋堀留町１丁目３－９ヴァンヴェール日本橋４０４号,,13,102,1030012,,,,,,,2024-03-07,1,,,,,ウィード,0
629,3010003043117,新規,0,2024-03-07,2024-03-07,エンセッション合同会社,,合同会社,東京都,中央区,日本橋室町１丁目１１番１２号日本橋水野ビル７階,,13,102,1030022,,,,,,,2024-03-07,1,,,,,エンセッション,0
630,3010003043133,新規,0,2024-03-07,2024-03-07,ｂｕｔｔｏｎ合同会社,,合同会社,東京都,千代田区,麹町１丁目６番１６号半蔵門海和ビル９階（Ｃ／ＯＪｏｏ－ｒｅａｌｅｓｔａｔｅ－ｏｆｆｉｃｅ）,,13,101,1020083,,,,,,,2024-03-07,1,,,,,ボタン,0
631,3010003043158,新規,0,2024-03-07,2024-03-07,ブルーグラス合同会社,,合同会社,東京都,千代田区,丸の内３丁目１番１号東京共同会計事務所内,,13,101,1000005,,,,,,,2024-03-07,1,,,,,ブルーグラス,0
646,3010401180370,新規,0,2024-03-07,2024-03-07,株式会社日本飲食サービスセンター,,株式会社,東京都,港区,西麻布１丁目４番４３号ＮＫビル１Ｆ,,13,103,1060031,,,,,,,2024-03-07,1,,,,,ニホンインショクサービスセンター,0
647,3010401180833,新規,0,2024-03-07,2024-03-07,ＭＣＰ２４株式会社,,株式会社,東京都,港区,元赤坂１丁目１番８号株式会社赤坂国際会計内,,13,103,1070051,,,,,,,2024-03-07,1,,,,,エムシーピーツーフォー,0
648,3010401180841,新規,0,2024-03-07,2024-03-07,Ｍ’ｓ　Ｓｔｒａｔｅｇｉｅｓ株式会社,,株式会社,東京都,港区,南青山３丁目１番３６号青山丸竹ビル６Ｆ,,13,103,1070062,,,,,,,2024-03-07,1,,,,,エムズストラテジーズ,0
652,3010403032116,新規,0,2024-03-07,2024-03-07,合同会社ＡＩＮＺ　ＳＯＬＵＴＩＯＮＳ,,合同会社,東京都,港区,南青山２丁目２番１５号,,13,103,1070062,,,,,,,2024-03-07,1,,,,,アインズソリューションズ,0
660,3010805003094,新規,0,2024-03-07,2024-03-07,医療法人社団仁小児科,,その他の設立登記法人,東京都,大田区,東雪谷２丁目１６番１号ホワイトハイム石川台１階,,13,111,1450065,,,,,,,2024-03-07,1,,,,,ジンショウニカ,0
661,3010901054818,新規,0,2024-03-07,2024-03-07,株式会社スタイルクリエーション,,株式会社,東京都,世田谷区,経堂４丁目３６番１２号シャトー赤城１０２,,13,112,1560052,,,,,,,2024-03-07,1,,,,,スタイルクリエーション,0
665,3011001160440,新規,0,2024-03-07,2024-03-07,株式会社エル・イサムーチョ,,株式会社,東京都,渋谷区,桜丘町２４番８号新南平台マンション９０１,,13,113,1500031,,,,,,,2024-03-07,1,,,,,エルイサムーチョ,0
671,3011105010962,新規,0,2024-03-07,2024-03-07,土地家屋調査士法人フジ登記測量,,その他の設立登記法人,東京都,新宿区,新宿２丁目１番９号９Ｆ,,13,104,1600022,,,,,,,2024-03-07,1,,,,,フジトウキソクリョウ,0
675,3011601027584,新規,0,2024-03-07,2024-03-07,株式会社飛鳥舎,,株式会社,東京都,練馬区,北町２丁目２５番１３クレスト北町イースト３０１号,,13,120,1790081,,,,,,,2024-03-07,1,,,,,アスカシャ,0
677,3011801043893,新規,0,2024-03-07,2024-03-07,株式会社ＫＡＳＥＩ,,株式会社,東京都,足立区,千住大川町１番１－６０２号,,13,121,1200031,,,,,,,2024-03-07,1,,,,,カセイ,0
684,3012403006438,新規,0,2024-03-07,2024-03-07,ＡＡＭＡ合同会社,,合同会社,東京都,三鷹市,下連雀３丁目３７番５号コーポ寿苑３０４,,13,204,1810013,,,,,,,2024-03-07,1,,,,,アマ,0
687,3012801023010,新規,0,2024-03-07,2024-03-07,株式会社ＨＡＫＴ,,株式会社,東京都,国立市,青柳３丁目１５番地の３７,,13,215,1860013,,,,,,,2024-03-07,1,,,,,ハクト,0
695,3020001156118,新規,0,2024-03-07,2024-03-07,株式会社ＳＡＫＡＳ,,株式会社,神奈川県,横浜市西区,岡野１丁目９番地７号リーベスト岡野町ビル１０１号室,,14,103,2200073,,,,,,,2024-03-07,1,,,,,サカス,0
696,3020001156134,新規,0,2024-03-07,2024-03-07,株式会社Ｙｚ,,株式会社,神奈川県,川崎市川崎区,桜本１丁目１１番２２－２号,,14,131,2100833,,,,,,,2024-03-07,1,,,,,ワイズ,0
697,3020001156142,新規,0,2024-03-07,2024-03-07,株式会社メディカリンク,,株式会社,神奈川県,横浜市戸塚区,上矢部町２９１６番地,,14,110,2450053,,,,,,,2024-03-07,1,,,,,メディカリンク,0
698,3020003025683,新規,0,2024-03-07,2024-03-07,合同会社ＰＯＮＤ,,合同会社,神奈川県,横浜市南区,南太田１丁目３９番３４号ＭグランディアＩＩ２０２号室,00133990,14,105,2320006,,,,,,,2024-03-07,1,,,,,ポンド,0
707,3021001081611,新規,0,2024-03-07,2024-03-07,株式会社ｓｈｉｃｏｏ,,株式会社,神奈川県,鎌倉市,笹目町１０番４－２号アルバコート２,,14,204,2480015,,,,,,,2024-03-07,1,,,,,シコー,0
708,3021001081669,新規,0,2024-03-07,2024-03-07,株式会社ＳＨＩＮＴＡ,,株式会社,神奈川県,海老名市,国分寺台２丁目１０番２－１号,,14,215,2430413,,,,,,,2024-03-07,1,,,,,シンタ,0
715,3021003014222,新規,0,2024-03-07,2024-03-07,合同会社あろはのこころ,,合同会社,神奈川県,座間市,相模が丘６丁目３０番２５－４０２号コスモ相模が丘,,14,216,2520001,,,,,,,2024-03-07,1,,,,,アロハノココロ,0
716,3021003014230,新規,0,2024-03-07,2024-03-07,合同会社エリート・カーボンインターナショナル,,合同会社,神奈川県,鎌倉市,城廻２８３番地４４,,14,204,2470074,,,,,,,2024-03-07,1,,,,,エリートカーボンインターナショナル,0
721,3030001158765,新規,0,2024-03-07,2024-03-07,株式会社恒奇,,株式会社,埼玉県,三郷市,戸ケ崎１丁目１番地２,,11,237,3410044,,,,,,,2024-03-07,1,,,,,コウキ,0
722,3030001158988,新規,0,2024-03-07,2024-03-07,株式会社Ｎｕｍｂｅｒ．２,,株式会社,埼玉県,さいたま市北区,日進町３丁目２３１番地１３,,11,102,3310823,,,,,,,2024-03-07,1,,,,,ナンバーツー,0
723,3030001159094,新規,0,2024-03-07,2024-03-07,株式会社Ｄｏｕｂｌｅ　Ｔｒｅｅ,,株式会社,埼玉県,坂戸市,大字東和田７６－３,,11,239,3500277,,,,,,,2024-03-07,1,,,,,ダブルツリー,0
728,3040001132488,新規,0,2024-03-07,2024-03-07,株式会社ＨＯＰＥ,,株式会社,千葉県,野田市,山崎１５２９番地の５,,12,208,2780022,,,,,,,2024-03-07,1,,,,,ホープ,0
729,3040003024411,新規,0,2024-03-07,2024-03-07,景莎合同会社,,合同会社,千葉県,千葉市若葉区,加曽利町３３４番地１６,,12,104,2640017,,,,,,,2024-03-07,1,,,,,ケイサ,0
730,3040003024460,新規,0,2024-03-07,2024-03-07,合同会社Ａ‐ＳＴＵＤＩＯ,,合同会社,千葉県,浦安市,当代島１丁目１７番２３号岡本店舗１０２号,,12,227,2790001,,,,,,,2024-03-07,1,,,,,エースタジオ,0
731,3040003024502,新規,0,2024-03-07,2024-03-07,合同会社ｐａｌａｃｅ,,合同会社,千葉県,千葉市花見川区,瑞穂３丁目１４番地１６グリーンポートみずほ１０２号,,12,102,2620026,,,,,,,2024-03-07,1,,,,,パレス,0
736,3050001054418,新規,0,2024-03-07,2024-03-07,株式会社ＫＡＫＫＵ,,株式会社,茨城県,東茨城郡茨城町,大字大戸３７３４,,08,302,3113114,,,,,,,2024-03-07,1,,,,,カックウ,0
743,3060003004948,新規,0,2024-03-07,2024-03-07,合同会社ＴＥＣＨＮＯＬＡＢ,,合同会社,栃木県,那須塩原市,扇町４－１１,,09,213,3292726,,,,,,,2024-03-07,1,,,,,テクノラボ,0
747,3070001041471,新規,0,2024-03-07,2024-03-07,株式会社明治デリカ前橋,,株式会社,群馬県,前橋市,西片貝町２丁目２９０－１,,10,201,3710013,,,,,,,2024-03-07,1,,,,,,0
767,3120001262855,新規,0,2024-03-07,2024-03-07,株式会社ｐｌｏｔ,,株式会社,大阪府,大阪市中央区,南本町３丁目４番４－２０４号,,27,128,5410054,,,,,,,2024-03-07,1,,,,,プロット,0
768,3120001262896,新規,0,2024-03-07,2024-03-07,ｒｋｓ．株式会社,,株式会社,大阪府,大阪市港区,市岡１丁目４番２６－５０２号,,27,107,5520012,,,,,,,2024-03-07,1,,,,,アールケイエスドット,0
769,3120001262921,新規,0,2024-03-07,2024-03-07,株式会社ｓｈａｒｅ　ｅｍｏｔｉｏｎｓ,,株式会社,大阪府,大阪市北区,万歳町３番３９－１５０９号,,27,127,5300028,,,,,,,2024-03-07,1,,,,,シェアエモーションズ,0
770,3120001262954,新規,0,2024-03-07,2024-03-07,株式会社正一,,株式会社,大阪府,大阪市阿倍野区,西田辺町２丁目６番３号（４Ａ）,,27,119,5450014,,,,,,,2024-03-07,1,,,,,ショウイチ,0
773,3120003026085,新規,0,2024-03-07,2024-03-07,合同会社オリバーマネジメント,,合同会社,大阪府,大阪市都島区,都島本通４丁目１７番２２号,,27,102,5340021,,,,,,,2024-03-07,1,,,,,オリバーマネジメント,0
778,3120101069110,新規,0,2024-03-07,2024-03-07,ＫＯＳＡＴＯカンパニー株式会社,,株式会社,大阪府,岸和田市,岡山町８１０番地の７,,27,202,5960814,,,,,,,2024-03-07,1,,,,,コサトカンパニー,0
780,3122003002818,新規,0,2024-03-07,2024-03-07,合同会社ＡＳＨ,,合同会社,大阪府,八尾市,西木の本４丁目１番地の１市営大正住宅７０１号,,27,212,5810045,,,,,,,2024-03-07,1,,,,,アッシュ,0
786,3130001076494,新規,0,2024-03-07,2024-03-07,エンタープライズゼロワン株式会社,,株式会社,京都府,京都市中京区,橋弁慶町２２７,,26,104,6048151,,,,,,,2024-03-07,1,,,,,エンタープライズゼロワン,0
787,3130001076536,新規,0,2024-03-07,2024-03-07,株式会社ｓａｉ,,株式会社,京都府,京都市北区,大宮玄琢北町１１－１,,26,101,6038462,,,,,,,2024-03-07,1,,,,,サイ,0
799,3140001133542,新規,0,2024-03-07,2024-03-07,Ｔｏｐ　Ｗａｙｓ　Ｔｒａｄｉｎｇ株式会社,,株式会社,兵庫県,神戸市中央区,北野町３丁目１３番１６号北野山荘２１号,,28,110,6500002,,,,,,,2024-03-07,1,,,,,トップウェイズトレーディング,0
800,3140001133559,新規,0,2024-03-07,2024-03-07,ＭＯＲＮＩＮＧＳＴＡＲ文教株式会社,,株式会社,兵庫県,神戸市東灘区,本山中町３丁目１２番８号,,28,101,6580016,,,,,,,2024-03-07,1,,,,,モーニングスターブンキョウ,0
804,3150001027116,新規,0,2024-03-07,2024-03-07,株式会社珀黎,,株式会社,奈良県,生駒郡斑鳩町,神南３丁目１０－２２,,29,344,6360143,,,,,,,2024-03-07,1,,,,,ハクレイ,0
809,3170003001991,新規,0,2024-03-07,2024-03-07,三ツ星ファーム合同会社,,合同会社,和歌山県,橋本市,高野口町名古曽１８０番地の３,,30,203,6497203,,,,,,,2024-03-07,1,,,,,ミツボシファーム,0
815,3180001160401,新規,0,2024-03-07,2024-03-07,株式会社ランドマークプラス,,株式会社,愛知県,名古屋市中区,錦３丁目４番１５号ヒグチビルディング,,23,106,4600003,,,,,,,2024-03-07,1,,,,,ランドマークプラス,0
816,3180001160418,新規,0,2024-03-07,2024-03-07,株式会社ＢＲＡＳＳ　ＭＥＤ,,株式会社,愛知県,名古屋市中村区,名駅３丁目２０－２０名駅錦ビル６Ｆ,,23,105,4500002,,,,,,,2024-03-07,1,,,,,ブラスメド,0
817,3180001160450,新規,0,2024-03-07,2024-03-07,セーフバンク警備保障株式会社,,株式会社,愛知県,一宮市,木曽川町里小牧字十二歩１番地,,23,203,4930005,,,,,,,2024-03-07,1,,,,,セーフバンクケイビホショウ,0
818,3180301038371,新規,0,2024-03-07,2024-03-07,株式会社チロル,,株式会社,愛知県,豊橋市,石巻西川町字北之谷６０番地の２,,23,201,4411102,,,,,,,2024-03-07,1,,,,,チロル,0
819,3180301038396,新規,0,2024-03-07,2024-03-07,明河サービス株式会社,,株式会社,愛知県,岡崎市,大和町字平野６４番地１１,,23,202,4440931,,,,,,,2024-03-07,1,,,,,アケガワサービス,0
821,3180303006021,新規,0,2024-03-07,2024-03-07,合同会社Ｅ．Ｙ．Ｙ．,,合同会社,愛知県,豊田市,中町中郷２０番地１ーＢー２０６,,23,211,4730904,,,,,,,2024-03-07,1,,,,,イーワイワイ,0
826,3220001025855,新規,0,2024-03-07,2024-03-07,株式会社ビリーブトラスト,,株式会社,石川県,能美市,東任田町イ１９番地１１,,17,211,9231122,,,,,,,2024-03-07,1,,,,,ビリーブトラスト,0
845,3290001104974,新規,0,2024-03-07,2024-03-07,株式会社みらい,,株式会社,福岡県,福岡市東区,香椎照葉４丁目４番２０－１６１０号パークフロント香椎照葉ＥＡＳＴ,,40,131,8130017,,,,,,,2024-03-07,1,,,,,ミライ,0
846,3290001104982,新規,0,2024-03-07,2024-03-07,株式会社ＲＤ,,株式会社,福岡県,小郡市,赤川５１６番地７,,40,216,8380135,,,,,,,2024-03-07,1,,,,,アールディー,0
849,3290003015022,新規,0,2024-03-07,2024-03-07,合同会社Ｂｒａｉｎ,,合同会社,福岡県,福岡市博多区,博多駅前２丁目１７－１博多プレステージ本館１ＦＳ－０７号室,,40,132,8120011,,,,,,,2024-03-07,1,,,,,ブレイン,0
850,3290003015030,新規,0,2024-03-07,2024-03-07,ジェー・プラス合同会社,,合同会社,福岡県,福岡市東区,和白東１丁目３－１０マイカル和白２０３号,,40,131,8110214,,,,,,,2024-03-07,1,,,,,ジェープラス,0
853,3290801030370,新規,0,2024-03-07,2024-03-07,株式会社た・め・に,,株式会社,福岡県,築上郡上毛町,大字宇野７９１番地１,,40,646,8710914,,,,,,,2024-03-07,1,,,,,タメニ,0
854,3290801030379,新規,0,2024-03-07,2024-03-07,株式会社ウイング,,株式会社,福岡県,北九州市八幡西区,陣原４丁目３番７号,,40,109,8070821,,,,,,,2024-03-07,1,,,,,ウイング,0
856,3290803004637,新規,0,2024-03-07,2024-03-07,合同会社マインド,,合同会社,福岡県,京都郡みやこ町,呰見６９５番地１,,40,625,8240102,,,,,,,2024-03-07,1,,,,,マインド,0
857,3300003002084,新規,0,2024-03-07,2024-03-07,合同会社ワイズマネジメント,,合同会社,佐賀県,鳥栖市,本鳥栖町１５１１番地５,,41,203,8410026,,,,,,,2024-03-07,1,,,,,ワイズマネジメント,0
861,3330001031818,新規,0,2024-03-07,2024-03-07,株式会社ＧｏＷｅｓｔ,,株式会社,熊本県,天草郡苓北町,志岐２５５番地１Ｍビル３０１号,,43,531,8632503,,,,,,,2024-03-07,1,,,,,ゴーウエスト,0
862,3330001031826,新規,0,2024-03-07,2024-03-07,株式会社白夜,,株式会社,熊本県,宇城市,松橋町曲野１３５３,,43,213,8690511,,,,,,,2024-03-07,1,,,,,ビャクヤ,0
869,3340001026346,新規,0,2024-03-07,2024-03-07,株式会社ウェルトワード,,株式会社,鹿児島県,鹿児島市,高麗町２－８プランドール８　８０２号,,46,201,8900051,,,,,,,2024-03-07,1,,,,,ウェルトワード,0
874,3360003013761,新規,0,2024-03-07,2024-03-07,未来へ合同会社,,合同会社,沖縄県,宜野湾市,上原１丁目３番３号,,47,205,9012204,,,,,,,2024-03-07,1,,,,,ミライヘ,0
881,3380001034345,新規,0,2024-03-07,2024-03-07,株式会社デジタルかわうち,,株式会社,福島県,双葉郡川内村,大字上川内字町分１３８－１,,07,544,9791201,,,,,,,2024-03-07,1,,,,,デジタルカワウチ,0
906,4010003043082,新規,0,2024-03-07,2024-03-07,合同会社ＦＵＬＬ　ＨＯＵＳＥ　ＵＮＩＯＮ,,合同会社,東京都,千代田区,神田和泉町１番地６－１６ヤマトビル４０５,,13,101,1010024,,,,,,,2024-03-07,1,,,,,フルハウスユニオン,0
907,4010003043140,新規,0,2024-03-07,2024-03-07,合同会社ＣＥＲＥＺＯ,,合同会社,東京都,中央区,日本橋室町１丁目１１番１２号日本橋水野ビル７階,,13,102,1030022,,,,,,,2024-03-07,1,,,,,セレソ,0
918,4010401180824,新規,0,2024-03-07,2024-03-07,株式会社サウザンド,,株式会社,東京都,港区,南青山１丁目２６番１号寿光ビル７階,,13,103,1070062,,,,,,,2024-03-07,1,,,,,サウザンド,0
919,4010401180832,新規,0,2024-03-07,2024-03-07,ＭＣＰ２３株式会社,,株式会社,東京都,港区,元赤坂１丁目１番８号株式会社赤坂国際会計内,,13,103,1070051,,,,,,,2024-03-07,1,,,,,エムシーピーツースリー,0
920,4010401180873,新規,0,2024-03-07,2024-03-07,株式会社Ｏｐｔｉｌｏｇｉｘ,,株式会社,東京都,港区,港南３丁目６番２１号,,13,103,1080075,,,,,,,2024-03-07,1,,,,,オプティロジックス,0
921,4010403032081,新規,0,2024-03-07,2024-03-07,ノートブック合同会社,,合同会社,東京都,港区,南青山４丁目６番５号マ・メゾン南青山２階,,13,103,1070062,,,,,,,2024-03-07,1,,,,,ノートブック,0
926,4010501051883,新規,0,2024-03-07,2024-03-07,株式会社ＮＰＩ,,株式会社,東京都,台東区,東上野４丁目１番９号,,13,106,1100015,,,,,,,2024-03-07,1,,,,,エヌピーアイ,0
929,4010603010696,新規,0,2024-03-07,2024-03-07,エフワイアセット合同会社,,合同会社,東京都,江東区,深川２丁目２４番７号セントラルハイム清澄１０４,,13,108,1350033,,,,,,,2024-03-07,1,,,,,エフワイアセット,0
931,4010805003093,新規,0,2024-03-07,2024-03-07,医療法人社団糖恵会,,その他の設立登記法人,東京都,大田区,東雪谷２丁目２５番１２号フローディア雪谷１０１号室,,13,111,1450065,,,,,,,2024-03-07,1,,,,,トウケイカイ,0
940,4011001160398,新規,0,2024-03-07,2024-03-07,モノトン株式会社,,株式会社,東京都,渋谷区,東２丁目１４番１９号,,13,113,1500011,,,,,,,2024-03-07,1,,,,,モノトン,0
941,4011001160431,新規,0,2024-03-07,2024-03-07,株式会社Ｓｅｅｄｆｏｌｋｓ　Ｇａｒｄｅｎ,,株式会社,東京都,目黒区,八雲３丁目２９番５号,,13,110,1520023,,,,,,,2024-03-07,1,,,,,シードフォルクスガーデン,0
942,4011003018628,新規,0,2024-03-07,2024-03-07,ゴールデンアイ合同会社,,合同会社,東京都,渋谷区,東１丁目２９番３号渋谷ブリッジＢ－５,,13,113,1500011,,,,,,,2024-03-07,1,,,,,ゴールデンアイ,0
943,4011003018644,新規,0,2024-03-07,2024-03-07,ＫＡＫＥＮＵＫＥＲＵ合同会社,,合同会社,東京都,目黒区,祐天寺１丁目６番８号,,13,110,1530052,,,,,,,2024-03-07,1,,,,,カケヌケル,0
956,4011501030407,新規,0,2024-03-07,2024-03-07,株式会社クレアーレ,,株式会社,東京都,北区,岩淵町３７番５号,,13,117,1150041,,,,,,,2024-03-07,1,,,,,クレアーレ,0
959,4011803006121,新規,0,2024-03-07,2024-03-07,グリフィン合同会社,,合同会社,東京都,葛飾区,東金町３丁目３７番１６号,,13,122,1250041,,,,,,,2024-03-07,1,,,,,グリフィン,0
965,4012701018118,新規,0,2024-03-07,2024-03-07,株式会社ライファン,,株式会社,東京都,東久留米市,浅間町３丁目３０番１１号,,13,222,2030012,,,,,,,2024-03-07,1,,,,,ライファン,0
967,4012805003255,新規,0,2024-03-07,2024-03-07,医療法人社団貴生,,その他の設立登記法人,東京都,国立市,富士見台４丁目４１番地の１グランソシエ国立ウエストウイング１３９号Ａ,,13,215,1860003,,,,,,,2024-03-07,1,,,,,キセイ,0
968,4013103001315,新規,0,2024-03-07,2024-03-07,合同会社財建,,合同会社,東京都,あきる野市,草花３２８２番地１１,,13,228,1970802,,,,,,,2024-03-07,1,,,,,ザイケン,0
979,4020001156050,新規,0,2024-03-07,2024-03-07,株式会社ビッグロードマネジメント,,株式会社,神奈川県,横浜市中区,山下町２１７番八〇〇中心Ｂ号室,,14,104,2310023,,,,,,,2024-03-07,1,,,,,ビッグロードマネジメント,0
980,4020001156067,新規,0,2024-03-07,2024-03-07,株式会社ＡＢＥＮＳ,,株式会社,神奈川県,川崎市幸区,大宮町１８－２２Ｆ－１０,,14,132,2120014,,,,,,,2024-03-07,1,,,,,アベンズ,0
981,4020001156075,新規,0,2024-03-07,2024-03-07,株式会社ＭＹ＆ＫＫ,,株式会社,神奈川県,川崎市宮前区,菅生３丁目４９番１－２号,,14,136,2160015,,,,,,,2024-03-07,1,,,,,マイアンドケーケー,0
982,4020001156091,新規,0,2024-03-07,2024-03-07,一松株式会社,,株式会社,神奈川県,横浜市中区,北仲通２丁目３０番地グッドビル北仲通４Ｂ,,14,104,2310003,,,,,,,2024-03-07,1,,,,,イチマツ,0
983,4020001156117,新規,0,2024-03-07,2024-03-07,リベクス株式会社,,株式会社,神奈川県,横浜市西区,みなとみらい２丁目２番１号横浜ランドマークタワー２０Ｆ,,14,103,2200012,,,,,,,2024-03-07,1,,,,,リベクス,0
984,4020001156125,新規,0,2024-03-07,2024-03-07,株式会社ＵＬＵ,,株式会社,神奈川県,横浜市中区,山手町２４４番地１７ハイコート山手パレ２４４南館３０２号,,14,104,2310862,,,,,,,2024-03-07,1,,,,,ウル,0
985,4020001156133,新規,0,2024-03-07,2024-03-07,オープンエッジテクノロジージャパン株式会社,,株式会社,神奈川県,横浜市西区,みなとみらい４丁目４番２号横浜ブルーアベニュー１２階,,14,103,2200012,,,,,,,2024-03-07,1,,,,,オープンエッジテクノロジージャパン,0
987,4020003025617,新規,0,2024-03-07,2024-03-07,合同会社ＦＲＯＮＴＩＥＲ,,合同会社,神奈川県,川崎市高津区,蟹ケ谷２７７－１５ポレスター日吉８０３,,14,134,2130025,,,,,,,2024-03-07,1,,,,,フロンティア,0
988,4020003025674,新規,0,2024-03-07,2024-03-07,合同会社ＤＧＮ,,合同会社,神奈川県,横浜市神奈川区,神奈川２丁目１１―４―９０３ＺＯＯＭ横濱ＥＡＳＴ,,14,102,2210045,,,,,,,2024-03-07,1,,,,,デザイン,0
989,4020003025690,新規,0,2024-03-07,2024-03-07,合同会社Ｔ＆Ｋ,,合同会社,神奈川県,川崎市川崎区,池上新町２丁目２１番２９－１０４号池上サンハイツ,,14,131,2100832,,,,,,,2024-03-07,1,,,,,ティーアンドケー,0
992,4021001081602,新規,0,2024-03-07,2024-03-07,株式会社サガミユースフル,,株式会社,神奈川県,相模原市中央区,横山台１丁目３１番４号,,14,152,2520241,,,,,,,2024-03-07,1,,,,,サガミユースフル,0
993,4021001081610,新規,0,2024-03-07,2024-03-07,株式会社ＫＮ,,株式会社,神奈川県,厚木市,旭町１丁目１番２号ケンタクビル５階,,14,212,2430014,,,,,,,2024-03-07,1,,,,,ケーエヌ,0
994,4021001081643,新規,0,2024-03-07,2024-03-07,株式会社興創,,株式会社,神奈川県,藤沢市,高倉２４６８番地の５,,14,205,2520802,,,,,,,2024-03-07,1,,,,,コウソウ,0
995,4021001081651,新規,0,2024-03-07,2024-03-07,株式会社リモニウム・システム,,株式会社,神奈川県,相模原市中央区,並木３丁目１８番４８号,,14,152,2520228,,,,,,,2024-03-07,1,,,,,リモニウムシステム,0
998,4021003014238,新規,0,2024-03-07,2024-03-07,合同会社ヒロイグリーンライフ,,合同会社,神奈川県,秦野市,東田原１７９番地６号,,14,211,2570028,,,,,,,2024-03-07,1,,,,,ヒロイグリーンライフ,0
1002,4030001159085,新規,0,2024-03-07,2024-03-07,Ｊ‐Ｑｕａｌｉｔｙ株式会社,,株式会社,埼玉県,八潮市,大字南後谷８１２番地４９,,11,234,3400831,,,,,,,2024-03-07,1,,,,,ジェイクオリティー,0
1003,4030001159093,新規,0,2024-03-07,2024-03-07,株式会社クオミ,,株式会社,埼玉県,川口市,西川口１丁目３０番２０号Ｔ・Ｂ・Ｓ企画ビル６Ｆ,,11,203,3320021,,,,,,,2024-03-07,1,,,,,クオミ,0
1008,4030003023768,新規,0,2024-03-07,2024-03-07,合同会社早稲田総合リフォーム,,合同会社,埼玉県,三郷市,早稲田５丁目９番地７グリーンパーク三郷早稲田５０３号,,11,237,3410018,,,,,,,2024-03-07,1,,,,,ワセダソウゴウリフォーム,0
1015,4040001132495,新規,0,2024-03-07,2024-03-07,房進工業株式会社,,株式会社,千葉県,香取郡東庄町,新宿６８８番地１,,12,349,2890611,,,,,,,2024-03-07,1,,,,,ボウシンコウギョウ,0
1019,4040003024492,新規,0,2024-03-07,2024-03-07,合同会社ハルノヒ,,合同会社,千葉県,柏市,東柏１丁目３１番３号,,12,217,2770017,,,,,,,2024-03-07,1,,,,,ハルノヒ,0
1020,4040003024501,新規,0,2024-03-07,2024-03-07,合同会社ＳＴ,,合同会社,千葉県,松戸市,新松戸２丁目１－１,,12,207,2700034,,,,,,,2024-03-07,1,,,,,エスティー,0
1023,4070001041462,新規,0,2024-03-07,2024-03-07,株式会社エム・アイ,,株式会社,群馬県,桐生市,新里町小林３２３番地２,,10,203,3760124,,,,,,,2024-03-07,1,,,,,エムアイ,0
1024,4070001041470,新規,0,2024-03-07,2024-03-07,株式会社アールネクスト,,株式会社,群馬県,佐波郡玉村町,大字福島１２２７番地３クレアＡ１０２,,10,464,3701105,,,,,,,2024-03-07,1,,,,,,0
1025,4070003005309,新規,0,2024-03-07,2024-03-07,モデルクリエイト合同会社,,合同会社,群馬県,高崎市,台新田町１３７番地４,,10,202,3701206,,,,,,,2024-03-07,1,,,,,モデルクリエイト,0
1032,4080401027044,新規,0,2024-03-07,2024-03-07,株式会社ＳＯＵ,,株式会社,静岡県,袋井市,松原１００３番地の１,,22,216,4371117,,,,,,,2024-03-07,1,,,,,ソー,0
1040,4110001038231,新規,0,2024-03-07,2024-03-07,株式会社バディテック,,株式会社,新潟県,新潟市北区,松浜６丁目３番地１５,,15,101,9503126,,,,,,,2024-03-07,1,,,,,バディテック,0
1052,4120001262929,新規,0,2024-03-07,2024-03-07,株式会社ＣＯＯＬＥＸ,,株式会社,大阪府,枚方市,岡東町１０番１６号,,27,210,5730032,,,,,,,2024-03-07,1,,,,,クーレクックス,0
1053,4120001262945,新規,0,2024-03-07,2024-03-07,株式会社ＳＥＣＯＮＤ,,株式会社,大阪府,大阪市北区,長柄中２丁目５番３０号,,27,127,5310062,,,,,,,2024-03-07,1,,,,,セカンド,0
1059,4120901048857,新規,0,2024-03-07,2024-03-07,株式会社ｇｅｍｓ,,株式会社,大阪府,箕面市,森町北１丁目６番２２号,,27,220,5630256,,,,,,,2024-03-07,1,,,,,ジエムス,0
1063,4122003002817,新規,0,2024-03-07,2024-03-07,合同会社Ｋ・Ｓ,,合同会社,大阪府,東大阪市,永和１丁目３番２号２階,,27,227,5770809,,,,,,,2024-03-07,1,,,,,ケーエス,0
1066,4130001076477,新規,0,2024-03-07,2024-03-07,えいち株式会社,,株式会社,京都府,京都市左京区,高野清水町１２８番地フォーブル新保１０２号室,,26,103,6068102,,,,,,,2024-03-07,1,,,,,エイチ,0
1067,4130001076485,新規,0,2024-03-07,2024-03-07,株式会社ＥＳ建設,,株式会社,京都府,綾部市,本町４丁目１番地の６,,26,203,6230021,,,,,,,2024-03-07,1,,,,,エスケンセツ,0
1068,4130001076493,新規,0,2024-03-07,2024-03-07,株式会社ライトワン,,株式会社,京都府,亀岡市,保津町上火無２４番地,,26,206,6210005,,,,,,,2024-03-07,1,,,,,ライトワン,0
1075,4140001133533,新規,0,2024-03-07,2024-03-07,株式会社オリーブ,,株式会社,兵庫県,神戸市中央区,山本通１丁目７番１１号,,28,110,6500003,,,,,,,2024-03-07,1,,,,,オリーブ,0
1084,4180001160350,新規,0,2024-03-07,2024-03-07,株式会社シック,,株式会社,愛知県,名古屋市熱田区,一番２丁目３４番６号,,23,109,4560053,,,,,,,2024-03-07,1,,,,,シック,0
1085,4180001160400,新規,0,2024-03-07,2024-03-07,株式会社ランドマークス,,株式会社,愛知県,名古屋市中区,錦３丁目４番１５号ヒグチビルディング,,23,106,4600003,,,,,,,2024-03-07,1,,,,,ランドマークス,0
1086,4180001160458,新規,0,2024-03-07,2024-03-07,つなぐたすける土木株式会社,,株式会社,愛知県,名古屋市中村区,名駅３丁目４－１０アルティメイト名駅１ｓｔ２階ＤＭＭ．ｃｏｍ内,,23,105,4500002,,,,,,,2024-03-07,1,,,,,ツナグタスケルドボク,0
1092,4180301038379,新規,0,2024-03-07,2024-03-07,古居株式会社,,株式会社,愛知県,西尾市,楠村町前巴２７番地１,,23,213,4440325,,,,,,,2024-03-07,1,,,,,フルイ,0
1093,4180301038387,新規,0,2024-03-07,2024-03-07,株式会社ＣＩＳ　ＰＬＵＳ,,株式会社,愛知県,豊橋市,大崎町字東里中５０番地１,,23,201,4418073,,,,,,,2024-03-07,1,,,,,シーアイエスプラス,0
1094,4180301038395,新規,0,2024-03-07,2024-03-07,ＳＡＬＥＳＣＲＥＡＴＩＯＮ株式会社,,株式会社,愛知県,刈谷市,日高町２丁目１１３ＡｃｔｉｓＨｉｄａｋａＥ,,23,210,4480046,,,,,,,2024-03-07,1,,,,,セールスクリエーション,0
1097,4190003004604,新規,0,2024-03-07,2024-03-07,合同会社インベストキャピタルズ,,合同会社,三重県,鈴鹿市,北江島町１番７号リーブルファイン北江島Ａ‐２,,24,207,5100232,,,,,,,2024-03-07,1,,,,,インベストキャピタルズ,0
1100,4210003001763,新規,0,2024-03-07,2024-03-07,合同会社ＫＭ,,合同会社,福井県,福井市,日光２丁目２３番２５号,,18,201,9100029,,,,,,,2024-03-07,1,,,,,ケイエム,0
1106,4250003003450,新規,0,2024-03-07,2024-03-07,ＦＡＥＦＡ合同会社,,合同会社,山口県,下関市,綾羅木本町３丁目５番６号１階,,35,201,7510849,,,,,,,2024-03-07,1,,,,,ファエファ,0
1109,4260001038794,新規,0,2024-03-07,2024-03-07,株式会社入野谷商会,,株式会社,岡山県,岡山市北区,清輝橋２丁目２番１１号,,33,101,7000861,,,,,,,2024-03-07,1,,,,,イリノヤショウカイ,0
1115,4290001104908,新規,0,2024-03-07,2024-03-07,デンタルバディ株式会社,,株式会社,福岡県,福岡市城南区,別府６丁目１４番３８号,,40,136,8140104,,,,,,,2024-03-07,1,,,,,デンタルバディ,0
1116,4290001104932,新規,0,2024-03-07,2024-03-07,株式会社ＲＡＵＨＡ,,株式会社,福岡県,福岡市中央区,大手門１丁目５番４号,,40,133,8100074,,,,,,,2024-03-07,1,,,,,ラウハ,0
1117,4290001104940,新規,0,2024-03-07,2024-03-07,株式会社ルクス,,株式会社,福岡県,福岡市西区,石丸２丁目５番１１－２０４号,,40,135,8190025,,,,,,,2024-03-07,1,,,,,ルクス,0
1118,4290001104949,新規,0,2024-03-07,2024-03-07,株式会社ＳＨＩＧＥ,,株式会社,福岡県,糟屋郡宇美町,大字井野４７７番地１,,40,341,8112104,,,,,,,2024-03-07,1,,,,,シゲ,0
1119,4290001104957,新規,0,2024-03-07,2024-03-07,株式会社優鳥,,株式会社,福岡県,久留米市,御井町２３９６番地８,,40,203,8390851,,,,,,,2024-03-07,1,,,,,ユトリ,0
1120,4290001104965,新規,0,2024-03-07,2024-03-07,株式会社鈴木商店,,株式会社,福岡県,朝倉市,菩提寺６６７番地２,,40,228,8380061,,,,,,,2024-03-07,1,,,,,スズキショウテン,0
1128,4290805009716,新規,0,2024-03-07,2024-03-07,一般社団法人アジア都市環境学会,,その他の設立登記法人,福岡県,北九州市若松区,ひびきの１－１北九州市立大学Ｎ３２９福田展淳研究室,,40,103,8080135,,,,,,,2024-03-07,1,,,,,アジアトシカンキョウガッカイ,0
1129,4300003002083,新規,0,2024-03-07,2024-03-07,合同会社香,,合同会社,佐賀県,鳥栖市,あさひ新町８２１番地１６,,41,203,8410068,,,,,,,2024-03-07,1,,,,,コウ,0
1135,4320001020333,新規,0,2024-03-07,2024-03-07,ＭＰ動物医療株式会社,,株式会社,大分県,大分市,大字神崎字ウト３０７８番地の２２,,44,201,8700100,,,,,,,2024-03-07,1,,,,,エムピードウブツイリョウ,0
1136,4340001026345,新規,0,2024-03-07,2024-03-07,株式会社燈志,,株式会社,鹿児島県,枕崎市,港町２８番地みなとビル１号室,,46,204,8980004,,,,,,,2024-03-07,1,,,,,トウジ,0
1138,4360001033298,新規,0,2024-03-07,2024-03-07,株式会社真輝工業,,株式会社,沖縄県,名護市,字宇茂佐４２８番地１８,,47,209,9050006,,,,,,,2024-03-07,1,,,,,シンキコウギョウ,0
1154,4470003002595,新規,0,2024-03-07,2024-03-07,合同会社Ｓｅｔｏｕｃｈｉ　Ｐｌａｎｎｉｎｇ,,合同会社,香川県,三豊市,三野町大見甲３２５４番地８,,37,208,7670031,,,,,,,2024-03-07,1,,,,,セトウチプランニング,0
1155,4470005006553,新規,0,2024-03-07,2024-03-07,一般社団法人小西アセットマネジメント,,その他の設立登記法人,香川県,観音寺市,柞田町甲５５番地１,,37,205,7680040,,,,,,,2024-03-07,1,,,,,コニシアセットマネジメント,0
1173,5010001242734,新規,0,2024-03-07,2024-03-07,株式会社クライメイト・ネオ,,株式会社,東京都,千代田区,丸の内２丁目２番１号岸本ビル７階,,13,101,1000005,,,,,,,2024-03-07,1,,,,,クライメイトネオ,0
1174,5010001242767,新規,0,2024-03-07,2024-03-07,株式会社スイート,,株式会社,東京都,中央区,銀座１丁目１２番４号,,13,102,1040061,,,,,,,2024-03-07,1,,,,,スイート,0
1175,5010001242791,新規,0,2024-03-07,2024-03-07,株式会社鴨下企画,,株式会社,東京都,中央区,銀座１丁目１２番４号Ｎ＆ＥＢＬＤ．６Ｆ,,13,102,1040061,,,,,,,2024-03-07,1,,,,,カモシタキカク,0
1176,5010001242809,新規,0,2024-03-07,2024-03-07,株式会社ディグルピック,,株式会社,東京都,文京区,根津２丁目１９番７号,,13,105,1130031,,,,,,,2024-03-07,1,,,,,ディグルピック,0
1177,5010001242817,新規,0,2024-03-07,2024-03-07,株式会社エンリッチ,,株式会社,東京都,大島町,元町字地の岡６５番,,13,361,1000101,,,,,,,2024-03-07,1,,,,,エンリッチ,0
1178,5010001242833,新規,0,2024-03-07,2024-03-07,コネクサス株式会社,,株式会社,東京都,千代田区,麹町６丁目６番地２麹町ビルディング,,13,101,1020083,,,,,,,2024-03-07,1,,,,,コネクサス,0
1179,5010001242882,新規,0,2024-03-07,2024-03-07,株式会社ルミナス,,株式会社,東京都,中央区,築地２丁目１４番２号,,13,102,1040045,,,,,,,2024-03-07,1,,,,,ルミナス,0
1180,5010003043123,新規,0,2024-03-07,2024-03-07,合同会社ＹＯＮＡＭＩＮＥ,,合同会社,東京都,中央区,銀座６丁目１３番１６号銀座ＷａｌｌビルＵＣＦ５階,,13,102,1040061,,,,,,,2024-03-07,1,,,,,ヨナミネ,0
1181,5010003043148,新規,0,2024-03-07,2024-03-07,合同会社エピリアンス,,合同会社,東京都,中央区,銀座１丁目２２番１１号銀座大竹ビジデンス２Ｆ,,13,102,1040061,,,,,,,2024-03-07,1,,,,,エピリアンス,0
1183,5010005038006,新規,0,2024-03-07,2024-03-07,一般社団法人小田急鶴間駅前ブリッジ,,その他の設立登記法人,東京都,千代田区,平河町１丁目６番１５号シルスフィア会計事務所内,,13,101,1020093,,,,,,,2024-03-07,1,,,,,オダキュウツルマエキマエブリッジ,0
1193,5010401180815,新規,0,2024-03-07,2024-03-07,株式会社ＪＯＢ　ＭＡＲＫＥＴ,,株式会社,東京都,港区,北青山１丁目３番１号３Ｆ,,13,103,1070061,,,,,,,2024-03-07,1,,,,,ジョブマーケット,0
1194,5010401180831,新規,0,2024-03-07,2024-03-07,ＭＣＰ２２株式会社,,株式会社,東京都,港区,元赤坂１丁目１番８号株式会社赤坂国際会計内,,13,103,1070051,,,,,,,2024-03-07,1,,,,,エムシーピーツーツー,0
1195,5010401180889,新規,0,2024-03-07,2024-03-07,駆け込み寺加瀬商店株式会社,,株式会社,東京都,港区,浜松町２丁目２番１５号浜松町ダイヤビル２Ｆ,,13,103,1050013,,,,,,,2024-03-07,1,,,,,カケコミデラカセショウテン,0
1197,5010403032089,新規,0,2024-03-07,2024-03-07,３８１２元麻布合同会社,,合同会社,東京都,港区,西新橋３丁目５番２号,,13,103,1050003,,,,,,,2024-03-07,1,,,,,サンハチイチニモトアザブ,0
1198,5010403032106,新規,0,2024-03-07,2024-03-07,Ｌｉｌｉ合同会社,,合同会社,東京都,港区,赤坂９丁目４番１－１４０３号,,13,103,1070052,,,,,,,2024-03-07,1,,,,,リリー,0
1199,5010403032114,新規,0,2024-03-07,2024-03-07,惠方合同会社,,合同会社,東京都,港区,南青山２丁目２番１５号ウィン青山９４２,,13,103,1070062,,,,,,,2024-03-07,1,,,,,エホウ,0
1201,5010601064776,新規,0,2024-03-07,2024-03-07,株式会社ＹＵＩＭＡ‐ＲＵ,,株式会社,東京都,墨田区,堤通１丁目１９番８－２７０６号リバーサイド隅田セントラルタワーパレス,,13,107,1310034,,,,,,,2024-03-07,1,,,,,ユイマール,0
1209,5010901054840,新規,0,2024-03-07,2024-03-07,米佳株式会社,,株式会社,東京都,世田谷区,池尻３丁目１９番１６号１０５号室,,13,112,1540001,,,,,,,2024-03-07,1,,,,,ヨネカ,0
1216,5011001160397,新規,0,2024-03-07,2024-03-07,株式会社ＴＥＲＥＡ,,株式会社,東京都,渋谷区,恵比寿西２丁目８番４号ＥＸ恵比寿西ビル５階,,13,113,1500021,,,,,,,2024-03-07,1,,,,,テリア,0
1217,5011001160447,新規,0,2024-03-07,2024-03-07,株式会社ＰＲＯＢＳＯＬ,,株式会社,東京都,渋谷区,神宮前６丁目２３番４号桑野ビル２階,,13,113,1500001,,,,,,,2024-03-07,1,,,,,プロブソル,0
1218,5011001160488,新規,0,2024-03-07,2024-03-07,株式会社ユニティコンサルティング,,株式会社,東京都,渋谷区,道玄坂１丁目１０番８号渋谷道玄坂東急ビル２Ｆ－Ｃ,,13,113,1500043,,,,,,,2024-03-07,1,,,,,ユニティコンサルティング,0
1219,5011005010391,新規,0,2024-03-07,2024-03-07,ＮＰＯ法人レッドボックスジャパン,,その他の設立登記法人,東京都,渋谷区,本町１丁目１４番２号,,13,113,1510071,,,,,,,2024-03-07,1,,,,,レッドボックスジャパン,0
1226,5011101106440,新規,0,2024-03-07,2024-03-07,株式会社Ｒｅｓｅｒｖｏｉｒ,,株式会社,東京都,新宿区,高田馬場４丁目１９番７－２０３号,,13,104,1690075,,,,,,,2024-03-07,1,,,,,レザボア,0
1234,5011501030406,新規,0,2024-03-07,2024-03-07,ベアイーグル株式会社,,株式会社,東京都,荒川区,西日暮里２丁目２２番２号ステーションプラザタワーアネックスイースト１００１,,13,118,1160013,,,,,,,2024-03-07,1,,,,,ベアイーグル,0
1238,5011603004266,新規,0,2024-03-07,2024-03-07,合同会社ＴＯＫＩＯ,,合同会社,東京都,練馬区,立野町２番９号コーポ小松１０２,,13,120,1770054,,,,,,,2024-03-07,1,,,,,トキオ,0
1243,5011801043867,新規,0,2024-03-07,2024-03-07,Ｃｏｎｎｅｃｔ　Ｊａｐａｎ株式会社,,株式会社,東京都,葛飾区,西新小岩４丁目１９番１５,,13,122,1240025,,,,,,,2024-03-07,1,,,,,コネクトジャパン,0
1244,5011801043883,新規,0,2024-03-07,2024-03-07,株式会社ＭＡＰ再開発,,株式会社,東京都,足立区,西新井栄町１丁目３番１０号,,13,121,1230843,,,,,,,2024-03-07,1,,,,,マップサイカイハツ,0
1245,5011801043891,新規,0,2024-03-07,2024-03-07,ＯＴＴＯ株式会社,,株式会社,東京都,葛飾区,東金町４丁目４０番９号ファミーユ金町Ａ２０２,,13,122,1250041,,,,,,,2024-03-07,1,,,,,オテテオ,0
1246,5012301013807,新規,0,2024-03-07,2024-03-07,トミ電株式会社,,株式会社,東京都,町田市,矢部町１３番地２１エトワール・ヤガラ１０３,,13,209,1940214,,,,,,,2024-03-07,1,,,,,トミデン,0
1248,5012403006444,新規,0,2024-03-07,2024-03-07,合同会社ｐｌｉｐ　ｐｌｅｐ,,合同会社,東京都,小金井市,東町５丁目２５番１０号,,13,210,1840011,,,,,,,2024-03-07,1,,,,,プリッププレップ,0
1253,5012805003254,新規,0,2024-03-07,2024-03-07,医療法人社団藤恵会,,その他の設立登記法人,東京都,立川市,曙町２丁目８番２９号村野ビル４階,,13,202,1900012,,,,,,,2024-03-07,1,,,,,トウケイカイ,0
1263,5020001156099,新規,0,2024-03-07,2024-03-07,株式会社ＧＴＯホーム,,株式会社,神奈川県,横浜市青葉区,藤が丘１丁目１６番地３９,,14,117,2270043,,,,,,,2024-03-07,1,,,,,ジーティーオーホーム,0
1264,5020001156116,新規,0,2024-03-07,2024-03-07,株式会社アリゾナ企画,,株式会社,神奈川県,川崎市多摩区,登戸１６６番地２,,14,135,2140014,,,,,,,2024-03-07,1,,,,,アリゾナキカク,0
1265,5020001156124,新規,0,2024-03-07,2024-03-07,株式会社ｓｕｎｓｈｉｎｅ,,株式会社,神奈川県,横浜市港北区,綱島上町８３番地１グランメール竹生１０３,,14,109,2230055,,,,,,,2024-03-07,1,,,,,サンシャイン,0
1269,5020003025665,新規,0,2024-03-07,2024-03-07,合同会社Ｉｎｆｉｎｉｔｅ,,合同会社,神奈川県,横浜市西区,浅間町１丁目４番３号ウィザードビル４０２,,14,103,2200072,,,,,,,2024-03-07,1,,,,,インフィニット,0
1270,5020003025681,新規,0,2024-03-07,2024-03-07,合同会社ＣａｒｅＤｏｏｒ,,合同会社,神奈川県,横浜市栄区,飯島町１３１８番地５,,14,115,2440842,,,,,,,2024-03-07,1,,,,,ケアドア,0
1272,5021002011730,新規,0,2024-03-07,2024-03-07,有限会社西山建設,,有限会社,神奈川県,茅ヶ崎市,香川５丁目３番３０号,,14,207,2530082,,,,,,,2024-03-07,1,,,,,ニシヤマケンセツ,0
1273,5021003014237,新規,0,2024-03-07,2024-03-07,合同会社グリバズ,,合同会社,神奈川県,藤沢市,用田６３４－２Ｆ,,14,205,2520821,,,,,,,2024-03-07,1,,,,,グリバズ,0
1280,5030001159084,新規,0,2024-03-07,2024-03-07,株式会社コジマ,,株式会社,埼玉県,川越市,大字藤間９７０番地１,,11,201,3501142,,,,,,,2024-03-07,1,,,,,コジマ,0
1281,5030001159092,新規,0,2024-03-07,2024-03-07,株式会社ＷｈｉｔｅＢａｓｅ,,株式会社,埼玉県,越谷市,宮本町３丁目１３６番地１,,11,222,3430806,,,,,,,2024-03-07,1,,,,,ホワイトベース,0
1289,5040001132404,新規,0,2024-03-07,2024-03-07,株式会社ＳＫＴ,,株式会社,千葉県,市川市,東菅野５丁目１３－１５－１０３,,12,203,2720823,,,,,,,2024-03-07,1,,,,,エスケーティー,0
1293,5040003024483,新規,0,2024-03-07,2024-03-07,ＷＩＰ合同会社,,合同会社,千葉県,浦安市,堀江３丁目２８番３４号グラン・コート浦安１０１,,12,227,2790041,,,,,,,2024-03-07,1,,,,,ウィップ,0
1296,5050001054399,新規,0,2024-03-07,2024-03-07,株式会社インターナショナルホームズ,,株式会社,茨城県,古河市,常盤町１－１４イワキアパート１号室,,08,204,3060007,,,,,,,2024-03-07,1,,,,,インターナショナルホームズ,0
1297,5050001054416,新規,0,2024-03-07,2024-03-07,株式会社ステージパック,,株式会社,茨城県,水戸市,千波町７４９番地の１杉山ビル１０２号,,08,201,3100851,,,,,,,2024-03-07,1,,,,,ステージパック,0
1298,5050005013392,新規,0,2024-03-07,2024-03-07,特定非営利活動法人Ｍａｋｅ　Ａｎｏｔｈｅｒ　Ｐｌａｃｅ　ｆｏｒ　Ｓｍｉｌｅ,,その他の設立登記法人,茨城県,那珂市,菅谷３７０６番地６,,08,226,3110105,,,,,,,2024-03-07,1,,,,,メイクアナザープレイスフォースマイル,0
1305,5060003004946,新規,0,2024-03-07,2024-03-07,ケヤキザワ合同会社,,合同会社,栃木県,さくら市,馬場２５５－１,,09,214,3291321,,,,,,,2024-03-07,1,,,,,ケヤキザワ,0
1306,5070001041461,新規,0,2024-03-07,2024-03-07,株式会社ＴＭＯ　ＭＩＸ‐ＵＰ,,株式会社,群馬県,藤岡市,神田字中９３５番地１,,10,209,3750032,,,,,,,2024-03-07,1,,,,,ティーエムオーミックスアップ,0
1325,5120001262886,新規,0,2024-03-07,2024-03-07,株式会社九十九,,株式会社,大阪府,大阪市阿倍野区,松崎町３丁目９番８－８０１号,,27,119,5450053,,,,,,,2024-03-07,1,,,,,ツクモ,0
1326,5120001262911,新規,0,2024-03-07,2024-03-07,株式会社ＦＡＳＴＲＩＫ,,株式会社,大阪府,大阪市平野区,喜連１丁目１番２８号,,27,126,5470027,,,,,,,2024-03-07,1,,,,,ファストライク,0
1327,5120001262977,新規,0,2024-03-07,2024-03-07,株式会社ＫＩＧＩＳＵ,,株式会社,大阪府,大阪市北区,天神橋７丁目１１番１３号,,27,127,5310041,,,,,,,2024-03-07,1,,,,,キギス,0
1329,5120003026075,新規,0,2024-03-07,2024-03-07,ＧＩＡ　ＬＩＮＨ合同会社,,合同会社,大阪府,大阪市西成区,南津守７丁目８番６号アクティー玉出２Ｄ号室,,27,122,5570063,,,,,,,2024-03-07,1,,,,,ジャリン,0
1330,5120003026083,新規,0,2024-03-07,2024-03-07,奥鴻貿易合同会社,,合同会社,大阪府,大阪市東淀川区,東中島１丁目１３番２１－５０７号,,27,114,5330033,,,,,,,2024-03-07,1,,,,,オクコウボウエキ,0
1331,5120005024184,新規,0,2024-03-07,2024-03-07,Ｅｓａｋａ　ＡＲＥ　Ｇｌｏｂａｌ一般社団法人,,その他の設立登記法人,大阪府,大阪市中央区,高麗橋４丁目３番７号淀屋橋総合会計内,,27,128,5410043,,,,,,,2024-03-07,1,,,,,エサカエーアールイーグローバル,0
1337,5120901048856,新規,0,2024-03-07,2024-03-07,株式会社Ｓｔｅｐ,,株式会社,大阪府,豊中市,新千里南町３丁目６番１号,,27,203,5600084,,,,,,,2024-03-07,1,,,,,ステップ,0
1346,5130001076484,新規,0,2024-03-07,2024-03-07,株式会社レスザンモア,,株式会社,京都府,京都市下京区,仏光寺通烏丸東入上柳町３３１番地タカノハスクエア３３２号室,,26,106,6008099,,,,,,,2024-03-07,1,,,,,レスザンモア,0
1347,5130001076501,新規,0,2024-03-07,2024-03-07,株式会社ＲＯＴＡＳ　ＪＡＰＡＮ,,株式会社,京都府,京都市伏見区,淀樋爪町１９０番地,,26,109,6130901,,,,,,,2024-03-07,1,,,,,ロータスジャパン,0
1349,5140001133573,新規,0,2024-03-07,2024-03-07,株式会社とよとみ,,株式会社,兵庫県,加古川市,平岡町新在家１１９２－１０２,,28,210,6750101,,,,,,,2024-03-07,1,,,,,トヨトミ,0
1350,5140001133598,新規,0,2024-03-07,2024-03-07,株式会社咲良,,株式会社,兵庫県,姫路市,飾磨区阿成渡場２６６番地,,28,201,6728039,,,,,,,2024-03-07,1,,,,,サクラ,0
1351,5140001133615,新規,0,2024-03-07,2024-03-07,さこし不動産株式会社,,株式会社,兵庫県,神戸市東灘区,御影１丁目１５番１３－３０２号,,28,101,6580047,,,,,,,2024-03-07,1,,,,,サコシフドウサン,0
1361,5180001160408,新規,0,2024-03-07,2024-03-07,株式会社Ｋトラスト,,株式会社,愛知県,名古屋市守山区,大字上志段味字東谷２１０９番地の４３７,,23,113,4630001,,,,,,,2024-03-07,1,,,,,ケートラスト,0
1362,5180001160432,新規,0,2024-03-07,2024-03-07,株式会社ＭＳＫ,,株式会社,愛知県,大府市,共栄町２丁目１５９番地,,23,223,4740074,,,,,,,2024-03-07,1,,,,,エムエスケー,0
1368,5180301038378,新規,0,2024-03-07,2024-03-07,株式会社Ｅｓｔ,,株式会社,愛知県,豊橋市,多米西町１丁目１２番地２,,23,201,4400026,,,,,,,2024-03-07,1,,,,,エスト,0
1369,5180301038386,新規,0,2024-03-07,2024-03-07,アイチヒロ株式会社,,株式会社,愛知県,豊田市,山之手８丁目１２４番地,,23,211,4710833,,,,,,,2024-03-07,1,,,,,アイチヒロ,0
1370,5180301038394,新規,0,2024-03-07,2024-03-07,株式会社山口美建,,株式会社,愛知県,岡崎市,富永町字棚池２０番地１,,23,202,4440946,,,,,,,2024-03-07,1,,,,,ヤマグチビケン,0
1392,5290001104989,新規,0,2024-03-07,2024-03-07,株式会社ＫＭホールディングス,,株式会社,福岡県,福岡市博多区,西月隈５丁目１９番３６－９０３号三愛シティライフ空港南ＩＩ,00133988,40,132,8120857,,,,,,,2024-03-07,1,,,,,ケーエムホールディングス,0
1394,5290003015029,新規,0,2024-03-07,2024-03-07,合同会社ＯＷＰ,,合同会社,福岡県,春日市,下白水北７丁目９３－２０１,,40,218,8160854,,,,,,,2024-03-07,1,,,,,オーダブルピー,0
1397,5290005019309,新規,0,2024-03-07,2024-03-07,一般社団法人動物愛護団体キーテイル,,その他の設立登記法人,福岡県,福岡市中央区,天神２丁目２番１２号Ｔ＆Ｊビルディング７Ｆ,,40,133,8100001,,,,,,,2024-03-07,1,,,,,ドウブツアイゴダンタイキーテイル,0
1405,5310001018897,新規,0,2024-03-07,2024-03-07,株式会社よかね,,株式会社,長崎県,長崎市,三景台町２６番３３号,,42,201,8500824,,,,,,,2024-03-07,1,,,,,ヨカネ,0
1407,5320001020324,新規,0,2024-03-07,2024-03-07,株式会社アドバンスファーム大分,,株式会社,大分県,豊後大野市,三重町宮野細長８８番地,,44,212,8797101,,,,,,,2024-03-07,1,,,,,アドバンスファームオオイタ,0
1408,5330001031808,新規,0,2024-03-07,2024-03-07,株式会社大当,,株式会社,熊本県,熊本市東区,長嶺南１丁目２－３３　２０２,,43,102,8618039,,,,,,,2024-03-07,1,,,,,ダイトウ,0
1409,5330001031816,新規,0,2024-03-07,2024-03-07,ビッグバレー株式会社,,株式会社,熊本県,天草市,船之尾町１３番１１号,,43,215,8630017,,,,,,,2024-03-07,1,,,,,ビッグバレー,0
1415,5340001026344,新規,0,2024-03-07,2024-03-07,株式会社徳田ラーメン,,株式会社,鹿児島県,日置市,伊集院町中川１２６７番地,,46,216,8992514,,,,,,,2024-03-07,1,,,,,トクダラーメン,0
1434,5470003002594,新規,0,2024-03-07,2024-03-07,合同会社アポロ,,合同会社,香川県,高松市,川島本町２１４番地１９,,37,201,7610442,,,,,,,2024-03-07,1,,,,,アポロ,0
1446,6010001242758,新規,0,2024-03-07,2024-03-07,株式会社ソフトグラム,,株式会社,東京都,中央区,八丁堀２丁目１番７号白鳳ビル３Ｆ,,13,102,1040032,,,,,,,2024-03-07,1,,,,,ソフトグラム,0
1447,6010001242808,新規,0,2024-03-07,2024-03-07,株式会社おとは,,株式会社,東京都,千代田区,神田和泉町１番地６－１６ヤマトビル４０５,,13,101,1010024,,,,,,,2024-03-07,1,,,,,オトハ,0
1448,6010001242824,新規,0,2024-03-07,2024-03-07,株式会社Ｌｉｖｅｔｏｏｎ,,株式会社,東京都,中央区,日本橋茅場町２丁目１２番１０号ＰＭＯＥＸ日本橋茅場町３階Ｈ１Ｏ日本橋茅場町３１０,,13,102,1030025,,,,,,,2024-03-07,1,,,,,ライブトーン,0
1449,6010001242832,新規,0,2024-03-07,2024-03-07,Ｓｔａｎｄａｒｄ　Ｙ株式会社,,株式会社,東京都,中央区,銀座１丁目１５番７号ＭＡＣ銀座ビル３階,,13,102,1040061,,,,,,,2024-03-07,1,,,,,スタンダードワイ,0
1450,6010001242898,新規,0,2024-03-07,2024-03-07,株式会社ＬＩＬＹ,,株式会社,東京都,千代田区,富士見１丁目７－５富士見ヒルズ３階,,13,101,1020071,,,,,,,2024-03-07,1,,,,,リリー,0
1454,6010003043122,新規,0,2024-03-07,2024-03-07,ラブバイオム合同会社,,合同会社,東京都,中央区,日本橋室町１丁目１１番１２号,,13,102,1030022,,,,,,,2024-03-07,1,,,,,ラブバイオム,0
1455,6010003043130,新規,0,2024-03-07,2024-03-07,ファロ・デザイン合同会社,,合同会社,東京都,文京区,本郷２丁目３９番７号,,13,105,1130033,,,,,,,2024-03-07,1,,,,,ファロデザイン,0
1456,6010003043147,新規,0,2024-03-07,2024-03-07,合同会社英咲商店,,合同会社,東京都,中央区,日本橋小伝馬町８番３－８０２号,,13,102,1030001,,,,,,,2024-03-07,1,,,,,ハナサキショウテン,0
1457,6010003043155,新規,0,2024-03-07,2024-03-07,合同会社ＢＬＩＳＳ　ＣＯＲＥ,,合同会社,東京都,中央区,晴海５丁目６－４－９０８,,13,102,1040053,,,,,,,2024-03-07,1,,,,,ブリスコール,0
1458,6010005037997,新規,0,2024-03-07,2024-03-07,一般社団法人日本カンナビノイド学会,,その他の設立登記法人,東京都,文京区,湯島２丁目３番３号マックビルＢ１,,13,105,1130034,,,,,,,2024-03-07,1,,,,,ニホンカンナビノイドガッカイ,0
1459,6010005038005,新規,0,2024-03-07,2024-03-07,ブルーグラスホールディングス一般社団法人,,その他の設立登記法人,東京都,千代田区,丸の内３丁目１番１号東京共同会計事務所内,,13,101,1000005,,,,,,,2024-03-07,1,,,,,ブルーグラスホールディングス,0
1470,6010401180888,新規,0,2024-03-07,2024-03-07,株式会社ａｎｄ　Ｍａｒｔｉｎ,,株式会社,東京都,港区,芝５丁目２７－３ＭＢＣ・Ｂ－１６１号,,13,103,1080014,,,,,,,2024-03-07,1,,,,,アンドマーティン,0
1471,6010401180896,新規,0,2024-03-07,2024-03-07,株式会社クローロス,,株式会社,東京都,港区,西麻布４丁目１６番９号ホフ・タカミ２Ｆ,,13,103,1060031,,,,,,,2024-03-07,1,,,,,クローロス,0
1473,6010403032105,新規,0,2024-03-07,2024-03-07,合同会社アンＴＩＭＥ,,合同会社,東京都,港区,赤坂６丁目４番１１号ドミ・エメロード６０５号,,13,103,1070052,,,,,,,2024-03-07,1,,,,,アンタイム,0
1474,6010601064759,新規,0,2024-03-07,2024-03-07,株式会社Ｏｎｅ　Ｐｌｕｓ,,株式会社,東京都,江東区,塩浜２丁目４番２７－１３０２号,,13,108,1350043,,,,,,,2024-03-07,1,,,,,ワンプラス,0
1478,6010701045659,新規,0,2024-03-07,2024-03-07,Ｌｉｅｂｅｎｅｋｏ株式会社,,株式会社,東京都,品川区,東大井２丁目２３番１号名人亭ビル２階,,13,109,1400011,,,,,,,2024-03-07,1,,,,,リーベネコ,0
1479,6010703007079,新規,0,2024-03-07,2024-03-07,合同会社５３６クリエイターネクサス,,合同会社,東京都,品川区,東大井２丁目２３番１号名人亭ビル２階,,13,109,1400011,,,,,,,2024-03-07,1,,,,,ゴサンロククリエイターネクサス,0
1480,6010705003605,新規,0,2024-03-07,2024-03-07,一般社団法人動物病院人財育成協会,,その他の設立登記法人,東京都,品川区,東大井３丁目１８番１３号プライムネクサス立会川２階,,13,109,1400011,,,,,,,2024-03-07,1,,,,,ドウブツビョウインジンザイイクセイキョウカイ,0
1484,6010805003100,新規,0,2024-03-07,2024-03-07,医療法人社団藤東会,,その他の設立登記法人,東京都,大田区,仲六郷２丁目４３番２号オーケージャンボ・サガンビル５階Ａ区画,,13,111,1440055,,,,,,,2024-03-07,1,,,,,フジトウカイ,0
1493,6011001160363,新規,0,2024-03-07,2024-03-07,ブランデリ株式会社,,株式会社,東京都,渋谷区,元代々木町３０番１３号,,13,113,1510062,,,,,,,2024-03-07,1,,,,,ブランデリ,0
1494,6011001160438,新規,0,2024-03-07,2024-03-07,株式会社ＩＭ,,株式会社,東京都,目黒区,自由が丘２丁目９番４号吉田ビル３０１,,13,110,1520035,,,,,,,2024-03-07,1,,,,,アイエム,0
1495,6011001160446,新規,0,2024-03-07,2024-03-07,ＵＭＥＺＯＯｔａｂｌｅ株式会社,,株式会社,東京都,渋谷区,円山町５番５号Ｎａｖｉ渋谷Ｖ３階,,13,113,1500044,,,,,,,2024-03-07,1,,,,,ウメズーテーブル,0
1500,6011103014178,新規,0,2024-03-07,2024-03-07,ＪＴＮ合同会社,,合同会社,東京都,新宿区,百人町１丁目１番１５ＰＨＯＴＯビル３０２号,,13,104,1690073,,,,,,,2024-03-07,1,,,,,ジェイティーエヌ,0
1501,6011301029473,新規,0,2024-03-07,2024-03-07,株式会社ゼロツーマンガクリエイト,,株式会社,東京都,杉並区,阿佐谷北６丁目１番３号グランヴァン阿佐ヶ谷ＩＩ３０６号室,00133992,13,115,1660001,,,,,,,2024-03-07,1,,,,,ゼロツーマンガクリエイト,0
1502,6011401025901,新規,0,2024-03-07,2024-03-07,株式会社ＫＧＩホールディングス,,株式会社,東京都,板橋区,板橋４丁目１２番１７号,,13,119,1730004,,,,,,,2024-03-07,1,,,,,ケージーアイホールディングス,0
1504,6011403004291,新規,0,2024-03-07,2024-03-07,広信合同会社,,合同会社,東京都,板橋区,大谷口上町４０番７号,,13,119,1730032,,,,,,,2024-03-07,1,,,,,コウシン,0
1505,6011501030405,新規,0,2024-03-07,2024-03-07,株式会社Ｔｏｂｕ　Ｆａｍｉｌｙ＆Ｐａｒｔｎｅｒｓ,,株式会社,東京都,北区,桐ケ丘１丁目１３番３６－５１７号,,13,117,1150054,,,,,,,2024-03-07,1,,,,,トブファミリーアンドパートナーズ,0
1507,6011603004265,新規,0,2024-03-07,2024-03-07,合同会社日双,,合同会社,東京都,練馬区,東大泉６丁目３４－２８－５０２,,13,120,1780063,,,,,,,2024-03-07,1,,,,,ニッソウ,0
1511,6011801043882,新規,0,2024-03-07,2024-03-07,株式会社Ｌｉｇｈｔ　Ｈｏｕｓｅ,,株式会社,東京都,葛飾区,柴又６丁目２３－１０,,13,122,1250052,,,,,,,2024-03-07,1,,,,,ライトハウス,0
1513,6011805003346,新規,0,2024-03-07,2024-03-07,医療法人社団Ｗ＆Ｓ,,その他の設立登記法人,東京都,足立区,西伊興４丁目８番２０号,,13,121,1210824,,,,,,,2024-03-07,1,,,,,ダブリューアンドエス,0
1516,6012403006443,新規,0,2024-03-07,2024-03-07,合同会社エムズベース,,合同会社,東京都,三鷹市,下連雀６丁目１２番７－４０９号,,13,204,1810013,,,,,,,2024-03-07,1,,,,,エムズベース,0
1518,6013301052174,新規,0,2024-03-07,2024-03-07,ＩｎｎｏＳｐｈｅｒｅ株式会社,,株式会社,東京都,豊島区,南池袋１丁目１６番１５号ダイヤゲート池袋５階,,13,116,1710022,,,,,,,2024-03-07,1,,,,,イノスフィア,0
1526,6020001156107,新規,0,2024-03-07,2024-03-07,株式会社Ｔ‐ｓｉｇｎ,,株式会社,神奈川県,川崎市川崎区,砂子１丁目２番地１２ハレーちとせ３０２号室,,14,131,2100006,,,,,,,2024-03-07,1,,,,,ティーサイン,0
1527,6020001156115,新規,0,2024-03-07,2024-03-07,株式会社Ｆａｓｔｓｅｃｏｎｄａｒｙｌｏｇｉｓｔｉｃｓ,,株式会社,神奈川県,川崎市高津区,宇奈根８４７番地１６,,14,134,2130031,,,,,,,2024-03-07,1,,,,,ファストセカンダリロジスティクス,0
1528,6020001156123,新規,0,2024-03-07,2024-03-07,株式会社Ｈｏｍｅ　ｐｌａｔｅ,,株式会社,神奈川県,横浜市港北区,綱島上町８３番地１グランメール竹生１０３,,14,109,2230055,,,,,,,2024-03-07,1,,,,,ホームプレート,0
1529,6020001156131,新規,0,2024-03-07,2024-03-07,株式会社共進塗工,,株式会社,神奈川県,横浜市神奈川区,神之木台２８番７号,,14,102,2210011,,,,,,,2024-03-07,1,,,,,キョウシントコウ,0
1535,6020003025648,新規,0,2024-03-07,2024-03-07,ＳＴＩＣＫＭＡＮ合同会社,,合同会社,神奈川県,横浜市栄区,鍛冶ケ谷１丁目３４－８,,14,115,2470009,,,,,,,2024-03-07,1,,,,,スティックマン,0
1536,6020003025664,新規,0,2024-03-07,2024-03-07,合同会社松勝,,合同会社,神奈川県,横浜市南区,清水ケ丘１６５番地の３８,,14,105,2320007,,,,,,,2024-03-07,1,,,,,マツカツ,0
1537,6020003025680,新規,0,2024-03-07,2024-03-07,良縁物販合同会社,,合同会社,神奈川県,横浜市神奈川区,金港町５－１４クアドリフォリオ８階,,14,102,2210056,,,,,,,2024-03-07,1,,,,,リョウエンブッパン,0
1540,6021001081658,新規,0,2024-03-07,2024-03-07,株式会社繋和,,株式会社,神奈川県,藤沢市,鵠沼橘１丁目１番１５号イマジンビル３階,,14,205,2510024,,,,,,,2024-03-07,1,,,,,ツグワ,0
1544,6021003014186,新規,0,2024-03-07,2024-03-07,合同会社ＡＬＡＩＳＥ,,合同会社,神奈川県,海老名市,さつき町２番地（１７－４０２）,,14,215,2430421,,,,,,,2024-03-07,1,,,,,アレーズ,0
1545,6021003014236,新規,0,2024-03-07,2024-03-07,合同会社ＡＫＡＬＡ,,合同会社,神奈川県,厚木市,旭町１丁目１５番８号県央ビル２Ｆ,,14,212,2430014,,,,,,,2024-03-07,1,,,,,アカラ,0
1557,6030001158993,新規,0,2024-03-07,2024-03-07,株式会社ＭＰＷ,,株式会社,埼玉県,熊谷市,本石２丁目２１６番地１－６０４号,,11,202,3600815,,,,,,,2024-03-07,1,,,,,エムピーダブリュー,0
1558,6030001159001,新規,0,2024-03-07,2024-03-07,株式会社楽湾,,株式会社,埼玉県,戸田市,下戸田２丁目３１番１３－２０２号,,11,224,3350011,,,,,,,2024-03-07,1,,,,,ラクワン,0
1562,6030003023782,新規,0,2024-03-07,2024-03-07,合同会社Ｔｏ‐ｉｃｈｉ,,合同会社,埼玉県,越谷市,北越谷５丁目７番２号,,11,222,3430026,,,,,,,2024-03-07,1,,,,,トーイチ,0
1564,6040001132502,新規,0,2024-03-07,2024-03-07,ＩＳネクスト株式会社,,株式会社,千葉県,我孫子市,天王台１丁目２２番１５号,,12,222,2701143,,,,,,,2024-03-07,1,,,,,アイエスネクスト,0
1571,6040003024458,新規,0,2024-03-07,2024-03-07,合同会社Ｂ２,,合同会社,千葉県,柏市,増尾１丁目１２番１６号,,12,217,2770033,,,,,,,2024-03-07,1,,,,,ビーツー,0
1572,6040003024466,新規,0,2024-03-07,2024-03-07,合同会社ＧＵＳＨＯ,,合同会社,千葉県,千葉市美浜区,若葉３丁目１番地１幕張ベイパークスカイグランドタワー２５０９号,,12,106,2610014,,,,,,,2024-03-07,1,,,,,グショウ,0
1573,6040003024508,新規,0,2024-03-07,2024-03-07,合同会社重郎地農園,,合同会社,千葉県,大網白里市,四天木甲１４０８番地,,12,239,2993203,,,,,,,2024-03-07,1,,,,,ジュウロウチノウエン,0
1581,6070001041469,新規,0,2024-03-07,2024-03-07,株式会社渡辺建設,,株式会社,群馬県,伊勢崎市,境東新井６１９－１,,10,204,3700101,,,,,,,2024-03-07,1,,,,,,0
1593,6080401027042,新規,0,2024-03-07,2024-03-07,株式会社グレースアンドプレシジョン,,株式会社,静岡県,浜松市中央区,萩丘３丁目１０番４３号,,22,138,4338121,,,,,,,2024-03-07,1,,,,,グレースアンドプレシジョン,0
1614,6120001262860,新規,0,2024-03-07,2024-03-07,株式会社匠海,,株式会社,大阪府,大阪市東成区,深江南３丁目５番８号,,27,115,5370002,,,,,,,2024-03-07,1,,,,,タクミ,0
1615,6120001262927,新規,0,2024-03-07,2024-03-07,株式会社Ｇｗｅｌｌ,,株式会社,大阪府,大阪市天王寺区,小橋町２番２１号,,27,109,5430028,,,,,,,2024-03-07,1,,,,,ジーウェル,0
1619,6120003026090,新規,0,2024-03-07,2024-03-07,シンカイ電機合同会社,,合同会社,大阪府,大阪市西淀川区,姫島３丁目１４番１－１号,,27,113,5550033,,,,,,,2024-03-07,1,,,,,シンカイデンキ,0
1620,6120101069181,新規,0,2024-03-07,2024-03-07,株式会社ＭＡＧクリエイト,,株式会社,大阪府,堺市堺区,南三国ヶ丘町３丁２番１９－１０７号,,27,141,5900023,,,,,,,2024-03-07,1,,,,,マグクリエイト,0
1621,6120903005078,新規,0,2024-03-07,2024-03-07,合同会社ＯＴＡＮＩ,,合同会社,大阪府,吹田市,山田東４丁目１８番千里山田コーポラスＡ－１０３,,27,205,5650821,,,,,,,2024-03-07,1,,,,,オオタニ,0
1633,6140001133606,新規,0,2024-03-07,2024-03-07,株式会社英泉,,株式会社,兵庫県,姫路市,南町１１番地キャピタルｉ姫路２Ｆ,,28,201,6700912,,,,,,,2024-03-07,1,,,,,エイセン,0
1637,6150001027105,新規,0,2024-03-07,2024-03-07,株式会社クリーンアップ,,株式会社,奈良県,葛城市,竹内７５８番地１,,29,211,6392155,,,,,,,2024-03-07,1,,,,,クリーンアップ,0
1648,6180001160448,新規,0,2024-03-07,2024-03-07,ダイワトラスト株式会社,,株式会社,愛知県,名古屋市中川区,供米田２丁目１７０２－２０５,,23,110,4540984,,,,,,,2024-03-07,1,,,,,ダイワトラスト,0
1651,6180003026457,新規,0,2024-03-07,2024-03-07,タロ合同会社,,合同会社,愛知県,知多郡武豊町,字北中根４丁目１番地ビレッジハウス谷口４棟２０２号,,23,447,4702385,,,,,,,2024-03-07,1,,,,,タロ,0
1654,6180301038393,新規,0,2024-03-07,2024-03-07,株式会社ＬＩＢＥＲＡ　ＧＲＯＵＰ,,株式会社,愛知県,田原市,赤石６丁目３８番地,,23,231,4413422,,,,,,,2024-03-07,1,,,,,リベラグループ,0
1660,6200001042230,新規,0,2024-03-07,2024-03-07,ＧＩコーポレーション株式会社,,株式会社,岐阜県,瑞穂市,野白新田３１２番地,,21,216,5010231,,,,,,,2024-03-07,1,,,,,ジーアイコーポレーション,0
1662,6210001019665,新規,0,2024-03-07,2024-03-07,ＳＡＣＨｉＫＲ株式会社,,株式会社,福井県,坂井市,丸岡町今市第７号４１番地,,18,210,9100234,,,,,,,2024-03-07,1,,,,,サチクル,0
1663,6210003001761,新規,0,2024-03-07,2024-03-07,合同会社フラヴィラ,,合同会社,福井県,大野市,下麻生嶋第５９号２０番地,,18,205,9120815,,,,,,,2024-03-07,1,,,,,フラヴィラ,0
1671,6250001020545,新規,0,2024-03-07,2024-03-07,株式会社リフォデン,,株式会社,山口県,下関市,上田中町２丁目４番１０号,,35,201,7500009,,,,,,,2024-03-07,1,,,,,リフォデン,0
1691,6310001018888,新規,0,2024-03-07,2024-03-07,株式会社ＫＩＺＵＮＡ警備,,株式会社,長崎県,西彼杵郡長与町,嬉里郷４５６番地,,42,307,8512128,,,,,,,2024-03-07,1,,,,,キズナケイビ,0
1692,6310001018896,新規,0,2024-03-07,2024-03-07,Ｖｉｓｊｏｙ株式会社,,株式会社,長崎県,長崎市,本石灰町３番３号２Ｆ,,42,201,8500901,,,,,,,2024-03-07,1,,,,,ウィスジョイ,0
1695,6330003010255,新規,0,2024-03-07,2024-03-07,合同会社ＳＨＬ,,合同会社,熊本県,上益城郡益城町,大字田原２０７１－１,,43,443,8612202,,,,,,,2024-03-07,1,,,,,エスエイチエル,0
1700,6340003004396,新規,0,2024-03-07,2024-03-07,合同会社ＬＯＯＰ,,合同会社,鹿児島県,霧島市,国分松木町１番４３－２号,,46,218,8994325,,,,,,,2024-03-07,1,,,,,ループ,0
1702,6360003013775,新規,0,2024-03-07,2024-03-07,合同会社天運ホールディングス,,合同会社,沖縄県,宜野湾市,我如古１丁目２６番８号,,47,205,9012214,,,,,,,2024-03-07,1,,,,,テンウンホールディングス,0
1713,6410001013747,新規,0,2024-03-07,2024-03-07,秋田オフショアトレーニングセンター株式会社,,株式会社,秋田県,男鹿市,船川港船川字外ケ沢１２４番地１、Ａ号室,,05,206,0100511,,,,,,,2024-03-07,1,,,,,アキタオフショアトレーニングセンター,0
1717,6430001091221,新規,0,2024-03-07,2024-03-07,ＦＵＪＩ工業株式会社,,株式会社,北海道,札幌市東区,東苗穂八条１丁目１５番１０号,,01,103,0070808,,,,,,,2024-03-07,1,,,,,フジコウギョウ,0
1719,6430003016036,新規,0,2024-03-07,2024-03-07,ＯＮＥ合同会社,,合同会社,北海道,石狩市,花川南八条２丁目７２番地,,01,235,0613208,,,,,,,2024-03-07,1,,,,,ワン,0
1723,6450001014246,新規,0,2024-03-07,2024-03-07,株式会社ケアサポートファイブ,,株式会社,北海道,旭川市,神楽二条７丁目２番８号,,01,204,0708002,,,,,,,2024-03-07,1,,,,,,0
1726,6490001010712,新規,0,2024-03-07,2024-03-07,高知ソフトサービス株式会社,,株式会社,高知県,高知市,梅ノ辻７番２２－１４０３号,00133985,39,201,7808011,,,,,,,2024-03-07,1,,,,,コウチソフトサービス,0
1731,6700150123994,新規,0,2024-03-07,2024-02-16,古田校区放課後児童クラブ,,その他,鹿児島県,西之表市,古田１２２１番地,,46,213,8913431,,,,,,,2024-02-16,1,,,,,フルタコウクホウカゴジドウクラブ,0
1737,7010001242740,新規,0,2024-03-07,2024-03-07,株式会社アリエル,,株式会社,東京都,千代田区,神田須田町２丁目３番１６号ＮＲＴ神田須田町ビル３Ｆ,,13,101,1010041,,,,,,,2024-03-07,1,,,,,アリエル,0
1738,7010001242765,新規,0,2024-03-07,2024-03-07,株式会社セラヴィ,,株式会社,東京都,千代田区,鍛冶町２丁目７番２号神田駅前ビル２階,,13,101,1010044,,,,,,,2024-03-07,1,,,,,セラヴィ,0
1739,7010001242807,新規,0,2024-03-07,2024-03-07,株式会社ゼットメディケア,,株式会社,東京都,千代田区,鍛冶町２丁目４番５号黒江屋鍛冶町ビル５階,,13,101,1010044,,,,,,,2024-03-07,1,,,,,ゼットメディケア,0
1740,7010001242856,新規,0,2024-03-07,2024-03-07,株式会社カリオモン,,株式会社,東京都,文京区,千駄木２丁目３３番５号メゾン・ド・ヴィレ千駄木１０２,,13,105,1130022,,,,,,,2024-03-07,1,,,,,カリオモン,0
1742,7010003043138,新規,0,2024-03-07,2024-03-07,合同会社山男,,合同会社,東京都,中央区,銀座１丁目２２－１１銀座大竹ビジデンス２Ｆ,,13,102,1040061,,,,,,,2024-03-07,1,,,,,ヤマオトコ,0
1743,7010005037963,新規,0,2024-03-07,2024-03-07,一般社団法人ファンドドゥ１８号,,その他の設立登記法人,東京都,千代田区,霞が関３丁目２番５号,,13,101,1000013,,,,,,,2024-03-07,1,,,,,ファンドドゥジュウハチゴウ,0
1744,7010101016037,新規,0,2024-03-07,2024-03-07,株式会社だるま,,株式会社,東京都,八王子市,松木４番地４,,13,201,1920362,,,,,,,2024-03-07,1,,,,,ダルマ,0
1754,7010401180929,新規,0,2024-03-07,2024-03-07,フュージョンブリッジテクノロジーズ株式会社,,株式会社,東京都,港区,南青山３丁目１番３６号青山丸竹ビル６Ｆ,,13,103,1070062,,,,,,,2024-03-07,1,,,,,フュージョンブリッジテクノロジーズ,0
1762,7010601064758,新規,0,2024-03-07,2024-03-07,株式会社道成寺清姫,,株式会社,東京都,墨田区,向島５丁目３２番１号,,13,107,1310033,,,,,,,2024-03-07,1,,,,,ドウジョウジキヨヒメ,0
1763,7010601064766,新規,0,2024-03-07,2024-03-07,株式会社マリーゴールド,,株式会社,東京都,江東区,大島６丁目１０－１８クロスエッジ３Ｆ,,13,108,1360072,,,,,,,2024-03-07,1,,,,,マリーゴールド,0
1764,7010601064774,新規,0,2024-03-07,2024-03-07,株式会社地酒やすだ,,株式会社,東京都,江東区,牡丹３丁目２８－１,,13,108,1350046,,,,,,,2024-03-07,1,,,,,ジザケヤスダ,0
1766,7010701045658,新規,0,2024-03-07,2024-03-07,Ｓｕｎｇ　Ｈｏｌｄｉｎｇｓ株式会社,,株式会社,東京都,品川区,東五反田５丁目２２番３７号,,13,109,1410022,,,,,,,2024-03-07,1,,,,,サンホールディングス,0
1769,7010805003099,新規,0,2024-03-07,2024-03-07,一般社団法人日本能力認定協会,,その他の設立登記法人,東京都,大田区,中馬込３丁目１５番４－１０２号,,13,111,1430027,,,,,,,2024-03-07,1,,,,,ニホンノウリョクニンテイキョウカイ,0
1772,7010901054822,新規,0,2024-03-07,2024-03-07,株式会社ＰＲＯＪＥＣＴ２７,,株式会社,東京都,世田谷区,奥沢５丁目２７－５魚菜エステートビル４階,,13,112,1580083,,,,,,,2024-03-07,1,,,,,プロジェクトトゥエンティセブン,0
1777,7011001160395,新規,0,2024-03-07,2024-03-07,株式会社ＡｘｉｓＩ,,株式会社,東京都,渋谷区,円山町５番５号Ｎａｖｉ渋谷Ｖ３階,,13,113,1500044,,,,,,,2024-03-07,1,,,,,アクシスアイ,0
1778,7011001160445,新規,0,2024-03-07,2024-03-07,株式会社７．８５ＤＥＳＩＧＮ,,株式会社,東京都,渋谷区,恵比寿４丁目１０番１８号ＨＩＬＬＳＩＤＥＥＢＩＳ１０５,,13,113,1500013,,,,,,,2024-03-07,1,,,,,ナナテンハチゴデザイン,0
1781,7011101106447,新規,0,2024-03-07,2024-03-07,株式会社ＫＳＮ,,株式会社,東京都,新宿区,西新宿３丁目３番１３号西新宿水間ビル６階,,13,104,1600023,,,,,,,2024-03-07,1,,,,,ケイエスエヌ,0
1783,7011103014185,新規,0,2024-03-07,2024-03-07,合同会社クウソウ,,合同会社,東京都,新宿区,新宿１丁目３６－２新宿第七葉山ビル３Ｆ,,13,104,1600022,,,,,,,2024-03-07,1,,,,,クウソウ,0
1784,7011301029472,新規,0,2024-03-07,2024-03-07,株式会社ＮＡＧ．,,株式会社,東京都,杉並区,荻窪３丁目７番５２－４０９号,,13,115,1670051,,,,,,,2024-03-07,1,,,,,ナグ,0
1786,7011501030404,新規,0,2024-03-07,2024-03-07,株式会社ＩＺＡＲＩＢＩ,,株式会社,東京都,北区,王子１丁目２３番１０号センタービル別館３０１,,13,117,1140002,,,,,,,2024-03-07,1,,,,,イザリビ,0
1791,7011603004264,新規,0,2024-03-07,2024-03-07,合同会社ＣＯＬＯＲＳ,,合同会社,東京都,練馬区,豊玉北５丁目１４番４号,,13,120,1760012,,,,,,,2024-03-07,1,,,,,カラーズ,0
1794,7011701027076,新規,0,2024-03-07,2024-03-07,Ｑｍｉ株式会社,,株式会社,東京都,江戸川区,東葛西５丁目２３－１９武内ビル３０５,,13,123,1340084,,,,,,,2024-03-07,1,,,,,キューミ,0
1795,7011701027092,新規,0,2024-03-07,2024-03-07,株式会社ＨＭ　Ｇｌｏｂａｌ　Ｈｕｂ,,株式会社,東京都,江戸川区,中葛西５丁目４１番１０号,,13,123,1340083,,,,,,,2024-03-07,1,,,,,エイチエムグローバルハブ,0
1797,7011801043881,新規,0,2024-03-07,2024-03-07,銘洋株式会社,,株式会社,東京都,葛飾区,堀切７丁目２７－７名橋ビル３０１,,13,122,1240006,,,,,,,2024-03-07,1,,,,,メイヨウ,0
1799,7011805003345,新規,0,2024-03-07,2024-03-07,医療法人社団志成会,,その他の設立登記法人,東京都,足立区,西竹の塚２丁目１番１０号岡田ビル１階,,13,121,1210822,,,,,,,2024-03-07,1,,,,,シセイカイ,0
1801,7012301013813,新規,0,2024-03-07,2024-03-07,株式会社Ｃ＆Ｓ,,株式会社,東京都,町田市,本町田２０４８－６６,,13,209,1940032,,,,,,,2024-03-07,1,,,,,シーアンドエス,0
1802,7012801023015,新規,0,2024-03-07,2024-03-07,株式会社マンバリティ,,株式会社,東京都,立川市,高松町２丁目１７番２８号,,13,202,1900011,,,,,,,2024-03-07,1,,,,,マンバリティ,0
1812,7020001156015,新規,0,2024-03-07,2024-03-07,株式会社ＮＯ　ＬＩＭＩＴ,,株式会社,神奈川県,横浜市保土ケ谷区,東川島町２０番地９３,,14,106,2400041,,,,,,,2024-03-07,1,,,,,ノーリミット,0
1813,7020001156122,新規,0,2024-03-07,2024-03-07,株式会社Ｙｏｕｎｇ　Ｂｅｒｒｙ,,株式会社,神奈川県,横浜市都筑区,加賀原１丁目１７番７号,,14,118,2240055,,,,,,,2024-03-07,1,,,,,ヤングベリー,0
1814,7020001156139,新規,0,2024-03-07,2024-03-07,川井不動産株式会社,,株式会社,神奈川県,横浜市南区,永田東１丁目３２番１７号,,14,105,2320072,,,,,,,2024-03-07,1,,,,,カワイフドウサン,0
1820,7020003025663,新規,0,2024-03-07,2024-03-07,合同会社メディアストア,,合同会社,神奈川県,川崎市中原区,上新城１丁目６番７号,,14,133,2110045,,,,,,,2024-03-07,1,,,,,メディアストア,0
1822,7021001081608,新規,0,2024-03-07,2024-03-07,株式会社Ｄａｉｓｙ　Ｂｌｏｏｍ,,株式会社,神奈川県,綾瀬市,寺尾釜田２丁目１７番３３－３０５号,,14,218,2521135,,,,,,,2024-03-07,1,,,,,デイジーブルーム,0
1846,7040001132567,新規,0,2024-03-07,2024-03-07,松建株式会社,,株式会社,千葉県,松戸市,松戸１４３４－２－３０３号室,,12,207,2710092,,,,,,,2024-03-07,1,,,,,マツケン,0
1851,7040003024449,新規,0,2024-03-07,2024-03-07,合同会社ＶＩＳＥＮＩＸ,,合同会社,千葉県,船橋市,本中山３丁目５番６－１０１号ベルトピア本中山,,12,204,2730035,,,,,,,2024-03-07,1,,,,,ヴィセニクス,0
1852,7040003024457,新規,0,2024-03-07,2024-03-07,Ｔ＆Ｙヘルスカンパニー合同会社,,合同会社,千葉県,船橋市,高根台１丁目９番１９棟１０５号,,12,204,2740065,,,,,,,2024-03-07,1,,,,,ティーアンドワイヘルスカンパニー,0
1855,7050001054406,新規,0,2024-03-07,2024-03-07,株式会社彩,,株式会社,茨城県,龍ケ崎市,野原町１０番地１,,08,208,3010831,,,,,,,2024-03-07,1,,,,,イロドリ,0
1856,7050001054422,新規,0,2024-03-07,2024-03-07,ＢＯＮＳＡＩ　ＳＴＵＤＩＯ株式会社,,株式会社,茨城県,つくば市,吾妻２丁目５－１つくば市産業振興センター,,08,220,3050031,,,,,,,2024-03-07,1,,,,,ボンサイスタジオ,0
1860,7080103003002,新規,0,2024-03-07,2024-03-07,Ｔａｒｉｑ　Ｔｒａｄｉｎｇ合同会社,,合同会社,静岡県,田方郡函南町,平井５２番地の１５,,22,325,4190107,,,,,,,2024-03-07,1,,,,,タリックトレーディング,0
1867,7100005013138,新規,0,2024-03-07,2024-03-07,医療法人弘智会,,その他の設立登記法人,長野県,上田市,古里１４９９番地２９,,20,203,3860005,,,,,,,2024-03-07,1,,,,,コウチカイ,0
1868,7110001038229,新規,0,2024-03-07,2024-03-07,株式会社楽取る,,株式会社,新潟県,燕市,本町１丁目４－２６,,15,213,9591253,,,,,,,2024-03-07,1,,,,,ラドル,0
1881,7120001262876,新規,0,2024-03-07,2024-03-07,株式会社ＴＨＳ,,株式会社,大阪府,大阪市中央区,島之内２丁目１３番９号第一右田ビル１Ｆ,,27,128,5420082,,,,,,,2024-03-07,1,,,,,ティエイチエス,0
1886,7120101069180,新規,0,2024-03-07,2024-03-07,申軒株式会社,,株式会社,大阪府,泉南市,新家１３１５－３５０,,27,228,5900503,,,,,,,2024-03-07,1,,,,,シンケン,0
1894,7122003002822,新規,0,2024-03-07,2024-03-07,ＨＬ　ＰＬＵＳ合同会社,,合同会社,大阪府,東大阪市,中小阪２丁目１３番１４号,,27,227,5770804,,,,,,,2024-03-07,1,,,,,エッチエルプラス,0
1900,7130001076499,新規,0,2024-03-07,2024-03-07,ＫＷマネジメント株式会社,,株式会社,京都府,京都市中京区,烏丸通六角上る饅頭屋町６１７番地六角長谷ビル１０階Ｂ,,26,104,6048161,,,,,,,2024-03-07,1,,,,,ケイダブリューマネジメント,0
1901,7130003009366,新規,0,2024-03-07,2024-03-07,合同会社ＶＡＬＬＩＳ,,合同会社,京都府,京都市中京区,寺町通二条下る妙満寺前町４４７番地３ジュール寺町二条３０５,,26,104,6040932,,,,,,,2024-03-07,1,,,,,ヴァリス,0
1912,7140001133547,新規,0,2024-03-07,2024-03-07,株式会社ｍａｒｒｙ　ｇｒｏｗ,,株式会社,兵庫県,川西市,鴬の森町９番１２－２号,,28,217,6660001,,,,,,,2024-03-07,1,,,,,マリーグロウ,0
1917,7140003020198,新規,0,2024-03-07,2024-03-07,世達通商合同会社,,合同会社,兵庫県,洲本市,下内膳９４５番地２シティグランツパルト２０３号,,28,205,6560016,,,,,,,2024-03-07,1,,,,,セタツツウショウ,0
1933,7180301038392,新規,0,2024-03-07,2024-03-07,株式会社ＹＭサポート,,株式会社,愛知県,豊田市,松平志賀町前田１８番地,,23,211,4442223,,,,,,,2024-03-07,1,,,,,ワイエムサポート,0
1945,7210003001760,新規,0,2024-03-07,2024-03-07,合同会社Ｌｉｇｈｔ　ｓｕｎｎｙ,,合同会社,福井県,丹生郡越前町,上山中第４号８番地,,18,423,9160225,,,,,,,2024-03-07,1,,,,,ライトサニー,0
1952,7240003006567,新規,0,2024-03-07,2024-03-07,ルッカリー合同会社,,合同会社,広島県,神石郡神石高原町,小畠１６８８番地４神石高原町サテライトオフィス１０１号,,34,545,7201522,,,,,,,2024-03-07,1,,,,,ルッカリー,0
1953,7250001020544,新規,0,2024-03-07,2024-03-07,株式会社山清,,株式会社,山口県,岩国市,美和町生見９６番地５,,35,208,7401231,,,,,,,2024-03-07,1,,,,,サンセイ,0
1957,7260003004602,新規,0,2024-03-07,2024-03-07,合同会社３５ｓｔｙｌｅ,,合同会社,岡山県,岡山市北区,楢津４９８番地１,,33,101,7011202,,,,,,,2024-03-07,1,,,,,サッコスタイル,0
1964,7290001104979,新規,0,2024-03-07,2024-03-07,株式会社和魂,,株式会社,福岡県,福岡市城南区,荒江１丁目１６番２４号,,40,136,8140101,,,,,,,2024-03-07,1,,,,,ニキタマ,0
1965,7290003015019,新規,0,2024-03-07,2024-03-07,合同会社フラップハウス,,合同会社,福岡県,福岡市早良区,田隈１丁目７番１－１０２号,,40,137,8140174,,,,,,,2024-03-07,1,,,,,フラップハウス,0
1966,7290005019307,新規,0,2024-03-07,2024-03-07,特定非営利活動法人環美会,,その他の設立登記法人,福岡県,嘉麻市,牛隈２６５２番地嘉穂北区団地９４号,,40,227,8200301,,,,,,,2024-03-07,1,,,,,カンビカイ,0
1973,7310001018895,新規,0,2024-03-07,2024-03-07,株式会社ＧＬＯＢＡＬ‐Ｂ,,株式会社,長崎県,長崎市,大黒町１１番１４号東亜物産ビル２０３,,42,201,8500057,,,,,,,2024-03-07,1,,,,,グローバルビー,0
1983,7340003004395,新規,0,2024-03-07,2024-03-07,合同会社ＹｕｎｉｏＦａｍｉｌｙ,,合同会社,鹿児島県,霧島市,国分福島１丁目２８番９号,,46,218,8994322,,,,,,,2024-03-07,1,,,,,ユニオファミリー,0
1988,7360005006999,新規,0,2024-03-07,2024-03-07,ジョブフラッグ沖縄協同組合,,その他の設立登記法人,沖縄県,那覇市,泊２丁目１３番地６,,47,201,9000012,,,,,,,2024-03-07,1,,,,,ジョブフラッグ,0
1989,7370003006505,新規,0,2024-03-07,2024-03-07,合同会社ｍｉｍｉ,,合同会社,宮城県,仙台市青葉区,一番町１丁目６番２７－１００１号,,04,101,9800811,,,,,,,2024-03-07,1,,,,,ミミ,0
1993,7380003005695,新規,0,2024-03-07,2024-03-07,合同会社赤津部屋,,合同会社,福島県,いわき市,泉町滝尻字加賀前２３－３－１０１,,07,204,9718182,,,,,,,2024-03-07,1,,,,,アカツベヤ,0
1999,7420001018620,新規,0,2024-03-07,2024-03-07,株式会社ＮｅｘｔＮａｔｕｒａｌ,,株式会社,青森県,弘前市,大字鳥井野字長田１２９番地５,,02,202,0361333,,,,,,,2024-03-07,1,,,,,ネクストナチュラル,0
2002,7430001091229,新規,0,2024-03-07,2024-03-07,ＭＡＲＵＡ株式会社,,株式会社,北海道,札幌市豊平区,中の島二条１０丁目２番１２,,01,105,0620922,,,,,,,2024-03-07,1,,,,,マルア,0
2008,7490001010711,新規,0,2024-03-07,2024-03-07,ＫＳＭホールディングス株式会社,,株式会社,高知県,南国市,日吉町２丁目１番１２号,,39,204,7830001,,,,,,,2024-03-07,1,,,,,ケーエスエムホールディングス,0
2020,8010001242665,新規,0,2024-03-07,2024-03-07,ＭＳＯ株式会社,,株式会社,東京都,中央区,日本橋箱崎町１６－１１ルミネ日本橋６０１,,13,102,1030015,,,,,,,2024-03-07,1,,,,,エムエスオー,0
2021,8010001242772,新規,0,2024-03-07,2024-03-07,株式会社コネルド,,株式会社,東京都,中央区,日本橋３丁目２番１４号新槇町ビル別館第一１階,,13,102,1030027,,,,,,,2024-03-07,1,,,,,コネルド,0
2022,8010001242896,新規,0,2024-03-07,2024-03-07,株式会社カピネス,,株式会社,東京都,中央区,銀座１丁目１２－４Ｎ＆ＥＢＬＤ．７階,,13,102,1040061,,,,,,,2024-03-07,1,,,,,カピネス,0
2027,8010003043129,新規,0,2024-03-07,2024-03-07,デロニクス合同会社,,合同会社,東京都,中央区,日本橋３丁目９番１号日本橋三丁目スクエア１１階,,13,102,1030027,,,,,,,2024-03-07,1,,,,,デロニクス,0
2028,8010005037979,新規,0,2024-03-07,2024-03-07,弁護士法人スフィア東京,,その他の設立登記法人,東京都,千代田区,麹町３丁目１０－１ＴＷＧ麹町５階,,13,101,1020083,,,,,,,2024-03-07,1,,,,,スフィアトウキョウ,0
2038,8010401180770,新規,0,2024-03-07,2024-03-07,ＨＯＯＯＰ株式会社,,株式会社,東京都,港区,新橋２丁目２０番１５号４階,,13,103,1050004,,,,,,,2024-03-07,1,,,,,ホープ,0
2039,8010401180886,新規,0,2024-03-07,2024-03-07,株式会社ＥＨＩＢ,,株式会社,東京都,港区,麻布十番１丁目８番９号,,13,103,1060045,,,,,,,2024-03-07,1,,,,,エイブ,0
2043,8010503007368,新規,0,2024-03-07,2024-03-07,合同会社ＰｌａｎＡ,,合同会社,東京都,台東区,元浅草１丁目６－１２,,13,106,1110041,,,,,,,2024-03-07,1,,,,,プランエー,0
2045,8010601064757,新規,0,2024-03-07,2024-03-07,Ｍｉｉｎａ株式会社,,株式会社,東京都,墨田区,錦糸１丁目２番１号アルカセントラル１４階,,13,107,1300013,,,,,,,2024-03-07,1,,,,,ミイナ,0
2047,8010605004296,新規,0,2024-03-07,2024-03-07,医療法人社団萌來会,,その他の設立登記法人,東京都,墨田区,江東橋４丁目２５番７号ＪＵスカイタウン錦糸町１階,,13,107,1300022,,,,,,,2024-03-07,1,,,,,ホウライカイ,0
2049,8010701045657,新規,0,2024-03-07,2024-03-07,株式会社ｅａｐ,,株式会社,東京都,品川区,北品川５丁目５－１５大崎ブライトコア４階,,13,109,1410001,,,,,,,2024-03-07,1,,,,,イープ,0
2055,8010901054805,新規,0,2024-03-07,2024-03-07,株式会社方舟,,株式会社,東京都,世田谷区,奥沢８丁目７－４,,13,112,1580083,,,,,,,2024-03-07,1,,,,,ハコブネ,0
2060,8011001160386,新規,0,2024-03-07,2024-03-07,株式会社テラス,,株式会社,東京都,目黒区,下目黒１丁目１番１４号,,13,110,1530064,,,,,,,2024-03-07,1,,,,,テラス,0
2061,8011001160411,新規,0,2024-03-07,2024-03-07,株式会社和方庵,,株式会社,東京都,渋谷区,代官山町７番８－１０２号,,13,113,1500034,,,,,,,2024-03-07,1,,,,,ワホウアン,0
2062,8011001160444,新規,0,2024-03-07,2024-03-07,株式会社Ｈｉｎｏｔｏｒｉ,,株式会社,東京都,渋谷区,道玄坂１丁目１０番８号渋谷道玄坂東急ビル２Ｆ－Ｃ,,13,113,1500043,,,,,,,2024-03-07,1,,,,,ヒノトリ,0
2063,8011003018640,新規,0,2024-03-07,2024-03-07,合同会社ＫｅｌｌｙＫａｙ,,合同会社,東京都,渋谷区,代々木４丁目３０番５号フェニックス西参道タワー１８０２,,13,113,1510053,,,,,,,2024-03-07,1,,,,,ケリケイ,0
2069,8011103014184,新規,0,2024-03-07,2024-03-07,合同会社サイバーオプテーニ,,合同会社,東京都,新宿区,西新宿３丁目３番１３号西新宿水間ビル６階,,13,104,1600023,,,,,,,2024-03-07,1,,,,,サイバーオプテーニ,0
2077,8011603004263,新規,0,2024-03-07,2024-03-07,ＥＳＴＡＴＥ　ＭｉＳＯ合同会社,,合同会社,東京都,練馬区,高松３丁目２３番１５号,,13,120,1790075,,,,,,,2024-03-07,1,,,,,エステートミソ,0
2078,8011803006118,新規,0,2024-03-07,2024-03-07,合同会社ロゴス,,合同会社,東京都,足立区,青井４丁目４５番１０－４０４号,,13,121,1210012,,,,,,,2024-03-07,1,,,,,ロゴス,0
2080,8012303001947,新規,0,2024-03-07,2024-03-07,合同会社イコユニック,,合同会社,東京都,町田市,鶴間６丁目４０番１２号２０１,,13,209,1940004,,,,,,,2024-03-07,1,,,,,イコユニック,0
2081,8012305002084,新規,0,2024-03-07,2024-03-07,医療法人社団ＵＤＣ,,その他の設立登記法人,東京都,町田市,薬師台１丁目２５番地１２薬師台メディカルテラスＦ区画,,13,209,1950073,,,,,,,2024-03-07,1,,,,,ユーディーシー,0
2083,8012403006433,新規,0,2024-03-07,2024-03-07,合同会社オフィスＴＰＰＨＹ,,合同会社,東京都,武蔵野市,御殿山１丁目１１番１２ー３０６号吉祥寺御殿山ＨＯＵＳＥ,,13,203,1800005,,,,,,,2024-03-07,1,,,,,オフィスティーピーファイ,0
2089,8020001156088,新規,0,2024-03-07,2024-03-07,株式会社ＩＣＹ,,株式会社,神奈川県,横浜市中区,石川町２丁目６０番地金子ビル２Ｆ,,14,104,2310868,,,,,,,2024-03-07,1,,,,,アイシー,0
2090,8020001156146,新規,0,2024-03-07,2024-03-07,ＧＦＥホールディングス株式会社,,株式会社,神奈川県,横浜市鶴見区,尻手２丁目１番５０号,,14,101,2300003,,,,,,,2024-03-07,1,,,,,ジーエフイーホールディングス,0
2091,8020001156154,新規,0,2024-03-07,2024-03-07,株式会社チアーズダイニング,,株式会社,神奈川県,横浜市西区,みなとみらい２丁目２番１号ランドマークタワー１２階,,14,103,2200012,,,,,,,2024-03-07,1,,,,,チアーズダイニング,0
2096,8020003025662,新規,0,2024-03-07,2024-03-07,Ｊ‐ＧＵＡＲＤ合同会社,,合同会社,神奈川県,横浜市港南区,芹が谷１丁目１番１７－４号,,14,111,2330006,,,,,,,2024-03-07,1,,,,,ジェイガード,0
2099,8021001081598,新規,0,2024-03-07,2024-03-07,株式会社Ｓｕｇａｒ　Ｖｉｌｌａｇｅ,,株式会社,神奈川県,相模原市南区,磯部９９０,,14,153,2520327,,,,,,,2024-03-07,1,,,,,シュガービレッジ,0
2100,8021001081656,新規,0,2024-03-07,2024-03-07,株式会社ＦＲＥＥ,,株式会社,神奈川県,相模原市中央区,光が丘１丁目１２番７号,,14,152,2520227,,,,,,,2024-03-07,1,,,,,フリー,0
2104,8021003014234,新規,0,2024-03-07,2024-03-07,合同会社オアシス,,合同会社,神奈川県,鎌倉市,西鎌倉３丁目１－１４,,14,204,2480035,,,,,,,2024-03-07,1,,,,,オアシス,0
2109,8030001159065,新規,0,2024-03-07,2024-03-07,株式会社双羽工務店,,株式会社,埼玉県,深谷市,小前田１２６番地９,,11,218,3691246,,,,,,,2024-03-07,1,,,,,フタバコウムテン,0
2110,8030001159115,新規,0,2024-03-07,2024-03-07,株式会社佐藤組,,株式会社,埼玉県,さいたま市西区,大字土屋２４０番地３,,11,101,3310062,,,,,,,2024-03-07,1,,,,,サトウグミ,0
2122,8040001132450,新規,0,2024-03-07,2024-03-07,株式会社千の恵み,,株式会社,千葉県,松戸市,高塚新田１３８－４２６,,12,207,2702222,,,,,,,2024-03-07,1,,,,,センノメグミ,0
2123,8040001132574,新規,0,2024-03-07,2024-03-07,株式会社ＦＵＫＵＴＡ　ＬＡＢＯ,,株式会社,千葉県,千葉市美浜区,打瀬３丁目５番地マリンフォート５－１２０１号,,12,106,2610013,,,,,,,2024-03-07,1,,,,,フクタラボ,0
2124,8040003024497,新規,0,2024-03-07,2024-03-07,ＯＥＣ合同会社,,合同会社,千葉県,千葉市稲毛区,天台４丁目１２－１千草台コープＡ棟１０４,,12,103,2630016,,,,,,,2024-03-07,1,,,,,オーイーシー,0
2126,8050001054421,新規,0,2024-03-07,2024-03-07,ＥＮ国際貿易株式会社,,株式会社,茨城県,猿島郡五霞町,大字小福田１２６７番地２,,08,542,3060307,,,,,,,2024-03-07,1,,,,,イーエヌコクサイボウエキ,0
2130,8070001041459,新規,0,2024-03-07,2024-03-07,株式会社上州工務店,,株式会社,群馬県,太田市,龍舞町４６９３番地２,,10,205,3730806,,,,,,,2024-03-07,1,,,,,ジョウシュウコウムテン,0
2131,8070001041467,新規,0,2024-03-07,2024-03-07,デザイン＆ビルド株式会社,,株式会社,群馬県,伊勢崎市,西小保方町４２３番地１,,10,204,3792224,,,,,,,2024-03-07,1,,,,,,0
2132,8070001041475,新規,0,2024-03-07,2024-03-07,柏葉株式会社,,株式会社,群馬県,高崎市,下佐野町２５９番地１,,10,202,3700855,,,,,,,2024-03-07,1,,,,,カシワバ,0
2141,8080103003001,新規,0,2024-03-07,2024-03-07,合同会社エムズギャレー,,合同会社,静岡県,三島市,御園６６０番地の１０,,22,206,4110823,,,,,,,2024-03-07,1,,,,,エムズギャレー,0
2144,8080401027040,新規,0,2024-03-07,2024-03-07,株式会社マルエス,,株式会社,静岡県,御前崎市,上朝比奈２３１３番地,,22,223,4371601,,,,,,,2024-03-07,1,,,,,マルエス,0
2148,8100005013137,新規,0,2024-03-07,2024-03-07,一般社団法人ｎｅｘｔ　ｎｏｔｅホールディングス,,その他の設立登記法人,長野県,長野市,川中島町御厨２８１番地４０,,20,201,3812221,,,,,,,2024-03-07,1,,,,,ネクストノートホールディングス,0
2159,8120001262727,新規,0,2024-03-07,2024-03-07,Ｊ＆Ｊ株式会社,,株式会社,大阪府,大阪市住之江区,南港北２丁目１－１０,,27,125,5590034,,,,,,,2024-03-07,1,,,,,ジェイアンドジェイ,0
2160,8120001262867,新規,0,2024-03-07,2024-03-07,三希の家株式会社,,株式会社,大阪府,大阪市西成区,天下茶屋１丁目２８番１６号－２０５号室,,27,122,5570014,,,,,,,2024-03-07,1,,,,,サンキノイエ,0
2161,8120001262883,新規,0,2024-03-07,2024-03-07,ダイカン互助会株式会社,,株式会社,大阪府,大阪市此花区,島屋２丁目１１番６３号,,27,104,5540024,,,,,,,2024-03-07,1,,,,,ダイカンゴジョカイ,0
2162,8120001262933,新規,0,2024-03-07,2024-03-07,株式会社ＲＴＭ,,株式会社,大阪府,大阪市北区,長柄中１丁目７番１８号,,27,127,5310062,,,,,,,2024-03-07,1,,,,,アールティエム,0
2165,8120003026072,新規,0,2024-03-07,2024-03-07,合同会社アプリセット,,合同会社,大阪府,大阪市福島区,鷺洲３丁目１０番１６－１２０２号,,27,103,5530002,,,,,,,2024-03-07,1,,,,,アプリセット,0
2166,8120003026080,新規,0,2024-03-07,2024-03-07,合同会社ＲＫＷ,,合同会社,大阪府,大阪市北区,梅田１丁目２番２号大阪駅前第２ビル１２－１２,,27,127,5300001,,,,,,,2024-03-07,1,,,,,アールケーダブル,0
2173,8120901048853,新規,0,2024-03-07,2024-03-07,輝住宅管理株式会社,,株式会社,大阪府,茨木市,玉瀬町４２番６－１００号,,27,211,5670893,,,,,,,2024-03-07,1,,,,,カガヤキジュウタクカンリ,0
2174,8122003002821,新規,0,2024-03-07,2024-03-07,合同会社なごみ,,合同会社,大阪府,東大阪市,近江堂２丁目４番１０号,,27,227,5770817,,,,,,,2024-03-07,1,,,,,ナゴミ,0
2184,8130001076481,新規,0,2024-03-07,2024-03-07,株式会社眞和ＭＡＲＢＬＥ,,株式会社,京都府,京都市北区,大宮一ノ井町２５番地３,,26,101,6038477,,,,,,,2024-03-07,1,,,,,シンワマーブル,0
2189,8130003009349,新規,0,2024-03-07,2024-03-07,合同会社結ファームけいほく,,合同会社,京都府,京都市右京区,京北周山町河端３番地の１,,26,108,6010251,,,,,,,2024-03-07,1,,,,,ユイファームケイホク,0
2194,8140001133579,新規,0,2024-03-07,2024-03-07,株式会社ＡＩＥ,,株式会社,兵庫県,神戸市東灘区,深江浜町６７番地７０８号,,28,101,6580023,,,,,,,2024-03-07,1,,,,,エーアイイー,0
2195,8140001133595,新規,0,2024-03-07,2024-03-07,株式会社ｓｈｕｎ,,株式会社,兵庫県,尼崎市,塚口町１丁目１番２号,,28,202,6610002,,,,,,,2024-03-07,1,,,,,シュン,0
2200,8140003020247,新規,0,2024-03-07,2024-03-07,乃彩合同会社,,合同会社,兵庫県,たつの市,龍野町富永４７１番地３,,28,229,6794167,,,,,,,2024-03-07,1,,,,,ダイア,0
2207,8160005011283,新規,0,2024-03-07,2024-03-07,医療法人ＫＳＫ,,その他の設立登記法人,滋賀県,大津市,二本松１番１号ブランチ大津京,,25,201,5200021,,,,,,,2024-03-07,1,,,,,ケイエスケイ,0
2216,8180001160405,新規,0,2024-03-07,2024-03-07,株式会社未来労働衛生コンサルタント事務所,,株式会社,愛知県,名古屋市瑞穂区,平郷町２丁目２番地２,,23,108,4670879,,,,,,,2024-03-07,1,,,,,ミライロウドウエイセイコンサルタントジムショ,0
2217,8180001160438,新規,0,2024-03-07,2024-03-07,株式会社ｍ’ｓクリエイト,,株式会社,愛知県,名古屋市守山区,大字上志段味字東谷２０８５番地の３８,,23,113,4630001,,,,,,,2024-03-07,1,,,,,エムズクリエイト,0
2218,8180001160446,新規,0,2024-03-07,2024-03-07,セントラルパーティション株式会社,,株式会社,愛知県,名古屋市中川区,富田町大字千音寺字赤星裏４５７２番地の２,,23,110,4540971,,,,,,,2024-03-07,1,,,,,セントラルパーティション,0
2219,8180001160454,新規,0,2024-03-07,2024-03-07,株式会社シウェイ,,株式会社,愛知県,名古屋市中村区,横前町１２８番地レッド・リーブスＩＩＩ２０１号,00133997,23,105,4530864,,,,,,,2024-03-07,1,,,,,シウェイ,0
2225,8180301038375,新規,0,2024-03-07,2024-03-07,株式会社ＭＡＴＵＤＥＮ,,株式会社,愛知県,刈谷市,今岡町西畑７５番地２,,23,210,4480008,,,,,,,2024-03-07,1,,,,,マツデン,0
2226,8180301038383,新規,0,2024-03-07,2024-03-07,株式会社勇盛金属,,株式会社,愛知県,豊橋市,青竹町字青竹１１７番地１,,23,201,4418085,,,,,,,2024-03-07,1,,,,,ユウセイキンゾク,0
2227,8180301038391,新規,0,2024-03-07,2024-03-07,株式会社ＡＣＴｒｉｓｅ,,株式会社,愛知県,豊田市,大成町１４０９番地１,,23,211,4701217,,,,,,,2024-03-07,1,,,,,アクトライズ,0
2229,8180303006025,新規,0,2024-03-07,2024-03-07,合同会社ＹＭＴ,,合同会社,愛知県,豊川市,牛久保町稲市場６０‐１,,23,207,4420826,,,,,,,2024-03-07,1,,,,,ワイエムティ,0
2239,8210001019663,新規,0,2024-03-07,2024-03-07,株式会社Ｖｉｖａｃｅ,,株式会社,福井県,福井市,西谷２丁目５１０－１,,18,201,9188023,,,,,,,2024-03-07,1,,,,,ヴィヴァーチェ,0
2247,8240005015739,新規,0,2024-03-07,2024-03-07,メリィ事業協同組合,,その他の設立登記法人,広島県,安芸高田市,八千代町勝田４３８番地,,34,214,7310302,,,,,,,2024-03-07,1,,,,,メリィ,0
2253,8270001008933,新規,0,2024-03-07,2024-03-07,株式会社クリエイティブサポートＣ,,株式会社,鳥取県,米子市,両三柳３２３番地１,,31,202,6830853,,,,,,,2024-03-07,1,,,,,クリエイティブサポートシー,0
2259,8290001104920,新規,0,2024-03-07,2024-03-07,株式会社高井左官,00133986,株式会社,福岡県,福岡市西区,今津５９３１番地１,,40,135,8190165,,,,,,,2024-03-07,1,,,,,タカイサカン,0
2260,8290001104929,新規,0,2024-03-07,2024-03-07,株式会社ＶＩＡＬＥ,,株式会社,福岡県,大川市,大字酒見２９５番地１,,40,212,8310016,,,,,,,2024-03-07,1,,,,,ヴィアーレ,0
2261,8290001104953,新規,0,2024-03-07,2024-03-07,株式会社ＮＥＯ,,株式会社,福岡県,福岡市城南区,荒江１丁目４番４２号,,40,136,8140101,,,,,,,2024-03-07,1,,,,,ネオ,0
2262,8290001104961,新規,0,2024-03-07,2024-03-07,株式会社ひまわりペイント,,株式会社,福岡県,那珂川市,大字成竹９２２番地８,,40,231,8111235,,,,,,,2024-03-07,1,,,,,ヒマワリペイント,0
2263,8290001104994,新規,0,2024-03-07,2024-03-07,親栄商事株式会社,,株式会社,福岡県,福岡市博多区,博多駅前１丁目８番７号,,40,132,8120011,,,,,,,2024-03-07,1,,,,,シンエイショウジ,0
2273,8310003004744,新規,0,2024-03-07,2024-03-07,合同会社エムエムマーブル,,合同会社,長崎県,佐世保市,瀬戸越４丁目１３１９番地１９,,42,202,8570134,,,,,,,2024-03-07,1,,,,,エムエムマーブル,0
2279,8360003013757,新規,0,2024-03-07,2024-03-07,合同会社ドローンビジネスオキナワ,,合同会社,沖縄県,那覇市,前島３丁目２５番２号泊ポートビル１階,,47,201,9000016,,,,,,,2024-03-07,1,,,,,ドローンビジネスオキナワ,0
2280,8360003013773,新規,0,2024-03-07,2024-03-07,合同会社ＲＹＵＴＯ　ＤＥＳＩＧＮ,,合同会社,沖縄県,那覇市,天久１丁目１３番１６号,,47,201,9000005,,,,,,,2024-03-07,1,,,,,リュウトデザイン,0
2284,8380003005703,新規,0,2024-03-07,2024-03-07,合同会社Ｐｅｄｚ,,合同会社,福島県,いわき市,若葉台２丁目２２－８,,07,204,9718138,,,,,,,2024-03-07,1,,,,,ペッズ,0
2288,8410001013745,新規,0,2024-03-07,2024-03-07,株式会社田中看板店,,株式会社,秋田県,横手市,婦気大堤字婦気前２４２番地２,,05,203,0130063,,,,,,,2024-03-07,1,,,,,タナカカンバンテン,0
2294,8700150124339,新規,0,2024-03-07,2024-03-07,南通市駐日本経済貿易事務所,,外国会社等,東京都,港区,赤坂１丁目１２－３２アーク森ビル１２階７１室,,13,103,1070052,江蘇省南通市崇川区世紀大道８号報業ビル７階,,,,,,2024-03-07,1,,,,,ナンツウシチユウニホンケイザイボウエキジムシヨ,0
2306,9010001242680,新規,0,2024-03-07,2024-03-07,株式会社Ｙｏｓｔａｒ　Ｓｔｏｒｅ,,株式会社,東京都,千代田区,神田練塀町３００番地住友不動産秋葉原駅前ビル１１階,,13,101,1010022,,,,,,,2024-03-07,1,,,,,ヨスターストア,0
2307,9010001242838,新規,0,2024-03-07,2024-03-07,株式会社Ｐｌｉｅｎ,,株式会社,東京都,千代田区,神田和泉町１番地６－１６ヤマトビル４０５,,13,101,1010024,,,,,,,2024-03-07,1,,,,,プリアン,0
2308,9010001242862,新規,0,2024-03-07,2024-03-07,株式会社Ｓｉｌｖｅｒ　Ｂｒｉｄｇｅ,,株式会社,東京都,千代田区,丸の内２丁目７番２号ＪＰタワー,,13,101,1000005,,,,,,,2024-03-07,1,,,,,シルバーブリッジ,0
2325,9010403032110,新規,0,2024-03-07,2024-03-07,合同会社ミライノトビラ,,合同会社,東京都,港区,浜松町２丁目２番１５号浜松町ダイヤビル２階,,13,103,1050013,,,,,,,2024-03-07,1,,,,,ミライノトビラ,0
2329,9010503007367,新規,0,2024-03-07,2024-03-07,格拉西合同会社,,合同会社,東京都,台東区,台東３丁目５番１０号１０２－２Ｄ,,13,106,1100016,,,,,,,2024-03-07,1,,,,,カクラニシ,0
2334,9010601064756,新規,0,2024-03-07,2024-03-07,株式会社琉,,株式会社,東京都,江東区,亀戸１丁目２８番７号山田屋ビル２階,,13,108,1360071,,,,,,,2024-03-07,1,,,,,リュウ,0
2335,9010605004295,新規,0,2024-03-07,2024-03-07,医療法人社団空樹会,,その他の設立登記法人,東京都,墨田区,押上２丁目１０番８号ライフコア押上１０３号,,13,107,1310045,,,,,,,2024-03-07,1,,,,,クウジュカイ,0
2336,9010805003097,新規,0,2024-03-07,2024-03-07,医療法人社団寿徳会,,その他の設立登記法人,東京都,大田区,東糀谷３丁目３番２４号,,13,111,1440033,,,,,,,2024-03-07,1,,,,,ジュトクカイ,0
2339,9010901054829,新規,0,2024-03-07,2024-03-07,株式会社ＬＥＭＯＮ,,株式会社,東京都,世田谷区,若林１丁目３７番１４号,,13,112,1540023,,,,,,,2024-03-07,1,,,,,レモン,0
2342,9010905004581,新規,0,2024-03-07,2024-03-07,医療法人社団キラリ,,その他の設立登記法人,東京都,世田谷区,太子堂３丁目１番２４号ディアコート三軒茶屋１０１号室,,13,112,1540004,,,,,,,2024-03-07,1,,,,,キラリ,0
2345,9011001160410,新規,0,2024-03-07,2024-03-07,株式会社ネクサスライフサポート,,株式会社,東京都,渋谷区,笹塚３丁目５０番２０号,,13,113,1510073,,,,,,,2024-03-07,1,,,,,ネクサスライフサポート,0
2346,9011001160427,新規,0,2024-03-07,2024-03-07,株式会社ディープレオン,,株式会社,東京都,渋谷区,初台１丁目４８番５－６０６号パークホームズ初台ザレジデンス,,13,113,1510061,,,,,,,2024-03-07,1,,,,,ディープレオン,0
2348,9011003018623,新規,0,2024-03-07,2024-03-07,合同会社ＤａｙＯｎｅ,,合同会社,東京都,渋谷区,恵比寿西２丁目２番１０号,,13,113,1500021,,,,,,,2024-03-07,1,,,,,デイワン,0
2360,9011601027595,新規,0,2024-03-07,2024-03-07,ＬＵＫＡＭＯＯＮ株式会社,,株式会社,東京都,練馬区,豊玉北６丁目６番１２号ダイホープラザ練馬２０７号室,,13,120,1760012,,,,,,,2024-03-07,1,,,,,ルカムーン,0
2363,9011803006117,新規,0,2024-03-07,2024-03-07,合同会社ベーター,,合同会社,東京都,足立区,椿２丁目６番５号,,13,121,1230871,,,,,,,2024-03-07,1,,,,,ベーター,0
2364,9012301013811,新規,0,2024-03-07,2024-03-07,株式会社ナナグラス,,株式会社,東京都,町田市,忠生３丁目１番地９１,,13,209,1940035,,,,,,,2024-03-07,1,,,,,ナナグラス,0
2365,9012305002083,新規,0,2024-03-07,2024-03-07,医療法人社団いやさか,,その他の設立登記法人,東京都,町田市,山崎町２０５５番地２グランハート町田Ｂ－１０７,,13,209,1950074,,,,,,,2024-03-07,1,,,,,イヤサカ,0
2367,9012401041596,新規,0,2024-03-07,2024-03-07,株式会社武井創建,,株式会社,東京都,調布市,国領町１丁目２５番地１６,,13,208,1820022,,,,,,,2024-03-07,1,,,,,タケイソウケン,0
2368,9012405004954,新規,0,2024-03-07,2024-03-07,医療法人社団ＮＩＣＯ,,その他の設立登記法人,東京都,府中市,晴見町１丁目７番地の１府中メディカルキューブ３－Ｂ号室,,13,206,1830057,,,,,,,2024-03-07,1,,,,,ニコ,0
2370,9012703002924,新規,0,2024-03-07,2024-03-07,合同会社ＭＵＴ,,合同会社,東京都,小平市,津田町２丁目２－４,,13,211,1870025,,,,,,,2024-03-07,1,,,,,ムート,0
2377,9020001156079,新規,0,2024-03-07,2024-03-07,株式会社ＣＡＣ,,株式会社,神奈川県,横浜市港北区,岸根町１２７番地３,,14,109,2220034,,,,,,,2024-03-07,1,,,,,シーエーシー,0
2378,9020001156087,新規,0,2024-03-07,2024-03-07,株式会社ｍａｒｕ＆ｃｏ,,株式会社,神奈川県,横浜市青葉区,若草台１４番地７６,,14,117,2270045,,,,,,,2024-03-07,1,,,,,マルアンドコー,0
2379,9020001156104,新規,0,2024-03-07,2024-03-07,株式会社ＨＡ‐ＲＥ,,株式会社,神奈川県,川崎市麻生区,王禅寺西５丁目１０番１０－２号,,14,137,2150017,,,,,,,2024-03-07,1,,,,,ハーレ,0
2380,9020001156129,新規,0,2024-03-07,2024-03-07,株式会社オプティマルスポーツインターナショナル,,株式会社,神奈川県,川崎市宮前区,土橋１丁目２５番地１‐１０７,,14,136,2160005,,,,,,,2024-03-07,1,,,,,オプティマルスポーツインターナショナル,0
2384,9020003025604,新規,0,2024-03-07,2024-03-07,Ｌｉｚ　Ｊａｐａｎ合同会社,,合同会社,神奈川県,横浜市緑区,上山１丁目１２番２３号日神パレステージ中山６０４,,14,113,2260012,,,,,,,2024-03-07,1,,,,,リズジャパン,0
2385,9020003025653,新規,0,2024-03-07,2024-03-07,Ｊｅｎｉｃ合同会社,,合同会社,神奈川県,川崎市中原区,今井西町１９番３号エスト六３０１,,14,133,2110066,,,,,,,2024-03-07,1,,,,,ジェニック,0
2386,9020003025686,新規,0,2024-03-07,2024-03-07,合同会社ＰＰＪ,,合同会社,神奈川県,横浜市港北区,新横浜３丁目１７番１２号アルファスペース新横浜ビステーション新横浜,,14,109,2220033,,,,,,,2024-03-07,1,,,,,ピーピージェイ,0
2389,9021001081655,新規,0,2024-03-07,2024-03-07,株式会社天達商店,,株式会社,神奈川県,三浦市,宮川町２番７号,,14,210,2380231,,,,,,,2024-03-07,1,,,,,アマダツショウテン,0
2392,9021003014225,新規,0,2024-03-07,2024-03-07,風早ブリッジ合同会社,,合同会社,神奈川県,三浦郡葉山町,堀内６７７番地,,14,301,2400112,,,,,,,2024-03-07,1,,,,,カザハヤブリッジ,0
2393,9021003014233,新規,0,2024-03-07,2024-03-07,合同会社Ｈｉｒｏｋｏ,,合同会社,神奈川県,藤沢市,片瀬４丁目１６番２８号,,14,205,2510032,,,,,,,2024-03-07,1,,,,,ヒロコ,0
2399,9030001158982,新規,0,2024-03-07,2024-03-07,株式会社ディライズ・エステート,,株式会社,埼玉県,川口市,大字大竹１２９番地の７,,11,203,3340067,,,,,,,2024-03-07,1,,,,,ディライズエステート,0
2401,9030003023747,新規,0,2024-03-07,2024-03-07,合同会社とめい,,合同会社,埼玉県,坂戸市,千代田３丁目２番３号スイート・ラディアンス２０３号室,,11,239,3500214,,,,,,,2024-03-07,1,,,,,トメイ,0
2406,9040001132490,新規,0,2024-03-07,2024-03-07,クラウドパートナーズ株式会社,,株式会社,千葉県,千葉市花見川区,花園町２４５１番地２マーヴェラス花園Ｃ－２０２号,,12,102,2620021,,,,,,,2024-03-07,1,,,,,クラウドパートナーズ,0
2407,9040001132549,新規,0,2024-03-07,2024-03-07,株式会社光辰建材,,株式会社,千葉県,柏市,大井１７９９番地２,,12,217,2770902,,,,,,,2024-03-07,1,,,,,コウシンケンザイ,0
2412,9040003024414,新規,0,2024-03-07,2024-03-07,合同会社２０００ｓ,,合同会社,千葉県,千葉市中央区,千葉寺町１２４７番地９,,12,101,2600844,,,,,,,2024-03-07,1,,,,,トゥーサウザンズ,0
2419,9070001041466,新規,0,2024-03-07,2024-03-07,共栄商事株式会社,,株式会社,群馬県,太田市,小舞木町６３１番地グランディール藤清壱番館１０５,,10,205,3730818,,,,,,,2024-03-07,1,,,,,キョウエイショウジ,0
2423,9080101024576,新規,0,2024-03-07,2024-03-07,株式会社あをによし,,株式会社,静岡県,富士市,宇東川東町８－１３,,22,210,4170853,,,,,,,2024-03-07,1,,,,,アヲニヨシ,0
2424,9080105006406,新規,0,2024-03-07,2024-03-07,ＮＰＯ法人静岡県クレー射撃協会,,その他の設立登記法人,静岡県,富士市,厚原９３７番地の９,,22,210,4190201,,,,,,,2024-03-07,1,,,,,シズオカケンクレーシャゲキキョウカイ,0
2426,9100001037254,新規,0,2024-03-07,2024-03-07,株式会社ＢＣ,,株式会社,長野県,松本市,大字島立８１７番地１,,20,202,3900852,,,,,,,2024-03-07,1,,,,,ビーシー,0
2431,9100005013136,新規,0,2024-03-07,2024-03-07,一般社団法人ｌｅａｆ　ｖｅｉｎ,,その他の設立登記法人,長野県,中野市,大字江部１４４５番地１,,20,211,3830045,,,,,,,2024-03-07,1,,,,,リーフベイン,0
2434,9110001038227,新規,0,2024-03-07,2024-03-07,結食品運送株式会社,,株式会社,新潟県,胎内市,築地３３８１番地１,,15,227,9592712,,,,,,,2024-03-07,1,,,,,ムスビショクヒンウンソウ,0
2441,9110005017061,新規,0,2024-03-07,2024-03-07,一般社団法人福祉ｌａｂ,,その他の設立登記法人,新潟県,新潟市西蒲区,馬堀４１６９番地,,15,108,9530061,,,,,,,2024-03-07,1,,,,,フクシラボ,0
2448,9120001262874,新規,0,2024-03-07,2024-03-07,株式会社ダイワ,,株式会社,大阪府,大阪市中央区,南船場２丁目１０－１７－４１０,,27,128,5420081,,,,,,,2024-03-07,1,,,,,ダイワ,0
2449,9120001262908,新規,0,2024-03-07,2024-03-07,株式会社ＳＵＳＡＫＩ,,株式会社,大阪府,守口市,寺内町２丁目７番５号２Ｆ,,27,209,5700056,,,,,,,2024-03-07,1,,,,,スサキ,0
2450,9120001262924,新規,0,2024-03-07,2024-03-07,株式会社ダーラック,,株式会社,大阪府,大阪市東淀川区,淡路５丁目１５番１２号,,27,114,5330032,,,,,,,2024-03-07,1,,,,,ダーラック,0
2451,9120001262949,新規,0,2024-03-07,2024-03-07,瀛川貿易株式会社,,株式会社,大阪府,大阪市東住吉区,南田辺１丁目８－４３ＵＩＩＴビル２０３号室,,27,121,5460033,,,,,,,2024-03-07,1,,,,,エイカワボウエキ,0
2453,9120003026071,新規,0,2024-03-07,2024-03-07,合同会社ＣＳＣ,,合同会社,大阪府,大阪市住吉区,南住吉２丁目１６番２０号せせらぎ３０５号,,27,120,5580041,,,,,,,2024-03-07,1,,,,,シーエスシー,0
2457,9120103005710,新規,0,2024-03-07,2024-03-07,エンアシスト合同会社,,合同会社,大阪府,堺市南区,新檜尾台１丁８番２号,,27,145,5900143,,,,,,,2024-03-07,1,,,,,エンアシスト,0
2458,9120105009833,新規,0,2024-03-07,2024-03-07,農事組合法人農‐みのり,,その他の設立登記法人,大阪府,富田林市,北大伴町３丁目４－６,,27,214,5840042,,,,,,,2024-03-07,1,,,,,ミノリ,0
2465,9130001076497,新規,0,2024-03-07,2024-03-07,株式会社ｇ・ｓｔｏｎｅ,,株式会社,京都府,福知山市,字篠尾９３４番地の７,,26,201,6200000,,,,,,,2024-03-07,1,,,,,ジストーン,0
2466,9130001076514,新規,0,2024-03-07,2024-03-07,株式会社デイピタル,,株式会社,京都府,京都市南区,吉祥院里ノ内町８３番地,,26,107,6018339,,,,,,,2024-03-07,1,,,,,デイピタル,0
2468,9130003009348,新規,0,2024-03-07,2024-03-07,岩崎健次郎理財合同会社,00133987,合同会社,京都府,京都市下京区,朱雀正会町１－１－２１１,,26,106,6008841,,,,,,,2024-03-07,1,,,,,イワサキケンジロウリザイ,0
2469,9130003009364,新規,0,2024-03-07,2024-03-07,合同会社Ｐｏｌａｉｒｅ,,合同会社,京都府,向日市,寺戸町山縄手１０番地５１,,26,208,6170002,,,,,,,2024-03-07,1,,,,,ポレール,0
2472,9140001133545,新規,0,2024-03-07,2024-03-07,ワイトップ株式会社,,株式会社,兵庫県,姫路市,飾東町佐良和６５番地１１,,28,201,6710217,,,,,,,2024-03-07,1,,,,,ワイトップ,0
2486,9180001160395,新規,0,2024-03-07,2024-03-07,株式会社ｃｏｎｃｅｐｔ,,株式会社,愛知県,名古屋市中区,錦２丁目１２番５号,,23,106,4600003,,,,,,,2024-03-07,1,,,,,コンセプト,0
2487,9180001160404,新規,0,2024-03-07,2024-03-07,株式会社ｅｃｈｉｎａｃｅａ,,株式会社,愛知県,名古屋市北区,楠味鋺４丁目１２０４番地,,23,103,4620014,,,,,,,2024-03-07,1,,,,,エキナセア,0
2488,9180001160412,新規,0,2024-03-07,2024-03-07,ゼン株式会社,,株式会社,愛知県,知多郡南知多町,大字内海字西鈴ケ谷２７番地,,23,445,4703321,,,,,,,2024-03-07,1,,,,,ゼン,0
2489,9180001160420,新規,0,2024-03-07,2024-03-07,株式会社Ｉ．Ｄ．Ｅ．,,株式会社,愛知県,名古屋市昭和区,山里町７４番地,,23,107,4660824,,,,,,,2024-03-07,1,,,,,アイディーイー,0
2490,9180001160437,新規,0,2024-03-07,2024-03-07,株式会社ＰＯＲＴＥＲ,,株式会社,愛知県,名古屋市北区,楠町大字喜惣治新田字中島３１１番地１,,23,103,4620066,,,,,,,2024-03-07,1,,,,,ポーター,0
2492,9180301038390,新規,0,2024-03-07,2024-03-07,株式会社ＬＹＬ,,株式会社,愛知県,豊川市,一宮町社１８４番地,,23,207,4411231,,,,,,,2024-03-07,1,,,,,エルワイエル,0
2493,9180305009553,新規,0,2024-03-07,2024-03-07,特定非営利活動法人幸さわやか児童育成クラブ,,その他の設立登記法人,愛知県,豊橋市,西幸町字笠松１５８番地１,,23,201,4418113,,,,,,,2024-03-07,1,,,,,ミユキサワヤカジドウイクセイクラブ,0
2503,9210001019662,新規,0,2024-03-07,2024-03-07,ＫＥＮコーポレーション株式会社,,株式会社,福井県,福井市,月見４丁目６番１４号,,18,201,9188011,,,,,,,2024-03-07,1,,,,,ケンコーポレーション,0
2504,9220003003688,新規,0,2024-03-07,2024-03-07,合同会社ｕｎｍｉｘｅｄ,,合同会社,石川県,白山市,末正町エ１７番地１,,17,210,9290213,,,,,,,2024-03-07,1,,,,,アンミックスド,0
2507,9240001062874,新規,0,2024-03-07,2024-03-07,株式会社アセンブル,,株式会社,広島県,呉市,海岸１丁目６番６号,,34,202,7370823,,,,,,,2024-03-07,1,,,,,アセンブル,0
2508,9240001062899,新規,0,2024-03-07,2024-03-07,株式会社ＢｏｒｄｅｒＬｉｎｅ,,株式会社,広島県,広島市安佐南区,古市４丁目３番１４号,,34,105,7310123,,,,,,,2024-03-07,1,,,,,ボーダーライン,0
2515,9260001038815,新規,0,2024-03-07,2024-03-07,Ｔ’ｓ保険サービス株式会社,,株式会社,岡山県,岡山市南区,大福６７０番地１３,,33,104,7010204,,,,,,,2024-03-07,1,,,,,ティーズホケンサービス,0
2531,9310001018885,新規,0,2024-03-07,2024-03-07,株式会社信建設,,株式会社,長崎県,雲仙市,千々石町丙３０３番１,,42,213,8540403,,,,,,,2024-03-07,1,,,,,シンケンセツ,0
2543,9360003013764,新規,0,2024-03-07,2024-03-07,ＰＵＲＩＳＨＵＲＩ　ＪＡＰＡＮ合同会社,,合同会社,沖縄県,那覇市,久茂地１丁目１番１号９Ｆ,,47,201,9000015,,,,,,,2024-03-07,1,,,,,プリシュリジャパン,0
2569,9500003003197,新規,0,2024-03-07,2024-03-07,芳華貿易合同会社,,合同会社,愛媛県,松山市,高砂町１丁目１番地７第８グリーンハイツ１０６,,38,201,7900822,,,,,,,2024-03-07,1,,,,,ホウカボウエキ,0
