sequenceNumber,corporateNumber,process,correct,updateDate,changeDate,name,nameImageId,kind,prefectureName,cityName,streetNumber,addressImageId,prefectureCode,cityCode,postCode,addressOutside,addressOutsideImageId,closeDate,closeCause,successorCorporateNumber,changeCause,assignmentDate,latest,enName,enPrefectureName,enCityName,enAddressOutside,furigana,hihyoji
3,1010001237028,新規,0,2023-07-21,2023-07-21,モンタージュ株式会社,,株式会社,東京都,千代田区,丸の内１丁目１番３号日本生命丸の内ガーデンタワー３Ｆ,,13,101,1000005,,,,,,,2023-07-21,1,,,,,モンタージュ,0
4,1010001237060,新規,0,2023-07-21,2023-07-21,日本有明株式会社,,株式会社,東京都,中央区,銀座１丁目２２番１１号銀座大竹ビジデンス２Ｆ,,13,102,1040061,,,,,,,2023-07-21,1,,,,,ニホンアリアケ,0
5,1010001237110,新規,0,2023-07-21,2023-07-21,株式会社ワントライズ,,株式会社,東京都,中央区,東日本橋３丁目３番１０－７０４号,,13,102,1030004,,,,,,,2023-07-21,1,,,,,ワントライズ,0
7,1010005036987,新規,0,2023-07-21,2023-07-21,一般社団法人たんぽぽ舎,,その他の設立登記法人,東京都,千代田区,神田三崎町３丁目１番１号高橋セーフビル１Ｆ,,13,101,1010061,,,,,,,2023-07-21,1,,,,,タンポポシャ,0
8,1010101015721,新規,0,2023-07-21,2023-07-21,俊興株式会社,,株式会社,東京都,八王子市,追分町７番１２－３０４号,,13,201,1920056,,,,,,,2023-07-21,1,,,,,シュンコウ,0
9,1010101015738,新規,0,2023-07-21,2023-07-21,株式会社ＬＥＡＰ,,株式会社,東京都,八王子市,川町１２１番地６,,13,201,1930821,,,,,,,2023-07-21,1,,,,,リープ,0
10,1010103002180,新規,0,2023-07-21,2023-07-21,合同会社ＮＥＷ　ＳＴＹＬＥ,,合同会社,東京都,八王子市,三崎町５番４号Ｕポートビル４Ｆ－Ｃ,,13,201,1920084,,,,,,,2023-07-21,1,,,,,ニュースタイル,0
14,1010401175868,新規,0,2023-07-21,2023-07-21,株式会社Ｒｏｏｍ６１,,株式会社,東京都,港区,六本木１丁目６番１号,,13,103,1060032,,,,,,,2023-07-21,1,,,,,ルームロクイチ,0
15,1010405022298,新規,0,2023-07-21,2023-07-21,一般社団法人青麗会,,その他の設立登記法人,東京都,港区,南青山３丁目１０番２１号,,13,103,1070062,,,,,,,2023-07-21,1,,,,,セイレイカイ,0
16,1010501050789,新規,0,2023-07-21,2023-07-21,ＢＡＢＹ　ＴＡＴＴＯＯ株式会社,,株式会社,東京都,台東区,上野３丁目１５－７ＵＥＮＯＹＯＵＲ４０２号室,,13,106,1100005,,,,,,,2023-07-21,1,,,,,ベイビータトゥー,0
17,1010501050797,新規,0,2023-07-21,2023-07-21,株式会社Ａｓ　Ｓｏｏｎ　Ａｓ,,株式会社,東京都,台東区,上野７丁目４番９号細田ビル,,13,106,1100005,,,,,,,2023-07-21,1,,,,,アズスーンアズ,0
19,1010603010261,新規,0,2023-07-21,2023-07-21,合同会社環境衛生フロンティア,,合同会社,東京都,墨田区,菊川２丁目２番１０－３０４号菊川サニーハイツ,,13,107,1300024,,,,,,,2023-07-21,1,,,,,カンキョウエイセイフロンティア,0
34,1011005010148,新規,0,2023-07-21,2023-07-21,一般社団法人国際幹細胞臨床研究会,,その他の設立登記法人,東京都,目黒区,上目黒１丁目１６番１２号,,13,110,1530051,,,,,,,2023-07-21,1,,,,,コクサイカンサイボウリンショウケンキュウカイ,0
43,1011101103680,新規,0,2023-07-21,2023-07-21,ＢＩＴＥＸ株式会社,,株式会社,東京都,新宿区,西新宿７丁目３番１号,,13,104,1600023,,,,,,,2023-07-21,1,,,,,バイテックス,0
44,1011101103689,新規,0,2023-07-21,2023-07-21,株式会社ＣＨＲＯＮＯ,,株式会社,東京都,新宿区,新宿４丁目３番１５号レイフラット新宿５０４,,13,104,1600022,,,,,,,2023-07-21,1,,,,,クロノ,0
46,1011203004133,新規,0,2023-07-21,2023-07-21,Ｌｉｍｏｗ合同会社,,合同会社,東京都,中野区,弥生町１丁目５５番５号４０６号室,,13,114,1640013,,,,,,,2023-07-21,1,,,,,リモウ,0
88,1020001152465,新規,0,2023-07-21,2023-07-21,株式会社ズカワエステート,,株式会社,神奈川県,横浜市港北区,高田東２丁目２７番１１号,,14,109,2230065,,,,,,,2023-07-21,1,,,,,ズカワエステート,0
89,1020001152597,新規,0,2023-07-21,2023-07-21,株式会社ネクサス,,株式会社,神奈川県,横浜市中区,花咲町２丁目７２番地シーガル１階,,14,104,2310063,,,,,,,2023-07-21,1,,,,,ネクサス,0
90,1020001152614,新規,0,2023-07-21,2023-07-21,株式会社プロダクションＹＡ,,株式会社,神奈川県,横浜市南区,中島町２丁目４５番地２,,14,105,2320055,,,,,,,2023-07-21,1,,,,,プロダクションワイエー,0
92,1020003024241,新規,0,2023-07-21,2023-07-21,合同会社Ｓｐｅｃｔｒａｌ,,合同会社,神奈川県,横浜市都筑区,池辺町４４６１－３Ｄ’クラディア横浜ミレトリア３０３,,14,118,2240053,,,,,,,2023-07-21,1,,,,,スペクトラル,0
101,1030001154923,新規,0,2023-07-21,2023-07-21,ＡｉｄＢｒｉｄｇｅ株式会社,,株式会社,埼玉県,上尾市,五番町１５番地８Ｃａｌｏｒｅ五番町１０２,,11,219,3620024,,,,,,,2023-07-21,1,,,,,エイドブリッジ,0
102,1030001154948,新規,0,2023-07-21,2023-07-21,株式会社小江戸塗装,,株式会社,埼玉県,川越市,川鶴３丁目２１番地１８,,11,201,3501176,,,,,,,2023-07-21,1,,,,,コエドトソウ,0
103,1030001155021,新規,0,2023-07-21,2023-07-21,株式会社Ｓｔｒａｗｂｅｒｒｙ,,株式会社,埼玉県,川口市,大字安行領家１２２４番地の１,,11,203,3340058,,,,,,,2023-07-21,1,,,,,ストロベリー,0
106,1030003022161,新規,0,2023-07-21,2023-07-21,合同会社エムズクルー,,合同会社,埼玉県,さいたま市中央区,大戸３丁目５番１－３０２号,,11,105,3380012,,,,,,,2023-07-21,1,,,,,エムズクルー,0
108,1030005021327,新規,0,2023-07-21,2023-07-21,一般社団法人ねこの家,,その他の設立登記法人,埼玉県,加須市,大門町１８番３４号,,11,210,3470068,,,,,,,2023-07-21,1,,,,,ネコノイエ,0
113,1040003022986,新規,0,2023-07-21,2023-07-21,クロノスブレイン合同会社,,合同会社,千葉県,大網白里市,みどりが丘１丁目２番地５－２－２０４,,12,239,2993255,,,,,,,2023-07-21,1,,,,,クロノスブレイン,0
117,1060001036177,新規,0,2023-07-21,2023-07-21,司エンジニアサービス株式会社,,株式会社,栃木県,宇都宮市,北若松原１丁目１１番３号,,09,201,3210153,,,,,,,2023-07-21,1,,,,,ツカサエンジニアサービス,0
122,1090001018222,新規,0,2023-07-21,2023-07-21,出合株式会社,,株式会社,山梨県,甲府市,相生１丁目１３番３号,,19,201,4000858,,,,,,,2023-07-21,1,,,,,デアイ,0
123,1090003002348,新規,0,2023-07-21,2023-07-21,合同会社ティ・エイチ・エヌ,,合同会社,山梨県,甲斐市,富竹新田８１３番地２,,19,210,4000113,,,,,,,2023-07-21,1,,,,,ティエイチエヌ,0
130,1110001037707,新規,0,2023-07-21,2023-07-21,株式会社綾Ｋｏｉファーム,,株式会社,新潟県,長岡市,横枕町２４５番地１,,15,202,9401117,,,,,,,2023-07-21,1,,,,,アヤコイファーム,0
138,1120001256520,新規,0,2023-07-21,2023-07-21,エナジング株式会社,,株式会社,大阪府,大阪市西区,京町堀１丁目１０番１２号大石ビル３Ｆ,,27,106,5500003,,,,,,,2023-07-21,1,,,,,エナジング,0
139,1120001256628,新規,0,2023-07-21,2023-07-21,株式会社橋本住宅設備,,株式会社,大阪府,大阪市鶴見区,今津南４丁目５番２８号,,27,124,5380043,,,,,,,2023-07-21,1,,,,,ハシモトジュウタクセツビ,0
140,1120001256644,新規,0,2023-07-21,2023-07-21,株式会社Ｏｆｆｉｃｅ　ｗｉｔｈ　Ｕ,,株式会社,大阪府,大阪市中央区,上町１丁目１６－２７－１２０４,,27,128,5400005,,,,,,,2023-07-21,1,,,,,オフィスウィズユー,0
142,1120003024553,新規,0,2023-07-21,2023-07-21,合同会社ＧＯＯＤ　ＤＡＹ,,合同会社,大阪府,大阪市淀川区,西三国４丁目１番３１‐４０３,,27,123,5320006,,,,,,,2023-07-21,1,,,,,グッドデイ,0
144,1120005023719,新規,0,2023-07-21,2023-07-21,南海プライベートリート投資法人,,その他の設立登記法人,大阪府,大阪市中央区,難波４丁目４番１号,,27,128,5420076,,,,,,,2023-07-21,1,,,,,ナンカイプラベートリート,0
149,1120901047812,新規,0,2023-07-21,2023-07-21,株式会社ラッキーアイランド,,株式会社,大阪府,摂津市,別府１丁目２２番２号,,27,224,5660046,,,,,,,2023-07-21,1,,,,,ラッキーアイランド,0
151,1120905006500,新規,0,2023-07-21,2023-07-21,医療法人かわぐちクリニック,,その他の設立登記法人,大阪府,吹田市,南金田２丁目７番１４号ストーク江坂ビル１階１０１号室,,27,205,5640044,,,,,,,2023-07-21,1,,,,,カワグチクリニック,0
160,1130003008860,新規,0,2023-07-21,2023-07-21,合同会社ＡＤＤＲＥＳＳ,,合同会社,京都府,京都市右京区,梅ケ畑向ノ地町７－１,,26,108,6168262,,,,,,,2023-07-21,1,,,,,アドレス,0
171,1140005026694,新規,0,2023-07-21,2023-07-21,特定非営利活動法人チームそれいゆマンション管理支援機構,,その他の設立登記法人,兵庫県,宝塚市,すみれガ丘１丁目７番１－４０２号,,28,214,6650847,,,,,,,2023-07-21,1,,,,,チームソレイユマンションカンリシエンキコウ,0
184,1180003025513,新規,0,2023-07-21,2023-07-21,ＩＫｇ合同会社,,合同会社,愛知県,稲沢市,下津北山１丁目２番地ミッドレジデンス稲沢９２１,,23,220,4928094,,,,,,,2023-07-21,1,,,,,アイケイジ,0
188,1190001030596,新規,0,2023-07-21,2023-07-21,株式会社Ｙ＆Ｙ,,株式会社,三重県,鳥羽市,浦村町１５５５番地,,24,211,5170025,,,,,,,2023-07-21,1,,,,,ワイアンドワイ,0
205,1320001019898,新規,0,2023-07-21,2023-07-21,株式会社オカダ牧場,,株式会社,大分県,宇佐市,大字下矢部字尾迫４８８番８,,44,211,8720111,,,,,,,2023-07-21,1,,,,,オカダボクジョウ,0
206,1320003004130,新規,0,2023-07-21,2023-07-21,ＫＯＲＳＨ合同会社,,合同会社,大分県,別府市,馬場５組－１別府表具センター２Ｆ,,44,202,8740847,,,,,,,2023-07-21,1,,,,,コーシュ,0
216,1340001025738,新規,0,2023-07-21,2023-07-21,株式会社スピリットユイ,,株式会社,鹿児島県,奄美市,笠利町節田２２８番地,,46,222,8940000,,,,,,,2023-07-21,1,,,,,スピリットユイ,0
220,1360001032311,新規,0,2023-07-21,2023-07-21,株式会社ＰＬＵＳ,,株式会社,沖縄県,浦添市,宮城２丁目６－３、２－Ｃ,,47,208,9012126,,,,,,,2023-07-21,1,,,,,プラス,0
221,1360003013144,新規,0,2023-07-21,2023-07-21,合同会社くくるファースト,,合同会社,沖縄県,うるま市,石川東恩納７１７番地の３,,47,213,9041111,,,,,,,2023-07-21,1,,,,,ククルファースト,0
224,1370001050205,新規,0,2023-07-21,2023-07-21,株式会社一心,,株式会社,宮城県,仙台市青葉区,錦ケ丘５丁目１１番地の３,,04,101,9893123,,,,,,,2023-07-21,1,,,,,イッシン,0
229,1380001033852,新規,0,2023-07-21,2023-07-21,株式会社ＮＩＮＡ,,株式会社,福島県,郡山市,富久山町福原字西原７０番地－２階,,07,203,9638061,,,,,,,2023-07-21,1,,,,,ニイナ,0
230,1380001033860,新規,0,2023-07-21,2023-07-21,株式会社Ｗ‐ＱＵＡＬＩＴＹ,,株式会社,福島県,安達郡大玉村,玉井字庚申２９４番地１,,07,322,9691302,,,,,,,2023-07-21,1,,,,,ダブルクオリティ,0
246,1430001089501,新規,0,2023-07-21,2023-07-21,北海道ＴＡＸＩトラベル株式会社,,株式会社,北海道,小樽市,幸２丁目１１番３７号,,01,203,0470037,,,,,,,2023-07-21,1,,,,,ホッカイドウタクシートラベル,0
247,1430001089542,新規,0,2023-07-21,2023-07-21,株式会社ｏｆｆｉｃｅ　Ｄｏｍａｎｉ,,株式会社,北海道,苫小牧市,柳町４丁目１８番２号,,01,213,0530053,,,,,,,2023-07-21,1,,,,,オフィスドマーニ,0
259,1500001025077,新規,0,2023-07-21,2023-07-21,株式会社ＡＳＷＯＳ,,株式会社,愛媛県,東温市,松瀬川乙１０２２番地１５,,38,215,7910314,,,,,,,2023-07-21,1,,,,,アソオス,0
262,1700150102128,新規,0,2023-07-21,2021-02-26,葛川まちづくり協議会,,その他,滋賀県,大津市,葛川坊村町２３７－３７,,25,201,5200475,,,,,,,2021-02-26,1,,,,,カツラガワマチヅクリキヨウギカイ,0
264,2010001237019,新規,0,2023-07-21,2023-07-21,豊盛商事株式会社,,株式会社,東京都,千代田区,神田三崎町２丁目１０番１１号Ｐｅｇビル３Ａ－１,,13,101,1010061,,,,,,,2023-07-21,1,,,,,トヨモリショウジ,0
265,2010001237051,新規,0,2023-07-21,2023-07-21,株式会社浅科ヨダ,,株式会社,東京都,千代田区,麹町４丁目５番地,,13,101,1020083,,,,,,,2023-07-21,1,,,,,アサシナヨダ,0
266,2010001237068,新規,0,2023-07-21,2023-07-21,マックスサイエンティフィックジャパン株式会社,,株式会社,東京都,千代田区,丸の内１丁目８番２号鉄鋼ビルディング４階,,13,101,1000005,,,,,,,2023-07-21,1,,,,,マックスサイエンティフィックジャパン,0
271,2010401175768,新規,0,2023-07-21,2023-07-21,株式会社Ｒ．Ｈ．,,株式会社,東京都,港区,赤坂２丁目８番２号エクレシアヒルズ溜池山王３階Ｂ,,13,103,1070052,,,,,,,2023-07-21,1,,,,,アールエイチ,0
286,2010901053473,新規,0,2023-07-21,2023-07-21,株式会社ｆｕｒｆｒｅ,,株式会社,東京都,世田谷区,新町１丁目１８番１８号,,13,112,1540014,,,,,,,2023-07-21,1,,,,,ファフレ,0
291,2011001155771,新規,0,2023-07-21,2023-07-21,株式会社ＬＵＫＥ　Ｐｒｏｊｅｃｔｓ,,株式会社,東京都,渋谷区,道玄坂１丁目１０番８号渋谷道玄坂東急ビル２Ｆ－Ｃ,,13,113,1500043,,,,,,,2023-07-21,1,,,,,,0
293,2011003017219,新規,0,2023-07-21,2023-07-21,合同会社ＴＥＡＭ‐ＨＴ,,合同会社,東京都,渋谷区,道玄坂１丁目１０番８号渋谷道玄坂東急ビル２Ｆ－Ｃ,,13,113,1500043,,,,,,,2023-07-21,1,,,,,チームエイチティー,0
301,2011305002918,新規,0,2023-07-21,2023-07-21,一般社団法人空手道拳成塾,,その他の設立登記法人,東京都,杉並区,下井草１丁目３２番２号,,13,115,1670022,,,,,,,2023-07-21,1,,,,,,0
309,2012401040761,新規,0,2023-07-21,2023-07-21,株式会社アスエックス,,株式会社,東京都,府中市,緑町１丁目１６番地の１,,13,206,1830006,,,,,,,2023-07-21,1,,,,,アスエックス,0
310,2012403006075,新規,0,2023-07-21,2023-07-21,ＧＳＹ合同会社,,合同会社,東京都,府中市,緑町３丁目３番地の１ヴェールメゾン府中８０２号室,,13,206,1830006,,,,,,,2023-07-21,1,,,,,ジーエスワイ,0
313,2012803003135,新規,0,2023-07-21,2023-07-21,合同会社萬刀流,,合同会社,東京都,国分寺市,西町５丁目２９番地２,,13,214,1850035,,,,,,,2023-07-21,1,,,,,オールイン,0
320,2020001152638,新規,0,2023-07-21,2023-07-21,はまみらいコンサル株式会社,,株式会社,神奈川県,横浜市中区,元町５丁目１９０番地ＫＩＫＩビル３Ｆ,,14,104,2310861,,,,,,,2023-07-21,1,,,,,ハマミライコンサル,0
323,2020003024240,新規,0,2023-07-21,2023-07-21,合同会社沖縄企画ユンタクヤ,,合同会社,神奈川県,横浜市鶴見区,北寺尾７丁目４番２２号,,14,101,2300074,,,,,,,2023-07-21,1,,,,,オキナワキカクユンタクヤ,0
328,2021001079607,新規,0,2023-07-21,2023-07-21,株式会社リエゾン,,株式会社,神奈川県,相模原市南区,上鶴間本町９丁目４６番２号,,14,153,2520318,,,,,,,2023-07-21,1,,,,,リエゾン,0
336,2030001154856,新規,0,2023-07-21,2023-07-21,株式会社ｗａｋｕ‐ｗａｋｕ‐ｔｅｃｈ,,株式会社,埼玉県,川口市,栄町１丁目８番６号アネックスマンション３０２号,,11,203,3320017,,,,,,,2023-07-21,1,,,,,ワクワクテック,0
337,2030001154906,新規,0,2023-07-21,2023-07-21,株式会社ｋ＆ｙ,,株式会社,埼玉県,草加市,氷川町１１２７番地３,,11,221,3400034,,,,,,,2023-07-21,1,,,,,ケーアンドワイ,0
338,2030001155004,新規,0,2023-07-21,2023-07-21,株式会社５０８ＦＡＣＴＯＲＹ,,株式会社,埼玉県,白岡市,実ケ谷５３９番地２,,11,246,3490216,,,,,,,2023-07-21,1,,,,,ゴーマルハチファクトリー,0
339,2030003022144,新規,0,2023-07-21,2023-07-21,合同会社ＡｄｖａｎｃｅＤｒｅａｍ,,合同会社,埼玉県,草加市,西町２１９番地３０,,11,221,3400035,,,,,,,2023-07-21,1,,,,,アドバンスドリーム,0
340,2030003022202,新規,0,2023-07-21,2023-07-21,合同会社ふきのとう,,合同会社,埼玉県,所沢市,並木２丁目３番地１－６１０,,11,208,3590042,,,,,,,2023-07-21,1,,,,,フキノトウ,0
347,2040003022985,新規,0,2023-07-21,2023-07-21,合同会社ゴルモバ・ホールディングス,,合同会社,千葉県,木更津市,畑沢１丁目７番３号,,12,206,2920825,,,,,,,2023-07-21,1,,,,,ゴルモバホールディングス,0
350,2050003007647,新規,0,2023-07-21,2023-07-21,１３合同会社,,合同会社,茨城県,水戸市,城東１丁目４－４２,,08,201,3100012,,,,,,,2023-07-21,1,,,,,サーティーン,0
358,2070003005038,新規,0,2023-07-21,2023-07-21,合同会社ＹＴアイス,,合同会社,群馬県,高崎市,江木町１４７５センチュリーハイツＴＯＭＯ１０５,,10,202,3700046,,,,,,,2023-07-21,1,,,,,ワイティーアイス,0
364,2080103002850,新規,0,2023-07-21,2023-07-21,合同会社Ｇｌｏｂａｌ　Ｆｉｎａｎｃｉａｌ　Ａ,,合同会社,静岡県,富士市,大淵７６７番地の７,,22,210,4170801,,,,,,,2023-07-21,1,,,,,グローバルフィナンシャルエー,0
365,2080403004836,新規,0,2023-07-21,2023-07-21,合同会社Ａ‐ｌｉｎｅ,,合同会社,静岡県,掛川市,家代の里１丁目２１番地の２０,,22,213,4360227,,,,,,,2023-07-21,1,,,,,エーライン,0
367,2090001018221,新規,0,2023-07-21,2023-07-21,株式会社モアビー,,株式会社,山梨県,甲府市,大里町２２０２番地２－１０６号,,19,201,4000053,,,,,,,2023-07-21,1,,,,,モアビー,0
373,2110003005124,新規,0,2023-07-21,2023-07-21,予幸医学研究所合同会社,,合同会社,新潟県,新潟市江南区,大渕１５４４番地１５,,15,104,9500105,,,,,,,2023-07-21,1,,,,,ヨコウイガクケンキュウショ,0
378,2120001256445,新規,0,2023-07-21,2023-07-21,ＣＫ．ＣＬＡＵＤＩＯ　ＫＩＭ株式会社,,株式会社,大阪府,大阪市港区,市岡元町１丁目６－１１フレンドリー一番館４０５号室,,27,107,5520002,,,,,,,2023-07-21,1,,,,,シーケークラウディオキム,0
379,2120001256610,新規,0,2023-07-21,2023-07-21,小西株式会社,,株式会社,大阪府,大阪市都島区,中野町１丁目７番７号,,27,102,5340027,,,,,,,2023-07-21,1,,,,,コニシ,0
380,2120001256619,新規,0,2023-07-21,2023-07-21,ライノックス株式会社,,株式会社,大阪府,交野市,私市５丁目８番２号,,27,230,5760033,,,,,,,2023-07-21,1,,,,,ライノックス,0
381,2120001256643,新規,0,2023-07-21,2023-07-21,株式会社ＢＯＲＵＡ,,株式会社,大阪府,大阪市平野区,瓜破西３丁目２番４０号ウリワリマンション１階１２号室,,27,126,5470025,,,,,,,2023-07-21,1,,,,,ボルア,0
385,2120003024544,新規,0,2023-07-21,2023-07-21,合同会社筋肉女子,,合同会社,大阪府,大阪市中央区,島之内２丁目６番６号アロンディール島之内９０３,,27,128,5420082,,,,,,,2023-07-21,1,,,,,キンニクジョシ,0
386,2120003024560,新規,0,2023-07-21,2023-07-21,邑アセットマネジメント合同会社,,合同会社,大阪府,大阪市西区,南堀江４丁目２３番３２‐７０４号,,27,106,5500015,,,,,,,2023-07-21,1,,,,,ムラアセットマネジメント,0
388,2120005023767,新規,0,2023-07-21,2023-07-21,医療法人ＭＹ　ＰＬＡＣＥ,,その他の設立登記法人,大阪府,大阪市中央区,東心斎橋１丁目１８番２４号Ｘ－ＣＩＴＹ・ＳＨＩＮＳＡＩＢＡＳＨＩビル１階,,27,128,5420083,,,,,,,2023-07-21,1,,,,,マイプレイス,0
391,2120101067924,新規,0,2023-07-21,2023-07-21,株式会社六奏建設,,株式会社,大阪府,富田林市,梅の里３丁目２番１９号,,27,214,5840001,,,,,,,2023-07-21,1,,,,,ムソウケンセツ,0
395,2120901047811,新規,0,2023-07-21,2023-07-21,株式会社ｂｌａｎｃ,,株式会社,大阪府,吹田市,江坂町１丁目２３番１９号米澤第五江坂７０２号室,,27,205,5640063,,,,,,,2023-07-21,1,,,,,ブラン,0
397,2120905006490,新規,0,2023-07-21,2023-07-21,医療法人みのりこころのクリニック,,その他の設立登記法人,大阪府,茨木市,双葉町９番２０号コスモアネックス５Ｆ,,27,211,5670829,,,,,,,2023-07-21,1,,,,,ミノリココロノクリニック,0
399,2122001037180,新規,0,2023-07-21,2023-07-21,杉本工芸株式会社,,株式会社,大阪府,東大阪市,三島３丁目３－７,,27,227,5780966,,,,,,,2023-07-21,1,,,,,スギモトコウゲイ,0
400,2122003002629,新規,0,2023-07-21,2023-07-21,合同会社ひかり,,合同会社,大阪府,八尾市,老原１丁目１４５－２ファミール１０－１０２号室,,27,212,5810092,,,,,,,2023-07-21,1,,,,,ヒカリ,0
412,2140003019336,新規,0,2023-07-21,2023-07-21,ＮＡＳＨ合同会社,,合同会社,兵庫県,芦屋市,山芦屋町３０番７－１号,00131246,28,206,6590082,,,,,,,2023-07-21,1,,,,,ナッシュ,0
419,2160001025202,新規,0,2023-07-21,2023-07-21,株式会社岡一組,,株式会社,滋賀県,湖南市,石部南１丁目１番５８－１０１号,,25,211,5203108,,,,,,,2023-07-21,1,,,,,オカイチグミ,0
422,2170003001902,新規,0,2023-07-21,2023-07-21,合同会社公和,,合同会社,和歌山県,和歌山市,野崎１３３番地６,,30,201,6408402,,,,,,,2023-07-21,1,,,,,コウワ,0
427,2180001157209,新規,0,2023-07-21,2023-07-21,株式会社コンスレンテ,,株式会社,愛知県,名古屋市千種区,山添町１丁目６８番地１,,23,101,4640832,,,,,,,2023-07-21,1,,,,,コンスレンテ,0
428,2180001157233,新規,0,2023-07-21,2023-07-21,株式会社Ｓｍｉｌｅ　Ａｔｔｒａｃｔ,,株式会社,愛知県,北名古屋市,熊之庄十二社１３４番地１ファミールＩＩ１０１号,00131240,23,234,4810006,,,,,,,2023-07-21,1,,,,,スマイルアトラクト,0
435,2180301037589,新規,0,2023-07-21,2023-07-21,株式会社中神保険事務所,,株式会社,愛知県,豊川市,御津町西方中屋敷３５番地,,23,207,4410312,,,,,,,2023-07-21,1,,,,,ナカガミホケンジムショ,0
440,2190001030595,新規,0,2023-07-21,2023-07-21,エコサービスいせ株式会社,,株式会社,三重県,津市,雲出鋼管町１番地,,24,201,5140301,,,,,,,2023-07-21,1,,,,,エコサービスイセ,0
452,2220003003554,新規,0,2023-07-21,2023-07-21,ほんだエステート合同会社,,合同会社,石川県,金沢市,上近江町５０番地,,17,201,9200905,,,,,,,2023-07-21,1,,,,,ホンダエステート,0
467,2290001102302,新規,0,2023-07-21,2023-07-21,株式会社ＤＥＥＰ　ＭＥＤＩＣＡＬ,,株式会社,福岡県,那珂川市,松木６丁目１３番２０号,,40,231,8111251,,,,,,,2023-07-21,1,,,,,ディープメディカル,0
468,2290001102368,新規,0,2023-07-21,2023-07-21,株式会社ｍｉ．ｎａ．ｍｉ,,株式会社,福岡県,福岡市東区,名島４丁目１６番１９号,,40,131,8130043,,,,,,,2023-07-21,1,,,,,ミナミ,0
471,2300005007149,新規,0,2023-07-21,2023-07-21,一般社団法人ＣＯＣＯＳＡ,,その他の設立登記法人,佐賀県,小城市,三日月町久米１９６１番地４,,41,208,8450022,,,,,,,2023-07-21,1,,,,,ココサ,0
473,2310001018520,新規,0,2023-07-21,2023-07-21,株式会社長崎中部学校給食サービス,,株式会社,長崎県,長崎市,岡町９番１号,,42,201,8528115,,,,,,,2023-07-21,1,,,,,ナガサキチュウブガッコウキュウショクサービス,0
490,2360001032285,新規,0,2023-07-21,2023-07-21,株式会社ＴＡＧラボ,,株式会社,沖縄県,那覇市,久茂地１丁目１番１号９階,,47,201,9000015,,,,,,,2023-07-21,1,,,,,タッグラボ,0
491,2360001032302,新規,0,2023-07-21,2023-07-21,株式会社イノサス,,株式会社,沖縄県,名護市,字伊差川３３０－５,,47,209,9051152,,,,,,,2023-07-21,1,,,,,イノサス,0
492,2360001032327,新規,0,2023-07-21,2023-07-21,株式会社Ｂｌｕｅｘ,,株式会社,沖縄県,宮古島市,下地字川満７９１番地の６,,47,214,9060301,,,,,,,2023-07-21,1,,,,,ブルークス,0
493,2360003013143,新規,0,2023-07-21,2023-07-21,ヌーベル合同会社,,合同会社,沖縄県,島尻郡与那原町,字東浜７８番地の６６イーストスクエア１０５,,47,348,9011304,,,,,,,2023-07-21,1,,,,,ヌーベル,0
496,2370001050204,新規,0,2023-07-21,2023-07-21,株式会社ＭＩＲＡＩ　ＡＳＳＩＳＴ,,株式会社,宮城県,仙台市若林区,沖野３丁目１１番２３号氷上壱番館２０２,,04,103,9840831,,,,,,,2023-07-21,1,,,,,ミライアシスト,0
510,2420003002750,新規,0,2023-07-21,2023-07-21,合同会社ＧＩＢＥＯＮＳＴＩＣＫＥＲ,,合同会社,青森県,十和田市,大字三本木字稲吉１４９番地３４,,02,206,0340001,,,,,,,2023-07-21,1,,,,,ギベオンステッカー,0
512,2430001089483,新規,0,2023-07-21,2023-07-21,株式会社Ｊ．Ｏ．Ｅ,,株式会社,北海道,札幌市厚別区,厚別町山本１０６３番地１１３２,,01,108,0040069,,,,,,,2023-07-21,1,,,,,ジェイオーイー,0
513,2430001089500,新規,0,2023-07-21,2023-07-21,株式会社ワンストップ,,株式会社,北海道,札幌市白石区,川北一条３丁目６番１５号,,01,104,0030851,,,,,,,2023-07-21,1,,,,,ワンストップ,0
514,2430001089509,新規,0,2023-07-21,2023-07-21,株式会社ミライエ,,株式会社,北海道,札幌市中央区,南二条西２７丁目１番２０－１０３,,01,101,0640802,,,,,,,2023-07-21,1,,,,,ミライエ,0
515,2430001089525,新規,0,2023-07-21,2023-07-21,株式会社ミニマルエコライフＭＥＬ,,株式会社,北海道,札幌市北区,北二十七条西４丁目２番２０号２階,,01,102,0010027,,,,,,,2023-07-21,1,,,,,ミニマルエコライフメル,0
516,2430001089590,新規,0,2023-07-21,2023-07-21,株式会社ねこのて,,株式会社,北海道,札幌市東区,東苗穂十四条３丁目２４番８号,,01,103,0070814,,,,,,,2023-07-21,1,,,,,ネコノテ,0
522,2430003015248,新規,0,2023-07-21,2023-07-21,合同会社ペンキやさん,,合同会社,北海道,札幌市北区,新川西二条７丁目４番１号,,01,102,0010932,,,,,,,2023-07-21,1,,,,,ペンキヤサン,0
531,3010001236977,新規,0,2023-07-21,2023-07-21,株式会社ＦＭプロパティ,,株式会社,東京都,中央区,新川２丁目２０番７号,,13,102,1040033,,,,,,,2023-07-21,1,,,,,エフエムプロパティ,0
532,3010001237059,新規,0,2023-07-21,2023-07-21,株式会社ＫＩＲＡ　ＫＩＲＡ　ＪＡＰＡＮ,,株式会社,東京都,中央区,銀座７丁目８番８号ｉｓｇＢＵＩＬＤＩＮＧ,,13,102,1040061,,,,,,,2023-07-21,1,,,,,キラキラジャパン,0
533,3010001237083,新規,0,2023-07-21,2023-07-21,ＳＣＫ株式会社,,株式会社,東京都,文京区,小石川５丁目２９番９号坂上ビル,,13,105,1120002,,,,,,,2023-07-21,1,,,,,エスシーケイ,0
534,3010001237109,新規,0,2023-07-21,2023-07-21,愛和堂ジャパン株式会社,,株式会社,東京都,千代田区,丸の内１丁目６番２号新丸の内センタービルディング２１階,,13,101,1000005,,,,,,,2023-07-21,1,,,,,アイワドウジャパン,0
535,3010001237125,新規,0,2023-07-21,2023-07-21,ＴＯＨＯ　Ｇｌｏｂａｌ株式会社,,株式会社,東京都,千代田区,有楽町１丁目２番２号,,13,101,1000006,,,,,,,2023-07-21,1,,,,,トウホウグローバル,0
537,3010003041137,新規,0,2023-07-21,2023-07-21,合同会社ＳＭＩＬＥ　ＬＡＢ．,,合同会社,東京都,千代田区,平河町２丁目５番５号,,13,101,1020093,,,,,,,2023-07-21,1,,,,,スマイルラボ,0
542,3010101015728,新規,0,2023-07-21,2023-07-21,株式会社ＡＴＴＩＲＯＪＵＮＥ,,株式会社,東京都,八王子市,旭町６番３号３階Ｂ２,,13,201,1920083,,,,,,,2023-07-21,1,,,,,アティロジューン,0
543,3010101015736,新規,0,2023-07-21,2023-07-21,株式会社ｆｉｃｏ,,株式会社,東京都,八王子市,三崎町６番１４号三崎町レインボービル２階,,13,201,1920084,,,,,,,2023-07-21,1,,,,,フィーコ,0
547,3010401175783,新規,0,2023-07-21,2023-07-21,株式会社ディーエスアドバイザリー,,株式会社,東京都,港区,芝５丁目３２番１２号シャーメゾンステージ田町３階,,13,103,1080014,,,,,,,2023-07-21,1,,,,,ディーエスアドバイザリー,0
550,3010601063466,新規,0,2023-07-21,2023-07-21,ワークアンドテクノロジー株式会社,,株式会社,東京都,墨田区,江東橋４丁目２７－１４,,13,107,1300022,,,,,,,2023-07-21,1,,,,,ワークアンドテクノロジー,0
578,3011101103670,新規,0,2023-07-21,2023-07-21,ｄｒｉｖｅ　ｆｏｒｃｅ株式会社,,株式会社,東京都,新宿区,西新宿３丁目３－１３西新宿水間ビル６階,,13,104,1600023,,,,,,,2023-07-21,1,,,,,ドライブフォース,0
579,3011101103679,新規,0,2023-07-21,2023-07-21,ＣＬコンサルティング株式会社,,株式会社,東京都,新宿区,四谷４丁目１２番地,,13,104,1600004,,,,,,,2023-07-21,1,,,,,シーエルコンサルティング,0
580,3011101103687,新規,0,2023-07-21,2023-07-21,株式会社ＢＹＹ,,株式会社,東京都,新宿区,西落合４丁目５番１９号,,13,104,1610031,,,,,,,2023-07-21,1,,,,,ビーワイワイ,0
595,3011801042763,新規,0,2023-07-21,2023-07-21,株式会社ソア法定検査事務所,,株式会社,東京都,足立区,梅田４丁目６番１１号ＳＥＡＮＨＯＬＭＥＳＩＩ,00131238,13,121,1230851,,,,,,,2023-07-21,1,,,,,ソアホウテイケンサジムショ,0
599,3012401040752,新規,0,2023-07-21,2023-07-21,株式会社ｏｎ‐Ｄ,,株式会社,東京都,府中市,天神町２丁目１２番地の２８‐２０３,,13,206,1830053,,,,,,,2023-07-21,1,,,,,オンディ,0
603,3012403006082,新規,0,2023-07-21,2023-07-21,合同会社ＧＢＬ,,合同会社,東京都,多摩市,落合１丁目９番地６山の手ビル１０階,,13,224,2060033,,,,,,,2023-07-21,1,,,,,ジービーエル,0
621,3020003024256,新規,0,2023-07-21,2023-07-21,合同会社Ｏ,,合同会社,神奈川県,川崎市高津区,久本３丁目６番２－５０９号,,14,134,2130011,,,,,,,2023-07-21,1,,,,,オー,0
626,3021001079639,新規,0,2023-07-21,2023-07-21,株式会社クーノベットクリニック,,株式会社,神奈川県,茅ヶ崎市,本村１丁目１０番１７号,,14,207,2530042,,,,,,,2023-07-21,1,,,,,クーノベットクリニック,0
634,3030001154962,新規,0,2023-07-21,2023-07-21,株式会社ラーゴムクリエイト,,株式会社,埼玉県,戸田市,大字新曽９０８番,,11,224,3350021,,,,,,,2023-07-21,1,,,,,ラーゴムクリエイト,0
637,3030003022201,新規,0,2023-07-21,2023-07-21,合同会社オールウインズシェアスペース,,合同会社,埼玉県,さいたま市大宮区,桜木町２丁目３番地大宮マルイ７階,,11,103,3300854,,,,,,,2023-07-21,1,,,,,オールウインズシェアスペース,0
647,3050001053188,新規,0,2023-07-21,2023-07-21,ロケラーニ株式会社,,株式会社,茨城県,潮来市,須賀２８６６番地５,,08,223,3112448,,,,,,,2023-07-21,1,,,,,ロケラーニ,0
650,3050005013295,新規,0,2023-07-21,2023-07-21,一般社団法人ＰＯＮ　ＰＯＮ　ＰＯＮ,,その他の設立登記法人,茨城県,守谷市,立沢２８３番地４,,08,224,3020118,,,,,,,2023-07-21,1,,,,,ポンポンポン,0
651,3060001036175,新規,0,2023-07-21,2023-07-21,株式会社グッドネイチャーカンパニー,,株式会社,栃木県,栃木市,大宮町２１３６番地９,,09,203,3280011,,,,,,,2023-07-21,1,,,,,グッドネイチャーカンパニー,0
657,3070001040655,新規,0,2023-07-21,2023-07-21,株式会社エイトツリー,,株式会社,群馬県,前橋市,前箱田町１５番地１,,10,201,3710835,,,,,,,2023-07-21,1,,,,,エイトツリー,0
658,3070003005037,新規,0,2023-07-21,2023-07-21,合同会社ＦＯＣＵＳ,,合同会社,群馬県,高崎市,菅谷町１２４３番地４Ｉ－１０２号,00131236,10,202,3703522,,,,,,,2023-07-21,1,,,,,フォーカス,0
661,3080101024128,新規,0,2023-07-21,2023-07-21,株式会社ＮＡＱ,,株式会社,静岡県,富士市,島田町１丁目５０番地,,22,210,4170033,,,,,,,2023-07-21,1,,,,,ナック,0
675,3110003005123,新規,0,2023-07-21,2023-07-21,合同会社１２Ｂ,,合同会社,新潟県,新潟市江南区,所島２丁目３番３０号６,,15,104,9500135,,,,,,,2023-07-21,1,,,,,トゥエルブビー,0
687,3120003024519,新規,0,2023-07-21,2023-07-21,合同会社ｇ‐ｓｔｙｌｅ大阪,,合同会社,大阪府,大阪市北区,豊崎２丁目６番１５号,,27,127,5310072,,,,,,,2023-07-21,1,,,,,ジースタイルオオサカ,0
688,3120003024535,新規,0,2023-07-21,2023-07-21,ＶＩＰからつち２２２合同会社,,合同会社,大阪府,大阪市天王寺区,玉造元町１７番１５号５０１号室,,27,109,5430014,,,,,,,2023-07-21,1,,,,,ビップカラツチニーニーニー,0
696,3120901047802,新規,0,2023-07-21,2023-07-21,株式会社Ｌｉｆｅ　Ｂｅｎｅｓｓｅ,,株式会社,大阪府,吹田市,五月が丘南１２番８－２０２号,,27,205,5650832,,,,,,,2023-07-21,1,,,,,ライフベネッセ,0
699,3130001074762,新規,0,2023-07-21,2023-07-21,和洋株式会社,,株式会社,京都府,宇治市,志津川北組４４,,26,204,6110015,,,,,,,2023-07-21,1,,,,,ワヨウ,0
700,3130001074795,新規,0,2023-07-21,2023-07-21,輝成株式会社,,株式会社,京都府,京都市中京区,上松屋町７０１－１－１０２,,26,104,6040035,,,,,,,2023-07-21,1,,,,,キセイ,0
702,3130005016835,新規,0,2023-07-21,2023-07-21,弁理士法人ＮＳＩ国際特許事務所,,その他の設立登記法人,京都府,京都市東山区,泉涌寺門前町２６番地,,26,105,6050973,,,,,,,2023-07-21,1,,,,,エヌエスアイコクサイトッキョジムショ,0
705,3140001131001,新規,0,2023-07-21,2023-07-21,株式会社Ｉｎ　Ｍｏｔｉｏｎ,,株式会社,兵庫県,神戸市中央区,山本通２丁目１２番３－２０５号,,28,110,6500003,,,,,,,2023-07-21,1,,,,,インモーション,0
709,3140003019319,新規,0,2023-07-21,2023-07-21,合同会社社会福祉士事務所生活サポート,,合同会社,兵庫県,尼崎市,南塚口町７丁目２９番７１号,,28,202,6610012,,,,,,,2023-07-21,1,,,,,,0
710,3140003019327,新規,0,2023-07-21,2023-07-21,合同会社修明館,,合同会社,兵庫県,芦屋市,南浜町１４番１１号,,28,206,6590037,,,,,,,2023-07-21,1,,,,,シュウメイカン,0
711,3150001026563,新規,0,2023-07-21,2023-07-21,株式会社ＭＩＵ,,株式会社,奈良県,天理市,櫟本町７８５番地,,29,204,6320004,,,,,,,2023-07-21,1,,,,,ミウ,0
713,3160001025201,新規,0,2023-07-21,2023-07-21,株式会社豆の和,,株式会社,滋賀県,草津市,野路１丁目１６番１－１４０１号アメニティ南草津ＶＩＩＩ,00131239,25,206,5250059,,,,,,,2023-07-21,1,,,,,マメノワ,0
714,3160003002933,新規,0,2023-07-21,2023-07-21,合同会社オフィスムラタ,,合同会社,滋賀県,守山市,大門町３２６番地３,,25,207,5240052,,,,,,,2023-07-21,1,,,,,オフィスムラタ,0
724,3180301037588,新規,0,2023-07-21,2023-07-21,株式会社自分探しＬＡＢ,,株式会社,愛知県,新城市,川田字堀合１３番地８,,23,221,4411346,,,,,,,2023-07-21,1,,,,,ジブンサガシラボ,0
731,3200001041524,新規,0,2023-07-21,2023-07-21,株式会社ＴＰエステート,,株式会社,岐阜県,岐阜市,光明町３丁目３番地２木之本アイリス１０４号,,21,201,5008868,,,,,,,2023-07-21,1,,,,,ティピーエステート,0
745,3260005011253,新規,0,2023-07-21,2023-07-21,一般社団法人ＡＷＰＳ,,その他の設立登記法人,岡山県,岡山市北区,柳町１丁目４番８号,,33,101,7000904,,,,,,,2023-07-21,1,,,,,エーダブリュピーエス,0
746,3290001102367,新規,0,2023-07-21,2023-07-21,株式会社キーパートナーズ,,株式会社,福岡県,福岡市南区,玉川町１６番２３－１４０５号ＬＩＢＴＨ高宮,,40,134,8150037,,,,,,,2023-07-21,1,,,,,キーパートナーズ,0
747,3290003014148,新規,0,2023-07-21,2023-07-21,合同会社ビレッジアップ,,合同会社,福岡県,飯塚市,忠隈２９０番地１,,40,205,8200071,,,,,,,2023-07-21,1,,,,,ビレッジアップ,0
753,3320003004129,新規,0,2023-07-21,2023-07-21,合同会社４ｂｒｉｄｇｅ,,合同会社,大分県,大分市,国分新町９－２,,44,201,8700869,,,,,,,2023-07-21,1,,,,,フォーブリッジ,0
756,3330001031058,新規,0,2023-07-21,2023-07-21,株式会社ミスマル,,株式会社,熊本県,上益城郡嘉島町,大字鯰１７６５番地２,,43,442,8613101,,,,,,,2023-07-21,1,,,,,ミスマル,0
757,3330001031074,新規,0,2023-07-21,2023-07-21,株式会社ララハウス,,株式会社,熊本県,菊池郡菊陽町,新山３丁目３番６号,,43,404,8691109,,,,,,,2023-07-21,1,,,,,ララハウス,0
762,3350003004398,新規,0,2023-07-21,2023-07-21,合同会社ケーマイスター,,合同会社,宮崎県,都城市,都北町５９４６番地１,,45,202,8850004,,,,,,,2023-07-21,1,,,,,ケーマイスター,0
763,3360003013134,新規,0,2023-07-21,2023-07-21,フェムケア合同会社,,合同会社,沖縄県,沖縄市,久保田１丁目９番２１号ホワイトハウス２０１,,47,211,9040023,,,,,,,2023-07-21,1,,,,,フェムケア,0
764,3360003013142,新規,0,2023-07-21,2023-07-21,合同会社大里クリーン,,合同会社,沖縄県,南城市,大里字大城２６５５番地１,,47,215,9011203,,,,,,,2023-07-21,1,,,,,オオザトクリーン,0
771,3380001033859,新規,0,2023-07-21,2023-07-21,株式会社アドバンス,,株式会社,福島県,郡山市,中町１１番３号イーヲカ中町ビル３Ｆ,,07,203,9638004,,,,,,,2023-07-21,1,,,,,アドバンス,0
781,3460105002264,新規,0,2023-07-21,2023-07-21,一般社団法人リザストライティング協会,,その他の設立登記法人,北海道,河西郡更別村,字上更別南通２４番地５,,01,639,0891500,,,,,,,2023-07-21,1,,,,,リザストライティングキョウカイ,0
783,3480001012150,新規,0,2023-07-21,2023-07-21,株式会社ＭＩＲＵＶＯ,,株式会社,徳島県,板野郡北島町,鯛浜字西ノ須２６番地１１,,36,402,7710204,,,,,,,2023-07-21,1,,,,,ミルボ,0
784,3490001010533,新規,0,2023-07-21,2023-07-21,株式会社ＹＮＳ,,株式会社,高知県,四万十市,双海５５２番地,,39,210,7870153,,,,,,,2023-07-21,1,,,,,ワイエヌエス,0
785,3490001010541,新規,0,2023-07-21,2023-07-21,株式会社アドバンス測量,,株式会社,高知県,香南市,香我美町徳王子１７１７番地１,,39,211,7815332,,,,,,,2023-07-21,1,,,,,アドバンスソクリョウ,0
795,4010001237058,新規,0,2023-07-21,2023-07-21,株式会社マーケットインサイト,,株式会社,東京都,中央区,銀座１丁目２２番１１号銀座大竹ビジデンス２Ｆ,,13,102,1040061,,,,,,,2023-07-21,1,,,,,マーケットインサイト,0
796,4010001237082,新規,0,2023-07-21,2023-07-21,株式会社Ｏｃｈｉａｉ　Ｍｅｄｉｃａｌ,,株式会社,東京都,中央区,銀座７丁目８番８号ｉｓｇＢＵＩＬＤＩＮＧ,,13,102,1040061,,,,,,,2023-07-21,1,,,,,オチアイメディカル,0
797,4010001237108,新規,0,2023-07-21,2023-07-21,ＬＵＣＫＹ　ＡＲＲＯＷＳ株式会社,,株式会社,東京都,千代田区,神田佐久間町１丁目８番４号アルテール秋葉原７０８,,13,101,1010025,,,,,,,2023-07-21,1,,,,,ラッキーアローズ,0
799,4010005036992,新規,0,2023-07-21,2023-07-21,特定非営利活動法人文京ＢＡＳＥ,,その他の設立登記法人,東京都,文京区,小石川３丁目２８番１４号ワコーレ小石川１０１,,13,105,1120002,,,,,,,2023-07-21,1,,,,,ブンキョウベイス,0
802,4010101015727,新規,0,2023-07-21,2023-07-21,ＰＥＡＣＥ株式会社,,株式会社,東京都,八王子市,暁町２丁目１９番１号,,13,201,1920043,,,,,,,2023-07-21,1,,,,,ピース,0
803,4010101015735,新規,0,2023-07-21,2023-07-21,Ｖｅｓｔｔｏｏ　Ｊａｐａｎ株式会社,,株式会社,東京都,八王子市,元八王子町２丁目３３５４番地４,,13,201,1930826,,,,,,,2023-07-21,1,,,,,ベストゥジャパン,0
807,4010401175774,新規,0,2023-07-21,2023-07-21,株式会社クロフネ,,株式会社,東京都,港区,麻布十番２丁目１８番８号ＡＢＡアサミビル３階,,13,103,1060045,,,,,,,2023-07-21,1,,,,,クロフネ,0
808,4010403030523,新規,0,2023-07-21,2023-07-21,合同会社ＭＥＬ,,合同会社,東京都,港区,南青山４丁目１７番４０号王子グリーンヒルアパートメンツ２０２,,13,103,1070062,,,,,,,2023-07-21,1,,,,,メル,0
809,4010405022320,新規,0,2023-07-21,2023-07-21,弁護士法人標法律事務所,,その他の設立登記法人,東京都,港区,新橋４丁目７番４号ＳＴトミタ２階,,13,103,1050004,,,,,,,2023-07-21,1,,,,,シルベホウリツジムショ,0
816,4010601063465,新規,0,2023-07-21,2023-07-21,デリバリータイムズ株式会社,,株式会社,東京都,墨田区,江東橋４丁目２７－１４楽天地ビル３Ｆ,,13,107,1300022,,,,,,,2023-07-21,1,,,,,デリバリータイムズ,0
817,4010601063473,新規,0,2023-07-21,2023-07-21,株式会社ヒーローズファクトリー,,株式会社,東京都,墨田区,八広１丁目２２番７－６０１号,,13,107,1310041,,,,,,,2023-07-21,1,,,,,ヒーローズファクトリー,0
818,4010603010259,新規,0,2023-07-21,2023-07-21,恒隆昌合同会社,,合同会社,東京都,江東区,亀戸６丁目５６－９天龍ビル３０２号,,13,108,1360071,,,,,,,2023-07-21,1,,,,,コウリュウショウ,0
824,4010901053439,新規,0,2023-07-21,2023-07-21,株式会社リエート,,株式会社,東京都,世田谷区,瀬田１丁目２７番１３号,,13,112,1580095,,,,,,,2023-07-21,1,,,,,リエート,0
825,4010901053463,新規,0,2023-07-21,2023-07-21,株式会社Ｔｒｅ,,株式会社,東京都,世田谷区,東玉川１丁目４１番１６号の１,,13,112,1580084,,,,,,,2023-07-21,1,,,,,トレ,0
828,4010903008325,新規,0,2023-07-21,2023-07-21,合同会社イザベラ,,合同会社,東京都,世田谷区,鎌田１丁目３番２号玉川ハウス２０２,,13,112,1570077,,,,,,,2023-07-21,1,,,,,イザベラ,0
838,4011001155786,新規,0,2023-07-21,2023-07-21,株式会社ロウリュ,,株式会社,東京都,渋谷区,松濤１丁目４－９松濤サンエルサビル４０３,,13,113,1500046,,,,,,,2023-07-21,1,,,,,ロウリュ,0
839,4011001155811,新規,0,2023-07-21,2023-07-21,株式会社Ｂｒａｉｎ‐Ｂｒｉｄｇｅ,,株式会社,東京都,目黒区,下目黒３丁目１０番３４－１１２号,,13,110,1530064,,,,,,,2023-07-21,1,,,,,ブレインブリッジ,0
852,4011105010730,新規,0,2023-07-21,2023-07-21,一般社団法人日本クリエイティブプロフェッショナル協会,,その他の設立登記法人,東京都,新宿区,西新宿７丁目５番９－１５１４号,,13,104,1600023,,,,,,,2023-07-21,1,,,,,ニホンクリエイティブプロフェッショナルキョウカイ,0
853,4011201024790,新規,0,2023-07-21,2023-07-21,拓蒼株式会社,,株式会社,東京都,中野区,本町４丁目３７番２０号,,13,114,1640012,,,,,,,2023-07-21,1,,,,,タクソウ,0
855,4011401025300,新規,0,2023-07-21,2023-07-21,内田商事株式会社,,株式会社,東京都,板橋区,西台４丁目７番３号,,13,119,1750045,,,,,,,2023-07-21,1,,,,,ウチダショウジ,0
857,4011501029548,新規,0,2023-07-21,2023-07-21,盈通実業株式会社,,株式会社,東京都,荒川区,東日暮里３丁目３番３号,,13,118,1160014,,,,,,,2023-07-21,1,,,,,エイツウジツギョウ,0
862,4011703003540,新規,0,2023-07-21,2023-07-21,合同会社ドラゴンフライズエステート,,合同会社,東京都,江戸川区,東篠崎２丁目３－１－９１６,,13,123,1330063,,,,,,,2023-07-21,1,,,,,ドラゴンフライズエステート,0
865,4012403006073,新規,0,2023-07-21,2023-07-21,合同会社マルチヴィジョン,,合同会社,東京都,調布市,小島町１丁目３４－１エクレール調布１０３,,13,208,1820026,,,,,,,2023-07-21,1,,,,,マルチヴィジョン,0
873,4020001152594,新規,0,2023-07-21,2023-07-21,株式会社センチュリー,,株式会社,神奈川県,横浜市泉区,上飯田町３９２９番地１,,14,116,2450018,,,,,,,2023-07-21,1,,,,,センチュリー,0
879,4020003024247,新規,0,2023-07-21,2023-07-21,Ａｖａｎｔｒｕｓｔ合同会社,,合同会社,神奈川県,横浜市南区,永田東３丁目１１番１号ファミールガーデン横浜南１１０１,,14,105,2320072,,,,,,,2023-07-21,1,,,,,アヴァントラスト,0
889,4021001079654,新規,0,2023-07-21,2023-07-21,株式会社はれのひ,,株式会社,神奈川県,厚木市,岡田１丁目１３－３８,,14,212,2430021,,,,,,,2023-07-21,1,,,,,ハレノヒ,0
894,4030001154937,新規,0,2023-07-21,2023-07-21,株式会社翔智,,株式会社,埼玉県,川越市,岸町２丁目３５番地１,,11,201,3501131,,,,,,,2023-07-21,1,,,,,ショウチ,0
895,4030001154945,新規,0,2023-07-21,2023-07-21,ＭＭＹ絆Ｃｏｒｐｏｒａｔｉｏｎ株式会社,,株式会社,埼玉県,越谷市,東越谷９丁目３１４３番地２４,,11,222,3430023,,,,,,,2023-07-21,1,,,,,エムエムワイキズナコーポレーション,0
896,4030001154953,新規,0,2023-07-21,2023-07-21,株式会社Ｌ’Ａｖｅｎｉｒ,,株式会社,埼玉県,加須市,外川４５４番地７,,11,210,3470106,,,,,,,2023-07-21,1,,,,,ラブニール,0
899,4030003022126,新規,0,2023-07-21,2023-07-21,Ｓ＆Ｋ合同会社,,合同会社,埼玉県,比企郡嵐山町,むさし台２丁目１６番１８号,,11,342,3550216,,,,,,,2023-07-21,1,,,,,エスアンドケー,0
900,4030003022159,新規,0,2023-07-21,2023-07-21,合同会社ティーダ,,合同会社,埼玉県,上尾市,大字平塚２０１０番地２１,,11,219,3620011,,,,,,,2023-07-21,1,,,,,ティーダ,0
901,4030003022200,新規,0,2023-07-21,2023-07-21,合同会社ＩＧＵ　ＳＯＬＵＴＩＯＮ,,合同会社,埼玉県,川越市,大字寺尾９６ハイツカシハラ１０１,,11,201,3501141,,,,,,,2023-07-21,1,,,,,アイジーユーソリューション,0
902,4030005021316,新規,0,2023-07-21,2023-07-21,特定非営利活動法人まちカフェ,,その他の設立登記法人,埼玉県,東松山市,材木町１６番２４号,,11,212,3550016,,,,,,,2023-07-21,1,,,,,マチカフェ,0
905,4050001053187,新規,0,2023-07-21,2023-07-21,株式会社Ｔｈｏｕｓａｎｄ　ｍｉｌｅｓ,,株式会社,茨城県,かすみがうら市,下軽部１２３８番地１２,,08,230,3000204,,,,,,,2023-07-21,1,,,,,サウザンドマイルズ,0
914,4070001040654,新規,0,2023-07-21,2023-07-21,株式会社ドンリュー工業,,株式会社,群馬県,桐生市,浜松町２丁目４番２８号,,10,203,3760007,,,,,,,2023-07-21,1,,,,,ドンリューコウギョウ,0
926,4110001037712,新規,0,2023-07-21,2023-07-21,藍蒼株式会社,,株式会社,新潟県,新潟市西区,高山９１番地９,,15,107,9502122,,,,,,,2023-07-21,1,,,,,アイソウ,0
941,4120001256526,新規,0,2023-07-21,2023-07-21,グリーンメーカー株式会社,,株式会社,大阪府,大阪市此花区,梅香２丁目７－１松田ビル２０１号室,,27,104,5540013,,,,,,,2023-07-21,1,,,,,グリーンメーカー,0
942,4120001256609,新規,0,2023-07-21,2023-07-21,ラクコネク株式会社,,株式会社,大阪府,大阪市西成区,旭２丁目１番２８－４０２号,,27,122,5570032,,,,,,,2023-07-21,1,,,,,ラクコネク,0
943,4120001256633,新規,0,2023-07-21,2023-07-21,株式会社ＭＪマネジメント,,株式会社,大阪府,門真市,大字打越４９４番地の１,,27,223,5710028,,,,,,,2023-07-21,1,,,,,エムジェイマネジメント,0
944,4120001256641,新規,0,2023-07-21,2023-07-21,株式会社Ｎｅｗｅｌｌ,,株式会社,大阪府,大阪市西区,新町１丁目２２番２２－７０２号,,27,106,5500013,,,,,,,2023-07-21,1,,,,,ニューウェル,0
947,4120005023765,新規,0,2023-07-21,2023-07-21,医療法人なかよう会,,その他の設立登記法人,大阪府,大阪市鶴見区,今津中３丁目８番９号中河ビル１Ｆ,,27,124,5380042,,,,,,,2023-07-21,1,,,,,ナカヨウカイ,0
957,4122001037179,新規,0,2023-07-21,2023-07-21,株式会社ＡＳＵＫＡ,,株式会社,大阪府,東大阪市,東石切町４丁目１２番４７号,,27,227,5798011,,,,,,,2023-07-21,1,,,,,アスカ,0
964,4130003008866,新規,0,2023-07-21,2023-07-21,合同会社シックスアーム,,合同会社,京都府,亀岡市,下矢田町２丁目３３番１号１棟１０３号,,26,206,6210854,,,,,,,2023-07-21,1,,,,,シックスアーム,0
966,4130005016818,新規,0,2023-07-21,2023-07-21,一般社団法人子どものよりよい育ちを支える会,,その他の設立登記法人,京都府,京都市上京区,丸太町通智恵光院西入西院町７４７番地２８グラン・ブルー智恵光院通７０２号,,26,102,6028151,,,,,,,2023-07-21,1,,,,,コドモノヨリヨイソダチヲササエルカイ,0
968,4140001130919,新規,0,2023-07-21,2023-07-21,美人ぬか本舗株式会社,,株式会社,兵庫県,神戸市兵庫区,御所通１丁目３番１８号,,28,105,6520885,,,,,,,2023-07-21,1,,,,,ビジンヌカホンポ,0
977,4140005026691,新規,0,2023-07-21,2023-07-21,一般社団法人神戸スケート,,その他の設立登記法人,兵庫県,神戸市中央区,脇浜海岸通１丁目５番１号,,28,110,6510073,,,,,,,2023-07-21,1,,,,,コウベスケート,0
980,4150001026562,新規,0,2023-07-21,2023-07-21,株式会社彩葉,,株式会社,奈良県,香芝市,北今市３丁目１８２番地６号,,29,210,6390242,,,,,,,2023-07-21,1,,,,,イロハ,0
988,4180001157231,新規,0,2023-07-21,2023-07-21,ＡＩＱｕａｋｅ株式会社,,株式会社,愛知県,名古屋市千種区,末盛通３丁目２８番地の１桝屋ビル９Ａ,,23,101,4640821,,,,,,,2023-07-21,1,,,,,アイクウェイク,0
990,4180301037587,新規,0,2023-07-21,2023-07-21,株式会社大山会計ホールディングス,,株式会社,愛知県,豊田市,三軒町７丁目６４番地,,23,211,4710037,,,,,,,2023-07-21,1,,,,,オオヤマカイケイホールディングス,0
994,4190001030593,新規,0,2023-07-21,2023-07-21,ＢＳ　ＡＵＴＯ　ＪＡＰＡＮ株式会社,,株式会社,三重県,四日市市,東富田町１７番地３,,24,202,5108006,,,,,,,2023-07-21,1,,,,,ビーエスオートジャパン,0
1000,4240001061848,新規,0,2023-07-21,2023-07-21,株式会社ｈａｎｏｈａ,,株式会社,広島県,広島市中区,流川町３番１７号,,34,101,7300028,,,,,,,2023-07-21,1,,,,,ハノハ,0
1006,4260005011252,新規,0,2023-07-21,2023-07-21,一般社団法人あかつき,,その他の設立登記法人,岡山県,玉野市,胸上字東浜７２５番地,,33,204,7060305,,,,,,,2023-07-21,1,,,,,アカツキ,0
1011,4290001102358,新規,0,2023-07-21,2023-07-21,株式会社セッションアンドカンパニー,,株式会社,福岡県,福岡市西区,橋本１丁目５番２５号,,40,135,8190031,,,,,,,2023-07-21,1,,,,,セッションアンドカンパニー,0
1014,4290801029726,新規,0,2023-07-21,2023-07-21,株式会社花房メンテナンス,,株式会社,福岡県,北九州市小倉北区,下到津５丁目８番２４－１００５号,,40,106,8030846,,,,,,,2023-07-21,1,,,,,ハナブサメンテナンス,0
1020,4330001031032,新規,0,2023-07-21,2023-07-21,株式会社ディーケー,,株式会社,熊本県,熊本市南区,平成２丁目５番１１号,,43,104,8600833,,,,,,,2023-07-21,1,,,,,ディーケー,0
1021,4330001031065,新規,0,2023-07-21,2023-07-21,大工屋株式会社,,株式会社,熊本県,熊本市西区,池田２丁目６番２１―１号,,43,103,8600082,,,,,,,2023-07-21,1,,,,,ダイクヤ,0
1022,4330003009919,新規,0,2023-07-21,2023-07-21,合同会社ｉｍａｇｉｎｅ,,合同会社,熊本県,上益城郡甲佐町,大字早川１２６５番地９,,43,444,8613241,,,,,,,2023-07-21,1,,,,,イマジン,0
1023,4340001025743,新規,0,2023-07-21,2023-07-21,株式会社ＩＲＯＤＯＲＩ　ＨＯＭＥ,,株式会社,鹿児島県,鹿児島市,松原７－９サツカンビル１０２,,46,201,8900000,,,,,,,2023-07-21,1,,,,,イロドリホーム,0
1029,4360001032317,新規,0,2023-07-21,2023-07-21,株式会社ちゅらトレカ,,株式会社,沖縄県,名護市,字屋部３０５番地１,,47,209,9050007,,,,,,,2023-07-21,1,,,,,チュラトレカ,0
1038,4430001089507,新規,0,2023-07-21,2023-07-21,株式会社ｓｋｙファースト,,株式会社,北海道,岩見沢市,東町一条８丁目９３２番地４３,,01,210,0680013,,,,,,,2023-07-21,1,,,,,スカイファースト,0
1052,4700150031340,新規,0,2023-07-21,2015-10-09,甲西キリスト福音教会,,その他,滋賀県,湖南市,中央１丁目４４－１,,25,211,5203234,,,,,,,2015-10-09,1,,,,,コウセイキリストフクインキヨウカイ,0
1064,5010001237016,新規,0,2023-07-21,2023-07-21,株式会社Ｌｕｃｋｅｙ９,,株式会社,東京都,中央区,銀座３丁目４－１大倉別館５Ｆ,,13,102,1040061,,,,,,,2023-07-21,1,,,,,ラッキーナイン,0
1065,5010001237073,新規,0,2023-07-21,2023-07-21,株式会社ジーエイト,,株式会社,東京都,文京区,大塚５丁目６－１６,,13,105,1120012,,,,,,,2023-07-21,1,,,,,ジーエイト,0
1066,5010003041151,新規,0,2023-07-21,2023-07-21,合同会社ネクスト,,合同会社,東京都,中央区,日本橋兜町１７番１号,,13,102,1030026,,,,,,,2023-07-21,1,,,,,ネクスト,0
1069,5010101015726,新規,0,2023-07-21,2023-07-21,株式会社ＨＬＤ,,株式会社,東京都,八王子市,元横山町２丁目５番２号１Ｆ,,13,201,1920063,,,,,,,2023-07-21,1,,,,,エイチエルディー,0
1070,5010101015734,新規,0,2023-07-21,2023-07-21,株式会社藤田泰明建築設計事務所,,株式会社,東京都,八王子市,明神町３丁目２番５号,,13,201,1920046,,,,,,,2023-07-21,1,,,,,フジタヤスアキケンチクセッケイジムショ,0
1079,5010403030514,新規,0,2023-07-21,2023-07-21,合同会社ＭＧ,,合同会社,東京都,港区,南青山５丁目１１番２４号グレイセス２Ｆ,,13,103,1070062,,,,,,,2023-07-21,1,,,,,エムジー,0
1080,5010403030530,新規,0,2023-07-21,2023-07-21,合同会社ＮＲＥ‐５２インベストメント,,合同会社,東京都,港区,虎ノ門２丁目１０番４号オークラプレステージタワー,,13,103,1050001,,,,,,,2023-07-21,1,,,,,エヌアールイーゴジュウニインベストメント,0
1084,5010601063448,新規,0,2023-07-21,2023-07-21,株式会社Ｋ‐Ｓプロセス,,株式会社,東京都,江東区,平野３丁目２番１０号,,13,108,1350023,,,,,,,2023-07-21,1,,,,,ケーエスプロセス,0
1089,5010701044595,新規,0,2023-07-21,2023-07-21,株式会社Ｒｅｖ,,株式会社,東京都,品川区,南品川２丁目９番２５－３０５号,,13,109,1400004,,,,,,,2023-07-21,1,,,,,レヴ,0
1090,5010701044604,新規,0,2023-07-21,2023-07-21,株式会社Ｎｅｘｔ　ｒｅｎｏｖａｔｉｏｎ,,株式会社,東京都,品川区,西五反田４丁目３１－２３カスタリア目黒坂１０１１,,13,109,1410031,,,,,,,2023-07-21,1,,,,,ネクストリノベーション,0
1093,5010901053470,新規,0,2023-07-21,2023-07-21,株式会社ＰＲＩＺＭ,,株式会社,東京都,世田谷区,代田４丁目２８番１０号,,13,112,1550033,,,,,,,2023-07-21,1,,,,,プリズム,0
1095,5011001155819,新規,0,2023-07-21,2023-07-21,ＧＬＯＢＡＬ　ＪＡＰＡＮ　ＡＧＥＮＣＹ株式会社,,株式会社,東京都,渋谷区,桜丘町２９番３１－４０４号,,13,113,1500031,,,,,,,2023-07-21,1,,,,,グローバルジャパンエージェンシー,0
1108,5011301028872,新規,0,2023-07-21,2023-07-21,株式会社カジワラ書房,,株式会社,東京都,杉並区,上荻２丁目６番２２号,,13,115,1670043,,,,,,,2023-07-21,1,,,,,カジワラショボウ,0
1113,5011501029539,新規,0,2023-07-21,2023-07-21,グローバル人材育成株式会社,,株式会社,東京都,荒川区,西日暮里２丁目４６－４足立ビル１階,,13,118,1160013,,,,,,,2023-07-21,1,,,,,,0
1114,5011501029547,新規,0,2023-07-21,2023-07-21,東京ドリームナノテクノロジー株式会社,,株式会社,東京都,荒川区,東日暮里２丁目２番３号,,13,118,1160014,,,,,,,2023-07-21,1,,,,,トウキョウドリームナノテクノロジー,0
1119,5011601026997,新規,0,2023-07-21,2023-07-21,株式会社Ｌｅａｐｃｏｄｅ,,株式会社,東京都,練馬区,大泉町２丁目４６－２２,,13,120,1780062,,,,,,,2023-07-21,1,,,,,リープコード,0
1123,5011701026443,新規,0,2023-07-21,2023-07-21,株式会社Ｌ＆Ｚ,,株式会社,東京都,江戸川区,篠崎町７丁目１７番１８号,,13,123,1330061,,,,,,,2023-07-21,1,,,,,エルアンドゼット,0
1127,5011801042753,新規,0,2023-07-21,2023-07-21,Ｋ‐ｓｔｙｌｅ株式会社,,株式会社,東京都,足立区,綾瀬３丁目１３番１０号パールスカイビル２－４階,,13,121,1200005,,,,,,,2023-07-21,1,,,,,ケースタイル,0
1131,5012401040767,新規,0,2023-07-21,2023-07-21,ＢＯＡＴ株式会社,,株式会社,東京都,三鷹市,井の頭４丁目７－１６パークハウス１０１,,13,204,1810001,,,,,,,2023-07-21,1,,,,,ボート,0
1143,5020001152544,新規,0,2023-07-21,2023-07-21,株式会社Ｉｒｉｓ,,株式会社,神奈川県,横浜市西区,老松町１２番地ＡＵＲＯＲＡ桜木町３０６号室,,14,103,2200032,,,,,,,2023-07-21,1,,,,,アイリス,0
1144,5020001152552,新規,0,2023-07-21,2023-07-21,株式会社ｋｅｙ,,株式会社,神奈川県,川崎市麻生区,王禅寺西１丁目３４番２１号ジョイフルコート新百合ヶ丘Ｃ２,,14,137,2150017,,,,,,,2023-07-21,1,,,,,キイ,0
1147,5020003024238,新規,0,2023-07-21,2023-07-21,イー・エス・エス合同会社,,合同会社,神奈川県,横浜市戸塚区,前田町２１４番地１グランドメゾン東戸塚４番館３１１号,00131242,14,110,2440804,,,,,,,2023-07-21,1,,,,,イーエスエス,0
1148,5020003024262,新規,0,2023-07-21,2023-07-21,Ａｌｌ　Ｄｉｒｅｃｔｉｏｎｓ合同会社,,合同会社,神奈川県,横浜市神奈川区,反町２丁目１５番１４号ヒルトップ反町,,14,102,2210825,,,,,,,2023-07-21,1,,,,,オールディレクションズ,0
1149,5020003024270,新規,0,2023-07-21,2023-07-21,Ａ　Ｌａｂｏｒａｔｏｒｉｅｓ合同会社,,合同会社,神奈川県,横浜市青葉区,美しが丘５丁目１２番５号４０２,,14,117,2250002,,,,,,,2023-07-21,1,,,,,エーラボラトリーズ,0
1156,5021003013321,新規,0,2023-07-21,2023-07-21,ＶＯＬＡＲＥ合同会社,,合同会社,神奈川県,大和市,中央林間西３丁目６－５５－２０２,,14,213,2420008,,,,,,,2023-07-21,1,,,,,ヴォラーレ,0
1160,5030001154770,新規,0,2023-07-21,2023-07-21,タイセイロボティクス株式会社,,株式会社,埼玉県,狭山市,大字中新田３５３番地３,,11,215,3501311,,,,,,,2023-07-21,1,,,,,タイセイロボティクス,0
1161,5030001154928,新規,0,2023-07-21,2023-07-21,株式会社Ｇ‐Ｂｒｏｓ,,株式会社,埼玉県,八潮市,大字木曽根７８７番地５,,11,234,3400813,,,,,,,2023-07-21,1,,,,,ジーブロス,0
1164,5030003022091,新規,0,2023-07-21,2023-07-21,合同会社ＲＧＢ　Ｎｅｘｕｓ,,合同会社,埼玉県,新座市,大和田５丁目１２番１６号,,11,230,3520004,,,,,,,2023-07-21,1,,,,,アールジービーネクサス,0
1167,5040001129276,新規,0,2023-07-21,2023-07-21,ぱんち株式会社,,株式会社,千葉県,千葉市稲毛区,山王町８２番地２－１０３,,12,103,2630002,,,,,,,2023-07-21,1,,,,,パンチ,0
1174,5070005010149,新規,0,2023-07-21,2023-07-21,ＮＰＯ法人ＳＡＮＰＯ,,その他の設立登記法人,群馬県,安中市,下後閑１９１番地２,,10,211,3790106,,,,,,,2023-07-21,1,,,,,サンポ,0
1178,5090001018210,新規,0,2023-07-21,2023-07-21,株式会社旅館明治,,株式会社,山梨県,甲府市,湯村３丁目１０番１４号,,19,201,4000073,,,,,,,2023-07-21,1,,,,,リョカンメイジ,0
1197,5120001256599,新規,0,2023-07-21,2023-07-21,株式会社森美,,株式会社,大阪府,寝屋川市,高柳５丁目４番３号,,27,215,5720051,,,,,,,2023-07-21,1,,,,,モリミ,0
1198,5120001256616,新規,0,2023-07-21,2023-07-21,株式会社福山建装,,株式会社,大阪府,大阪市港区,夕凪２丁目１８番５５－１０８号,,27,107,5520004,,,,,,,2023-07-21,1,,,,,フクヤマケンソウ,0
1199,5120001256657,新規,0,2023-07-21,2023-07-21,株式会社ｅＮ,,株式会社,大阪府,大阪市福島区,福島３丁目１２－６レジーナ福島ＩＩＩ３Ｆ,00131247,27,103,5530003,,,,,,,2023-07-21,1,,,,,エン,0
1202,5120003024517,新規,0,2023-07-21,2023-07-21,輝騰貿易合同会社,,合同会社,大阪府,大阪市西成区,聖天下２丁目３番２号聖天下コーポ２階Ａ１号室,,27,122,5570012,,,,,,,2023-07-21,1,,,,,キトウボウエキ,0
1203,5120003024541,新規,0,2023-07-21,2023-07-21,合同会社サンライズ,,合同会社,大阪府,大阪市北区,梅田１丁目２番２号大阪駅前第２ビル１２－１２,,27,127,5300001,,,,,,,2023-07-21,1,,,,,サンライズ,0
1212,5130001074728,新規,0,2023-07-21,2023-07-21,株式会社Ｒ・Ｗｉｌｌ,,株式会社,京都府,京都市南区,上鳥羽城ケ前町２４８,,26,107,6018137,,,,,,,2023-07-21,1,,,,,アールウィル,0
1213,5130001074793,新規,0,2023-07-21,2023-07-21,株式会社ＰＥＮ,,株式会社,京都府,京都市右京区,宇多野法安寺町１７番地２１,,26,108,6168206,,,,,,,2023-07-21,1,,,,,ペン,0
1220,5140001130892,新規,0,2023-07-21,2023-07-21,昭ホールディングス株式会社,,株式会社,兵庫県,三田市,西相野４６２番地,,28,219,6691341,,,,,,,2023-07-21,1,,,,,アキホールディングス,0
1226,5150001026561,新規,0,2023-07-21,2023-07-21,株式会社プラムリンク,,株式会社,奈良県,奈良市,押熊町３９７番地,,29,201,6310011,,,,,,,2023-07-21,1,,,,,プラムリンク,0
1228,5160001025199,新規,0,2023-07-21,2023-07-21,株式会社ＢＵＬＬＤＲＯＯＬ,,株式会社,滋賀県,甲賀市,水口町中邸５番３６号,,25,209,5280024,,,,,,,2023-07-21,1,,,,,ブルドロール,0
1230,5160005011212,新規,0,2023-07-21,2023-07-21,一般社団法人イルミナティ協会,,その他の設立登記法人,滋賀県,草津市,野路町４６７－１－１１１,,25,206,5250055,,,,,,,2023-07-21,1,,,,,イルミナティキョウカイ,0
1237,5180001157206,新規,0,2023-07-21,2023-07-21,輝コンサルティング株式会社,,株式会社,愛知県,名古屋市西区,名駅２丁目３４番１７号セントラル名古屋１１０１号,,23,104,4510045,,,,,,,2023-07-21,1,,,,,カガヤキコンサルティング,0
1260,5240005015618,新規,0,2023-07-21,2023-07-21,一般社団法人ひろまる多文化共生ネット,,その他の設立登記法人,広島県,広島市佐伯区,八幡東１丁目２９番５－２０３号ルーラル浜崎Ｂ棟,,34,108,7315115,,,,,,,2023-07-21,1,,,,,ヒロマルタブンカキョウセイネット,0
1261,5250003003301,新規,0,2023-07-21,2023-07-21,Ｄｉｇｉｔａｌ　Ｆｉｓｈｅｒｉｅｓ　Ｌａｂ．合同会社,,合同会社,山口県,下関市,永田本町２丁目７番１号,,35,201,7596533,,,,,,,2023-07-21,1,,,,,デジタルフィッシャリーズラボ,0
1264,5260001038141,新規,0,2023-07-21,2023-07-21,トクラ＆トラストホールディングス株式会社,,株式会社,岡山県,倉敷市,水江１５４４番地１,,33,202,7100802,,,,,,,2023-07-21,1,,,,,トクラアンドトラストホールディングス,0
1266,5260005011251,新規,0,2023-07-21,2023-07-21,一般社団法人岡山県公認心理師・臨床心理士協会,,その他の設立登記法人,岡山県,岡山市北区,柳町２丁目４番２３号プレジデント山忠ビル５階,,33,101,7000904,,,,,,,2023-07-21,1,,,,,オカヤマケンコウニンシンリシリンショウシンリシキョウカイ,0
1274,5320003004127,新規,0,2023-07-21,2023-07-21,Ｙ’ｓ　ａｇｅｎｃｙ合同会社,,合同会社,大分県,別府市,大字南立石１８７１番地の２９,,44,202,8740000,,,,,,,2023-07-21,1,,,,,,0
1275,5330001031048,新規,0,2023-07-21,2023-07-21,株式会社合志石工,,株式会社,熊本県,合志市,上庄２１６６番地１,,43,216,8611111,,,,,,,2023-07-21,1,,,,,コウシイシク,0
1276,5330005010675,新規,0,2023-07-21,2023-07-21,一般社団法人志誠会Ｋａｒａｔｅ‐Ｄｏ誠信塾,,その他の設立登記法人,熊本県,熊本市中央区,京町２丁目３番６号,,43,101,8600078,,,,,,,2023-07-21,1,,,,,シセイカイカラテドウセイシンジュク,0
1280,5340001025742,新規,0,2023-07-21,2023-07-21,株式会社やなせ,,株式会社,鹿児島県,出水市,平和町１８８２番地,,46,208,8990217,,,,,,,2023-07-21,1,,,,,ヤナセ,0
1284,5360001032308,新規,0,2023-07-21,2023-07-21,株式会社ＲＹＵＫＹＵ‐ＭＯＮＯ,,株式会社,沖縄県,那覇市,久茂地１丁目１－１、９Ｆ,,47,201,9000015,,,,,,,2023-07-21,1,,,,,リュウキュウモノ,0
1285,5360001032316,新規,0,2023-07-21,2023-07-21,株式会社ちゅら島プロモーション,,株式会社,沖縄県,那覇市,安里３丁目４番１７号,,47,201,9020067,,,,,,,2023-07-21,1,,,,,チュラシマプロモーション,0
1286,5360003013140,新規,0,2023-07-21,2023-07-21,合同会社椿,,合同会社,沖縄県,名護市,字屋部３１２－６,,47,209,9050007,,,,,,,2023-07-21,1,,,,,ツバキ,0
1294,5380001033865,新規,0,2023-07-21,2023-07-21,株式会社郡山クリーンハウス,,株式会社,福島県,郡山市,長者１丁目７番１７号さくらビル２Ｆ,,07,203,9638017,,,,,,,2023-07-21,1,,,,,コオリヤマクリーンハウス,0
1304,5430001089480,新規,0,2023-07-21,2023-07-21,株式会社Ａｖａｎｃｅｒ,,株式会社,北海道,札幌市厚別区,厚別中央三条２丁目１６－３０オリエンタルビル２Ｆ,,01,108,0040053,,,,,,,2023-07-21,1,,,,,アバンセ,0
1317,5470001019715,新規,0,2023-07-21,2023-07-21,株式会社Ｎ,,株式会社,香川県,三豊市,詫間町詫間３６６２番地,,37,208,7691101,,,,,,,2023-07-21,1,,,,,エヌ,0
1321,5500005008628,新規,0,2023-07-21,2023-07-21,司法書士法人あらの事務所,,その他の設立登記法人,愛媛県,新居浜市,北新町１３番５号,,38,205,7920004,,,,,,,2023-07-21,1,,,,,アラノジムショ,0
1330,6010001237056,新規,0,2023-07-21,2023-07-21,株式会社アートダッシュ東京,,株式会社,東京都,中央区,日本橋浜町２丁目３５番７号島鶴ビル８階,,13,102,1030007,,,,,,,2023-07-21,1,,,,,アートダッシュトウキョウ,0
1332,6010003041159,新規,0,2023-07-21,2023-07-21,合同会社ＴＳインベストメント１号,,合同会社,東京都,千代田区,平河町１丁目６番１５号シルスフィア会計事務所内,,13,101,1020093,,,,,,,2023-07-21,1,,,,,ティーエスインベストメントイチゴウ,0
1336,6010101015725,新規,0,2023-07-21,2023-07-21,株式会社ＳＯＬＬＥＤ,,株式会社,東京都,八王子市,下柚木２丁目５番地２３,,13,201,1920372,,,,,,,2023-07-21,1,,,,,ソレッド,0
1342,6010401175772,新規,0,2023-07-21,2023-07-21,ニュートン・インベストメント・パートナーズ株式会社,,株式会社,東京都,港区,南青山２丁目９番１４号,,13,103,1070062,,,,,,,2023-07-21,1,,,,,ニュートンインベストメントパートナーズ,0
1343,6010401175780,新規,0,2023-07-21,2023-07-21,Ｂｅ‐ｂｕｉｌ株式会社,,株式会社,東京都,港区,東新橋２丁目７－３昭和アステック１号館,,13,103,1050021,,,,,,,2023-07-21,1,,,,,ビービル,0
1344,6010401175806,新規,0,2023-07-21,2023-07-21,株式会社Ｃ,,株式会社,東京都,港区,西麻布４丁目６－２ＣｏｔｅａｕＮｉｓｈｉＡｚａｂｕ１００２号,,13,103,1060031,,,,,,,2023-07-21,1,,,,,シー,0
1368,6010901053461,新規,0,2023-07-21,2023-07-21,株式会社ＰＲＯＭＥＬ,,株式会社,東京都,世田谷区,上北沢１丁目３１番６号,,13,112,1560057,,,,,,,2023-07-21,1,,,,,プロメル,0
1371,6011001155776,新規,0,2023-07-21,2023-07-21,株式会社Ｎｅｕｔｏｎｅ,,株式会社,東京都,目黒区,目黒１丁目４番１６号目黒Ｇビル７Ｆ,,13,110,1530063,,,,,,,2023-07-21,1,,,,,ニュートーン,0
1372,6011001155784,新規,0,2023-07-21,2023-07-21,Ｐｌａｎｅｔ　Ｓａｖｅｒｓ株式会社,,株式会社,東京都,渋谷区,神宮前６丁目２３－４桑野ビル２階,,13,113,1500001,,,,,,,2023-07-21,1,,,,,プラネットセイバーズ,0
1373,6011001155792,新規,0,2023-07-21,2023-07-21,株式会社カドル・ホールディングス,,株式会社,東京都,目黒区,中根１丁目１０番１６号,,13,110,1520031,,,,,,,2023-07-21,1,,,,,カドルホールディングス,0
1379,6011101103692,新規,0,2023-07-21,2023-07-21,エイジングジャーニー株式会社,,株式会社,東京都,新宿区,西新宿３丁目３番１３号西新宿水間ビル６階,,13,104,1600023,,,,,,,2023-07-21,1,,,,,エイジングジャーニー,0
1382,6011301028871,新規,0,2023-07-21,2023-07-21,ボードルーム株式会社,,株式会社,東京都,杉並区,高井戸東３丁目８－５高井戸ハイホーム１０２,,13,115,1680072,,,,,,,2023-07-21,1,,,,,,0
1385,6011501029554,新規,0,2023-07-21,2023-07-21,吉田商事株式会社,,株式会社,東京都,北区,浮間１丁目１番１４号リムジンビル１１５,,13,117,1150051,,,,,,,2023-07-21,1,,,,,ヨシダショウジ,0
1386,6011701026442,新規,0,2023-07-21,2023-07-21,ＮＴプランニング株式会社,,株式会社,東京都,江戸川区,上篠崎４丁目１３番２３号,,13,123,1330054,,,,,,,2023-07-21,1,,,,,エヌティープランニング,0
1389,6011801042752,新規,0,2023-07-21,2023-07-21,さいとう商事株式会社,,株式会社,東京都,足立区,宮城１丁目１２番７号,,13,121,1200047,,,,,,,2023-07-21,1,,,,,サイトウショウジ,0
1390,6011801042769,新規,0,2023-07-21,2023-07-21,株式会社彩幸企画,,株式会社,東京都,葛飾区,西水元２丁目９番１０号グランディール幸田２０２,,13,122,1250031,,,,,,,2023-07-21,1,,,,,サイコウキカク,0
1395,6012403006071,新規,0,2023-07-21,2023-07-21,合同会社Ｂｏｓｓｂｉｔｃｈ,,合同会社,東京都,武蔵野市,中町１丁目１９番２０号５Ｆ,,13,203,1800006,,,,,,,2023-07-21,1,,,,,ボスビッチ,0
1401,6012703002761,新規,0,2023-07-21,2023-07-21,アクティブドメイン合同会社,,合同会社,東京都,東村山市,青葉町２丁目８番地４８,,13,213,1890002,,,,,,,2023-07-21,1,,,,,アクティブドメイン,0
1402,6012801022521,新規,0,2023-07-21,2023-07-21,株式会社Ｌｉｎｏ,,株式会社,東京都,立川市,錦町６丁目９番１６号パーシモン２０１号,,13,202,1900022,,,,,,,2023-07-21,1,,,,,リノ,0
1403,6012803003131,新規,0,2023-07-21,2023-07-21,合同会社ホワイティナ,,合同会社,東京都,立川市,上砂町５丁目１５－１,,13,202,1900032,,,,,,,2023-07-21,1,,,,,ホワイティナ,0
1415,6020003024237,新規,0,2023-07-21,2023-07-21,ＨＭＫ合同会社,,合同会社,神奈川県,横浜市旭区,鶴ケ峰１丁目２６番地６フルール横浜鶴ヶ峰２０６,,14,112,2410022,,,,,,,2023-07-21,1,,,,,エイチエムケー,0
1424,6030001154869,新規,0,2023-07-21,2023-07-21,株式会社ドゥーアプログレス,,株式会社,埼玉県,さいたま市南区,内谷５丁目２番６－１０５号,,11,108,3360034,,,,,,,2023-07-21,1,,,,,ドゥーアプログレス,0
1430,6030003022198,新規,0,2023-07-21,2023-07-21,Ｃｒｅａｔｉｖｅ　Ｉｎｎｏｖａｔｉｏｎ合同会社,,合同会社,埼玉県,さいたま市大宮区,下町２丁目６０―１―１４０５,,11,103,3300844,,,,,,,2023-07-21,1,,,,,クリエイティブイノベーション,0
1437,6060001036164,新規,0,2023-07-21,2023-07-21,株式会社日光中日貿易,,株式会社,栃木県,日光市,野口５９８番地１,,09,206,3211424,,,,,,,2023-07-21,1,,,,,ニッコウチュウニチボウエキ,0
1438,6060001036172,新規,0,2023-07-21,2023-07-21,エスジーラボ株式会社,,株式会社,栃木県,那須塩原市,五軒町１番１３号マンションアカデミーＩ－Ｒ２号,,09,213,3292753,,,,,,,2023-07-21,1,,,,,エスジーラボ,0
1446,6080401026614,新規,0,2023-07-21,2023-07-21,株式会社リンクスパワー,,株式会社,静岡県,浜松市中区,高丘西１丁目６番４号,,22,131,4338118,,,,,,,2023-07-21,1,,,,,リンクスパワー,0
1451,6090001018226,新規,0,2023-07-21,2023-07-21,東和エレベーター株式会社,,株式会社,山梨県,韮崎市,藤井町北下條１４６５番地２サンコーポラス藤井住宅２棟３０６号,,19,207,4070003,,,,,,,2023-07-21,1,,,,,トウワエレベーター,0
1463,6120001256581,新規,0,2023-07-21,2023-07-21,株式会社亮建メディカル,,株式会社,大阪府,大阪市阿倍野区,播磨町１丁目２３番２２号,,27,119,5450022,,,,,,,2023-07-21,1,,,,,リョウケンメディカル,0
1464,6120001256615,新規,0,2023-07-21,2023-07-21,株式会社ＫＹＯＵ,,株式会社,大阪府,大阪市浪速区,幸町２丁目３番１４－７０７号,,27,111,5560021,,,,,,,2023-07-21,1,,,,,キョウ,0
1468,6120005023755,新規,0,2023-07-21,2023-07-21,一般社団法人正友会,,その他の設立登記法人,大阪府,大阪市福島区,吉野１丁目２１番１４号,,27,103,5530006,,,,,,,2023-07-21,1,,,,,セイユウカイ,0
1469,6120005023763,新規,0,2023-07-21,2023-07-21,医療法人裕優会,,その他の設立登記法人,大阪府,大阪市阿倍野区,松崎町４丁目５番３７号スクエアビル１階,,27,119,5450053,,,,,,,2023-07-21,1,,,,,ユウユウカイ,0
1475,6122005003695,新規,0,2023-07-21,2023-07-21,一般社団法人ＴＨＥ　ＯＲＤＥＲ,,その他の設立登記法人,大阪府,東大阪市,岸田堂西２丁目８番２５号,,27,227,5770848,,,,,,,2023-07-21,1,,,,,ザオーダー,0
1480,6130001074685,新規,0,2023-07-21,2023-07-21,株式会社ロングウェーブ,,株式会社,京都府,京都市東山区,三条通白川橋東入五丁目東町２３５番地１,,26,105,6050000,,,,,,,2023-07-21,1,,,,,ロングウェーブ,0
1481,6130001074776,新規,0,2023-07-21,2023-07-21,熱源開発株式会社,,株式会社,京都府,京田辺市,興戸地蔵谷１番地同志社大学京田辺キャンパス業成館Ｄ－ｅｇｇ,,26,211,6100332,,,,,,,2023-07-21,1,,,,,ネツゲンカイハツ,0
1487,6140001130850,新規,0,2023-07-21,2023-07-21,株式会社内橋建築工房,,株式会社,兵庫県,神戸市西区,今寺３３番地の１１,,28,111,6512114,,,,,,,2023-07-21,1,,,,,ウチハシケンチクコウボウ,0
1499,6160005011211,新規,0,2023-07-21,2023-07-21,クサツウエストロイヤルタワー管理組合法人,,その他の設立登記法人,滋賀県,草津市,西大路町４－３２防災センター内,,25,206,5250037,,,,,,,2023-07-21,1,,,,,クサツウエストロイヤルタワー,0
1513,6180301037569,新規,0,2023-07-21,2023-07-21,ＸｉｎＳｋｙ株式会社,,株式会社,愛知県,豊川市,諏訪２丁目２４１番地,,23,207,4420068,,,,,,,2023-07-21,1,,,,,,0
1515,6190001030591,新規,0,2023-07-21,2023-07-21,株式会社女・前,,株式会社,三重県,三重郡朝日町,向陽台１丁目２番地１３,,24,343,5108105,,,,,,,2023-07-21,1,,,,,オンナマエ,0
1521,6220003003550,新規,0,2023-07-21,2023-07-21,合同会社白山企画,,合同会社,石川県,白山市,番田町２４８番地１,,17,210,9240856,,,,,,,2023-07-21,1,,,,,ハクサンキカク,0
1531,6260001038140,新規,0,2023-07-21,2023-07-21,株式会社誠和釣具,,株式会社,岡山県,高梁市,高倉町大瀬八長２０８５番地１,,33,209,7160003,,,,,,,2023-07-21,1,,,,,セイワツリグ,0
1545,6330001031039,新規,0,2023-07-21,2023-07-21,未来少年株式会社,,株式会社,熊本県,阿蘇郡南阿蘇村,大字一関１１４７番地１,,43,433,8691504,,,,,,,2023-07-21,1,,,,,ミライショウネン,0
1547,6330003009909,新規,0,2023-07-21,2023-07-21,Ｓｕｎｎｙ　Ｃａｔ合同会社,,合同会社,熊本県,合志市,幾久富１８３３番地６６,,43,216,8611112,,,,,,,2023-07-21,1,,,,,サニーキャット,0
1552,6360001032307,新規,0,2023-07-21,2023-07-21,株式会社Ｔ・ワーカーズ,,株式会社,沖縄県,那覇市,金城５丁目７番地１１コーポ善１階１０１号室,,47,201,9010155,,,,,,,2023-07-21,1,,,,,トムズワーカーズ,0
1553,6360001032315,新規,0,2023-07-21,2023-07-21,株式会社クマノミ工務店,,株式会社,沖縄県,那覇市,首里鳥堀町５丁目３８番地３,,47,201,9030805,,,,,,,2023-07-21,1,,,,,クマノミコウムテン,0
1572,6430001089513,新規,0,2023-07-21,2023-07-21,株式会社富川経営,,株式会社,北海道,札幌市東区,北四十一条東４丁目１番２１号,,01,103,0070841,,,,,,,2023-07-21,1,,,,,トミカワケイエイ,0
1573,6430003015236,新規,0,2023-07-21,2023-07-21,合同会社ウェルビーラーン,,合同会社,北海道,札幌市中央区,宮の森二条１７丁目１８番３１号,,01,101,0640952,,,,,,,2023-07-21,1,,,,,ウェルビーラーン,0
1577,6470001019714,新規,0,2023-07-21,2023-07-21,株式会社ＡＬＬＸ,,株式会社,香川県,高松市,木太町３８４６番地１アルト木太Ｉ３０７号室,,37,201,7600080,,,,,,,2023-07-21,1,,,,,オルクス,0
1578,6470003002461,新規,0,2023-07-21,2023-07-21,合同会社Ｂｒｉｇｈｔ　Ｃｉｔｙ,,合同会社,香川県,高松市,昭和町１丁目１２番３号,,37,201,7600014,,,,,,,2023-07-21,1,,,,,ブライトシティ,0
1585,6700150116255,新規,0,2023-07-21,2023-05-19,東富田コミュニティ協議会,,その他,徳島県,徳島市,中央通４丁目１８,,36,201,7700936,,,,,,,2023-05-19,1,,,,,ヒガシトミダコミユニテイキヨウギカイ,0
1601,7010001237022,新規,0,2023-07-21,2023-07-21,株式会社ＡｉｍＥｉｇｈｔ,,株式会社,東京都,中央区,日本橋室町１丁目１１番１２号日本橋水野ビル７階,,13,102,1030022,,,,,,,2023-07-21,1,,,,,アイムエイト,0
1602,7010001237055,新規,0,2023-07-21,2023-07-21,株式会社ｉｎ　ｔｈｅ　Ｗｅｓｔ,,株式会社,東京都,中央区,銀座１丁目１２番４号Ｎ＆ＥＢＬＤ．６Ｆ,,13,102,1040061,,,,,,,2023-07-21,1,,,,,インザウエスト,0
1603,7010001237088,新規,0,2023-07-21,2023-07-21,ＹＵＩＧＯＮ　ＴＥＣＨ株式会社,,株式会社,東京都,中央区,日本橋２丁目１０番５号ＧＲＡＮＢＩＺ東京日本橋,,13,102,1030027,,,,,,,2023-07-21,1,,,,,ユイゴンテック,0
1609,7010101015732,新規,0,2023-07-21,2023-07-21,株式会社エイト・ライズ,,株式会社,東京都,八王子市,鑓水１４０６番地１,,13,201,1920375,,,,,,,2023-07-21,1,,,,,エイトライズ,0
1610,7010101015740,新規,0,2023-07-21,2023-07-21,株式会社雅創建,,株式会社,東京都,八王子市,上川町３７９３番地１,,13,201,1920151,,,,,,,2023-07-21,1,,,,,ミヤビソウケン,0
1611,7010103002183,新規,0,2023-07-21,2023-07-21,合同会社ワコウ,,合同会社,東京都,八王子市,大和田町７丁目９番８号,,13,201,1920045,,,,,,,2023-07-21,1,,,,,ワコウ,0
1614,7010401175805,新規,0,2023-07-21,2023-07-21,株式会社いろは,,株式会社,東京都,港区,六本木１丁目４番５号アークヒルズサウスタワーＢ１Ｆ,,13,103,1060032,,,,,,,2023-07-21,1,,,,,イロハ,0
1615,7010403030529,新規,0,2023-07-21,2023-07-21,合同会社ＮＲＥ‐５１インベストメント,,合同会社,東京都,港区,虎ノ門２丁目１０番４号オークラプレステージタワー,,13,103,1050001,,,,,,,2023-07-21,1,,,,,エヌアールイーゴジュウイチインベストメント,0
1618,7010501050800,新規,0,2023-07-21,2023-07-21,株式会社Ｚｅｒｎｅｏ,,株式会社,東京都,台東区,三ノ輪１丁目１７番５号,,13,106,1100011,,,,,,,2023-07-21,1,,,,,ゼルネオ,0
1620,7010503007088,新規,0,2023-07-21,2023-07-21,周還合同会社,,合同会社,東京都,台東区,浅草橋２丁目２８－９、４Ｆ－Ａ号室,,13,106,1110053,,,,,,,2023-07-21,1,,,,,シュウカン,0
1621,7010601063462,新規,0,2023-07-21,2023-07-21,株式会社クルーニード,,株式会社,東京都,江東区,南砂１丁目４番１－５０６号,,13,108,1360076,,,,,,,2023-07-21,1,,,,,クルーニード,0
1622,7010603010264,新規,0,2023-07-21,2023-07-21,合同会社リプレース,,合同会社,東京都,江東区,新大橋２丁目１番８号,,13,108,1350007,,,,,,,2023-07-21,1,,,,,リプレース,0
1627,7010801034172,新規,0,2023-07-21,2023-07-21,株式会社スリーステージ,,株式会社,東京都,大田区,西蒲田６丁目２６番地３号３階,,13,111,1440051,,,,,,,2023-07-21,1,,,,,スリーステージ,0
1632,7010901053460,新規,0,2023-07-21,2023-07-21,株式会社ピッコロ,,株式会社,東京都,世田谷区,上北沢１丁目３１番６号,,13,112,1560057,,,,,,,2023-07-21,1,,,,,ピッコロ,0
1634,7010903008330,新規,0,2023-07-21,2023-07-21,合同会社ＴＡＣＥＴ,,合同会社,東京都,世田谷区,奥沢５丁目１番１１号メゾンドジョワ２０２,,13,112,1580083,,,,,,,2023-07-21,1,,,,,タセット,0
1636,7011001155775,新規,0,2023-07-21,2023-07-21,ＤａｗｎＸ株式会社,,株式会社,東京都,渋谷区,代々木３丁目１３番１０－３０４号,,13,113,1510053,,,,,,,2023-07-21,1,,,,,ドーンクロス,0
1637,7011001155817,新規,0,2023-07-21,2023-07-21,株式会社Ｓｗｅｅｐ,,株式会社,東京都,渋谷区,桜丘町２３番１７号シティコート桜丘４０８,,13,113,1500031,,,,,,,2023-07-21,1,,,,,スイープ,0
1638,7011003017214,新規,0,2023-07-21,2023-07-21,合同会社ｏｔａ,,合同会社,東京都,目黒区,原町２丁目１番２６号コーポ関口２０７,,13,110,1520011,,,,,,,2023-07-21,1,,,,,オタ,0
1642,7011303004837,新規,0,2023-07-21,2023-07-21,ＦＩＲＥＷＯＯＤ合同会社,,合同会社,東京都,杉並区,阿佐谷南３丁目３４番５号メゾンエクレール４０３号,,13,115,1660004,,,,,,,2023-07-21,1,,,,,ファイアウッド,0
1647,7011603003992,新規,0,2023-07-21,2023-07-21,ヤマトシステムエンジニア合同会社,,合同会社,東京都,練馬区,東大泉２丁目９番１８号大泉源第二ビル１０１号,,13,120,1780063,,,,,,,2023-07-21,1,,,,,ヤマトシステムエンジニア,0
1650,7011803005748,新規,0,2023-07-21,2023-07-21,Ｓｏｙｏｋａｚｅ合同会社,,合同会社,東京都,葛飾区,金町３丁目３２番４号,,13,122,1250042,,,,,,,2023-07-21,1,,,,,ソヨカゼ,0
1652,7012401040765,新規,0,2023-07-21,2023-07-21,株式会社エフユーライク,,株式会社,東京都,府中市,若松町１丁目１番地の４の３０２,,13,206,1830005,,,,,,,2023-07-21,1,,,,,エフユーライク,0
1653,7012403006070,新規,0,2023-07-21,2023-07-21,ＳＵＮ合同会社,,合同会社,東京都,武蔵野市,桜堤２丁目８番８‐Ｃ７０７号パークシティ武蔵野桜堤,,13,203,1800021,,,,,,,2023-07-21,1,,,,,サン,0
1656,7020001152542,新規,0,2023-07-21,2023-07-21,株式会社フォディーナ,,株式会社,神奈川県,横浜市戸塚区,上倉田町８８４－１戸塚ハイライズ２階,,14,110,2440816,,,,,,,2023-07-21,1,,,,,フォディーナ,0
1657,7020001152617,新規,0,2023-07-21,2023-07-21,株式会社Ｊサーキュラーシステム,,株式会社,神奈川県,川崎市川崎区,水江町５番１号,,14,131,2100866,,,,,,,2023-07-21,1,,,,,ジェイサーキュラーシステム,0
1660,7020003024137,新規,0,2023-07-21,2023-07-21,合同会社シャンクス,,合同会社,神奈川県,川崎市多摩区,枡形３丁目４番３０－３０１号,,14,135,2140032,,,,,,,2023-07-21,1,,,,,シャンクス,0
1670,7030001154835,新規,0,2023-07-21,2023-07-21,株式会社宝周,,株式会社,埼玉県,入間郡三芳町,大字竹間沢４５０－１７メゾンシティ藤Ｃ館２０１号,,11,324,3540043,,,,,,,2023-07-21,1,,,,,ホウシュウ,0
1671,7030001154991,新規,0,2023-07-21,2023-07-21,株式会社イミライズ,,株式会社,埼玉県,戸田市,大字新曽８２ＬａＣａｓａＧｒａｎｄｉｏｓｏ１階,,11,224,3350021,,,,,,,2023-07-21,1,,,,,イミライズ,0
1672,7030001155008,新規,0,2023-07-21,2023-07-21,株式会社ＡＴＥＬＩＥＲ,,株式会社,埼玉県,さいたま市西区,大字平方領々家９２４番地,,11,101,3310072,,,,,,,2023-07-21,1,,,,,アトリエ,0
1679,7030003022164,新規,0,2023-07-21,2023-07-21,合同会社グリーン・メンテナンス,,合同会社,埼玉県,熊谷市,大原２丁目１０番１７号,,11,202,3600812,,,,,,,2023-07-21,1,,,,,グリーンメンテナンス,0
1685,7040001129316,新規,0,2023-07-21,2023-07-21,株式会社アイマックス,,株式会社,千葉県,旭市,ニの１０７９番地３,,12,215,2892504,,,,,,,2023-07-21,1,,,,,アイマックス,0
1688,7050003007592,新規,0,2023-07-21,2023-07-21,合同会社藍谷建築,,合同会社,茨城県,土浦市,右籾３０２４室岡住宅１０号,,08,203,3000837,,,,,,,2023-07-21,1,,,,,,0
1694,7080001025750,新規,0,2023-07-21,2023-07-21,ＴＨｐｈｅｒｅ株式会社,,株式会社,静岡県,静岡市葵区,呉服町１丁目２０番地２６１０,,22,101,4200031,,,,,,,2023-07-21,1,,,,,スフィア,0
1714,7120001256548,新規,0,2023-07-21,2023-07-21,ＺＫ株式会社,,株式会社,大阪府,大阪市大正区,三軒家西３丁目４番１６号中山ビル１００６,,27,108,5510001,,,,,,,2023-07-21,1,,,,,ゼットケー,0
1715,7120001256580,新規,0,2023-07-21,2023-07-21,株式会社オオサカシブタニバクシュ,,株式会社,大阪府,大阪市北区,天満４丁目１７番２号,,27,127,5300043,,,,,,,2023-07-21,1,,,,,オオサカシブタニバクシュ,0
1716,7120001256630,新規,0,2023-07-21,2023-07-21,株式会社Ｒｉｓｅ　Ｍｏｒｇａｎｉｔｅ　Ｓｏｕｌ,,株式会社,大阪府,大阪市北区,梅田２丁目５番地１３号桜橋第一ビル３０４号,,27,127,5300001,,,,,,,2023-07-21,1,,,,,ライズモルガナイトソウル,0
1719,7120005023754,新規,0,2023-07-21,2023-07-21,一般社団法人柊会,,その他の設立登記法人,大阪府,大阪市福島区,吉野１丁目２１番１４号,,27,103,5530006,,,,,,,2023-07-21,1,,,,,ヒイラギカイ,0
1720,7120005023762,新規,0,2023-07-21,2023-07-21,医療法人華美会,,その他の設立登記法人,大阪府,大阪市北区,天神橋７丁目６番３号４Ｆ,,27,127,5310041,,,,,,,2023-07-21,1,,,,,ハナミカイ,0
1726,7120901047807,新規,0,2023-07-21,2023-07-21,株式会社誠和,,株式会社,大阪府,豊中市,本町２丁目４番２８－４０３号室,,27,203,5600021,,,,,,,2023-07-21,1,,,,,セイワ,0
1727,7120903004748,新規,0,2023-07-21,2023-07-21,合同会社吉満,,合同会社,大阪府,池田市,菅原町１１番１８号（３０５）,,27,204,5630055,,,,,,,2023-07-21,1,,,,,ヨシミツ,0
1735,7130001074767,新規,0,2023-07-21,2023-07-21,ＭｅＨｅｒ株式会社,,株式会社,京都府,京都市左京区,下鴨宮崎町１１９－１ＷｈａｔｅｖｅｒＳＨＩＭＯＧＡＭＯ,,26,103,6060802,,,,,,,2023-07-21,1,,,,,ミーハー,0
1736,7130001074783,新規,0,2023-07-21,2023-07-21,株式会社大宇,,株式会社,京都府,京都市下京区,綾小路通堀川西入妙満寺町５８０番地４飯田ビル２０４号室,,26,106,6008392,,,,,,,2023-07-21,1,,,,,ダイウ,0
1737,7130003008871,新規,0,2023-07-21,2023-07-21,合同会社インプライム,,合同会社,京都府,京都市東山区,古門前通大和大路東入二丁目三吉町３５１番地シャルム祇園三条５０１,,26,105,6050000,,,,,,,2023-07-21,1,,,,,インプライム,0
1751,7160001025206,新規,0,2023-07-21,2023-07-21,株式会社Ｂｅ’ｒｙｌ,,株式会社,滋賀県,栗東市,中沢３丁目１６番２０号,,25,208,5203025,,,,,,,2023-07-21,1,,,,,ベリル,0
1764,7180301037519,新規,0,2023-07-21,2023-07-21,竜沢株式会社,,株式会社,愛知県,みよし市,三好町中鯰ヶ池８８－１,,23,236,4700224,,,,,,,2023-07-21,1,,,,,リュウザワ,0
1770,7190003004386,新規,0,2023-07-21,2023-07-21,フィットキャリア合同会社,,合同会社,三重県,伊勢市,吹上２丁目９番３４号丸二マンション２・４０１号,,24,203,5160073,,,,,,,2023-07-21,1,,,,,フィットキャリア,0
1772,7200001041520,新規,0,2023-07-21,2023-07-21,株式会社アッシュクロエ,,株式会社,岐阜県,岐阜市,柳津町北塚３丁目８２番地,,21,201,5016112,,,,,,,2023-07-21,1,,,,,アッシュクロエ,0
1774,7210001019391,新規,0,2023-07-21,2023-07-21,株式会社フーミー,,株式会社,福井県,吉田郡永平寺町,松岡木ノ下２丁目５０６番地,,18,322,9101139,,,,,,,2023-07-21,1,,,,,フーミー,0
1785,7240001061845,新規,0,2023-07-21,2023-07-21,株式会社ｍｅｓ,,株式会社,広島県,広島市西区,草津新町２丁目８番７号２Ｆ,,34,104,7330834,,,,,,,2023-07-21,1,,,,,エムイーエス,0
1787,7250001020197,新規,0,2023-07-21,2023-07-21,株式会社マリコム,,株式会社,山口県,周南市,弥生町３丁目９番地,,35,215,7450072,,,,,,,2023-07-21,1,,,,,マリコム,0
1788,7250005008841,新規,0,2023-07-21,2023-07-21,特定非営利活動法人さんきゅうプラス,,その他の設立登記法人,山口県,宇部市,床波５丁目１３番１１号,,35,202,7550153,,,,,,,2023-07-21,1,,,,,サンキュウプラス,0
1798,7290001102322,新規,0,2023-07-21,2023-07-21,リンスター株式会社,,株式会社,福岡県,福岡市南区,長住１丁目４番２９号,,40,134,8111362,,,,,,,2023-07-21,1,,,,,リンスター,0
1799,7290001102347,新規,0,2023-07-21,2023-07-21,株式会社Ｖｅｓｔｉｏ,,株式会社,福岡県,福岡市中央区,赤坂２丁目５－４０,,40,133,8100042,,,,,,,2023-07-21,1,,,,,ウェスティオ,0
1800,7290001102355,新規,0,2023-07-21,2023-07-21,株式会社順晃エーエス,,株式会社,福岡県,福岡市西区,下山門４丁目４－２０－１０５,,40,135,8190052,,,,,,,2023-07-21,1,,,,,ジュンコウエーエス,0
1805,7290803004468,新規,0,2023-07-21,2023-07-21,合同会社ＣＵＮＡ,,合同会社,福岡県,行橋市,大字長木２１０番地,,40,213,8240058,,,,,,,2023-07-21,1,,,,,クウナ,0
1817,7320001019901,新規,0,2023-07-21,2023-07-21,東洋オート＆ホーム株式会社,,株式会社,大分県,大分市,大字中判田１７４４番地１,,44,201,8701113,,,,,,,2023-07-21,1,,,,,トウヨウオートアンドホーム,0
1818,7330001031087,新規,0,2023-07-21,2023-07-21,株式会社阿蘇朝日屋精肉店,,株式会社,熊本県,阿蘇市,一の宮町宮地１９８０番地,,43,214,8692612,,,,,,,2023-07-21,1,,,,,アソアサヒヤセイニクテン,0
1828,7360001032306,新規,0,2023-07-21,2023-07-21,株式会社ＯＭ沖縄,,株式会社,沖縄県,豊見城市,字豊見城４７１番地の２,,47,212,9010241,,,,,,,2023-07-21,1,,,,,オーエムオキナワ,0
1829,7360001032314,新規,0,2023-07-21,2023-07-21,株式会社久高組,,株式会社,沖縄県,うるま市,字昆布６５６番地,,47,213,9042201,,,,,,,2023-07-21,1,,,,,クダカグミ,0
1830,7360001032322,新規,0,2023-07-21,2023-07-21,ヘルスオンリー株式会社,,株式会社,沖縄県,豊見城市,字豊崎１番地１１９８－１２０７号室,,47,212,9010225,,,,,,,2023-07-21,1,,,,,ヘルスオンリー,0
1833,7370001050208,新規,0,2023-07-21,2023-07-21,株式会社美善,,株式会社,宮城県,仙台市泉区,市名坂字原田１０８番地の１ガーデン・パサージュ・シュウ１０５,,04,105,9813117,,,,,,,2023-07-21,1,,,,,ビゼン,0
1835,7380001033863,新規,0,2023-07-21,2023-07-21,株式会社Ｌｅａｇｒａｎｔ,,株式会社,福島県,郡山市,大槻町字麦塚１番地の２１ユニティ郡山１０１号,,07,203,9630201,,,,,,,2023-07-21,1,,,,,リグラント,0
1846,7430001089479,新規,0,2023-07-21,2023-07-21,株式会社澤森,,株式会社,北海道,札幌市東区,北四十三条東１０丁目３－３－２０２室,,01,103,0070843,,,,,,,2023-07-21,1,,,,,サワモリ,0
1847,7430001089504,新規,0,2023-07-21,2023-07-21,株式会社Ｈ＆Ｋ,,株式会社,北海道,札幌市中央区,南二条西１０丁目１番地４第２サントービル２階,,01,101,0600062,,,,,,,2023-07-21,1,,,,,エイチアンドケー,0
1848,7430001089512,新規,0,2023-07-21,2023-07-21,株式会社ＰＳＯ,,株式会社,北海道,苫小牧市,ウトナイ北１２丁目２番１４号,,01,213,0591306,,,,,,,2023-07-21,1,,,,,ピーエスオー,0
1849,7430001089553,新規,0,2023-07-21,2023-07-21,株式会社プレスト,,株式会社,北海道,札幌市白石区,本通１丁目南３－２４－２０３,,01,104,0030026,,,,,,,2023-07-21,1,,,,,,0
1850,7430003015243,新規,0,2023-07-21,2023-07-21,合同会社ＭＨＣ,,合同会社,北海道,室蘭市,港南町１丁目１２番２号,,01,205,0510032,,,,,,,2023-07-21,1,,,,,エムエイチシー,0
1862,8010001236972,新規,0,2023-07-21,2023-07-21,株式会社朝日しんきんキャピタルパートナーズ,,株式会社,東京都,千代田区,東神田２丁目１番２号,,13,101,1010031,,,,,,,2023-07-21,1,,,,,アサヒシンキンキャピタルパートナーズ,0
1863,8010001237079,新規,0,2023-07-21,2023-07-21,株式会社ｈａｌｆｗａｙｔｈｅｉｒ,,株式会社,東京都,中央区,八重洲１丁目５－２０東京建物八重洲さくら通りビル１Ｆ,,13,102,1030028,,,,,,,2023-07-21,1,,,,,ハーフウェイゼア,0
1866,8010003041140,新規,0,2023-07-21,2023-07-21,合同会社ピオネア,,合同会社,東京都,千代田区,神田和泉町１番地６－１６ヤマトビル４０５,,13,101,1010024,,,,,,,2023-07-21,1,,,,,ピオネア,0
1867,8010003041173,新規,0,2023-07-21,2023-07-21,ＡＲＰＰ合同会社,,合同会社,東京都,中央区,日本橋室町１丁目１１番１２号日本橋水野ビル７階,,13,102,1030022,,,,,,,2023-07-21,1,,,,,エーアールピーピー,0
1874,8010401175738,新規,0,2023-07-21,2023-07-21,株式会社セラ・ホールディングス,,株式会社,東京都,港区,南麻布２丁目８番２１号,,13,103,1060047,,,,,,,2023-07-21,1,,,,,セラホールディングス,0
1875,8010401175770,新規,0,2023-07-21,2023-07-21,株式会社シュウ・ネットワーク,,株式会社,東京都,港区,浜松町２丁目１２－９,,13,103,1050013,,,,,,,2023-07-21,1,,,,,シュウネットワーク,0
1876,8010401175779,新規,0,2023-07-21,2023-07-21,株式会社Ｆａｔｅ,,株式会社,東京都,港区,赤坂９丁目１－７赤坂レジデンシャルホテル６６６号室,,13,103,1070052,,,,,,,2023-07-21,1,,,,,フェイト,0
1877,8010401175878,新規,0,2023-07-21,2023-07-21,Ｋ’ｓ　ｃｏｍｐａｎｙ株式会社,,株式会社,東京都,港区,北青山１丁目３番１号アールキューブ青山３階,,13,103,1070061,,,,,,,2023-07-21,1,,,,,ケイズカンパニー,0
1878,8010403030528,新規,0,2023-07-21,2023-07-21,合同会社ＮＲＥ‐５０インベストメント,,合同会社,東京都,港区,虎ノ門２丁目１０番４号オークラプレステージタワー,,13,103,1050001,,,,,,,2023-07-21,1,,,,,エヌアールイーゴジュウインベストメント,0
1879,8010501050782,新規,0,2023-07-21,2023-07-21,株式会社Ａｌｌｅｓｋｌａｒ,,株式会社,東京都,台東区,蔵前４丁目２０番１０ＳＣＯＰ２１ビル２階,,13,106,1110051,,,,,,,2023-07-21,1,,,,,アレスクラ,0
1881,8010603010255,新規,0,2023-07-21,2023-07-21,合同会社Ｆａｓａｃａｌｂｒ,,合同会社,東京都,江東区,清澄３丁目４番１６号,,13,108,1350024,,,,,,,2023-07-21,1,,,,,ファサカルヴァ,0
1888,8010803004610,新規,0,2023-07-21,2023-07-21,ＳＡＳＷＡＴ合同会社,,合同会社,東京都,大田区,蒲田５丁目９－４エクセル蒲田１０１,,13,111,1440052,,,,,,,2023-07-21,1,,,,,サスワート,0
1890,8010901053476,新規,0,2023-07-21,2023-07-21,株式会社ｓａｋｕ　ｓａｋｕ,,株式会社,東京都,世田谷区,桜上水５丁目２７番３号ＷＥＣ８９０－３０３,,13,112,1560045,,,,,,,2023-07-21,1,,,,,サクサク,0
1896,8011001155799,新規,0,2023-07-21,2023-07-21,ＴＳコンサルティング株式会社,,株式会社,東京都,目黒区,目黒本町５丁目２８番１４号,,13,110,1520002,,,,,,,2023-07-21,1,,,,,ティーエスコンサルティング,0
1897,8011001155808,新規,0,2023-07-21,2023-07-21,株式会社ＢＯＴＡ,,株式会社,東京都,渋谷区,恵比寿西１丁目２１番１５号エルスタンザ代官山タワー８０２号室,,13,113,1500021,,,,,,,2023-07-21,1,,,,,,0
1902,8011003017155,新規,0,2023-07-21,2023-07-21,合同会社ＷｅＳｕｐｐｏｒｔ,,合同会社,東京都,渋谷区,渋谷２丁目１９－１５宮益坂ビルディング６０９,,13,113,1500002,,,,,,,2023-07-21,1,,,,,ウィーサポート,0
1903,8011003017213,新規,0,2023-07-21,2023-07-21,合同会社ＳＭＡＲＴ　Ｃｉｎｑ,,合同会社,東京都,渋谷区,円山町５番５号Ｎａｖｉ渋谷Ｖ３階,,13,113,1500044,,,,,,,2023-07-21,1,,,,,スマートサンク,0
1907,8011101103674,新規,0,2023-07-21,2023-07-21,ｎｉｎｊａｔｏｋｉｏ．ｎｉｎｎｉｎ株式会社,,株式会社,東京都,新宿区,西新宿３丁目３番１３号西新宿水間ビル２Ｆ,,13,104,1600023,,,,,,,2023-07-21,1,,,,,ニンジャトキオニンニン,0
1910,8011301028861,新規,0,2023-07-21,2023-07-21,株式会社リボン,,株式会社,東京都,杉並区,上荻２丁目３１番１８号Ｌａ・Ｒｅｃｏｌｔｅ・Ｏｇｉｋｕｂｏ２０１,,13,115,1670043,,,,,,,2023-07-21,1,,,,,リボン,0
1911,8011301028878,新規,0,2023-07-21,2023-07-21,アンツィオ株式会社,,株式会社,東京都,杉並区,高円寺南２丁目１番４－４０４号シャンボール新高円寺,,13,115,1660003,,,,,,,2023-07-21,1,,,,,アンツィオ,0
1916,8011603003991,新規,0,2023-07-21,2023-07-21,合同会社ＭＣ,,合同会社,東京都,練馬区,豊玉北５丁目２５－２０－４０１,,13,120,1760012,,,,,,,2023-07-21,1,,,,,エムシー,0
1924,8012401040764,新規,0,2023-07-21,2023-07-21,レジンライフ株式会社,,株式会社,東京都,調布市,佐須町２丁目２６番地３３,,13,208,1820016,,,,,,,2023-07-21,1,,,,,レジンライフ,0
1936,8020001152541,新規,0,2023-07-21,2023-07-21,Ｓｅｎｏｔｅ　Ｓｙｓｔｅｍｓ株式会社,,株式会社,神奈川県,川崎市中原区,丸子通１丁目６１０番地１ジオ新丸子１１０５,,14,133,2110006,,,,,,,2023-07-21,1,,,,,セノートシステムズ,0
1937,8020001152632,新規,0,2023-07-21,2023-07-21,プランタン株式会社,,株式会社,神奈川県,横浜市南区,井土ケ谷中町４４番地３ライオンズマンションワイドリバー井土ヶ谷３１１,,14,105,2320052,,,,,,,2023-07-21,1,,,,,プランタン,0
1938,8020001152640,新規,0,2023-07-21,2023-07-21,株式会社ＮＩＣＳ,,株式会社,神奈川県,横浜市神奈川区,片倉１丁目１７番１６－５０１号,,14,102,2210865,,,,,,,2023-07-21,1,,,,,ニックス,0
1944,8021001079535,新規,0,2023-07-21,2023-07-21,株式会社シリウス,,株式会社,神奈川県,藤沢市,藤沢２２１番地の１,,14,205,2510052,,,,,,,2023-07-21,1,,,,,シリウス,0
1950,8030001154867,新規,0,2023-07-21,2023-07-21,株式会社フラムティーダ,,株式会社,埼玉県,本庄市,北堀１４７２番地５,,11,211,3670031,,,,,,,2023-07-21,1,,,,,フラムティーダ,0
1951,8030001154958,新規,0,2023-07-21,2023-07-21,株式会社廣海塗装店,00131237,株式会社,埼玉県,さいたま市大宮区,桜木町３丁目１４１番地５,,11,103,3300854,,,,,,,2023-07-21,1,,,,,ヒロミトソウテン,0
1952,8030001154990,新規,0,2023-07-21,2023-07-21,株式会社成田クレーン商会,,株式会社,埼玉県,三郷市,半田４１８番地エフローレ新三郷２１６－１１３号,,11,237,3410012,,,,,,,2023-07-21,1,,,,,ナリタクレーンショウカイ,0
1954,8030003022155,新規,0,2023-07-21,2023-07-21,合同会社ノア,,合同会社,埼玉県,上尾市,谷津２丁目１番１号ソフィア上尾Ｂ１２０９,,11,219,3620042,,,,,,,2023-07-21,1,,,,,ノア,0
1959,8040001129307,新規,0,2023-07-21,2023-07-21,株式会社Ｃｏｌａ　Ｐｕｅｎｔｅ,,株式会社,千葉県,野田市,中根１６０番地の２,,12,208,2780031,,,,,,,2023-07-21,1,,,,,コラプエンテ,0
1960,8040001129323,新規,0,2023-07-21,2023-07-21,株式会社高佳,,株式会社,千葉県,千葉市中央区,蘇我５丁目３３番７号,,12,101,2600822,,,,,,,2023-07-21,1,,,,,タカヨシ,0
1961,8040001129331,新規,0,2023-07-21,2023-07-21,株式会社ＴＨＥＩＭ　ＪＡＰＡＮ,,株式会社,千葉県,市川市,大町７１番地５６,,12,203,2720801,,,,,,,2023-07-21,1,,,,,ザアイアムジャパン,0
1962,8040001129348,新規,0,2023-07-21,2023-07-21,流誠土建株式会社,,株式会社,千葉県,流山市,三輪野山４丁目２５－７,,12,220,2700175,,,,,,,2023-07-21,1,,,,,リュウセイドケン,0
1967,8050003007666,新規,0,2023-07-21,2023-07-21,合同会社やが屋,,合同会社,茨城県,守谷市,中央１丁目１０番地１,,08,224,3020115,,,,,,,2023-07-21,1,,,,,ヤガヤ,0
1972,8080003003019,新規,0,2023-07-21,2023-07-21,合同会社ラピ,,合同会社,静岡県,静岡市駿河区,曲金６丁目２番７号,,22,102,4228006,,,,,,,2023-07-21,1,,,,,ラピ,0
1976,8080401026612,新規,0,2023-07-21,2023-07-21,株式会社ＮＩＫＩ,,株式会社,静岡県,浜松市中区,旭町１１番地の１,,22,131,4300927,,,,,,,2023-07-21,1,,,,,ニキ,0
1981,8110005016972,新規,0,2023-07-21,2023-07-21,一般社団法人カミサコイサ,,その他の設立登記法人,新潟県,新潟市中央区,紫竹山２丁目１‐１０レジデンスカープ新潟４０７号,,15,103,9500914,,,,,,,2023-07-21,1,,,,,カミサコイサ,0
1990,8120001256547,新規,0,2023-07-21,2023-07-21,椿雲株式会社,,株式会社,大阪府,大阪市東成区,深江北３丁目４番２１号エクラ深江橋８０８Ａ,,27,115,5370001,,,,,,,2023-07-21,1,,,,,チンウン,0
1991,8120001256563,新規,0,2023-07-21,2023-07-21,Ｌｉ　Ｙｅ　Ｘｕａｎ株式会社,,株式会社,大阪府,大阪市大正区,三軒家西３丁目４番１６号中山ビル４０４Ｂ,,27,108,5510001,,,,,,,2023-07-21,1,,,,,リイェスァン,0
1992,8120001256605,新規,0,2023-07-21,2023-07-21,株式会社太陽財研,,株式会社,大阪府,大阪市北区,梅田１丁目２番２号大阪駅前第２ビル１２－１２,,27,127,5300001,,,,,,,2023-07-21,1,,,,,タイヨウザイケン,0
1993,8120001256646,新規,0,2023-07-21,2023-07-21,株式会社ＳＨＩＲＯＥ,,株式会社,大阪府,大阪市北区,梅田１丁目１２－１２東京建物梅田ビル１２階,,27,127,5300001,,,,,,,2023-07-21,1,,,,,シロエ,0
1994,8120001256687,新規,0,2023-07-21,2023-07-21,本資堂株式会社,,株式会社,大阪府,大阪市城東区,中央３丁目２－１－７０３,,27,118,5360005,,,,,,,2023-07-21,1,,,,,ホンシドウ,0
1996,8120003024522,新規,0,2023-07-21,2023-07-21,合同会社ＲｅａｃｈＯｕｔ,,合同会社,大阪府,大阪市北区,梅田１丁目２番２号大阪駅前第２ビル１２－１２,,27,127,5300001,,,,,,,2023-07-21,1,,,,,リーチアウト,0
1997,8120005023720,新規,0,2023-07-21,2023-07-21,一般社団法人合意形成総合研究所,,その他の設立登記法人,大阪府,大阪市中央区,北浜２丁目６番１８号１５階,,27,128,5410041,,,,,,,2023-07-21,1,,,,,ゴウイケイセイソウゴウケンキュウショ,0
1998,8120005023761,新規,0,2023-07-21,2023-07-21,医療法人平山クリニック,,その他の設立登記法人,大阪府,大阪市住之江区,粉浜西１丁目１番３号,,27,125,5590007,,,,,,,2023-07-21,1,,,,,ヒラヤマデンタルクリニック,0
2005,8122001037183,新規,0,2023-07-21,2023-07-21,株式会社美健テクノ,,株式会社,大阪府,東大阪市,御厨３丁目３番４号,,27,227,5770032,,,,,,,2023-07-21,1,,,,,ビケンテクノ,0
2007,8140001130931,新規,0,2023-07-21,2023-07-21,株式会社半歩先,,株式会社,兵庫県,神戸市長田区,上池田１丁目１０番１３号,,28,106,6530827,,,,,,,2023-07-21,1,,,,,ハンポサキ,0
2009,8140003019339,新規,0,2023-07-21,2023-07-21,合同会社パーフォレーション,,合同会社,兵庫県,神戸市東灘区,向洋町中３丁目１番地の１０・３番館９０４号,,28,101,6580032,,,,,,,2023-07-21,1,,,,,パーフォレーション,0
2020,8180001157211,新規,0,2023-07-21,2023-07-21,Ｒｅａｌｍｅ株式会社,,株式会社,愛知県,名古屋市中村区,名駅４丁目２４番５号第２森ビル４０１,,23,105,4500002,,,,,,,2023-07-21,1,,,,,リアルミー,0
2021,8180005020299,新規,0,2023-07-21,2023-07-21,一般社団法人ＦＤＨエージェンシー,,その他の設立登記法人,愛知県,江南市,赤童子町藤宮４１番地,,23,217,4838222,,,,,,,2023-07-21,1,,,,,エフディエッチエージェンシー,0
2033,8210003001669,新規,0,2023-07-21,2023-07-21,合同会社ＳＳＫ,,合同会社,福井県,あわら市,山十楽第４号９番地,,18,208,9190816,,,,,,,2023-07-21,1,,,,,エスエスケイ,0
2037,8240001061844,新規,0,2023-07-21,2023-07-21,株式会社グローバルリンク,,株式会社,広島県,広島市東区,若草町６番１３－２０１号,,34,102,7320053,,,,,,,2023-07-21,1,,,,,グローバルリンク,0
2044,8290001102362,新規,0,2023-07-21,2023-07-21,株式会社ＳＵＢＡＲＵ,,株式会社,福岡県,福岡市東区,社領３丁目７番１号２Ｆ,,40,131,8120068,,,,,,,2023-07-21,1,,,,,スバル,0
2046,8290801029722,新規,0,2023-07-21,2023-07-21,株式会社木村産業,,株式会社,福岡県,田川郡福智町,市場１１４７番地,,40,610,8221103,,,,,,,2023-07-21,1,,,,,キムラサンギョウ,0
2049,8310005008693,新規,0,2023-07-21,2023-07-21,一般社団法人Ａｓｉａｎ　Ａｌｌｉａｎｃｅ　ｆｏｒ　Ｄｉｇｉｔａｌ　Ｐａｔｈｏｌｏｇｙ,,その他の設立登記法人,長崎県,長崎市,旭町６番１－２４０６号,,42,201,8528003,,,,,,,2023-07-21,1,,,,,アジアンアライアンスフォーデジタルパソロジー,0
2054,8360001032305,新規,0,2023-07-21,2023-07-21,株式会社ＨＡＲＩ,,株式会社,沖縄県,中頭郡北谷町,美浜３丁目２番地１ライオンズ美浜マリンシティ５０３,,47,326,9040115,,,,,,,2023-07-21,1,,,,,ハリ,0
2056,8370005010660,新規,0,2023-07-21,2023-07-21,一般社団法人コム・イネーブル,,その他の設立登記法人,宮城県,仙台市泉区,南光台７丁目１番７－２０１号,,04,105,9818003,,,,,,,2023-07-21,1,,,,,コムイネーブル,0
2071,8430001089461,新規,0,2023-07-21,2023-07-21,株式会社プロクエリ,,株式会社,北海道,札幌市東区,北四十七条東１７丁目１番３２－４０７号,,01,103,0070847,,,,,,,2023-07-21,1,,,,,プロクエリ,0
2072,8430001089494,新規,0,2023-07-21,2023-07-21,株式会社ＮＯＲＴＨＳＴＡＲ　ＳＰ,,株式会社,北海道,札幌市白石区,南郷通２丁目南１１番１２号第六後藤ビル２階,,01,104,0030022,,,,,,,2023-07-21,1,,,,,ノーススターエスピー,0
2073,8430001089511,新規,0,2023-07-21,2023-07-21,株式会社５ＥＬ　ＰＲＯＤＵＣＴ,,株式会社,北海道,札幌市中央区,北三条東１２丁目９９番地２,,01,101,0600033,,,,,,,2023-07-21,1,,,,,ゴエルプロダクト,0
2074,8430001089610,新規,0,2023-07-21,2023-07-21,株式会社ラディアント,,株式会社,北海道,札幌市白石区,北郷五条８丁目１番１号,,01,104,0030835,,,,,,,2023-07-21,1,,,,,ラディアント,0
2076,8430003015226,新規,0,2023-07-21,2023-07-21,合同会社ＢＥＳＴ　ＦＵＴＵＲＥ,,合同会社,北海道,札幌市北区,北二十五条西１６丁目６番６－３０１号,,01,102,0010025,,,,,,,2023-07-21,1,,,,,ベストフューチャー,0
2077,8430003015259,新規,0,2023-07-21,2023-07-21,合同会社ｉｌｏ,,合同会社,北海道,札幌市北区,屯田五条６丁目２番１２号,,01,102,0020855,,,,,,,2023-07-21,1,,,,,イロ,0
2093,8700150056367,新規,0,2023-07-21,2015-10-09,高松空港振興期成会,,その他,香川県,高松市,番町４丁目１－１０,,37,201,7600017,,,,,,,2015-10-09,1,,,,,タカマツクウコウシンコウキセイカイ,0
2095,8700150117012,新規,0,2023-07-21,2023-06-08,チュリス鶴舞管理組合,,その他,愛知県,名古屋市中区,千代田１丁目１５－１５,,23,106,4600012,,,,,,,2023-06-08,1,,,,,チユリスツルマイカンリクミアイ,0
2105,9010001236922,新規,0,2023-07-21,2023-07-21,株式会社くらしる,,株式会社,東京都,千代田区,九段北１丁目３番１号日宝九段下ビル９Ｆ１号,,13,101,1020073,,,,,,,2023-07-21,1,,,,,クラシル,0
2106,9010001237111,新規,0,2023-07-21,2023-07-21,株式会社Ｌｅｘｅｒ,,株式会社,東京都,中央区,銀座１丁目１２番４号,,13,102,1040061,,,,,,,2023-07-21,1,,,,,レクサー,0
2113,9010101015722,新規,0,2023-07-21,2023-07-21,株式会社ｓｈｉｒａｕｓａ,,株式会社,東京都,八王子市,日吉町８－１８,,13,201,1930836,,,,,,,2023-07-21,1,,,,,シラウサ,0
2114,9010101015730,新規,0,2023-07-21,2023-07-21,株式会社エニキューエージャパン,,株式会社,東京都,八王子市,椚田町３１３番地１レーベンスクエアリマインドヒルズ４１４号,,13,201,1930942,,,,,,,2023-07-21,1,,,,,エニキューエージャパン,0
2115,9010101015739,新規,0,2023-07-21,2023-07-21,株式会社ラ・プロメッサ,,株式会社,東京都,八王子市,日吉町４番２０号２階,,13,201,1930836,,,,,,,2023-07-21,1,,,,,ラプロメッサ,0
2116,9010103002181,新規,0,2023-07-21,2023-07-21,ＡＭＡ合同会社,,合同会社,東京都,八王子市,明神町２丁目２番８号八王子スカイマンション１０２，５,,13,201,1920046,,,,,,,2023-07-21,1,,,,,アマ,0
2122,9010401175786,新規,0,2023-07-21,2023-07-21,株式会社ＡＮＤＲＯＳＥ,,株式会社,東京都,港区,高輪１丁目１２番１０号ウィンコーポ高輪２Ｆ,,13,103,1080074,,,,,,,2023-07-21,1,,,,,アンドローズ,0
2123,9010401175860,新規,0,2023-07-21,2023-07-21,プライムキャリア株式会社,,株式会社,東京都,港区,港南１丁目９番３６号,,13,103,1080075,,,,,,,2023-07-21,1,,,,,プライムキャリア,0
2125,9010403030543,新規,0,2023-07-21,2023-07-21,合同会社メモメモ,,合同会社,東京都,港区,南麻布１丁目５番３号－５０２,,13,103,1060047,,,,,,,2023-07-21,1,,,,,メモメモ,0
2126,9010403030551,新規,0,2023-07-21,2023-07-21,リツ合同会社,,合同会社,東京都,港区,浜松町２丁目２番１５号浜松町ダイヤビル２Ｆ,,13,103,1050013,,,,,,,2023-07-21,1,,,,,リツ,0
2130,9010601063452,新規,0,2023-07-21,2023-07-21,ＣＮ企画株式会社,,株式会社,東京都,墨田区,横川１丁目１５番１－６０４号,,13,107,1300003,,,,,,,2023-07-21,1,,,,,シーエヌキカク,0
2131,9010601063460,新規,0,2023-07-21,2023-07-21,株式会社エムズ,,株式会社,東京都,江東区,新砂２丁目１番２７－４１２号,,13,108,1360075,,,,,,,2023-07-21,1,,,,,エムズ,0
2132,9010605004213,新規,0,2023-07-21,2023-07-21,一般社団法人かんわとーく,,その他の設立登記法人,東京都,江東区,有明３丁目７番２６号有明フロンティアビルＢ棟９階,,13,108,1350063,,,,,,,2023-07-21,1,,,,,カンワトーク,0
2133,9010701044591,新規,0,2023-07-21,2023-07-21,ＨａｎＮｉｎｇ株式会社,,株式会社,東京都,品川区,大井５丁目１４番１７号,,13,109,1400014,,,,,,,2023-07-21,1,,,,,ハニング,0
2137,9010901053459,新規,0,2023-07-21,2023-07-21,江村写真株式会社,,株式会社,東京都,世田谷区,大蔵１丁目６番２３号,,13,112,1570074,,,,,,,2023-07-21,1,,,,,エムラシャシン,0
2143,9011001155781,新規,0,2023-07-21,2023-07-21,株式会社Ｊｅｆｆ’ｓ事務所,,株式会社,東京都,渋谷区,元代々木町１７－１３ザ・パークハウス代々木上原３０３,,13,113,1510062,,,,,,,2023-07-21,1,,,,,ジェフズジムショ,0
2144,9011001155807,新規,0,2023-07-21,2023-07-21,株式会社ＩＳテクノロジー,,株式会社,東京都,渋谷区,道玄坂１丁目２番３号渋谷フクラス１７階,,13,113,1500043,,,,,,,2023-07-21,1,,,,,アイエステクノロジー,0
2146,9011003017212,新規,0,2023-07-21,2023-07-21,合同会社ＳＭＡＲＴ　Ｑｕａｔｒｅ,,合同会社,東京都,渋谷区,円山町５番５号Ｎａｖｉ渋谷Ｖ３階,,13,113,1500044,,,,,,,2023-07-21,1,,,,,スマートクワトロ,0
2152,9011101103566,新規,0,2023-07-21,2023-07-21,株式会社らぷとる,,株式会社,東京都,新宿区,新宿５丁目１８番２０号ルックハイツ新宿８０３号,,13,104,1600022,,,,,,,2023-07-21,1,,,,,ラプトル,0
2153,9011101103681,新規,0,2023-07-21,2023-07-21,Ｃｉｒｃｕｌａｒｉｔｙ株式会社,,株式会社,東京都,新宿区,新宿２丁目１－１１－５Ｆ,,13,104,1600022,,,,,,,2023-07-21,1,,,,,サーキュラリティ,0
2157,9011205002565,新規,0,2023-07-21,2023-07-21,関東ポスティング協同組合,,その他の設立登記法人,東京都,中野区,弥生町４丁目２５番１０号井上倉庫２階,,13,114,1640013,,,,,,,2023-07-21,1,,,,,カントウポスティング,0
2183,9020001152400,新規,0,2023-07-21,2023-07-21,昌華株式会社,,株式会社,神奈川県,川崎市中原区,新城４丁目３番１５号,,14,133,2110044,,,,,,,2023-07-21,1,,,,,ショウカ,0
2184,9020001152516,新規,0,2023-07-21,2023-07-21,株式会社Ｒｏｏｔ　ｏｎ,,株式会社,神奈川県,横浜市港北区,樽町２丁目８－１６－３０７,,14,109,2220001,,,,,,,2023-07-21,1,,,,,ルートオン,0
2195,9030001154924,新規,0,2023-07-21,2023-07-21,株式会社ゾーサック,,株式会社,埼玉県,川口市,大字安行原８２６番地の３,,11,203,3340057,,,,,,,2023-07-21,1,,,,,ゾーサック,0
2196,9030001154940,新規,0,2023-07-21,2023-07-21,ａｄｄ　ＨＵＥＳ株式会社,,株式会社,埼玉県,北本市,中丸１丁目１２８番地１,,11,233,3640013,,,,,,,2023-07-21,1,,,,,アッドヒューズ,0
2197,9030001154949,新規,0,2023-07-21,2023-07-21,天＿君怡株式会社,00131234,株式会社,埼玉県,川口市,西川口４丁目６－３３コンフォートマンション３０３号室,,11,203,3320021,,,,,,,2023-07-21,1,,,,,テンキクンイ,0
2198,9030001154965,新規,0,2023-07-21,2023-07-21,株式会社Ｌｏｚｙ,,株式会社,埼玉県,入間市,大字野田２８番地７,,11,225,3580054,,,,,,,2023-07-21,1,,,,,ロジー,0
2200,9030003022096,新規,0,2023-07-21,2023-07-21,合同会社アージェンス,,合同会社,埼玉県,ふじみ野市,清見３丁目６番地９－１４アベニュー２０２号,,11,245,3560002,,,,,,,2023-07-21,1,,,,,アージェンス,0
2201,9030003022138,新規,0,2023-07-21,2023-07-21,合同会社ＫＬＯＯＰ,,合同会社,埼玉県,春日部市,米島３２７－１２,,11,214,3440115,,,,,,,2023-07-21,1,,,,,クループ,0
2208,9050001053166,新規,0,2023-07-21,2023-07-21,株式会社モアパワー,,株式会社,茨城県,小美玉市,羽鳥２８５０番地１１３フローピア１階－Ｂ号室,,08,236,3190123,,,,,,,2023-07-21,1,,,,,モアパワー,0
2212,9060001036178,新規,0,2023-07-21,2023-07-21,株式会社ＭＫネットワークシステム,,株式会社,栃木県,栃木市,宮町４９２番地５,,09,203,3280134,,,,,,,2023-07-21,1,,,,,エムケイネットワークシステム,0
2215,9080001025749,新規,0,2023-07-21,2023-07-21,威森食研株式会社,,株式会社,静岡県,藤枝市,青葉町１丁目２番１号,,22,214,4260066,,,,,,,2023-07-21,1,,,,,イシンショッケン,0
2217,9080101024130,新規,0,2023-07-21,2023-07-21,株式会社Ｚｅｔａ　Ｂａｓｅ,,株式会社,静岡県,富士市,青葉町６０４番地の１,,22,210,4160952,,,,,,,2023-07-21,1,,,,,ゼータベース,0
2221,9080401026611,新規,0,2023-07-21,2023-07-21,株式会社７１９,,株式会社,静岡県,磐田市,見付２９１８番地１,,22,211,4380086,,,,,,,2023-07-21,1,,,,,ナイク,0
2227,9100005013045,新規,0,2023-07-21,2023-07-21,一般社団法人わおの杜,,その他の設立登記法人,長野県,下高井郡山ノ内町,大字佐野６６０番地８,,20,561,3810402,,,,,,,2023-07-21,1,,,,,ワオノモリ,0
2229,9110001037708,新規,0,2023-07-21,2023-07-21,株式会社山平重機,,株式会社,新潟県,小千谷市,大字南荷頃８８７番地１２,,15,208,9470212,,,,,,,2023-07-21,1,,,,,ヤマヒラジュウキ,0
2239,9120001256579,新規,0,2023-07-21,2023-07-21,株式会社ＶＩＮＴＡＧＥ,,株式会社,大阪府,大阪市淀川区,東三国２丁目１７番２５号,,27,123,5320002,,,,,,,2023-07-21,1,,,,,ヴィンテージ,0
2240,9120001256612,新規,0,2023-07-21,2023-07-21,株式会社ＭＡＤＯＫＡ,,株式会社,大阪府,大阪市生野区,小路東２丁目１５番８号,,27,116,5440003,,,,,,,2023-07-21,1,,,,,マドカ,0
2241,9120001256629,新規,0,2023-07-21,2023-07-21,株式会社Ｗ,,株式会社,大阪府,大阪市天王寺区,堀越町１６番７号サンライトビル２Ｆ,,27,109,5430056,,,,,,,2023-07-21,1,,,,,ダブリュー,0
2242,9120001256645,新規,0,2023-07-21,2023-07-21,貝合株式会社,,株式会社,大阪府,大阪市住之江区,泉１丁目２番５１号３階,,27,125,5590023,,,,,,,2023-07-21,1,,,,,バイゴウ,0
2243,9120001256686,新規,0,2023-07-21,2023-07-21,ニューライフ株式会社,,株式会社,大阪府,大阪市中央区,高津２丁目３－１－１０８,,27,128,5420072,,,,,,,2023-07-21,1,,,,,ニューライフ,0
2245,9120005023760,新規,0,2023-07-21,2023-07-21,一般社団法人日本ファミリーアシスト協会,,その他の設立登記法人,大阪府,大阪市北区,天満１丁目７番１２号,,27,127,5300043,,,,,,,2023-07-21,1,,,,,ニホンファミリーアシストキョウカイ,0
2249,9122001037182,新規,0,2023-07-21,2023-07-21,株式会社シナコネ,,株式会社,大阪府,東大阪市,岩田町３丁目１番地２７－７０１号,,27,227,5780941,,,,,,,2023-07-21,1,,,,,シナコネ,0
2250,9130001074781,新規,0,2023-07-21,2023-07-21,ＵＰＴＥＣ株式会社,,株式会社,京都府,京都市下京区,油小路通下魚ノ棚下る油小路町３０３,,26,106,6000000,,,,,,,2023-07-21,1,,,,,アップテック,0
2257,9140001130930,新規,0,2023-07-21,2023-07-21,株式会社あさひ,,株式会社,兵庫県,姫路市,御立東１丁目７番１２号,,28,201,6700072,,,,,,,2023-07-21,1,,,,,アサヒ,0
2260,9150003003010,新規,0,2023-07-21,2023-07-21,合同会社ｄｏｄｏ,,合同会社,奈良県,高市郡高取町,大字清水谷１０２８番地１,,29,401,6350103,,,,,,,2023-07-21,1,,,,,ドゥドゥ,0
2261,9160001025204,新規,0,2023-07-21,2023-07-21,株式会社よーみる,,株式会社,滋賀県,草津市,追分４丁目１２番４号,,25,206,5250047,,,,,,,2023-07-21,1,,,,,ヨーミル,0
2270,9190001030580,新規,0,2023-07-21,2023-07-21,株式会社ラシックコンサルティング,,株式会社,三重県,松阪市,船江町１１９番地２,,24,204,5150812,,,,,,,2023-07-21,1,,,,,ラシックコンサルティング,0
2271,9190001030597,新規,0,2023-07-21,2023-07-21,株式会社Ｄｅホールディングス,,株式会社,三重県,志摩市,磯部町恵利原１３３１番地１５,,24,215,5170209,,,,,,,2023-07-21,1,,,,,ディーホールディングス,0
2276,9200003006016,新規,0,2023-07-21,2023-07-21,水素柱上パイプライン合同会社,,合同会社,岐阜県,大垣市,北切石町１丁目２０番地,,21,202,5030915,,,,,,,2023-07-21,1,,,,,スイソチュウジョウパイプライン,0
2286,9220005008768,新規,0,2023-07-21,2023-07-21,一般社団法人かなざわ演劇人協会,,その他の設立登記法人,石川県,小松市,浜田町ホ５７,,17,203,9230907,,,,,,,2023-07-21,1,,,,,カナザワエンゲキジンキョウカイ,0
2289,9250001020204,新規,0,2023-07-21,2023-07-21,中央興産株式会社,,株式会社,山口県,下関市,長府松原町４－４９－１０４,,35,201,7520983,,,,,,,2023-07-21,1,,,,,チュウオウコウサン,0
2293,9270003001539,新規,0,2023-07-21,2023-07-21,合同会社フォロム,,合同会社,鳥取県,東伯郡琴浦町,大字逢束５００番地１,,31,371,6892304,,,,,,,2023-07-21,1,,,,,フォロム,0
2305,9320001019899,新規,0,2023-07-21,2023-07-21,株式会社昇永,,株式会社,大分県,大分市,横尾東町３丁目７番９号,,44,201,8700130,,,,,,,2023-07-21,1,,,,,ショウエイ,0
2306,9330001031077,新規,0,2023-07-21,2023-07-21,株式会社鍬田産業,,株式会社,熊本県,合志市,豊岡２０００番地１７９９,,43,216,8611115,,,,,,,2023-07-21,1,,,,,クワタサンギョウ,0
2309,9330003009922,新規,0,2023-07-21,2023-07-21,合同会社ＣＴＭ,,合同会社,熊本県,熊本市中央区,下通１丁目４－１城見ビル１Ｆ,,43,101,8600807,,,,,,,2023-07-21,1,,,,,シーティーエム,0
2315,9360001032312,新規,0,2023-07-21,2023-07-21,株式会社リゾートクリエイトＷｅｓｔ,,株式会社,沖縄県,宮古島市,平良字久貝１０６７－１３丸良ハイツ３０５,,47,214,9060015,,,,,,,2023-07-21,1,,,,,リゾートクリエイトウエスト,0
2316,9360001032320,新規,0,2023-07-21,2023-07-21,株式会社マママ,,株式会社,沖縄県,宮古島市,平良字西里１１５１－１,,47,214,9060012,,,,,,,2023-07-21,1,,,,,マママ,0
2338,9430001089469,新規,0,2023-07-21,2023-07-21,株式会社ヤマチュウ札幌,,株式会社,北海道,札幌市豊平区,福住一条１丁目８番１３号,,01,105,0620041,,,,,,,2023-07-21,1,,,,,ヤマチュウサッポロ,0
2339,9430001089477,新規,0,2023-07-21,2023-07-21,株式会社エムズオート,,株式会社,北海道,札幌市南区,石山一条２丁目４番１５号,,01,106,0050841,,,,,,,2023-07-21,1,,,,,エムズオート,0
2340,9430001089592,新規,0,2023-07-21,2023-07-21,株式会社Ｏｌｙｍｃｈｉ,,株式会社,北海道,札幌市中央区,北三条東１３丁目９９番地６ステーションプラザ２Ｆ,,01,101,0600033,,,,,,,2023-07-21,1,,,,,オリンチ,0
2342,9430003015233,新規,0,2023-07-21,2023-07-21,合同会社Ｂｅａｖｅｒ　Ｄａｍ,,合同会社,北海道,江別市,東光町１０番地の２２,,01,217,0670023,,,,,,,2023-07-21,1,,,,,ビーバーダム,0
2343,9430003015241,新規,0,2023-07-21,2023-07-21,島貫警備保障合同会社,,合同会社,北海道,札幌市北区,北二十一条西７丁目１番２３－６０３号,,01,102,0010021,,,,,,,2023-07-21,1,,,,,シマヌキケイビホショウ,0
2348,9480003002004,新規,0,2023-07-21,2023-07-21,旬菜クラブ合同会社,,合同会社,徳島県,勝浦郡勝浦町,大字生名字神ノ木２３番地１,,36,301,7714303,,,,,,,2023-07-21,1,,,,,シュンサイクラブ,0
2351,9500003003065,新規,0,2023-07-21,2023-07-21,合同会社えいしスイミングクラブ北条,,合同会社,愛媛県,松山市,天山１丁目１４－２８リビエール天山３０１号,,38,201,7900951,,,,,,,2023-07-21,1,,,,,エイシスイミングクラブホウジョウ,0
