sequenceNumber,corporateNumber,process,correct,updateDate,changeDate,name,nameImageId,kind,prefectureName,cityName,streetNumber,addressImageId,prefectureCode,cityCode,postCode,addressOutside,addressOutsideImageId,closeDate,closeCause,successorCorporateNumber,changeCause,assignmentDate,latest,enName,enPrefectureName,enCityName,enAddressOutside,furigana,hihyoji
4,1010001092654,登記記録の閉鎖等,0,2025-10-10,2025-09-29,丸紅電力開発株式会社,,株式会社,東京都,千代田区,大手町１丁目４番２号,,13,101,1000004,,,2025-09-29,清算の結了等,,,2015-10-05,1,,,,,マルベニデンリョクカイハツ,0
10,1010001207195,登記記録の閉鎖等,0,2025-10-10,2025-10-02,ＤＰＩＰフード＆ホスピタリティ株式会社,,株式会社,京都府,亀岡市,本梅町平松泥ケ渕１番地１,,26,206,6210251,,,2025-10-02,合併による解散等,9150001006931,令和７年１０月１日京都府亀岡市本梅町平松泥ケ渕１番地１株式会社エムアンドエムサービス（9150001006931）に合併し解散,2020-01-31,1,,,,,ディーピーアイピーフードアンドホスピタリティ,0
49,1011202012574,登記記録の閉鎖等,0,2025-10-10,2025-09-29,有限会社アビエス,,有限会社,東京都,中野区,上高田４丁目１番１号,,13,114,1640002,,,2025-09-29,清算の結了等,,,2015-10-05,1,,,,,アビエス,0
53,1011501013075,登記記録の閉鎖等,0,2025-10-10,2025-10-03,株式会社ロブジェ,,株式会社,東京都,北区,赤羽西３丁目１８番６－３０２号パークサイド,,13,117,1150055,,,2025-10-03,清算の結了等,,,2015-10-05,1,,,,,,0
54,1011501023355,登記記録の閉鎖等,0,2025-10-10,2025-09-30,株式会社ＫＧエデュケーションホールディングス,,株式会社,東京都,北区,東十条３丁目１０番３６号,,13,117,1140001,,,2025-09-30,合併による解散等,4011501015399,令和７年９月３０日東京都北区東十条三丁目１０番３６号ＴＯＰＰＡＮクロレ株式会社（4011501015399）に合併し解散,2018-01-16,1,,,,,ケージーエデュケーションホールディングス,0
57,1011601014188,登記記録の閉鎖等,0,2025-10-10,2025-09-29,株式会社藤商事,,株式会社,東京都,練馬区,練馬３丁目１８番５号,,13,120,1760001,,,2025-09-29,清算の結了等,,,2015-10-05,1,,,,,フジショウジ,0
61,1011801025002,登記記録の閉鎖等,0,2025-10-10,2025-10-07,株式会社Ｈａｉｒ　Ｍａｎｂｏｕ,,株式会社,東京都,足立区,中川４丁目２０番１号,,13,121,1200002,,,2025-10-07,清算の結了等,,,2015-10-05,1,,,,,ヘアーマンボウ,0
75,1020001010020,登記記録の閉鎖等,0,2025-10-10,2025-09-24,株式会社新日東総業,,株式会社,神奈川県,横浜市南区,山王町３丁目２３番地２－６０４号,,14,105,2320013,,,2025-09-24,清算の結了等,,,2015-10-05,1,,,,,シンニットウソウギョウ,0
76,1020001012784,登記記録の閉鎖等,0,2025-10-10,2025-09-24,共同写真株式会社,,株式会社,神奈川県,横浜市西区,みなとみらい２丁目３番１号,,14,103,2200012,,,2025-09-24,清算の結了等,,,2015-10-05,1,,,,,キョウドウシャシン,0
110,1040001057349,登記記録の閉鎖等,0,2025-10-10,2025-09-08,株式会社マルイ,,株式会社,千葉県,東金市,東金１９７番地３,,12,213,2830802,,,2025-09-08,清算の結了等,,,2015-10-05,1,,,,,マルイ,0
116,1040002017054,登記記録の閉鎖等,0,2025-10-10,2025-09-19,成田コンタクト有限会社,,有限会社,千葉県,千葉市中央区,青葉町１２８１番地１,,12,101,2600852,,,2025-09-19,清算の結了等,,,2015-10-05,1,,,,,ナリタコンタクト,0
129,1070001006443,登記記録の閉鎖等,0,2025-10-10,2025-10-03,オリヒロマテリアル株式会社,,株式会社,群馬県,高崎市,浜川町５９０番地２１,,10,202,3700081,,,2025-10-03,合併による解散等,5070001009046,令和７年１０月１日群馬県高崎市下大島町６１３番地オリヒロプランデュ株式会社（5070001009046）に合併し解散,2015-10-05,1,,,,,オリヒロマテリアル,0
136,1080001008050,登記記録の閉鎖等,0,2025-10-10,2025-10-03,齋藤建設株式会社,,株式会社,静岡県,静岡市清水区,下清水町３番６号,,22,103,4240939,,,2025-10-03,清算の結了等,,,2015-10-05,1,,,,,サイトウケンセツ,0
146,1100002000631,登記記録の閉鎖等,0,2025-10-10,2025-10-06,有限会社内堀工務店,,有限会社,長野県,長野市,稲里町下氷鉋９５２番地５,,20,201,3812211,,,2025-10-06,清算の結了等,,,2015-10-05,1,,,,,ウチボリコウムテン,0
148,1100002017758,登記記録の閉鎖等,0,2025-10-10,2025-10-06,有限会社イーティーシー二十一プロジェクト,,有限会社,長野県,中野市,大字吉田１０４５番地２,,20,211,3830015,,,2025-10-06,清算の結了等,,,2015-10-05,1,,,,,イーティーシーニジュウイチプロジェクト,0
156,1120001006603,登記記録の閉鎖等,0,2025-10-10,2025-10-01,ヤマト家具総合株式会社,,株式会社,大阪府,大阪市阿倍野区,天王寺町北３丁目７番１７号,,27,119,5450001,,,2025-10-01,清算の結了等,,,2015-10-05,1,,,,,ヤマトカグソウゴウ,0
184,1130001002790,登記記録の閉鎖等,0,2025-10-10,2025-10-07,岸田株式会社,,株式会社,京都府,京都市上京区,五辻通智恵光院西入五辻町８０番地,,26,102,6028446,,,2025-10-07,清算の結了等,,,2015-10-05,1,,,,,キシダ,0
196,1140005008585,登記記録の閉鎖等,0,2025-10-10,2025-10-03,農事組合法人後川特産物加工組合,,その他の設立登記法人,兵庫県,丹波篠山市,後川上７番地,,28,221,6692422,,,2025-10-03,清算の結了等,,,2015-10-05,1,,,,,シツカワトクサンブツカコウクミアイ,0
198,1150005008618,登記記録の閉鎖等,0,2025-10-10,2025-10-06,一般社団法人ヤマト,,その他の設立登記法人,奈良県,桜井市,大字桜井９１９番地,,29,206,6330091,,,2025-10-06,清算の結了等,,,2015-10-05,1,,,,,ヤマト,0
199,1160001001303,登記記録の閉鎖等,0,2025-10-10,2025-10-07,株式会社月乃家,,株式会社,滋賀県,大津市,石山寺１丁目２番１５号,,25,201,5200861,,,2025-10-07,清算の結了等,,,2015-10-05,1,,,,,,0
210,1180001151757,登記記録の閉鎖等,0,2025-10-10,2025-09-26,株式会社ＴＯＧＥＴＨＥＲ,,株式会社,愛知県,名古屋市中区,新栄１丁目３番２号エムテック東新町ビル４Ｂ,,23,106,4600007,,,2025-09-26,清算の結了等,,,2022-06-14,1,,,,,トゥゲザー,0
211,1180001160139,登記記録の閉鎖等,0,2025-10-10,2025-09-25,株式会社Ｄｉａｍｏｎｄ　Ｈａｎｄｓ,,株式会社,愛知県,名古屋市中区,栄５丁目２６番３６号,,23,106,4600008,,,2025-09-25,清算の結了等,,,2024-02-14,1,,,,,ダイヤモンドハンズ,0
213,1180002088511,登記記録の閉鎖等,0,2025-10-10,2025-09-22,有限会社川西海事,,有限会社,愛知県,知多市,岡田字下中田５番地の１,,23,224,4780021,,,2025-09-22,清算の結了等,,,2015-10-05,1,,,,,カワニシカイジ,0
232,1240002012233,登記記録の閉鎖等,0,2025-10-10,2025-10-07,有限会社西村・田中建築設計事務所,,有限会社,広島県,広島市西区,楠木町１丁目１５番１０号,,34,104,7330002,,,2025-10-07,清算の結了等,,,2015-10-05,1,,,,,ニシムラタナカケンチクセッケイジムショ,0
233,1240002014618,登記記録の閉鎖等,0,2025-10-10,2025-10-06,有限会社二葉屋,,有限会社,広島県,広島市安佐南区,山本１丁目７番２９－２号,,34,105,7310137,,,2025-10-06,清算の結了等,,,2015-10-05,1,,,,,フタバヤ,0
235,1250002019748,登記記録の閉鎖等,0,2025-10-10,2025-10-06,有限会社田尾商事,,有限会社,山口県,柳井市,伊保庄５２１３番地の２,,35,212,7421352,,,2025-10-06,清算の結了等,,,2015-10-05,1,,,,,タオショウジ,0
249,1340002001093,登記記録の閉鎖等,0,2025-10-10,2025-10-02,有限会社荒河工務店,,有限会社,鹿児島県,鹿児島市,玉里団地１丁目７０番１９号,,46,201,8900011,,,2025-10-02,清算の結了等,,,2015-10-05,1,,,,,アラカワコウムテン,0
269,1420001010764,登記記録の閉鎖等,0,2025-10-10,2025-09-26,株式会社リアルエージェント,,株式会社,東京都,中野区,東中野４丁目３０番１８号,,13,114,1640003,,,2025-09-26,清算の結了等,,,2015-10-05,1,,,,,,0
280,1460102000933,登記記録の閉鎖等,0,2025-10-10,2025-10-03,有限会社キュート,,有限会社,北海道,帯広市,西四条南８丁目２番地,,01,207,0800014,,,2025-10-03,清算の結了等,,,2015-10-05,1,,,,,キュート,0
283,1470002007516,登記記録の閉鎖等,0,2025-10-10,2025-10-07,ルージュフォンセフジタニ有限会社,,有限会社,香川県,高松市,片原町１番地６,,37,201,7600040,,,2025-10-07,清算の結了等,,,2015-10-05,1,,,,,ルージュフォンセフジタニ,0
290,1500002004906,登記記録の閉鎖等,0,2025-10-10,2025-10-06,有限会社中須賀モータース,,有限会社,愛媛県,松山市,来住町１０番地,,38,201,7911102,,,2025-10-06,清算の結了等,,,2015-10-05,1,,,,,ナカスカモータース,0
315,2010502016862,登記記録の閉鎖等,0,2025-10-10,2025-09-16,有限会社武藤製作所,,有限会社,千葉県,柏市,宿連寺４４４番地の９,,12,217,2770826,,,2025-09-16,清算の結了等,,,2015-10-05,1,,,,,ムトウセイサクショ,0
346,2011701026124,登記記録の閉鎖等,0,2025-10-10,2025-09-30,株式会社ＷＩＮ　ＭＡＮＡＧＥＭＥＮＴ,,株式会社,東京都,江戸川区,船堀４丁目８番１号,,13,123,1340091,,,2025-09-30,合併による解散等,6011701016831,令和７年９月３０日東京都江戸川区船堀四丁目８番１号株式会社ＷＩＮ（6011701016831）に合併し解散,2023-04-06,1,,,,,ウィンマネジメント,0
352,2011802030272,登記記録の閉鎖等,0,2025-10-10,2025-10-08,有限会社ＦＫＩ,,有限会社,東京都,足立区,辰沼２丁目１８番１８－１３０７号,,13,121,1210054,,,2025-10-08,合併による解散等,3030001036962,令和７年９月３０日埼玉県三郷市東町２８７番地深沢工業株式会社（3030001036962）に合併し解散,2015-10-05,1,,,,,エフケイアイ,0
358,2013102006507,登記記録の閉鎖等,0,2025-10-10,2025-10-07,有限会社ナミキ燃料,,有限会社,東京都,青梅市,裏宿町６５２番地,,13,205,1980088,,,2025-10-07,清算の結了等,,,2015-10-05,1,,,,,ナミキネンリョウ,0
385,2021002063031,登記記録の閉鎖等,0,2025-10-10,2025-09-16,有限会社浦塚商事,,有限会社,神奈川県,横須賀市,大矢部３丁目３番９号,,14,201,2380024,,,2025-09-16,清算の結了等,,,2015-10-05,1,,,,,ウラツカショウジ,0
394,2030002095612,登記記録の閉鎖等,0,2025-10-10,2025-10-02,エイケイ電機有限会社,,有限会社,埼玉県,東松山市,大字大谷４５３２番地２,,11,212,3550008,,,2025-10-02,清算の結了等,,,2015-10-05,1,,,,,エイケイデンキ,0
405,2040002096915,登記記録の閉鎖等,0,2025-10-10,2025-09-11,有限会社クスリのらくだ,,有限会社,千葉県,野田市,花井１丁目２１番地１８,,12,208,2780026,,,2025-09-11,清算の結了等,,,2015-10-05,1,,,,,クスリノラクダ,0
406,2040002100296,登記記録の閉鎖等,0,2025-10-10,2025-09-09,有限会社田中豆腐店,,有限会社,千葉県,南房総市,高崎１２７９番地,,12,234,2992223,,,2025-09-09,清算の結了等,,,2015-10-05,1,,,,,タナカトウフテン,0
409,2050001046184,登記記録の閉鎖等,0,2025-10-10,2025-10-01,株式会社令和,,株式会社,茨城県,ひたちなか市,笹野町２丁目１７番１０号,,08,221,3120018,,,2025-10-01,清算の結了等,,,2019-06-28,1,,,,,レイワ,0
416,2070001035540,登記記録の閉鎖等,0,2025-10-10,2025-10-03,株式会社諸町興業,,株式会社,群馬県,邑楽郡明和町,新里５９０番地２,,10,522,3700708,,,2025-10-03,清算の結了等,,,2019-03-11,1,,,,,モロマチコウギョウ,0
421,2080102013171,登記記録の閉鎖等,0,2025-10-10,2025-10-06,有限会社アイ・ディ・イー,,有限会社,静岡県,富士市,三ツ沢８４０番地の４,,22,210,4170855,,,2025-10-06,清算の結了等,,,2015-10-05,1,,,,,,0
423,2090003002066,登記記録の閉鎖等,0,2025-10-10,2025-10-02,合同会社テイク,,合同会社,山梨県,甲府市,東光寺３丁目１２番２５号,,19,201,4000807,,,2025-10-02,清算の結了等,,,2022-03-25,1,,,,,テイク,0
427,2100002026915,登記記録の閉鎖等,0,2025-10-10,2025-10-07,有限会社深山,,有限会社,長野県,北安曇郡白馬村,大字北城１０９２０番地,,20,485,3999301,,,2025-10-07,清算の結了等,,,2015-10-05,1,,,,,ミヤマ,0
462,2130001072874,登記記録の閉鎖等,0,2025-10-10,2025-10-07,サクセスキャリア株式会社,,株式会社,京都府,京都市下京区,竹屋之町２５２－１四条烏丸アーバンライフビル５０４号室,,26,106,6008090,,,2025-10-07,清算の結了等,,,2022-10-21,1,,,,,サクセスキャリア,0
468,2140001097029,登記記録の閉鎖等,0,2025-10-10,2025-10-02,株式会社ＡＲテクノ,,株式会社,兵庫県,尼崎市,東園田町６丁目１２０番地の１０,,28,202,6610953,,,2025-10-02,清算の結了等,,,2015-10-05,1,,,,,エイアールテクノ,0
487,2180001064891,登記記録の閉鎖等,0,2025-10-10,2025-09-25,株式会社サイドバック,,株式会社,愛知県,名古屋市千種区,千代が丘１番地千代が丘団地１０８号棟１１０９号,,23,101,4640005,,,2025-09-25,清算の結了等,,,2015-10-05,1,,,,,サイドバック,0
488,2180001069593,登記記録の閉鎖等,0,2025-10-10,2025-09-22,株式会社ＫＭＣ,,株式会社,愛知県,豊明市,栄町西大根７９番地９,,23,229,4701167,,,2025-09-22,清算の結了等,,,2015-10-05,1,,,,,ケーエムシー,0
501,2180303005825,登記記録の閉鎖等,0,2025-10-10,2025-09-30,合同会社三制電気,,合同会社,愛知県,安城市,東栄町４丁目６番１５号,,23,212,4460007,,,2025-09-30,清算の結了等,,,2023-09-07,1,,,,,サンセイデンキ,0
519,2240001029450,登記記録の閉鎖等,0,2025-10-10,2025-10-03,小原ブロック株式会社,,株式会社,広島県,福山市,神辺町大字川北９５６番地９,,34,207,7202123,,,2025-10-03,清算の結了等,,,2015-10-05,1,,,,,オバラブロック,0
523,2250001008742,登記記録の閉鎖等,0,2025-10-10,2025-10-06,株式会社関西商工社,,株式会社,山口県,周南市,渚町４９００番地５,,35,215,7460005,,,2025-10-06,合併による解散等,4120001102688,令和７年１０月１日大阪市西区新町一丁目１６番１号大陽日酸ガス＆ウェルディング株式会社（4120001102688）に合併し解散,2015-10-05,1,,,,,カンサイショウコウシャ,0
531,2280002008631,登記記録の閉鎖等,0,2025-10-10,2025-10-07,有限会社フレンズ,,有限会社,島根県,浜田市,上府町イ２６７６番地,,32,202,6970005,,,2025-10-07,清算の結了等,,,2015-10-05,1,,,,,フレンズ,0
534,2290001037044,登記記録の閉鎖等,0,2025-10-10,2025-10-01,西鉄バス宗像株式会社,,株式会社,福岡県,宗像市,陵厳寺４丁目７番１号,,40,220,8114145,,,2025-10-01,合併による解散等,4290001009413,令和７年１０月１日福岡市中央区天神一丁目１１番１号西日本鉄道株式会社（4290001009413）に合併し解散,2015-10-05,1,,,,,,0
549,2330001002191,登記記録の閉鎖等,0,2025-10-10,2025-10-01,株式会社ジェームスケイティ,,株式会社,熊本県,熊本市南区,野田３丁目６番１０号,,43,104,8614114,,,2025-10-01,合併による解散等,1330001001558,令和７年１０月１日熊本市南区日吉二丁目１０番１号熊本トヨタホールディングス株式会社（1330001001558）に合併し解散,2015-10-05,1,,,,,ジェームスケイティ,0
556,2380001002988,登記記録の閉鎖等,0,2025-10-10,2025-10-07,株式会社日ピス福島製造所,,株式会社,福島県,伊達郡川俣町,飯坂字前中居１番地,,07,308,9601401,,,2025-10-07,合併による解散等,8030001006457,令和７年１０月１日さいたま市中央区本町東五丁目１２番１０号日本ピストンリング株式会社（8030001006457）に合併し解散,2015-10-05,1,,,,,ニッピスフクシマセイゾウショ,0
570,2430003001586,登記記録の閉鎖等,0,2025-10-10,2025-09-26,合同会社アイ・ディ・エル,,合同会社,北海道,札幌市中央区,北三条東２丁目２,,01,101,0600033,,,2025-09-26,清算の結了等,,,2015-10-05,1,,,,,アイディエル,0
576,3010001013724,登記記録の閉鎖等,0,2025-10-10,2025-09-30,関西共栄興行株式会社,,株式会社,東京都,千代田区,有楽町１丁目２番２号,,13,101,1000006,,,2025-09-30,清算の結了等,,,2015-10-05,1,,,,,カンサイキョウエイコウギョウ,0
585,3010001246290,登記記録の閉鎖等,0,2025-10-10,2025-09-18,株式会社ＪＣＤＤ,,株式会社,東京都,中央区,日本橋２丁目５番１号,,13,102,1030027,,,2025-09-18,清算の結了等,,,2024-07-05,1,,,,,ジェーシーディーディー,0
597,3010401021079,登記記録の閉鎖等,0,2025-10-10,2025-09-08,株式会社永倉コミュニティ,,株式会社,東京都,港区,高輪３丁目１２番１３号,,13,103,1080074,,,2025-09-08,清算の結了等,,,2015-10-05,1,,,,,ナガクラコミュニティ,0
607,3010405016307,登記記録の閉鎖等,0,2025-10-10,2025-09-08,一般社団法人フェニックス国際税務研究所,,その他の設立登記法人,東京都,港区,西新橋２丁目１９番４号喜助西新橋ビル３階,,13,103,1050003,,,2025-09-08,清算の結了等,,,2017-12-13,1,,,,,フェニックスコクサイゼイムケンキュウジョ,0
621,3010902009259,登記記録の閉鎖等,0,2025-10-10,2025-10-09,有限会社太陽のひろば,,有限会社,東京都,世田谷区,砧５丁目２４番６号,,13,112,1570073,,,2025-10-09,清算の結了等,,,2015-10-05,1,,,,,タイヨウノヒロバ,0
642,3011201000751,登記記録の閉鎖等,0,2025-10-10,2025-10-01,株式会社エス・エム・アイ,,株式会社,東京都,杉並区,上井草２丁目４３番４号,,13,115,1670023,,,2025-10-01,清算の結了等,,,2015-10-05,1,,,,,エスエムアイ,0
644,3011202005584,登記記録の閉鎖等,0,2025-10-10,2025-09-29,有限会社ますもと,,有限会社,東京都,中野区,上高田４丁目３７番５号,,13,114,1640002,,,2025-09-29,清算の結了等,,,2015-10-05,1,,,,,マスモト,0
646,3011205001465,登記記録の閉鎖等,0,2025-10-10,2025-09-29,勤労者総合サービス企業組合,,その他の設立登記法人,東京都,中野区,中野５丁目６７番６号ビジネスハイツ中野７０２号,,13,114,1640001,,,2025-09-29,清算の結了等,,,2015-10-05,1,,,,,キンロウシャソウゴウサービス,0
651,3011501029210,登記記録の閉鎖等,0,2025-10-10,2025-10-02,ＤＳＬＪＡＰＡＮ株式会社,,株式会社,東京都,荒川区,西日暮里５丁目３３番３号横地ビル１階,,13,118,1160013,,,2025-10-02,清算の結了等,,,2023-04-26,1,,,,,ディーエスエルジャパン,0
663,3020001044116,登記記録の閉鎖等,0,2025-10-10,2025-09-22,株式会社東京エコー,,株式会社,神奈川県,横浜市港北区,箕輪町３丁目２２番２９号,,14,109,2230051,,,2025-09-22,清算の結了等,,,2015-10-05,1,,,,,トウキョウエコー,0
664,3020001049718,登記記録の閉鎖等,0,2025-10-10,2025-09-22,株式会社アール・ティ・エス,,株式会社,神奈川県,横浜市都筑区,南山田２丁目２４番６の１４０７号,,14,118,2240029,,,2025-09-22,清算の結了等,,,2015-10-05,1,,,,,アールティエス,0
671,3020001138099,登記記録の閉鎖等,0,2025-10-10,2025-09-22,チャイルドリームスポーツ株式会社,,株式会社,神奈川県,川崎市麻生区,片平６丁目５番１－２０６号,,14,137,2150023,,,2025-09-22,清算の結了等,,,2020-10-14,1,,,,,チャイルドリームスポーツ,0
675,3020002072438,登記記録の閉鎖等,0,2025-10-10,2025-09-24,有限会社パルミーノ,,有限会社,神奈川県,横浜市都筑区,荏田東４丁目５番１８号,,14,118,2240006,,,2025-09-24,清算の結了等,,,2015-10-05,1,,,,,パルミーノ,0
676,3020003020569,登記記録の閉鎖等,0,2025-10-10,2025-09-19,小木田プラスター合同会社,,合同会社,神奈川県,横浜市泉区,中田西３丁目２０番１８号,,14,116,2450015,,,2025-09-19,清算の結了等,,,2021-09-30,1,,,,,オギタプラスター,0
680,3021001025857,登記記録の閉鎖等,0,2025-10-10,2025-10-01,株式会社鴻森神奈川,,株式会社,神奈川県,大和市,西鶴間１丁目１０番１３号ライオンズプラザ鶴間９０１号室,,14,213,2420005,,,2025-10-01,合併による解散等,9021001056797,令和７年１０月１日神奈川県大和市西鶴間一丁目１０番１３号ライオンズプラザ鶴間９０１号室株式会社ＫＯＭＯＲＩ（9021001056797）に合併し解散,2015-10-05,1,,,,,コウノモリカナガワ,0
686,3030001090423,登記記録の閉鎖等,0,2025-10-10,2025-10-02,株式会社グレースプリント,,株式会社,埼玉県,飯能市,大字岩沢２５６番地,,11,209,3570023,,,2025-10-02,清算の結了等,,,2015-10-05,1,,,,,グレースプリント,0
688,3030001103787,登記記録の閉鎖等,0,2025-10-10,2025-10-07,株式会社カイコー,,株式会社,埼玉県,さいたま市南区,文蔵１丁目８番８号,,11,108,3360025,,,2025-10-07,合併による解散等,3120001224129,令和７年１０月１日大阪府枚方市春日西町二丁目２７番３３号ユカエンジニアリング株式会社（3120001224129）に合併し解散,2015-10-05,1,,,,,カイコー,0
703,3040001083129,登記記録の閉鎖等,0,2025-10-10,2025-09-10,千美工業株式会社,,株式会社,千葉県,千葉市緑区,おゆみ野中央１丁目８番地１５,,12,105,2660032,,,2025-09-10,清算の結了等,,,2015-10-05,1,,,,,センビコウギョウ,0
717,3050001024759,登記記録の閉鎖等,0,2025-10-10,2025-10-01,Ｆ・Ｈマネジメント株式会社,,株式会社,茨城県,日立市,留町１７５７番地,,08,202,3191231,,,2025-10-01,清算の結了等,,,2015-10-05,1,,,,,エフエイチマネジメント,0
734,3070005004284,登記記録の閉鎖等,0,2025-10-10,2025-10-03,伊勢崎たばこ販売協同組合,,その他の設立登記法人,群馬県,伊勢崎市,東本町３５番地６,,10,204,3720025,,,2025-10-03,清算の結了等,,,2015-10-05,1,,,,,イセサキタバコハンバイ,0
737,3080101009681,登記記録の閉鎖等,0,2025-10-10,2025-10-06,株式会社マグナプロセス,,株式会社,静岡県,富士市,中里字水門前２６２６番地の４０富士市浮島工業団地内,,22,210,4170826,,,2025-10-06,清算の結了等,,,2015-10-05,1,,,,,,0
743,3080402005017,登記記録の閉鎖等,0,2025-10-10,2025-10-01,有限会社中遠商会,,有限会社,静岡県,浜松市中央区,上島５丁目１８番１５号,,22,138,4338122,,,2025-10-01,清算の結了等,,,2015-10-05,1,,,,,チュウエンショウカイ,0
757,3120001246387,登記記録の閉鎖等,0,2025-10-10,2025-10-01,傑立株式会社,,株式会社,大阪府,大阪市淀川区,東三国６丁目１５番５号,,27,123,5320002,,,2025-10-01,清算の結了等,,,2022-06-02,1,,,,,ケツリツ,0
770,3120005004972,登記記録の閉鎖等,0,2025-10-10,2025-10-07,医療法人かめおかクリニック,,その他の設立登記法人,大阪府,大阪市鶴見区,諸口３丁目４番３８号,,27,124,5380051,,,2025-10-07,清算の結了等,,,2015-10-05,1,,,,,カメオカクリニック,0
778,3130001077443,登記記録の閉鎖等,0,2025-10-10,2025-10-07,株式会社三浦企画,,株式会社,京都府,京都市中京区,御池通東洞院東入笹屋町４３６永和御池ビル６０６号,,26,104,6048187,,,2025-10-07,清算の結了等,,,2024-07-16,1,,,,,ミウラキカク,0
784,3130002015798,登記記録の閉鎖等,0,2025-10-10,2025-10-01,有限会社エコナカジマ,,有限会社,滋賀県,大津市,稲葉台３番３号,,25,201,5200065,,,2025-10-01,清算の結了等,,,2015-10-05,1,,,,,エコナカジマ,0
793,3140001068474,登記記録の閉鎖等,0,2025-10-10,2025-10-01,株式会社絹田熔工,,株式会社,兵庫県,西宮市,鳴尾浜１丁目６番地の１０,,28,204,6638142,,,2025-10-01,清算の結了等,,,2015-10-05,1,,,,,キヌタヨウコウ,0
805,3160003001613,登記記録の閉鎖等,0,2025-10-10,2025-10-06,合同会社ミルキーウェイ,,合同会社,滋賀県,米原市,顔戸１３５４番地２０,,25,214,5210072,,,2025-10-06,清算の結了等,,,2018-01-23,1,,,,,ミルキーウェイ,0
824,3180302017630,登記記録の閉鎖等,0,2025-10-10,2025-10-02,有限会社エーアンドケイ,,有限会社,愛知県,安城市,今池町２丁目１番１号,,23,212,4460071,,,2025-10-02,清算の結了等,,,2015-10-05,1,,,,,エーアンドケイ,0
843,3250002008204,登記記録の閉鎖等,0,2025-10-10,2025-10-06,有限会社いろは詩,,有限会社,山口県,下関市,椋野町１丁目１８番５４号,,35,201,7510816,,,2025-10-06,清算の結了等,,,2015-10-05,1,,,,,,0
852,3290001053313,登記記録の閉鎖等,0,2025-10-10,2025-09-11,みやまサービス株式会社,,株式会社,福岡県,みやま市,瀬高町下庄３４７番地７ピュアサファイアＩ２０２号,00112513,40,229,8350024,,,2025-09-11,清算の結了等,,,2015-10-05,1,,,,,,0
858,3300002000584,登記記録の閉鎖等,0,2025-10-10,2025-10-08,有限会社サンハイツ,,有限会社,佐賀県,佐賀市,大和町大字八反原６８１番地１,,41,201,8400215,,,2025-10-08,清算の結了等,,,2015-10-05,1,,,,,サンハイツ,0
859,3300003001986,登記記録の閉鎖等,0,2025-10-10,2025-10-08,佳佳食品合同会社,,合同会社,佐賀県,佐賀市,新郷本町４番２２号,,41,201,8400017,,,2025-10-08,清算の結了等,,,2023-07-07,1,,,,,ヨシヨシショクヒン,0
863,3310005003204,登記記録の閉鎖等,0,2025-10-10,2025-10-09,浄雲寺,,その他の設立登記法人,長崎県,西海市,崎戸町蠣浦郷１７６７番地,,42,212,8573101,,,2025-10-09,清算の結了等,,,2015-10-05,1,,,,,ジョウウンジ,0
880,3370001050145,登記記録の閉鎖等,0,2025-10-10,2025-09-29,ノーステック株式会社,,株式会社,宮城県,白石市,大鷹沢大町字矢ノ口下５１番地の１,,04,206,9890212,,,2025-09-29,清算の結了等,,,2023-07-11,1,,,,,ノーステック,0
890,3430001075508,登記記録の閉鎖等,0,2025-10-10,2025-09-30,株式会社ワンダービルド,,株式会社,東京都,千代田区,神田小川町１丁目１番１５号,,13,101,1010052,,,2025-09-30,合併による解散等,9430001029524,令和７年９月３０日東京都千代田区神田小川町一丁目１番１５号北海道フードフロンティア株式会社（9430001029524）に合併し解散,2017-12-18,1,,,,,ワンダービルド,0
971,4011403001910,登記記録の閉鎖等,0,2025-10-10,2025-10-02,合同会社ＹＥＳＳ,,合同会社,東京都,板橋区,仲宿４４－４－２Ｆ,,13,119,1730005,,,2025-10-02,清算の結了等,,,2016-08-19,1,,,,,イエス,0
990,4012701016674,登記記録の閉鎖等,0,2025-10-10,2025-10-03,株式会社Ｇｉｖｅｓｕｒｕ,,株式会社,東京都,東久留米市,中央町３丁目１２番２１号,,13,222,2030054,,,2025-10-03,清算の結了等,,,2021-09-21,1,,,,,ギブスル,0
1016,4030001090406,登記記録の閉鎖等,0,2025-10-10,2025-10-02,栄産業株式会社,,株式会社,埼玉県,飯能市,大字岩沢２５６番地,,11,209,3570023,,,2025-10-02,清算の結了等,,,2015-10-05,1,,,,,サカエサンギョウ,0
1037,4040001130879,登記記録の閉鎖等,0,2025-10-10,2025-09-08,株式会社アミダス,,株式会社,千葉県,八千代市,八千代台北５丁目６番地３,,12,221,2760031,,,2025-09-08,清算の結了等,,,2023-11-10,1,,,,,アミダス,0
1042,4040003001145,登記記録の閉鎖等,0,2025-10-10,2025-09-11,海老原保全合資会社,,合資会社,千葉県,市川市,八幡５丁目２０番２号,,12,203,2720021,,,2025-09-11,清算の結了等,,,2015-10-05,1,,,,,エビハラホゼン,0
1048,4050001022828,登記記録の閉鎖等,0,2025-10-10,2025-10-01,東京南福山通運株式会社,,株式会社,東京都,江東区,越中島３丁目６番１５号,,13,108,1350044,,,2025-10-01,合併による解散等,8010601040551,令和７年１０月１日東京都江東区越中島三丁目６番１５号東京福山通運株式会社（8010601040551）に合併し解散,2015-10-05,1,,,,,トウキョウミナミフクヤマツウウン,0
1053,4070001025069,登記記録の閉鎖等,0,2025-10-10,2025-10-03,株式会社慎晴産業,,株式会社,群馬県,渋川市,八木原３５５番地５,,10,208,3770003,,,2025-10-03,清算の結了等,,,2015-10-05,1,,,,,シンセイサンギョウ,0
1055,4080001014566,登記記録の閉鎖等,0,2025-10-10,2025-10-03,株式会社Ｄ・Ｌサポート,,株式会社,静岡県,島田市,阿知ケ谷２５７番地の７,,22,209,4270006,,,2025-10-03,清算の結了等,,,2015-10-05,1,,,,,ディーエルサポート,0
1063,4100002004687,登記記録の閉鎖等,0,2025-10-10,2025-10-07,有限会社牧野謙三理容院,,有限会社,長野県,長野市,若里４丁目１６番１６号,,20,201,3800928,,,2025-10-07,清算の結了等,,,2015-10-05,1,,,,,マキノケンゾウリヨウイン,0
1064,4110001022375,登記記録の閉鎖等,0,2025-10-10,2025-09-12,株式会社協同組合印刷所,,株式会社,新潟県,長岡市,町田町６１１番地５,,15,202,9401111,,,2025-09-12,清算の結了等,,,2015-10-05,1,,,,,キョウドウクミアイインサツジョ,0
1086,4120902011335,登記記録の閉鎖等,0,2025-10-10,2025-09-22,有限会社マイベックス,,有限会社,大阪府,高槻市,柳川町２丁目８番８号,,27,207,5690853,,,2025-09-22,清算の結了等,,,2015-10-05,1,,,,,マイベックス,0
1093,4130002032165,登記記録の閉鎖等,0,2025-10-10,2025-10-01,有限会社文善,,有限会社,京都府,宮津市,字白柏１３３４番地,,26,205,6260011,,,2025-10-01,清算の結了等,,,2015-10-05,1,,,,,,0
1107,4160003001505,登記記録の閉鎖等,0,2025-10-10,2025-09-29,合同会社リベラ,,合同会社,滋賀県,大津市,粟津町１３番７－４１０号,,25,201,5200832,,,2025-09-29,清算の結了等,,,2017-05-10,1,,,,,リベラ,0
1111,4180001088518,登記記録の閉鎖等,0,2025-10-10,2025-09-22,ＳＫ食品株式会社,,株式会社,愛知県,小牧市,大字入鹿出新田１１６７番地１,,23,219,4850084,,,2025-09-22,清算の結了等,,,2015-10-05,1,,,,,エスケーショクヒン,0
1120,4180301015304,登記記録の閉鎖等,0,2025-10-10,2025-10-01,杉浦鋳工株式会社,,株式会社,愛知県,碧南市,福清水町４丁目７３番地,,23,209,4470048,,,2025-10-01,清算の結了等,,,2015-10-05,1,,,,,スギウラチュウコウ,0
1132,4200003005757,登記記録の閉鎖等,0,2025-10-10,2025-10-06,合同会社ＪＹ・パークス,,合同会社,岐阜県,多治見市,太平町５丁目４５番地サンライズ大国屋館ルイール多治見９０３,,21,204,5070041,,,2025-10-06,清算の結了等,,,2022-12-08,1,,,,,ジェイワイパークス,0
1139,4250002009911,登記記録の閉鎖等,0,2025-10-10,2025-10-07,有限会社高下建築企画,,有限会社,山口県,下関市,乃木浜３丁目２１８４番地,,35,201,7520913,,,2025-10-07,清算の結了等,,,2015-10-05,1,,,,,タカシタケンチクキカク,0
1144,4290002047866,登記記録の閉鎖等,0,2025-10-10,2025-09-03,有限会社クリハラ管工事,,有限会社,福岡県,八女市,立花町北山５６０７番地の７,,40,210,8340085,,,2025-09-03,清算の結了等,,,2015-10-05,1,,,,,クリハラカンコウジ,0
1147,4300001011268,登記記録の閉鎖等,0,2025-10-10,2025-10-08,株式会社フロンティア,,株式会社,佐賀県,佐賀市,高木瀬西４丁目１４番２５号,,41,201,8490921,,,2025-10-08,清算の結了等,,,2018-05-08,1,,,,,フロンティア,0
1150,4310001002019,登記記録の閉鎖等,0,2025-10-10,2025-10-08,松友薬品株式会社,,株式会社,長崎県,長崎市,竹の久保町１番６号,,42,201,8528014,,,2025-10-08,清算の結了等,,,2015-10-05,1,,,,,マツトモヤクヒン,0
1151,4310001012918,登記記録の閉鎖等,0,2025-10-10,2025-10-07,株式会社アミコス,,株式会社,長崎県,佐世保市,上町７番２０号６０１,,42,202,8570058,,,2025-10-07,清算の結了等,,,2015-10-05,1,,,,,アミコス,0
1164,4370001012672,登記記録の閉鎖等,0,2025-10-10,2025-09-30,株式会社ファクト,,株式会社,宮城県,仙台市青葉区,小松島２丁目１１番７号,,04,101,9810905,,,2025-09-30,清算の結了等,,,2015-10-05,1,,,,,ファクト,0
1168,4400001006877,登記記録の閉鎖等,0,2025-10-10,2025-09-30,株式会社三栄,,株式会社,岩手県,宮古市,上鼻２丁目６番１号,,03,202,0270044,,,2025-09-30,清算の結了等,,,2015-10-05,1,,,,,サンエイ,0
1172,4420001013913,登記記録の閉鎖等,0,2025-10-10,2025-10-08,株式会社ｆｕｌｌｓｗｉｎｇ,,株式会社,青森県,弘前市,大字早稲田１丁目９番地１,,02,202,0368087,,,2025-10-08,清算の結了等,,,2015-10-05,1,,,,,フルスイング,0
1173,4430001031757,登記記録の閉鎖等,0,2025-10-10,2025-10-03,株式会社Ｉ・Ｋ,,株式会社,北海道,札幌市中央区,大通西９丁目３番地３３,,01,101,0600042,,,2025-10-03,清算の結了等,,,2015-10-05,1,,,,,アイケー,0
1207,5010005025004,登記記録の閉鎖等,0,2025-10-10,2025-10-07,桜島一丁目開発特定目的会社,,その他の設立登記法人,東京都,千代田区,霞が関３丁目２番５号,,13,101,1000013,,,2025-10-07,清算の結了等,,,2016-02-29,1,,,,,サクラジマイッチョウメカイハツ,0
1241,5010901047555,登記記録の閉鎖等,0,2025-10-10,2025-10-08,株式会社１７,,株式会社,東京都,渋谷区,渋谷１丁目４番１号,,13,113,1500002,,,2025-10-08,合併による解散等,5010401130142,令和７年８月３１日東京都港区南青山三丁目１５番６号２Ｆ株式会社ローネス（5010401130142）に合併し解散,2020-12-09,1,,,,,ジュウナナ,0
1253,5011105008105,登記記録の閉鎖等,0,2025-10-10,2025-10-06,一般社団法人東京国際スポーツ医学機構,,その他の設立登記法人,東京都,八王子市,中町５番１号八王子中町ビル６階,,13,201,1920085,,,2025-10-06,清算の結了等,,,2017-11-28,1,,,,,トウキョウコクサイスポーツイガクキコウ,0
1261,5012401021593,登記記録の閉鎖等,0,2025-10-10,2025-09-30,洋和テクニカ株式会社,,株式会社,東京都,武蔵野市,吉祥寺東町２丁目１３番１２号,,13,203,1800002,,,2025-09-30,清算の結了等,,,2015-10-05,1,,,,,ヨウワテクニカ,0
1290,5030001034774,登記記録の閉鎖等,0,2025-10-10,2025-10-06,株式会社岡野石油店,,株式会社,埼玉県,八潮市,大字鶴ケ曽根７１１番地,,11,234,3400802,,,2025-10-06,合併による解散等,4120001055911,令和７年１０月１日大阪市淀川区塚本三丁目４番４号株式会社宇佐美エナジー（4120001055911）に合併し解散,2015-10-05,1,,,,,オカノセキユテン,0
1314,5040002004528,登記記録の閉鎖等,0,2025-10-10,2025-09-11,有限会社サイクルセンター小倉,,有限会社,千葉県,千葉市若葉区,小倉台１丁目１４番１０号,,12,104,2640006,,,2025-09-11,清算の結了等,,,2015-10-05,1,,,,,サイクルセンターオグラ,0
1315,5040002045349,登記記録の閉鎖等,0,2025-10-10,2025-09-05,有限会社協和タイル工業所,,有限会社,千葉県,松戸市,馬橋２９２５番地の１,,12,207,2710051,,,2025-09-05,清算の結了等,,,2015-10-05,1,,,,,キョウワタイルコウギョウショ,0
1316,5040002047097,登記記録の閉鎖等,0,2025-10-10,2025-09-22,有限会社タジマホーム,,有限会社,千葉県,松戸市,小山３１５番地,,12,207,2710093,,,2025-09-22,清算の結了等,,,2015-10-05,1,,,,,タジマホーム,0
1317,5040002099221,登記記録の閉鎖等,0,2025-10-10,2025-09-09,有限会社いわし照,,有限会社,千葉県,館山市,北条２５４２番地,,12,205,2940045,,,2025-09-09,清算の結了等,,,2015-10-05,1,,,,,イワシテル,0
1318,5040003015697,登記記録の閉鎖等,0,2025-10-10,2025-09-11,合同会社グレイスＪ,,合同会社,千葉県,匝瑳市,大寺１８７５番地,,12,235,2892108,,,2025-09-11,清算の結了等,,,2020-07-09,1,,,,,グレイスジェイ,0
1327,5060002033946,登記記録の閉鎖等,0,2025-10-10,2025-10-03,有限会社ジェイケイプロダクツ,,有限会社,栃木県,栃木市,藤岡町富吉１１８６番地３,,09,203,3290311,,,2025-10-03,清算の結了等,,,2015-10-05,1,,,,,ジェイケイプロダクツ,0
1328,5060003003337,登記記録の閉鎖等,0,2025-10-10,2025-10-02,合同会社オールラウンド,,合同会社,栃木県,那須烏山市,藤田６７７番地８,,09,215,3210532,,,2025-10-02,清算の結了等,,,2020-04-08,1,,,,,オールラウンド,0
1334,5070002002909,登記記録の閉鎖等,0,2025-10-10,2025-10-06,有限会社杉本商店,,有限会社,群馬県,前橋市,若宮町２丁目１１番４号,,10,201,3710032,,,2025-10-06,清算の結了等,,,2015-10-05,1,,,,,スギモトショウテン,0
1340,5080101001447,登記記録の閉鎖等,0,2025-10-10,2025-10-07,株式会社沼津駅前賃貸センター,,株式会社,静岡県,沼津市,大手町３丁目２番１８号,,22,203,4100801,,,2025-10-07,合併による解散等,7180301024624,令和７年１０月１日愛知県岡崎市柱西一丁目７番地５株式会社アセットコンサルティング（7180301024624）に合併し解散,2015-10-05,1,,,,,ヌマヅエキマエチンタイセンター,0
1362,5120003024368,登記記録の閉鎖等,0,2025-10-10,2025-10-01,合同会社ＰＡＬＡＣＥ,,合同会社,大阪府,大阪市住之江区,新北島１丁目５番７号,,27,125,5590024,,,2025-10-01,清算の結了等,,,2023-06-23,1,,,,,パレス,0
1370,5120102025944,登記記録の閉鎖等,0,2025-10-10,2025-09-26,有限会社トーホー商会,,有限会社,大阪府,泉大津市,田中町６番１４－１００４,,27,206,5950062,,,2025-09-26,清算の結了等,,,2015-10-05,1,,,,,トーホーショウカイ,0
1379,5130001032470,登記記録の閉鎖等,0,2025-10-10,2025-10-07,株式会社関西リード工業,,株式会社,京都府,宇治市,木幡金草原３７番地の３,,26,204,6110002,,,2025-10-07,清算の結了等,,,2015-10-05,1,,,,,カンサイリード,0
1380,5130001039706,登記記録の閉鎖等,0,2025-10-10,2025-10-06,日本アロイ電極株式会社,,株式会社,京都府,八幡市,内里砂畠１８番地の９,,26,210,6148238,,,2025-10-06,清算の結了等,,,2015-10-05,1,,,,,ニホンアロイデンキョク,0
1398,5180001031294,登記記録の閉鎖等,0,2025-10-10,2025-09-26,中京冷機株式会社,,株式会社,愛知県,名古屋市中村区,則武１丁目１３番９号,,23,105,4530014,,,2025-09-26,清算の結了等,,,2015-10-05,1,,,,,チュウキョウレイキ,0
1411,5180301037925,登記記録の閉鎖等,0,2025-10-10,2025-09-29,株式会社まる,,株式会社,愛知県,知立市,新林町平草１番地９,,23,225,4720017,,,2025-09-29,清算の結了等,,,2023-10-26,1,,,,,マル,0
1418,5200001017233,登記記録の閉鎖等,0,2025-10-10,2025-10-03,日本ライン交通株式会社,,株式会社,岐阜県,岐阜市,鶴田町３丁目７番地の１,,21,201,5008164,,,2025-10-03,合併による解散等,8200001004377,令和７年１０月１日岐阜市鶴田町三丁目７番地１日々石油株式会社（8200001004377）に合併し解散,2015-10-05,1,,,,,ニホンラインコウツウ,0
1421,5200002021770,登記記録の閉鎖等,0,2025-10-10,2025-10-03,有限会社ヤマジョウ清水,,有限会社,岐阜県,土岐市,肥田町肥田１１２０番地,,21,212,5095115,,,2025-10-03,清算の結了等,,,2015-10-05,1,,,,,ヤマジョウシミズ,0
1429,5240002038150,登記記録の閉鎖等,0,2025-10-10,2025-10-06,有限会社徳原総合保険事務所,,有限会社,広島県,廿日市市,四季が丘１丁目２番地１５,,34,213,7380036,,,2025-10-06,清算の結了等,,,2015-10-05,1,,,,,,0
1437,5260002025683,登記記録の閉鎖等,0,2025-10-10,2025-10-01,有限会社クラハシ機工,,有限会社,岡山県,小田郡矢掛町,矢掛１１７８番地３５,,33,461,7141201,,,2025-10-01,清算の結了等,,,2015-10-05,1,,,,,クラハシキコウ,0
1438,5280001004843,登記記録の閉鎖等,0,2025-10-10,2025-10-07,ウェルファ株式会社,,株式会社,島根県,邑智郡邑南町,下田所１０８３番地１,,32,449,6960222,,,2025-10-07,合併による解散等,6120001210811,令和７年１０月１日大阪市中央区谷町二丁目２番２２号株式会社フォルテ（6120001210811）に合併し解散,2015-10-05,1,,,,,ウェルファ,0
1439,5280002011384,登記記録の閉鎖等,0,2025-10-10,2025-10-07,有限会社ソタガスショップ,,有限会社,島根県,雲南市,加茂町宇治１９１番地１,,32,209,6991105,,,2025-10-07,合併による解散等,7270001003662,令和７年１０月１日鳥取県米子市旗ヶ崎２２０１番地１山陰酸素工業株式会社（7270001003662）に合併し解散,2015-10-05,1,,,,,ソタガスショップ,0
1452,5310001003940,登記記録の閉鎖等,0,2025-10-10,2025-10-10,株式会社タイキ,,株式会社,長崎県,長崎市,小ケ倉町２丁目３９８番地４０前田ビル１０２,,42,201,8500961,,,2025-10-10,清算の結了等,,,2015-10-05,1,,,,,タイキ,0
1461,5350002011047,登記記録の閉鎖等,0,2025-10-10,2025-10-03,有限会社ユーアイ運送,,有限会社,宮崎県,日向市,大字日知屋１４２９２番地,,45,206,8830062,,,2025-10-03,清算の結了等,,,2015-10-05,1,,,,,ユーアイウンソウ,0
1474,5430001067453,登記記録の閉鎖等,0,2025-10-10,2025-09-26,株式会社彩生,,株式会社,北海道,札幌市西区,発寒十二条１１丁目３番２０号,,01,107,0630832,,,2025-09-26,清算の結了等,,,2015-10-05,1,,,,,サイセイ,0
1476,5430001089134,登記記録の閉鎖等,0,2025-10-10,2025-10-06,株式会社アイディアル,,株式会社,北海道,札幌市白石区,菊水七条２丁目４番１８号セピア２０２号,,01,104,0030807,,,2025-10-06,清算の結了等,,,2023-05-18,1,,,,,アイディアル,0
1485,5480002008518,登記記録の閉鎖等,0,2025-10-10,2025-10-08,有限会社ＯＨＳ,,有限会社,徳島県,徳島市,南田宮２丁目７番１４号,,36,201,7700004,,,2025-10-08,清算の結了等,,,2015-10-05,1,,,,,オーエイチエス,0
1490,5500002008804,登記記録の閉鎖等,0,2025-10-10,2025-10-07,有限会社やまだ,,有限会社,愛媛県,伊予市,中山町出渕２番耕地１０３番地３,,38,210,7913204,,,2025-10-07,清算の結了等,,,2015-10-05,1,,,,,ヤマダ,0
1497,6010001237782,登記記録の閉鎖等,0,2025-10-10,2025-09-26,株式会社ｅＮＫ　Ｔｈｅｒａｐｅｕｔｉｃｓ,,株式会社,東京都,千代田区,有楽町１丁目１番２号,,13,101,1000006,,,2025-09-26,清算の結了等,,,2023-08-17,1,,,,,イーエヌケイセラピューティクス,0
1509,6010003004677,登記記録の閉鎖等,0,2025-10-10,2025-09-29,富有商事合同会社,,合同会社,東京都,千代田区,外神田２丁目１８番１５号,,13,101,1010021,,,2025-09-29,清算の結了等,,,2015-10-05,1,,,,,フユウショウジ,0
1510,6010003037108,登記記録の閉鎖等,0,2025-10-10,2025-09-29,合同会社ＯＷ２,,合同会社,東京都,千代田区,丸の内２丁目２番１号岸本ビルヂング６Ｆ,,13,101,1000005,,,2025-09-29,清算の結了等,,,2022-03-03,1,,,,,オーダブリューツー,0
1517,6010401074719,登記記録の閉鎖等,0,2025-10-10,2025-09-19,新美美容事業株式会社,,株式会社,東京都,中央区,銀座１丁目３－３Ｇ１ビル７階,,13,102,1040061,,,2025-09-19,清算の結了等,,,2015-10-05,1,,,,,シンビビヨウジギョウ,0
1549,6011402017567,登記記録の閉鎖等,0,2025-10-10,2025-10-02,有限会社京都物産,,有限会社,東京都,板橋区,大山町１５番１０号,,13,119,1730023,,,2025-10-02,清算の結了等,,,2015-10-05,1,,,,,キョウトブッサン,0
1556,6011802028387,登記記録の閉鎖等,0,2025-10-10,2025-10-03,有限会社リトルフラミンゴ,,有限会社,東京都,荒川区,町屋２丁目１６番１５－８０２号,,13,118,1160001,,,2025-10-03,清算の結了等,,,2015-10-05,1,,,,,,0
1558,6012701011129,登記記録の閉鎖等,0,2025-10-10,2025-10-06,株式会社クロス・テクノ・ソリューション,,株式会社,東京都,西東京市,田無町３丁目３番３号,,13,229,1880011,,,2025-10-06,清算の結了等,,,2015-10-05,1,,,,,クロステクノソリューション,0
1560,6013101000713,登記記録の閉鎖等,0,2025-10-10,2025-10-08,並木地所株式会社,,株式会社,東京都,羽村市,小作台２丁目１７番地の１６,,13,227,2050001,,,2025-10-08,清算の結了等,,,2015-10-05,1,,,,,ナミキジショ,0
1564,6020001081560,登記記録の閉鎖等,0,2025-10-10,2025-09-22,株式会社バリューワークコーポレーション,,株式会社,神奈川県,川崎市中原区,小杉町１丁目５２６番地６,,14,133,2110063,,,2025-09-22,清算の結了等,,,2015-10-05,1,,,,,バリューワークコーポレーション,0
1569,6020001131737,登記記録の閉鎖等,0,2025-10-10,2025-09-18,株式会社ユナイテッドエージェンツ,,株式会社,神奈川県,横浜市青葉区,新石川２丁目７番地２－１０２号,,14,117,2250003,,,2025-09-18,清算の結了等,,,2019-06-28,1,,,,,ユナイテッドエージェンツ,0
1579,6021001031101,登記記録の閉鎖等,0,2025-10-10,2025-10-01,株式会社Ｅ．Ｐ．Ｌ,,株式会社,神奈川県,座間市,緑ケ丘１丁目１２番６号,,14,216,2520021,,,2025-10-01,合併による解散等,1021002049659,令和７年１０月１日神奈川県座間市緑ヶ丘一丁目１２番６号株式会社ベネ（1021002049659）に合併し解散,2015-10-05,1,,,,,イーピーエル,0
1589,6030001071585,登記記録の閉鎖等,0,2025-10-10,2025-10-01,株式会社武蔵野リフレッシュサービス,,株式会社,埼玉県,比企郡小川町,大字角山５９番地,,11,343,3550316,,,2025-10-01,清算の結了等,,,2015-10-05,1,,,,,ムサシノリフレッシュサービス,0
1621,6080101009803,登記記録の閉鎖等,0,2025-10-10,2025-10-03,株式会社南富士カントリー倶楽部,,株式会社,静岡県,富士市,大渕１１７０２番地３,,22,210,4170000,,,2025-10-03,清算の結了等,,,2015-10-05,1,,,,,ミナミフジカントリークラブ,0
1622,6080102011766,登記記録の閉鎖等,0,2025-10-10,2025-10-07,有限会社三島駅前賃貸センター,,有限会社,静岡県,三島市,一番町１２番１４号,,22,206,4110036,,,2025-10-07,合併による解散等,7180301024624,令和７年１０月１日愛知県岡崎市柱西一丁目７番地５株式会社アセットコンサルティング（7180301024624）に合併し解散,2015-10-05,1,,,,,ミシマエキマエチンタイセンター,0
1627,6100002032678,登記記録の閉鎖等,0,2025-10-10,2025-10-07,有限会社角八,,有限会社,長野県,伊那市,山寺１９１８番地１,,20,209,3960023,,,2025-10-07,清算の結了等,,,2015-10-05,1,,,,,カクハチ,0
1629,6110003004270,登記記録の閉鎖等,0,2025-10-10,2025-10-02,合同会社フィフティワークス,,合同会社,新潟県,長岡市,大手通２丁目２番地６,,15,202,9400062,,,2025-10-02,清算の結了等,,,2020-09-15,1,,,,,フィフティワークス,0
1631,6120001112529,登記記録の閉鎖等,0,2025-10-10,2025-10-07,Ｇ－ＳＴＡＧＥ・ＪＡＰＡＮ株式会社,,株式会社,東京都,渋谷区,神宮前３丁目２２番１０号,,13,113,1500001,,,2025-10-07,合併による解散等,4120001080884,令和７年１０月１日大阪市中央区内本町二丁目３番１１号株式会社ジェノ（4120001080884）に合併し解散,2015-10-05,1,,,,,ジーステージジャパン,0
1632,6120001138722,登記記録の閉鎖等,0,2025-10-10,2025-10-07,昌栄リネン株式会社,,株式会社,大阪府,堺市西区,草部１２０９番地１,,27,144,5938312,,,2025-10-07,合併による解散等,1120001013418,令和７年１０月１日大阪市北区梅田一丁目１番３号大阪駅前第３ビル２４階ビッグ総合開発株式会社（1120001013418）に合併し解散,2015-10-05,1,,,,,ショウエイリネン,0
1665,6140001035752,登記記録の閉鎖等,0,2025-10-10,2025-10-02,株式会社さくら建設,,株式会社,兵庫県,明石市,大久保町八木７３９番地の１０,,28,203,6740063,,,2025-10-02,清算の結了等,,,2015-10-05,1,,,,,サクラケンセツ,0
1667,6140001057961,登記記録の閉鎖等,0,2025-10-10,2025-10-01,エアシステム株式会社,,株式会社,兵庫県,姫路市,阿保乙１５９番地の１,,28,201,6700944,,,2025-10-01,合併による解散等,8140001060583,令和７年１０月１日兵庫県姫路市阿保乙１５９番地の１日本断熱株式会社（8140001060583）に合併し解散,2015-10-05,1,,,,,エアシステム,0
1691,6180002067584,登記記録の閉鎖等,0,2025-10-10,2025-09-25,有限会社森田電機工業,,有限会社,愛知県,春日井市,大手町１５３９番地,,23,206,4860807,,,2025-09-25,清算の結了等,,,2015-10-05,1,,,,,モリタデンキコウギョウ,0
1702,6190005011101,登記記録の閉鎖等,0,2025-10-10,2025-10-01,土地家屋調査士法人三重登記測量サポート,,その他の設立登記法人,三重県,いなべ市,大安町石榑東１２３３番地１,,24,214,5110264,,,2025-10-01,清算の結了等,,,2017-08-07,1,,,,,ミエトウキソクリョウサポート,0
1705,6200001030615,登記記録の閉鎖等,0,2025-10-10,2025-08-28,株式会社ｎ．ｐ,,株式会社,岐阜県,岐阜市,又丸宮東５４番地２,,21,201,5011155,,,2025-08-28,合併による解散等,2200002002195,令和７年８月２７日岐阜市又丸宮東７番地５株式会社ジゴ（2200002002195）に合併し解散,2015-10-05,1,,,,,エヌピー,0
1708,6200003005441,登記記録の閉鎖等,0,2025-10-10,2025-10-06,合同会社ライズ,,合同会社,岐阜県,羽島市,竹鼻町狐穴３２４５番地１,,21,209,5016232,,,2025-10-06,清算の結了等,,,2022-02-01,1,,,,,ライズ,0
1711,6210001003446,登記記録の閉鎖等,0,2025-10-10,2025-10-01,北陸カラー株式会社,,株式会社,福井県,福井市,毛矢１丁目６番２３号,,18,201,9188003,,,2025-10-01,合併による解散等,8210001015150,令和７年１０月１日福井市毛矢一丁目６番２３号興和江守株式会社（8210001015150）に合併し解散,2015-10-05,1,,,,,ホクリクカラー,0
1713,6240001025900,登記記録の閉鎖等,0,2025-10-10,2025-10-01,サンヨー検査工業株式会社,,株式会社,広島県,呉市,本通１丁目６番１５号,,34,202,7370045,,,2025-10-01,合併による解散等,4320001000095,令和７年１０月１日広島県呉市本通一丁目６番１５号株式会社ＣＸＲプラネット（4320001000095）に合併し解散,2015-10-05,1,,,,,サンヨーケンサコウギョウ,0
1725,6290001012167,登記記録の閉鎖等,0,2025-10-10,2025-10-01,ヤマエレンタリース株式会社,,株式会社,福岡県,福岡市博多区,博多駅南２丁目１番９号,,40,132,8120016,,,2025-10-01,合併による解散等,6290001017158,令和７年１０月１日福岡市博多区博多駅南二丁目１番９号ヤマエオートエナジー株式会社（6290001017158）に合併し解散,2015-10-05,1,,,,,ヤマエレンタリース,0
1729,6290001051223,登記記録の閉鎖等,0,2025-10-10,2025-09-18,株式会社東久ガス,,株式会社,福岡県,久留米市,山本町耳納３０１番地５,,40,203,8390826,,,2025-09-18,清算の結了等,,,2015-10-05,1,,,,,トウキュウガス,0
1758,6390002003196,登記記録の閉鎖等,0,2025-10-10,2025-10-08,有限会社柏倉工業所,,有限会社,山形県,東村山郡中山町,大字長崎４６５５番地の１０,,06,302,9900401,,,2025-10-08,清算の結了等,,,2015-10-05,1,,,,,,0
1769,6430002037347,登記記録の閉鎖等,0,2025-10-10,2025-09-29,有限会社ヘルパーセンターいるか,,有限会社,北海道,札幌市東区,北二十三条東５丁目４番７号コーポ芝７号,,01,103,0650023,,,2025-09-29,清算の結了等,,,2015-10-05,1,,,,,ヘルパーセンターイルカ,0
1787,7010001211539,登記記録の閉鎖等,0,2025-10-10,2025-10-08,株式会社ＧＡＴＨＥＲ,,株式会社,東京都,中央区,銀座６丁目７番８号銀座フロンティアビル２階,,13,102,1040061,,,2025-10-08,清算の結了等,,,2020-08-14,1,,,,,ギャザー,0
1797,7010003035878,登記記録の閉鎖等,0,2025-10-10,2025-09-30,合同会社ＳＡ　ＰＲＯＰＥＲＴＹ７,,合同会社,東京都,中央区,銀座１丁目６番１１号土志田ビルディング３Ｆ,,13,102,1040061,,,2025-09-30,清算の結了等,,,2021-09-17,1,,,,,エスエープロパティセブン,0
1800,7010401152969,登記記録の閉鎖等,0,2025-10-10,2025-08-21,株式会社小さな一歩,,株式会社,東京都,港区,北青山１丁目３番１号,,13,103,1070061,,,2025-08-21,清算の結了等,,,2020-05-26,1,,,,,チイサナイッポ,0
1810,7010405023142,登記記録の閉鎖等,0,2025-10-10,2025-09-09,一般社団法人ｒｅｎｇａプロ第３号,,その他の設立登記法人,東京都,港区,赤坂４丁目１５番１号赤坂ガーデンシティ３階,,13,103,1070052,,,2025-09-09,清算の結了等,,,2024-04-11,1,,,,,レンガプロダイサンゴウ,0
1819,7010805000699,登記記録の閉鎖等,0,2025-10-10,2025-10-02,医療法人財団博栄会,,その他の設立登記法人,東京都,大田区,田園調布１丁目１１番１４号田園調布ハイツＢ１０３号室,,13,111,1450071,,,2025-10-02,清算の結了等,,,2015-10-05,1,,,,,ハクエイカイ,0
1824,7011001004858,登記記録の閉鎖等,0,2025-10-10,2025-09-08,株式会社近江礼一美容室,,株式会社,東京都,渋谷区,神南１丁目５番７号,,13,113,1500041,,,2025-09-08,清算の結了等,,,2015-10-05,1,,,,,オウミレイイチビヨウシツ,0
1826,7011001102884,登記記録の閉鎖等,0,2025-10-10,2025-09-09,株式会社ジオロジック,,株式会社,東京都,渋谷区,神宮前６丁目２５番１６号,,13,113,1500001,,,2025-09-09,合併による解散等,7011001090345,令和７年８月３１日東京都渋谷区神宮前六丁目２５番１６号スマートニュース株式会社（7011001090345）に合併し解散,2015-10-05,1,,,,,ジオロジック,0
1846,7011605002654,登記記録の閉鎖等,0,2025-10-10,2025-10-08,社会保険労務士法人ミライノキ,,その他の設立登記法人,東京都,練馬区,練馬１丁目２０番８号日建練馬ビル２階,,13,120,1760001,,,2025-10-08,清算の結了等,,,2025-06-26,1,,,,,ミライノキ,0
1853,7012701000956,登記記録の閉鎖等,0,2025-10-10,2025-10-03,マルゴ商事株式会社,,株式会社,東京都,小平市,鈴木町２丁目６２１番地の１２,,13,211,1870011,,,2025-10-03,合併による解散等,1012701000490,令和７年１０月１日東京都小平市鈴木町二丁目６２１番地の１２末次興産株式会社（1012701000490）に合併し解散,2015-10-05,1,,,,,マルゴショウジ,0
1867,7020001122074,登記記録の閉鎖等,0,2025-10-10,2025-09-22,トランスフォーム・会津株式会社,,株式会社,神奈川県,横浜市港北区,新横浜２丁目５番地１５,,14,109,2220033,,,2025-09-22,清算の結了等,,,2017-07-06,1,,,,,トランスフォームアイズ,0
1874,7020003017520,登記記録の閉鎖等,0,2025-10-10,2025-10-01,ワイズ・パートナーズ合同会社,,合同会社,沖縄県,中頭郡西原町,字小波津５２６番地２階,,47,329,9030118,,,2025-10-01,清算の結了等,,,2020-03-11,1,,,,,ワイズパートナーズ,0
1924,7050001024565,登記記録の閉鎖等,0,2025-10-10,2025-10-01,株式会社ファーストハート,,株式会社,茨城県,日立市,留町１７５７番地,,08,202,3191231,,,2025-10-01,清算の結了等,,,2015-10-05,1,,,,,ファーストハート,0
1942,7100001021268,登記記録の閉鎖等,0,2025-10-10,2025-10-07,菅沼木材株式会社,,株式会社,長野県,駒ヶ根市,下平９４１番地１,,20,210,3994101,,,2025-10-07,清算の結了等,,,2015-10-05,1,,,,,スガヌマモクザイ,0
1953,7120001028625,登記記録の閉鎖等,0,2025-10-10,2025-10-06,エヌパット株式会社,,株式会社,大阪府,大阪市港区,海岸通４丁目４番１０号,,27,107,5520022,,,2025-10-06,合併による解散等,9010001241947,令和７年１０月１日大阪市港区海岸通四丁目４番１０号エヌパット株式会社（9010001241947）に合併し解散,2015-10-05,1,,,,,エヌパット,0
1955,7120001199185,登記記録の閉鎖等,0,2025-10-10,2025-10-08,株式会社Ｉ．ｆａｒｍ,,株式会社,大阪府,河内長野市,南花台８丁目２番２０号,,27,216,5860077,,,2025-10-08,清算の結了等,,,2016-06-29,1,,,,,アイファーム,0
1997,7180001057742,登記記録の閉鎖等,0,2025-10-10,2025-09-26,株式会社アイセル福祉用品サービス,,株式会社,愛知県,名古屋市熱田区,池内町３番２３号,,23,109,4560005,,,2025-09-26,清算の結了等,,,2015-10-05,1,,,,,アイセルフクシヨウヒンサービス,0
2000,7180001114527,登記記録の閉鎖等,0,2025-10-10,2025-09-24,株式会社Ｏｎｅ　Ｓｔｏｒｙ,,株式会社,愛知県,名古屋市中区,栄３丁目２番３号,,23,106,4600008,,,2025-09-24,清算の結了等,,,2015-10-05,1,,,,,ワンストーリー,0
2002,7180001125747,登記記録の閉鎖等,0,2025-10-10,2025-09-25,株式会社齊藤ホールディングス,,株式会社,愛知県,小牧市,高根１丁目２４９番地４,,23,219,4850803,,,2025-09-25,清算の結了等,,,2016-12-05,1,,,,,サイトウホールディングス,0
2004,7180002013711,登記記録の閉鎖等,0,2025-10-10,2025-09-25,有限会社小島歯科ビル,,有限会社,愛知県,名古屋市南区,柴田本通２丁目２番地,,23,112,4570814,,,2025-09-25,清算の結了等,,,2015-10-05,1,,,,,コジマシカビル,0
2011,7190002004809,登記記録の閉鎖等,0,2025-10-10,2025-10-06,有限会社中森縫製所,,有限会社,三重県,亀山市,加太神武４３２７番地,,24,210,5191126,,,2025-10-06,清算の結了等,,,2015-10-05,1,,,,,ナカモリホウセイショ,0
2012,7190002014948,登記記録の閉鎖等,0,2025-10-10,2025-10-03,伊勢泰平工業有限会社,,有限会社,三重県,多気郡明和町,大字斎宮２８９３番地の２,,24,442,5150321,,,2025-10-03,清算の結了等,,,2015-10-05,1,,,,,イセタイヘイコウギョウ,0
2014,7200001036207,登記記録の閉鎖等,0,2025-10-10,2025-10-06,木曽三川電力みのかも株式会社,,株式会社,岐阜県,美濃加茂市,蜂屋町中蜂屋１３２７番地,,21,211,5050005,,,2025-10-06,清算の結了等,,,2019-05-10,1,,,,,キソサンセンデンリョクミノカモ,0
2022,7240002001032,登記記録の閉鎖等,0,2025-10-10,2025-10-03,有限会社イーゼル,,有限会社,広島県,広島市安佐南区,古市２丁目２３番２０号,,34,105,7310123,,,2025-10-03,清算の結了等,,,2015-10-05,1,,,,,イーゼル,0
2034,7290001041140,登記記録の閉鎖等,0,2025-10-10,2025-10-01,西鉄バス二日市株式会社,,株式会社,福岡県,大野城市,大字牛頸２４７３番１２号,,40,219,8160971,,,2025-10-01,合併による解散等,4290001009413,令和７年１０月１日福岡市中央区天神一丁目１１番１号西日本鉄道株式会社（4290001009413）に合併し解散,2015-10-05,1,,,,,ニシテツバスフツカイチ,0
2060,7390001000953,登記記録の閉鎖等,0,2025-10-10,2025-10-07,鈴木製麺株式会社,00084669,株式会社,山形県,山形市,宮町５丁目４番３１号,,06,201,9900057,,,2025-10-07,清算の結了等,,,2015-10-05,1,,,,,スズキセイメン,0
2061,7390001011942,登記記録の閉鎖等,0,2025-10-10,2025-10-08,株式会社森谷家具センター,,株式会社,山形県,寒河江市,元町２丁目７番地の３,,06,206,9910053,,,2025-10-08,清算の結了等,,,2015-10-05,1,,,,,,0
2062,7400002002047,登記記録の閉鎖等,0,2025-10-10,2025-09-30,有限会社タムラシステム,,有限会社,岩手県,盛岡市,南青山町１７番６号,,03,201,0200134,,,2025-09-30,清算の結了等,,,2015-10-05,1,,,,,タムラシステム,0
2068,7460302004927,登記記録の閉鎖等,0,2025-10-10,2025-10-07,有限会社マルキチ樽見,00091381,有限会社,北海道,斜里郡斜里町,字以久科北６２番地,,01,545,0994126,,,2025-10-07,清算の結了等,,,2015-10-05,1,,,,,マルキチタルミ,0
2073,7500002015740,登記記録の閉鎖等,0,2025-10-10,2025-10-06,有限会社アーキフォルム,,有限会社,愛媛県,新居浜市,庄内町４丁目７番６５号,,38,205,7920811,,,2025-10-06,清算の結了等,,,2015-10-05,1,,,,,アーキフォルム,0
2088,8010001205259,登記記録の閉鎖等,0,2025-10-10,2025-09-26,エルスマイル株式会社,,株式会社,神奈川県,鎌倉市,手広４丁目２４番１５号,,14,204,2480036,,,2025-09-26,清算の結了等,,,2019-11-14,1,,,,,エルスマイル,0
2097,8010003037956,登記記録の閉鎖等,0,2025-10-10,2025-09-24,合同会社生山,,合同会社,熊本県,玉名郡和水町,久伊原２１０５番地４５,,43,369,8650100,,,2025-09-24,清算の結了等,,,2022-06-22,1,,,,,イキヤマ,0
2106,8010401095077,登記記録の閉鎖等,0,2025-10-10,2025-09-22,株式会社Ｈ,,株式会社,神奈川県,横浜市戸塚区,吉田町３０００番地５カンフォーラ１階,,14,110,2440817,,,2025-09-22,合併による解散等,4020001109470,令和７年９月１日横浜市戸塚区吉田町３０００番地５カンフォーラ１階ＯＮＥ株式会社Ｋ（4020001109470）に合併し解散,2015-10-05,1,,,,,エイチ,0
2112,8010405004091,登記記録の閉鎖等,0,2025-10-10,2025-09-30,税理士法人赤坂国際会計事務所,,その他の設立登記法人,東京都,杉並区,宮前１丁目２０番２９－２１０号,,13,115,1680081,,,2025-09-30,清算の結了等,,,2015-10-05,1,,,,,アカサカコクサイカイケイジムショ,0
2114,8010405020543,登記記録の閉鎖等,0,2025-10-10,2025-09-08,ジャパンインフラホールディングス１７号一般社団法人,,その他の設立登記法人,東京都,港区,元赤坂１丁目１番７号,,13,103,1070051,,,2025-09-08,清算の結了等,,,2021-12-28,1,,,,,ジャパンインフラホールディングスジュウナナゴウ,0
2127,8010701034123,登記記録の閉鎖等,0,2025-10-10,2025-10-03,安田管財株式会社,,株式会社,東京都,品川区,西大井１丁目８－２－６０１,,13,109,1400015,,,2025-10-03,清算の結了等,,,2017-05-09,1,,,,,ヤスダカンザイ,0
2150,8011102029349,登記記録の閉鎖等,0,2025-10-10,2025-10-02,有限会社モディファイデザイン,,有限会社,東京都,北区,王子５丁目２５番９－５０３号,,13,117,1140002,,,2025-10-02,清算の結了等,,,2015-10-05,1,,,,,,0
2203,8040002072852,登記記録の閉鎖等,0,2025-10-10,2025-09-08,有限会社神宮薬局,,有限会社,千葉県,市原市,能満１７９４番地,,12,219,2900011,,,2025-09-08,清算の結了等,,,2015-10-05,1,,,,,カミヤヤキョク,0
2226,8120001092678,登記記録の閉鎖等,0,2025-10-10,2025-10-01,株式会社和光菴,,株式会社,大阪府,大阪市天王寺区,東高津町１２番１３－２００９号,,27,109,5430021,,,2025-10-01,清算の結了等,,,2015-10-05,1,,,,,ワコウアン,0
2228,8120001245558,登記記録の閉鎖等,0,2025-10-10,2025-07-22,株式会社ＬＥＭ,,株式会社,大阪府,大阪市平野区,喜連２丁目５－５１白鳥ビル５０３,,27,126,5470027,,,2025-07-22,清算の結了等,,,2022-05-11,1,,,,,レム,0
2232,8120001272882,登記記録の閉鎖等,0,2025-10-10,2025-09-26,芸裳文化伝媒株式会社,,株式会社,大阪府,大阪市阿倍野区,天王寺町南３丁目６番９－５０１号,,27,119,5450002,,,2025-09-26,清算の結了等,,,2025-02-14,1,,,,,ゲイショウブンカデンバイ,0
2249,8120901042955,登記記録の閉鎖等,0,2025-10-10,2025-10-07,株式会社タイムワーク,,株式会社,大阪府,高槻市,唐崎西２丁目２２番２３号,,27,207,5690836,,,2025-10-07,合併による解散等,9160001006204,令和７年９月３０日滋賀県湖南市石部口三丁目６番１号神奈川運送株式会社（9160001006204）に合併し解散,2020-07-08,1,,,,,タイムワーク,0
2250,8120902021446,登記記録の閉鎖等,0,2025-10-10,2025-09-17,有限会社トガノ,,有限会社,大阪府,豊中市,庄内栄町４丁目１番７号,,27,203,5610834,,,2025-09-17,清算の結了等,,,2015-10-05,1,,,,,トガノ,0
2256,8130001036881,登記記録の閉鎖等,0,2025-10-10,2025-10-01,福岡織布株式会社,,株式会社,京都府,木津川市,相楽八ケ坪１番地,,26,214,6190222,,,2025-10-01,合併による解散等,7130001036908,令和７年１０月１日京都府木津川市相楽明后前３番地丸由産業株式会社（7130001036908）に合併し解散,2015-10-05,1,,,,,フクオカショクフ,0
2262,8130005005478,登記記録の閉鎖等,0,2025-10-10,2025-09-10,特定非営利活動法人日本呼吸器外科学会,,その他の設立登記法人,京都府,京都市中京区,御池通高倉西入高宮町２００番地,,26,104,6040835,,,2025-09-10,清算の結了等,,,2015-10-05,1,,,,,ニホンコキュウキゲカガッカイ,0
2266,8140001101395,登記記録の閉鎖等,0,2025-10-10,2025-10-01,株式会社ｉＶＥＮＴＩＡ,,株式会社,兵庫県,明石市,二見町西二見駅前３丁目８６番地,,28,203,6740095,,,2025-10-01,清算の結了等,,,2016-03-15,1,,,,,イベンティア,0
2274,8160001006403,登記記録の閉鎖等,0,2025-10-10,2025-10-06,株式会社アラジン,,株式会社,滋賀県,長浜市,大島町６番地,,25,203,5260066,,,2025-10-06,清算の結了等,,,2015-10-05,1,,,,,アラジン,0
2290,8180301036734,登記記録の閉鎖等,0,2025-10-10,2025-10-01,株式会社おかだ,,株式会社,愛知県,豊橋市,牛川町字洗島６番地１５,,23,201,4400016,,,2025-10-01,清算の結了等,,,2022-10-17,1,,,,,オカダ,0
2296,8190002000419,登記記録の閉鎖等,0,2025-10-10,2025-10-06,有限会社菊一,,有限会社,三重県,津市,幸町１番２３号,,24,201,5140835,,,2025-10-06,清算の結了等,,,2015-10-05,1,,,,,キクイチ,0
2299,8200001043474,登記記録の閉鎖等,0,2025-10-10,2025-10-02,株式会社ＤＲＯＮＥ　Ｄｅｓｉｇｎ,,株式会社,岐阜県,羽島市,足近町市場１２５５番地５,,21,209,5016202,,,2025-10-02,清算の結了等,,,2025-02-27,1,,,,,ドローンデザイン,0
2306,8200002019052,登記記録の閉鎖等,0,2025-10-10,2025-10-03,有限会社広見建設,,有限会社,岐阜県,関市,広見北町３番６号,,21,205,5013261,,,2025-10-03,清算の結了等,,,2015-10-05,1,,,,,ヒロミケンセツ,0
2307,8200003005919,登記記録の閉鎖等,0,2025-10-10,2025-10-06,グランドリーエクステリア合同会社,,合同会社,岐阜県,美濃市,大矢田７４７－１,,21,207,5013771,,,2025-10-06,清算の結了等,,,2023-04-07,1,,,,,グランドリーエクステリア,0
2316,8220001008178,登記記録の閉鎖等,0,2025-10-10,2025-10-06,株式会社住コーポレイション,,株式会社,石川県,金沢市,新保本５丁目１５４番地,,17,201,9218062,,,2025-10-06,清算の結了等,,,2015-10-05,1,,,,,,0
2320,8230001007542,登記記録の閉鎖等,0,2025-10-10,2025-10-03,株式会社藤塚モータース,,株式会社,富山県,下新川郡入善町,上野２６２８番地の３,,16,342,9390642,,,2025-10-03,清算の結了等,,,2015-10-05,1,,,,,フジツカモータース,0
2323,8240001029024,登記記録の閉鎖等,0,2025-10-10,2025-10-01,株式会社中本,,株式会社,広島県,廿日市市,木材港北６番４５号,,34,213,7380021,,,2025-10-01,清算の結了等,,,2015-10-05,1,,,,,ナカモト,0
2324,8240002054954,登記記録の閉鎖等,0,2025-10-10,2025-10-06,有限会社森田商店,,有限会社,広島県,豊田郡大崎上島町,明石１９５６番地,,34,431,7250403,,,2025-10-06,清算の結了等,,,2025-08-28,1,,,,,,0
2327,8260001006194,登記記録の閉鎖等,0,2025-10-10,2025-10-01,松浦建設株式会社,,株式会社,岡山県,岡山市北区,丸の内２丁目１１番２８号,,33,101,7000823,,,2025-10-01,清算の結了等,,,2015-10-05,1,,,,,マツウラケンセツ,0
2329,8270002000930,登記記録の閉鎖等,0,2025-10-10,2025-10-09,有限会社竹本鉄工所,,有限会社,鳥取県,鳥取市,伏野１０７７番地１,,31,201,6890201,,,2025-10-09,清算の結了等,,,2015-10-05,1,,,,,タケモトテッコウショ,0
2332,8280002002042,登記記録の閉鎖等,0,2025-10-10,2025-10-07,有限会社北欧,,有限会社,島根県,松江市,比津町３２８番地６,,32,201,6900863,,,2025-10-07,清算の結了等,,,2015-10-05,1,,,,,ホクオウ,0
2345,8310002010561,登記記録の閉鎖等,0,2025-10-10,2025-10-08,有限会社大建工務店,,有限会社,長崎県,佐世保市,広田３丁目３０番１９号,,42,202,8593223,,,2025-10-08,清算の結了等,,,2015-10-05,1,,,,,ダイケンコウムテン,0
2351,8330002023181,登記記録の閉鎖等,0,2025-10-10,2025-10-01,有限会社旅館わかのや,,有限会社,熊本県,阿蘇郡小国町,大字下城３３９６番地の２,,43,424,8692503,,,2025-10-01,清算の結了等,,,2015-10-05,1,,,,,リョカンワカノヤ,0
2352,8330002030005,登記記録の閉鎖等,0,2025-10-10,2025-09-29,英和建設有限会社,,有限会社,熊本県,球磨郡錦町,大字一武８１８番地,,43,501,8680302,,,2025-09-29,清算の結了等,,,2015-10-05,1,,,,,エイワケンセツ,0
2359,8360001019640,登記記録の閉鎖等,0,2025-10-10,2025-10-03,株式会社ブリエ,,株式会社,沖縄県,那覇市,字小禄９６９番地１,,47,201,9010152,,,2025-10-03,清算の結了等,,,2015-10-05,1,,,,,ブリエ,0
2361,8360003011513,登記記録の閉鎖等,0,2025-10-10,2025-09-30,エステック戸畑合同会社,,合同会社,東京都,中央区,京橋２丁目７番１９号,,13,102,1040031,,,2025-09-30,清算の結了等,,,2021-10-21,1,,,,,エステックトバタ,0
2386,8470001017187,登記記録の閉鎖等,0,2025-10-10,2025-10-08,讃岐液酸株式会社,,株式会社,香川県,坂出市,大屋冨町字釜屋浦１７７７番地１２,,37,203,7620015,,,2025-10-08,合併による解散等,6120001236559,令和７年１０月１日大阪市中央区南船場二丁目１２番８号エア・ウォーター・ガスプロダクツ株式会社（6120001236559）に合併し解散,2018-12-12,1,,,,,サヌキエキサン,0
2387,8470002016270,登記記録の閉鎖等,0,2025-10-10,2025-10-07,有限会社ユーキシステム,,有限会社,香川県,観音寺市,古川町４９１番地３,,37,205,7680023,,,2025-10-07,清算の結了等,,,2015-10-05,1,,,,,ユーキシステム,0
2388,8480002007681,登記記録の閉鎖等,0,2025-10-10,2025-10-09,桑村産業有限会社,,有限会社,徳島県,小松島市,南小松島町３番１９号,,36,203,7730005,,,2025-10-09,清算の結了等,,,2015-10-05,1,,,,,クワムラサンギョウ,0
2389,8500002001277,登記記録の閉鎖等,0,2025-10-10,2025-10-07,有限会社エヒメ管理センター,,有限会社,愛媛県,松山市,枝松５丁目３番３１号,,38,201,7900962,,,2025-10-07,清算の結了等,,,2015-10-05,1,,,,,エヒメカンリセンター,0
2417,9010602012631,登記記録の閉鎖等,0,2025-10-10,2025-10-07,有限会社ナカムラ,,有限会社,東京都,墨田区,太平１丁目２２番２号,,13,107,1300012,,,2025-10-07,清算の結了等,,,2015-10-05,1,,,,,ナカムラ,0
2456,9013202001954,登記記録の閉鎖等,0,2025-10-10,2025-09-09,有限会社キガ,,有限会社,東京都,目黒区,中町２丁目４４番１４号,,13,110,1530065,,,2025-09-09,清算の結了等,,,2015-10-05,1,,,,,キガ,0
2485,9030001030794,登記記録の閉鎖等,0,2025-10-10,2025-10-02,株式会社田口工務店,,株式会社,埼玉県,南埼玉郡宮代町,大字国納７７１番地３,,11,442,3450834,,,2025-10-02,清算の結了等,,,2015-10-05,1,,,,,タグチコウムテン,0
2504,9040002074757,登記記録の閉鎖等,0,2025-10-10,2025-09-11,有限会社花庄,,有限会社,千葉県,市原市,岩崎１丁目３番地９,,12,219,2900047,,,2025-09-11,清算の結了等,,,2015-10-05,1,,,,,ハナショウ,0
2505,9040002096495,登記記録の閉鎖等,0,2025-10-10,2025-09-09,有限会社アックス,,有限会社,千葉県,柏市,新逆井１丁目３２番９号,,12,217,2770044,,,2025-09-09,清算の結了等,,,2015-10-05,1,,,,,アックス,0
2518,9080101004867,登記記録の閉鎖等,0,2025-10-10,2025-10-06,株式会社ナカイズ,,株式会社,静岡県,伊豆市,上白岩９１１番地,,22,222,4102502,,,2025-10-06,清算の結了等,,,2015-10-05,1,,,,,ナカイズ,0
2519,9080101024543,登記記録の閉鎖等,0,2025-10-10,2025-10-06,株式会社ＧＷＫＳｅｃｕｒｉｔｙ,,株式会社,静岡県,沼津市,新宿町３番２号,,22,203,4100048,,,2025-10-06,清算の結了等,,,2024-02-20,1,,,,,ジーダブリューケーセキュリティ,0
2520,9080102019749,登記記録の閉鎖等,0,2025-10-10,2025-10-02,有限会社丸智,,有限会社,静岡県,伊東市,玖須美元和田７１６番地の２５９,,22,208,4140045,,,2025-10-02,清算の結了等,,,2015-10-05,1,,,,,マルトモ,0
2521,9080102020533,登記記録の閉鎖等,0,2025-10-10,2025-10-06,有限会社マルモト,,有限会社,静岡県,伊東市,中央町９番１号,,22,208,4140003,,,2025-10-06,清算の結了等,,,2015-10-05,1,,,,,マルモト,0
2522,9080402014219,登記記録の閉鎖等,0,2025-10-10,2025-10-09,有限会社Ｉ　ＮＥＴ,,有限会社,静岡県,浜松市中央区,元浜町２６７番地２,,22,138,4300942,,,2025-10-09,清算の結了等,,,2015-10-05,1,,,,,アイネット,0
2554,9120101028168,登記記録の閉鎖等,0,2025-10-10,2025-09-10,ライフサイクルサービス株式会社,,株式会社,大阪府,堺市東区,丈六１９０番地３,,27,143,5998122,,,2025-09-10,清算の結了等,,,2015-10-05,1,,,,,ライフサイクルサービス,0
2587,9180002091210,登記記録の閉鎖等,0,2025-10-10,2025-09-26,有限会社南部商店,,有限会社,愛知県,弥富市,五斗山４丁目２６番地,,23,235,4901402,,,2025-09-26,清算の結了等,,,2015-10-05,1,,,,,ナンブショウテン,0
2595,9190002014153,登記記録の閉鎖等,0,2025-10-10,2025-10-02,有限会社ドルチェ伊勢,,有限会社,三重県,松阪市,西野町１５３５番地,,24,204,5150833,,,2025-10-02,清算の結了等,,,2015-10-05,1,,,,,ドルチェイセ,0
2596,9200001016116,登記記録の閉鎖等,0,2025-10-10,2025-10-03,森本建設株式会社,,株式会社,岐阜県,揖斐郡揖斐川町,北方１３５０番地の１の２の２,,21,401,5010601,,,2025-10-03,清算の結了等,,,2015-10-05,1,,,,,モリモトケンセツ,0
2598,9220001014893,登記記録の閉鎖等,0,2025-10-10,2025-10-03,株式会社テレコムサポート,,株式会社,石川県,金沢市,泉野出町１丁目５番２２号,,17,201,9218116,,,2025-10-03,清算の結了等,,,2015-10-05,1,,,,,テレコムサポート,0
2602,9240001004158,登記記録の閉鎖等,0,2025-10-10,2025-10-06,株式会社山秀商店,,株式会社,広島県,広島市南区,宇品御幸４丁目２０番９号,,34,103,7340015,,,2025-10-06,清算の結了等,,,2015-10-05,1,,,,,ヤマヒデショウテン,0
2604,9250002005600,登記記録の閉鎖等,0,2025-10-10,2025-10-06,有限会社フジアート,,有限会社,山口県,宇部市,新天町１丁目４番４号,,35,202,7550029,,,2025-10-06,清算の結了等,,,2015-10-05,1,,,,,フジアート,0
2605,9260001033790,登記記録の閉鎖等,0,2025-10-10,2025-10-02,株式会社ラクリエ,,株式会社,岡山県,真庭市,月田６７７３番地１,,33,214,7170024,,,2025-10-02,清算の結了等,,,2019-12-05,1,,,,,ラクリエ,0
2614,9290002021916,登記記録の閉鎖等,0,2025-10-10,2025-09-11,有限会社宮本産業建設,,有限会社,福岡県,福岡市東区,大字志賀島１２７４番地,,40,131,8110323,,,2025-09-11,清算の結了等,,,2015-10-05,1,,,,,ミヤモトサンギョウケンセツ,0
2619,9330003007414,登記記録の閉鎖等,0,2025-10-10,2025-09-05,合同会社稲津農産,,合同会社,熊本県,八代市,鏡町内田１７２番地,,43,202,8694202,,,2025-09-05,清算の結了等,,,2018-03-06,1,,,,,イナヅノウサン,0
2628,9390001006404,登記記録の閉鎖等,0,2025-10-10,2025-10-07,滝井生コンクリート株式会社,,株式会社,山形県,酒田市,中町１丁目８番７号,,06,204,9980044,,,2025-10-07,清算の結了等,,,2015-10-05,1,,,,,タキイナマコンクリート,0
2632,9430001024608,登記記録の閉鎖等,0,2025-10-10,2025-09-26,トーヨーシステム建材株式会社,,株式会社,北海道,札幌市清田区,清田七条３丁目２７番２４号,,01,110,0040847,,,2025-09-26,清算の結了等,,,2015-10-05,1,,,,,トーヨーシステムケンザイ,0
2633,9430001039928,登記記録の閉鎖等,0,2025-10-10,2025-10-03,株式会社グローバルフィナンシャル,,株式会社,北海道,札幌市中央区,大通西９丁目３番地３３,,01,101,0600042,,,2025-10-03,清算の結了等,,,2015-10-05,1,,,,,グローバルフィナンシャル,0
2634,9430001085113,登記記録の閉鎖等,0,2025-10-10,2025-10-03,三愛自動車ホールディングス株式会社,,株式会社,北海道,札幌市東区,北四十二条東１９丁目１番１号,,01,103,0070842,,,2025-10-03,合併による解散等,8430001085114,令和７年１０月１日札幌市東区北四十二条東十九丁目１番１号三愛ホールディングス株式会社（8430001085114）に合併し解散,2021-10-08,1,,,,,サンアイジドウシャホールディングス,0
2646,9500001006565,登記記録の閉鎖等,0,2025-10-10,2025-10-07,株式会社オートエボリューション,,株式会社,愛媛県,松山市,北久米町９０１番地１,,38,201,7900923,,,2025-10-07,清算の結了等,,,2015-10-05,1,,,,,オートエボリューション,0
