sequenceNumber,corporateNumber,process,correct,updateDate,changeDate,name,nameImageId,kind,prefectureName,cityName,streetNumber,addressImageId,prefectureCode,cityCode,postCode,addressOutside,addressOutsideImageId,closeDate,closeCause,successorCorporateNumber,changeCause,assignmentDate,latest,enName,enPrefectureName,enCityName,enAddressOutside,furigana,hihyoji
9,1010001229413,新規,0,2022-09-15,2022-09-15,株式会社イーリスター,,株式会社,東京都,千代田区,六番町６－４ＬＨ番長スクエア５階,,13,101,1020085,,,,,,,2022-09-15,1,,,,,イーリスター,0
18,1010401169746,新規,0,2022-09-15,2022-09-15,株式会社ＥＶＡ,,株式会社,東京都,港区,南青山２丁目２番１５号,,13,103,1070062,,,,,,,2022-09-15,1,,,,,イーブイエー,0
22,1010403028462,新規,0,2022-09-15,2022-09-15,合同会社Ｃｏｒｒｉｄａ,,合同会社,東京都,港区,虎ノ門５丁目１番４号,,13,103,1050001,,,,,,,2022-09-15,1,,,,,コリーダ,0
23,1010403028520,新規,0,2022-09-15,2022-09-15,合同会社ＶＥＲＩＴＥ,,合同会社,東京都,港区,三田４丁目１７番３５号,,13,103,1080073,,,,,,,2022-09-15,1,,,,,ヴェリテ,0
34,1010501049377,新規,0,2022-09-15,2022-09-15,ＡＡＲＮＡ株式会社,,株式会社,東京都,台東区,台東４丁目３１番１号ＡＬビル２１２号,,13,106,1100016,,,,,,,2022-09-15,1,,,,,アールナ,0
35,1010501049385,新規,0,2022-09-15,2022-09-15,ファストラン株式会社,,株式会社,東京都,台東区,三ノ輪２丁目３番８－２０３号,,13,106,1100011,,,,,,,2022-09-15,1,,,,,ファストラン,0
41,1010801033270,新規,0,2022-09-15,2022-09-15,株式会社カマタ,,株式会社,東京都,大田区,下丸子１丁目８番６号,,13,111,1460092,,,,,,,2022-09-15,1,,,,,カマタ,0
42,1010901051643,新規,0,2022-09-15,2022-09-15,株式会社モアナ,,株式会社,東京都,世田谷区,成城９丁目１３番１０号２Ｆ,,13,112,1570066,,,,,,,2022-09-15,1,,,,,モアナ,0
49,1011003015339,新規,0,2022-09-15,2022-09-15,スリーハーベスト合同会社,,合同会社,東京都,渋谷区,道玄坂１丁目１０番８号渋谷道玄坂東急ビル２Ｆ―Ｃ,,13,113,1500043,,,,,,,2022-09-15,1,,,,,スリーハーベスト,0
53,1011101100174,新規,0,2022-09-15,2022-09-15,Ｌｉｂｅｒｏ　Ｊａｐａｎ株式会社,,株式会社,東京都,新宿区,新宿１丁目２３番６号,,13,104,1600022,,,,,,,2022-09-15,1,,,,,リベロジャパン,0
57,1011401024536,新規,0,2022-09-15,2022-09-15,株式会社オー・エヌ・エス,,株式会社,東京都,板橋区,南常盤台１丁目１１番６号－１階,,13,119,1740072,,,,,,,2022-09-15,1,,,,,オーエヌエス,0
58,1011401024544,新規,0,2022-09-15,2022-09-15,株式会社リペルス,,株式会社,東京都,板橋区,東新町１丁目２番１６号,,13,119,1740074,,,,,,,2022-09-15,1,,,,,リペルス,0
65,1011801041288,新規,0,2022-09-15,2022-09-15,アール・エー株式会社,,株式会社,東京都,足立区,古千谷本町３丁目１２番１０号,,13,121,1210832,,,,,,,2022-09-15,1,,,,,アールエー,0
69,1012403005581,新規,0,2022-09-15,2022-09-15,合同会社グリーンモンスター,,合同会社,東京都,武蔵野市,吉祥寺南町１丁目５番５号第６３東京ビル５階,,13,203,1800003,,,,,,,2022-09-15,1,,,,,グリーンモンスター,0
71,1012805003150,新規,0,2022-09-15,2022-09-15,特定非営利活動法人子ども・若者センターこだま,,その他の設立登記法人,東京都,日野市,高幡１００９番地の７ＴＩＫビル３０１号室,,13,212,1910031,,,,,,,2022-09-15,1,,,,,コドモワカモノセンターコダマ,0
82,1020001148224,新規,0,2022-09-15,2022-09-15,ファーストフィールド株式会社,,株式会社,神奈川県,横浜市南区,永田東１丁目２０番１１号,,14,105,2320072,,,,,,,2022-09-15,1,,,,,ファーストフィールド,0
86,1021001076992,新規,0,2022-09-15,2022-09-15,仁和商事株式会社,,株式会社,神奈川県,厚木市,戸田１２８４番地１,,14,212,2430023,,,,,,,2022-09-15,1,,,,,ジンワショウジ,0
89,1021003012153,新規,0,2022-09-15,2022-09-15,合同会社天美舎,,合同会社,神奈川県,相模原市緑区,下九沢２８０－３３,,14,151,2520134,,,,,,,2022-09-15,1,,,,,テンビシャ,0
94,1030001150088,新規,0,2022-09-15,2022-09-15,株式会社ハルソウ,,株式会社,埼玉県,北本市,本町５丁目１７２番地７,,11,233,3640033,,,,,,,2022-09-15,1,,,,,ハルソウ,0
102,1030003020207,新規,0,2022-09-15,2022-09-15,合同会社坂本企画,,合同会社,埼玉県,さいたま市中央区,本町東７丁目２番１号,,11,105,3380003,,,,,,,2022-09-15,1,,,,,サカモトキカク,0
106,1040001125031,新規,0,2022-09-15,2022-09-15,株式会社ラウレアハート,,株式会社,千葉県,柏市,根戸４７１番地の１２,,12,217,2770831,,,,,,,2022-09-15,1,,,,,ラウレアハート,0
107,1040001125072,新規,0,2022-09-15,2022-09-15,株式会社光店舗工業,,株式会社,千葉県,野田市,三ツ堀１０６番地の３,,12,208,2780011,,,,,,,2022-09-15,1,,,,,ヒカリテンポコウギョウ,0
108,1040001125089,新規,0,2022-09-15,2022-09-15,日祥貿易株式会社,,株式会社,千葉県,白井市,神々廻字河原子台１７５８－１,,12,232,2701416,,,,,,,2022-09-15,1,,,,,ニッショウボウエキ,0
109,1040001125097,新規,0,2022-09-15,2022-09-15,株式会社Ｆ．Ｂｉｒｄ,,株式会社,千葉県,市川市,堀之内４丁目６番１０号（メゾン・ド・太陽１０３号）,,12,203,2720837,,,,,,,2022-09-15,1,,,,,エフバード,0
114,1040003020825,新規,0,2022-09-15,2022-09-15,合同会社ＬＣ,,合同会社,千葉県,袖ケ浦市,奈良輪１丁目１１番地６－２０２号,,12,229,2990263,,,,,,,2022-09-15,1,,,,,エルシー,0
115,1040003020833,新規,0,2022-09-15,2022-09-15,ＴＯＫＹＯ　ＡＵＴＯ　ＴＲＡＤＩＮＧ合同会社,,合同会社,千葉県,山武市,川崎１１４番地１２,,12,237,2891331,,,,,,,2022-09-15,1,,,,,トウキョウオートトレーディング,0
119,1050005013140,新規,0,2022-09-15,2022-09-15,医療法人社団真和会,,その他の設立登記法人,茨城県,つくばみらい市,谷井田１３７９番２ヤマニビル２階,,08,235,3002337,,,,,,,2022-09-15,1,,,,,シンワカイ,0
131,1100001035703,新規,0,2022-09-15,2022-09-15,株式会社デビルズミスチーフ,,株式会社,長野県,上水内郡飯綱町,大字赤塩２６３７番地,,20,590,3891203,,,,,,,2022-09-15,1,,,,,デビルズミスチーフ,0
143,1120001248823,新規,0,2022-09-15,2022-09-15,ティーアンドアール株式会社,,株式会社,大阪府,大阪市淀川区,東三国１丁目２７番３号,,27,123,5320002,,,,,,,2022-09-15,1,,,,,ティーアンドアール,0
144,1120001248831,新規,0,2022-09-15,2022-09-15,株式会社ＣＨＡＴ,,株式会社,大阪府,大阪市西区,靱本町１丁目９番１８号,,27,106,5500004,,,,,,,2022-09-15,1,,,,,チャット,0
145,1120001248848,新規,0,2022-09-15,2022-09-15,株式会社Ｌｎ,,株式会社,大阪府,大阪市中央区,和泉町１丁目１番１４号シイナＨＤビル谷町北館５階－１６,,27,128,5400019,,,,,,,2022-09-15,1,,,,,エルエヌ,0
146,1120001248856,新規,0,2022-09-15,2022-09-15,株式会社ＣＲＡＣＫ,,株式会社,大阪府,枚方市,藤阪西町１番８－４０３号,,27,210,5730158,,,,,,,2022-09-15,1,,,,,クラック,0
157,1120103004851,新規,0,2022-09-15,2022-09-15,ベルトランカンパニー合同会社,,合同会社,大阪府,堺市堺区,北田出井町３丁４番２８号ＭＴハウス３０１号,,27,141,5900017,,,,,,,2022-09-15,1,,,,,ベルトランカンパニー,0
160,1122003002423,新規,0,2022-09-15,2022-09-15,合同会社ツートップ,,合同会社,大阪府,東大阪市,長堂３丁目２番７号,,27,227,5770056,,,,,,,2022-09-15,1,,,,,ツートップ,0
172,1130003008167,新規,0,2022-09-15,2022-09-15,ヒサゴヤ住宅合同会社,,合同会社,京都府,京都市下京区,花屋町通櫛笥西入薬園町１６７番地,,26,106,6008823,,,,,,,2022-09-15,1,,,,,ヒサゴヤジュウタク,0
173,1130003008175,新規,0,2022-09-15,2022-09-15,京丹波ロハス合同会社,,合同会社,京都府,京都市南区,久世中久世町３丁目２４番地１,,26,107,6018213,,,,,,,2022-09-15,1,,,,,キョウタンバロハス,0
174,1130005016572,新規,0,2022-09-15,2022-09-15,司法書士法人矢田明日香,,その他の設立登記法人,京都府,京都市中京区,御幸町通丸太町下る毘沙門町５５３御幸町ビル３階,,26,104,6040981,,,,,,,2022-09-15,1,,,,,ヤタアスカ,0
175,1130005016580,新規,0,2022-09-15,2022-09-15,一般社団法人日中新天地支援協会,,その他の設立登記法人,京都府,京都市中京区,一之船入町３７５番地ＳＳＳビル５０１号室,,26,104,6040924,,,,,,,2022-09-15,1,,,,,ニッチュウシンテンチシエンキョウカイ,0
176,1140001127364,新規,0,2022-09-15,2022-09-15,株式会社コアコネクト,,株式会社,兵庫県,神戸市長田区,大橋町４丁目４番１７号,,28,106,6530037,,,,,,,2022-09-15,1,,,,,コアコネクト,0
177,1140001127372,新規,0,2022-09-15,2022-09-15,株式会社ＭＩＲＡＩマネジメント,,株式会社,兵庫県,西宮市,小松東町３丁目４番７－４０７号,,28,204,6638123,,,,,,,2022-09-15,1,,,,,ミライマネジメント,0
180,1150003002779,新規,0,2022-09-15,2022-09-15,合同会社愛和,,合同会社,奈良県,葛城市,寺口１１５番地１,,29,211,6392135,,,,,,,2022-09-15,1,,,,,アイワ,0
182,1160005011109,新規,0,2022-09-15,2022-09-15,一般社団法人フードバンクながはま,,その他の設立登記法人,滋賀県,長浜市,三ツ矢元町１９－３４,,25,203,5260024,,,,,,,2022-09-15,1,,,,,フードバンクナガハマ,0
190,1180001153010,新規,0,2022-09-15,2022-09-15,和月ふぁくとりー株式会社,,株式会社,愛知県,名古屋市緑区,境松１丁目６１０番地,,23,114,4580820,,,,,,,2022-09-15,1,,,,,ナツキファクトリー,0
193,1180003024259,新規,0,2022-09-15,2022-09-15,合同会社アグリ,,合同会社,愛知県,春日井市,藤山台８丁目１０番地２,,23,206,4870035,,,,,,,2022-09-15,1,,,,,アグリ,0
199,1190001029762,新規,0,2022-09-15,2022-09-15,株式会社ＳＵＺＵＤＥＮ,,株式会社,三重県,松阪市,大口町４７８番地６大口町工場Ａ１０２,,24,204,5150001,,,,,,,2022-09-15,1,,,,,スズデン,0
204,1200001040453,新規,0,2022-09-15,2022-09-15,株式会社Ｎｓ’ａｐｐｕｙｅｒ,,株式会社,岐阜県,土岐市,泉町久尻２３番地の２,,21,212,5095142,,,,,,,2022-09-15,1,,,,,エヌサピュイエ,0
205,1200003005677,新規,0,2022-09-15,2022-09-15,合同会社あさひが丘接骨院,,合同会社,岐阜県,多治見市,旭ケ丘８丁目２９番地の１３７,,21,204,5070071,,,,,,,2022-09-15,1,,,,,アサヒガオカセッコツイン,0
208,1240005015448,新規,0,2022-09-15,2022-09-15,医療法人三日月会,,その他の設立登記法人,広島県,東広島市,西条町田口２７２４番地１,,34,212,7390036,,,,,,,2022-09-15,1,,,,,ミカヅキカイ,0
219,1300001013060,新規,0,2022-09-15,2022-09-15,株式会社西村建設,,株式会社,佐賀県,佐賀市,大和町久池井１６４３－２８,,41,201,8490000,,,,,,,2022-09-15,1,,,,,ニシムラケンセツ,0
226,1350005006097,新規,0,2022-09-15,2022-09-15,一般社団法人ＴＳＵＮＯＲＵ,,その他の設立登記法人,宮崎県,児湯郡都農町,大字川北１１６７番地４３,,45,406,8891201,,,,,,,2022-09-15,1,,,,,ツノル,0
228,1370001049057,新規,0,2022-09-15,2022-09-15,株式会社ＨＡＬＡＬ　ＨＵＢ,,株式会社,宮城県,仙台市宮城野区,安養寺２丁目３０番８号クレールベルテ２０１,,04,102,9830832,,,,,,,2022-09-15,1,,,,,ハラルハブ,0
229,1370003005834,新規,0,2022-09-15,2022-09-15,癸酉合同会社,,合同会社,宮城県,仙台市青葉区,通町１丁目３番１３号小山方,,04,101,9810915,,,,,,,2022-09-15,1,,,,,キユウ,0
246,1430003014267,新規,0,2022-09-15,2022-09-15,合同会社Ｂｏｎ　ｒｅｖｅ,,合同会社,北海道,札幌市手稲区,新発寒六条１０丁目１１番２３号,,01,109,0060806,,,,,,,2022-09-15,1,,,,,ボンレーヴ,0
249,1470003002251,新規,0,2022-09-15,2022-09-15,にこうさカンパニー合同会社,,合同会社,香川県,さぬき市,鴨部４７６番地１,,37,206,7692104,,,,,,,2022-09-15,1,,,,,ニコウサカンパニー,0
265,2010001229271,新規,0,2022-09-15,2022-09-15,オウラ株式会社,,株式会社,東京都,中央区,銀座１丁目１２番４号Ｎ＆Ｅ・ＢＬＤ７Ｆ,,13,102,1040061,,,,,,,2022-09-15,1,,,,,オウラ,0
266,2010001229445,新規,0,2022-09-15,2022-09-15,大和ＰＩキャピタル株式会社,,株式会社,東京都,千代田区,丸の内１丁目９番１号,,13,101,1000005,,,,,,,2022-09-15,1,,,,,ダイワピーアイキャピタル,0
269,2010003038687,新規,0,2022-09-15,2022-09-15,Ｙｕｍｅｉ日本合同会社,,合同会社,東京都,千代田区,神田平河町１番地第３東ビル６Ｆ５０号室,,13,101,1010027,,,,,,,2022-09-15,1,,,,,ユメイニホン,0
270,2010005035559,新規,0,2022-09-15,2022-09-15,特定非営利活動法人つながろうＪＡＰＡＮ,,その他の設立登記法人,東京都,千代田区,飯田橋２丁目１３番７号,,13,101,1020072,,,,,,,2022-09-15,1,,,,,ツナガロウジャパン,0
277,2010401169720,新規,0,2022-09-15,2022-09-15,株式会社本間康一郎,,株式会社,東京都,港区,南麻布３丁目７番６号,,13,103,1060047,,,,,,,2022-09-15,1,,,,,ホンマコウイチロウ,0
278,2010401169729,新規,0,2022-09-15,2022-09-15,株式会社マレウノ,,株式会社,東京都,港区,浜松町２丁目２番１５号浜松町ダイヤビル２Ｆ,,13,103,1050013,,,,,,,2022-09-15,1,,,,,マレウノ,0
279,2010401169737,新規,0,2022-09-15,2022-09-15,空間営造株式会社,,株式会社,東京都,港区,三田１丁目２番２０－４０２号,,13,103,1080073,,,,,,,2022-09-15,1,,,,,クウカンエイゾウ,0
280,2010401169745,新規,0,2022-09-15,2022-09-15,イオレレ東京株式会社,,株式会社,東京都,港区,浜松町２丁目２番１５号,,13,103,1050013,,,,,,,2022-09-15,1,,,,,イオレレトウキョウ,0
282,2010403028494,新規,0,2022-09-15,2022-09-15,合同会社ＩＳＨＩＢＡ,,合同会社,東京都,港区,南青山２丁目２番１５号,,13,103,1070062,,,,,,,2022-09-15,1,,,,,イシバ,0
285,2010501049384,新規,0,2022-09-15,2022-09-15,株式会社東邦技研プラス,,株式会社,東京都,台東区,台東２丁目３０番１０,,13,106,1100016,,,,,,,2022-09-15,1,,,,,トウホウギケンプラス,0
291,2010703006357,新規,0,2022-09-15,2022-09-15,合同会社キャリミー,,合同会社,東京都,品川区,西品川２丁目１４番１－７０２号,,13,109,1410033,,,,,,,2022-09-15,1,,,,,キャリミー,0
293,2010803004285,新規,0,2022-09-15,2022-09-15,合同会社ｍａｎｉｍａｎｉ,,合同会社,東京都,大田区,山王２丁目５－１３大森北口ビル５－９３,,13,111,1430023,,,,,,,2022-09-15,1,,,,,マニマニ,0
310,2011005009734,新規,0,2022-09-15,2022-09-15,一般社団法人長唄杵家会,,その他の設立登記法人,東京都,渋谷区,恵比寿２丁目１８番６号,,13,113,1500013,,,,,,,2022-09-15,1,,,,,ナガウタキネイエカイ,0
315,2011101100198,新規,0,2022-09-15,2022-09-15,株式会社スピラ,,株式会社,東京都,新宿区,新宿１丁目３１番７－２０８号,,13,104,1600022,,,,,,,2022-09-15,1,,,,,スピラ,0
322,2011701025613,新規,0,2022-09-15,2022-09-15,株式会社ヒトビト,,株式会社,東京都,江戸川区,小松川４丁目６８番地１１,,13,123,1320034,,,,,,,2022-09-15,1,,,,,ヒトビト,0
326,2011801041287,新規,0,2022-09-15,2022-09-15,飛揚商事株式会社,,株式会社,東京都,足立区,中川２丁目２－７－２０２,,13,121,1200002,,,,,,,2022-09-15,1,,,,,ヒヨウショウジ,0
333,2012801021849,新規,0,2022-09-15,2022-09-15,ＳＷ株式会社,,株式会社,東京都,国分寺市,南町３丁目１６番５号第４６東京ビル,,13,214,1850021,,,,,,,2022-09-15,1,,,,,エスダブリュ,0
350,2020001148207,新規,0,2022-09-15,2022-09-15,株式会社ＳＰＩＲＩＴ,,株式会社,神奈川県,横浜市都筑区,勝田南１丁目１番５号レジデンスＫ・Ａ－２０２,,14,118,2240036,,,,,,,2022-09-15,1,,,,,スピリット,0
351,2020001148215,新規,0,2022-09-15,2022-09-15,健和堂株式会社,,株式会社,神奈川県,横浜市南区,白妙町３丁目３４－９シティパレス横浜阪東橋２０２号室,,14,105,2320023,,,,,,,2022-09-15,1,,,,,ケンワドウ,0
352,2020001148231,新規,0,2022-09-15,2022-09-15,株式会社ＪＴＡＨ,,株式会社,神奈川県,横浜市金沢区,町屋町２番２２号,,14,108,2360022,,,,,,,2022-09-15,1,,,,,ジェイティエーエイチ,0
365,2021001077008,新規,0,2022-09-15,2022-09-15,日本神川冷凍株式会社,,株式会社,神奈川県,相模原市南区,相模台２丁目５番１３号ライオンズマンション相模台第五－２０１号,,14,153,2520321,,,,,,,2022-09-15,1,,,,,ニホンカミガワレイトウ,0
367,2021003012144,新規,0,2022-09-15,2022-09-15,合同会社共創,,合同会社,神奈川県,藤沢市,長後１２２３－１３,,14,205,2520801,,,,,,,2022-09-15,1,,,,,キョウソウ,0
368,2021003012152,新規,0,2022-09-15,2022-09-15,合同会社Ｍ＆Ｒ,,合同会社,神奈川県,足柄上郡開成町,延沢１３０８番地１,,14,366,2580026,,,,,,,2022-09-15,1,,,,,エムアンドアール,0
381,2030005020988,新規,0,2022-09-15,2022-09-15,一般社団法人ブリッジオブライフＮＧＯジャパン,,その他の設立登記法人,埼玉県,さいたま市西区,宮前町６１２番地１１,,11,101,3310046,,,,,,,2022-09-15,1,,,,,ブリッジオブライフエヌジーオージャパン,0
383,2040001124973,新規,0,2022-09-15,2022-09-15,株式会社Ｄｅｓａｆｉｏ,,株式会社,千葉県,香取郡神崎町,郡１７２３－１１,,12,342,2890202,,,,,,,2022-09-15,1,,,,,デェサフィオ,0
384,2040001125096,新規,0,2022-09-15,2022-09-15,ブラザーパワー株式会社,,株式会社,千葉県,柏市,永楽台１丁目１－６,,12,217,2770086,,,,,,,2022-09-15,1,,,,,ブラザーパワー,0
385,2040003020816,新規,0,2022-09-15,2022-09-15,ファースト合同会社,,合同会社,千葉県,松戸市,根本６番地４,,12,207,2710077,,,,,,,2022-09-15,1,,,,,ファースト,0
386,2040003020832,新規,0,2022-09-15,2022-09-15,峰合同会社,,合同会社,千葉県,四街道市,下志津新田２５３４番地１８２,,12,228,2840006,,,,,,,2022-09-15,1,,,,,ミネ,0
400,2070001039640,新規,0,2022-09-15,2022-09-15,株式会社ＫＯＴＡＣ,,株式会社,群馬県,伊勢崎市,田中島町１４５１番地３,,10,204,3720802,,,,,,,2022-09-15,1,,,,,コータック,0
404,2070003004618,新規,0,2022-09-15,2022-09-15,合同会社テングビール,,合同会社,群馬県,高崎市,栄町１７番１２号,,10,202,3700841,,,,,,,2022-09-15,1,,,,,テングビール,0
408,2080101023527,新規,0,2022-09-15,2022-09-15,株式会社Ｌｉｖｅ　Ｆｒｅｅｌｙ,,株式会社,静岡県,富士宮市,小泉２２９０番地の６ポイントスクエア小泉２０２,,22,207,4180022,,,,,,,2022-09-15,1,,,,,ライブフリーリー,0
413,2100001035702,新規,0,2022-09-15,2022-09-15,株式会社エフモールディング,,株式会社,長野県,上伊那郡飯島町,七久保１２７番地５,,20,384,3993705,,,,,,,2022-09-15,1,,,,,エフモールディング,0
414,2110001036971,新規,0,2022-09-15,2022-09-15,ｍｅｌＯＮ株式会社,,株式会社,新潟県,新潟市西区,神山６５６番地,,15,107,9502255,,,,,,,2022-09-15,1,,,,,メロン,0
424,2120001248789,新規,0,2022-09-15,2022-09-15,株式会社森,,株式会社,大阪府,大阪市東住吉区,湯里５丁目１６番地５号３Ｆ－Ｇ,,27,121,5460013,,,,,,,2022-09-15,1,,,,,モリ,0
425,2120001248806,新規,0,2022-09-15,2022-09-15,シシモンド株式会社,,株式会社,大阪府,大阪市福島区,鷺洲３丁目６番１０－６０４号,,27,103,5530002,,,,,,,2022-09-15,1,,,,,シシモンド,0
426,2120001248847,新規,0,2022-09-15,2022-09-15,Ｊ　ＴＲＵＳＴＹ株式会社,,株式会社,大阪府,大阪市西成区,北津守４丁目４番１５号,,27,122,5570061,,,,,,,2022-09-15,1,,,,,ジェイトラスティー,0
428,2120003022465,新規,0,2022-09-15,2022-09-15,合同会社ＭＩＮＯＲＩ,,合同会社,大阪府,大阪市北区,堂島１丁目１番５号,,27,127,5300003,,,,,,,2022-09-15,1,,,,,ミノリ,0
435,2120103004850,新規,0,2022-09-15,2022-09-15,合同会社Ｐｒｏｇｒｅｓｓ,,合同会社,大阪府,河内長野市,上田町２４１番地の９８,,27,216,5860034,,,,,,,2022-09-15,1,,,,,プログレス,0
436,2120901046499,新規,0,2022-09-15,2022-09-15,株式会社あさひ工業,,株式会社,大阪府,摂津市,千里丘新町５番２２－１４１７号,,27,224,5660002,,,,,,,2022-09-15,1,,,,,アサヒコウギョウ,0
452,2150003002778,新規,0,2022-09-15,2022-09-15,ＵＢＵＮ合同会社,,合同会社,奈良県,奈良市,富雄泉ヶ丘５－６,,29,201,6310051,,,,,,,2022-09-15,1,,,,,ユーブン,0
453,2160001024518,新規,0,2022-09-15,2022-09-15,株式会社匠送電,,株式会社,滋賀県,大津市,坂本６丁目２４番３５号,,25,201,5200113,,,,,,,2022-09-15,1,,,,,タクミソウデン,0
459,2180001153018,新規,0,2022-09-15,2022-09-15,ＴＥＴＥホールディングス株式会社,,株式会社,愛知県,名古屋市中村区,鈍池町３丁目４７番地アーク岩塚３０５号,,23,105,4530826,,,,,,,2022-09-15,1,,,,,テテホールディングス,0
460,2180001153034,新規,0,2022-09-15,2022-09-15,株式会社Ｓａｎｃｔｕａｒｙ,,株式会社,愛知県,名古屋市中村区,名駅４丁目６番２３号第三堀内ビル９Ｆ,,23,105,4500002,,,,,,,2022-09-15,1,,,,,サンクチュアリー,0
461,2180001153050,新規,0,2022-09-15,2022-09-15,株式会社コスモスケア,,株式会社,愛知県,名古屋市中村区,名駅５丁目４番１４号花車ビル北館３０６,,23,105,4500002,,,,,,,2022-09-15,1,,,,,コスモスケア,0
466,2180303005445,新規,0,2022-09-15,2022-09-15,合同会社Ｋ・Ｔ,,合同会社,愛知県,岡崎市,中島東町３丁目１番地２,,23,202,4440223,,,,,,,2022-09-15,1,,,,,ケーティー,0
471,2200001040452,新規,0,2022-09-15,2022-09-15,株式会社Ｑｕｉｃｋ,,株式会社,岐阜県,岐阜市,又丸９１５番地３,,21,201,5011152,,,,,,,2022-09-15,1,,,,,クイック,0
480,2260003004037,新規,0,2022-09-15,2022-09-15,合同会社ユリコーポレーション,,合同会社,岡山県,倉敷市,林２０５２番地１フェリニテ２０３号室,,33,202,7100142,,,,,,,2022-09-15,1,,,,,ユリコーポレーション,0
487,2290001098945,新規,0,2022-09-15,2022-09-15,株式会社ＭＳＴ,,株式会社,福岡県,古賀市,筵内１３８２番地４,,40,223,8113121,,,,,,,2022-09-15,1,,,,,エムエスティ,0
493,2290003012961,新規,0,2022-09-15,2022-09-15,くまみね工房合同会社,,合同会社,福岡県,福岡市中央区,天神２丁目３番１０号天神パインクレスト７１９号室,,40,133,8100001,,,,,,,2022-09-15,1,,,,,クマミネコウボウ,0
494,2290005018809,新規,0,2022-09-15,2022-09-15,一般社団法人こども発達教室,,その他の設立登記法人,福岡県,糟屋郡篠栗町,和田４丁目１７番２９号,,40,342,8112414,,,,,,,2022-09-15,1,,,,,コドモハッタツキョウシツ,0
501,2330003009516,新規,0,2022-09-15,2022-09-15,合同会社ファイブスタート,,合同会社,熊本県,熊本市中央区,花畑町１３番１１号アソビル５階,,43,101,8600806,,,,,,,2022-09-15,1,,,,,ファイブスタート,0
507,2360003012302,新規,0,2022-09-15,2022-09-15,Ｎｅｗ　Ｉｓｌａｎｄ合同会社,,合同会社,沖縄県,沖縄市,登川３丁目３６番７号プランドール・Ｎ２０２号室,,47,211,9042142,,,,,,,2022-09-15,1,,,,,ニューアイランド,0
508,2370001049056,新規,0,2022-09-15,2022-09-15,株式会社仙吉屋,,株式会社,宮城県,仙台市泉区,将監７丁目６番１１－２号,,04,105,9813132,,,,,,,2022-09-15,1,,,,,センキチヤ,0
517,2400001016003,新規,0,2022-09-15,2022-09-15,株式会社五ツ星,,株式会社,岩手県,紫波郡紫波町,日詰字中新田２４６番地２１,,03,321,0283305,,,,,,,2022-09-15,1,,,,,イツツボシ,0
518,2400003002975,新規,0,2022-09-15,2022-09-15,合同会社ウェーブ,,合同会社,岩手県,盛岡市,西仙北１丁目３４番２号,,03,201,0200864,,,,,,,2022-09-15,1,,,,,ウェーブ,0
523,2420003002577,新規,0,2022-09-15,2022-09-15,白水コンサルティング合同会社,,合同会社,青森県,青森市,長島３丁目１９番２号,,02,201,0300861,,,,,,,2022-09-15,1,,,,,ハクスイコンサルティング,0
532,2430003014274,新規,0,2022-09-15,2022-09-15,合同会社オフィス・Ｆａｓｔ,,合同会社,北海道,札幌市手稲区,富丘一条４丁目２番２７号,,01,109,0060011,,,,,,,2022-09-15,1,,,,,オフィスファスト,0
553,3010001229428,新規,0,2022-09-15,2022-09-15,株式会社Ａｉｒ　Ｅｘｐｅｒｔ　Ｔｒａｖｅｌ　Ｊａｐａｎ,,株式会社,東京都,千代田区,九段南１丁目５番６号りそな九段ビル５階,,13,101,1020074,,,,,,,2022-09-15,1,,,,,エアーエキスパートトラベルジャパン,0
554,3010001229502,新規,0,2022-09-15,2022-09-15,Ｎｅｖｅｒｌａｎｄ　Ｒｅｃｏｒｄ株式会社,,株式会社,東京都,中央区,湊２丁目６番地４号ラシクラスＬＡＺＯｇｉｎｚａ‐ｅａｓｔ６０１,,13,102,1040043,,,,,,,2022-09-15,1,,,,,ネバーランドレコード,0
556,3010001229535,新規,0,2022-09-15,2022-09-15,歩兵インターナショナル株式会社,,株式会社,東京都,中央区,日本橋蛎殻町１丁目５番６号,,13,102,1030014,,,,,,,2022-09-15,1,,,,,ホヘイインターナショナル,0
561,3010101015331,新規,0,2022-09-15,2022-09-15,株式会社明和,,株式会社,東京都,八王子市,散田町３丁目２８番２９号明和ビル２Ｆ,,13,201,1930832,,,,,,,2022-09-15,1,,,,,メイワ,0
579,3010403028477,新規,0,2022-09-15,2022-09-15,Ａ’ＡＬＤＡ　ＰＡＲＴＮＥＲＳ５合同会社,,合同会社,東京都,港区,新橋６丁目１１－８ＰｏｒｔＯｎｅＳｈｉｍｂａｓｈｉ３Ｆ,,13,103,1050004,,,,,,,2022-09-15,1,,,,,アルダパートナーズ,0
580,3010405021380,新規,0,2022-09-15,2022-09-15,一般社団法人Ｄｊｅｂｅｌ,,その他の設立登記法人,東京都,港区,虎ノ門５丁目１番４号,,13,103,1050001,,,,,,,2022-09-15,1,,,,,ジェベル,0
584,3010503006721,新規,0,2022-09-15,2022-09-15,合同会社スイーツスリー,,合同会社,東京都,台東区,小島２丁目１番１１号,,13,106,1110056,,,,,,,2022-09-15,1,,,,,スイーツスリー,0
595,3010901051641,新規,0,2022-09-15,2022-09-15,株式会社Ｔｗｉｎｋｌｅ,,株式会社,東京都,世田谷区,三軒茶屋１丁目３８番８号ステーションプラザロイヤル５０１,,13,112,1540024,,,,,,,2022-09-15,1,,,,,トゥインクル,0
597,3011001149789,新規,0,2022-09-15,2022-09-15,株式会社ａｗａｋａ,,株式会社,東京都,渋谷区,代々木５丁目６７番７号１Ｆ,,13,113,1510053,,,,,,,2022-09-15,1,,,,,アワカ,0
599,3011003015386,新規,0,2022-09-15,2022-09-15,リモートワークエージェント合同会社,,合同会社,東京都,渋谷区,神宮前６丁目２３番４号桑野ビル２階,,13,113,1500001,,,,,,,2022-09-15,1,,,,,リモートワークエージェント,0
603,3011101100180,新規,0,2022-09-15,2022-09-15,株式会社宇野設備,,株式会社,東京都,新宿区,北新宿３丁目２９番９号,,13,104,1690074,,,,,,,2022-09-15,1,,,,,ウノセツビ,0
608,3011701025612,新規,0,2022-09-15,2022-09-15,向日葵株式会社,,株式会社,東京都,江戸川区,西小岩５丁目１２番１６号ＫＵＲＡＳＳＫＯＩＷＡ・２Ａ,,13,123,1330057,,,,,,,2022-09-15,1,,,,,ヒマワリ,0
610,3011703003260,新規,0,2022-09-15,2022-09-15,合同会社Ａｒｒｉｖｅ,,合同会社,東京都,江戸川区,北小岩２丁目３０番１１号コーポナツミ２０２,,13,123,1330051,,,,,,,2022-09-15,1,,,,,アリヴェ,0
619,3013301049660,新規,0,2022-09-15,2022-09-15,株式会社ＰｉｎＥ,,株式会社,東京都,豊島区,南長崎４丁目２０番５号アーバン南長崎ビル４Ｆ,,13,116,1710052,,,,,,,2022-09-15,1,,,,,パイン,0
625,3020001148189,新規,0,2022-09-15,2022-09-15,我妻電業株式会社,,株式会社,神奈川県,横浜市神奈川区,西寺尾３丁目２８－８－５０１,,14,102,2210001,,,,,,,2022-09-15,1,,,,,ワガツマデンギョウ,0
636,3021001077007,新規,0,2022-09-15,2022-09-15,エンナチュラル株式会社,,株式会社,神奈川県,藤沢市,辻堂神台１丁目６番１～７０１号,,14,205,2510041,,,,,,,2022-09-15,1,,,,,エンナチュラル,0
647,3030001149863,新規,0,2022-09-15,2022-09-15,カベッカ製薬株式会社,,株式会社,埼玉県,本庄市,本庄１丁目１番２号,,11,211,3670051,,,,,,,2022-09-15,1,,,,,カベッカセイヤク,0
657,3040001125087,新規,0,2022-09-15,2022-09-15,株式会社マザールゥコーポレーション,,株式会社,千葉県,印西市,舞姫１丁目４番地２３,,12,231,2701608,,,,,,,2022-09-15,1,,,,,マザールゥコーポレーション,0
658,3040001125095,新規,0,2022-09-15,2022-09-15,株式会社孝心,,株式会社,千葉県,市川市,若宮３丁目５番３号,,12,203,2720812,,,,,,,2022-09-15,1,,,,,コウシン,0
660,3040003020815,新規,0,2022-09-15,2022-09-15,合同会社渡邊商店,,合同会社,千葉県,市川市,南行徳３丁目１０番８号コスモ南行徳３０１,,12,203,2720138,,,,,,,2022-09-15,1,,,,,ワタナベショウテン,0
664,3050001051679,新規,0,2022-09-15,2022-09-15,株式会社ＡＣ産業,,株式会社,茨城県,取手市,井野５６６番地４６,,08,217,3020011,,,,,,,2022-09-15,1,,,,,エーシーサンギョウ,0
675,3080001025192,新規,0,2022-09-15,2022-09-15,株式会社杉山設備,,株式会社,静岡県,静岡市駿河区,下島６１５番地の２７３,,22,102,4228037,,,,,,,2022-09-15,1,,,,,スギヤマセツビ,0
688,3110005016861,新規,0,2022-09-15,2022-09-15,医療法人社団植村美容外科,,その他の設立登記法人,新潟県,新潟市中央区,天神１丁目１２番地７シティタワー新潟３００５,,15,103,9500917,,,,,,,2022-09-15,1,,,,,ウエムラビヨウゲカ,0
696,3120001248870,新規,0,2022-09-15,2022-09-15,ＥＩＫＯＵ商事株式会社,,株式会社,大阪府,大阪市西区,新町４丁目２１番７号４Ｆ,,27,106,5500013,,,,,,,2022-09-15,1,,,,,エイコウショウジ,0
700,3120101066231,新規,0,2022-09-15,2022-09-15,株式会社ＬＩＱＵＡ,,株式会社,大阪府,貝塚市,畠中１丁目２０番１号,,27,208,5970072,,,,,,,2022-09-15,1,,,,,リクア,0
712,3140001127362,新規,0,2022-09-15,2022-09-15,株式会社ｎｏｄｏｍａ,,株式会社,兵庫県,伊丹市,西野６丁目１３番地１,,28,207,6640028,,,,,,,2022-09-15,1,,,,,ノドマ,0
713,3140001127370,新規,0,2022-09-15,2022-09-15,株式会社ＧＲＯＵＮＤ　ＲＯＣＫ　ＣＡＳＴＬＥ,,株式会社,兵庫県,芦屋市,業平町三丁目７番１号,,28,206,6590068,,,,,,,2022-09-15,1,,,,,グラウンドロックキャッスル,0
714,3140001127395,新規,0,2022-09-15,2022-09-15,株式会社ウォーターデバイス,,株式会社,兵庫県,豊岡市,昭和町４番２４号,,28,209,6680055,,,,,,,2022-09-15,1,,,,,ウォーターデバイス,0
718,3150005009416,新規,0,2022-09-15,2022-09-15,特定非営利活動法人奈良・京都旅の案内人‐蓮,,その他の設立登記法人,奈良県,生駒郡平群町,若葉台３丁目２２番６号,,29,342,6360938,,,,,,,2022-09-15,1,,,,,ナラキョウトタビノアンナイビトリアン,0
726,3180001153009,新規,0,2022-09-15,2022-09-15,ナリタファミリア株式会社,,株式会社,愛知県,大府市,追分町２丁目７０番地,,23,223,4740027,,,,,,,2022-09-15,1,,,,,ナリタファミリア,0
727,3180001153025,新規,0,2022-09-15,2022-09-15,ＮＳホールディングス株式会社,,株式会社,愛知県,名古屋市中区,錦３丁目１９番１７号,,23,106,4600003,,,,,,,2022-09-15,1,,,,,エヌエスホールディングス,0
728,3180001153033,新規,0,2022-09-15,2022-09-15,株式会社菱光テクノ,,株式会社,愛知県,東海市,東海町２丁目６番５号,,23,222,4760015,,,,,,,2022-09-15,1,,,,,リョウコウテクノ,0
732,3180003024249,新規,0,2022-09-15,2022-09-15,合同会社ＰＯＲＣＨ,,合同会社,愛知県,名古屋市熱田区,六番３丁目１６番１１号,,23,109,4560058,,,,,,,2022-09-15,1,,,,,ポーチ,0
733,3180003024257,新規,0,2022-09-15,2022-09-15,ＬＥＡＰ合同会社,,合同会社,愛知県,名古屋市中村区,名駅１丁目１番１号ＪＰタワー名古屋２１階,,23,105,4500002,,,,,,,2022-09-15,1,,,,,リープ,0
734,3180303005444,新規,0,2022-09-15,2022-09-15,ＴＩＥＭ　ＡＮＨ　ＡＮＨ合同会社,,合同会社,愛知県,豊田市,東新町６丁目１２番地５元町ハイツ２０６号,,23,211,4710045,,,,,,,2022-09-15,1,,,,,ティエンアインアイン,0
735,3200003005675,新規,0,2022-09-15,2022-09-15,ＩＹＡＡＤ　ＴＲＡＤＩＮＧ合同会社,,合同会社,岐阜県,土岐市,下石町６６０番地の２９サンテラス芝Ｂ－１０７号,,21,212,5095202,,,,,,,2022-09-15,1,,,,,イヤドトレーディング,0
757,3290001098944,新規,0,2022-09-15,2022-09-15,株式会社サンアルト,,株式会社,福岡県,福岡市中央区,大名２丁目１０－３シャンボール大名Ａ棟９０５号,,40,133,8100041,,,,,,,2022-09-15,1,,,,,サンアルト,0
759,3290003012960,新規,0,2022-09-15,2022-09-15,合同会社Ｐａｃｈｉｒａ,,合同会社,福岡県,福岡市中央区,長浜３丁目２－１０,,40,133,8100072,,,,,,,2022-09-15,1,,,,,パキラ,0
760,3300001013067,新規,0,2022-09-15,2022-09-15,株式会社ラフテル,,株式会社,佐賀県,佐賀市,白山１丁目２番２１号１階,,41,201,8400826,,,,,,,2022-09-15,1,,,,,ラフテル,0
764,3320003003907,新規,0,2022-09-15,2022-09-15,合同会社恋活タンポポスタートライン,,合同会社,大分県,大分市,長浜町２丁目１４番２７号,,44,201,8700023,,,,,,,2022-09-15,1,,,,,コイカツタンポポスタートライン,0
767,3350001017955,新規,0,2022-09-15,2022-09-15,株式会社マゴエ,,株式会社,宮崎県,えびの市,大字坂元１４８２番地７,,45,209,8894312,,,,,,,2022-09-15,1,,,,,マゴエ,0
770,3350003004167,新規,0,2022-09-15,2022-09-15,合同会社Ｂｅａｕｔｙ　Ｕｎｉｔｅ,,合同会社,宮崎県,都城市,乙房町２９５０番地ロ号２,,45,202,8850112,,,,,,,2022-09-15,1,,,,,ビューティーユナイト,0
777,3430001087494,新規,0,2022-09-15,2022-09-15,株式会社アーステック,,株式会社,北海道,札幌市南区,石山１０４３番地５,,01,106,0050849,,,,,,,2022-09-15,1,,,,,アーステック,0
779,3430003014273,新規,0,2022-09-15,2022-09-15,合同会社ｙｎｙ,,合同会社,北海道,札幌市豊平区,平岸四条１４丁目５番３－５１９号,,01,105,0620934,,,,,,,2022-09-15,1,,,,,ワイエヌワイ,0
782,3450001013795,新規,0,2022-09-15,2022-09-15,株式会社ジーアシスト,,株式会社,北海道,旭川市,神居七条１８丁目１番１０号,,01,204,0708017,,,,,,,2022-09-15,1,,,,,ジーアシスト,0
785,3480005006917,新規,0,2022-09-15,2022-09-15,一般社団法人ウエルネスセラピー協会,,その他の設立登記法人,徳島県,徳島市,栄町３丁目７番地,,36,201,7700921,,,,,,,2022-09-15,1,,,,,ウエルネスセラピーキョウカイ,0
802,4010005035565,新規,0,2022-09-15,2022-09-15,一般財団法人地域スポーツ振興財団,,その他の設立登記法人,東京都,千代田区,平河町１丁目１番１号,,13,101,1020093,,,,,,,2022-09-15,1,,,,,チイキスポーツシンコウザイダン,0
808,4010401169735,新規,0,2022-09-15,2022-09-15,株式会社Ｋ　ＳＴＯＲＹ,,株式会社,東京都,港区,南青山４丁目１５番３６号東京インテリアビル南館,,13,103,1070062,,,,,,,2022-09-15,1,,,,,ケーストーリー,0
813,4010403028518,新規,0,2022-09-15,2022-09-15,合同会社Ｓ３Ｗ３,,合同会社,東京都,港区,元赤坂１丁目１番８号赤坂コミュニティビル４階,,13,103,1070051,,,,,,,2022-09-15,1,,,,,エスサンダブリューサン,0
814,4010605004127,新規,0,2022-09-15,2022-09-15,特定非営利活動法人たしざん,,その他の設立登記法人,東京都,江東区,深川２丁目２４番１１号ＭＩＳＵＺＣＯＵＲＴ門前仲町４０７,,13,108,1350033,,,,,,,2022-09-15,1,,,,,タシザン,0
823,4010901051624,新規,0,2022-09-15,2022-09-15,株式会社バンワーク,,株式会社,東京都,世田谷区,深沢４丁目７番２２号,,13,112,1580081,,,,,,,2022-09-15,1,,,,,バンワーク,0
840,4011103012167,新規,0,2022-09-15,2022-09-15,合同会社ＬＩＭ,,合同会社,東京都,新宿区,西早稲田３丁目３０番２２－１００３号,,13,104,1690051,,,,,,,2022-09-15,1,,,,,リム,0
850,4012401039645,新規,0,2022-09-15,2022-09-15,株式会社コロンブス,,株式会社,東京都,武蔵野市,吉祥寺南町２丁目２番５号,,13,203,1800003,,,,,,,2022-09-15,1,,,,,コロンブス,0
859,4020001148213,新規,0,2022-09-15,2022-09-15,株式会社ユースタイル,,株式会社,神奈川県,横浜市南区,六ツ川３丁目７２番地２７,,14,105,2320066,,,,,,,2022-09-15,1,,,,,ユースタイル,0
860,4020001148221,新規,0,2022-09-15,2022-09-15,株式会社ポリフォニー虹,,株式会社,神奈川県,横浜市青葉区,青葉台１丁目２８番地１６,,14,117,2270062,,,,,,,2022-09-15,1,,,,,ポリフォニーニジ,0
871,4021001076998,新規,0,2022-09-15,2022-09-15,Ｋ’ｚ　ＩＮＤＵＳＴＲＹ’Ｓ株式会社,,株式会社,神奈川県,綾瀬市,上土棚南６丁目２番５号,,14,218,2521114,,,,,,,2022-09-15,1,,,,,ケーズインダストリーズ,0
872,4021001077006,新規,0,2022-09-15,2022-09-15,ＳＺＫホールディングス株式会社,,株式会社,神奈川県,藤沢市,江の島１丁目６番２６号,,14,205,2510036,,,,,,,2022-09-15,1,,,,,エスゼットケーホールディングス,0
874,4021003012150,新規,0,2022-09-15,2022-09-15,合同会社ＹＯＡＫＥ,,合同会社,神奈川県,座間市,ひばりが丘２丁目６０番３号,,14,216,2520003,,,,,,,2022-09-15,1,,,,,ヨアケ,0
878,4030001150052,新規,0,2022-09-15,2022-09-15,ＳＵＫＯＳＨＩ株式会社,,株式会社,埼玉県,八潮市,大字伊勢野２１８番地１アネックスガーデン５０４号,,11,234,3400821,,,,,,,2022-09-15,1,,,,,スコシ,0
879,4030001150119,新規,0,2022-09-15,2022-09-15,株式会社翠彩,,株式会社,埼玉県,所沢市,大字山口１２３４番地４,,11,208,3591145,,,,,,,2022-09-15,1,,,,,スイサイ,0
880,4030001150135,新規,0,2022-09-15,2022-09-15,Ｄｒａｗ　Ｌｉｎｅ株式会社,,株式会社,埼玉県,さいたま市大宮区,桜木町２丁目４４６番地２２５,,11,103,3300854,,,,,,,2022-09-15,1,,,,,ドローライン,0
885,4030003020154,新規,0,2022-09-15,2022-09-15,合同会社Ｂｒａｎｃｈ,,合同会社,埼玉県,越谷市,南越谷１丁目１５－１南越谷ラク－ン４階,,11,222,3430845,,,,,,,2022-09-15,1,,,,,ブランチ,0
889,4040001125078,新規,0,2022-09-15,2022-09-15,株式会社ＫＫグループ,,株式会社,千葉県,千葉市中央区,神明町２０１番地２千早ビル３０３号,,12,101,2600022,,,,,,,2022-09-15,1,,,,,ケーケーグループ,0
892,4040003020822,新規,0,2022-09-15,2022-09-15,Ｍａａｓ　Ｔｒａｄｉｎｇ合同会社,,合同会社,千葉県,八街市,八街い３８５番地５９,,12,230,2891143,,,,,,,2022-09-15,1,,,,,マーストレーディング,0
896,4050003006820,新規,0,2022-09-15,2022-09-15,ＲＩＮＴＥ合同会社,,合同会社,茨城県,つくば市,学園の森２丁目２４番地２４,,08,220,3050816,,,,,,,2022-09-15,1,,,,,リンテ,0
899,4060001035275,新規,0,2022-09-15,2022-09-15,いつきワークス株式会社,,株式会社,栃木県,小山市,大字横倉新田２７２番地１コート倉Ｆ棟１０１号,,09,208,3230819,,,,,,,2022-09-15,1,,,,,イツキワークス,0
906,4100001035700,新規,0,2022-09-15,2022-09-15,株式会社ピーチツリー,,株式会社,長野県,長野市,稲田３丁目２１番６号,,20,201,3810042,,,,,,,2022-09-15,1,,,,,ピーチツリー,0
908,4110005016860,新規,0,2022-09-15,2022-09-15,糸魚川グローバル事業協同組合,,その他の設立登記法人,新潟県,糸魚川市,南寺島２丁目１２番１３号,,15,216,9410069,,,,,,,2022-09-15,1,,,,,イトイガワグローバル,0
921,4120001248829,新規,0,2022-09-15,2022-09-15,株式会社ＳＧＣ,,株式会社,大阪府,大阪市此花区,四貫島２丁目３番５号角市ビル２Ｆ,,27,104,5540014,,,,,,,2022-09-15,1,,,,,エスジーシー,0
922,4120001248886,新規,0,2022-09-15,2022-09-15,株式会社ミライデザイン,,株式会社,大阪府,大阪市浪速区,難波中３丁目７番１７－４１０号,,27,111,5560011,,,,,,,2022-09-15,1,,,,,ミライデザイン,0
924,4120101066239,新規,0,2022-09-15,2022-09-15,ＩＳプランニング株式会社,,株式会社,大阪府,和泉市,納花町２００番地の３１,,27,219,5941116,,,,,,,2022-09-15,1,,,,,イズプランニング,0
932,4130001072600,新規,0,2022-09-15,2022-09-15,株式会社ＳＨＩＮＯコーポレーション,,株式会社,京都府,亀岡市,篠町見晴４丁目３番３号,,26,206,6210824,,,,,,,2022-09-15,1,,,,,シノコーポレーション,0
933,4130003008172,新規,0,2022-09-15,2022-09-15,合同会社ＢＯＮＤ　ｔｏ,,合同会社,京都府,京都市中京区,帯屋町５７２,,26,104,6048124,,,,,,,2022-09-15,1,,,,,ボンドトゥー,0
945,4160003002668,新規,0,2022-09-15,2022-09-15,空建築設計工房合同会社,,合同会社,滋賀県,高島市,鹿ケ瀬７０３番地,,25,212,5201142,,,,,,,2022-09-15,1,,,,,クウケンチクセッケイコウボウ,0
954,4180001153016,新規,0,2022-09-15,2022-09-15,ＨＡＭＺＡ　ＴＲＡＤＩＮＧ株式会社,,株式会社,愛知県,弥富市,海老江１丁目２５番地,,23,235,4980015,,,,,,,2022-09-15,1,,,,,ハムザトレーディング,0
960,4180003024248,新規,0,2022-09-15,2022-09-15,合同会社リタニティ,,合同会社,愛知県,名古屋市昭和区,川名町６丁目２２番地グランドメゾン川名ウエストレジデンス４０６号,,23,107,4660856,,,,,,,2022-09-15,1,,,,,リタニティ,0
961,4180003024256,新規,0,2022-09-15,2022-09-15,合同会社ＢＯＮＤ　ＳＴＵＤＩＯＳ,,合同会社,愛知県,清須市,西枇杷島町古城２丁目１８番地６ベレオＹ・Ｇ・Ｍ１０６,,23,233,4520001,,,,,,,2022-09-15,1,,,,,ボンドスタジオ,0
962,4180003024264,新規,0,2022-09-15,2022-09-15,合同会社せんしのこころ,,合同会社,愛知県,東海市,名和町日向根１３９番地,,23,222,4760002,,,,,,,2022-09-15,1,,,,,センシノココロ,0
968,4190003004083,新規,0,2022-09-15,2022-09-15,合同会社ブルーエコ,,合同会社,三重県,伊賀市,四十九町１９４８番地１,,24,216,5180823,,,,,,,2022-09-15,1,,,,,ブルーエコ,0
970,4200003005674,新規,0,2022-09-15,2022-09-15,合同会社０６１０,,合同会社,岐阜県,各務原市,鵜沼各務原町３丁目５２４番地５,,21,213,5090141,,,,,,,2022-09-15,1,,,,,ムトウ,0
992,4290001098943,新規,0,2022-09-15,2022-09-15,株式会社樹レジデンシャル,,株式会社,福岡県,福岡市中央区,赤坂１丁目１４番２２号,,40,133,8100042,,,,,,,2022-09-15,1,,,,,イツキレジデンシャル,0
993,4290001098951,新規,0,2022-09-15,2022-09-15,株式会社ＬＴプロモーション,,株式会社,福岡県,福岡市中央区,天神４丁目６番２８号天神ファーストビル７階,,40,133,8100001,,,,,,,2022-09-15,1,,,,,エルティプロモーション,0
1001,4330003009522,新規,0,2022-09-15,2022-09-15,合同会社つばき,,合同会社,熊本県,熊本市中央区,水前寺１丁目２０番１８号,,43,101,8620950,,,,,,,2022-09-15,1,,,,,ツバキ,0
1007,4370001049062,新規,0,2022-09-15,2022-09-15,株式会社プラチナデザイン,,株式会社,宮城県,仙台市宮城野区,東仙台３丁目１３－６１アオトビル１０２,,04,102,9830833,,,,,,,2022-09-15,1,,,,,プラチナデザイン,0
1022,4430001087493,新規,0,2022-09-15,2022-09-15,株式会社えみかえまる,,株式会社,北海道,札幌市清田区,里塚一条３丁目２番４０－１１１６号,,01,110,0040801,,,,,,,2022-09-15,1,,,,,エミカエマル,0
1025,4430003014272,新規,0,2022-09-15,2022-09-15,合同会社レイス,,合同会社,北海道,札幌市北区,新琴似三条６丁目５番１１号,,01,102,0010903,,,,,,,2022-09-15,1,,,,,レイス,0
1033,4480005006916,新規,0,2022-09-15,2022-09-15,農事組合法人エコファームチーム,,その他の設立登記法人,徳島県,鳴門市,撫養町立岩字四枚６５番地,,36,202,7720017,,,,,,,2022-09-15,1,,,,,エコファームチーム,0
1035,4490003001703,新規,0,2022-09-15,2022-09-15,合同会社ホワイティ,,合同会社,高知県,高知市,桜井町１丁目９番１１号,,39,201,7800821,,,,,,,2022-09-15,1,,,,,ホワイティ,0
1048,5010001229483,新規,0,2022-09-15,2022-09-15,株式会社Ｈａｒｍｏｎｙ,,株式会社,東京都,千代田区,有楽町１丁目２番２号東宝日比谷ビル９Ｆ,,13,101,1000006,,,,,,,2022-09-15,1,,,,,ハーモニー,0
1049,5010001229509,新規,0,2022-09-15,2022-09-15,株式会社ティーエーピー,,株式会社,東京都,文京区,千駄木３丁目３６番３号,,13,105,1130022,,,,,,,2022-09-15,1,,,,,ティーエーピー,0
1065,5010405021362,新規,0,2022-09-15,2022-09-15,一般社団法人ＥＧＡＫＵ,,その他の設立登記法人,東京都,港区,南青山２丁目２番１５号,,13,103,1070062,,,,,,,2022-09-15,1,,,,,エガク,0
1066,5010405021379,新規,0,2022-09-15,2022-09-15,一般社団法人Ｌｅ　Ｐａｃｈａ,,その他の設立登記法人,東京都,港区,虎ノ門５丁目１番４号,,13,103,1050001,,,,,,,2022-09-15,1,,,,,ルパシャ,0
1083,5011001149630,新規,0,2022-09-15,2022-09-15,ブッシン株式会社,,株式会社,東京都,渋谷区,道玄坂１丁目１０番８号渋谷道玄坂東急ビル２Ｆ－Ｃ,,13,113,1500043,,,,,,,2022-09-15,1,,,,,ブッシン,0
1086,5011003015392,新規,0,2022-09-15,2022-09-15,合同会社三橋,,合同会社,東京都,目黒区,下目黒４丁目１３番７号椎の木館２０１,,13,110,1530064,,,,,,,2022-09-15,1,,,,,ミツハシ,0
1089,5011101100187,新規,0,2022-09-15,2022-09-15,株式会社ＦｉｘｂｏＸ,,株式会社,東京都,新宿区,西新宿４丁目２５－２１ニュー・メイジュ２０２,,13,104,1600023,,,,,,,2022-09-15,1,,,,,フィックスボックス,0
1098,5011701025619,新規,0,2022-09-15,2022-09-15,株式会社Ｗ．Ｒ,,株式会社,東京都,江戸川区,松江４丁目２番３号グランフィールド松江ＩＩ１０６,00127865,13,123,1320025,,,,,,,2022-09-15,1,,,,,ダブリューアール,0
1102,5012401039644,新規,0,2022-09-15,2022-09-15,キクチライト株式会社,,株式会社,東京都,稲城市,東長沼１２２７番地の１,,13,225,2060802,,,,,,,2022-09-15,1,,,,,キクチライト,0
1110,5020001148212,新規,0,2022-09-15,2022-09-15,株式会社オーズスター,,株式会社,神奈川県,川崎市麻生区,百合丘２丁目２番地１,,14,137,2150011,,,,,,,2022-09-15,1,,,,,オーズスター,0
1121,5021001077005,新規,0,2022-09-15,2022-09-15,富士産業ＧＨ株式会社,,株式会社,神奈川県,厚木市,金田７６１－１アンソレイエＩＩ１０１,00127862,14,212,2430807,,,,,,,2022-09-15,1,,,,,フジサンギョウジーエッチ,0
1122,5021001077013,新規,0,2022-09-15,2022-09-15,株式会社きのえ,,株式会社,神奈川県,鎌倉市,長谷１丁目８番４号,,14,204,2480016,,,,,,,2022-09-15,1,,,,,キノエ,0
1141,5050003006852,新規,0,2022-09-15,2022-09-15,合同会社ＩＳＬＡＭ　ＴＲＡＤＩＮＧ,,合同会社,茨城県,下妻市,下妻丙１５９番地４,,08,210,3040061,,,,,,,2022-09-15,1,,,,,イスラムトレーディング,0
1152,5070001039638,新規,0,2022-09-15,2022-09-15,株式会社Ｅｍｏｔｉｏｎ,,株式会社,群馬県,高崎市,貝沢町９５９番地６,,10,202,3700042,,,,,,,2022-09-15,1,,,,,イモーション,0
1153,5070001039646,新規,0,2022-09-15,2022-09-15,株式会社登鯉,,株式会社,群馬県,前橋市,元総社町１９４番地,,10,201,3710846,,,,,,,2022-09-15,1,,,,,トウリ,0
1169,5120001248828,新規,0,2022-09-15,2022-09-15,大生アドバンス株式会社,,株式会社,大阪府,大阪市城東区,鴫野東１丁目６番８号１Ｆ,,27,118,5360013,,,,,,,2022-09-15,1,,,,,タイセイアドバンス,0
1170,5120001248869,新規,0,2022-09-15,2022-09-15,金石株式会社,,株式会社,大阪府,大阪市中央区,安堂寺町２丁目７－２朝日プラザ長堀橋東パサージュ４０２号,,27,128,5420061,,,,,,,2022-09-15,1,,,,,キンセキ,0
1171,5120001248877,新規,0,2022-09-15,2022-09-15,平原株式会社,,株式会社,大阪府,大阪市西成区,太子２丁目２番２０号２０１号室,,27,122,5570002,,,,,,,2022-09-15,1,,,,,ヘイゲン,0
1173,5120003022421,新規,0,2022-09-15,2022-09-15,合同会社ルリアン,,合同会社,大阪府,大阪市東淀川区,柴島２丁目１５－２３－１０１号室,,27,114,5330024,,,,,,,2022-09-15,1,,,,,ルリアン,0
1174,5120003022454,新規,0,2022-09-15,2022-09-15,合同会社ＢｕｎＳＴＲＩＮＧ,,合同会社,大阪府,大阪市東淀川区,西淡路１丁目１１－１０－６０６号,,27,114,5330031,,,,,,,2022-09-15,1,,,,,バンストリング,0
1176,5120005023194,新規,0,2022-09-15,2022-09-15,一般社団法人コ・クリエーションジェネレーター,,その他の設立登記法人,大阪府,大阪市北区,大深町３番１号,,27,127,5300011,,,,,,,2022-09-15,1,,,,,コクリエーションジェネレーター,0
1179,5120103004856,新規,0,2022-09-15,2022-09-15,合同会社えごえん,,合同会社,大阪府,松原市,天美東９丁目４番１６号,,27,217,5800032,,,,,,,2022-09-15,1,,,,,エゴエン,0
1198,5150005009422,新規,0,2022-09-15,2022-09-15,一般社団法人ごきげん心理学協会,,その他の設立登記法人,奈良県,奈良市,三条町４７５番地,,29,201,6308244,,,,,,,2022-09-15,1,,,,,ゴキゲンシンリガクキョウカイ,0
1200,5160001024515,新規,0,2022-09-15,2022-09-15,株式会社アンガード,,株式会社,滋賀県,大津市,滋賀里１丁目２番２０号,,25,201,5200006,,,,,,,2022-09-15,1,,,,,アンガード,0
1218,5190003004090,新規,0,2022-09-15,2022-09-15,合同会社Ｅｍｉｒａｔｅｓ　ｐａｌａｃｅ．,,合同会社,三重県,鈴鹿市,算所１丁目５番３７号,,24,207,5130806,,,,,,,2022-09-15,1,,,,,エミレーツパレス,0
1228,5240005015452,新規,0,2022-09-15,2022-09-15,医療法人たんぽぽ小児歯科,,その他の設立登記法人,広島県,広島市安佐南区,祇園３丁目２１番２６号,,34,105,7310138,,,,,,,2022-09-15,1,,,,,タンポポショウニシカ,0
1242,5290001098950,新規,0,2022-09-15,2022-09-15,株式会社Ｌｂ　Ｌａｂｏ,,株式会社,福岡県,宗像市,曲１８５８番地５,,40,220,8113413,,,,,,,2022-09-15,1,,,,,エルビーラボ,0
1246,5320003003905,新規,0,2022-09-15,2022-09-15,岐部三村造林合同会社,,合同会社,大分県,国東市,国見町岐部１８７８番地,,44,214,8721614,,,,,,,2022-09-15,1,,,,,キベサンソンゾウリン,0
1247,5330003009521,新規,0,2022-09-15,2022-09-15,立野産業合同会社,,合同会社,熊本県,阿蘇郡南阿蘇村,大字河陽１９３２番地下西原第２団地１号,,43,433,8691404,,,,,,,2022-09-15,1,,,,,タテノサンギョウ,0
1249,5360001030955,新規,0,2022-09-15,2022-09-15,株式会社リゾートサポート,,株式会社,沖縄県,宜野湾市,野嵩２丁目３４番１５号－１０２,,47,205,9012203,,,,,,,2022-09-15,1,,,,,リゾートサポート,0
1250,5360001030971,新規,0,2022-09-15,2022-09-15,株式会社ハッピーワーク,,株式会社,沖縄県,浦添市,宮城４丁目１２番３－４０１号はるかマンション,,47,208,9012126,,,,,,,2022-09-15,1,,,,,ハッピーワーク,0
1253,5370001049053,新規,0,2022-09-15,2022-09-15,ウインズホーム株式会社,,株式会社,宮城県,石巻市,南中里３丁目１２番１８号,,04,202,9860814,,,,,,,2022-09-15,1,,,,,ウインズホーム,0
1254,5370001049061,新規,0,2022-09-15,2022-09-15,株式会社ＣＣＤ,,株式会社,宮城県,仙台市青葉区,一番町４丁目３－５,,04,101,9800811,,,,,,,2022-09-15,1,,,,,シーシーディー,0
1275,5700150011028,新規,0,2022-09-15,2015-10-09,全国自立生活センター協議会,,その他,東京都,八王子市,明神町４丁目１１－１１－１Ｆ,,13,201,1920046,,,,,,,2015-10-09,1,,,,,ゼンコクジリツセイカツセンターキヨウギカイ,0
1289,6010005035571,新規,0,2022-09-15,2022-09-15,一般社団法人ＤＵＭＳ３,,その他の設立登記法人,東京都,千代田区,丸の内３丁目１番１号東京共同会計事務所内,,13,101,1000005,,,,,,,2022-09-15,1,,,,,ディーユーエムエススリー,0
1290,6010403028433,新規,0,2022-09-15,2022-09-15,ホテラホームズ合同会社,,合同会社,東京都,港区,南青山３丁目８－４０青山センタービル２Ｆ,,13,103,1070062,,,,,,,2022-09-15,1,,,,,ホテラホームズ,0
1291,6010403028508,新規,0,2022-09-15,2022-09-15,ＥＵＮＳＵＮＧ　Ｐ＆ＳＥ　ＪＡＰＡＮ合同会社,,合同会社,東京都,港区,虎ノ門２丁目３番１７号虎ノ門二丁目タワー１９階,,13,103,1050001,,,,,,,2022-09-15,1,,,,,ウンソンピーアンドエスイージャパン,0
1293,6010405021378,新規,0,2022-09-15,2022-09-15,一般社団法人Ｃｏｒｒｉｄａ,,その他の設立登記法人,東京都,港区,虎ノ門５丁目１番４号,,13,103,1050001,,,,,,,2022-09-15,1,,,,,コリーダ,0
1300,6010703006386,新規,0,2022-09-15,2022-09-15,合同会社八月,,合同会社,東京都,品川区,荏原４丁目１０番１０号フラッツＥＢＡＲＡ１０２,,13,109,1420063,,,,,,,2022-09-15,1,,,,,ハチガツ,0
1305,6010903007639,新規,0,2022-09-15,2022-09-15,フィオリトゥーラ合同会社,,合同会社,東京都,世田谷区,上北沢５丁目１３番３－４０８号,,13,112,1560057,,,,,,,2022-09-15,1,,,,,フィオリトゥーラ,0
1306,6010903007647,新規,0,2022-09-15,2022-09-15,合同会社Ｐａｓｓｗｉｎ,,合同会社,東京都,世田谷区,宮坂１丁目６－２６,,13,112,1560051,,,,,,,2022-09-15,1,,,,,パスウィン,0
1310,6011001149654,新規,0,2022-09-15,2022-09-15,株式会社Ａ,,株式会社,東京都,渋谷区,渋谷２丁目１９－１５宮益坂ビルディング６０９,,13,113,1500002,,,,,,,2022-09-15,1,,,,,エース,0
1312,6011005009730,新規,0,2022-09-15,2022-09-15,特定非営利活動法人あおぞら,,その他の設立登記法人,東京都,目黒区,柿の木坂２丁目１３番３号,,13,110,1520022,,,,,,,2022-09-15,1,,,,,アオゾラ,0
1319,6011101100194,新規,0,2022-09-15,2022-09-15,株式会社わらべや,,株式会社,東京都,新宿区,富久町１３番１９号,,13,104,1620067,,,,,,,2022-09-15,1,,,,,ワラベヤ,0
1323,6011703003258,新規,0,2022-09-15,2022-09-15,合同会社ＳＡＭＵＲＩＺＥ,,合同会社,東京都,江戸川区,鹿骨１丁目２３番１２号,,13,123,1330073,,,,,,,2022-09-15,1,,,,,サムライズ,0
1326,6012401039643,新規,0,2022-09-15,2022-09-15,株式会社ＳＣ総研,,株式会社,東京都,三鷹市,井の頭５丁目８－１７－１,,13,204,1810001,,,,,,,2022-09-15,1,,,,,エスシーソウケン,0
1327,6012703002539,新規,0,2022-09-15,2022-09-15,合同会社明日香,,合同会社,東京都,東村山市,栄町１丁目１１番地５０小山ビル２階,,13,213,1890013,,,,,,,2022-09-15,1,,,,,アスカ,0
1328,6012801021853,新規,0,2022-09-15,2022-09-15,株式会社ソラノ・ミナト,,株式会社,東京都,立川市,錦町１丁目４番２０号ＴＳＣビル５階・６階,,13,202,1900022,,,,,,,2022-09-15,1,,,,,ソラノミナト,0
1338,6020001148153,新規,0,2022-09-15,2022-09-15,元視芯智能科技株式会社,,株式会社,神奈川県,横浜市西区,高島２丁目１１番２号スカイメナー横浜５１９,,14,103,2200011,,,,,,,2022-09-15,1,,,,,メタシリコンチノウカギ,0
1339,6020001148211,新規,0,2022-09-15,2022-09-15,Ｙ’ｓ　Ｉｎｔｅｒｎａｔｉｏｎａｌ株式会社,,株式会社,神奈川県,横浜市港南区,上大岡西３丁目２１番１号,,14,111,2330002,,,,,,,2022-09-15,1,,,,,ワイズインターナショナル,0
1348,6021005012618,新規,0,2022-09-15,2022-09-15,一般社団法人塗装職人協同組合,,その他の設立登記法人,神奈川県,茅ヶ崎市,浜之郷６８６番地１Ｆ,,14,207,2530086,,,,,,,2022-09-15,1,,,,,トソウショクニンキョウドウクミアイ,0
1352,6030001150117,新規,0,2022-09-15,2022-09-15,株式会社龍美,,株式会社,埼玉県,所沢市,御幸町１番１６－２５１０号所沢スカイライズタワー,,11,208,3591115,,,,,,,2022-09-15,1,,,,,リュウビ,0
1358,6040001125076,新規,0,2022-09-15,2022-09-15,株式会社ＬＵＡＮＡ,,株式会社,千葉県,市川市,八幡２丁目６番７－６０５号,,12,203,2720021,,,,,,,2022-09-15,1,,,,,ルアナ,0
1359,6040001125092,新規,0,2022-09-15,2022-09-15,株式会社Ｈ２Ｓ,,株式会社,千葉県,浦安市,日の出１丁目３番８－２０２号海風の街,,12,227,2790013,,,,,,,2022-09-15,1,,,,,エイチツーエス,0
1360,6040001125101,新規,0,2022-09-15,2022-09-15,株式会社ＨＡＬ商会,,株式会社,千葉県,船橋市,夏見３丁目１９番１０－１０４号,,12,204,2730865,,,,,,,2022-09-15,1,,,,,ハルショウカイ,0
1362,6040003020837,新規,0,2022-09-15,2022-09-15,ＨＡＬＡＡ　ＭＯＴＯＲＳ合同会社,,合同会社,千葉県,八街市,沖１８０１番地,,12,230,2891126,,,,,,,2022-09-15,1,,,,,ハラアモータース,0
1366,6050005013144,新規,0,2022-09-15,2022-09-15,一般社団法人茨城サドベリースクール,,その他の設立登記法人,茨城県,筑西市,西方１４５２番地１,,08,227,3080845,,,,,,,2022-09-15,1,,,,,イバラキサドベリースクール,0
1367,6060001035273,新規,0,2022-09-15,2022-09-15,株式会社Ｒｅホールディングス,,株式会社,栃木県,宇都宮市,錦２丁目４番３号,,09,201,3210967,,,,,,,2022-09-15,1,,,,,アールイーホールディングス,0
1379,6090001017780,新規,0,2022-09-15,2022-09-15,ワイ企画株式会社,,株式会社,山梨県,甲府市,国母６丁目６番１号,,19,201,4000043,,,,,,,2022-09-15,1,,,,,ワイキカク,0
1382,6110001036968,新規,0,2022-09-15,2022-09-15,株式会社イシカワホールディングズ,,株式会社,新潟県,新潟市秋葉区,大蔵７３８番地１,,15,105,9560801,,,,,,,2022-09-15,1,,,,,イシカワホールディングズ,0
1384,6110005016859,新規,0,2022-09-15,2022-09-15,新潟国際事業サポート協同組合,,その他の設立登記法人,新潟県,新潟市東区,幸栄２丁目７番７号,,15,102,9500022,,,,,,,2022-09-15,1,,,,,ニイガタコクサイジギョウサポート,0
1396,6120003022437,新規,0,2022-09-15,2022-09-15,合同会社ｂａｔｔｉｅ,,合同会社,大阪府,大阪市鶴見区,放出東２丁目８番１９号,,27,124,5380044,,,,,,,2022-09-15,1,,,,,バティ,0
1398,6120103004855,新規,0,2022-09-15,2022-09-15,合同会社ＥＮ　ｌｉｎｋ,,合同会社,大阪府,堺市北区,新堀町１丁３９番地５（８０９号）,,27,146,5918005,,,,,,,2022-09-15,1,,,,,エンリンク,0
1409,6130001072615,新規,0,2022-09-15,2022-09-15,ＩＤＯ株式会社,,株式会社,京都府,八幡市,八幡神原５１番地,,26,210,6148087,,,,,,,2022-09-15,1,,,,,アイディーオー,0
1420,6160003002666,新規,0,2022-09-15,2022-09-15,合同会社Ｏｒｇａｎｉｃ　ｈｅｒｂ　ｃｅｎｔｅｒ,,合同会社,滋賀県,大津市,荒川４７５番地の３８,,25,201,5200513,,,,,,,2022-09-15,1,,,,,オーガニックハーブセンター,0
1426,6180001153014,新規,0,2022-09-15,2022-09-15,株式会社ヴルーム,,株式会社,愛知県,名古屋市中区,錦２丁目７番７号,,23,106,4600003,,,,,,,2022-09-15,1,,,,,ヴルーム,0
1427,6180001153022,新規,0,2022-09-15,2022-09-15,株式会社ビーエムコネクト,,株式会社,愛知県,名古屋市緑区,篠の風２丁目３２１番地,,23,114,4580015,,,,,,,2022-09-15,1,,,,,ビーエムコネクト,0
1428,6180001153039,新規,0,2022-09-15,2022-09-15,株式会社真誠,,株式会社,愛知県,尾張旭市,平子町中通２５２番地,,23,226,4880873,,,,,,,2022-09-15,1,,,,,シンセイ,0
1431,6180003024262,新規,0,2022-09-15,2022-09-15,ＷＡ　Ｊａｐａｎ合同会社,,合同会社,愛知県,瀬戸市,西山町２丁目８０－７,,23,204,4890987,,,,,,,2022-09-15,1,,,,,ワジャパン,0
1432,6180301036637,新規,0,2022-09-15,2022-09-15,株式会社ＭＯＲＩＳ,,株式会社,愛知県,豊橋市,嵩山町字岩本６０番地,,23,201,4411111,,,,,,,2022-09-15,1,,,,,モリス,0
1459,6290001098818,新規,0,2022-09-15,2022-09-15,株式会社中央電気設備,,株式会社,福岡県,大牟田市,大字唐船１０２番地,,40,202,8360003,,,,,,,2022-09-15,1,,,,,チュウオウデンキセツビ,0
1460,6290003012958,新規,0,2022-09-15,2022-09-15,合同会社なかまる,,合同会社,福岡県,福岡市東区,水谷２丁目１４番１９号,,40,131,8130041,,,,,,,2022-09-15,1,,,,,ナカマル,0
1465,6320001019332,新規,0,2022-09-15,2022-09-15,株式会社グレインテック,,株式会社,大分県,宇佐市,大字南宇佐２１６２番地の１,,44,211,8720102,,,,,,,2022-09-15,1,,,,,グレインテック,0
1471,6350001017960,新規,0,2022-09-15,2022-09-15,株式会社リモワ,,株式会社,宮崎県,宮崎市,橘通西１丁目２番２５号橘パークビル１階,,45,201,8800001,,,,,,,2022-09-15,1,,,,,リモワ,0
1508,6500001024470,新規,0,2022-09-15,2022-09-15,株式会社光南設備,,株式会社,愛媛県,松山市,谷町１７４番地,,38,201,7918002,,,,,,,2022-09-15,1,,,,,コウナンセツビ,0
1509,6500003002887,新規,0,2022-09-15,2022-09-15,安東産業合同会社,,合同会社,愛媛県,今治市,美須賀町２丁目４番５号,,38,202,7940034,,,,,,,2022-09-15,1,,,,,アンドウサンギョウ,0
1522,7010003038674,新規,0,2022-09-15,2022-09-15,合同会社サムライボックス,,合同会社,東京都,中央区,銀座１丁目２２番１１号銀座大竹ビジデンス２階,,13,102,1040061,,,,,,,2022-09-15,1,,,,,サムライボックス,0
1534,7010401169724,新規,0,2022-09-15,2022-09-15,ＳＢＩ地方創生サービシーズ株式会社,,株式会社,東京都,港区,六本木１丁目６番１号,,13,103,1060032,,,,,,,2022-09-15,1,,,,,エスビーアイチホウソウセイサービシーズ,0
1535,7010401169732,新規,0,2022-09-15,2022-09-15,プラスペクト株式会社,,株式会社,東京都,港区,南青山２丁目２番１５号ウィン青山９４２,,13,103,1070062,,,,,,,2022-09-15,1,,,,,プラスペクト,0
1536,7010401169740,新規,0,2022-09-15,2022-09-15,株式会社ゲキダン,,株式会社,東京都,港区,芝２丁目２９番１０号,,13,103,1050014,,,,,,,2022-09-15,1,,,,,ゲキダン,0
1537,7010403028515,新規,0,2022-09-15,2022-09-15,合同会社ＳＨＩＧＥＫＩＸ,,合同会社,東京都,港区,赤坂９丁目４番１号,,13,103,1070052,,,,,,,2022-09-15,1,,,,,シゲキックス,0
1538,7010405021360,新規,0,2022-09-15,2022-09-15,社会保険労務士法人フーディーズ,,その他の設立登記法人,東京都,港区,浜松町２丁目２番１５号浜松町ダイヤビル２Ｆ,,13,103,1050013,,,,,,,2022-09-15,1,,,,,フーディーズ,0
1543,7010903007646,新規,0,2022-09-15,2022-09-15,合同会社セレーノ,,合同会社,東京都,世田谷区,瀬田２丁目３１－２９ＫＤＸレジデンス二子玉川１０２号,,13,112,1580095,,,,,,,2022-09-15,1,,,,,セレーノ,0
1547,7011101100185,新規,0,2022-09-15,2022-09-15,株式会社ＥＯ　ＪＡＰＡＮ,,株式会社,東京都,新宿区,大久保１丁目１５－８－１Ｆ,,13,104,1690072,,,,,,,2022-09-15,1,,,,,イーオージャパン,0
1550,7011503005288,新規,0,2022-09-15,2022-09-15,ＪＭ　Ｉｎｔｅｒｎａｔｉｏｎａｌ合同会社,,合同会社,東京都,北区,東十条４丁目８番１３号澤田ビル３０１,,13,117,1140001,,,,,,,2022-09-15,1,,,,,ジェイエムインターナショナル,0
1553,7011703003257,新規,0,2022-09-15,2022-09-15,合同会社ナルイマジネーション,,合同会社,東京都,江戸川区,大杉２丁目１１番１０号,,13,123,1320022,,,,,,,2022-09-15,1,,,,,ナルイマジネーション,0
1560,7012403005576,新規,0,2022-09-15,2022-09-15,合同会社アクラとプリスキラ,,合同会社,東京都,多摩市,鶴牧３丁目４番地Ｄ’グラフォート多摩センターガーデンサンクタム４０５,,13,224,2060034,,,,,,,2022-09-15,1,,,,,アクラトプリスキラ,0
1563,7012801021852,新規,0,2022-09-15,2022-09-15,株式会社ＲＮ,,株式会社,東京都,立川市,柴崎町２丁目２番１６号ＭＡビル６０３号,,13,202,1900023,,,,,,,2022-09-15,1,,,,,アールエヌ,0
1571,7020001148210,新規,0,2022-09-15,2022-09-15,株式会社クレシタ,,株式会社,神奈川県,川崎市幸区,下平間１３１番地,,14,132,2120053,,,,,,,2022-09-15,1,,,,,クレシタ,0
1576,7021001076995,新規,0,2022-09-15,2022-09-15,株式会社ＳＨＩＭＯＹＡＭＡ,,株式会社,神奈川県,愛甲郡愛川町,中津１８７７番地の８,,14,401,2430303,,,,,,,2022-09-15,1,,,,,シモヤマ,0
1577,7021001077003,新規,0,2022-09-15,2022-09-15,株式会社こんどう動物病院,,株式会社,神奈川県,海老名市,中野１丁目３１番７号,,14,215,2430425,,,,,,,2022-09-15,1,,,,,コンドウドウブツビョウイン,0
1594,7040001125075,新規,0,2022-09-15,2022-09-15,株式会社ＳＫホールディングス,,株式会社,千葉県,船橋市,二子町４９０番地１Ｔ’ｓｇａｒｄｅｎ西船橋３０５号,,12,204,2730034,,,,,,,2022-09-15,1,,,,,エスケーホールディングス,0
1598,7050001051683,新規,0,2022-09-15,2022-09-15,株式会社フラムタップ,,株式会社,茨城県,ひたちなか市,新光町３８,,08,221,3120005,,,,,,,2022-09-15,1,,,,,フラムタップ,0
1602,7050003006842,新規,0,2022-09-15,2022-09-15,聖美国際貿易合同会社,,合同会社,茨城県,土浦市,富士崎１丁目２番１０－５０４号セレナハイム,,08,203,3000813,,,,,,,2022-09-15,1,,,,,キヨミコクサイボウエキ,0
1604,7060001035272,新規,0,2022-09-15,2022-09-15,キヤーン株式会社,,株式会社,栃木県,日光市,今市１３８４番地３,,09,206,3211261,,,,,,,2022-09-15,1,,,,,キヤーン,0
1612,7080403004617,新規,0,2022-09-15,2022-09-15,合同会社ＡＳＡ,,合同会社,静岡県,磐田市,豊田西之島２２５番地２,,22,211,4380835,,,,,,,2022-09-15,1,,,,,エーエスエー,0
1618,7110001036967,新規,0,2022-09-15,2022-09-15,株式会社アルビック,,株式会社,新潟県,新潟市中央区,長潟２丁目１８番８号,,15,103,9500932,,,,,,,2022-09-15,1,,,,,アルビック,0
1627,7120001248438,新規,0,2022-09-15,2022-09-15,株式会社Ｓｗａｇ　Ｅｎｔｅｒｔａｉｎｍｅｎｔ,,株式会社,大阪府,大阪市中央区,南船場２丁目１番９－１３０２号,,27,128,5420081,,,,,,,2022-09-15,1,,,,,スワッグエンターテイメント,0
1628,7120001248826,新規,0,2022-09-15,2022-09-15,株式会社Ｈｅｎｒｙ’ｓ　ＰＩＺＺＡ,,株式会社,大阪府,大阪市中央区,谷町４丁目２番２号１Ｆ,,27,128,5400012,,,,,,,2022-09-15,1,,,,,ヘンリーズピザ,0
1629,7120001248867,新規,0,2022-09-15,2022-09-15,株式会社ＪＳ,,株式会社,大阪府,大阪市都島区,毛馬町２丁目１２番１７号,,27,102,5340001,,,,,,,2022-09-15,1,,,,,ジェイエス,0
1630,7120001248883,新規,0,2022-09-15,2022-09-15,日本研一株式会社,,株式会社,大阪府,大阪市阿倍野区,阪南町５丁目１７番２６号,,27,119,5450021,,,,,,,2022-09-15,1,,,,,ニホンケンイチ,0
1633,7120003022436,新規,0,2022-09-15,2022-09-15,ｉ‐ＤＥＡＬ合同会社,,合同会社,大阪府,大阪市北区,梅田２丁目５番１３号桜橋第一ビル３０４号,,27,127,5300001,,,,,,,2022-09-15,1,,,,,アイデアル,0
1634,7120003022469,新規,0,2022-09-15,2022-09-15,合同会社ＡｓｕＨａ,,合同会社,大阪府,大阪市大正区,泉尾４丁目１４番２０号,,27,108,5510031,,,,,,,2022-09-15,1,,,,,アスハ,0
1638,7120103004854,新規,0,2022-09-15,2022-09-15,合同会社朱鷺プランニング,,合同会社,大阪府,和泉市,仏並町６６１番地,,27,219,5941136,,,,,,,2022-09-15,1,,,,,トキプランニング,0
1640,7120901046503,新規,0,2022-09-15,2022-09-15,ＩＳＫ株式会社,,株式会社,大阪府,豊中市,新千里北町２丁目３９番６の２号,,27,203,5600081,,,,,,,2022-09-15,1,,,,,アイエスケー,0
1652,7140003018135,新規,0,2022-09-15,2022-09-15,合同会社Ｓ＆Ｔ,,合同会社,兵庫県,神戸市垂水区,青山台２丁目２０番２２－２号,,28,108,6550873,,,,,,,2022-09-15,1,,,,,エスアンドティー,0
1654,7150001025826,新規,0,2022-09-15,2022-09-15,ｙａｓｕｄｅｎ株式会社,,株式会社,奈良県,大和高田市,中今里町７番１２号,,29,202,6350037,,,,,,,2022-09-15,1,,,,,ヤスデン,0
1658,7160005011111,新規,0,2022-09-15,2022-09-15,一般社団法人二輪車交流振興協会,,その他の設立登記法人,滋賀県,近江八幡市,西庄町７８２番地４６,,25,204,5230816,,,,,,,2022-09-15,1,,,,,ニリンシャコウリュウシンコウキョウカイ,0
1660,7170005006977,新規,0,2022-09-15,2022-09-15,一般社団法人ｔｅｒｒｅ,,その他の設立登記法人,和歌山県,和歌山市,西庄４８６－１１,,30,201,6400112,,,,,,,2022-09-15,1,,,,,テール,0
1678,7190003004089,新規,0,2022-09-15,2022-09-15,合同会社サマラボ,,合同会社,三重県,津市,一志町高野１６０番地８０８,,24,201,5152504,,,,,,,2022-09-15,1,,,,,サマラボ,0
1680,7220001025034,新規,0,2022-09-15,2022-09-15,株式会社エコルセ,,株式会社,石川県,金沢市,旭町１丁目１６‐１１ｅｃｏｌｃｅ１０２,,17,201,9200941,,,,,,,2022-09-15,1,,,,,エコルセ,0
1686,7230001019522,新規,0,2022-09-15,2022-09-15,株式会社ＹＳＯフィットネス企画,,株式会社,富山県,高岡市,鐘紡町１６５５番地７,,16,202,9330856,,,,,,,2022-09-15,1,,,,,ワイエスオーフィットネスキカク,0
1693,7240001060368,新規,0,2022-09-15,2022-09-15,株式会社メディカルＬＡＢＯ,,株式会社,広島県,広島市南区,宇品御幸４丁目１４番２１号,,34,103,7340015,,,,,,,2022-09-15,1,,,,,メディカルラボ,0
1694,7250001019768,新規,0,2022-09-15,2022-09-15,株式会社ＡＮＧ,,株式会社,山口県,周南市,遠石３丁目５番１５号,,35,215,7450816,,,,,,,2022-09-15,1,,,,,エーエヌジー,0
1701,7290001098890,新規,0,2022-09-15,2022-09-15,株式会社ＧＬＯＢＡＬＣＯＬＬＥＣＴＯＲ,,株式会社,福岡県,福岡市中央区,天神１丁目１番１号アクロス福岡１Ｆ,,40,133,8100001,,,,,,,2022-09-15,1,,,,,グローバルコレクター,0
1702,7290001098932,新規,0,2022-09-15,2022-09-15,金鴻金属株式会社,,株式会社,福岡県,福岡市南区,大橋２丁目２番１１－７０５号,,40,134,8150033,,,,,,,2022-09-15,1,,,,,キンコウキンゾク,0
1703,7290001098940,新規,0,2022-09-15,2022-09-15,アルファーリーシング福岡株式会社,,株式会社,福岡県,福岡市南区,長住３丁目１番２３号プロムナード長住２０３号,,40,134,8111362,,,,,,,2022-09-15,1,,,,,アルファーリーシングフクオカ,0
1705,7290003012957,新規,0,2022-09-15,2022-09-15,イエティ経営合同会社,,合同会社,福岡県,福岡市中央区,薬院３丁目１３－２７,,40,133,8100022,,,,,,,2022-09-15,1,,,,,イエティケイエイ,0
1708,7320001019331,新規,0,2022-09-15,2022-09-15,株式会社いろは,,株式会社,大分県,大分市,牧１丁目１１－１７アメニティハイツ１０４,,44,201,8700924,,,,,,,2022-09-15,1,,,,,イロハ,0
1710,7380001033120,新規,0,2022-09-15,2022-09-15,株式会社ＳＨＵＧＡＲ,,株式会社,福島県,郡山市,菜根１丁目６番２３号,,07,203,9638862,,,,,,,2022-09-15,1,,,,,シュガー,0
1723,7430003014278,新規,0,2022-09-15,2022-09-15,ルーセントジャパン合同会社,,合同会社,北海道,札幌市中央区,南四条東５丁目１－３４,,01,101,0600054,,,,,,,2022-09-15,1,,,,,ルーセントジャパン,0
1724,7430005014549,新規,0,2022-09-15,2022-09-15,医療法人コトニ歯科,,その他の設立登記法人,北海道,札幌市西区,琴似一条４丁目３番１８号紀伊國屋ビル３階,,01,107,0630811,,,,,,,2022-09-15,1,,,,,コトニシカ,0
1725,7460101007247,新規,0,2022-09-15,2022-09-15,杉浦企画株式会社,,株式会社,北海道,帯広市,西四条南１５丁目４番地,,01,207,0800014,,,,,,,2022-09-15,1,,,,,スギウラキカク,0
1735,7700150109010,新規,0,2022-09-15,2022-05-25,Ｕプロデュース,,その他,東京都,世田谷区,下馬２丁目３－１７グリーンハイツ３０２,,13,112,1540002,,,,,,,2022-05-25,1,,,,,ユープロデユース,0
1737,7700150110752,新規,0,2022-09-15,2022-09-15,Ｓａｐｐｈｉｒｅ　ＡＦＬ　Ｌｉｍｉｔｅｄ,,外国会社等,,,,,,,,Ｒｏｃｋｔｗｉｓｔ　Ｈｏｕｓｅ，Ｂｌｏｃｋ　１．ｗｅｓｔｅｒｎ　Ｂｕｓｉｎｅｓｓ　Ｐａｒｋ，Ｓｈａｎｎｏｎ　Ｃｏ．Ｃｌａｒｅ，Ｉｒｅｌａｎｄ,,,,,,2022-09-15,1,,,,,サフアイアエーエフエルリミテツド,0
1744,8010001229373,新規,0,2022-09-15,2022-09-15,Ｘ　ＰＯＩＮＴ株式会社,,株式会社,東京都,中央区,京橋１丁目６番１３号ＶＯＲＴ京橋ＩＩ１０階,00127858,13,102,1040031,,,,,,,2022-09-15,1,,,,,,0
1745,8010001229431,新規,0,2022-09-15,2022-09-15,株式会社ＱｕＩＮｅＬａ,,株式会社,東京都,千代田区,神田神保町３丁目１１番１号,,13,101,1010051,,,,,,,2022-09-15,1,,,,,クイネラ,0
1746,8010001229506,新規,0,2022-09-15,2022-09-15,株式会社ディースター,,株式会社,東京都,中央区,銀座４丁目１３番８号岩藤ビル３階,,13,102,1040061,,,,,,,2022-09-15,1,,,,,ディースター,0
1762,8010401169748,新規,0,2022-09-15,2022-09-15,株式会社Ｚｉｐａｎｇｕ,,株式会社,東京都,港区,新橋１丁目１７番８号ＴＫＫ新橋ビル８Ｆ,,13,103,1050004,,,,,,,2022-09-15,1,,,,,ジパング,0
1764,8010403028464,新規,0,2022-09-15,2022-09-15,合同会社Ｄｊｅｂｅｌ,,合同会社,東京都,港区,虎ノ門５丁目１番４号,,13,103,1050001,,,,,,,2022-09-15,1,,,,,ジェベル,0
1765,8010405021376,新規,0,2022-09-15,2022-09-15,一般社団法人日本金融投資教育協会,,その他の設立登記法人,東京都,港区,港南４丁目１番１０号リバージュ品川１２０３,,13,103,1080075,,,,,,,2022-09-15,1,,,,,ニホンキンユウトウシキョウイクキョウカイ,0
1768,8010501049379,新規,0,2022-09-15,2022-09-15,株式会社納禾,,株式会社,東京都,台東区,三ノ輪２丁目３番８－２０５号,,13,106,1100011,,,,,,,2022-09-15,1,,,,,ナカ,0
1769,8010501049387,新規,0,2022-09-15,2022-09-15,Ｗ・Ｙ株式会社,,株式会社,東京都,台東区,雷門２丁目１番１１号,,13,106,1110034,,,,,,,2022-09-15,1,,,,,ダブルワイ,0
1775,8010701043215,新規,0,2022-09-15,2022-09-15,御殿山プロパティ株式会社,,株式会社,東京都,品川区,北品川５丁目１４番８号,,13,109,1410001,,,,,,,2022-09-15,1,,,,,ゴテンヤマプロパティ,0
1778,8010705003421,新規,0,2022-09-15,2022-09-15,医療法人社団アルファ,,その他の設立登記法人,東京都,品川区,西五反田３丁目９番１４号ヴェルト目黒西１０１号室,,13,109,1410031,,,,,,,2022-09-15,1,,,,,アルファ,0
1787,8011001149792,新規,0,2022-09-15,2022-09-15,株式会社ＯＫＵＮＯＴＥ,,株式会社,東京都,渋谷区,道玄坂１丁目１０番８号渋谷道玄坂東急ビル２Ｆ－Ｃ,,13,113,1500043,,,,,,,2022-09-15,1,,,,,オクノテ,0
1790,8011005009729,新規,0,2022-09-15,2022-09-15,医療法人社団さくらみらい会,,その他の設立登記法人,東京都,渋谷区,本町５丁目１３番８号エンドウ歯科ビル１階,,13,113,1510071,,,,,,,2022-09-15,1,,,,,サクラミライカイ,0
1800,8011103012163,新規,0,2022-09-15,2022-09-15,合同会社Ｓ‐ｓｐａｃｅ,,合同会社,東京都,新宿区,西新宿７丁目５番９－１５１２号,,13,104,1600023,,,,,,,2022-09-15,1,,,,,エススペース,0
1802,8011201024085,新規,0,2022-09-15,2022-09-15,株式会社エコ・ジャパン,,株式会社,東京都,中野区,東中野１丁目５８番１６号－２０３,,13,114,1640003,,,,,,,2022-09-15,1,,,,,エコジャパン,0
1806,8011501028471,新規,0,2022-09-15,2022-09-15,株式会社アディアリインターナショナル,,株式会社,東京都,北区,十条仲原１丁目７番５号,,13,117,1140031,,,,,,,2022-09-15,1,,,,,アディアリインターナショナル,0
1809,8011701025616,新規,0,2022-09-15,2022-09-15,株式会社セラ,,株式会社,東京都,江戸川区,東葛西７丁目１８番３－１０４号,,13,123,1340084,,,,,,,2022-09-15,1,,,,,セラ,0
1823,8020001148192,新規,0,2022-09-15,2022-09-15,株式会社横浜放射線,,株式会社,神奈川県,横浜市鶴見区,梶山２丁目１６番２６－６０７号,,14,101,2300072,,,,,,,2022-09-15,1,,,,,ヨコハマホウシャセン,0
1831,8021001076994,新規,0,2022-09-15,2022-09-15,株式会社東林間薬局西口店,,株式会社,神奈川県,相模原市南区,上鶴間７丁目６番４号,,14,153,2520302,,,,,,,2022-09-15,1,,,,,ヒガシリンカンヤッキョクニシグチテン,0
1832,8021001077010,新規,0,2022-09-15,2022-09-15,株式会社ＳＵＮ商会,,株式会社,神奈川県,厚木市,中荻野２３３番地３２,,14,212,2430202,,,,,,,2022-09-15,1,,,,,サンショウカイ,0
1843,8030001150115,新規,0,2022-09-15,2022-09-15,株式会社利佳,,株式会社,埼玉県,越谷市,南越谷２丁目２－１２コアーズビル２０２,,11,222,3430845,,,,,,,2022-09-15,1,,,,,リカ,0
1847,8040001125082,新規,0,2022-09-15,2022-09-15,株式会社フラワーエクスプレス,,株式会社,千葉県,松戸市,小金原３丁目２番地の５７,,12,207,2700021,,,,,,,2022-09-15,1,,,,,フラワーエクスプレス,0
1851,8040005021732,新規,0,2022-09-15,2022-09-15,特定非営利活動法人千葉県レクリエーション協会,,その他の設立登記法人,千葉県,千葉市稲毛区,天台町２８５番地千葉県総合スポーツセンター宿泊研修所内,,12,103,2630011,,,,,,,2022-09-15,1,,,,,チバケンレクリエーションキョウカイ,0
1861,8050005013142,新規,0,2022-09-15,2022-09-15,一般社団法人茨城県洋菓子協会,,その他の設立登記法人,茨城県,水戸市,宮町２丁目２番２８号,,08,201,3100015,,,,,,,2022-09-15,1,,,,,イバラキケンヨウガシキョウカイ,0
1863,8060001035222,新規,0,2022-09-15,2022-09-15,株式会社サンフラワーアセット,,株式会社,栃木県,佐野市,高萩町１３２１番地１０,,09,204,3270821,,,,,,,2022-09-15,1,,,,,サンフラワーアセット,0
1868,8080401026042,新規,0,2022-09-15,2022-09-15,株式会社曙モータース,,株式会社,静岡県,浜松市西区,篠原町２２４７１番地,,22,133,4310201,,,,,,,2022-09-15,1,,,,,アケボノモータース,0
1869,8080403004616,新規,0,2022-09-15,2022-09-15,合同会社アイハマ工業,,合同会社,静岡県,浜松市東区,天龍川町５１番地の１,,22,132,4350013,,,,,,,2022-09-15,1,,,,,アイハマコウギョウ,0
1872,8110001036966,新規,0,2022-09-15,2022-09-15,テクニカルバイオカーボン株式会社,,株式会社,新潟県,南魚沼市,山谷３２５番地,,15,226,9496763,,,,,,,2022-09-15,1,,,,,,0
1882,8120003022476,新規,0,2022-09-15,2022-09-15,合同会社ハニー,,合同会社,大阪府,大阪市港区,南市岡３丁目１０番２－６０６号,,27,107,5520011,,,,,,,2022-09-15,1,,,,,ハニー,0
1883,8120005023191,新規,0,2022-09-15,2022-09-15,社会保険労務士法人日本プラネット,,その他の設立登記法人,大阪府,大阪市中央区,南本町３丁目６番６号,,27,128,5410054,,,,,,,2022-09-15,1,,,,,ニホンプラネット,0
1890,8120901046502,新規,0,2022-09-15,2022-09-15,株式会社Ｓｋｉｐ　Ｊｏｂ,,株式会社,大阪府,摂津市,南千里丘５番１３－３５０４号,,27,224,5660021,,,,,,,2022-09-15,1,,,,,スキップジョブ,0
1894,8130003008169,新規,0,2022-09-15,2022-09-15,合同会社ＤＩＸＣＯ,,合同会社,京都府,京都市東山区,四条通大和大路東入祇園町北側３４５番地１祇園ゴールドビル４階４０１号,,26,105,6050000,,,,,,,2022-09-15,1,,,,,ディスコ,0
1905,8170001017283,新規,0,2022-09-15,2022-09-15,株式会社アルウェル,,株式会社,和歌山県,東牟婁郡串本町,古座１８８,,30,428,6494115,,,,,,,2022-09-15,1,,,,,アルウェル,0
1906,8170005006976,新規,0,2022-09-15,2022-09-15,一般社団法人海と日本プロジェクトｉｎ和歌山県,,その他の設立登記法人,和歌山県,和歌山市,栄谷１５１番地テレビ和歌山内,,30,201,6408441,,,,,,,2022-09-15,1,,,,,ウミトニッポンプロジェクトインワカヤマケン,0
1915,8180003024260,新規,0,2022-09-15,2022-09-15,合同会社ＯＵＪＡ,,合同会社,愛知県,名古屋市中区,大須３丁目３８番４５号（グランドメゾン大須門前町通１５０１号）,,23,106,4600011,,,,,,,2022-09-15,1,,,,,オウジャ,0
1919,8190001029764,新規,0,2022-09-15,2022-09-15,あさあけセキュリティ株式会社,,株式会社,三重県,津市,広明町３２８番地津ビル１Ｆ,,24,201,5140006,,,,,,,2022-09-15,1,,,,,アサアケセキュリティ,0
1928,8230001019521,新規,0,2022-09-15,2022-09-15,株式会社アジア商事,,株式会社,富山県,黒部市,岡６７０番地２,,16,207,9380054,,,,,,,2022-09-15,1,,,,,アジアショウジ,0
1931,8240001060375,新規,0,2022-09-15,2022-09-15,ＰＡＨＯ　ＮＹ株式会社,,株式会社,広島県,広島市安佐南区,上安１丁目６番２－７０３号,,34,105,7310154,,,,,,,2022-09-15,1,,,,,パホエヌワイ,0
1941,8290001098931,新規,0,2022-09-15,2022-09-15,株式会社琉総,,株式会社,福岡県,福岡市早良区,高取１丁目２１番１０－１０５号,,40,137,8140011,,,,,,,2022-09-15,1,,,,,リュウソウ,0
1943,8290801028897,新規,0,2022-09-15,2022-09-15,株式会社ＫＲコーポレーション,,株式会社,福岡県,北九州市小倉北区,熊谷１丁目３番８号,,40,106,8030864,,,,,,,2022-09-15,1,,,,,ケーアールコーポレーション,0
1945,8320001019330,新規,0,2022-09-15,2022-09-15,株式会社舞鶴不動産,,株式会社,大分県,大分市,今津留１丁目１７番１号,,44,201,8700938,,,,,,,2022-09-15,1,,,,,マイヅルフドウサン,0
1946,8330001030113,新規,0,2022-09-15,2022-09-15,スマートソリューション株式会社,,株式会社,熊本県,熊本市中央区,新町４丁目１１番３－８０３号,,43,101,8600004,,,,,,,2022-09-15,1,,,,,スマートソリューション,0
1950,8340001025038,新規,0,2022-09-15,2022-09-15,株式会社花結,,株式会社,鹿児島県,薩摩川内市,矢倉町４３０２番地２,,46,215,8950036,,,,,,,2022-09-15,1,,,,,ハナユイ,0
1953,8350001017959,新規,0,2022-09-15,2022-09-15,株式会社重冨畜産,,株式会社,宮崎県,えびの市,大字東長江浦１６５２番地１２７,,45,209,8894231,,,,,,,2022-09-15,1,,,,,シゲトミチクサン,0
1956,8350003004170,新規,0,2022-09-15,2022-09-15,合同会社ウィンケル,,合同会社,宮崎県,宮崎市,吉村町大町甲１９１９番地１３,,45,201,8800841,,,,,,,2022-09-15,1,,,,,ウィンケル,0
1957,8360001030985,新規,0,2022-09-15,2022-09-15,株式会社丸王水産,,株式会社,沖縄県,石垣市,浜崎町２丁目６番地２１,,47,207,9070013,,,,,,,2022-09-15,1,,,,,マルオウスイサン,0
1959,8370003005828,新規,0,2022-09-15,2022-09-15,合同会社Ｏｒｄｅｒ,,合同会社,宮城県,仙台市青葉区,通町１丁目５番２号サンハイツ通町４０５,,04,101,9810915,,,,,,,2022-09-15,1,,,,,オーダー,0
1966,8470005006467,新規,0,2022-09-15,2022-09-15,ＮＰＯ法人パッカＲＵＮ,,その他の設立登記法人,香川県,綾歌郡綾川町,山田下６８７番地５,,37,387,7612204,,,,,,,2022-09-15,1,,,,,パッカラン,0
1986,9010103001992,新規,0,2022-09-15,2022-09-15,合同会社ＢＡＥ,,合同会社,東京都,八王子市,上野町１７番地１７,,13,201,1920902,,,,,,,2022-09-15,1,,,,,ビーエーイー,0
1994,9010401169689,新規,0,2022-09-15,2022-09-15,チームやひろ株式会社,,株式会社,東京都,港区,新橋３丁目８番５号,,13,103,1050004,,,,,,,2022-09-15,1,,,,,チームヤヒロ,0
1995,9010401169730,新規,0,2022-09-15,2022-09-15,株式会社Ｅ‐ａｓｓｉｓｔ,,株式会社,東京都,港区,港南２丁目３番１号大信秋山ビル３階,,13,103,1080075,,,,,,,2022-09-15,1,,,,,イーアシスト,0
1997,9010403028463,新規,0,2022-09-15,2022-09-15,合同会社Ｌｅ　Ｐａｃｈａ,,合同会社,東京都,港区,虎ノ門５丁目１番４号,,13,103,1050001,,,,,,,2022-09-15,1,,,,,ルパシャ,0
1998,9010405021391,新規,0,2022-09-15,2022-09-15,一般社団法人ユニバーサルリモートセラピスト協会,,その他の設立登記法人,東京都,港区,浜松町２丁目２番１５号浜松町ダイヤビル２Ｆ,,13,103,1050013,,,,,,,2022-09-15,1,,,,,ユニバーサルリモートセラピストキョウカイ,0
2012,9010901051636,新規,0,2022-09-15,2022-09-15,株式会社ロクイチシステム,,株式会社,東京都,世田谷区,上馬４丁目３９番２号,,13,112,1540011,,,,,,,2022-09-15,1,,,,,ロクイチシステム,0
2013,9010901051644,新規,0,2022-09-15,2022-09-15,株式会社Ｒｅｄ　Ｃａｒｐｅｔ　Ｗａｌｋｅｒ,,株式会社,東京都,世田谷区,喜多見８丁目２３番２２号,,13,112,1570067,,,,,,,2022-09-15,1,,,,,レッドカーペットウォーカー,0
2021,9011003015389,新規,0,2022-09-15,2022-09-15,合同会社ＭＮＰＢ,,合同会社,東京都,目黒区,緑が丘１丁目１６番７号ｍｄｇａｐａｒｔｍｅｎｔ－Ｇ,,13,110,1520034,,,,,,,2022-09-15,1,,,,,エムエヌピービー,0
2022,9011005009728,新規,0,2022-09-15,2022-09-15,医療法人社団ＮＡＢＥ,,その他の設立登記法人,東京都,渋谷区,代々木４丁目５番７号参宮橋ビル１０２号,,13,113,1510053,,,,,,,2022-09-15,1,,,,,ナベ,0
2026,9011101100183,新規,0,2022-09-15,2022-09-15,株式会社Ｓ・Ｅ,,株式会社,東京都,新宿区,歌舞伎町１丁目３番５号相模観光ビルイーストプラザ３Ｆ－Ｄ室,,13,104,1600021,,,,,,,2022-09-15,1,,,,,エスイー,0
2027,9011101100191,新規,0,2022-09-15,2022-09-15,株式会社それから,,株式会社,東京都,新宿区,西新宿３丁目３－１３－２Ｆ,,13,104,1600023,,,,,,,2022-09-15,1,,,,,ソレカラ,0
2029,9011103012162,新規,0,2022-09-15,2022-09-15,合同会社ＨＯＰＥ,,合同会社,東京都,新宿区,四谷４丁目１５番地パークアクシス四谷ステージ１６０１号室,,13,104,1600004,,,,,,,2022-09-15,1,,,,,ホープ,0
2030,9011103012170,新規,0,2022-09-15,2022-09-15,合同会社Ｓｔｒａｉｄ,,合同会社,東京都,新宿区,西新宿３丁目３番１３号西新宿水間ビル６Ｆ,,13,104,1600023,,,,,,,2022-09-15,1,,,,,ストライド,0
2038,9011701025615,新規,0,2022-09-15,2022-09-15,株式会社モアナトラスト,,株式会社,東京都,江戸川区,南小岩１丁目２番１７号,,13,123,1330056,,,,,,,2022-09-15,1,,,,,モアナトラスト,0
2041,9011803005267,新規,0,2022-09-15,2022-09-15,合同会社ＴＳＯ,,合同会社,東京都,葛飾区,新宿６丁目２番１８－７０４号シティテラス金町,,13,122,1250051,,,,,,,2022-09-15,1,,,,,ティーエスオー,0
2044,9012401039640,新規,0,2022-09-15,2022-09-15,株式会社震洋,,株式会社,東京都,府中市,矢崎町４丁目１番地２５７４,,13,206,1830025,,,,,,,2022-09-15,1,,,,,シンヨウ,0
2045,9012403005582,新規,0,2022-09-15,2022-09-15,合同会社Ａｃｉｓｔｗｏ,,合同会社,東京都,三鷹市,下連雀３丁目９－２－５０４,,13,204,1810013,,,,,,,2022-09-15,1,,,,,アシスト,0
2046,9012405004789,新規,0,2022-09-15,2022-09-15,一般社団法人ＧＥＲＤ・ＬＰＲＤ診療ネットワーク,,その他の設立登記法人,東京都,武蔵野市,吉祥寺北町２丁目１９番９号,,13,203,1800001,,,,,,,2022-09-15,1,,,,,ガードエルピーアールディーシンリョウネットワーク,0
2047,9012701017255,新規,0,2022-09-15,2022-09-15,株式会社ＣｒｅａｔｅＦｒｅｅ,,株式会社,東京都,東村山市,久米川町２丁目７番地３８,,13,213,1890003,,,,,,,2022-09-15,1,,,,,クリエイトフリー,0
2048,9012801021850,新規,0,2022-09-15,2022-09-15,株式会社リタサポ,,株式会社,東京都,日野市,多摩平２丁目５－１,,13,212,1910062,,,,,,,2022-09-15,1,,,,,リタサポ,0
2056,9020001148159,新規,0,2022-09-15,2022-09-15,ギャンビットシステム株式会社,,株式会社,神奈川県,横浜市中区,桜木町２丁目２番地,,14,104,2310062,,,,,,,2022-09-15,1,,,,,ギャンビットシステム,0
2057,9020001148209,新規,0,2022-09-15,2022-09-15,Ｉ　ｗｉｌｌ　ｂｅ　ｂａｃｋ株式会社,,株式会社,神奈川県,横浜市旭区,善部町６４番地６０,,14,112,2410823,,,,,,,2022-09-15,1,,,,,アイウィルビバック,0
2058,9020001148233,新規,0,2022-09-15,2022-09-15,小林ホールディングス株式会社,,株式会社,神奈川県,横浜市泉区,中田町３４６２番地１,,14,116,2450011,,,,,,,2022-09-15,1,,,,,コバヤシホールディングス,0
2061,9020003022403,新規,0,2022-09-15,2022-09-15,合同会社カズラボ,,合同会社,神奈川県,横浜市旭区,さちが丘８７番地６,,14,112,2410822,,,,,,,2022-09-15,1,,,,,カズラボ,0
2065,9021001077001,新規,0,2022-09-15,2022-09-15,Ｌｉｏｎａ株式会社,,株式会社,神奈川県,相模原市南区,上鶴間３丁目３番１９号サンヒルズ１０５,,14,153,2520302,,,,,,,2022-09-15,1,,,,,リオナ,0
2072,9030003020174,新規,0,2022-09-15,2022-09-15,合同会社ＦＵＪＩジャパン,,合同会社,埼玉県,三郷市,三郷１丁目１２番地１１シンサーハイツ２０２,,11,237,3410024,,,,,,,2022-09-15,1,,,,,フジジャパン,0
2073,9030003020199,新規,0,2022-09-15,2022-09-15,合同会社ＴＫ‐ｐｌａｎｎｉｎｇ,,合同会社,埼玉県,鴻巣市,大間２丁目１－４７－１０６号室,,11,217,3650054,,,,,,,2022-09-15,1,,,,,ティーケープランニング,0
2076,9040001125098,新規,0,2022-09-15,2022-09-15,Ｔアシスト株式会社,,株式会社,千葉県,柏市,布施新町３丁目２６番９号,,12,217,2770823,,,,,,,2022-09-15,1,,,,,ティーアシスト,0
2078,9040003020826,新規,0,2022-09-15,2022-09-15,合同会社オートマリブ,,合同会社,千葉県,千葉市若葉区,加曽利町１３番地２７,,12,104,2640017,,,,,,,2022-09-15,1,,,,,オートマリブ,0
2079,9040003020834,新規,0,2022-09-15,2022-09-15,合同会社ＴＨＩＬＩＮＡ　ＩＮＴＥＲＮＡＴＩＯＮＡＬ,,合同会社,千葉県,柏市,藤ケ谷２１５番地６,,12,217,2770931,,,,,,,2022-09-15,1,,,,,ティリナインターナショナル,0
2093,9090001017778,新規,0,2022-09-15,2022-09-15,株式会社ホワイトリブカンパニー,,株式会社,山梨県,大月市,猿橋町小沢１４３４番地,,19,206,4090616,,,,,,,2022-09-15,1,,,,,ホワイトリブカンパニー,0
2111,9120001248865,新規,0,2022-09-15,2022-09-15,株式会社サイドホーム,,株式会社,大阪府,大阪市都島区,東野田町４丁目７－２３,,27,102,5340024,,,,,,,2022-09-15,1,,,,,サイドホーム,0
2112,9120001248873,新規,0,2022-09-15,2022-09-15,株式会社ごるフラ,,株式会社,大阪府,門真市,岸和田３丁目２１番５号,,27,223,5710002,,,,,,,2022-09-15,1,,,,,ゴルフラ,0
2113,9120001248881,新規,0,2022-09-15,2022-09-15,Ｈ＆ＩＳＴＡＧＥ株式会社,,株式会社,大阪府,大阪市北区,中崎西２丁目２－１,,27,127,5300015,,,,,,,2022-09-15,1,,,,,エイチアンドステージ,0
2114,9120001248956,新規,0,2022-09-15,2022-09-15,株式会社丹,,株式会社,大阪府,大阪市天王寺区,夕陽丘町４番１１－６０３号,,27,109,5430075,,,,,,,2022-09-15,1,,,,,タン,0
2116,9120003022467,新規,0,2022-09-15,2022-09-15,Ｐｏｌａｒ　Ｊａｐａｎ合同会社,,合同会社,大阪府,大阪市浪速区,下寺２丁目９番９号１Ｆ,,27,111,5560001,,,,,,,2022-09-15,1,,,,,ポーラルジャパン,0
2117,9120005023190,新規,0,2022-09-15,2022-09-15,一般社団法人エスフォルソ,,その他の設立登記法人,大阪府,枚方市,藤阪元町２丁目５４番３号,,27,210,5730157,,,,,,,2022-09-15,1,,,,,エスフォルソ,0
2129,9122001036250,新規,0,2022-09-15,2022-09-15,株式会社ｐａｒａｇｌａｓｓ,,株式会社,大阪府,四條畷市,岡山東５丁目３番４６号,,27,229,5750003,,,,,,,2022-09-15,1,,,,,パラグラス,0
2134,9130001072595,新規,0,2022-09-15,2022-09-15,株式会社永島製作所,,株式会社,京都府,京丹後市,弥栄町鳥取１８９０番地の１,,26,212,6270133,,,,,,,2022-09-15,1,,,,,ナガシマセイサクショ,0
2139,9140001127365,新規,0,2022-09-15,2022-09-15,株式会社ＳｔｅｌｌａＣｌａｓｓｉｃｏ,,株式会社,兵庫県,神戸市東灘区,住吉山手５丁目５－１御影クラシコ１０４,,28,101,6580063,,,,,,,2022-09-15,1,,,,,ステラクラシコ,0
2140,9150001025824,新規,0,2022-09-15,2022-09-15,株式会社ｐａｒ‐ｐｌｅ,,株式会社,奈良県,天理市,勾田町７４番地５号,,29,204,6320033,,,,,,,2022-09-15,1,,,,,パープル,0
2152,9180001153011,新規,0,2022-09-15,2022-09-15,Ｎイノベーション株式会社,,株式会社,愛知県,名古屋市昭和区,檀溪通３丁目１４番地５０９,,23,107,4660842,,,,,,,2022-09-15,1,,,,,エヌイノベーション,0
2161,9180003024243,新規,0,2022-09-15,2022-09-15,Ｒｉｌａ合同会社,,合同会社,愛知県,名古屋市千種区,吹上２丁目５－８－１００５号,,23,101,4640856,,,,,,,2022-09-15,1,,,,,リーラ,0
2162,9180003024251,新規,0,2022-09-15,2022-09-15,合同会社Ｖｉｂｒａｎｔ,,合同会社,愛知県,大府市,森岡町３丁目５３５,,23,223,4740038,,,,,,,2022-09-15,1,,,,,ビブラント,0
2163,9180003024268,新規,0,2022-09-15,2022-09-15,合同会社スプリングヒル,,合同会社,愛知県,名古屋市東区,出来町２丁目６番１０号浅見ビル４０２号,,23,102,4610032,,,,,,,2022-09-15,1,,,,,スプリングヒル,0
2165,9180301036634,新規,0,2022-09-15,2022-09-15,Ｊネクスト株式会社,,株式会社,愛知県,豊橋市,花田町字石塚８２番地２,,23,201,4400075,,,,,,,2022-09-15,1,,,,,ジェイネクスト,0
2170,9190003004087,新規,0,2022-09-15,2022-09-15,合同会社竹乃惠,,合同会社,三重県,多気郡明和町,大字明星字だんどく１１９０番,,24,442,5150313,,,,,,,2022-09-15,1,,,,,タケノメグミ,0
2190,9290003012955,新規,0,2022-09-15,2022-09-15,合同会社ＭＩＣＨＩＫＵＳＡ,,合同会社,福岡県,福岡市中央区,大名２丁目９‐３５トウセン天神ビル９Ｆ,,40,133,8100041,,,,,,,2022-09-15,1,,,,,ミチクサ,0
2192,9290801028896,新規,0,2022-09-15,2022-09-15,株式会社３Ｓ,,株式会社,福岡県,北九州市若松区,大字安瀬４７番地１,,40,103,8080022,,,,,,,2022-09-15,1,,,,,スリーエス,0
2196,9330001030112,新規,0,2022-09-15,2022-09-15,株式会社ＮＫ工業,,株式会社,熊本県,玉名郡長洲町,大字宮野１２８２番地１４,,43,368,8690101,,,,,,,2022-09-15,1,,,,,エヌケイコウギョウ,0
2201,9360001030976,新規,0,2022-09-15,2022-09-15,株式会社タイラ,,株式会社,沖縄県,那覇市,安里１丁目１－５りゅうきゅうプライム４０２,,47,201,9020067,,,,,,,2022-09-15,1,,,,,タイラ,0
2202,9360001030984,新規,0,2022-09-15,2022-09-15,とりけ株式会社,,株式会社,沖縄県,那覇市,長田２丁目４－３メゾン光１０１,,47,201,9020077,,,,,,,2022-09-15,1,,,,,トリケ,0
2206,9380001033119,新規,0,2022-09-15,2022-09-15,株式会社ＹＯＵＲＳ,,株式会社,福島県,郡山市,駅前２丁目６－３メッソビルＢ１Ｆ,,07,203,9638002,,,,,,,2022-09-15,1,,,,,ユアーズ,0
2209,9420001018008,新規,0,2022-09-15,2022-09-15,株式会社アドバンスインターナショナル,,株式会社,青森県,八戸市,石堂４丁目３番８号,,02,203,0391165,,,,,,,2022-09-15,1,,,,,アドバンスインターナショナル,0
2216,9440001009153,新規,0,2022-09-15,2022-09-15,株式会社ＴＡＣＨＩＢＡＮＡ,,株式会社,北海道,北斗市,追分２丁目２番３５号,,01,236,0490101,,,,,,,2022-09-15,1,,,,,タチバナ,0
