sequenceNumber,corporateNumber,process,correct,updateDate,changeDate,name,nameImageId,kind,prefectureName,cityName,streetNumber,addressImageId,prefectureCode,cityCode,postCode,addressOutside,addressOutsideImageId,closeDate,closeCause,successorCorporateNumber,changeCause,assignmentDate,latest,enName,enPrefectureName,enCityName,enAddressOutside,furigana,hihyoji
13,1010005027994,登記記録の閉鎖等,0,2022-10-06,2022-10-04,一般社団法人ＦＳ,,その他の設立登記法人,東京都,千代田区,丸の内３丁目１番１号東京共同会計事務所内,,13,101,1000005,,,2022-10-04,清算の結了等,,,2018-01-19,1,,,,,エフエス,0
15,1010005029644,登記記録の閉鎖等,0,2022-10-06,2022-10-04,一般社団法人ＨＦ６松山一番町キャピタル,,その他の設立登記法人,東京都,千代田区,丸の内３丁目１番１号東京共同会計事務所内,,13,101,1000005,,,2022-10-04,清算の結了等,,,2019-01-25,1,,,,,エイチエフシックスマツヤマイチバンチョウキャピタル,0
16,1010005032805,登記記録の閉鎖等,0,2022-10-06,2022-10-04,ＲＢソーラー伊豆の国ホールディングス一般社団法人,,その他の設立登記法人,東京都,中央区,八丁堀４丁目２番１０号ＡＯＪ税理士法人内,,13,102,1040032,,,2022-10-04,清算の結了等,,,2021-01-19,1,,,,,アールビーソーラーイズノクニホールディングス,0
20,1010102008716,登記記録の閉鎖等,0,2022-10-06,2022-10-03,有限会社シー・アイ・デイー,,有限会社,東京都,八王子市,別所１丁目４１番地の１（３－１３０２）,,13,201,1920363,,,2022-10-03,清算の結了等,,,2015-10-05,1,,,,,,0
37,1010801008231,登記記録の閉鎖等,0,2022-10-06,2022-09-21,株式会社リテラ,,株式会社,東京都,大田区,東糀谷３丁目１３番７号,,13,111,1440033,,,2022-09-21,合併による解散等,4010801014722,令和４年８月２１日東京都大田区東糀谷三丁目１３番７号株式会社トーショーホールディングス（4010801014722）に合併し解散,2015-10-05,1,,,,,リテラ,0
58,1011101055113,登記記録の閉鎖等,0,2022-10-06,2022-10-03,株式会社ムサシノアーツ,,株式会社,東京都,新宿区,市谷砂土原町１丁目２番地,,13,104,1620842,,,2022-10-03,合併による解散等,6011101020830,令和４年１０月１日東京都新宿区市谷砂土原町一丁目２番地株式会社ムサシノ広告社（6011101020830）に合併し解散,2015-10-05,1,,,,,ムサシノアーツ,0
72,1011502010253,登記記録の閉鎖等,0,2022-10-06,2022-10-04,有限会社ナルビ,,有限会社,東京都,荒川区,町屋２丁目２０番１７号,,13,118,1160001,,,2022-10-04,清算の結了等,,,2015-10-05,1,,,,,ナルビ,0
73,1011503004048,登記記録の閉鎖等,0,2022-10-06,2022-09-29,合同会社アイトラスト,,合同会社,東京都,北区,東十条５丁目５番１３号,,13,117,1140001,,,2022-09-29,清算の結了等,,,2019-07-17,1,,,,,アイトラスト,0
90,1012701009342,登記記録の閉鎖等,0,2022-10-06,2022-09-30,株式会社建築Ｌａｂ,,株式会社,東京都,東久留米市,浅間町３丁目２番１６号,,13,222,2030012,,,2022-09-30,清算の結了等,,,2015-10-05,1,,,,,ケンチクラボ,0
92,1012702004565,登記記録の閉鎖等,0,2022-10-06,2022-10-03,有限会社東京入力センター,,有限会社,東京都,西東京市,住吉町５丁目３番１７号,,13,229,2020005,,,2022-10-03,清算の結了等,,,2015-10-05,1,,,,,トウキョウニュウリョクセンター,0
97,1013101000924,登記記録の閉鎖等,0,2022-10-06,2022-10-05,協栄標識株式会社,,株式会社,東京都,あきる野市,入野８５４番地８,,13,228,1900161,,,2022-10-05,清算の結了等,,,2015-10-05,1,,,,,キョウエイヒョウシキ,0
111,1021001068354,登記記録の閉鎖等,0,2022-10-06,2022-10-03,株式会社石貞麻生石材,,株式会社,神奈川県,平塚市,田村１丁目１６番４３号,,14,203,2540013,,,2022-10-03,清算の結了等,,,2019-10-11,1,,,,,イシサダアソウセキザイ,0
141,1070001009396,登記記録の閉鎖等,0,2022-10-06,2022-09-28,共栄電機工業株式会社,,株式会社,群馬県,高崎市,菅谷町２０番地６１０,,10,202,3703522,,,2022-09-28,清算の結了等,,,2015-10-05,1,,,,,キョウエイデンキコウギョウ,0
142,1080001022035,登記記録の閉鎖等,0,2022-10-06,2022-10-03,株式会社ＳＡＣ,,株式会社,静岡県,静岡市葵区,東町３０番地の４,,22,101,4200836,,,2022-10-03,合併による解散等,9080001015808,令和４年１０月１日静岡市葵区東町３０番地の４株式会社ＲＳＴ（9080001015808）に合併し解散,2018-02-01,1,,,,,エスエーシー,0
144,1080101016358,登記記録の閉鎖等,0,2022-10-06,2022-10-03,株式会社ＭＲＫ,,株式会社,静岡県,静岡市葵区,東町３０番地の４,,22,101,4200836,,,2022-10-03,合併による解散等,9080001015808,令和４年１０月１日静岡市葵区東町３０番地の４株式会社ＲＳＴ（9080001015808）に合併し解散,2015-10-05,1,,,,,エムアールケイ,0
171,1120001112401,登記記録の閉鎖等,0,2022-10-06,2022-10-03,オンバンク株式会社,,株式会社,大阪府,大阪市西区,九条２丁目２番８号,,27,106,5500027,,,2022-10-03,合併による解散等,4120001046753,令和４年１０月１日大阪市西区九条二丁目２番８号Ｃｏあきないラボ株式会社（4120001046753）に合併し解散,2015-10-05,1,,,,,オンバンク,0
202,1130003005775,登記記録の閉鎖等,0,2022-10-06,2022-09-29,合同会社打出の小槌,,合同会社,京都府,京都市下京区,和泉屋町１６３番地１木屋町ビル４０１,,26,106,6008014,,,2022-09-29,清算の結了等,,,2018-12-12,1,,,,,ウチデノコヅチ,0
204,1140001016204,登記記録の閉鎖等,0,2022-10-06,2022-09-30,株式会社神姫電気工業所,,株式会社,兵庫県,神戸市西区,北別府３丁目１番５号,,28,111,6512117,,,2022-09-30,清算の結了等,,,2015-10-05,1,,,,,シンキデンキコウギョウショ,0
214,1160001003563,登記記録の閉鎖等,0,2022-10-06,2022-09-30,株式会社坂口ホールディングス,,株式会社,滋賀県,大津市,一里山３丁目１４番６号,,25,201,5202153,,,2022-09-30,合併による解散等,3160001000419,令和４年９月３０日滋賀県大津市月輪一丁目４番６号近江鍛工株式会社（3160001000419）に合併し解散,2015-10-05,1,,,,,サカグチホールディングス,0
231,1190001014979,登記記録の閉鎖等,0,2022-10-06,2022-09-30,笹川殖産株式会社,,株式会社,三重県,四日市市,波木町字坂向３０１番地,,24,202,5100961,,,2022-09-30,清算の結了等,,,2015-10-05,1,,,,,ササガワショクサン,0
232,1190001016686,登記記録の閉鎖等,0,2022-10-06,2022-09-30,四日市いづみ運輸株式会社,,株式会社,三重県,四日市市,大字羽津乙９２５番地,,24,202,5100012,,,2022-09-30,清算の結了等,,,2015-10-05,1,,,,,ヨッカイチイヅミウンユ,0
234,1190002009697,登記記録の閉鎖等,0,2022-10-06,2022-09-30,有限会社松本宝飾,,有限会社,三重県,伊勢市,岩渕１丁目１５番３６号,,24,203,5160037,,,2022-09-30,清算の結了等,,,2015-10-05,1,,,,,マツモトホウショク,0
238,1200002005703,登記記録の閉鎖等,0,2022-10-06,2022-10-05,有限会社フォービス,,有限会社,岐阜県,大垣市,今岡町１丁目２６番地,,21,202,5030874,,,2022-10-05,清算の結了等,,,2015-10-05,1,,,,,フォービス,0
243,1210001012732,登記記録の閉鎖等,0,2022-10-06,2022-10-04,株式会社大森,,株式会社,福井県,鯖江市,磯部町７字４６番地,,18,207,9161114,,,2022-10-04,清算の結了等,,,2015-10-05,1,,,,,オオモリ,0
246,1210002013787,登記記録の閉鎖等,0,2022-10-06,2022-10-03,有限会社ジェーエス,,有限会社,福井県,小浜市,水取１丁目２番９号,,18,204,9170093,,,2022-10-03,清算の結了等,,,2015-10-05,1,,,,,ジェーエス,0
275,1290005000940,登記記録の閉鎖等,0,2022-10-06,2022-10-03,一般財団法人西日本グリーン研究所,,その他の設立登記法人,福岡県,小郡市,三沢１６５５番地,,40,216,8380106,,,2022-10-03,清算の結了等,,,2015-10-05,1,,,,,ニシニホングリーンケンキュウショ,0
280,1310001009173,登記記録の閉鎖等,0,2022-10-06,2022-10-04,株式会社渡部モータース,,株式会社,長崎県,諫早市,小野島町２３２４番地３,,42,204,8540031,,,2022-10-04,清算の結了等,,,2015-10-05,1,,,,,ワタベモータース,0
290,1350001005978,登記記録の閉鎖等,0,2022-10-06,2022-10-03,株式会社木村工務店,,株式会社,宮崎県,日向市,永江町３丁目１１８番地１,,45,206,8830015,,,2022-10-03,清算の結了等,,,2015-10-05,1,,,,,キムラコウムテン,0
291,1360002000746,登記記録の閉鎖等,0,2022-10-06,2022-10-03,有限会社沖縄アイ・シー・コーポレーション,,有限会社,沖縄県,豊見城市,字瀬長１５５番地,,47,212,9010233,,,2022-10-03,清算の結了等,,,2015-10-05,1,,,,,アイシーコーポレーション,0
298,1390001002253,登記記録の閉鎖等,0,2022-10-06,2022-10-03,山口特殊鋼株式会社,,株式会社,山形県,山形市,馬見ケ崎２丁目３番３４号,,06,201,9900810,,,2022-10-03,清算の結了等,,,2015-10-05,1,,,,,ヤマグチトクシュコウ,0
304,1430001062417,登記記録の閉鎖等,0,2022-10-06,2022-10-03,株式会社メイプルファーマシー,,株式会社,北海道,札幌市中央区,北六条西１６丁目１番地５,,01,101,0600006,,,2022-10-03,合併による解散等,7430001023669,令和４年１０月１日札幌市中央区北六条西十六丁目１番地５株式会社そえる（7430001023669）に合併し解散,2015-10-05,1,,,,,メイプルファーマシー,0
321,1500001012224,登記記録の閉鎖等,0,2022-10-06,2022-10-03,株式会社ビル・リフォームカワカミ,,株式会社,愛媛県,今治市,南宝来町３丁目４番地１１,,38,202,7940043,,,2022-10-03,合併による解散等,9500001011425,令和４年１０月１日愛媛県今治市南宝来町三丁目４番地の５株式会社河上工務店（9500001011425）に合併し解散,2015-10-05,1,,,,,ビルリフォームカワカミ,0
337,2010005014513,登記記録の閉鎖等,0,2022-10-06,2022-10-04,特定非営利活動法人介護心理士協会,,その他の設立登記法人,東京都,文京区,本郷３丁目２６番１号本郷宮田ビル６階,,13,105,1130033,,,2022-10-04,清算の結了等,,,2015-10-05,1,,,,,カイゴシンリシキョウカイ,0
356,2010501044476,登記記録の閉鎖等,0,2022-10-06,2022-10-03,株式会社Ｊｑｕａｌｉｔｙ,,株式会社,東京都,台東区,小島２丁目２０番１１号,,13,106,1110056,,,2022-10-03,合併による解散等,2010501039526,令和４年１０月１日東京都台東区小島二丁目２０－１１ＬＩＧビル株式会社エイトワンマネジメント（2010501039526）に合併し解散,2019-08-05,1,,,,,ジェイクオリティ,0
360,2010602018222,登記記録の閉鎖等,0,2022-10-06,2022-09-28,有限会社多幸坊,,有限会社,東京都,江東区,古石場２丁目５番１０－５０６号,,13,108,1350045,,,2022-09-28,清算の結了等,,,2015-10-05,1,,,,,タコボウ,0
381,2011201018729,登記記録の閉鎖等,0,2022-10-06,2022-09-12,株式会社アルファミュ,,株式会社,東京都,港区,白金台３丁目１６番１３号７階,,13,103,1080071,,,2022-09-12,清算の結了等,,,2015-11-30,1,,,,,,0
390,2011701011142,登記記録の閉鎖等,0,2022-10-06,2022-10-03,株式会社堀興業,,株式会社,東京都,江戸川区,東葛西４丁目４０番６号,,13,123,1340084,,,2022-10-03,清算の結了等,,,2015-10-05,1,,,,,ホリコウギョウ,0
408,2012805002812,登記記録の閉鎖等,0,2022-10-06,2022-09-28,税理士法人多摩会計,,その他の設立登記法人,東京都,東大和市,蔵敷３丁目８８０番地４,,13,220,2070032,,,2022-09-28,清算の結了等,,,2019-01-07,1,,,,,タマカイケイ,0
411,2020001014409,登記記録の閉鎖等,0,2022-10-06,2022-09-28,ティ・アンド・ケイ株式会社,,株式会社,神奈川県,横浜市西区,浅間町１丁目１３番地８共益ビル,,14,103,2200072,,,2022-09-28,清算の結了等,,,2015-10-05,1,,,,,ティアンドケイ,0
416,2021001013210,登記記録の閉鎖等,0,2022-10-06,2022-09-29,株式会社テックワン,,株式会社,神奈川県,相模原市南区,上鶴間１丁目１１番９号,,14,153,2520302,,,2022-09-29,清算の結了等,,,2015-10-05,1,,,,,テックワン,0
477,2120001069426,登記記録の閉鎖等,0,2022-10-06,2022-10-03,株式会社ヒップランドミュージック大阪コーポレーション,,株式会社,大阪府,大阪市北区,天神橋３丁目８番９号扇町セトビル７０１,,27,127,5300041,,,2022-10-03,清算の結了等,,,2015-10-05,1,,,,,ヒップランドミュージックオオサカコーポレーション,0
479,2120001204800,登記記録の閉鎖等,0,2022-10-06,2022-10-03,グンゼメディカルジャパン株式会社,,株式会社,大阪府,大阪市淀川区,宮原３丁目５番２４号,,27,123,5320003,,,2022-10-03,合併による解散等,9120001058785,令和４年１０月１日大阪市北区堂島二丁目４番２７号ＪＲＥ堂島タワー５Ｆグンゼメディカル株式会社（9120001058785）に合併し解散,2017-04-07,1,,,,,グンゼメディカルジャパン,0
523,2130003005774,登記記録の閉鎖等,0,2022-10-06,2022-09-29,合同会社招き猫,,合同会社,京都府,京都市東山区,三条通大橋東入大橋町１０３高樹会館４０５号,,26,105,6050009,,,2022-09-29,清算の結了等,,,2018-12-06,1,,,,,マネキネコ,0
546,2180002064370,登記記録の閉鎖等,0,2022-10-06,2022-09-30,有限会社山本鉄工所,,有限会社,愛知県,豊明市,沓掛町泉１２９番地,,23,229,4701107,,,2022-09-30,清算の結了等,,,2015-10-05,1,,,,,ヤマモトテッコウショ,0
549,2180005015866,登記記録の閉鎖等,0,2022-10-06,2022-09-30,特定非営利活動法人アカシア国際ネットワーク,,その他の設立登記法人,愛知県,名古屋市南区,呼続１丁目３番３６号ネオステージ妙音通南５０２号,,23,112,4570014,,,2022-09-30,清算の結了等,,,2015-10-05,1,,,,,アカシアコクサイネットワーク,0
550,2190001017709,登記記録の閉鎖等,0,2022-10-06,2022-09-30,株式会社新建工業,,株式会社,三重県,四日市市,日永西１丁目２９番３７号,,24,202,5100891,,,2022-09-30,清算の結了等,,,2015-10-05,1,,,,,シンケンコウギョウ,0
560,2210001003937,登記記録の閉鎖等,0,2022-10-06,2022-10-03,丸嘉産業株式会社,,株式会社,福井県,福井市,高木中央２丁目１１１０番地,,18,201,9100804,,,2022-10-03,清算の結了等,,,2015-10-05,1,,,,,マルカサンギョウ,0
567,2240002033930,登記記録の閉鎖等,0,2022-10-06,2022-10-03,有限会社フタバ,,有限会社,広島県,呉市,三条２丁目３番１８－１０２号,,34,202,7370821,,,2022-10-03,合併による解散等,4240002033103,令和４年１０月１日広島県呉市三条二丁目３番１８－１０２号株式会社シンメ（4240002033103）に合併し解散,2015-10-05,1,,,,,フタバ,0
573,2260001029201,登記記録の閉鎖等,0,2022-10-06,2022-09-30,桃太郎アセットマネジメント株式会社,,株式会社,岡山県,岡山市北区,柳町１丁目１２番１号,,33,101,7000904,,,2022-09-30,合併による解散等,9260001002829,令和４年９月３０日岡山市北区津高１４０番地の３株式会社三幸工務店（9260001002829）に合併し解散,2016-02-03,1,,,,,モモタロウアセットマネジメント,0
580,2290001068626,登記記録の閉鎖等,0,2022-10-06,2022-09-30,株式会社ＯｖｅｒＴａｋｅ,,株式会社,福岡県,福岡市博多区,下呉服町８番２３号,,40,132,8120034,,,2022-09-30,清算の結了等,,,2015-10-05,1,,,,,オーバーテイク,0
585,2290002035939,登記記録の閉鎖等,0,2022-10-06,2022-10-03,有限会社亜細亜商事,,有限会社,福岡県,糟屋郡宇美町,宇美中央３丁目１１番５号,,40,341,8112128,,,2022-10-03,清算の結了等,,,2015-10-05,1,,,,,アジアショウジ,0
604,2340002000499,登記記録の閉鎖等,0,2022-10-06,2022-10-04,有限会社カムテック,,有限会社,鹿児島県,日置市,伊集院町郡２丁目５８番地,,46,216,8992504,,,2022-10-04,清算の結了等,,,2015-10-05,1,,,,,カムテック,0
607,2360001025033,登記記録の閉鎖等,0,2022-10-06,2022-09-30,ウィンスターハイテクファーム株式会社,,株式会社,沖縄県,石垣市,字川平９６４番地５,,47,207,9070453,,,2022-09-30,清算の結了等,,,2018-12-28,1,,,,,ウィンスターハイテクファーム,0
622,2430001018847,登記記録の閉鎖等,0,2022-10-06,2022-10-03,北日本調剤株式会社,,株式会社,北海道,札幌市中央区,北六条西１６丁目１番地５,,01,101,0600006,,,2022-10-03,合併による解散等,7430001023669,令和４年１０月１日札幌市中央区北六条西十六丁目１番地５株式会社そえる（7430001023669）に合併し解散,2015-10-05,1,,,,,キタニホンチョウザイ,0
633,3010001118036,登記記録の閉鎖等,0,2022-10-06,2022-09-30,株式会社エル,,株式会社,東京都,中央区,日本橋室町１丁目８番２号,,13,102,1030022,,,2022-09-30,清算の結了等,,,2015-10-05,1,,,,,エル,0
641,3010001205107,登記記録の閉鎖等,0,2022-10-06,2022-09-28,株式会社Ｃｙｌａｎ,,株式会社,東京都,中央区,日本橋兜町１７番２号兜町第６葉山ビル４階,,13,102,1030026,,,2022-09-28,清算の結了等,,,2019-11-11,1,,,,,シラン,0
650,3010005014842,登記記録の閉鎖等,0,2022-10-06,2022-10-05,特定非営利活動法人エコロジーファースト,,その他の設立登記法人,東京都,千代田区,神田松永町１９番地３,,13,101,1010023,,,2022-10-05,清算の結了等,,,2015-10-05,1,,,,,エコロジーファースト,0
666,3010402009288,登記記録の閉鎖等,0,2022-10-06,2022-09-15,有限会社ドルフ,,有限会社,東京都,港区,南麻布２丁目３番２６号,,13,103,1060047,,,2022-09-15,清算の結了等,,,2015-10-05,1,,,,,ドルフ,0
675,3010801020424,登記記録の閉鎖等,0,2022-10-06,2022-09-29,株式会社小泉コーポレーション,,株式会社,東京都,大田区,南千束３丁目１３番６号,,13,111,1450063,,,2022-09-29,清算の結了等,,,2015-10-05,1,,,,,,0
707,3011301004413,登記記録の閉鎖等,0,2022-10-06,2022-09-29,中央家電サービス株式会社,,株式会社,東京都,杉並区,西荻南２丁目２５番８号,,13,115,1670053,,,2022-09-29,清算の結了等,,,2015-10-05,1,,,,,チュウオウカデンサービス,0
711,3011502002050,登記記録の閉鎖等,0,2022-10-06,2022-10-03,有限会社小池商店,,有限会社,東京都,北区,滝野川６丁目３３番１０号,,13,117,1140023,,,2022-10-03,清算の結了等,,,2015-10-05,1,,,,,コイケショウテン,0
732,3013301004632,登記記録の閉鎖等,0,2022-10-06,2022-09-28,株式会社三孫,,株式会社,東京都,豊島区,北大塚２丁目８番１１号,,13,116,1700004,,,2022-09-28,清算の結了等,,,2015-10-05,1,,,,,サンマゴ,0
756,3040001007962,登記記録の閉鎖等,0,2022-10-06,2022-09-28,株式会社両国かにや,,株式会社,千葉県,千葉市花見川区,花園４丁目１１番８号,,12,102,2620025,,,2022-09-28,清算の結了等,,,2015-10-05,1,,,,,リョウゴクカニヤ,0
758,3040001063816,登記記録の閉鎖等,0,2022-10-06,2022-09-29,株式会社ホシノ,,株式会社,千葉県,香取郡神崎町,神崎本宿２１５３番地８,,12,342,2890221,,,2022-09-29,清算の結了等,,,2015-10-05,1,,,,,ホシノ,0
779,3080101015820,登記記録の閉鎖等,0,2022-10-06,2022-10-04,株式会社ティー・エム・エム,,株式会社,静岡県,富士市,松本３１番地の２２,,22,210,4160903,,,2022-10-04,清算の結了等,,,2015-10-05,1,,,,,ティーエムエム,0
781,3080102020308,登記記録の閉鎖等,0,2022-10-06,2022-10-04,有限会社広もと,,有限会社,静岡県,伊東市,吉田５７５番地の２,,22,208,4140051,,,2022-10-04,清算の結了等,,,2015-10-05,1,,,,,ヒロモト,0
805,3120002058105,登記記録の閉鎖等,0,2022-10-06,2022-10-03,有限会社アイサーブ,,有限会社,大阪府,大阪市西区,九条２丁目２番８号,,27,106,5500027,,,2022-10-03,合併による解散等,4120001046753,令和４年１０月１日大阪市西区九条二丁目２番８号Ｃｏあきないラボ株式会社（4120001046753）に合併し解散,2015-10-05,1,,,,,アイサーブ,0
811,3120101041044,登記記録の閉鎖等,0,2022-10-06,2022-10-03,株式会社フルスイングアカデミー,,株式会社,大阪府,貝塚市,近木町８番４号,,27,208,5970001,,,2022-10-03,合併による解散等,4120101052478,令和４年１０月１日大阪府岸和田市大町４７５－１９－２株式会社フルスイングリージェンシー（4120101052478）に合併し解散,2015-10-05,1,,,,,フルスイングアカデミー,0
835,3140002056692,登記記録の閉鎖等,0,2022-10-06,2022-09-30,有限会社シード,,有限会社,兵庫県,西宮市,甲陽園目神山町３１番１３４号,,28,204,6620011,,,2022-09-30,清算の結了等,,,2015-10-05,1,,,,,シード,0
836,3140003013247,登記記録の閉鎖等,0,2022-10-06,2022-09-30,株式会社石狩八ノ沢風力発電,,株式会社,兵庫県,神戸市中央区,御幸通８丁目１番６号神戸国際会館１４階,,28,110,6510087,,,2022-09-30,清算の結了等,,,2018-08-20,1,,,,,イシカリハチノサワフウリョクハツデン,0
847,3180001035207,登記記録の閉鎖等,0,2022-10-06,2022-10-03,株式会社カテックスエンジニアリング,,株式会社,愛知県,名古屋市中区,上前津１丁目３番３号,,23,106,4600013,,,2022-10-03,合併による解散等,4180001035206,令和４年１０月１日名古屋市中区上前津一丁目３番３号株式会社カテックス（4180001035206）に合併し解散,2015-10-05,1,,,,,カテックスエンジニアリング,0
854,3190001025297,登記記録の閉鎖等,0,2022-10-06,2022-09-29,株式会社ドラゴンワン,,株式会社,三重県,津市,片田志袋町３００番地５７,,24,201,5140075,,,2022-09-29,清算の結了等,,,2018-02-02,1,,,,,ドラゴンワン,0
860,3210001004752,登記記録の閉鎖等,0,2022-10-06,2022-10-04,トマト観光株式会社,,株式会社,福井県,坂井市,丸岡町長畝７５号１７番地１,,18,210,9100273,,,2022-10-04,清算の結了等,,,2015-10-05,1,,,,,トマトカンコウ,0
866,3230001009790,登記記録の閉鎖等,0,2022-10-06,2022-10-04,株式会社大野屋旅館,,株式会社,富山県,高岡市,末広町２番３９号,,16,202,9330023,,,2022-10-04,清算の結了等,,,2015-10-05,1,,,,,オオノヤリョカン,0
895,3300005002867,登記記録の閉鎖等,0,2022-10-06,2022-10-03,川上川漁業協同組合,,その他の設立登記法人,佐賀県,佐賀市,大和町大字尼寺１８７０番地,,41,201,8400201,,,2022-10-03,清算の結了等,,,2015-10-05,1,,,,,カワカミガワ,0
931,3470001006756,登記記録の閉鎖等,0,2022-10-06,2022-10-04,株式会社三建設計,,株式会社,香川県,高松市,三条町２２９番地１サーパス三条スクエアガーデン８０３号,,37,201,7618072,,,2022-10-04,清算の結了等,,,2015-10-05,1,,,,,サンケンセッケイ,0
963,4010401074035,登記記録の閉鎖等,0,2022-10-06,2022-09-15,株式会社Ｒｅ,,株式会社,東京都,港区,西麻布３丁目２４番９号,,13,103,1060031,,,2022-09-15,清算の結了等,,,2015-10-05,1,,,,,,0
979,4010901008450,登記記録の閉鎖等,0,2022-10-06,2022-09-30,株式会社東和産業,,株式会社,東京都,世田谷区,下馬１丁目１８番４号,,13,112,1540002,,,2022-09-30,清算の結了等,,,2015-10-05,1,,,,,トウワサンギョウ,0
992,4011101090529,登記記録の閉鎖等,0,2022-10-06,2022-09-29,株式会社セル,,株式会社,東京都,新宿区,北新宿１丁目３０番１８－３０８号,,13,104,1690074,,,2022-09-29,清算の結了等,,,2020-02-26,1,,,,,セル,0
1006,4011501023419,登記記録の閉鎖等,0,2022-10-06,2022-10-03,ＮＴ不動産株式会社,,株式会社,東京都,北区,王子４丁目２６番２号,,13,117,1140002,,,2022-10-03,合併による解散等,6011501003402,令和４年１０月１日東京都北区王子四丁目２８番４号中里運送株式会社（6011501003402）に合併し解散,2018-02-07,1,,,,,エヌティーフドウサン,0
1008,4011601017799,登記記録の閉鎖等,0,2022-10-06,2022-09-29,株式会社ＤｅＭＯ,,株式会社,東京都,江東区,有明３丁目７番２６号有明フロンティアビルＢ棟９階,,13,108,1350063,,,2022-09-29,清算の結了等,,,2015-10-05,1,,,,,ディーモ,0
1019,4013301015307,登記記録の閉鎖等,0,2022-10-06,2022-10-03,株式会社コスモサプライ,,株式会社,東京都,豊島区,東池袋２丁目３９番２号大住ビル,,13,116,1700013,,,2022-10-03,合併による解散等,5013301014968,令和４年１０月１日東京都豊島区東池袋二丁目３９番２号大住ビル株式会社コスモウインズ（5013301014968）に合併し解散,2015-10-05,1,,,,,コスモサプライ,0
1025,4020001113530,登記記録の閉鎖等,0,2022-10-06,2022-10-03,ＫＤＴ株式会社,,株式会社,東京都,江戸川区,東松本１丁目８番２号,,13,123,1330071,,,2022-10-03,清算の結了等,,,2015-11-10,1,,,,,ケイディーティー,0
1056,4070002022908,登記記録の閉鎖等,0,2022-10-06,2022-09-29,有限会社大竹製作所,,有限会社,群馬県,桐生市,東久方町２丁目５番１０号,,10,203,3760053,,,2022-09-29,清算の結了等,,,2015-10-05,1,,,,,オオタケセイサクショ,0
1077,4120001144383,登記記録の閉鎖等,0,2022-10-06,2022-10-04,株式会社ニュー・マイスター,,株式会社,滋賀県,草津市,野村５丁目３番１５号,,25,206,5250027,,,2022-10-04,清算の結了等,,,2015-10-05,1,,,,,ニューマイスター,0
1080,4120001209475,登記記録の閉鎖等,0,2022-10-06,2022-10-03,株式会社Ｂ＆Ｃ,,株式会社,大阪府,八尾市,西木の本２丁目１１４番地の６,,27,212,5810045,,,2022-10-03,清算の結了等,,,2017-11-14,1,,,,,ビーアンドシー,0
1091,4120901014727,登記記録の閉鎖等,0,2022-10-06,2022-10-04,株式会社ワッツキャリエル,,株式会社,大阪府,茨木市,五十鈴町５番３号の４,,27,211,5670842,,,2022-10-04,清算の結了等,,,2015-10-05,1,,,,,ワッツキャリエル,0
1111,4180001082784,登記記録の閉鎖等,0,2022-10-06,2022-09-30,サンスピード株式会社,,株式会社,愛知県,一宮市,浅井町河端字宮内２９番地,,23,203,4910111,,,2022-09-30,清算の結了等,,,2015-10-05,1,,,,,サンスピード,0
1117,4180002085679,登記記録の閉鎖等,0,2022-10-06,2022-09-30,有限会社なかみき,,有限会社,愛知県,知多郡南知多町,大字日間賀島字西浜３２番地,,23,445,4703504,,,2022-09-30,清算の結了等,,,2015-10-05,1,,,,,ナカミキ,0
1141,4290001044261,登記記録の閉鎖等,0,2022-10-06,2022-10-03,株式会社トーテックス,,株式会社,福岡県,朝倉市,杷木志波４９５番地１１,,40,228,8381521,,,2022-10-03,合併による解散等,9290001030975,令和４年１０月１日福岡市博多区金の隈二丁目２３番１５号株式会社トーケン（9290001030975）に合併し解散,2015-10-05,1,,,,,トーテックス,0
1178,4370001010899,登記記録の閉鎖等,0,2022-10-06,2022-10-04,株式会社渡辺書店,,株式会社,宮城県,仙台市青葉区,旭ケ丘３丁目１８番２２号,,04,101,9810904,,,2022-10-04,清算の結了等,,,2015-10-05,1,,,,,ワタナベショテン,0
1203,4470002006878,登記記録の閉鎖等,0,2022-10-06,2022-10-04,有限会社村上ビル,,有限会社,香川県,高松市,東ハゼ町１番地３,,37,201,7618054,,,2022-10-04,清算の結了等,,,2015-10-05,1,,,,,ムラカミビル,0
1235,5010401147319,登記記録の閉鎖等,0,2022-10-06,2022-10-04,株式会社ポニーキャニオンアーティスツ,,株式会社,東京都,港区,六本木１丁目５番１７号,,13,103,1060032,,,2022-10-04,合併による解散等,5010401065289,令和４年１０月１日東京都港区六本木一丁目５番１７号株式会社エグジット音楽出版（5010401065289）に合併し解散,2019-08-13,1,,,,,ポニーキャニオンアーティスツ,0
1263,5011101080215,登記記録の閉鎖等,0,2022-10-06,2022-10-03,株式会社種子島企画,,株式会社,東京都,稲城市,向陽台３丁目５番４,,13,225,2060803,,,2022-10-03,清算の結了等,,,2017-04-20,1,,,,,タネガシマキカク,0
1264,5011101089248,登記記録の閉鎖等,0,2022-10-06,2022-10-03,株式会社パレット,,株式会社,東京都,新宿区,西新宿２丁目１番１号新宿三井ビルディング３７階,,13,104,1600023,,,2022-10-03,合併による解散等,6011101067962,令和４年１０月１日東京都新宿区西新宿二丁目１番１号新宿三井ビルディング３７階株式会社ＣＲＳサービス（6011101067962）に合併し解散,2019-10-10,1,,,,,パレット,0
1283,5013202013912,登記記録の閉鎖等,0,2022-10-06,2022-09-29,有限会社ガルヴァーニ・クリエイティブ,,有限会社,東京都,江東区,豊洲６丁目２－１１－８１８,,13,108,1350061,,,2022-09-29,清算の結了等,,,2015-10-05,1,,,,,ガルヴァーニクリエイティブ,0
1292,5020001025403,登記記録の閉鎖等,0,2022-10-06,2022-09-28,株式会社イーグルス,,株式会社,神奈川県,横浜市中区,山下町２７９番地,,14,104,2310023,,,2022-09-28,清算の結了等,,,2015-10-05,1,,,,,イーグルス,0
1303,5020002079935,登記記録の閉鎖等,0,2022-10-06,2022-09-13,有限会社ピーエムアイ,,有限会社,神奈川県,横浜市鶴見区,平安町１丁目５３番地９,,14,101,2300031,,,2022-09-13,清算の結了等,,,2015-10-05,1,,,,,ピーエムアイ,0
1305,5020005001879,登記記録の閉鎖等,0,2022-10-06,2022-09-28,医療法人社団村岡医院,,その他の設立登記法人,神奈川県,横浜市旭区,鶴ケ峰２丁目７３番地,,14,112,2410022,,,2022-09-28,清算の結了等,,,2015-10-05,1,,,,,ムラオカイイン,0
1309,5021002035151,登記記録の閉鎖等,0,2022-10-06,2022-10-03,有限会社西部産業,,有限会社,神奈川県,伊勢原市,板戸２７３番地,,14,214,2591145,,,2022-10-03,清算の結了等,,,2015-10-05,1,,,,,セイブサンギョウ,0
1310,5021002042461,登記記録の閉鎖等,0,2022-10-06,2022-10-03,有限会社丸興,,有限会社,神奈川県,大和市,南林間４丁目１番２３号南林間グランドハイツ１０３号,,14,213,2420006,,,2022-10-03,清算の結了等,,,2015-10-05,1,,,,,マルコウ,0
1311,5021002046504,登記記録の閉鎖等,0,2022-10-06,2022-10-03,有限会社須藤電気,,有限会社,神奈川県,綾瀬市,上土棚南１丁目７番３３号,,14,218,2521114,,,2022-10-03,清算の結了等,,,2015-10-05,1,,,,,スドウデンキ,0
1329,5040001023124,登記記録の閉鎖等,0,2022-10-06,2022-09-22,株式会社アシスト宮崎,,株式会社,千葉県,船橋市,本中山５丁目９番５号,,12,204,2730035,,,2022-09-22,清算の結了等,,,2015-10-05,1,,,,,アシストミヤザキ,0
1341,5040002038402,登記記録の閉鎖等,0,2022-10-06,2022-09-27,有限会社フジコウ,,有限会社,千葉県,鎌ケ谷市,中央２丁目２１番１８号,,12,224,2730124,,,2022-09-27,清算の結了等,,,2015-10-05,1,,,,,フジコウ,0
1347,5050002035340,登記記録の閉鎖等,0,2022-10-06,2022-09-28,有限会社メガネの高松,00023155,有限会社,茨城県,常陸太田市,金井町３６９４番地の５,,08,212,3130016,,,2022-09-28,清算の結了等,,,2015-10-05,1,,,,,メガネノタカマツ,0
1348,5060002008196,登記記録の閉鎖等,0,2022-10-06,2022-09-30,有限会社北栄テクノ,,有限会社,栃木県,宇都宮市,上横田町４５６番地８,,09,201,3210106,,,2022-09-30,清算の結了等,,,2015-10-05,1,,,,,ホクエイテクノ,0
1357,5100002038445,登記記録の閉鎖等,0,2022-10-06,2022-10-03,有限会社森田計器,,有限会社,長野県,下伊那郡豊丘村,大字神稲３８３０番地２,,20,416,3993202,,,2022-10-03,清算の結了等,,,2015-10-05,1,,,,,モリタケイキ,0
1385,5120901032083,登記記録の閉鎖等,0,2022-10-06,2022-10-04,株式会社イシノ,,株式会社,大阪府,三島郡島本町,山崎４丁目８番６号,,27,301,6180001,,,2022-10-04,清算の結了等,,,2015-10-05,1,,,,,イシノ,0
1395,5130002029202,登記記録の閉鎖等,0,2022-10-06,2022-09-28,有限会社ルミナー,,有限会社,京都府,亀岡市,追分町馬場通１１番地の６,,26,206,6210804,,,2022-09-28,清算の結了等,,,2015-10-05,1,,,,,ルミナー,0
1405,5140005024653,登記記録の閉鎖等,0,2022-10-06,2022-10-03,一般社団法人デジタルトランスフォーメーション研究機構,,その他の設立登記法人,兵庫県,神戸市灘区,六甲台町１番１号神戸大学大学院工学研究科内,,28,102,6570013,,,2022-10-03,清算の結了等,,,2019-06-03,1,,,,,デジタルトランスフォーメーションケンキュウキコウ,0
1414,5180002020445,登記記録の閉鎖等,0,2022-10-06,2022-09-30,有限会社大東産業,,有限会社,愛知県,名古屋市中川区,打中１丁目１６４番地２,,23,110,4540927,,,2022-09-30,清算の結了等,,,2015-10-05,1,,,,,ダイトウサンギョウ,0
1415,5180005004412,登記記録の閉鎖等,0,2022-10-06,2022-09-30,中部ダイカスト工業協同組合,,その他の設立登記法人,愛知県,名古屋市中区,新栄３丁目５番６号,,23,106,4600007,,,2022-09-30,清算の結了等,,,2015-10-05,1,,,,,チュウブダイカストコウギョウ,0
1438,5240001060139,登記記録の閉鎖等,0,2022-10-06,2022-10-04,株式会社ＮＳパワーキャピタル,,株式会社,広島県,広島市中区,東千田町２丁目９番５７号広電タワービル,,34,101,7300053,,,2022-10-04,合併による解散等,1240001051273,令和４年１０月４日広島市中区東千田町二丁目９番５７号広電タワービル株式会社ＮＳＰ設計内株式会社ＮＳパワー和歌山（1240001051273）に合併し解散,2022-08-01,1,,,,,エヌエスパワーキャピタル,0
1446,5290001038717,登記記録の閉鎖等,0,2022-10-06,2022-09-30,福岡いづみ運輸株式会社,,株式会社,福岡県,糟屋郡志免町,別府東３丁目１番７号,,40,343,8112231,,,2022-09-30,清算の結了等,,,2015-10-05,1,,,,,フクオカイヅミウンユ,0
1463,5320001012552,登記記録の閉鎖等,0,2022-10-06,2022-10-03,下ノ江リエンジニアリング株式会社,,株式会社,大分県,大分市,大字青崎３番１,,44,201,8700278,,,2022-10-03,合併による解散等,7320001008929,令和４年１０月１日大分県佐伯市大字木立６２６５番地の１壽工業株式会社（7320001008929）に合併し解散,2015-10-05,1,,,,,シタノエリエンジニアリング,0
1472,5340001005397,登記記録の閉鎖等,0,2022-10-06,2022-10-04,株式会社プーナ,,株式会社,鹿児島県,鹿児島市,喜入瀬々串町６０４番地４１１,,46,201,8910201,,,2022-10-04,清算の結了等,,,2015-10-05,1,,,,,プーナ,0
1481,5370001011789,登記記録の閉鎖等,0,2022-10-06,2022-09-28,株式会社プライゼクス,,株式会社,宮城県,仙台市泉区,北中山２丁目１８番地の９,,04,105,9813215,,,2022-09-28,清算の結了等,,,2015-10-05,1,,,,,プライゼクス,0
1489,5420001014472,登記記録の閉鎖等,0,2022-10-06,2022-10-03,株式会社聖翔運輸,,株式会社,青森県,青森市,浪岡大字増館字富岡７６番地１,,02,201,0381333,,,2022-10-03,清算の結了等,,,2015-10-05,1,,,,,セイショウウンユ,0
1496,5430003009916,登記記録の閉鎖等,0,2022-10-06,2022-09-26,合同会社ＡＭＣ,,合同会社,北海道,札幌市手稲区,稲穂二条３丁目３番３号,,01,109,0060032,,,2022-09-26,合併による解散等,8430001082920,令和４年９月１日札幌市手稲区稲穂二条三丁目３番３号ＡＭＣ株式会社（8430001082920）に合併し解散,2018-11-29,1,,,,,エーエムシー,0
1501,5460402000084,登記記録の閉鎖等,0,2022-10-06,2022-10-03,有限会社カネキョー,,有限会社,北海道,根室市,昆布盛１４９番地１２,,01,223,0881784,,,2022-10-03,清算の結了等,,,2015-10-05,1,,,,,カネキョー,0
1502,5470002005838,登記記録の閉鎖等,0,2022-10-06,2022-10-04,有限会社富士興産,,有限会社,香川県,高松市,出作町２３２番地５,,37,201,7618077,,,2022-10-04,清算の結了等,,,2015-10-05,1,,,,,フジコウサン,0
1521,6010005033880,登記記録の閉鎖等,0,2022-10-06,2022-10-04,一般社団法人福島矢吹太陽光発電,,その他の設立登記法人,東京都,千代田区,丸の内３丁目１番１号東京共同会計事務所内,,13,101,1000005,,,2022-10-04,清算の結了等,,,2021-08-30,1,,,,,フクシマヤブキタイヨウコウハツデン,0
1543,6011001064507,登記記録の閉鎖等,0,2022-10-06,2022-09-21,株式会社食べラボ,,株式会社,東京都,目黒区,目黒本町２丁目２番８号,,13,110,1520002,,,2022-09-21,清算の結了等,,,2015-10-05,1,,,,,タベラボ,0
1561,6011502007006,登記記録の閉鎖等,0,2022-10-06,2022-09-29,有限会社石出製作所,,有限会社,東京都,荒川区,東尾久６丁目２５番２号,,13,118,1160012,,,2022-09-29,清算の結了等,,,2015-10-05,1,,,,,イシデセイサクショ,0
1574,6020001078219,登記記録の閉鎖等,0,2022-10-06,2022-10-03,株式会社シスプロ,,株式会社,東京都,千代田区,神田多町２丁目９番２号,,13,101,1010046,,,2022-10-03,合併による解散等,1011101025784,令和４年１０月１日東京都文京区本郷二丁目３８番１６号株式会社グローバルスタッフ（1011101025784）に合併し解散,2015-10-05,1,,,,,シスプロ,0
1598,6040002044317,登記記録の閉鎖等,0,2022-10-06,2022-09-28,有限会社伊藤建装,,有限会社,千葉県,松戸市,小金清志町２丁目４６番地の１－２０９号,,12,207,2700016,,,2022-09-28,清算の結了等,,,2015-10-05,1,,,,,イトウケンソウ,0
1639,6120102020894,登記記録の閉鎖等,0,2022-10-06,2022-09-28,有限会社オフィスヘブン,,有限会社,大阪府,岸和田市,南上町２丁目９番２２号,,27,202,5960078,,,2022-09-28,清算の結了等,,,2015-10-05,1,,,,,オフィスヘブン,0
1651,6140001052871,登記記録の閉鎖等,0,2022-10-06,2022-09-30,株式会社いながき,,株式会社,兵庫県,尼崎市,玄番北之町３８番地,,28,202,6600872,,,2022-09-30,清算の結了等,,,2022-09-16,1,,,,,イナガキ,0
1669,6180001120121,登記記録の閉鎖等,0,2022-10-06,2022-10-03,株式会社ＡＲＣ,,株式会社,静岡県,静岡市葵区,東町３０番地の４,,22,101,4200836,,,2022-10-03,合併による解散等,9080001015808,令和４年１０月１日静岡市葵区東町３０番地の４株式会社ＲＳＴ（9080001015808）に合併し解散,2015-10-05,1,,,,,エーアールシー,0
1689,6240002038380,登記記録の閉鎖等,0,2022-10-06,2022-10-03,有限会社共立組,,有限会社,広島県,福山市,沼隈町大字常石２０６６番地の２,,34,207,7200313,,,2022-10-03,清算の結了等,,,2015-10-05,1,,,,,キョウリツグミ,0
1728,6380002028368,登記記録の閉鎖等,0,2022-10-06,2022-09-29,有限会社サンフーズ,,有限会社,福島県,相馬市,和田字北迫７番地の２１,,07,209,9760023,,,2022-09-29,清算の結了等,,,2015-10-05,1,,,,,サンフーズ,0
1741,6480001000788,登記記録の閉鎖等,0,2022-10-06,2022-10-03,三友ビルド株式会社,,株式会社,徳島県,徳島市,津田海岸町７番２１号,,36,201,7708001,,,2022-10-03,合併による解散等,7480001000787,令和４年１０月１日徳島市東沖洲二丁目１６番３株式会社三友（7480001000787）に合併し解散,2015-10-05,1,,,,,サンユウビルド,0
1763,7010005029548,登記記録の閉鎖等,0,2022-10-06,2022-10-04,一般社団法人サポートホールディングス３０号,,その他の設立登記法人,東京都,千代田区,丸の内３丁目１番１号東京共同会計事務所内,,13,101,1000005,,,2022-10-04,清算の結了等,,,2019-01-04,1,,,,,サポートホールディングスサンジュウゴウ,0
1765,7010401086762,登記記録の閉鎖等,0,2022-10-06,2022-10-03,ウェブルート株式会社,,株式会社,東京都,千代田区,丸の内１丁目８番３号丸の内トラストタワー本館１８階,,13,101,1000005,,,2022-10-03,合併による解散等,4010401033115,令和４年１０月１日東京都千代田区丸の内一丁目８番３号丸の内トラストタワー本館１８階オープンテキスト株式会社（4010401033115）に合併し解散,2015-10-05,1,,,,,ウェブルート,0
1775,7010602011858,登記記録の閉鎖等,0,2022-10-06,2022-09-30,有限会社サンパーツ,,有限会社,東京都,墨田区,東墨田１丁目７番７号,,13,107,1310042,,,2022-09-30,清算の結了等,,,2015-10-05,1,,,,,,0
1776,7010603005438,登記記録の閉鎖等,0,2022-10-06,2022-09-29,徳天商事合同会社,,合同会社,東京都,江東区,北砂５丁目１９番３１－６０４号,,13,108,1360073,,,2022-09-29,清算の結了等,,,2015-10-05,1,,,,,トクテンショウジ,0
1818,7020001059952,登記記録の閉鎖等,0,2022-10-06,2022-09-28,株式会社ＳＫＹ,,株式会社,神奈川県,横浜市磯子区,汐見台１丁目３番地１,,14,107,2350022,,,2022-09-28,清算の結了等,,,2015-10-05,1,,,,,スカイ,0
1819,7020001090247,登記記録の閉鎖等,0,2022-10-06,2022-09-28,ベイ・ファーマシー・クラブ株式会社,,株式会社,神奈川県,横浜市港北区,下田町６丁目２３番７号,,14,109,2230064,,,2022-09-28,清算の結了等,,,2015-10-05,1,,,,,ベイファーマシークラブ,0
1837,7030001030359,登記記録の閉鎖等,0,2022-10-06,2022-09-21,株式会社キャンディ,,株式会社,埼玉県,狭山市,広瀬東４丁目７番１１号,,11,215,3501320,,,2022-09-21,清算の結了等,,,2015-10-05,1,,,,,キャンディ,0
1851,7040002023922,登記記録の閉鎖等,0,2022-10-06,2022-09-27,有限会社東葛産業,,有限会社,千葉県,船橋市,夏見台３丁目４番１１号,,12,204,2730866,,,2022-09-27,清算の結了等,,,2015-10-05,1,,,,,トウカツサンギョウ,0
1853,7040002091770,登記記録の閉鎖等,0,2022-10-06,2022-09-27,有限会社満建工,,有限会社,千葉県,柏市,南柏２丁目２番１４号,,12,217,2770855,,,2022-09-27,清算の結了等,,,2015-10-05,1,,,,,ミツルケンコウ,0
1866,7070002005257,登記記録の閉鎖等,0,2022-10-06,2022-09-30,有限会社宮城衛生,,有限会社,群馬県,前橋市,市之関町１１４４番地１,,10,201,3710245,,,2022-09-30,清算の結了等,,,2015-10-05,1,,,,,ミヤギエイセイ,0
1869,7080001004382,登記記録の閉鎖等,0,2022-10-06,2022-10-04,ヒライ管財株式会社,,株式会社,静岡県,静岡市清水区,川原町１番９号,,22,103,4240857,,,2022-10-04,合併による解散等,5080001008501,令和４年１０月１日静岡市清水区川原町１番９号株式会社セイセイサーバー（5080001008501）に合併し解散,2015-10-05,1,,,,,ヒライカンザイ,0
1870,7080001019001,登記記録の閉鎖等,0,2022-10-06,2022-10-03,株式会社ＭＳＢ,,株式会社,静岡県,静岡市葵区,東町３０番地の４,,22,101,4200836,,,2022-10-03,合併による解散等,9080001015808,令和４年１０月１日静岡市葵区東町３０番地の４株式会社ＲＳＴ（9080001015808）に合併し解散,2015-10-05,1,,,,,エムエスビー,0
1882,7080402016365,登記記録の閉鎖等,0,2022-10-06,2022-10-03,有限会社コナガヤ,,有限会社,静岡県,浜松市天竜区,両島９９７番地の２,,22,137,4313426,,,2022-10-03,清算の結了等,,,2015-10-05,1,,,,,コナガヤ,0
1885,7100001021912,登記記録の閉鎖等,0,2022-10-06,2022-10-03,株式会社オアシス,,株式会社,長野県,伊那市,山寺２７６番地,,20,209,3960023,,,2022-10-03,合併による解散等,9100001021910,令和４年１０月１日長野県伊那市山寺２７６番地株式会社マルコポーロ（9100001021910）に合併し解散,2015-10-05,1,,,,,オアシス,0
1938,7130002001308,登記記録の閉鎖等,0,2022-10-06,2022-09-30,有限会社なをし屋,,有限会社,京都府,京都市中京区,壬生西檜町１６番地７,,26,104,6048846,,,2022-09-30,清算の結了等,,,2015-10-05,1,,,,,ナオシヤ,0
1944,7140005006419,登記記録の閉鎖等,0,2022-10-06,2022-09-14,特定非営利活動法人アイビー・ケア・マネジメント,,その他の設立登記法人,兵庫県,西宮市,伏原町２－１５－５０５,,28,204,6638031,,,2022-09-14,清算の結了等,,,2015-10-05,1,,,,,アイビーケアマネジメント,0
1958,7190002014824,登記記録の閉鎖等,0,2022-10-06,2022-09-30,加藤管工事有限会社,,有限会社,三重県,松阪市,市場庄町４９０番地の１,,24,204,5152121,,,2022-09-30,清算の結了等,,,2015-10-05,1,,,,,カトウカンコウジ,0
1978,7250002015477,登記記録の閉鎖等,0,2022-10-06,2022-09-30,有限会社吉原工業所,,有限会社,山口県,周南市,孝田町２８１番地の１,,35,215,7450822,,,2022-09-30,清算の結了等,,,2015-10-05,1,,,,,ヨシハラコウギョウショ,0
1986,7280002007653,登記記録の閉鎖等,0,2022-10-06,2022-10-04,有限会社伸洋漁業,,有限会社,島根県,大田市,静間町２１７番地４１,,32,205,6940031,,,2022-10-04,清算の結了等,,,2015-10-05,1,,,,,シンヨウギョギョウ,0
1994,7290005003913,登記記録の閉鎖等,0,2022-10-06,2022-10-03,特定非営利活動法人草の根協働福岡,,その他の設立登記法人,福岡県,福岡市東区,若宮２丁目４１番１０号,,40,131,8130036,,,2022-10-03,清算の結了等,,,2015-10-05,1,,,,,クサノネキョウドウフクオカ,0
2002,7300002000795,登記記録の閉鎖等,0,2022-10-06,2022-09-29,有限会社創造経営センター,,有限会社,佐賀県,佐賀市,鍋島３丁目１番３７号,,41,201,8490937,,,2022-09-29,清算の結了等,,,2015-10-05,1,,,,,ソウゾウケイエイセンター,0
2019,7350002018164,登記記録の閉鎖等,0,2022-10-06,2022-10-04,有限会社きりしま農園,,有限会社,宮崎県,西諸県郡高原町,大字蒲牟田７４８番地,,45,361,8894414,,,2022-10-04,清算の結了等,,,2015-10-05,1,,,,,キリシマノウエン,0
2041,7462501000327,登記記録の閉鎖等,0,2022-10-06,2022-10-03,株式会社北海道ニーズ,,株式会社,北海道,目梨郡羅臼町,知昭町４２９番地,,01,694,0861836,,,2022-10-03,清算の結了等,,,2015-10-05,1,,,,,ホッカイドウニーズ,0
2053,7500002003381,登記記録の閉鎖等,0,2022-10-06,2022-10-05,有限会社姿帆,,有限会社,愛媛県,松山市,西一万町２番地１０,,38,201,7900805,,,2022-10-05,清算の結了等,,,2015-10-05,1,,,,,シホ,0
2093,8011001104095,登記記録の閉鎖等,0,2022-10-06,2022-09-22,株式会社エルグラシュ・ジャパン,,株式会社,東京都,渋谷区,宇田川町３４番５号サイトービルＩＩＩ５階,00053353,13,113,1500042,,,2022-09-22,清算の結了等,,,2015-10-05,1,,,,,エルグラシュジャパン,0
2142,8030002026165,登記記録の閉鎖等,0,2022-10-06,2022-09-20,有限会社富沢ビル,,有限会社,埼玉県,蕨市,中央４丁目２番２号,,11,223,3350004,,,2022-09-20,清算の結了等,,,2015-10-05,1,,,,,トミザワビル,0
2144,8030005004093,登記記録の閉鎖等,0,2022-10-06,2022-09-26,特定非営利活動法人婦人科がんバイオマーカー研究会,,その他の設立登記法人,埼玉県,所沢市,大字荒幡東内手１１１番地１号,,11,208,3591133,,,2022-09-26,清算の結了等,,,2015-10-05,1,,,,,フジンカガンバイオマーカーケンキュウカイ,0
2172,8090002012259,登記記録の閉鎖等,0,2022-10-06,2022-09-30,有限会社中央型枠工業,,有限会社,山梨県,富士吉田市,大明見１丁目１６番２５号,,19,202,4030003,,,2022-09-30,清算の結了等,,,2015-10-05,1,,,,,チュウオウカタワクコウギョウ,0
2173,8100001033502,登記記録の閉鎖等,0,2022-10-06,2022-10-03,ＧＳホールディングス株式会社,,株式会社,長野県,長野市,南千歳１丁目１２番地７,,20,201,3800823,,,2022-10-03,合併による解散等,5100001004084,令和４年１０月１日長野市南千歳一丁目１２番地７ホクシンハウス株式会社（5100001004084）に合併し解散,2020-09-08,1,,,,,ジイエスホールディングス,0
2176,8100002036594,登記記録の閉鎖等,0,2022-10-06,2022-09-30,有限会社スズキ,,有限会社,長野県,飯田市,鼎中平２３１３番地,,20,205,3950801,,,2022-09-30,清算の結了等,,,2015-10-05,1,,,,,スズキ,0
2178,8110001025696,登記記録の閉鎖等,0,2022-10-06,2022-09-30,株式会社栃尾物産館はーもにー,,株式会社,新潟県,長岡市,栃尾宮沢１７６４番地,,15,202,9400233,,,2022-09-30,清算の結了等,,,2015-10-05,1,,,,,トチオブッサンカンハーモニー,0
2204,8122002004744,登記記録の閉鎖等,0,2022-10-06,2022-10-03,有限会社マツダアートプリント,,有限会社,大阪府,東大阪市,西堤本通西２丁目６番１８号,,27,227,5770046,,,2022-10-03,清算の結了等,,,2015-10-05,1,,,,,マツダアートプリント,0
2206,8122002013852,登記記録の閉鎖等,0,2022-10-06,2022-09-30,有限会社三鐘,,有限会社,大阪府,八尾市,永畑町１丁目２番４３号,,27,212,5810083,,,2022-09-30,清算の結了等,,,2015-10-05,1,,,,,サンショウ,0
2225,8150001002270,登記記録の閉鎖等,0,2022-10-06,2022-09-30,株式会社松石工務店,,株式会社,奈良県,奈良市,八島町１３番地の１,,29,201,6308435,,,2022-09-30,清算の結了等,,,2015-10-05,1,,,,,マツイシコウムテン,0
2263,8280001000633,登記記録の閉鎖等,0,2022-10-06,2022-10-03,株式会社レテック,,株式会社,島根県,松江市,学園南２丁目５番２６号,,32,201,6900826,,,2022-10-03,合併による解散等,4280001008069,令和４年１０月１日島根県松江市学園南二丁目１０番１４号株式会社ＴＳＫネクスト（4280001008069）に合併し解散,2015-10-05,1,,,,,レテック,0
2266,8290001063225,登記記録の閉鎖等,0,2022-10-06,2022-10-03,株式会社ユニオン,,株式会社,福岡県,福岡市博多区,博多駅南１丁目３番８－５０１号,,40,132,8120016,,,2022-10-03,合併による解散等,8310001004770,令和４年１０月１日福岡市博多区博多駅南一丁目３番８号株式会社サークル（8310001004770）に合併し解散,2015-10-05,1,,,,,ユニオン,0
2284,8300005006293,登記記録の閉鎖等,0,2022-10-06,2022-09-30,一般社団法人くすきの杜,,その他の設立登記法人,佐賀県,伊万里市,立花町３５２０番地６,,41,205,8480027,,,2022-09-30,清算の結了等,,,2015-10-05,1,,,,,クスキノモリ,0
2288,8310002014950,登記記録の閉鎖等,0,2022-10-06,2022-10-04,有限会社諫早車輌保険センター,,有限会社,長崎県,諫早市,栗面町８３番地の２,,42,204,8540055,,,2022-10-04,清算の結了等,,,2015-10-05,1,,,,,イサハヤシャリョウホケンセンター,0
2297,8340005007032,登記記録の閉鎖等,0,2022-10-06,2022-10-05,特定非営利活動法人ムラ工房Ｋ,,その他の設立登記法人,鹿児島県,肝属郡東串良町,池之原１２７１番地,,46,482,8931612,,,2022-10-05,清算の結了等,,,2015-10-05,1,,,,,ムラコウボウケイ,0
2333,9010001193131,登記記録の閉鎖等,0,2022-10-06,2022-09-30,十勝川ソーラーパワー株式会社,,株式会社,東京都,千代田区,大手町２丁目１番１号,,13,101,1000004,,,2022-09-30,清算の結了等,,,2018-07-12,1,,,,,トカチガワソーラーパワー,0
2340,9010003022049,登記記録の閉鎖等,0,2022-10-06,2022-09-21,合同会社中村尚弘建築設計事務所,,合同会社,東京都,目黒区,目黒２丁目１１番３号－１階,,13,110,1530063,,,2022-09-21,清算の結了等,,,2015-10-05,1,,,,,ナカムラナオヒロケンチクセッケイジムショ,0
2370,9010902003066,登記記録の閉鎖等,0,2022-10-06,2022-09-29,有限会社大海老食品,,有限会社,東京都,世田谷区,深沢１丁目９番１１号,,13,112,1580081,,,2022-09-29,清算の結了等,,,2015-10-05,1,,,,,,0
2390,9012402014279,登記記録の閉鎖等,0,2022-10-06,2022-09-30,中村医工研株式会社,,株式会社,兵庫県,高砂市,曽根町１０２９－３,,28,216,6760082,,,2022-09-30,清算の結了等,,,2015-10-05,1,,,,,ナカムライコウケン,0
2421,9030005018489,登記記録の閉鎖等,0,2022-10-06,2022-09-26,特定非営利活動法人ｆａｍｉｌｉａｒ　ｈｏｕｓｅ,,その他の設立登記法人,埼玉県,所沢市,大字上安松２３５番地の９,,11,208,3590025,,,2022-09-26,清算の結了等,,,2017-05-09,1,,,,,ファミリアハウス,0
2436,9060001027219,登記記録の閉鎖等,0,2022-10-06,2022-09-30,ニシユキ株式会社,,株式会社,栃木県,宇都宮市,下栗１丁目２３番地２０,,09,201,3210924,,,2022-09-30,清算の結了等,,,2015-10-05,1,,,,,ニシユキ,0
2440,9060005009188,登記記録の閉鎖等,0,2022-10-06,2022-09-28,有限責任市羽信用購買販賣利用組合,,その他の設立登記法人,栃木県,芳賀郡市貝町,大字赤羽２７３８番地,,09,344,3213426,,,2022-09-28,清算の結了等,,,2016-05-18,1,,,,,,0
2448,9080103001152,登記記録の閉鎖等,0,2022-10-06,2022-10-04,合同会社フジヤマ創造,,合同会社,静岡県,御殿場市,二枚橋１３８番地の４９,,22,215,4120021,,,2022-10-04,清算の結了等,,,2015-10-05,1,,,,,フジヤマソウゾウ,0
2460,9110002029365,登記記録の閉鎖等,0,2022-10-06,2022-10-03,有限会社モンブラン,,有限会社,新潟県,長岡市,花園２丁目１０番３１号,,15,202,9400845,,,2022-10-03,清算の結了等,,,2015-10-05,1,,,,,モンブラン,0
2467,9120001080260,登記記録の閉鎖等,0,2022-10-06,2022-10-03,株式会社サンユリヤ,,株式会社,大阪府,大阪市中央区,心斎橋筋２丁目５番２号,,27,128,5420085,,,2022-10-03,合併による解散等,9120001081845,令和４年１０月１日大阪市中央区心斎橋筋二丁目５番２号株式会社心斎橋ユリヤ（9120001081845）に合併し解散,2015-10-05,1,,,,,サンユリヤ,0
2473,9120001230526,登記記録の閉鎖等,0,2022-10-06,2022-10-03,株式会社ブラゾン,,株式会社,大阪府,大阪市淀川区,西中島７丁目５番２５号,,27,123,5320011,,,2022-10-03,合併による解散等,2120001115345,令和４年１０月１日大阪市淀川区西中島七丁目４番１７号株式会社サファリゲームズ（2120001115345）に合併し解散,2020-07-17,1,,,,,ブラゾン,0
2481,9120002053414,登記記録の閉鎖等,0,2022-10-06,2022-10-03,有限会社プランニング・テクノ,,有限会社,大阪府,大阪市西成区,千本南１丁目１７番１号,,27,122,5570055,,,2022-10-03,清算の結了等,,,2015-10-05,1,,,,,プランニングテクノ,0
2483,9120003011899,登記記録の閉鎖等,0,2022-10-06,2022-10-03,日興金属合同会社,,合同会社,大分県,大分市,大字下判田６４８番地１,,44,201,8701112,,,2022-10-03,合併による解散等,4320001017379,令和４年１０月１日大分市大字下判田６４８番地１日興金属株式会社（4320001017379）に合併し解散,2016-08-10,1,,,,,,0
2488,9120101044628,登記記録の閉鎖等,0,2022-10-06,2022-10-03,株式会社昌輝ニット,,株式会社,大阪府,阪南市,自然田２７３番地の３２,,27,232,5990212,,,2022-10-03,清算の結了等,,,2015-10-05,1,,,,,,0
2493,9120102022178,登記記録の閉鎖等,0,2022-10-06,2022-10-03,山中産業有限会社,,有限会社,大阪府,貝塚市,三ケ山１０６９番地の１,,27,208,5970101,,,2022-10-03,合併による解散等,6120101038153,令和４年１０月１日大阪府貝塚市三ケ山１０６９番地の１山和自動車株式会社（6120101038153）に合併し解散,2015-10-05,1,,,,,ヤマナカサンギョウ,0
2494,9120102024109,登記記録の閉鎖等,0,2022-10-06,2022-10-03,有限会社ひうら,,有限会社,大阪府,泉南郡熊取町,野田４丁目２０５８番地の２,,27,361,5900451,,,2022-10-03,清算の結了等,,,2015-10-05,1,,,,,ヒウラ,0
2495,9120901031924,登記記録の閉鎖等,0,2022-10-06,2022-09-30,株式会社テクノ・サプライ,,株式会社,大阪府,摂津市,鶴野２丁目７番２号,,27,224,5660035,,,2022-09-30,清算の結了等,,,2015-10-05,1,,,,,テクノサプライ,0
2501,9130001031592,登記記録の閉鎖等,0,2022-10-06,2022-09-29,株式会社京和技研,,株式会社,京都府,京都市北区,衣笠東開キ町５番地１,,26,101,6038453,,,2022-09-29,清算の結了等,,,2015-10-05,1,,,,,キョウワギケン,0
2523,9180005012808,登記記録の閉鎖等,0,2022-10-06,2022-09-30,特定非営利活動法人はっぴいわん大府,,その他の設立登記法人,愛知県,大府市,吉川町３丁目２８８番地,,23,223,4740046,,,2022-09-30,清算の結了等,,,2015-10-05,1,,,,,ハッピイワンオオブ,0
2525,9180302023615,登記記録の閉鎖等,0,2022-10-06,2022-09-26,有限会社ミズノ,,有限会社,愛知県,豊田市,水源町２丁目２２番地の１４６,,23,211,4710822,,,2022-09-26,清算の結了等,,,2015-10-05,1,,,,,ミズノ,0
2526,9190001001383,登記記録の閉鎖等,0,2022-10-06,2022-10-03,株式会社ホンダ販売マツモト,,株式会社,三重県,津市,久居井戸山町１６番地６,,24,201,5141114,,,2022-10-03,合併による解散等,6190001008010,令和４年１０月１日三重県志摩市阿児町鵜方２８８４番地１９株式会社ホンダカーズ三重南（6190001008010）に合併し解散,2015-10-05,1,,,,,ホンダハンバイマツモト,0
2528,9190002011712,登記記録の閉鎖等,0,2022-10-06,2022-09-30,有限会社鵜方ゴルフセンター,,有限会社,三重県,志摩市,阿児町鵜方３０６１番地９,,24,215,5170501,,,2022-09-30,清算の結了等,,,2015-10-05,1,,,,,ウガタゴルフセンター,0
2529,9190002017321,登記記録の閉鎖等,0,2022-10-06,2022-09-30,有限会社ユタカ産業,,有限会社,三重県,桑名市,大字大福４７２番地１,,24,205,5110834,,,2022-09-30,清算の結了等,,,2015-10-05,1,,,,,ユタカサンギョウ,0
2533,9200002004763,登記記録の閉鎖等,0,2022-10-06,2022-10-05,有限会社メイコーサービス,,有限会社,岐阜県,岐阜市,上川手３７０番,,21,201,5008245,,,2022-10-05,清算の結了等,,,2015-10-05,1,,,,,メイコーサービス,0
2541,9240001034857,登記記録の閉鎖等,0,2022-10-06,2022-10-03,株式会社山森,,株式会社,広島県,福山市,東手城町２丁目１３番２号,,34,207,7210962,,,2022-10-03,合併による解散等,2240001031019,令和４年１０月１日広島県福山市東手城町二丁目１４番５号スガナミ物産株式会社（2240001031019）に合併し解散,2015-10-05,1,,,,,ヤマモリ,0
2546,9250001004917,登記記録の閉鎖等,0,2022-10-06,2022-09-28,株式会社日高,00002410,株式会社,山口県,宇部市,大字小串７２番地２１,,35,202,7550067,,,2022-09-28,清算の結了等,,,2015-10-05,1,,,,,ヒダカ,0
2569,9290802005218,登記記録の閉鎖等,0,2022-10-06,2022-10-03,有限会社ハロー・コンタクト,,有限会社,福岡県,北九州市小倉北区,竪町１丁目６番２７号,,40,106,8030818,,,2022-10-03,清算の結了等,,,2015-10-05,1,,,,,ハローコンタクト,0
2587,9400002003282,登記記録の閉鎖等,0,2022-10-06,2022-10-04,有限会社室岡建設,,有限会社,岩手県,盛岡市,東桜山３６番２８号,,03,201,0200804,,,2022-10-04,清算の結了等,,,2015-10-05,1,,,,,ムロオカケンセツ,0
2588,9420002006663,登記記録の閉鎖等,0,2022-10-06,2022-09-30,有限会社アイリス,,有限会社,青森県,八戸市,根城３丁目２４番２６号,,02,203,0391166,,,2022-09-30,清算の結了等,,,2015-10-05,1,,,,,アイリス,0
