sequenceNumber,corporateNumber,process,correct,updateDate,changeDate,name,nameImageId,kind,prefectureName,cityName,streetNumber,addressImageId,prefectureCode,cityCode,postCode,addressOutside,addressOutsideImageId,closeDate,closeCause,successorCorporateNumber,changeCause,assignmentDate,latest,enName,enPrefectureName,enCityName,enAddressOutside,furigana,hihyoji
1,1010001093446,登記記録の閉鎖等,0,2021-07-21,2021-07-12,株式会社ＮＡＣ,,株式会社,東京都,中央区,築地１丁目４番３－１２０６号,,13,102,1040045,,,2021-07-12,清算の結了等,,,2015-10-05,1,,,,,ナック,0
9,1010002035199,登記記録の閉鎖等,0,2021-07-21,2021-07-06,有限会社小田事務所,,有限会社,東京都,文京区,白山１丁目３３番１９号,,13,105,1130001,,,2021-07-06,清算の結了等,,,2015-10-05,1,,,,,オダジムショ,0
14,1010401074310,登記記録の閉鎖等,0,2021-07-21,2021-07-08,ＮＴＴコムソリューションズ株式会社,,株式会社,東京都,千代田区,神田猿楽町１丁目５番１５号,,13,101,1010064,,,2021-07-08,合併による解散等,7010001064648,令和３年７月１日東京都千代田区大手町二丁目３番１号エヌ・ティ・ティ・コミュニケーションズ株式会社（7010001064648）に合併し解散,2015-10-05,1,,,,,エヌティティコムソリューションズ,0
19,1010403014438,登記記録の閉鎖等,0,2021-07-21,2021-07-20,合同会社ＧＬコネクト,,合同会社,東京都,港区,北青山２丁目５番１号,,13,103,1070061,,,2021-07-20,清算の結了等,,,2016-02-18,1,,,,,ジーエルコネクト,0
49,1011401004059,登記記録の閉鎖等,0,2021-07-21,2021-07-16,株式会社田中建築設計事務所,,株式会社,東京都,板橋区,中丸町５番６号,,13,119,1730026,,,2021-07-16,清算の結了等,,,2015-10-05,1,,,,,タナカケンチクセッケイジムショ,0
50,1011401020031,登記記録の閉鎖等,0,2021-07-21,2021-07-13,株式会社ワッショイ・コーポレーション,,株式会社,東京都,板橋区,南常盤台２丁目１９番１２－４０１号,,13,119,1740072,,,2021-07-13,清算の結了等,,,2017-02-06,1,,,,,ワッショイコーポレーション,0
54,1011701018428,登記記録の閉鎖等,0,2021-07-21,2021-07-15,株式会社ひるラボ,,株式会社,東京都,江戸川区,下篠崎町１０番１０号,,13,123,1330064,,,2021-07-15,清算の結了等,,,2015-10-05,1,,,,,ヒルラボ,0
64,1012802006305,登記記録の閉鎖等,0,2021-07-21,2021-07-07,有限会社山賀電気工事,,有限会社,東京都,東大和市,仲原２丁目１６番地の３,,13,220,2070016,,,2021-07-07,清算の結了等,,,2015-10-05,1,,,,,ヤマガデンキコウジ,0
71,1013301038260,登記記録の閉鎖等,0,2021-07-21,2021-07-07,株式会社サヴィーノ研究所,,株式会社,埼玉県,新座市,野火止５丁目３０－１０,,11,230,3520011,,,2021-07-07,清算の結了等,,,2016-01-26,1,,,,,サヴィーノケンキュウジョ,0
94,1030001108383,登記記録の閉鎖等,0,2021-07-21,2021-07-12,株式会社ブリッジウェイズ,,株式会社,埼玉県,戸田市,美女木１丁目３０番６号,,11,224,3350031,,,2021-07-12,清算の結了等,,,2015-10-05,1,,,,,ブリッジウェイズ,0
106,1040001102906,登記記録の閉鎖等,0,2021-07-21,2021-07-12,株式会社ＭＥＩ設計室,,株式会社,千葉県,松戸市,松戸新田２６６番地の２０,,12,207,2702241,,,2021-07-12,清算の結了等,,,2017-12-22,1,,,,,メイセッケイシツ,0
168,1122002015442,登記記録の閉鎖等,0,2021-07-21,2021-07-15,有限会社田中シール,,有限会社,大阪府,柏原市,円明町６番１８号,,27,221,5820027,,,2021-07-15,清算の結了等,,,2015-10-05,1,,,,,タナカシール,0
171,1130001014241,登記記録の閉鎖等,0,2021-07-21,2021-07-13,株式会社京製サービス,,株式会社,京都府,京都市伏見区,淀美豆町３７７番地の１,,26,109,6130916,,,2021-07-13,合併による解散等,5130001016226,令和３年７月１日京都市伏見区淀美豆町３７７番地の１株式会社京都製作所（5130001016226）に合併し解散,2015-10-05,1,,,,,キョウセイサービス,0
192,1150005006662,登記記録の閉鎖等,0,2021-07-21,2021-07-14,全国伝動機工業協同組合,,その他の設立登記法人,奈良県,御所市,大字城山台１６６番地５,,29,208,6392261,,,2021-07-14,清算の結了等,,,2015-10-05,1,,,,,ゼンコクデンドウキコウギョウ,0
229,1230001003457,登記記録の閉鎖等,0,2021-07-21,2021-07-07,株式会社ユーティ・システム,,株式会社,富山県,富山市,月岡町６丁目１２６１番地,,16,201,9398132,,,2021-07-07,清算の結了等,,,2015-10-05,1,,,,,,0
253,1320001006236,登記記録の閉鎖等,0,2021-07-21,2021-07-12,九重交通開発株式会社,,株式会社,大分県,別府市,大字鶴見３８２５番地の１,,44,202,8740840,,,2021-07-12,清算の結了等,,,2015-10-05,1,,,,,クジュウコウツウカイハツ,0
291,1420001012901,登記記録の閉鎖等,0,2021-07-21,2021-07-07,株式会社仁美地所,,株式会社,青森県,八戸市,城下４丁目１０番１４号,,02,203,0310072,,,2021-07-07,清算の結了等,,,2015-10-05,1,,,,,ヒトミジショ,0
326,2010401152726,登記記録の閉鎖等,0,2021-07-21,2021-07-07,株式会社エフアイティー,,株式会社,東京都,港区,南青山２丁目２番１５号ウィン青山９４２,,13,103,1070062,,,2021-07-07,清算の結了等,,,2020-05-15,1,,,,,エフアイティー,0
394,2021002010033,登記記録の閉鎖等,0,2021-07-21,2021-07-12,有限会社亜希積算事務所,,有限会社,神奈川県,茅ヶ崎市,美住町１７番２５号,,14,207,2530023,,,2021-07-12,清算の結了等,,,2015-10-05,1,,,,,アキセキサンジムショ,0
424,2040002071042,登記記録の閉鎖等,0,2021-07-21,2021-07-12,有限会社海浜ホテル萬年屋,,有限会社,千葉県,富津市,金谷３８７８番地,,12,226,2991861,,,2021-07-12,清算の結了等,,,2015-10-05,1,,,,,カイヒンホテルマンネンヤ,0
427,2050002001915,登記記録の閉鎖等,0,2021-07-21,2021-07-12,有限会社瀬良美,,有限会社,茨城県,水戸市,南町２丁目２番３２号,,08,201,3100021,,,2021-07-12,清算の結了等,,,2015-10-05,1,,,,,セラミ,0
435,2070001015872,登記記録の閉鎖等,0,2021-07-21,2021-07-19,株式会社協同ハウス,,株式会社,群馬県,桐生市,川内町３丁目８０１番地２,,10,203,3760041,,,2021-07-19,清算の結了等,,,2015-10-05,1,,,,,キョウドウハウス,0
438,2080002010351,登記記録の閉鎖等,0,2021-07-21,2021-07-15,有限会社千寿園,,有限会社,静岡県,静岡市清水区,秋吉町４番１７号,,22,103,4240801,,,2021-07-15,清算の結了等,,,2015-10-05,1,,,,,センジュエン,0
477,2120105007521,登記記録の閉鎖等,0,2021-07-21,2021-07-14,公益財団法人人・インフラ・テクノロジー,,その他の設立登記法人,大阪府,岸和田市,上野町西２番２８号,,27,202,5960048,,,2021-07-14,清算の結了等,,,2015-10-05,1,,,,,ヒトインフラテクノロジー,0
510,2200001002700,登記記録の閉鎖等,0,2021-07-21,2021-07-16,ズーム株式会社,,株式会社,岐阜県,岐阜市,加納寿町４丁目１番地,,21,201,5008465,,,2021-07-16,清算の結了等,,,2015-10-05,1,,,,,ズーム,0
511,2200001004993,登記記録の閉鎖等,0,2021-07-21,2021-07-14,丸三海産株式会社,,株式会社,岐阜県,岐阜市,西川手９丁目９９番地,,21,201,5008258,,,2021-07-14,清算の結了等,,,2015-10-05,1,,,,,マルサンカイサン,0
517,2220001024271,登記記録の閉鎖等,0,2021-07-21,2021-07-06,第一株式会社,,株式会社,石川県,金沢市,南町２番地,,17,201,9200919,,,2021-07-06,清算の結了等,,,2021-06-29,1,,,,,,0
521,2230001007564,登記記録の閉鎖等,0,2021-07-21,2021-07-07,株式会社ヨコハマタイヤ大谷サービス,,株式会社,富山県,下新川郡入善町,青木２４６０番地の１,,16,342,9390643,,,2021-07-07,合併による解散等,8220001005679,令和３年７月１日石川県金沢市湊一丁目９３番地２２株式会社ヨコハマタイヤサービス双葉（8220001005679）に合併し解散,2015-10-05,1,,,,,ヨコハマタイヤオオタニサービス,0
545,2300002010394,登記記録の閉鎖等,0,2021-07-21,2021-07-15,有限会社信和断熱,,有限会社,佐賀県,唐津市,鏡１５７番地６,,41,202,8470022,,,2021-07-15,清算の結了等,,,2015-10-05,1,,,,,シンワダンネツ,0
590,2390002014569,登記記録の閉鎖等,0,2021-07-21,2021-07-07,有限会社ゆきぐに,,有限会社,山形県,南陽市,三間通１０９４番地の１３,,06,213,9992232,,,2021-07-07,清算の結了等,,,2015-10-05,1,,,,,,0
595,2420001000244,登記記録の閉鎖等,0,2021-07-21,2021-07-08,青森舶用株式会社,,株式会社,青森県,青森市,本町５丁目８番８号,,02,201,0300802,,,2021-07-08,清算の結了等,,,2015-10-05,1,,,,,,0
599,2430001012156,登記記録の閉鎖等,0,2021-07-21,2021-07-20,株式会社中田測量,,株式会社,北海道,札幌市豊平区,西岡三条９丁目７番２３号,,01,105,0620033,,,2021-07-20,清算の結了等,,,2015-10-05,1,,,,,ナカタソクリョウ,0
605,2460002003622,登記記録の閉鎖等,0,2021-07-21,2021-07-15,有限会社釧路フイッシュ,,有限会社,北海道,釧路市,大楽毛１１番地３１,,01,206,0840917,,,2021-07-15,清算の結了等,,,2015-10-05,1,,,,,クシロフイッシュ,0
611,2480001005130,登記記録の閉鎖等,0,2021-07-21,2021-07-12,日南土木株式会社,,株式会社,徳島県,鳴門市,鳴門町土佐泊浦字黒山１４５番地１６,,36,202,7720053,,,2021-07-12,清算の結了等,,,2015-10-05,1,,,,,ニチナンドボク,0
613,2490005000176,登記記録の閉鎖等,0,2021-07-21,2021-07-16,高知中央市場塩干魚仲卸人協同組合,,その他の設立登記法人,高知県,高知市,弘化台１２番１２号,,39,201,7800811,,,2021-07-16,清算の結了等,,,2015-10-05,1,,,,,コウチチュウオウイチバエンカンギョナカオロシニン,0
617,3010001048209,登記記録の閉鎖等,0,2021-07-21,2021-07-16,成美製版株式会社,,株式会社,東京都,中央区,新富１丁目９番６号,,13,102,1040041,,,2021-07-16,清算の結了等,,,2015-10-05,1,,,,,セイビセイハン,0
618,3010001049479,登記記録の閉鎖等,0,2021-07-21,2021-07-12,株式会社高橋建築工業,,株式会社,東京都,中央区,月島２丁目１０番２号,,13,102,1040052,,,2021-07-12,清算の結了等,,,2015-10-05,1,,,,,タカハシケンチクコウギョウ,0
625,3010001170821,登記記録の閉鎖等,0,2021-07-21,2021-07-01,株式会社ＩＸＴ,,株式会社,東京都,千代田区,神田練塀町３番地インテージ秋葉原ビル,,13,101,1010022,,,2021-07-01,合併による解散等,3010001152563,令和３年７月１日東京都千代田区神田練塀町３番地インテージ秋葉原ビル株式会社インテージ（3010001152563）に合併し解散,2015-10-05,1,,,,,イクスト,0
635,3010005027927,登記記録の閉鎖等,0,2021-07-21,2021-07-07,特定非営利活動法人神津島盛り上げ隊,,その他の設立登記法人,東京都,神津島村,９９８番地,,13,364,1000601,,,2021-07-07,清算の結了等,,,2018-01-05,1,,,,,コウヅシマモリアゲタイ,0
637,3010101009886,登記記録の閉鎖等,0,2021-07-21,2021-07-15,株式会社ミヤギ,,株式会社,東京都,八王子市,高倉町４９－２,,13,201,1920033,,,2021-07-15,清算の結了等,,,2015-10-05,1,,,,,,0
665,3010801026099,登記記録の閉鎖等,0,2021-07-21,2021-07-05,株式会社ユニバーサルＨＤ,,株式会社,東京都,大田区,大森北２丁目５番６号,,13,111,1430016,,,2021-07-05,合併による解散等,1010801012373,令和３年７月１日東京都大田区大森北二丁目５番６号ユニバーサル工業株式会社（1010801012373）に合併し解散,2015-10-20,1,,,,,ユニバーサルエイチディー,0
684,3011101047141,登記記録の閉鎖等,0,2021-07-21,2021-07-06,株式会社ブレイズワン,,株式会社,東京都,中央区,日本橋大伝馬町１３－７日本橋大富ビル２Ｆ,,13,102,1030011,,,2021-07-06,清算の結了等,,,2015-10-05,1,,,,,ブレイズワン,0
685,3011101063394,登記記録の閉鎖等,0,2021-07-21,2021-07-09,テレパス化粧品株式会社,,株式会社,東京都,新宿区,新宿５丁目１８番１６号,,13,104,1600022,,,2021-07-09,清算の結了等,,,2015-10-05,1,,,,,,0
697,3011302005105,登記記録の閉鎖等,0,2021-07-21,2021-07-06,有限会社ステラ薬局,,有限会社,東京都,千代田区,丸の内１丁目９番１号,,13,101,1000005,,,2021-07-06,合併による解散等,9010001064753,令和３年７月１日東京都千代田区丸の内一丁目９番１号日本調剤株式会社（9010001064753）に合併し解散,2015-10-05,1,,,,,ステラヤッキョク,0
705,3011801035791,登記記録の閉鎖等,0,2021-07-21,2021-07-20,株式会社米七変化,,株式会社,東京都,足立区,中川４丁目２２番１３号,,13,121,1200002,,,2021-07-20,清算の結了等,,,2019-02-26,1,,,,,コメシチヘンゲ,0
712,3020001004598,登記記録の閉鎖等,0,2021-07-21,2021-07-09,横浜自販機株式会社,,株式会社,神奈川県,横浜市戸塚区,原宿４丁目５２番７号,,14,110,2450063,,,2021-07-09,清算の結了等,,,2015-10-05,1,,,,,ヨコハマジハンキ,0
718,3020002023754,登記記録の閉鎖等,0,2021-07-21,2021-07-07,有限会社坂口屋,,有限会社,神奈川県,横浜市保土ケ谷区,新桜ケ丘２丁目５番６号,,14,106,2400036,,,2021-07-07,清算の結了等,,,2015-10-05,1,,,,,サカグチヤ,0
731,3030002010272,登記記録の閉鎖等,0,2021-07-21,2021-07-13,有限会社肉の相川屋,,有限会社,埼玉県,さいたま市桜区,大字白鍬２６４番地２,,11,106,3380811,,,2021-07-13,清算の結了等,,,2015-10-05,1,,,,,ニクノアイカワヤ,0
734,3030002104561,登記記録の閉鎖等,0,2021-07-21,2021-07-12,有限会社高久,,有限会社,埼玉県,川口市,上青木西４丁目１８番７号,,11,203,3330845,,,2021-07-12,清算の結了等,,,2015-10-05,1,,,,,タカク,0
740,3040001041870,登記記録の閉鎖等,0,2021-07-21,2021-07-02,エス・ティーブレイス株式会社,,株式会社,千葉県,松戸市,松戸１８３４番地の９株式会社ビナセーコー内,,12,207,2710092,,,2021-07-02,清算の結了等,,,2015-10-05,1,,,,,エスティーブレイス,0
743,3040001048511,登記記録の閉鎖等,0,2021-07-21,2021-07-13,ＷＯＮＤＥＲ　ＨＯＭＥ株式会社,,株式会社,千葉県,佐倉市,王子台３丁目３番１号,,12,212,2850837,,,2021-07-13,清算の結了等,,,2015-10-05,1,,,,,ワンダーホーム,0
778,3100001018532,登記記録の閉鎖等,0,2021-07-21,2021-07-13,長野シマセイキ販売株式会社,,株式会社,長野県,諏訪市,大字豊田２１６５番地６,,20,206,3920016,,,2021-07-13,清算の結了等,,,2015-10-05,1,,,,,ナガノシマセイキハンバイ,0
822,3150001015500,登記記録の閉鎖等,0,2021-07-21,2021-07-12,曽根木材株式会社,,株式会社,奈良県,五條市,住川町８８８番地の２６,,29,207,6370014,,,2021-07-12,清算の結了等,,,2015-10-05,1,,,,,ソネモクザイ,0
829,3180001092058,登記記録の閉鎖等,0,2021-07-21,2021-07-09,株式会社マルトク建設,,株式会社,愛知県,半田市,岩滑西町３丁目１番地の５,,23,205,4750966,,,2021-07-09,清算の結了等,,,2015-10-05,1,,,,,,0
843,3200002006765,登記記録の閉鎖等,0,2021-07-21,2021-07-20,中部電設有限会社,,有限会社,岐阜県,岐阜市,水海道２丁目８番１号,,21,201,5008223,,,2021-07-20,清算の結了等,,,2015-10-05,1,,,,,チュウブデンセツ,0
852,3240001021464,登記記録の閉鎖等,0,2021-07-21,2021-07-05,バースデークリニック株式会社,,株式会社,広島県,広島市南区,皆実町１丁目５番９号,,34,103,7340007,,,2021-07-05,清算の結了等,,,2015-10-05,1,,,,,バースデークリニック,0
863,3290001036466,登記記録の閉鎖等,0,2021-07-21,2021-07-02,株式会社オークス,,株式会社,福岡県,宗像市,上八１９２７番地３１,,40,220,8113513,,,2021-07-02,清算の結了等,,,2015-10-05,1,,,,,オークス,0
872,3290005008412,登記記録の閉鎖等,0,2021-07-21,2021-07-16,天理教北倉分教会,,その他の設立登記法人,福岡県,飯塚市,有井２７２番地１,,40,205,8200112,,,2021-07-16,合併による解散等,2122005002346,令和３年７月１２日大阪府柏原市片山町１番１９号天理教北阪分教会（2122005002346）に合併し解散,2015-10-05,1,,,,,テンリキョウキタクラブンキョウカイ,0
889,3360001009522,登記記録の閉鎖等,0,2021-07-21,2021-07-12,株式会社なかんだかり,,株式会社,沖縄県,浦添市,宮城１丁目３５番９号,,47,208,9012126,,,2021-07-12,清算の結了等,,,2015-10-05,1,,,,,,0
900,3380003002135,登記記録の閉鎖等,0,2021-07-21,2021-07-12,合同会社ＴＡＳＫ,,合同会社,福島県,郡山市,桑野３丁目１３番５号,,07,203,9638025,,,2021-07-12,清算の結了等,,,2015-10-05,1,,,,,タスク,0
917,3410005000587,登記記録の閉鎖等,0,2021-07-21,2021-07-14,学校法人大内学園,,その他の設立登記法人,秋田県,秋田市,土崎港南２丁目３番４６号,,05,201,0110943,,,2021-07-14,清算の結了等,,,2015-10-05,1,,,,,オオウチガクエン,0
918,3420002013211,登記記録の閉鎖等,0,2021-07-21,2021-07-09,有限会社工由工務店,,有限会社,青森県,弘前市,大字大清水３丁目７番地４,,02,202,0368161,,,2021-07-09,清算の結了等,,,2015-10-05,1,,,,,コウユウコウムテン,0
922,3430001043183,登記記録の閉鎖等,0,2021-07-21,2021-07-19,株式会社たかの屋,,株式会社,北海道,江別市,大麻泉町２４番地の３,,01,217,0690864,,,2021-07-19,清算の結了等,,,2015-10-05,1,,,,,タカノヤ,0
985,4010802005101,登記記録の閉鎖等,0,2021-07-21,2021-07-12,有限会社康清ビルサービス,,有限会社,東京都,大田区,大森東４丁目３２番１９号,,13,111,1430012,,,2021-07-12,清算の結了等,,,2015-10-05,1,,,,,コウセイビルサービス,0
994,4011001126192,登記記録の閉鎖等,0,2021-07-21,2021-07-14,三澤商事株式会社,,株式会社,東京都,豊島区,上池袋１丁目１８番５号,,13,116,1700012,,,2021-07-14,清算の結了等,,,2019-01-21,1,,,,,ミサワショウジ,0
995,4011001126358,登記記録の閉鎖等,0,2021-07-21,2021-07-06,Ｃｒｅａｔｉｖｅ１株式会社,,株式会社,東京都,渋谷区,南平台町１６番１７号,,13,113,1500036,,,2021-07-06,清算の結了等,,,2019-01-30,1,,,,,クリエイティブワン,0
1018,4011801026212,登記記録の閉鎖等,0,2021-07-21,2021-07-16,株式会社ＡＰＰＲＩＺＥ,,株式会社,東京都,杉並区,天沼３丁目２番２号,,13,115,1670032,,,2021-07-16,清算の結了等,,,2015-10-05,1,,,,,,0
1023,4013101007272,登記記録の閉鎖等,0,2021-07-21,2021-07-13,ＴｉｍｅＣｒｕｉｓｅ株式会社,,株式会社,東京都,青梅市,師岡町４丁目１２番地１８,,13,205,1980031,,,2021-07-13,清算の結了等,,,2016-03-25,1,,,,,タイムクルーズ,0
1030,4020005014428,登記記録の閉鎖等,0,2021-07-21,2021-07-12,一般社団法人ＴＦサッカークラブ,,その他の設立登記法人,神奈川県,横浜市青葉区,荏田西３丁目１－２６,,14,117,2250014,,,2021-07-12,清算の結了等,,,2019-12-10,1,,,,,ティーエフサッカークラブ,0
1060,4050002014634,登記記録の閉鎖等,0,2021-07-21,2021-07-12,有限会社エム・スピリッツ,,有限会社,茨城県,土浦市,中貫１４６５－３３,,08,203,3000005,,,2021-07-12,清算の結了等,,,2015-10-05,1,,,,,エムスピリッツ,0
1061,4050002035317,登記記録の閉鎖等,0,2021-07-21,2021-07-12,有限会社中野加工所,,有限会社,茨城県,常陸太田市,小中町２８５番地,,08,212,3110504,,,2021-07-12,清算の結了等,,,2015-10-05,1,,,,,ナカノカコウショ,0
1073,4100001020108,登記記録の閉鎖等,0,2021-07-21,2021-07-15,株式会社エール・オー,,株式会社,長野県,岡谷市,神明町２丁目９番７号,,20,204,3940004,,,2021-07-15,清算の結了等,,,2015-10-05,1,,,,,エールオー,0
1080,4100002008671,登記記録の閉鎖等,0,2021-07-21,2021-07-14,有限会社西田屋洋品店,,有限会社,長野県,須坂市,大字須坂２０３番地,,20,207,3820000,,,2021-07-14,清算の結了等,,,2015-10-05,1,,,,,ニシダヤヨウヒンテン,0
1120,4160001015077,登記記録の閉鎖等,0,2021-07-21,2021-07-12,株式会社マルビルコーポレーション,,株式会社,兵庫県,神戸市中央区,磯辺通４丁目１番４８－２００５号,,28,110,6510084,,,2021-07-12,清算の結了等,,,2015-10-05,1,,,,,マルビルコーポレーション,0
1148,4240002033045,登記記録の閉鎖等,0,2021-07-21,2021-07-05,有限会社新栄エンジニアリング,,有限会社,広島県,呉市,阿賀北１丁目７番１号,,34,202,7370001,,,2021-07-05,清算の結了等,,,2015-10-05,1,,,,,シンエイエンジニアリング,0
1153,4240005014843,登記記録の閉鎖等,0,2021-07-21,2021-07-08,一般社団法人米粉未来基金,,その他の設立登記法人,広島県,三原市,大和町下徳良１９８６番地,00117291,34,204,7291406,,,2021-07-08,清算の結了等,,,2019-07-30,1,,,,,コメコミライキキン,0
1154,4250002017534,登記記録の閉鎖等,0,2021-07-21,2021-07-16,有限会社古谷工業,,有限会社,山口県,下松市,大字笠戸島１１１７番地,,35,207,7440001,,,2021-07-16,清算の結了等,,,2015-10-05,1,,,,,フルタニコウギョウ,0
1158,4250002018714,登記記録の閉鎖等,0,2021-07-21,2021-07-16,有限会社森川建設,,有限会社,山口県,岩国市,楠町２丁目８番８号,,35,208,7400028,,,2021-07-16,清算の結了等,,,2015-10-05,1,,,,,モリカワケンセツ,0
1171,4290003001137,登記記録の閉鎖等,0,2021-07-21,2021-07-02,合同会社野北インベストメント,,合同会社,福岡県,福岡市中央区,大名２丁目４番２２号,,40,133,8100041,,,2021-07-02,清算の結了等,,,2015-10-05,1,,,,,ノギタインベストメント,0
1204,4380001025681,登記記録の閉鎖等,0,2021-07-21,2021-07-09,株式会社南相馬新エネルギー開発研究センター,,株式会社,福島県,南相馬市,原町区大甕字山岸２４番地の１,,07,212,9750049,,,2021-07-09,清算の結了等,,,2015-10-05,1,,,,,ミナミソウマシンエネルギーカイハツケンキュウセンター,0
1216,4400001008493,登記記録の閉鎖等,0,2021-07-21,2021-07-12,いわて三陸食品販売株式会社,,株式会社,岩手県,盛岡市,山岸１丁目４番２４号,,03,201,0200004,,,2021-07-12,清算の結了等,,,2015-10-05,1,,,,,イワテサンリクショクヒンハンバイ,0
1219,4420001011801,登記記録の閉鎖等,0,2021-07-21,2021-07-08,株式会社北大管財,,株式会社,青森県,上北郡六ヶ所村,大字平沼字追舘６６番地１,,02,411,0393214,,,2021-07-08,清算の結了等,,,2015-10-05,1,,,,,ホクダイカンザイ,0
1234,4440001002170,登記記録の閉鎖等,0,2021-07-21,2021-07-12,前田産業株式会社,,株式会社,北海道,函館市,本通２丁目５３番２４号,,01,202,0410851,,,2021-07-12,合併による解散等,7290001008379,令和３年７月１日福岡市中央区天神二丁目１４番８号総合メディカル株式会社（7290001008379）に合併し解散,2015-10-05,1,,,,,マエダサンギョウ,0
1259,5010401023008,登記記録の閉鎖等,0,2021-07-21,2021-07-19,日本トヨコム株式会社,,株式会社,東京都,江東区,新木場２丁目１５番２０号,,13,108,1360082,,,2021-07-19,合併による解散等,2010001097710,令和３年７月１日東京都千代田区神田淡路町一丁目４番１の４株式会社ホープネット（2010001097710）に合併し解散,2015-10-05,1,,,,,ニホントヨコム,0
1271,5010501028550,登記記録の閉鎖等,0,2021-07-21,2021-07-19,株式会社フラクタル,,株式会社,東京都,江東区,永代１丁目１３番６号,,13,108,1350034,,,2021-07-19,合併による解散等,1010501015924,令和３年７月１日東京都台東区蔵前一丁目８番２号ワヨー株式会社（1010501015924）に合併し解散,2015-10-05,1,,,,,フラクタル,0
1281,5010701039950,登記記録の閉鎖等,0,2021-07-21,2021-07-13,株式会社ファサード,,株式会社,東京都,品川区,旗の台５丁目２８番１０号,,13,109,1420064,,,2021-07-13,清算の結了等,,,2020-10-13,1,,,,,ファサード,0
1294,5011001108974,登記記録の閉鎖等,0,2021-07-21,2021-06-30,株式会社リプレイス,,株式会社,東京都,目黒区,目黒３丁目４番３号,,13,110,1530063,,,2021-06-30,合併による解散等,6011001125960,令和３年６月３０日東京都目黒区目黒三丁目４番３号株式会社ベター（6011001125960）に合併し解散,2016-01-13,1,,,,,リプレイス,0
1357,5040001098042,登記記録の閉鎖等,0,2021-07-21,2021-07-19,ＳＫ建設株式会社,,株式会社,千葉県,木更津市,大和１丁目２番６号,,12,206,2920805,,,2021-07-19,合併による解散等,9010601031013,令和３年７月１日東京都江東区佐賀一丁目１番３号神洋建設株式会社（9010601031013）に合併し解散,2016-12-13,1,,,,,エスケーケンセツ,0
1372,5070001015036,登記記録の閉鎖等,0,2021-07-21,2021-07-16,株式会社あすなろ,,株式会社,群馬県,伊勢崎市,連取本町１５番地１,,10,204,3720817,,,2021-07-16,清算の結了等,,,2015-10-05,1,,,,,アスナロ,0
1376,5070003003600,登記記録の閉鎖等,0,2021-07-21,2021-07-15,縁合同会社,,合同会社,群馬県,高崎市,栄町３－１１バナーズビル,,10,202,3700841,,,2021-07-15,清算の結了等,,,2019-11-12,1,,,,,エニシ,0
1379,5080002011041,登記記録の閉鎖等,0,2021-07-21,2021-07-19,有限会社フジミ,,有限会社,静岡県,静岡市清水区,宮加三８１６番地の５３,,22,103,4240911,,,2021-07-19,清算の結了等,,,2015-10-05,1,,,,,フジミ,0
1390,5120001110863,登記記録の閉鎖等,0,2021-07-21,2021-07-14,株式会社エフアンドケイ,,株式会社,大阪府,大阪市北区,豊崎３丁目２０番１０号,,27,127,5310072,,,2021-07-14,清算の結了等,,,2015-10-05,1,,,,,エフアンドケイ,0
1393,5120001183208,登記記録の閉鎖等,0,2021-07-21,2021-07-09,株式会社コンフィアンス,,株式会社,大阪府,大阪市北区,堂島１丁目３番４号,,27,127,5300003,,,2021-07-09,清算の結了等,,,2015-10-05,1,,,,,コンフィアンス,0
1415,5140001043467,登記記録の閉鎖等,0,2021-07-21,2021-07-15,兵庫住宅センター株式会社,,株式会社,兵庫県,加古川市,加古川町北在家２０１１番地,,28,210,6750031,,,2021-07-15,清算の結了等,,,2015-10-05,1,,,,,ヒョウゴジュウタクセンター,0
1428,5140005005397,登記記録の閉鎖等,0,2021-07-21,2021-07-15,弁護士法人神戸あじさい法律事務所,,その他の設立登記法人,兵庫県,神戸市中央区,花隈町２３番２３号第２花隈ダイヤハイツ４０３号,,28,110,6500013,,,2021-07-15,清算の結了等,,,2015-10-05,1,,,,,コウベアジサイホウリツジムショ,0
1437,5180001120106,登記記録の閉鎖等,0,2021-07-21,2021-07-13,株式会社グッド住まいる,,株式会社,愛知県,豊明市,沓掛町森浦１２番地１,,23,229,4701101,,,2021-07-13,清算の結了等,,,2015-10-05,1,,,,,グッドスマイル,0
1440,5180002004844,登記記録の閉鎖等,0,2021-07-21,2021-07-13,有限会社東邦設備,,有限会社,愛知県,名古屋市東区,大幸南２丁目２番サンハイツ鍋屋上野７－４０５号,,23,102,4610047,,,2021-07-13,清算の結了等,,,2015-10-05,1,,,,,トウホウセツビ,0
1456,5190002012152,登記記録の閉鎖等,0,2021-07-21,2021-07-15,有限会社國島畜産,,有限会社,三重県,伊賀市,緑ケ丘中町１５５５番地の１,,24,216,5180834,,,2021-07-15,清算の結了等,,,2015-10-05,1,,,,,クニシマチクサン,0
1457,5190005009311,登記記録の閉鎖等,0,2021-07-21,2021-07-14,三重県旅行業協同組合,,その他の設立登記法人,三重県,四日市市,西新地１３番１３号,,24,202,5100087,,,2021-07-14,清算の結了等,,,2015-10-05,1,,,,,ミエケンリョコウギョウ,0
1460,5200001019733,登記記録の閉鎖等,0,2021-07-21,2021-07-16,株式会社上田水道工業所,,株式会社,岐阜県,関市,貸上町３２番地,,21,205,5013214,,,2021-07-16,清算の結了等,,,2015-10-05,1,,,,,ウエダスイドウコウギョウショ,0
1476,5260005009485,登記記録の閉鎖等,0,2021-07-21,2021-07-14,一般社団法人ライフケアサポート,,その他の設立登記法人,岡山県,岡山市北区,青江１丁目１３番５０号,,33,101,7000941,,,2021-07-14,清算の結了等,,,2015-10-05,1,,,,,ライフケアサポート,0
1492,5290805000665,登記記録の閉鎖等,0,2021-07-21,2021-07-01,医療法人板家循環器科内科医院,,その他の設立登記法人,福岡県,北九州市小倉南区,中吉田１丁目３番２０号,,40,107,8000204,,,2021-07-01,清算の結了等,,,2015-10-05,1,,,,,,0
1516,5380001005022,登記記録の閉鎖等,0,2021-07-21,2021-07-12,株式会社経営室タスク,,株式会社,福島県,郡山市,桑野２丁目１０番２号ファミール郡山１３０１,,07,203,9638025,,,2021-07-12,清算の結了等,,,2015-10-05,1,,,,,ケイエイシツタスク,0
1531,5430001001742,登記記録の閉鎖等,0,2021-07-21,2021-07-08,株式会社イワイ,,株式会社,北海道,札幌市白石区,栄通１９丁目１番８号,,01,104,0030021,,,2021-07-08,清算の結了等,,,2015-10-05,1,,,,,イワイ,0
1548,6010001116623,登記記録の閉鎖等,0,2021-07-21,2021-07-02,株式会社創美社,,株式会社,東京都,文京区,湯島３丁目３１番１号,,13,105,1130034,,,2021-07-02,清算の結了等,,,2015-10-05,1,,,,,ソウビシャ,0
1556,6010003030806,登記記録の閉鎖等,0,2021-07-21,2021-07-06,沢川太陽光発電２０１９合同会社,,合同会社,東京都,千代田区,丸の内３丁目１番１号東京共同会計事務所内,,13,101,1000005,,,2021-07-06,清算の結了等,,,2019-10-07,1,,,,,ソウゴウタイヨウコウハツデンニゼロイチキュウ,0
1561,6010401091219,登記記録の閉鎖等,0,2021-07-21,2021-07-16,極東ロシアガス事業調査株式会社,,株式会社,東京都,港区,北青山２丁目５番１号,,13,103,1070061,,,2021-07-16,清算の結了等,,,2015-10-05,1,,,,,キョクトウロシアガスジギョウチョウサ,0
1578,6011001050630,登記記録の閉鎖等,0,2021-07-21,2021-07-06,株式会社スティルサンク,,株式会社,東京都,渋谷区,渋谷１丁目１９番１８－５０１号,,13,113,1500002,,,2021-07-06,清算の結了等,,,2015-10-05,1,,,,,スティルサンク,0
1597,6011301004088,登記記録の閉鎖等,0,2021-07-21,2021-07-16,株式会社ダイヤモンドヘッド,,株式会社,東京都,杉並区,天沼３丁目１番１号,,13,115,1670032,,,2021-07-16,清算の結了等,,,2015-10-05,1,,,,,ダイヤモンドヘッド,0
1610,6012705002207,登記記録の閉鎖等,0,2021-07-21,2021-07-19,一般社団法人ＣＡ福祉育成協会,,その他の設立登記法人,東京都,小平市,花小金井南町１丁目１３番２０号,,13,211,1870003,,,2021-07-19,清算の結了等,,,2020-05-14,1,,,,,シーエーフクシイクセイキョウカイ,0
1612,6012802003504,登記記録の閉鎖等,0,2021-07-21,2021-07-08,有限会社豊島精機製作所,,有限会社,東京都,昭島市,中神町１３１２番地,,13,207,1960022,,,2021-07-08,清算の結了等,,,2015-10-05,1,,,,,,0
1638,6030002026729,登記記録の閉鎖等,0,2021-07-21,2021-07-12,有限会社エイエム,,有限会社,埼玉県,戸田市,氷川町３丁目１０番２１号,,11,224,3350027,,,2021-07-12,清算の結了等,,,2015-10-05,1,,,,,エイエム,0
1641,6040001016234,登記記録の閉鎖等,0,2021-07-21,2021-07-12,株式会社ＳＤ４ジャパン,,株式会社,千葉県,千葉市美浜区,高洲１丁目１６番６６号,,12,106,2610004,,,2021-07-12,清算の結了等,,,2015-10-05,1,,,,,エスディーフォージャパン,0
1642,6040001039623,登記記録の閉鎖等,0,2021-07-21,2021-07-13,株式会社佐伯工務店,,株式会社,千葉県,松戸市,根本１１６番地の１,,12,207,2710077,,,2021-07-13,清算の結了等,,,2015-10-05,1,,,,,サエキコウムテン,0
1648,6040002026711,登記記録の閉鎖等,0,2021-07-21,2021-07-12,有限会社フォワード,,有限会社,千葉県,船橋市,前原西２丁目１番１号,,12,204,2740825,,,2021-07-12,清算の結了等,,,2015-10-05,1,,,,,フォワード,0
1653,6040002096688,登記記録の閉鎖等,0,2021-07-21,2021-07-12,有限会社石山商店,,有限会社,千葉県,野田市,尾崎２５４番地,,12,208,2700235,,,2021-07-12,清算の結了等,,,2015-10-05,1,,,,,イシヤマショウテン,0
1671,6100001016459,登記記録の閉鎖等,0,2021-07-21,2021-07-14,株式会社シィーズ,,株式会社,長野県,松本市,村井町北２丁目２番３０号,,20,202,3990035,,,2021-07-14,清算の結了等,,,2015-10-05,1,,,,,シィーズ,0
1672,6100001029304,登記記録の閉鎖等,0,2021-07-21,2021-07-13,株式会社アップルバンクながの,,株式会社,長野県,下伊那郡豊丘村,大字神稲７５８５番地,,20,416,3993202,,,2021-07-13,清算の結了等,,,2016-04-22,1,,,,,アップルバンクナガノ,0
1685,6120002004048,登記記録の閉鎖等,0,2021-07-21,2021-07-12,有限会社インフィニシステム,,有限会社,大阪府,大阪市都島区,大東町１丁目１０番３７－４１８号,,27,102,5340002,,,2021-07-12,清算の結了等,,,2015-10-05,1,,,,,インフィニシステム,0
1692,6120101000501,登記記録の閉鎖等,0,2021-07-21,2021-07-16,株式会社イースタン,,株式会社,大阪府,堺市西区,山田１丁１１６６番地の４,,27,144,5938316,,,2021-07-16,清算の結了等,,,2015-10-05,1,,,,,イースタン,0
1734,6180002077501,登記記録の閉鎖等,0,2021-07-21,2021-07-12,有限会社ほりば,,有限会社,愛知県,一宮市,浅井町大日比野２２２９番地の１,,23,203,4910105,,,2021-07-12,清算の結了等,,,2015-10-05,1,,,,,ホリバ,0
1736,6180005004849,登記記録の閉鎖等,0,2021-07-21,2021-07-20,公益財団法人人工知能研究振興財団,,その他の設立登記法人,愛知県,名古屋市東区,白壁３丁目１２番１３号中産連ビル本館３階,,23,102,4610011,,,2021-07-20,清算の結了等,,,2015-10-05,1,,,,,ジンコウチノウケンキュウシンコウザイダン,0
1742,6190005009698,登記記録の閉鎖等,0,2021-07-21,2021-07-19,キオクシアアドバンスドパッケージ労働組合,,その他の設立登記法人,三重県,四日市市,山之一色町８００番地キオクシアアドバンスドパッケージ株式会社内,,24,202,5120906,,,2021-07-19,清算の結了等,,,2015-10-05,1,,,,,キオクシアアドバンスドパッケージ,0
1752,6220002010168,登記記録の閉鎖等,0,2021-07-21,2021-07-09,粟津温泉観光開発有限会社,,有限会社,石川県,小松市,井口町ホ５９番地９,,17,203,9230316,,,2021-07-09,清算の結了等,,,2015-10-05,1,,,,,アワズオンセンカンコウカイハツ,0
1759,6230005007986,登記記録の閉鎖等,0,2021-07-21,2021-07-06,一般財団法人氷見市花と緑のまちづくり協会,,その他の設立登記法人,富山県,氷見市,柳田３５８３番地,,16,205,9350031,,,2021-07-06,清算の結了等,,,2015-10-05,1,,,,,ヒミシハナトミドリノマチヅクリキョウカイ,0
1775,6280001006293,登記記録の閉鎖等,0,2021-07-21,2021-07-16,株式会社アプリオ,,株式会社,島根県,松江市,菅田町１８０番地アイウォーク菅田ビル,,32,201,6900824,,,2021-07-16,清算の結了等,,,2015-10-05,1,,,,,アプリオ,0
1784,6310002016164,登記記録の閉鎖等,0,2021-07-21,2021-07-09,有限会社エイテック,,有限会社,長崎県,諫早市,黒崎町１８５番地２,,42,204,8540033,,,2021-07-09,清算の結了等,,,2015-10-05,1,,,,,エイテック,0
1791,6330001021709,登記記録の閉鎖等,0,2021-07-21,2021-07-09,株式会社エムケイ企画,,株式会社,熊本県,菊池市,深川３３３番地１,,43,210,8611304,,,2021-07-09,清算の結了等,,,2015-10-05,1,,,,,エムケイキカク,0
1820,6390001016364,登記記録の閉鎖等,0,2021-07-21,2021-07-07,ひのでファーム株式会社,,株式会社,山形県,鶴岡市,湯野沢７０番地,,06,203,9970001,,,2021-07-07,清算の結了等,,,2021-02-19,1,,,,,,0
1825,6410002007946,登記記録の閉鎖等,0,2021-07-21,2021-07-12,有限会社上仙道繊維工場,,有限会社,秋田県,雄勝郡羽後町,上仙道字約束沢１７番地の１,,05,463,0121353,,,2021-07-12,清算の結了等,,,2015-10-05,1,,,,,カミセンドウセンイコウジョウ,0
1832,6430002023933,登記記録の閉鎖等,0,2021-07-21,2021-07-07,有限会社日本測建,,有限会社,北海道,札幌市中央区,宮の森四条６丁目２番２０－４０１号,,01,101,0640954,,,2021-07-07,清算の結了等,,,2015-10-05,1,,,,,ニホンソッケン,0
1891,7011501004507,登記記録の閉鎖等,0,2021-07-21,2021-07-19,株式会社みしま,,株式会社,東京都,北区,志茂１丁目１７番７号,,13,117,1150042,,,2021-07-19,清算の結了等,,,2015-10-05,1,,,,,,0
1902,7012702006952,登記記録の閉鎖等,0,2021-07-21,2021-07-20,有限会社タバタ企画,,有限会社,東京都,東久留米市,滝山５丁目１３番１２号,,13,222,2030033,,,2021-07-20,清算の結了等,,,2015-10-05,1,,,,,タバタキカク,0
1903,7013101000811,登記記録の閉鎖等,0,2021-07-21,2021-07-13,株式会社リーベ,,株式会社,東京都,羽村市,小作台５丁目４番地の８,,13,227,2050001,,,2021-07-13,清算の結了等,,,2015-10-05,1,,,,,リーベ,0
1905,7013303004321,登記記録の閉鎖等,0,2021-07-21,2021-07-14,Ｖｉｅｉｌｌｅｖｉｇｎｅ合同会社,,合同会社,静岡県,三島市,長伏２５１－２ストークハウスＡ－３０１,,22,206,4110824,,,2021-07-14,清算の結了等,,,2018-09-20,1,,,,,ヴィエーユヴィーニュ,0
1911,7020003014121,登記記録の閉鎖等,0,2021-07-21,2021-07-09,ＶＥＲＳＡ　ＪＡＰＯＮ合同会社,,合同会社,神奈川県,横浜市中区,長者町８丁目１２８番地,,14,104,2310033,,,2021-07-09,清算の結了等,,,2018-03-28,1,,,,,ベルサジャパン,0
1926,7040001046676,登記記録の閉鎖等,0,2021-07-21,2021-07-09,プレシジョンファイバオプティクス株式会社,,株式会社,千葉県,佐倉市,六崎１４４０番地,,12,212,2850812,,,2021-07-09,清算の結了等,,,2015-10-05,1,,,,,プレシジョンファイバオプティクス,0
1932,7050001028244,登記記録の閉鎖等,0,2021-07-21,2021-07-12,株式会社テービック,,株式会社,茨城県,つくばみらい市,谷井田２１９５番地の７,,08,235,3002337,,,2021-07-12,清算の結了等,,,2015-10-05,1,,,,,,0
1933,7050001046329,登記記録の閉鎖等,0,2021-07-21,2021-07-12,株式会社Ｆｅｅｄａｌ,,株式会社,茨城県,つくば市,天久保３丁目２１－３星谷ビル２－Ａ,,08,220,3050005,,,2021-07-12,清算の結了等,,,2019-07-30,1,,,,,フィーダル,0
1954,7120001124283,登記記録の閉鎖等,0,2021-07-21,2021-07-09,株式会社ワークスイノウエ,,株式会社,大阪府,大阪市鶴見区,今津南２丁目３番１６号,,27,124,5380043,,,2021-07-09,清算の結了等,,,2015-10-05,1,,,,,ワークスイノウエ,0
1985,7140001064255,登記記録の閉鎖等,0,2021-07-21,2021-07-12,兵庫エコクリーン開発株式会社,,株式会社,兵庫県,姫路市,飾磨区中島３００１番地,,28,201,6728035,,,2021-07-12,清算の結了等,,,2015-10-05,1,,,,,ヒョウゴエコクリーンカイハツ,0
1986,7140001066581,登記記録の閉鎖等,0,2021-07-21,2021-07-13,株式会社学研アイズ,,株式会社,兵庫県,三田市,すずかけ台３丁目２番地,,28,219,6691322,,,2021-07-13,清算の結了等,,,2015-10-05,1,,,,,ガッケンアイズ,0
1994,7160001008788,登記記録の閉鎖等,0,2021-07-21,2021-07-12,株式会社マルニシ,,株式会社,滋賀県,彦根市,彦富町１４８５番地の１,,25,202,5211114,,,2021-07-12,清算の結了等,,,2015-10-05,1,,,,,マルニシ,0
2010,7220001017080,登記記録の閉鎖等,0,2021-07-21,2021-07-09,ハートフルメディカル株式会社,,株式会社,石川県,金沢市,泉本町７丁目３番地１ディークラディア・ウェリス泉本町３０４号,,17,201,9218042,,,2021-07-09,清算の結了等,,,2015-10-05,1,,,,,ハートフルメディカル,0
2012,7240001007030,登記記録の閉鎖等,0,2021-07-21,2021-07-07,株式会社つかさゴム商会,,株式会社,広島県,広島市南区,京橋町９番２４号,,34,103,7320828,,,2021-07-07,清算の結了等,,,2015-10-05,1,,,,,ツカサゴムショウカイ,0
2019,7260001003762,登記記録の閉鎖等,0,2021-07-21,2021-07-19,全日信販株式会社,,株式会社,岡山県,岡山市北区,本町３番１３号,,33,101,7000901,,,2021-07-19,合併による解散等,2120001137521,令和３年７月１日大阪市浪速区湊町一丁目２番３号株式会社アプラス（2120001137521）に合併し解散,2015-10-05,1,,,,,ゼンニチシンパン,0
2035,7310002004580,登記記録の閉鎖等,0,2021-07-21,2021-07-14,有限会社日之出薬局,,有限会社,長崎県,長崎市,城栄町１５番１７号,,42,201,8528034,,,2021-07-14,清算の結了等,,,2015-10-05,1,,,,,ヒノデヤッキョク,0
2036,7310002018110,登記記録の閉鎖等,0,2021-07-21,2021-07-09,有限会社松﨑海運,00096122,有限会社,長崎県,島原市,秩父が浦町丁３５２５番地３９,,42,203,8550864,,,2021-07-09,清算の結了等,,,2015-10-05,1,,,,,マツザキカイウン,0
2040,7320005001459,登記記録の閉鎖等,0,2021-07-21,2021-07-13,医療法人蓁蓁会,,その他の設立登記法人,大分県,大分市,上野丘１丁目１２番１５号,,44,201,8700835,,,2021-07-13,清算の結了等,,,2015-10-05,1,,,,,シンシンカイ,0
2044,7340001021161,登記記録の閉鎖等,0,2021-07-21,2021-07-09,株式会社アシストアップ,,株式会社,鹿児島県,薩摩川内市,向田本町９番１０号,,46,215,8950021,,,2021-07-09,清算の結了等,,,2018-05-08,1,,,,,アシストアップ,0
2093,7440001008116,登記記録の閉鎖等,0,2021-07-21,2021-07-08,株式会社ピリカプロジェクト,,株式会社,北海道,瀬棚郡今金町,字田代３１２番地８,,01,370,0494331,,,2021-07-08,清算の結了等,,,2017-06-08,1,,,,,ピリカプロジェクト,0
2117,8010005012164,登記記録の閉鎖等,0,2021-07-21,2021-07-06,特定非営利活動法人太平洋地域戦没者慰霊協会,,その他の設立登記法人,東京都,新宿区,須賀町１番地,,13,104,1600018,,,2021-07-06,清算の結了等,,,2015-10-05,1,,,,,タイヘイヨウチイキセンボツシャイレイキョウカイ,0
2154,8011101059198,登記記録の閉鎖等,0,2021-07-21,2021-07-02,株式会社ワイズシステム,,株式会社,東京都,墨田区,両国３丁目２５－５,,13,107,1300026,,,2021-07-02,合併による解散等,4011101038494,令和３年７月１日東京都墨田区両国三丁目２５－５グッドレスキュー２４株式会社（4011101038494）に合併し解散,2015-10-05,1,,,,,ワイズシステム,0
2158,8011301014168,登記記録の閉鎖等,0,2021-07-21,2021-07-16,ネクストステージ株式会社,,株式会社,東京都,杉並区,荻窪５丁目１６番１４号カパラビル７Ｆ,,13,115,1670051,,,2021-07-16,清算の結了等,,,2015-10-05,1,,,,,ネクストステージ,0
2201,8021002061244,登記記録の閉鎖等,0,2021-07-21,2021-07-12,有限会社ディエスコーポレーション,,有限会社,神奈川県,平塚市,中堂１１番１０－２０３号ユニライフ平塚,,14,203,2540026,,,2021-07-12,清算の結了等,,,2015-10-05,1,,,,,ディエスコーポレーション,0
2217,8030002108120,登記記録の閉鎖等,0,2021-07-21,2021-07-13,有限会社豊軽合金鋳造所,,有限会社,埼玉県,川口市,中青木２丁目２３番１４号,,11,203,3320032,,,2021-07-13,清算の結了等,,,2015-10-05,1,,,,,ユタカケイゴウキンチュウゾウショ,0
2220,8040001042963,登記記録の閉鎖等,0,2021-07-21,2021-07-13,成協コーポランド株式会社,,株式会社,千葉県,成田市,花崎町８１７番地,,12,211,2860033,,,2021-07-13,清算の結了等,,,2015-10-05,1,,,,,セイキョウコーポランド,0
2276,8120102021932,登記記録の閉鎖等,0,2021-07-21,2021-07-16,有限会社ティ・エム,,有限会社,大阪府,貝塚市,海塚３丁目８番６号,,27,208,5970083,,,2021-07-16,清算の結了等,,,2015-10-05,1,,,,,ティエム,0
2298,8140005014577,登記記録の閉鎖等,0,2021-07-21,2021-07-05,岩屋生産森林組合,,その他の設立登記法人,兵庫県,神崎郡神河町,岩屋１４１番地の１,,28,446,6792405,,,2021-07-05,清算の結了等,,,2015-10-05,1,,,,,イワヤ,0
2313,8180001114154,登記記録の閉鎖等,0,2021-07-21,2021-07-13,ツーテック株式会社,,株式会社,愛知県,小牧市,光ケ丘１丁目５５番地１,,23,219,4850811,,,2021-07-13,清算の結了等,,,2015-10-05,1,,,,,ツーテック,0
2318,8180005011570,登記記録の閉鎖等,0,2021-07-21,2021-07-15,特定非営利活動法人中部日本華人卓球協会,,その他の設立登記法人,愛知県,名古屋市中区,大須４丁目１１番６１号,,23,106,4600011,,,2021-07-15,清算の結了等,,,2015-10-05,1,,,,,チュウブニホンカジンタッキュウキョウカイ,0
2331,8210001010465,登記記録の閉鎖等,0,2021-07-21,2021-07-09,上田建機株式会社,,株式会社,福井県,敦賀市,昭和町２丁目１８番３号,,18,202,9140812,,,2021-07-09,合併による解散等,4130001021466,令和３年７月１日京都市中京区壬生森前町６番地高石機械産業株式会社（4130001021466）に合併し解散,2015-10-05,1,,,,,ウエダケンキ,0
2336,8230001001545,登記記録の閉鎖等,0,2021-07-21,2021-07-07,株式会社タイヤタウン富山,,株式会社,富山県,富山市,天正寺１０２４番地,,16,201,9300955,,,2021-07-07,合併による解散等,8220001005679,令和３年７月１日石川県金沢市湊一丁目９３番地２２株式会社ヨコハマタイヤサービス双葉（8220001005679）に合併し解散,2015-10-05,1,,,,,タイヤタウントヤマ,0
2380,8320002005296,登記記録の閉鎖等,0,2021-07-21,2021-07-13,有限会社野﨑不動産,00096821,有限会社,大分県,大分市,下郡北３丁目７番３０号,,44,201,8700952,,,2021-07-13,清算の結了等,,,2015-10-05,1,,,,,ノザキフドウサン,0
2392,8360002001531,登記記録の閉鎖等,0,2021-07-21,2021-07-12,有限会社蔵商,,有限会社,沖縄県,那覇市,壺屋１丁目３番７号,,47,201,9020065,,,2021-07-12,清算の結了等,,,2015-10-05,1,,,,,,0
2402,8380003000489,登記記録の閉鎖等,0,2021-07-21,2021-07-12,合資会社いいこといっぱい,,合資会社,福島県,郡山市,桑野４丁目４番５３,,07,203,9638025,,,2021-07-12,清算の結了等,,,2015-10-05,1,,,,,イイコトイッパイ,0
2403,8380003000539,登記記録の閉鎖等,0,2021-07-21,2021-07-12,合資会社感動アーティスト,,合資会社,福島県,郡山市,桑野３丁目１１０番,,07,203,9638025,,,2021-07-12,清算の結了等,,,2015-10-05,1,,,,,カンドウアーティスト,0
2431,8430001031992,登記記録の閉鎖等,0,2021-07-21,2021-07-09,株式会社シュアーテック,,株式会社,北海道,札幌市東区,東苗穂十四条２丁目１９番６号,,01,103,0070814,,,2021-07-09,清算の結了等,,,2015-10-05,1,,,,,シュアーテック,0
2471,9010002025309,登記記録の閉鎖等,0,2021-07-21,2021-07-06,有限会社マリンクレームサービス,,有限会社,東京都,中央区,新川１丁目５番１７号,,13,102,1040033,,,2021-07-06,清算の結了等,,,2015-10-05,1,,,,,マリンクレームサービス,0
2505,9011002025653,登記記録の閉鎖等,0,2021-07-21,2021-07-06,有限会社センチュリーオブジャスティス,,有限会社,東京都,千代田区,丸の内１丁目９番１号,,13,101,1000005,,,2021-07-06,合併による解散等,9010001064753,令和３年７月１日東京都千代田区丸の内一丁目９番１号日本調剤株式会社（9010001064753）に合併し解散,2015-10-05,1,,,,,センチュリーオブジャスティス,0
2510,9011301012559,登記記録の閉鎖等,0,2021-07-21,2021-07-16,株式会社教育新潮社,,株式会社,東京都,杉並区,善福寺１丁目２番１号,,13,115,1670041,,,2021-07-16,清算の結了等,,,2015-10-05,1,,,,,キョウイクシンチョウシャ,0
2515,9012402004453,登記記録の閉鎖等,0,2021-07-21,2021-07-08,有限会社リーヴル三樹,,有限会社,東京都,国分寺市,戸倉４丁目７番地４９,,13,214,1850003,,,2021-07-08,清算の結了等,,,2015-10-05,1,,,,,リーヴルミキ,0
2516,9012402014428,登記記録の閉鎖等,0,2021-07-21,2021-07-16,有限会社アースソイルエンジニア,,有限会社,東京都,府中市,片町２丁目２４番地の７,,13,206,1830021,,,2021-07-16,清算の結了等,,,2015-10-05,1,,,,,アースソイルエンジニア,0
2522,9013105001548,登記記録の閉鎖等,0,2021-07-21,2021-07-12,特定非営利活動法人ＣＡＰＳ,,その他の設立登記法人,東京都,青梅市,日向和田３丁目５４１番地の１,,13,205,1980046,,,2021-07-12,清算の結了等,,,2015-10-05,1,,,,,キャップス,0
2523,9013201000940,登記記録の閉鎖等,0,2021-07-21,2021-07-19,エタニ産業株式会社,,株式会社,東京都,目黒区,柿の木坂１丁目５番１号,,13,110,1520022,,,2021-07-19,合併による解散等,3010601019393,令和３年７月１日東京都江東区毛利一丁目１９番５号蔵王産業株式会社（3010601019393）に合併し解散,2015-10-05,1,,,,,エタニサンギョウ,0
2561,9060001003797,登記記録の閉鎖等,0,2021-07-21,2021-07-08,株式会社ビルド,,株式会社,栃木県,宇都宮市,上籠谷町３３１４番地３,,09,201,3213233,,,2021-07-08,合併による解散等,6060001003932,令和３年７月１日栃木県宇都宮市上籠谷町３３１４番地３株式会社二葉内装（6060001003932）に合併し解散,2015-10-05,1,,,,,ビルド,0
2566,9080401004170,登記記録の閉鎖等,0,2021-07-21,2021-07-16,浜松米穀株式会社,,株式会社,静岡県,浜松市中区,高林５丁目３番７号,,22,131,4300907,,,2021-07-16,合併による解散等,3010401156172,令和３年７月１日東京都港区六本木一丁目６番１号浜松米穀株式会社（3010401156172）に合併し解散,2015-10-05,1,,,,,ハママツベイコク,0
2569,9100002021703,登記記録の閉鎖等,0,2021-07-21,2021-07-15,有限会社丸山製作所,,有限会社,長野県,松本市,大字新村４４１番地,,20,202,3901241,,,2021-07-15,清算の結了等,,,2015-10-05,1,,,,,マルヤマセイサクショ,0
2572,9110002030133,登記記録の閉鎖等,0,2021-07-21,2021-07-08,有限会社新興不動産,,有限会社,新潟県,長岡市,東坂之上町２丁目６番地１３,,15,202,9400066,,,2021-07-08,清算の結了等,,,2015-10-05,1,,,,,シンコウフドウサン,0
2594,9130001004103,登記記録の閉鎖等,0,2021-07-21,2021-07-20,株式会社洛信,,株式会社,京都府,京都市左京区,鹿ケ谷法然院西町５０番地,,26,103,6068427,,,2021-07-20,清算の結了等,,,2015-10-05,1,,,,,ラクシン,0
2618,9180001028601,登記記録の閉鎖等,0,2021-07-21,2021-07-13,株式会社中日本食品開発,,株式会社,愛知県,名古屋市中区,大須４丁目４番８９号,,23,106,4600011,,,2021-07-13,清算の結了等,,,2015-10-05,1,,,,,ナカニホンショクヒンカイハツ,0
2648,9240002045647,登記記録の閉鎖等,0,2021-07-21,2021-07-06,有限会社山上商店,,有限会社,広島県,福山市,新市町大字宮内７３番地の１,,34,207,7293104,,,2021-07-06,清算の結了等,,,2015-10-05,1,,,,,ヤマガミショウテン,0
2657,9250002011879,登記記録の閉鎖等,0,2021-07-21,2021-07-16,有限会社ジェットネットワーク,,有限会社,山口県,下関市,椋野町１丁目１５番２３号,,35,201,7510816,,,2021-07-16,清算の結了等,,,2015-10-05,1,,,,,ジェットネットワーク,0
2714,9400001005180,登記記録の閉鎖等,0,2021-07-21,2021-07-12,株式会社まちのふくし,,株式会社,岩手県,滝沢市,篠木明法１２４番地１５,,03,216,0200731,,,2021-07-12,清算の結了等,,,2015-10-05,1,,,,,マチノフクシ,0
2721,9420002014765,登記記録の閉鎖等,0,2021-07-21,2021-07-09,有限会社わいわい,,有限会社,青森県,弘前市,大字大町１丁目３番地１５,,02,202,0368004,,,2021-07-09,清算の結了等,,,2015-10-05,1,,,,,ワイワイ,0
2739,9500001020079,登記記録の閉鎖等,0,2021-07-21,2021-07-16,株式会社大西鉄筋,,株式会社,愛媛県,松山市,三津２丁目１２番２７号フェリスコート三津１２０２号,,38,201,7918061,,,2021-07-16,清算の結了等,,,2016-09-05,1,,,,,オオニシテッキン,0
