sequenceNumber,corporateNumber,process,correct,updateDate,changeDate,name,nameImageId,kind,prefectureName,cityName,streetNumber,addressImageId,prefectureCode,cityCode,postCode,addressOutside,addressOutsideImageId,closeDate,closeCause,successorCorporateNumber,changeCause,assignmentDate,latest,enName,enPrefectureName,enCityName,enAddressOutside,furigana,hihyoji
67,1011802009672,登記記録の閉鎖等,0,2023-10-04,2023-09-11,有限会社イズミ化成,,有限会社,埼玉県,川口市,江戸袋２丁目６番２号,,11,203,3340075,,,2023-09-11,清算の結了等,,,2015-10-05,1,,,,,,0
77,1013102002093,登記記録の閉鎖等,0,2023-10-04,2023-10-02,有限会社西洋テクノ,,有限会社,東京都,あきる野市,小川５４８番地１４,,13,228,1970821,,,2023-10-02,清算の結了等,,,2015-10-05,1,,,,,セイヨウテクノ,0
106,1040001067620,登記記録の閉鎖等,0,2023-10-04,2023-09-19,エスビーエス株式会社,,株式会社,千葉県,柏市,西原２丁目４番１号,,12,217,2770885,,,2023-09-19,清算の結了等,,,2015-10-05,1,,,,,エスビーエス,0
120,1070001019692,登記記録の閉鎖等,0,2023-10-04,2023-08-18,株式会社茶心,,株式会社,群馬県,太田市,新田木崎町１６６２番地,,10,205,3700321,,,2023-08-18,清算の結了等,,,2015-10-05,1,,,,,チャシン,0
126,1080101008611,登記記録の閉鎖等,0,2023-10-04,2023-10-02,株式会社サノコーポレーション,,株式会社,静岡県,富士宮市,小泉２４６４番地の１１,,22,207,4180022,,,2023-10-02,清算の結了等,,,2015-10-05,1,,,,,サノコーポレーション,0
133,1110002017336,登記記録の閉鎖等,0,2023-10-04,2023-09-29,有限会社田巻青果,,有限会社,新潟県,三条市,北入蔵３丁目６番７号,,15,204,9550053,,,2023-09-29,清算の結了等,,,2015-10-05,1,,,,,タマキセイカ,0
154,1120002070978,登記記録の閉鎖等,0,2023-10-04,2023-09-25,株式会社ＨＥＷ研究所,,株式会社,大阪府,吹田市,藤白台１丁目１番８－３０４,,27,205,5650873,,,2023-09-25,清算の結了等,,,2015-10-05,1,,,,,エイチイーダブリュケンキュウショ,0
162,1120101053917,登記記録の閉鎖等,0,2023-10-04,2023-10-02,大信貿易株式会社大阪北,,株式会社,大阪府,堺市西区,浜寺公園町３丁２３１番地３,,27,144,5928346,,,2023-10-02,清算の結了等,,,2015-11-26,1,,,,,ダイシンボウエキオオサカキタ,0
167,1120102025551,登記記録の閉鎖等,0,2023-10-04,2023-10-02,有限会社マルト,,有限会社,大阪府,和泉市,三林町４７１番地の２,,27,219,5941112,,,2023-10-02,合併による解散等,6120101041727,令和５年９月３０日大阪府和泉市池田下町１６１番地の２株式会社トミオ自動車（6120101041727）に合併し解散,2015-10-05,1,,,,,マルト,0
195,1170002004758,登記記録の閉鎖等,0,2023-10-04,2023-10-02,山本プラント有限会社,,有限会社,和歌山県,和歌山市,大谷８０番地の１３,,30,201,6408472,,,2023-10-02,清算の結了等,,,2015-10-05,1,,,,,ヤマモトプラント,0
199,1180001115530,登記記録の閉鎖等,0,2023-10-04,2023-10-02,興環テクノ株式会社,,株式会社,愛知県,名古屋市中区,錦３丁目６番２９号,,23,106,4600003,,,2023-10-02,合併による解散等,4030001063915,令和５年１０月１日名古屋市中区錦三丁目６番２９号興和オプトロニクス株式会社（4030001063915）に合併し解散,2015-10-05,1,,,,,コウカンテクノ,0
212,1180302023894,登記記録の閉鎖等,0,2023-10-04,2023-09-26,有限会社若杉興産,,有限会社,愛知県,豊田市,喜多町２丁目８３番地,,23,211,4710027,,,2023-09-26,清算の結了等,,,2015-10-05,1,,,,,ワカスギコウサン,0
215,1200001020810,登記記録の閉鎖等,0,2023-10-04,2023-09-28,株式会社中部,,株式会社,岐阜県,多治見市,池田町１丁目１５番地,,21,204,5070048,,,2023-09-28,清算の結了等,,,2015-10-05,1,,,,,チュウブ,0
216,1200001023598,登記記録の閉鎖等,0,2023-10-04,2023-10-02,株式会社ユニ研,,株式会社,岐阜県,中津川市,瀬戸４７３番地の１３,,21,206,5080111,,,2023-10-02,合併による解散等,3200001023605,令和５年１０月１日岐阜県中津川市苗木４５８６番地の５０株式会社イワビシ（3200001023605）に合併し解散,2015-10-05,1,,,,,ユニケン,0
225,1230002005816,登記記録の閉鎖等,0,2023-10-04,2023-10-02,有限会社北日本新聞上市西部販売店,,有限会社,富山県,中新川郡上市町,若杉新１２番地,,16,322,9300315,,,2023-10-02,清算の結了等,,,2015-10-05,1,,,,,キタニッポンシンブンカミイチセイブハンバイテン,0
234,1250002011399,登記記録の閉鎖等,0,2023-10-04,2023-10-02,有限会社山上,,有限会社,山口県,下関市,彦島角倉町４丁目４番９号,,35,201,7500081,,,2023-10-02,清算の結了等,,,2015-10-05,1,,,,,ヤマガミ,0
241,1270002005531,登記記録の閉鎖等,0,2023-10-04,2023-09-29,有限会社岡本屋商店,,有限会社,鳥取県,米子市,西町７６番地,,31,202,6830826,,,2023-09-29,清算の結了等,,,2015-10-05,1,,,,,オカモトヤショウテン,0
248,1290002022351,登記記録の閉鎖等,0,2023-10-04,2023-10-02,ビジョンネット有限会社,,有限会社,福岡県,福岡市中央区,大宮１丁目４番９号,,40,133,8100013,,,2023-10-02,合併による解散等,5290001018537,令和５年１０月１日福岡市中央区大宮一丁目４番９号プロ・ビジョン株式会社（5290001018537）に合併し解散,2015-10-05,1,,,,,ビジョンネット,0
262,1310002010007,登記記録の閉鎖等,0,2023-10-04,2023-09-25,有限会社佐世保技研,,有限会社,長崎県,佐世保市,春日町１０番５号,,42,202,8570011,,,2023-09-25,清算の結了等,,,2015-10-05,1,,,,,サセボギケン,0
264,1310002018322,登記記録の閉鎖等,0,2023-10-04,2023-09-28,有限会社原城交通,,有限会社,長崎県,南島原市,南有馬町丁２８２番地第４,,42,214,8592414,,,2023-09-28,清算の結了等,,,2015-10-05,1,,,,,ハラジョウコウツウ,0
273,1330002001714,登記記録の閉鎖等,0,2023-10-04,2023-09-28,有限会社オートショップ・サカモト,,有限会社,熊本県,熊本市東区,長嶺東５丁目１９番８５号,,43,102,8618038,,,2023-09-28,清算の結了等,,,2015-10-05,1,,,,,オートショップサカモト,0
287,1380002027052,登記記録の閉鎖等,0,2023-10-04,2023-10-02,有限会社三光設備,,有限会社,福島県,いわき市,渡辺町松小屋字初下１番地の１,,07,204,9728335,,,2023-10-02,清算の結了等,,,2015-10-05,1,,,,,サンコウセツビ,0
303,1430002038804,登記記録の閉鎖等,0,2023-10-04,2023-09-20,有限会社栄清工業,,有限会社,北海道,札幌市西区,発寒十一条１１丁目４番２３号,,01,107,0630831,,,2023-09-20,清算の結了等,,,2015-10-05,1,,,,,エイセイコウギョウ,0
304,1430002059817,登記記録の閉鎖等,0,2023-10-04,2023-09-20,有限会社豊光,,有限会社,北海道,苫小牧市,大成町１丁目１２番１０号,,01,213,0530806,,,2023-09-20,清算の結了等,,,2015-10-05,1,,,,,ホウコウ,0
310,1470001006238,登記記録の閉鎖等,0,2023-10-04,2023-10-02,株式会社エフエス,,株式会社,香川県,高松市,西内町７番２２号,,37,201,7600022,,,2023-10-02,清算の結了等,,,2015-10-05,1,,,,,エフエス,0
343,2010405019252,登記記録の閉鎖等,0,2023-10-04,2023-09-08,特定目的会社ハナミズキホールディングス,,その他の設立登記法人,東京都,港区,六本木６丁目１０番１号六本木ヒルズ森タワー,,13,103,1060032,,,2023-09-08,清算の結了等,,,2020-11-11,1,,,,,ハナミズキホールディングス,0
350,2010602015780,登記記録の閉鎖等,0,2023-10-04,2023-09-29,有限会社宮方稔丸貞,,有限会社,東京都,墨田区,太平１丁目１９番７号,,13,107,1300012,,,2023-09-29,清算の結了等,,,2015-10-05,1,,,,,ミヤカタミノルマルサダ,0
356,2011001000060,登記記録の閉鎖等,0,2023-10-04,2023-09-29,株式会社アイ・エス・プラン,,株式会社,東京都,渋谷区,道玄坂１丁目１９番１１号,,13,113,1500043,,,2023-09-29,清算の結了等,,,2015-10-05,1,,,,,アイエスプラン,0
404,2021001017616,登記記録の閉鎖等,0,2023-10-04,2023-09-27,株式会社サイクルワン,,株式会社,神奈川県,相模原市緑区,中沢６００－３,,14,151,2520117,,,2023-09-27,清算の結了等,,,2015-10-05,1,,,,,サイクルワン,0
410,2021002048230,登記記録の閉鎖等,0,2023-10-04,2023-10-03,有限会社サガミノ,,有限会社,神奈川県,海老名市,東柏ケ谷４丁目２６番１－１００７号,,14,215,2430401,,,2023-10-03,清算の結了等,,,2015-10-05,1,,,,,,0
418,2030001042409,登記記録の閉鎖等,0,2023-10-04,2023-09-01,株式会社成駒屋,,株式会社,埼玉県,北足立郡伊奈町,寿２丁目１２８番地の２,,11,301,3620807,,,2023-09-01,清算の結了等,,,2015-10-05,1,,,,,ナリコマヤ,0
425,2030002026352,登記記録の閉鎖等,0,2023-10-04,2023-09-11,有限会社三喜屋ミート,,有限会社,埼玉県,蕨市,南町２丁目１６番２号,,11,223,3350003,,,2023-09-11,清算の結了等,,,2015-10-05,1,,,,,ミキヤミート,0
435,2040002019520,登記記録の閉鎖等,0,2023-10-04,2023-09-19,有限会社ニシノ,,有限会社,千葉県,習志野市,袖ケ浦５丁目１７番１号,,12,216,2750021,,,2023-09-19,清算の結了等,,,2015-10-05,1,,,,,ニシノ,0
450,2070003004493,登記記録の閉鎖等,0,2023-10-04,2023-10-02,合同会社富輪,,合同会社,群馬県,高崎市,新町１４０４番地２ミヤマハイツＩＩ４０２号室,00126668,10,202,3701301,,,2023-10-02,清算の結了等,,,2022-05-26,1,,,,,プリン,0
451,2080001012258,登記記録の閉鎖等,0,2023-10-04,2023-10-02,株式会社松本塗装店,,株式会社,静岡県,静岡市駿河区,曲金７丁目１２番１１号,,22,102,4228006,,,2023-10-02,清算の結了等,,,2015-10-05,1,,,,,マツモトトソウテン,0
469,2120001142100,登記記録の閉鎖等,0,2023-10-04,2023-10-02,株式会社しるし,,株式会社,大阪府,大阪市東住吉区,鷹合２丁目１３番６号,,27,121,5460014,,,2023-10-02,合併による解散等,2120002065449,令和５年１０月１日大阪市中央区久太郎町二丁目５番１０号株式会社イントゥＣｏｒｐ．（2120002065449）に合併し解散,2015-10-05,1,,,,,シルシ,0
476,2120001225615,登記記録の閉鎖等,0,2023-10-04,2023-09-25,株式会社ＮＥＷ　ＣＯＬＯＲ,,株式会社,大阪府,大阪市浪速区,難波中３丁目９番１号,,27,111,5560011,,,2023-09-25,清算の結了等,,,2019-12-09,1,,,,,ニューカラー,0
498,2120902000851,登記記録の閉鎖等,0,2023-10-04,2023-09-26,有限会社松栄堂,,有限会社,大阪府,茨木市,春日１丁目１２番２号,,27,211,5670031,,,2023-09-26,清算の結了等,,,2015-10-05,1,,,,,ショウエイドウ,0
503,2130005009369,登記記録の閉鎖等,0,2023-10-04,2023-09-21,特定非営利活動法人東山やすらぎの会,,その他の設立登記法人,京都府,京都市東山区,今熊野剣宮町３３番地１８,,26,105,6050972,,,2023-09-21,清算の結了等,,,2015-10-05,1,,,,,ヒガシヤマヤスラギノカイ,0
535,2200002015461,登記記録の閉鎖等,0,2023-10-04,2023-09-29,有限会社竹中板金,,有限会社,岐阜県,揖斐郡池田町,八幡１３３０番地の１,,21,404,5032426,,,2023-09-29,清算の結了等,,,2015-10-05,1,,,,,タケナカバンキン,0
539,2210002011864,登記記録の閉鎖等,0,2023-10-04,2023-09-29,有限会社パーソナルサービス,,有限会社,福井県,越前市,村国２丁目１番３５号,,18,209,9150084,,,2023-09-29,清算の結了等,,,2015-10-05,1,,,,,パーソナルサービス,0
544,2230001008224,登記記録の閉鎖等,0,2023-10-04,2023-10-02,春日興産株式会社,,株式会社,富山県,砺波市,栄町６番２７号,,16,208,9391371,,,2023-10-02,合併による解散等,8230001016741,令和５年１０月１日富山県砺波市栄町６２０番地株式会社春日ホールディングス（8230001016741）に合併し解散,2015-10-05,1,,,,,カスガコウサン,0
545,2230001010758,登記記録の閉鎖等,0,2023-10-04,2023-10-02,富源産業株式会社,,株式会社,富山県,高岡市,昭和町３丁目３番１０号,,16,202,9330946,,,2023-10-02,合併による解散等,8230001010760,令和５年１０月１日富山県高岡市昭和町三丁目３番１０号富源商事株式会社（8230001010760）に合併し解散,2015-10-05,1,,,,,フゲンサンギョウ,0
566,2300002011418,登記記録の閉鎖等,0,2023-10-04,2023-09-29,有限会社ケイ・アンド・エス・システム,,有限会社,佐賀県,佐賀市,川副町大字小々森１２２６番地１,,41,201,8402214,,,2023-09-29,清算の結了等,,,2015-10-05,1,,,,,ケイアンドエスシステム,0
567,2300005005301,登記記録の閉鎖等,0,2023-10-04,2023-09-29,唐津電気工事協同組合,,その他の設立登記法人,佐賀県,唐津市,栄町２５７２番地２１,,41,202,8470011,,,2023-09-29,清算の結了等,,,2015-10-05,1,,,,,カラツデンキコウジ,0
571,2340001003544,登記記録の閉鎖等,0,2023-10-04,2023-10-02,株式会社林川不動産鑑定事務所,,株式会社,鹿児島県,鹿児島市,鴨池２丁目１９番１４号末吉ビル,,46,201,8900063,,,2023-10-02,清算の結了等,,,2015-10-05,1,,,,,ハヤシカワフドウサンカンテイジムショ,0
587,2430002012097,登記記録の閉鎖等,0,2023-10-04,2023-09-19,有限会社武田刺繍ネーム店,,有限会社,北海道,札幌市中央区,大通東７丁目１２番地,,01,101,0600041,,,2023-09-19,清算の結了等,,,2015-10-05,1,,,,,タケダシシュウネームテン,0
589,2430002057431,登記記録の閉鎖等,0,2023-10-04,2023-09-19,有限会社イシダフォーム,,有限会社,北海道,岩内郡岩内町,字相生２１０番地の１,,01,402,0450023,,,2023-09-19,清算の結了等,,,2015-10-05,1,,,,,イシダフォーム,0
594,2470001012012,登記記録の閉鎖等,0,2023-10-04,2023-09-29,株式会社ＡＴ,,株式会社,香川県,高松市,鬼無町藤井１２６番地１,,37,201,7618024,,,2023-09-29,清算の結了等,,,2015-10-05,1,,,,,アット,0
598,2490002005046,登記記録の閉鎖等,0,2023-10-04,2023-09-29,有限会社明星販社,,有限会社,高知県,高知市,長浜６６０番地４,,39,201,7810270,,,2023-09-29,清算の結了等,,,2015-10-05,1,,,,,ミョウジョウハンシャ,0
600,2500002007073,登記記録の閉鎖等,0,2023-10-04,2023-10-02,有限会社山田商店,,有限会社,愛媛県,松山市,中村４丁目７番２１号,,38,201,7900964,,,2023-10-02,清算の結了等,,,2015-10-05,1,,,,,ヤマダショウテン,0
606,3000020098086,登記記録の閉鎖等,0,2023-10-04,2023-09-30,佐野地区衛生施設組合,,地方公共団体,栃木県,佐野市,植下町２５５０番地,,09,204,3270835,,,2023-09-30,その他の清算の結了等,,,2015-10-05,1,Sanochikueiseishisetsukumiai,Tochigi,"2550 Ueshimocho, Sano shi",,サノチクエイセイシセツクミアイ,0
645,3011001022822,登記記録の閉鎖等,0,2023-10-04,2023-09-28,株式会社美幸ミュージックプロモーション,,株式会社,東京都,渋谷区,松濤２丁目１４番１－６０１号,,13,113,1500046,,,2023-09-28,合併による解散等,1011001022808,令和５年９月１８日東京都渋谷区松濤二丁目１４番１－６０１号株式会社美幸オフィス（1011001022808）に合併し解散,2015-10-05,1,,,,,ミユキミュージックプロモーション,0
659,3011002035088,登記記録の閉鎖等,0,2023-10-04,2023-08-01,有限会社ミューズランプ,,有限会社,東京都,渋谷区,本町４丁目１８番６号,,13,113,1510071,,,2023-08-01,清算の結了等,,,2015-10-05,1,,,,,ミューズランプ,0
670,3011202002598,登記記録の閉鎖等,0,2023-10-04,2023-10-02,有限会社サンテ動物病院,,有限会社,東京都,中野区,鷺宮１丁目３０番１８号,,13,114,1650032,,,2023-10-02,清算の結了等,,,2015-10-05,1,,,,,サンテドウブツビョウイン,0
676,3011401011680,登記記録の閉鎖等,0,2023-10-04,2023-09-29,株式会社会建,,株式会社,東京都,中野区,南台２丁目３９番２２号,,13,114,1640014,,,2023-09-29,清算の結了等,,,2015-10-05,1,,,,,アイケン,0
683,3011801034257,登記記録の閉鎖等,0,2023-10-04,2023-09-29,株式会社大喜び,,株式会社,東京都,葛飾区,新小岩４丁目５番１２号サンコーポＭＩＮＡＫＡＩ１０５,,13,122,1240024,,,2023-09-29,清算の結了等,,,2018-01-16,1,,,,,オオヨロコビ,0
692,3013301024044,登記記録の閉鎖等,0,2023-10-04,2023-09-11,株式会社コモンスペース,,株式会社,埼玉県,加須市,北辻５４０番地９,,11,210,3470023,,,2023-09-11,清算の結了等,,,2015-10-05,1,,,,,コモンスペース,0
705,3021005009278,登記記録の閉鎖等,0,2023-10-04,2023-09-15,ＮＰＯ法人命を大切にする小田原を創る会,,その他の設立登記法人,神奈川県,小田原市,千代１７８番地の３,,14,206,2500215,,,2023-09-15,清算の結了等,,,2015-10-05,1,,,,,イノチヲタイセツニスルオダワラヲツクルカイ,0
716,3030002035740,登記記録の閉鎖等,0,2023-10-04,2023-09-11,有限会社ハイメックス．インターエリア,,有限会社,埼玉県,入間市,大字仏子１０８９番地３０,,11,225,3580053,,,2023-09-11,清算の結了等,,,2015-10-05,1,,,,,ハイメックスインターエリア,0
717,3030002041342,登記記録の閉鎖等,0,2023-10-04,2023-09-08,有限会社野本製畳,,有限会社,埼玉県,加須市,久下３丁目４０１番地,,11,210,3470063,,,2023-09-08,清算の結了等,,,2015-10-05,1,,,,,ノモトセイジョウ,0
720,3030002114536,登記記録の閉鎖等,0,2023-10-04,2023-09-11,有限会社荻原鉄工所,,有限会社,埼玉県,熊谷市,永井太田４７５番地,,11,202,3600237,,,2023-09-11,清算の結了等,,,2015-10-05,1,,,,,オギワラテッコウジョ,0
753,3080001001961,登記記録の閉鎖等,0,2023-10-04,2023-10-02,シンクステコム株式会社,,株式会社,静岡県,焼津市,吉永１２５番地,,22,212,4210211,,,2023-10-02,合併による解散等,5010001175595,令和５年１０月１日静岡県焼津市吉永１２５番地シンクス株式会社（5010001175595）に合併し解散,2015-10-05,1,,,,,シンクステコム,0
754,3080001009798,登記記録の閉鎖等,0,2023-10-04,2023-10-02,株式会社トミーフィッシャリー,,株式会社,静岡県,静岡市清水区,西久保４６７番地の１,,22,103,4240038,,,2023-10-02,清算の結了等,,,2015-10-05,1,,,,,トミーフィッシャリー,0
779,3130001046456,登記記録の閉鎖等,0,2023-10-04,2023-09-19,株式会社アーテナー,,株式会社,京都府,船井郡京丹波町,西河内堀尾５番地,,26,407,6291107,,,2023-09-19,清算の結了等,,,2015-10-05,1,,,,,アーテナー,0
790,3140001074687,登記記録の閉鎖等,0,2023-10-04,2023-09-29,株式会社トラスト,,株式会社,兵庫県,尼崎市,御園町３３番地（サンヴェール尼崎駅前７０２）,,28,202,6600861,,,2023-09-29,清算の結了等,,,2015-10-05,1,,,,,トラスト,0
800,3150001019699,登記記録の閉鎖等,0,2023-10-04,2023-10-02,デクラフト株式会社,,株式会社,奈良県,大和郡山市,筒井町５７１番地８－２０１号,,29,203,6391123,,,2023-10-02,合併による解散等,3150001005939,令和５年１０月１日奈良県大和郡山市筒井町５７１番地８－２０４号株式会社トーヨーワーク（3150001005939）に合併し解散,2015-10-05,1,,,,,,0
804,3160001014716,登記記録の閉鎖等,0,2023-10-04,2023-09-29,Ｔａｋｕｍｉ　Ｖｉｓｉｏｎ株式会社,,株式会社,兵庫県,西宮市,名塩南台４丁目１６番地１３,,28,204,6691132,,,2023-09-29,清算の結了等,,,2015-10-05,1,,,,,タクミビジョン,0
806,3170001013007,登記記録の閉鎖等,0,2023-10-04,2023-10-02,株式会社ＮＥＸＴＰＨＡＳＥ,,株式会社,和歌山県,和歌山市,吉田３０５番地２３,,30,201,6408343,,,2023-10-02,清算の結了等,,,2015-10-05,1,,,,,ネクストフェイズ,0
808,3180001053992,登記記録の閉鎖等,0,2023-10-04,2023-09-29,株式会社西原,,株式会社,愛知県,名古屋市東区,飯田町４１番地,,23,102,4610013,,,2023-09-29,清算の結了等,,,2015-10-05,1,,,,,ニシハラ,0
822,3190001001067,登記記録の閉鎖等,0,2023-10-04,2023-10-02,三重県食糧倉庫株式会社,,株式会社,三重県,津市,庄田町１９５７番地,,24,201,5141255,,,2023-10-02,合併による解散等,1190001001218,令和５年１０月１日三重県津市庄田町１９５７番地株式会社ライス・ロード（1190001001218）に合併し解散,2015-10-05,1,,,,,ミエケンショクリョウソウコ,0
828,3220001013216,登記記録の閉鎖等,0,2023-10-04,2023-09-29,株式会社佐々木ホームサービス,,株式会社,石川県,加賀市,動橋町イ２４番地２,,17,206,9220331,,,2023-09-29,清算の結了等,,,2015-10-05,1,,,,,ササキホームサービス,0
843,3270002005348,登記記録の閉鎖等,0,2023-10-04,2023-09-29,有限会社岩本呉服店,,有限会社,鳥取県,米子市,角盤町２丁目６０番地,,31,202,6830812,,,2023-09-29,清算の結了等,,,2015-10-05,1,,,,,イワモトゴフクテン,0
844,3280001008020,登記記録の閉鎖等,0,2023-10-04,2023-10-03,株式会社山陰トランスポート,,株式会社,島根県,松江市,竹矢町１７６５番地,,32,201,6900023,,,2023-10-03,清算の結了等,,,2019-07-25,1,,,,,サンイントランスポート,0
850,3290801002675,登記記録の閉鎖等,0,2023-10-04,2023-10-02,株式会社南海タクシー,,株式会社,福岡県,北九州市小倉北区,江南町５番２９号,,40,106,8020083,,,2023-10-02,合併による解散等,5290801002343,令和５年１０月１日北九州市小倉北区江南町５番３３号大丸交通株式会社（5290801002343）に合併し解散,2015-10-05,1,,,,,ナンカイタクシー,0
852,3290802016897,登記記録の閉鎖等,0,2023-10-04,2023-09-27,有限会社ダスキンやまさき,,有限会社,福岡県,遠賀郡遠賀町,遠賀川１丁目４番３３号,,40,384,8114307,,,2023-09-27,清算の結了等,,,2015-10-05,1,,,,,ダスキンヤマサキ,0
856,3310002018188,登記記録の閉鎖等,0,2023-10-04,2023-10-02,有限会社岩永フラワーカントリー,,有限会社,長崎県,南島原市,深江町丁３９４５番地,,42,214,8591504,,,2023-10-02,清算の結了等,,,2015-10-05,1,,,,,イワナガフラワーカントリー,0
881,3410001005788,登記記録の閉鎖等,0,2023-10-04,2023-09-28,株式会社仙道てんぽ,,株式会社,秋田県,雄勝郡羽後町,中仙道字堀内１３９番地１,,05,463,0121352,,,2023-09-28,清算の結了等,,,2015-10-05,1,,,,,センドウテンポ,0
882,3420005007821,登記記録の閉鎖等,0,2023-10-04,2023-09-28,一般社団法人ひらないまちなかオフィス,,その他の設立登記法人,青森県,東津軽郡平内町,大字小湊字後萢２番地１０,00127706,02,301,0393321,,,2023-09-28,清算の結了等,,,2022-09-02,1,,,,,ヒラナイマチナカオフィス,0
899,3500002000234,登記記録の閉鎖等,0,2023-10-04,2023-10-02,有限会社徳永工業,,有限会社,愛媛県,松山市,下難波甲２３４番地の１,,38,201,7992407,,,2023-10-02,清算の結了等,,,2015-10-05,1,,,,,トクナガコウギョウ,0
934,4011001090736,登記記録の閉鎖等,0,2023-10-04,2023-09-13,株式会社丸の内万作,,株式会社,東京都,港区,北青山３丁目８番１２号３階,,13,103,1070061,,,2023-09-13,清算の結了等,,,2015-10-05,1,,,,,マルノウチマンサク,0
954,4011801016650,登記記録の閉鎖等,0,2023-10-04,2023-10-02,株式会社ウイット,,株式会社,東京都,葛飾区,柴又５丁目３０番２４号,,13,122,1250052,,,2023-10-02,清算の結了等,,,2015-10-05,1,,,,,ウイット,0
958,4012402000358,登記記録の閉鎖等,0,2023-10-04,2023-10-03,有限会社岩正青果,,有限会社,東京都,府中市,紅葉丘１丁目３７番地の１,,13,206,1830004,,,2023-10-03,清算の結了等,,,2015-10-05,1,,,,,イワマサセイカ,0
970,4021002064184,登記記録の閉鎖等,0,2023-10-04,2023-09-26,有限会社互光商会,,有限会社,神奈川県,横須賀市,久里浜４丁目８番１２号,,14,201,2390831,,,2023-09-26,清算の結了等,,,2015-10-05,1,,,,,ゴコウショウカイ,0
977,4030002090561,登記記録の閉鎖等,0,2023-10-04,2023-09-07,有限会社双葉薬局,,有限会社,埼玉県,吉川市,吉川団地１番７号１０２,,11,243,3420054,,,2023-09-07,清算の結了等,,,2015-10-05,1,,,,,フタバヤッキョク,0
992,4080001010532,登記記録の閉鎖等,0,2023-10-04,2023-10-02,株式会社相生社,,株式会社,静岡県,静岡市清水区,相生町９番２０号,,22,103,4240821,,,2023-10-02,清算の結了等,,,2015-10-05,1,,,,,アイオイシャ,0
997,4080002012742,登記記録の閉鎖等,0,2023-10-04,2023-10-02,有限会社麦工業,,有限会社,静岡県,静岡市清水区,楠３９９番地,,22,103,4240881,,,2023-10-02,清算の結了等,,,2015-10-05,1,,,,,ムギコウギョウ,0
1024,4120002015501,登記記録の閉鎖等,0,2023-10-04,2023-09-25,山和船舶海運有限会社,,有限会社,大阪府,大阪市港区,港晴４丁目１４番５号,,27,107,5520023,,,2023-09-25,清算の結了等,,,2015-10-05,1,,,,,,0
1039,4120901011410,登記記録の閉鎖等,0,2023-10-04,2023-09-20,株式会社高槻整研,,株式会社,大阪府,高槻市,下田部町２丁目５４番１号,,27,207,5690062,,,2023-09-20,清算の結了等,,,2015-10-05,1,,,,,タカツキセイケン,0
1052,4140001070545,登記記録の閉鎖等,0,2023-10-04,2023-09-29,株式会社明商,,株式会社,兵庫県,西宮市,上ケ原三番町３番２３号,,28,204,6620893,,,2023-09-29,清算の結了等,,,2015-10-05,1,,,,,メイショウ,0
1054,4140001126652,登記記録の閉鎖等,0,2023-10-04,2023-10-02,株式会社パンデムズ,,株式会社,兵庫県,神戸市須磨区,道正台１丁目１番１－７０８号,,28,107,6540122,,,2023-10-02,清算の結了等,,,2022-07-08,1,,,,,パンデムズ,0
1099,4270002006361,登記記録の閉鎖等,0,2023-10-04,2023-10-02,有限会社立山内装,,有限会社,鳥取県,米子市,夜見町３０３７番地の１３,,31,202,6830851,,,2023-10-02,清算の結了等,,,2015-10-05,1,,,,,タチヤマナイソウ,0
1141,4410001005309,登記記録の閉鎖等,0,2023-10-04,2023-09-29,丸喜重量運輸秋田株式会社,,株式会社,秋田県,由利本荘市,石脇字山ノ神１１番地,,05,210,0150014,,,2023-09-29,清算の結了等,,,2015-10-05,1,,,,,マルキジュウリョウウンユアキタ,0
1143,4420001007353,登記記録の閉鎖等,0,2023-10-04,2023-09-28,株式会社東盛,,株式会社,青森県,八戸市,大字売市字左水門下１２番地６０リンクサイドマンション４０２,,02,203,0310073,,,2023-09-28,清算の結了等,,,2015-10-05,1,,,,,トウセイ,0
1157,4470002017867,登記記録の閉鎖等,0,2023-10-04,2023-10-02,有限会社佐藤商店,,有限会社,香川県,さぬき市,鴨庄４１６５番地１,,37,206,7692102,,,2023-10-02,清算の結了等,,,2015-10-05,1,,,,,サトウショウテン,0
1161,4490003001298,登記記録の閉鎖等,0,2023-10-04,2023-10-02,合同会社ふぉれすと,,合同会社,高知県,香美市,物部町大栃８７２番地２,,39,212,7814401,,,2023-10-02,清算の結了等,,,2019-02-08,1,,,,,フォレスト,0
1196,5010403012842,登記記録の閉鎖等,0,2023-10-04,2023-10-02,新潟ホテル・マネジメント合同会社,,合同会社,東京都,港区,六本木６丁目２番３１号,,13,103,1060032,,,2023-10-02,合併による解散等,6010001146554,令和５年１０月１日東京都港区六本木六丁目２番３１号株式会社マイステイズ・ホテル・マネジメント（6010001146554）に合併し解散,2015-10-05,1,,,,,ニイガタホテルマネジメント,0
1198,5010405016817,登記記録の閉鎖等,0,2023-10-04,2023-09-26,一般社団法人世界経済フォーラム第四次産業革命日本センター,,その他の設立登記法人,神奈川県,横浜市中区,住吉町２丁目２２番地松栄関内ビル２Ｆ,,14,104,2310013,,,2023-09-26,清算の結了等,,,2018-06-20,1,,,,,セカイケイザイフォーラムダイヨジサンギョウカクメイニホンセンター,0
1206,5010802005166,登記記録の閉鎖等,0,2023-10-04,2023-09-29,有限会社工電,,有限会社,東京都,大田区,萩中３丁目２９番９号,,13,111,1440047,,,2023-09-29,清算の結了等,,,2015-10-05,1,,,,,コウデン,0
1209,5010902022136,登記記録の閉鎖等,0,2023-10-04,2023-09-27,有限会社ｅｃｏｎｏｓｈｉｐ,,有限会社,沖縄県,石垣市,字野底９７４,,47,207,9070333,,,2023-09-27,清算の結了等,,,2015-10-05,1,,,,,エコノシップ,0
1222,5011101055877,登記記録の閉鎖等,0,2023-10-04,2023-09-26,株式会社シグナルエイト,,株式会社,東京都,新宿区,西新宿４丁目３２番１２号,,13,104,1600023,,,2023-09-26,清算の結了等,,,2015-10-05,1,,,,,シグナルエイト,0
1226,5011201023370,登記記録の閉鎖等,0,2023-10-04,2023-10-03,ＤＯＲＥＭＯ株式会社,,株式会社,東京都,中野区,中野１丁目２１番２２号,,13,114,1640001,,,2023-10-03,清算の結了等,,,2021-10-29,1,,,,,ドレモ,0
1236,5011602002915,登記記録の閉鎖等,0,2023-10-04,2023-09-29,企画表現有限会社,,有限会社,東京都,練馬区,下石神井２丁目１４番４号,,13,120,1770042,,,2023-09-29,清算の結了等,,,2015-10-05,1,,,,,キカクヒョウゲン,0
1240,5012401018540,登記記録の閉鎖等,0,2023-10-04,2023-10-02,株式会社エヌズ,,株式会社,東京都,三鷹市,下連雀９丁目５番６０－５１６号,,13,204,1810013,,,2023-10-02,清算の結了等,,,2015-10-05,1,,,,,,0
1243,5012803002068,登記記録の閉鎖等,0,2023-10-04,2023-09-26,合同会社Ｏｎｅ　Ｏｃｅａｎ　ＪＰ,,合同会社,東京都,立川市,錦町１丁目４－４－２Ｆ,,13,202,1900022,,,2023-09-26,清算の結了等,,,2019-07-24,1,,,,,ワンオーシャンジェイピー,0
1245,5013301045237,登記記録の閉鎖等,0,2023-10-04,2023-09-29,株式会社ＬＯＯＫ,,株式会社,東京都,新宿区,新宿２丁目１３番１０号武蔵野ビル５階,,13,104,1600022,,,2023-09-29,清算の結了等,,,2020-02-19,1,,,,,ルック,0
1251,5020001133404,登記記録の閉鎖等,0,2023-10-04,2023-09-26,株式会社チャッカバン,,株式会社,神奈川県,横浜市旭区,二俣川１丁目３－２,,14,112,2410821,,,2023-09-26,清算の結了等,,,2019-10-30,1,,,,,チャッカバン,0
1255,5020002033157,登記記録の閉鎖等,0,2023-10-04,2023-09-26,有限会社加瀬建設,,有限会社,神奈川県,横浜市港北区,師岡町５６３番地７,,14,109,2220002,,,2023-09-26,清算の結了等,,,2015-10-05,1,,,,,,0
1264,5030001039476,登記記録の閉鎖等,0,2023-10-04,2023-09-11,株式会社小河木型製作所,,株式会社,埼玉県,三郷市,南蓮沼１０１０番地２,,11,237,3410028,,,2023-09-11,清算の結了等,,,2015-10-05,1,,,,,オガワキガタセイサクショ,0
1276,5040001054111,登記記録の閉鎖等,0,2023-10-04,2023-09-19,株式会社スリーキュウ,,株式会社,千葉県,市原市,五井９０２０番地４,,12,219,2900056,,,2023-09-19,清算の結了等,,,2015-10-05,1,,,,,スリーキュウ,0
1277,5040001081816,登記記録の閉鎖等,0,2023-10-04,2023-09-15,アストロフーズ株式会社,,株式会社,千葉県,千葉市若葉区,千城台西１丁目６番７号,,12,104,2640004,,,2023-09-15,清算の結了等,,,2015-10-05,1,,,,,アストロフーズ,0
1281,5040002001715,登記記録の閉鎖等,0,2023-10-04,2023-09-19,有限会社エスエイエス,,有限会社,千葉県,千葉市花見川区,幕張本郷６丁目２４番３号,,12,102,2620033,,,2023-09-19,清算の結了等,,,2015-10-05,1,,,,,エスエイエス,0
1288,5060002013056,登記記録の閉鎖等,0,2023-10-04,2023-09-27,有限会社つな川,,有限会社,栃木県,塩谷郡高根沢町,宝石台３丁目２番地１,,09,386,3291231,,,2023-09-27,清算の結了等,,,2015-10-05,1,,,,,ツナカワ,0
1294,5080001015398,登記記録の閉鎖等,0,2023-10-04,2023-10-02,焼津中央水産株式会社,,株式会社,静岡県,焼津市,石津港町５３番地の２,,22,212,4250042,,,2023-10-02,清算の結了等,,,2015-10-05,1,,,,,ヤイズチュウオウスイサン,0
1295,5080001023673,登記記録の閉鎖等,0,2023-10-04,2023-10-02,エスピー技研株式会社,,株式会社,静岡県,静岡市清水区,折戸４丁目１番１０号,,22,103,4240902,,,2023-10-02,合併による解散等,4080001023600,令和５年９月３０日静岡市清水区折戸四丁目１番１０号ビホウ株式会社（4080001023600）に合併し解散,2020-08-12,1,,,,,エスピーギケン,0
1335,5120105004425,登記記録の閉鎖等,0,2023-10-04,2023-10-02,医療法人うえの整形外科クリニック,,その他の設立登記法人,大阪府,松原市,天美東７丁目７番７号ロイヤルコート天美３階,,27,217,5800032,,,2023-10-02,清算の結了等,,,2015-10-05,1,,,,,ウエノセイケイゲカクリニック,0
1341,5130001002688,登記記録の閉鎖等,0,2023-10-04,2023-09-06,株式会社沖製作所,,株式会社,京都府,京都市上京区,笹屋町通七本松東入笹屋５丁目３２２番地,,26,102,6028453,,,2023-09-06,清算の結了等,,,2015-10-05,1,,,,,オキセイサクショ,0
1348,5140001069784,登記記録の閉鎖等,0,2023-10-04,2023-09-29,株式会社日友,,株式会社,兵庫県,西宮市,甲子園口１丁目９番１７号,,28,204,6638113,,,2023-09-29,清算の結了等,,,2015-10-05,1,,,,,,0
1355,5140005007195,登記記録の閉鎖等,0,2023-10-04,2023-10-02,井内生産森林組合,,その他の設立登記法人,兵庫県,宍粟市,一宮町井内１４２番地の２,,28,227,6714104,,,2023-10-02,清算の結了等,,,2015-10-05,1,,,,,イウチ,0
1377,5180002027052,登記記録の閉鎖等,0,2023-10-04,2023-09-28,有限会社飯田鋳造所,,有限会社,愛知県,名古屋市中村区,日比津町４丁目１８番１９号,,23,105,4530061,,,2023-09-28,清算の結了等,,,2015-10-05,1,,,,,イイダチュウゾウショ,0
1384,5180301024353,登記記録の閉鎖等,0,2023-10-04,2023-09-27,共栄サービス株式会社,,株式会社,愛知県,新城市,字東沖野２０番地１０,,23,221,4411363,,,2023-09-27,清算の結了等,,,2015-10-05,1,,,,,キョウエイサービス,0
1386,5180302002259,登記記録の閉鎖等,0,2023-10-04,2023-09-29,ナショナル興産有限会社,,有限会社,愛知県,岡崎市,稲熊町字３丁目１５０番地２,,23,202,4440071,,,2023-09-29,清算の結了等,,,2015-10-05,1,,,,,ナショナルコウサン,0
1387,5180302006532,登記記録の閉鎖等,0,2023-10-04,2023-09-27,有限会社ウイング,,有限会社,愛知県,豊橋市,東田町２４８番地の３,,23,201,4400066,,,2023-09-27,清算の結了等,,,2015-10-05,1,,,,,ウイング,0
1399,5220001023048,登記記録の閉鎖等,0,2023-10-04,2023-10-02,株式会社エヌ・シー・アイ,,株式会社,石川県,金沢市,西金沢５丁目３１２番地,,17,201,9218054,,,2023-10-02,合併による解散等,3220002000790,令和５年１０月１日石川県金沢市西金沢五丁目３１２番地株式会社エヌ・シー・ティ（3220002000790）に合併し解散,2019-08-09,1,,,,,エヌシーアイ,0
1402,5230001006159,登記記録の閉鎖等,0,2023-10-04,2023-10-02,株式会社陽幸エンジニアリング,,株式会社,富山県,富山市,下冨居１丁目７－６３,,16,201,9300814,,,2023-10-02,合併による解散等,8230001003533,令和５年１０月１日富山市問屋町三丁目１番２８号菱越電機株式会社（8230001003533）に合併し解散,2015-10-05,1,,,,,ヨウコウエンジニアリング,0
1439,5310003003906,登記記録の閉鎖等,0,2023-10-04,2023-10-03,合同会社愛慕,,合同会社,長崎県,長崎市,昭和２丁目４番３号,,42,201,8528145,,,2023-10-03,清算の結了等,,,2020-09-02,1,,,,,アイボ,0
1458,5370502000381,登記記録の閉鎖等,0,2023-10-04,2023-10-02,有限会社三陸ブロック,,有限会社,宮城県,気仙沼市,港町４番１号,,04,205,9880021,,,2023-10-02,清算の結了等,,,2015-10-05,1,,,,,サンリクブロック,0
1478,5470001004246,登記記録の閉鎖等,0,2023-10-04,2023-10-02,四鉄サービス株式会社,,株式会社,香川県,高松市,浜ノ町８番２４号高松ＪＲ第２ビル１階,,37,201,7600011,,,2023-10-02,合併による解散等,6470001001886,令和５年１０月１日香川県高松市浜ノ町８番２４号高松ＪＲ第２ビル株式会社ジェイアール四国メンテナンス（6470001001886）に合併し解散,2015-10-05,1,,,,,ヨンテツサービス,0
1493,6010001140425,登記記録の閉鎖等,0,2023-10-04,2023-10-02,ＩＭＣ株式会社,,株式会社,神奈川県,横浜市神奈川区,二ツ谷町９番地４,,14,102,2210823,,,2023-10-02,合併による解散等,6010701000845,令和５年９月２７日東京都品川区南大井二丁目１０番６－２０１４号アイ・イー・プロ株式会社（6010701000845）に合併し解散,2015-10-05,1,,,,,アイエムシー,0
1519,6011001048377,登記記録の閉鎖等,0,2023-10-04,2023-09-25,株式会社結デザインネットワーク,,株式会社,東京都,渋谷区,代々木２丁目２３番１号,,13,113,1510053,,,2023-09-25,清算の結了等,,,2015-10-05,1,,,,,ユイデザインネットワーク,0
1552,6012401023060,登記記録の閉鎖等,0,2023-10-04,2023-10-02,株式会社クレイン,,株式会社,東京都,武蔵野市,西久保２丁目１８番３号,,13,203,1800013,,,2023-10-02,清算の結了等,,,2015-10-05,1,,,,,クレイン,0
1553,6012401025684,登記記録の閉鎖等,0,2023-10-04,2023-09-29,株式会社ホームプロジェクト,,株式会社,東京都,小金井市,関野町２丁目６番１０号,,13,210,1840001,,,2023-09-29,清算の結了等,,,2015-10-05,1,,,,,,0
1576,6021002063003,登記記録の閉鎖等,0,2023-10-04,2023-09-26,有限会社内田物産,,有限会社,神奈川県,横須賀市,三春町１丁目５番地,,14,201,2380014,,,2023-09-26,清算の結了等,,,2015-10-05,1,,,,,,0
1583,6030001029823,登記記録の閉鎖等,0,2023-10-04,2023-10-02,株式会社グローバル・キャスト,,株式会社,東京都,新宿区,西新宿２丁目４番１号,,13,104,1600023,,,2023-10-02,合併による解散等,5011101056883,令和５年１０月１日東京都新宿区西新宿二丁目４番１号株式会社ＴＨＥグローバル社（5011101056883）に合併し解散,2015-10-05,1,,,,,グローバルキャスト,0
1585,6030001072708,登記記録の閉鎖等,0,2023-10-04,2023-09-11,株式会社ユウセイ,,株式会社,埼玉県,越谷市,大字大泊７０７番地１１,,11,222,3430044,,,2023-09-11,清算の結了等,,,2015-10-05,1,,,,,ユウセイ,0
1587,6030001092367,登記記録の閉鎖等,0,2023-10-04,2023-10-02,株式会社東方書林,,株式会社,東京都,台東区,橋場２丁目２番２号,,13,106,1110023,,,2023-10-02,清算の結了等,,,2015-10-05,1,,,,,トウホウショリン,0
1591,6030001112653,登記記録の閉鎖等,0,2023-10-04,2023-09-05,株式会社ｇｏｌａｚｏ,,株式会社,埼玉県,飯能市,緑町１５－４,,11,209,3570024,,,2023-09-05,清算の結了等,,,2016-02-04,1,,,,,ゴラッソ,0
1614,6070005003754,登記記録の閉鎖等,0,2023-10-04,2023-09-29,特定非営利活動法人甘楽トラスト,,その他の設立登記法人,群馬県,富岡市,黒川６３１番地２,,10,210,3702344,,,2023-09-29,清算の結了等,,,2015-10-05,1,,,,,カンラトラスト,0
1616,6080102014686,登記記録の閉鎖等,0,2023-10-04,2023-09-29,有限会社ハウス・センター,,有限会社,静岡県,富士市,今泉３４２０番地の６,,22,210,4170001,,,2023-09-29,清算の結了等,,,2015-10-05,1,,,,,ハウスセンター,0
1648,6122001006371,登記記録の閉鎖等,0,2023-10-04,2023-09-29,株式会社フタバ堂,,株式会社,大阪府,東大阪市,徳庵本町４番６号,,27,227,5770001,,,2023-09-29,清算の結了等,,,2015-10-05,1,,,,,フタバドウ,0
1654,6130001045471,登記記録の閉鎖等,0,2023-10-04,2023-09-22,御池商事株式会社,,株式会社,京都府,京都市中京区,寺町通御池下る下本能寺前町５０７番地,,26,104,6048091,,,2023-09-22,清算の結了等,,,2015-10-05,1,,,,,オイケショウジ,0
1655,6130001059570,登記記録の閉鎖等,0,2023-10-04,2023-10-02,株式会社まれ,,株式会社,京都府,京都市下京区,河原町通松原上る２丁目富永町３５６番地,,26,106,6008023,,,2023-10-02,合併による解散等,4130001036175,令和５年１０月１日京都市下京区河原町通松原上る二丁目富永町３５６番地株式会社ＫＡＳＨＩＲＯ（4130001036175）に合併し解散,2017-04-12,1,,,,,マレ,0
1656,6130002007826,登記記録の閉鎖等,0,2023-10-04,2023-09-25,有限会社古田秤文堂,,有限会社,京都府,京都市下京区,中堂寺南町市有地,,26,106,6008813,,,2023-09-25,清算の結了等,,,2015-10-05,1,,,,,フルタヒョウブンドウ,0
1659,6150001012957,登記記録の閉鎖等,0,2023-10-04,2023-10-02,大栄繊維株式会社,,株式会社,奈良県,香芝市,高８５番地,,29,210,6390241,,,2023-10-02,清算の結了等,,,2015-10-05,1,,,,,ダイエイセンイ,0
1666,6180001067627,登記記録の閉鎖等,0,2023-10-04,2023-09-29,株式会社アイワ運輸,,株式会社,愛知県,日進市,浅田町上小深田２番地３,,23,230,4700124,,,2023-09-29,清算の結了等,,,2015-10-05,1,,,,,アイワウンユ,0
1667,6180001127637,登記記録の閉鎖等,0,2023-10-04,2023-09-29,株式会社ビップ商工,,株式会社,愛知県,名古屋市瑞穂区,南山町１９番地の１,,23,108,4670023,,,2023-09-29,清算の結了等,,,2017-05-02,1,,,,,ビップショウコウ,0
1673,6180002006096,登記記録の閉鎖等,0,2023-10-04,2023-10-02,アイチベルト有限会社,,有限会社,愛知県,名古屋市港区,川間町３丁目８２番地,,23,111,4550076,,,2023-10-02,清算の結了等,,,2015-10-05,1,,,,,アイチベルト,0
1674,6180002007565,登記記録の閉鎖等,0,2023-10-04,2023-09-29,有限会社荒川洋服店,,有限会社,愛知県,名古屋市昭和区,鶴舞３丁目１０番１４号,,23,107,4660064,,,2023-09-29,清算の結了等,,,2015-10-05,1,,,,,アラカワヨウフクテン,0
1698,6230002013797,登記記録の閉鎖等,0,2023-10-04,2023-10-02,有限会社ハビリス商事,,有限会社,富山県,射水市,西新湊１１番地１８号,,16,211,9340004,,,2023-10-02,清算の結了等,,,2015-10-05,1,,,,,ハビリスショウジ,0
1709,6280002008710,登記記録の閉鎖等,0,2023-10-04,2023-10-02,有限会社紋匠古我,,有限会社,島根県,浜田市,浅井町１４４２番地１７,,32,202,6970022,,,2023-10-02,清算の結了等,,,2015-10-05,1,,,,,モンショウコガ,0
1726,6320001001967,登記記録の閉鎖等,0,2023-10-04,2023-10-02,株式会社トムカード,,株式会社,大分県,大分市,都町３丁目７番２３号タクセイビル２階,,44,201,8700034,,,2023-10-02,合併による解散等,7320001001710,令和５年１０月１日大分市都町三丁目７番２３号株式会社拓成（7320001001710）に合併し解散,2015-10-05,1,,,,,トムカード,0
1730,6320002007245,登記記録の閉鎖等,0,2023-10-04,2023-10-02,若草中央商事有限会社,,有限会社,大分県,大分市,中央町３丁目２番２１号,,44,201,8700035,,,2023-10-02,清算の結了等,,,2015-10-05,1,,,,,ワカクサチュウオウショウジ,0
1733,6330002026491,登記記録の閉鎖等,0,2023-10-04,2023-09-27,有限会社山本会計センター,,有限会社,熊本県,八代市,東片町３８５番地,,43,202,8660814,,,2023-09-27,清算の結了等,,,2015-10-05,1,,,,,ヤマモトカイケイセンター,0
1745,6360001027100,登記記録の閉鎖等,0,2023-10-04,2023-09-27,株式会社ＨＵＴ,,株式会社,沖縄県,那覇市,久米２丁目３番１５号ＣＯＩ那覇ビル,,47,201,9000033,,,2023-09-27,清算の結了等,,,2020-04-15,1,,,,,ハット,0
1763,6400603000061,登記記録の閉鎖等,0,2023-10-04,2023-09-25,合資会社荻田酒造店,,合資会社,岩手県,奥州市,江刺六日町４番１０号,,03,215,0231124,,,2023-09-25,清算の結了等,,,2015-10-05,1,,,,,オギタシュゾウテン,0
1764,6410002005289,登記記録の閉鎖等,0,2023-10-04,2023-10-02,有限会社秋田地質工学,,有限会社,秋田県,秋田市,河辺和田字岡村２４１番地１,,05,201,0192601,,,2023-10-02,清算の結了等,,,2015-10-05,1,,,,,アキタチシツコウガク,0
1765,6410003003374,登記記録の閉鎖等,0,2023-10-04,2023-09-27,合同会社ＧＲＡＣＥ　ＭＥ,,合同会社,徳島県,名東郡佐那河内村,上字白尾５７,,36,321,7714102,,,2023-09-27,清算の結了等,,,2020-04-08,1,,,,,グレイスミー,0
1769,6430001059409,登記記録の閉鎖等,0,2023-10-04,2023-09-19,株式会社ＲＣセンター,,株式会社,北海道,石狩市,新港西１丁目７２１番地９,,01,235,0613241,,,2023-09-19,清算の結了等,,,2015-10-05,1,,,,,アールシーセンター,0
1776,6430003006061,登記記録の閉鎖等,0,2023-10-04,2023-09-20,合同会社ウォーク,,合同会社,北海道,石狩市,花川南五条１丁目８０番地,,01,235,0613205,,,2023-09-20,清算の結了等,,,2015-10-05,1,,,,,ウォーク,0
1781,6450001012051,登記記録の閉鎖等,0,2023-10-04,2023-10-02,ヴィプロジェクト株式会社,,株式会社,北海道,旭川市,永山一条４丁目１番１１号,,01,204,0798411,,,2023-10-02,清算の結了等,,,2017-04-14,1,,,,,ヴィプロジェクト,0
1792,6500002006880,登記記録の閉鎖等,0,2023-10-04,2023-10-03,有限会社桃山不動産センター,,有限会社,愛媛県,松山市,持田町３丁目２番２５号,,38,201,7900855,,,2023-10-03,清算の結了等,,,2015-10-05,1,,,,,モモヤマフドウサンセンター,0
1827,7010401162910,登記記録の閉鎖等,0,2023-10-04,2023-09-13,株式会社アクティフル,,株式会社,東京都,港区,南青山２丁目２番１５号,,13,103,1070062,,,2023-09-13,清算の結了等,,,2021-09-30,1,,,,,アクティフル,0
1870,7011601004919,登記記録の閉鎖等,0,2023-10-04,2023-09-25,トライデントジャパン株式会社,,株式会社,東京都,練馬区,氷川台４丁目２７番８号,,13,120,1790084,,,2023-09-25,清算の結了等,,,2015-10-05,1,,,,,トライデントジャパン,0
1875,7011703001491,登記記録の閉鎖等,0,2023-10-04,2023-09-28,ペガール合同会社,,合同会社,東京都,江戸川区,東小岩３丁目７番１８号,,13,123,1330052,,,2023-09-28,清算の結了等,,,2016-05-12,1,,,,,ペガール,0
1880,7012303000850,登記記録の閉鎖等,0,2023-10-04,2023-09-29,ＦＴＰトレーディング合同会社,,合同会社,東京都,町田市,鶴川１丁目２０番地１４,,13,209,1950061,,,2023-09-29,清算の結了等,,,2015-10-05,1,,,,,エフティーピートレーディング,0
1881,7012303001460,登記記録の閉鎖等,0,2023-10-04,2023-09-29,合同会社吉丸想造,,合同会社,東京都,町田市,中町１丁目２－５ＳＨＥＬＬＭＩＹＡＫＯＶ３Ｆ,,13,209,1940021,,,2023-09-29,清算の結了等,,,2020-11-05,1,,,,,ヨシマルソウゾウ,0
1888,7021001013486,登記記録の閉鎖等,0,2023-10-04,2023-09-26,株式会社ザイマックス防災テクニカ神奈川,,株式会社,神奈川県,相模原市南区,上鶴間６丁目７番６号,,14,153,2520302,,,2023-09-26,清算の結了等,,,2015-10-05,1,,,,,ザイマックスボウサイテクニカカナガワ,0
1895,7021002018377,登記記録の閉鎖等,0,2023-10-04,2023-09-26,エステイ電装有限会社,,有限会社,神奈川県,相模原市中央区,淵野辺本町４丁目２２番２５号,,14,152,2520202,,,2023-09-26,清算の結了等,,,2015-10-05,1,,,,,,0
1908,7030002033674,登記記録の閉鎖等,0,2023-10-04,2023-09-11,有限会社狭山コンタクトレンズ研究所,,有限会社,埼玉県,狭山市,新狭山２丁目１０番１５号,,11,215,3501331,,,2023-09-11,清算の結了等,,,2015-10-05,1,,,,,サヤマコンタクトレンズケンキュウショ,0
1947,7100005009383,登記記録の閉鎖等,0,2023-10-04,2023-09-28,特定非営利活動法人大曽倉ふれんど,,その他の設立登記法人,長野県,駒ヶ根市,中沢９２７６番地２,,20,210,3994231,,,2023-09-28,清算の結了等,,,2015-10-05,1,,,,,オオソグラフレンド,0
1951,7120001136733,登記記録の閉鎖等,0,2023-10-04,2023-09-27,株式会社ＮＳＩ,,株式会社,大阪府,大阪市淀川区,木川東２丁目４番１０号,,27,123,5320012,,,2023-09-27,清算の結了等,,,2015-10-05,1,,,,,,0
1973,7130001034787,登記記録の閉鎖等,0,2023-10-04,2023-09-22,北山テクノサービス株式会社,,株式会社,京都府,京都市北区,紫竹下園生町１７番地２,,26,101,6038422,,,2023-09-22,清算の結了等,,,2015-10-05,1,,,,,キタヤマテクノサービス,0
2002,7180301005715,登記記録の閉鎖等,0,2023-10-04,2023-09-25,株式会社ザ・メキシコ産業,,株式会社,愛知県,豊橋市,広小路２丁目２７番地,,23,201,4400881,,,2023-09-25,清算の結了等,,,2015-10-05,1,,,,,ザメキシコサンギョウ,0
2032,7290801007506,登記記録の閉鎖等,0,2023-10-04,2023-09-28,ガイア株式会社,,株式会社,福岡県,北九州市小倉南区,長野１丁目９番７号,,40,107,8000228,,,2023-09-28,清算の結了等,,,2015-10-05,1,,,,,ガイア,0
2056,7390005005676,登記記録の閉鎖等,0,2023-10-04,2023-10-02,農事組合法人細野淡水魚生産組合,,その他の設立登記法人,山形県,尾花沢市,大字細野５７４番地,,06,212,9994444,,,2023-10-02,清算の結了等,,,2015-10-05,1,,,,,ホソノタンスイギョセイサンクミアイ,0
2060,7420001017275,登記記録の閉鎖等,0,2023-10-04,2023-09-29,株式会社ｏ’ｏ,,株式会社,青森県,弘前市,大字城南３丁目１４番地４,,02,202,0368232,,,2023-09-29,清算の結了等,,,2021-01-07,1,,,,,,0
2062,7430001007960,登記記録の閉鎖等,0,2023-10-04,2023-09-21,株式会社昇陽堂,,株式会社,北海道,札幌市手稲区,前田十条１０丁目５番２８号,,01,109,0060820,,,2023-09-21,清算の結了等,,,2015-10-05,1,,,,,ショウヨウドウ,0
2070,7470001000788,登記記録の閉鎖等,0,2023-10-04,2023-09-29,大国建設株式会社,,株式会社,香川県,高松市,多肥上町１８７番地２,,37,201,7618076,,,2023-09-29,清算の結了等,,,2015-10-05,1,,,,,ダイコクケンセツ,0
2073,7480002003566,登記記録の閉鎖等,0,2023-10-04,2023-10-02,有限会社ハートフルクリーン,,有限会社,徳島県,徳島市,国府町南岩延５３９番地４,,36,201,7793120,,,2023-10-02,清算の結了等,,,2015-10-05,1,,,,,ハートフルクリーン,0
2077,7500002003497,登記記録の閉鎖等,0,2023-10-04,2023-10-02,有限会社招福建設,,有限会社,愛媛県,松山市,余戸西２丁目８番７号,,38,201,7900046,,,2023-10-02,清算の結了等,,,2015-10-05,1,,,,,ショウフクケンセツ,0
2108,8011001063390,登記記録の閉鎖等,0,2023-10-04,2023-10-02,株式会社アイランド,,株式会社,東京都,新宿区,西新宿１丁目４番８号,,13,104,1600023,,,2023-10-02,清算の結了等,,,2015-10-05,1,,,,,アイランド,0
2155,8020002065924,登記記録の閉鎖等,0,2023-10-04,2023-09-26,有限会社須東美装,,有限会社,神奈川県,横浜市泉区,領家２丁目１２番地２ステージ山手台サウス三番館７０７号,,14,116,2450004,,,2023-09-26,清算の結了等,,,2015-10-05,1,,,,,ストウビソウ,0
2159,8021001062524,登記記録の閉鎖等,0,2023-10-04,2023-09-29,株式会社アールズメディカルサポート,,株式会社,東京都,渋谷区,神宮前３丁目３８番７号小林ビル２０１号,,13,113,1500001,,,2023-09-29,清算の結了等,,,2017-07-06,1,,,,,アールズメディカルサポート,0
2160,8021002014623,登記記録の閉鎖等,0,2023-10-04,2023-09-26,有限会社小林工務店,,有限会社,神奈川県,鎌倉市,植木３６２番地,,14,204,2470073,,,2023-09-26,清算の結了等,,,2015-10-05,1,,,,,コバヤシコウムテン,0
2169,8030001105746,登記記録の閉鎖等,0,2023-10-04,2023-10-03,株式会社弓削田設備,,株式会社,埼玉県,さいたま市緑区,芝原２丁目９番地２９,,11,109,3360917,,,2023-10-03,清算の結了等,,,2015-10-05,1,,,,,ユゲタセツビ,0
2182,8050001031627,登記記録の閉鎖等,0,2023-10-04,2023-09-29,株式会社不二住研,,株式会社,茨城県,筑西市,飯島３５７番地の４,,08,227,3080064,,,2023-09-29,清算の結了等,,,2015-10-05,1,,,,,フジジュウケン,0
2191,8080101006352,登記記録の閉鎖等,0,2023-10-04,2023-10-02,株式会社山本工務,,株式会社,静岡県,駿東郡長泉町,本宿９２番地の５,,22,342,4110945,,,2023-10-02,清算の結了等,,,2015-10-05,1,,,,,ヤマモトコウム,0
2192,8080101021723,登記記録の閉鎖等,0,2023-10-04,2023-10-02,株式会社ｎａｔｔｏｋｕ　ｂｅａｕｔｙ,,株式会社,静岡県,富士市,青葉町５７２番地,,22,210,4160952,,,2023-10-02,清算の結了等,,,2020-04-03,1,,,,,ナットクビューティー,0
2193,8080402014137,登記記録の閉鎖等,0,2023-10-04,2023-10-02,有限会社フジエージェンシー,,有限会社,静岡県,浜松市東区,市野町５４７番地の４,,22,132,4350051,,,2023-10-02,清算の結了等,,,2015-10-05,1,,,,,フジエージェンシー,0
2202,8120001168189,登記記録の閉鎖等,0,2023-10-04,2023-09-29,株式会社ＴＭネットワーク,,株式会社,大阪府,大阪市平野区,長吉川辺３丁目２番２７号,,27,126,5470014,,,2023-09-29,清算の結了等,,,2015-10-05,1,,,,,ティーエムネットワーク,0
2218,8120101053919,登記記録の閉鎖等,0,2023-10-04,2023-10-02,大信貿易株式会社中部,,株式会社,大阪府,堺市西区,浜寺公園町３丁２３１番地３,,27,144,5928346,,,2023-10-02,清算の結了等,,,2015-11-26,1,,,,,ダイシンボウエキチュウブ,0
2221,8120103005067,登記記録の閉鎖等,0,2023-10-04,2023-10-02,合同会社ＴＥＡＭ　Ｍ＆Ｔ,,合同会社,大阪府,富田林市,東板持町３丁目２８番６号,,27,214,5840046,,,2023-10-02,清算の結了等,,,2023-02-03,1,,,,,チームエムアンドティー,0
2224,8120901014806,登記記録の閉鎖等,0,2023-10-04,2023-09-25,株式会社ジェイアンドジェイ,,株式会社,大阪府,茨木市,北春日丘２丁目８番４４号,,27,211,5670048,,,2023-09-25,清算の結了等,,,2015-10-05,1,,,,,ジェイアンドジェイ,0
2229,8120902006430,登記記録の閉鎖等,0,2023-10-04,2023-09-25,有限会社四季盛商店,,有限会社,大阪府,吹田市,寿町２丁目１９番３号,,27,205,5640036,,,2023-09-25,清算の結了等,,,2015-10-05,1,,,,,シキモリショウテン,0
2251,8170001006237,登記記録の閉鎖等,0,2023-10-04,2023-10-02,株式会社ソフトプラン,,株式会社,和歌山県,和歌山市,松島３０９番地の１５,,30,201,6408304,,,2023-10-02,清算の結了等,,,2015-10-05,1,,,,,ソフトプラン,0
2259,8180001155223,登記記録の閉鎖等,0,2023-10-04,2023-09-14,株式会社ＹＣＨ１２ホールディングス,,株式会社,東京都,港区,南青山２丁目２番１５－８２５号,,13,103,1070062,,,2023-09-14,合併による解散等,3180001007156,令和５年９月８日東京都港区南青山二丁目２番１５－８２５号株式会社ＹＣＨ１２（3180001007156）に合併し解散,2023-03-09,1,,,,,ワイシーエイチトゥエルブホールディングス,0
2270,8180302024457,登記記録の閉鎖等,0,2023-10-04,2023-09-27,田澤製土有限会社,,有限会社,愛知県,豊田市,大平町浜松山１番地の２,,23,211,4700555,,,2023-09-27,清算の結了等,,,2015-10-05,1,,,,,タザワセイド,0
2274,8200001010490,登記記録の閉鎖等,0,2023-10-04,2023-10-02,中部航空サービス株式会社,,株式会社,岐阜県,瑞穂市,本田１５５２番地の３３１,,21,216,5010236,,,2023-10-02,清算の結了等,,,2015-10-05,1,,,,,チュウブコウクウサービス,0
2278,8220001009804,登記記録の閉鎖等,0,2023-10-04,2023-09-29,株式会社サン・デルタ,,株式会社,石川県,金沢市,富樫１丁目４番１０号,,17,201,9218171,,,2023-09-29,清算の結了等,,,2015-10-05,1,,,,,サンデルタ,0
2301,8280005002246,登記記録の閉鎖等,0,2023-10-04,2023-10-02,安来市商工業協同組合,,その他の設立登記法人,島根県,安来市,安来町８７８番地８,,32,206,6920011,,,2023-10-02,清算の結了等,,,2015-10-05,1,,,,,ヤスギシショウコウギョウ,0
2340,8370201002412,登記記録の閉鎖等,0,2023-10-04,2023-09-20,イセファーム東北株式会社,,株式会社,宮城県,加美郡色麻町,黒沢字切付７番地の１０,,04,444,9814111,,,2023-09-20,合併による解散等,5080101019209,令和５年９月１日静岡県富士宮市根原字宝山４７番地６富士たまご株式会社（5080101019209）に合併し解散,2015-10-05,1,,,,,イセファームトウホク,0
2343,8380005004728,登記記録の閉鎖等,0,2023-10-04,2023-09-28,農事組合法人中島水耕生産組合,,その他の設立登記法人,福島県,西白河郡中島村,大字松崎字大池上１番地,,07,465,9610101,,,2023-09-28,清算の結了等,,,2015-10-05,1,,,,,ナカジマスイコウ,0
2345,8390002013342,登記記録の閉鎖等,0,2023-10-04,2023-10-02,フジコーポレーション有限会社,,有限会社,山形県,米沢市,門東町１丁目１番１１号,,06,202,9920039,,,2023-10-02,清算の結了等,,,2015-10-05,1,,,,,フジコーポレーション,0
2361,8430005014498,登記記録の閉鎖等,0,2023-10-04,2023-09-29,税理士法人北都中央会計,,その他の設立登記法人,北海道,釧路市,鳥取大通３丁目２番１０号,,01,206,0840906,,,2023-09-29,合併による解散等,5460005001554,令和５年９月２９日北海道釧路市柏木町５番６号税理士法人マイタックス・パートナーズ（5460005001554）に合併し解散,2022-07-20,1,,,,,ホクトチュウオウカイケイ,0
2363,8470001018078,登記記録の閉鎖等,0,2023-10-04,2023-09-29,株式会社ワイズライフサポート,,株式会社,香川県,高松市,郷東町５８７番地１７８,,37,201,7618031,,,2023-09-29,清算の結了等,,,2020-06-10,1,,,,,ワイズライフサポート,0
2408,9010403029602,登記記録の閉鎖等,0,2023-10-04,2023-09-14,合同会社ＹＣＨ１２,,合同会社,東京都,港区,南青山２丁目２番１５－８２５号,,13,103,1070062,,,2023-09-14,合併による解散等,3180001007156,令和５年９月８日東京都港区南青山二丁目２番１５－８２５号株式会社ＹＣＨ１２（3180001007156）に合併し解散,2023-02-21,1,,,,,ワイシーエイチトゥエルブ,0
2427,9011005008878,登記記録の閉鎖等,0,2023-10-04,2023-10-02,一般社団法人ＳＴ所沢,,その他の設立登記法人,東京都,目黒区,洗足２丁目１６番１９号,,13,110,1520012,,,2023-10-02,清算の結了等,,,2021-01-20,1,,,,,エスティートコロザワ,0
2431,9011101032708,登記記録の閉鎖等,0,2023-10-04,2023-10-02,株式会社グローバル・エルシード,,株式会社,東京都,新宿区,西新宿２丁目４番１号,,13,104,1600023,,,2023-10-02,合併による解散等,5011101056883,令和５年１０月１日東京都新宿区西新宿二丁目４番１号株式会社ＴＨＥグローバル社（5011101056883）に合併し解散,2015-10-05,1,,,,,グローバルエルシード,0
2440,9011401001858,登記記録の閉鎖等,0,2023-10-04,2023-09-29,桑野電気工事株式会社,,株式会社,東京都,板橋区,徳丸５丁目１番４号,,13,119,1750083,,,2023-09-29,清算の結了等,,,2015-10-05,1,,,,,クワノデンキコウジ,0
2454,9012801002751,登記記録の閉鎖等,0,2023-10-04,2023-09-26,株式会社エヌディーシー,,株式会社,東京都,武蔵村山市,三ツ藤１丁目６１番地の１３,,13,223,2080021,,,2023-09-26,清算の結了等,,,2015-10-05,1,,,,,,0
2460,9013301040837,登記記録の閉鎖等,0,2023-10-04,2023-09-29,Ｋｖａ　Ａｓｓｅｔ　Ｂａｎｋ　Ｅｎｔｅｒｐｒｉｓｅ株式会社,,株式会社,東京都,豊島区,長崎５丁目１番３１号,,13,116,1710051,,,2023-09-29,清算の結了等,,,2017-07-18,1,,,,,キバアセットバンクエンタープライズ,0
2463,9020002009137,登記記録の閉鎖等,0,2023-10-04,2023-09-25,有限会社ゆうきや,,有限会社,神奈川県,横浜市金沢区,六浦東１丁目２０番２０号,,14,108,2360037,,,2023-09-25,清算の結了等,,,2015-10-05,1,,,,,ユウキヤ,0
2475,9030001098056,登記記録の閉鎖等,0,2023-10-04,2023-09-08,株式会社ワンセレクト,,株式会社,埼玉県,川口市,金山町１２番１サウスゲートタワー川口２Ｆ,,11,203,3320014,,,2023-09-08,清算の結了等,,,2015-10-05,1,,,,,ワンセレクト,0
2481,9030002004756,登記記録の閉鎖等,0,2023-10-04,2023-09-11,有限会社弘道産業,,有限会社,埼玉県,さいたま市浦和区,本太２丁目８番１０号,,11,107,3300052,,,2023-09-11,清算の結了等,,,2015-10-05,1,,,,,コウドウサンギョウ,0
2483,9030002083148,登記記録の閉鎖等,0,2023-10-04,2023-09-08,有限会社翁屋製麺工場,,有限会社,埼玉県,北本市,北本２丁目１３６番地,,11,233,3640006,,,2023-09-08,清算の結了等,,,2015-10-05,1,,,,,オキナヤセイメンコウジョウ,0
2485,9030005011840,登記記録の閉鎖等,0,2023-10-04,2023-09-08,特定非営利活動法人環境保全せせらぎの会,,その他の設立登記法人,埼玉県,比企郡吉見町,大字長谷１５０４番地１１０,,11,347,3550156,,,2023-09-08,清算の結了等,,,2015-10-05,1,,,,,カンキョウホゼンセセラギノカイ,0
2489,9040001054413,登記記録の閉鎖等,0,2023-10-04,2023-09-15,日興産業株式会社,,株式会社,千葉県,市原市,東五所１番地の５,,12,219,2900064,,,2023-09-15,清算の結了等,,,2015-10-05,1,,,,,ニッコウサンギョウ,0
2511,9070002002070,登記記録の閉鎖等,0,2023-10-04,2023-09-29,有限会社コグレ建設,,有限会社,群馬県,前橋市,滝窪町７５８番地,,10,201,3710235,,,2023-09-29,清算の結了等,,,2015-10-05,1,,,,,コグレケンセツ,0
2528,9110001009211,登記記録の閉鎖等,0,2023-10-04,2023-10-02,株式会社本間冷機,,株式会社,新潟県,新潟市江南区,大渕２６６９番地２０,,15,104,9500105,,,2023-10-02,清算の結了等,,,2015-10-05,1,,,,,ホンマレイキ,0
2531,9110005014785,登記記録の閉鎖等,0,2023-10-04,2023-10-02,公益財団法人新潟県文化振興財団,,その他の設立登記法人,新潟県,新潟市中央区,一番堀通町３番地１３,,15,103,9518132,,,2023-10-02,清算の結了等,,,2015-10-05,1,,,,,ニイガタケンブンカシンコウザイダン,0
2533,9120001055584,登記記録の閉鎖等,0,2023-10-04,2023-09-29,株式会社三光工務店,,株式会社,大阪府,大阪市淀川区,十三元今里３丁目３番３号,,27,123,5320028,,,2023-09-29,清算の結了等,,,2015-10-05,1,,,,,サンコウコウムテン,0
2543,9120001242067,登記記録の閉鎖等,0,2023-10-04,2023-09-29,唯睿文化株式会社,,株式会社,大阪府,大阪市生野区,巽北１丁目１番１号２Ｆ－Ｇ,,27,116,5440004,,,2023-09-29,清算の結了等,,,2021-11-25,1,,,,,ユイエイブンカ,0
2556,9120101006446,登記記録の閉鎖等,0,2023-10-04,2023-10-02,株式会社弘道,,株式会社,大阪府,堺市北区,百舌鳥陵南町２丁２３４番地,,27,146,5918034,,,2023-10-02,清算の結了等,,,2015-10-05,1,,,,,ヒロミチ,0
2563,9130001013855,登記記録の閉鎖等,0,2023-10-04,2023-09-22,伊藤重量設備株式会社,,株式会社,京都府,京都市伏見区,深草大亀谷東安信町８３番地,,26,109,6120832,,,2023-09-22,清算の結了等,,,2015-10-05,1,,,,,イトウジュウリョウセツビ,0
2596,9180001030978,登記記録の閉鎖等,0,2023-10-04,2023-10-02,株式会社大喜工業,,株式会社,愛知県,名古屋市西区,栄生３丁目１３番９号,,23,104,4510052,,,2023-10-02,清算の結了等,,,2015-10-05,1,,,,,ダイキコウギョウ,0
2598,9180001049507,登記記録の閉鎖等,0,2023-10-04,2023-09-29,株式会社Ｕｎｉｑｕｅ　Ｓｅｌｆ　Ｈｕｍａｎ　Ｒｅｓｏｕｒｃｅｓ,,株式会社,愛知県,名古屋市守山区,向台１丁目３１５番地,,23,113,4630036,,,2023-09-29,清算の結了等,,,2015-10-05,1,,,,,ユニークセルフヒューマンリソーシズ,0
2600,9180001084165,登記記録の閉鎖等,0,2023-10-04,2023-09-25,エフテック株式会社,,株式会社,愛知県,一宮市,開明字飛山流４３番地の１,,23,203,4940001,,,2023-09-25,清算の結了等,,,2015-10-05,1,,,,,エフテック,0
2607,9180301010036,登記記録の閉鎖等,0,2023-10-04,2023-09-27,株式会社オハラ,,株式会社,愛知県,豊川市,八幡町寺前１２番地の１０,,23,207,4420857,,,2023-09-27,清算の結了等,,,2015-10-05,1,,,,,オハラ,0
2620,9220001009076,登記記録の閉鎖等,0,2023-10-04,2023-10-02,株式会社雅風堂,,株式会社,石川県,白山市,徳丸町４２８番地,,17,210,9240804,,,2023-10-02,合併による解散等,2220001009479,令和５年１０月１日石川県白山市徳丸町４２８番地安田屋製菓株式会社（2220001009479）に合併し解散,2015-10-05,1,,,,,ガフウドウ,0
2641,9290005018570,登記記録の閉鎖等,0,2023-10-04,2023-09-27,企業組合Ｃｏｃｏｒａ,,その他の設立登記法人,福岡県,福岡市中央区,笹丘３丁目１６番１６号,,40,133,8100034,,,2023-09-27,清算の結了等,,,2022-02-24,1,,,,,ココラ,0
2645,9290802019317,登記記録の閉鎖等,0,2023-10-04,2023-10-02,有限会社浜の町薬局,,有限会社,福岡県,北九州市若松区,白山２丁目１０番２８－１０１,,40,103,8080035,,,2023-10-02,清算の結了等,,,2015-10-05,1,,,,,ハマノマチヤッキョク,0
2656,9320002005386,登記記録の閉鎖等,0,2023-10-04,2023-10-02,有限会社挾間酒販,,有限会社,大分県,由布市,挾間町向原３１１番地の１,,44,213,8795502,,,2023-10-02,合併による解散等,3320001002555,令和５年１０月１日大分市今津留一丁目１４番８号株式会社舞鶴酒販（3320001002555）に合併し解散,2015-10-05,1,,,,,,0
2662,9340005008260,登記記録の閉鎖等,0,2023-10-04,2023-10-02,特定非営利活動法人おきえらぶ企画展開団体フロンティア,,その他の設立登記法人,鹿児島県,大島郡知名町,大字瀬利覚２０５２番地,,46,534,8919213,,,2023-10-02,清算の結了等,,,2015-10-05,1,,,,,オキエラブキカクテンカイダンタイフロンティア,0
2671,9360002008575,登記記録の閉鎖等,0,2023-10-04,2023-09-26,有限会社イマジン,,有限会社,沖縄県,豊見城市,字豊崎１番地の３３７,,47,212,9010225,,,2023-09-26,清算の結了等,,,2015-10-05,1,,,,,イマジン,0
2672,9370002002635,登記記録の閉鎖等,0,2023-10-04,2023-09-28,有限会社片倉建築設計事務所,,有限会社,宮城県,仙台市太白区,郡山６丁目１番３７号,,04,104,9820003,,,2023-09-28,清算の結了等,,,2015-10-05,1,,,,,カタクラケンチクセッケイジムショ,0
2685,9420003001705,登記記録の閉鎖等,0,2023-10-04,2023-09-29,ｖｉｅｗ．ｃｏｍ合同会社,,合同会社,青森県,青森市,長島２丁目１３番地１アクア青森スクエア６階,,02,201,0300861,,,2023-09-29,清算の結了等,,,2017-03-06,1,,,,,ヴュードットコム,0
2705,9470002008416,登記記録の閉鎖等,0,2023-10-04,2023-10-02,香和商事有限会社,,有限会社,香川県,高松市,林町６番地３３,,37,201,7610301,,,2023-10-02,合併による解散等,5470001002159,令和５年１０月１日香川県高松市林町６番地３３大丸ハウス株式会社（5470001002159）に合併し解散,2015-10-05,1,,,,,コウワショウジ,0
2712,9490005002050,登記記録の閉鎖等,0,2023-10-04,2023-09-29,下田海運協同組合,,その他の設立登記法人,高知県,四万十市,下田１９１０番地１５,,39,210,7870155,,,2023-09-29,清算の結了等,,,2015-10-05,1,,,,,シモダカイウン,0
