sequenceNumber,corporateNumber,process,correct,updateDate,changeDate,name,nameImageId,kind,prefectureName,cityName,streetNumber,addressImageId,prefectureCode,cityCode,postCode,addressOutside,addressOutsideImageId,closeDate,closeCause,successorCorporateNumber,changeCause,assignmentDate,latest,enName,enPrefectureName,enCityName,enAddressOutside,furigana,hihyoji
5,1010001031884,登記記録の閉鎖等,0,2025-06-12,2025-05-23,ラックトレーディング株式会社,,株式会社,東京都,千代田区,麹町３丁目５番４号,,13,101,1020083,,,2025-05-23,清算の結了等,,,2015-10-05,1,,,,,ラックトレーディング,0
13,1010001248826,登記記録の閉鎖等,0,2025-06-12,2025-06-10,Ｊｅｗｅｌ株式会社,,株式会社,東京都,中央区,銀座７丁目１３番２０号銀座ＴＨビル９階,,13,102,1040061,,,2025-06-10,清算の結了等,,,2024-10-08,1,,,,,ジュエル,0
15,1010003044703,登記記録の閉鎖等,0,2025-06-12,2025-05-26,長信投資管理合同会社,,合同会社,東京都,千代田区,内幸町２丁目２番２号富国生命ビル渥美坂井法律事務所内,,13,101,1000011,,,2025-05-26,清算の結了等,,,2024-08-28,1,,,,,チョウシントウシカンリ,0
29,1010401056077,登記記録の閉鎖等,0,2025-06-12,2025-05-16,株式会社クリエイティブアソシエイツ,,株式会社,東京都,港区,西麻布４丁目１５番２号,,13,103,1060031,,,2025-05-16,清算の結了等,,,2015-10-05,1,,,,,クリエイティブアソシエイツ,0
33,1010401117309,登記記録の閉鎖等,0,2025-06-12,2025-06-06,株式会社オオハシ,,株式会社,神奈川県,横浜市保土ケ谷区,仏向町１６２５番地１,,14,106,2400044,,,2025-06-06,清算の結了等,,,2015-10-05,1,,,,,オオハシ,0
48,1010602029286,登記記録の閉鎖等,0,2025-06-12,2025-06-04,メディカル研究所有限会社,,有限会社,東京都,江東区,北砂５丁目２０番１８－１１１７号,,13,108,1360073,,,2025-06-04,清算の結了等,,,2015-10-05,1,,,,,,0
76,1011802007016,登記記録の閉鎖等,0,2025-06-12,2025-06-06,有限会社ホンダ二輪・ハマオカ,,有限会社,東京都,葛飾区,西新小岩４丁目８番１４号,,13,122,1240025,,,2025-06-06,清算の結了等,,,2015-10-05,1,,,,,ホンダニリンハマオカ,0
88,1020001137598,登記記録の閉鎖等,0,2025-06-12,2025-06-10,株式会社ストックアンドフロー,,株式会社,東京都,渋谷区,恵比寿１丁目１９番１９号恵比寿ビジネスタワー２階,,13,113,1500013,,,2025-06-10,合併による解散等,1010401144328,令和７年６月１日東京都港区虎ノ門一丁目１７番１号虎ノ門ヒルズビジネスタワー４階ＡＲＣＨ内株式会社ｓｔｅｐｄａｙｓ（1010401144328）に合併し解散,2020-09-09,1,,,,,ストックアンドフロー,0
104,1030001122599,登記記録の閉鎖等,0,2025-06-12,2025-06-09,Ｅｎｐｅｒｏｒ株式会社,,株式会社,東京都,新宿区,西新宿１丁目２６番２号新宿野村ビル３２階,,13,104,1600023,,,2025-06-09,清算の結了等,,,2017-10-17,1,,,,,エンペラー,0
112,1030003004127,登記記録の閉鎖等,0,2025-06-12,2025-06-05,合資会社アイエッチエムテクノロジー,,合資会社,埼玉県,川口市,大字木曽呂９２０番地の７,,11,203,3330831,,,2025-06-05,清算の結了等,,,2015-10-05,1,,,,,アイエッチエムテクノロジー,0
116,1040001043209,登記記録の閉鎖等,0,2025-06-12,2025-05-29,北栄建設株式会社,,株式会社,千葉県,成田市,橋賀台１丁目４番地の２,,12,211,2860037,,,2025-05-29,清算の結了等,,,2015-10-05,1,,,,,ホクエイケンセツ,0
122,1040002041161,登記記録の閉鎖等,0,2025-06-12,2025-05-29,有限会社高一,00020131,有限会社,千葉県,浦安市,堀江２丁目８番８号,,12,227,2790041,,,2025-05-29,清算の結了等,,,2015-10-05,1,,,,,タカイチ,0
123,1040003013812,登記記録の閉鎖等,0,2025-06-12,2025-05-29,栗坊合同会社,,合同会社,千葉県,富里市,七栄３２１番地１６ミモザガーデンプレイス,,12,233,2860221,,,2025-05-29,清算の結了等,,,2019-08-02,1,,,,,クリボウ,0
127,1050002027416,登記記録の閉鎖等,0,2025-06-12,2025-06-05,有限会社菱刈工業,,有限会社,茨城県,神栖市,神栖３丁目１２番２３号,,08,232,3140143,,,2025-06-05,清算の結了等,,,2015-10-05,1,,,,,ヒシカリコウギョウ,0
137,1080401024977,登記記録の閉鎖等,0,2025-06-12,2025-06-06,株式会社ラークスパー,,株式会社,静岡県,浜松市中央区,天王町８３７番地の１,,22,138,4350052,,,2025-06-06,清算の結了等,,,2021-04-12,1,,,,,ラークスパー,0
141,1100005011907,登記記録の閉鎖等,0,2025-06-12,2025-06-03,特定非営利活動法人御代田町はつらつサポーター,,その他の設立登記法人,長野県,北佐久郡御代田町,大字馬瀬口１８６０番地１７,,20,323,3890207,,,2025-06-03,清算の結了等,,,2016-08-02,1,,,,,ミヨタマチハツラツサポーター,0
147,1120001209858,登記記録の閉鎖等,0,2025-06-12,2025-06-09,株式会社デンチャーアートＪ３,,株式会社,大阪府,大阪市淀川区,十三元今里２丁目８番１７号,,27,123,5320028,,,2025-06-09,清算の結了等,,,2017-12-08,1,,,,,デンチャーアートジェイスリー,0
173,1140001081116,登記記録の閉鎖等,0,2025-06-12,2025-06-06,株式会社ほほえみ,,株式会社,兵庫県,伊丹市,昆陽池２丁目５７番地,,28,207,6640015,,,2025-06-06,清算の結了等,,,2015-10-05,1,,,,,ホホエミ,0
174,1140001085067,登記記録の閉鎖等,0,2025-06-12,2025-06-04,株式会社樫岡石油,,株式会社,兵庫県,淡路市,大谷１０９番地の１,,28,226,6562224,,,2025-06-04,合併による解散等,5140001085377,令和７年６月１日兵庫県洲本市栄町一丁目１番１７号冨士吉田石油株式会社（5140001085377）に合併し解散,2015-10-05,1,,,,,カシオカセキユ,0
196,1200001041864,登記記録の閉鎖等,0,2025-06-12,2025-06-02,金春株式会社,,株式会社,岐阜県,大垣市,南一色町６１９番地４２,,21,202,5030971,,,2025-06-02,清算の結了等,,,2023-10-30,1,,,,,コンパル,0
209,1280001008476,登記記録の閉鎖等,0,2025-06-12,2025-06-10,株式会社石田エクスプレス,,株式会社,島根県,大田市,久手町刺鹿２６７９番地１,,32,205,6940052,,,2025-06-10,清算の結了等,,,2021-07-06,1,,,,,イシダエクスプレス,0
214,1310002011285,登記記録の閉鎖等,0,2025-06-12,2025-06-09,有限会社ひかり電気商会,,有限会社,長崎県,佐世保市,宮田町３番１８号,,42,202,8570032,,,2025-06-09,清算の結了等,,,2015-10-05,1,,,,,ヒカリデンキショウカイ,0
228,1380002013606,登記記録の閉鎖等,0,2025-06-12,2025-06-05,有限会社武藤不動産鑑定事務所,,有限会社,福島県,郡山市,大槻町字西ノ宮西３７番地の９,,07,203,9630201,,,2025-06-05,清算の結了等,,,2015-10-05,1,,,,,ムトウフドウサンカンテイジムショ,0
276,2010901020093,登記記録の閉鎖等,0,2025-06-12,2025-06-03,株式会社ＭＫＫシステム,,株式会社,東京都,世田谷区,上祖師谷５丁目１７番４－５０２号,,13,112,1570065,,,2025-06-03,清算の結了等,,,2015-10-05,1,,,,,エムケイケイシステム,0
277,2010901020969,登記記録の閉鎖等,0,2025-06-12,2025-06-10,株式会社ワイエスプロパティー,,株式会社,東京都,世田谷区,深沢３丁目２７番１７－１１４号,,13,112,1580081,,,2025-06-10,清算の結了等,,,2015-10-05,1,,,,,ワイエスプロパティー,0
289,2011201023621,登記記録の閉鎖等,0,2025-06-12,2025-06-06,株式会社ＷＡＲＰ,,株式会社,東京都,中野区,大和町１丁目２７番１３号,,13,114,1650034,,,2025-06-06,清算の結了等,,,2022-02-07,1,,,,,ワープ,0
299,2011702015514,登記記録の閉鎖等,0,2025-06-12,2025-06-02,有限会社東京生活,,有限会社,東京都,江戸川区,江戸川６丁目４３番地２５,,13,123,1340013,,,2025-06-02,清算の結了等,,,2015-10-05,1,,,,,トウキョウセイカツ,0
342,2040001068675,登記記録の閉鎖等,0,2025-06-12,2025-05-23,株式会社オーク,,株式会社,千葉県,柏市,豊住５丁目８番１６号,,12,217,2770071,,,2025-05-23,清算の結了等,,,2015-10-05,1,,,,,オーク,0
358,2080101023923,登記記録の閉鎖等,0,2025-06-12,2025-06-09,株式会社アセットシード６ｔｈ,,株式会社,静岡県,駿東郡長泉町,東野１４３番地の１９,,22,342,4110931,,,2025-06-09,合併による解散等,4180301022481,令和７年６月１日愛知県西尾市平坂町奥背戸２番地の１株式会社三協鋳造所（4180301022481）に合併し解散,2023-04-20,1,,,,,アセットシードシックス,0
367,2120001147041,登記記録の閉鎖等,0,2025-06-12,2025-06-06,株式会社柴野住宅建設,,株式会社,大阪府,交野市,幾野５丁目１５番１号,,27,230,5760054,,,2025-06-06,合併による解散等,8120001149742,令和７年６月１日大阪府枚方市大垣内町二丁目１０番４号株式会社柴野工務店（8120001149742）に合併し解散,2015-10-05,1,,,,,シバノジュウタクケンセツ,0
371,2120001235250,登記記録の閉鎖等,0,2025-06-12,2025-06-05,株式会社たべクリ,,株式会社,兵庫県,西宮市,伏原町６番１８－４０７号,,28,204,6638031,,,2025-06-05,清算の結了等,,,2021-02-15,1,,,,,タベクリ,0
379,2120901010331,登記記録の閉鎖等,0,2025-06-12,2025-06-09,株式会社アズミ,,株式会社,大阪府,高槻市,山手町２丁目５番７号,,27,207,5691103,,,2025-06-09,清算の結了等,,,2015-10-05,1,,,,,アズミ,0
381,2120901047646,登記記録の閉鎖等,0,2025-06-12,2025-06-02,株式会社テシ政宗,,株式会社,大阪府,豊能郡豊能町,希望ケ丘２丁目２８番１１号,,27,321,5630214,,,2025-06-02,清算の結了等,,,2023-06-08,1,,,,,テシマサムネ,0
405,2180301020974,登記記録の閉鎖等,0,2025-06-12,2025-06-03,株式会社住創,,株式会社,愛知県,豊田市,平芝町２丁目１番地７,,23,211,4710065,,,2025-06-03,清算の結了等,,,2015-10-05,1,,,,,ジュウソウ,0
412,2200003002772,登記記録の閉鎖等,0,2025-06-12,2025-06-09,合資会社いのちの壱,,合資会社,岐阜県,高山市,花里町５丁目１５番地３,,21,203,5060026,,,2025-06-09,清算の結了等,,,2015-10-05,1,,,,,イノチノイチ,0
416,2240001045605,登記記録の閉鎖等,0,2025-06-12,2025-06-06,機械設計パートナー株式会社,,株式会社,広島県,広島市東区,中山新町３丁目１６番３号,,34,102,7320021,,,2025-06-06,清算の結了等,,,2015-10-05,1,,,,,キカイセッケイパートナー,0
427,2290003007012,登記記録の閉鎖等,0,2025-06-12,2025-06-03,合同会社ｅｎｇｒｏｏ　ｗｅｂ　ｓｅｒｖｉｃｅｓ,,合同会社,福岡県,福岡市中央区,薬院４丁目１－４－１,,40,133,8100022,,,2025-06-03,清算の結了等,,,2017-02-08,1,,,,,,0
451,2410002003726,登記記録の閉鎖等,0,2025-06-12,2025-06-06,有限会社森川酒店,,有限会社,秋田県,秋田市,卸町２丁目２番７号,,05,201,0100061,,,2025-06-06,清算の結了等,,,2015-10-05,1,,,,,モリカワサケテン,0
459,2430001043498,登記記録の閉鎖等,0,2025-06-12,2025-06-02,株式会社柏運輸,,株式会社,北海道,恵庭市,柏木町２丁目２番４４号,,01,231,0611423,,,2025-06-02,合併による解散等,1430001043680,令和７年６月１日北海道恵庭市柏木町二丁目２番４４号株式会社スパル建設（1430001043680）に合併し解散,2015-10-05,1,,,,,カシワウンユ,0
469,3010001058653,登記記録の閉鎖等,0,2025-06-12,2025-05-26,ムーンストーン株式会社,,株式会社,東京都,千代田区,霞が関３丁目２番６号東京倶楽部ビルディング８階８０２号室,,13,101,1000013,,,2025-05-26,清算の結了等,,,2015-10-05,1,,,,,ムーンストーン,0
489,3010005016871,登記記録の閉鎖等,0,2025-06-12,2025-06-09,一般社団法人財務会計支援機構,,その他の設立登記法人,東京都,千代田区,神田多町２丁目２番２２号,,13,101,1010046,,,2025-06-09,清算の結了等,,,2015-10-05,1,,,,,ザイムカイケイシエンキコウ,0
502,3010901034092,登記記録の閉鎖等,0,2025-06-12,2025-06-10,ヒューマスアクア株式会社,,株式会社,東京都,世田谷区,太子堂５丁目２９番３号,,13,112,1540004,,,2025-06-10,清算の結了等,,,2015-10-05,1,,,,,ヒューマスアクア,0
505,3011001153072,登記記録の閉鎖等,0,2025-06-12,2025-06-02,株式会社シーラアセットマネジメント,,株式会社,東京都,渋谷区,広尾１丁目１番３９号,,13,113,1500012,,,2025-06-02,合併による解散等,2013201019095,令和７年６月１日東京都渋谷区広尾一丁目１番３９号株式会社シーラ（2013201019095）に合併し解散,2023-03-14,1,,,,,シーラアセットマネジメント,0
517,3011201019486,登記記録の閉鎖等,0,2025-06-12,2025-06-09,株式会社Ｔ’ｓ,,株式会社,東京都,中野区,中野５丁目３２番４号,,13,114,1640001,,,2025-06-09,清算の結了等,,,2016-11-07,1,,,,,,0
536,3011803005578,登記記録の閉鎖等,0,2025-06-12,2025-06-05,合同会社高井,,合同会社,東京都,足立区,千住大川町１５―１０,,13,121,1200031,,,2025-06-05,清算の結了等,,,2023-04-07,1,,,,,タカイ,0
538,3012402018005,登記記録の閉鎖等,0,2025-06-12,2025-06-03,有限会社悠和,,有限会社,東京都,武蔵野市,関前５丁目４番１２号,,13,203,1800014,,,2025-06-03,清算の結了等,,,2015-10-05,1,,,,,ユウワ,0
541,3013202002603,登記記録の閉鎖等,0,2025-06-12,2025-05-08,有限会社小滝薬局,,有限会社,東京都,目黒区,目黒３丁目１２番３号,,13,110,1530063,,,2025-05-08,清算の結了等,,,2015-10-05,1,,,,,コタキヤッキョク,0
555,3021001057504,登記記録の閉鎖等,0,2025-06-12,2025-06-05,株式会社オーラ,,株式会社,東京都,千代田区,神田須田町２丁目１－１,,13,101,1010041,,,2025-06-05,合併による解散等,3011301021383,令和７年６月１日東京都千代田区神田須田町二丁目１番地１Ｃｏｔｏｆｕｒｅ株式会社（3011301021383）に合併し解散,2015-10-05,1,,,,,オーラ,0
556,3021001078582,登記記録の閉鎖等,0,2025-06-12,2025-06-09,株式会社つばさ,,株式会社,神奈川県,平塚市,片岡１２０８番地の９,,14,203,2591213,,,2025-06-09,清算の結了等,,,2023-04-06,1,,,,,ツバサ,0
564,3030001029628,登記記録の閉鎖等,0,2025-06-12,2025-06-06,マツテック株式会社,,株式会社,埼玉県,所沢市,東所沢５丁目１８番地の８,,11,208,3590021,,,2025-06-06,清算の結了等,,,2015-10-05,1,,,,,マツテック,0
575,3030003009371,登記記録の閉鎖等,0,2025-06-12,2025-06-06,合同会社武昭,,合同会社,埼玉県,越谷市,大字平方６２８,,11,222,3430002,,,2025-06-06,清算の結了等,,,2016-09-29,1,,,,,,0
579,3040001111384,登記記録の閉鎖等,0,2025-06-12,2025-05-28,株式会社ｅＬＡＮ,,株式会社,千葉県,市川市,八幡３丁目１３番１０－１０１号Ｙ’ｓｃａｌｏｒｅ,,12,203,2720021,,,2025-05-28,清算の結了等,,,2019-11-12,1,,,,,エラン,0
613,3120102007424,登記記録の閉鎖等,0,2025-06-12,2025-05-30,有限会社イシダ,,有限会社,大阪府,堺市東区,南野田５５４番地の４,,27,143,5998124,,,2025-05-30,清算の結了等,,,2015-10-05,1,,,,,イシダ,0
615,3122001017446,登記記録の閉鎖等,0,2025-06-12,2025-06-06,株式会社風林火山,,株式会社,大阪府,八尾市,高安町北３丁目６０番地１－２０６号,,27,212,5810871,,,2025-06-06,清算の結了等,,,2015-10-05,1,,,,,フウリンカザン,0
625,3130003009832,登記記録の閉鎖等,0,2025-06-12,2025-05-16,合同会社睿行,,合同会社,京都府,京都市山科区,御陵封ジ山町７－４６－２０８,,26,110,6078422,,,2025-05-16,清算の結了等,,,2024-09-04,1,,,,,エイコウ,0
637,3180001087165,登記記録の閉鎖等,0,2025-06-12,2025-06-05,アートフリーク株式会社,,株式会社,愛知県,一宮市,木曽川町玉ノ井字吉原道北１４０番地,,23,203,4930004,,,2025-06-05,清算の結了等,,,2015-10-05,1,,,,,アートフリーク,0
644,3180302015618,登記記録の閉鎖等,0,2025-06-12,2025-06-02,有限会社中部精機製作所,,有限会社,愛知県,蒲郡市,宝町１６番２３号,,23,214,4430044,,,2025-06-02,清算の結了等,,,2015-10-05,1,,,,,チュウブセイキセイサクショ,0
658,3230002007133,登記記録の閉鎖等,0,2025-06-12,2025-06-10,青鳥寺有限会社,,有限会社,富山県,富山市,二口町１丁目９番地３,,16,201,9398211,,,2025-06-10,清算の結了等,,,2015-10-05,1,,,,,セイチョウジ,0
659,3240001029482,登記記録の閉鎖等,0,2025-06-12,2025-06-06,株式会社共伸プラント,,株式会社,広島県,福山市,神辺町大字上竹田１０４９番地の１,,34,207,7202114,,,2025-06-06,清算の結了等,,,2015-10-05,1,,,,,,0
665,3260005010370,登記記録の閉鎖等,0,2025-06-12,2025-05-29,岡山アイ・グローバル協同組合,,その他の設立登記法人,岡山県,倉敷市,松江１丁目４番３０号,,33,202,7128052,,,2025-05-29,清算の結了等,,,2017-12-08,1,,,,,オカヤマアイグローバル,0
668,3290001063139,登記記録の閉鎖等,0,2025-06-12,2025-06-03,株式会社ｅｎｇｒｏｏ,,株式会社,福岡県,福岡市中央区,薬院４丁目１－４－１,,40,133,8100022,,,2025-06-03,清算の結了等,,,2015-10-05,1,,,,,,0
670,3290001091008,登記記録の閉鎖等,0,2025-06-12,2025-06-03,株式会社ばさろＣｏｍｐａｎｙ,,株式会社,福岡県,福岡市南区,大橋２丁目１４番１２号,,40,134,8150033,,,2025-06-03,清算の結了等,,,2020-11-18,1,,,,,バサロカンパニー,0
680,3320002002760,登記記録の閉鎖等,0,2025-06-12,2025-06-05,有限会社児玉建装工業,,有限会社,大分県,大分市,大字八幡７０４番地の２,,44,201,8700100,,,2025-06-05,清算の結了等,,,2015-10-05,1,,,,,コダマケンソウコウギョウ,0
688,3370001014471,登記記録の閉鎖等,0,2025-06-12,2025-06-05,株式会社今庄青果,,株式会社,宮城県,仙台市青葉区,中央３丁目８番５号,,04,101,9800021,,,2025-06-05,清算の結了等,,,2015-10-05,1,,,,,イマショウセイカ,0
701,3470001015963,登記記録の閉鎖等,0,2025-06-12,2025-06-09,株式会社サクセッション,,株式会社,香川県,高松市,松縄町３９番地８,,37,201,7600079,,,2025-06-09,清算の結了等,,,2016-11-08,1,,,,,サクセッション,0
708,3500005001857,登記記録の閉鎖等,0,2025-06-12,2025-06-06,ＮＰＯ法人ＧＣＭ庚申庵倶楽部,,その他の設立登記法人,愛媛県,松山市,道後北代３番３号２０４,,38,201,7900846,,,2025-06-06,清算の結了等,,,2015-10-05,1,,,,,ジーシーエムコウシンアンクラブ,0
736,4010501043393,登記記録の閉鎖等,0,2025-06-12,2025-06-09,株式会社ＢＰＯセンター,,株式会社,東京都,台東区,秋葉原５－８,,13,106,1100006,,,2025-06-09,合併による解散等,6180001069391,令和７年６月１日愛知県豊明市阿野町昭和５番地１株式会社データセレクト（6180001069391）に合併し解散,2018-12-03,1,,,,,ビーピーオーセンター,0
739,4010601065858,登記記録の閉鎖等,0,2025-06-12,2025-06-05,株式会社豊洲冷蔵運輸,,株式会社,東京都,江東区,豊洲６丁目６番２号,,13,108,1350061,,,2025-06-05,清算の結了等,,,2024-09-04,1,,,,,トヨスレイゾウウンユ,0
746,4010901053653,登記記録の閉鎖等,0,2025-06-12,2025-06-11,株式会社ＧＡＬＡＮ,,株式会社,東京都,世田谷区,玉川台２丁目３５番３－１０７号,,13,112,1580096,,,2025-06-11,清算の結了等,,,2023-08-17,1,,,,,ガラン,0
755,4011001123660,登記記録の閉鎖等,0,2025-06-12,2025-05-07,株式会社エリート・フォース,,株式会社,東京都,品川区,東五反田５丁目２２－３７,,13,109,1410022,,,2025-05-07,清算の結了等,,,2018-08-10,1,,,,,エリートフォース,0
760,4011003020427,登記記録の閉鎖等,0,2025-06-12,2025-06-10,合同会社ＮＫ,,合同会社,東京都,渋谷区,神宮前１丁目５番８号,,13,113,1500001,,,2025-06-10,合併による解散等,2010001098295,令和７年６月１日東京都千代田区麹町三丁目１２番５号株式会社トリニティ・イデア（2010001098295）に合併し解散,2024-11-18,1,,,,,エヌケー,0
773,4011801007765,登記記録の閉鎖等,0,2025-06-12,2025-06-06,株式会社紺野商店,,株式会社,埼玉県,越谷市,東町５丁目１００番地３,,11,222,3430826,,,2025-06-06,清算の結了等,,,2015-10-05,1,,,,,コンノショウテン,0
795,4020001122589,登記記録の閉鎖等,0,2025-06-12,2025-05-16,株式会社ＥｉＰｒｏ,,株式会社,東京都,港区,港南２丁目３番１号大信秋山ビル３階,,13,103,1080075,,,2025-05-16,清算の結了等,,,2017-08-17,1,,,,,イープロ,0
833,4060001002622,登記記録の閉鎖等,0,2025-06-12,2025-06-04,株式会社太陽,,株式会社,栃木県,宇都宮市,松が峰２丁目５番１１号,,09,201,3200807,,,2025-06-04,清算の結了等,,,2019-07-04,1,,,,,タイヨウ,0
835,4060002031760,登記記録の閉鎖等,0,2025-06-12,2025-06-05,有限会社大阿久鋼業,,有限会社,栃木県,栃木市,柏倉町８９０番地,,09,203,3280066,,,2025-06-05,清算の結了等,,,2015-10-05,1,,,,,オオアクコウギョウ,0
839,4080101018566,登記記録の閉鎖等,0,2025-06-12,2025-06-03,株式会社うさみモータース,,株式会社,静岡県,富士市,北松野９８９番地,,22,210,4213301,,,2025-06-03,清算の結了等,,,2015-10-05,1,,,,,ウサミモータース,0
842,4080401004927,登記記録の閉鎖等,0,2025-06-12,2025-06-06,前田油脂株式会社,,株式会社,静岡県,浜松市中央区,海老塚１丁目２０番２８号,,22,138,4328033,,,2025-06-06,清算の結了等,,,2015-10-05,1,,,,,マエダユシ,0
848,4100002032259,登記記録の閉鎖等,0,2025-06-12,2025-06-11,有限会社山岡工業,,有限会社,長野県,岡谷市,塚間町１丁目８番２０号,,20,204,3940026,,,2025-06-11,清算の結了等,,,2015-10-05,1,,,,,ヤマオカコウギョウ,0
849,4110001008201,登記記録の閉鎖等,0,2025-06-12,2025-06-02,株式会社小林工務店,,株式会社,新潟県,新潟市西蒲区,下和納２４９番地,,15,108,9530065,,,2025-06-02,合併による解散等,7110001003967,令和７年６月１日新潟市中央区鳥屋野四丁目１８番２１号株式会社新潟デック（7110001003967）に合併し解散,2015-10-05,1,,,,,コバヤシコウムテン,0
865,4120002064928,登記記録の閉鎖等,0,2025-06-12,2025-06-06,有限会社大阪平野南ＣＶＳ,,有限会社,大阪府,大阪市平野区,平野南１丁目１番１号,,27,126,5470031,,,2025-06-06,清算の結了等,,,2015-10-05,1,,,,,オオサカヒラノミナミシーブイエス,0
872,4120102002944,登記記録の閉鎖等,0,2025-06-12,2025-05-30,有限会社ダンケ・ワイワイ,,有限会社,大阪府,堺市東区,野尻町７５番地の１２,,27,143,5998116,,,2025-05-30,清算の結了等,,,2015-10-05,1,,,,,ダンケワイワイ,0
874,4122001008741,登記記録の閉鎖等,0,2025-06-12,2025-06-09,株式会社東大阪設備サービス,,株式会社,大阪府,東大阪市,近江堂３丁目１３番２０号,,27,227,5770817,,,2025-06-09,清算の結了等,,,2015-10-05,1,,,,,ヒガシオオサカセツビサービス,0
877,4130001002631,登記記録の閉鎖等,0,2025-06-12,2025-06-02,尾池メタリックデザイン株式会社,,株式会社,京都府,京都市南区,上鳥羽南塔ノ本町８番地１,,26,107,6018123,,,2025-06-02,合併による解散等,9130001053298,令和７年６月１日京都市下京区仏光寺通西洞院西入木賊山町１８１番地ＬｅＰｏｎｔ　Ｉｎｔｅｒｎａｔｉｏｎａｌ株式会社（9130001053298）に合併し解散,2015-10-05,1,,,,,オイケメタリックデザイン,0
886,4140001072599,登記記録の閉鎖等,0,2025-06-12,2025-06-04,株式会社カルムエンタープライズ,,株式会社,兵庫県,西宮市,鳴尾町３丁目１３番８号,,28,204,6638184,,,2025-06-04,清算の結了等,,,2015-10-05,1,,,,,カルムエンタープライズ,0
887,4140001093950,登記記録の閉鎖等,0,2025-06-12,2025-06-04,ワンズ株式会社,,株式会社,兵庫県,西脇市,蒲江３２０番地の３,,28,213,6770021,,,2025-06-04,清算の結了等,,,2015-10-05,1,,,,,ワンズ,0
904,4200001017374,登記記録の閉鎖等,0,2025-06-12,2025-06-09,株式会社美濃白川館,,株式会社,岐阜県,加茂郡白川町,河岐４９２番地の４,,21,506,5091105,,,2025-06-09,清算の結了等,,,2015-10-05,1,,,,,ミノシラカワカン,0
916,4240005003417,登記記録の閉鎖等,0,2025-06-12,2025-06-10,特定非営利活動法人シードオブピース,,その他の設立登記法人,広島県,広島市安佐北区,安佐町久地２０６番９１,,34,106,7391700,,,2025-06-10,清算の結了等,,,2015-10-05,1,,,,,シードオブピース,0
922,4280002008638,登記記録の閉鎖等,0,2025-06-12,2025-06-10,有限会社ホームエステひまわり,,有限会社,島根県,浜田市,原町２５番地１,,32,202,6970056,,,2025-06-10,清算の結了等,,,2015-10-05,1,,,,,ホームエステヒマワリ,0
938,4330003005208,登記記録の閉鎖等,0,2025-06-12,2025-06-05,合同会社ホートク販売熊本,,合同会社,熊本県,宇城市,松橋町両仲間６６９番地５,,43,213,8690533,,,2025-06-05,清算の結了等,,,2015-10-05,1,,,,,ホートクハンバイクマモト,0
947,4370401000723,登記記録の閉鎖等,0,2025-06-12,2025-06-05,悠々ホーム株式会社,,株式会社,宮城県,登米市,米山町西野字古舘廻５６番地１,,04,212,9870321,,,2025-06-05,清算の結了等,,,2015-10-05,1,,,,,ユウユウホーム,0
948,4380001002607,登記記録の閉鎖等,0,2025-06-12,2025-06-03,株式会社ティーエムシー,,株式会社,福島県,伊達郡国見町,大字山崎字下亀田３番地の７,,07,303,9691771,,,2025-06-03,清算の結了等,,,2015-10-05,1,,,,,ティーエムシー,0
973,5010001148592,登記記録の閉鎖等,0,2025-06-12,2025-06-04,株式会社エノキ,,株式会社,東京都,中央区,日本橋２丁目１１番２号,,13,102,1030027,,,2025-06-04,合併による解散等,5010001125410,令和７年６月１日東京都中央区日本橋二丁目１１番２号株式会社テラスカイ（5010001125410）に合併し解散,2015-10-05,1,,,,,エノキ,0
992,5010401136404,登記記録の閉鎖等,0,2025-06-12,2025-06-10,株式会社ＪＴＳ,,株式会社,東京都,港区,虎ノ門３丁目１１番１５号（ＳＶＡＸ・ＴＴビル）,,13,103,1050001,,,2025-06-10,合併による解散等,2010001160261,令和７年６月１日東京都中央区京橋三丁目３番２号株式会社ケイアソシエイツ（2010001160261）に合併し解散,2018-02-02,1,,,,,ジェイティーエス,0
995,5010402035159,登記記録の閉鎖等,0,2025-06-12,2025-05-16,有限会社いいもの生活,,有限会社,東京都,港区,赤坂４丁目８番８号,,13,103,1070052,,,2025-05-16,清算の結了等,,,2015-10-05,1,,,,,イイモノセイカツ,0
1005,5010602012230,登記記録の閉鎖等,0,2025-06-12,2025-06-02,有限会社玉家,,有限会社,東京都,墨田区,菊川２丁目１８番９号,,13,107,1300024,,,2025-06-02,清算の結了等,,,2015-10-05,1,,,,,タマヤ,0
1012,5010901036764,登記記録の閉鎖等,0,2025-06-12,2025-06-11,株式会社ｓｕｓ４ｄｅｓｉｇｎ,,株式会社,東京都,世田谷区,上用賀２丁目５番２－３０８号,,13,112,1580098,,,2025-06-11,清算の結了等,,,2015-10-05,1,,,,,サスフォーデザイン,0
1038,5012803002514,登記記録の閉鎖等,0,2025-06-12,2025-06-09,令和総合物流合同会社,,合同会社,東京都,八王子市,楢原町２６０－３ＯＡＫＨＩＬＬＳ１０１,,13,201,1930803,,,2025-06-09,清算の結了等,,,2021-06-14,1,,,,,レイワソウゴウブツリュウ,0
1048,5020003021747,登記記録の閉鎖等,0,2025-06-12,2025-06-03,インタフリコーヒー合同会社,,合同会社,神奈川県,横浜市神奈川区,松見町３丁目２番地１号サンテラス１０６号室,,14,102,2210005,,,2025-06-03,清算の結了等,,,2022-05-12,1,,,,,インタフリコーヒー,0
1053,5021001037611,登記記録の閉鎖等,0,2025-06-12,2025-06-09,株式会社サガミ産業,,株式会社,神奈川県,小田原市,羽根尾５１１番地６,,14,206,2560804,,,2025-06-09,合併による解散等,9010601006840,令和７年６月１日東京都江東区佐賀一丁目１番３号アリックス株式会社（9010601006840）に合併し解散,2015-10-05,1,,,,,サガミサンギョウ,0
1062,5030001046935,登記記録の閉鎖等,0,2025-06-12,2025-06-05,浜島株式会社,,株式会社,埼玉県,富士見市,西みずほ台１丁目３番３－３０３号,,11,235,3540018,,,2025-06-05,清算の結了等,,,2015-10-05,1,,,,,ハマシマ,0
1068,5030001133683,登記記録の閉鎖等,0,2025-06-12,2025-06-06,株式会社ＪＡＮＫ,,株式会社,埼玉県,越谷市,大字平方８００番地,,11,222,3430002,,,2025-06-06,合併による解散等,6011801034691,令和７年４月３０日東京都新宿区西新宿八丁目１２番１号１階株式会社ＪＡＮＫ（6011801034691）に合併し解散,2019-11-12,1,,,,,ジャンク,0
1073,5030002042792,登記記録の閉鎖等,0,2025-06-12,2025-05-29,Ｍ’ｓＢＬＤ有限会社,,有限会社,千葉県,山武郡九十九里町,作田５５６７,,12,403,2830101,,,2025-05-29,清算の結了等,,,2015-10-05,1,,,,,エムズビルド,0
1074,5030002099627,登記記録の閉鎖等,0,2025-06-12,2025-06-04,有限会社アクセントハウス,,有限会社,埼玉県,川口市,柳崎５丁目１９番２２－１０３号,,11,203,3330861,,,2025-06-04,清算の結了等,,,2015-10-05,1,,,,,アクセントハウス,0
1078,5030003014865,登記記録の閉鎖等,0,2025-06-12,2025-06-02,合同会社Ｒ＆Ｒ研究所,,合同会社,埼玉県,川口市,前上町２９番２４号,,11,203,3330843,,,2025-06-02,清算の結了等,,,2020-02-21,1,,,,,アールアンドアールケンキュウショ,0
1102,5100002029279,登記記録の閉鎖等,0,2025-06-12,2025-06-09,有限会社諏訪テクノ住設,,有限会社,長野県,諏訪郡下諏訪町,４９３３番地３５,,20,361,3930000,,,2025-06-09,清算の結了等,,,2015-10-05,1,,,,,スワテクノジュウセツ,0
1104,5110001023884,登記記録の閉鎖等,0,2025-06-12,2025-06-02,株式会社三好,,株式会社,新潟県,長岡市,雨池町１２３番地,,15,202,9402055,,,2025-06-02,合併による解散等,4110001023902,令和７年６月１日新潟県長岡市雨池町１２３番地株式会社シンターランド（4110001023902）に合併し解散,2015-10-05,1,,,,,ミヨシ,0
1131,5140001089650,登記記録の閉鎖等,0,2025-06-12,2025-06-09,豊海運輸株式会社,,株式会社,兵庫県,尼崎市,末広町１丁目５－１ＥＳＲ尼崎ディストリビューションセンター１ＦオフィスＤ,,28,202,6600094,,,2025-06-09,合併による解散等,5010001094696,令和７年６月１日福岡県宮若市小伏字四反田１６３０－２株式会社ロジスコムＱ（5010001094696）に合併し解散,2015-10-05,1,,,,,トヨミウンユ,0
1137,5170002007014,登記記録の閉鎖等,0,2025-06-12,2025-06-10,有限会社ウエヤマ,,有限会社,和歌山県,有田郡湯浅町,大字湯浅８０５番地の２,,30,361,6430004,,,2025-06-10,清算の結了等,,,2015-10-05,1,,,,,ウエヤマ,0
1145,5180002076248,登記記録の閉鎖等,0,2025-06-12,2025-06-04,有限会社紅機工,,有限会社,愛知県,一宮市,春明字東中屋４７番地,,23,203,4910003,,,2025-06-04,清算の結了等,,,2015-10-05,1,,,,,クレナイキコウ,0
1161,5220002003890,登記記録の閉鎖等,0,2025-06-12,2025-06-09,有限会社土田塗工店,,有限会社,石川県,金沢市,八日市２丁目２１４番地,,17,201,9218064,,,2025-06-09,清算の結了等,,,2015-10-05,1,,,,,ツチダトコウテン,0
1167,5230005009083,登記記録の閉鎖等,0,2025-06-12,2025-06-05,一般社団法人福祉移送ネットワークとやま,,その他の設立登記法人,富山県,射水市,手崎１８２番地１,,16,211,9390306,,,2025-06-05,清算の結了等,,,2020-06-04,1,,,,,フクシイソウネットワークトヤマ,0
1169,5240005009958,登記記録の閉鎖等,0,2025-06-12,2025-06-06,特定非営利活動法人ひまわり洗車場,,その他の設立登記法人,広島県,福山市,曙町３丁目２５－１３－１皿谷アパート,,34,207,7210952,,,2025-06-06,清算の結了等,,,2015-10-05,1,,,,,ヒマワリセンシャジョウ,0
1171,5260005009667,登記記録の閉鎖等,0,2025-06-12,2025-06-04,特定非営利活動法人瀬戸内市の生活環境保全を考える会,,その他の設立登記法人,岡山県,瀬戸内市,邑久町山田庄１８８番地１,,33,212,7014246,,,2025-06-04,清算の結了等,,,2015-10-05,1,,,,,セトウチシノセイカツカンキョウホゼンヲカンガエルカイ,0
1177,5290801002285,登記記録の閉鎖等,0,2025-06-12,2025-06-06,株式会社タイゲン,,株式会社,福岡県,北九州市小倉北区,西港町９４番地９,,40,106,8030801,,,2025-06-06,合併による解散等,5120001077475,令和７年６月１日大阪市中央区日本橋一丁目２２番２５号株式会社ショクリュー（5120001077475）に合併し解散,2015-10-05,1,,,,,タイゲン,0
1191,5330002027004,登記記録の閉鎖等,0,2025-06-12,2025-06-05,有限会社ティム,,有限会社,熊本県,八代市,鏡町両出１２５７番地４,,43,202,8694222,,,2025-06-05,清算の結了等,,,2015-10-05,1,,,,,ティム,0
1205,5400005000801,登記記録の閉鎖等,0,2025-06-12,2025-05-29,岩手県畳工業組合,,その他の設立登記法人,岩手県,盛岡市,加賀野４丁目１８番５０号,,03,201,0200807,,,2025-05-29,清算の結了等,,,2015-10-05,1,,,,,イワテケンタタミ,0
1207,5410005004644,登記記録の閉鎖等,0,2025-06-12,2025-05-19,医療法人幸歯ノ会,,その他の設立登記法人,東京都,港区,北青山３丁目１１－７ＡＯビル３階,,13,103,1070061,,,2025-05-19,清算の結了等,,,2015-10-05,1,,,,,コウシノカイ,0
1208,5420005004932,登記記録の閉鎖等,0,2025-06-12,2025-06-04,特定非営利活動法人青森県男女共同参画研究所,,その他の設立登記法人,青森県,弘前市,大字新寺町３９番地９,,02,202,0368214,,,2025-06-04,清算の結了等,,,2015-10-05,1,,,,,アオモリケンダンジョキョウドウサンカクケンキュウジョ,0
1217,5462502000393,登記記録の閉鎖等,0,2025-06-12,2025-06-09,有限会社スタジオ・アラモード,,有限会社,北海道,標津郡中標津町,西六条北６丁目２番地,,01,692,0861126,,,2025-06-09,清算の結了等,,,2015-10-05,1,,,,,スタジオアラモード,0
1242,6010401164148,登記記録の閉鎖等,0,2025-06-12,2025-05-16,ロアークスインターナショナル株式会社,,株式会社,東京都,港区,虎ノ門４丁目３番１号城山トラストタワー２７階,,13,103,1050001,,,2025-05-16,清算の結了等,,,2021-12-07,1,,,,,ロアークスインターナショナル,0
1245,6010405013912,登記記録の閉鎖等,0,2025-06-12,2025-05-16,ＳＣＧ４４特定目的会社,,その他の設立登記法人,東京都,港区,虎ノ門２丁目６番１号,,13,103,1050001,,,2025-05-16,清算の結了等,,,2015-10-05,1,,,,,エスシージーフォーティーフォー,0
1247,6010501031504,登記記録の閉鎖等,0,2025-06-12,2025-05-26,フリプラ．ｃｏｍ株式会社,,株式会社,東京都,中央区,日本橋馬喰町１丁目１１番６号,,13,102,1030002,,,2025-05-26,清算の結了等,,,2015-10-05,1,,,,,フリプラドットコム,0
1282,6011401010713,登記記録の閉鎖等,0,2025-06-12,2025-06-09,株式会社トーショー印刷,,株式会社,東京都,板橋区,栄町２１番１０号,,13,119,1730015,,,2025-06-09,清算の結了等,,,2015-10-05,1,,,,,トーショーインサツ,0
1299,6020001117042,登記記録の閉鎖等,0,2025-06-12,2025-06-10,株式会社Ｙ　Ｌｉｎｅ,,株式会社,神奈川県,川崎市川崎区,日進町２２－２ベルメゾンヒカリ２０２号室,,14,131,2100024,,,2025-06-10,合併による解散等,4011001068947,令和７年５月１日東京都渋谷区渋谷二丁目１２番１９号株式会社ｉｍｐａｃｔ　ｃｏｎｎｅｃｔ（4011001068947）に合併し解散,2016-07-19,1,,,,,ワイライン,0
1300,6020001124377,登記記録の閉鎖等,0,2025-06-12,2025-06-09,株式会社森建設,,株式会社,神奈川県,横浜市南区,中里１丁目７番５号,,14,105,2320063,,,2025-06-09,清算の結了等,,,2017-12-25,1,,,,,モリケンセツ,0
1301,6020001145167,登記記録の閉鎖等,0,2025-06-12,2025-06-06,株式会社ｒｉｃｈｗｉｎ,,株式会社,東京都,八王子市,千人町２丁目２－１５西八ビル２号館５Ｆ,,13,201,1930835,,,2025-06-06,清算の結了等,,,2022-02-08,1,,,,,リッチウィン,0
1332,6050001023064,登記記録の閉鎖等,0,2025-06-12,2025-06-05,株式会社金村商店,,株式会社,茨城県,日立市,弁天町２丁目５番１３号,,08,202,3170072,,,2025-06-05,清算の結了等,,,2015-10-05,1,,,,,カネムラショウテン,0
1335,6060001024697,登記記録の閉鎖等,0,2025-06-12,2025-06-06,株式会社永島自動車工業,,株式会社,栃木県,佐野市,赤見町３３５１番地,,09,204,3270104,,,2025-06-06,清算の結了等,,,2015-10-05,1,,,,,ナガシマジドウシャコウギョウ,0
1344,6080401018017,登記記録の閉鎖等,0,2025-06-12,2025-06-05,株式会社サトウ保険・サポート,,株式会社,静岡県,浜松市中央区,西山町１５３１番地の１８,,22,138,4328001,,,2025-06-05,清算の結了等,,,2015-10-05,1,,,,,サトウホケンサポート,0
1347,6080402009147,登記記録の閉鎖等,0,2025-06-12,2025-06-06,有限会社井田工業,,有限会社,静岡県,湖西市,吉美３４３０番地,,22,221,4310441,,,2025-06-06,清算の結了等,,,2015-10-05,1,,,,,イダコウギョウ,0
1364,6120002028476,登記記録の閉鎖等,0,2025-06-12,2025-06-09,有限会社三隆鉄工所,,有限会社,大阪府,大阪市淀川区,田川北３丁目３番３２号,,27,123,5320021,,,2025-06-09,清算の結了等,,,2015-10-05,1,,,,,ミタカテッコウショ,0
1370,6120102012099,登記記録の閉鎖等,0,2025-06-12,2025-06-05,有限会社ウインド介護サービス,,有限会社,大阪府,堺市東区,南野田６番地の２０,,27,143,5998124,,,2025-06-05,清算の結了等,,,2015-10-05,1,,,,,ウインドカイゴサービス,0
1374,6122001029315,登記記録の閉鎖等,0,2025-06-12,2025-06-09,グローブ株式会社,,株式会社,大阪府,東大阪市,鷹殿町２２番２６号,,27,227,5798036,,,2025-06-09,清算の結了等,,,2016-02-19,1,,,,,グローブ,0
1385,6140001135049,登記記録の閉鎖等,0,2025-06-12,2025-06-03,株式会社Ｋ‐ｓｐｏｒｔｓ,,株式会社,兵庫県,神戸市中央区,磯辺通１丁目１番１８号カサベラ国際プラザビル７０７号室,,28,110,6510084,,,2025-06-03,清算の結了等,,,2024-07-10,1,,,,,ケースポーツ,0
1396,6180001130970,登記記録の閉鎖等,0,2025-06-12,2025-05-16,株式会社ジャパンメタル,,株式会社,東京都,港区,南青山１丁目３番２１号,,13,103,1070062,,,2025-05-16,清算の結了等,,,2018-01-25,1,,,,,ジャパンメタル,0
1400,6180005020235,登記記録の閉鎖等,0,2025-06-12,2025-06-02,一般社団法人山採りの木普及協会,,その他の設立登記法人,愛知県,瀬戸市,みずの坂３丁目２２５番地,,23,204,4890909,,,2025-06-02,清算の結了等,,,2023-06-01,1,,,,,ヤマドリノキフキュウキョウカイ,0
1437,6320002009357,登記記録の閉鎖等,0,2025-06-12,2025-06-10,有限会社大石産業,,有限会社,大分県,大分市,藤の台１番地の３,,44,201,8700957,,,2025-06-10,清算の結了等,,,2015-10-05,1,,,,,オオイシサンギョウ,0
1451,6380001028831,登記記録の閉鎖等,0,2025-06-12,2025-06-03,株式会社ＵＰＴＯＲＹ,,株式会社,東京都,渋谷区,渋谷２丁目２２番３号渋谷東口ビル６階,,13,113,1500002,,,2025-06-03,合併による解散等,6011001149902,令和７年６月１日東京都渋谷区渋谷二丁目２２－３渋谷東口ビル６Ｆ株式会社Ｂｒａｎｄｉｎｇ　Ｅｎｇｉｎｅｅｒ（6011001149902）に合併し解散,2018-02-07,1,,,,,アプトリー,0
1465,6450001011029,登記記録の閉鎖等,0,2025-06-12,2025-06-05,株式会社ＣＹＧ,,株式会社,北海道,旭川市,二条通１１丁目右３号,,01,204,0700032,,,2025-06-05,清算の結了等,,,2015-10-05,1,,,,,シーワイジー,0
1469,6500002021938,登記記録の閉鎖等,0,2025-06-12,2025-06-06,有限会社山川醤醸場,00008224,有限会社,愛媛県,四国中央市,金田町金川２６番地の１,,38,213,7990123,,,2025-06-06,清算の結了等,,,2015-10-05,1,,,,,ヤマカワショウジョウジョウ,0
1477,7010001195393,登記記録の閉鎖等,0,2025-06-12,2025-05-22,アイウェーブホールディングス株式会社,,株式会社,東京都,千代田区,丸の内１丁目８番３号,,13,101,1000005,,,2025-05-22,清算の結了等,,,2018-10-10,1,,,,,アイウェーブホールディングス,0
1494,7010401097850,登記記録の閉鎖等,0,2025-06-12,2025-05-16,本多商事株式会社,,株式会社,東京都,港区,南青山１丁目１５番１８号,,13,103,1070062,,,2025-05-16,清算の結了等,,,2015-10-05,1,,,,,,0
1500,7010403025487,登記記録の閉鎖等,0,2025-06-12,2025-05-16,昌和合同会社,,合同会社,東京都,港区,南青山２丁目２番１５号ウィン青山内,,13,103,1070062,,,2025-05-16,清算の結了等,,,2021-06-10,1,,,,,ショウワ,0
1503,7010405019719,登記記録の閉鎖等,0,2025-06-12,2025-05-16,Ｓｐａｒｋｙ一般社団法人,,その他の設立登記法人,東京都,港区,虎ノ門２丁目６番１号,,13,103,1050001,,,2025-05-16,清算の結了等,,,2021-04-14,1,,,,,スパーキー,0
1523,7011001148011,登記記録の閉鎖等,0,2025-06-12,2025-06-05,株式会社ライフロー,,株式会社,東京都,渋谷区,桜丘町１５番８号,,13,113,1500031,,,2025-06-05,合併による解散等,8100001032297,令和７年６月１日東京都江東区東雲二丁目１番２２号キャッスルビル東雲７階株式会社オッソメディカ（8100001032297）に合併し解散,2022-06-13,1,,,,,ライフロー,0
1525,7011001152599,登記記録の閉鎖等,0,2025-06-12,2025-06-04,株式会社ネロリハーブ,,株式会社,東京都,渋谷区,上原３丁目２８番１号Ｂ２０２,,13,113,1510064,,,2025-06-04,清算の結了等,,,2023-02-14,1,,,,,ネロリハーブ,0
1548,7020002049969,登記記録の閉鎖等,0,2025-06-12,2025-06-06,有限会社木村室内工事,,有限会社,神奈川県,横浜市港北区,菊名１丁目２番１号,,14,109,2220011,,,2025-06-06,清算の結了等,,,2015-10-05,1,,,,,キムラシツナイコウジ,0
1568,7040001051833,登記記録の閉鎖等,0,2025-06-12,2025-05-22,株式会社眞田本店,,株式会社,千葉県,君津市,久留里市場１８０番地,,12,225,2920421,,,2025-05-22,清算の結了等,,,2015-10-05,1,,,,,サナダホンテン,0
1572,7040002017949,登記記録の閉鎖等,0,2025-06-12,2025-05-29,有限会社アートマーキング・ジャパン,,有限会社,千葉県,千葉市美浜区,真砂４丁目４街区第３号棟５０３号室,,12,106,2610011,,,2025-05-29,清算の結了等,,,2015-10-05,1,,,,,アートマーキングジャパン,0
1583,7070001012576,登記記録の閉鎖等,0,2025-06-12,2025-06-05,株式会社明和産商,,株式会社,群馬県,藤岡市,立石５２０番地,,10,209,3750002,,,2025-06-05,清算の結了等,,,2015-10-05,1,,,,,メイワサンショウ,0
1602,7110003002926,登記記録の閉鎖等,0,2025-06-12,2025-06-02,合同会社テイクス,,合同会社,新潟県,胎内市,乙１２０５番地,,15,227,9592602,,,2025-06-02,合併による解散等,2110001029091,令和７年５月３１日新潟県新発田市中曽根町一丁目４番２５号株式会社エム・ケー（2110001029091）に合併し解散,2015-10-05,1,,,,,テイクス,0
1606,7120001168009,登記記録の閉鎖等,0,2025-06-12,2025-06-02,食品環境総合研究所株式会社,,株式会社,兵庫県,神戸市東灘区,森北町５丁目１番１－７０３号,,28,101,6580001,,,2025-06-02,清算の結了等,,,2015-10-05,1,,,,,ショクヒンカンキョウソウゴウケンキュウショ,0
1610,7120001246557,登記記録の閉鎖等,0,2025-06-12,2025-06-04,ＣＹＧＮＵＸ株式会社,,株式会社,大阪府,大阪市阿倍野区,橋本町２番２１号,,27,119,5450031,,,2025-06-04,清算の結了等,,,2022-06-10,1,,,,,シグナックス,0
1619,7120101023385,登記記録の閉鎖等,0,2025-06-12,2025-06-02,株式会社アンドライフ,,株式会社,大阪府,堺市北区,新堀町２丁１１６番地,,27,146,5918005,,,2025-06-02,合併による解散等,8120101010184,令和７年６月１日大阪府堺市北区新堀町二丁１１６番地アンドライフサービス株式会社（8120101010184）に合併し解散,2015-10-05,1,,,,,アンドライフ,0
1633,7130002034191,登記記録の閉鎖等,0,2025-06-12,2025-06-09,有限会社奥村自動車商会,,有限会社,京都府,舞鶴市,字北吸８２９番地の４,,26,202,6250080,,,2025-06-09,清算の結了等,,,2015-10-05,1,,,,,オクムラジドウシャショウカイ,0
1635,7140001013204,登記記録の閉鎖等,0,2025-06-12,2025-06-05,シコー段ボール株式会社,,株式会社,兵庫県,神戸市兵庫区,浜崎通５番２４－７０５号,,28,105,6520807,,,2025-06-05,清算の結了等,,,2015-10-05,1,,,,,シコーダンボール,0
1643,7150001025330,登記記録の閉鎖等,0,2025-06-12,2025-06-10,株式会社ドコデマージン,,株式会社,奈良県,橿原市,川西町８１８番地,,29,205,6340826,,,2025-06-10,合併による解散等,8120901015861,令和７年６月１日大阪府吹田市江坂町五丁目２１番９号松島ビル株式会社ドコデライフ（8120901015861）に合併し解散,2022-02-14,1,,,,,ドコデマージン,0
1645,7160001007765,登記記録の閉鎖等,0,2025-06-12,2025-06-02,株式会社リプテクス,,株式会社,滋賀県,長浜市,高月町落川２００番地の１,,25,203,5290232,,,2025-06-02,合併による解散等,2160001007266,令和７年６月１日滋賀県長浜市木之本町木之本１７６８番地田中シビルテック株式会社（2160001007266）に合併し解散,2015-10-05,1,,,,,リプテクス,0
1663,7280005004012,登記記録の閉鎖等,0,2025-06-12,2025-06-10,特定非営利活動法人シャーネ・エレーテ今市,,その他の設立登記法人,島根県,出雲市,今市町６１４番地,,32,203,6930001,,,2025-06-10,清算の結了等,,,2015-10-05,1,,,,,シャーネエレーテイマイチ,0
1683,7380001023699,登記記録の閉鎖等,0,2025-06-12,2025-06-06,副都建設株式会社,,株式会社,福島県,いわき市,平字倉前１０９番地の１ブレスビル２Ｆ,,07,204,9708026,,,2025-06-06,清算の結了等,,,2015-10-05,1,,,,,フクトケンセツ,0
1692,7430001009874,登記記録の閉鎖等,0,2025-06-12,2025-06-06,たくぎん保証株式会社,,株式会社,北海道,札幌市中央区,南一条西１丁目１番地,,01,101,0600061,,,2025-06-06,清算の結了等,,,2015-11-17,1,,,,,タクギンホショウ,0
1698,7500005001853,登記記録の閉鎖等,0,2025-06-12,2025-06-09,特定非営利活動法人ＮＰＯパソコン活用支援ぴんぐ,,その他の設立登記法人,愛媛県,松山市,清住２丁目１０８２番地１２,,38,201,7918055,,,2025-06-09,清算の結了等,,,2015-10-05,1,,,,,,0
1721,8010703006624,登記記録の閉鎖等,0,2025-06-12,2025-05-29,合同会社ＲＭＳ,,合同会社,東京都,品川区,西五反田２丁目９－７ドルミ西五反田アンメゾン４０７号,,13,109,1410031,,,2025-05-29,清算の結了等,,,2023-03-14,1,,,,,アールエムエス,0
1724,8010901023363,登記記録の閉鎖等,0,2025-06-12,2025-06-11,ニチロ機器販売株式会社,,株式会社,東京都,世田谷区,代沢４丁目２３番１４号,,13,112,1550032,,,2025-06-11,清算の結了等,,,2015-10-05,1,,,,,ニチロキキハンバイ,0
1731,8011001155956,登記記録の閉鎖等,0,2025-06-12,2025-06-02,株式会社利回りくん,,株式会社,東京都,渋谷区,広尾１丁目１番３９号,,13,113,1500012,,,2025-06-02,合併による解散等,2013201019095,令和７年６月１日東京都渋谷区広尾一丁目１番３９号株式会社シーラ（2013201019095）に合併し解散,2023-07-31,1,,,,,リマワリクン,0
1753,8011801027743,登記記録の閉鎖等,0,2025-06-12,2025-06-06,株式会社政所板金,,株式会社,東京都,足立区,神明２丁目１０番２号,,13,121,1210051,,,2025-06-06,清算の結了等,,,2015-10-05,1,,,,,マンドコロバンキン,0
1772,8021001022503,登記記録の閉鎖等,0,2025-06-12,2025-06-03,株式会社小塚建設,,株式会社,神奈川県,秦野市,菩提２０４９番地,,14,211,2591302,,,2025-06-03,清算の結了等,,,2015-10-05,1,,,,,コヅカケンセツ,0
1789,8030002036676,登記記録の閉鎖等,0,2025-06-12,2025-06-06,有限会社シンエイ建装,,有限会社,埼玉県,狭山市,大字上広瀬１３３３番地５,,11,215,3501321,,,2025-06-06,清算の結了等,,,2015-10-05,1,,,,,シンエイケンソウ,0
1802,8050002024398,登記記録の閉鎖等,0,2025-06-12,2025-06-05,有限会社アイエスエイ・ジャパン,,有限会社,茨城県,古河市,小堤１９１３番地２８９,,08,204,3060231,,,2025-06-05,清算の結了等,,,2015-10-05,1,,,,,アイエスエイジャパン,0
1839,8120102004086,登記記録の閉鎖等,0,2025-06-12,2025-06-03,有限会社ビラビアンカ,,有限会社,大阪府,堺市東区,引野町３丁１５３番地の３,,27,143,5998104,,,2025-06-03,清算の結了等,,,2015-10-05,1,,,,,ビラビアンカ,0
1846,8120905004761,登記記録の閉鎖等,0,2025-06-12,2025-06-03,一般社団法人日本旋拳道協会,,その他の設立登記法人,大阪府,吹田市,津雲台２丁目２番Ｃ２５－４０７号,,27,205,5650862,,,2025-06-03,清算の結了等,,,2015-10-05,1,,,,,ニホンセンケンドウキョウカイ,0
1863,8150002007491,登記記録の閉鎖等,0,2025-06-12,2025-06-02,株式会社ケイ・エフ・ティ,,株式会社,滋賀県,東近江市,八日市本町１番６号シャリエ八日市駅前３０１,,25,213,5270012,,,2025-06-02,合併による解散等,2160001007266,令和７年６月１日滋賀県長浜市木之本町木之本１７６８番地田中シビルテック株式会社（2160001007266）に合併し解散,2015-10-05,1,,,,,ケイエフティ,0
1889,8240002048799,登記記録の閉鎖等,0,2025-06-12,2025-06-09,有限会社やぶしん,,有限会社,広島県,安芸郡熊野町,城之堀２丁目１０番４号,,34,307,7314215,,,2025-06-09,清算の結了等,,,2015-10-05,1,,,,,ヤブシン,0
1894,8290001043458,登記記録の閉鎖等,0,2025-06-12,2025-06-02,食品サービス株式会社,,株式会社,福岡県,春日市,白水ヶ丘５丁目１５０番地,,40,218,8160845,,,2025-06-02,合併による解散等,2290001087015,令和７年６月１日福岡県春日市白水ケ丘五丁目１５０番地食品サービス株式会社（2290001087015）に合併し解散,2015-10-05,1,,,,,ショクヒンサービス,0
1895,8290001084295,登記記録の閉鎖等,0,2025-06-12,2025-06-02,株式会社やずやソリューションズ,,株式会社,福岡県,福岡市南区,那の川１丁目６番１４号,,40,134,8150081,,,2025-06-02,合併による解散等,6290001022959,令和７年６月１日福岡市南区那の川一丁目６番１４号株式会社やずや（6290001022959）に合併し解散,2019-02-19,1,,,,,ヤズヤソリューションズ,0
1896,8290002032451,登記記録の閉鎖等,0,2025-06-12,2025-06-03,有限会社大東,,有限会社,福岡県,福岡市東区,香椎駅前２丁目１２番４０号,,40,131,8130013,,,2025-06-03,清算の結了等,,,2015-10-05,1,,,,,ダイトウ,0
1900,8300002010315,登記記録の閉鎖等,0,2025-06-12,2025-06-05,有限会社向陽商事,,有限会社,佐賀県,唐津市,長谷１８番地１,,41,202,8470822,,,2025-06-05,合併による解散等,5300001007513,令和７年６月１日佐賀県唐津市長谷１８番地１株式会社新富商事（5300001007513）に合併し解散,2015-10-05,1,,,,,コウヨウショウジ,0
1925,8410002007705,登記記録の閉鎖等,0,2025-06-12,2025-06-06,有限会社シモハシ陶器店,,有限会社,秋田県,湯沢市,清水町４丁目７番３５号,,05,207,0120033,,,2025-06-06,清算の結了等,,,2015-10-05,1,,,,,シモハシトウキテン,0
1926,8410002010048,登記記録の閉鎖等,0,2025-06-12,2025-06-05,有限会社ナチュラルファーマーズ,,有限会社,秋田県,大館市,比内町中野字中野２３番地,,05,204,0185722,,,2025-06-05,清算の結了等,,,2015-10-05,1,,,,,,0
1931,8470005006095,登記記録の閉鎖等,0,2025-06-12,2025-05-30,特定非営利活動法人あ・うん,,その他の設立登記法人,香川県,高松市,東山崎町４１５番地２２,,37,201,7610312,,,2025-05-30,清算の結了等,,,2018-04-25,1,,,,,アウン,0
1934,9010001182893,登記記録の閉鎖等,0,2025-06-12,2025-05-23,株式会社ＧＵＡＲＮＴＩＣ,,株式会社,東京都,千代田区,紀尾井町３番１２号,,13,101,1020094,,,2025-05-23,清算の結了等,,,2017-04-21,1,,,,,ギャランティック,0
1948,9010401039157,登記記録の閉鎖等,0,2025-06-12,2025-06-10,株式会社ラビリング,,株式会社,東京都,港区,海岸１丁目７番１号東京ポートシティ竹芝１０Ｆ－１３１,,13,103,1050022,,,2025-06-10,合併による解散等,6030002102810,令和７年６月１日埼玉県川口市栄町三丁目１２番６号株式会社三栄（6030002102810）に合併し解散,2015-10-05,1,,,,,ラビリング,0
1952,9010403021468,登記記録の閉鎖等,0,2025-06-12,2025-05-16,合同会社エスエスジー東海,,合同会社,東京都,港区,虎ノ門２丁目６番１号虎ノ門ヒルズステーションタワー,,13,103,1050001,,,2025-05-16,清算の結了等,,,2019-09-18,1,,,,,エスエスジートウカイ,0
1998,9013201005510,登記記録の閉鎖等,0,2025-06-12,2025-06-05,増興株式会社,,株式会社,東京都,目黒区,南１丁目３番１３号,,13,110,1520013,,,2025-06-05,清算の結了等,,,2015-10-05,1,,,,,マスコウ,0
2036,9030003008038,登記記録の閉鎖等,0,2025-06-12,2025-05-29,合同会社Ｉ．Ｂ．Ｉ．Ｃ,,合同会社,千葉県,印西市,滝９８３－３,,12,231,2702328,,,2025-05-29,清算の結了等,,,2015-11-02,1,,,,,アイビーアイシー,0
2044,9040001119752,登記記録の閉鎖等,0,2025-06-12,2025-05-19,株式会社ＨＡＰＩＶＥＲＩ,,株式会社,千葉県,千葉市中央区,富士見１丁目１４－１３千葉大栄ビル８Ｆ,,12,101,2600015,,,2025-05-19,清算の結了等,,,2021-08-11,1,,,,,ハピベリ,0
2080,9120902012898,登記記録の閉鎖等,0,2025-06-12,2025-06-09,有限会社大建エンジニアリング,,有限会社,大阪府,三島郡島本町,山崎４丁目１９番２－２０７号,,27,301,6180001,,,2025-06-09,清算の結了等,,,2015-10-05,1,,,,,ダイケンエンジニアリング,0
2098,9140002026161,登記記録の閉鎖等,0,2025-06-12,2025-06-04,有限会社伸晃園,,有限会社,兵庫県,神戸市兵庫区,中之島１丁目１番４号,,28,105,6520844,,,2025-06-04,清算の結了等,,,2015-10-05,1,,,,,シンコウエン,0
2115,9180303005249,登記記録の閉鎖等,0,2025-06-12,2025-06-02,合同会社なないろ,,合同会社,愛知県,田原市,田原町栄巌７９番地１,,23,231,4413421,,,2025-06-02,合併による解散等,4180301035087,令和７年６月１日愛知県田原市豊島町道南２２番地３株式会社ケアサポートにじいろ（4180301035087）に合併し解散,2022-02-10,1,,,,,ナナイロ,0
2120,9200002012972,登記記録の閉鎖等,0,2025-06-12,2025-06-10,有限会社ナショナルヤガタ大垣,,有限会社,岐阜県,大垣市,笠木町４５３番地,,21,202,5030023,,,2025-06-10,清算の結了等,,,2015-10-05,1,,,,,ナショナルヤガタオオガキ,0
2123,9210002001999,登記記録の閉鎖等,0,2025-06-12,2025-06-09,有限会社第一看護婦・家政婦紹介所,,有限会社,福井県,福井市,春日１丁目１３番１１号,,18,201,9188108,,,2025-06-09,清算の結了等,,,2015-10-05,1,,,,,ダイイチカンゴフカセイフショウカイショ,0
