sequenceNumber,corporateNumber,process,correct,updateDate,changeDate,name,nameImageId,kind,prefectureName,cityName,streetNumber,addressImageId,prefectureCode,cityCode,postCode,addressOutside,addressOutsideImageId,closeDate,closeCause,successorCorporateNumber,changeCause,assignmentDate,latest,enName,enPrefectureName,enCityName,enAddressOutside,furigana,hihyoji
6,1010001250187,新規,0,2024-11-26,2024-11-26,株式会社アイリックパートナーズ,,株式会社,東京都,文京区,本郷２丁目２７番２０号,,13,105,1130033,,,,,,,2024-11-26,1,,,,,アイリックパートナーズ,0
7,1010001250195,新規,0,2024-11-26,2024-11-26,Ｂｌｕｅ　Ｂｌｅｎｄ　Ｇａｌｌｅｒｙ株式会社,,株式会社,東京都,千代田区,神田錦町３丁目７番地２東京堂錦町ビル９０６号室,,13,101,1010054,,,,,,,2024-11-26,1,,,,,ブルーブレンドギャラリ,0
11,1010005039172,新規,0,2024-11-26,2024-11-26,一般社団法人クリスタルホールディングスツー,,その他の設立登記法人,東京都,千代田区,丸の内１丁目４番１号東京共同会計事務所内,,13,101,1000005,,,,,,,2024-11-26,1,,,,,クリスタルホールディングスツー,0
14,1010401186634,新規,0,2024-11-26,2024-11-26,株式会社ＭＩＮＴ　ＰＬＡＺＡ,,株式会社,東京都,港区,虎ノ門１丁目１７－１虎ノ門ヒルズビジネスタワー１５Ｆ,,13,103,1050001,,,,,,,2024-11-26,1,,,,,ミントプラザ,0
15,1010401186642,新規,0,2024-11-26,2024-11-26,Ｈａｐｐｉｎｅｓｓ　Ｌａｂ　Ｆａｃｔｏｒｙ株式会社,,株式会社,東京都,港区,六本木７丁目７－７Ｔｒｉ－ＳｅｖｅｎＲｏｐｐｏｎｇｉ８階,,13,103,1060032,,,,,,,2024-11-26,1,,,,,ハピネスラボファクトリー,0
16,1010401186675,新規,0,2024-11-26,2024-11-26,リカバリーアセット株式会社,,株式会社,東京都,港区,赤坂５丁目２番３３号,,13,103,1070052,,,,,,,2024-11-26,1,,,,,リカバリーアセット,0
22,1010403033883,新規,0,2024-11-26,2024-11-26,Ｇｒｅａｔ　Ｓｐａｃｅ合同会社,,合同会社,東京都,港区,赤坂９丁目４番１－７０２号,,13,103,1070052,,,,,,,2024-11-26,1,,,,,グレートスペース,0
27,1010603011227,新規,0,2024-11-26,2024-11-26,合同会社Ｎｅｏｎ．,,合同会社,東京都,墨田区,緑２丁目１１番１９－８０２号,,13,107,1300021,,,,,,,2024-11-26,1,,,,,ネオン,0
28,1010603011235,新規,0,2024-11-26,2024-11-26,ｅｉｎｖｅｎｔ合同会社,,合同会社,東京都,江東区,豊洲６丁目２番１１－１６０５号,,13,108,1350061,,,,,,,2024-11-26,1,,,,,アインベント,0
29,1010605004393,新規,0,2024-11-26,2024-11-26,日本保守党,,その他の設立登記法人,東京都,江東区,門前仲町１丁目１１－７仲町塚本ビル３階,00137148,13,108,1350048,,,,,,,2024-11-26,1,,,,,ニッポンホシュトウ,0
34,1010801035614,新規,0,2024-11-26,2024-11-26,株式会社心電設,,株式会社,東京都,大田区,中央８丁目１３番７号,,13,111,1430024,,,,,,,2024-11-26,1,,,,,シンデンセツ,0
39,1010901056378,新規,0,2024-11-26,2024-11-26,株式会社サイダ,,株式会社,東京都,世田谷区,下馬２丁目１４番１９号,,13,112,1540002,,,,,,,2024-11-26,1,,,,,サイダ,0
49,1011001166010,新規,0,2024-11-26,2024-11-26,株式会社栄和,,株式会社,東京都,目黒区,柿の木坂１丁目５番９号,,13,110,1520022,,,,,,,2024-11-26,1,,,,,エイワ,0
50,1011003020438,新規,0,2024-11-26,2024-11-26,フォレストヒルズ合同会社,,合同会社,東京都,渋谷区,広尾４丁目１番３１－３０３号,,13,113,1500012,,,,,,,2024-11-26,1,,,,,フォレストヒルズ,0
51,1011003020495,新規,0,2024-11-26,2024-11-26,合同会社ｔｒａｎｓｉｓｔｏｒ,,合同会社,東京都,渋谷区,道玄坂１丁目１０番８号渋谷道玄坂東急ビル２Ｆ－Ｃ,,13,113,1500043,,,,,,,2024-11-26,1,,,,,トランジスタ,0
56,1011101109686,新規,0,2024-11-26,2024-11-26,千葉ロイヤル株式会社,,株式会社,東京都,新宿区,西新宿７丁目１０番１号,,13,104,1600023,,,,,,,2024-11-26,1,,,,,チバロイヤル,0
65,1011501031399,新規,0,2024-11-26,2024-11-26,株式会社Ｌｉｆｅ　Ｄｅｓｉｇｎ　Ｒｅｃｉｐｅ,,株式会社,東京都,荒川区,荒川７丁目１２－１,,13,118,1160002,,,,,,,2024-11-26,1,,,,,ライフデザインレシピ,0
66,1011603004526,新規,0,2024-11-26,2024-11-26,ＲｅＲＩＳＥ合同会社,,合同会社,東京都,練馬区,谷原５丁目５番８号ローンヒルズヤハラ１０９,,13,120,1770032,,,,,,,2024-11-26,1,,,,,リライズ,0
72,1012801023581,新規,0,2024-11-26,2024-11-26,ＫＥＩＫＥＩ株式会社,,株式会社,東京都,日野市,南平１丁目２６番６号,,13,212,1910041,,,,,,,2024-11-26,1,,,,,,0
75,1013303007412,新規,0,2024-11-26,2024-11-26,合同会社ＵＸＣｅｎｔｒａ,,合同会社,東京都,豊島区,東池袋１丁目１７－１１パークハイツ池袋１１０５,,13,116,1700013,,,,,,,2024-11-26,1,,,,,ユーエックスセントラ,0
81,1020001160303,新規,0,2024-11-26,2024-11-26,華強株式会社,,株式会社,神奈川県,横浜市中区,長者町９丁目１４５番地３,,14,104,2310033,,,,,,,2024-11-26,1,,,,,カキョウ,0
90,1021001083667,新規,0,2024-11-26,2024-11-26,株式会社アジアと元気,,株式会社,神奈川県,藤沢市,遠藤５２３２番地の１Ｂ４０４３,,14,205,2520816,,,,,,,2024-11-26,1,,,,,アジアトゲンキ,0
91,1021001083816,新規,0,2024-11-26,2024-11-26,株式会社みむらす,,株式会社,神奈川県,相模原市南区,麻溝台７丁目２８番４６号,,14,153,2520328,,,,,,,2024-11-26,1,,,,,ミムラス,0
93,1021003015271,新規,0,2024-11-26,2024-11-26,合同会社富士精工,,合同会社,神奈川県,厚木市,妻田東３丁目２２番２８号,,14,212,2430813,,,,,,,2024-11-26,1,,,,,フジセイコウ,0
96,1030001163619,新規,0,2024-11-26,2024-11-26,株式会社Ｒ　Ｓｌａｓｈ　ＤＥＳＩＧＮ,,株式会社,埼玉県,川口市,上青木西５丁目２１番１２号,,11,203,3330845,,,,,,,2024-11-26,1,,,,,アールスラッシュデザイン,0
97,1030001163643,新規,0,2024-11-26,2024-11-26,ＬＩＳコンサルティング株式会社,,株式会社,埼玉県,さいたま市南区,別所３丁目４番１号ＫＥＳＳＨＯＢＬＤＧ．３０３号室,,11,108,3360021,,,,,,,2024-11-26,1,,,,,リスコンサルティング,0
128,1120001270570,新規,0,2024-11-26,2024-11-26,エスティ・サービス株式会社,,株式会社,大阪府,大阪市住之江区,西住之江２丁目８番６号,,27,125,5590005,,,,,,,2024-11-26,1,,,,,エスティサービス,0
129,1120001270579,新規,0,2024-11-26,2024-11-26,株式会社権兵衛サウスマネジメント,,株式会社,大阪府,大阪市西区,京町堀１丁目６番１２号,,27,106,5500003,,,,,,,2024-11-26,1,,,,,ゴンベエサウスマネジメント,0
137,1120005024634,新規,0,2024-11-26,2024-11-26,特定非営利活動法人地域あんしんネットだんだん,,その他の設立登記法人,大阪府,大阪市阿倍野区,阿倍野筋５丁目１－１９,,27,119,5450052,,,,,,,2024-11-26,1,,,,,チイキアンシンネットダンダン,0
148,1130001078410,新規,0,2024-11-26,2024-11-26,株式会社メンテワン,,株式会社,京都府,長岡京市,友岡３丁目４番３号,,26,209,6170843,,,,,,,2024-11-26,1,,,,,メンテワン,0
149,1130001078419,新規,0,2024-11-26,2024-11-26,株式会社陵南,,株式会社,京都府,京都市伏見区,桃山町丹後１３番地３陵南ハイツ５０１号,,26,109,6128018,,,,,,,2024-11-26,1,,,,,リョウナン,0
150,1130001078435,新規,0,2024-11-26,2024-11-26,Ｇａｉａ　Ｒｏａｄ株式会社,,株式会社,京都府,京都市上京区,御前通今出川上る２丁目北町６２２番地１,,26,102,6028392,,,,,,,2024-11-26,1,,,,,ガイアロード,0
155,1140001136539,新規,0,2024-11-26,2024-11-26,株式会社アルテミア,,株式会社,兵庫県,姫路市,余部区下余部２６８番地９,,28,201,6711261,,,,,,,2024-11-26,1,,,,,アルテミア,0
157,1140003021342,新規,0,2024-11-26,2024-11-26,合同会社岡太工業所,,合同会社,兵庫県,西宮市,小松南町１丁目６番６号,,28,204,6638124,,,,,,,2024-11-26,1,,,,,オカダコウギョウショ,0
158,1150001027704,新規,0,2024-11-26,2024-11-26,ｎｉｒｖａｎａ株式会社,,株式会社,奈良県,奈良市,押熊町２１１－２０,,29,201,6310011,,,,,,,2024-11-26,1,,,,,ニルヴァーナ,0
176,1200001043167,新規,0,2024-11-26,2024-11-26,株式会社ＳＥＶＥＮ　ＥＩＧＨＴ,,株式会社,岐阜県,岐阜市,東鶉５丁目６番地８,,21,201,5008281,,,,,,,2024-11-26,1,,,,,セブンエイト,0
181,1240003006952,新規,0,2024-11-26,2024-11-26,ビジネスブースターズ合同会社,,合同会社,広島県,広島市西区,大芝２丁目１１番１０号,,34,104,7330001,,,,,,,2024-11-26,1,,,,,ビジネスブースターズ,0
182,1240005015860,新規,0,2024-11-26,2024-11-26,特定非営利活動法人ＭＡＧＩＣ　ＦＯＲ　ＥＶＥＲＹＯＮＥ,,その他の設立登記法人,広島県,福山市,多治米町２丁目１１番１号,,34,207,7200824,,,,,,,2024-11-26,1,,,,,マジックフオエブリイワン,0
187,1260001039671,新規,0,2024-11-26,2024-11-26,株式会社アップライン,,株式会社,岡山県,岡山市北区,庭瀬２６２番地１,,33,101,7010153,,,,,,,2024-11-26,1,,,,,アップライン,0
192,1270003001686,新規,0,2024-11-26,2024-11-26,合同会社エヌワイ,,合同会社,鳥取県,米子市,淀江町西原６２５番地１７,,31,202,6893403,,,,,,,2024-11-26,1,,,,,エヌワイ,0
198,1290001108085,新規,0,2024-11-26,2024-11-26,株式会社Ｍ＆Ｎ,,株式会社,福岡県,福岡市早良区,梅林７丁目３３－１２,,40,137,8140172,,,,,,,2024-11-26,1,,,,,エムアンドエヌ,0
199,1290001108119,新規,0,2024-11-26,2024-11-26,球一株式会社,,株式会社,福岡県,福岡市東区,箱崎４丁目３８番１７－３０５号,,40,131,8120053,,,,,,,2024-11-26,1,,,,,キュウイチ,0
207,1300003002202,新規,0,2024-11-26,2024-11-26,合同会社零斗,,合同会社,佐賀県,唐津市,浜玉町浜崎１１７１,,41,202,8495131,,,,,,,2024-11-26,1,,,,,レイト,0
216,1350005006270,新規,0,2024-11-26,2024-11-26,一般社団法人みやざき葬儀支援センター,,その他の設立登記法人,宮崎県,宮崎市,大字郡司分丙９８５２番地１８,,45,201,8800924,,,,,,,2024-11-26,1,,,,,ミヤザキソウギシエンセンター,0
217,1360001034472,新規,0,2024-11-26,2024-11-26,株式会社ＮＥＸＵＭ,,株式会社,沖縄県,中頭郡読谷村,字高志保１５９５－１,,47,324,9040323,,,,,,,2024-11-26,1,,,,,ネクサム,0
220,1370001051962,新規,0,2024-11-26,2024-11-26,株式会社ＬＵＸＵＳＴ,,株式会社,宮城県,仙台市青葉区,本町１丁目６番２３号インテリックス仙台ビル１０１号室,,04,101,9800014,,,,,,,2024-11-26,1,,,,,ルクススト,0
237,1430003017022,新規,0,2024-11-26,2024-11-26,合同会社アソシエ,,合同会社,北海道,札幌市北区,太平四条３丁目２番２９号,,01,102,0028004,,,,,,,2024-11-26,1,,,,,アソシエ,0
246,1700150127975,新規,0,2024-11-26,2024-11-26,Ｓｈｅｎｚｈｅｎｓｈｉｈｅｎｇｒｕｉｔａｉｄｉａｎｚｉｙｏｕｘｉａｎｇｏｎｇｓｉ,,外国会社等,,,,,,,,ｓｈｅｎｚｈｅｎｓｈｉ　ｂａｏａｎｑｕ　ｓｈｉｙａｎｊｉｅｄａｏ　ｌｕｏｚｕｓｈｅｑｕ　ｄｉｓａｎｇｏｎｇｙｅｑｕ６．７．８ｈａｏ　ｚｏｎｇｈｅｌｏｕ２０６,,,,,,2024-11-26,1,,,,,シンセンシヘンルイタイデンシユウゲンコウシ,0
252,2010001250186,新規,0,2024-11-26,2024-11-26,株式会社Ｊａｃｋｓ＆Ｃｏｍｐａｎｙ,,株式会社,東京都,中央区,東日本橋１丁目３番１５号馬渕ビル１階,,13,102,1030004,,,,,,,2024-11-26,1,,,,,ジャックスアンドカンパニー,0
253,2010001250194,新規,0,2024-11-26,2024-11-26,Ａ＆Ｓマネジメント株式会社,,株式会社,東京都,千代田区,内幸町２丁目１番１号飯野ビル９階クロスオフィス日比谷９３２,,13,101,1000011,,,,,,,2024-11-26,1,,,,,エイアンドエスマネジメント,0
256,2010003045551,新規,0,2024-11-26,2024-11-26,合同会社グリーンビルＰＪ３,,合同会社,東京都,中央区,日本橋１丁目４番１号,,13,102,1030027,,,,,,,2024-11-26,1,,,,,グリーンビルピージェイスリー,0
257,2010003045601,新規,0,2024-11-26,2024-11-26,合同会社Ｎａｇａｒｅ　Ｌｉｆｅ　Ｃｒａｆｔ,,合同会社,東京都,中央区,日本橋３丁目２番１４号新槇町ビル別館第一１階,,13,102,1030027,,,,,,,2024-11-26,1,,,,,ナガレライフクラフト,0
258,2010003045618,新規,0,2024-11-26,2024-11-26,フォーライクス合同会社,,合同会社,東京都,文京区,千駄木３丁目４３－３スペース千駄木９０１,,13,105,1130022,,,,,,,2024-11-26,1,,,,,フォーライクス,0
260,2010101016413,新規,0,2024-11-26,2024-11-26,株式会社Ｓｅａｓｏｎ,,株式会社,東京都,八王子市,万町２２番地５ＮＥＲＯ１０１号,,13,201,1920903,,,,,,,2024-11-26,1,,,,,シーズン,0
261,2010103002460,新規,0,2024-11-26,2024-11-26,合同会社しこみ,,合同会社,東京都,八王子市,堀之内１４０番地１１東山３３－１,,13,201,1920355,,,,,,,2024-11-26,1,,,,,シコミ,0
268,2010403033858,新規,0,2024-11-26,2024-11-26,合同会社ＦＭＳ,,合同会社,東京都,港区,白金１丁目２５番２１－１９０３号アトラスタワー白金レジデンシャル１９０３号室,,13,103,1080072,,,,,,,2024-11-26,1,,,,,エフエムエス,0
274,2010501053246,新規,0,2024-11-26,2024-11-26,株式会社ゆかり,,株式会社,東京都,台東区,上野７丁目１４番７－２０１号朝日サテライト上野,,13,106,1100005,,,,,,,2024-11-26,1,,,,,ユカリ,0
275,2010603011234,新規,0,2024-11-26,2024-11-26,合同会社ウリドットコム,,合同会社,東京都,墨田区,東向島１丁目１７番８号,,13,107,1310032,,,,,,,2024-11-26,1,,,,,ウリドットコム,0
276,2010703007462,新規,0,2024-11-26,2024-11-26,合同会社草野商店,,合同会社,東京都,品川区,二葉１丁目１４番２３号宮崎荘２０２,,13,109,1420043,,,,,,,2024-11-26,1,,,,,クサノショウテン,0
278,2010801035605,新規,0,2024-11-26,2024-11-26,株式会社フローレット,,株式会社,東京都,大田区,西蒲田７丁目４番４号６階,,13,111,1440051,,,,,,,2024-11-26,1,,,,,フローレット,0
281,2010901056278,新規,0,2024-11-26,2024-11-26,株式会社ｆｉｔｆｉｔ,,株式会社,東京都,世田谷区,用賀４丁目５番７号ｒｕｂｉｎｏｒｏｔｏｎｄａビル２階Ａ・Ｂ,,13,112,1580097,,,,,,,2024-11-26,1,,,,,フィットフィット,0
282,2010901056377,新規,0,2024-11-26,2024-11-26,株式会社Ｐｅｃｋｒｉｃｈ,,株式会社,東京都,世田谷区,用賀２丁目３２番８－２０４号,,13,112,1580097,,,,,,,2024-11-26,1,,,,,ペクリッチ,0
293,2011001165993,新規,0,2024-11-26,2024-11-26,ティアーズ株式会社,,株式会社,東京都,渋谷区,道玄坂１丁目１６－６二葉ビル８Ｂ,,13,113,1500043,,,,,,,2024-11-26,1,,,,,,0
294,2011001166125,新規,0,2024-11-26,2024-11-26,株式会社ＲＩＳＥ,,株式会社,東京都,渋谷区,桜丘町２６番１号セルリアンタワー１５階,,13,113,1500031,,,,,,,2024-11-26,1,,,,,ライズ,0
304,2011101109710,新規,0,2024-11-26,2024-11-26,株式会社ＤＡｗｏｒｋｓ,,株式会社,東京都,新宿区,西新宿６丁目５番１号新宿アイランドタワー２階,,13,104,1600023,,,,,,,2024-11-26,1,,,,,ディーエーワークス,0
308,2011103015205,新規,0,2024-11-26,2024-11-26,ＫＮＫ貿易合同会社,,合同会社,東京都,新宿区,百人町１丁目１８番８号大久保カドビル２階ＬｉｎｋＳｐａｃｅ百人町Ｃ０２号室,,13,104,1690073,,,,,,,2024-11-26,1,,,,,ケーエヌケーボウエキ,0
311,2011201025948,新規,0,2024-11-26,2024-11-26,Ｔｒｕｓｔ　Ｌｉｎｋ　Ｐａｒｔｎｅｒ株式会社,,株式会社,東京都,中野区,中野５丁目６７番７号プラザ中野８０１号室,,13,114,1640001,,,,,,,2024-11-26,1,,,,,トラストリンクパートナー,0
316,2011303005344,新規,0,2024-11-26,2024-11-26,合同会社Ｇｌｕｃｋ,,合同会社,東京都,杉並区,下井草３丁目３３番１６号ＳＡ－クロス下井草２－２０４,,13,115,1670022,,,,,,,2024-11-26,1,,,,,ジーラック,0
320,2011605002618,新規,0,2024-11-26,2024-11-26,ＴＳＦ協同組合,,その他の設立登記法人,東京都,練馬区,南田中１丁目４番９号,,13,120,1770035,,,,,,,2024-11-26,1,,,,,ティーエスエフ,0
321,2011701027840,新規,0,2024-11-26,2024-11-26,日本傾城株式会社,,株式会社,東京都,江戸川区,上一色３丁目８番６号平井ビル１Ｆ,,13,123,1330041,,,,,,,2024-11-26,1,,,,,ニホンケイセイ,0
330,2012803003556,新規,0,2024-11-26,2024-11-26,合同会社ＮＡＯ,,合同会社,東京都,立川市,錦町２丁目１番２８号ソシアルプラザ・クロスオーバービル２階Ｂ・Ｃ室,,13,202,1900022,,,,,,,2024-11-26,1,,,,,ナオ,0
345,2020001160277,新規,0,2024-11-26,2024-11-26,株式会社ＧＲＩＴ　ＷＯＲＫ,,株式会社,神奈川県,横浜市港北区,篠原町１１３４番地クレストパーク１０２号,,14,109,2220026,,,,,,,2024-11-26,1,,,,,グリットワーク,0
348,2020003027359,新規,0,2024-11-26,2024-11-26,川辻リアルティ合同会社,,合同会社,神奈川県,川崎市宮前区,鷺沼４丁目１番地８１,,14,136,2160004,,,,,,,2024-11-26,1,,,,,カワツジリアルティ,0
352,2021001083831,新規,0,2024-11-26,2024-11-26,株式会社ＰＬＳ,,株式会社,神奈川県,大和市,下鶴間１７８４―３４,,14,213,2420001,,,,,,,2024-11-26,1,,,,,ピーエルエス,0
357,2021003015270,新規,0,2024-11-26,2024-11-26,合同会社クローバーグラスファクトリー,,合同会社,神奈川県,藤沢市,小塚字前河内３９６番地,,14,205,2510013,,,,,,,2024-11-26,1,,,,,クローバーグラスファクトリー,0
388,2050002045945,新規,0,2024-11-26,2024-11-26,有限会社飯沼薬局,,有限会社,茨城県,結城市,大字結城１７９番地,,08,207,3070001,,,,,,,2024-11-26,1,,,,,イイヌマヤッキョク,0
395,2080101025151,新規,0,2024-11-26,2024-11-26,富士防疫ホールディングス株式会社,,株式会社,静岡県,富士市,前田字川原７２８番地,,22,210,4160937,,,,,,,2024-11-26,1,,,,,フジボウエキホールディングス,0
400,2100005013258,新規,0,2024-11-26,2024-11-26,一般社団法人信州農産販促協会,,その他の設立登記法人,長野県,安曇野市,豊科南穂高１７１７番地,,20,220,3998201,,,,,,,2024-11-26,1,,,,,シンシュウノウサンハンソクキョウカイ,0
401,2110001038869,新規,0,2024-11-26,2024-11-26,株式会社ＤＵＣＫＢＬＵＥパートナーズ,,株式会社,新潟県,新潟市中央区,南笹口１丁目１番３８号コープオリンピア８０８,,15,103,9500912,,,,,,,2024-11-26,1,,,,,ダックブルーパートナーズ,0
412,2120001270545,新規,0,2024-11-26,2024-11-26,晋興株式会社,,株式会社,大阪府,大阪市旭区,森小路１丁目３番２５号シャトー青山１０１号室,,27,117,5350013,,,,,,,2024-11-26,1,,,,,シンキョウ,0
413,2120001270553,新規,0,2024-11-26,2024-11-26,株式会社Ｗａｒａｉ,,株式会社,大阪府,大阪市天王寺区,悲田院町１番３８－１５０６号,,27,109,5430055,,,,,,,2024-11-26,1,,,,,ワライ,0
414,2120001270603,新規,0,2024-11-26,2024-11-26,株式会社ＭＹプランニング,,株式会社,大阪府,大阪市北区,天神橋２丁目４番１７号,,27,127,5300041,,,,,,,2024-11-26,1,,,,,エムワイプランニング,0
416,2120005024633,新規,0,2024-11-26,2024-11-26,一般社団法人ＪＭＨ,,その他の設立登記法人,大阪府,大阪市北区,梅田１丁目１番３号大阪駅前第３ビル２３０７号,,27,127,5300001,,,,,,,2024-11-26,1,,,,,ジェイエムエッチ,0
420,2120101070622,新規,0,2024-11-26,2024-11-26,ＧＬＯＢＡＬ　ＣＯＬＯＲ株式会社,,株式会社,大阪府,富田林市,寺池台３丁目９番３３号,,27,214,5840073,,,,,,,2024-11-26,1,,,,,グローバルカラー,0
421,2120101070647,新規,0,2024-11-26,2024-11-26,Ｍｉｒａｉｅ‐ｈｏｍｅ株式会社,,株式会社,大阪府,河内長野市,南青葉台２番３３号,,27,216,5860067,,,,,,,2024-11-26,1,,,,,ミライエホーム,0
422,2120101070655,新規,0,2024-11-26,2024-11-26,株式会社ｓｈｉｍｍｅｒ,,株式会社,大阪府,堺市東区,北野田１０００番地１１３,,27,143,5998123,,,,,,,2024-11-26,1,,,,,シマー,0
423,2120103006161,新規,0,2024-11-26,2024-11-26,合同会社ＶＥＮＵＳ,,合同会社,大阪府,貝塚市,新町５番１２号,,27,208,5970002,,,,,,,2024-11-26,1,,,,,ヴィーナス,0
426,2120901050071,新規,0,2024-11-26,2024-11-26,株式会社ＭＧＡ,,株式会社,大阪府,茨木市,天王２丁目７番１７号サンエイビル２０５,,27,211,5670876,,,,,,,2024-11-26,1,,,,,エムジーエー,0
429,2130001078426,新規,0,2024-11-26,2024-11-26,株式会社ＷＩＮＧＳコーポレーション,,株式会社,京都府,京田辺市,河原里ノ内７１番地４,,26,211,6100361,,,,,,,2024-11-26,1,,,,,ウイングスコーポレーション,0
430,2130001078434,新規,0,2024-11-26,2024-11-26,株式会社ＳＫコラボ,,株式会社,京都府,木津川市,加茂町里中門伝３５番地３,,26,214,6191152,,,,,,,2024-11-26,1,,,,,エスケーコラボ,0
431,2130001078442,新規,0,2024-11-26,2024-11-26,株式会社Ｎｕｍｂｅｒ,,株式会社,京都府,宇治市,南陵町３丁目１３番地２８,,26,204,6110028,,,,,,,2024-11-26,1,,,,,ナンバー,0
440,2140003021358,新規,0,2024-11-26,2024-11-26,Ｋ‐ｐｒｉｎｔ合同会社,,合同会社,兵庫県,神戸市中央区,港島南町５丁目４番地８,,28,110,6500047,,,,,,,2024-11-26,1,,,,,ケープリント,0
451,2180001164320,新規,0,2024-11-26,2024-11-26,株式会社Ｖｉｓｉｏｎ,,株式会社,愛知県,名古屋市千種区,井上町３８,,23,101,4640026,,,,,,,2024-11-26,1,,,,,ヴィジョン,0
452,2180001164337,新規,0,2024-11-26,2024-11-26,株式会社Ｔｈｒｅｅｌｉｎｅｓ　Ｃｏｎｓｕｌｔｉｎｇ,,株式会社,愛知県,大府市,柊山町７丁目２２７番地,,23,223,4740053,,,,,,,2024-11-26,1,,,,,スリーラインズコンサルティング,0
462,2200001043166,新規,0,2024-11-26,2024-11-26,Ｄｅｅｐ　Ｌａｂｏ株式会社,,株式会社,岐阜県,揖斐郡大野町,大字桜大門６０２番地３,,21,403,5010515,,,,,,,2024-11-26,1,,,,,ディープラボ,0
467,2230001020633,新規,0,2024-11-26,2024-11-26,株式会社Ａｒｃ,,株式会社,富山県,富山市,五福４５５８番地１Ｇ‐ＢＡＳＥ３０５,,16,201,9300887,,,,,,,2024-11-26,1,,,,,アーク,0
468,2230005009425,新規,0,2024-11-26,2024-11-26,一般社団法人演劇集団富山舞台,,その他の設立登記法人,富山県,富山市,日方江字屋敷割１０７０番地,,16,201,9318416,,,,,,,2024-11-26,1,,,,,エンゲキシュウダントヤマブタイ,0
469,2240001064142,新規,0,2024-11-26,2024-11-26,株式会社サントレイデイング,,株式会社,広島県,福山市,三之丸町９番１８号,,34,207,7200066,,,,,,,2024-11-26,1,,,,,サントレイデイング,0
470,2240001064159,新規,0,2024-11-26,2024-11-26,株式会社ニューアド,,株式会社,広島県,広島市中区,舟入南３丁目２番１号,,34,101,7300847,,,,,,,2024-11-26,1,,,,,ニューアド,0
481,2260002034571,新規,0,2024-11-26,2024-11-26,有限会社丸ふじ商店,,有限会社,岡山県,都窪郡早島町,大字前潟６０４番地１６,,33,423,7010300,,,,,,,2024-11-26,1,,,,,マルフジショウテン,0
486,2290001108084,新規,0,2024-11-26,2024-11-26,世大通商株式会社,,株式会社,福岡県,福岡市博多区,祇園町２番２４－１０６号ルエメゾンロワール祇園,,40,132,8120038,,,,,,,2024-11-26,1,,,,,セダイツウショウ,0
487,2290001108092,新規,0,2024-11-26,2024-11-26,株式会社セラヴィ,,株式会社,福岡県,福岡市中央区,高砂１丁目１２番１７号１Ｆ,,40,133,8100011,,,,,,,2024-11-26,1,,,,,セラヴィ,0
488,2290001108101,新規,0,2024-11-26,2024-11-26,捷高設計株式会社,,株式会社,福岡県,福岡市博多区,博多駅前４丁目３３－７ロマネスク博多駅前４１７,,40,132,8120011,,,,,,,2024-11-26,1,,,,,ショウコウセッケイ,0
489,2290001108118,新規,0,2024-11-26,2024-11-26,株式会社ＲＩＳＥ,,株式会社,福岡県,福岡市博多区,博多駅前１丁目２３番２号ＰａｒｋＦｒｏｎｔ博多駅前１丁目５Ｆ－Ｂ,,40,132,8120011,,,,,,,2024-11-26,1,,,,,ライズ,0
494,2290801031064,新規,0,2024-11-26,2024-11-26,株式会社イーストアース,,株式会社,福岡県,北九州市八幡西区,船越３丁目６番６号,,40,109,8071111,,,,,,,2024-11-26,1,,,,,イーストアース,0
517,2430001093139,新規,0,2024-11-26,2024-11-26,ささき設備株式会社,,株式会社,北海道,樺戸郡月形町,１０２５番地１５,,01,430,0610500,,,,,,,2024-11-26,1,,,,,ササキセツビ,0
519,2430003017013,新規,0,2024-11-26,2024-11-26,プラス・オン合同会社,,合同会社,北海道,滝川市,本町３丁目７番２３号,,01,225,0730021,,,,,,,2024-11-26,1,,,,,プラスオン,0
520,2430003017021,新規,0,2024-11-26,2024-11-26,合同会社サンク,,合同会社,北海道,札幌市中央区,南二条西３丁目２０番地－２８０２号,,01,101,0600062,,,,,,,2024-11-26,1,,,,,サンク,0
528,2700150127974,新規,0,2024-11-26,2024-11-26,Ｃｈｒｏｍａｌｌｏｙ　Ｇａｓ　Ｔｕｒｂｉｎｅ　ＬＬＣ,,外国会社等,東京都,港区,海岸１丁目７番１号東京ポートシティ竹芝オフィスタワー８階,,13,103,1050022,アメリカ合衆国３３４１０フロリダ州パームビーチガーデンズ、ＲＣＡブールバード４１００,,,,,,2024-11-26,1,,,,,クロマロイガスタービンエルエルシー,0
535,3010001250185,新規,0,2024-11-26,2024-11-26,株式会社４Ｌｉｆｅ,,株式会社,東京都,中央区,銀座１丁目２２番１１号銀座大竹ビジデンス２Ｆ,,13,102,1040061,,,,,,,2024-11-26,1,,,,,フォーライフ,0
536,3010001250193,新規,0,2024-11-26,2024-11-26,株式会社オールザタイム,,株式会社,東京都,中央区,日本橋小舟町３番４号第二ナカビル２Ｆ,,13,102,1030024,,,,,,,2024-11-26,1,,,,,オールザタイム,0
537,3010001250219,新規,0,2024-11-26,2024-11-26,株式会社ＯＧＥＵＮＮＡＥ　ＪＡＰＡＮ,,株式会社,東京都,中央区,日本橋小舟町４番７号,,13,102,1030024,,,,,,,2024-11-26,1,,,,,オグンネジャパン,0
538,3010003045526,新規,0,2024-11-26,2024-11-26,ライズ合同会社,,合同会社,東京都,千代田区,神田和泉町１番地６－１６ヤマトビル４０５,,13,101,1010024,,,,,,,2024-11-26,1,,,,,ライズ,0
539,3010003045609,新規,0,2024-11-26,2024-11-26,合同会社ウェルビーイングデザイン,,合同会社,東京都,文京区,西片２丁目１１番１号メゾン西片町,,13,105,1130024,,,,,,,2024-11-26,1,,,,,ウェルビーイングデザイン,0
540,3010005039170,新規,0,2024-11-26,2024-11-26,一般社団法人ＵＩＶ２,,その他の設立登記法人,東京都,千代田区,丸の内２丁目１番１号,,13,101,1000005,,,,,,,2024-11-26,1,,,,,ユーアイヴィツー,0
547,3010401186582,新規,0,2024-11-26,2024-11-26,株式会社ＧＪ２,,株式会社,東京都,港区,虎ノ門１丁目３番１号,,13,103,1050001,,,,,,,2024-11-26,1,,,,,ジージェーニ,0
548,3010401186632,新規,0,2024-11-26,2024-11-26,株式会社ｅｅｌｕｐ,,株式会社,東京都,港区,六本木２丁目４－９ＴＲＵＳＴＶＡＬＵＥ六本木３階,,13,103,1060032,,,,,,,2024-11-26,1,,,,,イールアップ,0
550,3010405023807,新規,0,2024-11-26,2024-11-26,一般社団法人７ｃＡＲＣ,,その他の設立登記法人,東京都,港区,西新橋３丁目５番２号,,13,103,1050003,,,,,,,2024-11-26,1,,,,,セブンシーアーク,0
552,3010501053253,新規,0,2024-11-26,2024-11-26,株式会社インフィニワークス,,株式会社,東京都,台東区,根岸２丁目２０番１０号シルバードビル５階,,13,106,1100003,,,,,,,2024-11-26,1,,,,,インフィニワークス,0
556,3010701046858,新規,0,2024-11-26,2024-11-26,株式会社ＳＰＥ，Ｓ,,株式会社,東京都,品川区,西五反田２丁目１３－１,,13,109,1410031,,,,,,,2024-11-26,1,,,,,スペス,0
558,3010801035604,新規,0,2024-11-26,2024-11-26,株式会社ＮｅｘｔＡｕｒａ,,株式会社,東京都,大田区,南蒲田１丁目８番１９号１０２,,13,111,1440035,,,,,,,2024-11-26,1,,,,,ネクストオーラ,0
559,3010801035612,新規,0,2024-11-26,2024-11-26,株式会社ＥＧＧＨＥＡＤ,,株式会社,東京都,大田区,南六郷３丁目１０－１６六郷ＢＡＳＥ,,13,111,1440045,,,,,,,2024-11-26,1,,,,,エッグヘッド,0
562,3010803005175,新規,0,2024-11-26,2024-11-26,合同会社Ｌｉｂｅｒｔｙ,,合同会社,東京都,大田区,石川町１丁目１５－１１フラットカジマヤ２０１,,13,111,1450061,,,,,,,2024-11-26,1,,,,,リバティ,0
572,3011001165951,新規,0,2024-11-26,2024-11-26,株式会社ＧｒｏｗｔｈＰａｔｈ,,株式会社,東京都,渋谷区,道玄坂１丁目１０番８号渋谷道玄坂東急ビル２Ｆ－Ｃ,,13,113,1500043,,,,,,,2024-11-26,1,,,,,グロースパス,0
573,3011001165992,新規,0,2024-11-26,2024-11-26,株式会社ＲＩＤＯＳ,,株式会社,東京都,渋谷区,神宮前６丁目１７番１１号,,13,113,1500001,,,,,,,2024-11-26,1,,,,,リドス,0
577,3011003020452,新規,0,2024-11-26,2024-11-26,合同会社Ｉｎｓｔａｎｓｙｓ,,合同会社,東京都,目黒区,中町１丁目８番２２号,,13,110,1530065,,,,,,,2024-11-26,1,,,,,インスタンシス,0
579,3011005010781,新規,0,2024-11-26,2024-11-26,一般社団法人日本ゴルフプロデュース協会,,その他の設立登記法人,東京都,渋谷区,西原３丁目３２番５号ソラティオ１階,,13,113,1510066,,,,,,,2024-11-26,1,,,,,ニホンゴルフプロデュース,0
588,3011401026613,新規,0,2024-11-26,2024-11-26,株式会社ＬＵＡＣＥＧＲＯＵＰ,,株式会社,東京都,板橋区,清水町１１番１号,,13,119,1740053,,,,,,,2024-11-26,1,,,,,ルースグループ,0
594,3011701027856,新規,0,2024-11-26,2024-11-26,株式会社ｃｒｅａｔｉｏｎ,,株式会社,東京都,江戸川区,篠崎町２丁目３番２３号橘ビル３０１,,13,123,1330061,,,,,,,2024-11-26,1,,,,,クリエイション,0
598,3011801045213,新規,0,2024-11-26,2024-11-26,株式会社栄創,,株式会社,東京都,葛飾区,新小岩１丁目３８番４号５０１号,,13,122,1240024,,,,,,,2024-11-26,1,,,,,エイソウ,0
599,3011801045221,新規,0,2024-11-26,2024-11-26,株式会社Ｃｏｕｎｔｒｙ,,株式会社,東京都,足立区,神明３丁目３０番２７号,,13,121,1210051,,,,,,,2024-11-26,1,,,,,,0
605,3012803003555,新規,0,2024-11-26,2024-11-26,合同会社ＣＲＥＡＴＯＲＥ,,合同会社,東京都,立川市,錦町２丁目１－３アレックスＩＣＨＩＧＯ－Ｍ１ビル４階,,13,202,1900022,,,,,,,2024-11-26,1,,,,,クレアトーレ,0
606,3012805003297,新規,0,2024-11-26,2024-11-26,一般社団法人ＡｕＰａｉｒ　ｉｎ　Ｊａｐａｎ,,その他の設立登記法人,東京都,立川市,砂川町２丁目２４番地の６,,13,202,1900031,,,,,,,2024-11-26,1,,,,,オペアインジャパン,0
608,3013301053423,新規,0,2024-11-26,2024-11-26,和金株式会社,,株式会社,東京都,豊島区,池袋本町２丁目３２番３号－Ａ１０６,,13,116,1700011,,,,,,,2024-11-26,1,,,,,ワキン,0
617,3020003027317,新規,0,2024-11-26,2024-11-26,合同会社ことほぎ創研,,合同会社,神奈川県,横浜市神奈川区,菅田町３５８ストリームヒルズ２２７,,14,102,2210864,,,,,,,2024-11-26,1,,,,,コトホギソウケン,0
620,3021001083822,新規,0,2024-11-26,2024-11-26,株式会社石垣プロジェクト,,株式会社,神奈川県,厚木市,上荻野４４６９番地１１,,14,212,2430201,,,,,,,2024-11-26,1,,,,,イシガキプロジェクト,0
622,3021003015278,新規,0,2024-11-26,2024-11-26,合同会社そらまめ,,合同会社,神奈川県,藤沢市,片瀬山４丁目１３番１号,,14,205,2510033,,,,,,,2024-11-26,1,,,,,ソラマメ,0
636,3040003026259,新規,0,2024-11-26,2024-11-26,合同会社ロハスグリーン,,合同会社,千葉県,野田市,山崎１４２６－１、１号室,,12,208,2780022,,,,,,,2024-11-26,1,,,,,ロハスグリーン,0
638,3050001055779,新規,0,2024-11-26,2024-11-26,株式会社ノミネート,,株式会社,茨城県,牛久市,南３丁目６番１,,08,219,3001222,,,,,,,2024-11-26,1,,,,,ノミネート,0
648,3070001042395,新規,0,2024-11-26,2024-11-26,株式会社清水興業,,株式会社,群馬県,佐波郡玉村町,大字下之宮３９２番地１６,,10,464,3701112,,,,,,,2024-11-26,1,,,,,シミズコウギョウ,0
665,3110003005585,新規,0,2024-11-26,2024-11-26,ｃａｒｅ　ｙｏｕｔｈ合同会社,,合同会社,新潟県,燕市,秋葉町３丁目１４番１９‐５号,,15,213,9591261,,,,,,,2024-11-26,1,,,,,ケアユース,0
676,3120001270585,新規,0,2024-11-26,2024-11-26,株式会社ニシダヤ,,株式会社,大阪府,大阪市西区,京町堀１丁目６番１２号,,27,106,5500003,,,,,,,2024-11-26,1,,,,,ニシダヤ,0
679,3120003028024,新規,0,2024-11-26,2024-11-26,合同会社Ｈｏｎｅｙ　Ｂｅｅ,,合同会社,大阪府,大阪市西成区,山王２丁目１０番２６号,,27,122,5570001,,,,,,,2024-11-26,1,,,,,ハニービー,0
681,3120101070646,新規,0,2024-11-26,2024-11-26,株式会社ＢｌｕｅＳｔａｒｓ,,株式会社,大阪府,岸和田市,葛城町８６７番地の３１,,27,202,5960824,,,,,,,2024-11-26,1,,,,,ブルースターズ,0
685,3130001078417,新規,0,2024-11-26,2024-11-26,ウォームスライフ株式会社,,株式会社,京都府,福知山市,三和町辻２５番地の１,00137146,26,201,6201431,,,,,,,2024-11-26,1,,,,,ウォームスライフ,0
686,3130001078425,新規,0,2024-11-26,2024-11-26,樹興業株式会社,,株式会社,京都府,城陽市,寺田大川原２０番地の１６,,26,207,6100121,,,,,,,2024-11-26,1,,,,,イツキコウギョウ,0
687,3130001078433,新規,0,2024-11-26,2024-11-26,宏晟株式会社,,株式会社,京都府,京都市上京区,五辻町８２番地,,26,102,6028446,,,,,,,2024-11-26,1,,,,,ヒロアキ,0
690,3130003010030,新規,0,2024-11-26,2024-11-26,天府商事合同会社,,合同会社,京都府,京都市東山区,上梅屋町１６２番地メゾンロビ１Ｃ,,26,105,6050876,,,,,,,2024-11-26,1,,,,,テンフショウジ,0
692,3140001136545,新規,0,2024-11-26,2024-11-26,株式会社Ｓ＆Ｃ,,株式会社,兵庫県,伊丹市,中野西１丁目１３７－７ＫＯＹＡ－ＢＡＳＥ０４号室,,28,207,6640023,,,,,,,2024-11-26,1,,,,,エスアンドシー,0
697,3140005027286,新規,0,2024-11-26,2024-11-26,一般社団法人健康美容推進協会,,その他の設立登記法人,兵庫県,西宮市,北六甲台５丁目２７番１号,,28,204,6511413,,,,,,,2024-11-26,1,,,,,ケンコウビヨウスイシンキョウカイ,0
701,3170003002131,新規,0,2024-11-26,2024-11-26,合同会社ｕｉｄ,,合同会社,和歌山県,岩出市,野上野１５－３,,30,209,6496216,,,,,,,2024-11-26,1,,,,,ウイド,0
727,3230005009424,新規,0,2024-11-26,2024-11-26,特定非営利活動法人杉本家と戸出の歴史まちづくりの会,,その他の設立登記法人,富山県,高岡市,戸出町２丁目８番３４号,,16,202,9391104,,,,,,,2024-11-26,1,,,,,スギモトケトトイデノレキシマチヅクリノカイ,0
737,3290001108067,新規,0,2024-11-26,2024-11-26,目電気設備株式会社,,株式会社,福岡県,大野城市,乙金東１丁目１９番１０号,,40,219,8160901,,,,,,,2024-11-26,1,,,,,サッカデンキセツビ,0
738,3290001108083,新規,0,2024-11-26,2024-11-26,エィティアンドティ株式会社,,株式会社,福岡県,三潴郡大木町,大字八町牟田１２９４番地,,40,522,8300416,,,,,,,2024-11-26,1,,,,,エィティアンドティ,0
739,3290001108091,新規,0,2024-11-26,2024-11-26,株式会社Ｗａｌｄ,,株式会社,福岡県,大野城市,若草１丁目６番１１号,,40,219,8160981,,,,,,,2024-11-26,1,,,,,ウォルド,0
760,3370001051969,新規,0,2024-11-26,2024-11-26,東北ケミックス株式会社,,株式会社,宮城県,仙台市泉区,高森１丁目１番地の３１０－１０１号,,04,105,9813203,,,,,,,2024-11-26,1,,,,,トウホクケミックス,0
771,3430001093138,新規,0,2024-11-26,2024-11-26,株式会社近藤工業,,株式会社,北海道,札幌市北区,屯田三条５丁目１１番２号,,01,102,0020853,,,,,,,2024-11-26,1,,,,,コンドウコウギョウ,0
777,3500005008745,新規,0,2024-11-26,2024-11-26,医療法人なのはなこども医院,,その他の設立登記法人,愛媛県,伊予市,下吾川１００２番１,,38,210,7993111,,,,,,,2024-11-26,1,,,,,ナノハナコドモイイン,0
779,3700150127973,新規,0,2024-11-26,2024-11-26,玖希（嘉興市）電子商務有限責任公司,,外国会社等,,,,,,,,中国浙江省嘉興市経済技術開発区スイ李路２６６２号３０７室０１２号工位,,,,,,2024-11-26,1,,,,,キュウキカコウシデンシショウムユウゲンセキニンコウシ,0
794,4010001250119,新規,0,2024-11-26,2024-11-26,株式会社Ｔ．Ｍ．Ｃ．,,株式会社,東京都,中央区,八丁堀４丁目１－３安和宝町ビル３０２,,13,102,1040032,,,,,,,2024-11-26,1,,,,,ティーエムシー,0
795,4010001250151,新規,0,2024-11-26,2024-11-26,株式会社エスコンセプト,,株式会社,東京都,千代田区,四番町２番地２パレスビュー四番町９０２号,,13,101,1020081,,,,,,,2024-11-26,1,,,,,エスコンセプト,0
796,4010001250184,新規,0,2024-11-26,2024-11-26,株式会社ロングストーンパートナーズ,,株式会社,東京都,中央区,銀座１丁目１２番４号Ｎ＆Ｅ・ＢＬＤ６Ｆ,,13,102,1040061,,,,,,,2024-11-26,1,,,,,ロングストーンパートナーズ,0
797,4010001250250,新規,0,2024-11-26,2024-11-26,奥林生活株式会社,,株式会社,東京都,文京区,千石４丁目１４番９号,,13,105,1120011,,,,,,,2024-11-26,1,,,,,オウリンセイカツ,0
801,4010003045599,新規,0,2024-11-26,2024-11-26,ｂｕｅｎａ合同会社,,合同会社,東京都,中央区,日本橋堀留町１丁目１番６－７０４号,,13,102,1030012,,,,,,,2024-11-26,1,,,,,ブエナ,0
802,4010003045608,新規,0,2024-11-26,2024-11-26,合同会社ＨｉＪｏＪｏ．ｃｏｍ１６,,合同会社,東京都,千代田区,霞が関３丁目２番５号,,13,101,1000013,,,,,,,2024-11-26,1,,,,,ヒジョージョードットコムシックスティン,0
811,4010401186615,新規,0,2024-11-26,2024-11-26,株式会社８０２８Ｇｌｏｂａｌ　Ｉｎｃ．,,株式会社,東京都,港区,芝浦３丁目４番２号グランパークハイツ１７０４,,13,103,1080023,,,,,,,2024-11-26,1,,,,,ハチマルニーハチグローバルインク,0
812,4010401186623,新規,0,2024-11-26,2024-11-26,Ｎｅｕｒｉｘ株式会社,,株式会社,東京都,港区,赤坂３丁目１２－１３アミューズビル６Ｆ,,13,103,1070052,,,,,,,2024-11-26,1,,,,,ニューリクッス,0
817,4010703007469,新規,0,2024-11-26,2024-11-26,合同会社Ｄｙｎｅｌ,,合同会社,東京都,品川区,北品川５丁目９番２７－４０４号,,13,109,1410001,,,,,,,2024-11-26,1,,,,,ダイネル,0
821,4010803005174,新規,0,2024-11-26,2024-11-26,Ｂｌｕｅ　Ｃａｐ合同会社,,合同会社,東京都,大田区,大森西１丁目１４番２５号,,13,111,1430015,,,,,,,2024-11-26,1,,,,,ブルーキャップ,0
822,4010901056359,新規,0,2024-11-26,2024-11-26,株式会社オーシス,,株式会社,東京都,世田谷区,成城３丁目８番１７号,,13,112,1570066,,,,,,,2024-11-26,1,,,,,オーシス,0
823,4010903009521,新規,0,2024-11-26,2024-11-26,合同会社夏至舎,,合同会社,東京都,世田谷区,赤堤５丁目３３番２１号コーポトミミツ２０２,,13,112,1560044,,,,,,,2024-11-26,1,,,,,ゲシシャ,0
832,4011001165959,新規,0,2024-11-26,2024-11-26,ＤＯＲＤＩ株式会社,,株式会社,東京都,渋谷区,恵比寿西２丁目４番８号ウィンド恵比寿ビル８Ｆ,,13,113,1500021,,,,,,,2024-11-26,1,,,,,ドルディ,0
833,4011001165975,新規,0,2024-11-26,2024-11-26,株式会社コポリデータ,,株式会社,東京都,渋谷区,渋谷２丁目１９－１５宮益坂ビルディング６０９,,13,113,1500002,,,,,,,2024-11-26,1,,,,,コポリデータ,0
840,4011201001674,新規,0,2024-11-26,2024-11-26,江南ハウジング株式会社,,株式会社,東京都,中野区,本町６丁目１２番１１号,,13,114,1640012,,,,,,,2024-11-26,1,,,,,,0
845,4011601028227,新規,0,2024-11-26,2024-11-26,株式会社ＮｅｘｔＧｅｎｓ,,株式会社,東京都,練馬区,北町２丁目２９番１０号６０１,,13,120,1790081,,,,,,,2024-11-26,1,,,,,ネクストジンズ,0
852,4011801045212,新規,0,2024-11-26,2024-11-26,株式会社ＺＥＮ,,株式会社,東京都,葛飾区,奥戸７丁目２０番２０－５０６号グラン青砥,,13,122,1240022,,,,,,,2024-11-26,1,,,,,ゼン,0
853,4011801045220,新規,0,2024-11-26,2024-11-26,株式会社Ｌｉｎｏａ,,株式会社,東京都,足立区,古千谷本町２丁目１２番１８号,,13,121,1210832,,,,,,,2024-11-26,1,,,,,リノア,0
855,4011803006567,新規,0,2024-11-26,2024-11-26,合同会社ＳＵＣホールディングス,,合同会社,東京都,足立区,東伊興４丁目９番１７号,,13,121,1210801,,,,,,,2024-11-26,1,,,,,エスユーシーホールディングス,0
857,4012401042491,新規,0,2024-11-26,2024-11-26,Ｏｋａｍｉ　Ｐｒｏｄｕｃｔｉｏｎ株式会社,,株式会社,東京都,三鷹市,下連雀３丁目２番７号ゲン・ハイム１０１号,,13,204,1810013,,,,,,,2024-11-26,1,,,,,オオカミプロダクション,0
858,4012803003546,新規,0,2024-11-26,2024-11-26,合同会社正直ラボ,,合同会社,東京都,国分寺市,東元町１丁目２０－１６,,13,214,1850022,,,,,,,2024-11-26,1,,,,,ショウジキラボ,0
861,4013301053414,新規,0,2024-11-26,2024-11-26,株式会社Ｓｈａｎｇｈａｉホールディングス,,株式会社,東京都,豊島区,北大塚１丁目１８番１１号大塚ＫＹビル３階,,13,116,1700004,,,,,,,2024-11-26,1,,,,,シャンハイホールディングス,0
862,4013301053422,新規,0,2024-11-26,2024-11-26,株式会社ＳＡＫＵＲＡ,,株式会社,東京都,豊島区,高松２丁目５３番８号,,13,116,1710042,,,,,,,2024-11-26,1,,,,,サクラ,0
863,4013301053430,新規,0,2024-11-26,2024-11-26,株式会社ＳＫ企画,,株式会社,東京都,豊島区,西池袋３丁目１７番１６－１０３号,,13,116,1710021,,,,,,,2024-11-26,1,,,,,エスケーキカク,0
865,4013305003670,新規,0,2024-11-26,2024-11-26,一般社団法人池袋エリプラサポート,,その他の設立登記法人,東京都,豊島区,東池袋３丁目１番１号,,13,116,1700013,,,,,,,2024-11-26,1,,,,,イケブクロエリプラサポート,0
881,4021003015277,新規,0,2024-11-26,2024-11-26,キャリアエッセンス合同会社,,合同会社,神奈川県,伊勢原市,石田８６１－１テレパレス伊勢原５－５０２,,14,214,2591116,,,,,,,2024-11-26,1,,,,,キャリアエッセンス,0
884,4030001163599,新規,0,2024-11-26,2024-11-26,株式会社クジラ音響研究所,,株式会社,埼玉県,川越市,新宿町１丁目１１番地５,,11,201,3501124,,,,,,,2024-11-26,1,,,,,クジラオンキョウケンキュウジョ,0
885,4030001163608,新規,0,2024-11-26,2024-11-26,株式会社大翔企画,,株式会社,埼玉県,春日部市,神間１１５９番地,,11,214,3440132,,,,,,,2024-11-26,1,,,,,ダイトキカク,0
886,4030001163632,新規,0,2024-11-26,2024-11-26,株式会社Ｈａｐｐｙ　Ｌａｄｙｂｕｇ,,株式会社,埼玉県,さいたま市浦和区,岸町１丁目１番１４号,,11,107,3300064,,,,,,,2024-11-26,1,,,,,ハッピーレディーバグ,0
900,4050001055753,新規,0,2024-11-26,2024-11-26,株式会社Ｔ＆Ｎ,,株式会社,茨城県,取手市,東６丁目１６番２号,,08,217,3020005,,,,,,,2024-11-26,1,,,,,ティーアンドエヌ,0
901,4050003008841,新規,0,2024-11-26,2024-11-26,合同会社Ｊ．Ｊ．Ａ,,合同会社,茨城県,つくばみらい市,中平柳１１１６番地２,,08,235,3002334,,,,,,,2024-11-26,1,,,,,ジェイジェイエー,0
903,4050005013526,新規,0,2024-11-26,2024-11-26,特定非営利活動法人となりのひろば,,その他の設立登記法人,茨城県,筑西市,嘉家佐和２０９９－２,,08,227,3080837,,,,,,,2024-11-26,1,,,,,トナリノヒロバ,0
906,4070001042394,新規,0,2024-11-26,2024-11-26,サイトウ株式会社,,株式会社,群馬県,邑楽郡大泉町,大字吉田１０７１番地１６,,10,524,3700523,,,,,,,2024-11-26,1,,,,,サイトウ,0
921,4120001270519,新規,0,2024-11-26,2024-11-26,株式会社ヴェーラ,,株式会社,大阪府,大阪市平野区,長吉長原西１丁目３－６,,27,126,5470015,,,,,,,2024-11-26,1,,,,,ヴェーラ,0
922,4120001270527,新規,0,2024-11-26,2024-11-26,株式会社Ｐ１Ａｃｅｓ　Ｔｏｂｙｅ,,株式会社,大阪府,大阪市中央区,天満橋京町３番３－８０３号,,27,128,5400032,,,,,,,2024-11-26,1,,,,,プレイシーズトビー,0
923,4120001270535,新規,0,2024-11-26,2024-11-26,東葉株式会社,,株式会社,大阪府,大阪市住之江区,東加賀屋４丁目５－１６,,27,125,5590012,,,,,,,2024-11-26,1,,,,,トウヨウ,0
924,4120001270568,新規,0,2024-11-26,2024-11-26,株式会社正陽,,株式会社,大阪府,大阪市浪速区,桜川４丁目９番６号,,27,111,5560022,,,,,,,2024-11-26,1,,,,,セイヨウ,0
933,4120101070653,新規,0,2024-11-26,2024-11-26,株式会社ＴＹＫＭ,,株式会社,大阪府,堺市西区,鳳中町１０丁１４番地３プレセランス１０１号室,,27,144,5938327,,,,,,,2024-11-26,1,,,,,ティーワイケーエム,0
935,4120901050078,新規,0,2024-11-26,2024-11-26,株式会社Ａ‐Ｃｏｎｎｅｃｔｉｏｎ,,株式会社,大阪府,箕面市,粟生間谷西３丁目４番１２号,,27,220,5620023,,,,,,,2024-11-26,1,,,,,エーコネクション,0
936,4120901050086,新規,0,2024-11-26,2024-11-26,エムナース株式会社,,株式会社,大阪府,豊中市,上新田２丁目３番２３‐２０５号,,27,203,5600085,,,,,,,2024-11-26,1,,,,,エムナース,0
938,4122002003576,新規,0,2024-11-26,2024-11-26,豊原金属有限会社,,有限会社,大阪府,東大阪市,衣摺２丁目１６番２０号,00137060,27,227,5770827,,,,,,,2024-11-26,1,,,,,トヨハラキンゾク,0
943,4130001078432,新規,0,2024-11-26,2024-11-26,株式会社Ｄ．Ｏ．Ｃ,,株式会社,京都府,南丹市,園部町横田２号６６番地,,26,213,6220051,,,,,,,2024-11-26,1,,,,,ドック,0
944,4130001078440,新規,0,2024-11-26,2024-11-26,岩山テック株式会社,,株式会社,京都府,京都市伏見区,深草大亀谷東寺町８０番地１５,,26,109,6120848,,,,,,,2024-11-26,1,,,,,イワヤマテック,0
949,4140001136528,新規,0,2024-11-26,2024-11-26,株式会社Ｓ　ｃｕｂｅ,,株式会社,兵庫県,宝塚市,安倉西３丁目４４３番地の１２,,28,214,6650825,,,,,,,2024-11-26,1,,,,,エスキューブ,0
950,4140001136536,新規,0,2024-11-26,2024-11-26,株式会社ＲＴ,,株式会社,兵庫県,西宮市,松山町２番２９号,,28,204,6638101,,,,,,,2024-11-26,1,,,,,アールティー,0
951,4140003021348,新規,0,2024-11-26,2024-11-26,ムース合同会社,,合同会社,兵庫県,高砂市,荒井町小松原４丁目１０４８－３,,28,216,6760011,,,,,,,2024-11-26,1,,,,,ムース,0
952,4140005027277,新規,0,2024-11-26,2024-11-26,一般社団法人地域コミュニティ会計サポートセンター,,その他の設立登記法人,兵庫県,川西市,小花１丁目９番１号３階,,28,217,6660015,,,,,,,2024-11-26,1,,,,,チイキコミュニティカイケイサポートセンター,0
962,4190001031831,新規,0,2024-11-26,2024-11-26,株式会社ブレイク・ワン,,株式会社,三重県,津市,下弁財町津興８２０番地２,,24,201,5140805,,,,,,,2024-11-26,1,,,,,ブレイクワン,0
965,4200001043172,新規,0,2024-11-26,2024-11-26,株式会社カトミカ,,株式会社,岐阜県,土岐市,下石町１１５番地の１,,21,212,5095202,,,,,,,2024-11-26,1,,,,,カトミカ,0
966,4210005010168,新規,0,2024-11-26,2024-11-26,労働者協同組合チャイルドセンター彩葉,,その他の設立登記法人,福井県,鯖江市,平井町５７字１０番１７,,18,207,9160061,,,,,,,2024-11-26,1,,,,,チャイルドセンターイロハ,0
973,4230001020631,新規,0,2024-11-26,2024-11-26,株式会社Ｖａｒｉａｎｔｕｒｅｓ,,株式会社,富山県,富山市,四ツ葉町２１番４７号,,16,201,9300841,,,,,,,2024-11-26,1,,,,,バリアンチャー,0
974,4230003002339,新規,0,2024-11-26,2024-11-26,合同会社ＯＶＥＲＴＡＫＥ,,合同会社,富山県,下新川郡入善町,浦山新１２０,,16,342,9390633,,,,,,,2024-11-26,1,,,,,オーバーテイク,0
977,4240001064140,新規,0,2024-11-26,2024-11-26,Ｒｅ　Ｎａｔｕｒａｔｉｏｎ株式会社,,株式会社,広島県,福山市,駅家町倉光３２８－６,,34,207,7210000,,,,,,,2024-11-26,1,,,,,リナチュレーション,0
978,4240001064165,新規,0,2024-11-26,2024-11-26,Ｓ・Ｎ・Ｄ株式会社,,株式会社,広島県,広島市東区,福田２丁目２６１０番地１０,,34,102,7320029,,,,,,,2024-11-26,1,,,,,エスエヌデー,0
990,4290001108082,新規,0,2024-11-26,2024-11-26,株式会社ＬＡＷＡＲＣ,,株式会社,福岡県,福岡市中央区,天神４丁目６番２８号天神ファーストビル７階,,40,133,8100001,,,,,,,2024-11-26,1,,,,,ロウアーク,0
995,4290003016102,新規,0,2024-11-26,2024-11-26,合同会社アロリ,,合同会社,福岡県,福岡市早良区,昭代３丁目６番２３－１０１号パークコート藤崎,,40,137,8140012,,,,,,,2024-11-26,1,,,,,アロリ,0
996,4290003016110,新規,0,2024-11-26,2024-11-26,合同会社いとのしおかぜファーム,,合同会社,福岡県,糸島市,高祖７８１－１５,,40,230,8191571,,,,,,,2024-11-26,1,,,,,イトノシオカゼファーム,0
1001,4330001032682,新規,0,2024-11-26,2024-11-26,株式会社ｅｌｅｃｔｒｏｎｉｃ九州,,株式会社,熊本県,熊本市中央区,城東町４番７号グランガーデン熊本ビル１階,,43,101,8600846,,,,,,,2024-11-26,1,,,,,エレクトロニックキュウシュウ,0
1004,4340001026956,新規,0,2024-11-26,2024-11-26,株式会社Ｐｒｏｇｒｅｓｓ　Ｃｒｅａｔｉｏｎ　Ｎｉｊｉ,,株式会社,鹿児島県,鹿児島市,吉野町２４２５番地３,,46,201,8920871,,,,,,,2024-11-26,1,,,,,プログレスクリエイションニジ,0
1019,4430001093137,新規,0,2024-11-26,2024-11-26,株式会社ＯＮＯＴＥＣＨ,,株式会社,北海道,札幌市東区,北三十七条東２８丁目７番８号,,01,103,0070837,,,,,,,2024-11-26,1,,,,,オノテック,0
1026,4480001012661,新規,0,2024-11-26,2024-11-26,株式会社ＫＡＫＵＺＯ,,株式会社,徳島県,徳島市,南沖洲５丁目６番１８号,,36,201,7700874,,,,,,,2024-11-26,1,,,,,カクゾー,0
1036,4500005008744,新規,0,2024-11-26,2024-11-26,医療法人上田小児科,,その他の設立登記法人,愛媛県,宇和島市,広小路１番２６号,,38,203,7980051,,,,,,,2024-11-26,1,,,,,ウエダショウニカ,0
1037,4700150127980,新規,0,2024-11-26,2024-11-26,ｗｕｈｕｂｅｉｓｉｔｅｑｉｃｈｅｋｅｊｉｙｏｕｘｉａｎｇｏｎｇｓｉ,,外国会社等,,,,,,,,ａｎｈｕｉｓｈｅｎｇｗｕｈｕｓｈｉｗａｎｚｈｉｑｕｈｕａｑｉａｏｚｈｅｎｆｕｘｉｎｇｇｏｎｇｎｅｎｇｑｕｗｅｉｅｒｌｕ１８８ｈａｏ,,,,,,2024-11-26,1,,,,,ウーフーベイスーターチーチョーコージーヨウシエンゴンスー,0
1055,5010003045598,新規,0,2024-11-26,2024-11-26,合同会社番町,,合同会社,東京都,文京区,後楽２丁目６番１号,,13,105,1120004,,,,,,,2024-11-26,1,,,,,バンチョウ,0
1065,5010401186663,新規,0,2024-11-26,2024-11-26,株式会社Ｔｅａｍ　ＹＡＭＡ,,株式会社,東京都,港区,六本木５丁目１３番６－５０８号,,13,103,1060032,,,,,,,2024-11-26,1,,,,,チームヤマ,0
1066,5010401186671,新規,0,2024-11-26,2024-11-26,株式会社Ｃｏｒｅ　ｉｄｅａ,,株式会社,東京都,港区,西麻布４丁目１１－２８麻布エンパイアマンション４０６,,13,103,1060031,,,,,,,2024-11-26,1,,,,,コアイディア,0
1070,5010501053219,新規,0,2024-11-26,2024-11-26,全田商事株式会社,,株式会社,東京都,台東区,根岸４丁目２番１０号,,13,106,1100003,,,,,,,2024-11-26,1,,,,,ゼンダショウジ,0
1071,5010501053251,新規,0,2024-11-26,2024-11-26,海富商事株式会社,,株式会社,東京都,台東区,雷門１丁目６－７,,13,106,1110034,,,,,,,2024-11-26,1,,,,,カイトミショウジ,0
1072,5010601066335,新規,0,2024-11-26,2024-11-26,永紅株式会社,,株式会社,東京都,江東区,冬木４番５号リバーサイド凌宇２０１,,13,108,1350041,,,,,,,2024-11-26,1,,,,,エイコウ,0
1073,5010601066351,新規,0,2024-11-26,2024-11-26,株式会社メグデンタル,,株式会社,東京都,江東区,白河４丁目６番２号,,13,108,1350021,,,,,,,2024-11-26,1,,,,,メグデンタル,0
1079,5010701046897,新規,0,2024-11-26,2024-11-26,株式会社ＡｓｓＩｓｔ　Ｐｏｏｌ,,株式会社,東京都,品川区,上大崎３丁目４－１サンリオンインターナショナルビル３Ｆ,,13,109,1410021,,,,,,,2024-11-26,1,,,,,アシストプール,0
1080,5010703007468,新規,0,2024-11-26,2024-11-26,合同会社スカイフォーカス,,合同会社,東京都,品川区,北品川３丁目７－２豊田ハイツ２０１,,13,109,1400001,,,,,,,2024-11-26,1,,,,,スカイフォーカス,0
1082,5010801035593,新規,0,2024-11-26,2024-11-26,株式会社Ｗ・Ｓｉｎｕｓ　Ｉｎｓｔｉｔｕｔｅ,,株式会社,東京都,大田区,北千束１丁目２８番８号,,13,111,1450062,,,,,,,2024-11-26,1,,,,,ダブリューサイナスインスティテュート,0
1088,5010903009520,新規,0,2024-11-26,2024-11-26,合同会社ｉｍｐｒｉｍｏ,,合同会社,東京都,世田谷区,代沢５丁目６－１４,,13,112,1550032,,,,,,,2024-11-26,1,,,,,インプリモ,0
1102,5011001165966,新規,0,2024-11-26,2024-11-26,株式会社タンパガ,,株式会社,東京都,渋谷区,富ヶ谷１丁目３１番１号８０１,,13,113,1510063,,,,,,,2024-11-26,1,,,,,タンパガ,0
1103,5011001165999,新規,0,2024-11-26,2024-11-26,株式会社忠月,,株式会社,東京都,渋谷区,本町５丁目４４番９号,,13,113,1510071,,,,,,,2024-11-26,1,,,,,チュウゲツ,0
1104,5011001166147,新規,0,2024-11-26,2024-11-26,ＭＥＲＧＯＮ株式会社,,株式会社,東京都,渋谷区,神宮前６丁目２３番４号桑野ビル２階,,13,113,1500001,,,,,,,2024-11-26,1,,,,,マーゴン,0
1107,5011005010755,新規,0,2024-11-26,2024-11-26,一般社団法人目黒学院ラグビー部ファンクラブ,,その他の設立登記法人,東京都,目黒区,中目黒１丁目１番５０号,,13,110,1530061,,,,,,,2024-11-26,1,,,,,メグロガクインラグビーブファンクラブ,0
1109,5011101109699,新規,0,2024-11-26,2024-11-26,Ｃｒｅａｔｅ　Ａｄｉｘ株式会社,,株式会社,東京都,新宿区,新宿２丁目２番１号,,13,104,1600022,,,,,,,2024-11-26,1,,,,,クリエイトアディクス,0
1114,5011601028234,新規,0,2024-11-26,2024-11-26,株式会社すこまる,,株式会社,東京都,練馬区,関町東２丁目１３－３豊田コーポ１階１０２号室,,13,120,1770052,,,,,,,2024-11-26,1,,,,,スコマル,0
1123,5012301014169,新規,0,2024-11-26,2024-11-26,株式会社森村ケルン,,株式会社,東京都,町田市,原町田４丁目１１番１３号天野ビル４Ｆ,,13,209,1940013,,,,,,,2024-11-26,1,,,,,モリムラケルン,0
1127,5012401042508,新規,0,2024-11-26,2024-11-26,株式会社ルー,,株式会社,東京都,狛江市,元和泉１丁目１番２号エコルマ２・２階,,13,219,2010013,,,,,,,2024-11-26,1,,,,,ルー,0
1128,5012803003553,新規,0,2024-11-26,2024-11-26,フォレスタンス合同会社,,合同会社,東京都,国分寺市,富士本３丁目９番５３号,,13,214,1850031,,,,,,,2024-11-26,1,,,,,フォレスタンス,0
1129,5013103001388,新規,0,2024-11-26,2024-11-26,合同会社ＯｆｆｉｃｅＭＡＮＡ,,合同会社,東京都,あきる野市,引田１３番地３１,,13,228,1970834,,,,,,,2024-11-26,1,,,,,オフィスマナ,0
1142,5020001160282,新規,0,2024-11-26,2024-11-26,株式会社いち,,株式会社,神奈川県,横浜市神奈川区,金港町５－１４クアドリフォリオ８階,,14,102,2210056,,,,,,,2024-11-26,1,,,,,イチ,0
1149,5020003027315,新規,0,2024-11-26,2024-11-26,ＴＭＣリンク合同会社,,合同会社,神奈川県,横浜市金沢区,釜利谷東２丁目１６番７号マンションことぶき２０２号,,14,108,2360042,,,,,,,2024-11-26,1,,,,,ティーエムシーリンク,0
1153,5021001083837,新規,0,2024-11-26,2024-11-26,株式会社ｍｉｒａｃｌｅ,,株式会社,神奈川県,鎌倉市,津西１丁目１９番９号,,14,204,2480034,,,,,,,2024-11-26,1,,,,,ミラクル,0
1154,5021001083845,新規,0,2024-11-26,2024-11-26,株式会社ＡＫジャパン,,株式会社,神奈川県,小田原市,板橋３１２－１サンハイツフレンド１０５,,14,206,2500034,,,,,,,2024-11-26,1,,,,,エーケージャパン,0
1171,5080001026619,新規,0,2024-11-26,2024-11-26,株式会社りんどう,,株式会社,静岡県,静岡市葵区,瀬名川１丁目３番２２号,,22,101,4200913,,,,,,,2024-11-26,1,,,,,リンドウ,0
1175,5110001038866,新規,0,2024-11-26,2024-11-26,株式会社ウィリー,,株式会社,新潟県,長岡市,金房３丁目４‐１０,,15,202,9400045,,,,,,,2024-11-26,1,,,,,ウィリー,0
1184,5120001270393,新規,0,2024-11-26,2024-11-26,株式会社アンダンテ．,,株式会社,大阪府,大阪市中央区,本町４丁目４番１７号ＲＥ－０１２ビル７０７号,,27,128,5410053,,,,,,,2024-11-26,1,,,,,アンダンテ,0
1185,5120001270559,新規,0,2024-11-26,2024-11-26,優潤株式会社,,株式会社,大阪府,大阪市淀川区,西宮原２丁目６番１６号新大阪コーポビアネーズ１０１６号室,,27,123,5320004,,,,,,,2024-11-26,1,,,,,ユウジュン,0
1186,5120001270575,新規,0,2024-11-26,2024-11-26,株式会社権兵衛ノースマネジメント,,株式会社,大阪府,大阪市西区,京町堀１丁目６番１２号,,27,106,5500003,,,,,,,2024-11-26,1,,,,,ゴンベエノースマネジメント,0
1187,5120001270609,新規,0,2024-11-26,2024-11-26,株式会社ＧＬＯＢＡＬ　ＡＳＳＩＳＴ,,株式会社,大阪府,大阪市西区,新町１丁目２４－８ノース四ツ橋ビル３０２,,27,106,5500013,,,,,,,2024-11-26,1,,,,,グローバルアシスト,0
1188,5120001270617,新規,0,2024-11-26,2024-11-26,株式会社Ｇ‐ＦＲＯＮＴＩＥＲ,,株式会社,大阪府,大阪市北区,兎我野町２－７プラザビル５階１号,,27,127,5300056,,,,,,,2024-11-26,1,,,,,ジーフロンティア,0
1192,5120003028030,新規,0,2024-11-26,2024-11-26,合同会社山元,,合同会社,大阪府,枚方市,宇山町２６番８号,,27,210,5731143,,,,,,,2024-11-26,1,,,,,ヤマモト,0
1194,5120005024630,新規,0,2024-11-26,2024-11-26,ＮＰＯ法人絆食堂咲笑,,その他の設立登記法人,大阪府,大阪市城東区,中浜２丁目１０番１３号,,27,118,5360024,,,,,,,2024-11-26,1,,,,,キズナショクドウサクラ,0
1199,5120101070652,新規,0,2024-11-26,2024-11-26,株式会社ククナ,,株式会社,大阪府,堺市堺区,新町１番２０－２０２号,,27,141,5900079,,,,,,,2024-11-26,1,,,,,ククナ,0
1202,5120103006159,新規,0,2024-11-26,2024-11-26,合同会社ミニフィールド,,合同会社,大阪府,和泉市,箕形町１丁目１番４７号,,27,219,5940042,,,,,,,2024-11-26,1,,,,,ミニフィールド,0
1204,5120901050069,新規,0,2024-11-26,2024-11-26,株式会社Ｃｉｅｌｏ,,株式会社,大阪府,豊中市,螢池北町３丁目１３番２７－３０８号,,27,203,5600031,,,,,,,2024-11-26,1,,,,,シエロ,0
1209,5130001078423,新規,0,2024-11-26,2024-11-26,北林株式会社,,株式会社,京都府,京都市中京区,西ノ京星池町８－３１コーポエトワール４０２号室,,26,104,6048416,,,,,,,2024-11-26,1,,,,,キタバヤシ,0
1210,5130001078431,新規,0,2024-11-26,2024-11-26,株式会社ＰＲＯＶＩＤＥ　ＳＴＹＬＥ,,株式会社,京都府,京都市山科区,東野中井ノ上町６番地７１ラピスヤン東野３０５,,26,110,6078142,,,,,,,2024-11-26,1,,,,,プロバイドスタイル,0
1213,5140001136543,新規,0,2024-11-26,2024-11-26,小野電気株式会社,,株式会社,兵庫県,神戸市垂水区,神陵台８丁目１３番１５号,,28,108,6550041,,,,,,,2024-11-26,1,,,,,オノデンキ,0
1214,5140001136551,新規,0,2024-11-26,2024-11-26,株式会社エンジョイ・サポート,,株式会社,兵庫県,尼崎市,南塚口町２丁目１番２号塚口さんさんタウン２番館２０３号室,,28,202,6610012,,,,,,,2024-11-26,1,,,,,エンジョイサポート,0
1219,5160001026370,新規,0,2024-11-26,2024-11-26,株式会社ニコギャップ,,株式会社,滋賀県,大津市,湖城が丘２２番３号,,25,201,5200821,,,,,,,2024-11-26,1,,,,,ニコギャップ,0
1229,5180003027670,新規,0,2024-11-26,2024-11-26,合同会社ＲＥＶＥＯＮＥ,,合同会社,愛知県,名古屋市西区,笹塚町２丁目４４－８、３０３号室,,23,104,4510077,,,,,,,2024-11-26,1,,,,,レイヴワン,0
1236,5200001043171,新規,0,2024-11-26,2024-11-26,株式会社さくらエネルギーデザイン,,株式会社,岐阜県,郡上市,白鳥町為真２３２,,21,219,5015122,,,,,,,2024-11-26,1,,,,,サクラエネルギーデザイン,0
1244,5230002009417,新規,0,2024-11-26,2024-11-26,丸五建設有限会社,,有限会社,富山県,砺波市,安川１３４７番地,,16,208,9391438,,,,,,,2024-11-26,1,,,,,マルゴケンセツ,0
1250,5250003003598,新規,0,2024-11-26,2024-11-26,ＮＴＢＤ合同会社,,合同会社,山口県,長門市,三隅中１２５７－２古屋旧宅,,35,211,7593802,,,,,,,2024-11-26,1,,,,,エヌティベディ,0
1256,5260001039668,新規,0,2024-11-26,2024-11-26,株式会社ＡＱＵＡ,,株式会社,岡山県,真庭市,上水田３９４０番地１,,33,214,7161411,,,,,,,2024-11-26,1,,,,,アクア,0
1258,5280001009297,新規,0,2024-11-26,2024-11-26,株式会社ゆうとぴあ,,株式会社,島根県,出雲市,塩冶神前６丁目５番１０号,,32,203,6930024,,,,,,,2024-11-26,1,,,,,ユウトピア,0
1266,5290003016118,新規,0,2024-11-26,2024-11-26,合同会社Ｆａｍｉｌｉｃｏ,,合同会社,福岡県,福岡市西区,西都２丁目１５－８－４０６,,40,135,8190367,,,,,,,2024-11-26,1,,,,,ファミリコ,0
1275,5310001019334,新規,0,2024-11-26,2024-11-26,株式会社アルバスプロダクト,,株式会社,長崎県,諫早市,川床町１６２８番地１,,42,204,8540052,,,,,,,2024-11-26,1,,,,,アルバスプロダクト,0
1284,5340005009790,新規,0,2024-11-26,2024-11-26,一般社団法人ロムコンディショニング協会,,その他の設立登記法人,鹿児島県,鹿児島市,川上町６３０番地,,46,201,8920875,,,,,,,2024-11-26,1,,,,,ロムコンディショニングキョウカイ,0
1287,5360001034477,新規,0,2024-11-26,2024-11-26,株式会社Ｄａｙ＆Ｆｌａｔ,,株式会社,沖縄県,宮古島市,平良字西仲宗根５６３番地１３,,47,214,9060006,,,,,,,2024-11-26,1,,,,,デイアンドフラット,0
1289,5370001051975,新規,0,2024-11-26,2024-11-26,株式会社ニューナイン,,株式会社,宮城県,仙台市太白区,長町７丁目１１番１２号,,04,104,9820011,,,,,,,2024-11-26,1,,,,,ニューナイン,0
1291,5380001034938,新規,0,2024-11-26,2024-11-26,株式会社ＳＴＡＹ　ＧＯＬＤ,,株式会社,福島県,いわき市,勿来町窪田上り途３０番地の１,,07,204,9790141,,,,,,,2024-11-26,1,,,,,ステイゴールド,0
1308,5430001093136,新規,0,2024-11-26,2024-11-26,コローレワールド株式会社,,株式会社,北海道,札幌市中央区,南十三条西２１丁目１番３－９０３号,,01,101,0640913,,,,,,,2024-11-26,1,,,,,コローレワールド,0
1310,5430003017027,新規,0,2024-11-26,2024-11-26,合同会社築樹,,合同会社,北海道,苫小牧市,沼ノ端中央１丁目２９番３８号,,01,213,0591305,,,,,,,2024-11-26,1,,,,,キズキ,0
1314,5700150127971,新規,0,2024-11-26,2024-11-26,ＹｕＬｉｎＳｈａｎｇＤｅＳｈｉＤａｉＣａｉＳｈｕｉＹｏｕＸｉａｎＺｅＲｅｎＧｏｎｇＳｉ,,外国会社等,,,,,,,,ＳｈａｎＸｉＳｈｅｎｇＹｕＬｉｎＳｈｉＹｕＹａｎｇＱｕＴａｏＹｕａｎＬｕＸｉｎｇＤａＸｉａｎｇ１２Ｐａｉ１０－２Ｈａｏ，Ｃｈｉｎａ,,,,,,2024-11-26,1,,,,,ユリンシャンディジダイチャイスイユウゲンセキニンコウシ,0
1320,6010001249935,新規,0,2024-11-26,2024-11-26,株式会社Ｐｉｏｎｅｅｒ,,株式会社,東京都,中央区,日本橋室町１丁目１１番１２号,,13,102,1030022,,,,,,,2024-11-26,1,,,,,パイオニア,0
1321,6010001250141,新規,0,2024-11-26,2024-11-26,ＣｌｏｕｄＳｔａｒｔ株式会社,,株式会社,東京都,千代田区,神田佐久間町３丁目２８星野ビル５１７,,13,101,1010025,,,,,,,2024-11-26,1,,,,,クラウドスタート,0
1322,6010001250182,新規,0,2024-11-26,2024-11-26,株式会社ＳＴ,,株式会社,東京都,中央区,入船３丁目１０番８号,,13,102,1040042,,,,,,,2024-11-26,1,,,,,エスティー,0
1323,6010001250216,新規,0,2024-11-26,2024-11-26,株式会社Ｋ．Ｋ　ＪＡＰＡＮ,,株式会社,東京都,千代田区,神田富山町９－３神田東邦センタービル３階,,13,101,1010043,,,,,,,2024-11-26,1,,,,,ケイケイジャパン,0
1335,6010003045556,新規,0,2024-11-26,2024-11-26,ＡＩ合同会社,,合同会社,東京都,中央区,銀座１丁目１２Ｎ＆ＥＢｌｄ．６階,,13,102,1040061,,,,,,,2024-11-26,1,,,,,エーアイ,0
1336,6010003045589,新規,0,2024-11-26,2024-11-26,合同会社Ｔ‐Ｌｉｇｈｔ,,合同会社,東京都,中央区,銀座１丁目１２番４号７階,,13,102,1040061,,,,,,,2024-11-26,1,,,,,ティーライト,0
1337,6010005039176,新規,0,2024-11-26,2024-11-26,野麦峠小水力発電一般社団法人,,その他の設立登記法人,東京都,中央区,日本橋２丁目２番２１号スリーエス内,,13,102,1030027,,,,,,,2024-11-26,1,,,,,ノムギトウゲショウスイリョクハツデン,0
1338,6010005039184,新規,0,2024-11-26,2024-11-26,一般社団法人ｂｅｙｏｎｄ淡路町,,その他の設立登記法人,東京都,千代田区,霞が関３丁目２番５号,,13,101,1000013,,,,,,,2024-11-26,1,,,,,ビヨンドアワジチョウ,0
1339,6010005039192,新規,0,2024-11-26,2024-11-26,一般社団法人Ｈｏｎｍａｃｈｉ,,その他の設立登記法人,東京都,中央区,日本橋１丁目４番１号,,13,102,1030027,,,,,,,2024-11-26,1,,,,,ホンマチ,0
1341,6010103002457,新規,0,2024-11-26,2024-11-26,合同会社ハンモック,,合同会社,東京都,八王子市,中野山王２丁目３１－７ディオブランドー八王子１０２号室,,13,201,1920042,,,,,,,2024-11-26,1,,,,,ハンモック,0
1350,6010401186704,新規,0,2024-11-26,2024-11-26,株式会社Ｓｔｒｕｃｔｉｖ,,株式会社,東京都,港区,東新橋２丁目７－３昭和アステック１号館４０８号室,,13,103,1050021,,,,,,,2024-11-26,1,,,,,ストラクティブ,0
1354,6010403033879,新規,0,2024-11-26,2024-11-26,合同会社Ｏｆｆｉｃｅ　ＴＲＹ,,合同会社,東京都,港区,高輪３丁目２番１５号,,13,103,1080074,,,,,,,2024-11-26,1,,,,,オフィストライ,0
1362,6010601066359,新規,0,2024-11-26,2024-11-26,Ｋｅｎｎｙ株式会社,,株式会社,東京都,江東区,新大橋２丁目１２－１５,,13,108,1350007,,,,,,,2024-11-26,1,,,,,ケニー,0
1367,6010705003704,新規,0,2024-11-26,2024-11-26,一般社団法人湯山昭の音楽,,その他の設立登記法人,東京都,品川区,西五反田４丁目８番３号,,13,109,1410031,,,,,,,2024-11-26,1,,,,,ユヤマアキラノオンガク,0
1368,6010803005172,新規,0,2024-11-26,2024-11-26,タクスル合同会社,,合同会社,東京都,大田区,鵜の木３丁目９－１８ガーデンコート多摩川２０２,,13,111,1460091,,,,,,,2024-11-26,1,,,,,タクスル,0
1375,6011001165874,新規,0,2024-11-26,2024-11-26,Ｉｃｏｎ株式会社,,株式会社,東京都,渋谷区,神宮前３丁目２５－６神宮前ウィンテルビル３Ｆ,,13,113,1500001,,,,,,,2024-11-26,1,,,,,アイコン,0
1376,6011001165932,新規,0,2024-11-26,2024-11-26,株式会社エーアンドエス,,株式会社,東京都,渋谷区,千駄ヶ谷２丁目１１番１号,,13,113,1510051,,,,,,,2024-11-26,1,,,,,エーアンドエス,0
1377,6011001165949,新規,0,2024-11-26,2024-11-26,ＲｕｂｙＭａｇｉｃ株式会社,,株式会社,東京都,渋谷区,神宮前６丁目２３番４号桑野ビル２階,,13,113,1500001,,,,,,,2024-11-26,1,,,,,ルビーマジック,0
1380,6011101109707,新規,0,2024-11-26,2024-11-26,Ｓｕｃａｆｉｎａ　Ｊａｐａｎ株式会社,,株式会社,東京都,新宿区,西新宿１丁目４番１１号,,13,104,1600023,,,,,,,2024-11-26,1,,,,,スカフィナジャパン,0
1385,6011201025928,新規,0,2024-11-26,2024-11-26,株式会社Ｃｌｅａｎ,,株式会社,東京都,中野区,本町３丁目２２番８号富士見ハイツ３０１,,13,114,1640012,,,,,,,2024-11-26,1,,,,,クリーン,0
1387,6011301030183,新規,0,2024-11-26,2024-11-26,マトレイン株式会社,,株式会社,東京都,杉並区,松庵３丁目３９－５,,13,115,1670054,,,,,,,2024-11-26,1,,,,,マトレイン,0
1395,6011501031403,新規,0,2024-11-26,2024-11-26,ｂｏｏｚｅ株式会社,,株式会社,東京都,荒川区,西尾久７丁目１７番１２号ヤマックスフォーレ西尾久３０５,,13,118,1160011,,,,,,,2024-11-26,1,,,,,ブーズ,0
1396,6011503006312,新規,0,2024-11-26,2024-11-26,合同会社シュクラブ,,合同会社,東京都,北区,堀船１丁目１５－１０－１１０９ワコー王子マンション,,13,117,1140004,,,,,,,2024-11-26,1,,,,,シュクラブ,0
1403,6011805003420,新規,0,2024-11-26,2024-11-26,一般社団法人ダイエットグルメ協会,,その他の設立登記法人,東京都,足立区,千住４丁目７番６号－２０５,,13,121,1200034,,,,,,,2024-11-26,1,,,,,ダイエットグルメキョウカイ,0
1407,6012403006848,新規,0,2024-11-26,2024-11-26,合同会社レアレア,,合同会社,東京都,武蔵野市,吉祥寺南町３丁目４－３,,13,203,1800003,,,,,,,2024-11-26,1,,,,,レアレア,0
1408,6012405005063,新規,0,2024-11-26,2024-11-26,一般社団法人Ｗｏｒｌｄ　Ｈｅａｌｔｈ　Ｃａｒｅ,,その他の設立登記法人,東京都,小金井市,中町１丁目９番１０－２０２号,,13,210,1840012,,,,,,,2024-11-26,1,,,,,,0
1410,6012801023585,新規,0,2024-11-26,2024-11-26,株式会社空高の木,,株式会社,東京都,日野市,石田２丁目６番地の２１,,13,212,1910021,,,,,,,2024-11-26,1,,,,,ソタカノキ,0
1411,6012801023593,新規,0,2024-11-26,2024-11-26,株式会社ＣＬＡＭ‐ＬＡＢ．,,株式会社,東京都,立川市,柏町３丁目１４番地の９,,13,202,1900004,,,,,,,2024-11-26,1,,,,,クラムラボ,0
1416,6013301053445,新規,0,2024-11-26,2024-11-26,株式会社オノカ,,株式会社,東京都,豊島区,要町１丁目２８－２０,,13,116,1710043,,,,,,,2024-11-26,1,,,,,オノカ,0
1439,6030001163614,新規,0,2024-11-26,2024-11-26,株式会社スマイルワン,,株式会社,埼玉県,さいたま市中央区,円阿弥６丁目２番１８号ビラシャルル１０２,,11,105,3380007,,,,,,,2024-11-26,1,,,,,スマイルワン,0
1440,6030001163647,新規,0,2024-11-26,2024-11-26,株式会社ＮＩＣＨＩＹＵ,,株式会社,埼玉県,北葛飾郡松伏町,大字大川戸２４２３番地２,,11,465,3430106,,,,,,,2024-11-26,1,,,,,ニチユ,0
1441,6030003025531,新規,0,2024-11-26,2024-11-26,合同会社ｐｌａｉｎ,,合同会社,埼玉県,さいたま市緑区,原山３丁目１０番３－１号,,11,109,3360931,,,,,,,2024-11-26,1,,,,,プレイン,0
1442,6030003025564,新規,0,2024-11-26,2024-11-26,合同会社なないろ,,合同会社,埼玉県,草加市,新栄２丁目３７番地１１プレジデント新栄ＩＩＩ番館Ｋ号,00137142,11,221,3400056,,,,,,,2024-11-26,1,,,,,ナナイロ,0
1454,6070001042401,新規,0,2024-11-26,2024-11-26,ＥＳＴＲＥＬＬＡ株式会社,,株式会社,群馬県,高崎市,栄町３番１１号高崎バナーズビル３Ｆ,,10,202,3700841,,,,,,,2024-11-26,1,,,,,エストレジャ,0
1459,6080101025148,新規,0,2024-11-26,2024-11-26,ＰＳＴ‐Ｎホールディングス株式会社,,株式会社,静岡県,田方郡函南町,塚本２７６番地の３,,22,325,4190124,,,,,,,2024-11-26,1,,,,,ピーエスティーエヌホールディングス,0
1461,6100001038040,新規,0,2024-11-26,2024-11-26,株式会社ＦＳ・Ａｇｅｎｔ,,株式会社,長野県,松本市,井川城２丁目５番１５号シャトレ井川城３０２,,20,202,3900831,,,,,,,2024-11-26,1,,,,,エフエスエージェント,0
1474,6120001270517,新規,0,2024-11-26,2024-11-26,株式会社ＥＳＸＩＡ,,株式会社,大阪府,大阪市中央区,南久宝寺町１丁目９番１号ルート船場ビル８０４号室,,27,128,5410058,,,,,,,2024-11-26,1,,,,,エスシア,0
1475,6120001270574,新規,0,2024-11-26,2024-11-26,Ｊｐ‐Ｅｓｔａｔｅ株式会社,,株式会社,大阪府,大阪市北区,中之島４丁目３番２０－４０８号,,27,127,5300005,,,,,,,2024-11-26,1,,,,,ジェーピーエステート,0
1476,6120001270599,新規,0,2024-11-26,2024-11-26,株式会社エムスマイル,,株式会社,大阪府,枚方市,野村中町１５番１０号,,27,210,5730144,,,,,,,2024-11-26,1,,,,,エムスマイル,0
1482,6120003028046,新規,0,2024-11-26,2024-11-26,合同会社ＭＹ　ＦＡＶＥ,,合同会社,大阪府,大阪市淀川区,宮原１丁目１６番３６－６０３号,,27,123,5320003,,,,,,,2024-11-26,1,,,,,マイフェイヴ,0
1485,6120101070651,新規,0,2024-11-26,2024-11-26,株式会社藤田キャピタル,,株式会社,大阪府,岸和田市,箕土路町１丁目１６番２４号,,27,202,5960801,,,,,,,2024-11-26,1,,,,,フジタキャピタル,0
1487,6120105009935,新規,0,2024-11-26,2024-11-26,一般社団法人ＴＺＢ,,その他の設立登記法人,大阪府,松原市,天美北３丁目２番１－３０４号,,27,217,5800031,,,,,,,2024-11-26,1,,,,,ティーゼットビー,0
1495,6130001078397,新規,0,2024-11-26,2024-11-26,えにし株式会社,,株式会社,京都府,京都市東山区,宮川筋２丁目２６９,,26,105,6050801,,,,,,,2024-11-26,1,,,,,エニシ,0
1496,6130001078422,新規,0,2024-11-26,2024-11-26,株式会社スタンビー,,株式会社,京都府,京都市西京区,桂清水町１０６番地４,,26,111,6158013,,,,,,,2024-11-26,1,,,,,スタンビー,0
1501,6140001136542,新規,0,2024-11-26,2024-11-26,株式会社Ｃｏｃｏｓａｋｕ,,株式会社,兵庫県,伊丹市,西野８丁目３番地３－４０９号,,28,207,6640028,,,,,,,2024-11-26,1,,,,,ココサク,0
1505,6140003021362,新規,0,2024-11-26,2024-11-26,合同会社ライフ,,合同会社,兵庫県,たつの市,龍野町富永１００５番地６１,,28,229,6794167,,,,,,,2024-11-26,1,,,,,ライフ,0
1506,6140005008580,新規,0,2024-11-26,2024-11-26,農事組合法人城北畜産組合,,その他の設立登記法人,兵庫県,丹波篠山市,郡家２３７番地,,28,221,6692341,,,,,,,2024-11-26,1,,,,,ジョウホクチクサンクミアイ,0
1508,6150001027699,新規,0,2024-11-26,2024-11-26,Ｂｅｌｉｅｖｅ株式会社,,株式会社,奈良県,奈良市,三条大路１丁目１０－４３フォレストスクエア３階Ｅ号室,,29,201,6308013,,,,,,,2024-11-26,1,,,,,ビリーブ,0
1517,6180001164317,新規,0,2024-11-26,2024-11-26,株式会社ピースアイ,,株式会社,愛知県,名古屋市西区,菊井２丁目７番８号,,23,104,4510044,,,,,,,2024-11-26,1,,,,,ピースアイ,0
1518,6180001164325,新規,0,2024-11-26,2024-11-26,株式会社ＫＡＣＳＡＮ,,株式会社,愛知県,名古屋市中村区,名駅４丁目２４番５号第２森ビル４０１,,23,105,4500002,,,,,,,2024-11-26,1,,,,,カクサン,0
1520,6180003027661,新規,0,2024-11-26,2024-11-26,ＤＩＡＬＵＸＥ合同会社,,合同会社,愛知県,瀬戸市,西山町２丁目８０－７,,23,204,4890987,,,,,,,2024-11-26,1,,,,,ディアラックス,0
1521,6180005020846,新規,0,2024-11-26,2024-11-26,一般社団法人Ｔｉｅｒｒａ,,その他の設立登記法人,愛知県,名古屋市中村区,名駅４丁目２４番５号第２森ビル４０１,,23,105,4500002,,,,,,,2024-11-26,1,,,,,ティエラ,0
1542,6250001020917,新規,0,2024-11-26,2024-11-26,株式会社タイガーＧ３,,株式会社,山口県,岩国市,今津町１丁目９番９号,,35,208,7400017,,,,,,,2024-11-26,1,,,,,タイガージースリー,0
1548,6290001108080,新規,0,2024-11-26,2024-11-26,プライムスタッフ株式会社,,株式会社,福岡県,福岡市博多区,博多駅東２丁目４番１７号３階Ｄ,,40,132,8120013,,,,,,,2024-11-26,1,,,,,プライムスタッフ,0
1549,6290001108097,新規,0,2024-11-26,2024-11-26,株式会社海苔ラボ,,株式会社,福岡県,柳川市,矢留本町３３２番地２,,40,207,8320056,,,,,,,2024-11-26,1,,,,,ノリラボ,0
1553,6290003016100,新規,0,2024-11-26,2024-11-26,フューチャープラス合同会社,,合同会社,福岡県,福岡市東区,香住ヶ丘３丁目２０番１８号２０３,,40,131,8130003,,,,,,,2024-11-26,1,,,,,フューチャープラス,0
1554,6290003016109,新規,0,2024-11-26,2024-11-26,ＷｏｒｌｄＳＫＹ合同会社,,合同会社,福岡県,那珂川市,中原１丁目３０番地,,40,231,8111213,,,,,,,2024-11-26,1,,,,,ワールドスカイ,0
1562,6330001032680,新規,0,2024-11-26,2024-11-26,株式会社ノア,,株式会社,熊本県,熊本市中央区,水前寺１丁目１９番２３－８０１号,,43,101,8620950,,,,,,,2024-11-26,1,,,,,ノア,0
1565,6360001034476,新規,0,2024-11-26,2024-11-26,株式会社あ・い・う・え本舗,,株式会社,沖縄県,名護市,字饒平名７３７番地２,,47,209,9051632,,,,,,,2024-11-26,1,,,,,アイウエホンポ,0
1571,6380001034937,新規,0,2024-11-26,2024-11-26,株式会社Ｖｅｒｔｅｘ,,株式会社,福島県,白河市,田島宮ノ跡４番地１,,07,205,9610015,,,,,,,2024-11-26,1,,,,,ヴェルテクス,0
1574,6400003003350,新規,0,2024-11-26,2024-11-26,合同会社るるり,,合同会社,岩手県,盛岡市,緑が丘３丁目１１番２１号アレイ緑が丘１０３,,03,201,0200117,,,,,,,2024-11-26,1,,,,,ルルリ,0
1579,6430001093036,新規,0,2024-11-26,2024-11-26,株式会社トランスＡＩＪ,,株式会社,北海道,札幌市中央区,南二条西５丁目３１－１ＲＭＢｌｄ．７０１,,01,101,0600062,,,,,,,2024-11-26,1,,,,,トランスエーアイジャパン,0
1580,6430001093135,新規,0,2024-11-26,2024-11-26,株式会社エクスペリエンス,,株式会社,北海道,札幌市白石区,本郷通８丁目南１番３号,,01,104,0030024,,,,,,,2024-11-26,1,,,,,エクスペリエンス,0
1590,6490001010910,新規,0,2024-11-26,2024-11-26,株式会社Ｒｉｖａｔｏｔｏ,,株式会社,高知県,高知市,長浜宮田２０００高知競馬場１階店舗１０１,,39,201,7810271,,,,,,,2024-11-26,1,,,,,,0
1593,6700150127970,新規,0,2024-11-26,2024-11-26,ＧＵＩＺＨＯＵＢＥＩＱＩＯＮＧＳＨＡＮＧＭＡＯＹＯＵＸＩＡＮＧＯＮＧＳＩ,,外国会社等,,,,,,,,ｒｏｎｇｊｉａｎｇｘｉａｎｐｉｎｇｙａｎｇｘｉａｎｇ　ｘｉａｏｄａｎｊｉａｎｇｃｕｎ　ｊｉｎｍｉａｏｆａｎｇｗｕ　ｑｉａｎｄｏｎｇｎａｎｍｉａｏｚｕｄｏｎｇｚｕｚｉｚｈｉｚｈｏｕ　Ｇｕｉｚｈｏｕｓｈｅｎｇ　Ｃｈｉｎａ,,,,,,2024-11-26,1,,,,,グイゾウベイチョンシャンマオユウゲンコウシ,0
1594,6700150127979,新規,0,2024-11-26,2024-11-26,Ｙｉ　Ｗｕ　Ｓｈｉ　Ｙｉ　Ｃｈｅｎｇ　Ｍａｏ　Ｙｉ　Ｙｏｕ　Ｘｉａｎ　Ｇｏｎｇ　Ｓｉ,,外国会社等,,,,,,,,Ｚｈｅ　Ｊｉａｎｇ　Ｓｈｅｎｇ　Ｙｉ　Ｗｕ　Ｓｈｉ　Ｃｈｏｕ　Ｊｉａｎｇ　Ｊｉｅ　Ｄａｏ　Ｌｉ　Ｍｉｎｇ　Ｃｕｎ　Ｓｈｉ　Ｙｕ　Ｌｕ　６７　Ｈａｏ　５０１,,,,,,2024-11-26,1,,,,,イーウーシーイーチョンマオイーヨウシエンゴンスー,0
1605,7010001250181,新規,0,2024-11-26,2024-11-26,株式会社サニタスヴィータ,,株式会社,東京都,中央区,銀座４丁目１３番１５号銀座近富ビル４階,,13,102,1040061,,,,,,,2024-11-26,1,,,,,サニタスヴィータ,0
1606,7010003045539,新規,0,2024-11-26,2024-11-26,Ｔｈｅ　Ｐｅａｋ　Ｓｅｒｉｅｓ　ＶＩＩ合同会社,,合同会社,東京都,千代田区,四番町４番地９新東京国際リーガル内,,13,101,1020081,,,,,,,2024-11-26,1,,,,,ザピークシリーズセブン,0
1607,7010005039183,新規,0,2024-11-26,2024-11-26,一般社団法人ｂｅｙｏｎｄ小川町,,その他の設立登記法人,東京都,千代田区,霞が関３丁目２番５号,,13,101,1000013,,,,,,,2024-11-26,1,,,,,ビヨンドオガワマチ,0
1613,7010401186645,新規,0,2024-11-26,2024-11-26,株式会社天子クルーザー,,株式会社,東京都,港区,三田５丁目４番４号２階,,13,103,1080073,,,,,,,2024-11-26,1,,,,,テンシクルーザー,0
1614,7010401186653,新規,0,2024-11-26,2024-11-26,株式会社ＭＦ１,,株式会社,東京都,港区,南青山３丁目１番３６号青山丸竹ビル６Ｆ,,13,103,1070062,,,,,,,2024-11-26,1,,,,,エムエフワン,0
1615,7010403033894,新規,0,2024-11-26,2024-11-26,合同会社ＷｉｌｌＳｈｉｎｅ,,合同会社,東京都,港区,北青山１丁目３番１号アールキューブ青山３階,,13,103,1070061,,,,,,,2024-11-26,1,,,,,ウィルシャイン,0
1618,7010601066333,新規,0,2024-11-26,2024-11-26,株式会社ＲＭＤサイエンス,,株式会社,東京都,墨田区,横川１丁目１６番３号センターオブガレージ,,13,107,1300003,,,,,,,2024-11-26,1,,,,,アールエムディーサイエンス,0
1622,7010701046862,新規,0,2024-11-26,2024-11-26,株式会社Ｓｔｏｋｅ,,株式会社,東京都,品川区,上大崎３丁目２番１号,,13,109,1410021,,,,,,,2024-11-26,1,,,,,ストーク,0
1624,7010801035591,新規,0,2024-11-26,2024-11-26,株式会社ヤマイチ,,株式会社,東京都,大田区,南久が原１丁目１７番６号,,13,111,1460084,,,,,,,2024-11-26,1,,,,,ヤマイチ,0
1625,7010801035600,新規,0,2024-11-26,2024-11-26,株式会社ＴＯＲＩＯ,,株式会社,東京都,大田区,池上５丁目５番１号,,13,111,1460082,,,,,,,2024-11-26,1,,,,,トリオ,0
1632,7011001165931,新規,0,2024-11-26,2024-11-26,株式会社ＩＣＬ,,株式会社,東京都,渋谷区,千駄ヶ谷２丁目１１番１号,,13,113,1510051,,,,,,,2024-11-26,1,,,,,アイシーエル,0
1633,7011001166021,新規,0,2024-11-26,2024-11-26,カド・ホールディングス株式会社,,株式会社,東京都,渋谷区,道玄坂１丁目２２番９号ＡＤ－Ｏ渋谷道玄坂２階,,13,113,1500043,,,,,,,2024-11-26,1,,,,,カドホールディングス,0
1641,7011103015225,新規,0,2024-11-26,2024-11-26,合同会社レイズ,,合同会社,東京都,新宿区,西新宿７丁目８番１２号,,13,104,1600023,,,,,,,2024-11-26,1,,,,,レイズ,0
1643,7011105011239,新規,0,2024-11-26,2024-11-26,一般社団法人中小企業財務支援機構,,その他の設立登記法人,東京都,新宿区,上落合２丁目２１番１０号,,13,104,1610034,,,,,,,2024-11-26,1,,,,,チュウショウキギョウザイムシエンキコウ,0
1646,7011501031402,新規,0,2024-11-26,2024-11-26,株式会社Ｙ‐レホルム,,株式会社,東京都,荒川区,南千住７丁目１７番２－１２０５号,,13,118,1160003,,,,,,,2024-11-26,1,,,,,ワイレホルム,0
1648,7011503006311,新規,0,2024-11-26,2024-11-26,ドリーム合同会社,,合同会社,東京都,北区,東十条４丁目１３－５ラ・ヴェール東十条２０３,,13,117,1140001,,,,,,,2024-11-26,1,,,,,,0
1650,7011601028232,新規,0,2024-11-26,2024-11-26,株式会社アドビック,,株式会社,東京都,練馬区,中村２丁目９番１６－２０３号,,13,120,1760024,,,,,,,2024-11-26,1,,,,,アドビック,0
1654,7011703004040,新規,0,2024-11-26,2024-11-26,合同会社アルケル,,合同会社,東京都,江戸川区,西小岩５丁目４番１８号,,13,123,1330057,,,,,,,2024-11-26,1,,,,,アルケル,0
1657,7011801045218,新規,0,2024-11-26,2024-11-26,株式会社スギベジ,,株式会社,東京都,葛飾区,細田３丁目３７番１３号,,13,122,1240021,,,,,,,2024-11-26,1,,,,,スギベジ,0
1660,7012801023576,新規,0,2024-11-26,2024-11-26,株式会社メディカルリトリート,,株式会社,東京都,日野市,豊田３丁目２８番地の３,,13,212,1910053,,,,,,,2024-11-26,1,,,,,メディカルリトリート,0
1661,7013301053428,新規,0,2024-11-26,2024-11-26,株式会社花桂,,株式会社,東京都,豊島区,東池袋２丁目４番３号志村ビル３０１号,,13,116,1700013,,,,,,,2024-11-26,1,,,,,ハナカツラ,0
1667,7020003027313,新規,0,2024-11-26,2024-11-26,合同会社ＨＡＭＡＲＴＩＥＳ,,合同会社,神奈川県,横浜市西区,戸部町５丁目２０３－２－６０５,,14,103,2200042,,,,,,,2024-11-26,1,,,,,ハマーティーズ,0
1670,7021001083843,新規,0,2024-11-26,2024-11-26,株式会社Ｓｏｌｉｄ　Ｙｏｋｅ　Ｌａｂ．,,株式会社,神奈川県,相模原市南区,上鶴間本町５丁目６番２０号,,14,153,2520318,,,,,,,2024-11-26,1,,,,,ソリッドヨークラボ,0
1671,7021001083851,新規,0,2024-11-26,2024-11-26,株式会社レムリア,,株式会社,神奈川県,伊勢原市,板戸４０８番地,,14,214,2591145,,,,,,,2024-11-26,1,,,,,レムリア,0
1675,7021003015274,新規,0,2024-11-26,2024-11-26,合同会社フローライト,,合同会社,神奈川県,大和市,つきみ野１丁目１番地１１ドラゴンマンションつきみ野壱番館２０１,,14,213,2420002,,,,,,,2024-11-26,1,,,,,フローライト,0
1680,7030001163621,新規,0,2024-11-26,2024-11-26,株式会社ＥＸＣＥＲＩＡ,,株式会社,埼玉県,所沢市,小手指町３丁目２０番地,,11,208,3591141,,,,,,,2024-11-26,1,,,,,エクセリア,0
1701,7070001042400,新規,0,2024-11-26,2024-11-26,株式会社ラスキ,,株式会社,群馬県,桐生市,菱町１丁目４６２番地の１,,10,203,3760001,,,,,,,2024-11-26,1,,,,,ラスキ,0
1703,7080101025147,新規,0,2024-11-26,2024-11-26,株式会社長田経営コンサル,,株式会社,静岡県,御殿場市,板妻３３８番地の３,,22,215,4120048,,,,,,,2024-11-26,1,,,,,オサダケイエイコンサル,0
1719,7120001270508,新規,0,2024-11-26,2024-11-26,株式会社ＨｉＮＴ,,株式会社,大阪府,寝屋川市,豊里町３８番１－６１６号,,27,215,5720071,,,,,,,2024-11-26,1,,,,,ヒント,0
1720,7120001270557,新規,0,2024-11-26,2024-11-26,新希望株式会社,,株式会社,大阪府,大阪市西成区,花園南１丁目６番１０号花園ハイツ３０１号,,27,122,5570015,,,,,,,2024-11-26,1,,,,,シンキボウ,0
1721,7120001270565,新規,0,2024-11-26,2024-11-26,ジャストメンテナンス株式会社,,株式会社,大阪府,大阪市淀川区,東三国２丁目３２－１３,,27,123,5320002,,,,,,,2024-11-26,1,,,,,ジャストメンテナンス,0
1722,7120001270598,新規,0,2024-11-26,2024-11-26,株式会社下間都代子コミュニケーション研究所,,株式会社,大阪府,大阪市北区,芝田２丁目８番１１号,,27,127,5300012,,,,,,,2024-11-26,1,,,,,シモツマトヨココミュニケーションケンキュウショ,0
1725,7120003027939,新規,0,2024-11-26,2024-11-26,ＪＰＮ合同会社,,合同会社,大阪府,枚方市,津田東町３丁目２６－４０,,27,210,5730122,,,,,,,2024-11-26,1,,,,,ジェイピーエヌ,0
1726,7120003028045,新規,0,2024-11-26,2024-11-26,合同会社ＭＡＬＵＬＵ,,合同会社,大阪府,大阪市港区,築港３丁目３番２－９１４号,,27,107,5520021,,,,,,,2024-11-26,1,,,,,マルル,0
1727,7120005024629,新規,0,2024-11-26,2024-11-26,一般社団法人関西相続空き家不動産流通,,その他の設立登記法人,大阪府,大阪市大正区,三軒家東６丁目１２番１６号,,27,108,5510002,,,,,,,2024-11-26,1,,,,,カンサイソウゾクアキヤフドウサンリュウツウ,0
1733,7120105009934,新規,0,2024-11-26,2024-11-26,ＮＰＯ法人Ｌｉｆｅ　Ｉｓ　Ｊｏｕｒｎｅｙ,,その他の設立登記法人,大阪府,岸和田市,下松町１丁目３番６号ウインディ岸和田３階,,27,202,5960823,,,,,,,2024-11-26,1,,,,,ライフイズジャーニー,0
1741,7130001078421,新規,0,2024-11-26,2024-11-26,株式会社ＲＩＡＳ,,株式会社,京都府,長岡京市,友岡４丁目１番１５号,,26,209,6170843,,,,,,,2024-11-26,1,,,,,ライアス,0
1742,7130001078438,新規,0,2024-11-26,2024-11-26,株式会社スパイシーファン,,株式会社,京都府,京丹後市,久美浜町５５－８－２０２,,26,212,6293410,,,,,,,2024-11-26,1,,,,,スパイシーファン,0
1743,7130003010027,新規,0,2024-11-26,2024-11-26,合名会社アルファエステート,,合名会社,京都府,京都市中京区,室町通錦小路下る菊水鉾町５７０番地５ネバーランド室町通菊水鉾町ＲＯＭＡＮ１１０２号,,26,104,6048154,,,,,,,2024-11-26,1,,,,,アルファエステート,0
1744,7130003010035,新規,0,2024-11-26,2024-11-26,Ｂａｌ．合同会社,,合同会社,京都府,京都市西京区,嵐山中尾下町３２－３－１Ｆ,,26,111,6160004,,,,,,,2024-11-26,1,,,,,バル,0
1757,7180001164290,新規,0,2024-11-26,2024-11-26,株式会社エイトサファリ,,株式会社,愛知県,名古屋市中村区,名駅３丁目４番１０号アルティメイト名駅１ｓｔ２階,,23,105,4500002,,,,,,,2024-11-26,1,,,,,エイトサファリ,0
1768,7200001018989,新規,0,2024-11-26,2024-11-26,オオタ衛材株式会社,,株式会社,岐阜県,美濃市,上野１１８番地,,21,207,5013787,,,,,,,2024-11-26,1,,,,,オオタエイザイ,0
1782,7250005008965,新規,0,2024-11-26,2024-11-26,医療法人コスモ歯科クリニック,,その他の設立登記法人,山口県,山陽小野田市,大字厚狭４７８－１,,35,216,7570001,,,,,,,2024-11-26,1,,,,,コスモシカクリニック,0
1783,7260001039666,新規,0,2024-11-26,2024-11-26,シンニチロ建機株式会社,,株式会社,岡山県,岡山市北区,西古松３２４番地１０７,,33,101,7000927,,,,,,,2024-11-26,1,,,,,シンニチロケンキ,0
1793,7290001108096,新規,0,2024-11-26,2024-11-26,株式会社にの松,,株式会社,福岡県,福岡市博多区,博多駅前４丁目２７－５博多ステーションタワー４０５号,,40,132,8120011,,,,,,,2024-11-26,1,,,,,ニノマツ,0
1794,7290001108105,新規,0,2024-11-26,2024-11-26,株式会社Ｊｏｂ　Ｓｕｐｐｏｒｔ,,株式会社,福岡県,飯塚市,平恒８３８番地８,,40,205,8200073,,,,,,,2024-11-26,1,,,,,ジョブサポート,0
1797,7290003016058,新規,0,2024-11-26,2024-11-26,合同会社ＬＦ,,合同会社,福岡県,福岡市東区,多の津４丁目７－２３メイゾン多々良２０２,,40,131,8130034,,,,,,,2024-11-26,1,,,,,エルエフ,0
1798,7290003016116,新規,0,2024-11-26,2024-11-26,ＳＭＲ合同会社,,合同会社,福岡県,久留米市,日吉町１３番地１９ウルトラキャニオンシティビルＢ棟１階,,40,203,8300017,,,,,,,2024-11-26,1,,,,,エスエムアール,0
1799,7290003016124,新規,0,2024-11-26,2024-11-26,合同会社ＷＡ　ｎｅｔ,,合同会社,福岡県,春日市,須玖北４丁目６２番地,,40,218,8160864,,,,,,,2024-11-26,1,,,,,ワネット,0
1807,7300003002205,新規,0,2024-11-26,2024-11-26,合同会社ティイー,,合同会社,佐賀県,鳥栖市,田代外町６７８番地３－３０１,,41,203,8410016,,,,,,,2024-11-26,1,,,,,ティイー,0
1809,7310001019332,新規,0,2024-11-26,2024-11-26,株式会社Ｆｉｎｅｓｏｆｔ,,株式会社,長崎県,諫早市,目代町１２４４番地３３,,42,204,8540007,,,,,,,2024-11-26,1,,,,,ファインソフト,0
1813,7320003004521,新規,0,2024-11-26,2024-11-26,ＪＯＬＩＳ合同会社,,合同会社,大分県,由布市,湯布院町塚原１２０３番地９,,44,213,8795101,,,,,,,2024-11-26,1,,,,,ジョリス,0
1820,7360003014483,新規,0,2024-11-26,2024-11-26,合同会社貴一,,合同会社,沖縄県,沖縄市,諸見里１丁目３９－１８マンション緑１０３,,47,211,9040032,,,,,,,2024-11-26,1,,,,,タカイチ,0
1821,7370001051973,新規,0,2024-11-26,2024-11-26,株式会社パルサーホールディングス,,株式会社,宮城県,仙台市泉区,加茂２丁目９番地の２,,04,105,9813122,,,,,,,2024-11-26,1,,,,,パルサーホールディングス,0
1825,7380001034936,新規,0,2024-11-26,2024-11-26,株式会社都屋,,株式会社,福島県,伊達郡川俣町,字中島３番地の３５,,07,308,9601445,,,,,,,2024-11-26,1,,,,,ミヤコヤ,0
1826,7380001034944,新規,0,2024-11-26,2024-11-26,Ｌｕｍｉｃｓ　ｔｅｒｒｅ株式会社,,株式会社,福島県,会津若松市,藤原１丁目９番地の１４,,07,202,9650029,,,,,,,2024-11-26,1,,,,,ルミックステール,0
1843,7430001093142,新規,0,2024-11-26,2024-11-26,株式会社Ｃｏｎｎｅｃｔ　Ｐｒｏｍｏｔｉｏｎ,,株式会社,北海道,札幌市西区,西野七条８丁目９番１５号,,01,107,0630037,,,,,,,2024-11-26,1,,,,,コネクトプロモーション,0
1849,7430003017025,新規,0,2024-11-26,2024-11-26,合同会社颯,,合同会社,北海道,札幌市中央区,宮の森四条１０丁目８－５,,01,101,0640954,,,,,,,2024-11-26,1,,,,,ソウ,0
1856,7700150127978,新規,0,2024-11-26,2024-11-26,ｈａｉｎａｎｘｉｎｙｉｓｈｉｙｅｙｏｕｘｉａｎｇｏｎｇｓｉ,,外国会社等,,,,,,,,ｈａｉｎａｎｓｈｅｎｇ，ｈａｉｋｏｕｓｈｉ，ｌｏｎｇｈｕａｑｕｓｈｉｍａｏｄｏｎｇｌｕ２ｈａｏ，ｓｈｉｍａｏｚｈｏｎｇｘｉｎＦｄｏｎｇ３ｃｅｎｇ０３０４ｆａｎｇ,,,,,,2024-11-26,1,,,,,ハイナンシンイーシーイエヨウシエンゴンスー,0
1866,8010001250098,新規,0,2024-11-26,2024-11-26,Ｋ．Ｔ．Ｈｏｌｄｉｎｇｓ株式会社,,株式会社,東京都,中央区,銀座７丁目１３番２０号,,13,102,1040061,,,,,,,2024-11-26,1,,,,,ケーティーホールディングス,0
1867,8010001250131,新規,0,2024-11-26,2024-11-26,株式会社ｂｏｏｍｓｈａｋｅ　ｊａｐａｎ,,株式会社,東京都,中央区,東日本橋２丁目１６番４号Ｊプロ東日本橋ビル５階,,13,102,1030004,,,,,,,2024-11-26,1,,,,,ブームシェイクジャパン,0
1868,8010001250197,新規,0,2024-11-26,2024-11-26,村上胎内洋上風力発電株式会社,,株式会社,東京都,千代田区,大手町２丁目２番１号,,13,101,1000004,,,,,,,2024-11-26,1,,,,,ムラカミタイナイヨウジョウフウリョクハツデン,0
1869,8010001250214,新規,0,2024-11-26,2024-11-26,財成株式会社,,株式会社,東京都,中央区,日本橋茅場町３丁目８－１０リベラ茅場町７Ｆ,,13,102,1030025,,,,,,,2024-11-26,1,,,,,ザイセイ,0
1870,8010001250230,新規,0,2024-11-26,2024-11-26,株式会社ＭＡＧＩＣＬＩＶＥ,,株式会社,東京都,中央区,銀座１丁目１２番４号Ｎ＆Ｅ・ＢＬＤ６Ｆ,,13,102,1040061,,,,,,,2024-11-26,1,,,,,マジックライブ,0
1873,8010003045538,新規,0,2024-11-26,2024-11-26,Ｔｈｅ　Ｐｅａｋ　Ｓｅｒｉｅｓ　ＶＩ合同会社,,合同会社,東京都,千代田区,四番町４番地９新東京国際リーガル内,,13,101,1020081,,,,,,,2024-11-26,1,,,,,ザピークシリーズシックス,0
1874,8010003045587,新規,0,2024-11-26,2024-11-26,合同会社オーラムファン,,合同会社,東京都,中央区,日本橋室町１丁目１１番１２号日本橋水野ビル７階,,13,102,1030022,,,,,,,2024-11-26,1,,,,,オーラムファン,0
1875,8010101016416,新規,0,2024-11-26,2024-11-26,株式会社そろもん,,株式会社,東京都,八王子市,千人町２丁目１番１号,,13,201,1930835,,,,,,,2024-11-26,1,,,,,ソロモン,0
1885,8010401186628,新規,0,2024-11-26,2024-11-26,株式会社クロステックｙａｍａｔｓｕｋａ,,株式会社,東京都,港区,六本木７丁目１番１４－４０７号パークホームズ六本木乃木坂アーバンレジデンス,,13,103,1060032,,,,,,,2024-11-26,1,,,,,クロステックヤマツカ,0
1886,8010403033902,新規,0,2024-11-26,2024-11-26,ジャパンクレスト合同会社,,合同会社,東京都,港区,北青山１丁目３－１,,13,103,1070061,,,,,,,2024-11-26,1,,,,,ジャパンクレスト,0
1890,8010501053240,新規,0,2024-11-26,2024-11-26,ＮＯＢＵＯホールディングス株式会社,,株式会社,東京都,台東区,上野６丁目１６番１７号朝日生命上野昭和通ビル８階,,13,106,1100005,,,,,,,2024-11-26,1,,,,,ノブオホールディングス,0
1891,8010501053257,新規,0,2024-11-26,2024-11-26,株式会社春パール,,株式会社,東京都,台東区,台東３丁目４３番６号仲御徒町フラッツ５０２号室,,13,106,1100016,,,,,,,2024-11-26,1,,,,,ハルパール,0
1892,8010503007649,新規,0,2024-11-26,2024-11-26,Ｇｅｏｒｇｅ　Ｃｏｎｓｕｌｔｉｎｇ合同会社,,合同会社,東京都,台東区,千束４丁目４４番７－１２０２,,13,106,1110031,,,,,,,2024-11-26,1,,,,,ジョージコンサルティング,0
1898,8010701046795,新規,0,2024-11-26,2024-11-26,株式会社タノシルバ,,株式会社,東京都,品川区,上大崎３丁目５番１１号,,13,109,1410021,,,,,,,2024-11-26,1,,,,,タノシルバ,0
1899,8010701046894,新規,0,2024-11-26,2024-11-26,しまくる株式会社,,株式会社,東京都,品川区,大崎４丁目１１番１１号,,13,109,1410032,,,,,,,2024-11-26,1,,,,,シマクル,0
1903,8010703007465,新規,0,2024-11-26,2024-11-26,合同会社ラッキーしました,,合同会社,東京都,品川区,上大崎２丁目１０番１１号アビティ目黒３０６号,,13,109,1410021,,,,,,,2024-11-26,1,,,,,ラッキーシマシタ,0
1904,8010801035599,新規,0,2024-11-26,2024-11-26,株式会社わんおーわん,,株式会社,東京都,大田区,東雪谷２丁目２５番７号,,13,111,1450065,,,,,,,2024-11-26,1,,,,,ワンオーワン,0
1916,8011001165930,新規,0,2024-11-26,2024-11-26,株式会社サザビーリーグアウルスケープ,,株式会社,東京都,渋谷区,千駄ヶ谷２丁目１１番１号,,13,113,1510051,,,,,,,2024-11-26,1,,,,,サザビーリーグアウルスケープ,0
1917,8011001166029,新規,0,2024-11-26,2024-11-26,株式会社きいろ,,株式会社,東京都,渋谷区,恵比寿西２丁目４番８号ウィンド恵比寿ビル８階,,13,113,1500021,,,,,,,2024-11-26,1,,,,,キイロ,0
1918,8011001166210,新規,0,2024-11-26,2024-11-26,株式会社バリューサーチ,,株式会社,東京都,渋谷区,渋谷３丁目６番２号エクラート渋谷４－５Ｆ、８Ｆ,,13,113,1500002,,,,,,,2024-11-26,1,,,,,バリューサーチ,0
1919,8011003020489,新規,0,2024-11-26,2024-11-26,合同会社池尾,,合同会社,東京都,渋谷区,代々木１丁目１９番５号,,13,113,1510053,,,,,,,2024-11-26,1,,,,,イケオ,0
1927,8011101109696,新規,0,2024-11-26,2024-11-26,株式会社ユニバーサル,,株式会社,東京都,新宿区,新宿３丁目５番６号,,13,104,1600022,,,,,,,2024-11-26,1,,,,,ユニバーサル,0
1931,8011103015216,新規,0,2024-11-26,2024-11-26,合同会社ＮＴＫ,,合同会社,東京都,新宿区,百人町２丁目５番１－３０１号,,13,104,1690073,,,,,,,2024-11-26,1,,,,,エヌティケイ,0
1932,8011103015224,新規,0,2024-11-26,2024-11-26,合同会社ＩＮＮＯＮＥ　ＥＮＴＥＲＴＡＩＮＭＥＮＴ,,合同会社,東京都,新宿区,西新宿３丁目３番１３号西新宿水間ビル２Ｆ,,13,104,1600023,,,,,,,2024-11-26,1,,,,,イノワンエンターテインメント,0
1938,8011401026600,新規,0,2024-11-26,2024-11-26,株式会社藤四郎,,株式会社,東京都,板橋区,大山西町５４番１３－１３０２号,,13,119,1730033,,,,,,,2024-11-26,1,,,,,トウシロウ,0
1945,8011801045217,新規,0,2024-11-26,2024-11-26,ＨＡＴＡＧＯ株式会社,,株式会社,東京都,足立区,日ノ出町２８－２７０３,,13,121,1200021,,,,,,,2024-11-26,1,,,,,ハタゴ,0
1949,8012401042505,新規,0,2024-11-26,2024-11-26,株式会社ブラインドフォース,,株式会社,東京都,調布市,深大寺元町３丁目８‐７,,13,208,1820017,,,,,,,2024-11-26,1,,,,,ブラインドフォース,0
1950,8012405005061,新規,0,2024-11-26,2024-11-26,キリスト教たんぽぽ教会,,その他の設立登記法人,東京都,府中市,分梅町３丁目６７番２号,,13,206,1830033,,,,,,,2024-11-26,1,,,,,キリストキョウタンポポキョウカイ,0
1951,8012801023583,新規,0,2024-11-26,2024-11-26,株式会社セレシア,,株式会社,東京都,立川市,上砂町３丁目２番地の５,,13,202,1900032,,,,,,,2024-11-26,1,,,,,セレシア,0
1970,8020001160387,新規,0,2024-11-26,2024-11-26,ＯＸＪＵＭＰ株式会社,,株式会社,神奈川県,横浜市西区,北幸２丁目１０番４８号むつみビル３階,,14,103,2200004,,,,,,,2024-11-26,1,,,,,オックスジャンプ,0
1971,8020003027312,新規,0,2024-11-26,2024-11-26,Ｊｏｎｚｏｎ　Ｔｏｋｙｏ合同会社,,合同会社,神奈川県,横浜市栄区,笠間３丁目４５番Ｆ－７０１,,14,115,2470006,,,,,,,2024-11-26,1,,,,,ジョンゾントーキョー,0
1973,8021001083842,新規,0,2024-11-26,2024-11-26,Ａ５１アセットマネジメント株式会社,,株式会社,神奈川県,小田原市,中町１丁目５番１２－３１０号,,14,206,2500005,,,,,,,2024-11-26,1,,,,,エーゴジュウイチアセットマネジメント,0
1981,8030001163604,新規,0,2024-11-26,2024-11-26,株式会社イシガプロ,,株式会社,埼玉県,さいたま市岩槻区,大字真福寺１０８３,,11,110,3390044,,,,,,,2024-11-26,1,,,,,イシガプロ,0
1983,8030003025562,新規,0,2024-11-26,2024-11-26,合同会社ＬＯＬＷｅ,,合同会社,埼玉県,上尾市,宮本町６番２０号,,11,219,3620036,,,,,,,2024-11-26,1,,,,,ロルウィー,0
1984,8030003025570,新規,0,2024-11-26,2024-11-26,もふもふ介護合同会社,,合同会社,埼玉県,入間市,扇台５丁目６番８号,,11,225,3580023,,,,,,,2024-11-26,1,,,,,モフモフカイゴ,0
1995,8040001136278,新規,0,2024-11-26,2024-11-26,株式会社トラスト企画,,株式会社,千葉県,松戸市,西馬橋蔵元町１０４番地の２フェリス蔵元２Ｆ,,12,207,2710046,,,,,,,2024-11-26,1,,,,,トラストキカク,0
1999,8050001055758,新規,0,2024-11-26,2024-11-26,Ｌｏｗ　ｃａｒｂｏｎ　ｔｅｃｈ株式会社,,株式会社,茨城県,坂東市,沓掛４０９２－１０,,08,228,3060515,,,,,,,2024-11-26,1,,,,,ロウカボウティチ,0
2000,8050001055766,新規,0,2024-11-26,2024-11-26,株式会社ハナノツボミ,,株式会社,茨城県,水戸市,吉沢町６３３番地１,,08,201,3100845,,,,,,,2024-11-26,1,,,,,ハナノツボミ,0
2001,8050001055782,新規,0,2024-11-26,2024-11-26,Ｂａｓｅ‐ｍｏＡ株式会社,,株式会社,茨城県,つくば市,上郷２８０１番地,,08,220,3002645,,,,,,,2024-11-26,1,,,,,ベースモア,0
2007,8050003008838,新規,0,2024-11-26,2024-11-26,Ｈｏｕｓｔｏｎ　Ｔａｘ　ａｎｄ　Ｃｏｎｓｕｌｔｉｎｇ合同会社,,合同会社,茨城県,つくば市,島名１６３１番地２,,08,220,3002655,,,,,,,2024-11-26,1,,,,,ヒューストンタックスアンドコンサルティング,0
2012,8080401027593,新規,0,2024-11-26,2024-11-26,株式会社遠州ハママツモータース,,株式会社,静岡県,浜松市浜名区,横須賀１０８２番地の９,,22,139,4340036,,,,,,,2024-11-26,1,,,,,エンシュウハママツモータース,0
2018,8100003007883,新規,0,2024-11-26,2024-11-26,合同会社土屋,,合同会社,長野県,南佐久郡南牧村,大字野辺山１９９番地１５,,20,305,3841305,,,,,,,2024-11-26,1,,,,,ツチヤ,0
2027,8120001270548,新規,0,2024-11-26,2024-11-26,株式会社マミーズホーム,,株式会社,大阪府,枚方市,楠葉中之芝１丁目６番１９号,,27,210,5731101,,,,,,,2024-11-26,1,,,,,マミーズホーム,0
2028,8120001270597,新規,0,2024-11-26,2024-11-26,アクトケミカル２１株式会社,,株式会社,大阪府,大阪市東住吉区,矢田４丁目２番３０号,,27,121,5460023,,,,,,,2024-11-26,1,,,,,アクトケミカルニジュウイチ,0
2032,8120003027987,新規,0,2024-11-26,2024-11-26,合同会社ｂｙｂｅ,,合同会社,大阪府,大阪市中央区,久太郎町３丁目３－５大晋第１ビル４階,,27,128,5410056,,,,,,,2024-11-26,1,,,,,バイビー,0
2033,8120003028044,新規,0,2024-11-26,2024-11-26,合同会社悠,,合同会社,大阪府,大阪市北区,梅田１丁目１－３大阪駅前第３ビル２９階１－１－１号室,,27,127,5300001,,,,,,,2024-11-26,1,,,,,ハルカ,0
2040,8120901050082,新規,0,2024-11-26,2024-11-26,株式会社ＩｃｈｉＲｉｎ,,株式会社,大阪府,豊中市,庄本町１丁目１０番７号,,27,203,5610835,,,,,,,2024-11-26,1,,,,,イチリン,0
2044,8122001038586,新規,0,2024-11-26,2024-11-26,株式会社ペガサストレーニングジム,,株式会社,大阪府,八尾市,山本町南１丁目９番２２号,,27,212,5810013,,,,,,,2024-11-26,1,,,,,ペガサストレーニングジム,0
2047,8130001078429,新規,0,2024-11-26,2024-11-26,ＥｖｅｒＡｉｄ株式会社,,株式会社,京都府,京都市中京区,三条通烏丸東入梅忠町２４番地三条ＣＯＨＪＵビル４階,,26,104,6048136,,,,,,,2024-11-26,1,,,,,エバーエイド,0
2048,8130001078437,新規,0,2024-11-26,2024-11-26,Ｎ・リベックス株式会社,,株式会社,京都府,京都市下京区,七条御所ノ内南町８３番地,,26,106,6008864,,,,,,,2024-11-26,1,,,,,エヌリベックス,0
2050,8130003010034,新規,0,2024-11-26,2024-11-26,合同会社ＺｅｎｏＡｒｔｓ,,合同会社,京都府,京都市下京区,油小路町２９０－１プラネシア星の子３０３,,26,106,6008231,,,,,,,2024-11-26,1,,,,,ゼノアーツ,0
2055,8140001136540,新規,0,2024-11-26,2024-11-26,株式会社旭工務店,,株式会社,兵庫県,神戸市垂水区,塩屋町９丁目２０－１４ファミーユ塩屋１０１号,,28,108,6550872,,,,,,,2024-11-26,1,,,,,アサヒコウムテン,0
2061,8160003003340,新規,0,2024-11-26,2024-11-26,合同会社蒼天堂,,合同会社,滋賀県,大津市,野郷原２丁目３番７号,,25,201,5202133,,,,,,,2024-11-26,1,,,,,ソウテンドウ,0
2079,8190001031828,新規,0,2024-11-26,2024-11-26,株式会社万海金属,,株式会社,三重県,四日市市,大字羽津４４９８番地１,,24,202,5100012,,,,,,,2024-11-26,1,,,,,マンカイキンゾク,0
2085,8200001043169,新規,0,2024-11-26,2024-11-26,ＬＴ設備株式会社,,株式会社,岐阜県,羽島郡笠松町,北及１８０番地第二カトービル１階Ｂ号室,,21,303,5016064,,,,,,,2024-11-26,1,,,,,エルティーセツビ,0
2091,8220003003895,新規,0,2024-11-26,2024-11-26,ＴＭオフィス合同会社,,合同会社,石川県,小松市,波佐谷町ヲ２４２番地,,17,203,9230182,,,,,,,2024-11-26,1,,,,,ティーエムオフィス,0
2093,8230001020636,新規,0,2024-11-26,2024-11-26,株式会社まるつじ,,株式会社,富山県,氷見市,窪３２０３番地１,,16,205,9350024,,,,,,,2024-11-26,1,,,,,マルツジ,0
2096,8240001064153,新規,0,2024-11-26,2024-11-26,株式会社Ｃｈａｍｐ　Ｐｒｏｔｅｃｔｉｏｎ,,株式会社,広島県,広島市南区,宇品御幸３丁目８番７号,,34,103,7340015,,,,,,,2024-11-26,1,,,,,シャンプロテクション,0
2102,8280001009294,新規,0,2024-11-26,2024-11-26,株式会社ＴＡＣ,,株式会社,島根県,雲南市,大東町下佐世９９３－１,,32,209,6991215,,,,,,,2024-11-26,1,,,,,タック,0
2104,8290001108070,新規,0,2024-11-26,2024-11-26,七海電子日本株式会社,,株式会社,福岡県,福岡市西区,愛宕浜４丁目３４番４号,,40,135,8190013,,,,,,,2024-11-26,1,,,,,セブンシーズデンシジャパン,0
2105,8290001108087,新規,0,2024-11-26,2024-11-26,株式会社モビリティデザインラボ,,株式会社,福岡県,福岡市東区,みどりが丘３丁目３０番１号,,40,131,8130021,,,,,,,2024-11-26,1,,,,,モビリティデザインラボ,0
2109,8290003016107,新規,0,2024-11-26,2024-11-26,合同会社メディコーチ,,合同会社,福岡県,福岡市博多区,博多駅前１丁目２３－２ＰａｒｋＦｒｏｎｔ博多駅前１丁目５Ｆ－Ｂ,,40,132,8120011,,,,,,,2024-11-26,1,,,,,メディコーチ,0
2118,8340001026928,新規,0,2024-11-26,2024-11-26,不動産相続あんしんサポート株式会社,,株式会社,鹿児島県,鹿児島市,西田２丁目１０番１３－５０３号,,46,201,8900046,,,,,,,2024-11-26,1,,,,,フドウサンソウゾクアンシンサポート,0
2121,8370001051972,新規,0,2024-11-26,2024-11-26,株式会社白幸測建,,株式会社,宮城県,仙台市青葉区,愛子東４丁目９番２６号,,04,101,9893127,,,,,,,2024-11-26,1,,,,,シラユキソッケン,0
2127,8380001034943,新規,0,2024-11-26,2024-11-26,株式会社ＡＱＵＡ,,株式会社,福島県,郡山市,安積町日出山字神明下４４番地１０,,07,203,9630101,,,,,,,2024-11-26,1,,,,,アクア,0
2134,8430001093141,新規,0,2024-11-26,2024-11-26,クリエイピア株式会社,,株式会社,北海道,札幌市中央区,南二条西５丁目３１－１ＲＭＢｌｄ．７０１,,01,101,0600062,,,,,,,2024-11-26,1,,,,,クリエイピア,0
2137,8430003017024,新規,0,2024-11-26,2024-11-26,合同会社ＴＭ倶楽部,,合同会社,北海道,虻田郡倶知安町,北四条東４丁目１－１,,01,400,0440004,,,,,,,2024-11-26,1,,,,,ティーエムクラブ,0
2143,8700150127969,新規,0,2024-11-26,2024-11-26,桜山７区,,その他,熊本県,菊池市,泗水町永２７３２番地,,43,210,8611204,,,,,,,2024-11-26,1,,,,,サクラヤマナナク,0
2144,8700150127977,新規,0,2024-11-26,2024-11-26,Ｓｈｅｎｚｈｅｎ　Ｚｈｏｕｍｉｎｇ　Ｅｌｅｃｔｒｏｎｉｃｓ　Ｃｏ．，Ｌｉｍｉｔｅｄ,,外国会社等,,,,,,,,３１Ｇ，Ｕｎｉｔ　２，Ｂｕｉｌｄｉｎｇ　１３，ＺｈｅｎｙｅＬｕａｎＳｈａｎＧｕ　Ｇａｒｄｅｎ　Ｐｈａｓｅ　１，８１　Ｂａｏｈｅ　Ａｖｅｎｕｅ，Ｂａｏｌｏｎｇ　Ｃｏｍｍｕｎｉｔｙ，Ｂａｏｌｏｎｇ　Ｓｔｒｅｅｔ，Ｌｏｎｇｇａｎｇ　Ｄｉｓｔｒｉｃｔ，Ｓｈｅｎｚｈｅｎ,,,,,,2024-11-26,1,,,,,シンセンゾウミンエレクトロニクスカンパニーリミテッド,0
2154,9010001250064,新規,0,2024-11-26,2024-11-26,東展株式会社,,株式会社,東京都,中央区,入船２丁目３番７号築地エーアイユービル５Ｆ,,13,102,1040042,,,,,,,2024-11-26,1,,,,,トウテン,0
2155,9010003045537,新規,0,2024-11-26,2024-11-26,Ｔｈｅ　Ｐｅａｋ　Ｓｅｒｉｅｓ　Ｖ合同会社,,合同会社,東京都,千代田区,四番町４番地９新東京国際リーガル内,,13,101,1020081,,,,,,,2024-11-26,1,,,,,ザピークシリーズファイブ,0
2156,9010003045553,新規,0,2024-11-26,2024-11-26,ＨｉＴＨＩＵＭ　Ｅｎｅｒｇｙ　Ｓｔｏｒａｇｅ　Ｊａｐａｎ合同会社,,合同会社,東京都,中央区,日本橋３丁目９番１号日本橋三丁目スクエア１１階,,13,102,1030027,,,,,,,2024-11-26,1,,,,,ハイチウムエネルギーストレージジャパン,0
2157,9010003045586,新規,0,2024-11-26,2024-11-26,合同会社ウイング,,合同会社,東京都,千代田区,神田和泉町１番地６－１６ヤマトビル４０５,,13,101,1010024,,,,,,,2024-11-26,1,,,,,ウイング,0
2159,9010005039173,新規,0,2024-11-26,2024-11-26,一般社団法人静岡菊川蓄電所,,その他の設立登記法人,東京都,千代田区,丸の内１丁目４番１号東京共同会計事務所内,,13,101,1000005,,,,,,,2024-11-26,1,,,,,シズオカキクガワチクデンショ,0
2160,9010101016415,新規,0,2024-11-26,2024-11-26,フォーカスポイント株式会社,,株式会社,東京都,八王子市,大和田町２丁目６番８号,,13,201,1920045,,,,,,,2024-11-26,1,,,,,フォーカスポイント,0
2166,9010401186593,新規,0,2024-11-26,2024-11-26,株式会社Ｐｅａｋ　Ａｓｓｉｓｔ,,株式会社,東京都,港区,南青山３丁目１５番９号ＭＩＮＯＷＡ表参道３階,,13,103,1070062,,,,,,,2024-11-26,1,,,,,ピークアシスト,0
2167,9010401186619,新規,0,2024-11-26,2024-11-26,株式会社Ｇｅｎｔｌｙ,,株式会社,東京都,港区,南青山３丁目１番３６号青山丸竹ビル６Ｆ,,13,103,1070062,,,,,,,2024-11-26,1,,,,,ジェントリー,0
2168,9010401186627,新規,0,2024-11-26,2024-11-26,株式会社ＨＫＳ,,株式会社,東京都,港区,三田３丁目１－２３メザキビル３階,,13,103,1080073,,,,,,,2024-11-26,1,,,,,エイチケーエス,0
2169,9010401186676,新規,0,2024-11-26,2024-11-26,株式会社由莉,,株式会社,東京都,港区,北青山１丁目３番１号アールキューブ青山３階,,13,103,1070061,,,,,,,2024-11-26,1,,,,,ユウリ,0
2176,9010503007648,新規,0,2024-11-26,2024-11-26,宮惣合同会社,,合同会社,東京都,台東区,東上野６丁目１０番１５号,,13,106,1100015,,,,,,,2024-11-26,1,,,,,ミヤソウ,0
2178,9010601066348,新規,0,2024-11-26,2024-11-26,株式会社夜なんです,,株式会社,東京都,墨田区,江東橋３丁目５番８号Ｋビル５階Ｄ号室,,13,107,1300022,,,,,,,2024-11-26,1,,,,,ヨルナンデス,0
2184,9010801035598,新規,0,2024-11-26,2024-11-26,株式会社ＡＭＢＩＴＩＯＵＳ,,株式会社,東京都,大田区,西蒲田７丁目２９番３号,,13,111,1440051,,,,,,,2024-11-26,1,,,,,アンビシャス,0
2186,9010901056379,新規,0,2024-11-26,2024-11-26,株式会社ＨＵＢ　ＳＯＬ,,株式会社,東京都,世田谷区,船橋５丁目２番９号,,13,112,1560055,,,,,,,2024-11-26,1,,,,,ハブソル,0
2187,9010901056387,新規,0,2024-11-26,2024-11-26,株式会社ＧＡＴＥＷＡＹ,,株式会社,東京都,世田谷区,若林３丁目３番１７号,,13,112,1540023,,,,,,,2024-11-26,1,,,,,ゲートウェイ,0
2199,9011001165979,新規,0,2024-11-26,2024-11-26,ノバビアソリューションズ株式会社,,株式会社,東京都,渋谷区,千駄ヶ谷５丁目２７番３号新宿ヤマトビル８Ｆ,,13,113,1510051,,,,,,,2024-11-26,1,,,,,ノバビアソリューションズ,0
2200,9011001166003,新規,0,2024-11-26,2024-11-26,株式会社ＡＳＲＥＡＬ,,株式会社,東京都,渋谷区,桜丘町８番１６号パークアクシス渋谷桜丘ウエスト７０６,,13,113,1500031,,,,,,,2024-11-26,1,,,,,アズリアル,0
2203,9011003020447,新規,0,2024-11-26,2024-11-26,合同会社マルオインプラント,,合同会社,東京都,渋谷区,恵比寿西１丁目２１番７－１２０２号,,13,113,1500021,,,,,,,2024-11-26,1,,,,,,0
2213,9011101109679,新規,0,2024-11-26,2024-11-26,株式会社ＳＺＫ,,株式会社,東京都,新宿区,四谷４丁目１０番地,,13,104,1600004,,,,,,,2024-11-26,1,,,,,エスゼットケー,0
2217,9011103015223,新規,0,2024-11-26,2024-11-26,ＺＵＮ合同会社,,合同会社,東京都,新宿区,西新宿８丁目１６－１新宿グランドプラザ９０７,,13,104,1600023,,,,,,,2024-11-26,1,,,,,ズン,0
2223,9011105011245,新規,0,2024-11-26,2024-11-26,特定目的会社ＩＯＴ,,その他の設立登記法人,東京都,新宿区,四谷２丁目９番地１５東京ユナイテッド綜合事務所内,,13,104,1600004,,,,,,,2024-11-26,1,,,,,アイオーティー,0
2226,9011301030189,新規,0,2024-11-26,2024-11-26,株式会社ＢＡＵＭ,,株式会社,東京都,杉並区,上高井戸１丁目２番８号ＡｐａｒｔｍｅｎｔふうＢ－１,,13,115,1680074,,,,,,,2024-11-26,1,,,,,バウム,0
2231,9011603004527,新規,0,2024-11-26,2024-11-26,合同会社Ｙａｏ,,合同会社,東京都,練馬区,練馬３丁目１３－７,,13,120,1760001,,,,,,,2024-11-26,1,,,,,ヤオ,0
2232,9011701027859,新規,0,2024-11-26,2024-11-26,株式会社Ｇｌｏｂａｌ　Ｊａｐａｎ,,株式会社,東京都,江戸川区,春江町２丁目３５番８号,,13,123,1320003,,,,,,,2024-11-26,1,,,,,グローバルジャパン,0
2244,9020001021290,新規,0,2024-11-26,2024-11-26,株式会社カクゾウ,,株式会社,神奈川県,横浜市港北区,綱島西１丁目４番２３,,14,109,2230053,,,,,,,2024-11-26,1,,,,,カクゾウ,0
2252,9020001160304,新規,0,2024-11-26,2024-11-26,株式会社ＹＡＭＡＧＡ,,株式会社,神奈川県,横浜市南区,永田東１丁目８番３号,,14,105,2320072,,,,,,,2024-11-26,1,,,,,ヤマガ,0
2260,9021001083841,新規,0,2024-11-26,2024-11-26,スターロード株式会社,,株式会社,神奈川県,厚木市,船子１０２４番地１０,,14,212,2430034,,,,,,,2024-11-26,1,,,,,スターロード,0
2265,9021003015272,新規,0,2024-11-26,2024-11-26,合同会社ＫＡＺＵＹＡ,,合同会社,神奈川県,海老名市,大谷南４丁目１番４３号,,14,215,2430418,,,,,,,2024-11-26,1,,,,,カズヤ,0
2271,9030001163644,新規,0,2024-11-26,2024-11-26,株式会社ｇａｒａｇｅ　Ｓｋｙｅ,,株式会社,埼玉県,比企郡吉見町,大字下細谷６１１番２,,11,347,3550118,,,,,,,2024-11-26,1,,,,,ガレージスカイ,0
2278,9030005021955,新規,0,2024-11-26,2024-11-26,特定非営利活動法人ぷらっと,,その他の設立登記法人,埼玉県,さいたま市見沼区,東大宮６丁目１５８番地１キャピタルヒルズ４０３号,,11,104,3370051,,,,,,,2024-11-26,1,,,,,プラット,0
2292,9050001055781,新規,0,2024-11-26,2024-11-26,株式会社ヨシダ工業,,株式会社,茨城県,龍ケ崎市,若柴町３１０２番地１６,,08,208,3010041,,,,,,,2024-11-26,1,,,,,ヨシダコウギョウ,0
2298,9080001026623,新規,0,2024-11-26,2024-11-26,株式会社きずな,,株式会社,静岡県,焼津市,駅北４丁目１０番２５号,,22,212,4250028,,,,,,,2024-11-26,1,,,,,キズナ,0
2300,9080101025153,新規,0,2024-11-26,2024-11-26,株式会社ピザボックス,,株式会社,静岡県,富士市,吉原２丁目１１－６マルイチビル２階,,22,210,4170051,,,,,,,2024-11-26,1,,,,,ピザボックス,0
2307,9110002010390,新規,0,2024-11-26,2024-11-26,有限会社河間屋商店,,有限会社,新潟県,新潟市南区,月潟１５２９番地,,15,106,9501304,,,,,,,2024-11-26,1,,,,,コウマヤショウテン,0
2320,9120001270547,新規,0,2024-11-26,2024-11-26,鼎龍株式会社,,株式会社,大阪府,大阪市東淀川区,豊里１丁目７番３１号ＳＥＮＳＥ東淀川３０５,,27,114,5330013,,,,,,,2024-11-26,1,,,,,テイリュウ,0
2321,9120001270555,新規,0,2024-11-26,2024-11-26,利＿商事株式会社,00137147,株式会社,大阪府,大阪市東住吉区,今川６丁目２番３号,,27,121,5460003,,,,,,,2024-11-26,1,,,,,リシンショウジ,0
2322,9120001270588,新規,0,2024-11-26,2024-11-26,株式会社ノミンブルド,,株式会社,大阪府,大阪市西区,九条南４丁目２０番２０号,,27,106,5500025,,,,,,,2024-11-26,1,,,,,ノミンブルド,0
2323,9120001270596,新規,0,2024-11-26,2024-11-26,株式会社Ｏｆｆｅｒｓ,,株式会社,大阪府,大阪市西区,北堀江１丁目２－２７－１０階,,27,106,5500014,,,,,,,2024-11-26,1,,,,,オファーズ,0
2324,9120001270605,新規,0,2024-11-26,2024-11-26,株式会社ｗｉｌｌ,,株式会社,大阪府,大阪市西区,北堀江３丁目１０－１７,,27,106,5500014,,,,,,,2024-11-26,1,,,,,ウィル,0
2327,9120003028043,新規,0,2024-11-26,2024-11-26,合同会社Ｇｌｏｓｓ,,合同会社,大阪府,大阪市北区,天神西町７番１３号６０３,,27,127,5300045,,,,,,,2024-11-26,1,,,,,グロス,0
2333,9120903005430,新規,0,2024-11-26,2024-11-26,合同会社ＯＫＤ,,合同会社,大阪府,豊能郡能勢町,森上１９１番地の１９,,27,322,5630362,,,,,,,2024-11-26,1,,,,,オーケーディー,0
2335,9122001038684,新規,0,2024-11-26,2024-11-26,株式会社ＫＡＩＯ,,株式会社,大阪府,東大阪市,高井田本通７丁目１番１６号,,27,227,5770066,,,,,,,2024-11-26,1,,,,,カイオウ,0
2342,9130001078436,新規,0,2024-11-26,2024-11-26,株式会社ＴＫＳニュートリションラボ,,株式会社,京都府,京都市左京区,一乗寺南大丸町２６,,26,103,6068186,,,,,,,2024-11-26,1,,,,,ティーケーエスニュートリションラボ,0
2343,9130003010033,新規,0,2024-11-26,2024-11-26,合同会社浮遊,,合同会社,京都府,京都市左京区,高野東開町１番地７東大路高野第二住宅１号棟１－２０２,,26,103,6068107,,,,,,,2024-11-26,1,,,,,フユウ,0
2349,9140003021327,新規,0,2024-11-26,2024-11-26,ＯＲＢＥＡ　ＪＡＰＡＮ合同会社,,合同会社,兵庫県,伊丹市,寺本６丁目２１４番地,,28,207,6640026,,,,,,,2024-11-26,1,,,,,オルベアジャパン,0
2362,9180005020843,新規,0,2024-11-26,2024-11-26,ＡＳＥＡＮ協同組合,,その他の設立登記法人,愛知県,名古屋市西区,山田町大字上小田井字東古川３１１７番地,,23,104,4520818,,,,,,,2024-11-26,1,,,,,アセアン,0
2368,9200001043168,新規,0,2024-11-26,2024-11-26,株式会社ＲＳＴ,,株式会社,岐阜県,岐阜市,石谷３２８,,21,201,5011106,,,,,,,2024-11-26,1,,,,,リスト,0
2375,9240001064160,新規,0,2024-11-26,2024-11-26,株式会社大晃ソレイユホールディングス,,株式会社,広島県,尾道市,向島町９５１５番地１,,34,205,7220073,,,,,,,2024-11-26,1,,,,,タイコウソレイユホールディングス,0
2376,9240003006953,新規,0,2024-11-26,2024-11-26,合同会社ＶＩＢＥＳＨＩＲＯＳＨＩＭＡ,,合同会社,広島県,広島市安佐北区,落合南３丁目１４番１３号,,34,106,7391732,,,,,,,2024-11-26,1,,,,,バイブスヒロシマ,0
2378,9250001020914,新規,0,2024-11-26,2024-11-26,株式会社月華,,株式会社,山口県,岩国市,周東町中山４９３番地１,,35,208,7420415,,,,,,,2024-11-26,1,,,,,ゲッカ,0
2380,9260001039672,新規,0,2024-11-26,2024-11-26,クロステック株式会社,,株式会社,岡山県,小田郡矢掛町,矢掛３１９８番地,,33,461,7141201,,,,,,,2024-11-26,1,,,,,クロステック,0
2389,9290001108078,新規,0,2024-11-26,2024-11-26,株式会社きぃすとん九州,,株式会社,福岡県,糸島市,二丈福井５８９２番２７,,40,230,8191631,,,,,,,2024-11-26,1,,,,,キィストンキュウシュウ,0
2390,9290001108094,新規,0,2024-11-26,2024-11-26,株式会社Ｆａｉｒａｌｅ,,株式会社,福岡県,福岡市城南区,田島２丁目１６－２,,40,136,8140113,,,,,,,2024-11-26,1,,,,,フェアーレ,0
2394,9290003016106,新規,0,2024-11-26,2024-11-26,ＡＳＹ合同会社,,合同会社,福岡県,福岡市博多区,中洲２丁目３番５号中洲会館５階,,40,132,8100801,,,,,,,2024-11-26,1,,,,,エーエスワイ,0
2395,9290003016122,新規,0,2024-11-26,2024-11-26,合同会社Ｓｔａｎｄｂｙ,,合同会社,福岡県,福岡市中央区,高砂１丁目１７番２７号,,40,133,8100011,,,,,,,2024-11-26,1,,,,,スタンドバイ,0
2400,9300005007217,新規,0,2024-11-26,2024-11-26,一般社団法人幡船の里,,その他の設立登記法人,佐賀県,多久市,西多久町大字板屋６１５７番地４,,41,204,8460041,,,,,,,2024-11-26,1,,,,,バンセンノサト,0
2403,9320001020824,新規,0,2024-11-26,2024-11-26,株式会社銘凱,,株式会社,大分県,大分市,三佐３丁目１２－２４,,44,201,8700108,,,,,,,2024-11-26,1,,,,,メイガイ,0
2412,9360001034473,新規,0,2024-11-26,2024-11-26,株式会社琉球ｐｒｅｓｅｎｔｓ,,株式会社,沖縄県,那覇市,おもろまち４丁目２番２７号,,47,201,9000006,,,,,,,2024-11-26,1,,,,,リュウキュウプレゼンツ,0
2417,9380001034942,新規,0,2024-11-26,2024-11-26,株式会社ワールド,,株式会社,福島県,郡山市,開成３丁目１２番６号,,07,203,9638851,,,,,,,2024-11-26,1,,,,,ワールド,0
2423,9410003004007,新規,0,2024-11-26,2024-11-26,合同会社ライトアップ,,合同会社,秋田県,横手市,大雄字傾城塚８２番地,,05,203,0130314,,,,,,,2024-11-26,1,,,,,ライトアップ,0
2424,9420001018932,新規,0,2024-11-26,2024-11-26,株式会社木村食品,,株式会社,青森県,平川市,李平西豊田２７番地１,,02,210,0360201,,,,,,,2024-11-26,1,,,,,キムラショクヒン,0
2429,9430001093140,新規,0,2024-11-26,2024-11-26,株式会社Ｓｅｅｄ,,株式会社,北海道,江別市,野幌住吉町３９番地の８,,01,217,0690816,,,,,,,2024-11-26,1,,,,,シード,0
2433,9430003017023,新規,0,2024-11-26,2024-11-26,合同会社Ｋａｓａｎｅ,,合同会社,北海道,小樽市,花園３丁目１１番１２号グリーンロードハイムＢ１１号室,,01,203,0470024,,,,,,,2024-11-26,1,,,,,カサネ,0
2441,9700150127976,新規,0,2024-11-26,2024-11-26,ｈｅｆｅｉｓｕｌｏｎｇｄｉａｎｚｉｋｅｊｉｙｏｕｘｉａｎｇｏｎｇｓｈｉ,,外国会社等,,,,,,,,Ｙｕｘｉ　Ｒｏａｄ　Ｎｏｒｔｈ，Ｇｏｎｇｑｉｎｇ　Ｒｏａｄ　Ｗｅｓｔ，Ｒｏｏｍ１３７，Ｂｕｉｌｄｉｎｇ　３４，Ｚｈｅｊｉａｎｇ　Ｍａｌｌ　Ｃｕｏｚｈｅｎ　Ｔｏｗｎ，Ｆｅｉｄｏｎｇ　Ｃｏｕｎｔｙ，Ｈｅｆｅｉ　Ｃｉｔｙ，Ａｎｈｕｉ　Ｐｒｏｖｉｎｃｅ,,,,,,2024-11-26,1,,,,,ヘフェイスロンデンシカギユウゲンコウシ,0
