sequenceNumber,corporateNumber,process,correct,updateDate,changeDate,name,nameImageId,kind,prefectureName,cityName,streetNumber,addressImageId,prefectureCode,cityCode,postCode,addressOutside,addressOutsideImageId,closeDate,closeCause,successorCorporateNumber,changeCause,assignmentDate,latest,enName,enPrefectureName,enCityName,enAddressOutside,furigana,hihyoji
10,1010003026387,登記記録の閉鎖等,0,2022-10-14,2022-10-07,合同会社Ｋ’ｓ　Ｍｏｔｉｏｎ　Ｉｎｔｅｒｎａｔｉｏｎａｌ,,合同会社,東京都,渋谷区,初台１丁目２番４号フォレスト山手２０１,,13,113,1510061,,,2022-10-07,清算の結了等,,,2017-11-08,1,,,,,ケーズモーションインターナショナル,0
15,1010401097699,登記記録の閉鎖等,0,2022-10-14,2022-09-26,株式会社サイド・バイ・サイド,,株式会社,東京都,港区,北青山２丁目７番２０号,,13,103,1070061,,,2022-09-26,清算の結了等,,,2015-10-05,1,,,,,サイドバイサイド,0
25,1010601045409,登記記録の閉鎖等,0,2022-10-14,2022-10-03,フォービスリンク株式会社,,株式会社,東京都,江東区,亀戸４丁目３６番１４号,,13,108,1360071,,,2022-10-03,合併による解散等,1011701006077,令和４年１０月１日東京都江東区亀戸四丁目３６番１４号日本フォームサービス株式会社（1011701006077）に合併し解散,2015-10-05,1,,,,,フォービスリンク,0
34,1010902000500,登記記録の閉鎖等,0,2022-10-14,2022-10-07,有限会社秋元金物店,,有限会社,東京都,世田谷区,北沢２丁目３８番９号,,13,112,1550031,,,2022-10-07,清算の結了等,,,2015-10-05,1,,,,,アキモトカナモノテン,0
35,1010902006588,登記記録の閉鎖等,0,2022-10-14,2022-10-11,有限会社三清企業,,有限会社,東京都,世田谷区,三軒茶屋２丁目１５番１２号シャンボール三軒茶屋１２０５,,13,112,1540024,,,2022-10-11,清算の結了等,,,2015-10-05,1,,,,,サンセイキギョウ,0
40,1011001113516,登記記録の閉鎖等,0,2022-10-14,2022-10-06,シングラー株式会社,,株式会社,東京都,港区,東新橋２丁目７－３,,13,103,1050021,,,2022-10-06,合併による解散等,2010401089183,令和４年１０月１日東京都千代田区丸の内二丁目４番１号パーソルキャリア株式会社（2010401089183）に合併し解散,2016-11-09,1,,,,,シングラー,0
50,1011201013565,登記記録の閉鎖等,0,2022-10-14,2022-10-03,株式会社Ｌｉｇｈｔ＆Ｔｒｕｔｈ,,株式会社,東京都,豊島区,南長崎２丁目１１番１９－３１０号,,13,116,1710052,,,2022-10-03,清算の結了等,,,2015-10-05,1,,,,,ライトアンドトゥルース,0
75,1013301047922,登記記録の閉鎖等,0,2022-10-14,2022-10-11,株式会社ａｍａｓ,,株式会社,東京都,豊島区,池袋４丁目９番６号佐藤ビル１０１,,13,116,1710014,,,2022-10-11,清算の結了等,,,2021-08-27,1,,,,,アマス,0
97,1021002014555,登記記録の閉鎖等,0,2022-10-14,2022-10-11,有限会社光栄工業,,有限会社,神奈川県,鎌倉市,小袋谷１丁目３番１号,,14,204,2470055,,,2022-10-11,清算の結了等,,,2015-10-05,1,,,,,ミツエイコウギョウ,0
101,1030001046063,登記記録の閉鎖等,0,2022-10-14,2022-10-03,株式会社ニハシ工務店,,株式会社,埼玉県,新座市,本多１丁目８番２３号,,11,230,3520022,,,2022-10-03,清算の結了等,,,2015-10-05,1,,,,,ニハシコウムテン,0
124,1040002051417,登記記録の閉鎖等,0,2022-10-14,2022-10-04,有限会社空調コンタクトサービス,,有限会社,千葉県,流山市,南流山６丁目２８番８号,,12,220,2700163,,,2022-10-04,清算の結了等,,,2015-10-05,1,,,,,クウチョウコンタクトサービス,0
149,1100003005786,登記記録の閉鎖等,0,2022-10-14,2022-10-11,合同会社地域保健研究所,,合同会社,長野県,安曇野市,穂高柏原３６８４番地２,,20,220,3998304,,,2022-10-11,清算の結了等,,,2020-09-04,1,,,,,チイキホケンケンキュウジョ,0
157,1120001162999,登記記録の閉鎖等,0,2022-10-14,2022-10-06,株式会社ｍｙｕ’ｓコーポレーション,,株式会社,大阪府,枚方市,交北１丁目８番２５号,,27,210,5731161,,,2022-10-06,清算の結了等,,,2015-10-05,1,,,,,,0
178,1120101022608,登記記録の閉鎖等,0,2022-10-14,2022-10-11,株式会社ＪＣコーポレーション,,株式会社,大阪府,堺市西区,太平寺５５２番地,,27,144,5938314,,,2022-10-11,清算の結了等,,,2015-10-05,1,,,,,ジェイシーコーポレーション,0
180,1120101048768,登記記録の閉鎖等,0,2022-10-14,2022-10-11,ＡｒＫＷＡｒＤ株式会社,,株式会社,大阪府,堺市北区,百舌鳥赤畑町２丁４６番２ホームライフ三国ヶ丘ビル５Ｄ,,27,146,5918037,,,2022-10-11,清算の結了等,,,2015-10-05,1,,,,,アークワード,0
194,1130005012423,登記記録の閉鎖等,0,2022-10-14,2022-10-13,公益財団法人宇治市文化センター,,その他の設立登記法人,京都府,宇治市,折居台１丁目１番地,,26,204,6110023,,,2022-10-13,清算の結了等,,,2015-10-05,1,,,,,ウジシブンカセンター,0
197,1140001047364,登記記録の閉鎖等,0,2022-10-14,2022-10-07,株式会社尼崎ラス製造所,,株式会社,兵庫県,尼崎市,長洲中通３丁目２３番２０号,,28,202,6600802,,,2022-10-07,清算の結了等,,,2015-10-05,1,,,,,アマガサキラスセイゾウショ,0
199,1140001059178,登記記録の閉鎖等,0,2022-10-14,2022-10-11,三和スチール工業株式会社,,株式会社,兵庫県,姫路市,飾磨区今在家１１４６番地,,28,201,6728079,,,2022-10-11,合併による解散等,3010601027264,令和４年１０月１日東京都江東区有明三丁目１４番１２号ＮＳＭコイルセンター株式会社（3010601027264）に合併し解散,2015-10-05,1,,,,,,0
200,1140001078855,登記記録の閉鎖等,0,2022-10-14,2022-10-03,福祉総合事業株式会社,,株式会社,兵庫県,伊丹市,池尻７丁目１８４番地,,28,207,6640027,,,2022-10-03,合併による解散等,6140002063942,令和４年１０月１日兵庫県伊丹市池尻七丁目１８４番地フクユ管理サービス株式会社（6140002063942）に合併し解散,2015-10-05,1,,,,,フクシソウゴウジギョウ,0
211,1160003001986,登記記録の閉鎖等,0,2022-10-14,2022-10-11,イーマ合同会社,,合同会社,滋賀県,彦根市,立花町６番１２号,,25,202,5220062,,,2022-10-11,清算の結了等,,,2020-01-24,1,,,,,イーマ,0
212,1160005002248,登記記録の閉鎖等,0,2022-10-14,2022-10-12,特定非営利活動法人比良比叡自然学校,,その他の設立登記法人,滋賀県,大津市,浜大津４丁目１番１号,,25,201,5200047,,,2022-10-12,清算の結了等,,,2015-10-05,1,,,,,ヒラヒエイシゼンガッコウ,0
218,1180001017990,登記記録の閉鎖等,0,2022-10-14,2022-10-03,株式会社ハンテック,,株式会社,愛知県,名古屋市中川区,小碓通２丁目８番地の１,,23,110,4540856,,,2022-10-03,清算の結了等,,,2015-10-05,1,,,,,ハンテック,0
233,1180301009960,登記記録の閉鎖等,0,2022-10-14,2022-10-05,株式会社大黒商事,,株式会社,愛知県,豊川市,中央通３丁目２８番地,,23,207,4420051,,,2022-10-05,清算の結了等,,,2015-10-05,1,,,,,ダイコクショウジ,0
241,1190001028624,登記記録の閉鎖等,0,2022-10-14,2022-10-07,株式会社ミンクス,,株式会社,三重県,鈴鹿市,大池３丁目１１－９,,24,207,5130827,,,2022-10-07,清算の結了等,,,2021-08-24,1,,,,,ミンクス,0
260,1290001028770,登記記録の閉鎖等,0,2022-10-14,2022-10-06,大光ジャパン株式会社,,株式会社,福岡県,福岡市博多区,古門戸町７－２４博多パレス１０１,,40,132,8120029,,,2022-10-06,清算の結了等,,,2015-10-05,1,,,,,ダイコウジャパン,0
289,1350003001802,登記記録の閉鎖等,0,2022-10-14,2022-10-05,合資会社柳屋商店,,合資会社,宮崎県,小林市,細野１０２番地,,45,205,8860004,,,2022-10-05,清算の結了等,,,2015-10-05,1,,,,,ヤナギヤショウテン,0
292,1370301000140,登記記録の閉鎖等,0,2022-10-14,2022-10-03,石巻パツケージ株式会社,,株式会社,宮城県,石巻市,三河町８番地,,04,202,9860846,,,2022-10-03,合併による解散等,9370301000620,令和４年１０月１日宮城県石巻市三河町８番地株式会社七星社（9370301000620）に合併し解散,2015-10-05,1,,,,,イシノマキパッケージ,0
312,2010001096456,登記記録の閉鎖等,0,2022-10-14,2022-10-05,株式会社キュービーファイブ,,株式会社,東京都,千代田区,飯田橋３丁目１１番１３号飯田橋ｉ－ＭＡＲＫＡＮＮＥＸ７Ｆ,00122904,13,101,1020072,,,2022-10-05,合併による解散等,5010001228592,令和４年１０月１日東京都千代田区飯田橋三丁目１１番１３号ＭＡＹＪ４株式会社（5010001228592）に合併し解散,2015-10-05,1,,,,,キュービーファイブ,0
317,2010003037689,登記記録の閉鎖等,0,2022-10-14,2022-10-05,八峰風力インベストメント合同会社,,合同会社,東京都,中央区,日本橋１丁目４番１号日本橋一丁目ビルディング,,13,102,1030027,,,2022-10-05,合併による解散等,5010401107363,令和４年９月２６日東京都中央区日本橋一丁目４番１号日本橋一丁目ビルディング八峰風力開発株式会社（5010401107363）に合併し解散,2022-05-20,1,,,,,ハッポウフウリョクインベストメント,0
320,2010005032192,登記記録の閉鎖等,0,2022-10-14,2022-10-13,ヴァイパー一般社団法人,,その他の設立登記法人,東京都,中央区,日本橋１丁目４番１号日本橋一丁目ビルディング,,13,102,1030027,,,2022-10-13,清算の結了等,,,2020-08-26,1,,,,,ヴァイパー,0
322,2010401097434,登記記録の閉鎖等,0,2022-10-14,2022-09-26,レスツオン株式会社,,株式会社,東京都,港区,芝浦４丁目１９番１,,13,103,1080023,,,2022-09-26,清算の結了等,,,2015-10-05,1,,,,,レスツオン,0
330,2010501011055,登記記録の閉鎖等,0,2022-10-14,2022-10-11,株式会社パンクリエイト,,株式会社,東京都,台東区,東上野６丁目１番７号ＭＳＫビル９０１,,13,106,1100015,,,2022-10-11,清算の結了等,,,2015-10-05,1,,,,,パンクリエイト,0
336,2010801010715,登記記録の閉鎖等,0,2022-10-14,2022-10-04,株式会社ＡＨＩ,,株式会社,東京都,大田区,東糀谷５丁目２２番６号,,13,111,1440033,,,2022-10-04,清算の結了等,,,2015-10-05,1,,,,,エイエイチアイ,0
340,2010802002323,登記記録の閉鎖等,0,2022-10-14,2022-10-03,有限会社榎戸工業所,,有限会社,東京都,大田区,東馬込１丁目４８番６号,,13,111,1430022,,,2022-10-03,清算の結了等,,,2015-10-05,1,,,,,エノキドコウギョウショ,0
341,2010802005441,登記記録の閉鎖等,0,2022-10-14,2022-10-03,株式会社五代産業,,株式会社,東京都,大田区,蒲田本町１丁目２番５号,,13,111,1440053,,,2022-10-03,合併による解散等,2010801024203,令和４年１０月１日東京都大田区蒲田本町一丁目２番５号トモエホールディングス株式会社（2010801024203）に合併し解散,2015-10-05,1,,,,,,0
362,2011101080300,登記記録の閉鎖等,0,2022-10-14,2022-10-07,デジタルエージェンシー株式会社,,株式会社,東京都,練馬区,春日町１丁目２０番２号,,13,120,1790074,,,2022-10-07,合併による解散等,1011101037508,令和４年９月１日東京都練馬区春日町一丁目２０番２号株式会社Ｄｉｇｉｔａｌ　Ｓｔａｃｋｓ（1011101037508）に合併し解散,2017-04-25,1,,,,,デジタルエージェンシー,0
377,2011601016084,登記記録の閉鎖等,0,2022-10-14,2022-10-11,株式会社幸真水産,,株式会社,東京都,練馬区,向山４丁目４番２９号,,13,120,1760022,,,2022-10-11,清算の結了等,,,2015-10-05,1,,,,,,0
378,2011601018188,登記記録の閉鎖等,0,2022-10-14,2022-09-30,株式会社クオリス,,株式会社,東京都,練馬区,西大泉３丁目２２番１８号,,13,120,1780065,,,2022-09-30,合併による解散等,3011601022305,令和４年９月１日東京都目黒区中根一丁目２４番３号株式会社東京不動産開発（3011601022305）に合併し解散,2015-10-05,1,,,,,クオリス,0
389,2011803003194,登記記録の閉鎖等,0,2022-10-14,2022-10-07,エフェクト・インフォ合同会社,,合同会社,東京都,足立区,綾瀬１丁目３３番１４号,,13,121,1200005,,,2022-10-07,清算の結了等,,,2018-02-19,1,,,,,エフェクトインフォ,0
390,2012301002300,登記記録の閉鎖等,0,2022-10-14,2022-10-06,株式会社メモリアル多摩,,株式会社,東京都,町田市,上小山田町２１４３番地５,,13,209,1940201,,,2022-10-06,合併による解散等,5021002026175,令和４年１０月１日神奈川県相模原市中央区星が丘三丁目１５番２２号株式会社みどりの杜（5021002026175）に合併し解散,2015-10-05,1,,,,,メモリアルタマ,0
393,2012805002481,登記記録の閉鎖等,0,2022-10-14,2022-10-04,一般社団法人ＥＡＳＴ,,その他の設立登記法人,東京都,国分寺市,東戸倉１丁目１４番地２６,,13,214,1850002,,,2022-10-04,清算の結了等,,,2015-10-05,1,,,,,イースト,0
399,2013305002501,登記記録の閉鎖等,0,2022-10-14,2022-10-12,一般社団法人日本健康クリエイティブ協会,,その他の設立登記法人,東京都,豊島区,巣鴨１丁目２０番５号,,13,116,1700002,,,2022-10-12,清算の結了等,,,2016-05-06,1,,,,,ニホンケンコウクリエイティブキョウカイ,0
404,2020001051930,登記記録の閉鎖等,0,2022-10-14,2022-10-04,Ｉｓｓｉｓ　Ｊａｐａｎ株式会社,,株式会社,神奈川県,横浜市中区,山下町３７番地８,,14,104,2310023,,,2022-10-04,清算の結了等,,,2015-10-05,1,,,,,アイシスジャパン,0
412,2021001011032,登記記録の閉鎖等,0,2022-10-14,2022-10-07,アース建築株式会社,,株式会社,神奈川県,相模原市中央区,富士見３丁目３番１３号,,14,152,2520236,,,2022-10-07,清算の結了等,,,2015-10-05,1,,,,,,0
437,2040002048809,登記記録の閉鎖等,0,2022-10-14,2022-10-11,有限会社町山ミシン商会,,有限会社,千葉県,松戸市,大字上矢切１０６９番地の２,,12,207,2700000,,,2022-10-11,清算の結了等,,,2015-10-05,1,,,,,マチヤマミシンショウカイ,0
438,2040002067949,登記記録の閉鎖等,0,2022-10-14,2022-10-04,有限会社山川,,有限会社,千葉県,木更津市,文京５丁目５番２１号,,12,206,2920804,,,2022-10-04,清算の結了等,,,2015-10-05,1,,,,,ヤマカワ,0
458,2080403004282,登記記録の閉鎖等,0,2022-10-14,2022-10-11,ｆｉｒｓｔ　ｓｔｅｐ合同会社,,合同会社,静岡県,浜松市北区,細江町気賀１１２４６番地,,22,135,4311305,,,2022-10-11,清算の結了等,,,2021-06-04,1,,,,,ファーストステップ,0
470,2120001171917,登記記録の閉鎖等,0,2022-10-14,2022-10-11,ＨＳ　ＴＥＣＨ株式会社,,株式会社,大阪府,大阪市中央区,南船場４丁目４番２１号,,27,128,5420081,,,2022-10-11,清算の結了等,,,2015-10-05,1,,,,,エイチエステック,0
484,2120101007161,登記記録の閉鎖等,0,2022-10-14,2022-10-12,株式会社明紀商会,,株式会社,大阪府,堺市堺区,北瓦町１丁３番６号,,27,141,5900076,,,2022-10-12,清算の結了等,,,2015-10-05,1,,,,,メイキショウカイ,0
493,2130001012302,登記記録の閉鎖等,0,2022-10-14,2022-10-05,株式会社アバテキスタイル,,株式会社,京都府,京都市山科区,西野山中鳥井町１２３番地１６,,26,110,6078306,,,2022-10-05,清算の結了等,,,2015-10-05,1,,,,,アバテキスタイル,0
515,2180301022450,登記記録の閉鎖等,0,2022-10-14,2022-09-30,コントロールライン株式会社,,株式会社,愛知県,西尾市,鎌谷町大明神１１１番地１,,23,213,4450044,,,2022-09-30,清算の結了等,,,2015-10-05,1,,,,,コントロールライン,0
533,2230001002391,登記記録の閉鎖等,0,2022-10-14,2022-10-07,株式会社日非検査,,株式会社,富山県,富山市,四方荒屋２０３９番地の３９,,16,201,9302243,,,2022-10-07,清算の結了等,,,2015-10-05,1,,,,,ニッピケンサ,0
537,2250002015135,登記記録の閉鎖等,0,2022-10-14,2022-10-11,西日本技術開発有限会社,,有限会社,山口県,光市,大字立野５３３番地,,35,210,7430062,,,2022-10-11,清算の結了等,,,2015-10-05,1,,,,,ニシニホンギジュツカイハツ,0
538,2260005003210,登記記録の閉鎖等,0,2022-10-14,2022-10-13,特定非営利活動法人岡山環境カウンセラー協会,,その他の設立登記法人,岡山県,岡山市北区,下伊福２丁目６番地１号,,33,101,7000052,,,2022-10-13,清算の結了等,,,2015-10-05,1,,,,,オカヤマカンキョウカウンセラーキョウカイ,0
548,2290002048635,登記記録の閉鎖等,0,2022-10-14,2022-10-06,有限会社割烹福寿し,,有限会社,福岡県,久留米市,中央町２７番地の１２,,40,203,8300023,,,2022-10-06,清算の結了等,,,2015-10-05,1,,,,,カッポウフクズシ,0
562,2340002008963,登記記録の閉鎖等,0,2022-10-14,2022-10-07,有限会社松本ビル産業,,有限会社,鹿児島県,鹿児島市,中央町１５番地２,,46,201,8900053,,,2022-10-07,清算の結了等,,,2015-10-05,1,,,,,マツモトビルサンギョウ,0
565,2350002013087,登記記録の閉鎖等,0,2022-10-14,2022-10-07,有限会社脇坂建設,,有限会社,宮崎県,延岡市,野地町４丁目２２１３番地４,,45,203,8820802,,,2022-10-07,清算の結了等,,,2015-10-05,1,,,,,ワキサカケンセツ,0
568,2370002006139,登記記録の閉鎖等,0,2022-10-14,2022-10-04,有限会社宮利通商,,有限会社,宮城県,仙台市若林区,卸町５丁目３番地の６,,04,103,9840015,,,2022-10-04,清算の結了等,,,2015-10-05,1,,,,,ミヤトシツウショウ,0
580,2440002001041,登記記録の閉鎖等,0,2022-10-14,2022-10-05,有限会社カネニ西里工業,,有限会社,北海道,北斗市,七重浜１丁目１４番２８号,,01,236,0490111,,,2022-10-05,清算の結了等,,,2015-10-05,1,,,,,カネニニシザトコウギョウ,0
600,3010001106115,登記記録の閉鎖等,0,2022-10-14,2022-10-06,ＫＳＵエンジニアリング株式会社,,株式会社,東京都,中央区,日本橋浜町３丁目３番２号,,13,102,1030007,,,2022-10-06,合併による解散等,7080401012621,令和４年１０月１日静岡県浜松市東区北島町１５２１番地ＵＧＲコーポレーション株式会社（7080401012621）に合併し解散,2015-10-05,1,,,,,ケーエスユーエンジニアリング,0
609,3010001157744,登記記録の閉鎖等,0,2022-10-14,2022-10-06,ＳＣ株式会社,,株式会社,東京都,中央区,日本橋人形町２丁目１０番３号ジョイフルビル,,13,102,1030013,,,2022-10-06,清算の結了等,,,2015-10-05,1,,,,,,0
614,3010001182627,登記記録の閉鎖等,0,2022-10-14,2022-10-03,日本建物管理株式会社,,株式会社,東京都,中央区,日本橋富沢町１１番１号,,13,102,1030006,,,2022-10-03,合併による解散等,2010001090079,令和４年１０月１日東京都千代田区九段南二丁目４番１６号株式会社ライフポート西洋（2010001090079）に合併し解散,2017-04-18,1,,,,,ニホンタテモノカンリ,0
622,3010401111870,登記記録の閉鎖等,0,2022-10-14,2022-10-07,株式会社インタラクティブスペース,,株式会社,東京都,港区,虎ノ門３丁目６番２号第２秋山ビル３階,,13,103,1050001,,,2022-10-07,合併による解散等,6060001029960,令和４年９月３０日栃木県宇都宮市南大通り二丁目６番１号ＫＩＤＳ１ＳＴＢＬＤ株式会社キッズコーポレーションホールディングス（6060001029960）に合併し解散,2015-10-05,1,,,,,インタラクティブスペース,0
626,3010401145019,登記記録の閉鎖等,0,2022-10-14,2022-09-26,株式会社動きのコツＬｉｆｅ,,株式会社,東京都,港区,六本木７丁目１０－２０－１０１,,13,103,1060032,,,2022-09-26,清算の結了等,,,2019-04-15,1,,,,,ウゴキノコツライフ,0
648,3010703005580,登記記録の閉鎖等,0,2022-10-14,2022-10-07,合同会社サクセス,,合同会社,東京都,品川区,西五反田８丁目２番５号ファインズ五反田４Ｆ,,13,109,1410031,,,2022-10-07,清算の結了等,,,2021-01-08,1,,,,,サクセス,0
670,3011103008703,登記記録の閉鎖等,0,2022-10-14,2022-10-11,メディコフロンティア合同会社,,合同会社,東京都,新宿区,西新宿２丁目１番１号,,13,104,1600023,,,2022-10-11,合併による解散等,6010001033793,令和４年１０月１日東京都新宿区西新宿二丁目１番１号日本ステリ株式会社（6010001033793）に合併し解散,2019-04-03,1,,,,,メディコフロンティア,0
678,3011601003453,登記記録の閉鎖等,0,2022-10-14,2022-10-06,株式会社スズキスポーツ練馬,,株式会社,東京都,練馬区,春日町２丁目１４番３号サンハイム春日町１０１,,13,120,1790074,,,2022-10-06,清算の結了等,,,2015-10-05,1,,,,,スズキスポーツネリマ,0
686,3012401032072,登記記録の閉鎖等,0,2022-10-14,2022-10-07,株式会社Ｔ＆Ｋ．インターナショナル,,株式会社,東京都,狛江市,和泉本町１丁目３２番６号,,13,219,2010003,,,2022-10-07,清算の結了等,,,2016-11-22,1,,,,,ティーアンドケイインターナショナル,0
689,3013305001758,登記記録の閉鎖等,0,2022-10-14,2022-10-12,特定非営利活動法人ＩＣＴぷらす,,その他の設立登記法人,東京都,豊島区,目白４丁目２３番２３号,,13,116,1710031,,,2022-10-12,清算の結了等,,,2015-10-05,1,,,,,アイシーティープラス,0
712,3021002024486,登記記録の閉鎖等,0,2022-10-14,2022-10-04,有限会社まるもと,,有限会社,神奈川県,相模原市中央区,星が丘３丁目２番１５号,,14,152,2520238,,,2022-10-04,清算の結了等,,,2015-10-05,1,,,,,マルモト,0
717,3030001120031,登記記録の閉鎖等,0,2022-10-14,2022-09-30,株式会社ララコム,,株式会社,埼玉県,狭山市,入間川１丁目１７番２５号田島ビル１０１号室,,11,215,3501305,,,2022-09-30,清算の結了等,,,2017-05-01,1,,,,,ララコム,0
719,3030001148287,登記記録の閉鎖等,0,2022-10-14,2022-09-30,株式会社ＲＶＨ２,,株式会社,埼玉県,入間市,狭山台２丁目２番地１５,,11,225,3580033,,,2022-09-30,清算の結了等,,,2022-05-24,1,,,,,アールブイエイチツー,0
727,3040001067123,登記記録の閉鎖等,0,2022-10-14,2022-10-06,株式会社柏南自動車教習所,,株式会社,千葉県,柏市,高柳２１番地,,12,217,2770941,,,2022-10-06,合併による解散等,6140001050727,令和４年１０月１日兵庫県尼崎市大物町一丁目１番１号株式会社阪神ライディングスクール（6140001050727）に合併し解散,2015-10-05,1,,,,,ハクナンジドウシャキョウシュウジョ,0
730,3040002061703,登記記録の閉鎖等,0,2022-10-14,2022-10-04,八潮建設有限会社,,有限会社,千葉県,佐倉市,大蛇町４８２番地２,,12,212,2850043,,,2022-10-04,清算の結了等,,,2015-10-05,1,,,,,ヤシオケンセツ,0
735,3050001029997,登記記録の閉鎖等,0,2022-10-14,2022-10-04,総合資源開発株式会社,,株式会社,茨城県,常総市,川崎町字西通甲１０００番地１,,08,211,3002503,,,2022-10-04,清算の結了等,,,2015-10-05,1,,,,,ソウゴウシゲンカイハツ,0
737,3050002002953,登記記録の閉鎖等,0,2022-10-14,2022-10-05,有限会社堀野商店,,有限会社,茨城県,水戸市,河和田町４３８１番地の２４,,08,201,3114153,,,2022-10-05,清算の結了等,,,2015-10-05,1,,,,,ホリノショウテン,0
738,3060001007655,登記記録の閉鎖等,0,2022-10-14,2022-10-06,株式会社エコフィット,,株式会社,栃木県,宇都宮市,平出町３７２９番地１,,09,201,3210901,,,2022-10-06,清算の結了等,,,2015-10-05,1,,,,,エコフィット,0
742,3080102012494,登記記録の閉鎖等,0,2022-10-14,2022-10-12,有限会社岩井工業,,有限会社,静岡県,沼津市,大塚３９０番地の９,,22,203,4100306,,,2022-10-12,清算の結了等,,,2015-10-05,1,,,,,イワイコウギョウ,0
762,3120003010923,登記記録の閉鎖等,0,2022-10-14,2022-10-05,合同会社にこにこ,,合同会社,大阪府,大阪市浪速区,大国２丁目５－１５,,27,111,5560014,,,2022-10-05,清算の結了等,,,2015-10-05,1,,,,,ニコニコ,0
764,3120101039699,登記記録の閉鎖等,0,2022-10-14,2022-10-03,株式会社ザ・エム・シー,,株式会社,大阪府,泉佐野市,上町３丁目１０番１６号,,27,213,5980007,,,2022-10-03,合併による解散等,1120101040139,令和４年１０月１日大阪府泉佐野市上町三丁目１０番１６号株式会社フルミヤ（1120101040139）に合併し解散,2015-10-05,1,,,,,ザエムシー,0
768,3120101065464,登記記録の閉鎖等,0,2022-10-14,2022-10-12,株式会社アイス,,株式会社,大阪府,松原市,天美南５丁目１８番２３号,,27,217,5800033,,,2022-10-12,合併による解散等,5120001050473,令和４年１０月１１日大阪市港区波除三丁目９番８号ベラジオコーポレーション株式会社（5120001050473）に合併し解散,2022-04-25,1,,,,,アイス,0
777,3122002002257,登記記録の閉鎖等,0,2022-10-14,2022-10-13,有限会社新紘工作所,,有限会社,大阪府,東大阪市,新庄東２番３号,,27,227,5780951,,,2022-10-13,清算の結了等,,,2015-10-05,1,,,,,シンコウコウサクショ,0
787,3140002062708,登記記録の閉鎖等,0,2022-10-14,2022-10-13,有限会社エヌ・ケイ物流,,有限会社,兵庫県,小野市,万勝寺町９２６番地,,28,218,6751311,,,2022-10-13,清算の結了等,,,2015-10-05,1,,,,,エヌケイブツリュウ,0
793,3170001008436,登記記録の閉鎖等,0,2022-10-14,2022-10-12,株式会社木村新聞舗,,株式会社,和歌山県,紀の川市,後田９９番地,,30,208,6496622,,,2022-10-12,清算の結了等,,,2015-10-05,1,,,,,キムラシンブンホ,0
794,3170001012248,登記記録の閉鎖等,0,2022-10-14,2022-10-06,株式会社大福,,株式会社,和歌山県,紀の川市,名手市場９０番地,,30,208,6496631,,,2022-10-06,清算の結了等,,,2015-10-05,1,,,,,ダイフク,0
807,3180303003241,登記記録の閉鎖等,0,2022-10-14,2022-10-03,合同会社賢人倶楽部,,合同会社,愛知県,岡崎市,井田町字東魂場２７番地５０,,23,202,4440076,,,2022-10-03,清算の結了等,,,2015-10-05,1,,,,,ケンジンクラブ,0
811,3190002019356,登記記録の閉鎖等,0,2022-10-14,2022-10-11,有限会社内田コンピュータ会計,,有限会社,三重県,四日市市,久保田２丁目１２番１９号,,24,202,5100821,,,2022-10-11,清算の結了等,,,2015-10-05,1,,,,,ウチダコンピュータカイケイ,0
812,3190003003103,登記記録の閉鎖等,0,2022-10-14,2022-10-07,合同会社ＢｉｔＷａｖｅ,,合同会社,三重県,鈴鹿市,南玉垣町５５２０番地の１６,,24,207,5130816,,,2022-10-07,清算の結了等,,,2019-04-09,1,,,,,ビットウェーブ,0
818,3210002010502,登記記録の閉鎖等,0,2022-10-14,2022-10-07,有限会社のんきや,,有限会社,福井県,敦賀市,赤崎４４号２２番地の１,,18,202,9140272,,,2022-10-07,清算の結了等,,,2015-10-05,1,,,,,ノンキヤ,0
826,3240001028518,登記記録の閉鎖等,0,2022-10-14,2022-10-11,本万点田淵株式会社,,株式会社,広島県,大竹市,本町１丁目１０番１２号,,34,211,7390613,,,2022-10-11,清算の結了等,,,2015-10-05,1,,,,,ホンマンテンタブチ,0
829,3240002036767,登記記録の閉鎖等,0,2022-10-14,2022-10-11,有限会社ニシダホーム,,有限会社,広島県,廿日市市,宮内４丁目１１番１６号,,34,213,7380034,,,2022-10-11,清算の結了等,,,2015-10-05,1,,,,,ニシダホーム,0
847,3290802014892,登記記録の閉鎖等,0,2022-10-14,2022-10-11,有限会社七十一,,有限会社,福岡県,北九州市八幡西区,熊手２丁目３番１８号,,40,109,8060028,,,2022-10-11,清算の結了等,,,2015-10-05,1,,,,,ナナジュウイチ,0
851,3340001009053,登記記録の閉鎖等,0,2022-10-14,2022-10-12,株式会社フォワード,,株式会社,鹿児島県,薩摩川内市,宮里町９８０番地,,46,215,8950056,,,2022-10-12,清算の結了等,,,2015-10-05,1,,,,,フォワード,0
867,3400001008214,登記記録の閉鎖等,0,2022-10-14,2022-10-11,株式会社アルバ環境開発,,株式会社,岩手県,九戸郡軽米町,大字山内第９地割字小松原３０番地,,03,501,0286222,,,2022-10-11,清算の結了等,,,2015-10-05,1,,,,,アルバカンキョウカイハツ,0
882,3460102006433,登記記録の閉鎖等,0,2022-10-14,2022-10-07,有限会社かし和家,,有限会社,北海道,十勝郡浦幌町,字本町７３番地,,01,649,0895603,,,2022-10-07,清算の結了等,,,2015-10-05,1,,,,,カシワヤ,0
885,3500001015828,登記記録の閉鎖等,0,2022-10-14,2022-10-11,株式会社谷平組,,株式会社,愛媛県,南宇和郡愛南町,城辺甲５９８番地,,38,506,7984131,,,2022-10-11,清算の結了等,,,2015-10-05,1,,,,,タニヒラグミ,0
897,4010002015330,登記記録の閉鎖等,0,2022-10-14,2022-10-05,有限会社ユアサフォトグラフィ,,有限会社,東京都,文京区,関口３丁目３番４号３０９号室,,13,105,1120014,,,2022-10-05,清算の結了等,,,2015-10-05,1,,,,,ユアサフォトグラフィ,0
904,4010401131232,登記記録の閉鎖等,0,2022-10-14,2022-09-26,株式会社フィードネクスト,,株式会社,東京都,港区,三田５丁目１８番４号ハイツ北條４０３,,13,103,1080073,,,2022-09-26,清算の結了等,,,2017-05-09,1,,,,,フィードネクスト,0
912,4010403023386,登記記録の閉鎖等,0,2022-10-14,2022-09-26,合同会社杉戸インベストメント,,合同会社,東京都,港区,虎ノ門２丁目１０番１号株式会社シーアールイー内,,13,103,1050001,,,2022-09-26,清算の結了等,,,2020-07-31,1,,,,,スギトインベストメント,0
926,4011001103118,登記記録の閉鎖等,0,2022-10-14,2022-10-03,クロスファンクション株式会社,,株式会社,東京都,渋谷区,猿楽町３番１号,,13,113,1500033,,,2022-10-03,清算の結了等,,,2015-10-05,1,,,,,クロスファンクション,0
942,4011105008139,登記記録の閉鎖等,0,2022-10-14,2022-10-11,一般社団法人笑活協会,,その他の設立登記法人,東京都,新宿区,新宿１丁目１５番６号オリエント新宿３０３,,13,104,1600022,,,2022-10-11,清算の結了等,,,2017-12-27,1,,,,,ワラカツキョウカイ,0
957,4011705001063,登記記録の閉鎖等,0,2022-10-14,2022-10-11,一般社団法人滋慶キャリア総合支援センター,,その他の設立登記法人,東京都,江戸川区,東葛西６丁目７番５号,,13,123,1340084,,,2022-10-11,清算の結了等,,,2015-10-05,1,,,,,ジケイキャリアソウゴウシエンセンター,0
965,4012401035826,登記記録の閉鎖等,0,2022-10-14,2022-10-07,株式会社日本カビ対策プロジェクト,,株式会社,東京都,稲城市,押立８８６番地,,13,225,2060811,,,2022-10-07,清算の結了等,,,2019-10-09,1,,,,,ニホンカビタイサクプロジェクト,0
972,4013101007438,登記記録の閉鎖等,0,2022-10-14,2022-10-12,東京石油株式会社,,株式会社,東京都,福生市,東町１５番１,,13,218,1970021,,,2022-10-12,清算の結了等,,,2016-10-04,1,,,,,トウキョウセキユ,0
985,4020002019207,登記記録の閉鎖等,0,2022-10-14,2022-10-05,有限会社タナベ建築設計事務所,,有限会社,神奈川県,横浜市港南区,笹下７丁目２７番２６号,,14,111,2340052,,,2022-10-05,清算の結了等,,,2015-10-05,1,,,,,タナベケンチクセッケイジムショ,0
986,4020002021625,登記記録の閉鎖等,0,2022-10-14,2022-10-05,有限会社鈴木電機商会,,有限会社,神奈川県,横浜市旭区,中白根３丁目１８番１８号,,14,112,2410004,,,2022-10-05,清算の結了等,,,2015-10-05,1,,,,,スズキデンキショウカイ,0
992,4021001001601,登記記録の閉鎖等,0,2022-10-14,2022-10-11,株式会社中山財務事務所,,株式会社,神奈川県,藤沢市,鵠沼橘１丁目１５番７～２０７号,,14,205,2510024,,,2022-10-11,清算の結了等,,,2015-10-05,1,,,,,ナカヤマザイムジムショ,0
993,4021001009124,登記記録の閉鎖等,0,2022-10-14,2022-10-11,株式会社佐野インターナショナル,,株式会社,神奈川県,鎌倉市,浄明寺６丁目１１番２１号,,14,204,2480003,,,2022-10-11,清算の結了等,,,2015-10-05,1,,,,,サノインターナショナル,0
999,4021002005452,登記記録の閉鎖等,0,2022-10-14,2022-10-07,有限会社リープショウナン,,有限会社,神奈川県,藤沢市,善行１丁目１２番地の８エンゼルハイム１０４号,,14,205,2510871,,,2022-10-07,清算の結了等,,,2015-10-05,1,,,,,リープショウナン,0
1003,4030001010859,登記記録の閉鎖等,0,2022-10-14,2022-10-04,株式会社デーサンリサーチ,,株式会社,埼玉県,さいたま市緑区,東浦和５丁目２５番地４,,11,109,3360926,,,2022-10-04,清算の結了等,,,2015-10-05,1,,,,,デーサンリサーチ,0
1004,4030001016476,登記記録の閉鎖等,0,2022-10-14,2022-10-03,株式会社ティーエスジャパン,,株式会社,埼玉県,さいたま市西区,三橋６丁目５５６番地１０,,11,101,3310052,,,2022-10-03,清算の結了等,,,2015-10-05,1,,,,,ティーエスジャパン,0
1008,4030001105221,登記記録の閉鎖等,0,2022-10-14,2022-10-04,株式会社タナカ,,株式会社,埼玉県,越谷市,川柳町２丁目２９７番地３,,11,222,3430827,,,2022-10-04,合併による解散等,1030001064412,令和４年１０月１日埼玉県越谷市川柳町一丁目５９４番地１株式会社テクニカルメンテナンス（1030001064412）に合併し解散,2015-10-05,1,,,,,タナカ,0
1012,4030001148278,登記記録の閉鎖等,0,2022-10-14,2022-09-30,株式会社ＲＶＨ１,,株式会社,埼玉県,入間市,狭山台２丁目２番地１５,,11,225,3580033,,,2022-09-30,清算の結了等,,,2022-05-24,1,,,,,アールブイエイチワン,0
1032,4040002093563,登記記録の閉鎖等,0,2022-10-14,2022-10-03,有限会社武井鋼業,,有限会社,千葉県,柏市,泉字荒井下９５７番地の１,,12,217,2701456,,,2022-10-03,清算の結了等,,,2015-10-05,1,,,,,タケイコウギョウ,0
1037,4050001030005,登記記録の閉鎖等,0,2022-10-14,2022-10-04,富士流通運送株式会社,,株式会社,茨城県,常総市,川崎町字西通甲１０００番地１,,08,211,3002503,,,2022-10-04,清算の結了等,,,2015-10-05,1,,,,,フジリュウツウウンソウ,0
1061,4100001030668,登記記録の閉鎖等,0,2022-10-14,2022-10-11,株式会社水城漬物工房,,株式会社,長野県,松本市,大手４丁目１２番１６号,,20,202,3900874,,,2022-10-11,清算の結了等,,,2017-10-13,1,,,,,ミズシロツケモノコウボウ,0
1071,4120001154333,登記記録の閉鎖等,0,2022-10-14,2022-09-21,株式会社テクニカルエンジニアリング,,株式会社,大阪府,枚方市,山之上北町１１番１３号,,27,210,5730049,,,2022-09-21,清算の結了等,,,2015-10-05,1,,,,,テクニカルエンジニアリング,0
1086,4120002031580,登記記録の閉鎖等,0,2022-10-14,2022-10-05,中外紙器印刷有限会社,,有限会社,大阪府,大阪市北区,菅栄町１０番１号,,27,127,5300031,,,2022-10-05,清算の結了等,,,2015-10-05,1,,,,,チュウガイシキインサツ,0
1096,4120101060472,登記記録の閉鎖等,0,2022-10-14,2022-10-11,株式会社アシガ,,株式会社,大阪府,富田林市,須賀１丁目１番９号,,27,214,5840062,,,2022-10-11,清算の結了等,,,2019-09-04,1,,,,,アシガ,0
1113,4140001044540,登記記録の閉鎖等,0,2022-10-14,2022-10-11,山熱處理株式会社,,株式会社,兵庫県,加古郡稲美町,加古４８７番地の５,,28,381,6751105,,,2022-10-11,清算の結了等,,,2015-10-05,1,,,,,サンネツショリ,0
1118,4140002002290,登記記録の閉鎖等,0,2022-10-14,2022-09-30,有限会社平成重工,,有限会社,兵庫県,神戸市東灘区,住吉本町３丁目１０番６号,,28,101,6580051,,,2022-09-30,合併による解散等,9140001002056,令和４年９月２８日神戸市東灘区住吉本町三丁目１０番６号東幸海運株式会社（9140001002056）に合併し解散,2015-10-05,1,,,,,ヘイセイジュウコウ,0
1127,4170002008764,登記記録の閉鎖等,0,2022-10-14,2022-10-12,国際英語村イー・ビー・アイ有限会社,,有限会社,和歌山県,田辺市,東陽２３番６号,,30,206,6460029,,,2022-10-12,清算の結了等,,,2015-10-05,1,,,,,コクサイエイゴムライービーアイ,0
1139,4180301010387,登記記録の閉鎖等,0,2022-10-14,2022-10-05,株式会社豊川カントリー倶楽部,,株式会社,愛知県,豊川市,中央通３丁目３０番地,,23,207,4420051,,,2022-10-05,清算の結了等,,,2015-10-05,1,,,,,トヨカワカントリークラブ,0
1156,4230005003517,登記記録の閉鎖等,0,2022-10-14,2022-10-11,魚津新宿商店街振興組合,,その他の設立登記法人,富山県,魚津市,新宿８番１５号,,16,204,9370863,,,2022-10-11,清算の結了等,,,2015-10-05,1,,,,,ウオヅシンジュク,0
1165,4290001024602,登記記録の閉鎖等,0,2022-10-14,2022-10-11,スターホールディングス株式会社,,株式会社,福岡県,福岡市早良区,西新５丁目１５番５５号,,40,137,8140002,,,2022-10-11,合併による解散等,5010001133033,令和４年９月３０日川崎市高津区溝口三丁目１４番１号日本エネ製作株式会社（5010001133033）に合併し解散,2015-10-05,1,,,,,スターホールディングス,0
1173,4290005010920,登記記録の閉鎖等,0,2022-10-14,2022-10-07,ＮＰＯ法人太陽文化振興会,,その他の設立登記法人,福岡県,久留米市,野伏間１丁目１５番２３号,,40,203,8300058,,,2022-10-07,清算の結了等,,,2015-10-05,1,,,,,タイヨウブンカシンコウカイ,0
1175,4290802020064,登記記録の閉鎖等,0,2022-10-14,2022-10-12,有限会社有川電機,,有限会社,福岡県,直方市,大字感田８７９番地４,,40,204,8220001,,,2022-10-12,清算の結了等,,,2015-10-05,1,,,,,アリカワデンキ,0
1180,4320003001612,登記記録の閉鎖等,0,2022-10-14,2022-10-07,合同会社新緑会,,合同会社,大分県,日田市,本町８番２０号,,44,204,8770014,,,2022-10-07,清算の結了等,,,2015-10-05,1,,,,,,0
1196,4380002034707,登記記録の閉鎖等,0,2022-10-14,2022-10-04,有限会社会議録サービス,,有限会社,福島県,喜多方市,字一丁目４５３６番地,,07,208,9660819,,,2022-10-04,清算の結了等,,,2015-10-05,1,,,,,カイギロクサービス,0
1200,4410002011842,登記記録の閉鎖等,0,2022-10-14,2022-10-11,有限会社松本電器商会,,有限会社,秋田県,大仙市,大曲栄町９番２１号,,05,212,0140061,,,2022-10-11,清算の結了等,,,2015-10-05,1,,,,,マツモトデンキショウカイ,0
1257,5010802003252,登記記録の閉鎖等,0,2022-10-14,2022-10-07,有限会社オフイスマット,,有限会社,東京都,品川区,中延４丁目２番１４号山本方,,13,109,1420053,,,2022-10-07,清算の結了等,,,2015-10-05,1,,,,,オフイスマット,0
1266,5011001129681,登記記録の閉鎖等,0,2022-10-14,2022-10-11,株式会社ＣＨＡＲＭｅ,,株式会社,東京都,世田谷区,代沢５丁目２８番１２号藤田ビル１－Ｃ,,13,112,1550032,,,2022-10-11,清算の結了等,,,2019-08-29,1,,,,,シャルム,0
1283,5011301020937,登記記録の閉鎖等,0,2022-10-14,2022-10-07,株式会社ＧＡＩＡ,,株式会社,東京都,杉並区,清水１丁目２６番１０号コモスペースＩＩ,00054467,13,115,1670033,,,2022-10-07,清算の結了等,,,2015-10-05,1,,,,,ガイア,0
1305,5011702016732,登記記録の閉鎖等,0,2022-10-14,2022-10-11,有限会社英商,,有限会社,東京都,江戸川区,南篠崎町４丁目２２番８号,,13,123,1330065,,,2022-10-11,清算の結了等,,,2015-10-05,1,,,,,エイショウ,0
1313,5012402002667,登記記録の閉鎖等,0,2022-10-14,2022-10-03,有限会社みねぎし,,有限会社,東京都,府中市,南町３丁目３１番地の３２,,13,206,1830026,,,2022-10-03,清算の結了等,,,2015-10-05,1,,,,,ミネギシ,0
1316,5012703001236,登記記録の閉鎖等,0,2022-10-14,2022-10-12,合同会社コンパス,,合同会社,東京都,西東京市,柳沢２丁目１４番３－２０１号,,13,229,2020022,,,2022-10-12,清算の結了等,,,2016-01-04,1,,,,,コンパス,0
1319,5013101006604,登記記録の閉鎖等,0,2022-10-14,2022-10-12,都土地建物株式会社,,株式会社,東京都,あきる野市,原小宮１丁目２番地２,,13,228,1970811,,,2022-10-12,清算の結了等,,,2015-10-05,1,,,,,ミヤコトチタテモノ,0
1322,5020001085942,登記記録の閉鎖等,0,2022-10-14,2022-10-05,株式会社アーカーシャ,,株式会社,神奈川県,川崎市麻生区,はるひ野３丁目３０番１１号,,14,137,2150036,,,2022-10-05,清算の結了等,,,2015-10-05,1,,,,,アーカーシャ,0
1358,5040003005946,登記記録の閉鎖等,0,2022-10-14,2022-09-30,梵天合同会社,,合同会社,千葉県,船橋市,薬円台２丁目１１番５号,,12,204,2740077,,,2022-09-30,清算の結了等,,,2015-10-05,1,,,,,ボンテン,0
1373,5080001004970,登記記録の閉鎖等,0,2022-10-14,2022-10-12,株式会社丸東,,株式会社,静岡県,静岡市葵区,古庄６丁目２番３－２０１号,,22,101,4200812,,,2022-10-12,清算の結了等,,,2015-10-05,1,,,,,マルトウ,0
1375,5080401003746,登記記録の閉鎖等,0,2022-10-14,2022-10-11,柳河テクノフォージ株式会社,,株式会社,静岡県,浜松市中区,高丘西１丁目１番１４号,,22,131,4338118,,,2022-10-11,合併による解散等,2012401001755,令和４年１０月１日東京都府中市宮西町一丁目１６番地の３第一みよしビル３階柳河精機株式会社（2012401001755）に合併し解散,2015-10-05,1,,,,,ヤナガワテクノフォージ,0
1386,5110001002558,登記記録の閉鎖等,0,2022-10-14,2022-10-03,株式会社信濃屋,,株式会社,新潟県,新潟市中央区,信濃町２４番１１号,,15,103,9518152,,,2022-10-03,合併による解散等,7110002005566,令和４年１０月１日新潟市中央区神道寺南二丁目４番１５号株式会社ＦＬＥＧＲＥ（7110002005566）に合併し解散,2015-10-05,1,,,,,シナノヤ,0
1388,5110001034155,登記記録の閉鎖等,0,2022-10-14,2022-10-03,株式会社ＳＵＮＴＡＲ,,株式会社,新潟県,新潟市中央区,神道寺南２丁目４番１５号,,15,103,9500986,,,2022-10-03,合併による解散等,7110002005566,令和４年１０月１日新潟市中央区神道寺南二丁目４番１５号株式会社ＦＬＥＧＲＥ（7110002005566）に合併し解散,2019-07-17,1,"SUNTAR Co., Ltd.",Niigata,"2-4-15,Kandojiminami, Chuo ku Niigata shi",,サンター,0
1412,5120003016992,登記記録の閉鎖等,0,2022-10-14,2022-10-05,ＤＸサポート合同会社,,合同会社,大阪府,大阪市北区,東天満１丁目１１番１５号若杉グランドビル別館,,27,127,5300044,,,2022-10-05,清算の結了等,,,2020-02-14,1,,,,,ディーエックスサポート,0
1441,5160001019614,登記記録の閉鎖等,0,2022-10-14,2022-10-11,株式会社辰企画,,株式会社,滋賀県,大津市,松が丘２丁目１番４号,,25,201,5202102,,,2022-10-11,清算の結了等,,,2016-07-15,1,,,,,タツキカク,0
1456,5190002005288,登記記録の閉鎖等,0,2022-10-14,2022-10-06,有限会社中西組,,有限会社,三重県,南牟婁郡紀宝町,神内２２２番地の５,,24,562,5195712,,,2022-10-06,清算の結了等,,,2015-10-05,1,,,,,,0
1457,5190002013423,登記記録の閉鎖等,0,2022-10-14,2022-10-07,有限会社ＴＭ,,有限会社,三重県,名張市,木屋町１３８６番地５,,24,208,5180723,,,2022-10-07,清算の結了等,,,2015-10-05,1,,,,,ティーエム,0
1472,5240001046757,登記記録の閉鎖等,0,2022-10-14,2022-10-13,ライズ・プロジェクト株式会社,,株式会社,広島県,広島市南区,京橋町９番１３号３Ｆ,,34,103,7320828,,,2022-10-13,清算の結了等,,,2015-10-05,1,,,,,,0
1475,5250001003063,登記記録の閉鎖等,0,2022-10-14,2022-10-11,宇部新開運輸株式会社,,株式会社,山口県,宇部市,港町１丁目１１番５６号,,35,202,7550027,,,2022-10-11,清算の結了等,,,2015-10-05,1,,,,,ウベシンカイウンユ,0
1477,5250002004218,登記記録の閉鎖等,0,2022-10-14,2022-10-12,有限会社ウイネックスうべ,,有限会社,山口県,宇部市,大字棚井字塚の前１２３６番地の１,,35,202,7590121,,,2022-10-12,清算の結了等,,,2015-10-05,1,,,,,ウイネックスウベ,0
1487,5290802006789,登記記録の閉鎖等,0,2022-10-14,2022-10-11,有限会社ユーシンエンジニアリング,,有限会社,福岡県,北九州市小倉南区,志井６丁目２８番２０－５１５号,,40,107,8020985,,,2022-10-11,清算の結了等,,,2015-10-05,1,,,,,ユーシンエンジニアリング,0
1491,5350001011535,登記記録の閉鎖等,0,2022-10-14,2022-10-03,株式会社ニチウン,,株式会社,宮崎県,日向市,船場町１番地３,,45,206,8830065,,,2022-10-03,合併による解散等,4350001006073,令和４年１０月１日宮崎県日向市船場町１番地１６日向運輸株式会社（4350001006073）に合併し解散,2015-10-05,1,,,,,ニチウン,0
1507,5420002013655,登記記録の閉鎖等,0,2022-10-14,2022-10-07,有限会社たなか,,有限会社,青森県,弘前市,大字取上３丁目１４番地１,,02,202,0368171,,,2022-10-07,清算の結了等,,,2015-10-05,1,,,,,タナカ,0
1508,5430001070003,登記記録の閉鎖等,0,2022-10-14,2022-10-03,株式会社メディコ赤沼,,株式会社,北海道,札幌市南区,石山二条６丁目１４番１号,,01,106,0050842,,,2022-10-03,清算の結了等,,,2015-10-05,1,,,,,メディコアカヌマ,0
1528,6010001021559,登記記録の閉鎖等,0,2022-10-14,2022-10-06,株式会社高阪鐵三郎商店,,株式会社,東京都,千代田区,神田富山町１７番地,,13,101,1010043,,,2022-10-06,清算の結了等,,,2015-10-05,1,,,,,コウサカテツサブロウショウテン,0
1537,6010003027620,登記記録の閉鎖等,0,2022-10-14,2022-10-06,ｄｏｎ’ｔ　ａｓｋ　ｐｏｌｉｃｙ合同会社,,合同会社,東京都,千代田区,二番町１１番地４ロジェ二番町５０５号室,,13,101,1020084,,,2022-10-06,清算の結了等,,,2018-05-30,1,,,,,,0
1541,6010401123517,登記記録の閉鎖等,0,2022-10-14,2022-09-26,株式会社Ｆａｃｅｌｌｉｎａ,,株式会社,東京都,港区,新橋２丁目１０－１ＮＫビルＢ１,,13,103,1050004,,,2022-09-26,清算の結了等,,,2016-03-07,1,,,,,ファッチェリーナ,0
1545,6010403017188,登記記録の閉鎖等,0,2022-10-14,2022-10-06,合同会社ノワール,,合同会社,東京都,港区,南青山２丁目２番１５号ウィン青山ビルＵＣＦ９階,,13,103,1070062,,,2022-10-06,合併による解散等,1010003022683,令和４年１０月１日東京都中央区日本橋二丁目２番３号ＲＩＳＨＥビルＵＣＦ４階株式会社ＭＥ－Ｃａｐｉｔａｌ（1010003022683）に合併し解散,2017-09-06,1,,,,,ノワール,0
1559,6010902006419,登記記録の閉鎖等,0,2022-10-14,2022-10-06,有限会社坂口浴場,,有限会社,東京都,世田谷区,池尻４丁目３５番２５号,,13,112,1540001,,,2022-10-06,清算の結了等,,,2015-10-05,1,,,,,サカグチヨクジョウ,0
1564,6011001127404,登記記録の閉鎖等,0,2022-10-14,2022-10-12,Ｉｎｐｌａｙａｂｌｅ　Ｊａｐａｎ株式会社,,株式会社,東京都,渋谷区,恵比寿２丁目２８番１０号,,13,113,1500013,,,2022-10-12,清算の結了等,,,2019-04-05,1,,,,,インプレイアブルジャパン,0
1584,6011305001940,登記記録の閉鎖等,0,2022-10-14,2022-10-04,特定非営利活動法人ＴｅｎＶまちづくりネットワーク機構,,その他の設立登記法人,東京都,杉並区,天沼３丁目１１番２１号,,13,115,1670032,,,2022-10-04,清算の結了等,,,2015-10-05,1,,,,,テンブマチヅクリネットワークキコウ,0
1596,6011702010783,登記記録の閉鎖等,0,2022-10-14,2022-10-12,有限会社松田樹脂製作所,,有限会社,東京都,江戸川区,中央２丁目１４番６号,,13,123,1320021,,,2022-10-12,清算の結了等,,,2015-10-05,1,,,,,マツダジュシセイサクショ,0
1603,6011802030120,登記記録の閉鎖等,0,2022-10-14,2022-10-07,有限会社ウィズメイト,,有限会社,東京都,葛飾区,東新小岩１丁目４番３号パークタワー東京イースト１９０５号室,,13,122,1240023,,,2022-10-07,清算の結了等,,,2015-10-05,1,,,,,ウィズメイト,0
1618,6020001014859,登記記録の閉鎖等,0,2022-10-14,2022-10-03,株式会社サンコートレーディング,,株式会社,神奈川県,横浜市西区,南幸２丁目４番１１号,,14,103,2200005,,,2022-10-03,合併による解散等,2020001014103,令和４年１０月１日横浜市西区南幸二丁目４番１１号アイシン貿易株式会社（2020001014103）に合併し解散,2015-10-05,1,,,,,サンコートレーディング,0
1645,6030001076972,登記記録の閉鎖等,0,2022-10-14,2022-10-03,株式会社深川製作所,,株式会社,埼玉県,川口市,西青木２丁目９番５号,,11,203,3320035,,,2022-10-03,合併による解散等,8030001076970,令和４年１０月１日埼玉県川口市西青木二丁目９番５号株式会社フカガワ（8030001076970）に合併し解散,2015-10-05,1,,,,,フカガワセイサクジョ,0
1646,6030001106663,登記記録の閉鎖等,0,2022-10-14,2022-09-30,株式会社ライト,,株式会社,埼玉県,さいたま市岩槻区,上野４丁目３番地の２,,11,110,3390073,,,2022-09-30,清算の結了等,,,2015-10-05,1,,,,,ライト,0
1663,6040002101968,登記記録の閉鎖等,0,2022-10-14,2022-10-03,有限会社吉野運輸,,有限会社,千葉県,いすみ市,深堀７３２番地３,,12,238,2980003,,,2022-10-03,清算の結了等,,,2015-10-05,1,,,,,,0
1669,6050002016876,登記記録の閉鎖等,0,2022-10-14,2022-10-04,榮伸警備有限会社,,有限会社,茨城県,下妻市,長塚１５７番地の５,,08,210,3040056,,,2022-10-04,清算の結了等,,,2015-10-05,1,,,,,エイシンケイビ,0
1670,6050002018914,登記記録の閉鎖等,0,2022-10-14,2022-10-04,有限会社北斗内装,,有限会社,茨城県,坂東市,沓掛乙７２１番地の３,,08,228,3060515,,,2022-10-04,清算の結了等,,,2015-10-05,1,,,,,ホクトナイソウ,0
1682,6110001012993,登記記録の閉鎖等,0,2022-10-14,2022-10-07,吉田農事株式会社,,株式会社,新潟県,新発田市,島潟２０３番地１,,15,206,9570011,,,2022-10-07,合併による解散等,6190001015642,令和４年１０月１日三重県四日市市高角町２９９７番地東海物産株式会社（6190001015642）に合併し解散,2015-10-05,1,,,,,ヨシダノウジ,0
1686,6120001002903,登記記録の閉鎖等,0,2022-10-14,2022-10-12,朝日電業株式会社,,株式会社,大阪府,大阪市西成区,玉出西２丁目１番４号,,27,122,5570045,,,2022-10-12,清算の結了等,,,2015-10-05,1,,,,,アサヒデンギョウ,0
1692,6120001231139,登記記録の閉鎖等,0,2022-10-14,2022-10-12,株式会社ｔａｍｅｎｙ,,株式会社,大阪府,大阪市中央区,西心斎橋２丁目８番１０号ＭＵ西心斎橋３０１号室,,27,128,5420086,,,2022-10-12,清算の結了等,,,2020-08-20,1,,,,,タメニー,0
1731,6150002005126,登記記録の閉鎖等,0,2022-10-14,2022-10-07,有限会社トミカワ建設,,有限会社,奈良県,大和郡山市,小泉町１６１番地,,29,203,6391042,,,2022-10-07,清算の結了等,,,2015-10-05,1,,,,,,0
1737,6170001003046,登記記録の閉鎖等,0,2022-10-14,2022-10-11,株式会社豆徳,,株式会社,和歌山県,和歌山市,福島５８３番地の５,,30,201,6408401,,,2022-10-11,清算の結了等,,,2015-10-05,1,,,,,マメトク,0
1743,6180003004479,登記記録の閉鎖等,0,2022-10-14,2022-10-04,合同会社長寿,,合同会社,愛知県,名古屋市中村区,寿町２８番地,,23,105,4530028,,,2022-10-04,合併による解散等,7010001224945,令和４年１０月１日名古屋市中村区太閤通四丁目１番地地域医療発展支援株式会社（7010001224945）に合併し解散,2015-10-05,1,,,,,チョウジュ,0
1744,6180003011285,登記記録の閉鎖等,0,2022-10-14,2022-10-03,合資会社明音堂,,合資会社,愛知県,犬山市,上坂町４丁目１５８番地,,23,215,4840059,,,2022-10-03,清算の結了等,,,2015-10-05,1,,,,,メイオンドウ,0
1752,6190003004032,登記記録の閉鎖等,0,2022-10-14,2022-10-11,合同会社Ｙｅｓ　ｗｅ　Ｃａｎ,,合同会社,三重県,員弁郡東員町,大字北大社１６９番地１０,,24,324,5110257,,,2022-10-11,清算の結了等,,,2022-07-06,1,,,,,イェスウィーキャン,0
1767,6240003005132,登記記録の閉鎖等,0,2022-10-14,2022-10-06,ヴェルトフリーデン合同会社,,合同会社,広島県,安芸郡海田町,蟹原２丁目１２番３号,,34,304,7360022,,,2022-10-06,清算の結了等,,,2021-06-07,1,,,,,ヴェルトフリーデン,0
1769,6250002011221,登記記録の閉鎖等,0,2022-10-14,2022-10-12,有限会社村田商店,,有限会社,山口県,下関市,吉見新町１丁目１番８号,,35,201,7596532,,,2022-10-12,清算の結了等,,,2015-10-05,1,,,,,ムラタショウテン,0
1777,6290001042354,登記記録の閉鎖等,0,2022-10-14,2022-10-06,株式会社ユニフラップ,,株式会社,福岡県,春日市,下白水北５丁目３５番地,,40,218,8160854,,,2022-10-06,清算の結了等,,,2015-10-05,1,,,,,,0
1780,6290001092440,登記記録の閉鎖等,0,2022-10-14,2022-10-05,アイ・ケイ・ケイキャピタル株式会社,,株式会社,福岡県,糟屋郡志免町,片峰３丁目６－５,,40,343,8112245,,,2022-10-05,清算の結了等,,,2021-03-26,1,,,,,アイケイケイキャピタル,0
1787,6290803002588,登記記録の閉鎖等,0,2022-10-14,2022-10-11,ロイヤルハイツ明石合同会社,,合同会社,福岡県,北九州市小倉北区,中井５丁目１４番１２号,,40,106,8030836,,,2022-10-11,清算の結了等,,,2016-03-10,1,,,,,ロイヤルハイツアカシ,0
1797,6340002008927,登記記録の閉鎖等,0,2022-10-14,2022-10-13,有限会社松田テント商会,,有限会社,鹿児島県,鹿児島市,新栄町１２番１２号,,46,201,8900072,,,2022-10-13,清算の結了等,,,2015-10-05,1,,,,,マツダテント,0
1800,6360002009411,登記記録の閉鎖等,0,2022-10-14,2022-10-06,有限会社雅建設,,有限会社,沖縄県,糸満市,西崎２丁目２３番９号,,47,210,9010305,,,2022-10-06,清算の結了等,,,2015-10-05,1,,,,,ミヤビケンセツ,0
1803,6370001006730,登記記録の閉鎖等,0,2022-10-14,2022-10-03,株式会社アイケアセンター,,株式会社,宮城県,仙台市青葉区,一番町３丁目５番２３号,,04,101,9800811,,,2022-10-03,合併による解散等,2370001010562,令和４年１０月１日仙台市青葉区一番町三丁目５番２３号株式会社メガネの相沢（2370001010562）に合併し解散,2015-10-05,1,,,,,アイケアセンター,0
1824,6430002002458,登記記録の閉鎖等,0,2022-10-14,2022-10-03,ウエルカム有限会社,,有限会社,北海道,札幌市東区,北六条東１丁目１番１０号,,01,103,0600906,,,2022-10-03,合併による解散等,2430001025240,令和４年１０月１日札幌市豊平区平岸二条八丁目２番６号株式会社サイド企画（2430001025240）に合併し解散,2015-10-05,1,,,,,ウエルカム,0
1857,7010403013418,登記記録の閉鎖等,0,2022-10-14,2022-09-26,合同会社アイダ,,合同会社,東京都,港区,港南４丁目６番８－２７０３号,,13,103,1080075,,,2022-09-26,清算の結了等,,,2015-10-05,1,,,,,,0
1870,7010801019990,登記記録の閉鎖等,0,2022-10-14,2022-10-04,株式会社テンセイ,,株式会社,東京都,大田区,南六郷３丁目１３番６－８０５号,,13,111,1440045,,,2022-10-04,清算の結了等,,,2015-10-05,1,,,,,テンセイ,0
1894,7011402001702,登記記録の閉鎖等,0,2022-10-14,2022-10-05,有限会社エムプラントサービス,,有限会社,東京都,板橋区,赤塚新町３丁目２５番１１号,00065935,13,119,1750093,,,2022-10-05,清算の結了等,,,2015-10-05,1,,,,,エムプラントサービス,0
1914,7020002085790,登記記録の閉鎖等,0,2022-10-14,2022-10-04,有限会社ウエハラ新聞舗,,有限会社,神奈川県,川崎市宮前区,馬絹６丁目６番２９号,,14,136,2160035,,,2022-10-04,清算の結了等,,,2015-10-05,1,,,,,ウエハラシンブンホ,0
1928,7021002002538,登記記録の閉鎖等,0,2022-10-14,2022-10-11,有限会社心天,,有限会社,神奈川県,藤沢市,亀井野２４８０番地の７,,14,205,2520813,,,2022-10-11,清算の結了等,,,2015-10-05,1,,,,,シンテン,0
1930,7021002032576,登記記録の閉鎖等,0,2022-10-14,2022-10-11,有限会社トッププラン,,有限会社,神奈川県,厚木市,恩名１丁目１６番１４号,,14,212,2430032,,,2022-10-11,清算の結了等,,,2015-10-05,1,,,,,トッププラン,0
1938,7030001118666,登記記録の閉鎖等,0,2022-10-14,2022-10-12,株式会社ＨＡＲＰ　Ｃｏｒｐ．,,株式会社,埼玉県,さいたま市大宮区,桜木町２丁目３番地大宮マルイ７階,,11,103,3300854,,,2022-10-12,清算の結了等,,,2017-02-14,1,,,,,ハープコープ,0
1951,7040001010979,登記記録の閉鎖等,0,2022-10-14,2022-10-05,薩摩産業株式会社,00018825,株式会社,千葉県,千葉市若葉区,谷当町１０２７番地７,,12,104,2650072,,,2022-10-05,清算の結了等,,,2015-10-05,1,,,,,サツマサンギョウ,0
1960,7040002011869,登記記録の閉鎖等,0,2022-10-14,2022-10-03,有限会社ヤハギ,,有限会社,千葉県,千葉市若葉区,千城台西１丁目４０番８号,,12,104,2640004,,,2022-10-03,清算の結了等,,,2015-10-05,1,,,,,ヤハギ,0
1961,7040002012512,登記記録の閉鎖等,0,2022-10-14,2022-10-04,有限会社リハル,,有限会社,千葉県,千葉市花見川区,さつきが丘２丁目１番１－１０８号,,12,102,2620014,,,2022-10-04,清算の結了等,,,2015-10-05,1,,,,,リハル,0
1972,7050003006025,登記記録の閉鎖等,0,2022-10-14,2022-10-05,合同会社ＴＲＩＬＹ,,合同会社,茨城県,水戸市,西原２丁目１２番地９号グランジェロ３０４号室,,08,201,3100044,,,2022-10-05,清算の結了等,,,2021-08-11,1,,,,,トライリー,0
1973,7060001021660,登記記録の閉鎖等,0,2022-10-14,2022-10-06,株式会社ＰＫテクノ宇都宮,,株式会社,栃木県,下野市,下坪山１７０４番地,,09,216,3230115,,,2022-10-06,清算の結了等,,,2015-10-05,1,,,,,ピーケーテクノウツノミヤ,0
1987,7080405007205,登記記録の閉鎖等,0,2022-10-14,2022-10-07,特定非営利活動法人ちゅーりっぷ,,その他の設立登記法人,静岡県,浜松市中区,名塚町１３４番地の１,,22,131,4300811,,,2022-10-07,清算の結了等,,,2019-11-29,1,,,,,チューリップ,0
2001,7120001162556,登記記録の閉鎖等,0,2022-10-14,2022-10-12,株式会社新生,,株式会社,大阪府,守口市,南寺方東通２丁目９番１号,,27,209,5700043,,,2022-10-12,合併による解散等,6120101000336,令和４年１０月１日大阪府堺市西区浜寺石津町西二丁１番３４号大陽日酸メディカルサイト株式会社（6120101000336）に合併し解散,2015-10-05,1,,,,,,0
2002,7120001175797,登記記録の閉鎖等,0,2022-10-14,2022-10-05,株式会社ｕｒａｔａ,,株式会社,大阪府,大阪市旭区,森小路１丁目３番２５号（シャトー青山２０２号）,,27,117,5350013,,,2022-10-05,清算の結了等,,,2015-10-05,1,,,,,ウラタ,0
2008,7120001234933,登記記録の閉鎖等,0,2022-10-14,2022-10-05,株式会社谷口総合設備,,株式会社,大阪府,大阪市浪速区,日本橋３丁目３番３号５０３,,27,111,5560005,,,2022-10-05,清算の結了等,,,2021-02-03,1,,,,,,0
2021,7120102003213,登記記録の閉鎖等,0,2022-10-14,2022-10-12,辻尾産業有限会社,00032705,有限会社,大阪府,堺市中区,深井畑山町３３６番地９,,27,142,5998248,,,2022-10-12,清算の結了等,,,2015-10-05,1,,,,,ツジオサンギョウ,0
2024,7122001023787,登記記録の閉鎖等,0,2022-10-14,2022-10-07,株式会社中日化成,,株式会社,大阪府,八尾市,南本町８丁目４番３１号,,27,212,5810081,,,2022-10-07,清算の結了等,,,2015-10-05,1,,,,,チュウニチカセイ,0
2035,7140001104564,登記記録の閉鎖等,0,2022-10-14,2022-10-11,株式会社ＳＨＡＬＡＮ,,株式会社,兵庫県,神戸市灘区,篠原中町１丁目５－２３,,28,102,6570066,,,2022-10-11,清算の結了等,,,2017-01-10,1,,,,,,0
2050,7150002000101,登記記録の閉鎖等,0,2022-10-14,2022-10-11,有限会社アド・プロ,,有限会社,奈良県,奈良市,若葉台３丁目１２番６号,,29,201,6310837,,,2022-10-11,清算の結了等,,,2015-10-05,1,,,,,アドプロ,0
2068,7180302009319,登記記録の閉鎖等,0,2022-10-14,2022-09-30,有限会社ビクターズ,,有限会社,愛知県,豊橋市,中岩田２丁目４番地１０,,23,201,4400832,,,2022-09-30,清算の結了等,,,2015-10-05,1,,,,,ビクターズ,0
2075,7180302024425,登記記録の閉鎖等,0,2022-10-14,2022-10-03,有限会社堀建材,,有限会社,愛知県,豊田市,深見町木戸３６９番地１５３,,23,211,4700441,,,2022-10-03,清算の結了等,,,2015-10-05,1,,,,,ホリケンザイ,0
2096,7260002033379,登記記録の閉鎖等,0,2022-10-14,2022-10-13,有限会社余傳鉄工所,,有限会社,岡山県,玉野市,木目２２０番地,,33,204,7060143,,,2022-10-13,清算の結了等,,,2015-10-05,1,,,,,ヨデンテッコウショ,0
2107,7320005007159,登記記録の閉鎖等,0,2022-10-14,2022-09-27,玉井神社,,その他の設立登記法人,大分県,玖珠郡九重町,大字松木１３６８の４の１番地,,44,461,8794632,,,2022-09-27,合併による解散等,1320005007180,令和４年９月２７日大分県玖珠郡九重町大字松木１３７１番地八幡神社（1320005007180）に合併し解散,2015-10-05,1,,,,,,0
2115,7350005002157,登記記録の閉鎖等,0,2022-10-14,2022-10-06,特定非営利活動法人野の花館,,その他の設立登記法人,宮崎県,児湯郡高鍋町,大字北高鍋２６６４番地,,45,401,8840002,,,2022-10-06,清算の結了等,,,2015-10-05,1,,,,,ノノハナカン,0
2119,7360001023313,登記記録の閉鎖等,0,2022-10-14,2022-10-06,株式会社城北不動産,,株式会社,沖縄県,名護市,大西１丁目１８番２２号,,47,209,9050018,,,2022-10-06,合併による解散等,6290001023081,令和４年１０月１日福岡市東区和白二丁目５番２８号株式会社レントハウス不動産（6290001023081）に合併し解散,2017-12-22,1,,,,,ジョウホクフドウサン,0
2126,7380005010966,登記記録の閉鎖等,0,2022-10-14,2022-10-05,特定非営利活動法人とみおか子ども未来ネットワーク,,その他の設立登記法人,福島県,双葉郡富岡町,大字仏浜字西原１６４番地１,,07,543,9791121,,,2022-10-05,清算の結了等,,,2015-10-05,1,,,,,トミオカコドモミライネットワーク,0
2154,8010001178075,登記記録の閉鎖等,0,2022-10-14,2022-10-03,株式会社茶々エージェンシー,,株式会社,東京都,中央区,勝どき５丁目８番４－１１１５号,,13,102,1040054,,,2022-10-03,清算の結了等,,,2016-09-07,1,,,,,チャチャエージェンシー,0
2171,8010403012237,登記記録の閉鎖等,0,2022-10-14,2022-10-13,フィットビット・ジャパン合同会社,,合同会社,東京都,渋谷区,渋谷３丁目２１番３号渋谷ストリーム,,13,113,1500002,,,2022-10-13,清算の結了等,,,2015-10-05,1,,,,,フィットビットジャパン,0
2178,8010502013532,登記記録の閉鎖等,0,2022-10-14,2022-10-11,有限会社ライオン,,有限会社,東京都,台東区,上野６丁目６番５号,,13,106,1100005,,,2022-10-11,清算の結了等,,,2015-10-05,1,,,,,ライオン,0
2180,8010602015247,登記記録の閉鎖等,0,2022-10-14,2022-09-29,有限会社宮崎屋,,有限会社,東京都,墨田区,本所１丁目５番７号,,13,107,1300004,,,2022-09-29,清算の結了等,,,2015-10-05,1,,,,,ミヤザキヤ,0
2201,8011005003459,登記記録の閉鎖等,0,2022-10-14,2022-09-30,一般社団法人継続的医療介護支援機構,,その他の設立登記法人,東京都,渋谷区,代々木２丁目５番４号,,13,113,1510053,,,2022-09-30,清算の結了等,,,2015-10-05,1,,,,,ケイゾクテキイリョウカイゴシエンキコウ,0
2207,8011301004854,登記記録の閉鎖等,0,2022-10-14,2022-10-07,株式会社東京総合設計事務所,,株式会社,東京都,杉並区,上荻２丁目７番８号,,13,115,1670043,,,2022-10-07,清算の結了等,,,2015-10-05,1,,,,,トウキョウソウゴウセッケイジムショ,0
2208,8011401013318,登記記録の閉鎖等,0,2022-10-14,2022-10-11,株式会社イーカム,,株式会社,東京都,板橋区,徳丸１丁目９番１７号,,13,119,1750083,,,2022-10-11,清算の結了等,,,2015-10-05,1,,,,,,0
2228,8012703001398,登記記録の閉鎖等,0,2022-10-14,2022-10-11,合同会社エムワイ,,合同会社,東京都,東村山市,多摩湖町１丁目３６番地２６,,13,213,1890026,,,2022-10-11,清算の結了等,,,2016-12-28,1,,,,,エムワイ,0
2229,8012801009095,登記記録の閉鎖等,0,2022-10-14,2022-10-04,株式会社ＪＥＯＬ　ＲＥＳＯＮＡＮＣＥ,,株式会社,東京都,昭島市,武蔵野３丁目１番２号,,13,207,1960021,,,2022-10-04,合併による解散等,9012801002438,令和４年１０月１日東京都昭島市武蔵野三丁目１番２号日本電子株式会社（9012801002438）に合併し解散,2015-10-05,1,,,,,ジオルレゾナンス,0
2230,8013101007871,登記記録の閉鎖等,0,2022-10-14,2022-10-12,株式会社Ａｌｉｖｅ,,株式会社,東京都,青梅市,東青梅３丁目８番地１２－２０６号室,,13,205,1980042,,,2022-10-12,清算の結了等,,,2018-07-03,1,,,,,アライブ,0
2233,8013301019519,登記記録の閉鎖等,0,2022-10-14,2022-10-03,マーレジャパン株式会社,,株式会社,東京都,豊島区,北大塚１丁目９番１２号,,13,116,1700004,,,2022-10-03,合併による解散等,8013301007523,令和４年１０月１日東京都豊島区北大塚一丁目９番１２号株式会社マーレフィルターシステムズ（8013301007523）に合併し解散,2015-10-05,1,,,,,マーレジャパン,0
2237,8020003010747,登記記録の閉鎖等,0,2022-10-14,2022-10-05,合同会社らしく,,合同会社,神奈川県,川崎市麻生区,はるひ野３丁目３０番１１号,,14,137,2150036,,,2022-10-05,清算の結了等,,,2015-12-17,1,,,,,ラシク,0
2239,8020003013980,登記記録の閉鎖等,0,2022-10-14,2022-10-03,合同会社ブル,,合同会社,神奈川県,横浜市鶴見区,鶴見中央３丁目１－５－１０３,,14,101,2300051,,,2022-10-03,合併による解散等,5020003012143,令和４年１０月１日神奈川県横浜市鶴見区鶴見中央三丁目１番５－１０３号合同会社ｂｒｉｇｈｔｆｕｊｉ（5020003012143）に合併し解散,2018-02-20,1,,,,,ブル,0
2242,8021001007504,登記記録の閉鎖等,0,2022-10-14,2022-10-11,山都商事株式会社,,株式会社,神奈川県,藤沢市,長後１２７８番地の１５,,14,205,2520801,,,2022-10-11,清算の結了等,,,2015-10-05,1,,,,,サントショウジ,0
2276,8040003015430,登記記録の閉鎖等,0,2022-10-14,2022-09-30,合同会社美明日,,合同会社,千葉県,大網白里市,駒込４３８－９,,12,239,2993235,,,2022-09-30,清算の結了等,,,2020-06-25,1,,,,,ビアス,0
2283,8060001018268,登記記録の閉鎖等,0,2022-10-14,2022-10-05,株式会社足利ラン草園,,株式会社,栃木県,佐野市,赤見町４２８８番地１,,09,204,3270104,,,2022-10-05,清算の結了等,,,2015-10-05,1,,,,,アシカガランソウエン,0
2295,8080005004031,登記記録の閉鎖等,0,2022-10-14,2022-10-12,特定非営利活動法人ドリーム・ガーデニング・ネット,,その他の設立登記法人,静岡県,静岡市清水区,山切４２番地の２５,,22,103,4240105,,,2022-10-12,清算の結了等,,,2015-10-05,1,,,,,ドリームガーデニングネット,0
2306,8120001067787,登記記録の閉鎖等,0,2022-10-14,2022-10-06,株式会社東洋スタンダード,,株式会社,大阪府,大阪市北区,西天満２丁目９番８号,,27,127,5300047,,,2022-10-06,清算の結了等,,,2015-10-05,1,,,,,,0
2316,8120003021123,登記記録の閉鎖等,0,2022-10-14,2022-10-06,合同会社訪問介護ニコニコ,,合同会社,大阪府,大阪市西区,川口４丁目２番６号,,27,106,5500021,,,2022-10-06,清算の結了等,,,2022-02-10,1,,,,,ホウモンカイゴニコニコ,0
2319,8120101031651,登記記録の閉鎖等,0,2022-10-14,2022-10-12,株式会社和孝,,株式会社,大阪府,富田林市,久野喜台２丁目５番１３号,,27,214,5840074,,,2022-10-12,清算の結了等,,,2015-10-05,1,,,,,ワコウ,0
2320,8120101051765,登記記録の閉鎖等,0,2022-10-14,2022-10-11,エム・アンド・ブレイン株式会社,,株式会社,大阪府,河内長野市,緑ケ丘北町２２番８号,,27,216,5860081,,,2022-10-11,清算の結了等,,,2015-10-05,1,,,,,エムアンドブレイン,0
2327,8122002000702,登記記録の閉鎖等,0,2022-10-14,2022-10-07,有限会社エヌテー,,有限会社,大阪府,東大阪市,菱屋西６丁目２番２８号,,27,227,5770807,,,2022-10-07,清算の結了等,,,2015-10-05,1,,,,,エヌテー,0
2328,8122002017102,登記記録の閉鎖等,0,2022-10-14,2022-10-11,ライフ園芸有限会社,,有限会社,大阪府,八尾市,服部川７丁目１１８番地,,27,212,5810865,,,2022-10-11,清算の結了等,,,2015-10-05,1,,,,,ライフエンゲイ,0
2330,8130001011001,登記記録の閉鎖等,0,2022-10-14,2022-10-12,双林株式会社,,株式会社,京都府,京都市南区,上鳥羽北中ノ坪町２番地,,26,107,6018106,,,2022-10-12,合併による解散等,7120001058969,令和４年１０月１日大阪市淀川区木川東四丁目１７番３１号株式会社遊文舎（7120001058969）に合併し解散,2015-10-05,1,,,,,ソウリン,0
2340,8140001020488,登記記録の閉鎖等,0,2022-10-14,2022-10-13,株式会社アセット,,株式会社,大阪府,吹田市,春日１丁目１番１８号,,27,205,5650853,,,2022-10-13,清算の結了等,,,2015-10-05,1,,,,,アセット,0
2344,8140002062678,登記記録の閉鎖等,0,2022-10-14,2022-10-07,有限会社イチエダ,,有限会社,兵庫県,小野市,山田町１０６３番地,,28,218,6751321,,,2022-10-07,清算の結了等,,,2015-10-05,1,,,,,イチエダ,0
2348,8160001022251,登記記録の閉鎖等,0,2022-10-14,2022-10-11,株式会社ｍｏｔｏＤＡ,,株式会社,滋賀県,守山市,欲賀町１２３５－６２,,25,207,5240063,,,2022-10-11,清算の結了等,,,2020-01-28,1,,,,,モトダ,0
2349,8160002007094,登記記録の閉鎖等,0,2022-10-14,2022-10-12,有限会社やぎや,,有限会社,滋賀県,長浜市,加田町２３８１番地,,25,203,5260828,,,2022-10-12,清算の結了等,,,2015-10-05,1,,,,,,0
2357,8180003004642,登記記録の閉鎖等,0,2022-10-14,2022-10-04,合同会社メディカルケイ,,合同会社,愛知県,名古屋市中村区,寿町３１番地,,23,105,4530028,,,2022-10-04,合併による解散等,7010001224945,令和４年１０月１日名古屋市中村区太閤通四丁目１番地地域医療発展支援株式会社（7010001224945）に合併し解散,2015-10-05,1,,,,,メディカルケイ,0
2359,8180301010937,登記記録の閉鎖等,0,2022-10-14,2022-10-03,株式会社蒲サ食品,,株式会社,愛知県,蒲郡市,西浦町川東３１番地,,23,214,4430105,,,2022-10-03,清算の結了等,,,2015-10-05,1,,,,,ガマサショクヒン,0
2376,8210002010646,登記記録の閉鎖等,0,2022-10-14,2022-10-05,有限会社平成住宅,,有限会社,福井県,敦賀市,山泉２８号４番地の２８,,18,202,9140035,,,2022-10-05,清算の結了等,,,2015-10-05,1,,,,,ヘイセイジュウタク,0
2397,8330005003593,登記記録の閉鎖等,0,2022-10-14,2022-10-07,特定非営利活動法人よんなっせ山鹿,,その他の設立登記法人,熊本県,山鹿市,古閑１３１２番地３,,43,208,8610533,,,2022-10-07,清算の結了等,,,2015-10-05,1,,,,,ヨンナッセヤマガ,0
2398,8340001019997,登記記録の閉鎖等,0,2022-10-14,2022-10-13,株式会社来福堂ヒロ,,株式会社,鹿児島県,姶良市,蒲生町下久徳６８２番地５,00109019,46,225,8995304,,,2022-10-13,清算の結了等,,,2017-01-23,1,,,,,,0
2402,8360001025135,登記記録の閉鎖等,0,2022-10-14,2022-10-06,株式会社Ｄ．Ｆｉｅｌｄ,,株式会社,沖縄県,豊見城市,字豊崎１番地８０１,,47,212,9010225,,,2022-10-06,清算の結了等,,,2019-01-23,1,,,,,ディーフィールド,0
2411,8370302002815,登記記録の閉鎖等,0,2022-10-14,2022-10-05,有限会社キューマウエットスーツ,,有限会社,宮城県,石巻市,鹿妻南４丁目１番６９号,,04,202,9860042,,,2022-10-05,清算の結了等,,,2015-10-05,1,,,,,キューマウエットスーツ,0
2413,8370601000230,登記記録の閉鎖等,0,2022-10-14,2022-10-03,株式会社晃信建設,,株式会社,宮城県,塩竈市,白菊町６番４３号,,04,203,9850041,,,2022-10-03,清算の結了等,,,2015-10-05,1,,,,,コウシンケンセツ,0
2423,8400002011690,登記記録の閉鎖等,0,2022-10-14,2022-10-11,有限会社高友商店,00085666,有限会社,岩手県,釜石市,大只越町２丁目４番２８号,,03,211,0260022,,,2022-10-11,清算の結了等,,,2015-10-05,1,,,,,タカトモショウテン,0
2424,8410001001618,登記記録の閉鎖等,0,2022-10-14,2022-10-11,株式会社大勇,,株式会社,秋田県,秋田市,手形字大沢４４番地１６,,05,201,0100851,,,2022-10-11,清算の結了等,,,2015-10-05,1,,,,,ダイユウ,0
2427,8420001001971,登記記録の閉鎖等,0,2022-10-14,2022-10-06,株式会社マツオデザイン,,株式会社,青森県,青森市,長島４丁目６番５号,,02,201,0300861,,,2022-10-06,清算の結了等,,,2015-10-05,1,,,,,マツオデザイン,0
2449,9010001171104,登記記録の閉鎖等,0,2022-10-14,2022-10-06,株式会社ファビュラスギターズ,,株式会社,東京都,文京区,湯島３丁目３５番１３号Ｂ１Ｆ,,13,105,1130034,,,2022-10-06,清算の結了等,,,2015-10-27,1,,,,,ファビュラスギターズ,0
2462,9010401037623,登記記録の閉鎖等,0,2022-10-14,2022-10-04,東芝電力システムエージェンシー株式会社,,株式会社,神奈川県,川崎市幸区,堀川町７２番地３４,,14,132,2120013,,,2022-10-04,合併による解散等,7020001121200,令和４年１０月１日神奈川県川崎市幸区堀川町７２番地３４東芝エネルギーシステムズ株式会社（7020001121200）に合併し解散,2015-10-05,1,,,,,トウシバデンリョクシステムエージェンシー,0
2492,9011001104359,登記記録の閉鎖等,0,2022-10-14,2022-10-04,株式会社ロゼリーニ,,株式会社,千葉県,松戸市,栗山１５３番地,,12,207,2710097,,,2022-10-04,清算の結了等,,,2015-10-05,1,,,,,ロゼリーニ,0
2504,9011101036428,登記記録の閉鎖等,0,2022-10-14,2022-10-03,株式会社ＡＶＳ,,株式会社,東京都,渋谷区,笹塚１丁目５０番１号,00104214,13,113,1510073,,,2022-10-03,清算の結了等,,,2015-10-05,1,,,,,エーブイエス,0
2505,9011101042962,登記記録の閉鎖等,0,2022-10-14,2022-10-11,株式会社エーブルヒント,,株式会社,東京都,新宿区,西新宿３丁目１番５号,,13,104,1600023,,,2022-10-11,清算の結了等,,,2015-10-05,1,,,,,エーブルヒント,0
2510,9011102022492,登記記録の閉鎖等,0,2022-10-14,2022-10-12,有限会社フジキャピタル,,有限会社,東京都,新宿区,新宿１丁目１番４－８０２号,,13,104,1600022,,,2022-10-12,合併による解散等,4380001004710,令和４年１０月１日福島県郡山市中町１１番１０号エリート株式会社（4380001004710）に合併し解散,2015-10-05,1,,,,,フジキャピタル,0
2513,9011305002705,登記記録の閉鎖等,0,2022-10-14,2022-10-06,一般社団法人日本借入支援機構,,その他の設立登記法人,東京都,杉並区,阿佐谷南１丁目１４番５号,,13,115,1660004,,,2022-10-06,清算の結了等,,,2021-01-26,1,,,,,ニホンカリイレシエンキコウ,0
2515,9011501004067,登記記録の閉鎖等,0,2022-10-14,2022-10-05,株式会社フォワード,,株式会社,東京都,北区,昭和町２丁目１３番１４号,,13,117,1140011,,,2022-10-05,清算の結了等,,,2015-10-05,1,,,,,フォワード,0
2530,9013301032173,登記記録の閉鎖等,0,2022-10-14,2022-10-12,ノーベックス株式会社,,株式会社,東京都,豊島区,駒込１丁目３番２号,,13,116,1700003,,,2022-10-12,清算の結了等,,,2015-10-05,1,,,,,ノーベックス,0
2534,9013402003651,登記記録の閉鎖等,0,2022-10-14,2022-10-11,有限会社高橋機械,,有限会社,東京都,稲城市,矢野口９２０番地,,13,225,2060812,,,2022-10-11,清算の結了等,,,2015-10-05,1,,,,,タカハシキカイ,0
2552,9030001060206,登記記録の閉鎖等,0,2022-10-14,2022-10-03,株式会社クリエイト,,株式会社,埼玉県,本庄市,寿３丁目７番１４号,,11,211,3670023,,,2022-10-03,清算の結了等,,,2015-10-05,1,,,,,クリエイト,0
2605,9100001002209,登記記録の閉鎖等,0,2022-10-14,2022-10-12,株式会社トランス・エース,,株式会社,長野県,長野市,篠ノ井御幣川字行之橋８８８番地の１,,20,201,3888006,,,2022-10-12,清算の結了等,,,2015-10-05,1,,,,,トランスエース,0
2616,9120001148256,登記記録の閉鎖等,0,2022-10-14,2022-10-05,株式会社寺西米穀店,,株式会社,大阪府,寝屋川市,三井南町２９番９号,,27,215,5720019,,,2022-10-05,清算の結了等,,,2015-10-05,1,,,,,テラニシベイコクテン,0
2644,9122002003407,登記記録の閉鎖等,0,2022-10-14,2022-10-11,有限会社東倫,,有限会社,大阪府,東大阪市,長田２丁目５番１７号,,27,227,5770015,,,2022-10-11,清算の結了等,,,2015-10-05,1,,,,,トウリン,0
2669,9140005022744,登記記録の閉鎖等,0,2022-10-14,2022-10-11,一般社団法人空き家まちづくり協会,,その他の設立登記法人,兵庫県,豊岡市,岩井１７０５番地,,28,209,6680081,,,2022-10-11,清算の結了等,,,2016-01-06,1,,,,,アキヤマチヅクリキョウカイ,0
2693,9180301033441,登記記録の閉鎖等,0,2022-10-14,2022-09-29,株式会社やまき,,株式会社,愛知県,碧南市,若松町２丁目２０２番地,,23,209,4470836,,,2022-09-29,清算の結了等,,,2020-02-20,1,,,,,ヤマキ,0
2702,9200001031008,登記記録の閉鎖等,0,2022-10-14,2022-10-11,大井ソリューション株式会社,,株式会社,岐阜県,恵那市,長島町永田３４１番地２０,,21,210,5097204,,,2022-10-11,清算の結了等,,,2015-10-05,1,,,,,オオイソリューション,0
2733,9310001012137,登記記録の閉鎖等,0,2022-10-14,2022-10-11,株式会社感謝会,,株式会社,長崎県,長崎市,戸石町２５４０番地７,,42,201,8510113,,,2022-10-11,清算の結了等,,,2015-10-05,1,,,,,カンシャカイ,0
2734,9310002001353,登記記録の閉鎖等,0,2022-10-14,2022-10-13,有限会社技研スペース,,有限会社,長崎県,長崎市,江平２丁目１５番２９号,,42,201,8528101,,,2022-10-13,清算の結了等,,,2015-10-05,1,,,,,ギケンスペース,0
2738,9330002016531,登記記録の閉鎖等,0,2022-10-14,2022-10-06,有限会社吉武酒店,,有限会社,熊本県,菊池郡大津町,大字大津１１４９番地,,43,403,8691233,,,2022-10-06,清算の結了等,,,2015-10-05,1,,,,,ヨシタケサケテン,0
2742,9350003000607,登記記録の閉鎖等,0,2022-10-14,2022-10-05,合資会社聡建,,合資会社,宮崎県,宮崎市,大塚台西１丁目１番地３２セラヴイ大塚台１－７０８号,,45,201,8802105,,,2022-10-05,清算の結了等,,,2015-10-05,1,,,,,ソウケン,0
2752,9370002009275,登記記録の閉鎖等,0,2022-10-14,2022-10-03,有限会社アイザワオプティカル,,有限会社,宮城県,仙台市青葉区,一番町３丁目５番２３号,,04,101,9800811,,,2022-10-03,合併による解散等,2370001010562,令和４年１０月１日仙台市青葉区一番町三丁目５番２３号株式会社メガネの相沢（2370001010562）に合併し解散,2015-10-05,1,,,,,アイザワオプティカル,0
2755,9380001012667,登記記録の閉鎖等,0,2022-10-14,2022-10-05,金子興産株式会社,,株式会社,福島県,いわき市,平字下の町８番地の１ネオグランデいわき中央４０１,,07,204,9708026,,,2022-10-05,清算の結了等,,,2015-10-05,1,,,,,カネココウサン,0
2757,9380002032689,登記記録の閉鎖等,0,2022-10-14,2022-10-05,有限会社日新堂パン店,,有限会社,福島県,会津若松市,大町２丁目７番２号,,07,202,9650042,,,2022-10-05,清算の結了等,,,2015-10-05,1,,,,,ニッシンドウパンテン,0
2774,9470002007112,登記記録の閉鎖等,0,2022-10-14,2022-10-13,有限会社ＺＥＮ　Ｓｔｙｌｅ＆Ｃｏ．,,有限会社,香川県,高松市,川島東町２１７４番地６７,,37,201,7610443,,,2022-10-13,清算の結了等,,,2015-10-05,1,,,,,ゼンスタイルアンドシーオードット,0
